<?xml version="1.0" encoding="UTF-8"?>
<seiscomp xmlns="http://geofon.gfz-potsdam.de/ns/seiscomp3-schema/0.13" version="0.13"><EventParameters><pick publicID="de.gempa.tb1.Pick/20250414001203.819605.134481"><time><value>2025-04-14T00:11:58.138393Z</value></time><waveformID networkCode="CX" stationCode="PB01" channelCode="HHZ"/><filterID>ITAPER(4)&gt;&gt;BW(4,4,20)</filterID><methodID>AIC</methodID><horizontalSlowness><value>20.95582322384229</value></horizontalSlowness><backazimuth><value>153.93415329390993</value></backazimuth><phaseHint>P</phaseHint><evaluationMode>automatic</evaluationMode><comment><text>4.275390385330869</text><id>DFX:rectilinearity</id></comment><comment><text>32.99079639779311</text><id>SNR</id></comment></pick><pick publicID="de.gempa.tb1.Pick/20250414001209.709739.134483"><time><value>2025-04-14T00:12:02.498393Z</value></time><waveformID networkCode="CX" stationCode="PB02" channelCode="HHZ"/><filterID>ITAPER(4)&gt;&gt;BW(4,4,20)</filterID><methodID>AIC</methodID><horizontalSlowness><value>17.913977383837768</value></horizontalSlowness><backazimuth><value>35.31489427825028</value></backazimuth><phaseHint>P</phaseHint><evaluationMode>automatic</evaluationMode><comment><text>44.41403090599242</text><id>DFX:rectilinearity</id></comment><comment><text>19.838121457411237</text><id>SNR</id></comment></pick><pick publicID="de.gempa.tb1.Pick/20250414001212.255265.134485"><time><value>2025-04-14T00:12:05.749999Z</value></time><waveformID networkCode="CX" stationCode="PATCX" channelCode="HHZ"/><filterID>ITAPER(4)&gt;&gt;BW(4,4,20)</filterID><methodID>AIC</methodID><horizontalSlowness><value>19.280851765857346</value></horizontalSlowness><backazimuth><value>57.36558641218475</value></backazimuth><phaseHint>P</phaseHint><evaluationMode>automatic</evaluationMode><comment><text>400.29647397046045</text><id>DFX:rectilinearity</id></comment><comment><text>8.506426163917109</text><id>SNR</id></comment></pick><pick publicID="de.gempa.tb1.Pick/20250414001217.145166.134487"><time><value>2025-04-14T00:12:00.7Z</value></time><waveformID networkCode="CX" stationCode="PB09" channelCode="HHZ"/><filterID>ITAPER(4)&gt;&gt;BW(4,4,20)</filterID><methodID>AIC</methodID><horizontalSlowness><value>17.80987047113593</value></horizontalSlowness><backazimuth><value>301.4298579559353</value></backazimuth><phaseHint>P</phaseHint><evaluationMode>automatic</evaluationMode><comment><text>12.187214605961085</text><id>DFX:rectilinearity</id></comment><comment><text>21.561616343453206</text><id>SNR</id></comment></pick><pick publicID="de.gempa.tb1.Pick/20250414001217.397258.134489"><time><value>2025-04-14T00:12:03.988393Z</value></time><waveformID networkCode="CX" stationCode="PB07" channelCode="HHZ"/><filterID>ITAPER(4)&gt;&gt;BW(4,4,20)</filterID><methodID>AIC</methodID><horizontalSlowness><value>20.46812002960997</value></horizontalSlowness><backazimuth><value>21.285482463220404</value></backazimuth><phaseHint>P</phaseHint><evaluationMode>automatic</evaluationMode><comment><text>214.49624830056217</text><id>DFX:rectilinearity</id></comment><comment><text>20.748213260239066</text><id>SNR</id></comment></pick><pick publicID="de.gempa.tb1.Pick/20250414001218.035406.134491"><time><value>2025-04-14T00:12:11.478393Z</value></time><waveformID networkCode="CX" stationCode="PB01" channelCode="HHN"/><filterID>ITAPER(2)&gt;&gt;BW(3,3,20)</filterID><methodID>L2-AIC-GRID</methodID><horizontalSlowness><value>16.743840121008443</value></horizontalSlowness><backazimuth><value>339.707677838175</value></backazimuth><phaseHint>S</phaseHint><evaluationMode>automatic</evaluationMode><comment><text>17.367080392172014</text><id>DFX:rectilinearity</id></comment><comment><text>de.gempa.tb1.Pick/20250414001203.819605.134481</text><id>RefPickID</id></comment><comment><text>5.061247100531598</text><id>SNR</id></comment></pick><pick publicID="de.gempa.tb1.Pick/20250414001221.791085.134492"><time><value>2025-04-14T00:12:12.53Z</value></time><waveformID networkCode="CX" stationCode="PSGCX" channelCode="HHZ"/><filterID>ITAPER(4)&gt;&gt;BW(4,4,20)</filterID><methodID>AIC</methodID><horizontalSlowness><value>12.69523969208345</value></horizontalSlowness><backazimuth><value>90.39656645313957</value></backazimuth><phaseHint>P</phaseHint><evaluationMode>automatic</evaluationMode><comment><text>32.40561682931743</text><id>DFX:rectilinearity</id></comment><comment><text>11.743746872478441</text><id>SNR</id></comment></pick><origin publicID="de.gempa.tb1.Origin/20250414001223.857039.121856"><time><value>2025-04-14T00:11:41.329601Z</value><uncertainty>1.3946807384490967</uncertainty></time><latitude><value>-21.034305572509766</value><uncertainty>8.646604537963867</uncertainty></latitude><longitude><value>-68.78079986572266</value><uncertainty>19.87197494506836</uncertainty></longitude><depth><value>99.83045196533203</value><uncertainty>13.806304931640625</uncertainty></depth><depthType>from location</depthType><methodID>LOCSAT</methodID><earthModelID>iasp91_scanloc</earthModelID><quality><associatedPhaseCount>7</associatedPhaseCount><usedPhaseCount>7</usedPhaseCount><associatedStationCount>6</associatedStationCount><usedStationCount>6</usedStationCount><depthPhaseCount>0</depthPhaseCount><standardError>0.3264343919890525</standardError><azimuthalGap>251.06854248046875</azimuthalGap><maximumDistance>1.905584692955017</maximumDistance><minimumDistance>0.6601200699806213</minimumDistance><medianDistance>1.078870415687561</medianDistance></quality><uncertainty><minHorizontalUncertainty>15.764060020446777</minHorizontalUncertainty><maxHorizontalUncertainty>43.72060775756836</maxHorizontalUncertainty><azimuthMaxHorizontalUncertainty>76.146728515625</azimuthMaxHorizontalUncertainty><preferredDescription>horizontal uncertainty</preferredDescription></uncertainty><evaluationMode>automatic</evaluationMode><evaluationStatus>confirmed</evaluationStatus><comment><text>0.17</text><id>mismatchScore</id></comment><comment><text>mismatchScore</text><id>scevalMethod</id></comment><arrival><pickID>de.gempa.tb1.Pick/20250414001203.819605.134481</pickID><phase>P</phase><azimuth>269.1031494140625</azimuth><distance>0.6601200699806213</distance><timeResidual>-0.2299613952636719</timeResidual><timeUsed>true</timeUsed><horizontalSlownessUsed>false</horizontalSlownessUsed><backazimuthUsed>false</backazimuthUsed><weight>1</weight></arrival><arrival><pickID>de.gempa.tb1.Pick/20250414001209.709739.134483</pickID><phase>P</phase><azimuth>254.53746032714844</azimuth><distance>1.078870415687561</distance><timeResidual>-0.09833526611328125</timeResidual><timeUsed>true</timeUsed><horizontalSlownessUsed>false</horizontalSlownessUsed><backazimuthUsed>false</backazimuthUsed><weight>1</weight></arrival><arrival><pickID>de.gempa.tb1.Pick/20250414001212.255265.134485</pickID><phase>P</phase><azimuth>279.16400146484375</azimuth><distance>1.30014169216156</distance><timeResidual>0.5974845886230469</timeResidual><timeUsed>true</timeUsed><horizontalSlownessUsed>false</horizontalSlownessUsed><backazimuthUsed>false</backazimuthUsed><weight>1</weight></arrival><arrival><pickID>de.gempa.tb1.Pick/20250414001217.145166.134487</pickID><phase>P</phase><azimuth>209.45260620117188</azimuth><distance>0.8715845942497253</distance><timeResidual>0.32550048828125</timeResidual><timeUsed>true</timeUsed><horizontalSlownessUsed>false</horizontalSlownessUsed><backazimuthUsed>false</backazimuthUsed><weight>1</weight></arrival><arrival><pickID>de.gempa.tb1.Pick/20250414001217.397258.134489</pickID><phase>P</phase><azimuth>236.0283508300781</azimuth><distance>1.2393471002578735</distance><timeResidual>-0.44378662109375</timeResidual><timeUsed>true</timeUsed><horizontalSlownessUsed>false</horizontalSlownessUsed><backazimuthUsed>false</backazimuthUsed><weight>1</weight></arrival><arrival><pickID>de.gempa.tb1.Pick/20250414001218.035406.134491</pickID><phase>S</phase><azimuth>269.1031494140625</azimuth><distance>0.6601200699806213</distance><timeResidual>0.002117156982421875</timeResidual><timeUsed>true</timeUsed><horizontalSlownessUsed>false</horizontalSlownessUsed><backazimuthUsed>false</backazimuthUsed><weight>1</weight></arrival><arrival><pickID>de.gempa.tb1.Pick/20250414001221.791085.134492</pickID><phase>P</phase><azimuth>318.3840637207031</azimuth><distance>1.905584692955017</distance><timeResidual>-0.1532135009765625</timeResidual><timeUsed>true</timeUsed><horizontalSlownessUsed>false</horizontalSlownessUsed><backazimuthUsed>false</backazimuthUsed><weight>1</weight></arrival><magnitude publicID="de.gempa.tb1.Magnitude/20250414001230.936395.412370"><magnitude><value>2.3926467542614915</value></magnitude><type>M</type><methodID>weighted average</methodID><stationCount>2</stationCount></magnitude></origin><event publicID="gempa2025higq"><preferredOriginID>de.gempa.tb1.Origin/20250414001223.857039.121856</preferredOriginID><preferredMagnitudeID>de.gempa.tb1.Magnitude/20250414001230.936395.412370</preferredMagnitudeID><type>mining explosion</type><description><text>Chile-Bolivia Border Region</text><type>region name</type></description><originReference>de.gempa.tb1.Origin/20250414001223.857039.121856</originReference></event></EventParameters></seiscomp>