<?xml version="1.0" encoding="UTF-8"?>
<seiscomp xmlns="http://geofon.gfz-potsdam.de/ns/seiscomp3-schema/0.13" version="0.13"><EventParameters><pick publicID="de.gempa.tb1.Pick/20250411165503.486593.118806"><time><value>2025-04-11T16:54:55.89Z</value></time><waveformID networkCode="CX" stationCode="PB09" channelCode="HHZ"/><filterID>ITAPER(4)&gt;&gt;BW(4,4,20)</filterID><methodID>AIC</methodID><horizontalSlowness><value>17.845337449309774</value></horizontalSlowness><backazimuth><value>303.6729518818773</value></backazimuth><phaseHint>P</phaseHint><evaluationMode>automatic</evaluationMode><comment><text>29.61441523699301</text><id>DFX:rectilinearity</id></comment><comment><text>13.88053119375324</text><id>SNR</id></comment></pick><pick publicID="de.gempa.tb1.Pick/20250411165504.587323.118808"><time><value>2025-04-11T16:54:52.088394Z</value></time><waveformID networkCode="CX" stationCode="PB01" channelCode="HHZ"/><filterID>ITAPER(4)&gt;&gt;BW(4,4,20)</filterID><methodID>AIC</methodID><horizontalSlowness><value>16.908629092421176</value></horizontalSlowness><backazimuth><value>75.43306360290087</value></backazimuth><phaseHint>P</phaseHint><evaluationMode>automatic</evaluationMode><comment><text>122.51935013453317</text><id>DFX:rectilinearity</id></comment><comment><text>10.400968585510473</text><id>SNR</id></comment></pick><pick publicID="de.gempa.tb1.Pick/20250411165505.533216.118810"><time><value>2025-04-11T16:54:59.598393Z</value></time><waveformID networkCode="CX" stationCode="PB02" channelCode="HHZ"/><filterID>ITAPER(4)&gt;&gt;BW(4,4,20)</filterID><methodID>AIC</methodID><horizontalSlowness><value>13.437735599511246</value></horizontalSlowness><backazimuth><value>61.38153281131582</value></backazimuth><phaseHint>P</phaseHint><evaluationMode>automatic</evaluationMode><comment><text>207.585068797043</text><id>DFX:rectilinearity</id></comment><comment><text>13.203858840598325</text><id>SNR</id></comment></pick><pick publicID="de.gempa.tb1.Pick/20250411165509.733576.118812"><time><value>2025-04-11T16:55:02.888396Z</value></time><waveformID networkCode="CX" stationCode="PB07" channelCode="HHZ"/><filterID>ITAPER(4)&gt;&gt;BW(4,4,20)</filterID><methodID>AIC</methodID><horizontalSlowness><value>19.08707544181969</value></horizontalSlowness><backazimuth><value>81.18228556094743</value></backazimuth><phaseHint>P</phaseHint><evaluationMode>automatic</evaluationMode><comment><text>545.8289186035412</text><id>DFX:rectilinearity</id></comment><comment><text>10.162736587413015</text><id>SNR</id></comment></pick><pick publicID="de.gempa.tb1.Pick/20250411165510.550043.118814"><time><value>2025-04-11T16:55:04.738394Z</value></time><waveformID networkCode="CX" stationCode="PB03" channelCode="HHZ"/><filterID>ITAPER(4)&gt;&gt;BW(4,4,20)</filterID><methodID>AIC</methodID><horizontalSlowness><value>11.493098697397482</value></horizontalSlowness><backazimuth><value>35.279128686528253</value></backazimuth><phaseHint>P</phaseHint><evaluationMode>automatic</evaluationMode><comment><text>27.22839712691524</text><id>DFX:rectilinearity</id></comment><comment><text>9.550998599849613</text><id>SNR</id></comment></pick><pick publicID="de.gempa.tb1.Pick/20250411165510.600824.118816"><time><value>2025-04-11T16:55:02.998394Z</value></time><waveformID networkCode="CX" stationCode="PB01" channelCode="HHN"/><filterID>ITAPER(2)&gt;&gt;BW(3,3,20)</filterID><methodID>L2-AIC-GRID</methodID><horizontalSlowness><value>17.435060787223708</value></horizontalSlowness><backazimuth><value>83.23521237746434</value></backazimuth><phaseHint>S</phaseHint><evaluationMode>automatic</evaluationMode><comment><text>1102.4075324978205</text><id>DFX:rectilinearity</id></comment><comment><text>de.gempa.tb1.Pick/20250411165504.587323.118808</text><id>RefPickID</id></comment><comment><text>5.580479802132286</text><id>SNR</id></comment></pick><pick publicID="de.gempa.tb1.Pick/20250411165519.463439.118817"><time><value>2025-04-11T16:55:07.45Z</value></time><waveformID networkCode="CX" stationCode="PB09" channelCode="HHN"/><filterID>ITAPER(2)&gt;&gt;BW(3,3,20)</filterID><methodID>L2-AIC-GRID</methodID><horizontalSlowness><value>15.570731631932043</value></horizontalSlowness><backazimuth><value>327.26707288896773</value></backazimuth><phaseHint>S</phaseHint><evaluationMode>automatic</evaluationMode><comment><text>751.4036015256161</text><id>DFX:rectilinearity</id></comment><comment><text>de.gempa.tb1.Pick/20250411165503.486593.118806</text><id>RefPickID</id></comment><comment><text>5.2055186817162</text><id>SNR</id></comment></pick><pick publicID="de.gempa.tb1.Pick/20250411165519.550712.118818"><time><value>2025-04-11T16:55:11.098393Z</value></time><waveformID networkCode="CX" stationCode="PB02" channelCode="HHN"/><filterID>ITAPER(2)&gt;&gt;BW(3,3,20)</filterID><methodID>L2-AIC-GRID</methodID><horizontalSlowness><value>12.762365778327412</value></horizontalSlowness><backazimuth><value>51.64977331628521</value></backazimuth><phaseHint>S</phaseHint><evaluationMode>automatic</evaluationMode><comment><text>4698.139303245563</text><id>DFX:rectilinearity</id></comment><comment><text>de.gempa.tb1.Pick/20250411165505.533216.118810</text><id>RefPickID</id></comment><comment><text>5.870226361580505</text><id>SNR</id></comment></pick><pick publicID="de.gempa.tb1.Pick/20250411165523.768899.118822"><time><value>2025-04-11T16:55:12.61Z</value></time><waveformID networkCode="CX" stationCode="PSGCX" channelCode="HHZ"/><filterID>ITAPER(4)&gt;&gt;BW(4,4,20)</filterID><methodID>AIC</methodID><horizontalSlowness><value>16.57823982280431</value></horizontalSlowness><backazimuth><value>126.68851538745193</value></backazimuth><phaseHint>P</phaseHint><evaluationMode>automatic</evaluationMode><comment><text>70.30110424300973</text><id>DFX:rectilinearity</id></comment><comment><text>12.319991211069906</text><id>SNR</id></comment></pick><pick publicID="de.gempa.tb1.Pick/20250411165528.600497.118828"><time><value>2025-04-11T16:55:16.108394Z</value></time><waveformID networkCode="CX" stationCode="PB03" channelCode="HHN"/><filterID>ITAPER(2)&gt;&gt;BW(3,3,20)</filterID><methodID>L2-AIC-GRID</methodID><horizontalSlowness><value>11.188914363693899</value></horizontalSlowness><backazimuth><value>30.567124811848544</value></backazimuth><phaseHint>S</phaseHint><evaluationMode>automatic</evaluationMode><comment><text>390.2655791493142</text><id>DFX:rectilinearity</id></comment><comment><text>de.gempa.tb1.Pick/20250411165510.550043.118814</text><id>RefPickID</id></comment><comment><text>5.136243735896193</text><id>SNR</id></comment></pick><pick publicID="de.gempa.tb1.Pick/20250411165532.43898.118829"><time><value>2025-04-11T16:55:14.748396Z</value></time><waveformID networkCode="CX" stationCode="PB07" channelCode="HHN"/><filterID>ITAPER(2)&gt;&gt;BW(3,3,20)</filterID><methodID>L2-AIC-GRID</methodID><horizontalSlowness><value>19.66398894096707</value></horizontalSlowness><backazimuth><value>95.80705107595334</value></backazimuth><phaseHint>S</phaseHint><evaluationMode>automatic</evaluationMode><comment><text>11302.259142138882</text><id>DFX:rectilinearity</id></comment><comment><text>de.gempa.tb1.Pick/20250411165509.733576.118812</text><id>RefPickID</id></comment><comment><text>6.70430209649976</text><id>SNR</id></comment></pick><origin publicID="de.gempa.tb1.Origin/20250411165532.442656.60902"><time><value>2025-04-11T16:54:43.380793Z</value><uncertainty>0.8109376430511475</uncertainty></time><latitude><value>-21.146257400512695</value><uncertainty>3.4251959323883057</uncertainty></latitude><longitude><value>-68.98606872558594</value><uncertainty>6.261859893798828</uncertainty></longitude><depth><value>44.54726791381836</value><uncertainty>12.954952239990234</uncertainty></depth><depthType>from location</depthType><methodID>LOCSAT</methodID><earthModelID>iasp91_scanloc</earthModelID><quality><associatedPhaseCount>11</associatedPhaseCount><usedPhaseCount>11</usedPhaseCount><associatedStationCount>6</associatedStationCount><usedStationCount>6</usedStationCount><depthPhaseCount>0</depthPhaseCount><standardError>1.1952907451160335</standardError><azimuthalGap>235.06285095214844</azimuthalGap><maximumDistance>1.8743358850479126</maximumDistance><minimumDistance>0.4792295098304749</minimumDistance><medianDistance>0.8662986159324646</medianDistance></quality><uncertainty><minHorizontalUncertainty>7.309174537658691</minHorizontalUncertainty><maxHorizontalUncertainty>13.45819091796875</maxHorizontalUncertainty><azimuthMaxHorizontalUncertainty>86.09805297851562</azimuthMaxHorizontalUncertainty><preferredDescription>horizontal uncertainty</preferredDescription></uncertainty><evaluationMode>automatic</evaluationMode><evaluationStatus>confirmed</evaluationStatus><comment><text>0.13</text><id>mismatchScore</id></comment><comment><text>mismatchScore</text><id>scevalMethod</id></comment><arrival><pickID>de.gempa.tb1.Pick/20250411165503.486593.118806</pickID><phase>P</phase><azimuth>200.17591857910156</azimuth><distance>0.6894227266311646</distance><timeResidual>-0.902003288269043</timeResidual><timeUsed>true</timeUsed><horizontalSlownessUsed>false</horizontalSlownessUsed><backazimuthUsed>false</backazimuthUsed><weight>1</weight></arrival><arrival><pickID>de.gempa.tb1.Pick/20250411165504.587323.118808</pickID><phase>P</phase><azimuth>282.26214599609375</azimuth><distance>0.4792295098304749</distance><timeResidual>-1.9836091995239258</timeResidual><timeUsed>true</timeUsed><horizontalSlownessUsed>false</horizontalSlownessUsed><backazimuthUsed>false</backazimuthUsed><weight>1</weight></arrival><arrival><pickID>de.gempa.tb1.Pick/20250411165505.533216.118810</pickID><phase>P</phase><azimuth>258.3430480957031</azimuth><distance>0.8662986159324646</distance><timeResidual>0.42704010009765625</timeResidual><timeUsed>true</timeUsed><horizontalSlownessUsed>false</horizontalSlownessUsed><backazimuthUsed>false</backazimuthUsed><weight>1</weight></arrival><arrival><pickID>de.gempa.tb1.Pick/20250411165509.733576.118812</pickID><phase>P</phase><azimuth>235.28106689453125</azimuth><distance>1.0182300806045532</distance><timeResidual>1.6550827026367188</timeResidual><timeUsed>true</timeUsed><horizontalSlownessUsed>false</horizontalSlownessUsed><backazimuthUsed>false</backazimuthUsed><weight>1</weight></arrival><arrival><pickID>de.gempa.tb1.Pick/20250411165510.550043.118814</pickID><phase>P</phase><azimuth>218.34803771972656</azimuth><distance>1.146980881690979</distance><timeResidual>1.749924659729004</timeResidual><timeUsed>true</timeUsed><horizontalSlownessUsed>false</horizontalSlownessUsed><backazimuthUsed>false</backazimuthUsed><weight>1</weight></arrival><arrival><pickID>de.gempa.tb1.Pick/20250411165510.600824.118816</pickID><phase>S</phase><azimuth>282.26214599609375</azimuth><distance>0.4792295098304749</distance><timeResidual>0.9454069137573242</timeResidual><timeUsed>true</timeUsed><horizontalSlownessUsed>false</horizontalSlownessUsed><backazimuthUsed>false</backazimuthUsed><weight>1</weight></arrival><arrival><pickID>de.gempa.tb1.Pick/20250411165519.463439.118817</pickID><phase>S</phase><azimuth>200.17591857910156</azimuth><distance>0.6894227266311646</distance><timeResidual>0.5514755249023438</timeResidual><timeUsed>true</timeUsed><horizontalSlownessUsed>false</horizontalSlownessUsed><backazimuthUsed>false</backazimuthUsed><weight>1</weight></arrival><arrival><pickID>de.gempa.tb1.Pick/20250411165519.550712.118818</pickID><phase>S</phase><azimuth>258.3430480957031</azimuth><distance>0.8662986159324646</distance><timeResidual>-0.06278705596923828</timeResidual><timeUsed>true</timeUsed><horizontalSlownessUsed>false</horizontalSlownessUsed><backazimuthUsed>false</backazimuthUsed><weight>1</weight></arrival><arrival><pickID>de.gempa.tb1.Pick/20250411165523.768899.118822</pickID><phase>P</phase><azimuth>325.1130676269531</azimuth><distance>1.8743358850479126</distance><timeResidual>-0.35718822479248047</timeResidual><timeUsed>true</timeUsed><horizontalSlownessUsed>false</horizontalSlownessUsed><backazimuthUsed>false</backazimuthUsed><weight>1</weight></arrival><arrival><pickID>de.gempa.tb1.Pick/20250411165528.600497.118828</pickID><phase>S</phase><azimuth>218.34803771972656</azimuth><distance>1.146980881690979</distance><timeResidual>-1.9081335067749023</timeResidual><timeUsed>true</timeUsed><horizontalSlownessUsed>false</horizontalSlownessUsed><backazimuthUsed>false</backazimuthUsed><weight>1</weight></arrival><arrival><pickID>de.gempa.tb1.Pick/20250411165532.43898.118829</pickID><phase>S</phase><azimuth>235.28106689453125</azimuth><distance>1.0182300806045532</distance><timeResidual>-0.11526966094970703</timeResidual><timeUsed>true</timeUsed><horizontalSlownessUsed>false</horizontalSlownessUsed><backazimuthUsed>false</backazimuthUsed><weight>1</weight></arrival><magnitude publicID="de.gempa.tb1.Magnitude/20250411165535.94767.121110"><magnitude><value>2.493250619975412</value></magnitude><type>M</type><methodID>weighted average</methodID><stationCount>6</stationCount></magnitude></origin><event publicID="gempa2025heaa"><preferredOriginID>de.gempa.tb1.Origin/20250411165532.442656.60902</preferredOriginID><preferredMagnitudeID>de.gempa.tb1.Magnitude/20250411165535.94767.121110</preferredMagnitudeID><description><text>Chile-Bolivia Border Region</text><type>region name</type></description><originReference>de.gempa.tb1.Origin/20250411165532.442656.60902</originReference></event></EventParameters></seiscomp>