<?xml version="1.0" encoding="UTF-8"?>
<seiscomp xmlns="http://geofon.gfz-potsdam.de/ns/seiscomp3-schema/0.13" version="0.13"><EventParameters><pick publicID="de.gempa.tb1.Pick/20250413124400.66052.131222"><time><value>2025-04-13T12:43:54.598393Z</value></time><waveformID networkCode="CX" stationCode="PB15" channelCode="HHZ"/><filterID>ITAPER(4)&gt;&gt;BW(4,4,20)</filterID><methodID>AIC</methodID><horizontalSlowness><value>21.849020482321603</value></horizontalSlowness><backazimuth><value>295.93041889300696</value></backazimuth><phaseHint>P</phaseHint><evaluationMode>automatic</evaluationMode><comment><text>564.5838972685372</text><id>DFX:rectilinearity</id></comment><comment><text>15.404176693127523</text><id>SNR</id></comment></pick><pick publicID="de.gempa.tb1.Pick/20250413124401.499539.131224"><time><value>2025-04-13T12:43:54.098393Z</value></time><waveformID networkCode="CX" stationCode="PB06" channelCode="HHZ"/><filterID>ITAPER(4)&gt;&gt;BW(4,4,20)</filterID><methodID>AIC</methodID><horizontalSlowness><value>12.750970293769832</value></horizontalSlowness><backazimuth><value>308.2229885397443</value></backazimuth><phaseHint>P</phaseHint><evaluationMode>automatic</evaluationMode><comment><text>37.444791188096616</text><id>DFX:rectilinearity</id></comment><comment><text>26.17664241116349</text><id>SNR</id></comment></pick><pick publicID="de.gempa.tb1.Pick/20250413124402.463692.131226"><time><value>2025-04-13T12:43:56.158393Z</value></time><waveformID networkCode="CX" stationCode="PB03" channelCode="HHZ"/><filterID>ITAPER(4)&gt;&gt;BW(4,4,20)</filterID><methodID>AIC</methodID><horizontalSlowness><value>11.104098045398066</value></horizontalSlowness><backazimuth><value>103.4686637508352</value></backazimuth><phaseHint>P</phaseHint><evaluationMode>automatic</evaluationMode><comment><text>57.18560274738199</text><id>DFX:rectilinearity</id></comment><comment><text>96.05682066589738</text><id>SNR</id></comment></pick><pick publicID="de.gempa.tb1.Pick/20250413124403.477669.131228"><time><value>2025-04-13T12:43:57.0000Z</value></time><waveformID networkCode="CX" stationCode="PB19" channelCode="HHZ"/><filterID>ITAPER(4)&gt;&gt;BW(4,4,20)</filterID><methodID>AIC</methodID><horizontalSlowness><value>21.155857187173257</value></horizontalSlowness><backazimuth><value>282.30013918974316</value></backazimuth><phaseHint>P</phaseHint><evaluationMode>automatic</evaluationMode><comment><text>42.598412611557215</text><id>DFX:rectilinearity</id></comment><comment><text>27.62051619592064</text><id>SNR</id></comment></pick><pick publicID="de.gempa.tb1.Pick/20250413124405.504955.131230"><time><value>2025-04-13T12:44:00.428393Z</value></time><waveformID networkCode="CX" stationCode="PB02" channelCode="HHZ"/><filterID>ITAPER(4)&gt;&gt;BW(4,4,20)</filterID><methodID>AIC</methodID><horizontalSlowness><value>9.488640624382789</value></horizontalSlowness><backazimuth><value>149.23825330752828</value></backazimuth><phaseHint>P</phaseHint><evaluationMode>automatic</evaluationMode><comment><text>30.57137556010185</text><id>DFX:rectilinearity</id></comment><comment><text>16.473356972605753</text><id>SNR</id></comment></pick><pick publicID="de.gempa.tb1.Pick/20250413124406.580291.131232"><time><value>2025-04-13T12:43:59.168394Z</value></time><waveformID networkCode="CX" stationCode="PB01" channelCode="HHZ"/><filterID>ITAPER(4)&gt;&gt;BW(4,4,20)</filterID><methodID>AIC</methodID><horizontalSlowness><value>16.285258476923914</value></horizontalSlowness><backazimuth><value>298.7984398799655</value></backazimuth><phaseHint>P</phaseHint><evaluationMode>automatic</evaluationMode><comment><text>12.64826153212794</text><id>DFX:rectilinearity</id></comment><comment><text>18.301221345118066</text><id>SNR</id></comment></pick><pick publicID="de.gempa.tb1.Pick/20250413124407.128196.131234"><time><value>2025-04-13T12:43:58.538394Z</value></time><waveformID networkCode="CX" stationCode="PB07" channelCode="HHZ"/><filterID>ITAPER(4)&gt;&gt;BW(4,4,20)</filterID><methodID>AIC</methodID><horizontalSlowness><value>19.430172015170093</value></horizontalSlowness><backazimuth><value>125.21324762597212</value></backazimuth><phaseHint>P</phaseHint><evaluationMode>automatic</evaluationMode><comment><text>453.6460567352878</text><id>DFX:rectilinearity</id></comment><comment><text>104.32374409713205</text><id>SNR</id></comment></pick><pick publicID="de.gempa.tb1.Pick/20250413124411.165326.131236"><time><value>2025-04-13T12:43:53.05Z</value></time><waveformID networkCode="CX" stationCode="PB09" channelCode="HHZ"/><filterID>ITAPER(4)&gt;&gt;BW(4,4,20)</filterID><methodID>AIC</methodID><horizontalSlowness><value>14.105009652385354</value></horizontalSlowness><backazimuth><value>246.79025491147695</value></backazimuth><phaseHint>P</phaseHint><evaluationMode>automatic</evaluationMode><comment><text>17.197679775187812</text><id>DFX:rectilinearity</id></comment><comment><text>25.197077736339356</text><id>SNR</id></comment></pick><pick publicID="de.gempa.tb1.Pick/20250413124423.571892.131239"><time><value>2025-04-13T12:44:15.16Z</value></time><waveformID networkCode="CX" stationCode="PSGCX" channelCode="HHZ"/><filterID>ITAPER(4)&gt;&gt;BW(4,4,20)</filterID><methodID>AIC</methodID><horizontalSlowness><value>15.510408054194212</value></horizontalSlowness><backazimuth><value>269.35796101621054</value></backazimuth><phaseHint>P</phaseHint><evaluationMode>automatic</evaluationMode><comment><text>34.10437764041741</text><id>DFX:rectilinearity</id></comment><comment><text>13.21827185135935</text><id>SNR</id></comment></pick><pick publicID="de.gempa.tb1.Pick/20250413124427.868084.131242"><time><value>2025-04-13T12:44:21.088393Z</value></time><waveformID networkCode="CX" stationCode="PB15" channelCode="HHN"/><filterID>ITAPER(2)&gt;&gt;BW(3,3,20)</filterID><methodID>L2-AIC-GRID</methodID><horizontalSlowness><value>20.662045980609214</value></horizontalSlowness><backazimuth><value>121.96365769437594</value></backazimuth><phaseHint>S</phaseHint><evaluationMode>automatic</evaluationMode><comment><text>8746.549001510364</text><id>DFX:rectilinearity</id></comment><comment><text>de.gempa.tb1.Pick/20250413124400.66052.131222</text><id>RefPickID</id></comment><comment><text>8.670071287397576</text><id>SNR</id></comment></pick><pick publicID="de.gempa.tb1.Pick/20250413124429.687164.131245"><time><value>2025-04-13T12:44:20.628393Z</value></time><waveformID networkCode="CX" stationCode="PB06" channelCode="HHN"/><filterID>ITAPER(2)&gt;&gt;BW(3,3,20)</filterID><methodID>L2-AIC-GRID</methodID><horizontalSlowness><value>17.158734873967273</value></horizontalSlowness><backazimuth><value>153.39472977084458</value></backazimuth><phaseHint>S</phaseHint><evaluationMode>automatic</evaluationMode><comment><text>168.30352193916949</text><id>DFX:rectilinearity</id></comment><comment><text>de.gempa.tb1.Pick/20250413124401.499539.131224</text><id>RefPickID</id></comment><comment><text>6.93200984726183</text><id>SNR</id></comment></pick><pick publicID="de.gempa.tb1.Pick/20250413124429.736584.131246"><time><value>2025-04-13T12:44:23.588393Z</value></time><waveformID networkCode="CX" stationCode="PB03" channelCode="HHN"/><filterID>ITAPER(2)&gt;&gt;BW(3,3,20)</filterID><methodID>L2-AIC-GRID</methodID><horizontalSlowness><value>20.614685870284486</value></horizontalSlowness><backazimuth><value>209.27250092530642</value></backazimuth><phaseHint>S</phaseHint><evaluationMode>automatic</evaluationMode><comment><text>1839.4220390105102</text><id>DFX:rectilinearity</id></comment><comment><text>de.gempa.tb1.Pick/20250413124402.463692.131226</text><id>RefPickID</id></comment><comment><text>14.91223433652718</text><id>SNR</id></comment></pick><pick publicID="de.gempa.tb1.Pick/20250413124433.608981.131248"><time><value>2025-04-13T12:44:25.36Z</value></time><waveformID networkCode="CX" stationCode="PB19" channelCode="HHN"/><filterID>ITAPER(2)&gt;&gt;BW(3,3,20)</filterID><methodID>L2-AIC-GRID</methodID><horizontalSlowness><value>20.94344110028664</value></horizontalSlowness><backazimuth><value>71.10637765534813</value></backazimuth><phaseHint>S</phaseHint><evaluationMode>automatic</evaluationMode><comment><text>2047.5596433694368</text><id>DFX:rectilinearity</id></comment><comment><text>de.gempa.tb1.Pick/20250413124403.477669.131228</text><id>RefPickID</id></comment><comment><text>12.508188536876713</text><id>SNR</id></comment></pick><pick publicID="de.gempa.tb1.Pick/20250413124434.773661.131249"><time><value>2025-04-13T12:44:27.368394Z</value></time><waveformID networkCode="CX" stationCode="PB07" channelCode="HHN"/><filterID>ITAPER(2)&gt;&gt;BW(3,3,20)</filterID><methodID>L2-AIC-GRID</methodID><horizontalSlowness><value>23.51829181370267</value></horizontalSlowness><backazimuth><value>219.2157398369444</value></backazimuth><phaseHint>S</phaseHint><evaluationMode>automatic</evaluationMode><comment><text>42980.236410205333</text><id>DFX:rectilinearity</id></comment><comment><text>de.gempa.tb1.Pick/20250413124407.128196.131234</text><id>RefPickID</id></comment><comment><text>16.653699826269328</text><id>SNR</id></comment></pick><pick publicID="de.gempa.tb1.Pick/20250413124437.664063.131250"><time><value>2025-04-13T12:44:28.518394Z</value></time><waveformID networkCode="CX" stationCode="PB01" channelCode="HHN"/><filterID>ITAPER(2)&gt;&gt;BW(3,3,20)</filterID><methodID>L2-AIC-GRID</methodID><horizontalSlowness><value>22.206622145858315</value></horizontalSlowness><backazimuth><value>62.91425232304375</value></backazimuth><phaseHint>S</phaseHint><evaluationMode>automatic</evaluationMode><comment><text>494.8793665663763</text><id>DFX:rectilinearity</id></comment><comment><text>de.gempa.tb1.Pick/20250413124406.580291.131232</text><id>RefPickID</id></comment><comment><text>27.21136335980951</text><id>SNR</id></comment></pick><pick publicID="de.gempa.tb1.Pick/20250413124439.596554.131251"><time><value>2025-04-13T12:44:30.958393Z</value></time><waveformID networkCode="CX" stationCode="PB02" channelCode="HHN"/><filterID>ITAPER(2)&gt;&gt;BW(3,3,20)</filterID><methodID>L2-AIC-GRID</methodID><horizontalSlowness><value>21.513995207772162</value></horizontalSlowness><backazimuth><value>62.38928645108159</value></backazimuth><phaseHint>S</phaseHint><evaluationMode>automatic</evaluationMode><comment><text>542.9327617429627</text><id>DFX:rectilinearity</id></comment><comment><text>de.gempa.tb1.Pick/20250413124405.504955.131230</text><id>RefPickID</id></comment><comment><text>11.031898019470532</text><id>SNR</id></comment></pick><pick publicID="de.gempa.tb1.Pick/20250413124507.681768.131254"><time><value>2025-04-13T12:44:58.42Z</value></time><waveformID networkCode="CX" stationCode="PSGCX" channelCode="HHN"/><filterID>ITAPER(2)&gt;&gt;BW(3,3,20)</filterID><methodID>L2-AIC-GRID</methodID><horizontalSlowness><value>23.20200055243966</value></horizontalSlowness><backazimuth><value>34.458323300669974</value></backazimuth><phaseHint>S</phaseHint><evaluationMode>automatic</evaluationMode><comment><text>63.09160715425894</text><id>DFX:rectilinearity</id></comment><comment><text>de.gempa.tb1.Pick/20250413124423.571892.131239</text><id>RefPickID</id></comment><comment><text>6.820317996370314</text><id>SNR</id></comment></pick><origin publicID="de.gempa.tb1.Origin/20250413124508.572619.110239"><time><value>2025-04-13T12:43:20.59908Z</value><uncertainty>0.8026376962661743</uncertainty></time><latitude><value>-22.468942642211914</value><uncertainty>4.984143257141113</uncertainty></latitude><longitude><value>-68.02336120605469</value><uncertainty>20.962848663330078</uncertainty></longitude><depth><value>199.65005493164062</value><uncertainty>19.385953903198242</uncertainty></depth><depthType>from location</depthType><methodID>LOCSAT</methodID><earthModelID>iasp91_scanloc</earthModelID><quality><associatedPhaseCount>17</associatedPhaseCount><usedPhaseCount>17</usedPhaseCount><associatedStationCount>9</associatedStationCount><usedStationCount>9</usedStationCount><depthPhaseCount>0</depthPhaseCount><standardError>0.5672655083781747</standardError><azimuthalGap>253.8139953613281</azimuthalGap><maximumDistance>3.465731143951416</maximumDistance><minimumDistance>1.313205599784851</minimumDistance><medianDistance>1.8445332050323486</medianDistance></quality><uncertainty><minHorizontalUncertainty>7.117383003234863</minHorizontalUncertainty><maxHorizontalUncertainty>45.64524459838867</maxHorizontalUncertainty><azimuthMaxHorizontalUncertainty>79.81748962402344</azimuthMaxHorizontalUncertainty><preferredDescription>horizontal uncertainty</preferredDescription></uncertainty><evaluationMode>automatic</evaluationMode><evaluationStatus>confirmed</evaluationStatus><comment><text>0.08</text><id>mismatchScore</id></comment><comment><text>mismatchScore</text><id>scevalMethod</id></comment><arrival><pickID>de.gempa.tb1.Pick/20250413124400.66052.131222</pickID><phase>P</phase><azimuth>240.86370849609375</azimuth><distance>1.5247482061386108</distance><timeResidual>0.12340545654296875</timeResidual><timeUsed>true</timeUsed><horizontalSlownessUsed>false</horizontalSlownessUsed><backazimuthUsed>false</backazimuthUsed><weight>1</weight></arrival><arrival><pickID>de.gempa.tb1.Pick/20250413124401.499539.131224</pickID><phase>P</phase><azimuth>260.3512268066406</azimuth><distance>1.450422763824463</distance><timeResidual>0.2754058837890625</timeResidual><timeUsed>true</timeUsed><horizontalSlownessUsed>false</horizontalSlownessUsed><backazimuthUsed>false</backazimuthUsed><weight>1</weight></arrival><arrival><pickID>de.gempa.tb1.Pick/20250413124402.463692.131226</pickID><phase>P</phase><azimuth>284.3090515136719</azimuth><distance>1.6561017036437988</distance><timeResidual>0.4661464691162109</timeResidual><timeUsed>true</timeUsed><horizontalSlownessUsed>false</horizontalSlownessUsed><backazimuthUsed>false</backazimuthUsed><weight>1</weight></arrival><arrival><pickID>de.gempa.tb1.Pick/20250413124403.477669.131228</pickID><phase>P</phase><azimuth>218.96624755859375</azimuth><distance>1.8445332050323486</distance><timeResidual>-0.4937324523925781</timeResidual><timeUsed>true</timeUsed><horizontalSlownessUsed>false</horizontalSlownessUsed><backazimuthUsed>false</backazimuthUsed><weight>1</weight></arrival><arrival><pickID>de.gempa.tb1.Pick/20250413124405.504955.131230</pickID><phase>P</phase><azimuth>302.9775085449219</azimuth><distance>2.0814850330352783</distance><timeResidual>0.4870967864990234</timeResidual><timeUsed>true</timeUsed><horizontalSlownessUsed>false</horizontalSlownessUsed><backazimuthUsed>false</backazimuthUsed><weight>1</weight></arrival><arrival><pickID>de.gempa.tb1.Pick/20250413124406.580291.131232</pickID><phase>P</phase><azimuth>315.9184875488281</azimuth><distance>1.96597957611084</distance><timeResidual>0.4248161315917969</timeResidual><timeUsed>true</timeUsed><horizontalSlownessUsed>false</horizontalSlownessUsed><backazimuthUsed>false</backazimuthUsed><weight>1</weight></arrival><arrival><pickID>de.gempa.tb1.Pick/20250413124407.128196.131234</pickID><phase>P</phase><azimuth>292.8004150390625</azimuth><distance>1.878887414932251</distance><timeResidual>0.6816349029541016</timeResidual><timeUsed>true</timeUsed><horizontalSlownessUsed>false</horizontalSlownessUsed><backazimuthUsed>false</backazimuthUsed><weight>1</weight></arrival><arrival><pickID>de.gempa.tb1.Pick/20250413124411.165326.131236</pickID><phase>P</phase><azimuth>300.41363525390625</azimuth><distance>1.313205599784851</distance><timeResidual>0.37810516357421875</timeResidual><timeUsed>true</timeUsed><horizontalSlownessUsed>false</horizontalSlownessUsed><backazimuthUsed>false</backazimuthUsed><weight>1</weight></arrival><arrival><pickID>de.gempa.tb1.Pick/20250413124423.571892.131239</pickID><phase>P</phase><azimuth>325.1522521972656</azimuth><distance>3.465731143951416</distance><timeResidual>-0.681793212890625</timeResidual><timeUsed>true</timeUsed><horizontalSlownessUsed>false</horizontalSlownessUsed><backazimuthUsed>false</backazimuthUsed><weight>1</weight></arrival><arrival><pickID>de.gempa.tb1.Pick/20250413124427.868084.131242</pickID><phase>S</phase><azimuth>240.86370849609375</azimuth><distance>1.5247482061386108</distance><timeResidual>-0.06523895263671875</timeResidual><timeUsed>true</timeUsed><horizontalSlownessUsed>false</horizontalSlownessUsed><backazimuthUsed>false</backazimuthUsed><weight>1</weight></arrival><arrival><pickID>de.gempa.tb1.Pick/20250413124429.687164.131245</pickID><phase>S</phase><azimuth>260.3512268066406</azimuth><distance>1.450422763824463</distance><timeResidual>0.64495849609375</timeResidual><timeUsed>true</timeUsed><horizontalSlownessUsed>false</horizontalSlownessUsed><backazimuthUsed>false</backazimuthUsed><weight>1</weight></arrival><arrival><pickID>de.gempa.tb1.Pick/20250413124429.736584.131246</pickID><phase>S</phase><azimuth>284.3090515136719</azimuth><distance>1.6561017036437988</distance><timeResidual>0.24884796142578125</timeResidual><timeUsed>true</timeUsed><horizontalSlownessUsed>false</horizontalSlownessUsed><backazimuthUsed>false</backazimuthUsed><weight>1</weight></arrival><arrival><pickID>de.gempa.tb1.Pick/20250413124433.608981.131248</pickID><phase>S</phase><azimuth>218.96624755859375</azimuth><distance>1.8445332050323486</distance><timeResidual>-1.213634490966797</timeResidual><timeUsed>true</timeUsed><horizontalSlownessUsed>false</horizontalSlownessUsed><backazimuthUsed>false</backazimuthUsed><weight>1</weight></arrival><arrival><pickID>de.gempa.tb1.Pick/20250413124434.773661.131249</pickID><phase>S</phase><azimuth>292.8004150390625</azimuth><distance>1.878887414932251</distance><timeResidual>0.14095687866210938</timeResidual><timeUsed>true</timeUsed><horizontalSlownessUsed>false</horizontalSlownessUsed><backazimuthUsed>false</backazimuthUsed><weight>1</weight></arrival><arrival><pickID>de.gempa.tb1.Pick/20250413124437.664063.131250</pickID><phase>S</phase><azimuth>315.9184875488281</azimuth><distance>1.96597957611084</distance><timeResidual>-0.2999382019042969</timeResidual><timeUsed>true</timeUsed><horizontalSlownessUsed>false</horizontalSlownessUsed><backazimuthUsed>false</backazimuthUsed><weight>1</weight></arrival><arrival><pickID>de.gempa.tb1.Pick/20250413124439.596554.131251</pickID><phase>S</phase><azimuth>302.9775085449219</azimuth><distance>2.0814850330352783</distance><timeResidual>-0.013702392578125</timeResidual><timeUsed>true</timeUsed><horizontalSlownessUsed>false</horizontalSlownessUsed><backazimuthUsed>false</backazimuthUsed><weight>1</weight></arrival><arrival><pickID>de.gempa.tb1.Pick/20250413124507.681768.131254</pickID><phase>S</phase><azimuth>325.1522521972656</azimuth><distance>3.465731143951416</distance><timeResidual>-1.1674957275390625</timeResidual><timeUsed>true</timeUsed><horizontalSlownessUsed>false</horizontalSlownessUsed><backazimuthUsed>false</backazimuthUsed><weight>1</weight></arrival><magnitude publicID="de.gempa.tb1.Magnitude/20250413124520.940291.358007"><magnitude><value>3.0081050406916945</value></magnitude><type>M</type><methodID>weighted average</methodID><stationCount>6</stationCount></magnitude></origin><event publicID="gempa2025hhjr"><preferredOriginID>de.gempa.tb1.Origin/20250413124508.572619.110239</preferredOriginID><preferredMagnitudeID>de.gempa.tb1.Magnitude/20250413124520.940291.358007</preferredMagnitudeID><description><text>Northern Chile</text><type>region name</type></description><originReference>de.gempa.tb1.Origin/20250413124508.572619.110239</originReference></event></EventParameters></seiscomp>