<?xml version="1.0" encoding="UTF-8"?>
<seiscomp xmlns="http://geofon.gfz-potsdam.de/ns/seiscomp3-schema/0.13" version="0.13"><EventParameters><pick publicID="de.gempa.tb1.Pick/20250414162528.487608.139257"><time><value>2025-04-14T16:25:22.918393Z</value></time><waveformID networkCode="CX" stationCode="PB02" channelCode="HHZ"/><filterID>ITAPER(4)&gt;&gt;BW(4,4,20)</filterID><methodID>AIC</methodID><horizontalSlowness><value>11.943538319290013</value></horizontalSlowness><backazimuth><value>75.09455362245187</value></backazimuth><phaseHint>P</phaseHint><evaluationMode>automatic</evaluationMode><comment><text>12.820245825172139</text><id>DFX:rectilinearity</id></comment><comment><text>20.434177500817942</text><id>SNR</id></comment></pick><pick publicID="de.gempa.tb1.Pick/20250414162531.640645.139259"><time><value>2025-04-14T16:25:25.078393Z</value></time><waveformID networkCode="CX" stationCode="PB07" channelCode="HHZ"/><filterID>ITAPER(4)&gt;&gt;BW(4,4,20)</filterID><methodID>AIC</methodID><horizontalSlowness><value>22.307473545662813</value></horizontalSlowness><backazimuth><value>253.62219925113726</value></backazimuth><phaseHint>P</phaseHint><evaluationMode>automatic</evaluationMode><comment><text>99.69329481371474</text><id>DFX:rectilinearity</id></comment><comment><text>11.431059605688187</text><id>SNR</id></comment></pick><pick publicID="de.gempa.tb1.Pick/20250414162532.458559.139261"><time><value>2025-04-14T16:25:27.009999Z</value></time><waveformID networkCode="CX" stationCode="PATCX" channelCode="HHZ"/><filterID>ITAPER(4)&gt;&gt;BW(4,4,20)</filterID><methodID>AIC</methodID><horizontalSlowness><value>21.941071507159126</value></horizontalSlowness><backazimuth><value>238.409940919358</value></backazimuth><phaseHint>P</phaseHint><evaluationMode>automatic</evaluationMode><comment><text>59.51531418963428</text><id>DFX:rectilinearity</id></comment><comment><text>10.615191432698367</text><id>SNR</id></comment></pick><pick publicID="de.gempa.tb1.Pick/20250414162533.544125.139264"><time><value>2025-04-14T16:25:25.458394Z</value></time><waveformID networkCode="CX" stationCode="PB01" channelCode="HHZ"/><filterID>ITAPER(4)&gt;&gt;BW(4,4,20)</filterID><methodID>AIC</methodID><horizontalSlowness><value>22.5475668573971</value></horizontalSlowness><backazimuth><value>347.55143317232177</value></backazimuth><phaseHint>P</phaseHint><evaluationMode>automatic</evaluationMode><comment><text>9.976395494075842</text><id>DFX:rectilinearity</id></comment><comment><text>8.305551497962451</text><id>SNR</id></comment></pick><pick publicID="de.gempa.tb1.Pick/20250414162535.581803.139266"><time><value>2025-04-14T16:25:28.938393Z</value></time><waveformID networkCode="CX" stationCode="PB02" channelCode="HHN"/><filterID>ITAPER(2)&gt;&gt;BW(3,3,20)</filterID><methodID>L2-AIC-GRID</methodID><horizontalSlowness><value>18.345739184824982</value></horizontalSlowness><backazimuth><value>28.6602977106476</value></backazimuth><phaseHint>S</phaseHint><evaluationMode>automatic</evaluationMode><comment><text>70.4047534163716</text><id>DFX:rectilinearity</id></comment><comment><text>de.gempa.tb1.Pick/20250414162528.487608.139257</text><id>RefPickID</id></comment><comment><text>9.500755820539133</text><id>SNR</id></comment></pick><pick publicID="de.gempa.tb1.Pick/20250414162540.603475.139267"><time><value>2025-04-14T16:25:33.268394Z</value></time><waveformID networkCode="CX" stationCode="PB01" channelCode="HHN"/><filterID>ITAPER(2)&gt;&gt;BW(3,3,20)</filterID><methodID>L2-AIC-GRID</methodID><horizontalSlowness><value>21.64832337376919</value></horizontalSlowness><backazimuth><value>105.94765184704738</value></backazimuth><phaseHint>S</phaseHint><evaluationMode>automatic</evaluationMode><comment><text>18.004148666113949</text><id>DFX:rectilinearity</id></comment><comment><text>de.gempa.tb1.Pick/20250414162533.544125.139264</text><id>RefPickID</id></comment><comment><text>20.192304518026724</text><id>SNR</id></comment></pick><pick publicID="de.gempa.tb1.Pick/20250414162541.429882.139268"><time><value>2025-04-14T16:25:29.160001Z</value></time><waveformID networkCode="CX" stationCode="PB09" channelCode="HHZ"/><filterID>ITAPER(4)&gt;&gt;BW(4,4,20)</filterID><methodID>AIC</methodID><horizontalSlowness><value>11.249184930517073</value></horizontalSlowness><backazimuth><value>292.7035690086107</value></backazimuth><phaseHint>P</phaseHint><evaluationMode>automatic</evaluationMode><comment><text>9.074044266200634</text><id>DFX:rectilinearity</id></comment><comment><text>5.00192416070724</text><id>SNR</id></comment></pick><pick publicID="de.gempa.tb1.Pick/20250414162547.614418.139272"><time><value>2025-04-14T16:25:32.528393Z</value></time><waveformID networkCode="CX" stationCode="PB07" channelCode="HHN"/><filterID>ITAPER(2)&gt;&gt;BW(3,3,20)</filterID><methodID>L2-AIC-GRID</methodID><horizontalSlowness><value>23.329058351028216</value></horizontalSlowness><backazimuth><value>147.22883543105755</value></backazimuth><phaseHint>S</phaseHint><evaluationMode>automatic</evaluationMode><comment><text>692.3875798833965</text><id>DFX:rectilinearity</id></comment><comment><text>de.gempa.tb1.Pick/20250414162531.640645.139259</text><id>RefPickID</id></comment><comment><text>10.065195862875221</text><id>SNR</id></comment></pick><pick publicID="de.gempa.tb1.Pick/20250414162547.668417.139273"><time><value>2025-04-14T16:25:38.928393Z</value></time><waveformID networkCode="CX" stationCode="PB03" channelCode="HHN"/><filterID>ITAPER(2)&gt;&gt;BW(3,3,20)</filterID><methodID>L2-AIC-GRID</methodID><horizontalSlowness><value>9.594400276458185</value></horizontalSlowness><backazimuth><value>263.9620726110232</value></backazimuth><phaseHint>S</phaseHint><evaluationMode>automatic</evaluationMode><comment><text>5.815095250783725</text><id>DFX:rectilinearity</id></comment><comment><text>de.gempa.tb1.Pick/20250414162526.528317.139255</text><id>RefPickID</id></comment><comment><text>7.243932442531223</text><id>SNR</id></comment></pick><origin publicID="de.gempa.tb1.Origin/20250414162548.76732.143137"><time><value>2025-04-14T16:25:14.680512Z</value><uncertainty>0.871109664440155</uncertainty></time><latitude><value>-21.338579177856445</value><uncertainty>3.2019596099853516</uncertainty></latitude><longitude><value>-69.83494567871094</value><uncertainty>5.882848262786865</uncertainty></longitude><depth><value>52.81196594238281</value><uncertainty>6.631739616394043</uncertainty></depth><depthType>from location</depthType><methodID>LOCSAT</methodID><earthModelID>iasp91_scanloc</earthModelID><quality><associatedPhaseCount>9</associatedPhaseCount><usedPhaseCount>9</usedPhaseCount><associatedStationCount>6</associatedStationCount><usedStationCount>6</usedStationCount><depthPhaseCount>0</depthPhaseCount><standardError>0.24398321424367966</standardError><azimuthalGap>101.18621826171875</azimuthalGap><maximumDistance>0.7157066464424133</maximumDistance><minimumDistance>0.05995654687285423</minimumDistance><medianDistance>0.437673956155777</medianDistance></quality><uncertainty><minHorizontalUncertainty>6.635678768157959</minHorizontalUncertainty><maxHorizontalUncertainty>12.737296104431152</maxHorizontalUncertainty><azimuthMaxHorizontalUncertainty>99.33415222167969</azimuthMaxHorizontalUncertainty><preferredDescription>horizontal uncertainty</preferredDescription></uncertainty><evaluationMode>automatic</evaluationMode><evaluationStatus>confirmed</evaluationStatus><comment><text>0.00</text><id>mismatchScore</id></comment><comment><text>mismatchScore</text><id>scevalMethod</id></comment><arrival><pickID>de.gempa.tb1.Pick/20250414162528.487608.139257</pickID><phase>P</phase><azimuth>288.21795654296875</azimuth><distance>0.05995654687285423</distance><timeResidual>0.19437217712402344</timeResidual><timeUsed>true</timeUsed><horizontalSlownessUsed>false</horizontalSlownessUsed><backazimuthUsed>false</backazimuthUsed><weight>1</weight></arrival><arrival><pickID>de.gempa.tb1.Pick/20250414162531.640645.139259</pickID><phase>P</phase><azimuth>187.03173828125</azimuth><distance>0.38912081718444824</distance><timeResidual>0.1535167694091797</timeResidual><timeUsed>true</timeUsed><horizontalSlownessUsed>false</horizontalSlownessUsed><backazimuthUsed>false</backazimuthUsed><weight>1</weight></arrival><arrival><pickID>de.gempa.tb1.Pick/20250414162532.458559.139261</pickID><phase>P</phase><azimuth>329.9923400878906</azimuth><distance>0.5947123765945435</distance><timeResidual>-0.24529075622558594</timeResidual><timeUsed>true</timeUsed><horizontalSlownessUsed>false</horizontalSlownessUsed><backazimuthUsed>false</backazimuthUsed><weight>1</weight></arrival><arrival><pickID>de.gempa.tb1.Pick/20250414162533.544125.139264</pickID><phase>P</phase><azimuth>47.88210678100586</azimuth><distance>0.437673956155777</distance><timeResidual>0.020392417907714844</timeResidual><timeUsed>true</timeUsed><horizontalSlownessUsed>false</horizontalSlownessUsed><backazimuthUsed>false</backazimuthUsed><weight>1</weight></arrival><arrival><pickID>de.gempa.tb1.Pick/20250414162535.581803.139266</pickID><phase>S</phase><azimuth>288.21795654296875</azimuth><distance>0.05995654687285423</distance><timeResidual>0.1973114013671875</timeResidual><timeUsed>true</timeUsed><horizontalSlownessUsed>false</horizontalSlownessUsed><backazimuthUsed>false</backazimuthUsed><weight>1</weight></arrival><arrival><pickID>de.gempa.tb1.Pick/20250414162540.603475.139267</pickID><phase>S</phase><azimuth>47.88210678100586</azimuth><distance>0.437673956155777</distance><timeResidual>-0.2536172866821289</timeResidual><timeUsed>true</timeUsed><horizontalSlownessUsed>false</horizontalSlownessUsed><backazimuthUsed>false</backazimuthUsed><weight>1</weight></arrival><arrival><pickID>de.gempa.tb1.Pick/20250414162541.429882.139268</pickID><phase>P</phase><azimuth>129.6402130126953</azimuth><distance>0.7157066464424133</distance><timeResidual>0.39932870864868164</timeResidual><timeUsed>true</timeUsed><horizontalSlownessUsed>false</horizontalSlownessUsed><backazimuthUsed>false</backazimuthUsed><weight>1</weight></arrival><arrival><pickID>de.gempa.tb1.Pick/20250414162547.614418.139272</pickID><phase>S</phase><azimuth>187.03173828125</azimuth><distance>0.38912081718444824</distance><timeResidual>-0.08721923828125</timeResidual><timeUsed>true</timeUsed><horizontalSlownessUsed>false</horizontalSlownessUsed><backazimuthUsed>false</backazimuthUsed><weight>1</weight></arrival><arrival><pickID>de.gempa.tb1.Pick/20250414162547.668417.139273</pickID><phase>S</phase><azimuth>173.86485290527344</azimuth><distance>0.7105153203010559</distance><timeResidual>-0.37880706787109375</timeResidual><timeUsed>true</timeUsed><horizontalSlownessUsed>false</horizontalSlownessUsed><backazimuthUsed>false</backazimuthUsed><weight>1</weight></arrival><magnitude publicID="de.gempa.tb1.Magnitude/20250414162610.801896.513412"><magnitude><value>0.9272552450354471</value></magnitude><type>M</type><methodID>weighted average</methodID><stationCount>4</stationCount></magnitude></origin><event publicID="gempa2025hjnc"><preferredOriginID>de.gempa.tb1.Origin/20250414162548.76732.143137</preferredOriginID><preferredMagnitudeID>de.gempa.tb1.Magnitude/20250414162610.801896.513412</preferredMagnitudeID><description><text>Northern Chile</text><type>region name</type></description><originReference>de.gempa.tb1.Origin/20250414162548.76732.143137</originReference></event></EventParameters></seiscomp>