<?xml version="1.0" encoding="UTF-8"?>
<seiscomp xmlns="http://geofon.gfz-potsdam.de/ns/seiscomp3-schema/0.13" version="0.13"><EventParameters><pick publicID="de.gempa.tb1.Pick/20250413130933.667768.131374"><time><value>2025-04-13T13:09:25.778393Z</value></time><waveformID networkCode="CX" stationCode="PB01" channelCode="HHZ"/><filterID>ITAPER(4)&gt;&gt;BW(4,4,20)</filterID><methodID>AIC</methodID><horizontalSlowness><value>22.62057560871682</value></horizontalSlowness><backazimuth><value>204.1218728923259</value></backazimuth><phaseHint>P</phaseHint><evaluationMode>automatic</evaluationMode><comment><text>22.828891174006223</text><id>DFX:rectilinearity</id></comment><comment><text>16.876196143740547</text><id>SNR</id></comment></pick><pick publicID="de.gempa.tb1.Pick/20250413130934.590447.131376"><time><value>2025-04-13T13:09:30.298394Z</value></time><waveformID networkCode="CX" stationCode="PB07" channelCode="HHZ"/><filterID>ITAPER(4)&gt;&gt;BW(4,4,20)</filterID><methodID>AIC</methodID><horizontalSlowness><value>19.785570997388682</value></horizontalSlowness><backazimuth><value>128.12966510147987</value></backazimuth><phaseHint>P</phaseHint><evaluationMode>automatic</evaluationMode><comment><text>284.0086655302836</text><id>DFX:rectilinearity</id></comment><comment><text>10.801038493364722</text><id>SNR</id></comment></pick><pick publicID="de.gempa.tb1.Pick/20250413130937.505473.131379"><time><value>2025-04-13T13:09:30.628393Z</value></time><waveformID networkCode="CX" stationCode="PB03" channelCode="HHZ"/><filterID>ITAPER(4)&gt;&gt;BW(4,4,20)</filterID><methodID>AIC</methodID><horizontalSlowness><value>9.309025024073847</value></horizontalSlowness><backazimuth><value>55.93755501720096</value></backazimuth><phaseHint>P</phaseHint><evaluationMode>automatic</evaluationMode><comment><text>17.807767941535882</text><id>DFX:rectilinearity</id></comment><comment><text>18.554835159387494</text><id>SNR</id></comment></pick><pick publicID="de.gempa.tb1.Pick/20250413130937.522419.131381"><time><value>2025-04-13T13:09:29.728394Z</value></time><waveformID networkCode="CX" stationCode="PB02" channelCode="HHZ"/><filterID>ITAPER(4)&gt;&gt;BW(4,4,20)</filterID><methodID>AIC</methodID><horizontalSlowness><value>12.21363556377282</value></horizontalSlowness><backazimuth><value>64.50019036799061</value></backazimuth><phaseHint>P</phaseHint><evaluationMode>automatic</evaluationMode><comment><text>48.98582472176716</text><id>DFX:rectilinearity</id></comment><comment><text>14.138080870531383</text><id>SNR</id></comment></pick><pick publicID="de.gempa.tb1.Pick/20250413130938.046365.131383"><time><value>2025-04-13T13:09:29.118393Z</value></time><waveformID networkCode="CX" stationCode="PB08" channelCode="HHZ"/><filterID>ITAPER(4)&gt;&gt;BW(4,4,20)</filterID><methodID>AIC</methodID><horizontalSlowness><value>15.187353608735535</value></horizontalSlowness><backazimuth><value>93.10310476569117</value></backazimuth><phaseHint>P</phaseHint><evaluationMode>automatic</evaluationMode><comment><text>9.10976053898073</text><id>DFX:rectilinearity</id></comment><comment><text>9.640119921986175</text><id>SNR</id></comment></pick><pick publicID="de.gempa.tb1.Pick/20250413130938.247638.131385"><time><value>2025-04-13T13:09:33.199998Z</value></time><waveformID networkCode="CX" stationCode="PATCX" channelCode="HHZ"/><filterID>ITAPER(4)&gt;&gt;BW(4,4,20)</filterID><methodID>AIC</methodID><horizontalSlowness><value>23.0050792036684</value></horizontalSlowness><backazimuth><value>38.33276258641726</value></backazimuth><phaseHint>P</phaseHint><evaluationMode>automatic</evaluationMode><comment><text>262.32580779405316</text><id>DFX:rectilinearity</id></comment><comment><text>8.646455483637254</text><id>SNR</id></comment></pick><pick publicID="de.gempa.tb1.Pick/20250413130939.220089.131387"><time><value>2025-04-13T13:09:25.72Z</value></time><waveformID networkCode="CX" stationCode="PB09" channelCode="HHZ"/><filterID>ITAPER(4)&gt;&gt;BW(4,4,20)</filterID><methodID>AIC</methodID><horizontalSlowness><value>15.037260425338605</value></horizontalSlowness><backazimuth><value>68.61902995006842</value></backazimuth><phaseHint>P</phaseHint><evaluationMode>automatic</evaluationMode><comment><text>146.86209211359346</text><id>DFX:rectilinearity</id></comment><comment><text>20.857125739160661</text><id>SNR</id></comment></pick><pick publicID="de.gempa.tb1.Pick/20250413130939.523547.131389"><time><value>2025-04-13T13:09:34.708393Z</value></time><waveformID networkCode="CX" stationCode="PB06" channelCode="HHZ"/><filterID>ITAPER(4)&gt;&gt;BW(4,4,20)</filterID><methodID>AIC</methodID><horizontalSlowness><value>19.950473434991505</value></horizontalSlowness><backazimuth><value>302.69589682759766</value></backazimuth><phaseHint>P</phaseHint><evaluationMode>automatic</evaluationMode><comment><text>45.49921567680302</text><id>DFX:rectilinearity</id></comment><comment><text>7.131182251791945</text><id>SNR</id></comment></pick><pick publicID="de.gempa.tb1.Pick/20250413130944.507979.131392"><time><value>2025-04-13T13:09:38.780001Z</value></time><waveformID networkCode="CX" stationCode="PSGCX" channelCode="HHZ"/><filterID>ITAPER(4)&gt;&gt;BW(4,4,20)</filterID><methodID>AIC</methodID><horizontalSlowness><value>22.94863862621409</value></horizontalSlowness><backazimuth><value>55.14591770090701</value></backazimuth><phaseHint>P</phaseHint><evaluationMode>automatic</evaluationMode><comment><text>34.106254789740497</text><id>DFX:rectilinearity</id></comment><comment><text>11.613836255336434</text><id>SNR</id></comment></pick><pick publicID="de.gempa.tb1.Pick/20250413130948.783115.131394"><time><value>2025-04-13T13:09:42.018393Z</value></time><waveformID networkCode="CX" stationCode="PB01" channelCode="HHN"/><filterID>ITAPER(2)&gt;&gt;BW(3,3,20)</filterID><methodID>L2-AIC-GRID</methodID><horizontalSlowness><value>21.036519425946583</value></horizontalSlowness><backazimuth><value>1.8640705137582074</value></backazimuth><phaseHint>S</phaseHint><evaluationMode>automatic</evaluationMode><comment><text>52.88862975837325</text><id>DFX:rectilinearity</id></comment><comment><text>de.gempa.tb1.Pick/20250413130933.667768.131374</text><id>RefPickID</id></comment><comment><text>10.117043694018017</text><id>SNR</id></comment></pick><pick publicID="de.gempa.tb1.Pick/20250413130958.536225.131395"><time><value>2025-04-13T13:09:49.268394Z</value></time><waveformID networkCode="CX" stationCode="PB02" channelCode="HHN"/><filterID>ITAPER(2)&gt;&gt;BW(3,3,20)</filterID><methodID>L2-AIC-GRID</methodID><horizontalSlowness><value>22.85630972996282</value></horizontalSlowness><backazimuth><value>29.279548290572535</value></backazimuth><phaseHint>S</phaseHint><evaluationMode>automatic</evaluationMode><comment><text>399.57617673928894</text><id>DFX:rectilinearity</id></comment><comment><text>de.gempa.tb1.Pick/20250413130937.522419.131381</text><id>RefPickID</id></comment><comment><text>9.303641070561213</text><id>SNR</id></comment></pick><pick publicID="de.gempa.tb1.Pick/20250413130958.56941.131396"><time><value>2025-04-13T13:09:50.498393Z</value></time><waveformID networkCode="CX" stationCode="PB03" channelCode="HHN"/><filterID>ITAPER(2)&gt;&gt;BW(3,3,20)</filterID><methodID>L2-AIC-GRID</methodID><horizontalSlowness><value>17.19486498573793</value></horizontalSlowness><backazimuth><value>199.57971717169715</value></backazimuth><phaseHint>S</phaseHint><evaluationMode>automatic</evaluationMode><comment><text>76.5751580774651</text><id>DFX:rectilinearity</id></comment><comment><text>de.gempa.tb1.Pick/20250413130937.505473.131379</text><id>RefPickID</id></comment><comment><text>6.035886454903048</text><id>SNR</id></comment></pick><pick publicID="de.gempa.tb1.Pick/20250413131003.447703.131401"><time><value>2025-04-13T13:09:54.969998Z</value></time><waveformID networkCode="CX" stationCode="PATCX" channelCode="HHN"/><filterID>ITAPER(2)&gt;&gt;BW(3,3,20)</filterID><methodID>L2-AIC-GRID</methodID><horizontalSlowness><value>20.926062513547912</value></horizontalSlowness><backazimuth><value>206.60311537692365</value></backazimuth><phaseHint>S</phaseHint><evaluationMode>automatic</evaluationMode><comment><text>176.71176470263129</text><id>DFX:rectilinearity</id></comment><comment><text>de.gempa.tb1.Pick/20250413130938.247638.131385</text><id>RefPickID</id></comment><comment><text>6.997098046043413</text><id>SNR</id></comment></pick><pick publicID="de.gempa.tb1.Pick/20250413131011.608279.131404"><time><value>2025-04-13T13:09:57.808393Z</value></time><waveformID networkCode="CX" stationCode="PB06" channelCode="HHN"/><filterID>ITAPER(2)&gt;&gt;BW(3,3,20)</filterID><methodID>L2-AIC-GRID</methodID><horizontalSlowness><value>14.226291267000954</value></horizontalSlowness><backazimuth><value>44.654182283562307</value></backazimuth><phaseHint>S</phaseHint><evaluationMode>automatic</evaluationMode><comment><text>61.67749862984355</text><id>DFX:rectilinearity</id></comment><comment><text>de.gempa.tb1.Pick/20250413130939.523547.131389</text><id>RefPickID</id></comment><comment><text>7.336410695883245</text><id>SNR</id></comment></pick><pick publicID="de.gempa.tb1.Pick/20250413131019.771072.131405"><time><value>2025-04-13T13:10:05.900001Z</value></time><waveformID networkCode="CX" stationCode="PSGCX" channelCode="HHN"/><filterID>ITAPER(2)&gt;&gt;BW(3,3,20)</filterID><methodID>L2-AIC-GRID</methodID><horizontalSlowness><value>21.148808974124293</value></horizontalSlowness><backazimuth><value>296.9422035283943</value></backazimuth><phaseHint>S</phaseHint><evaluationMode>automatic</evaluationMode><comment><text>43.730924178152016</text><id>DFX:rectilinearity</id></comment><comment><text>de.gempa.tb1.Pick/20250413130944.507979.131392</text><id>RefPickID</id></comment><comment><text>5.23537596084153</text><id>SNR</id></comment></pick><pick publicID="de.gempa.tb1.Pick/20250413131036.990267.131406"><time><value>2025-04-13T13:09:50.128394Z</value></time><waveformID networkCode="CX" stationCode="PB07" channelCode="HHN"/><filterID>ITAPER(2)&gt;&gt;BW(3,3,20)</filterID><methodID>L2-AIC-GRID</methodID><horizontalSlowness><value>22.774175834858514</value></horizontalSlowness><backazimuth><value>76.38529580198853</value></backazimuth><phaseHint>S</phaseHint><evaluationMode>automatic</evaluationMode><comment><text>460.4474423227441</text><id>DFX:rectilinearity</id></comment><comment><text>de.gempa.tb1.Pick/20250413130934.590447.131376</text><id>RefPickID</id></comment><comment><text>5.178569070951833</text><id>SNR</id></comment></pick><origin publicID="de.gempa.tb1.Origin/20250413131036.997686.111096"><time><value>2025-04-13T13:09:03.876311Z</value><uncertainty>0.800528347492218</uncertainty></time><latitude><value>-21.20613670349121</value><uncertainty>3.3231658935546875</uncertainty></latitude><longitude><value>-68.59827423095703</value><uncertainty>9.08525562286377</uncertainty></longitude><depth><value>130.7692413330078</value><uncertainty>11.477882385253906</uncertainty></depth><depthType>from location</depthType><methodID>LOCSAT</methodID><earthModelID>iasp91_scanloc</earthModelID><quality><associatedPhaseCount>16</associatedPhaseCount><usedPhaseCount>16</usedPhaseCount><associatedStationCount>9</associatedStationCount><usedStationCount>9</usedStationCount><depthPhaseCount>0</depthPhaseCount><standardError>0.780210674660432</standardError><azimuthalGap>237.24835205078125</azimuthalGap><maximumDistance>2.1466376781463623</maximumDistance><minimumDistance>0.8391892910003662</minimumDistance><medianDistance>1.3627599477767944</medianDistance></quality><uncertainty><minHorizontalUncertainty>6.869184494018555</minHorizontalUncertainty><maxHorizontalUncertainty>19.57600975036621</maxHorizontalUncertainty><azimuthMaxHorizontalUncertainty>84.05577850341797</azimuthMaxHorizontalUncertainty><preferredDescription>horizontal uncertainty</preferredDescription></uncertainty><evaluationMode>automatic</evaluationMode><evaluationStatus>confirmed</evaluationStatus><comment><text>0.00</text><id>mismatchScore</id></comment><comment><text>mismatchScore</text><id>scevalMethod</id></comment><arrival><pickID>de.gempa.tb1.Pick/20250413130933.667768.131374</pickID><phase>P</phase><azimuth>280.88995361328125</azimuth><distance>0.8457685708999634</distance><timeResidual>0.2587127685546875</timeResidual><timeUsed>true</timeUsed><horizontalSlownessUsed>false</horizontalSlownessUsed><backazimuthUsed>false</backazimuthUsed><weight>1</weight></arrival><arrival><pickID>de.gempa.tb1.Pick/20250413130934.590447.131376</pickID><phase>P</phase><azimuth>246.41314697265625</azimuth><distance>1.3066757917404175</distance><timeResidual>0.35015106201171875</timeResidual><timeUsed>true</timeUsed><horizontalSlownessUsed>false</horizontalSlownessUsed><backazimuthUsed>false</backazimuthUsed><weight>1</weight></arrival><arrival><pickID>de.gempa.tb1.Pick/20250413130937.505473.131379</pickID><phase>P</phase><azimuth>231.8319091796875</azimuth><distance>1.3627599477767944</distance><timeResidual>0.08237075805664062</timeResidual><timeUsed>true</timeUsed><horizontalSlownessUsed>false</horizontalSlownessUsed><backazimuthUsed>false</backazimuthUsed><weight>1</weight></arrival><arrival><pickID>de.gempa.tb1.Pick/20250413130937.522419.131381</pickID><phase>P</phase><azimuth>264.4315490722656</azimuth><distance>1.2157341241836548</distance><timeResidual>0.7267608642578125</timeResidual><timeUsed>true</timeUsed><horizontalSlownessUsed>false</horizontalSlownessUsed><backazimuthUsed>false</backazimuthUsed><weight>1</weight></arrival><arrival><pickID>de.gempa.tb1.Pick/20250413130938.046365.131383</pickID><phase>P</phase><azimuth>333.77191162109375</azimuth><distance>1.180273413658142</distance><timeResidual>0.4712619781494141</timeResidual><timeUsed>true</timeUsed><horizontalSlownessUsed>false</horizontalSlownessUsed><backazimuthUsed>false</backazimuthUsed><weight>1</weight></arrival><arrival><pickID>de.gempa.tb1.Pick/20250413130938.247638.131385</pickID><phase>P</phase><azimuth>284.5126953125</azimuth><distance>1.502231240272522</distance><timeResidual>1.1142158508300781</timeResidual><timeUsed>true</timeUsed><horizontalSlownessUsed>false</horizontalSlownessUsed><backazimuthUsed>false</backazimuthUsed><weight>1</weight></arrival><arrival><pickID>de.gempa.tb1.Pick/20250413130939.220089.131387</pickID><phase>P</phase><azimuth>225.4648132324219</azimuth><distance>0.8391892910003662</distance><timeResidual>0.26012420654296875</timeResidual><timeUsed>true</timeUsed><horizontalSlownessUsed>false</horizontalSlownessUsed><backazimuthUsed>false</backazimuthUsed><weight>1</weight></arrival><arrival><pickID>de.gempa.tb1.Pick/20250413130939.523547.131389</pickID><phase>P</phase><azimuth>211.020263671875</azimuth><distance>1.7447409629821777</distance><timeResidual>-0.14667892456054688</timeResidual><timeUsed>true</timeUsed><horizontalSlownessUsed>false</horizontalSlownessUsed><backazimuthUsed>false</backazimuthUsed><weight>1</weight></arrival><arrival><pickID>de.gempa.tb1.Pick/20250413130944.507979.131392</pickID><phase>P</phase><azimuth>317.9527893066406</azimuth><distance>2.1466376781463623</distance><timeResidual>-0.9434852600097656</timeResidual><timeUsed>true</timeUsed><horizontalSlownessUsed>false</horizontalSlownessUsed><backazimuthUsed>false</backazimuthUsed><weight>1</weight></arrival><arrival><pickID>de.gempa.tb1.Pick/20250413130948.783115.131394</pickID><phase>S</phase><azimuth>280.88995361328125</azimuth><distance>0.8457685708999634</distance><timeResidual>-0.25086212158203125</timeResidual><timeUsed>true</timeUsed><horizontalSlownessUsed>false</horizontalSlownessUsed><backazimuthUsed>false</backazimuthUsed><weight>1</weight></arrival><arrival><pickID>de.gempa.tb1.Pick/20250413130958.536225.131395</pickID><phase>S</phase><azimuth>264.4315490722656</azimuth><distance>1.2157341241836548</distance><timeResidual>0.7848930358886719</timeResidual><timeUsed>true</timeUsed><horizontalSlownessUsed>false</horizontalSlownessUsed><backazimuthUsed>false</backazimuthUsed><weight>1</weight></arrival><arrival><pickID>de.gempa.tb1.Pick/20250413130958.56941.131396</pickID><phase>S</phase><azimuth>231.8319091796875</azimuth><distance>1.3627599477767944</distance><timeResidual>-0.7434654235839844</timeResidual><timeUsed>true</timeUsed><horizontalSlownessUsed>false</horizontalSlownessUsed><backazimuthUsed>false</backazimuthUsed><weight>1</weight></arrival><arrival><pickID>de.gempa.tb1.Pick/20250413131003.447703.131401</pickID><phase>S</phase><azimuth>284.5126953125</azimuth><distance>1.502231240272522</distance><timeResidual>0.9769878387451172</timeResidual><timeUsed>true</timeUsed><horizontalSlownessUsed>false</horizontalSlownessUsed><backazimuthUsed>false</backazimuthUsed><weight>1</weight></arrival><arrival><pickID>de.gempa.tb1.Pick/20250413131011.608279.131404</pickID><phase>S</phase><azimuth>211.020263671875</azimuth><distance>1.7447409629821777</distance><timeResidual>-1.1383628845214844</timeResidual><timeUsed>true</timeUsed><horizontalSlownessUsed>false</horizontalSlownessUsed><backazimuthUsed>false</backazimuthUsed><weight>1</weight></arrival><arrival><pickID>de.gempa.tb1.Pick/20250413131019.771072.131405</pickID><phase>S</phase><azimuth>317.9527893066406</azimuth><distance>2.1466376781463623</distance><timeResidual>-1.757293701171875</timeResidual><timeUsed>true</timeUsed><horizontalSlownessUsed>false</horizontalSlownessUsed><backazimuthUsed>false</backazimuthUsed><weight>1</weight></arrival><arrival><pickID>de.gempa.tb1.Pick/20250413131036.990267.131406</pickID><phase>S</phase><azimuth>246.41314697265625</azimuth><distance>1.3066757917404175</distance><timeResidual>-0.04538726806640625</timeResidual><timeUsed>true</timeUsed><horizontalSlownessUsed>false</horizontalSlownessUsed><backazimuthUsed>false</backazimuthUsed><weight>1</weight></arrival><magnitude publicID="de.gempa.tb1.Magnitude/20250413131147.560887.360858"><magnitude><value>2.6474442193546825</value></magnitude><type>M</type><methodID>weighted average</methodID><stationCount>6</stationCount></magnitude></origin><event publicID="gempa2025hhko"><preferredOriginID>de.gempa.tb1.Origin/20250413131036.997686.111096</preferredOriginID><preferredMagnitudeID>de.gempa.tb1.Magnitude/20250413131147.560887.360858</preferredMagnitudeID><description><text>Chile-Bolivia Border Region</text><type>region name</type></description><originReference>de.gempa.tb1.Origin/20250413131036.997686.111096</originReference></event></EventParameters></seiscomp>