<?xml version="1.0" encoding="UTF-8"?>
<seiscomp xmlns="http://geofon.gfz-potsdam.de/ns/seiscomp3-schema/0.13" version="0.13"><EventParameters><pick publicID="de.gempa.tb1.Pick/20250412141839.117003.162565"><time><value>2025-04-12T14:18:35.795Z</value></time><waveformID networkCode="CH" stationCode="TRULL" channelCode="HHZ"/><filterID>ITAPER(4)&gt;&gt;BW(4,4,20)</filterID><methodID>AIC</methodID><phaseHint>P</phaseHint><evaluationMode>automatic</evaluationMode></pick><pick publicID="de.gempa.tb1.Pick/20250412141845.55511.162578"><time><value>2025-04-12T14:18:41.635Z</value></time><waveformID networkCode="CH" stationCode="ROTHE" channelCode="HHZ"/><filterID>ITAPER(4)&gt;&gt;BW(4,4,20)</filterID><methodID>AIC</methodID><phaseHint>P</phaseHint><evaluationMode>automatic</evaluationMode></pick><pick publicID="de.gempa.tb1.Pick/20250412141846.686901.162580"><time><value>2025-04-12T14:18:37.78Z</value></time><waveformID networkCode="CH" stationCode="ACB" channelCode="HHZ"/><filterID>ITAPER(4)&gt;&gt;BW(4,4,20)</filterID><methodID>AIC</methodID><phaseHint>P</phaseHint><evaluationMode>automatic</evaluationMode></pick><pick publicID="de.gempa.tb1.Pick/20250412141848.604511.162584"><time><value>2025-04-12T14:18:39.955Z</value></time><waveformID networkCode="CH" stationCode="WILA" channelCode="HHZ"/><filterID>ITAPER(4)&gt;&gt;BW(4,4,20)</filterID><methodID>AIC</methodID><phaseHint>P</phaseHint><evaluationMode>automatic</evaluationMode></pick><pick publicID="de.gempa.tb1.Pick/20250412141855.1819.162588"><time><value>2025-04-12T14:18:52.440001Z</value></time><waveformID networkCode="CH" stationCode="WIMIS" channelCode="HHZ"/><filterID>ITAPER(4)&gt;&gt;BW(4,4,20)</filterID><methodID>AIC</methodID><phaseHint>P</phaseHint><evaluationMode>automatic</evaluationMode></pick><origin publicID="de.gempa.tb1.Origin/20250412141855.184291.103858"><time><value>2025-04-12T14:18:30.774554Z</value><uncertainty>5.220846652984619</uncertainty></time><latitude><value>47.7030029296875</value><uncertainty>52.16131591796875</uncertainty></latitude><longitude><value>8.554858207702637</value><uncertainty>8.37928581237793</uncertainty></longitude><depth><value>20.560914993286133</value><uncertainty>13.555742263793945</uncertainty></depth><depthType>from location</depthType><methodID>LOCSAT</methodID><earthModelID>iasp91</earthModelID><quality><associatedPhaseCount>5</associatedPhaseCount><usedPhaseCount>5</usedPhaseCount><associatedStationCount>5</associatedStationCount><usedStationCount>5</usedStationCount><depthPhaseCount>0</depthPhaseCount><standardError>0.028539819773671014</standardError><azimuthalGap>239.98829650878906</azimuthalGap><maximumDistance>1.2172482013702393</maximumDistance><minimumDistance>0.10143768042325974</minimumDistance><medianDistance>0.3745647370815277</medianDistance></quality><uncertainty><minHorizontalUncertainty>10.150666236877441</minHorizontalUncertainty><maxHorizontalUncertainty>112.8479766845703</maxHorizontalUncertainty><azimuthMaxHorizontalUncertainty>7.582116603851318</azimuthMaxHorizontalUncertainty><preferredDescription>horizontal uncertainty</preferredDescription></uncertainty><evaluationMode>automatic</evaluationMode><arrival><pickID>de.gempa.tb1.Pick/20250412141839.117003.162565</pickID><phase>P</phase><azimuth>122.3412322998047</azimuth><distance>0.10143768042325974</distance><timeResidual>-0.021549701690673828</timeResidual><timeUsed>true</timeUsed><horizontalSlownessUsed>false</horizontalSlownessUsed><backazimuthUsed>false</backazimuthUsed><weight>1</weight></arrival><arrival><pickID>de.gempa.tb1.Pick/20250412141845.55511.162578</pickID><phase>P</phase><azimuth>242.3529357910156</azimuth><distance>0.485456258058548</distance><timeResidual>0.03912067413330078</timeResidual><timeUsed>true</timeUsed><horizontalSlownessUsed>false</horizontalSlownessUsed><backazimuthUsed>false</backazimuthUsed><weight>1</weight></arrival><arrival><pickID>de.gempa.tb1.Pick/20250412141846.686901.162580</pickID><phase>P</phase><azimuth>240.4929656982422</azimuth><distance>0.2337472140789032</distance><timeResidual>-0.026449203491210941</timeResidual><timeUsed>true</timeUsed><horizontalSlownessUsed>false</horizontalSlownessUsed><backazimuthUsed>false</backazimuthUsed><weight>1</weight></arrival><arrival><pickID>de.gempa.tb1.Pick/20250412141848.604511.162584</pickID><phase>P</phase><azimuth>140.24893188476562</azimuth><distance>0.3745647370815277</distance><timeResidual>0.030287742614746094</timeResidual><timeUsed>true</timeUsed><horizontalSlownessUsed>false</horizontalSlownessUsed><backazimuthUsed>false</backazimuthUsed><weight>1</weight></arrival><arrival><pickID>de.gempa.tb1.Pick/20250412141855.1819.162588</pickID><phase>P</phase><azimuth>211.77462768554688</azimuth><distance>1.2172482013702393</distance><timeResidual>-0.021468162536621094</timeResidual><timeUsed>true</timeUsed><horizontalSlownessUsed>false</horizontalSlownessUsed><backazimuthUsed>false</backazimuthUsed><weight>1</weight></arrival><magnitude publicID="de.gempa.tb1.Magnitude/20250412142001.98347.238263"><magnitude><value>1.4473126149200894</value></magnitude><type>M</type><methodID>weighted average</methodID><stationCount>3</stationCount></magnitude></origin><event publicID="gempa2025hfqw"><preferredOriginID>de.gempa.tb1.Origin/20250412141855.184291.103858</preferredOriginID><preferredMagnitudeID>de.gempa.tb1.Magnitude/20250412142001.98347.238263</preferredMagnitudeID><typeCertainty>suspected</typeCertainty><description><text>Switzerland</text><type>region name</type></description><originReference>de.gempa.tb1.Origin/20250412141855.184291.103858</originReference></event></EventParameters></seiscomp>