<?xml version="1.0" encoding="UTF-8"?>
<seiscomp xmlns="http://geofon.gfz-potsdam.de/ns/seiscomp3-schema/0.13" version="0.13"><EventParameters><pick publicID="de.gempa.tb1.Pick/20250414223505.610128.141795"><time><value>2025-04-14T22:34:58.958393Z</value></time><waveformID networkCode="CX" stationCode="PB06" channelCode="HHZ"/><filterID>ITAPER(4)&gt;&gt;BW(4,4,20)</filterID><methodID>AIC</methodID><horizontalSlowness><value>3.139883917141257</value></horizontalSlowness><backazimuth><value>65.84753073903484</value></backazimuth><phaseHint>P</phaseHint><evaluationMode>automatic</evaluationMode><comment><text>72.98651250642014</text><id>DFX:rectilinearity</id></comment><comment><text>27.65254711692932</text><id>SNR</id></comment></pick><pick publicID="de.gempa.tb1.Pick/20250414223505.674259.141797"><time><value>2025-04-14T22:35:01.398391Z</value></time><waveformID networkCode="CX" stationCode="PB03" channelCode="HHZ"/><filterID>ITAPER(4)&gt;&gt;BW(4,4,20)</filterID><methodID>AIC</methodID><horizontalSlowness><value>10.665714083429425</value></horizontalSlowness><backazimuth><value>121.85974274670502</value></backazimuth><phaseHint>P</phaseHint><evaluationMode>automatic</evaluationMode><comment><text>157.08371473137532</text><id>DFX:rectilinearity</id></comment><comment><text>181.00607335221645</text><id>SNR</id></comment></pick><pick publicID="de.gempa.tb1.Pick/20250414223507.605638.141799"><time><value>2025-04-14T22:35:01.098393Z</value></time><waveformID networkCode="CX" stationCode="PB15" channelCode="HHZ"/><filterID>ITAPER(4)&gt;&gt;BW(4,4,20)</filterID><methodID>AIC</methodID><horizontalSlowness><value>20.886489218006155</value></horizontalSlowness><backazimuth><value>72.52291798988138</value></backazimuth><phaseHint>P</phaseHint><evaluationMode>automatic</evaluationMode><comment><text>3681.990187035148</text><id>DFX:rectilinearity</id></comment><comment><text>25.218738717346774</text><id>SNR</id></comment></pick><pick publicID="de.gempa.tb1.Pick/20250414223510.579887.141801"><time><value>2025-04-14T22:35:04.548397Z</value></time><waveformID networkCode="CX" stationCode="PB07" channelCode="HHZ"/><filterID>ITAPER(4)&gt;&gt;BW(4,4,20)</filterID><methodID>AIC</methodID><horizontalSlowness><value>19.218429083967596</value></horizontalSlowness><backazimuth><value>150.69302007642904</value></backazimuth><phaseHint>P</phaseHint><evaluationMode>automatic</evaluationMode><comment><text>234.8050728599825</text><id>DFX:rectilinearity</id></comment><comment><text>162.73943405720547</text><id>SNR</id></comment></pick><pick publicID="de.gempa.tb1.Pick/20250414223512.574598.141803"><time><value>2025-04-14T22:35:08.098393Z</value></time><waveformID networkCode="CX" stationCode="PB01" channelCode="HHZ"/><filterID>ITAPER(4)&gt;&gt;BW(4,4,20)</filterID><methodID>AIC</methodID><horizontalSlowness><value>15.386388708854403</value></horizontalSlowness><backazimuth><value>179.14610317895574</value></backazimuth><phaseHint>P</phaseHint><evaluationMode>automatic</evaluationMode><comment><text>12.280016327151488</text><id>DFX:rectilinearity</id></comment><comment><text>34.670159706125325</text><id>SNR</id></comment></pick><pick publicID="de.gempa.tb1.Pick/20250414223513.176134.141805"><time><value>2025-04-14T22:34:59.81Z</value></time><waveformID networkCode="CX" stationCode="PB09" channelCode="HHZ"/><filterID>ITAPER(4)&gt;&gt;BW(4,4,20)</filterID><methodID>AIC</methodID><horizontalSlowness><value>17.502053105455975</value></horizontalSlowness><backazimuth><value>121.37709672652176</value></backazimuth><phaseHint>P</phaseHint><evaluationMode>automatic</evaluationMode><comment><text>57.53683651053402</text><id>DFX:rectilinearity</id></comment><comment><text>82.66612141634783</text><id>SNR</id></comment></pick><pick publicID="de.gempa.tb1.Pick/20250414223515.602757.141807"><time><value>2025-04-14T22:35:07.998393Z</value></time><waveformID networkCode="CX" stationCode="PB02" channelCode="HHZ"/><filterID>ITAPER(4)&gt;&gt;BW(4,4,20)</filterID><methodID>AIC</methodID><horizontalSlowness><value>2.5901136683095363</value></horizontalSlowness><backazimuth><value>207.8710675195593</value></backazimuth><phaseHint>P</phaseHint><evaluationMode>automatic</evaluationMode><comment><text>49.14738096875134</text><id>DFX:rectilinearity</id></comment><comment><text>22.77154661714099</text><id>SNR</id></comment></pick><pick publicID="de.gempa.tb1.Pick/20250414223516.529949.141809"><time><value>2025-04-14T22:35:07.25Z</value></time><waveformID networkCode="CX" stationCode="PB19" channelCode="HHZ"/><filterID>ITAPER(4)&gt;&gt;BW(4,4,20)</filterID><methodID>AIC</methodID><horizontalSlowness><value>11.744098462072811</value></horizontalSlowness><backazimuth><value>98.84056036814096</value></backazimuth><phaseHint>P</phaseHint><evaluationMode>automatic</evaluationMode><comment><text>26.24353199437317</text><id>DFX:rectilinearity</id></comment><comment><text>12.202976855078477</text><id>SNR</id></comment></pick><pick publicID="de.gempa.tb1.Pick/20250414223521.593632.141811"><time><value>2025-04-14T22:35:14.158393Z</value></time><waveformID networkCode="CX" stationCode="PB06" channelCode="HHN"/><filterID>ITAPER(2)&gt;&gt;BW(3,3,20)</filterID><methodID>L2-AIC-GRID</methodID><horizontalSlowness><value>20.24554014763877</value></horizontalSlowness><backazimuth><value>78.39036866175869</value></backazimuth><phaseHint>S</phaseHint><evaluationMode>automatic</evaluationMode><comment><text>73.9717971396651</text><id>DFX:rectilinearity</id></comment><comment><text>de.gempa.tb1.Pick/20250414223505.610128.141795</text><id>RefPickID</id></comment><comment><text>10.615458162823735</text><id>SNR</id></comment></pick><pick publicID="de.gempa.tb1.Pick/20250414223523.768616.141812"><time><value>2025-04-14T22:35:17.658393Z</value></time><waveformID networkCode="CX" stationCode="PB15" channelCode="HHN"/><filterID>ITAPER(2)&gt;&gt;BW(3,3,20)</filterID><methodID>L2-AIC-GRID</methodID><horizontalSlowness><value>22.69247643181817</value></horizontalSlowness><backazimuth><value>123.5464248258946</value></backazimuth><phaseHint>S</phaseHint><evaluationMode>automatic</evaluationMode><comment><text>17065.320615657973</text><id>DFX:rectilinearity</id></comment><comment><text>de.gempa.tb1.Pick/20250414223507.605638.141799</text><id>RefPickID</id></comment><comment><text>6.912840256499899</text><id>SNR</id></comment></pick><pick publicID="de.gempa.tb1.Pick/20250414223524.444347.141813"><time><value>2025-04-14T22:35:14.409999Z</value></time><waveformID networkCode="CX" stationCode="PATCX" channelCode="HHZ"/><filterID>ITAPER(4)&gt;&gt;BW(4,4,20)</filterID><methodID>AIC</methodID><horizontalSlowness><value>23.517582161420037</value></horizontalSlowness><backazimuth><value>66.54623374270774</value></backazimuth><phaseHint>P</phaseHint><evaluationMode>automatic</evaluationMode><comment><text>145.06780116147021</text><id>DFX:rectilinearity</id></comment><comment><text>10.35078869012496</text><id>SNR</id></comment></pick><pick publicID="de.gempa.tb1.Pick/20250414223524.774241.141815"><time><value>2025-04-14T22:35:18.048391Z</value></time><waveformID networkCode="CX" stationCode="PB03" channelCode="HHN"/><filterID>ITAPER(2)&gt;&gt;BW(3,3,20)</filterID><methodID>L2-AIC-GRID</methodID><horizontalSlowness><value>14.770967711653748</value></horizontalSlowness><backazimuth><value>337.07675063467934</value></backazimuth><phaseHint>S</phaseHint><evaluationMode>automatic</evaluationMode><comment><text>294.0764196534205</text><id>DFX:rectilinearity</id></comment><comment><text>de.gempa.tb1.Pick/20250414223505.674259.141797</text><id>RefPickID</id></comment><comment><text>6.555167439261763</text><id>SNR</id></comment></pick><pick publicID="de.gempa.tb1.Pick/20250414223535.573612.141820"><time><value>2025-04-14T22:35:28.02Z</value></time><waveformID networkCode="CX" stationCode="PB19" channelCode="HHN"/><filterID>ITAPER(2)&gt;&gt;BW(3,3,20)</filterID><methodID>L2-AIC-GRID</methodID><horizontalSlowness><value>21.885180697815308</value></horizontalSlowness><backazimuth><value>24.53346691578369</value></backazimuth><phaseHint>S</phaseHint><evaluationMode>automatic</evaluationMode><comment><text>139.34157591799033</text><id>DFX:rectilinearity</id></comment><comment><text>de.gempa.tb1.Pick/20250414223516.529949.141809</text><id>RefPickID</id></comment><comment><text>8.835599223447902</text><id>SNR</id></comment></pick><pick publicID="de.gempa.tb1.Pick/20250414223541.553093.141823"><time><value>2025-04-14T22:35:29.478393Z</value></time><waveformID networkCode="CX" stationCode="PB02" channelCode="HHN"/><filterID>ITAPER(2)&gt;&gt;BW(3,3,20)</filterID><methodID>L2-AIC-GRID</methodID><horizontalSlowness><value>9.226631436059554</value></horizontalSlowness><backazimuth><value>267.9519931864801</value></backazimuth><phaseHint>S</phaseHint><evaluationMode>automatic</evaluationMode><comment><text>254.28832923447743</text><id>DFX:rectilinearity</id></comment><comment><text>de.gempa.tb1.Pick/20250414223515.602757.141807</text><id>RefPickID</id></comment><comment><text>5.839437043130438</text><id>SNR</id></comment></pick><pick publicID="de.gempa.tb1.Pick/20250414223542.576949.141824"><time><value>2025-04-14T22:35:29.728393Z</value></time><waveformID networkCode="CX" stationCode="PB01" channelCode="HHN"/><filterID>ITAPER(2)&gt;&gt;BW(3,3,20)</filterID><methodID>L2-AIC-GRID</methodID><horizontalSlowness><value>19.668440654046083</value></horizontalSlowness><backazimuth><value>34.271425919969573</value></backazimuth><phaseHint>S</phaseHint><evaluationMode>automatic</evaluationMode><comment><text>96.77426676617306</text><id>DFX:rectilinearity</id></comment><comment><text>de.gempa.tb1.Pick/20250414223512.574598.141803</text><id>RefPickID</id></comment><comment><text>7.687485916348646</text><id>SNR</id></comment></pick><pick publicID="de.gempa.tb1.Pick/20250414223549.402748.141825"><time><value>2025-04-14T22:35:23.678397Z</value></time><waveformID networkCode="CX" stationCode="PB07" channelCode="HHN"/><filterID>ITAPER(2)&gt;&gt;BW(3,3,20)</filterID><methodID>L2-AIC-GRID</methodID><horizontalSlowness><value>23.053858233435403</value></horizontalSlowness><backazimuth><value>226.81620642917196</value></backazimuth><phaseHint>S</phaseHint><evaluationMode>automatic</evaluationMode><comment><text>2407.7957254777575</text><id>DFX:rectilinearity</id></comment><comment><text>de.gempa.tb1.Pick/20250414223510.579887.141801</text><id>RefPickID</id></comment><comment><text>5.146453563060637</text><id>SNR</id></comment></pick><origin publicID="de.gempa.tb1.Origin/20250414223549.408495.153268"><time><value>2025-04-14T22:34:40.157144Z</value><uncertainty>0.7652586102485657</uncertainty></time><latitude><value>-22.482601165771484</value><uncertainty>3.327423334121704</uncertainty></latitude><longitude><value>-68.77110290527344</value><uncertainty>13.429574012756348</uncertainty></longitude><depth><value>112.09695434570312</value><uncertainty>13.583473205566406</uncertainty></depth><depthType>from location</depthType><methodID>LOCSAT</methodID><earthModelID>iasp91_scanloc</earthModelID><quality><associatedPhaseCount>16</associatedPhaseCount><usedPhaseCount>16</usedPhaseCount><associatedStationCount>9</associatedStationCount><usedStationCount>9</usedStationCount><depthPhaseCount>0</depthPhaseCount><standardError>0.17290198619429534</standardError><azimuthalGap>223.62371826171875</azimuthalGap><maximumDistance>2.0945558547973633</maximumDistance><minimumDistance>0.7726626992225647</minimumDistance><medianDistance>1.2787737846374512</medianDistance></quality><uncertainty><minHorizontalUncertainty>5.414328575134277</minHorizontalUncertainty><maxHorizontalUncertainty>29.15902519226074</maxHorizontalUncertainty><azimuthMaxHorizontalUncertainty>80.67414093017578</azimuthMaxHorizontalUncertainty><preferredDescription>horizontal uncertainty</preferredDescription></uncertainty><evaluationMode>automatic</evaluationMode><evaluationStatus>confirmed</evaluationStatus><comment><text>0.00</text><id>mismatchScore</id></comment><comment><text>mismatchScore</text><id>scevalMethod</id></comment><arrival><pickID>de.gempa.tb1.Pick/20250414223505.610128.141795</pickID><phase>P</phase><azimuth>253.1389465332031</azimuth><distance>0.7726626992225647</distance><timeResidual>-0.4224090576171875</timeResidual><timeUsed>true</timeUsed><horizontalSlownessUsed>false</horizontalSlownessUsed><backazimuthUsed>false</backazimuthUsed><weight>1</weight></arrival><arrival><pickID>de.gempa.tb1.Pick/20250414223505.674259.141797</pickID><phase>P</phase><azimuth>295.22064208984375</azimuth><distance>1.0070343017578125</distance><timeResidual>-0.23545074462890625</timeResidual><timeUsed>true</timeUsed><horizontalSlownessUsed>false</horizontalSlownessUsed><backazimuthUsed>false</backazimuthUsed><weight>1</weight></arrival><arrival><pickID>de.gempa.tb1.Pick/20250414223507.605638.141799</pickID><phase>P</phase><azimuth>221.65354919433594</azimuth><distance>0.9687656164169312</distance><timeResidual>-0.14130783081054688</timeResidual><timeUsed>true</timeUsed><horizontalSlownessUsed>false</horizontalSlownessUsed><backazimuthUsed>false</backazimuthUsed><weight>1</weight></arrival><arrival><pickID>de.gempa.tb1.Pick/20250414223510.579887.141801</pickID><phase>P</phase><azimuth>305.8258972167969</azimuth><distance>1.2787737846374512</distance><timeResidual>-0.020128250122070312</timeResidual><timeUsed>true</timeUsed><horizontalSlownessUsed>false</horizontalSlownessUsed><backazimuthUsed>false</backazimuthUsed><weight>1</weight></arrival><arrival><pickID>de.gempa.tb1.Pick/20250414223512.574598.141803</pickID><phase>P</phase><azimuth>334.9351806640625</azimuth><distance>1.5795531272888184</distance><timeResidual>0.016012191772460938</timeResidual><timeUsed>true</timeUsed><horizontalSlownessUsed>false</horizontalSlownessUsed><backazimuthUsed>false</backazimuthUsed><weight>1</weight></arrival><arrival><pickID>de.gempa.tb1.Pick/20250414223513.176134.141805</pickID><phase>P</phase><azimuth>327.3251647949219</azimuth><distance>0.8105104565620422</distance><timeResidual>0.08337211608886719</timeResidual><timeUsed>true</timeUsed><horizontalSlownessUsed>false</horizontalSlownessUsed><backazimuthUsed>false</backazimuthUsed><weight>1</weight></arrival><arrival><pickID>de.gempa.tb1.Pick/20250414223515.602757.141807</pickID><phase>P</phase><azimuth>317.7154846191406</azimuth><distance>1.5590201616287231</distance><timeResidual>0.1636028289794922</timeResidual><timeUsed>true</timeUsed><horizontalSlownessUsed>false</horizontalSlownessUsed><backazimuthUsed>false</backazimuthUsed><weight>1</weight></arrival><arrival><pickID>de.gempa.tb1.Pick/20250414223516.529949.141809</pickID><phase>P</phase><azimuth>198.55889892578125</azimuth><distance>1.4941232204437256</distance><timeResidual>0.2016754150390625</timeResidual><timeUsed>true</timeUsed><horizontalSlownessUsed>false</horizontalSlownessUsed><backazimuthUsed>false</backazimuthUsed><weight>1</weight></arrival><arrival><pickID>de.gempa.tb1.Pick/20250414223521.593632.141811</pickID><phase>S</phase><azimuth>253.1389465332031</azimuth><distance>0.7726626992225647</distance><timeResidual>-0.04821205139160156</timeResidual><timeUsed>true</timeUsed><horizontalSlownessUsed>false</horizontalSlownessUsed><backazimuthUsed>false</backazimuthUsed><weight>1</weight></arrival><arrival><pickID>de.gempa.tb1.Pick/20250414223523.768616.141812</pickID><phase>S</phase><azimuth>221.65354919433594</azimuth><distance>0.9687656164169312</distance><timeResidual>0.13715553283691406</timeResidual><timeUsed>true</timeUsed><horizontalSlownessUsed>false</horizontalSlownessUsed><backazimuthUsed>false</backazimuthUsed><weight>1</weight></arrival><arrival><pickID>de.gempa.tb1.Pick/20250414223524.444347.141813</pickID><phase>P</phase><azimuth>321.8868713378906</azimuth><distance>2.0945558547973633</distance><timeResidual>-0.06267356872558594</timeResidual><timeUsed>true</timeUsed><horizontalSlownessUsed>false</horizontalSlownessUsed><backazimuthUsed>false</backazimuthUsed><weight>1</weight></arrival><arrival><pickID>de.gempa.tb1.Pick/20250414223524.774241.141815</pickID><phase>S</phase><azimuth>295.22064208984375</azimuth><distance>1.0070343017578125</distance><timeResidual>-0.17469406127929688</timeResidual><timeUsed>true</timeUsed><horizontalSlownessUsed>false</horizontalSlownessUsed><backazimuthUsed>false</backazimuthUsed><weight>1</weight></arrival><arrival><pickID>de.gempa.tb1.Pick/20250414223535.573612.141820</pickID><phase>S</phase><azimuth>198.55889892578125</azimuth><distance>1.4941232204437256</distance><timeResidual>0.1230945587158203</timeResidual><timeUsed>true</timeUsed><horizontalSlownessUsed>false</horizontalSlownessUsed><backazimuthUsed>false</backazimuthUsed><weight>1</weight></arrival><arrival><pickID>de.gempa.tb1.Pick/20250414223541.553093.141823</pickID><phase>S</phase><azimuth>317.7154846191406</azimuth><distance>1.5590201616287231</distance><timeResidual>0.17765235900878906</timeResidual><timeUsed>true</timeUsed><horizontalSlownessUsed>false</horizontalSlownessUsed><backazimuthUsed>false</backazimuthUsed><weight>1</weight></arrival><arrival><pickID>de.gempa.tb1.Pick/20250414223542.576949.141824</pickID><phase>S</phase><azimuth>334.9351806640625</azimuth><distance>1.5795531272888184</distance><timeResidual>-0.014738082885742188</timeResidual><timeUsed>true</timeUsed><horizontalSlownessUsed>false</horizontalSlownessUsed><backazimuthUsed>false</backazimuthUsed><weight>1</weight></arrival><arrival><pickID>de.gempa.tb1.Pick/20250414223549.402748.141825</pickID><phase>S</phase><azimuth>305.8258972167969</azimuth><distance>1.2787737846374512</distance><timeResidual>0.21661949157714844</timeResidual><timeUsed>true</timeUsed><horizontalSlownessUsed>false</horizontalSlownessUsed><backazimuthUsed>false</backazimuthUsed><weight>1</weight></arrival><magnitude publicID="de.gempa.tb1.Magnitude/20250414223550.939822.547464"><magnitude><value>2.537943123747912</value></magnitude><type>M</type><methodID>weighted average</methodID><stationCount>6</stationCount></magnitude></origin><event publicID="gempa2025hjzl"><preferredOriginID>de.gempa.tb1.Origin/20250414223549.408495.153268</preferredOriginID><preferredMagnitudeID>de.gempa.tb1.Magnitude/20250414223550.939822.547464</preferredMagnitudeID><description><text>Northern Chile</text><type>region name</type></description><originReference>de.gempa.tb1.Origin/20250414223549.408495.153268</originReference></event></EventParameters></seiscomp>