<?xml version="1.0" encoding="UTF-8"?>
<seiscomp xmlns="http://geofon.gfz-potsdam.de/ns/seiscomp3-schema/0.13" version="0.13"><EventParameters><pick publicID="de.gempa.tb1.Pick/20250412121046.609978.123830"><time><value>2025-04-12T12:10:40.53Z</value></time><waveformID networkCode="CX" stationCode="PB19" channelCode="HHZ"/><filterID>ITAPER(4)&gt;&gt;BW(4,4,20)</filterID><methodID>AIC</methodID><horizontalSlowness><value>9.802943317190156</value></horizontalSlowness><backazimuth><value>202.88787337795924</value></backazimuth><phaseHint>P</phaseHint><evaluationMode>automatic</evaluationMode><comment><text>1083.5174108589272</text><id>DFX:rectilinearity</id></comment><comment><text>51.53064056905919</text><id>SNR</id></comment></pick><pick publicID="de.gempa.tb1.Pick/20250412121053.655968.123832"><time><value>2025-04-12T12:10:48.448393Z</value></time><waveformID networkCode="CX" stationCode="PB15" channelCode="HHZ"/><filterID>ITAPER(4)&gt;&gt;BW(4,4,20)</filterID><methodID>AIC</methodID><horizontalSlowness><value>18.82125825784384</value></horizontalSlowness><backazimuth><value>201.07341720035936</value></backazimuth><phaseHint>P</phaseHint><evaluationMode>automatic</evaluationMode><comment><text>8305.813887237173</text><id>DFX:rectilinearity</id></comment><comment><text>24.391996096616133</text><id>SNR</id></comment></pick><pick publicID="de.gempa.tb1.Pick/20250412121059.526326.123834"><time><value>2025-04-12T12:10:53.188393Z</value></time><waveformID networkCode="CX" stationCode="PB06" channelCode="HHZ"/><filterID>ITAPER(4)&gt;&gt;BW(4,4,20)</filterID><methodID>AIC</methodID><horizontalSlowness><value>11.122202316236372</value></horizontalSlowness><backazimuth><value>196.38733509673995</value></backazimuth><phaseHint>P</phaseHint><evaluationMode>automatic</evaluationMode><comment><text>258.0719955265978</text><id>DFX:rectilinearity</id></comment><comment><text>13.425834353192242</text><id>SNR</id></comment></pick><pick publicID="de.gempa.tb1.Pick/20250412121107.592405.123836"><time><value>2025-04-12T12:11:01.038391Z</value></time><waveformID networkCode="CX" stationCode="PB03" channelCode="HHZ"/><filterID>ITAPER(4)&gt;&gt;BW(4,4,20)</filterID><methodID>AIC</methodID><horizontalSlowness><value>7.219512806699228</value></horizontalSlowness><backazimuth><value>184.8017385438167</value></backazimuth><phaseHint>P</phaseHint><evaluationMode>automatic</evaluationMode><comment><text>86.94055527174908</text><id>DFX:rectilinearity</id></comment><comment><text>15.410254004793453</text><id>SNR</id></comment></pick><pick publicID="de.gempa.tb1.Pick/20250412121112.788445.123838"><time><value>2025-04-12T12:11:04.738397Z</value></time><waveformID networkCode="CX" stationCode="PB07" channelCode="HHZ"/><filterID>ITAPER(4)&gt;&gt;BW(4,4,20)</filterID><methodID>AIC</methodID><horizontalSlowness><value>12.236922126801923</value></horizontalSlowness><backazimuth><value>180.13546756206364</value></backazimuth><phaseHint>P</phaseHint><evaluationMode>automatic</evaluationMode><comment><text>588.9195499526447</text><id>DFX:rectilinearity</id></comment><comment><text>12.317211075718596</text><id>SNR</id></comment></pick><pick publicID="de.gempa.tb1.Pick/20250412121117.505642.123841"><time><value>2025-04-12T12:11:10.428393Z</value></time><waveformID networkCode="CX" stationCode="PB02" channelCode="HHZ"/><filterID>ITAPER(4)&gt;&gt;BW(4,4,20)</filterID><methodID>AIC</methodID><horizontalSlowness><value>11.229465130865709</value></horizontalSlowness><backazimuth><value>192.97421989307344</value></backazimuth><phaseHint>P</phaseHint><evaluationMode>automatic</evaluationMode><comment><text>131.01834678703824</text><id>DFX:rectilinearity</id></comment><comment><text>15.362410740680312</text><id>SNR</id></comment></pick><pick publicID="de.gempa.tb1.Pick/20250412121118.406331.123843"><time><value>2025-04-12T12:11:07.25Z</value></time><waveformID networkCode="CX" stationCode="PB09" channelCode="HHZ"/><filterID>ITAPER(4)&gt;&gt;BW(4,4,20)</filterID><methodID>AIC</methodID><horizontalSlowness><value>18.138756848222297</value></horizontalSlowness><backazimuth><value>128.28727859255667</value></backazimuth><phaseHint>P</phaseHint><evaluationMode>automatic</evaluationMode><comment><text>60.40023087723733</text><id>DFX:rectilinearity</id></comment><comment><text>18.119842978030416</text><id>SNR</id></comment></pick><origin publicID="de.gempa.tb1.Origin/20250412121119.521762.82117"><time><value>2025-04-12T12:09:24.723779Z</value><uncertainty>3.269695520401001</uncertainty></time><latitude><value>-28.15858459472656</value><uncertainty>24.873973846435547</uncertainty></latitude><longitude><value>-72.19196319580078</value><uncertainty>26.376007080078125</uncertainty></longitude><depth><value>0</value></depth><depthType>operator assigned</depthType><methodID>LOCSAT</methodID><earthModelID>iasp91_scanloc</earthModelID><quality><associatedPhaseCount>7</associatedPhaseCount><usedPhaseCount>7</usedPhaseCount><associatedStationCount>7</associatedStationCount><usedStationCount>7</usedStationCount><depthPhaseCount>0</depthPhaseCount><standardError>0.34702334726788975</standardError><azimuthalGap>345.24967765808105</azimuthalGap><maximumDistance>7.121307849884033</maximumDistance><minimumDistance>4.97532844543457</minimumDistance><medianDistance>6.47262954711914</medianDistance></quality><uncertainty><minHorizontalUncertainty>50.0639533996582</minHorizontalUncertainty><maxHorizontalUncertainty>59.48207092285156</maxHorizontalUncertainty><azimuthMaxHorizontalUncertainty>55.03348159790039</azimuthMaxHorizontalUncertainty><preferredDescription>horizontal uncertainty</preferredDescription></uncertainty><evaluationMode>automatic</evaluationMode><evaluationStatus>confirmed</evaluationStatus><comment><text>0.22</text><id>mismatchScore</id></comment><comment><text>mismatchScore</text><id>scevalMethod</id></comment><arrival><pickID>de.gempa.tb1.Pick/20250412121046.609978.123830</pickID><phase>P</phase><azimuth>32.28604507446289</azimuth><distance>4.97532844543457</distance><timeResidual>-0.16370391845703125</timeResidual><timeUsed>true</timeUsed><horizontalSlownessUsed>false</horizontalSlownessUsed><backazimuthUsed>false</backazimuthUsed><weight>1</weight></arrival><arrival><pickID>de.gempa.tb1.Pick/20250412121053.655968.123832</pickID><phase>P</phase><azimuth>27.07541084289551</azimuth><distance>5.506524085998535</distance><timeResidual>0.450958251953125</timeResidual><timeUsed>true</timeUsed><horizontalSlownessUsed>false</horizontalSlownessUsed><backazimuthUsed>false</backazimuthUsed><weight>1</weight></arrival><arrival><pickID>de.gempa.tb1.Pick/20250412121059.526326.123834</pickID><phase>P</phase><azimuth>24.144460678100586</azimuth><distance>5.92341136932373</distance><timeResidual>-0.5392532348632812</timeResidual><timeUsed>true</timeUsed><horizontalSlownessUsed>false</horizontalSlownessUsed><backazimuthUsed>false</backazimuthUsed><weight>1</weight></arrival><arrival><pickID>de.gempa.tb1.Pick/20250412121107.592405.123836</pickID><phase>P</phase><azimuth>20.500038146972656</azimuth><distance>6.47262954711914</distance><timeResidual>-0.23825836181640625</timeResidual><timeUsed>true</timeUsed><horizontalSlownessUsed>false</horizontalSlownessUsed><backazimuthUsed>false</backazimuthUsed><weight>1</weight></arrival><arrival><pickID>de.gempa.tb1.Pick/20250412121112.788445.123838</pickID><phase>P</phase><azimuth>18.59550666809082</azimuth><distance>6.736953735351562</distance><timeResidual>-0.1714324951171875</timeResidual><timeUsed>true</timeUsed><horizontalSlownessUsed>false</horizontalSlownessUsed><backazimuthUsed>false</backazimuthUsed><weight>1</weight></arrival><arrival><pickID>de.gempa.tb1.Pick/20250412121117.505642.123841</pickID><phase>P</phase><azimuth>17.535722732543945</azimuth><distance>7.121307849884033</distance><timeResidual>0.23680877685546875</timeResidual><timeUsed>true</timeUsed><horizontalSlownessUsed>false</horizontalSlownessUsed><backazimuthUsed>false</backazimuthUsed><weight>1</weight></arrival><arrival><pickID>de.gempa.tb1.Pick/20250412121118.406331.123843</pickID><phase>P</phase><azimuth>23.54627990722656</azimuth><distance>6.876382827758789</distance><timeResidual>0.42401123046875</timeResidual><timeUsed>true</timeUsed><horizontalSlownessUsed>false</horizontalSlownessUsed><backazimuthUsed>false</backazimuthUsed><weight>1</weight></arrival><magnitude publicID="de.gempa.tb1.Magnitude/20250412121120.744282.222674"><magnitude><value>4.950258038649056</value></magnitude><type>M</type><methodID>weighted average</methodID><stationCount>6</stationCount></magnitude></origin><event publicID="gempa2025hfmn"><preferredOriginID>de.gempa.tb1.Origin/20250412121119.521762.82117</preferredOriginID><preferredMagnitudeID>de.gempa.tb1.Magnitude/20250412121120.744282.222674</preferredMagnitudeID><description><text>Off Coast of Central Chile</text><type>region name</type></description><originReference>de.gempa.tb1.Origin/20250412121119.521762.82117</originReference></event></EventParameters></seiscomp>