<?xml version="1.0" encoding="UTF-8"?>
<seiscomp xmlns="http://geofon.gfz-potsdam.de/ns/seiscomp3-schema/0.13" version="0.13"><EventParameters><pick publicID="de.gempa.tb1.Pick/20250412212729.522463.126898"><time><value>2025-04-12T21:27:22.818393Z</value></time><waveformID networkCode="CX" stationCode="PB01" channelCode="HHZ"/><filterID>ITAPER(4)&gt;&gt;BW(4,4,20)</filterID><methodID>AIC</methodID><horizontalSlowness><value>18.417047413214547</value></horizontalSlowness><backazimuth><value>310.65948656933637</value></backazimuth><phaseHint>P</phaseHint><evaluationMode>automatic</evaluationMode><comment><text>11.374689701792262</text><id>DFX:rectilinearity</id></comment><comment><text>15.394195088145757</text><id>SNR</id></comment></pick><pick publicID="de.gempa.tb1.Pick/20250412212732.540444.126900"><time><value>2025-04-12T21:27:26.658394Z</value></time><waveformID networkCode="CX" stationCode="PB03" channelCode="HHZ"/><filterID>ITAPER(4)&gt;&gt;BW(4,4,20)</filterID><methodID>AIC</methodID><horizontalSlowness><value>14.761281957030391</value></horizontalSlowness><backazimuth><value>200.42642822639345</value></backazimuth><phaseHint>P</phaseHint><evaluationMode>automatic</evaluationMode><comment><text>8.661719459746486</text><id>DFX:rectilinearity</id></comment><comment><text>11.247899189957266</text><id>SNR</id></comment></pick><pick publicID="de.gempa.tb1.Pick/20250412212733.550407.126902"><time><value>2025-04-12T21:27:26.358393Z</value></time><waveformID networkCode="CX" stationCode="PB02" channelCode="HHZ"/><filterID>ITAPER(4)&gt;&gt;BW(4,4,20)</filterID><methodID>AIC</methodID><horizontalSlowness><value>7.865360023604051</value></horizontalSlowness><backazimuth><value>47.29826726343276</value></backazimuth><phaseHint>P</phaseHint><evaluationMode>automatic</evaluationMode><comment><text>36.84955653555219</text><id>DFX:rectilinearity</id></comment><comment><text>12.999095503407633</text><id>SNR</id></comment></pick><pick publicID="de.gempa.tb1.Pick/20250412212737.578437.126904"><time><value>2025-04-12T21:27:29.588393Z</value></time><waveformID networkCode="CX" stationCode="PB06" channelCode="HHZ"/><filterID>ITAPER(4)&gt;&gt;BW(4,4,20)</filterID><methodID>AIC</methodID><horizontalSlowness><value>8.768532895690338</value></horizontalSlowness><backazimuth><value>111.27920141530473</value></backazimuth><phaseHint>P</phaseHint><evaluationMode>automatic</evaluationMode><comment><text>74.64415032734874</text><id>DFX:rectilinearity</id></comment><comment><text>14.560715495488582</text><id>SNR</id></comment></pick><pick publicID="de.gempa.tb1.Pick/20250412212737.901337.126906"><time><value>2025-04-12T21:27:21.8Z</value></time><waveformID networkCode="CX" stationCode="PB09" channelCode="HHZ"/><filterID>ITAPER(4)&gt;&gt;BW(4,4,20)</filterID><methodID>AIC</methodID><horizontalSlowness><value>3.3589307986137733</value></horizontalSlowness><backazimuth><value>37.29587458758465</value></backazimuth><phaseHint>P</phaseHint><evaluationMode>automatic</evaluationMode><comment><text>8.915699684547318</text><id>DFX:rectilinearity</id></comment><comment><text>20.302321806623276</text><id>SNR</id></comment></pick><pick publicID="de.gempa.tb1.Pick/20250412212751.060745.126908"><time><value>2025-04-12T21:27:26.688393Z</value></time><waveformID networkCode="CX" stationCode="PB07" channelCode="HHZ"/><filterID>ITAPER(4)&gt;&gt;BW(4,4,20)</filterID><methodID>AIC</methodID><horizontalSlowness><value>22.410779136801622</value></horizontalSlowness><backazimuth><value>179.78324986556052</value></backazimuth><phaseHint>P</phaseHint><evaluationMode>automatic</evaluationMode><comment><text>431.65968941586806</text><id>DFX:rectilinearity</id></comment><comment><text>45.69330451505127</text><id>SNR</id></comment></pick><pick publicID="de.gempa.tb1.Pick/20250412212753.58185.126912"><time><value>2025-04-12T21:27:44.658393Z</value></time><waveformID networkCode="CX" stationCode="PB01" channelCode="HHN"/><filterID>ITAPER(2)&gt;&gt;BW(3,3,20)</filterID><methodID>L2-AIC-GRID</methodID><horizontalSlowness><value>21.992242675257927</value></horizontalSlowness><backazimuth><value>16.36694103839173</value></backazimuth><phaseHint>S</phaseHint><evaluationMode>automatic</evaluationMode><comment><text>79.10865129476937</text><id>DFX:rectilinearity</id></comment><comment><text>de.gempa.tb1.Pick/20250412212729.522463.126898</text><id>RefPickID</id></comment><comment><text>13.41708705708621</text><id>SNR</id></comment></pick><pick publicID="de.gempa.tb1.Pick/20250412212754.718578.126913"><time><value>2025-04-12T21:27:43.0000Z</value></time><waveformID networkCode="CX" stationCode="PB09" channelCode="HHN"/><filterID>ITAPER(2)&gt;&gt;BW(3,3,20)</filterID><methodID>L2-AIC-GRID</methodID><horizontalSlowness><value>17.811528354036408</value></horizontalSlowness><backazimuth><value>328.85099021368057</value></backazimuth><phaseHint>S</phaseHint><evaluationMode>automatic</evaluationMode><comment><text>32.305339976752414</text><id>DFX:rectilinearity</id></comment><comment><text>de.gempa.tb1.Pick/20250412212737.901337.126906</text><id>RefPickID</id></comment><comment><text>5.102968384834388</text><id>SNR</id></comment></pick><pick publicID="de.gempa.tb1.Pick/20250412212759.578361.126916"><time><value>2025-04-12T21:27:51.288394Z</value></time><waveformID networkCode="CX" stationCode="PB03" channelCode="HHN"/><filterID>ITAPER(2)&gt;&gt;BW(3,3,20)</filterID><methodID>L2-AIC-GRID</methodID><horizontalSlowness><value>15.232506442666</value></horizontalSlowness><backazimuth><value>238.25345004390016</value></backazimuth><phaseHint>S</phaseHint><evaluationMode>automatic</evaluationMode><comment><text>33.980370266003163</text><id>DFX:rectilinearity</id></comment><comment><text>de.gempa.tb1.Pick/20250412212732.540444.126900</text><id>RefPickID</id></comment><comment><text>8.797698839788465</text><id>SNR</id></comment></pick><pick publicID="de.gempa.tb1.Pick/20250412212802.599444.126917"><time><value>2025-04-12T21:27:50.398393Z</value></time><waveformID networkCode="CX" stationCode="PB02" channelCode="HHN"/><filterID>ITAPER(2)&gt;&gt;BW(3,3,20)</filterID><methodID>L2-AIC-GRID</methodID><horizontalSlowness><value>17.06036804502095</value></horizontalSlowness><backazimuth><value>58.97551003323818</value></backazimuth><phaseHint>S</phaseHint><evaluationMode>automatic</evaluationMode><comment><text>362.36556160277377</text><id>DFX:rectilinearity</id></comment><comment><text>de.gempa.tb1.Pick/20250412212733.550407.126902</text><id>RefPickID</id></comment><comment><text>11.279089139700892</text><id>SNR</id></comment></pick><pick publicID="de.gempa.tb1.Pick/20250412212806.577625.126919"><time><value>2025-04-12T21:27:51.308393Z</value></time><waveformID networkCode="CX" stationCode="PB07" channelCode="HHN"/><filterID>ITAPER(2)&gt;&gt;BW(3,3,20)</filterID><methodID>L2-AIC-GRID</methodID><horizontalSlowness><value>22.39176346221046</value></horizontalSlowness><backazimuth><value>240.22010158299793</value></backazimuth><phaseHint>S</phaseHint><evaluationMode>automatic</evaluationMode><comment><text>944.597229084257</text><id>DFX:rectilinearity</id></comment><comment><text>de.gempa.tb1.Pick/20250412212751.060745.126908</text><id>RefPickID</id></comment><comment><text>6.682417944531163</text><id>SNR</id></comment></pick><origin publicID="de.gempa.tb1.Origin/20250412212806.582271.92830"><time><value>2025-04-12T21:26:55.076516Z</value><uncertainty>1.0483522415161133</uncertainty></time><latitude><value>-21.299261093139648</value><uncertainty>8.566494941711426</uncertainty></latitude><longitude><value>-68.30525970458984</value><uncertainty>14.003018379211426</uncertainty></longitude><depth><value>170.667724609375</value><uncertainty>12.472573280334473</uncertainty></depth><depthType>from location</depthType><methodID>LOCSAT</methodID><earthModelID>iasp91_scanloc</earthModelID><quality><associatedPhaseCount>11</associatedPhaseCount><usedPhaseCount>11</usedPhaseCount><associatedStationCount>6</associatedStationCount><usedStationCount>6</usedStationCount><depthPhaseCount>0</depthPhaseCount><standardError>0.1084320475028958</standardError><azimuthalGap>296.9991760253906</azimuthalGap><maximumDistance>1.8278119564056396</maximumDistance><minimumDistance>1.0025246143341064</minimumDistance><medianDistance>1.4834489822387695</medianDistance></quality><uncertainty><minHorizontalUncertainty>18.307941436767578</minHorizontalUncertainty><maxHorizontalUncertainty>30.059226989746094</maxHorizontalUncertainty><azimuthMaxHorizontalUncertainty>86.46084594726562</azimuthMaxHorizontalUncertainty><preferredDescription>horizontal uncertainty</preferredDescription></uncertainty><evaluationMode>automatic</evaluationMode><evaluationStatus>confirmed</evaluationStatus><comment><text>0.19</text><id>mismatchScore</id></comment><comment><text>mismatchScore</text><id>scevalMethod</id></comment><arrival><pickID>de.gempa.tb1.Pick/20250412212729.522463.126898</pickID><phase>P</phase><azimuth>282.78936767578125</azimuth><distance>1.132336139678955</distance><timeResidual>-0.12228965759277344</timeResidual><timeUsed>true</timeUsed><horizontalSlownessUsed>false</horizontalSlownessUsed><backazimuthUsed>false</backazimuthUsed><weight>1</weight></arrival><arrival><pickID>de.gempa.tb1.Pick/20250412212732.540444.126900</pickID><phase>P</phase><azimuth>240.7662353515625</azimuth><distance>1.5392868518829346</distance><timeResidual>-0.016178131103515625</timeResidual><timeUsed>true</timeUsed><horizontalSlownessUsed>false</horizontalSlownessUsed><backazimuthUsed>false</backazimuthUsed><weight>1</weight></arrival><arrival><pickID>de.gempa.tb1.Pick/20250412212733.550407.126902</pickID><phase>P</phase><azimuth>268.9259338378906</azimuth><distance>1.4834489822387695</distance><timeResidual>0.22716522216796875</timeResidual><timeUsed>true</timeUsed><horizontalSlownessUsed>false</horizontalSlownessUsed><backazimuthUsed>false</backazimuthUsed><weight>1</weight></arrival><arrival><pickID>de.gempa.tb1.Pick/20250412212737.578437.126904</pickID><phase>P</phase><azimuth>219.78854370117188</azimuth><distance>1.8278119564056396</distance><timeResidual>-0.06040000915527344</timeResidual><timeUsed>true</timeUsed><horizontalSlownessUsed>false</horizontalSlownessUsed><backazimuthUsed>false</backazimuthUsed><weight>1</weight></arrival><arrival><pickID>de.gempa.tb1.Pick/20250412212737.901337.126906</pickID><phase>P</phase><azimuth>240.26316833496094</azimuth><distance>1.0025246143341064</distance><timeResidual>-0.09025955200195312</timeResidual><timeUsed>true</timeUsed><horizontalSlownessUsed>false</horizontalSlownessUsed><backazimuthUsed>false</backazimuthUsed><weight>1</weight></arrival><arrival><pickID>de.gempa.tb1.Pick/20250412212751.060745.126908</pickID><phase>P</phase><azimuth>253.5980987548828</azimuth><distance>1.5323004722595215</distance><timeResidual>0.08050727844238281</timeResidual><timeUsed>true</timeUsed><horizontalSlownessUsed>false</horizontalSlownessUsed><backazimuthUsed>false</backazimuthUsed><weight>1</weight></arrival><arrival><pickID>de.gempa.tb1.Pick/20250412212753.58185.126912</pickID><phase>S</phase><azimuth>282.78936767578125</azimuth><distance>1.132336139678955</distance><timeResidual>-0.05976676940917969</timeResidual><timeUsed>true</timeUsed><horizontalSlownessUsed>false</horizontalSlownessUsed><backazimuthUsed>false</backazimuthUsed><weight>1</weight></arrival><arrival><pickID>de.gempa.tb1.Pick/20250412212754.718578.126913</pickID><phase>S</phase><azimuth>240.26316833496094</azimuth><distance>1.0025246143341064</distance><timeResidual>0.1613311767578125</timeResidual><timeUsed>true</timeUsed><horizontalSlownessUsed>false</horizontalSlownessUsed><backazimuthUsed>false</backazimuthUsed><weight>1</weight></arrival><arrival><pickID>de.gempa.tb1.Pick/20250412212759.578361.126916</pickID><phase>S</phase><azimuth>240.7662353515625</azimuth><distance>1.5392868518829346</distance><timeResidual>-0.11417198181152344</timeResidual><timeUsed>true</timeUsed><horizontalSlownessUsed>false</horizontalSlownessUsed><backazimuthUsed>false</backazimuthUsed><weight>1</weight></arrival><arrival><pickID>de.gempa.tb1.Pick/20250412212802.599444.126917</pickID><phase>S</phase><azimuth>268.9259338378906</azimuth><distance>1.4834489822387695</distance><timeResidual>-0.031261444091796875</timeResidual><timeUsed>true</timeUsed><horizontalSlownessUsed>false</horizontalSlownessUsed><backazimuthUsed>false</backazimuthUsed><weight>1</weight></arrival><arrival><pickID>de.gempa.tb1.Pick/20250412212806.577625.126919</pickID><phase>S</phase><azimuth>253.5980987548828</azimuth><distance>1.5323004722595215</distance><timeResidual>0.024967193603515625</timeResidual><timeUsed>true</timeUsed><horizontalSlownessUsed>false</horizontalSlownessUsed><backazimuthUsed>false</backazimuthUsed><weight>1</weight></arrival><magnitude publicID="de.gempa.tb1.Magnitude/20250412212847.61345.285107"><magnitude><value>2.4102411636297685</value></magnitude><type>M</type><methodID>weighted average</methodID><stationCount>2</stationCount></magnitude></origin><event publicID="gempa2025hgfd"><preferredOriginID>de.gempa.tb1.Origin/20250412212806.582271.92830</preferredOriginID><preferredMagnitudeID>de.gempa.tb1.Magnitude/20250412212847.61345.285107</preferredMagnitudeID><description><text>Chile-Bolivia Border Region</text><type>region name</type></description><originReference>de.gempa.tb1.Origin/20250412212806.582271.92830</originReference></event></EventParameters></seiscomp>