<?xml version="1.0" encoding="UTF-8"?>
<seiscomp xmlns="http://geofon.gfz-potsdam.de/ns/seiscomp3-schema/0.13" version="0.13"><EventParameters><pick publicID="de.gempa.tb1.Pick/20250414022414.469676.135015"><time><value>2025-04-14T02:24:07.9Z</value></time><waveformID networkCode="CX" stationCode="PB19" channelCode="HHZ"/><filterID>ITAPER(4)&gt;&gt;BW(4,4,20)</filterID><methodID>AIC</methodID><horizontalSlowness><value>23.15243806683122</value></horizontalSlowness><backazimuth><value>124.1791620219822</value></backazimuth><phaseHint>P</phaseHint><evaluationMode>automatic</evaluationMode><comment><text>14.889328556560574</text><id>DFX:rectilinearity</id></comment><comment><text>16.34302580058868</text><id>SNR</id></comment></pick><pick publicID="de.gempa.tb1.Pick/20250414022415.697041.135017"><time><value>2025-04-14T02:24:09.288393Z</value></time><waveformID networkCode="CX" stationCode="PB15" channelCode="HHZ"/><filterID>ITAPER(4)&gt;&gt;BW(4,4,20)</filterID><methodID>AIC</methodID><horizontalSlowness><value>21.298833278357296</value></horizontalSlowness><backazimuth><value>125.37819157099096</value></backazimuth><phaseHint>P</phaseHint><evaluationMode>automatic</evaluationMode><comment><text>184.00850409672773</text><id>DFX:rectilinearity</id></comment><comment><text>13.892605283194229</text><id>SNR</id></comment></pick><pick publicID="de.gempa.tb1.Pick/20250414022419.536138.135019"><time><value>2025-04-14T02:24:14.658393Z</value></time><waveformID networkCode="CX" stationCode="PB06" channelCode="HHZ"/><filterID>ITAPER(4)&gt;&gt;BW(4,4,20)</filterID><methodID>AIC</methodID><horizontalSlowness><value>7.458076264460734</value></horizontalSlowness><backazimuth><value>307.3239063127391</value></backazimuth><phaseHint>P</phaseHint><evaluationMode>automatic</evaluationMode><comment><text>101.17599241792455</text><id>DFX:rectilinearity</id></comment><comment><text>11.55523048837103</text><id>SNR</id></comment></pick><pick publicID="de.gempa.tb1.Pick/20250414022425.893442.135021"><time><value>2025-04-14T02:24:19.658393Z</value></time><waveformID networkCode="CX" stationCode="PB15" channelCode="HHN"/><filterID>ITAPER(2)&gt;&gt;BW(3,3,20)</filterID><methodID>L2-AIC-GRID</methodID><horizontalSlowness><value>22.008393220193966</value></horizontalSlowness><backazimuth><value>123.09534212914843</value></backazimuth><phaseHint>S</phaseHint><evaluationMode>automatic</evaluationMode><comment><text>6163.543228445345</text><id>DFX:rectilinearity</id></comment><comment><text>de.gempa.tb1.Pick/20250414022415.697041.135017</text><id>RefPickID</id></comment><comment><text>17.580620645495298</text><id>SNR</id></comment></pick><pick publicID="de.gempa.tb1.Pick/20250414022426.674634.135022"><time><value>2025-04-14T02:24:17.12Z</value></time><waveformID networkCode="CX" stationCode="PB19" channelCode="HHN"/><filterID>ITAPER(2)&gt;&gt;BW(3,3,20)</filterID><methodID>L2-AIC-GRID</methodID><horizontalSlowness><value>22.103258419693638</value></horizontalSlowness><backazimuth><value>232.35946138092405</value></backazimuth><phaseHint>S</phaseHint><evaluationMode>automatic</evaluationMode><comment><text>266.62344607614267</text><id>DFX:rectilinearity</id></comment><comment><text>de.gempa.tb1.Pick/20250414022414.469676.135015</text><id>RefPickID</id></comment><comment><text>13.224514981512886</text><id>SNR</id></comment></pick><pick publicID="de.gempa.tb1.Pick/20250414022431.686016.135023"><time><value>2025-04-14T02:24:23.728393Z</value></time><waveformID networkCode="CX" stationCode="PB03" channelCode="HHZ"/><filterID>ITAPER(4)&gt;&gt;BW(4,4,20)</filterID><methodID>AIC</methodID><horizontalSlowness><value>17.819277909990536</value></horizontalSlowness><backazimuth><value>353.95921827835906</value></backazimuth><phaseHint>P</phaseHint><evaluationMode>automatic</evaluationMode><comment><text>4.775654559831803</text><id>DFX:rectilinearity</id></comment><comment><text>7.381963103836686</text><id>SNR</id></comment></pick><pick publicID="de.gempa.tb1.Pick/20250414022433.529331.135025"><time><value>2025-04-14T02:24:27.26Z</value></time><waveformID networkCode="CX" stationCode="PB09" channelCode="HHZ"/><filterID>ITAPER(4)&gt;&gt;BW(4,4,20)</filterID><methodID>AIC</methodID><horizontalSlowness><value>3.74283615805303</value></horizontalSlowness><backazimuth><value>24.29761944597979</value></backazimuth><phaseHint>P</phaseHint><evaluationMode>automatic</evaluationMode><comment><text>8.2656403511277</text><id>DFX:rectilinearity</id></comment><comment><text>11.440380665159564</text><id>SNR</id></comment></pick><pick publicID="de.gempa.tb1.Pick/20250414022436.658786.135027"><time><value>2025-04-14T02:24:29.188393Z</value></time><waveformID networkCode="CX" stationCode="PB06" channelCode="HHN"/><filterID>ITAPER(2)&gt;&gt;BW(3,3,20)</filterID><methodID>L2-AIC-GRID</methodID><horizontalSlowness><value>4.1695229644656964</value></horizontalSlowness><backazimuth><value>263.4609670820991</value></backazimuth><phaseHint>S</phaseHint><evaluationMode>automatic</evaluationMode><comment><text>82.13643367964296</text><id>DFX:rectilinearity</id></comment><comment><text>de.gempa.tb1.Pick/20250414022419.536138.135019</text><id>RefPickID</id></comment><comment><text>14.493766025415773</text><id>SNR</id></comment></pick><pick publicID="de.gempa.tb1.Pick/20250414022452.789876.135031"><time><value>2025-04-14T02:24:44.548393Z</value></time><waveformID networkCode="CX" stationCode="PB03" channelCode="HHN"/><filterID>ITAPER(2)&gt;&gt;BW(3,3,20)</filterID><methodID>L2-AIC-GRID</methodID><horizontalSlowness><value>21.71278067649888</value></horizontalSlowness><backazimuth><value>298.3359855900311</value></backazimuth><phaseHint>S</phaseHint><evaluationMode>automatic</evaluationMode><comment><text>13.125385016494556</text><id>DFX:rectilinearity</id></comment><comment><text>de.gempa.tb1.Pick/20250414022431.686016.135023</text><id>RefPickID</id></comment><comment><text>6.697528838378731</text><id>SNR</id></comment></pick><origin publicID="de.gempa.tb1.Origin/20250414022452.792659.123867"><time><value>2025-04-14T02:23:56.129755Z</value><uncertainty>1.1913646459579468</uncertainty></time><latitude><value>-23.724998474121094</value><uncertainty>9.010501861572266</uncertainty></latitude><longitude><value>-69.65924835205078</value><uncertainty>36.62803268432617</uncertainty></longitude><depth><value>70.82740783691406</value><uncertainty>17.406587600708008</uncertainty></depth><depthType>from location</depthType><methodID>LOCSAT</methodID><earthModelID>iasp91_scanloc</earthModelID><quality><associatedPhaseCount>9</associatedPhaseCount><usedPhaseCount>9</usedPhaseCount><associatedStationCount>5</associatedStationCount><usedStationCount>5</usedStationCount><depthPhaseCount>0</depthPhaseCount><standardError>0.16025486847408274</standardError><azimuthalGap>239.0087585449219</azimuthalGap><maximumDistance>1.9578094482421875</maximumDistance><minimumDistance>0.38208696246147156</minimumDistance><medianDistance>1.0176594257354736</medianDistance></quality><uncertainty><minHorizontalUncertainty>9.019675254821777</minHorizontalUncertainty><maxHorizontalUncertainty>80.37769317626953</maxHorizontalUncertainty><azimuthMaxHorizontalUncertainty>77.64734649658203</azimuthMaxHorizontalUncertainty><preferredDescription>horizontal uncertainty</preferredDescription></uncertainty><evaluationMode>automatic</evaluationMode><evaluationStatus>confirmed</evaluationStatus><comment><text>0.22</text><id>mismatchScore</id></comment><comment><text>mismatchScore</text><id>scevalMethod</id></comment><arrival><pickID>de.gempa.tb1.Pick/20250414022414.469676.135015</pickID><phase>P</phase><azimuth>118.00390625</azimuth><distance>0.38208696246147156</distance><timeResidual>-0.09605693817138672</timeResidual><timeUsed>true</timeUsed><horizontalSlownessUsed>false</horizontalSlownessUsed><backazimuthUsed>false</backazimuthUsed><weight>1</weight></arrival><arrival><pickID>de.gempa.tb1.Pick/20250414022415.697041.135017</pickID><phase>P</phase><azimuth>18.623319625854492</azimuth><distance>0.5425897240638733</distance><timeResidual>-0.15392398834228516</timeResidual><timeUsed>true</timeUsed><horizontalSlownessUsed>false</horizontalSlownessUsed><backazimuthUsed>false</backazimuthUsed><weight>1</weight></arrival><arrival><pickID>de.gempa.tb1.Pick/20250414022419.536138.135019</pickID><phase>P</phase><azimuth>4.547454833984375</azimuth><distance>1.0176594257354736</distance><timeResidual>-0.2318239212036133</timeResidual><timeUsed>true</timeUsed><horizontalSlownessUsed>false</horizontalSlownessUsed><backazimuthUsed>false</backazimuthUsed><weight>1</weight></arrival><arrival><pickID>de.gempa.tb1.Pick/20250414022425.893442.135021</pickID><phase>S</phase><azimuth>18.623319625854492</azimuth><distance>0.5425897240638733</distance><timeResidual>0.07989215850830078</timeResidual><timeUsed>true</timeUsed><horizontalSlownessUsed>false</horizontalSlownessUsed><backazimuthUsed>false</backazimuthUsed><weight>1</weight></arrival><arrival><pickID>de.gempa.tb1.Pick/20250414022426.674634.135022</pickID><phase>S</phase><azimuth>118.00390625</azimuth><distance>0.38208696246147156</distance><timeResidual>0.10657787322998047</timeResidual><timeUsed>true</timeUsed><horizontalSlownessUsed>false</horizontalSlownessUsed><backazimuthUsed>false</backazimuthUsed><weight>1</weight></arrival><arrival><pickID>de.gempa.tb1.Pick/20250414022431.686016.135023</pickID><phase>P</phase><azimuth>357.0126647949219</azimuth><distance>1.6709171533584595</distance><timeResidual>0.3388547897338867</timeResidual><timeUsed>true</timeUsed><horizontalSlownessUsed>false</horizontalSlownessUsed><backazimuthUsed>false</backazimuthUsed><weight>1</weight></arrival><arrival><pickID>de.gempa.tb1.Pick/20250414022433.529331.135025</pickID><phase>P</phase><azimuth>11.428256034851074</azimuth><distance>1.9578094482421875</distance><timeResidual>0.026927947998046875</timeResidual><timeUsed>true</timeUsed><horizontalSlownessUsed>false</horizontalSlownessUsed><backazimuthUsed>false</backazimuthUsed><weight>1</weight></arrival><arrival><pickID>de.gempa.tb1.Pick/20250414022436.658786.135027</pickID><phase>S</phase><azimuth>4.547454833984375</azimuth><distance>1.0176594257354736</distance><timeResidual>-0.10116386413574219</timeResidual><timeUsed>true</timeUsed><horizontalSlownessUsed>false</horizontalSlownessUsed><backazimuthUsed>false</backazimuthUsed><weight>1</weight></arrival><arrival><pickID>de.gempa.tb1.Pick/20250414022452.789876.135031</pickID><phase>S</phase><azimuth>357.0126647949219</azimuth><distance>1.6709171533584595</distance><timeResidual>0.030811309814453125</timeResidual><timeUsed>true</timeUsed><horizontalSlownessUsed>false</horizontalSlownessUsed><backazimuthUsed>false</backazimuthUsed><weight>1</weight></arrival><magnitude publicID="de.gempa.tb1.Magnitude/20250414022455.937296.420010"><magnitude><value>2.261913385670631</value></magnitude><type>M</type><methodID>weighted average</methodID><stationCount>4</stationCount></magnitude></origin><event publicID="gempa2025hilb"><preferredOriginID>de.gempa.tb1.Origin/20250414022452.792659.123867</preferredOriginID><preferredMagnitudeID>de.gempa.tb1.Magnitude/20250414022455.937296.420010</preferredMagnitudeID><description><text>Northern Chile</text><type>region name</type></description><originReference>de.gempa.tb1.Origin/20250414022452.792659.123867</originReference></event></EventParameters></seiscomp>