<?xml version="1.0" encoding="UTF-8"?>
<seiscomp xmlns="http://geofon.gfz-potsdam.de/ns/seiscomp3-schema/0.13" version="0.13"><EventParameters><pick publicID="de.gempa.tb1.Pick/20250414121940.587682.137944"><time><value>2025-04-14T12:19:35.848393Z</value></time><waveformID networkCode="CX" stationCode="PB06" channelCode="HHZ"/><filterID>ITAPER(4)&gt;&gt;BW(4,4,20)</filterID><methodID>AIC</methodID><horizontalSlowness><value>6.80158632909623</value></horizontalSlowness><backazimuth><value>265.36663136498493</value></backazimuth><phaseHint>P</phaseHint><evaluationMode>automatic</evaluationMode><comment><text>71.95347853582975</text><id>DFX:rectilinearity</id></comment><comment><text>49.35944781999363</text><id>SNR</id></comment></pick><pick publicID="de.gempa.tb1.Pick/20250414121940.743851.137946"><time><value>2025-04-14T12:19:34.978393Z</value></time><waveformID networkCode="CX" stationCode="PB15" channelCode="HHZ"/><filterID>ITAPER(4)&gt;&gt;BW(4,4,20)</filterID><methodID>AIC</methodID><horizontalSlowness><value>22.595856282647564</value></horizontalSlowness><backazimuth><value>312.66049513486774</value></backazimuth><phaseHint>P</phaseHint><evaluationMode>automatic</evaluationMode><comment><text>247.58891124125927</text><id>DFX:rectilinearity</id></comment><comment><text>33.83190730624505</text><id>SNR</id></comment></pick><pick publicID="de.gempa.tb1.Pick/20250414121945.673723.137948"><time><value>2025-04-14T12:19:40.11Z</value></time><waveformID networkCode="CX" stationCode="PB19" channelCode="HHZ"/><filterID>ITAPER(4)&gt;&gt;BW(4,4,20)</filterID><methodID>AIC</methodID><horizontalSlowness><value>16.28760405514927</value></horizontalSlowness><backazimuth><value>154.04584234665626</value></backazimuth><phaseHint>P</phaseHint><evaluationMode>automatic</evaluationMode><comment><text>17.454902976869818</text><id>DFX:rectilinearity</id></comment><comment><text>19.358726693946917</text><id>SNR</id></comment></pick><pick publicID="de.gempa.tb1.Pick/20250414121949.55191.137950"><time><value>2025-04-14T12:19:42.528393Z</value></time><waveformID networkCode="CX" stationCode="PB03" channelCode="HHZ"/><filterID>ITAPER(4)&gt;&gt;BW(4,4,20)</filterID><methodID>AIC</methodID><horizontalSlowness><value>11.0392008950231</value></horizontalSlowness><backazimuth><value>195.14554281833523</value></backazimuth><phaseHint>P</phaseHint><evaluationMode>automatic</evaluationMode><comment><text>4.21754910616452</text><id>DFX:rectilinearity</id></comment><comment><text>13.953662094966672</text><id>SNR</id></comment></pick><pick publicID="de.gempa.tb1.Pick/20250414121950.944847.137952"><time><value>2025-04-14T12:19:45.498393Z</value></time><waveformID networkCode="CX" stationCode="PB15" channelCode="HHN"/><filterID>ITAPER(2)&gt;&gt;BW(3,3,20)</filterID><methodID>L2-AIC-GRID</methodID><horizontalSlowness><value>21.373063352269874</value></horizontalSlowness><backazimuth><value>71.95220194037866</value></backazimuth><phaseHint>S</phaseHint><evaluationMode>automatic</evaluationMode><comment><text>41741.14458154878</text><id>DFX:rectilinearity</id></comment><comment><text>de.gempa.tb1.Pick/20250414121940.743851.137946</text><id>RefPickID</id></comment><comment><text>19.973416314362908</text><id>SNR</id></comment></pick><pick publicID="de.gempa.tb1.Pick/20250414121951.469829.137953"><time><value>2025-04-14T12:19:45.09Z</value></time><waveformID networkCode="CX" stationCode="PB09" channelCode="HHZ"/><filterID>ITAPER(4)&gt;&gt;BW(4,4,20)</filterID><methodID>AIC</methodID><horizontalSlowness><value>18.135243469427884</value></horizontalSlowness><backazimuth><value>309.73459340406754</value></backazimuth><phaseHint>P</phaseHint><evaluationMode>automatic</evaluationMode><comment><text>10.70917901666669</text><id>DFX:rectilinearity</id></comment><comment><text>18.494733187251196</text><id>SNR</id></comment></pick><pick publicID="de.gempa.tb1.Pick/20250414121955.641445.137955"><time><value>2025-04-14T12:19:47.078393Z</value></time><waveformID networkCode="CX" stationCode="PB06" channelCode="HHN"/><filterID>ITAPER(2)&gt;&gt;BW(3,3,20)</filterID><methodID>L2-AIC-GRID</methodID><horizontalSlowness><value>18.796361672181497</value></horizontalSlowness><backazimuth><value>310.31520870539657</value></backazimuth><phaseHint>S</phaseHint><evaluationMode>automatic</evaluationMode><comment><text>198.36977607585422</text><id>DFX:rectilinearity</id></comment><comment><text>de.gempa.tb1.Pick/20250414121940.587682.137944</text><id>RefPickID</id></comment><comment><text>19.974903167802868</text><id>SNR</id></comment></pick><pick publicID="de.gempa.tb1.Pick/20250414122000.523783.137956"><time><value>2025-04-14T12:19:54.4Z</value></time><waveformID networkCode="CX" stationCode="PB19" channelCode="HHN"/><filterID>ITAPER(2)&gt;&gt;BW(3,3,20)</filterID><methodID>L2-AIC-GRID</methodID><horizontalSlowness><value>21.67650147604758</value></horizontalSlowness><backazimuth><value>62.09663122596459</value></backazimuth><phaseHint>S</phaseHint><evaluationMode>automatic</evaluationMode><comment><text>368.6047662845394</text><id>DFX:rectilinearity</id></comment><comment><text>de.gempa.tb1.Pick/20250414121945.673723.137948</text><id>RefPickID</id></comment><comment><text>6.74369190933485</text><id>SNR</id></comment></pick><pick publicID="de.gempa.tb1.Pick/20250414122008.681567.137958"><time><value>2025-04-14T12:19:58.448393Z</value></time><waveformID networkCode="CX" stationCode="PB03" channelCode="HHN"/><filterID>ITAPER(2)&gt;&gt;BW(3,3,20)</filterID><methodID>L2-AIC-GRID</methodID><horizontalSlowness><value>18.156089685554985</value></horizontalSlowness><backazimuth><value>5.25231315256309</value></backazimuth><phaseHint>S</phaseHint><evaluationMode>automatic</evaluationMode><comment><text>57.4985124786788</text><id>DFX:rectilinearity</id></comment><comment><text>de.gempa.tb1.Pick/20250414121949.55191.137950</text><id>RefPickID</id></comment><comment><text>9.355211847530386</text><id>SNR</id></comment></pick><pick publicID="de.gempa.tb1.Pick/20250414122016.985817.137961"><time><value>2025-04-14T12:19:46.928393Z</value></time><waveformID networkCode="CX" stationCode="PB07" channelCode="HHZ"/><filterID>ITAPER(4)&gt;&gt;BW(4,4,20)</filterID><methodID>AIC</methodID><horizontalSlowness><value>21.76431167349352</value></horizontalSlowness><backazimuth><value>29.002614605724943</value></backazimuth><phaseHint>P</phaseHint><evaluationMode>automatic</evaluationMode><comment><text>89.66919831255716</text><id>DFX:rectilinearity</id></comment><comment><text>15.339986427425973</text><id>SNR</id></comment></pick><pick publicID="de.gempa.tb1.Pick/20250414122023.868579.137963"><time><value>2025-04-14T12:20:02.89Z</value></time><waveformID networkCode="CX" stationCode="PB09" channelCode="HHN"/><filterID>ITAPER(2)&gt;&gt;BW(3,3,20)</filterID><methodID>L2-AIC-GRID</methodID><horizontalSlowness><value>12.284178961668736</value></horizontalSlowness><backazimuth><value>280.36506919438563</value></backazimuth><phaseHint>S</phaseHint><evaluationMode>automatic</evaluationMode><comment><text>28.429047989439024</text><id>DFX:rectilinearity</id></comment><comment><text>de.gempa.tb1.Pick/20250414121951.469829.137953</text><id>RefPickID</id></comment><comment><text>5.547557633189035</text><id>SNR</id></comment></pick><origin publicID="de.gempa.tb1.Origin/20250414122023.871808.137375"><time><value>2025-04-14T12:19:21.956933Z</value><uncertainty>0.8160640001296997</uncertainty></time><latitude><value>-23.062747955322266</value><uncertainty>3.3133347034454346</uncertainty></latitude><longitude><value>-69.41336822509766</value><uncertainty>13.476341247558594</uncertainty></longitude><depth><value>93.2054672241211</value><uncertainty>6.384197235107422</uncertainty></depth><depthType>from location</depthType><methodID>LOCSAT</methodID><earthModelID>iasp91_scanloc</earthModelID><quality><associatedPhaseCount>11</associatedPhaseCount><usedPhaseCount>11</usedPhaseCount><associatedStationCount>6</associatedStationCount><usedStationCount>6</usedStationCount><depthPhaseCount>0</depthPhaseCount><standardError>0.18076988781376693</standardError><azimuthalGap>165.1615285873413</azimuthalGap><maximumDistance>1.3998526334762573</maximumDistance><minimumDistance>0.15429119765758514</minimumDistance><medianDistance>0.8457098007202148</medianDistance></quality><uncertainty><minHorizontalUncertainty>6.137928009033203</minHorizontalUncertainty><maxHorizontalUncertainty>29.11482620239258</maxHorizontalUncertainty><azimuthMaxHorizontalUncertainty>82.78028869628906</azimuthMaxHorizontalUncertainty><preferredDescription>horizontal uncertainty</preferredDescription></uncertainty><evaluationMode>automatic</evaluationMode><evaluationStatus>confirmed</evaluationStatus><comment><text>0.04</text><id>mismatchScore</id></comment><comment><text>mismatchScore</text><id>scevalMethod</id></comment><arrival><pickID>de.gempa.tb1.Pick/20250414121940.587682.137944</pickID><phase>P</phase><azimuth>337.6043701171875</azimuth><distance>0.38417398929595947</distance><timeResidual>-0.3785734176635742</timeResidual><timeUsed>true</timeUsed><horizontalSlownessUsed>false</horizontalSlownessUsed><backazimuthUsed>false</backazimuthUsed><weight>1</weight></arrival><arrival><pickID>de.gempa.tb1.Pick/20250414121940.743851.137946</pickID><phase>P</phase><azimuth>200.0695037841797</azimuth><distance>0.15429119765758514</distance><timeResidual>-0.1970205307006836</timeResidual><timeUsed>true</timeUsed><horizontalSlownessUsed>false</horizontalSlownessUsed><backazimuthUsed>false</backazimuthUsed><weight>1</weight></arrival><arrival><pickID>de.gempa.tb1.Pick/20250414121945.673723.137948</pickID><phase>P</phase><azimuth>172.3679656982422</azimuth><distance>0.8457098007202148</distance><timeResidual>-0.09651565551757812</timeResidual><timeUsed>true</timeUsed><horizontalSlownessUsed>false</horizontalSlownessUsed><backazimuthUsed>false</backazimuthUsed><weight>1</weight></arrival><arrival><pickID>de.gempa.tb1.Pick/20250414121949.55191.137950</pickID><phase>P</phase><azimuth>342.6537780761719</azimuth><distance>1.0571919679641724</distance><timeResidual>-0.005883216857910156</timeResidual><timeUsed>true</timeUsed><horizontalSlownessUsed>false</horizontalSlownessUsed><backazimuthUsed>false</backazimuthUsed><weight>1</weight></arrival><arrival><pickID>de.gempa.tb1.Pick/20250414121950.944847.137952</pickID><phase>S</phase><azimuth>200.0695037841797</azimuth><distance>0.15429119765758514</distance><timeResidual>0.19965362548828125</timeResidual><timeUsed>true</timeUsed><horizontalSlownessUsed>false</horizontalSlownessUsed><backazimuthUsed>false</backazimuthUsed><weight>1</weight></arrival><arrival><pickID>de.gempa.tb1.Pick/20250414121951.469829.137953</pickID><phase>P</phase><azimuth>7.206437110900879</azimuth><distance>1.2702832221984863</distance><timeResidual>0.04803276062011719</timeResidual><timeUsed>true</timeUsed><horizontalSlownessUsed>false</horizontalSlownessUsed><backazimuthUsed>false</backazimuthUsed><weight>1</weight></arrival><arrival><pickID>de.gempa.tb1.Pick/20250414121955.641445.137955</pickID><phase>S</phase><azimuth>337.6043701171875</azimuth><distance>0.38417398929595947</distance><timeResidual>-0.08663558959960938</timeResidual><timeUsed>true</timeUsed><horizontalSlownessUsed>false</horizontalSlownessUsed><backazimuthUsed>false</backazimuthUsed><weight>1</weight></arrival><arrival><pickID>de.gempa.tb1.Pick/20250414122000.523783.137956</pickID><phase>S</phase><azimuth>172.3679656982422</azimuth><distance>0.8457098007202148</distance><timeResidual>0.1518840789794922</timeResidual><timeUsed>true</timeUsed><horizontalSlownessUsed>false</horizontalSlownessUsed><backazimuthUsed>false</backazimuthUsed><weight>1</weight></arrival><arrival><pickID>de.gempa.tb1.Pick/20250414122008.681567.137958</pickID><phase>S</phase><azimuth>342.6537780761719</azimuth><distance>1.0571919679641724</distance><timeResidual>0.049652099609375</timeResidual><timeUsed>true</timeUsed><horizontalSlownessUsed>false</horizontalSlownessUsed><backazimuthUsed>false</backazimuthUsed><weight>1</weight></arrival><arrival><pickID>de.gempa.tb1.Pick/20250414122016.985817.137961</pickID><phase>P</phase><azimuth>341.69488525390625</azimuth><distance>1.3998526334762573</distance><timeResidual>0.3043699264526367</timeResidual><timeUsed>true</timeUsed><horizontalSlownessUsed>false</horizontalSlownessUsed><backazimuthUsed>false</backazimuthUsed><weight>1</weight></arrival><arrival><pickID>de.gempa.tb1.Pick/20250414122023.868579.137963</pickID><phase>S</phase><azimuth>7.206437110900879</azimuth><distance>1.2702832221984863</distance><timeResidual>0.01099395751953125</timeResidual><timeUsed>true</timeUsed><horizontalSlownessUsed>false</horizontalSlownessUsed><backazimuthUsed>false</backazimuthUsed><weight>1</weight></arrival><magnitude publicID="de.gempa.tb1.Magnitude/20250414122030.937645.487105"><magnitude><value>2.293547412191256</value></magnitude><type>M</type><methodID>weighted average</methodID><stationCount>5</stationCount></magnitude></origin><event publicID="gempa2025hjex"><preferredOriginID>de.gempa.tb1.Origin/20250414122023.871808.137375</preferredOriginID><preferredMagnitudeID>de.gempa.tb1.Magnitude/20250414122030.937645.487105</preferredMagnitudeID><typeCertainty>suspected</typeCertainty><description><text>Northern Chile</text><type>region name</type></description><originReference>de.gempa.tb1.Origin/20250414122023.871808.137375</originReference></event></EventParameters></seiscomp>