<?xml version="1.0" encoding="UTF-8"?>
<seiscomp xmlns="http://geofon.gfz-potsdam.de/ns/seiscomp3-schema/0.13" version="0.13"><EventParameters><pick publicID="de.gempa.tb1.Pick/20250413170143.099056.132510"><time><value>2025-04-13T17:01:35.168393Z</value></time><waveformID networkCode="CX" stationCode="PB08" channelCode="HHZ"/><filterID>ITAPER(4)&gt;&gt;BW(4,4,20)</filterID><methodID>AIC</methodID><horizontalSlowness><value>14.856071864988477</value></horizontalSlowness><backazimuth><value>83.27562512371348</value></backazimuth><phaseHint>P</phaseHint><evaluationMode>automatic</evaluationMode><comment><text>10.703196396681513</text><id>DFX:rectilinearity</id></comment><comment><text>9.074383555890504</text><id>SNR</id></comment></pick><pick publicID="de.gempa.tb1.Pick/20250413170153.53028.132512"><time><value>2025-04-13T17:01:44.898393Z</value></time><waveformID networkCode="CX" stationCode="PB01" channelCode="HHZ"/><filterID>ITAPER(4)&gt;&gt;BW(4,4,20)</filterID><methodID>AIC</methodID><horizontalSlowness><value>18.657750748912033</value></horizontalSlowness><backazimuth><value>85.4803052958742</value></backazimuth><phaseHint>P</phaseHint><evaluationMode>automatic</evaluationMode><comment><text>10.694018481658984</text><id>DFX:rectilinearity</id></comment><comment><text>15.857958327986715</text><id>SNR</id></comment></pick><pick publicID="de.gempa.tb1.Pick/20250413170157.533932.132514"><time><value>2025-04-13T17:01:50.728393Z</value></time><waveformID networkCode="CX" stationCode="PB02" channelCode="HHZ"/><filterID>ITAPER(4)&gt;&gt;BW(4,4,20)</filterID><methodID>AIC</methodID><horizontalSlowness><value>7.550204418772767</value></horizontalSlowness><backazimuth><value>284.8341547477817</value></backazimuth><phaseHint>P</phaseHint><evaluationMode>automatic</evaluationMode><comment><text>43.77901486617809</text><id>DFX:rectilinearity</id></comment><comment><text>8.188816956704983</text><id>SNR</id></comment></pick><pick publicID="de.gempa.tb1.Pick/20250413170203.543896.132516"><time><value>2025-04-13T17:01:57.778394Z</value></time><waveformID networkCode="CX" stationCode="PB03" channelCode="HHZ"/><filterID>ITAPER(4)&gt;&gt;BW(4,4,20)</filterID><methodID>AIC</methodID><horizontalSlowness><value>8.579400518081304</value></horizontalSlowness><backazimuth><value>5.624429161475859</value></backazimuth><phaseHint>P</phaseHint><evaluationMode>automatic</evaluationMode><comment><text>9.319105768968374</text><id>DFX:rectilinearity</id></comment><comment><text>18.246451028476937</text><id>SNR</id></comment></pick><pick publicID="de.gempa.tb1.Pick/20250413170203.544468.132518"><time><value>2025-04-13T17:01:54.88Z</value></time><waveformID networkCode="CX" stationCode="PB09" channelCode="HHZ"/><filterID>ITAPER(4)&gt;&gt;BW(4,4,20)</filterID><methodID>AIC</methodID><horizontalSlowness><value>13.189408181941092</value></horizontalSlowness><backazimuth><value>77.8670666546373</value></backazimuth><phaseHint>P</phaseHint><evaluationMode>automatic</evaluationMode><comment><text>9.805929912415653</text><id>DFX:rectilinearity</id></comment><comment><text>12.856976055218276</text><id>SNR</id></comment></pick><pick publicID="de.gempa.tb1.Pick/20250413170211.499111.132520"><time><value>2025-04-13T17:02:06.458393Z</value></time><waveformID networkCode="CX" stationCode="PB06" channelCode="HHZ"/><filterID>ITAPER(4)&gt;&gt;BW(4,4,20)</filterID><methodID>AIC</methodID><horizontalSlowness><value>7.953447194492999</value></horizontalSlowness><backazimuth><value>255.43437987088777</value></backazimuth><phaseHint>P</phaseHint><evaluationMode>automatic</evaluationMode><comment><text>35.11321177124642</text><id>DFX:rectilinearity</id></comment><comment><text>6.116232900802568</text><id>SNR</id></comment></pick><pick publicID="de.gempa.tb1.Pick/20250413170212.743103.132522"><time><value>2025-04-13T17:01:54.318391Z</value></time><waveformID networkCode="CX" stationCode="PB07" channelCode="HHZ"/><filterID>ITAPER(4)&gt;&gt;BW(4,4,20)</filterID><methodID>AIC</methodID><horizontalSlowness><value>19.127025815634056</value></horizontalSlowness><backazimuth><value>247.24690245566893</value></backazimuth><phaseHint>P</phaseHint><evaluationMode>automatic</evaluationMode><comment><text>274.374255630116</text><id>DFX:rectilinearity</id></comment><comment><text>14.060272051307876</text><id>SNR</id></comment></pick><pick publicID="de.gempa.tb1.Pick/20250413170228.674379.132524"><time><value>2025-04-13T17:02:21.43Z</value></time><waveformID networkCode="CX" stationCode="PB19" channelCode="HHZ"/><filterID>ITAPER(4)&gt;&gt;BW(4,4,20)</filterID><methodID>AIC</methodID><horizontalSlowness><value>21.707665674470405</value></horizontalSlowness><backazimuth><value>189.20613341700903</value></backazimuth><phaseHint>P</phaseHint><evaluationMode>automatic</evaluationMode><comment><text>22.18592223307589</text><id>DFX:rectilinearity</id></comment><comment><text>7.756195734194909</text><id>SNR</id></comment></pick><pick publicID="de.gempa.tb1.Pick/20250413170229.77153.132526"><time><value>2025-04-13T17:02:21.228393Z</value></time><waveformID networkCode="CX" stationCode="PB01" channelCode="HHN"/><filterID>ITAPER(2)&gt;&gt;BW(3,3,20)</filterID><methodID>L2-AIC-GRID</methodID><horizontalSlowness><value>22.99724913813985</value></horizontalSlowness><backazimuth><value>357.0259749654149</value></backazimuth><phaseHint>S</phaseHint><evaluationMode>automatic</evaluationMode><comment><text>53.29086697718748</text><id>DFX:rectilinearity</id></comment><comment><text>de.gempa.tb1.Pick/20250413170153.53028.132512</text><id>RefPickID</id></comment><comment><text>9.512567204612518</text><id>SNR</id></comment></pick><pick publicID="de.gempa.tb1.Pick/20250413170235.542373.132527"><time><value>2025-04-13T17:02:28.958393Z</value></time><waveformID networkCode="CX" stationCode="PB02" channelCode="HHN"/><filterID>ITAPER(2)&gt;&gt;BW(3,3,20)</filterID><methodID>L2-AIC-GRID</methodID><horizontalSlowness><value>16.62153321260731</value></horizontalSlowness><backazimuth><value>104.47209844354177</value></backazimuth><phaseHint>S</phaseHint><evaluationMode>automatic</evaluationMode><comment><text>49.18633693172099</text><id>DFX:rectilinearity</id></comment><comment><text>de.gempa.tb1.Pick/20250413170157.533932.132514</text><id>RefPickID</id></comment><comment><text>5.987437618879455</text><id>SNR</id></comment></pick><origin publicID="de.gempa.tb1.Origin/20250413170235.545354.115041"><time><value>2025-04-13T17:01:00.253133Z</value><uncertainty>1.3858036994934082</uncertainty></time><latitude><value>-18.322589874267578</value><uncertainty>15.743776321411133</uncertainty></latitude><longitude><value>-69.0237808227539</value><uncertainty>33.34697723388672</uncertainty></longitude><depth><value>175.9965362548828</value><uncertainty>17.613248825073242</uncertainty></depth><depthType>from location</depthType><methodID>LOCSAT</methodID><earthModelID>iasp91_scanloc</earthModelID><quality><associatedPhaseCount>10</associatedPhaseCount><usedPhaseCount>10</usedPhaseCount><associatedStationCount>8</associatedStationCount><usedStationCount>8</usedStationCount><depthPhaseCount>0</depthPhaseCount><standardError>0.43834195807105436</standardError><azimuthalGap>347.26832580566406</azimuthalGap><maximumDistance>5.560060501098633</maximumDistance><minimumDistance>1.8131181001663208</minimumDistance><medianDistance>3.4620463848114014</medianDistance></quality><uncertainty><minHorizontalUncertainty>26.57317352294922</minHorizontalUncertainty><maxHorizontalUncertainty>74.47784423828125</maxHorizontalUncertainty><azimuthMaxHorizontalUncertainty>107.41499328613281</azimuthMaxHorizontalUncertainty><preferredDescription>horizontal uncertainty</preferredDescription></uncertainty><evaluationMode>automatic</evaluationMode><evaluationStatus>confirmed</evaluationStatus><comment><text>0.52</text><id>mismatchScore</id></comment><comment><text>extendedGap</text><id>scevalMethod</id></comment><arrival><pickID>de.gempa.tb1.Pick/20250413170143.099056.132510</pickID><phase>P</phase><azimuth>183.85205078125</azimuth><distance>1.8131181001663208</distance><timeResidual>0.10807418823242188</timeResidual><timeUsed>true</timeUsed><horizontalSlownessUsed>false</horizontalSlownessUsed><backazimuthUsed>false</backazimuthUsed><weight>1</weight></arrival><arrival><pickID>de.gempa.tb1.Pick/20250413170153.53028.132512</pickID><phase>P</phase><azimuth>189.0922088623047</azimuth><distance>2.7415499687194824</distance><timeResidual>-0.7008705139160156</timeResidual><timeUsed>true</timeUsed><horizontalSlownessUsed>false</horizontalSlownessUsed><backazimuthUsed>false</backazimuthUsed><weight>1</weight></arrival><arrival><pickID>de.gempa.tb1.Pick/20250413170157.533932.132514</pickID><phase>P</phase><azimuth>195.2533416748047</azimuth><distance>3.0926432609558105</distance><timeResidual>0.869293212890625</timeResidual><timeUsed>true</timeUsed><horizontalSlownessUsed>false</horizontalSlownessUsed><backazimuthUsed>false</backazimuthUsed><weight>1</weight></arrival><arrival><pickID>de.gempa.tb1.Pick/20250413170203.543896.132516</pickID><phase>P</phase><azimuth>190.3475341796875</azimuth><distance>3.7695815563201904</distance><timeResidual>-0.5301895141601562</timeResidual><timeUsed>true</timeUsed><horizontalSlownessUsed>false</horizontalSlownessUsed><backazimuthUsed>false</backazimuthUsed><weight>1</weight></arrival><arrival><pickID>de.gempa.tb1.Pick/20250413170203.544468.132518</pickID><phase>P</phase><azimuth>183.35910034179688</azimuth><distance>3.4620463848114014</distance><timeResidual>0.43218994140625</timeResidual><timeUsed>true</timeUsed><horizontalSlownessUsed>false</horizontalSlownessUsed><backazimuthUsed>false</backazimuthUsed><weight>1</weight></arrival><arrival><pickID>de.gempa.tb1.Pick/20250413170211.499111.132520</pickID><phase>P</phase><azimuth>186.62496948242188</azimuth><distance>4.3911709785461426</distance><timeResidual>0.2125244140625</timeResidual><timeUsed>true</timeUsed><horizontalSlownessUsed>false</horizontalSlownessUsed><backazimuthUsed>false</backazimuthUsed><weight>1</weight></arrival><arrival><pickID>de.gempa.tb1.Pick/20250413170212.743103.132522</pickID><phase>P</phase><azimuth>193.32078552246094</azimuth><distance>3.4822893142700195</distance><timeResidual>-0.3830604553222656</timeResidual><timeUsed>true</timeUsed><horizontalSlownessUsed>false</horizontalSlownessUsed><backazimuthUsed>false</backazimuthUsed><weight>1</weight></arrival><arrival><pickID>de.gempa.tb1.Pick/20250413170228.674379.132524</pickID><phase>P</phase><azimuth>182.52166748046875</azimuth><distance>5.560060501098633</distance><timeResidual>-0.009418487548828125</timeResidual><timeUsed>true</timeUsed><horizontalSlownessUsed>false</horizontalSlownessUsed><backazimuthUsed>false</backazimuthUsed><weight>1</weight></arrival><arrival><pickID>de.gempa.tb1.Pick/20250413170229.77153.132526</pickID><phase>S</phase><azimuth>189.0922088623047</azimuth><distance>2.7415499687194824</distance><timeResidual>-0.037876129150390625</timeResidual><timeUsed>true</timeUsed><horizontalSlownessUsed>false</horizontalSlownessUsed><backazimuthUsed>false</backazimuthUsed><weight>1</weight></arrival><arrival><pickID>de.gempa.tb1.Pick/20250413170235.542373.132527</pickID><phase>S</phase><azimuth>195.2533416748047</azimuth><distance>3.0926432609558105</distance><timeResidual>0.039398193359375</timeResidual><timeUsed>true</timeUsed><horizontalSlownessUsed>false</horizontalSlownessUsed><backazimuthUsed>false</backazimuthUsed><weight>1</weight></arrival><magnitude publicID="de.gempa.tb1.Magnitude/20250413170235.551622.380563"><magnitude><value>3.5119732599274447</value></magnitude><type>M</type><methodID>weighted average</methodID><stationCount>5</stationCount></magnitude></origin><event publicID="gempa2025hhsg"><preferredOriginID>de.gempa.tb1.Origin/20250413170235.545354.115041</preferredOriginID><preferredMagnitudeID>de.gempa.tb1.Magnitude/20250413170235.551622.380563</preferredMagnitudeID><description><text>Northern Chile</text><type>region name</type></description><originReference>de.gempa.tb1.Origin/20250413170235.545354.115041</originReference></event></EventParameters></seiscomp>