<?xml version="1.0" encoding="UTF-8"?>
<seiscomp xmlns="http://geofon.gfz-potsdam.de/ns/seiscomp3-schema/0.13" version="0.13"><EventParameters><pick publicID="de.gempa.tb1.Pick/20250413093319.545887.130371"><time><value>2025-04-13T09:33:14.359998Z</value></time><waveformID networkCode="CX" stationCode="PB19" channelCode="HHZ"/><filterID>ITAPER(4)&gt;&gt;BW(4,4,20)</filterID><methodID>AIC</methodID><horizontalSlowness><value>7.297275324823181</value></horizontalSlowness><backazimuth><value>169.6454651538727</value></backazimuth><phaseHint>P</phaseHint><evaluationMode>automatic</evaluationMode><comment><text>52.52001449283016</text><id>DFX:rectilinearity</id></comment><comment><text>21.068729362873498</text><id>SNR</id></comment></pick><pick publicID="de.gempa.tb1.Pick/20250413093321.676285.130373"><time><value>2025-04-13T09:33:17.368393Z</value></time><waveformID networkCode="CX" stationCode="PB15" channelCode="HHZ"/><filterID>ITAPER(4)&gt;&gt;BW(4,4,20)</filterID><methodID>AIC</methodID><horizontalSlowness><value>23.47517171435427</value></horizontalSlowness><backazimuth><value>322.12645392736334</value></backazimuth><phaseHint>P</phaseHint><evaluationMode>automatic</evaluationMode><comment><text>333.9942919165476</text><id>DFX:rectilinearity</id></comment><comment><text>17.164413177624159</text><id>SNR</id></comment></pick><pick publicID="de.gempa.tb1.Pick/20250413093326.544868.130375"><time><value>2025-04-13T09:33:20.398393Z</value></time><waveformID networkCode="CX" stationCode="PB06" channelCode="HHZ"/><filterID>ITAPER(4)&gt;&gt;BW(4,4,20)</filterID><methodID>AIC</methodID><horizontalSlowness><value>14.64796771886447</value></horizontalSlowness><backazimuth><value>251.71048793933033</value></backazimuth><phaseHint>P</phaseHint><evaluationMode>automatic</evaluationMode><comment><text>85.42767005014801</text><id>DFX:rectilinearity</id></comment><comment><text>22.997970892650685</text><id>SNR</id></comment></pick><pick publicID="de.gempa.tb1.Pick/20250413093330.56819.130377"><time><value>2025-04-13T09:33:25.948394Z</value></time><waveformID networkCode="CX" stationCode="PB03" channelCode="HHZ"/><filterID>ITAPER(4)&gt;&gt;BW(4,4,20)</filterID><methodID>AIC</methodID><horizontalSlowness><value>9.729233319560205</value></horizontalSlowness><backazimuth><value>191.94737741476735</value></backazimuth><phaseHint>P</phaseHint><evaluationMode>automatic</evaluationMode><comment><text>22.029203735132267</text><id>DFX:rectilinearity</id></comment><comment><text>35.4647395689023</text><id>SNR</id></comment></pick><pick publicID="de.gempa.tb1.Pick/20250413093334.169104.130379"><time><value>2025-04-13T09:33:24.780001Z</value></time><waveformID networkCode="CX" stationCode="PB09" channelCode="HHZ"/><filterID>ITAPER(4)&gt;&gt;BW(4,4,20)</filterID><methodID>AIC</methodID><horizontalSlowness><value>17.886898904028229</value></horizontalSlowness><backazimuth><value>300.62814138231147</value></backazimuth><phaseHint>P</phaseHint><evaluationMode>automatic</evaluationMode><comment><text>74.29078574296054</text><id>DFX:rectilinearity</id></comment><comment><text>47.21895527329217</text><id>SNR</id></comment></pick><pick publicID="de.gempa.tb1.Pick/20250413093339.485725.130381"><time><value>2025-04-13T09:33:32.748393Z</value></time><waveformID networkCode="CX" stationCode="PB02" channelCode="HHZ"/><filterID>ITAPER(4)&gt;&gt;BW(4,4,20)</filterID><methodID>AIC</methodID><horizontalSlowness><value>11.558293864369002</value></horizontalSlowness><backazimuth><value>72.86636768744454</value></backazimuth><phaseHint>P</phaseHint><evaluationMode>automatic</evaluationMode><comment><text>51.69479434058309</text><id>DFX:rectilinearity</id></comment><comment><text>13.91471544397067</text><id>SNR</id></comment></pick><pick publicID="de.gempa.tb1.Pick/20250413093342.556679.130385"><time><value>2025-04-13T09:33:32.198393Z</value></time><waveformID networkCode="CX" stationCode="PB01" channelCode="HHZ"/><filterID>ITAPER(4)&gt;&gt;BW(4,4,20)</filterID><methodID>AIC</methodID><horizontalSlowness><value>13.716325790521836</value></horizontalSlowness><backazimuth><value>242.9174126560786</value></backazimuth><phaseHint>P</phaseHint><evaluationMode>automatic</evaluationMode><comment><text>21.626265692681216</text><id>DFX:rectilinearity</id></comment><comment><text>12.223716961834164</text><id>SNR</id></comment></pick><pick publicID="de.gempa.tb1.Pick/20250413093353.585569.130389"><time><value>2025-04-13T09:33:45.069998Z</value></time><waveformID networkCode="CX" stationCode="PB19" channelCode="HHN"/><filterID>ITAPER(2)&gt;&gt;BW(3,3,20)</filterID><methodID>L2-AIC-GRID</methodID><horizontalSlowness><value>18.335588640492222</value></horizontalSlowness><backazimuth><value>74.61820131496748</value></backazimuth><phaseHint>S</phaseHint><evaluationMode>automatic</evaluationMode><comment><text>207.72896289462216</text><id>DFX:rectilinearity</id></comment><comment><text>de.gempa.tb1.Pick/20250413093319.545887.130371</text><id>RefPickID</id></comment><comment><text>10.313716570992398</text><id>SNR</id></comment></pick><pick publicID="de.gempa.tb1.Pick/20250413093354.392984.130390"><time><value>2025-04-13T09:33:29.288393Z</value></time><waveformID networkCode="CX" stationCode="PB07" channelCode="HHZ"/><filterID>ITAPER(4)&gt;&gt;BW(4,4,20)</filterID><methodID>AIC</methodID><horizontalSlowness><value>21.4916851726237</value></horizontalSlowness><backazimuth><value>233.05639595029476</value></backazimuth><phaseHint>P</phaseHint><evaluationMode>automatic</evaluationMode><comment><text>398.3951194472377</text><id>DFX:rectilinearity</id></comment><comment><text>56.64705126096029</text><id>SNR</id></comment></pick><pick publicID="de.gempa.tb1.Pick/20250413093358.908886.130393"><time><value>2025-04-13T09:33:51.008393Z</value></time><waveformID networkCode="CX" stationCode="PB15" channelCode="HHN"/><filterID>ITAPER(2)&gt;&gt;BW(3,3,20)</filterID><methodID>L2-AIC-GRID</methodID><horizontalSlowness><value>21.194328422742235</value></horizontalSlowness><backazimuth><value>99.7804696339114</value></backazimuth><phaseHint>S</phaseHint><evaluationMode>automatic</evaluationMode><comment><text>1895.9629631543228</text><id>DFX:rectilinearity</id></comment><comment><text>de.gempa.tb1.Pick/20250413093321.676285.130373</text><id>RefPickID</id></comment><comment><text>5.015212232987603</text><id>SNR</id></comment></pick><pick publicID="de.gempa.tb1.Pick/20250413093403.595945.130396"><time><value>2025-04-13T09:33:55.798393Z</value></time><waveformID networkCode="CX" stationCode="PB06" channelCode="HHN"/><filterID>ITAPER(2)&gt;&gt;BW(3,3,20)</filterID><methodID>L2-AIC-GRID</methodID><horizontalSlowness><value>8.603756251281037</value></horizontalSlowness><backazimuth><value>310.0398077099711</value></backazimuth><phaseHint>S</phaseHint><evaluationMode>automatic</evaluationMode><comment><text>61.50991479866152</text><id>DFX:rectilinearity</id></comment><comment><text>de.gempa.tb1.Pick/20250413093326.544868.130375</text><id>RefPickID</id></comment><comment><text>7.751387217347933</text><id>SNR</id></comment></pick><pick publicID="de.gempa.tb1.Pick/20250413093418.769646.130400"><time><value>2025-04-13T09:34:05.578394Z</value></time><waveformID networkCode="CX" stationCode="PB03" channelCode="HHN"/><filterID>ITAPER(2)&gt;&gt;BW(3,3,20)</filterID><methodID>L2-AIC-GRID</methodID><horizontalSlowness><value>1.203318721502967</value></horizontalSlowness><backazimuth><value>357.38448731518457</value></backazimuth><phaseHint>S</phaseHint><evaluationMode>automatic</evaluationMode><comment><text>39.703729436944656</text><id>DFX:rectilinearity</id></comment><comment><text>de.gempa.tb1.Pick/20250413093330.56819.130377</text><id>RefPickID</id></comment><comment><text>7.737281149435828</text><id>SNR</id></comment></pick><origin publicID="de.gempa.tb1.Origin/20250413093418.773444.106686"><time><value>2025-04-13T09:32:34.972959Z</value><uncertainty>1.5348103046417236</uncertainty></time><latitude><value>-23.666566848754883</value><uncertainty>10.486593246459961</uncertainty></latitude><longitude><value>-66.62505340576172</value><uncertainty>28.63400459289551</uncertainty></longitude><depth><value>13.718029022216797</value><uncertainty>38.234867095947266</uncertainty></depth><depthType>from location</depthType><methodID>LOCSAT</methodID><earthModelID>iasp91_scanloc</earthModelID><quality><associatedPhaseCount>12</associatedPhaseCount><usedPhaseCount>12</usedPhaseCount><associatedStationCount>8</associatedStationCount><usedStationCount>8</usedStationCount><depthPhaseCount>0</depthPhaseCount><standardError>0.7299979014053425</standardError><azimuthalGap>309.8938903808594</azimuthalGap><maximumDistance>3.821561813354492</maximumDistance><minimumDistance>2.453282594680786</minimumDistance><medianDistance>3.049739122390747</medianDistance></quality><uncertainty><minHorizontalUncertainty>15.26546287536621</minHorizontalUncertainty><maxHorizontalUncertainty>63.59093475341797</maxHorizontalUncertainty><azimuthMaxHorizontalUncertainty>105.51753234863281</azimuthMaxHorizontalUncertainty><preferredDescription>horizontal uncertainty</preferredDescription></uncertainty><evaluationMode>automatic</evaluationMode><evaluationStatus>confirmed</evaluationStatus><comment><text>0.00</text><id>mismatchScore</id></comment><comment><text>mismatchScore</text><id>scevalMethod</id></comment><arrival><pickID>de.gempa.tb1.Pick/20250413093319.545887.130371</pickID><phase>P</phase><azimuth>263.9196472167969</azimuth><distance>2.453282594680786</distance><timeResidual>-0.2493133544921875</timeResidual><timeUsed>true</timeUsed><horizontalSlownessUsed>false</horizontalSlownessUsed><backazimuthUsed>false</backazimuthUsed><weight>1</weight></arrival><arrival><pickID>de.gempa.tb1.Pick/20250413093321.676285.130373</pickID><phase>P</phase><azimuth>279.3338317871094</azimuth><distance>2.653273105621338</distance><timeResidual>0.0054168701171875</timeResidual><timeUsed>true</timeUsed><horizontalSlownessUsed>false</horizontalSlownessUsed><backazimuthUsed>false</backazimuthUsed><weight>1</weight></arrival><arrival><pickID>de.gempa.tb1.Pick/20250413093326.544868.130375</pickID><phase>P</phase><azimuth>288.84527587890625</azimuth><distance>2.875218152999878</distance><timeResidual>-0.019809722900390625</timeResidual><timeUsed>true</timeUsed><horizontalSlownessUsed>false</horizontalSlownessUsed><backazimuthUsed>false</backazimuthUsed><weight>1</weight></arrival><arrival><pickID>de.gempa.tb1.Pick/20250413093330.56819.130377</pickID><phase>P</phase><azimuth>298.5580139160156</azimuth><distance>3.304184913635254</distance><timeResidual>-0.37340545654296875</timeResidual><timeUsed>true</timeUsed><horizontalSlownessUsed>false</horizontalSlownessUsed><backazimuthUsed>false</backazimuthUsed><weight>1</weight></arrival><arrival><pickID>de.gempa.tb1.Pick/20250413093334.169104.130379</pickID><phase>P</phase><azimuth>307.1029968261719</azimuth><distance>3.049739122390747</distance><timeResidual>1.958354949951172</timeResidual><timeUsed>true</timeUsed><horizontalSlownessUsed>false</horizontalSlownessUsed><backazimuthUsed>false</backazimuthUsed><weight>1</weight></arrival><arrival><pickID>de.gempa.tb1.Pick/20250413093339.485725.130381</pickID><phase>P</phase><azimuth>307.0401306152344</azimuth><distance>3.821561813354492</distance><timeResidual>-0.6925582885742188</timeResidual><timeUsed>true</timeUsed><horizontalSlownessUsed>false</horizontalSlownessUsed><backazimuthUsed>false</backazimuthUsed><weight>1</weight></arrival><arrival><pickID>de.gempa.tb1.Pick/20250413093342.556679.130385</pickID><phase>P</phase><azimuth>314.0257568359375</azimuth><distance>3.719635248184204</distance><timeResidual>0.15891647338867188</timeResidual><timeUsed>true</timeUsed><horizontalSlownessUsed>false</horizontalSlownessUsed><backazimuthUsed>false</backazimuthUsed><weight>1</weight></arrival><arrival><pickID>de.gempa.tb1.Pick/20250413093353.585569.130389</pickID><phase>S</phase><azimuth>263.9196472167969</azimuth><distance>2.453282594680786</distance><timeResidual>-0.17885589599609375</timeResidual><timeUsed>true</timeUsed><horizontalSlownessUsed>false</horizontalSlownessUsed><backazimuthUsed>false</backazimuthUsed><weight>1</weight></arrival><arrival><pickID>de.gempa.tb1.Pick/20250413093354.392984.130390</pickID><phase>P</phase><azimuth>302.0302429199219</azimuth><distance>3.577110290527344</distance><timeResidual>-0.7888641357421875</timeResidual><timeUsed>true</timeUsed><horizontalSlownessUsed>false</horizontalSlownessUsed><backazimuthUsed>false</backazimuthUsed><weight>1</weight></arrival><arrival><pickID>de.gempa.tb1.Pick/20250413093358.908886.130393</pickID><phase>S</phase><azimuth>279.3338317871094</azimuth><distance>2.653273105621338</distance><timeResidual>0.8074607849121094</timeResidual><timeUsed>true</timeUsed><horizontalSlownessUsed>false</horizontalSlownessUsed><backazimuthUsed>false</backazimuthUsed><weight>1</weight></arrival><arrival><pickID>de.gempa.tb1.Pick/20250413093403.595945.130396</pickID><phase>S</phase><azimuth>288.84527587890625</azimuth><distance>2.875218152999878</distance><timeResidual>0.10358810424804688</timeResidual><timeUsed>true</timeUsed><horizontalSlownessUsed>false</horizontalSlownessUsed><backazimuthUsed>false</backazimuthUsed><weight>1</weight></arrival><arrival><pickID>de.gempa.tb1.Pick/20250413093418.769646.130400</pickID><phase>S</phase><azimuth>298.5580139160156</azimuth><distance>3.304184913635254</distance><timeResidual>-0.7319068908691406</timeResidual><timeUsed>true</timeUsed><horizontalSlownessUsed>false</horizontalSlownessUsed><backazimuthUsed>false</backazimuthUsed><weight>1</weight></arrival><magnitude publicID="de.gempa.tb1.Magnitude/20250413093451.47287.342367"><magnitude><value>3.348676697164472</value></magnitude><type>M</type><methodID>weighted average</methodID><stationCount>6</stationCount></magnitude></origin><event publicID="gempa2025hhdi"><preferredOriginID>de.gempa.tb1.Origin/20250413093418.773444.106686</preferredOriginID><preferredMagnitudeID>de.gempa.tb1.Magnitude/20250413093451.47287.342367</preferredMagnitudeID><description><text>Jujuy Province, Argentina</text><type>region name</type></description><originReference>de.gempa.tb1.Origin/20250413093418.773444.106686</originReference></event></EventParameters></seiscomp>