<?xml version="1.0" encoding="UTF-8"?>
<seiscomp xmlns="http://geofon.gfz-potsdam.de/ns/seiscomp3-schema/0.13" version="0.13"><EventParameters><pick publicID="de.gempa.tb1.Pick/20250413041145.733073.128752"><time><value>2025-04-13T04:11:38.74Z</value></time><waveformID networkCode="CX" stationCode="PB09" channelCode="HHZ"/><filterID>ITAPER(4)&gt;&gt;BW(4,4,20)</filterID><methodID>AIC</methodID><horizontalSlowness><value>10.439744818124559</value></horizontalSlowness><backazimuth><value>328.8278584292616</value></backazimuth><phaseHint>P</phaseHint><evaluationMode>automatic</evaluationMode><comment><text>12.394933877674267</text><id>DFX:rectilinearity</id></comment><comment><text>29.411665987950467</text><id>SNR</id></comment></pick><pick publicID="de.gempa.tb1.Pick/20250413041148.527471.128754"><time><value>2025-04-13T04:11:42.618393Z</value></time><waveformID networkCode="CX" stationCode="PB03" channelCode="HHZ"/><filterID>ITAPER(4)&gt;&gt;BW(4,4,20)</filterID><methodID>AIC</methodID><horizontalSlowness><value>8.65366137968363</value></horizontalSlowness><backazimuth><value>337.01929075122553</value></backazimuth><phaseHint>P</phaseHint><evaluationMode>automatic</evaluationMode><comment><text>22.201292080806287</text><id>DFX:rectilinearity</id></comment><comment><text>14.583188119561228</text><id>SNR</id></comment></pick><pick publicID="de.gempa.tb1.Pick/20250413041150.518115.128756"><time><value>2025-04-13T04:11:43.698393Z</value></time><waveformID networkCode="CX" stationCode="PB01" channelCode="HHZ"/><filterID>ITAPER(4)&gt;&gt;BW(4,4,20)</filterID><methodID>AIC</methodID><horizontalSlowness><value>21.170489267412506</value></horizontalSlowness><backazimuth><value>62.4002658831153</value></backazimuth><phaseHint>P</phaseHint><evaluationMode>automatic</evaluationMode><comment><text>39.085814455694354</text><id>DFX:rectilinearity</id></comment><comment><text>13.918526017999337</text><id>SNR</id></comment></pick><pick publicID="de.gempa.tb1.Pick/20250413041150.524346.128758"><time><value>2025-04-13T04:11:45.958393Z</value></time><waveformID networkCode="CX" stationCode="PB02" channelCode="HHZ"/><filterID>ITAPER(4)&gt;&gt;BW(4,4,20)</filterID><methodID>AIC</methodID><horizontalSlowness><value>12.710578199235867</value></horizontalSlowness><backazimuth><value>328.24211222132396</value></backazimuth><phaseHint>P</phaseHint><evaluationMode>automatic</evaluationMode><comment><text>45.75238556985823</text><id>DFX:rectilinearity</id></comment><comment><text>10.835663045868227</text><id>SNR</id></comment></pick><pick publicID="de.gempa.tb1.Pick/20250413041150.524897.128760"><time><value>2025-04-13T04:11:43.948393Z</value></time><waveformID networkCode="CX" stationCode="PB06" channelCode="HHZ"/><filterID>ITAPER(4)&gt;&gt;BW(4,4,20)</filterID><methodID>AIC</methodID><horizontalSlowness><value>8.704893704103419</value></horizontalSlowness><backazimuth><value>316.19010272885174</value></backazimuth><phaseHint>P</phaseHint><evaluationMode>automatic</evaluationMode><comment><text>114.04533021268315</text><id>DFX:rectilinearity</id></comment><comment><text>5.72695563460423</text><id>SNR</id></comment></pick><pick publicID="de.gempa.tb1.Pick/20250413041202.077841.128762"><time><value>2025-04-13T04:11:44.358394Z</value></time><waveformID networkCode="CX" stationCode="PB07" channelCode="HHZ"/><filterID>ITAPER(4)&gt;&gt;BW(4,4,20)</filterID><methodID>AIC</methodID><horizontalSlowness><value>23.32407521607077</value></horizontalSlowness><backazimuth><value>106.54625376684756</value></backazimuth><phaseHint>P</phaseHint><evaluationMode>automatic</evaluationMode><comment><text>551.6040341978672</text><id>DFX:rectilinearity</id></comment><comment><text>30.953662691741336</text><id>SNR</id></comment></pick><pick publicID="de.gempa.tb1.Pick/20250413041209.553992.128766"><time><value>2025-04-13T04:12:00.698393Z</value></time><waveformID networkCode="CX" stationCode="PB03" channelCode="HHN"/><filterID>ITAPER(2)&gt;&gt;BW(3,3,20)</filterID><methodID>L2-AIC-GRID</methodID><horizontalSlowness><value>9.663434396419941</value></horizontalSlowness><backazimuth><value>222.2109446725208</value></backazimuth><phaseHint>S</phaseHint><evaluationMode>automatic</evaluationMode><comment><text>22.222751784206721</text><id>DFX:rectilinearity</id></comment><comment><text>de.gempa.tb1.Pick/20250413041148.527471.128754</text><id>RefPickID</id></comment><comment><text>5.928586590691791</text><id>SNR</id></comment></pick><pick publicID="de.gempa.tb1.Pick/20250413041209.669942.128767"><time><value>2025-04-13T04:12:02.598393Z</value></time><waveformID networkCode="CX" stationCode="PB06" channelCode="HHN"/><filterID>ITAPER(2)&gt;&gt;BW(3,3,20)</filterID><methodID>L2-AIC-GRID</methodID><horizontalSlowness><value>13.551785029108807</value></horizontalSlowness><backazimuth><value>245.8230974024638</value></backazimuth><phaseHint>S</phaseHint><evaluationMode>automatic</evaluationMode><comment><text>62.11859391539142</text><id>DFX:rectilinearity</id></comment><comment><text>de.gempa.tb1.Pick/20250413041150.524897.128760</text><id>RefPickID</id></comment><comment><text>5.893705557973456</text><id>SNR</id></comment></pick><origin publicID="de.gempa.tb1.Origin/20250413041210.618968.100376"><time><value>2025-04-13T04:11:19.717829Z</value><uncertainty>1.4711514711380005</uncertainty></time><latitude><value>-21.921762466430664</value><uncertainty>7.756775856018066</uncertainty></latitude><longitude><value>-68.5584487915039</value><uncertainty>18.06581687927246</uncertainty></longitude><depth><value>118.2647933959961</value><uncertainty>22.989099502563477</uncertainty></depth><depthType>from location</depthType><methodID>LOCSAT</methodID><earthModelID>iasp91_scanloc</earthModelID><quality><associatedPhaseCount>8</associatedPhaseCount><usedPhaseCount>8</usedPhaseCount><associatedStationCount>6</associatedStationCount><usedStationCount>6</usedStationCount><depthPhaseCount>0</depthPhaseCount><standardError>0.1877005067566124</standardError><azimuthalGap>274.93975830078125</azimuthalGap><maximumDistance>1.3812670707702637</maximumDistance><minimumDistance>0.6470628380775452</minimumDistance><medianDistance>1.2204523086547852</medianDistance></quality><uncertainty><minHorizontalUncertainty>16.633014678955078</minHorizontalUncertainty><maxHorizontalUncertainty>38.740352630615234</maxHorizontalUncertainty><azimuthMaxHorizontalUncertainty>90.21643829345703</azimuthMaxHorizontalUncertainty><preferredDescription>horizontal uncertainty</preferredDescription></uncertainty><evaluationMode>automatic</evaluationMode><evaluationStatus>confirmed</evaluationStatus><comment><text>0.00</text><id>mismatchScore</id></comment><comment><text>mismatchScore</text><id>scevalMethod</id></comment><arrival><pickID>de.gempa.tb1.Pick/20250413041145.733073.128752</pickID><phase>P</phase><azimuth>280.9914855957031</azimuth><distance>0.6470628380775452</distance><timeResidual>0.2185344696044922</timeResidual><timeUsed>true</timeUsed><horizontalSlownessUsed>false</horizontalSlownessUsed><backazimuthUsed>false</backazimuthUsed><weight>1</weight></arrival><arrival><pickID>de.gempa.tb1.Pick/20250413041148.527471.128754</pickID><phase>P</phase><azimuth>263.2900695800781</azimuth><distance>1.11595618724823</distance><timeResidual>-0.20101547241210938</timeResidual><timeUsed>true</timeUsed><horizontalSlownessUsed>false</horizontalSlownessUsed><backazimuthUsed>false</backazimuthUsed><weight>1</weight></arrival><arrival><pickID>de.gempa.tb1.Pick/20250413041150.518115.128756</pickID><phase>P</phase><azimuth>315.1273498535156</azimuth><distance>1.2299509048461914</distance><timeResidual>-0.3397369384765625</timeResidual><timeUsed>true</timeUsed><horizontalSlownessUsed>false</horizontalSlownessUsed><backazimuthUsed>false</backazimuthUsed><weight>1</weight></arrival><arrival><pickID>de.gempa.tb1.Pick/20250413041150.524346.128758</pickID><phase>P</phase><azimuth>295.45770263671875</azimuth><distance>1.3812670707702637</distance><timeResidual>0.2430553436279297</timeResidual><timeUsed>true</timeUsed><horizontalSlownessUsed>false</horizontalSlownessUsed><backazimuthUsed>false</backazimuthUsed><weight>1</weight></arrival><arrival><pickID>de.gempa.tb1.Pick/20250413041150.524897.128760</pickID><phase>P</phase><azimuth>230.0671081542969</azimuth><distance>1.2204523086547852</distance><timeResidual>0.02262306213378906</timeResidual><timeUsed>true</timeUsed><horizontalSlownessUsed>false</horizontalSlownessUsed><backazimuthUsed>false</backazimuthUsed><weight>1</weight></arrival><arrival><pickID>de.gempa.tb1.Pick/20250413041202.077841.128762</pickID><phase>P</phase><azimuth>278.6973571777344</azimuth><distance>1.2488845586776733</distance><timeResidual>0.11804580688476562</timeResidual><timeUsed>true</timeUsed><horizontalSlownessUsed>false</horizontalSlownessUsed><backazimuthUsed>false</backazimuthUsed><weight>1</weight></arrival><arrival><pickID>de.gempa.tb1.Pick/20250413041209.553992.128766</pickID><phase>S</phase><azimuth>263.2900695800781</azimuth><distance>1.11595618724823</distance><timeResidual>0.00717926025390625</timeResidual><timeUsed>true</timeUsed><horizontalSlownessUsed>false</horizontalSlownessUsed><backazimuthUsed>false</backazimuthUsed><weight>1</weight></arrival><arrival><pickID>de.gempa.tb1.Pick/20250413041209.669942.128767</pickID><phase>S</phase><azimuth>230.0671081542969</azimuth><distance>1.2204523086547852</distance><timeResidual>-0.06849861145019531</timeResidual><timeUsed>true</timeUsed><horizontalSlownessUsed>false</horizontalSlownessUsed><backazimuthUsed>false</backazimuthUsed><weight>1</weight></arrival><magnitude publicID="de.gempa.tb1.Magnitude/20250413041306.553824.309894"><magnitude><value>2.2414046074915888</value></magnitude><type>M</type><methodID>weighted average</methodID><stationCount>2</stationCount></magnitude></origin><event publicID="gempa2025hgsp"><preferredOriginID>de.gempa.tb1.Origin/20250413041210.618968.100376</preferredOriginID><preferredMagnitudeID>de.gempa.tb1.Magnitude/20250413041306.553824.309894</preferredMagnitudeID><typeCertainty>suspected</typeCertainty><description><text>Chile-Bolivia Border Region</text><type>region name</type></description><originReference>de.gempa.tb1.Origin/20250413041210.618968.100376</originReference></event></EventParameters></seiscomp>