<?xml version="1.0" encoding="UTF-8"?>
<seiscomp xmlns="http://geofon.gfz-potsdam.de/ns/seiscomp3-schema/0.13" version="0.13"><EventParameters><pick publicID="de.gempa.tb1.Pick/20250414183913.967704.140268"><time><value>2025-04-14T18:39:07.268393Z</value></time><waveformID networkCode="CX" stationCode="PB15" channelCode="HHZ"/><filterID>ITAPER(4)&gt;&gt;BW(4,4,20)</filterID><methodID>AIC</methodID><horizontalSlowness><value>20.878476237798456</value></horizontalSlowness><backazimuth><value>122.51306989028663</value></backazimuth><phaseHint>P</phaseHint><evaluationMode>automatic</evaluationMode><comment><text>1414.9577598321987</text><id>DFX:rectilinearity</id></comment><comment><text>62.67804265996879</text><id>SNR</id></comment></pick><pick publicID="de.gempa.tb1.Pick/20250414183922.188465.140277"><time><value>2025-04-14T18:39:14.88Z</value></time><waveformID networkCode="CX" stationCode="PB10" channelCode="HHZ"/><filterID>ITAPER(4)&gt;&gt;BW(4,4,20)</filterID><methodID>AIC</methodID><horizontalSlowness><value>11.647583124582516</value></horizontalSlowness><backazimuth><value>121.35460723919887</value></backazimuth><phaseHint>P</phaseHint><evaluationMode>automatic</evaluationMode><comment><text>904.0338441354111</text><id>DFX:rectilinearity</id></comment><comment><text>55.21505645801879</text><id>SNR</id></comment></pick><pick publicID="de.gempa.tb1.Pick/20250414183923.666436.140279"><time><value>2025-04-14T18:39:16.328393Z</value></time><waveformID networkCode="CX" stationCode="PB06" channelCode="HHZ"/><filterID>ITAPER(4)&gt;&gt;BW(4,4,20)</filterID><methodID>AIC</methodID><horizontalSlowness><value>11.573664371829237</value></horizontalSlowness><backazimuth><value>181.72288810465807</value></backazimuth><phaseHint>P</phaseHint><evaluationMode>automatic</evaluationMode><comment><text>44.52119538350806</text><id>DFX:rectilinearity</id></comment><comment><text>79.65719426707935</text><id>SNR</id></comment></pick><pick publicID="de.gempa.tb1.Pick/20250414183933.648356.140284"><time><value>2025-04-14T18:39:27.978394Z</value></time><waveformID networkCode="CX" stationCode="PB03" channelCode="HHZ"/><filterID>ITAPER(4)&gt;&gt;BW(4,4,20)</filterID><methodID>AIC</methodID><horizontalSlowness><value>9.723017258945584</value></horizontalSlowness><backazimuth><value>158.92404432757635</value></backazimuth><phaseHint>P</phaseHint><evaluationMode>automatic</evaluationMode><comment><text>518.1560973041647</text><id>DFX:rectilinearity</id></comment><comment><text>29.741807085679813</text><id>SNR</id></comment></pick><pick publicID="de.gempa.tb1.Pick/20250414183941.452307.140289"><time><value>2025-04-14T18:39:32.57Z</value></time><waveformID networkCode="CX" stationCode="PB09" channelCode="HHZ"/><filterID>ITAPER(4)&gt;&gt;BW(4,4,20)</filterID><methodID>AIC</methodID><horizontalSlowness><value>22.713582306544957</value></horizontalSlowness><backazimuth><value>300.52690934901125</value></backazimuth><phaseHint>P</phaseHint><evaluationMode>automatic</evaluationMode><comment><text>244.5190690899111</text><id>DFX:rectilinearity</id></comment><comment><text>59.87400187782212</text><id>SNR</id></comment></pick><pick publicID="de.gempa.tb1.Pick/20250414183945.484742.140294"><time><value>2025-04-14T18:39:39.398393Z</value></time><waveformID networkCode="CX" stationCode="PB02" channelCode="HHZ"/><filterID>ITAPER(4)&gt;&gt;BW(4,4,20)</filterID><methodID>AIC</methodID><horizontalSlowness><value>15.836144799720524</value></horizontalSlowness><backazimuth><value>226.28095325627777</value></backazimuth><phaseHint>P</phaseHint><evaluationMode>automatic</evaluationMode><comment><text>22.492766068585194</text><id>DFX:rectilinearity</id></comment><comment><text>14.040522982743003</text><id>SNR</id></comment></pick><pick publicID="de.gempa.tb1.Pick/20250414183947.90969.140299"><time><value>2025-04-14T18:39:33.558393Z</value></time><waveformID networkCode="CX" stationCode="PB07" channelCode="HHZ"/><filterID>ITAPER(4)&gt;&gt;BW(4,4,20)</filterID><methodID>AIC</methodID><horizontalSlowness><value>19.177783511121763</value></horizontalSlowness><backazimuth><value>186.36876282119644</value></backazimuth><phaseHint>P</phaseHint><evaluationMode>automatic</evaluationMode><comment><text>662.0053564031092</text><id>DFX:rectilinearity</id></comment><comment><text>29.56904901001124</text><id>SNR</id></comment></pick><pick publicID="de.gempa.tb1.Pick/20250414183949.533439.140301"><time><value>2025-04-14T18:39:42.488394Z</value></time><waveformID networkCode="CX" stationCode="PB01" channelCode="HHZ"/><filterID>ITAPER(4)&gt;&gt;BW(4,4,20)</filterID><methodID>AIC</methodID><horizontalSlowness><value>10.16400573767917</value></horizontalSlowness><backazimuth><value>202.37252862376752</value></backazimuth><phaseHint>P</phaseHint><evaluationMode>automatic</evaluationMode><comment><text>8.395500657425018</text><id>DFX:rectilinearity</id></comment><comment><text>22.63892795738072</text><id>SNR</id></comment></pick><origin publicID="de.gempa.tb1.Origin/20250414183949.537162.147469"><time><value>2025-04-14T18:38:59.697729Z</value><uncertainty>2.7846062183380127</uncertainty></time><latitude><value>-23.594322204589844</value><uncertainty>22.101917266845703</uncertainty></latitude><longitude><value>-69.67414855957031</value><uncertainty>14.086851119995117</uncertainty></longitude><depth><value>0</value></depth><depthType>operator assigned</depthType><methodID>LOCSAT</methodID><earthModelID>iasp91_scanloc</earthModelID><quality><associatedPhaseCount>8</associatedPhaseCount><usedPhaseCount>8</usedPhaseCount><associatedStationCount>8</associatedStationCount><usedStationCount>8</usedStationCount><depthPhaseCount>0</depthPhaseCount><standardError>0.5201711346367147</standardError><azimuthalGap>249.5616874694824</azimuthalGap><maximumDistance>2.5447847843170166</maximumDistance><minimumDistance>0.4271758496761322</minimumDistance><medianDistance>1.8334349393844604</medianDistance></quality><uncertainty><minHorizontalUncertainty>9.681289672851562</minHorizontalUncertainty><maxHorizontalUncertainty>55.36560440063477</maxHorizontalUncertainty><azimuthMaxHorizontalUncertainty>148.33599853515625</azimuthMaxHorizontalUncertainty><preferredDescription>horizontal uncertainty</preferredDescription></uncertainty><evaluationMode>automatic</evaluationMode><evaluationStatus>confirmed</evaluationStatus><comment><text>0.20</text><id>mismatchScore</id></comment><comment><text>mismatchScore</text><id>scevalMethod</id></comment><arrival><pickID>de.gempa.tb1.Pick/20250414183913.967704.140268</pickID><phase>P</phase><azimuth>25.95814895629883</azimuth><distance>0.4271758496761322</distance><timeResidual>-0.623077392578125</timeResidual><timeUsed>true</timeUsed><horizontalSlownessUsed>false</horizontalSlownessUsed><backazimuthUsed>false</backazimuthUsed><weight>1</weight></arrival><arrival><pickID>de.gempa.tb1.Pick/20250414183922.188465.140277</pickID><phase>P</phase><azimuth>275.51983642578125</azimuth><distance>0.8114815354347229</distance><timeResidual>-0.3819160461425781</timeResidual><timeUsed>true</timeUsed><horizontalSlownessUsed>false</horizontalSlownessUsed><backazimuthUsed>false</backazimuthUsed><weight>1</weight></arrival><arrival><pickID>de.gempa.tb1.Pick/20250414183923.666436.140279</pickID><phase>P</phase><azimuth>6.095648765563965</azimuth><distance>0.8893945217132568</distance><timeResidual>-0.428868293762207</timeResidual><timeUsed>true</timeUsed><horizontalSlownessUsed>false</horizontalSlownessUsed><backazimuthUsed>false</backazimuthUsed><weight>1</weight></arrival><arrival><pickID>de.gempa.tb1.Pick/20250414183933.648356.140284</pickID><phase>P</phase><azimuth>357.274169921875</azimuth><distance>1.5403165817260742</distance><timeResidual>-0.43946361541748047</timeResidual><timeUsed>true</timeUsed><horizontalSlownessUsed>false</horizontalSlownessUsed><backazimuthUsed>false</backazimuthUsed><weight>1</weight></arrival><arrival><pickID>de.gempa.tb1.Pick/20250414183941.452307.140289</pickID><phase>P</phase><azimuth>12.657991409301758</azimuth><distance>1.8334349393844604</distance><timeResidual>0.11772823333740234</timeResidual><timeUsed>true</timeUsed><horizontalSlownessUsed>false</horizontalSlownessUsed><backazimuthUsed>false</backazimuthUsed><weight>1</weight></arrival><arrival><pickID>de.gempa.tb1.Pick/20250414183945.484742.140294</pickID><phase>P</phase><azimuth>354.77679443359375</azimuth><distance>2.2730588912963867</distance><timeResidual>0.8952035903930664</timeResidual><timeUsed>true</timeUsed><horizontalSlownessUsed>false</horizontalSlownessUsed><backazimuthUsed>false</backazimuthUsed><weight>1</weight></arrival><arrival><pickID>de.gempa.tb1.Pick/20250414183947.90969.140299</pickID><phase>P</phase><azimuth>353.9443664550781</azimuth><distance>1.8691214323043823</distance><timeResidual>0.6148996353149414</timeResidual><timeUsed>true</timeUsed><horizontalSlownessUsed>false</horizontalSlownessUsed><backazimuthUsed>false</backazimuthUsed><weight>1</weight></arrival><arrival><pickID>de.gempa.tb1.Pick/20250414183949.533439.140301</pickID><phase>P</phase><azimuth>3.9320614337921143</azimuth><distance>2.5447847843170166</distance><timeResidual>0.24521732330322266</timeResidual><timeUsed>true</timeUsed><horizontalSlownessUsed>false</horizontalSlownessUsed><backazimuthUsed>false</backazimuthUsed><weight>1</weight></arrival><magnitude publicID="de.gempa.tb1.Magnitude/20250414184103.782346.529362"><magnitude><value>2.589994289466106</value></magnitude><type>M</type><methodID>weighted average</methodID><stationCount>7</stationCount></magnitude></origin><event publicID="gempa2025hjrp"><preferredOriginID>de.gempa.tb1.Origin/20250414183949.537162.147469</preferredOriginID><preferredMagnitudeID>de.gempa.tb1.Magnitude/20250414184103.782346.529362</preferredMagnitudeID><description><text>Northern Chile</text><type>region name</type></description><originReference>de.gempa.tb1.Origin/20250414183949.537162.147469</originReference></event></EventParameters></seiscomp>