<?xml version="1.0" encoding="UTF-8"?>
<seiscomp xmlns="http://geofon.gfz-potsdam.de/ns/seiscomp3-schema/0.13" version="0.13"><EventParameters><pick publicID="de.gempa.tb1.Pick/20250413202926.685432.204042"><time><value>2025-04-13T20:29:24.55Z</value></time><waveformID networkCode="CH" stationCode="VANNI" channelCode="HHZ"/><filterID>ITAPER(4)&gt;&gt;BW(4,4,20)</filterID><methodID>AIC</methodID><phaseHint>P</phaseHint><evaluationMode>automatic</evaluationMode></pick><pick publicID="de.gempa.tb1.Pick/20250413202928.683407.204046"><time><value>2025-04-13T20:29:26.67Z</value></time><waveformID networkCode="CH" stationCode="MMK" channelCode="HHZ"/><filterID>ITAPER(4)&gt;&gt;BW(4,4,20)</filterID><methodID>AIC</methodID><phaseHint>P</phaseHint><evaluationMode>automatic</evaluationMode></pick><pick publicID="de.gempa.tb1.Pick/20250413202928.930757.204048"><time><value>2025-04-13T20:29:25.15Z</value></time><waveformID networkCode="CH" stationCode="EMBD" channelCode="HHZ"/><filterID>ITAPER(4)&gt;&gt;BW(4,4,20)</filterID><methodID>AIC</methodID><phaseHint>P</phaseHint><evaluationMode>automatic</evaluationMode></pick><pick publicID="de.gempa.tb1.Pick/20250413202929.200044.204050"><time><value>2025-04-13T20:29:26.395Z</value></time><waveformID networkCode="CH" stationCode="DIX" channelCode="HHZ"/><filterID>ITAPER(4)&gt;&gt;BW(4,4,20)</filterID><methodID>AIC</methodID><phaseHint>P</phaseHint><evaluationMode>automatic</evaluationMode></pick><pick publicID="de.gempa.tb1.Pick/20250413202929.514355.204052"><time><value>2025-04-13T20:29:27.365Z</value></time><waveformID networkCode="CH" stationCode="SIMPL" channelCode="HHZ"/><filterID>ITAPER(4)&gt;&gt;BW(4,4,20)</filterID><methodID>AIC</methodID><phaseHint>P</phaseHint><evaluationMode>automatic</evaluationMode></pick><pick publicID="de.gempa.tb1.Pick/20250413202932.120362.204054"><time><value>2025-04-13T20:29:29.13Z</value></time><waveformID networkCode="CH" stationCode="SENIN" channelCode="HHZ"/><filterID>ITAPER(4)&gt;&gt;BW(4,4,20)</filterID><methodID>AIC</methodID><phaseHint>P</phaseHint><evaluationMode>automatic</evaluationMode></pick><origin publicID="de.gempa.tb1.Origin/20250413202932.122233.128147"><time><value>2025-04-13T20:29:21.638563Z</value><uncertainty>3.4925084114074707</uncertainty></time><latitude><value>46.13657379150391</value><uncertainty>5.528139591217041</uncertainty></latitude><longitude><value>7.684499740600586</value><uncertainty>3.064204692840576</uncertainty></longitude><depth><value>6.863069534301758</value><uncertainty>26.22785758972168</uncertainty></depth><depthType>from location</depthType><methodID>LOCSAT</methodID><earthModelID>iasp91</earthModelID><quality><associatedPhaseCount>6</associatedPhaseCount><usedPhaseCount>6</usedPhaseCount><associatedStationCount>6</associatedStationCount><usedStationCount>6</usedStationCount><depthPhaseCount>0</depthPhaseCount><standardError>0.021170895239246878</standardError><azimuthalGap>139.9491424560547</azimuthalGap><maximumDistance>0.3505789041519165</maximumDistance><minimumDistance>0.09549152851104736</minimumDistance><medianDistance>0.21268747746944427</medianDistance></quality><uncertainty><minHorizontalUncertainty>6.475948810577393</minHorizontalUncertainty><maxHorizontalUncertainty>11.90791130065918</maxHorizontalUncertainty><azimuthMaxHorizontalUncertainty>6.412217617034912</azimuthMaxHorizontalUncertainty><preferredDescription>horizontal uncertainty</preferredDescription></uncertainty><evaluationMode>automatic</evaluationMode><evaluationStatus>confirmed</evaluationStatus><comment><text>0.03</text><id>mismatchScore</id></comment><comment><text>mismatchScore</text><id>scevalMethod</id></comment><arrival><pickID>de.gempa.tb1.Pick/20250413202926.685432.204042</pickID><phase>P</phase><azimuth>320.36322021484375</azimuth><distance>0.09549152851104736</distance><timeResidual>0.01470470428466797</timeResidual><timeUsed>true</timeUsed><horizontalSlownessUsed>false</horizontalSlownessUsed><backazimuthUsed>false</backazimuthUsed><weight>1</weight></arrival><arrival><pickID>de.gempa.tb1.Pick/20250413202928.683407.204046</pickID><phase>P</phase><azimuth>113.76890563964844</azimuth><distance>0.21268747746944427</distance><timeResidual>0.029744386672973633</timeResidual><timeUsed>true</timeUsed><horizontalSlownessUsed>false</horizontalSlownessUsed><backazimuthUsed>false</backazimuthUsed><weight>1</weight></arrival><arrival><pickID>de.gempa.tb1.Pick/20250413202928.930757.204048</pickID><phase>P</phase><azimuth>52.02848815917969</azimuth><distance>0.13012172281742096</distance><timeResidual>-0.007160425186157227</timeResidual><timeUsed>true</timeUsed><horizontalSlownessUsed>false</horizontalSlownessUsed><backazimuthUsed>false</backazimuthUsed><weight>1</weight></arrival><arrival><pickID>de.gempa.tb1.Pick/20250413202929.200044.204050</pickID><phase>P</phase><azimuth>253.7180480957031</azimuth><distance>0.20039431750774384</distance><timeResidual>-0.024426937103271484</timeResidual><timeUsed>true</timeUsed><horizontalSlownessUsed>false</horizontalSlownessUsed><backazimuthUsed>false</backazimuthUsed><weight>1</weight></arrival><arrival><pickID>de.gempa.tb1.Pick/20250413202929.514355.204052</pickID><phase>P</phase><azimuth>65.99658966064453</azimuth><distance>0.25458237528800964</distance><timeResidual>-0.02713799476623535</timeResidual><timeUsed>true</timeUsed><horizontalSlownessUsed>false</horizontalSlownessUsed><backazimuthUsed>false</backazimuthUsed><weight>1</weight></arrival><arrival><pickID>de.gempa.tb1.Pick/20250413202932.120362.204054</pickID><phase>P</phase><azimuth>310.4570007324219</azimuth><distance>0.3505789041519165</distance><timeResidual>0.014278173446655273</timeResidual><timeUsed>true</timeUsed><horizontalSlownessUsed>false</horizontalSlownessUsed><backazimuthUsed>false</backazimuthUsed><weight>1</weight></arrival><magnitude publicID="de.gempa.tb1.Magnitude/20250413203513.671826.400640"><magnitude><value>1.3652223804316002</value></magnitude><type>M</type><methodID>weighted average</methodID><stationCount>6</stationCount></magnitude></origin><event publicID="gempa2025hhzf"><preferredOriginID>de.gempa.tb1.Origin/20250413202932.122233.128147</preferredOriginID><preferredMagnitudeID>de.gempa.tb1.Magnitude/20250413203513.671826.400640</preferredMagnitudeID><description><text>Switzerland</text><type>region name</type></description><originReference>de.gempa.tb1.Origin/20250413202932.122233.128147</originReference></event></EventParameters></seiscomp>