<?xml version="1.0" encoding="UTF-8"?>
<seiscomp xmlns="http://geofon.gfz-potsdam.de/ns/seiscomp3-schema/0.13" version="0.13"><EventParameters><pick publicID="de.gempa.tb1.Pick/20250412124716.516062.124025"><time><value>2025-04-12T12:47:10.628393Z</value></time><waveformID networkCode="CX" stationCode="PB06" channelCode="HHZ"/><filterID>ITAPER(4)&gt;&gt;BW(4,4,20)</filterID><methodID>AIC</methodID><horizontalSlowness><value>1.4065173454420412</value></horizontalSlowness><backazimuth><value>69.72401411502251</value></backazimuth><phaseHint>P</phaseHint><evaluationMode>automatic</evaluationMode><comment><text>82.28884985794106</text><id>DFX:rectilinearity</id></comment><comment><text>13.979298683763197</text><id>SNR</id></comment></pick><pick publicID="de.gempa.tb1.Pick/20250412124721.740731.124027"><time><value>2025-04-12T12:47:14.648393Z</value></time><waveformID networkCode="CX" stationCode="PB03" channelCode="HHZ"/><filterID>ITAPER(4)&gt;&gt;BW(4,4,20)</filterID><methodID>AIC</methodID><horizontalSlowness><value>8.453881906686345</value></horizontalSlowness><backazimuth><value>155.6662005120617</value></backazimuth><phaseHint>P</phaseHint><evaluationMode>automatic</evaluationMode><comment><text>14.322522745281688</text><id>DFX:rectilinearity</id></comment><comment><text>30.192759294523775</text><id>SNR</id></comment></pick><pick publicID="de.gempa.tb1.Pick/20250412124724.673031.124029"><time><value>2025-04-12T12:47:16.548393Z</value></time><waveformID networkCode="CX" stationCode="PB06" channelCode="HHN"/><filterID>ITAPER(2)&gt;&gt;BW(3,3,20)</filterID><methodID>L2-AIC-GRID</methodID><horizontalSlowness><value>17.912742854164964</value></horizontalSlowness><backazimuth><value>124.74621918772564</value></backazimuth><phaseHint>S</phaseHint><evaluationMode>automatic</evaluationMode><comment><text>98.42308695979766</text><id>DFX:rectilinearity</id></comment><comment><text>de.gempa.tb1.Pick/20250412124716.516062.124025</text><id>RefPickID</id></comment><comment><text>12.908176946216368</text><id>SNR</id></comment></pick><pick publicID="de.gempa.tb1.Pick/20250412124726.364027.124030"><time><value>2025-04-12T12:47:16.328397Z</value></time><waveformID networkCode="CX" stationCode="PB07" channelCode="HHZ"/><filterID>ITAPER(4)&gt;&gt;BW(4,4,20)</filterID><methodID>AIC</methodID><horizontalSlowness><value>23.26783419990633</value></horizontalSlowness><backazimuth><value>266.2133486330279</value></backazimuth><phaseHint>P</phaseHint><evaluationMode>automatic</evaluationMode><comment><text>250.4083351476773</text><id>DFX:rectilinearity</id></comment><comment><text>8.253359687039103</text><id>SNR</id></comment></pick><pick publicID="de.gempa.tb1.Pick/20250412124730.572842.124032"><time><value>2025-04-12T12:47:23.568393Z</value></time><waveformID networkCode="CX" stationCode="PB03" channelCode="HHN"/><filterID>ITAPER(2)&gt;&gt;BW(3,3,20)</filterID><methodID>L2-AIC-GRID</methodID><horizontalSlowness><value>16.750698984394706</value></horizontalSlowness><backazimuth><value>200.96722149946254</value></backazimuth><phaseHint>S</phaseHint><evaluationMode>automatic</evaluationMode><comment><text>14.43774732048666</text><id>DFX:rectilinearity</id></comment><comment><text>de.gempa.tb1.Pick/20250412124721.740731.124027</text><id>RefPickID</id></comment><comment><text>9.010980850254059</text><id>SNR</id></comment></pick><pick publicID="de.gempa.tb1.Pick/20250412124739.936806.124037"><time><value>2025-04-12T12:47:21.439998Z</value></time><waveformID networkCode="CX" stationCode="PB09" channelCode="HHZ"/><filterID>ITAPER(4)&gt;&gt;BW(4,4,20)</filterID><methodID>AIC</methodID><horizontalSlowness><value>22.913670881782053</value></horizontalSlowness><backazimuth><value>279.30392796812077</value></backazimuth><phaseHint>P</phaseHint><evaluationMode>automatic</evaluationMode><comment><text>11.777937389297408</text><id>DFX:rectilinearity</id></comment><comment><text>8.021059622096608</text><id>SNR</id></comment></pick><origin publicID="de.gempa.tb1.Origin/20250412124739.984638.82666"><time><value>2025-04-12T12:46:59.949927Z</value><uncertainty>1.5753765106201172</uncertainty></time><latitude><value>-22.677621841430664</value><uncertainty>6.282742023468018</uncertainty></latitude><longitude><value>-70.10050964355469</value><uncertainty>8.812348365783691</uncertainty></longitude><depth><value>24.34200096130371</value><uncertainty>11.72881317138672</uncertainty></depth><depthType>from location</depthType><methodID>LOCSAT</methodID><earthModelID>iasp91_scanloc</earthModelID><quality><associatedPhaseCount>6</associatedPhaseCount><usedPhaseCount>6</usedPhaseCount><associatedStationCount>4</associatedStationCount><usedStationCount>4</usedStationCount><depthPhaseCount>0</depthPhaseCount><standardError>0.9005378732810927</standardError><azimuthalGap>278.50465393066406</azimuthalGap><maximumDistance>1.1840407848358154</maximumDistance><minimumDistance>0.4890032708644867</minimumDistance><medianDistance>0.7039071917533875</medianDistance></quality><uncertainty><minHorizontalUncertainty>8.881833076477051</minHorizontalUncertainty><maxHorizontalUncertainty>21.449474334716797</maxHorizontalUncertainty><azimuthMaxHorizontalUncertainty>58.72361755371094</azimuthMaxHorizontalUncertainty><preferredDescription>horizontal uncertainty</preferredDescription></uncertainty><evaluationMode>automatic</evaluationMode><evaluationStatus>confirmed</evaluationStatus><comment><text>0.25</text><id>mismatchScore</id></comment><comment><text>mismatchScore</text><id>scevalMethod</id></comment><arrival><pickID>de.gempa.tb1.Pick/20250412124716.516062.124025</pickID><phase>P</phase><azimuth>93.38907623291016</azimuth><distance>0.4890032708644867</distance><timeResidual>0.674281120300293</timeResidual><timeUsed>true</timeUsed><horizontalSlownessUsed>false</horizontalSlownessUsed><backazimuthUsed>false</backazimuthUsed><weight>1</weight></arrival><arrival><pickID>de.gempa.tb1.Pick/20250412124721.740731.124027</pickID><phase>P</phase><azimuth>27.2512149810791</azimuth><distance>0.7039071917533875</distance><timeResidual>1.081242561340332</timeResidual><timeUsed>true</timeUsed><horizontalSlownessUsed>false</horizontalSlownessUsed><backazimuthUsed>false</backazimuthUsed><weight>1</weight></arrival><arrival><pickID>de.gempa.tb1.Pick/20250412124724.673031.124029</pickID><phase>S</phase><azimuth>93.38907623291016</azimuth><distance>0.4890032708644867</distance><timeResidual>-0.6926546096801758</timeResidual><timeUsed>true</timeUsed><horizontalSlownessUsed>false</horizontalSlownessUsed><backazimuthUsed>false</backazimuthUsed><weight>1</weight></arrival><arrival><pickID>de.gempa.tb1.Pick/20250412124726.364027.124030</pickID><phase>P</phase><azimuth>11.89373016357422</azimuth><distance>0.9670090079307556</distance><timeResidual>-1.594771385192871</timeResidual><timeUsed>true</timeUsed><horizontalSlownessUsed>false</horizontalSlownessUsed><backazimuthUsed>false</backazimuthUsed><weight>1</weight></arrival><arrival><pickID>de.gempa.tb1.Pick/20250412124730.572842.124032</pickID><phase>S</phase><azimuth>27.2512149810791</azimuth><distance>0.7039071917533875</distance><timeResidual>0.06894207000732422</timeResidual><timeUsed>true</timeUsed><horizontalSlownessUsed>false</horizontalSlownessUsed><backazimuthUsed>false</backazimuthUsed><weight>1</weight></arrival><arrival><pickID>de.gempa.tb1.Pick/20250412124739.936806.124037</pickID><phase>P</phase><azimuth>42.37168502807617</azimuth><distance>1.1840407848358154</distance><timeResidual>0.4628725051879883</timeResidual><timeUsed>true</timeUsed><horizontalSlownessUsed>false</horizontalSlownessUsed><backazimuthUsed>false</backazimuthUsed><weight>1</weight></arrival><magnitude publicID="de.gempa.tb1.Magnitude/20250412124805.60799.226610"><magnitude><value>2.173050422610861</value></magnitude><type>M</type><methodID>weighted average</methodID><stationCount>2</stationCount></magnitude></origin><event publicID="gempa2025hfnu"><preferredOriginID>de.gempa.tb1.Origin/20250412124739.984638.82666</preferredOriginID><preferredMagnitudeID>de.gempa.tb1.Magnitude/20250412124805.60799.226610</preferredMagnitudeID><description><text>Near Coast of Northern Chile</text><type>region name</type></description><originReference>de.gempa.tb1.Origin/20250412124739.984638.82666</originReference></event></EventParameters></seiscomp>