<?xml version="1.0" encoding="UTF-8"?>
<seiscomp xmlns="http://geofon.gfz-potsdam.de/ns/seiscomp3-schema/0.13" version="0.13"><EventParameters><pick publicID="de.gempa.tb1.Pick/20250414072236.538857.136525"><time><value>2025-04-14T07:22:28.46Z</value></time><waveformID networkCode="CX" stationCode="PB19" channelCode="HHZ"/><filterID>ITAPER(4)&gt;&gt;BW(4,4,20)</filterID><methodID>AIC</methodID><horizontalSlowness><value>19.043137867473064</value></horizontalSlowness><backazimuth><value>353.157607014992</value></backazimuth><phaseHint>P</phaseHint><evaluationMode>automatic</evaluationMode><comment><text>10.806269882626745</text><id>DFX:rectilinearity</id></comment><comment><text>21.561165125352048</text><id>SNR</id></comment></pick><pick publicID="de.gempa.tb1.Pick/20250414072240.481966.136527"><time><value>2025-04-14T07:22:32.258393Z</value></time><waveformID networkCode="CX" stationCode="PB06" channelCode="HHZ"/><filterID>ITAPER(4)&gt;&gt;BW(4,4,20)</filterID><methodID>AIC</methodID><horizontalSlowness><value>16.418012549987516</value></horizontalSlowness><backazimuth><value>142.8293252918312</value></backazimuth><phaseHint>P</phaseHint><evaluationMode>automatic</evaluationMode><comment><text>40.27498643915517</text><id>DFX:rectilinearity</id></comment><comment><text>14.65181099639356</text><id>SNR</id></comment></pick><pick publicID="de.gempa.tb1.Pick/20250414072243.520839.136529"><time><value>2025-04-14T07:22:36.688393Z</value></time><waveformID networkCode="CX" stationCode="PB03" channelCode="HHZ"/><filterID>ITAPER(4)&gt;&gt;BW(4,4,20)</filterID><methodID>AIC</methodID><horizontalSlowness><value>11.169886814985784</value></horizontalSlowness><backazimuth><value>131.31933103670431</value></backazimuth><phaseHint>P</phaseHint><evaluationMode>automatic</evaluationMode><comment><text>18.839820623302057</text><id>DFX:rectilinearity</id></comment><comment><text>51.65243555559077</text><id>SNR</id></comment></pick><pick publicID="de.gempa.tb1.Pick/20250414072245.213978.136531"><time><value>2025-04-14T07:22:40.37Z</value></time><waveformID networkCode="CX" stationCode="PB10" channelCode="HHZ"/><filterID>ITAPER(4)&gt;&gt;BW(4,4,20)</filterID><methodID>AIC</methodID><horizontalSlowness><value>9.987790293681039</value></horizontalSlowness><backazimuth><value>86.3116643906987</value></backazimuth><phaseHint>P</phaseHint><evaluationMode>automatic</evaluationMode><comment><text>54.68950381782263</text><id>DFX:rectilinearity</id></comment><comment><text>11.47681381137979</text><id>SNR</id></comment></pick><pick publicID="de.gempa.tb1.Pick/20250414072248.541748.136533"><time><value>2025-04-14T07:22:41.598393Z</value></time><waveformID networkCode="CX" stationCode="PB01" channelCode="HHZ"/><filterID>ITAPER(4)&gt;&gt;BW(4,4,20)</filterID><methodID>AIC</methodID><horizontalSlowness><value>11.016142051406421</value></horizontalSlowness><backazimuth><value>84.8464931480769</value></backazimuth><phaseHint>P</phaseHint><evaluationMode>automatic</evaluationMode><comment><text>15.972788948343872</text><id>DFX:rectilinearity</id></comment><comment><text>21.525084051132058</text><id>SNR</id></comment></pick><pick publicID="de.gempa.tb1.Pick/20250414072250.160853.136535"><time><value>2025-04-14T07:22:34.79Z</value></time><waveformID networkCode="CX" stationCode="PB09" channelCode="HHZ"/><filterID>ITAPER(4)&gt;&gt;BW(4,4,20)</filterID><methodID>AIC</methodID><horizontalSlowness><value>10.8143408396566</value></horizontalSlowness><backazimuth><value>126.90874192957261</value></backazimuth><phaseHint>P</phaseHint><evaluationMode>automatic</evaluationMode><comment><text>7.578778596622093</text><id>DFX:rectilinearity</id></comment><comment><text>30.457471336586945</text><id>SNR</id></comment></pick><pick publicID="de.gempa.tb1.Pick/20250414072250.626765.136537"><time><value>2025-04-14T07:22:43.268393Z</value></time><waveformID networkCode="CX" stationCode="PB02" channelCode="HHZ"/><filterID>ITAPER(4)&gt;&gt;BW(4,4,20)</filterID><methodID>AIC</methodID><horizontalSlowness><value>10.292746288498151</value></horizontalSlowness><backazimuth><value>338.7723334760056</value></backazimuth><phaseHint>P</phaseHint><evaluationMode>automatic</evaluationMode><comment><text>19.401966110447994</text><id>DFX:rectilinearity</id></comment><comment><text>12.023045056513917</text><id>SNR</id></comment></pick><pick publicID="de.gempa.tb1.Pick/20250414072256.037206.136540"><time><value>2025-04-14T07:22:39.698394Z</value></time><waveformID networkCode="CX" stationCode="PB07" channelCode="HHZ"/><filterID>ITAPER(4)&gt;&gt;BW(4,4,20)</filterID><methodID>AIC</methodID><horizontalSlowness><value>21.78207048543205</value></horizontalSlowness><backazimuth><value>299.746070277097</value></backazimuth><phaseHint>P</phaseHint><evaluationMode>automatic</evaluationMode><comment><text>108.38832243540649</text><id>DFX:rectilinearity</id></comment><comment><text>59.6011512112693</text><id>SNR</id></comment></pick><pick publicID="de.gempa.tb1.Pick/20250414072310.584722.136546"><time><value>2025-04-14T07:23:01.82Z</value></time><waveformID networkCode="CX" stationCode="PB19" channelCode="HHN"/><filterID>ITAPER(2)&gt;&gt;BW(3,3,20)</filterID><methodID>L2-AIC-GRID</methodID><horizontalSlowness><value>19.91293542105458</value></horizontalSlowness><backazimuth><value>84.08483549640523</value></backazimuth><phaseHint>S</phaseHint><evaluationMode>automatic</evaluationMode><comment><text>77.1524779812737</text><id>DFX:rectilinearity</id></comment><comment><text>de.gempa.tb1.Pick/20250414072236.538857.136525</text><id>RefPickID</id></comment><comment><text>6.840705811522928</text><id>SNR</id></comment></pick><pick publicID="de.gempa.tb1.Pick/20250414072324.713423.136555"><time><value>2025-04-14T07:23:16.488393Z</value></time><waveformID networkCode="CX" stationCode="PB03" channelCode="HHN"/><filterID>ITAPER(2)&gt;&gt;BW(3,3,20)</filterID><methodID>L2-AIC-GRID</methodID><horizontalSlowness><value>23.151186222971024</value></horizontalSlowness><backazimuth><value>209.35465477018846</value></backazimuth><phaseHint>S</phaseHint><evaluationMode>automatic</evaluationMode><comment><text>112.8378691171982</text><id>DFX:rectilinearity</id></comment><comment><text>de.gempa.tb1.Pick/20250414072243.520839.136529</text><id>RefPickID</id></comment><comment><text>8.991791739359881</text><id>SNR</id></comment></pick><pick publicID="de.gempa.tb1.Pick/20250414072332.607961.136556"><time><value>2025-04-14T07:23:25.308393Z</value></time><waveformID networkCode="CX" stationCode="PB01" channelCode="HHN"/><filterID>ITAPER(2)&gt;&gt;BW(3,3,20)</filterID><methodID>L2-AIC-GRID</methodID><horizontalSlowness><value>15.448482956579692</value></horizontalSlowness><backazimuth><value>327.3439731434987</value></backazimuth><phaseHint>S</phaseHint><evaluationMode>automatic</evaluationMode><comment><text>24.104244676028344</text><id>DFX:rectilinearity</id></comment><comment><text>de.gempa.tb1.Pick/20250414072248.541748.136533</text><id>RefPickID</id></comment><comment><text>7.38960270237066</text><id>SNR</id></comment></pick><pick publicID="de.gempa.tb1.Pick/20250414072334.64125.136557"><time><value>2025-04-14T07:23:26.608393Z</value></time><waveformID networkCode="CX" stationCode="PB02" channelCode="HHN"/><filterID>ITAPER(2)&gt;&gt;BW(3,3,20)</filterID><methodID>L2-AIC-GRID</methodID><horizontalSlowness><value>9.113136250845814</value></horizontalSlowness><backazimuth><value>269.14008129656776</value></backazimuth><phaseHint>S</phaseHint><evaluationMode>automatic</evaluationMode><comment><text>77.92350588235725</text><id>DFX:rectilinearity</id></comment><comment><text>de.gempa.tb1.Pick/20250414072250.626765.136537</text><id>RefPickID</id></comment><comment><text>6.610833549733553</text><id>SNR</id></comment></pick><pick publicID="de.gempa.tb1.Pick/20250414072359.388935.136560"><time><value>2025-04-14T07:23:21.628394Z</value></time><waveformID networkCode="CX" stationCode="PB07" channelCode="HHN"/><filterID>ITAPER(2)&gt;&gt;BW(3,3,20)</filterID><methodID>L2-AIC-GRID</methodID><horizontalSlowness><value>23.186365550193184</value></horizontalSlowness><backazimuth><value>285.1292743389501</value></backazimuth><phaseHint>S</phaseHint><evaluationMode>automatic</evaluationMode><comment><text>1483.5268634980005</text><id>DFX:rectilinearity</id></comment><comment><text>de.gempa.tb1.Pick/20250414072256.037206.136540</text><id>RefPickID</id></comment><comment><text>5.361238062810156</text><id>SNR</id></comment></pick><origin publicID="de.gempa.tb1.Origin/20250414072359.395032.131642"><time><value>2025-04-14T07:21:47.400457Z</value><uncertainty>0.9787189960479736</uncertainty></time><latitude><value>-23.48421096801758</value><uncertainty>6.12590217590332</uncertainty></latitude><longitude><value>-67.18370056152344</value><uncertainty>20.893457412719727</uncertainty></longitude><depth><value>239.2657470703125</value><uncertainty>21.42715072631836</uncertainty></depth><depthType>from location</depthType><methodID>LOCSAT</methodID><earthModelID>iasp91_scanloc</earthModelID><quality><associatedPhaseCount>13</associatedPhaseCount><usedPhaseCount>13</usedPhaseCount><associatedStationCount>8</associatedStationCount><usedStationCount>8</usedStationCount><depthPhaseCount>0</depthPhaseCount><standardError>0.2709783813804079</standardError><azimuthalGap>299.0875549316406</azimuthalGap><maximumDistance>3.307504653930664</maximumDistance><minimumDistance>1.9762473106384277</minimumDistance><medianDistance>3.04884934425354</medianDistance></quality><uncertainty><minHorizontalUncertainty>11.449442863464355</minHorizontalUncertainty><maxHorizontalUncertainty>45.25373840332031</maxHorizontalUncertainty><azimuthMaxHorizontalUncertainty>81.54914855957031</azimuthMaxHorizontalUncertainty><preferredDescription>horizontal uncertainty</preferredDescription></uncertainty><evaluationMode>automatic</evaluationMode><evaluationStatus>confirmed</evaluationStatus><comment><text>0.24</text><id>mismatchScore</id></comment><comment><text>mismatchScore</text><id>scevalMethod</id></comment><arrival><pickID>de.gempa.tb1.Pick/20250414072236.538857.136525</pickID><phase>P</phase><azimuth>257.35009765625</azimuth><distance>1.9762473106384277</distance><timeResidual>-0.3553428649902344</timeResidual><timeUsed>true</timeUsed><horizontalSlownessUsed>false</horizontalSlownessUsed><backazimuthUsed>false</backazimuthUsed><weight>1</weight></arrival><arrival><pickID>de.gempa.tb1.Pick/20250414072240.481966.136527</pickID><phase>P</phase><azimuth>288.94049072265625</azimuth><distance>2.331488847732544</distance><timeResidual>0.00679779052734375</timeResidual><timeUsed>true</timeUsed><horizontalSlownessUsed>false</horizontalSlownessUsed><backazimuthUsed>false</backazimuthUsed><weight>1</weight></arrival><arrival><pickID>de.gempa.tb1.Pick/20250414072243.520839.136529</pickID><phase>P</phase><azimuth>300.5715026855469</azimuth><distance>2.768725872039795</distance><timeResidual>-0.103668212890625</timeResidual><timeUsed>true</timeUsed><horizontalSlownessUsed>false</horizontalSlownessUsed><backazimuthUsed>false</backazimuthUsed><weight>1</weight></arrival><arrival><pickID>de.gempa.tb1.Pick/20250414072245.213978.136531</pickID><phase>P</phase><azimuth>268.79327392578125</azimuth><distance>3.0942158699035645</distance><timeResidual>0.040557861328125</timeResidual><timeUsed>true</timeUsed><horizontalSlownessUsed>false</horizontalSlownessUsed><backazimuthUsed>false</backazimuthUsed><weight>1</weight></arrival><arrival><pickID>de.gempa.tb1.Pick/20250414072248.541748.136533</pickID><phase>P</phase><azimuth>318.2625427246094</azimuth><distance>3.233314037322998</distance><timeResidual>-0.3266487121582031</timeResidual><timeUsed>true</timeUsed><horizontalSlownessUsed>false</horizontalSlownessUsed><backazimuthUsed>false</backazimuthUsed><weight>1</weight></arrival><arrival><pickID>de.gempa.tb1.Pick/20250414072250.160853.136535</pickID><phase>P</phase><azimuth>311.0606384277344</azimuth><distance>2.537152051925659</distance><timeResidual>0.4403266906738281</timeResidual><timeUsed>true</timeUsed><horizontalSlownessUsed>false</horizontalSlownessUsed><backazimuthUsed>false</backazimuthUsed><weight>1</weight></arrival><arrival><pickID>de.gempa.tb1.Pick/20250414072250.626765.136537</pickID><phase>P</phase><azimuth>310.1155700683594</azimuth><distance>3.307504653930664</distance><timeResidual>0.5058937072753906</timeResidual><timeUsed>true</timeUsed><horizontalSlownessUsed>false</horizontalSlownessUsed><backazimuthUsed>false</backazimuthUsed><weight>1</weight></arrival><arrival><pickID>de.gempa.tb1.Pick/20250414072256.037206.136540</pickID><phase>P</phase><azimuth>304.4864196777344</azimuth><distance>3.04884934425354</distance><timeResidual>-0.14352035522460938</timeResidual><timeUsed>true</timeUsed><horizontalSlownessUsed>false</horizontalSlownessUsed><backazimuthUsed>false</backazimuthUsed><weight>1</weight></arrival><arrival><pickID>de.gempa.tb1.Pick/20250414072310.584722.136546</pickID><phase>S</phase><azimuth>257.35009765625</azimuth><distance>1.9762473106384277</distance><timeResidual>0.06220626831054688</timeResidual><timeUsed>true</timeUsed><horizontalSlownessUsed>false</horizontalSlownessUsed><backazimuthUsed>false</backazimuthUsed><weight>1</weight></arrival><arrival><pickID>de.gempa.tb1.Pick/20250414072324.713423.136555</pickID><phase>S</phase><azimuth>300.5715026855469</azimuth><distance>2.768725872039795</distance><timeResidual>0.33951568603515625</timeResidual><timeUsed>true</timeUsed><horizontalSlownessUsed>false</horizontalSlownessUsed><backazimuthUsed>false</backazimuthUsed><weight>1</weight></arrival><arrival><pickID>de.gempa.tb1.Pick/20250414072332.607961.136556</pickID><phase>S</phase><azimuth>318.2625427246094</azimuth><distance>3.233314037322998</distance><timeResidual>-0.11101531982421875</timeResidual><timeUsed>true</timeUsed><horizontalSlownessUsed>false</horizontalSlownessUsed><backazimuthUsed>false</backazimuthUsed><weight>1</weight></arrival><arrival><pickID>de.gempa.tb1.Pick/20250414072334.64125.136557</pickID><phase>S</phase><azimuth>310.1155700683594</azimuth><distance>3.307504653930664</distance><timeResidual>-0.3263206481933594</timeResidual><timeUsed>true</timeUsed><horizontalSlownessUsed>false</horizontalSlownessUsed><backazimuthUsed>false</backazimuthUsed><weight>1</weight></arrival><arrival><pickID>de.gempa.tb1.Pick/20250414072359.388935.136560</pickID><phase>S</phase><azimuth>304.4864196777344</azimuth><distance>3.04884934425354</distance><timeResidual>-0.02846527099609375</timeResidual><timeUsed>true</timeUsed><horizontalSlownessUsed>false</horizontalSlownessUsed><backazimuthUsed>false</backazimuthUsed><weight>1</weight></arrival><magnitude publicID="de.gempa.tb1.Magnitude/20250414072421.515896.445743"><magnitude><value>3.211037946685164</value></magnitude><type>M</type><methodID>weighted average</methodID><stationCount>5</stationCount></magnitude></origin><event publicID="gempa2025hiuz"><preferredOriginID>de.gempa.tb1.Origin/20250414072359.395032.131642</preferredOriginID><preferredMagnitudeID>de.gempa.tb1.Magnitude/20250414072421.515896.445743</preferredMagnitudeID><description><text>Chile-Argentina Border Region</text><type>region name</type></description><originReference>de.gempa.tb1.Origin/20250414072359.395032.131642</originReference></event></EventParameters></seiscomp>