<?xml version="1.0" encoding="UTF-8"?>
<seiscomp xmlns="http://geofon.gfz-potsdam.de/ns/seiscomp3-schema/0.13" version="0.13"><EventParameters><pick publicID="de.gempa.tb1.Pick/20250411103449.662325.118477"><time><value>2025-04-11T10:34:36.12Z</value></time><waveformID networkCode="PL" stationCode="KWP" channelCode="HHZ"/><methodID>AIC</methodID><horizontalSlowness><value>2.697829847237823</value></horizontalSlowness><backazimuth><value>195.57531175153193</value></backazimuth><phaseHint>P</phaseHint><evaluationMode>automatic</evaluationMode><comment><text>3685.68651368482</text><id>DFX:rectilinearity</id></comment></pick><pick publicID="de.gempa.tb1.Pick/20250411103632.530933.118494"><time><value>2025-04-11T10:33:31.680575Z</value></time><waveformID networkCode="SX" stationCode="BURZL" channelCode="HHZ"/><methodID>AIC</methodID><horizontalSlowness><value>6.907818714442811</value></horizontalSlowness><backazimuth><value>208.37283342880554</value></backazimuth><phaseHint>P</phaseHint><evaluationMode>automatic</evaluationMode><comment><text>9.840789849311367</text><id>DFX:rectilinearity</id></comment></pick><pick publicID="de.gempa.tb1.Pick/20250411103632.67736.118497"><time><value>2025-04-11T10:33:40.235Z</value></time><waveformID networkCode="TH" stationCode="WARTH" channelCode="HHZ"/><methodID>AIC</methodID><horizontalSlowness><value>12.715471007397838</value></horizontalSlowness><backazimuth><value>31.21156417937837</value></backazimuth><phaseHint>P</phaseHint><evaluationMode>automatic</evaluationMode><comment><text>797.789007645212</text><id>DFX:rectilinearity</id></comment></pick><pick publicID="de.gempa.tb1.Pick/20250411103632.888005.118505"><time><value>2025-04-11T10:33:35.78Z</value></time><waveformID networkCode="TH" stationCode="MUEN" channelCode="HHZ"/><methodID>AIC</methodID><horizontalSlowness><value>22.07362591181813</value></horizontalSlowness><backazimuth><value>224.5624574993336</value></backazimuth><phaseHint>P</phaseHint><evaluationMode>automatic</evaluationMode><comment><text>78462.83085917143</text><id>DFX:rectilinearity</id></comment></pick><pick publicID="de.gempa.tb1.Pick/20250411103632.897192.118507"><time><value>2025-04-11T10:33:38.74Z</value></time><waveformID networkCode="TH" stationCode="MENTE" channelCode="HHZ"/><methodID>AIC</methodID><horizontalSlowness><value>22.73785419130782</value></horizontalSlowness><backazimuth><value>348.6429488898342</value></backazimuth><phaseHint>P</phaseHint><evaluationMode>automatic</evaluationMode><comment><text>25328.22430817535</text><id>DFX:rectilinearity</id></comment></pick><pick publicID="de.gempa.tb1.Pick/20250411103632.899504.118509"><time><value>2025-04-11T10:33:33.405Z</value></time><waveformID networkCode="TH" stationCode="MEHR" channelCode="HHZ"/><methodID>AIC</methodID><horizontalSlowness><value>21.625083749266402</value></horizontalSlowness><backazimuth><value>86.53195311743951</value></backazimuth><phaseHint>P</phaseHint><evaluationMode>automatic</evaluationMode><comment><text>243.88998090035193</text><id>DFX:rectilinearity</id></comment></pick><pick publicID="de.gempa.tb1.Pick/20250411103633.024424.118518"><time><value>2025-04-11T10:33:49.329999Z</value></time><waveformID networkCode="TH" stationCode="ABG1" channelCode="HHZ"/><methodID>AIC</methodID><horizontalSlowness><value>23.375363361059936</value></horizontalSlowness><backazimuth><value>233.8057308036417</value></backazimuth><phaseHint>P</phaseHint><evaluationMode>automatic</evaluationMode><comment><text>1791.8806126908783</text><id>DFX:rectilinearity</id></comment></pick><pick publicID="de.gempa.tb1.Pick/20250411103636.326078.118530"><time><value>2025-04-11T10:33:46.519538Z</value></time><waveformID networkCode="GR" stationCode="MOX" channelCode="BHZ"/><filterID>BW(4,0.7,2)</filterID><methodID>AIC</methodID><horizontalSlowness><value>19.230026608307618</value></horizontalSlowness><backazimuth><value>335.9729670270027</value></backazimuth><phaseHint>P</phaseHint><evaluationMode>automatic</evaluationMode><comment><text>5.837317051945901</text><id>DFX:rectilinearity</id></comment></pick><pick publicID="de.gempa.tb1.Pick/20250411103636.522491.118532"><time><value>2025-04-11T10:33:56.3775Z</value></time><waveformID networkCode="SX" stationCode="WERN" channelCode="HHZ"/><methodID>AIC</methodID><horizontalSlowness><value>22.230039390670186</value></horizontalSlowness><backazimuth><value>308.7467562326468</value></backazimuth><phaseHint>P</phaseHint><evaluationMode>automatic</evaluationMode><comment><text>12.493715495585088</text><id>DFX:rectilinearity</id></comment></pick><origin publicID="de.gempa.tb1.Origin/20250411103637.057197.45153"><time><value>2025-04-11T10:31:09.404238Z</value><uncertainty>9.629432678222656</uncertainty></time><latitude><value>61.34827423095703</value><uncertainty>71.05525970458984</uncertainty></latitude><longitude><value>7.175142288208008</value><uncertainty>41.181392669677734</uncertainty></longitude><depth><value>10</value><uncertainty>0</uncertainty></depth><methodID>LOCSAT</methodID><earthModelID>iasp91</earthModelID><quality><associatedPhaseCount>9</associatedPhaseCount><usedPhaseCount>9</usedPhaseCount><associatedStationCount>9</associatedStationCount><usedStationCount>9</usedStationCount><standardError>3.467582176499162</standardError><azimuthalGap>327.2300262451172</azimuthalGap><maximumDistance>14.57454013824463</maximumDistance><minimumDistance>10.108959197998047</minimumDistance><medianDistance>10.645291328430176</medianDistance></quality><evaluationMode>automatic</evaluationMode><comment><text>327.23</text><id>maxGap</id></comment><arrival><pickID>de.gempa.tb1.Pick/20250411103449.662325.118477</pickID><phase>P</phase><azimuth>136.4289093017578</azimuth><distance>14.57454013824463</distance><timeResidual>0.1080474853515625</timeResidual><timeUsed>true</timeUsed><horizontalSlownessUsed>true</horizontalSlownessUsed><backazimuthUsed>true</backazimuthUsed><weight>1</weight></arrival><arrival><pickID>de.gempa.tb1.Pick/20250411103632.530933.118494</pickID><phase>P</phase><azimuth>160.1352996826172</azimuth><distance>10.388111114501953</distance><timeResidual>-6.9471435546875</timeResidual><timeUsed>true</timeUsed><horizontalSlownessUsed>true</horizontalSlownessUsed><backazimuthUsed>true</backazimuthUsed><weight>1</weight></arrival><arrival><pickID>de.gempa.tb1.Pick/20250411103632.67736.118497</pickID><phase>P</phase><azimuth>169.19888305664062</azimuth><distance>10.645291328430176</distance><timeResidual>-1.8944854736328125</timeResidual><timeUsed>true</timeUsed><horizontalSlownessUsed>true</horizontalSlownessUsed><backazimuthUsed>true</backazimuthUsed><weight>1</weight></arrival><arrival><pickID>de.gempa.tb1.Pick/20250411103632.888005.118505</pickID><phase>P</phase><azimuth>167.50230407714844</azimuth><distance>10.108959197998047</distance><timeResidual>0.997161865234375</timeResidual><timeUsed>true</timeUsed><horizontalSlownessUsed>true</horizontalSlownessUsed><backazimuthUsed>true</backazimuthUsed><weight>1</weight></arrival><arrival><pickID>de.gempa.tb1.Pick/20250411103632.897192.118507</pickID><phase>P</phase><azimuth>167.9066162109375</azimuth><distance>10.20522403717041</distance><timeResidual>2.638427734375</timeResidual><timeUsed>true</timeUsed><horizontalSlownessUsed>true</horizontalSlownessUsed><backazimuthUsed>true</backazimuthUsed><weight>1</weight></arrival><arrival><pickID>de.gempa.tb1.Pick/20250411103632.899504.118509</pickID><phase>P</phase><azimuth>167.66168212890625</azimuth><distance>10.245058059692383</distance><timeResidual>-3.2430572509765625</timeResidual><timeUsed>true</timeUsed><horizontalSlownessUsed>true</horizontalSlownessUsed><backazimuthUsed>true</backazimuthUsed><weight>1</weight></arrival><arrival><pickID>de.gempa.tb1.Pick/20250411103633.024424.118518</pickID><phase>P</phase><azimuth>161.5554656982422</azimuth><distance>10.798685073852539</distance><timeResidual>5.080642700195312</timeResidual><timeUsed>true</timeUsed><horizontalSlownessUsed>true</horizontalSlownessUsed><backazimuthUsed>true</backazimuthUsed><weight>1</weight></arrival><arrival><pickID>de.gempa.tb1.Pick/20250411103636.326078.118530</pickID><phase>P</phase><azimuth>165.06143188476562</azimuth><distance>10.98024845123291</distance><timeResidual>-0.20709228515625</timeResidual><timeUsed>true</timeUsed><horizontalSlownessUsed>true</horizontalSlownessUsed><backazimuthUsed>true</backazimuthUsed><weight>1</weight></arrival><arrival><pickID>de.gempa.tb1.Pick/20250411103636.522491.118532</pickID><phase>P</phase><azimuth>163.00831604003906</azimuth><distance>11.431435585021973</distance><timeResidual>3.4676666259765625</timeResidual><timeUsed>true</timeUsed><horizontalSlownessUsed>true</horizontalSlownessUsed><backazimuthUsed>true</backazimuthUsed><weight>1</weight></arrival><magnitude publicID="de.gempa.tb1.Magnitude/20250411103637.064624.119312"><magnitude><value>4.784156032998771</value></magnitude><type>M</type><methodID>weighted average</methodID><stationCount>7</stationCount></magnitude></origin><event publicID="gempa2025hdng"><preferredOriginID>de.gempa.tb1.Origin/20250411103637.057197.45153</preferredOriginID><preferredMagnitudeID>de.gempa.tb1.Magnitude/20250411103637.064624.119312</preferredMagnitudeID><type>not locatable</type><description><text>Southern Norway</text><type>region name</type></description><originReference>de.gempa.tb1.Origin/20250411103637.057197.45153</originReference></event></EventParameters></seiscomp>