<?xml version="1.0" encoding="UTF-8"?>
<seiscomp xmlns="http://geofon.gfz-potsdam.de/ns/seiscomp3-schema/0.13" version="0.13"><EventParameters><pick publicID="de.gempa.tb1.Pick/20250413080230.538425.129997"><time><value>2025-04-13T08:02:22.44Z</value></time><waveformID networkCode="CX" stationCode="PB19" channelCode="HHZ"/><filterID>ITAPER(4)&gt;&gt;BW(4,4,20)</filterID><methodID>AIC</methodID><horizontalSlowness><value>13.628772179981732</value></horizontalSlowness><backazimuth><value>26.985224407481695</value></backazimuth><phaseHint>P</phaseHint><evaluationMode>automatic</evaluationMode><comment><text>20.53354440472179</text><id>DFX:rectilinearity</id></comment><comment><text>8.313875448826971</text><id>SNR</id></comment></pick><pick publicID="de.gempa.tb1.Pick/20250413080231.509851.129999"><time><value>2025-04-13T08:02:23.618393Z</value></time><waveformID networkCode="CX" stationCode="PB03" channelCode="HHZ"/><filterID>ITAPER(4)&gt;&gt;BW(4,4,20)</filterID><methodID>AIC</methodID><horizontalSlowness><value>8.686454675981906</value></horizontalSlowness><backazimuth><value>219.81424602132569</value></backazimuth><phaseHint>P</phaseHint><evaluationMode>automatic</evaluationMode><comment><text>15.964815368875987</text><id>DFX:rectilinearity</id></comment><comment><text>16.666199053739224</text><id>SNR</id></comment></pick><pick publicID="de.gempa.tb1.Pick/20250413080231.530184.130001"><time><value>2025-04-13T08:02:22.028393Z</value></time><waveformID networkCode="CX" stationCode="PB06" channelCode="HHZ"/><filterID>ITAPER(4)&gt;&gt;BW(4,4,20)</filterID><methodID>AIC</methodID><horizontalSlowness><value>21.068508841294832</value></horizontalSlowness><backazimuth><value>300.8658943591803</value></backazimuth><phaseHint>P</phaseHint><evaluationMode>automatic</evaluationMode><comment><text>59.06697434699922</text><id>DFX:rectilinearity</id></comment><comment><text>7.611805106885159</text><id>SNR</id></comment></pick><pick publicID="de.gempa.tb1.Pick/20250413080232.619333.130003"><time><value>2025-04-13T08:02:25.558393Z</value></time><waveformID networkCode="CX" stationCode="PB07" channelCode="HHZ"/><filterID>ITAPER(4)&gt;&gt;BW(4,4,20)</filterID><methodID>AIC</methodID><horizontalSlowness><value>22.228175017837437</value></horizontalSlowness><backazimuth><value>84.8910482596658</value></backazimuth><phaseHint>P</phaseHint><evaluationMode>automatic</evaluationMode><comment><text>581.692767701057</text><id>DFX:rectilinearity</id></comment><comment><text>32.014971023483625</text><id>SNR</id></comment></pick><pick publicID="de.gempa.tb1.Pick/20250413080242.575911.130005"><time><value>2025-04-13T08:02:20.9Z</value></time><waveformID networkCode="CX" stationCode="PB09" channelCode="HHZ"/><filterID>ITAPER(4)&gt;&gt;BW(4,4,20)</filterID><methodID>AIC</methodID><horizontalSlowness><value>20.58930519616552</value></horizontalSlowness><backazimuth><value>288.18382767021853</value></backazimuth><phaseHint>P</phaseHint><evaluationMode>automatic</evaluationMode><comment><text>12.298828967639334</text><id>DFX:rectilinearity</id></comment><comment><text>11.109792664018705</text><id>SNR</id></comment></pick><origin publicID="de.gempa.tb1.Origin/20250413080243.380232.105268"><time><value>2025-04-13T08:01:41.236773Z</value><uncertainty>7.08336591720581</uncertainty></time><latitude><value>-22.60057067871094</value><uncertainty>12.741888999938965</uncertainty></latitude><longitude><value>-67.02131652832031</value><uncertainty>61.10997009277344</uncertainty></longitude><depth><value>0</value></depth><depthType>operator assigned</depthType><methodID>LOCSAT</methodID><earthModelID>iasp91_scanloc</earthModelID><quality><associatedPhaseCount>5</associatedPhaseCount><usedPhaseCount>5</usedPhaseCount><associatedStationCount>5</associatedStationCount><usedStationCount>5</usedStationCount><depthPhaseCount>0</depthPhaseCount><standardError>1.1905537736981826</standardError><azimuthalGap>306.84666442871094</azimuthalGap><maximumDistance>2.794407844543457</maximumDistance><minimumDistance>2.2080795764923096</minimumDistance><medianDistance>2.457880973815918</medianDistance></quality><uncertainty><minHorizontalUncertainty>23.278188705444336</minHorizontalUncertainty><maxHorizontalUncertainty>131.882080078125</maxHorizontalUncertainty><azimuthMaxHorizontalUncertainty>83.66197204589844</azimuthMaxHorizontalUncertainty><preferredDescription>horizontal uncertainty</preferredDescription></uncertainty><evaluationMode>automatic</evaluationMode><evaluationStatus>confirmed</evaluationStatus><comment><text>0.01</text><id>mismatchScore</id></comment><comment><text>mismatchScore</text><id>scevalMethod</id></comment><arrival><pickID>de.gempa.tb1.Pick/20250413080230.538425.129997</pickID><phase>P</phase><azimuth>237.6776580810547</azimuth><distance>2.457880973815918</distance><timeResidual>-0.14302825927734375</timeResidual><timeUsed>true</timeUsed><horizontalSlownessUsed>false</horizontalSlownessUsed><backazimuthUsed>false</backazimuthUsed><weight>1</weight></arrival><arrival><pickID>de.gempa.tb1.Pick/20250413080231.509851.129999</pickID><phase>P</phase><azimuth>281.7374267578125</azimuth><distance>2.5884058475494385</distance><timeResidual>-0.7633399963378906</timeResidual><timeUsed>true</timeUsed><horizontalSlownessUsed>false</horizontalSlownessUsed><backazimuthUsed>false</backazimuthUsed><weight>1</weight></arrival><arrival><pickID>de.gempa.tb1.Pick/20250413080231.530184.130001</pickID><phase>P</phase><azimuth>266.9668273925781</azimuth><distance>2.3584227561950684</distance><timeResidual>0.8127708435058594</timeResidual><timeUsed>true</timeUsed><horizontalSlownessUsed>false</horizontalSlownessUsed><backazimuthUsed>false</backazimuthUsed><weight>1</weight></arrival><arrival><pickID>de.gempa.tb1.Pick/20250413080232.619333.130003</pickID><phase>P</phase><azimuth>287.5917663574219</azimuth><distance>2.794407844543457</distance><timeResidual>-1.6589813232421875</timeResidual><timeUsed>true</timeUsed><horizontalSlownessUsed>false</horizontalSlownessUsed><backazimuthUsed>false</backazimuthUsed><weight>1</weight></arrival><arrival><pickID>de.gempa.tb1.Pick/20250413080242.575911.130005</pickID><phase>P</phase><azimuth>290.83099365234375</azimuth><distance>2.2080795764923096</distance><timeResidual>1.7524642944335938</timeResidual><timeUsed>true</timeUsed><horizontalSlownessUsed>false</horizontalSlownessUsed><backazimuthUsed>false</backazimuthUsed><weight>1</weight></arrival><magnitude publicID="de.gempa.tb1.Magnitude/20250413080446.533193.330453"><magnitude><value>3.054604989833211</value></magnitude><type>M</type><methodID>weighted average</methodID><stationCount>5</stationCount></magnitude></origin><event publicID="gempa2025hhah"><preferredOriginID>de.gempa.tb1.Origin/20250413080243.380232.105268</preferredOriginID><preferredMagnitudeID>de.gempa.tb1.Magnitude/20250413080446.533193.330453</preferredMagnitudeID><typeCertainty>suspected</typeCertainty><description><text>Chile-Bolivia Border Region</text><type>region name</type></description><originReference>de.gempa.tb1.Origin/20250413080243.380232.105268</originReference></event></EventParameters></seiscomp>