<?xml version="1.0" encoding="UTF-8"?>
<seiscomp xmlns="http://geofon.gfz-potsdam.de/ns/seiscomp3-schema/0.13" version="0.13"><EventParameters><pick publicID="de.gempa.tb1.Pick/20250411180248.552497.119216"><time><value>2025-04-11T18:02:43.828394Z</value></time><waveformID networkCode="CX" stationCode="PB03" channelCode="HHZ"/><filterID>ITAPER(4)&gt;&gt;BW(4,4,20)</filterID><methodID>AIC</methodID><horizontalSlowness><value>20.2768792282257</value></horizontalSlowness><backazimuth><value>105.75630014367492</value></backazimuth><phaseHint>P</phaseHint><evaluationMode>automatic</evaluationMode><comment><text>22.54655448956213</text><id>DFX:rectilinearity</id></comment><comment><text>33.914312485116824</text><id>SNR</id></comment></pick><pick publicID="de.gempa.tb1.Pick/20250411180249.563432.119218"><time><value>2025-04-11T18:02:41.148393Z</value></time><waveformID networkCode="CX" stationCode="PB06" channelCode="HHZ"/><filterID>ITAPER(4)&gt;&gt;BW(4,4,20)</filterID><methodID>AIC</methodID><horizontalSlowness><value>13.424982945288848</value></horizontalSlowness><backazimuth><value>295.9385154262428</value></backazimuth><phaseHint>P</phaseHint><evaluationMode>automatic</evaluationMode><comment><text>37.43721782646633</text><id>DFX:rectilinearity</id></comment><comment><text>12.412153701490306</text><id>SNR</id></comment></pick><pick publicID="de.gempa.tb1.Pick/20250411180253.577975.119221"><time><value>2025-04-11T18:02:39.07Z</value></time><waveformID networkCode="CX" stationCode="PB09" channelCode="HHZ"/><filterID>ITAPER(4)&gt;&gt;BW(4,4,20)</filterID><methodID>AIC</methodID><horizontalSlowness><value>18.603923872429288</value></horizontalSlowness><backazimuth><value>133.04275404243845</value></backazimuth><phaseHint>P</phaseHint><evaluationMode>automatic</evaluationMode><comment><text>23.656486899252034</text><id>DFX:rectilinearity</id></comment><comment><text>43.516950181368927</text><id>SNR</id></comment></pick><pick publicID="de.gempa.tb1.Pick/20250411180254.69148.119224"><time><value>2025-04-11T18:02:46.368393Z</value></time><waveformID networkCode="CX" stationCode="PB15" channelCode="HHZ"/><filterID>ITAPER(4)&gt;&gt;BW(4,4,20)</filterID><methodID>AIC</methodID><horizontalSlowness><value>20.385292006334534</value></horizontalSlowness><backazimuth><value>104.07892461825165</value></backazimuth><phaseHint>P</phaseHint><evaluationMode>automatic</evaluationMode><comment><text>244.59903056903434</text><id>DFX:rectilinearity</id></comment><comment><text>14.426323108011925</text><id>SNR</id></comment></pick><pick publicID="de.gempa.tb1.Pick/20250411180301.586768.119226"><time><value>2025-04-11T18:02:54.628393Z</value></time><waveformID networkCode="CX" stationCode="PB02" channelCode="HHZ"/><filterID>ITAPER(4)&gt;&gt;BW(4,4,20)</filterID><methodID>AIC</methodID><horizontalSlowness><value>8.217403319457981</value></horizontalSlowness><backazimuth><value>178.42309358819492</value></backazimuth><phaseHint>P</phaseHint><evaluationMode>automatic</evaluationMode><comment><text>39.069488087227796</text><id>DFX:rectilinearity</id></comment><comment><text>27.18456777640394</text><id>SNR</id></comment></pick><pick publicID="de.gempa.tb1.Pick/20250411180301.695189.119228"><time><value>2025-04-11T18:02:45.288393Z</value></time><waveformID networkCode="CX" stationCode="PB06" channelCode="HHN"/><filterID>ITAPER(2)&gt;&gt;BW(3,3,20)</filterID><methodID>L2-AIC-GRID</methodID><horizontalSlowness><value>11.598214290993296</value></horizontalSlowness><backazimuth><value>237.92264971306525</value></backazimuth><phaseHint>S</phaseHint><evaluationMode>automatic</evaluationMode><comment><text>29.144476576282305</text><id>DFX:rectilinearity</id></comment><comment><text>de.gempa.tb1.Pick/20250411180249.563432.119218</text><id>RefPickID</id></comment><comment><text>5.287344719412432</text><id>SNR</id></comment></pick><pick publicID="de.gempa.tb1.Pick/20250411180303.648805.119229"><time><value>2025-04-11T18:02:54.998393Z</value></time><waveformID networkCode="CX" stationCode="PB01" channelCode="HHZ"/><filterID>ITAPER(4)&gt;&gt;BW(4,4,20)</filterID><methodID>AIC</methodID><horizontalSlowness><value>22.675751677680626</value></horizontalSlowness><backazimuth><value>156.58057181770278</value></backazimuth><phaseHint>P</phaseHint><evaluationMode>automatic</evaluationMode><comment><text>11.578326092120808</text><id>DFX:rectilinearity</id></comment><comment><text>29.611574155682806</text><id>SNR</id></comment></pick><pick publicID="de.gempa.tb1.Pick/20250411180306.556547.119231"><time><value>2025-04-11T18:02:58.700001Z</value></time><waveformID networkCode="CX" stationCode="PB19" channelCode="HHZ"/><filterID>ITAPER(4)&gt;&gt;BW(4,4,20)</filterID><methodID>AIC</methodID><horizontalSlowness><value>22.483470673661582</value></horizontalSlowness><backazimuth><value>19.852128295610925</value></backazimuth><phaseHint>P</phaseHint><evaluationMode>automatic</evaluationMode><comment><text>17.171090699767952</text><id>DFX:rectilinearity</id></comment><comment><text>26.957378139138505</text><id>SNR</id></comment></pick><origin publicID="de.gempa.tb1.Origin/20250411180306.565519.62636"><time><value>2025-04-11T18:02:29.510901Z</value><uncertainty>0.6279066205024719</uncertainty></time><latitude><value>-22.372310638427734</value><uncertainty>2.6013829708099365</uncertainty></latitude><longitude><value>-69.1239013671875</value><uncertainty>5.469880104064941</uncertainty></longitude><depth><value>0</value></depth><depthType>operator assigned</depthType><methodID>LOCSAT</methodID><earthModelID>iasp91_scanloc</earthModelID><quality><associatedPhaseCount>8</associatedPhaseCount><usedPhaseCount>8</usedPhaseCount><associatedStationCount>7</associatedStationCount><usedStationCount>7</usedStationCount><depthPhaseCount>0</depthPhaseCount><standardError>1.2141382700364187</standardError><azimuthalGap>196.5482177734375</azimuthalGap><maximumDistance>1.533056139945984</maximumDistance><minimumDistance>0.5307478308677673</minimumDistance><medianDistance>0.8915913105010986</medianDistance></quality><uncertainty><minHorizontalUncertainty>5.131152629852295</minHorizontalUncertainty><maxHorizontalUncertainty>11.9393949508667</maxHorizontalUncertainty><azimuthMaxHorizontalUncertainty>101.75321197509766</azimuthMaxHorizontalUncertainty><preferredDescription>horizontal uncertainty</preferredDescription></uncertainty><evaluationMode>automatic</evaluationMode><evaluationStatus>confirmed</evaluationStatus><comment><text>0.10</text><id>mismatchScore</id></comment><comment><text>mismatchScore</text><id>scevalMethod</id></comment><arrival><pickID>de.gempa.tb1.Pick/20250411180248.552497.119216</pickID><phase>P</phase><azimuth>298.8128967285156</azimuth><distance>0.6662093997001648</distance><timeResidual>1.538787841796875</timeResidual><timeUsed>true</timeUsed><horizontalSlownessUsed>false</horizontalSlownessUsed><backazimuthUsed>false</backazimuthUsed><weight>1</weight></arrival><arrival><pickID>de.gempa.tb1.Pick/20250411180249.563432.119218</pickID><phase>P</phase><azimuth>231.2065124511719</azimuth><distance>0.5307478308677673</distance><timeResidual>1.4577598571777344</timeResidual><timeUsed>true</timeUsed><horizontalSlownessUsed>false</horizontalSlownessUsed><backazimuthUsed>false</backazimuthUsed><weight>1</weight></arrival><arrival><pickID>de.gempa.tb1.Pick/20250411180253.577975.119221</pickID><phase>P</phase><azimuth>349.1655578613281</azimuth><distance>0.5835162401199341</distance><timeResidual>-1.6338443756103516</timeResidual><timeUsed>true</timeUsed><horizontalSlownessUsed>false</horizontalSlownessUsed><backazimuthUsed>false</backazimuthUsed><weight>1</weight></arrival><arrival><pickID>de.gempa.tb1.Pick/20250411180254.69148.119224</pickID><phase>P</phase><azimuth>200.98336791992188</azimuth><distance>0.8915913105010986</distance><timeResidual>-0.24277305603027344</timeResidual><timeUsed>true</timeUsed><horizontalSlownessUsed>false</horizontalSlownessUsed><backazimuthUsed>false</backazimuthUsed><weight>1</weight></arrival><arrival><pickID>de.gempa.tb1.Pick/20250411180301.586768.119226</pickID><phase>P</phase><azimuth>325.4518127441406</azimuth><distance>1.2695454359054565</distance><timeResidual>0.7657108306884766</timeResidual><timeUsed>true</timeUsed><horizontalSlownessUsed>false</horizontalSlownessUsed><backazimuthUsed>false</backazimuthUsed><weight>1</weight></arrival><arrival><pickID>de.gempa.tb1.Pick/20250411180301.695189.119228</pickID><phase>S</phase><azimuth>231.2065124511719</azimuth><distance>0.5307478308677673</distance><timeResidual>-1.7942752838134766</timeResidual><timeUsed>true</timeUsed><horizontalSlownessUsed>false</horizontalSlownessUsed><backazimuthUsed>false</backazimuthUsed><weight>1</weight></arrival><arrival><pickID>de.gempa.tb1.Pick/20250411180303.648805.119229</pickID><phase>P</phase><azimuth>345.5962219238281</azimuth><distance>1.365107774734497</distance><timeResidual>-0.6629161834716797</timeResidual><timeUsed>true</timeUsed><horizontalSlownessUsed>false</horizontalSlownessUsed><backazimuthUsed>false</backazimuthUsed><weight>1</weight></arrival><arrival><pickID>de.gempa.tb1.Pick/20250411180306.556547.119231</pickID><phase>P</phase><azimuth>185.71377563476562</azimuth><distance>1.533056139945984</distance><timeResidual>0.5714378356933594</timeResidual><timeUsed>true</timeUsed><horizontalSlownessUsed>false</horizontalSlownessUsed><backazimuthUsed>false</backazimuthUsed><weight>1</weight></arrival><magnitude publicID="de.gempa.tb1.Magnitude/20250411180310.936983.127354"><magnitude><value>2.289919065727257</value></magnitude><type>M</type><methodID>weighted average</methodID><stationCount>7</stationCount></magnitude></origin><event publicID="gempa2025hech"><preferredOriginID>de.gempa.tb1.Origin/20250411180306.565519.62636</preferredOriginID><preferredMagnitudeID>de.gempa.tb1.Magnitude/20250411180310.936983.127354</preferredMagnitudeID><description><text>Northern Chile</text><type>region name</type></description><originReference>de.gempa.tb1.Origin/20250411180306.565519.62636</originReference></event></EventParameters></seiscomp>