<?xml version="1.0" encoding="UTF-8"?>
<seiscomp xmlns="http://geofon.gfz-potsdam.de/ns/seiscomp3-schema/0.13" version="0.13"><EventParameters><pick publicID="de.gempa.tb1.Pick/20250414083038.648595.136791"><time><value>2025-04-14T08:30:32.89Z</value></time><waveformID networkCode="CX" stationCode="PB19" channelCode="HHZ"/><filterID>ITAPER(4)&gt;&gt;BW(4,4,20)</filterID><methodID>AIC</methodID><horizontalSlowness><value>21.221751107433374</value></horizontalSlowness><backazimuth><value>259.7278650135939</value></backazimuth><phaseHint>P</phaseHint><evaluationMode>automatic</evaluationMode><comment><text>292.51055656486676</text><id>DFX:rectilinearity</id></comment><comment><text>159.0889781090137</text><id>SNR</id></comment></pick><pick publicID="de.gempa.tb1.Pick/20250414083041.799463.136793"><time><value>2025-04-14T08:30:36.618393Z</value></time><waveformID networkCode="CX" stationCode="PB15" channelCode="HHZ"/><filterID>ITAPER(4)&gt;&gt;BW(4,4,20)</filterID><methodID>AIC</methodID><horizontalSlowness><value>22.65644371747637</value></horizontalSlowness><backazimuth><value>109.30519317610496</value></backazimuth><phaseHint>P</phaseHint><evaluationMode>automatic</evaluationMode><comment><text>2505.674114512011</text><id>DFX:rectilinearity</id></comment><comment><text>65.13793204559528</text><id>SNR</id></comment></pick><pick publicID="de.gempa.tb1.Pick/20250414083047.703209.136795"><time><value>2025-04-14T08:30:40.258393Z</value></time><waveformID networkCode="CX" stationCode="PB06" channelCode="HHZ"/><filterID>ITAPER(4)&gt;&gt;BW(4,4,20)</filterID><methodID>AIC</methodID><horizontalSlowness><value>9.51380664062169</value></horizontalSlowness><backazimuth><value>156.0061191195452</value></backazimuth><phaseHint>P</phaseHint><evaluationMode>automatic</evaluationMode><comment><text>157.16377931607653</text><id>DFX:rectilinearity</id></comment><comment><text>178.8880626559826</text><id>SNR</id></comment></pick><pick publicID="de.gempa.tb1.Pick/20250414083052.37572.136797"><time><value>2025-04-14T08:30:46.18Z</value></time><waveformID networkCode="CX" stationCode="PB10" channelCode="HHZ"/><filterID>ITAPER(4)&gt;&gt;BW(4,4,20)</filterID><methodID>AIC</methodID><horizontalSlowness><value>11.730117875062637</value></horizontalSlowness><backazimuth><value>102.7928666585503</value></backazimuth><phaseHint>P</phaseHint><evaluationMode>automatic</evaluationMode><comment><text>61.31676661478116</text><id>DFX:rectilinearity</id></comment><comment><text>88.40200599611993</text><id>SNR</id></comment></pick><pick publicID="de.gempa.tb1.Pick/20250414083053.539608.136799"><time><value>2025-04-14T08:30:46.328393Z</value></time><waveformID networkCode="CX" stationCode="PB03" channelCode="HHZ"/><filterID>ITAPER(4)&gt;&gt;BW(4,4,20)</filterID><methodID>AIC</methodID><horizontalSlowness><value>10.169855212115168</value></horizontalSlowness><backazimuth><value>134.18258344458889</value></backazimuth><phaseHint>P</phaseHint><evaluationMode>automatic</evaluationMode><comment><text>86.89871229643201</text><id>DFX:rectilinearity</id></comment><comment><text>141.4812269004784</text><id>SNR</id></comment></pick><pick publicID="de.gempa.tb1.Pick/20250414083058.125318.136801"><time><value>2025-04-14T08:30:45.58Z</value></time><waveformID networkCode="CX" stationCode="PB09" channelCode="HHZ"/><filterID>ITAPER(4)&gt;&gt;BW(4,4,20)</filterID><methodID>AIC</methodID><horizontalSlowness><value>18.64370384761822</value></horizontalSlowness><backazimuth><value>128.76184122572889</value></backazimuth><phaseHint>P</phaseHint><evaluationMode>automatic</evaluationMode><comment><text>25.861582999086945</text><id>DFX:rectilinearity</id></comment><comment><text>112.54208500979261</text><id>SNR</id></comment></pick><pick publicID="de.gempa.tb1.Pick/20250414083058.559787.136803"><time><value>2025-04-14T08:30:49.998394Z</value></time><waveformID networkCode="CX" stationCode="PB07" channelCode="HHZ"/><filterID>ITAPER(4)&gt;&gt;BW(4,4,20)</filterID><methodID>AIC</methodID><horizontalSlowness><value>17.820202373269666</value></horizontalSlowness><backazimuth><value>178.25648243067488</value></backazimuth><phaseHint>P</phaseHint><evaluationMode>automatic</evaluationMode><comment><text>2348.187231177071</text><id>DFX:rectilinearity</id></comment><comment><text>185.49647488721624</text><id>SNR</id></comment></pick><pick publicID="de.gempa.tb1.Pick/20250414083059.48373.136805"><time><value>2025-04-14T08:30:53.658393Z</value></time><waveformID networkCode="CX" stationCode="PB02" channelCode="HHZ"/><filterID>ITAPER(4)&gt;&gt;BW(4,4,20)</filterID><methodID>AIC</methodID><horizontalSlowness><value>9.060022852341557</value></horizontalSlowness><backazimuth><value>23.739910299088763</value></backazimuth><phaseHint>P</phaseHint><evaluationMode>automatic</evaluationMode><comment><text>27.7990387977635</text><id>DFX:rectilinearity</id></comment><comment><text>28.621350128111764</text><id>SNR</id></comment></pick><pick publicID="de.gempa.tb1.Pick/20250414083059.77736.136807"><time><value>2025-04-14T08:30:53.678393Z</value></time><waveformID networkCode="CX" stationCode="PB01" channelCode="HHZ"/><filterID>ITAPER(4)&gt;&gt;BW(4,4,20)</filterID><methodID>AIC</methodID><horizontalSlowness><value>3.674117686775374</value></horizontalSlowness><backazimuth><value>168.83628537347255</value></backazimuth><phaseHint>P</phaseHint><evaluationMode>automatic</evaluationMode><comment><text>6.607826068151185</text><id>DFX:rectilinearity</id></comment><comment><text>25.175912598372477</text><id>SNR</id></comment></pick><pick publicID="de.gempa.tb1.Pick/20250414083109.259798.136811"><time><value>2025-04-14T08:31:00.619999Z</value></time><waveformID networkCode="CX" stationCode="PATCX" channelCode="HHZ"/><filterID>ITAPER(4)&gt;&gt;BW(4,4,20)</filterID><methodID>AIC</methodID><horizontalSlowness><value>22.34499294838799</value></horizontalSlowness><backazimuth><value>71.37318105966304</value></backazimuth><phaseHint>P</phaseHint><evaluationMode>automatic</evaluationMode><comment><text>87.66558779138516</text><id>DFX:rectilinearity</id></comment><comment><text>11.531423846164582</text><id>SNR</id></comment></pick><pick publicID="de.gempa.tb1.Pick/20250414083114.818293.136813"><time><value>2025-04-14T08:31:07.198393Z</value></time><waveformID networkCode="CX" stationCode="PB15" channelCode="HHN"/><filterID>ITAPER(2)&gt;&gt;BW(3,3,20)</filterID><methodID>L2-AIC-GRID</methodID><horizontalSlowness><value>22.399736623491933</value></horizontalSlowness><backazimuth><value>84.91469967306396</value></backazimuth><phaseHint>S</phaseHint><evaluationMode>automatic</evaluationMode><comment><text>46978.59804867223</text><id>DFX:rectilinearity</id></comment><comment><text>de.gempa.tb1.Pick/20250414083041.799463.136793</text><id>RefPickID</id></comment><comment><text>6.9319178031442</text><id>SNR</id></comment></pick><pick publicID="de.gempa.tb1.Pick/20250414083120.685352.136814"><time><value>2025-04-14T08:31:13.068393Z</value></time><waveformID networkCode="CX" stationCode="PB06" channelCode="HHN"/><filterID>ITAPER(2)&gt;&gt;BW(3,3,20)</filterID><methodID>L2-AIC-GRID</methodID><horizontalSlowness><value>23.33256301074828</value></horizontalSlowness><backazimuth><value>256.56422788070955</value></backazimuth><phaseHint>S</phaseHint><evaluationMode>automatic</evaluationMode><comment><text>660.3392826894017</text><id>DFX:rectilinearity</id></comment><comment><text>de.gempa.tb1.Pick/20250414083047.703209.136795</text><id>RefPickID</id></comment><comment><text>19.408190530178363</text><id>SNR</id></comment></pick><pick publicID="de.gempa.tb1.Pick/20250414083129.530272.136817"><time><value>2025-04-14T08:31:23.258393Z</value></time><waveformID networkCode="CX" stationCode="PB03" channelCode="HHN"/><filterID>ITAPER(2)&gt;&gt;BW(3,3,20)</filterID><methodID>L2-AIC-GRID</methodID><horizontalSlowness><value>21.710989232497347</value></horizontalSlowness><backazimuth><value>247.7964258109527</value></backazimuth><phaseHint>S</phaseHint><evaluationMode>automatic</evaluationMode><comment><text>970.5800849116956</text><id>DFX:rectilinearity</id></comment><comment><text>de.gempa.tb1.Pick/20250414083053.539608.136799</text><id>RefPickID</id></comment><comment><text>15.452889438831</text><id>SNR</id></comment></pick><pick publicID="de.gempa.tb1.Pick/20250414083143.597101.136818"><time><value>2025-04-14T08:31:36.148393Z</value></time><waveformID networkCode="CX" stationCode="PB02" channelCode="HHN"/><filterID>ITAPER(2)&gt;&gt;BW(3,3,20)</filterID><methodID>L2-AIC-GRID</methodID><horizontalSlowness><value>15.604916335344011</value></horizontalSlowness><backazimuth><value>263.4969704065006</value></backazimuth><phaseHint>S</phaseHint><evaluationMode>automatic</evaluationMode><comment><text>1511.3606183306476</text><id>DFX:rectilinearity</id></comment><comment><text>de.gempa.tb1.Pick/20250414083059.48373.136805</text><id>RefPickID</id></comment><comment><text>9.585511851315189</text><id>SNR</id></comment></pick><pick publicID="de.gempa.tb1.Pick/20250414083143.678058.136819"><time><value>2025-04-14T08:31:36.308393Z</value></time><waveformID networkCode="CX" stationCode="PB01" channelCode="HHN"/><filterID>ITAPER(2)&gt;&gt;BW(3,3,20)</filterID><methodID>L2-AIC-GRID</methodID><horizontalSlowness><value>16.400879493834339</value></horizontalSlowness><backazimuth><value>17.501506509368681</value></backazimuth><phaseHint>S</phaseHint><evaluationMode>automatic</evaluationMode><comment><text>415.29248705162354</text><id>DFX:rectilinearity</id></comment><comment><text>de.gempa.tb1.Pick/20250414083059.77736.136807</text><id>RefPickID</id></comment><comment><text>11.648446119260555</text><id>SNR</id></comment></pick><pick publicID="de.gempa.tb1.Pick/20250414083211.796632.136821"><time><value>2025-04-14T08:31:29.778394Z</value></time><waveformID networkCode="CX" stationCode="PB07" channelCode="HHN"/><filterID>ITAPER(2)&gt;&gt;BW(3,3,20)</filterID><methodID>L2-AIC-GRID</methodID><horizontalSlowness><value>22.27744686502622</value></horizontalSlowness><backazimuth><value>77.1445364554684</value></backazimuth><phaseHint>S</phaseHint><evaluationMode>automatic</evaluationMode><comment><text>65210.26550095286</text><id>DFX:rectilinearity</id></comment><comment><text>de.gempa.tb1.Pick/20250414083058.559787.136803</text><id>RefPickID</id></comment><comment><text>7.138631943124453</text><id>SNR</id></comment></pick><origin publicID="de.gempa.tb1.Origin/20250414083211.800088.132613"><time><value>2025-04-14T08:29:59.273579Z</value><uncertainty>0.8586713075637817</uncertainty></time><latitude><value>-23.945940017700195</value><uncertainty>6.031329154968262</uncertainty></latitude><longitude><value>-67.60298156738281</value><uncertainty>19.79316520690918</uncertainty></longitude><depth><value>205.85504150390625</value><uncertainty>18.129070281982422</uncertainty></depth><depthType>from location</depthType><methodID>LOCSAT</methodID><earthModelID>iasp91_scanloc</earthModelID><quality><associatedPhaseCount>16</associatedPhaseCount><usedPhaseCount>16</usedPhaseCount><associatedStationCount>10</associatedStationCount><usedStationCount>10</usedStationCount><depthPhaseCount>0</depthPhaseCount><standardError>0.4326795807554929</standardError><azimuthalGap>302.64337158203125</azimuthalGap><maximumDistance>3.904085159301758</maximumDistance><minimumDistance>1.544884204864502</minimumDistance><medianDistance>2.7385153770446777</medianDistance></quality><uncertainty><minHorizontalUncertainty>11.861950874328613</minHorizontalUncertainty><maxHorizontalUncertainty>42.743927001953125</maxHorizontalUncertainty><azimuthMaxHorizontalUncertainty>82.80111694335938</azimuthMaxHorizontalUncertainty><preferredDescription>horizontal uncertainty</preferredDescription></uncertainty><evaluationMode>automatic</evaluationMode><evaluationStatus>confirmed</evaluationStatus><comment><text>0.00</text><id>mismatchScore</id></comment><comment><text>mismatchScore</text><id>scevalMethod</id></comment><arrival><pickID>de.gempa.tb1.Pick/20250414083038.648595.136791</pickID><phase>P</phase><azimuth>271.1794128417969</azimuth><distance>1.544884204864502</distance><timeResidual>-1.0073127746582031</timeResidual><timeUsed>true</timeUsed><horizontalSlownessUsed>false</horizontalSlownessUsed><backazimuthUsed>false</backazimuthUsed><weight>1</weight></arrival><arrival><pickID>de.gempa.tb1.Pick/20250414083041.799463.136793</pickID><phase>P</phase><azimuth>292.81756591796875</azimuth><distance>1.8644636869430542</distance><timeResidual>-0.27291107177734375</timeResidual><timeUsed>true</timeUsed><horizontalSlownessUsed>false</horizontalSlownessUsed><backazimuthUsed>false</backazimuthUsed><weight>1</weight></arrival><arrival><pickID>de.gempa.tb1.Pick/20250414083047.703209.136795</pickID><phase>P</phase><azimuth>303.90521240234375</azimuth><distance>2.1907002925872803</distance><timeResidual>0.033447265625</timeResidual><timeUsed>true</timeUsed><horizontalSlownessUsed>false</horizontalSlownessUsed><backazimuthUsed>false</backazimuthUsed><weight>1</weight></arrival><arrival><pickID>de.gempa.tb1.Pick/20250414083052.37572.136797</pickID><phase>P</phase><azimuth>278.4527282714844</azimuth><distance>2.7385153770446777</distance><timeResidual>-0.04627227783203125</timeResidual><timeUsed>true</timeUsed><horizontalSlownessUsed>false</horizontalSlownessUsed><backazimuthUsed>false</backazimuthUsed><weight>1</weight></arrival><arrival><pickID>de.gempa.tb1.Pick/20250414083053.539608.136799</pickID><phase>P</phase><azimuth>313.20635986328125</azimuth><distance>2.7370808124542236</distance><timeResidual>0.10295486450195312</timeResidual><timeUsed>true</timeUsed><horizontalSlownessUsed>false</horizontalSlownessUsed><backazimuthUsed>false</backazimuthUsed><weight>1</weight></arrival><arrival><pickID>de.gempa.tb1.Pick/20250414083058.125318.136801</pickID><phase>P</phase><azimuth>324.4374694824219</azimuth><distance>2.619529962539673</distance><timeResidual>0.6805458068847656</timeResidual><timeUsed>true</timeUsed><horizontalSlownessUsed>false</horizontalSlownessUsed><backazimuthUsed>false</backazimuthUsed><weight>1</weight></arrival><arrival><pickID>de.gempa.tb1.Pick/20250414083058.559787.136803</pickID><phase>P</phase><azimuth>315.9145812988281</azimuth><distance>3.0520198345184326</distance><timeResidual>0.13818740844726562</timeResidual><timeUsed>true</timeUsed><horizontalSlownessUsed>false</horizontalSlownessUsed><backazimuthUsed>false</backazimuthUsed><weight>1</weight></arrival><arrival><pickID>de.gempa.tb1.Pick/20250414083059.48373.136805</pickID><phase>P</phase><azimuth>320.5293273925781</azimuth><distance>3.364360570907593</distance><timeResidual>0.07679367065429688</timeResidual><timeUsed>true</timeUsed><horizontalSlownessUsed>false</horizontalSlownessUsed><backazimuthUsed>false</backazimuthUsed><weight>1</weight></arrival><arrival><pickID>de.gempa.tb1.Pick/20250414083059.77736.136807</pickID><phase>P</phase><azimuth>328.5360412597656</azimuth><distance>3.3737268447875977</distance><timeResidual>-0.018375396728515625</timeResidual><timeUsed>true</timeUsed><horizontalSlownessUsed>false</horizontalSlownessUsed><backazimuthUsed>false</backazimuthUsed><weight>1</weight></arrival><arrival><pickID>de.gempa.tb1.Pick/20250414083109.259798.136811</pickID><phase>P</phase><azimuth>322.3185729980469</azimuth><distance>3.904085159301758</distance><timeResidual>0.4944419860839844</timeResidual><timeUsed>true</timeUsed><horizontalSlownessUsed>false</horizontalSlownessUsed><backazimuthUsed>false</backazimuthUsed><weight>1</weight></arrival><arrival><pickID>de.gempa.tb1.Pick/20250414083114.818293.136813</pickID><phase>S</phase><azimuth>292.81756591796875</azimuth><distance>1.8644636869430542</distance><timeResidual>0.6103057861328125</timeResidual><timeUsed>true</timeUsed><horizontalSlownessUsed>false</horizontalSlownessUsed><backazimuthUsed>false</backazimuthUsed><weight>1</weight></arrival><arrival><pickID>de.gempa.tb1.Pick/20250414083120.685352.136814</pickID><phase>S</phase><azimuth>303.90521240234375</azimuth><distance>2.1907002925872803</distance><timeResidual>0.4873046875</timeResidual><timeUsed>true</timeUsed><horizontalSlownessUsed>false</horizontalSlownessUsed><backazimuthUsed>false</backazimuthUsed><weight>1</weight></arrival><arrival><pickID>de.gempa.tb1.Pick/20250414083129.530272.136817</pickID><phase>S</phase><azimuth>313.20635986328125</azimuth><distance>2.7370808124542236</distance><timeResidual>-0.11976242065429688</timeResidual><timeUsed>true</timeUsed><horizontalSlownessUsed>false</horizontalSlownessUsed><backazimuthUsed>false</backazimuthUsed><weight>1</weight></arrival><arrival><pickID>de.gempa.tb1.Pick/20250414083143.597101.136818</pickID><phase>S</phase><azimuth>320.5293273925781</azimuth><distance>3.364360570907593</distance><timeResidual>-0.4832115173339844</timeResidual><timeUsed>true</timeUsed><horizontalSlownessUsed>false</horizontalSlownessUsed><backazimuthUsed>false</backazimuthUsed><weight>1</weight></arrival><arrival><pickID>de.gempa.tb1.Pick/20250414083143.678058.136819</pickID><phase>S</phase><azimuth>328.5360412597656</azimuth><distance>3.3737268447875977</distance><timeResidual>-0.5294265747070312</timeResidual><timeUsed>true</timeUsed><horizontalSlownessUsed>false</horizontalSlownessUsed><backazimuthUsed>false</backazimuthUsed><weight>1</weight></arrival><arrival><pickID>de.gempa.tb1.Pick/20250414083211.796632.136821</pickID><phase>S</phase><azimuth>315.9145812988281</azimuth><distance>3.0520198345184326</distance><timeResidual>-0.14612579345703125</timeResidual><timeUsed>true</timeUsed><horizontalSlownessUsed>false</horizontalSlownessUsed><backazimuthUsed>false</backazimuthUsed><weight>1</weight></arrival><magnitude publicID="de.gempa.tb1.Magnitude/20250414083211.817053.453078"><magnitude><value>3.1563502077547674</value></magnitude><type>M</type><methodID>weighted average</methodID><stationCount>6</stationCount></magnitude></origin><event publicID="gempa2025hixg"><preferredOriginID>de.gempa.tb1.Origin/20250414083211.800088.132613</preferredOriginID><preferredMagnitudeID>de.gempa.tb1.Magnitude/20250414083211.817053.453078</preferredMagnitudeID><description><text>Chile-Argentina Border Region</text><type>region name</type></description><originReference>de.gempa.tb1.Origin/20250414083211.800088.132613</originReference></event></EventParameters></seiscomp>