<?xml version="1.0" encoding="UTF-8"?>
<seiscomp xmlns="http://geofon.gfz-potsdam.de/ns/seiscomp3-schema/0.13" version="0.13"><EventParameters><pick publicID="de.gempa.tb1.Pick/20250412010659.826623.121137"><time><value>2025-04-12T01:06:53.908393Z</value></time><waveformID networkCode="CX" stationCode="PB03" channelCode="HHZ"/><filterID>ITAPER(4)&gt;&gt;BW(4,4,20)</filterID><methodID>AIC</methodID><horizontalSlowness><value>12.119015665746431</value></horizontalSlowness><backazimuth><value>264.67719778700626</value></backazimuth><phaseHint>P</phaseHint><evaluationMode>automatic</evaluationMode><comment><text>37.268833670617717</text><id>DFX:rectilinearity</id></comment><comment><text>30.559400065797984</text><id>SNR</id></comment></pick><pick publicID="de.gempa.tb1.Pick/20250412010702.603566.121139"><time><value>2025-04-12T01:06:58.198394Z</value></time><waveformID networkCode="CX" stationCode="PB02" channelCode="HHZ"/><filterID>ITAPER(4)&gt;&gt;BW(4,4,20)</filterID><methodID>AIC</methodID><horizontalSlowness><value>10.003641514281014</value></horizontalSlowness><backazimuth><value>176.3709783305138</value></backazimuth><phaseHint>P</phaseHint><evaluationMode>automatic</evaluationMode><comment><text>42.158546928419256</text><id>DFX:rectilinearity</id></comment><comment><text>38.689600604654146</text><id>SNR</id></comment></pick><pick publicID="de.gempa.tb1.Pick/20250412010707.732729.121142"><time><value>2025-04-12T01:07:01.088393Z</value></time><waveformID networkCode="CX" stationCode="PB06" channelCode="HHZ"/><filterID>ITAPER(4)&gt;&gt;BW(4,4,20)</filterID><methodID>AIC</methodID><horizontalSlowness><value>7.63149932351199</value></horizontalSlowness><backazimuth><value>318.60620950589947</value></backazimuth><phaseHint>P</phaseHint><evaluationMode>automatic</evaluationMode><comment><text>63.55499624140027</text><id>DFX:rectilinearity</id></comment><comment><text>8.008581940208639</text><id>SNR</id></comment></pick><pick publicID="de.gempa.tb1.Pick/20250412010707.859852.121144"><time><value>2025-04-12T01:07:01.568393Z</value></time><waveformID networkCode="CX" stationCode="PB03" channelCode="HHN"/><filterID>ITAPER(2)&gt;&gt;BW(3,3,20)</filterID><methodID>L2-AIC-GRID</methodID><horizontalSlowness><value>11.808449508738445</value></horizontalSlowness><backazimuth><value>193.2362955532945</value></backazimuth><phaseHint>S</phaseHint><evaluationMode>automatic</evaluationMode><comment><text>138.62331335516362</text><id>DFX:rectilinearity</id></comment><comment><text>de.gempa.tb1.Pick/20250412010659.826623.121137</text><id>RefPickID</id></comment><comment><text>5.802801897042277</text><id>SNR</id></comment></pick><pick publicID="de.gempa.tb1.Pick/20250412010719.078507.121145"><time><value>2025-04-12T01:07:02.16Z</value></time><waveformID networkCode="CX" stationCode="PB09" channelCode="HHZ"/><filterID>ITAPER(4)&gt;&gt;BW(4,4,20)</filterID><methodID>AIC</methodID><horizontalSlowness><value>19.86363072539265</value></horizontalSlowness><backazimuth><value>259.0028616433802</value></backazimuth><phaseHint>P</phaseHint><evaluationMode>automatic</evaluationMode><comment><text>11.150158841145204</text><id>DFX:rectilinearity</id></comment><comment><text>38.301303478719575</text><id>SNR</id></comment></pick><pick publicID="de.gempa.tb1.Pick/20250412010719.673034.121147"><time><value>2025-04-12T01:07:09.278394Z</value></time><waveformID networkCode="CX" stationCode="PB02" channelCode="HHN"/><filterID>ITAPER(2)&gt;&gt;BW(3,3,20)</filterID><methodID>L2-AIC-GRID</methodID><horizontalSlowness><value>20.21305573627842</value></horizontalSlowness><backazimuth><value>76.0995943449681</value></backazimuth><phaseHint>S</phaseHint><evaluationMode>automatic</evaluationMode><comment><text>183.00216208904408</text><id>DFX:rectilinearity</id></comment><comment><text>de.gempa.tb1.Pick/20250412010702.603566.121139</text><id>RefPickID</id></comment><comment><text>5.144019726116571</text><id>SNR</id></comment></pick><pick publicID="de.gempa.tb1.Pick/20250412010721.932954.121148"><time><value>2025-04-12T01:07:13.088393Z</value></time><waveformID networkCode="CX" stationCode="PB06" channelCode="HHN"/><filterID>ITAPER(2)&gt;&gt;BW(3,3,20)</filterID><methodID>L2-AIC-GRID</methodID><horizontalSlowness><value>9.878599981483369</value></horizontalSlowness><backazimuth><value>20.728472602215504</value></backazimuth><phaseHint>S</phaseHint><evaluationMode>automatic</evaluationMode><comment><text>61.43338265848722</text><id>DFX:rectilinearity</id></comment><comment><text>de.gempa.tb1.Pick/20250412010707.732729.121142</text><id>RefPickID</id></comment><comment><text>10.37067830723528</text><id>SNR</id></comment></pick><pick publicID="de.gempa.tb1.Pick/20250412010725.103596.121149"><time><value>2025-04-12T01:06:53.698394Z</value></time><waveformID networkCode="CX" stationCode="PB07" channelCode="HHZ"/><filterID>ITAPER(4)&gt;&gt;BW(4,4,20)</filterID><methodID>AIC</methodID><horizontalSlowness><value>14.1616528250814</value></horizontalSlowness><backazimuth><value>248.90523349981146</value></backazimuth><phaseHint>P</phaseHint><evaluationMode>automatic</evaluationMode><comment><text>979.8798959444936</text><id>DFX:rectilinearity</id></comment><comment><text>63.29013401471668</text><id>SNR</id></comment></pick><origin publicID="de.gempa.tb1.Origin/20250412010725.928707.70636"><time><value>2025-04-12T01:06:43.365222Z</value><uncertainty>1.4844073057174683</uncertainty></time><latitude><value>-22.025291442871094</value><uncertainty>4.830168724060059</uncertainty></latitude><longitude><value>-70.29402160644531</value><uncertainty>9.833075523376465</uncertainty></longitude><depth><value>28.81911849975586</value><uncertainty>8.821784973144531</uncertainty></depth><depthType>from location</depthType><methodID>LOCSAT</methodID><earthModelID>iasp91_scanloc</earthModelID><quality><associatedPhaseCount>8</associatedPhaseCount><usedPhaseCount>8</usedPhaseCount><associatedStationCount>5</associatedStationCount><usedStationCount>5</usedStationCount><depthPhaseCount>0</depthPhaseCount><standardError>0.44432705854620325</standardError><azimuthalGap>252.36380195617676</azimuthalGap><maximumDistance>1.003214955329895</maximumDistance><minimumDistance>0.4814789891242981</minimumDistance><medianDistance>0.7937313318252563</medianDistance></quality><uncertainty><minHorizontalUncertainty>7.207198619842529</minHorizontalUncertainty><maxHorizontalUncertainty>22.361297607421875</maxHorizontalUncertainty><azimuthMaxHorizontalUncertainty>69.42254638671875</azimuthMaxHorizontalUncertainty><preferredDescription>horizontal uncertainty</preferredDescription></uncertainty><evaluationMode>automatic</evaluationMode><evaluationStatus>confirmed</evaluationStatus><comment><text>0.00</text><id>mismatchScore</id></comment><comment><text>mismatchScore</text><id>scevalMethod</id></comment><arrival><pickID>de.gempa.tb1.Pick/20250412010659.826623.121137</pickID><phase>P</phase><azimuth>92.73233795166016</azimuth><distance>0.5024066567420959</distance><timeResidual>0.12679767608642578</timeResidual><timeUsed>true</timeUsed><horizontalSlownessUsed>false</horizontalSlownessUsed><backazimuthUsed>false</backazimuthUsed><weight>1</weight></arrival><arrival><pickID>de.gempa.tb1.Pick/20250412010702.603566.121139</pickID><phase>P</phase><azimuth>27.874223709106445</azimuth><distance>0.7937313318252563</distance><timeResidual>-0.3097696304321289</timeResidual><timeUsed>true</timeUsed><horizontalSlownessUsed>false</horizontalSlownessUsed><backazimuthUsed>false</backazimuthUsed><weight>1</weight></arrival><arrival><pickID>de.gempa.tb1.Pick/20250412010707.732729.121142</pickID><phase>P</phase><azimuth>135.5104217529297</azimuth><distance>0.9515894055366516</distance><timeResidual>0.3137187957763672</timeResidual><timeUsed>true</timeUsed><horizontalSlownessUsed>false</horizontalSlownessUsed><backazimuthUsed>false</backazimuthUsed><weight>1</weight></arrival><arrival><pickID>de.gempa.tb1.Pick/20250412010707.859852.121144</pickID><phase>S</phase><azimuth>92.73233795166016</azimuth><distance>0.5024066567420959</distance><timeResidual>0.19391822814941406</timeResidual><timeUsed>true</timeUsed><horizontalSlownessUsed>false</horizontalSlownessUsed><backazimuthUsed>false</backazimuthUsed><weight>1</weight></arrival><arrival><pickID>de.gempa.tb1.Pick/20250412010719.078507.121145</pickID><phase>P</phase><azimuth>77.07075500488281</azimuth><distance>1.003214955329895</distance><timeResidual>0.6632795333862305</timeResidual><timeUsed>true</timeUsed><horizontalSlownessUsed>false</horizontalSlownessUsed><backazimuthUsed>false</backazimuthUsed><weight>1</weight></arrival><arrival><pickID>de.gempa.tb1.Pick/20250412010719.673034.121147</pickID><phase>S</phase><azimuth>27.874223709106445</azimuth><distance>0.7937313318252563</distance><timeResidual>-0.4457225799560547</timeResidual><timeUsed>true</timeUsed><horizontalSlownessUsed>false</horizontalSlownessUsed><backazimuthUsed>false</backazimuthUsed><weight>1</weight></arrival><arrival><pickID>de.gempa.tb1.Pick/20250412010721.932954.121148</pickID><phase>S</phase><azimuth>135.5104217529297</azimuth><distance>0.9515894055366516</distance><timeResidual>-0.7936859130859375</timeResidual><timeUsed>true</timeUsed><horizontalSlownessUsed>false</horizontalSlownessUsed><backazimuthUsed>false</backazimuthUsed><weight>1</weight></arrival><arrival><pickID>de.gempa.tb1.Pick/20250412010725.103596.121149</pickID><phase>P</phase><azimuth>51.96308517456055</azimuth><distance>0.4814789891242981</distance><timeResidual>0.25061511993408203</timeResidual><timeUsed>true</timeUsed><horizontalSlownessUsed>false</horizontalSlownessUsed><backazimuthUsed>false</backazimuthUsed><weight>1</weight></arrival><magnitude publicID="de.gempa.tb1.Magnitude/20250412010725.944687.159977"><magnitude><value>2.207340148468354</value></magnitude><type>M</type><methodID>weighted average</methodID><stationCount>4</stationCount></magnitude></origin><event publicID="gempa2025heql"><preferredOriginID>de.gempa.tb1.Origin/20250412010725.928707.70636</preferredOriginID><preferredMagnitudeID>de.gempa.tb1.Magnitude/20250412010725.944687.159977</preferredMagnitudeID><description><text>Near Coast of Northern Chile</text><type>region name</type></description><originReference>de.gempa.tb1.Origin/20250412010725.928707.70636</originReference></event></EventParameters></seiscomp>