<?xml version="1.0" encoding="UTF-8"?>
<seiscomp xmlns="http://geofon.gfz-potsdam.de/ns/seiscomp3-schema/0.13" version="0.13"><EventParameters><pick publicID="de.gempa.tb1.Pick/20250412193036.860935.126274"><time><value>2025-04-12T19:30:30.068393Z</value></time><waveformID networkCode="CX" stationCode="PB15" channelCode="HHZ"/><filterID>ITAPER(4)&gt;&gt;BW(4,4,20)</filterID><methodID>AIC</methodID><horizontalSlowness><value>21.261433236665408</value></horizontalSlowness><backazimuth><value>95.26945980580922</value></backazimuth><phaseHint>P</phaseHint><evaluationMode>automatic</evaluationMode><comment><text>589.8891005579137</text><id>DFX:rectilinearity</id></comment><comment><text>33.917091319669574</text><id>SNR</id></comment></pick><pick publicID="de.gempa.tb1.Pick/20250412193045.578079.126276"><time><value>2025-04-12T19:30:39.228391Z</value></time><waveformID networkCode="CX" stationCode="PB06" channelCode="HHZ"/><filterID>ITAPER(4)&gt;&gt;BW(4,4,20)</filterID><methodID>AIC</methodID><horizontalSlowness><value>7.99141486823833</value></horizontalSlowness><backazimuth><value>174.85146198425156</value></backazimuth><phaseHint>P</phaseHint><evaluationMode>automatic</evaluationMode><comment><text>53.98697231595947</text><id>DFX:rectilinearity</id></comment><comment><text>18.267886665489744</text><id>SNR</id></comment></pick><pick publicID="de.gempa.tb1.Pick/20250412193057.425752.126279"><time><value>2025-04-12T19:30:50.708394Z</value></time><waveformID networkCode="CX" stationCode="PB03" channelCode="HHZ"/><filterID>ITAPER(4)&gt;&gt;BW(4,4,20)</filterID><methodID>AIC</methodID><horizontalSlowness><value>11.568813907977768</value></horizontalSlowness><backazimuth><value>174.10962394154393</value></backazimuth><phaseHint>P</phaseHint><evaluationMode>automatic</evaluationMode><comment><text>1131.6960002922006</text><id>DFX:rectilinearity</id></comment><comment><text>57.15143766722908</text><id>SNR</id></comment></pick><pick publicID="de.gempa.tb1.Pick/20250412193107.583258.126282"><time><value>2025-04-12T19:31:02.468393Z</value></time><waveformID networkCode="CX" stationCode="PB02" channelCode="HHZ"/><filterID>ITAPER(4)&gt;&gt;BW(4,4,20)</filterID><methodID>AIC</methodID><horizontalSlowness><value>6.817293250452529</value></horizontalSlowness><backazimuth><value>239.91542470829586</value></backazimuth><phaseHint>P</phaseHint><evaluationMode>automatic</evaluationMode><comment><text>130.078686589188</text><id>DFX:rectilinearity</id></comment><comment><text>19.510285763868875</text><id>SNR</id></comment></pick><pick publicID="de.gempa.tb1.Pick/20250412193108.216087.126284"><time><value>2025-04-12T19:30:55.35Z</value></time><waveformID networkCode="CX" stationCode="PB09" channelCode="HHZ"/><filterID>ITAPER(4)&gt;&gt;BW(4,4,20)</filterID><methodID>AIC</methodID><horizontalSlowness><value>23.540603891755286</value></horizontalSlowness><backazimuth><value>344.5553775453183</value></backazimuth><phaseHint>P</phaseHint><evaluationMode>automatic</evaluationMode><comment><text>480.2559078191566</text><id>DFX:rectilinearity</id></comment><comment><text>84.2283206070697</text><id>SNR</id></comment></pick><pick publicID="de.gempa.tb1.Pick/20250412193113.650486.126286"><time><value>2025-04-12T19:31:04.978393Z</value></time><waveformID networkCode="CX" stationCode="PB01" channelCode="HHZ"/><filterID>ITAPER(4)&gt;&gt;BW(4,4,20)</filterID><methodID>AIC</methodID><horizontalSlowness><value>12.324950357277963</value></horizontalSlowness><backazimuth><value>180.78642221816324</value></backazimuth><phaseHint>P</phaseHint><evaluationMode>automatic</evaluationMode><comment><text>48.76388586007796</text><id>DFX:rectilinearity</id></comment><comment><text>25.73747988665361</text><id>SNR</id></comment></pick><pick publicID="de.gempa.tb1.Pick/20250412193136.501822.126290"><time><value>2025-04-12T19:30:56.008393Z</value></time><waveformID networkCode="CX" stationCode="PB07" channelCode="HHZ"/><filterID>ITAPER(4)&gt;&gt;BW(4,4,20)</filterID><methodID>AIC</methodID><horizontalSlowness><value>16.021319062016655</value></horizontalSlowness><backazimuth><value>170.0790029115435</value></backazimuth><phaseHint>P</phaseHint><evaluationMode>automatic</evaluationMode><comment><text>1561.3188400707477</text><id>DFX:rectilinearity</id></comment><comment><text>46.72355165276132</text><id>SNR</id></comment></pick><origin publicID="de.gempa.tb1.Origin/20250412193136.506856.90500"><time><value>2025-04-12T19:30:25.838148Z</value><uncertainty>7.381425857543945</uncertainty></time><latitude><value>-23.404773712158203</value><uncertainty>45.39739227294922</uncertainty></latitude><longitude><value>-69.5732650756836</value><uncertainty>19.016971588134766</uncertainty></longitude><depth><value>4.965959548950195</value><uncertainty>17.247991561889648</uncertainty></depth><depthType>from location</depthType><methodID>LOCSAT</methodID><earthModelID>iasp91_scanloc</earthModelID><quality><associatedPhaseCount>7</associatedPhaseCount><usedPhaseCount>7</usedPhaseCount><associatedStationCount>7</associatedStationCount><usedStationCount>7</usedStationCount><depthPhaseCount>0</depthPhaseCount><standardError>0.44336889879811714</standardError><azimuthalGap>324.396484375</azimuthalGap><maximumDistance>2.351570129394531</maximumDistance><minimumDistance>0.21699386835098267</minimumDistance><medianDistance>1.6298024654388428</medianDistance></quality><uncertainty><minHorizontalUncertainty>33.58894348144531</minHorizontalUncertainty><maxHorizontalUncertainty>100.07028198242188</maxHorizontalUncertainty><azimuthMaxHorizontalUncertainty>14.205549240112305</azimuthMaxHorizontalUncertainty><preferredDescription>horizontal uncertainty</preferredDescription></uncertainty><evaluationMode>automatic</evaluationMode><evaluationStatus>confirmed</evaluationStatus><comment><text>0.37</text><id>mismatchScore</id></comment><comment><text>mismatchScore</text><id>scevalMethod</id></comment><arrival><pickID>de.gempa.tb1.Pick/20250412193036.860935.126274</pickID><phase>P</phase><azimuth>25.71832275390625</azimuth><distance>0.21699386835098267</distance><timeResidual>-0.019679546356201172</timeResidual><timeUsed>true</timeUsed><horizontalSlownessUsed>false</horizontalSlownessUsed><backazimuthUsed>false</backazimuthUsed><weight>1</weight></arrival><arrival><pickID>de.gempa.tb1.Pick/20250412193045.578079.126276</pickID><phase>P</phase><azimuth>0.10559865087270737</azimuth><distance>0.695720374584198</distance><timeResidual>0.021661758422851562</timeResidual><timeUsed>true</timeUsed><horizontalSlownessUsed>false</horizontalSlownessUsed><backazimuthUsed>false</backazimuthUsed><weight>1</weight></arrival><arrival><pickID>de.gempa.tb1.Pick/20250412193057.425752.126279</pickID><phase>P</phase><azimuth>352.95330810546875</azimuth><distance>1.3600854873657227</distance><timeResidual>-0.7736482620239258</timeResidual><timeUsed>true</timeUsed><horizontalSlownessUsed>false</horizontalSlownessUsed><backazimuthUsed>false</backazimuthUsed><weight>1</weight></arrival><arrival><pickID>de.gempa.tb1.Pick/20250412193107.583258.126282</pickID><phase>P</phase><azimuth>351.7452087402344</azimuth><distance>2.0964903831481934</distance><timeResidual>0.8501520156860352</timeResidual><timeUsed>true</timeUsed><horizontalSlownessUsed>false</horizontalSlownessUsed><backazimuthUsed>false</backazimuthUsed><weight>1</weight></arrival><arrival><pickID>de.gempa.tb1.Pick/20250412193108.216087.126284</pickID><phase>P</phase><azimuth>10.892537117004395</azimuth><distance>1.6298024654388428</distance><timeResidual>0.1552877426147461</timeResidual><timeUsed>true</timeUsed><horizontalSlownessUsed>false</horizontalSlownessUsed><backazimuthUsed>false</backazimuthUsed><weight>1</weight></arrival><arrival><pickID>de.gempa.tb1.Pick/20250412193113.650486.126286</pickID><phase>P</phase><azimuth>1.955267071723938</azimuth><distance>2.351570129394531</distance><timeResidual>-0.1508016586303711</timeResidual><timeUsed>true</timeUsed><horizontalSlownessUsed>false</horizontalSlownessUsed><backazimuthUsed>false</backazimuthUsed><weight>1</weight></arrival><arrival><pickID>de.gempa.tb1.Pick/20250412193136.501822.126290</pickID><phase>P</phase><azimuth>350.11480712890625</azimuth><distance>1.6950111389160156</distance><timeResidual>-0.08384418487548828</timeResidual><timeUsed>true</timeUsed><horizontalSlownessUsed>false</horizontalSlownessUsed><backazimuthUsed>false</backazimuthUsed><weight>1</weight></arrival><magnitude publicID="de.gempa.tb1.Magnitude/20250412193226.584152.270698"><magnitude><value>2.748140938093612</value></magnitude><type>M</type><methodID>weighted average</methodID><stationCount>6</stationCount></magnitude></origin><event publicID="gempa2025hgbh"><preferredOriginID>de.gempa.tb1.Origin/20250412193136.506856.90500</preferredOriginID><preferredMagnitudeID>de.gempa.tb1.Magnitude/20250412193226.584152.270698</preferredMagnitudeID><type>mining explosion</type><description><text>Northern Chile</text><type>region name</type></description><originReference>de.gempa.tb1.Origin/20250412193136.506856.90500</originReference></event></EventParameters></seiscomp>