<?xml version="1.0" encoding="UTF-8"?>
<seiscomp xmlns="http://geofon.gfz-potsdam.de/ns/seiscomp3-schema/0.13" version="0.13"><EventParameters><pick publicID="de.gempa.tb1.Pick/20250412183237.276291.125948"><time><value>2025-04-12T18:32:31.829999Z</value></time><waveformID networkCode="CX" stationCode="PATCX" channelCode="HHZ"/><filterID>ITAPER(4)&gt;&gt;BW(4,4,20)</filterID><methodID>AIC</methodID><horizontalSlowness><value>20.612131981507975</value></horizontalSlowness><backazimuth><value>198.54140225249716</value></backazimuth><phaseHint>P</phaseHint><evaluationMode>automatic</evaluationMode><comment><text>16844.006911156292</text><id>DFX:rectilinearity</id></comment><comment><text>196.21441657093573</text><id>SNR</id></comment></pick><pick publicID="de.gempa.tb1.Pick/20250412183230.568837.125942"><time><value>2025-04-12T18:32:24.618393Z</value></time><waveformID networkCode="CX" stationCode="PB01" channelCode="HHZ"/><filterID>ITAPER(4)&gt;&gt;BW(4,4,20)</filterID><methodID>AIC</methodID><horizontalSlowness><value>4.510160312113293</value></horizontalSlowness><backazimuth><value>156.86716401976912</value></backazimuth><phaseHint>P</phaseHint><evaluationMode>automatic</evaluationMode><comment><text>23372.63691859049</text><id>DFX:rectilinearity</id></comment><comment><text>3099.3301369841583</text><id>SNR</id></comment></pick><pick publicID="de.gempa.tb1.Pick/20250412183231.57904.125944"><time><value>2025-04-12T18:32:26.308394Z</value></time><waveformID networkCode="CX" stationCode="PB02" channelCode="HHZ"/><filterID>ITAPER(4)&gt;&gt;BW(4,4,20)</filterID><methodID>AIC</methodID><horizontalSlowness><value>7.779267929499617</value></horizontalSlowness><backazimuth><value>99.56526017148789</value></backazimuth><phaseHint>P</phaseHint><evaluationMode>automatic</evaluationMode><comment><text>304308.87480985984</text><id>DFX:rectilinearity</id></comment><comment><text>1483.222369982575</text><id>SNR</id></comment></pick><pick publicID="de.gempa.tb1.Pick/20250412183228.618337.125938"><time><value>2025-04-12T18:32:23.338394Z</value></time><waveformID networkCode="CX" stationCode="PB03" channelCode="HHZ"/><filterID>ITAPER(4)&gt;&gt;BW(4,4,20)</filterID><methodID>AIC</methodID><horizontalSlowness><value>9.477147483266894</value></horizontalSlowness><backazimuth><value>102.91814988704452</value></backazimuth><phaseHint>P</phaseHint><evaluationMode>automatic</evaluationMode><comment><text>146740.85443498782</text><id>DFX:rectilinearity</id></comment><comment><text>3593.6308232878196</text><id>SNR</id></comment></pick><pick publicID="de.gempa.tb1.Pick/20250412183229.611589.125940"><time><value>2025-04-12T18:32:24.628393Z</value></time><waveformID networkCode="CX" stationCode="PB06" channelCode="HHZ"/><filterID>ITAPER(4)&gt;&gt;BW(4,4,20)</filterID><methodID>AIC</methodID><horizontalSlowness><value>8.107975254633038</value></horizontalSlowness><backazimuth><value>87.44893845123983</value></backazimuth><phaseHint>P</phaseHint><evaluationMode>automatic</evaluationMode><comment><text>84100.32493104297</text><id>DFX:rectilinearity</id></comment><comment><text>407.0686635322373</text><id>SNR</id></comment></pick><pick publicID="de.gempa.tb1.Pick/20250412183239.174483.125950"><time><value>2025-04-12T18:32:33.428393Z</value></time><waveformID networkCode="CX" stationCode="PB08" channelCode="HHZ"/><filterID>ITAPER(4)&gt;&gt;BW(4,4,20)</filterID><methodID>AIC</methodID><horizontalSlowness><value>15.097418772477573</value></horizontalSlowness><backazimuth><value>208.8791599213197</value></backazimuth><phaseHint>P</phaseHint><evaluationMode>automatic</evaluationMode><comment><text>1921.7771887208457</text><id>DFX:rectilinearity</id></comment><comment><text>62.65213015504606</text><id>SNR</id></comment></pick><pick publicID="de.gempa.tb1.Pick/20250412183225.379397.125936"><time><value>2025-04-12T18:32:19.59Z</value></time><waveformID networkCode="CX" stationCode="PB09" channelCode="HHZ"/><filterID>ITAPER(4)&gt;&gt;BW(4,4,20)</filterID><methodID>AIC</methodID><horizontalSlowness><value>17.498145958292351</value></horizontalSlowness><backazimuth><value>101.0067188915622</value></backazimuth><phaseHint>P</phaseHint><evaluationMode>automatic</evaluationMode><comment><text>251270.4418663736</text><id>DFX:rectilinearity</id></comment><comment><text>3042.9792266747</text><id>SNR</id></comment></pick><pick publicID="de.gempa.tb1.Pick/20250412183244.178884.125954"><time><value>2025-04-12T18:32:38.83Z</value></time><waveformID networkCode="CX" stationCode="PB10" channelCode="HHZ"/><filterID>ITAPER(4)&gt;&gt;BW(4,4,20)</filterID><methodID>AIC</methodID><horizontalSlowness><value>10.034408467523448</value></horizontalSlowness><backazimuth><value>26.421423847056445</value></backazimuth><phaseHint>P</phaseHint><evaluationMode>automatic</evaluationMode><comment><text>643.1255329856884</text><id>DFX:rectilinearity</id></comment><comment><text>14.447014038798926</text><id>SNR</id></comment></pick><pick publicID="de.gempa.tb1.Pick/20250412183234.67312.125946"><time><value>2025-04-12T18:32:28.168393Z</value></time><waveformID networkCode="CX" stationCode="PB15" channelCode="HHZ"/><filterID>ITAPER(4)&gt;&gt;BW(4,4,20)</filterID><methodID>AIC</methodID><horizontalSlowness><value>18.831076714979776</value></horizontalSlowness><backazimuth><value>67.51341057186532</value></backazimuth><phaseHint>P</phaseHint><evaluationMode>automatic</evaluationMode><comment><text>83833.52781670679</text><id>DFX:rectilinearity</id></comment><comment><text>121.54323196429817</text><id>SNR</id></comment></pick><pick publicID="de.gempa.tb1.Pick/20250412183239.579536.125952"><time><value>2025-04-12T18:32:35.02Z</value></time><waveformID networkCode="CX" stationCode="PB19" channelCode="HHZ"/><filterID>ITAPER(4)&gt;&gt;BW(4,4,20)</filterID><methodID>AIC</methodID><horizontalSlowness><value>6.371165094687662</value></horizontalSlowness><backazimuth><value>45.98834302645926</value></backazimuth><phaseHint>P</phaseHint><evaluationMode>automatic</evaluationMode><comment><text>743.7897625314816</text><id>DFX:rectilinearity</id></comment><comment><text>123.2372437102599</text><id>SNR</id></comment></pick><pick publicID="de.gempa.tb1.Pick/20250412183247.526854.125957"><time><value>2025-04-12T18:32:41.73Z</value></time><waveformID networkCode="CX" stationCode="PSGCX" channelCode="HHZ"/><filterID>ITAPER(4)&gt;&gt;BW(4,4,20)</filterID><methodID>AIC</methodID><horizontalSlowness><value>8.282520103133647</value></horizontalSlowness><backazimuth><value>147.4357022642585</value></backazimuth><phaseHint>P</phaseHint><evaluationMode>automatic</evaluationMode><comment><text>277.77431013605724</text><id>DFX:rectilinearity</id></comment><comment><text>168.2741977314865</text><id>SNR</id></comment></pick><pick publicID="de.gempa.tb1.Pick/20250412183248.611541.125959"><time><value>2025-04-12T18:32:42.128394Z</value></time><waveformID networkCode="CX" stationCode="PB03" channelCode="HHN"/><filterID>ITAPER(2)&gt;&gt;BW(3,3,20)</filterID><methodID>L2-AIC-GRID</methodID><horizontalSlowness><value>21.927322616352875</value></horizontalSlowness><backazimuth><value>172.83151300193089</value></backazimuth><phaseHint>S</phaseHint><evaluationMode>automatic</evaluationMode><comment><text>359430.5370226887</text><id>DFX:rectilinearity</id></comment><comment><text>de.gempa.tb1.Pick/20250412183228.618337.125938</text><id>RefPickID</id></comment><comment><text>6.501159242963633</text><id>SNR</id></comment></pick><pick publicID="de.gempa.tb1.Pick/20250412183304.284319.125974"><time><value>2025-04-12T18:32:56.988393Z</value></time><waveformID networkCode="CX" stationCode="PB16" channelCode="HHZ"/><filterID>ITAPER(4)&gt;&gt;BW(4,4,20)</filterID><methodID>AIC</methodID><horizontalSlowness><value>8.634368682530486</value></horizontalSlowness><backazimuth><value>184.31727287845322</value></backazimuth><phaseHint>P</phaseHint><evaluationMode>automatic</evaluationMode><comment><text>7.176065098027873</text><id>DFX:rectilinearity</id></comment><comment><text>25.90582353806242</text><id>SNR</id></comment></pick><pick publicID="de.gempa.tb1.Pick/20250412183250.655114.125960"><time><value>2025-04-12T18:32:43.508393Z</value></time><waveformID networkCode="CX" stationCode="PB06" channelCode="HHN"/><filterID>ITAPER(2)&gt;&gt;BW(3,3,20)</filterID><methodID>L2-AIC-GRID</methodID><horizontalSlowness><value>23.397151577484433</value></horizontalSlowness><backazimuth><value>154.15601956539894</value></backazimuth><phaseHint>S</phaseHint><evaluationMode>automatic</evaluationMode><comment><text>952739.3181732047</text><id>DFX:rectilinearity</id></comment><comment><text>de.gempa.tb1.Pick/20250412183229.611589.125940</text><id>RefPickID</id></comment><comment><text>12.675509038695019</text><id>SNR</id></comment></pick><pick publicID="de.gempa.tb1.Pick/20250412183250.776823.125961"><time><value>2025-04-12T18:32:43.888393Z</value></time><waveformID networkCode="CX" stationCode="PB01" channelCode="HHN"/><filterID>ITAPER(2)&gt;&gt;BW(3,3,20)</filterID><methodID>L2-AIC-GRID</methodID><horizontalSlowness><value>21.390456973578882</value></horizontalSlowness><backazimuth><value>40.998513280391336</value></backazimuth><phaseHint>S</phaseHint><evaluationMode>automatic</evaluationMode><comment><text>1213779.0319052176</text><id>DFX:rectilinearity</id></comment><comment><text>de.gempa.tb1.Pick/20250412183230.568837.125942</text><id>RefPickID</id></comment><comment><text>9.937982723150254</text><id>SNR</id></comment></pick><pick publicID="de.gempa.tb1.Pick/20250412183253.570984.125963"><time><value>2025-04-12T18:32:46.848394Z</value></time><waveformID networkCode="CX" stationCode="PB02" channelCode="HHN"/><filterID>ITAPER(2)&gt;&gt;BW(3,3,20)</filterID><methodID>L2-AIC-GRID</methodID><horizontalSlowness><value>6.482392635058895</value></horizontalSlowness><backazimuth><value>303.40789435301417</value></backazimuth><phaseHint>S</phaseHint><evaluationMode>automatic</evaluationMode><comment><text>3047758.3614830007</text><id>DFX:rectilinearity</id></comment><comment><text>de.gempa.tb1.Pick/20250412183231.57904.125944</text><id>RefPickID</id></comment><comment><text>5.63036926856462</text><id>SNR</id></comment></pick><pick publicID="de.gempa.tb1.Pick/20250412183256.853048.125967"><time><value>2025-04-12T18:32:49.988393Z</value></time><waveformID networkCode="CX" stationCode="PB15" channelCode="HHN"/><filterID>ITAPER(2)&gt;&gt;BW(3,3,20)</filterID><methodID>L2-AIC-GRID</methodID><horizontalSlowness><value>21.552386943604674</value></horizontalSlowness><backazimuth><value>142.87946470453898</value></backazimuth><phaseHint>S</phaseHint><evaluationMode>automatic</evaluationMode><comment><text>13407325.894214828</text><id>DFX:rectilinearity</id></comment><comment><text>de.gempa.tb1.Pick/20250412183234.67312.125946</text><id>RefPickID</id></comment><comment><text>13.249911991595907</text><id>SNR</id></comment></pick><pick publicID="de.gempa.tb1.Pick/20250412183303.453079.125973"><time><value>2025-04-12T18:32:56.529999Z</value></time><waveformID networkCode="CX" stationCode="PATCX" channelCode="HHN"/><filterID>ITAPER(2)&gt;&gt;BW(3,3,20)</filterID><methodID>L2-AIC-GRID</methodID><horizontalSlowness><value>22.76167096953797</value></horizontalSlowness><backazimuth><value>42.4481286999426</value></backazimuth><phaseHint>S</phaseHint><evaluationMode>automatic</evaluationMode><comment><text>1404455.8637746484</text><id>DFX:rectilinearity</id></comment><comment><text>de.gempa.tb1.Pick/20250412183237.276291.125948</text><id>RefPickID</id></comment><comment><text>9.827160488892645</text><id>SNR</id></comment></pick><pick publicID="de.gempa.tb1.Pick/20250412183259.208357.125970"><time><value>2025-04-12T18:32:24.998393Z</value></time><waveformID networkCode="CX" stationCode="PB07" channelCode="HHZ"/><filterID>ITAPER(4)&gt;&gt;BW(4,4,20)</filterID><methodID>AIC</methodID><horizontalSlowness><value>20.795691488954368</value></horizontalSlowness><backazimuth><value>174.9275837658169</value></backazimuth><phaseHint>P</phaseHint><evaluationMode>automatic</evaluationMode><comment><text>988429.1155132388</text><id>DFX:rectilinearity</id></comment><comment><text>7777.854536342463</text><id>SNR</id></comment></pick><pick publicID="de.gempa.tb1.Pick/20250412183305.814065.125978"><time><value>2025-04-12T18:32:58.578393Z</value></time><waveformID networkCode="CX" stationCode="PB08" channelCode="HHN"/><filterID>ITAPER(2)&gt;&gt;BW(3,3,20)</filterID><methodID>L2-AIC-GRID</methodID><horizontalSlowness><value>15.685220945845252</value></horizontalSlowness><backazimuth><value>206.36641212733147</value></backazimuth><phaseHint>S</phaseHint><evaluationMode>automatic</evaluationMode><comment><text>76742.0949818814</text><id>DFX:rectilinearity</id></comment><comment><text>de.gempa.tb1.Pick/20250412183239.174483.125950</text><id>RefPickID</id></comment><comment><text>7.989480292427554</text><id>SNR</id></comment></pick><pick publicID="de.gempa.tb1.Pick/20250412183322.196119.125984"><time><value>2025-04-12T18:33:06.48Z</value></time><waveformID networkCode="CX" stationCode="PB10" channelCode="HHN"/><filterID>ITAPER(2)&gt;&gt;BW(3,3,20)</filterID><methodID>L2-AIC-GRID</methodID><horizontalSlowness><value>18.607290436650718</value></horizontalSlowness><backazimuth><value>74.75162860749661</value></backazimuth><phaseHint>S</phaseHint><evaluationMode>automatic</evaluationMode><comment><text>5856.736622903608</text><id>DFX:rectilinearity</id></comment><comment><text>de.gempa.tb1.Pick/20250412183244.178884.125954</text><id>RefPickID</id></comment><comment><text>5.212596814440639</text><id>SNR</id></comment></pick><pick publicID="de.gempa.tb1.Pick/20250412183308.846427.125980"><time><value>2025-04-12T18:33:02.03Z</value></time><waveformID networkCode="CX" stationCode="PB19" channelCode="HHN"/><filterID>ITAPER(2)&gt;&gt;BW(3,3,20)</filterID><methodID>L2-AIC-GRID</methodID><horizontalSlowness><value>20.84269462143127</value></horizontalSlowness><backazimuth><value>294.9214651287096</value></backazimuth><phaseHint>S</phaseHint><evaluationMode>automatic</evaluationMode><comment><text>95643.73150740705</text><id>DFX:rectilinearity</id></comment><comment><text>de.gempa.tb1.Pick/20250412183239.579536.125952</text><id>RefPickID</id></comment><comment><text>9.23185278771156</text><id>SNR</id></comment></pick><origin publicID="de.gempa.tb1.Origin/20250412183322.203917.89865"><time><value>2025-04-12T18:32:00.383617Z</value><uncertainty>0.5857483148574829</uncertainty></time><latitude><value>-21.954046249389648</value><uncertainty>2.0483360290527344</uncertainty></latitude><longitude><value>-68.75884246826172</value><uncertainty>7.057068347930908</uncertainty></longitude><depth><value>138.92855834960938</value><uncertainty>7.054535388946533</uncertainty></depth><depthType>from location</depthType><methodID>LOCSAT</methodID><earthModelID>iasp91_scanloc</earthModelID><quality><associatedPhaseCount>22</associatedPhaseCount><usedPhaseCount>22</usedPhaseCount><associatedStationCount>13</associatedStationCount><usedStationCount>13</usedStationCount><depthPhaseCount>0</depthPhaseCount><standardError>0.6027803406824449</standardError><azimuthalGap>205.2566680908203</azimuthalGap><maximumDistance>3.6684982776641846</maximumDistance><minimumDistance>0.475352019071579</minimumDistance><medianDistance>1.4112005233764648</medianDistance></quality><uncertainty><minHorizontalUncertainty>4.38764762878418</minHorizontalUncertainty><maxHorizontalUncertainty>15.129332542419434</maxHorizontalUncertainty><azimuthMaxHorizontalUncertainty>90.68383026123047</azimuthMaxHorizontalUncertainty><preferredDescription>horizontal uncertainty</preferredDescription></uncertainty><evaluationMode>automatic</evaluationMode><evaluationStatus>confirmed</evaluationStatus><comment><text>0.00</text><id>mismatchScore</id></comment><comment><text>mismatchScore</text><id>scevalMethod</id></comment><arrival><pickID>de.gempa.tb1.Pick/20250412183237.276291.125948</pickID><phase>P</phase><azimuth>310.70477294921875</azimuth><distance>1.720356822013855</distance><timeResidual>0.2308311462402344</timeResidual><timeUsed>true</timeUsed><horizontalSlownessUsed>false</horizontalSlownessUsed><backazimuthUsed>false</backazimuthUsed><weight>1</weight></arrival><arrival><pickID>de.gempa.tb1.Pick/20250412183230.568837.125942</pickID><phase>P</phase><azimuth>323.0486755371094</azimuth><distance>1.132152795791626</distance><timeResidual>-0.7350597381591797</timeResidual><timeUsed>true</timeUsed><horizontalSlownessUsed>false</horizontalSlownessUsed><backazimuthUsed>false</backazimuthUsed><weight>1</weight></arrival><arrival><pickID>de.gempa.tb1.Pick/20250412183231.57904.125944</pickID><phase>P</phase><azimuth>300.6109313964844</azimuth><distance>1.23199462890625</distance><timeResidual>-0.0208740234375</timeResidual><timeUsed>true</timeUsed><horizontalSlownessUsed>false</horizontalSlownessUsed><backazimuthUsed>false</backazimuthUsed><weight>1</weight></arrival><arrival><pickID>de.gempa.tb1.Pick/20250412183228.618337.125938</pickID><phase>P</phase><azimuth>264.0001525878906</azimuth><distance>0.9274840950965881</distance><timeResidual>-0.1507129669189453</timeResidual><timeUsed>true</timeUsed><horizontalSlownessUsed>false</horizontalSlownessUsed><backazimuthUsed>false</backazimuthUsed><weight>1</weight></arrival><arrival><pickID>de.gempa.tb1.Pick/20250412183229.611589.125940</pickID><phase>P</phase><azimuth>225.02383422851562</azimuth><distance>1.0613324642181396</distance><timeResidual>-0.04738616943359375</timeResidual><timeUsed>true</timeUsed><horizontalSlownessUsed>false</horizontalSlownessUsed><backazimuthUsed>false</backazimuthUsed><weight>1</weight></arrival><arrival><pickID>de.gempa.tb1.Pick/20250412183239.174483.125950</pickID><phase>P</phase><azimuth>348.3820495605469</azimuth><distance>1.8411540985107422</distance><timeResidual>0.42961883544921875</timeResidual><timeUsed>true</timeUsed><horizontalSlownessUsed>false</horizontalSlownessUsed><backazimuthUsed>false</backazimuthUsed><weight>1</weight></arrival><arrival><pickID>de.gempa.tb1.Pick/20250412183225.379397.125936</pickID><phase>P</phase><azimuth>289.18377685546875</azimuth><distance>0.475352019071579</distance><timeResidual>-0.7481632232666016</timeResidual><timeUsed>true</timeUsed><horizontalSlownessUsed>false</horizontalSlownessUsed><backazimuthUsed>false</backazimuthUsed><weight>1</weight></arrival><arrival><pickID>de.gempa.tb1.Pick/20250412183244.178884.125954</pickID><phase>P</phase><azimuth>226.53880310058594</azimuth><distance>2.2705860137939453</distance><timeResidual>0.6940937042236328</timeResidual><timeUsed>true</timeUsed><horizontalSlownessUsed>false</horizontalSlownessUsed><backazimuthUsed>false</backazimuthUsed><weight>1</weight></arrival><arrival><pickID>de.gempa.tb1.Pick/20250412183234.67312.125946</pickID><phase>P</phase><azimuth>207.6630859375</azimuth><distance>1.4112005233764648</distance><timeResidual>0.001461029052734375</timeResidual><timeUsed>true</timeUsed><horizontalSlownessUsed>false</horizontalSlownessUsed><backazimuthUsed>false</backazimuthUsed><weight>1</weight></arrival><arrival><pickID>de.gempa.tb1.Pick/20250412183239.579536.125952</pickID><phase>P</phase><azimuth>194.06944274902344</azimuth><distance>2.002544641494751</distance><timeResidual>0.14095306396484375</timeResidual><timeUsed>true</timeUsed><horizontalSlownessUsed>false</horizontalSlownessUsed><backazimuthUsed>false</backazimuthUsed><weight>1</weight></arrival><arrival><pickID>de.gempa.tb1.Pick/20250412183247.526854.125957</pickID><phase>P</phase><azimuth>331.1940002441406</azimuth><distance>2.669926166534424</distance><timeResidual>-1.412395477294922</timeResidual><timeUsed>true</timeUsed><horizontalSlownessUsed>false</horizontalSlownessUsed><backazimuthUsed>false</backazimuthUsed><weight>1</weight></arrival><arrival><pickID>de.gempa.tb1.Pick/20250412183248.611541.125959</pickID><phase>S</phase><azimuth>264.0001525878906</azimuth><distance>0.9274840950965881</distance><timeResidual>0.7240447998046875</timeResidual><ti