<?xml version="1.0" encoding="UTF-8"?>
<seiscomp xmlns="http://geofon.gfz-potsdam.de/ns/seiscomp3-schema/0.13" version="0.13"><EventParameters><pick publicID="de.gempa.tb1.Pick/20250414130822.653958.138201"><time><value>2025-04-14T13:08:17.488393Z</value></time><waveformID networkCode="CX" stationCode="PB02" channelCode="HHZ"/><filterID>ITAPER(4)&gt;&gt;BW(4,4,20)</filterID><methodID>AIC</methodID><horizontalSlowness><value>7.313391106631048</value></horizontalSlowness><backazimuth><value>263.8810587307147</value></backazimuth><phaseHint>P</phaseHint><evaluationMode>automatic</evaluationMode><comment><text>24.416229444961196</text><id>DFX:rectilinearity</id></comment><comment><text>29.675312084582796</text><id>SNR</id></comment></pick><pick publicID="de.gempa.tb1.Pick/20250414130826.581064.138203"><time><value>2025-04-14T13:08:20.528393Z</value></time><waveformID networkCode="CX" stationCode="PB01" channelCode="HHZ"/><filterID>ITAPER(4)&gt;&gt;BW(4,4,20)</filterID><methodID>AIC</methodID><horizontalSlowness><value>22.52602536609195</value></horizontalSlowness><backazimuth><value>214.3466196350376</value></backazimuth><phaseHint>P</phaseHint><evaluationMode>automatic</evaluationMode><comment><text>9.872372398914976</text><id>DFX:rectilinearity</id></comment><comment><text>7.378315409023825</text><id>SNR</id></comment></pick><pick publicID="de.gempa.tb1.Pick/20250414130827.698803.138205"><time><value>2025-04-14T13:08:19.708396Z</value></time><waveformID networkCode="CX" stationCode="PB07" channelCode="HHZ"/><filterID>ITAPER(4)&gt;&gt;BW(4,4,20)</filterID><methodID>AIC</methodID><horizontalSlowness><value>22.074010989935555</value></horizontalSlowness><backazimuth><value>292.92266715122366</value></backazimuth><phaseHint>P</phaseHint><evaluationMode>automatic</evaluationMode><comment><text>171.3102154414229</text><id>DFX:rectilinearity</id></comment><comment><text>9.15502023536536</text><id>SNR</id></comment></pick><pick publicID="de.gempa.tb1.Pick/20250414130828.558186.138207"><time><value>2025-04-14T13:08:23.838393Z</value></time><waveformID networkCode="CX" stationCode="PB03" channelCode="HHZ"/><filterID>ITAPER(4)&gt;&gt;BW(4,4,20)</filterID><methodID>AIC</methodID><horizontalSlowness><value>12.66584566878379</value></horizontalSlowness><backazimuth><value>1.803685084986796</value></backazimuth><phaseHint>P</phaseHint><evaluationMode>automatic</evaluationMode><comment><text>2.94692300746395</text><id>DFX:rectilinearity</id></comment><comment><text>7.720436542954164</text><id>SNR</id></comment></pick><pick publicID="de.gempa.tb1.Pick/20250414130830.636901.138209"><time><value>2025-04-14T13:08:22.688393Z</value></time><waveformID networkCode="CX" stationCode="PB02" channelCode="HHN"/><filterID>ITAPER(2)&gt;&gt;BW(3,3,20)</filterID><methodID>L2-AIC-GRID</methodID><horizontalSlowness><value>22.135625086620372</value></horizontalSlowness><backazimuth><value>78.66498069895216</value></backazimuth><phaseHint>S</phaseHint><evaluationMode>automatic</evaluationMode><comment><text>80.28272861988177</text><id>DFX:rectilinearity</id></comment><comment><text>de.gempa.tb1.Pick/20250414130822.653958.138201</text><id>RefPickID</id></comment><comment><text>12.611319408131695</text><id>SNR</id></comment></pick><pick publicID="de.gempa.tb1.Pick/20250414130833.792453.138210"><time><value>2025-04-14T13:08:28.038393Z</value></time><waveformID networkCode="CX" stationCode="PB01" channelCode="HHN"/><filterID>ITAPER(2)&gt;&gt;BW(3,3,20)</filterID><methodID>L2-AIC-GRID</methodID><horizontalSlowness><value>18.0799773807358</value></horizontalSlowness><backazimuth><value>357.65338063270485</value></backazimuth><phaseHint>S</phaseHint><evaluationMode>automatic</evaluationMode><comment><text>53.95281054400692</text><id>DFX:rectilinearity</id></comment><comment><text>de.gempa.tb1.Pick/20250414130826.581064.138203</text><id>RefPickID</id></comment><comment><text>29.23264586371951</text><id>SNR</id></comment></pick><pick publicID="de.gempa.tb1.Pick/20250414130834.753145.138211"><time><value>2025-04-14T13:08:26.608396Z</value></time><waveformID networkCode="CX" stationCode="PB07" channelCode="HHN"/><filterID>ITAPER(2)&gt;&gt;BW(3,3,20)</filterID><methodID>L2-AIC-GRID</methodID><horizontalSlowness><value>20.619725817732775</value></horizontalSlowness><backazimuth><value>76.56259244227003</value></backazimuth><phaseHint>S</phaseHint><evaluationMode>automatic</evaluationMode><comment><text>240.89073729579</text><id>DFX:rectilinearity</id></comment><comment><text>de.gempa.tb1.Pick/20250414130827.698803.138205</text><id>RefPickID</id></comment><comment><text>12.01262134563413</text><id>SNR</id></comment></pick><pick publicID="de.gempa.tb1.Pick/20250414130838.16581.138212"><time><value>2025-04-14T13:08:24.34Z</value></time><waveformID networkCode="CX" stationCode="PB09" channelCode="HHZ"/><filterID>ITAPER(4)&gt;&gt;BW(4,4,20)</filterID><methodID>AIC</methodID><horizontalSlowness><value>6.790659209458589</value></horizontalSlowness><backazimuth><value>322.7141520186143</value></backazimuth><phaseHint>P</phaseHint><evaluationMode>automatic</evaluationMode><comment><text>8.948868902962696</text><id>DFX:rectilinearity</id></comment><comment><text>9.251618765411566</text><id>SNR</id></comment></pick><pick publicID="de.gempa.tb1.Pick/20250414130839.572034.138214"><time><value>2025-04-14T13:08:33.418393Z</value></time><waveformID networkCode="CX" stationCode="PB03" channelCode="HHN"/><filterID>ITAPER(2)&gt;&gt;BW(3,3,20)</filterID><methodID>L2-AIC-GRID</methodID><horizontalSlowness><value>15.909014353155413</value></horizontalSlowness><backazimuth><value>193.14664902171134</value></backazimuth><phaseHint>S</phaseHint><evaluationMode>automatic</evaluationMode><comment><text>9.324747143114378</text><id>DFX:rectilinearity</id></comment><comment><text>de.gempa.tb1.Pick/20250414130828.558186.138207</text><id>RefPickID</id></comment><comment><text>15.167428720346347</text><id>SNR</id></comment></pick><pick publicID="de.gempa.tb1.Pick/20250414130855.883331.138217"><time><value>2025-04-14T13:08:34.78Z</value></time><waveformID networkCode="CX" stationCode="PB09" channelCode="HHN"/><filterID>ITAPER(2)&gt;&gt;BW(3,3,20)</filterID><methodID>L2-AIC-GRID</methodID><horizontalSlowness><value>22.547108247889767</value></horizontalSlowness><backazimuth><value>110.04842236015935</value></backazimuth><phaseHint>S</phaseHint><evaluationMode>automatic</evaluationMode><comment><text>10.897529472730058</text><id>DFX:rectilinearity</id></comment><comment><text>de.gempa.tb1.Pick/20250414130838.16581.138212</text><id>RefPickID</id></comment><comment><text>8.16625551096441</text><id>SNR</id></comment></pick><origin publicID="de.gempa.tb1.Origin/20250414130855.886292.139398"><time><value>2025-04-14T13:08:10.18481Z</value><uncertainty>1.0263389348983765</uncertainty></time><latitude><value>-21.351680755615234</value><uncertainty>3.545194149017334</uncertainty></latitude><longitude><value>-69.85086059570312</value><uncertainty>5.930647373199463</uncertainty></longitude><depth><value>45.11148834228516</value><uncertainty>7.398138046264648</uncertainty></depth><depthType>from location</depthType><methodID>LOCSAT</methodID><earthModelID>iasp91_scanloc</earthModelID><quality><associatedPhaseCount>10</associatedPhaseCount><usedPhaseCount>10</usedPhaseCount><associatedStationCount>5</associatedStationCount><usedStationCount>5</usedStationCount><depthPhaseCount>0</depthPhaseCount><standardError>0.284700016884907</standardError><azimuthalGap>122.0162811279297</azimuthalGap><maximumDistance>0.7190781235694885</maximumDistance><minimumDistance>0.05276183411478996</minimumDistance><medianDistance>0.4574224948883057</medianDistance></quality><uncertainty><minHorizontalUncertainty>6.394099712371826</minHorizontalUncertainty><maxHorizontalUncertainty>13.364706993103027</maxHorizontalUncertainty><azimuthMaxHorizontalUncertainty>110.50602722167969</azimuthMaxHorizontalUncertainty><preferredDescription>horizontal uncertainty</preferredDescription></uncertainty><evaluationMode>automatic</evaluationMode><evaluationStatus>confirmed</evaluationStatus><comment><text>0.05</text><id>mismatchScore</id></comment><comment><text>mismatchScore</text><id>scevalMethod</id></comment><arrival><pickID>de.gempa.tb1.Pick/20250414130822.653958.138201</pickID><phase>P</phase><azimuth>307.04541015625</azimuth><distance>0.05276183411478996</distance><timeResidual>0.22251319885253906</timeResidual><timeUsed>true</timeUsed><horizontalSlownessUsed>false</horizontalSlownessUsed><backazimuthUsed>false</backazimuthUsed><weight>1</weight></arrival><arrival><pickID>de.gempa.tb1.Pick/20250414130826.581064.138203</pickID><phase>P</phase><azimuth>47.92278289794922</azimuth><distance>0.4574224948883057</distance><timeResidual>-0.1128101348876953</timeResidual><timeUsed>true</timeUsed><horizontalSlownessUsed>false</horizontalSlownessUsed><backazimuthUsed>false</backazimuthUsed><weight>1</weight></arrival><arrival><pickID>de.gempa.tb1.Pick/20250414130827.698803.138205</pickID><phase>P</phase><azimuth>185.0291290283203</azimuth><distance>0.37459513545036316</distance><timeResidual>0.03509044647216797</timeResidual><timeUsed>true</timeUsed><horizontalSlownessUsed>false</horizontalSlownessUsed><backazimuthUsed>false</backazimuthUsed><weight>1</weight></arrival><arrival><pickID>de.gempa.tb1.Pick/20250414130828.558186.138207</pickID><phase>P</phase><azimuth>172.54786682128906</azimuth><distance>0.6993242502212524</distance><timeResidual>0.09436511993408203</timeResidual><timeUsed>true</timeUsed><horizontalSlownessUsed>false</horizontalSlownessUsed><backazimuthUsed>false</backazimuthUsed><weight>1</weight></arrival><arrival><pickID>de.gempa.tb1.Pick/20250414130830.636901.138209</pickID><phase>S</phase><azimuth>307.04541015625</azimuth><distance>0.05276183411478996</distance><timeResidual>0.17325973510742188</timeResidual><timeUsed>true</timeUsed><horizontalSlownessUsed>false</horizontalSlownessUsed><backazimuthUsed>false</backazimuthUsed><weight>1</weight></arrival><arrival><pickID>de.gempa.tb1.Pick/20250414130833.792453.138210</pickID><phase>S</phase><azimuth>47.92278289794922</azimuth><distance>0.4574224948883057</distance><timeResidual>-0.4059610366821289</timeResidual><timeUsed>true</timeUsed><horizontalSlownessUsed>false</horizontalSlownessUsed><backazimuthUsed>false</backazimuthUsed><weight>1</weight></arrival><arrival><pickID>de.gempa.tb1.Pick/20250414130834.753145.138211</pickID><phase>S</phase><azimuth>185.0291290283203</azimuth><distance>0.37459513545036316</distance><timeResidual>-0.1241321563720703</timeResidual><timeUsed>true</timeUsed><horizontalSlownessUsed>false</horizontalSlownessUsed><backazimuthUsed>false</backazimuthUsed><weight>1</weight></arrival><arrival><pickID>de.gempa.tb1.Pick/20250414130838.16581.138212</pickID><phase>P</phase><azimuth>128.0917510986328</azimuth><distance>0.7190781235694885</distance><timeResidual>0.33170223236083984</timeResidual><timeUsed>true</timeUsed><horizontalSlownessUsed>false</horizontalSlownessUsed><backazimuthUsed>false</backazimuthUsed><weight>1</weight></arrival><arrival><pickID>de.gempa.tb1.Pick/20250414130839.572034.138214</pickID><phase>S</phase><azimuth>172.54786682128906</azimuth><distance>0.6993242502212524</distance><timeResidual>-0.5513744354248047</timeResidual><timeUsed>true</timeUsed><horizontalSlownessUsed>false</horizontalSlownessUsed><backazimuthUsed>false</backazimuthUsed><weight>1</weight></arrival><arrival><pickID>de.gempa.tb1.Pick/20250414130855.883331.138217</pickID><phase>S</phase><azimuth>128.0917510986328</azimuth><distance>0.7190781235694885</distance><timeResidual>0.3374824523925781</timeResidual><timeUsed>true</timeUsed><horizontalSlownessUsed>false</horizontalSlownessUsed><backazimuthUsed>false</backazimuthUsed><weight>1</weight></arrival><magnitude publicID="de.gempa.tb1.Magnitude/20250414130856.652166.492895"><magnitude><value>0.5552599257996802</value></magnitude><type>M</type><methodID>weighted average</methodID><stationCount>5</stationCount></magnitude></origin><event publicID="gempa2025hjgn"><preferredOriginID>de.gempa.tb1.Origin/20250414130855.886292.139398</preferredOriginID><preferredMagnitudeID>de.gempa.tb1.Magnitude/20250414130856.652166.492895</preferredMagnitudeID><description><text>Northern Chile</text><type>region name</type></description><originReference>de.gempa.tb1.Origin/20250414130855.886292.139398</originReference></event></EventParameters></seiscomp>