<?xml version="1.0" encoding="UTF-8"?>
<seiscomp xmlns="http://geofon.gfz-potsdam.de/ns/seiscomp3-schema/0.13" version="0.13"><EventParameters><pick publicID="de.gempa.tb1.Pick/20250415070921.561405.117873"><time><value>2025-04-15T07:09:15.978393Z</value></time><waveformID networkCode="CX" stationCode="PB03" channelCode="HHZ"/><filterID>ITAPER(4)&gt;&gt;BW(4,4,20)</filterID><methodID>AIC</methodID><horizontalSlowness><value>10.098409484642755</value></horizontalSlowness><backazimuth><value>157.0797667667555</value></backazimuth><phaseHint>P</phaseHint><evaluationMode>automatic</evaluationMode><comment><text>10.894815141087662</text><id>DFX:rectilinearity</id></comment><comment><text>13.207779521565568</text><id>SNR</id></comment></pick><pick publicID="de.gempa.tb1.Pick/20250415070928.573115.117875"><time><value>2025-04-15T07:09:19.598393Z</value></time><waveformID networkCode="CX" stationCode="PB01" channelCode="HHZ"/><filterID>ITAPER(4)&gt;&gt;BW(4,4,20)</filterID><methodID>AIC</methodID><horizontalSlowness><value>20.28895475955922</value></horizontalSlowness><backazimuth><value>317.887886348121</value></backazimuth><phaseHint>P</phaseHint><evaluationMode>automatic</evaluationMode><comment><text>4.977088003712024</text><id>DFX:rectilinearity</id></comment><comment><text>8.647772269836606</text><id>SNR</id></comment></pick><pick publicID="de.gempa.tb1.Pick/20250415070930.405854.117877"><time><value>2025-04-15T07:09:18.618396Z</value></time><waveformID networkCode="CX" stationCode="PB07" channelCode="HHZ"/><filterID>ITAPER(4)&gt;&gt;BW(4,4,20)</filterID><methodID>AIC</methodID><horizontalSlowness><value>19.71002697131009</value></horizontalSlowness><backazimuth><value>45.3790751550525</value></backazimuth><phaseHint>P</phaseHint><evaluationMode>automatic</evaluationMode><comment><text>178.79819669393345</text><id>DFX:rectilinearity</id></comment><comment><text>41.068815192486596</text><id>SNR</id></comment></pick><pick publicID="de.gempa.tb1.Pick/20250415070931.167116.117879"><time><value>2025-04-15T07:09:22.33Z</value></time><waveformID networkCode="CX" stationCode="PB10" channelCode="HHZ"/><filterID>ITAPER(4)&gt;&gt;BW(4,4,20)</filterID><methodID>AIC</methodID><horizontalSlowness><value>6.214570171359236</value></horizontalSlowness><backazimuth><value>9.857869310908853</value></backazimuth><phaseHint>P</phaseHint><evaluationMode>automatic</evaluationMode><comment><text>119.05210567615293</text><id>DFX:rectilinearity</id></comment><comment><text>6.6612925011694</text><id>SNR</id></comment></pick><pick publicID="de.gempa.tb1.Pick/20250415070932.770861.117881"><time><value>2025-04-15T07:09:13.82Z</value></time><waveformID networkCode="CX" stationCode="PB09" channelCode="HHZ"/><filterID>ITAPER(4)&gt;&gt;BW(4,4,20)</filterID><methodID>AIC</methodID><horizontalSlowness><value>10.249370898127017</value></horizontalSlowness><backazimuth><value>293.89226364974576</value></backazimuth><phaseHint>P</phaseHint><evaluationMode>automatic</evaluationMode><comment><text>20.708364065442506</text><id>DFX:rectilinearity</id></comment><comment><text>19.580809753118348</text><id>SNR</id></comment></pick><pick publicID="de.gempa.tb1.Pick/20250415071000.789403.117889"><time><value>2025-04-15T07:09:52.938393Z</value></time><waveformID networkCode="CX" stationCode="PB03" channelCode="HHN"/><filterID>ITAPER(2)&gt;&gt;BW(3,3,20)</filterID><methodID>L2-AIC-GRID</methodID><horizontalSlowness><value>8.453055482558472</value></horizontalSlowness><backazimuth><value>90.94975250037585</value></backazimuth><phaseHint>S</phaseHint><evaluationMode>automatic</evaluationMode><comment><text>10.17833488252951</text><id>DFX:rectilinearity</id></comment><comment><text>de.gempa.tb1.Pick/20250415070921.561405.117873</text><id>RefPickID</id></comment><comment><text>10.917800960576262</text><id>SNR</id></comment></pick><pick publicID="de.gempa.tb1.Pick/20250415071007.757752.117892"><time><value>2025-04-15T07:09:58.198393Z</value></time><waveformID networkCode="CX" stationCode="PB01" channelCode="HHN"/><filterID>ITAPER(2)&gt;&gt;BW(3,3,20)</filterID><methodID>L2-AIC-GRID</methodID><horizontalSlowness><value>16.888127998717433</value></horizontalSlowness><backazimuth><value>258.52516391528155</value></backazimuth><phaseHint>S</phaseHint><evaluationMode>automatic</evaluationMode><comment><text>11.083466716861702</text><id>DFX:rectilinearity</id></comment><comment><text>de.gempa.tb1.Pick/20250415070928.573115.117875</text><id>RefPickID</id></comment><comment><text>9.007012550118187</text><id>SNR</id></comment></pick><pick publicID="de.gempa.tb1.Pick/20250415071013.043007.117900"><time><value>2025-04-15T07:09:52.838396Z</value></time><waveformID networkCode="CX" stationCode="PB07" channelCode="HHN"/><filterID>ITAPER(2)&gt;&gt;BW(3,3,20)</filterID><methodID>L2-AIC-GRID</methodID><horizontalSlowness><value>20.66928570794249</value></horizontalSlowness><backazimuth><value>316.50797299670973</value></backazimuth><phaseHint>S</phaseHint><evaluationMode>automatic</evaluationMode><comment><text>252.90744544612997</text><id>DFX:rectilinearity</id></comment><comment><text>de.gempa.tb1.Pick/20250415070930.405854.117877</text><id>RefPickID</id></comment><comment><text>8.382799509846953</text><id>SNR</id></comment></pick><origin publicID="de.gempa.tb1.Origin/20250415071013.054624.56795"><time><value>2025-04-15T07:08:32.207501Z</value><uncertainty>1.2121433019638062</uncertainty></time><latitude><value>-22.61098098754883</value><uncertainty>19.393783569335938</uncertainty></latitude><longitude><value>-68.33978271484375</value><uncertainty>41.86689758300781</uncertainty></longitude><depth><value>313.4456481933594</value><uncertainty>28.24624443054199</uncertainty></depth><depthType>from location</depthType><methodID>LOCSAT</methodID><earthModelID>iasp91_scanloc</earthModelID><quality><associatedPhaseCount>8</associatedPhaseCount><usedPhaseCount>8</usedPhaseCount><associatedStationCount>5</associatedStationCount><usedStationCount>5</usedStationCount><depthPhaseCount>0</depthPhaseCount><standardError>0.9605559727054479</standardError><azimuthalGap>280.36659240722656</azimuthalGap><maximumDistance>2.2284209728240967</maximumDistance><minimumDistance>1.1645444631576538</minimumDistance><medianDistance>1.6820189952850342</medianDistance></quality><uncertainty><minHorizontalUncertainty>24.8277645111084</minHorizontalUncertainty><maxHorizontalUncertainty>95.81401824951172</maxHorizontalUncertainty><azimuthMaxHorizontalUncertainty>111.14470672607422</azimuthMaxHorizontalUncertainty><preferredDescription>horizontal uncertainty</preferredDescription></uncertainty><evaluationMode>automatic</evaluationMode><evaluationStatus>confirmed</evaluationStatus><comment><text>0.46</text><id>mismatchScore</id></comment><comment><text>mismatchScore</text><id>scevalMethod</id></comment><arrival><pickID>de.gempa.tb1.Pick/20250415070921.561405.117873</pickID><phase>P</phase><azimuth>292.8934020996094</azimuth><distance>1.4233030080795288</distance><timeResidual>-0.28144073486328125</timeResidual><timeUsed>true</timeUsed><horizontalSlownessUsed>false</horizontalSlownessUsed><backazimuthUsed>false</backazimuthUsed><weight>1</weight></arrival><arrival><pickID>de.gempa.tb1.Pick/20250415070928.573115.117875</pickID><phase>P</phase><azimuth>325.4342041015625</azimuth><distance>1.8896982669830322</distance><timeResidual>0.19116973876953125</timeResidual><timeUsed>true</timeUsed><horizontalSlownessUsed>false</horizontalSlownessUsed><backazimuthUsed>false</backazimuthUsed><weight>1</weight></arrival><arrival><pickID>de.gempa.tb1.Pick/20250415070930.405854.117877</pickID><phase>P</phase><azimuth>301.2560119628906</azimuth><distance>1.6820189952850342</distance><timeResidual>0.6963462829589844</timeResidual><timeUsed>true</timeUsed><horizontalSlownessUsed>false</horizontalSlownessUsed><backazimuthUsed>false</backazimuthUsed><weight>1</weight></arrival><arrival><pickID>de.gempa.tb1.Pick/20250415070931.167116.117879</pickID><phase>P</phase><azimuth>245.80079650878906</azimuth><distance>2.2284209728240967</distance><timeResidual>0.3010978698730469</timeResidual><timeUsed>true</timeUsed><horizontalSlownessUsed>false</horizontalSlownessUsed><backazimuthUsed>false</backazimuthUsed><weight>1</weight></arrival><arrival><pickID>de.gempa.tb1.Pick/20250415070932.770861.117881</pickID><phase>P</phase><azimuth>313.94793701171875</azimuth><distance>1.1645444631576538</distance><timeResidual>-1.0081710815429688</timeResidual><timeUsed>true</timeUsed><horizontalSlownessUsed>false</horizontalSlownessUsed><backazimuthUsed>false</backazimuthUsed><weight>1</weight></arrival><arrival><pickID>de.gempa.tb1.Pick/20250415071000.789403.117889</pickID><phase>S</phase><azimuth>292.8934020996094</azimuth><distance>1.4233030080795288</distance><timeResidual>1.218395233154297</timeResidual><timeUsed>true</timeUsed><horizontalSlownessUsed>false</horizontalSlownessUsed><backazimuthUsed>false</backazimuthUsed><weight>1</weight></arrival><arrival><pickID>de.gempa.tb1.Pick/20250415071007.757752.117892</pickID><phase>S</phase><azimuth>325.4342041015625</azimuth><distance>1.8896982669830322</distance><timeResidual>0.7764511108398438</timeResidual><timeUsed>true</timeUsed><horizontalSlownessUsed>false</horizontalSlownessUsed><backazimuthUsed>false</backazimuthUsed><weight>1</weight></arrival><arrival><pickID>de.gempa.tb1.Pick/20250415071013.043007.117900</pickID><phase>S</phase><azimuth>301.2560119628906</azimuth><distance>1.6820189952850342</distance><timeResidual>-1.8937416076660156</timeResidual><timeUsed>true</timeUsed><horizontalSlownessUsed>false</horizontalSlownessUsed><backazimuthUsed>false</backazimuthUsed><weight>1</weight></arrival><magnitude publicID="de.gempa.tb1.Magnitude/20250415071029.540697.101190"><magnitude><value>2.734203209556956</value></magnitude><type>M</type><methodID>weighted average</methodID><stationCount>4</stationCount></magnitude></origin><event publicID="gempa2025hkqo"><preferredOriginID>de.gempa.tb1.Origin/20250415071013.054624.56795</preferredOriginID><preferredMagnitudeID>de.gempa.tb1.Magnitude/20250415071029.540697.101190</preferredMagnitudeID><description><text>Northern Chile</text><type>region name</type></description><originReference>de.gempa.tb1.Origin/20250415071013.054624.56795</originReference></event></EventParameters></seiscomp>