<?xml version="1.0" encoding="UTF-8"?>
<seiscomp xmlns="http://geofon.gfz-potsdam.de/ns/seiscomp3-schema/0.13" version="0.13"><EventParameters><pick publicID="de.gempa.tb1.Pick/20250412034935.159857.119145"><time><value>2025-04-12T03:48:59.444538Z</value></time><waveformID networkCode="GE" stationCode="PMG" locationCode="00" channelCode="BHZ"/><filterID>BW(4,0.7,2)</filterID><methodID>AIC</methodID><horizontalSlowness><value>8.056708370727696</value></horizontalSlowness><backazimuth><value>14.353371972375697</value></backazimuth><phaseHint>P</phaseHint><evaluationMode>automatic</evaluationMode><comment><text>63664.70076817628</text><id>DFX:rectilinearity</id></comment></pick><pick publicID="de.gempa.tb1.Pick/20250412035211.917161.119160"><time><value>2025-04-12T03:51:48.419539Z</value></time><waveformID networkCode="GE" stationCode="FAKI" channelCode="BHZ"/><filterID>BW(4,0.7,2)</filterID><methodID>AIC</methodID><horizontalSlowness><value>7.952601496007702</value></horizontalSlowness><backazimuth><value>108.526282738147</value></backazimuth><phaseHint>P</phaseHint><evaluationMode>automatic</evaluationMode><comment><text>16944.248603497857</text><id>DFX:rectilinearity</id></comment></pick><pick publicID="de.gempa.tb1.Pick/20250412035236.136192.119165"><time><value>2025-04-12T03:52:15.969538Z</value></time><waveformID networkCode="GE" stationCode="BNDI" channelCode="BHZ"/><filterID>BW(4,0.7,2)</filterID><methodID>AIC</methodID><horizontalSlowness><value>8.042740047492826</value></horizontalSlowness><backazimuth><value>135.01310025792446</value></backazimuth><phaseHint>P</phaseHint><evaluationMode>automatic</evaluationMode><comment><text>234267.0439329096</text><id>DFX:rectilinearity</id></comment></pick><pick publicID="de.gempa.tb1.Pick/20250412035259.28985.119168"><time><value>2025-04-12T03:52:40.719539Z</value></time><waveformID networkCode="GE" stationCode="TNTI" channelCode="BHZ"/><filterID>BW(4,0.7,2)</filterID><methodID>AIC</methodID><horizontalSlowness><value>3.866915945969414</value></horizontalSlowness><backazimuth><value>284.7630252152203</value></backazimuth><phaseHint>P</phaseHint><evaluationMode>automatic</evaluationMode><comment><text>10951.775559889036</text><id>DFX:rectilinearity</id></comment></pick><pick publicID="de.gempa.tb1.Pick/20250412035325.322256.119173"><time><value>2025-04-12T03:53:08.07186Z</value></time><waveformID networkCode="GE" stationCode="SOEI" channelCode="BHZ"/><filterID>BW(4,0.7,2)</filterID><methodID>AIC</methodID><horizontalSlowness><value>12.549685750839346</value></horizontalSlowness><backazimuth><value>101.00898475310406</value></backazimuth><phaseHint>P</phaseHint><evaluationMode>automatic</evaluationMode><comment><text>2812.021494343443</text><id>DFX:rectilinearity</id></comment></pick><pick publicID="de.gempa.tb1.Pick/20250412035335.637975.119176"><time><value>2025-04-12T03:53:18.419538Z</value></time><waveformID networkCode="GE" stationCode="LUWI" channelCode="BHZ"/><filterID>BW(4,0.7,2)</filterID><methodID>AIC</methodID><horizontalSlowness><value>2.6502984766787545</value></horizontalSlowness><backazimuth><value>135.52286565152275</value></backazimuth><phaseHint>P</phaseHint><evaluationMode>automatic</evaluationMode><comment><text>14954.01773517964</text><id>DFX:rectilinearity</id></comment></pick><pick publicID="de.gempa.tb1.Pick/20250412035343.207513.119178"><time><value>2025-04-12T03:53:20.519538Z</value></time><waveformID networkCode="GE" stationCode="MMRI" channelCode="BHZ"/><filterID>BW(4,0.7,2)</filterID><methodID>AIC</methodID><horizontalSlowness><value>2.823335754388526</value></horizontalSlowness><backazimuth><value>275.1628135753773</value></backazimuth><phaseHint>P</phaseHint><evaluationMode>automatic</evaluationMode><comment><text>3220.8232481404584</text><id>DFX:rectilinearity</id></comment></pick><pick publicID="de.gempa.tb1.Pick/20250412035429.308813.119183"><time><value>2025-04-12T03:54:12.321859Z</value></time><waveformID networkCode="GE" stationCode="BKB" channelCode="BHZ"/><filterID>BW(4,0.7,2)</filterID><methodID>AIC</methodID><horizontalSlowness><value>14.821245327873475</value></horizontalSlowness><backazimuth><value>76.38491889016245</value></backazimuth><phaseHint>P</phaseHint><evaluationMode>automatic</evaluationMode><comment><text>10132.579218066181</text><id>DFX:rectilinearity</id></comment></pick><pick publicID="de.gempa.tb1.Pick/20250412035451.200948.119185"><time><value>2025-04-12T03:54:26.919538Z</value></time><waveformID networkCode="GE" stationCode="JAGI" channelCode="BHZ"/><filterID>BW(4,0.7,2)</filterID><methodID>AIC</methodID><horizontalSlowness><value>1.1249096071216149</value></horizontalSlowness><backazimuth><value>157.7627322828551</value></backazimuth><phaseHint>P</phaseHint><evaluationMode>automatic</evaluationMode><comment><text>1524.6244708276986</text><id>DFX:rectilinearity</id></comment></pick><pick publicID="de.gempa.tb1.Pick/20250412035452.410226.119187"><time><value>2025-04-12T03:54:40.25Z</value></time><waveformID networkCode="NZ" stationCode="FWVZ" locationCode="10" channelCode="HHZ"/><filterID>BW(4,0.7,2)</filterID><methodID>AIC</methodID><horizontalSlowness><value>2.245751361840913</value></horizontalSlowness><backazimuth><value>277.3458037979123</value></backazimuth><phaseHint>P</phaseHint><evaluationMode>automatic</evaluationMode><comment><text>118.6019356385701</text><id>DFX:rectilinearity</id></comment></pick><pick publicID="de.gempa.tb1.Pick/20250412035452.411831.119189"><time><value>2025-04-12T03:54:40.23Z</value></time><waveformID networkCode="NZ" stationCode="OTVZ" locationCode="10" channelCode="HHZ"/><filterID>BW(4,0.7,2)</filterID><methodID>AIC</methodID><horizontalSlowness><value>9.904429974837317</value></horizontalSlowness><backazimuth><value>225.65057709102106</value></backazimuth><phaseHint>P</phaseHint><evaluationMode>automatic</evaluationMode><comment><text>928.817852391026</text><id>DFX:rectilinearity</id></comment></pick><pick publicID="de.gempa.tb1.Pick/20250412035453.912171.119192"><time><value>2025-04-12T03:54:39.873131Z</value></time><waveformID networkCode="NZ" stationCode="TMVZ" locationCode="10" channelCode="HHZ"/><filterID>BW(4,0.7,2)</filterID><methodID>AIC</methodID><horizontalSlowness><value>4.841513403652451</value></horizontalSlowness><backazimuth><value>186.62412315475015</value></backazimuth><phaseHint>P</phaseHint><evaluationMode>automatic</evaluationMode><comment><text>295.28865611032614</text><id>DFX:rectilinearity</id></comment></pick><pick publicID="de.gempa.tb1.Pick/20250412035454.913164.119194"><time><value>2025-04-12T03:54:40.56Z</value></time><waveformID networkCode="NZ" stationCode="TRVZ" locationCode="10" channelCode="HHZ"/><filterID>BW(4,0.7,2)</filterID><methodID>AIC</methodID><horizontalSlowness><value>12.258025381352446</value></horizontalSlowness><backazimuth><value>308.4548715272201</value></backazimuth><phaseHint>P</phaseHint><evaluationMode>automatic</evaluationMode><comment><text>41.73355538766303</text><id>DFX:rectilinearity</id></comment></pick><pick publicID="de.gempa.tb1.Pick/20250412035526.27982.119201"><time><value>2025-04-12T03:55:00.27186Z</value></time><waveformID networkCode="GE" stationCode="SMRI" channelCode="BHZ"/><filterID>BW(4,0.7,2)</filterID><methodID>AIC</methodID><horizontalSlowness><value>16.803185082458306</value></horizontalSlowness><backazimuth><value>224.42014655746976</value></backazimuth><phaseHint>P</phaseHint><evaluationMode>automatic</evaluationMode><comment><text>6226.890163571212</text><id>DFX:rectilinearity</id></comment></pick><pick publicID="de.gempa.tb1.Pick/20250412035715.298867.119204"><time><value>2025-04-12T03:56:52.519538Z</value></time><waveformID networkCode="GE" stationCode="LHMI" channelCode="BHZ"/><filterID>BW(4,0.7,2)</filterID><methodID>AIC</methodID><horizontalSlowness><value>5.525719169624855</value></horizontalSlowness><backazimuth><value>268.98733288174253</value></backazimuth><phaseHint>P</phaseHint><evaluationMode>automatic</evaluationMode><comment><text>32906.937810986354</text><id>DFX:rectilinearity</id></comment></pick><pick publicID="de.gempa.tb1.Pick/20250412035745.927931.119210"><time><value>2025-04-12T03:52:51.019536Z</value></time><waveformID networkCode="GE" stationCode="SANI" channelCode="BHZ"/><filterID>BW(4,0.7,2)</filterID><methodID>AIC</methodID><horizontalSlowness><value>3.764955084183485</value></horizontalSlowness><backazimuth><value>10.128408542567456</value></backazimuth><phaseHint>P</phaseHint><evaluationMode>automatic</evaluationMode><comment><text>12630.656397820308</text><id>DFX:rectilinearity</id></comment></pick><pick publicID="de.gempa.tb1.Pick/20250412040148.290962.119227"><time><value>2025-04-12T04:01:28.895Z</value></time><waveformID networkCode="FN" stationCode="OUL" channelCode="BHZ"/><filterID>BW(4,0.7,2)</filterID><methodID>AIC</methodID><horizontalSlowness><value>5.827758163800986</value></horizontalSlowness><backazimuth><value>53.00386326120881</value></backazimuth><phaseHint>P</phaseHint><evaluationMode>automatic</evaluationMode><comment><text>1779.4661378166495</text><id>DFX:rectilinearity</id></comment></pick><pick publicID="de.gempa.tb1.Pick/20250412040204.281652.119233"><time><value>2025-04-12T04:01:23.445Z</value></time><waveformID networkCode="FN" stationCode="MSF" channelCode="BHZ"/><filterID>BW(4,0.7,2)</filterID><methodID>AIC</methodID><horizontalSlowness><value>3.661751772161013</value></horizontalSlowness><backazimuth><value>47.71204590317484</value></backazimuth><phaseHint>P</phaseHint><evaluationMode>automatic</evaluationMode><comment><text>279.0677302689122</text><id>DFX:rectilinearity</id></comment></pick><pick publicID="de.gempa.tb1.Pick/20250412040211.408994.119236"><time><value>2025-04-12T04:01:21.775Z</value></time><waveformID networkCode="GE" stationCode="DAG" channelCode="BHZ"/><filterID>BW(4,0.7,2)</filterID><methodID>AIC</methodID><horizontalSlowness><value>5.182277896940231</value></horizontalSlowness><backazimuth><value>25.84552108399973</value></backazimuth><phaseHint>P</phaseHint><evaluationMode>automatic</evaluationMode><comment><text>107.8945655345085</text><id>DFX:rectilinearity</id></comment></pick><pick publicID="de.gempa.tb1.Pick/20250412040608.335719.119267"><time><value>2025-04-12T04:05:44.01Z</value></time><waveformID networkCode="PL" stationCode="OJC" channelCode="HHZ"/><methodID>AIC</methodID><horizontalSlowness><value>23.32365859530374</value><uncertainty>8.492587352871286</uncertainty></horizontalSlowness><backazimuth><value>121.06783670906222</value><uncertainty>20.97948605837981</uncertainty></backazimuth><phaseHint>P</phaseHint><evaluationMode>automatic</evaluationMode><comment><text>0.01335452821348695</text><id>DFX:rectilinearity</id></comment></pick><pick publicID="de.gempa.tb1.Pick/20250412040608.866512.119271"><time><value>2025-04-12T04:05:47.64Z</value></time><waveformID networkCode="PL" stationCode="BEL" channelCode="HHZ"/><methodID>AIC</methodID><horizontalSlowness><value>4.078939657088335</value></horizontalSlowness><backazimuth><value>305.99763723662954</value></backazimuth><phaseHint>P</phaseHint><evaluationMode>automatic</evaluationMode><comment><text>1239.2851864817615</text><id>DFX:rectilinearity</id></comment></pick><pick publicID="de.gempa.tb1.Pick/20250412040609.119624.119273"><time><value>2025-04-12T04:05:58.269Z</value></time><waveformID networkCode="PL" stationCode="NIE" channelCode="HHZ"/><methodID>AIC</methodID><horizontalSlowness><value>5.2448050433422</value></horizontalSlowness><backazimuth><value>200.86360913052096</value></backazimuth><phaseHint>P</phaseHint><evaluationMode>automatic</evaluationMode><comment><text>572.5425472461043</text><id>DFX:rectilinearity</id></comment></pick><pick publicID="de.gempa.tb1.Pick/20250412040609.67112.119275"><time><value>2025-04-12T04:05:46.93Z</value></time><waveformID networkCode="PL" stationCode="GKP" channelCode="HHZ"/><methodID>AIC</methodID><horizontalSlowness><value>8.498187655569238</value></horizontalSlowness><backazimuth><value>292.72951134662856</value></backazimuth><phaseHint>P</phaseHint><evaluationMode>automatic</evaluationMode><comment><text>34.40336347264089</text><id>DFX:rectilinearity</id></comment></pick><pick publicID="de.gempa.tb1.Pick/20250412040613.393941.119281"><time><value>2025-04-12T04:05:51.0000Z</value></time><waveformID networkCode="GE" stationCode="EIL" channelCode="BHZ"/><filterID>BW(4,0.7,2)</filterID><methodID>AIC</methodID><horizontalSlowness><value>3.907228443883737</value></horizontalSlowness><backazimuth><value>311.24147961716733</value></backazimuth><phaseHint>P</phaseHint><evaluationMode>automatic</evaluationMode><comment><text>448.55412970911897</text><id>DFX:rectilinearity</id></comment></pick><pick publicID="de.gempa.tb1.Pick/20250412040613.441131.119283"><time><value>2025-04-12T04:05:59.569Z</value></time><waveformID networkCode="PL" stationCode="KSP" channelCode="HHZ"/><methodID>AIC</methodID><horizontalSlowness><value>2.985861093840519</value></horizontalSlowness><backazimuth><value>39.791911656065736</value></backazimuth><phaseHint>P</phaseHint><evaluationMode>automatic</evaluationMode><comment><text>2232.700888795769</text><id>DFX:rectilinearity</id></comment></pick><pick publicID="de.gempa.tb1.Pick/20250412040614.114905.119285"><time><value>2025-04-12T04:05:57.319538Z</value></time><waveformID networkCode="RO" stationCode="BZS" channelCode="BHZ"/><filterID>BW(4,0.7,2)</filterID><methodID>AIC</methodID><horizontalSlowness><value>2.837353001743294</value></horizontalSlowness><backazimuth><value>64.46732029394951</value></backazimuth><phaseHint>P</phaseHint><evaluationMode>automatic</evaluationMode><comment><text>304.51784304614773</text><id>DFX:rectilinearity</id></comment></pick><pick publicID="de.gempa.tb1.Pick/20250412040616.477902.119288"><time><value>2025-04-12T04:06:02.02Z</value></time><waveformID networkCode="CZ" stationCode="KHC" channelCode="HHZ"/><filterID>BW(4,0.7,2)</filterID><methodID>AIC</methodID><horizontalSlowness><value>4.2385439316659417</value></horizontalSlowness><backazimuth><value>30.060080221757346</value></backazimuth><phaseHint>P</phaseHint><evaluationMode>automatic</evaluationMode><comment><text>442.1191706372684</text><id>DFX:rectilinearity</id></comment></pick><pick publicID="de.gempa.tb1.Pick/20250412040618.489871.119290"><time><value>2025-04-12T04:06:00.228393Z</value></time><waveformID networkCode="CZ" stationCode="PRU" channelCode="HHZ"/><filterID>BW(4,0.7,2)</filterID><methodID>AIC</methodID><horizontalSlowness><value>3.2180069812803196</value></horizontalSlowness><backazimuth><value>110.79419769758157</value></backazimuth><phaseHint>P</phaseHint><evaluationMode>automatic</evaluationMode><comment><text>168.5483924496182</text><id>DFX:rectilinearity</id></comment></pick><pick publicID="de.gempa.tb1.Pick/20250412040619.219193.119292"><time><value>2025-04-12T04:06:00.419538Z</value></time><waveformID networkCode="GR" stationCode="MOX" channelCode="BHZ"/><filterID>BW(4,0.7,2)</filterID><methodID>AIC</methodID><horizontalSlowness><value>3.3989142652093376</value></horizontalSlowness><backazimuth><value>26.881505837738217</value></backazimuth><phaseHint>P</phaseHint><evaluationMode>automatic</evaluationMode><comment><text>25.609065663944705</text><id>DFX:rectilinearity</id></comment></pick><pick publicID="de.gempa.tb1.Pick/20250412040620.255677.119294"><time><value>2025-04-12T04:05:58.095Z</value></time><waveformID networkCode="GE" stationCode="RUE" channelCode="BHZ"/><filterID>BW(4,0.7,2)</filterID><methodID>AIC</methodID><horizontalSlowness><value>2.8761143950289343</value></horizontalSlowness><backazimuth><value>58.45579064538389</value></backazimuth><phaseHint>P</phaseHint><evaluationMode>automatic</evaluationMode><comment><text>7772.474259942781</text><id>DFX:rectilinearity</id></comment></pick><pick publicID="de.gempa.tb1.Pick/20250412040623.203304.119298"><time><value>2025-04-12T04:05:52.082039Z</value></time><waveformID networkCode="RO" stationCode="MLR" channelCode="BHZ"/><filterID>BW(4,0.7,2)</filterID><methodID>AIC</methodID><horizontalSlowness><value>4.580092275771551</value></horizontalSlowness><backazimuth><value>60.16083848109348</value></backazimuth><phaseHint>P</phaseHint><evaluationMode>automatic</evaluationMode><comment><text>103.52815269223433</text><id>DFX:rectilinearity</id></comment></pick><pick publicID="de.gempa.tb1.Pick/20250412040624.114047.119300"><time><value>2025-04-12T04:05:59.8Z</value></time><waveformID networkCode="GE" stationCode="FLT1" channelCode="BHZ"/><filterID>BW(4,0.7,2)</filterID><methodID>AIC</methodID><horizontalSlowness><value>0.833654414347071</value></horizontalSlowness><backazimuth><value>236.68426101756603</value></backazimuth><phaseHint>P</phaseHint><evaluationMode>automatic</evaluationMode><comment><text>8760.508862926583</text><id>DFX:rectilinearity</id></comment></pick><pick publicID="de.gempa.tb1.Pick/20250412040624.191453.119302"><time><value>2025-04-12T04:05:57.8Z</value></time><waveformID networkCode="GE" stationCode="MORC" channelCode="BHZ"/><filterID>BW(4,0.7,2)</filterID><methodID>AIC</methodID><horizontalSlowness><value>4.3565406662863007</value></horizontalSlowness><backazimuth><value>61.76987391620301</value></backazimuth><phaseHint>P</phaseHint><evaluationMode>automatic</evaluationMode><comment><text>1086.5668463217883</text><id>DFX:rectilinearity</id></comment></pick><pick publicID="de.gempa.tb1.Pick/20250412040625.154243.119304"><time><value>2025-04-12T04:06:11.069538Z</value></time><waveformID networkCode="MN" stationCode="AQU" channelCode="BHZ"/><filterID>BW(4,0.7,2)</filterID><methodID>AIC</methodID><horizontalSlowness><value>5.893081559961408</value></horizontalSlowness><backazimuth><value>156.50371129443457</value></backazimuth><phaseHint>P</phaseHint><evaluationMode>automatic</evaluationMode><comment><text>861.3832805975937</text><id>DFX:rectilinearity</id></comment></pick><pick publicID="de.gempa.tb1.Pick/20250412040625.757193.119306"><time><value>2025-04-12T04:06:09.319536Z</value></time><waveformID networkCode="MN" stationCode="CUC" channelCode="BHZ"/><filterID>BW(4,0.7,2)</filterID><methodID>AIC</methodID><horizontalSlowness><value>4.647009282764575</value></horizontalSlowness><backazimuth><value>117.65825757436028</value></backazimuth><phaseHint>P</phaseHint><evaluationMode>automatic</evaluationMode><comment><text>191.65862196946287</text><id>DFX:rectilinearity</id></comment></pick><pick publicID="de.gempa.tb1.Pick/20250412040626.656168.119308"><time><value>2025-04-12T04:05:51.8Z</value></time><waveformID networkCode="GE" stationCode="CSS" channelCode="BHZ"/><filterID>BW(4,0.7,2)</filterID><methodID>AIC</methodID><horizontalSlowness><value>6.66535926513786</value></horizontalSlowness><backazimuth><value>32.13164850639302</value></backazimuth><phaseHint>P</phaseHint><evaluationMode>automatic</evaluationMode><comment><text>1152.122569494569</text><id>DFX:rectilinearity</id></comment></pick><pick publicID="de.gempa.tb1.Pick/20250412040631.540458.119310"><time><value>2025-04-12T04:06:02.95Z</value></time><waveformID networkCode="GR" stationCode="UBBA" channelCode="BHZ"/><filterID>BW(4,0.7,2)</filterID><methodID>AIC</methodID><horizontalSlowness><value>4.530543137558025</value></horizontalSlowness><backazimuth><value>25.12104232213733</value></backazimuth><phaseHint>P</phaseHint><evaluationMode>automatic</evaluationMode><comment><text>8.75913958227903</text><id>DFX:rectilinearity</id></comment></pick><pick publicID="de.gempa.tb1.Pick/20250412040632.071613.119312"><time><value>2025-04-12T04:06:09.2Z</value></time><waveformID networkCode="GE" stationCode="WLF" channelCode="BHZ"/><filterID>BW(4,0.7,2)</filterID><methodID>AIC</methodID><horizontalSlowness><value>0.6854470143994564</value></horizontalSlowness><backazimuth><value>159.28742617650047</value></backazimuth><phaseHint>P</phaseHint><evaluationMode>automatic</evaluationMode><comment><text>4875.95912074632</text><id>DFX:rectilinearity</id></comment></pick><pick publicID="de