<?xml version="1.0" encoding="UTF-8"?>
<seiscomp xmlns="http://geofon.gfz-potsdam.de/ns/seiscomp3-schema/0.13" version="0.13"><EventParameters><pick publicID="de.gempa.tb1.Pick/20250411202630.50741.119933"><time><value>2025-04-11T20:26:25.938393Z</value></time><waveformID networkCode="CX" stationCode="PB15" channelCode="HHZ"/><filterID>ITAPER(4)&gt;&gt;BW(4,4,20)</filterID><methodID>AIC</methodID><horizontalSlowness><value>22.032329910836822</value></horizontalSlowness><backazimuth><value>121.36299122370463</value></backazimuth><phaseHint>P</phaseHint><evaluationMode>automatic</evaluationMode><comment><text>333.0501530452185</text><id>DFX:rectilinearity</id></comment><comment><text>7.551010074254159</text><id>SNR</id></comment></pick><pick publicID="de.gempa.tb1.Pick/20250411202636.579852.119935"><time><value>2025-04-11T20:26:32.048393Z</value></time><waveformID networkCode="CX" stationCode="PB06" channelCode="HHZ"/><filterID>ITAPER(4)&gt;&gt;BW(4,4,20)</filterID><methodID>AIC</methodID><horizontalSlowness><value>4.2821597165788967</value></horizontalSlowness><backazimuth><value>174.23050998813986</value></backazimuth><phaseHint>P</phaseHint><evaluationMode>automatic</evaluationMode><comment><text>63.4760996162951</text><id>DFX:rectilinearity</id></comment><comment><text>17.27701022048699</text><id>SNR</id></comment></pick><pick publicID="de.gempa.tb1.Pick/20250411202636.880731.119937"><time><value>2025-04-11T20:26:30.518393Z</value></time><waveformID networkCode="CX" stationCode="PB15" channelCode="HHN"/><filterID>ITAPER(2)&gt;&gt;BW(3,3,20)</filterID><methodID>L2-AIC-GRID</methodID><horizontalSlowness><value>22.190081585331885</value></horizontalSlowness><backazimuth><value>69.13345229256373</value></backazimuth><phaseHint>S</phaseHint><evaluationMode>automatic</evaluationMode><comment><text>1806.2897744606623</text><id>DFX:rectilinearity</id></comment><comment><text>de.gempa.tb1.Pick/20250411202630.50741.119933</text><id>RefPickID</id></comment><comment><text>17.554552130477262</text><id>SNR</id></comment></pick><pick publicID="de.gempa.tb1.Pick/20250411202644.564125.119938"><time><value>2025-04-11T20:26:40.14Z</value></time><waveformID networkCode="CX" stationCode="PB19" channelCode="HHZ"/><filterID>ITAPER(4)&gt;&gt;BW(4,4,20)</filterID><methodID>AIC</methodID><horizontalSlowness><value>19.588904251439988</value></horizontalSlowness><backazimuth><value>218.84872422597778</value></backazimuth><phaseHint>P</phaseHint><evaluationMode>automatic</evaluationMode><comment><text>30.76968141650189</text><id>DFX:rectilinearity</id></comment><comment><text>18.17136996314862</text><id>SNR</id></comment></pick><pick publicID="de.gempa.tb1.Pick/20250411202650.48411.119940"><time><value>2025-04-11T20:26:42.598393Z</value></time><waveformID networkCode="CX" stationCode="PB03" channelCode="HHZ"/><filterID>ITAPER(4)&gt;&gt;BW(4,4,20)</filterID><methodID>AIC</methodID><horizontalSlowness><value>15.761770171116163</value></horizontalSlowness><backazimuth><value>198.46493052106277</value></backazimuth><phaseHint>P</phaseHint><evaluationMode>automatic</evaluationMode><comment><text>9.081425795795441</text><id>DFX:rectilinearity</id></comment><comment><text>16.644869944754738</text><id>SNR</id></comment></pick><pick publicID="de.gempa.tb1.Pick/20250411202658.925355.119944"><time><value>2025-04-11T20:26:48.438389Z</value></time><waveformID networkCode="CX" stationCode="PB07" channelCode="HHZ"/><filterID>ITAPER(4)&gt;&gt;BW(4,4,20)</filterID><methodID>AIC</methodID><horizontalSlowness><value>23.55816985656692</value></horizontalSlowness><backazimuth><value>256.70815159415224</value></backazimuth><phaseHint>P</phaseHint><evaluationMode>automatic</evaluationMode><comment><text>210.90321263048736</text><id>DFX:rectilinearity</id></comment><comment><text>20.954786523077946</text><id>SNR</id></comment></pick><pick publicID="de.gempa.tb1.Pick/20250411202701.63364.119951"><time><value>2025-04-11T20:26:55.358393Z</value></time><waveformID networkCode="CX" stationCode="PB02" channelCode="HHZ"/><filterID>ITAPER(4)&gt;&gt;BW(4,4,20)</filterID><methodID>AIC</methodID><horizontalSlowness><value>21.923753317431444</value></horizontalSlowness><backazimuth><value>87.58881960422197</value></backazimuth><phaseHint>P</phaseHint><evaluationMode>automatic</evaluationMode><comment><text>22.697128293211133</text><id>DFX:rectilinearity</id></comment><comment><text>26.254187833261646</text><id>SNR</id></comment></pick><pick publicID="de.gempa.tb1.Pick/20250411202712.617654.119955"><time><value>2025-04-11T20:27:04.249999Z</value></time><waveformID networkCode="CX" stationCode="PATCX" channelCode="HHZ"/><filterID>ITAPER(4)&gt;&gt;BW(4,4,20)</filterID><methodID>AIC</methodID><horizontalSlowness><value>20.632157386322337</value></horizontalSlowness><backazimuth><value>72.7571376859045</value></backazimuth><phaseHint>P</phaseHint><evaluationMode>automatic</evaluationMode><comment><text>316.1796355891377</text><id>DFX:rectilinearity</id></comment><comment><text>6.942972673850907</text><id>SNR</id></comment></pick><origin publicID="de.gempa.tb1.Origin/20250411202713.618231.65395"><time><value>2025-04-11T20:26:23.22015Z</value><uncertainty>0.62953782081604</uncertainty></time><latitude><value>-23.10455322265625</value><uncertainty>4.4254698753356934</uncertainty></latitude><longitude><value>-69.66466522216797</value><uncertainty>6.43834161758423</uncertainty></longitude><depth><value>0</value></depth><depthType>operator assigned</depthType><methodID>LOCSAT</methodID><earthModelID>iasp91_scanloc</earthModelID><quality><associatedPhaseCount>8</associatedPhaseCount><usedPhaseCount>8</usedPhaseCount><associatedStationCount>7</associatedStationCount><usedStationCount>7</usedStationCount><depthPhaseCount>0</depthPhaseCount><standardError>0.9986873036526407</standardError><azimuthalGap>191.8752899169922</azimuthalGap><maximumDistance>2.3175361156463623</maximumDistance><minimumDistance>0.20608305931091309</minimumDistance><medianDistance>1.054254412651062</medianDistance></quality><uncertainty><minHorizontalUncertainty>4.700739860534668</minHorizontalUncertainty><maxHorizontalUncertainty>16.086135864257812</maxHorizontalUncertainty><azimuthMaxHorizontalUncertainty>57.5805892944336</azimuthMaxHorizontalUncertainty><preferredDescription>horizontal uncertainty</preferredDescription></uncertainty><evaluationMode>automatic</evaluationMode><evaluationStatus>confirmed</evaluationStatus><comment><text>0.19</text><id>mismatchScore</id></comment><comment><text>mismatchScore</text><id>scevalMethod</id></comment><arrival><pickID>de.gempa.tb1.Pick/20250411202630.50741.119933</pickID><phase>P</phase><azimuth>120.1211929321289</azimuth><distance>0.20608305931091309</distance><timeResidual>-1.2344353199005127</timeResidual><timeUsed>true</timeUsed><horizontalSlownessUsed>false</horizontalSlownessUsed><backazimuthUsed>false</backazimuthUsed><weight>1</weight></arrival><arrival><pickID>de.gempa.tb1.Pick/20250411202636.579852.119935</pickID><phase>P</phase><azimuth>12.18333911895752</azimuth><distance>0.40600430965423584</distance><timeResidual>1.0404126644134521</timeResidual><timeUsed>true</timeUsed><horizontalSlownessUsed>false</horizontalSlownessUsed><backazimuthUsed>false</backazimuthUsed><weight>1</weight></arrival><arrival><pickID>de.gempa.tb1.Pick/20250411202636.880731.119937</pickID><phase>S</phase><azimuth>120.1211929321289</azimuth><distance>0.20608305931091309</distance><timeResidual>0.4754641056060791</timeResidual><timeUsed>true</timeUsed><horizontalSlownessUsed>false</horizontalSlownessUsed><backazimuthUsed>false</backazimuthUsed><weight>1</weight></arrival><arrival><pickID>de.gempa.tb1.Pick/20250411202644.564125.119938</pickID><phase>P</phase><azimuth>156.7560577392578</azimuth><distance>0.867405354976654</distance><timeResidual>0.28388476371765137</timeResidual><timeUsed>true</timeUsed><horizontalSlownessUsed>false</horizontalSlownessUsed><backazimuthUsed>false</backazimuthUsed><weight>1</weight></arrival><arrival><pickID>de.gempa.tb1.Pick/20250411202650.48411.119940</pickID><phase>P</phase><azimuth>355.5364685058594</azimuth><distance>1.054254412651062</distance><timeResidual>-0.8437378406524658</timeResidual><timeUsed>true</timeUsed><horizontalSlownessUsed>false</horizontalSlownessUsed><backazimuthUsed>false</backazimuthUsed><weight>1</weight></arrival><arrival><pickID>de.gempa.tb1.Pick/20250411202658.925355.119944</pickID><phase>P</phase><azimuth>351.4566345214844</azimuth><distance>1.38655424118042</distance><timeResidual>-1.3255550861358643</timeResidual><timeUsed>true</timeUsed><horizontalSlownessUsed>false</horizontalSlownessUsed><backazimuthUsed>false</backazimuthUsed><weight>1</weight></arrival><arrival><pickID>de.gempa.tb1.Pick/20250411202701.63364.119951</pickID><phase>P</phase><azimuth>353.0738830566406</azimuth><distance>1.7891533374786377</distance><timeResidual>-0.007428407669067383</timeResidual><timeUsed>true</timeUsed><horizontalSlownessUsed>false</horizontalSlownessUsed><backazimuthUsed>false</backazimuthUsed><weight>1</weight></arrival><arrival><pickID>de.gempa.tb1.Pick/20250411202712.617654.119955</pickID><phase>P</phase><azimuth>348.63134765625</azimuth><distance>2.3175361156463623</distance><timeResidual>1.6115272045135498</timeResidual><timeUsed>true</timeUsed><horizontalSlownessUsed>false</horizontalSlownessUsed><backazimuthUsed>false</backazimuthUsed><weight>1</weight></arrival><magnitude publicID="de.gempa.tb1.Magnitude/20250411202713.623648.139783"><magnitude><value>2.1800891619373903</value></magnitude><type>M</type><methodID>weighted average</methodID><stationCount>6</stationCount></magnitude></origin><event publicID="gempa2025hehc"><preferredOriginID>de.gempa.tb1.Origin/20250411202713.618231.65395</preferredOriginID><preferredMagnitudeID>de.gempa.tb1.Magnitude/20250411202713.623648.139783</preferredMagnitudeID><description><text>Northern Chile</text><type>region name</type></description><originReference>de.gempa.tb1.Origin/20250411202713.618231.65395</originReference></event></EventParameters></seiscomp>