<?xml version="1.0" encoding="UTF-8"?>
<seiscomp xmlns="http://geofon.gfz-potsdam.de/ns/seiscomp3-schema/0.13" version="0.13"><EventParameters><pick publicID="de.gempa.tb1.Pick/20250411220107.836267.120349"><time><value>2025-04-11T22:00:59.388393Z</value></time><waveformID networkCode="CX" stationCode="PB01" channelCode="HHZ"/><filterID>ITAPER(4)&gt;&gt;BW(4,4,20)</filterID><methodID>AIC</methodID><horizontalSlowness><value>20.69580012529757</value></horizontalSlowness><backazimuth><value>359.34802520219876</value></backazimuth><phaseHint>P</phaseHint><evaluationMode>automatic</evaluationMode><comment><text>14.22501727980898</text><id>DFX:rectilinearity</id></comment><comment><text>13.83210302539888</text><id>SNR</id></comment></pick><pick publicID="de.gempa.tb1.Pick/20250411220119.174036.120351"><time><value>2025-04-11T22:01:06.598389Z</value></time><waveformID networkCode="CX" stationCode="PB07" channelCode="HHZ"/><filterID>ITAPER(4)&gt;&gt;BW(4,4,20)</filterID><methodID>AIC</methodID><horizontalSlowness><value>21.305469982428058</value></horizontalSlowness><backazimuth><value>338.71272875291254</value></backazimuth><phaseHint>P</phaseHint><evaluationMode>automatic</evaluationMode><comment><text>130.92378837879178</text><id>DFX:rectilinearity</id></comment><comment><text>28.23084809166537</text><id>SNR</id></comment></pick><pick publicID="de.gempa.tb1.Pick/20250411220121.798921.120353"><time><value>2025-04-11T22:01:14.498394Z</value></time><waveformID networkCode="CX" stationCode="PB15" channelCode="HHZ"/><filterID>ITAPER(4)&gt;&gt;BW(4,4,20)</filterID><methodID>AIC</methodID><horizontalSlowness><value>19.37763399745132</value></horizontalSlowness><backazimuth><value>108.75594574917028</value></backazimuth><phaseHint>P</phaseHint><evaluationMode>automatic</evaluationMode><comment><text>208.91007579701969</text><id>DFX:rectilinearity</id></comment><comment><text>12.682206023937194</text><id>SNR</id></comment></pick><pick publicID="de.gempa.tb1.Pick/20250411220125.704005.120355"><time><value>2025-04-11T22:01:12.308393Z</value></time><waveformID networkCode="CX" stationCode="PB01" channelCode="HHN"/><filterID>ITAPER(2)&gt;&gt;BW(3,3,20)</filterID><methodID>L2-AIC-GRID</methodID><horizontalSlowness><value>21.131556599266577</value></horizontalSlowness><backazimuth><value>232.360025516799</value></backazimuth><phaseHint>S</phaseHint><evaluationMode>automatic</evaluationMode><comment><text>15.07216971530954</text><id>DFX:rectilinearity</id></comment><comment><text>de.gempa.tb1.Pick/20250411220107.836267.120349</text><id>RefPickID</id></comment><comment><text>8.944374367503336</text><id>SNR</id></comment></pick><pick publicID="de.gempa.tb1.Pick/20250411220133.519903.120356"><time><value>2025-04-11T22:01:24.45Z</value></time><waveformID networkCode="CX" stationCode="PB19" channelCode="HHZ"/><filterID>ITAPER(4)&gt;&gt;BW(4,4,20)</filterID><methodID>AIC</methodID><horizontalSlowness><value>20.553097976895646</value></horizontalSlowness><backazimuth><value>39.383870327015416</value></backazimuth><phaseHint>P</phaseHint><evaluationMode>automatic</evaluationMode><comment><text>35.57051419919317</text><id>DFX:rectilinearity</id></comment><comment><text>6.919562549379119</text><id>SNR</id></comment></pick><pick publicID="de.gempa.tb1.Pick/20250411220139.180942.120358"><time><value>2025-04-11T22:01:25.148389Z</value></time><waveformID networkCode="CX" stationCode="PB07" channelCode="HHN"/><filterID>ITAPER(2)&gt;&gt;BW(3,3,20)</filterID><methodID>L2-AIC-GRID</methodID><horizontalSlowness><value>22.930983437284183</value></horizontalSlowness><backazimuth><value>162.09584227141025</value></backazimuth><phaseHint>S</phaseHint><evaluationMode>automatic</evaluationMode><comment><text>187.6187091918815</text><id>DFX:rectilinearity</id></comment><comment><text>de.gempa.tb1.Pick/20250411220119.174036.120351</text><id>RefPickID</id></comment><comment><text>5.456140193147971</text><id>SNR</id></comment></pick><origin publicID="de.gempa.tb1.Origin/20250411220139.183993.67044"><time><value>2025-04-11T22:00:39.878017Z</value><uncertainty>1.0826833248138428</uncertainty></time><latitude><value>-21.35765266418457</value><uncertainty>6.326854228973389</uncertainty></latitude><longitude><value>-68.47500610351562</value><uncertainty>5.215888977050781</uncertainty></longitude><depth><value>0</value></depth><depthType>operator assigned</depthType><methodID>LOCSAT</methodID><earthModelID>iasp91_scanloc</earthModelID><quality><associatedPhaseCount>6</associatedPhaseCount><usedPhaseCount>6</usedPhaseCount><associatedStationCount>4</associatedStationCount><usedStationCount>4</usedStationCount><depthPhaseCount>0</depthPhaseCount><standardError>0.682445172118918</standardError><azimuthalGap>268.2593078613281</azimuthalGap><maximumDistance>2.644695997238159</maximumDistance><minimumDistance>0.9951534271240234</minimumDistance><medianDistance>1.3641252517700195</medianDistance></quality><uncertainty><minHorizontalUncertainty>7.65867805480957</minHorizontalUncertainty><maxHorizontalUncertainty>15.831135749816895</maxHorizontalUncertainty><azimuthMaxHorizontalUncertainty>36.0522575378418</azimuthMaxHorizontalUncertainty><preferredDescription>horizontal uncertainty</preferredDescription></uncertainty><evaluationMode>automatic</evaluationMode><comment><text>0.69</text><id>mismatchScore</id></comment><arrival><pickID>de.gempa.tb1.Pick/20250411220107.836267.120349</pickID><phase>P</phase><azimuth>288.1413269042969</azimuth><distance>0.9951534271240234</distance><timeResidual>0.4217357635498047</timeResidual><timeUsed>true</timeUsed><horizontalSlownessUsed>false</horizontalSlownessUsed><backazimuthUsed>false</backazimuthUsed><weight>1</weight></arrival><arrival><pickID>de.gempa.tb1.Pick/20250411220119.174036.120351</pickID><phase>P</phase><azimuth>254.1272888183594</azimuth><distance>1.3641252517700195</distance><timeResidual>0.5892333984375</timeResidual><timeUsed>true</timeUsed><horizontalSlownessUsed>false</horizontalSlownessUsed><backazimuthUsed>false</backazimuthUsed><weight>1</weight></arrival><arrival><pickID>de.gempa.tb1.Pick/20250411220121.798921.120353</pickID><phase>P</phase><azimuth>206.4163818359375</azimuth><distance>2.059875249862671</distance><timeResidual>-1.249156951904297</timeResidual><timeUsed>true</timeUsed><horizontalSlownessUsed>false</horizontalSlownessUsed><backazimuthUsed>false</backazimuthUsed><weight>1</weight></arrival><arrival><pickID>de.gempa.tb1.Pick/20250411220125.704005.120355</pickID><phase>S</phase><azimuth>288.1413269042969</azimuth><distance>0.9951534271240234</distance><timeResidual>-0.5201435089111328</timeResidual><timeUsed>true</timeUsed><horizontalSlownessUsed>false</horizontalSlownessUsed><backazimuthUsed>false</backazimuthUsed><weight>1</weight></arrival><arrival><pickID>de.gempa.tb1.Pick/20250411220133.519903.120356</pickID><phase>P</phase><azimuth>196.400634765625</azimuth><distance>2.644695997238159</distance><timeResidual>0.6537704467773438</timeResidual><timeUsed>true</timeUsed><horizontalSlownessUsed>false</horizontalSlownessUsed><backazimuthUsed>false</backazimuthUsed><weight>1</weight></arrival><arrival><pickID>de.gempa.tb1.Pick/20250411220139.180942.120358</pickID><phase>S</phase><azimuth>254.1272888183594</azimuth><distance>1.3641252517700195</distance><timeResidual>0.10475349426269531</timeResidual><timeUsed>true</timeUsed><horizontalSlownessUsed>false</horizontalSlownessUsed><backazimuthUsed>false</backazimuthUsed><weight>1</weight></arrival><magnitude publicID="de.gempa.tb1.Magnitude/20250411220208.58927.146933"><magnitude><value>2.5683594632315145</value></magnitude><type>M</type><methodID>weighted average</methodID><stationCount>2</stationCount></magnitude></origin><event publicID="gempa2025hekf"><preferredOriginID>de.gempa.tb1.Origin/20250411220139.183993.67044</preferredOriginID><preferredMagnitudeID>de.gempa.tb1.Magnitude/20250411220208.58927.146933</preferredMagnitudeID><description><text>Chile-Bolivia Border Region</text><type>region name</type></description><originReference>de.gempa.tb1.Origin/20250411220139.183993.67044</originReference></event></EventParameters></seiscomp>