<?xml version="1.0" encoding="UTF-8"?>
<seiscomp xmlns="http://geofon.gfz-potsdam.de/ns/seiscomp3-schema/0.13" version="0.13"><EventParameters><pick publicID="de.gempa.tb1.Pick/20250414064504.545465.136327"><time><value>2025-04-14T06:44:56.368393Z</value></time><waveformID networkCode="CX" stationCode="PB08" channelCode="HHZ"/><filterID>ITAPER(4)&gt;&gt;BW(4,4,20)</filterID><methodID>AIC</methodID><horizontalSlowness><value>8.321196472185308</value></horizontalSlowness><backazimuth><value>144.3029277698912</value></backazimuth><phaseHint>P</phaseHint><evaluationMode>automatic</evaluationMode><comment><text>21.32620085212501</text><id>DFX:rectilinearity</id></comment><comment><text>27.62319886973595</text><id>SNR</id></comment></pick><pick publicID="de.gempa.tb1.Pick/20250414064506.569555.136330"><time><value>2025-04-14T06:44:58.0000Z</value></time><waveformID networkCode="CX" stationCode="PSGCX" channelCode="HHZ"/><filterID>ITAPER(4)&gt;&gt;BW(4,4,20)</filterID><methodID>AIC</methodID><horizontalSlowness><value>16.464065232592713</value></horizontalSlowness><backazimuth><value>142.55139683537723</value></backazimuth><phaseHint>P</phaseHint><evaluationMode>automatic</evaluationMode><comment><text>11.304493003170645</text><id>DFX:rectilinearity</id></comment><comment><text>67.24999034663803</text><id>SNR</id></comment></pick><pick publicID="de.gempa.tb1.Pick/20250414064512.915772.136332"><time><value>2025-04-14T06:45:04.828393Z</value></time><waveformID networkCode="CX" stationCode="PB01" channelCode="HHZ"/><filterID>ITAPER(4)&gt;&gt;BW(4,4,20)</filterID><methodID>AIC</methodID><horizontalSlowness><value>15.018686344116006</value></horizontalSlowness><backazimuth><value>359.26050418353543</value></backazimuth><phaseHint>P</phaseHint><evaluationMode>automatic</evaluationMode><comment><text>26.376299329427205</text><id>DFX:rectilinearity</id></comment><comment><text>20.617185295453464</text><id>SNR</id></comment></pick><pick publicID="de.gempa.tb1.Pick/20250414064518.07351.136334"><time><value>2025-04-14T06:45:08.438393Z</value></time><waveformID networkCode="CX" stationCode="PB08" channelCode="HHN"/><filterID>ITAPER(2)&gt;&gt;BW(3,3,20)</filterID><methodID>L2-AIC-GRID</methodID><horizontalSlowness><value>18.753253571769068</value></horizontalSlowness><backazimuth><value>193.52500321108931</value></backazimuth><phaseHint>S</phaseHint><evaluationMode>automatic</evaluationMode><comment><text>314.78465740854807</text><id>DFX:rectilinearity</id></comment><comment><text>de.gempa.tb1.Pick/20250414064504.545465.136327</text><id>RefPickID</id></comment><comment><text>12.641402391917408</text><id>SNR</id></comment></pick><pick publicID="de.gempa.tb1.Pick/20250414064518.588943.136335"><time><value>2025-04-14T06:45:09.838393Z</value></time><waveformID networkCode="CX" stationCode="PB02" channelCode="HHZ"/><filterID>ITAPER(4)&gt;&gt;BW(4,4,20)</filterID><methodID>AIC</methodID><horizontalSlowness><value>6.493124208670855</value></horizontalSlowness><backazimuth><value>301.91684428003384</value></backazimuth><phaseHint>P</phaseHint><evaluationMode>automatic</evaluationMode><comment><text>33.001935132963823</text><id>DFX:rectilinearity</id></comment><comment><text>10.11698879692609</text><id>SNR</id></comment></pick><pick publicID="de.gempa.tb1.Pick/20250414064520.781105.136337"><time><value>2025-04-14T06:45:12.08Z</value></time><waveformID networkCode="CX" stationCode="PSGCX" channelCode="HHN"/><filterID>ITAPER(2)&gt;&gt;BW(3,3,20)</filterID><methodID>L2-AIC-GRID</methodID><horizontalSlowness><value>17.899172913737768</value></horizontalSlowness><backazimuth><value>269.3767959501472</value></backazimuth><phaseHint>S</phaseHint><evaluationMode>automatic</evaluationMode><comment><text>363.03750117568427</text><id>DFX:rectilinearity</id></comment><comment><text>de.gempa.tb1.Pick/20250414064506.569555.136330</text><id>RefPickID</id></comment><comment><text>13.42261967450635</text><id>SNR</id></comment></pick><pick publicID="de.gempa.tb1.Pick/20250414064525.767662.136338"><time><value>2025-04-14T06:45:15.53Z</value></time><waveformID networkCode="CX" stationCode="PB09" channelCode="HHZ"/><filterID>ITAPER(4)&gt;&gt;BW(4,4,20)</filterID><methodID>AIC</methodID><horizontalSlowness><value>23.4652286569131</value></horizontalSlowness><backazimuth><value>299.96845125760404</value></backazimuth><phaseHint>P</phaseHint><evaluationMode>automatic</evaluationMode><comment><text>11.317048586446738</text><id>DFX:rectilinearity</id></comment><comment><text>8.449412217454405</text><id>SNR</id></comment></pick><pick publicID="de.gempa.tb1.Pick/20250414064530.818409.136341"><time><value>2025-04-14T06:45:23.928393Z</value></time><waveformID networkCode="CX" stationCode="PB01" channelCode="HHN"/><filterID>ITAPER(2)&gt;&gt;BW(3,3,20)</filterID><methodID>L2-AIC-GRID</methodID><horizontalSlowness><value>22.613151446987263</value></horizontalSlowness><backazimuth><value>104.37316908461466</value></backazimuth><phaseHint>S</phaseHint><evaluationMode>automatic</evaluationMode><comment><text>434.5778574489403</text><id>DFX:rectilinearity</id></comment><comment><text>de.gempa.tb1.Pick/20250414064512.915772.136332</text><id>RefPickID</id></comment><comment><text>12.39076164794169</text><id>SNR</id></comment></pick><pick publicID="de.gempa.tb1.Pick/20250414064537.550197.136343"><time><value>2025-04-14T06:45:31.358393Z</value></time><waveformID networkCode="CX" stationCode="PB02" channelCode="HHN"/><filterID>ITAPER(2)&gt;&gt;BW(3,3,20)</filterID><methodID>L2-AIC-GRID</methodID><horizontalSlowness><value>11.30946964395447</value></horizontalSlowness><backazimuth><value>277.9404624258121</value></backazimuth><phaseHint>S</phaseHint><evaluationMode>automatic</evaluationMode><comment><text>142.62803411474934</text><id>DFX:rectilinearity</id></comment><comment><text>de.gempa.tb1.Pick/20250414064518.588943.136335</text><id>RefPickID</id></comment><comment><text>7.580239962613655</text><id>SNR</id></comment></pick><pick publicID="de.gempa.tb1.Pick/20250414064601.302724.136345"><time><value>2025-04-14T06:45:41.72Z</value></time><waveformID networkCode="CX" stationCode="PB09" channelCode="HHN"/><filterID>ITAPER(2)&gt;&gt;BW(3,3,20)</filterID><methodID>L2-AIC-GRID</methodID><horizontalSlowness><value>17.71409931339646</value></horizontalSlowness><backazimuth><value>281.87354408297136</value></backazimuth><phaseHint>S</phaseHint><evaluationMode>automatic</evaluationMode><comment><text>20.2132210112538</text><id>DFX:rectilinearity</id></comment><comment><text>de.gempa.tb1.Pick/20250414064525.767662.136338</text><id>RefPickID</id></comment><comment><text>5.346214140403077</text><id>SNR</id></comment></pick><origin publicID="de.gempa.tb1.Origin/20250414064601.306266.130710"><time><value>2025-04-14T06:44:41.172895Z</value><uncertainty>1.1233888864517212</uncertainty></time><latitude><value>-19.690092086791992</value><uncertainty>5.103462219238281</uncertainty></latitude><longitude><value>-69.37545776367188</value><uncertainty>6.563995838165283</uncertainty></longitude><depth><value>96.69661712646484</value><uncertainty>7.350639820098877</uncertainty></depth><depthType>from location</depthType><methodID>LOCSAT</methodID><earthModelID>iasp91_scanloc</earthModelID><quality><associatedPhaseCount>10</associatedPhaseCount><usedPhaseCount>10</usedPhaseCount><associatedStationCount>5</associatedStationCount><usedStationCount>5</usedStationCount><depthPhaseCount>0</depthPhaseCount><standardError>0.4129002810538266</standardError><azimuthalGap>237.7190399169922</azimuthalGap><maximumDistance>2.0994200706481934</maximumDistance><minimumDistance>0.4949668347835541</minimumDistance><medianDistance>1.3503460884094238</medianDistance></quality><uncertainty><minHorizontalUncertainty>8.426745414733887</minHorizontalUncertainty><maxHorizontalUncertainty>15.71195125579834</maxHorizontalUncertainty><azimuthMaxHorizontalUncertainty>58.22984313964844</azimuthMaxHorizontalUncertainty><preferredDescription>horizontal uncertainty</preferredDescription></uncertainty><evaluationMode>automatic</evaluationMode><evaluationStatus>confirmed</evaluationStatus><comment><text>0.06</text><id>mismatchScore</id></comment><comment><text>mismatchScore</text><id>scevalMethod</id></comment><arrival><pickID>de.gempa.tb1.Pick/20250414064504.545465.136327</pickID><phase>P</phase><azimuth>155.06809997558594</azimuth><distance>0.4949668347835541</distance><timeResidual>-0.2012491226196289</timeResidual><timeUsed>true</timeUsed><horizontalSlownessUsed>false</horizontalSlownessUsed><backazimuthUsed>false</backazimuthUsed><weight>1</weight></arrival><arrival><pickID>de.gempa.tb1.Pick/20250414064506.569555.136330</pickID><phase>P</phase><azimuth>277.34906005859375</azimuth><distance>0.7106493711471558</distance><timeResidual>-0.38416194915771484</timeResidual><timeUsed>true</timeUsed><horizontalSlownessUsed>false</horizontalSlownessUsed><backazimuthUsed>false</backazimuthUsed><weight>1</weight></arrival><arrival><pickID>de.gempa.tb1.Pick/20250414064512.915772.136332</pickID><phase>P</phase><azimuth>184.44151306152344</azimuth><distance>1.3503460884094238</distance><timeResidual>-0.5852546691894531</timeResidual><timeUsed>true</timeUsed><horizontalSlownessUsed>false</horizontalSlownessUsed><backazimuthUsed>false</backazimuthUsed><weight>1</weight></arrival><arrival><pickID>de.gempa.tb1.Pick/20250414064518.07351.136334</pickID><phase>S</phase><azimuth>155.06809997558594</azimuth><distance>0.4949668347835541</distance><timeResidual>0.04671192169189453</timeResidual><timeUsed>true</timeUsed><horizontalSlownessUsed>false</horizontalSlownessUsed><backazimuthUsed>false</backazimuthUsed><weight>1</weight></arrival><arrival><pickID>de.gempa.tb1.Pick/20250414064518.588943.136335</pickID><phase>P</phase><azimuth>196.66014099121094</azimuth><distance>1.693220853805542</distance><timeResidual>0.165191650390625</timeResidual><timeUsed>true</timeUsed><horizontalSlownessUsed>false</horizontalSlownessUsed><backazimuthUsed>false</backazimuthUsed><weight>1</weight></arrival><arrival><pickID>de.gempa.tb1.Pick/20250414064520.781105.136337</pickID><phase>S</phase><azimuth>277.34906005859375</azimuth><distance>0.7106493711471558</distance><timeResidual>0.4601640701293945</timeResidual><timeUsed>true</timeUsed><horizontalSlownessUsed>false</horizontalSlownessUsed><backazimuthUsed>false</backazimuthUsed><weight>1</weight></arrival><arrival><pickID>de.gempa.tb1.Pick/20250414064525.767662.136338</pickID><phase>P</phase><azimuth>176.61029052734375</azimuth><distance>2.0994200706481934</distance><timeResidual>0.622319221496582</timeResidual><timeUsed>true</timeUsed><horizontalSlownessUsed>false</horizontalSlownessUsed><backazimuthUsed>false</backazimuthUsed><weight>1</weight></arrival><arrival><pickID>de.gempa.tb1.Pick/20250414064530.818409.136341</pickID><phase>S</phase><azimuth>184.44151306152344</azimuth><distance>1.3503460884094238</distance><timeResidual>-0.2404470443725586</timeResidual><timeUsed>true</timeUsed><horizontalSlownessUsed>false</horizontalSlownessUsed><backazimuthUsed>false</backazimuthUsed><weight>1</weight></arrival><arrival><pickID>de.gempa.tb1.Pick/20250414064537.550197.136343</pickID><phase>S</phase><azimuth>196.66014099121094</azimuth><distance>1.693220853805542</distance><timeResidual>-0.4321603775024414</timeResidual><timeUsed>true</timeUsed><horizontalSlownessUsed>false</horizontalSlownessUsed><backazimuthUsed>false</backazimuthUsed><weight>1</weight></arrival><arrival><pickID>de.gempa.tb1.Pick/20250414064601.302724.136345</pickID><phase>S</phase><azimuth>176.61029052734375</azimuth><distance>2.0994200706481934</distance><timeResidual>0.5488004684448242</timeResidual><timeUsed>true</timeUsed><horizontalSlownessUsed>false</horizontalSlownessUsed><backazimuthUsed>false</backazimuthUsed><weight>1</weight></arrival><magnitude publicID="de.gempa.tb1.Magnitude/20250414064621.908133.441646"><magnitude><value>2.0819264528556265</value></magnitude><type>M</type><methodID>weighted average</methodID><stationCount>4</stationCount></magnitude></origin><event publicID="gempa2025hitt"><preferredOriginID>de.gempa.tb1.Origin/20250414064601.306266.130710</preferredOriginID><preferredMagnitudeID>de.gempa.tb1.Magnitude/20250414064621.908133.441646</preferredMagnitudeID><description><text>Northern Chile</text><type>region name</type></description><originReference>de.gempa.tb1.Origin/20250414064601.306266.130710</originReference></event></EventParameters></seiscomp>