<?xml version="1.0" encoding="UTF-8"?>
<seiscomp xmlns="http://geofon.gfz-potsdam.de/ns/seiscomp3-schema/0.13" version="0.13"><EventParameters><pick publicID="de.gempa.tb1.Pick/20250413173436.787948.132718"><time><value>2025-04-13T17:34:32.168393Z</value></time><waveformID networkCode="CX" stationCode="PB15" channelCode="HHZ"/><filterID>ITAPER(4)&gt;&gt;BW(4,4,20)</filterID><methodID>AIC</methodID><horizontalSlowness><value>20.949877727564523</value></horizontalSlowness><backazimuth><value>130.18168013169768</value></backazimuth><phaseHint>P</phaseHint><evaluationMode>automatic</evaluationMode><comment><text>224.16494589972211</text><id>DFX:rectilinearity</id></comment><comment><text>28.42154750829943</text><id>SNR</id></comment></pick><pick publicID="de.gempa.tb1.Pick/20250413173438.510626.132720"><time><value>2025-04-13T17:34:32.45Z</value></time><waveformID networkCode="CX" stationCode="PB19" channelCode="HHZ"/><filterID>ITAPER(4)&gt;&gt;BW(4,4,20)</filterID><methodID>AIC</methodID><horizontalSlowness><value>2.346653997329084</value></horizontalSlowness><backazimuth><value>136.06538488224666</value></backazimuth><phaseHint>P</phaseHint><evaluationMode>automatic</evaluationMode><comment><text>28.274656648333455</text><id>DFX:rectilinearity</id></comment><comment><text>29.713350350917423</text><id>SNR</id></comment></pick><pick publicID="de.gempa.tb1.Pick/20250413173442.650361.132722"><time><value>2025-04-13T17:34:35.698393Z</value></time><waveformID networkCode="CX" stationCode="PB06" channelCode="HHZ"/><filterID>ITAPER(4)&gt;&gt;BW(4,4,20)</filterID><methodID>AIC</methodID><horizontalSlowness><value>14.236417276887588</value></horizontalSlowness><backazimuth><value>82.70200159140863</value></backazimuth><phaseHint>P</phaseHint><evaluationMode>automatic</evaluationMode><comment><text>39.953875275957486</text><id>DFX:rectilinearity</id></comment><comment><text>14.052342420448548</text><id>SNR</id></comment></pick><pick publicID="de.gempa.tb1.Pick/20250413173448.576621.132724"><time><value>2025-04-13T17:34:42.948393Z</value></time><waveformID networkCode="CX" stationCode="PB03" channelCode="HHZ"/><filterID>ITAPER(4)&gt;&gt;BW(4,4,20)</filterID><methodID>AIC</methodID><horizontalSlowness><value>21.520611640801278</value></horizontalSlowness><backazimuth><value>141.050488763335</value></backazimuth><phaseHint>P</phaseHint><evaluationMode>automatic</evaluationMode><comment><text>7.177946691231402</text><id>DFX:rectilinearity</id></comment><comment><text>9.922379454712413</text><id>SNR</id></comment></pick><pick publicID="de.gempa.tb1.Pick/20250413173453.521189.132726"><time><value>2025-04-13T17:34:47.458391Z</value></time><waveformID networkCode="CX" stationCode="PB07" channelCode="HHZ"/><filterID>ITAPER(4)&gt;&gt;BW(4,4,20)</filterID><methodID>AIC</methodID><horizontalSlowness><value>23.372502803339533</value></horizontalSlowness><backazimuth><value>41.529403771057645</value></backazimuth><phaseHint>P</phaseHint><evaluationMode>automatic</evaluationMode><comment><text>170.5134752261485</text><id>DFX:rectilinearity</id></comment><comment><text>10.400055301873692</text><id>SNR</id></comment></pick><pick publicID="de.gempa.tb1.Pick/20250413173455.826428.132728"><time><value>2025-04-13T17:34:45.268393Z</value></time><waveformID networkCode="CX" stationCode="PB15" channelCode="HHN"/><filterID>ITAPER(2)&gt;&gt;BW(3,3,20)</filterID><methodID>L2-AIC-GRID</methodID><horizontalSlowness><value>21.145531887246214</value></horizontalSlowness><backazimuth><value>110.10409552110069</value></backazimuth><phaseHint>S</phaseHint><evaluationMode>automatic</evaluationMode><comment><text>4779.678886052055</text><id>DFX:rectilinearity</id></comment><comment><text>de.gempa.tb1.Pick/20250413173436.787948.132718</text><id>RefPickID</id></comment><comment><text>10.76444664444088</text><id>SNR</id></comment></pick><pick publicID="de.gempa.tb1.Pick/20250413173456.586947.132729"><time><value>2025-04-13T17:34:45.47Z</value></time><waveformID networkCode="CX" stationCode="PB19" channelCode="HHN"/><filterID>ITAPER(2)&gt;&gt;BW(3,3,20)</filterID><methodID>L2-AIC-GRID</methodID><horizontalSlowness><value>21.47830227270041</value></horizontalSlowness><backazimuth><value>61.25938283580494</value></backazimuth><phaseHint>S</phaseHint><evaluationMode>automatic</evaluationMode><comment><text>127.92448637862374</text><id>DFX:rectilinearity</id></comment><comment><text>de.gempa.tb1.Pick/20250413173438.510626.132720</text><id>RefPickID</id></comment><comment><text>12.028964840502587</text><id>SNR</id></comment></pick><pick publicID="de.gempa.tb1.Pick/20250413173459.568143.132730"><time><value>2025-04-13T17:34:51.348393Z</value></time><waveformID networkCode="CX" stationCode="PB06" channelCode="HHN"/><filterID>ITAPER(2)&gt;&gt;BW(3,3,20)</filterID><methodID>L2-AIC-GRID</methodID><horizontalSlowness><value>22.88665319112109</value></horizontalSlowness><backazimuth><value>130.3474990075763</value></backazimuth><phaseHint>S</phaseHint><evaluationMode>automatic</evaluationMode><comment><text>90.28950247448877</text><id>DFX:rectilinearity</id></comment><comment><text>de.gempa.tb1.Pick/20250413173442.650361.132722</text><id>RefPickID</id></comment><comment><text>16.768997286359841</text><id>SNR</id></comment></pick><pick publicID="de.gempa.tb1.Pick/20250413173510.578282.132735"><time><value>2025-04-13T17:35:04.568393Z</value></time><waveformID networkCode="CX" stationCode="PB03" channelCode="HHN"/><filterID>ITAPER(2)&gt;&gt;BW(3,3,20)</filterID><methodID>L2-AIC-GRID</methodID><horizontalSlowness><value>17.632645102251377</value></horizontalSlowness><backazimuth><value>289.60898397080314</value></backazimuth><phaseHint>S</phaseHint><evaluationMode>automatic</evaluationMode><comment><text>29.968075106575355</text><id>DFX:rectilinearity</id></comment><comment><text>de.gempa.tb1.Pick/20250413173448.576621.132724</text><id>RefPickID</id></comment><comment><text>6.539444601711664</text><id>SNR</id></comment></pick><origin publicID="de.gempa.tb1.Origin/20250413173513.776955.115760"><time><value>2025-04-13T17:34:15.269582Z</value><uncertainty>1.0804938077926636</uncertainty></time><latitude><value>-23.36534881591797</value><uncertainty>16.449399948120117</uncertainty></latitude><longitude><value>-68.60790252685547</value><uncertainty>58.5112075805664</uncertainty></longitude><depth><value>81.29508972167969</value><uncertainty>69.22151184082031</uncertainty></depth><depthType>from location</depthType><methodID>LOCSAT</methodID><earthModelID>iasp91_scanloc</earthModelID><quality><associatedPhaseCount>9</associatedPhaseCount><usedPhaseCount>9</usedPhaseCount><associatedStationCount>5</associatedStationCount><usedStationCount>5</usedStationCount><depthPhaseCount>0</depthPhaseCount><standardError>0.05350560022092919</standardError><azimuthalGap>265.4210662841797</azimuthalGap><maximumDistance>2.0140061378479004</maximumDistance><minimumDistance>0.808781087398529</minimumDistance><medianDistance>1.1043175458908081</medianDistance></quality><uncertainty><minHorizontalUncertainty>9.042634963989258</minHorizontalUncertainty><maxHorizontalUncertainty>130.01251220703125</maxHorizontalUncertainty><azimuthMaxHorizontalUncertainty>74.75992584228516</azimuthMaxHorizontalUncertainty><preferredDescription>horizontal uncertainty</preferredDescription></uncertainty><evaluationMode>automatic</evaluationMode><evaluationStatus>confirmed</evaluationStatus><comment><text>0.05</text><id>mismatchScore</id></comment><comment><text>mismatchScore</text><id>scevalMethod</id></comment><arrival><pickID>de.gempa.tb1.Pick/20250413173436.787948.132718</pickID><phase>P</phase><azimuth>280.97198486328125</azimuth><distance>0.808781087398529</distance><timeResidual>-0.04646873474121094</timeResidual><timeUsed>true</timeUsed><horizontalSlownessUsed>false</horizontalSlownessUsed><backazimuthUsed>false</backazimuthUsed><weight>1</weight></arrival><arrival><pickID>de.gempa.tb1.Pick/20250413173438.510626.132720</pickID><phase>P</phase><azimuth>229.24867248535156</azimuth><distance>0.8248602151870728</distance><timeResidual>0.06051826477050781</timeResidual><timeUsed>true</timeUsed><horizontalSlownessUsed>false</horizontalSlownessUsed><backazimuthUsed>false</backazimuthUsed><weight>1</weight></arrival><arrival><pickID>de.gempa.tb1.Pick/20250413173442.650361.132722</pickID><phase>P</phase><azimuth>306.2857360839844</azimuth><distance>1.1043175458908081</distance><timeResidual>0.03429603576660156</timeResidual><timeUsed>true</timeUsed><horizontalSlownessUsed>false</horizontalSlownessUsed><backazimuthUsed>false</backazimuthUsed><weight>1</weight></arrival><arrival><pickID>de.gempa.tb1.Pick/20250413173448.576621.132724</pickID><phase>P</phase><azimuth>320.8811340332031</azimuth><distance>1.6840574741363525</distance><timeResidual>-0.09206771850585938</timeResidual><timeUsed>true</timeUsed><horizontalSlownessUsed>false</horizontalSlownessUsed><backazimuthUsed>false</backazimuthUsed><weight>1</weight></arrival><arrival><pickID>de.gempa.tb1.Pick/20250413173453.521189.132726</pickID><phase>P</phase><azimuth>323.8276062011719</azimuth><distance>2.0140061378479004</distance><timeResidual>0.06190109252929688</timeResidual><timeUsed>true</timeUsed><horizontalSlownessUsed>false</horizontalSlownessUsed><backazimuthUsed>false</backazimuthUsed><weight>1</weight></arrival><arrival><pickID>de.gempa.tb1.Pick/20250413173455.826428.132728</pickID><phase>S</phase><azimuth>280.97198486328125</azimuth><distance>0.808781087398529</distance><timeResidual>0.05768394470214844</timeResidual><timeUsed>true</timeUsed><horizontalSlownessUsed>false</horizontalSlownessUsed><backazimuthUsed>false</backazimuthUsed><weight>1</weight></arrival><arrival><pickID>de.gempa.tb1.Pick/20250413173456.586947.132729</pickID><phase>S</phase><azimuth>229.24867248535156</azimuth><distance>0.8248602151870728</distance><timeResidual>-0.052581787109375</timeResidual><timeUsed>true</timeUsed><horizontalSlownessUsed>false</horizontalSlownessUsed><backazimuthUsed>false</backazimuthUsed><weight>1</weight></arrival><arrival><pickID>de.gempa.tb1.Pick/20250413173459.568143.132730</pickID><phase>S</phase><azimuth>306.2857360839844</azimuth><distance>1.1043175458908081</distance><timeResidual>-0.01831817626953125</timeResidual><timeUsed>true</timeUsed><horizontalSlownessUsed>false</horizontalSlownessUsed><backazimuthUsed>false</backazimuthUsed><weight>1</weight></arrival><arrival><pickID>de.gempa.tb1.Pick/20250413173510.578282.132735</pickID><phase>S</phase><azimuth>320.8811340332031</azimuth><distance>1.6840574741363525</distance><timeResidual>-0.005619049072265625</timeResidual><timeUsed>true</timeUsed><horizontalSlownessUsed>false</horizontalSlownessUsed><backazimuthUsed>false</backazimuthUsed><weight>1</weight></arrival><magnitude publicID="de.gempa.tb1.Magnitude/20250413173520.938566.383683"><magnitude><value>2.552850786512039</value></magnitude><type>M</type><methodID>weighted average</methodID><stationCount>3</stationCount></magnitude></origin><event publicID="gempa2025hhtk"><preferredOriginID>de.gempa.tb1.Origin/20250413173513.776955.115760</preferredOriginID><preferredMagnitudeID>de.gempa.tb1.Magnitude/20250413173520.938566.383683</preferredMagnitudeID><description><text>Northern Chile</text><type>region name</type></description><originReference>de.gempa.tb1.Origin/20250413173513.776955.115760</originReference></event></EventParameters></seiscomp>