<?xml version="1.0" encoding="UTF-8"?>
<seiscomp xmlns="http://geofon.gfz-potsdam.de/ns/seiscomp3-schema/0.13" version="0.13"><EventParameters><pick publicID="de.gempa.tb1.Pick/20250411113545.629747.118579"><time><value>2025-04-11T11:35:40.02Z</value></time><waveformID networkCode="CX" stationCode="PB19" channelCode="HHZ"/><filterID>ITAPER(4)&gt;&gt;BW(4,4,20)</filterID><methodID>AIC</methodID><horizontalSlowness><value>6.800826765950629</value></horizontalSlowness><backazimuth><value>123.01659422970206</value></backazimuth><phaseHint>P</phaseHint><evaluationMode>automatic</evaluationMode><comment><text>6837.707222574551</text><id>DFX:rectilinearity</id></comment><comment><text>692.5230917325212</text><id>SNR</id></comment></pick><pick publicID="de.gempa.tb1.Pick/20250411113548.706538.118582"><time><value>2025-04-11T11:35:43.508393Z</value></time><waveformID networkCode="CX" stationCode="PB15" channelCode="HHZ"/><filterID>ITAPER(4)&gt;&gt;BW(4,4,20)</filterID><methodID>AIC</methodID><horizontalSlowness><value>18.70022088405067</value></horizontalSlowness><backazimuth><value>98.04667704759213</value></backazimuth><phaseHint>P</phaseHint><evaluationMode>automatic</evaluationMode><comment><text>83930.7636173666</text><id>DFX:rectilinearity</id></comment><comment><text>254.27843943817166</text><id>SNR</id></comment></pick><pick publicID="de.gempa.tb1.Pick/20250411113552.634073.118584"><time><value>2025-04-11T11:35:46.868393Z</value></time><waveformID networkCode="CX" stationCode="PB06" channelCode="HHZ"/><filterID>ITAPER(4)&gt;&gt;BW(4,4,20)</filterID><methodID>AIC</methodID><horizontalSlowness><value>12.455604417363014</value></horizontalSlowness><backazimuth><value>118.39059228636214</value></backazimuth><phaseHint>P</phaseHint><evaluationMode>automatic</evaluationMode><comment><text>8666.008452627048</text><id>DFX:rectilinearity</id></comment><comment><text>189.38360918652003</text><id>SNR</id></comment></pick><pick publicID="de.gempa.tb1.Pick/20250411113558.948302.118587"><time><value>2025-04-11T11:35:53.24Z</value></time><waveformID networkCode="CX" stationCode="PB10" channelCode="HHZ"/><filterID>ITAPER(4)&gt;&gt;BW(4,4,20)</filterID><methodID>AIC</methodID><horizontalSlowness><value>14.33558654261219</value></horizontalSlowness><backazimuth><value>120.2984062565912</value></backazimuth><phaseHint>P</phaseHint><evaluationMode>automatic</evaluationMode><comment><text>5529.487319723315</text><id>DFX:rectilinearity</id></comment><comment><text>98.85072801912065</text><id>SNR</id></comment></pick><pick publicID="de.gempa.tb1.Pick/20250411113559.629924.118589"><time><value>2025-04-11T11:35:52.598393Z</value></time><waveformID networkCode="CX" stationCode="PB03" channelCode="HHZ"/><filterID>ITAPER(4)&gt;&gt;BW(4,4,20)</filterID><methodID>AIC</methodID><horizontalSlowness><value>9.010910559061298</value></horizontalSlowness><backazimuth><value>135.58428795357136</value></backazimuth><phaseHint>P</phaseHint><evaluationMode>automatic</evaluationMode><comment><text>1352.6016946048028</text><id>DFX:rectilinearity</id></comment><comment><text>307.32432096424105</text><id>SNR</id></comment></pick><pick publicID="de.gempa.tb1.Pick/20250411113601.456502.118592"><time><value>2025-04-11T11:35:51.64Z</value></time><waveformID networkCode="CX" stationCode="PB09" channelCode="HHZ"/><filterID>ITAPER(4)&gt;&gt;BW(4,4,20)</filterID><methodID>AIC</methodID><horizontalSlowness><value>17.312741582212123</value></horizontalSlowness><backazimuth><value>124.5027187549272</value></backazimuth><phaseHint>P</phaseHint><evaluationMode>automatic</evaluationMode><comment><text>537.0501407111282</text><id>DFX:rectilinearity</id></comment><comment><text>80.89268476220576</text><id>SNR</id></comment></pick><pick publicID="de.gempa.tb1.Pick/20250411113606.504198.118594"><time><value>2025-04-11T11:36:00.088393Z</value></time><waveformID networkCode="CX" stationCode="PB02" channelCode="HHZ"/><filterID>ITAPER(4)&gt;&gt;BW(4,4,20)</filterID><methodID>AIC</methodID><horizontalSlowness><value>5.073632032044282</value></horizontalSlowness><backazimuth><value>117.95331044245825</value></backazimuth><phaseHint>P</phaseHint><evaluationMode>automatic</evaluationMode><comment><text>434.2604884498792</text><id>DFX:rectilinearity</id></comment><comment><text>18.761671265886953</text><id>SNR</id></comment></pick><pick publicID="de.gempa.tb1.Pick/20250411113615.913006.118600"><time><value>2025-04-11T11:36:06.529999Z</value></time><waveformID networkCode="CX" stationCode="PATCX" channelCode="HHZ"/><filterID>ITAPER(4)&gt;&gt;BW(4,4,20)</filterID><methodID>AIC</methodID><horizontalSlowness><value>20.88227739007733</value></horizontalSlowness><backazimuth><value>71.84862925725908</value></backazimuth><phaseHint>P</phaseHint><evaluationMode>automatic</evaluationMode><comment><text>347.93724959958627</text><id>DFX:rectilinearity</id></comment><comment><text>9.205335746888894</text><id>SNR</id></comment></pick><pick publicID="de.gempa.tb1.Pick/20250411113616.703629.118603"><time><value>2025-04-11T11:36:09.28Z</value></time><waveformID networkCode="CX" stationCode="PB19" channelCode="HHN"/><filterID>ITAPER(2)&gt;&gt;BW(3,3,20)</filterID><methodID>L2-AIC-GRID</methodID><horizontalSlowness><value>22.833744605940183</value></horizontalSlowness><backazimuth><value>80.93518028372577</value></backazimuth><phaseHint>S</phaseHint><evaluationMode>automatic</evaluationMode><comment><text>190154.46692016735</text><id>DFX:rectilinearity</id></comment><comment><text>de.gempa.tb1.Pick/20250411113545.629747.118579</text><id>RefPickID</id></comment><comment><text>6.358436499565238</text><id>SNR</id></comment></pick><pick publicID="de.gempa.tb1.Pick/20250411113617.107853.118604"><time><value>2025-04-11T11:36:09.668393Z</value></time><waveformID networkCode="CX" stationCode="PB08" channelCode="HHZ"/><filterID>ITAPER(4)&gt;&gt;BW(4,4,20)</filterID><methodID>AIC</methodID><horizontalSlowness><value>14.886146253319206</value></horizontalSlowness><backazimuth><value>197.86640314300539</value></backazimuth><phaseHint>P</phaseHint><evaluationMode>automatic</evaluationMode><comment><text>135.06568879120877</text><id>DFX:rectilinearity</id></comment><comment><text>3.356707329658433</text><id>SNR</id></comment></pick><pick publicID="de.gempa.tb1.Pick/20250411113620.797824.118608"><time><value>2025-04-11T11:36:14.818393Z</value></time><waveformID networkCode="CX" stationCode="PB15" channelCode="HHN"/><filterID>ITAPER(2)&gt;&gt;BW(3,3,20)</filterID><methodID>L2-AIC-GRID</methodID><horizontalSlowness><value>20.33279678186149</value></horizontalSlowness><backazimuth><value>74.16501838656345</value></backazimuth><phaseHint>S</phaseHint><evaluationMode>automatic</evaluationMode><comment><text>5124324.999926204</text><id>DFX:rectilinearity</id></comment><comment><text>de.gempa.tb1.Pick/20250411113548.706538.118582</text><id>RefPickID</id></comment><comment><text>8.106655434357277</text><id>SNR</id></comment></pick><pick publicID="de.gempa.tb1.Pick/20250411113631.619567.118614"><time><value>2025-04-11T11:36:20.368393Z</value></time><waveformID networkCode="CX" stationCode="PB06" channelCode="HHN"/><filterID>ITAPER(2)&gt;&gt;BW(3,3,20)</filterID><methodID>L2-AIC-GRID</methodID><horizontalSlowness><value>21.775056006458367</value></horizontalSlowness><backazimuth><value>174.14349946341162</value></backazimuth><phaseHint>S</phaseHint><evaluationMode>automatic</evaluationMode><comment><text>72251.3653817741</text><id>DFX:rectilinearity</id></comment><comment><text>de.gempa.tb1.Pick/20250411113552.634073.118584</text><id>RefPickID</id></comment><comment><text>33.759682920910763</text><id>SNR</id></comment></pick><pick publicID="de.gempa.tb1.Pick/20250411113635.697522.118615"><time><value>2025-04-11T11:36:30.178393Z</value></time><waveformID networkCode="CX" stationCode="PB03" channelCode="HHN"/><filterID>ITAPER(2)&gt;&gt;BW(3,3,20)</filterID><methodID>L2-AIC-GRID</methodID><horizontalSlowness><value>21.083804078163848</value></horizontalSlowness><backazimuth><value>37.686196944269994</value></backazimuth><phaseHint>S</phaseHint><evaluationMode>automatic</evaluationMode><comment><text>63476.46388988714</text><id>DFX:rectilinearity</id></comment><comment><text>de.gempa.tb1.Pick/20250411113559.629924.118589</text><id>RefPickID</id></comment><comment><text>19.227214517420968</text><id>SNR</id></comment></pick><pick publicID="de.gempa.tb1.Pick/20250411113638.457972.118616"><time><value>2025-04-11T11:36:29.02Z</value></time><waveformID networkCode="CX" stationCode="PB09" channelCode="HHN"/><filterID>ITAPER(2)&gt;&gt;BW(3,3,20)</filterID><methodID>L2-AIC-GRID</methodID><horizontalSlowness><value>18.050959220772544</value></horizontalSlowness><backazimuth><value>321.76373610042515</value></backazimuth><phaseHint>S</phaseHint><evaluationMode>automatic</evaluationMode><comment><text>15197.217459936837</text><id>DFX:rectilinearity</id></comment><comment><text>de.gempa.tb1.Pick/20250411113601.456502.118592</text><id>RefPickID</id></comment><comment><text>7.163528715431882</text><id>SNR</id></comment></pick><pick publicID="de.gempa.tb1.Pick/20250411113650.585279.118618"><time><value>2025-04-11T11:36:43.018393Z</value></time><waveformID networkCode="CX" stationCode="PB02" channelCode="HHN"/><filterID>ITAPER(2)&gt;&gt;BW(3,3,20)</filterID><methodID>L2-AIC-GRID</methodID><horizontalSlowness><value>21.733555655015536</value></horizontalSlowness><backazimuth><value>239.45009293273355</value></backazimuth><phaseHint>S</phaseHint><evaluationMode>automatic</evaluationMode><comment><text>31881.914136791464</text><id>DFX:rectilinearity</id></comment><comment><text>de.gempa.tb1.Pick/20250411113606.504198.118594</text><id>RefPickID</id></comment><comment><text>8.20632802552267</text><id>SNR</id></comment></pick><origin publicID="de.gempa.tb1.Origin/20250411113650.588181.59127"><time><value>2025-04-11T11:35:05.403091Z</value><uncertainty>0.8834302425384521</uncertainty></time><latitude><value>-23.96962547302246</value><uncertainty>5.69432544708252</uncertainty></latitude><longitude><value>-67.71587371826172</value><uncertainty>18.181169509887695</uncertainty></longitude><depth><value>224.90147399902344</value><uncertainty>13.750340461730957</uncertainty></depth><depthType>from location</depthType><methodID>LOCSAT</methodID><earthModelID>iasp91_scanloc</earthModelID><quality><associatedPhaseCount>15</associatedPhaseCount><usedPhaseCount>15</usedPhaseCount><associatedStationCount>9</associatedStationCount><usedStationCount>9</usedStationCount><depthPhaseCount>0</depthPhaseCount><standardError>0.5101516882414513</standardError><azimuthalGap>291.8108825683594</azimuthalGap><maximumDistance>4.0365805625915527</maximumDistance><minimumDistance>1.4423516988754272</minimumDistance><medianDistance>2.580533742904663</medianDistance></quality><uncertainty><minHorizontalUncertainty>11.819490432739258</minHorizontalUncertainty><maxHorizontalUncertainty>39.1007080078125</maxHorizontalUncertainty><azimuthMaxHorizontalUncertainty>85.29309844970703</azimuthMaxHorizontalUncertainty><preferredDescription>horizontal uncertainty</preferredDescription></uncertainty><evaluationMode>automatic</evaluationMode><evaluationStatus>confirmed</evaluationStatus><comment><text>0.09</text><id>mismatchScore</id></comment><comment><text>mismatchScore</text><id>scevalMethod</id></comment><arrival><pickID>de.gempa.tb1.Pick/20250411113545.629747.118579</pickID><phase>P</phase><azimuth>272.247314453125</azimuth><distance>1.4423516988754272</distance><timeResidual>-0.9153938293457031</timeResidual><timeUsed>true</timeUsed><horizontalSlownessUsed>false</horizontalSlownessUsed><backazimuthUsed>false</backazimuthUsed><weight>1</weight></arrival><arrival><pickID>de.gempa.tb1.Pick/20250411113548.706538.118582</pickID><phase>P</phase><azimuth>294.8533020019531</azimuth><distance>1.779508352279663</distance><timeResidual>-0.3155708312988281</timeResidual><timeUsed>true</timeUsed><horizontalSlownessUsed>false</horizontalSlownessUsed><backazimuthUsed>false</backazimuthUsed><weight>1</weight></arrival><arrival><pickID>de.gempa.tb1.Pick/20250411113552.634073.118584</pickID><phase>P</phase><azimuth>306.037353515625</azimuth><distance>2.1195716857910156</distance><timeResidual>-0.198455810546875</timeResidual><timeUsed>true</timeUsed><horizontalSlownessUsed>false</horizontalSlownessUsed><backazimuthUsed>false</backazimuthUsed><weight>1</weight></arrival><arrival><pickID>de.gempa.tb1.Pick/20250411113558.948302.118587</pickID><phase>P</phase><azimuth>279.3341979980469</azimuth><distance>2.640120029449463</distance><timeResidual>0.7746963500976562</timeResidual><timeUsed>true</timeUsed><horizontalSlownessUsed>false</horizontalSlownessUsed><backazimuthUsed>false</backazimuthUsed><weight>1</weight></arrival><arrival><pickID>de.gempa.tb1.Pick/20250411113559.629924.118589</pickID><phase>P</phase><azimuth>315.1308898925781</azimuth><distance>2.679420471191406</distance><timeResidual>-0.31072998046875</timeResidual><timeUsed>true</timeUsed><horizontalSlownessUsed>false</horizontalSlownessUsed><backazimuthUsed>false</backazimuthUsed><weight>1</weight></arrival><arrival><pickID>de.gempa.tb1.Pick/20250411113601.456502.118592</pickID><phase>P</phase><azimuth>326.65234375</azimuth><distance>2.580533742904663</distance><timeResidual>-0.19990158081054688</timeResidual><timeUsed>true</timeUsed><horizontalSlownessUsed>false</horizontalSlownessUsed><backazimuthUsed>false</backazimuthUsed><weight>1</weight></arrival><arrival><pickID>de.gempa.tb1.Pick/20250411113606.504198.118594</pickID><phase>P</phase><azimuth>322.2090148925781</azimuth><distance>3.318297863006592</distance><timeResidual>-0.04048919677734375</timeResidual><timeUsed>true</timeUsed><horizontalSlownessUsed>false</horizontalSlownessUsed><backazimuthUsed>false</backazimuthUsed><weight>1</weight></arrival><arrival><pickID>de.gempa.tb1.Pick/20250411113615.913006.118600</pickID><phase>P</phase><azimuth>323.7892761230469</azimuth><distance>3.8608484268188477</distance><timeResidual>0.007663726806640625</timeResidual><timeUsed>true</timeUsed><horizontalSlownessUsed>false</horizontalSlownessUsed><backazimuthUsed>false</backazimuthUsed><weight>1</weight></arrival><arrival><pickID>de.gempa.tb1.Pick/20250411113616.703629.118603</pickID><phase>S</phase><azimuth>272.247314453125</azimuth><distance>1.4423516988754272</distance><timeResidual>0.19865798950195312</timeResidual><timeUsed>true</timeUsed><horizontalSlownessUsed>false</horizontalSlownessUsed><backazimuthUsed>false</backazimuthUsed><weight>1</weight></arrival><arrival><pickID>de.gempa.tb1.Pick/20250411113617.107853.118604</pickID><phase>P</phase><azimuth>340.4364318847656</azimuth><distance>4.0365805625915527</distance><timeResidual>1.0281410217285156</timeResidual><timeUsed>true</timeUsed><horizontalSlownessUsed>false</horizontalSlownessUsed><backazimuthUsed>false</backazimuthUsed><weight>1</weight></arrival><arrival><pickID>de.gempa.tb1.Pick/20250411113620.797824.118608</pickID><phase>S</phase><azimuth>294.8533020019531</azimuth><distance>1.779508352279663</distance><timeResidual>0.5394477844238281</timeResidual><timeUsed>true</timeUsed><horizontalSlownessUsed>false</horizontalSlownessUsed><backazimuthUsed>false</backazimuthUsed><weight>1</weight></arrival><arrival><pickID>de.gempa.tb1.Pick/20250411113631.619567.118614</pickID><phase>S</phase><azimuth>306.037353515625</azimuth><distance>2.1195716857910156</distance><timeResidual>0.25042724609375</timeResidual><timeUsed>true</timeUsed><horizontalSlownessUsed>false</horizontalSlownessUsed><backazimuthUsed>false</backazimuthUsed><weight>1</weight></arrival><arrival><pickID>de.gempa.tb1.Pick/20250411113635.697522.118615</pickID><phase>S</phase><azimuth>315.1308898925781</azimuth><distance>2.679420471191406</distance><timeResidual>-0.4673957824707031</timeResidual><timeUsed>true</timeUsed><horizontalSlownessUsed>false</horizontalSlownessUsed><backazimuthUsed>false</backazimuthUsed><weight>1</weight></arrival><arrival><pickID>de.gempa.tb1.Pick/20250411113638.457972.118616</pickID><phase>S</phase><azimuth>326.65234375</azimuth><distance>2.580533742904663</distance><timeResidual>0.3033790588378906</timeResidual><timeUsed>true</timeUsed><horizontalSlownessUsed>false</horizontalSlownessUsed><backazimuthUsed>false</backazimuthUsed><weight>1</weight></arrival><arrival><pickID>de.gempa.tb1.Pick/20250411113650.585279.118618</pickID><phase>S</phase><azimuth>322.2090148925781</azimuth><distance>3.318297863006592</distance><timeResidual>-0.654052734375</timeResidual><timeUsed>true</timeUsed><horizontalSlownessUsed>false</horizontalSlownessUsed><backazimuthUsed>false</backazimuthUsed><weight>1</weight></arrival><magnitude publicID="de.gempa.tb1.Magnitude/20250411113749.675752.124313"><magnitude><value>3.644166259599975</value></magnitude><type>M</type><methodID>weighted average</methodID><stationCount>7</stationCount></magnitude></origin><event publicID="gempa2025hdpj"><preferredOriginID>de.gempa.tb1.Origin/20250411113650.588181.59127</preferredOriginID><preferredMagnitudeID>de.gempa.tb1.Magnitude/20250411113749.675752.124313</preferredMagnitudeID><description><text>Chile-Argentina Border Region</text><type>region name</type></description><originReference>de.gempa.tb1.Origin/20250411113650.588181.59127</originReference></event></EventParameters></seiscomp>