<?xml version="1.0" encoding="UTF-8"?>
<seiscomp xmlns="http://geofon.gfz-potsdam.de/ns/seiscomp3-schema/0.13" version="0.13"><EventParameters><pick publicID="de.gempa.tb1.Pick/20250412174319.793273.125604"><time><value>2025-04-12T17:43:15.018393Z</value></time><waveformID networkCode="CX" stationCode="PB01" channelCode="HHZ"/><filterID>ITAPER(4)&gt;&gt;BW(4,4,20)</filterID><methodID>AIC</methodID><horizontalSlowness><value>7.46038625415617</value></horizontalSlowness><backazimuth><value>355.8771914606991</value></backazimuth><phaseHint>P</phaseHint><evaluationMode>automatic</evaluationMode><comment><text>65.63344203016953</text><id>DFX:rectilinearity</id></comment><comment><text>153.75813252918365</text><id>SNR</id></comment></pick><pick publicID="de.gempa.tb1.Pick/20250412174320.830095.125606"><time><value>2025-04-12T17:43:16.698393Z</value></time><waveformID networkCode="CX" stationCode="PB08" channelCode="HHZ"/><filterID>ITAPER(4)&gt;&gt;BW(4,4,20)</filterID><methodID>AIC</methodID><horizontalSlowness><value>15.510413969866887</value></horizontalSlowness><backazimuth><value>214.55416721752857</value></backazimuth><phaseHint>P</phaseHint><evaluationMode>automatic</evaluationMode><comment><text>25.20803325238012</text><id>DFX:rectilinearity</id></comment><comment><text>18.845070952073588</text><id>SNR</id></comment></pick><pick publicID="de.gempa.tb1.Pick/20250412174324.530261.125610"><time><value>2025-04-12T17:43:20.188393Z</value></time><waveformID networkCode="CX" stationCode="PB02" channelCode="HHZ"/><filterID>ITAPER(4)&gt;&gt;BW(4,4,20)</filterID><methodID>AIC</methodID><horizontalSlowness><value>3.522380217325849</value></horizontalSlowness><backazimuth><value>353.77774310601137</value></backazimuth><phaseHint>P</phaseHint><evaluationMode>automatic</evaluationMode><comment><text>222.75342687689513</text><id>DFX:rectilinearity</id></comment><comment><text>53.16337638209968</text><id>SNR</id></comment></pick><pick publicID="de.gempa.tb1.Pick/20250412174327.471056.125612"><time><value>2025-04-12T17:43:20.729999Z</value></time><waveformID networkCode="CX" stationCode="PATCX" channelCode="HHZ"/><filterID>ITAPER(4)&gt;&gt;BW(4,4,20)</filterID><methodID>AIC</methodID><horizontalSlowness><value>22.775616586219606</value></horizontalSlowness><backazimuth><value>46.26001565017509</value></backazimuth><phaseHint>P</phaseHint><evaluationMode>automatic</evaluationMode><comment><text>271.10430864274804</text><id>DFX:rectilinearity</id></comment><comment><text>24.112301769622523</text><id>SNR</id></comment></pick><pick publicID="de.gempa.tb1.Pick/20250412174330.053049.125614"><time><value>2025-04-12T17:43:22.958393Z</value></time><waveformID networkCode="CX" stationCode="PB07" channelCode="HHZ"/><filterID>ITAPER(4)&gt;&gt;BW(4,4,20)</filterID><methodID>AIC</methodID><horizontalSlowness><value>13.382550027439386</value></horizontalSlowness><backazimuth><value>25.778318339674826</value></backazimuth><phaseHint>P</phaseHint><evaluationMode>automatic</evaluationMode><comment><text>334.8257164805322</text><id>DFX:rectilinearity</id></comment><comment><text>67.09949529286664</text><id>SNR</id></comment></pick><pick publicID="de.gempa.tb1.Pick/20250412174332.509188.125616"><time><value>2025-04-12T17:43:26.24Z</value></time><waveformID networkCode="CX" stationCode="PSGCX" channelCode="HHZ"/><filterID>ITAPER(4)&gt;&gt;BW(4,4,20)</filterID><methodID>AIC</methodID><horizontalSlowness><value>20.35295597284425</value></horizontalSlowness><backazimuth><value>48.69017413153151</value></backazimuth><phaseHint>P</phaseHint><evaluationMode>automatic</evaluationMode><comment><text>20.607474737205322</text><id>DFX:rectilinearity</id></comment><comment><text>106.29255098430517</text><id>SNR</id></comment></pick><pick publicID="de.gempa.tb1.Pick/20250412174333.591427.125619"><time><value>2025-04-12T17:43:25.698393Z</value></time><waveformID networkCode="CX" stationCode="PB03" channelCode="HHZ"/><filterID>ITAPER(4)&gt;&gt;BW(4,4,20)</filterID><methodID>AIC</methodID><horizontalSlowness><value>2.469850606095769</value></horizontalSlowness><backazimuth><value>337.3970087938194</value></backazimuth><phaseHint>P</phaseHint><evaluationMode>automatic</evaluationMode><comment><text>21.17027670308407</text><id>DFX:rectilinearity</id></comment><comment><text>64.4363583103305</text><id>SNR</id></comment></pick><pick publicID="de.gempa.tb1.Pick/20250412174334.617268.125622"><time><value>2025-04-12T17:43:29.288393Z</value></time><waveformID networkCode="CX" stationCode="PB08" channelCode="HHN"/><filterID>ITAPER(2)&gt;&gt;BW(3,3,20)</filterID><methodID>L2-AIC-GRID</methodID><horizontalSlowness><value>15.35794348481902</value></horizontalSlowness><backazimuth><value>208.6526277046592</value></backazimuth><phaseHint>S</phaseHint><evaluationMode>automatic</evaluationMode><comment><text>529.8828050391583</text><id>DFX:rectilinearity</id></comment><comment><text>de.gempa.tb1.Pick/20250412174320.830095.125606</text><id>RefPickID</id></comment><comment><text>15.445414739872698</text><id>SNR</id></comment></pick><pick publicID="de.gempa.tb1.Pick/20250412174335.780418.125623"><time><value>2025-04-12T17:43:26.768393Z</value></time><waveformID networkCode="CX" stationCode="PB01" channelCode="HHN"/><filterID>ITAPER(2)&gt;&gt;BW(3,3,20)</filterID><methodID>L2-AIC-GRID</methodID><horizontalSlowness><value>21.4093418728467</value></horizontalSlowness><backazimuth><value>239.8328045684386</value></backazimuth><phaseHint>S</phaseHint><evaluationMode>automatic</evaluationMode><comment><text>15514.254222920395</text><id>DFX:rectilinearity</id></comment><comment><text>de.gempa.tb1.Pick/20250412174319.793273.125604</text><id>RefPickID</id></comment><comment><text>11.172213316641868</text><id>SNR</id></comment></pick><pick publicID="de.gempa.tb1.Pick/20250412174336.568928.125624"><time><value>2025-04-12T17:43:21.45Z</value></time><waveformID networkCode="CX" stationCode="PB09" channelCode="HHZ"/><filterID>ITAPER(4)&gt;&gt;BW(4,4,20)</filterID><methodID>AIC</methodID><horizontalSlowness><value>16.10719515205254</value></horizontalSlowness><backazimuth><value>57.27692082167714</value></backazimuth><phaseHint>P</phaseHint><evaluationMode>automatic</evaluationMode><comment><text>44.99906583067444</text><id>DFX:rectilinearity</id></comment><comment><text>67.58574283024547</text><id>SNR</id></comment></pick><pick publicID="de.gempa.tb1.Pick/20250412174339.556934.125626"><time><value>2025-04-12T17:43:33.928394Z</value></time><waveformID networkCode="CX" stationCode="PB06" channelCode="HHZ"/><filterID>ITAPER(4)&gt;&gt;BW(4,4,20)</filterID><methodID>AIC</methodID><horizontalSlowness><value>10.841220655616967</value></horizontalSlowness><backazimuth><value>309.71915339097757</value></backazimuth><phaseHint>P</phaseHint><evaluationMode>automatic</evaluationMode><comment><text>226.1528630047795</text><id>DFX:rectilinearity</id></comment><comment><text>16.17666857095729</text><id>SNR</id></comment></pick><pick publicID="de.gempa.tb1.Pick/20250412174342.619047.125628"><time><value>2025-04-12T17:43:35.468393Z</value></time><waveformID networkCode="CX" stationCode="PB02" channelCode="HHN"/><filterID>ITAPER(2)&gt;&gt;BW(3,3,20)</filterID><methodID>L2-AIC-GRID</methodID><horizontalSlowness><value>10.357740433862604</value></horizontalSlowness><backazimuth><value>207.2816609266132</value></backazimuth><phaseHint>S</phaseHint><evaluationMode>automatic</evaluationMode><comment><text>5362.417358747274</text><id>DFX:rectilinearity</id></comment><comment><text>de.gempa.tb1.Pick/20250412174324.530261.125610</text><id>RefPickID</id></comment><comment><text>6.416243098684371</text><id>SNR</id></comment></pick><pick publicID="de.gempa.tb1.Pick/20250412174345.412153.125629"><time><value>2025-04-12T17:43:36.729999Z</value></time><waveformID networkCode="CX" stationCode="PATCX" channelCode="HHN"/><filterID>ITAPER(2)&gt;&gt;BW(3,3,20)</filterID><methodID>L2-AIC-GRID</methodID><horizontalSlowness><value>21.85824833508362</value></horizontalSlowness><backazimuth><value>339.95012300709283</value></backazimuth><phaseHint>S</phaseHint><evaluationMode>automatic</evaluationMode><comment><text>1567.1387623636356</text><id>DFX:rectilinearity</id></comment><comment><text>de.gempa.tb1.Pick/20250412174327.471056.125612</text><id>RefPickID</id></comment><comment><text>7.13664202443285</text><id>SNR</id></comment></pick><pick publicID="de.gempa.tb1.Pick/20250412174349.600822.125631"><time><value>2025-04-12T17:43:40.558393Z</value></time><waveformID networkCode="CX" stationCode="PB16" channelCode="HHZ"/><filterID>ITAPER(4)&gt;&gt;BW(4,4,20)</filterID><methodID>AIC</methodID><horizontalSlowness><value>12.80096143716023</value></horizontalSlowness><backazimuth><value>169.4918218814062</value></backazimuth><phaseHint>P</phaseHint><evaluationMode>automatic</evaluationMode><comment><text>1.5930721554546428</text><id>DFX:rectilinearity</id></comment><comment><text>19.969083452520547</text><id>SNR</id></comment></pick><pick publicID="de.gempa.tb1.Pick/20250412174353.56961.125634"><time><value>2025-04-12T17:43:45.818393Z</value></time><waveformID networkCode="CX" stationCode="PB03" channelCode="HHN"/><filterID>ITAPER(2)&gt;&gt;BW(3,3,20)</filterID><methodID>L2-AIC-GRID</methodID><horizontalSlowness><value>8.933359992842783</value></horizontalSlowness><backazimuth><value>203.68282750657812</value></backazimuth><phaseHint>S</phaseHint><evaluationMode>automatic</evaluationMode><comment><text>1685.6106433278392</text><id>DFX:rectilinearity</id></comment><comment><text>de.gempa.tb1.Pick/20250412174333.591427.125619</text><id>RefPickID</id></comment><comment><text>9.255782108171227</text><id>SNR</id></comment></pick><pick publicID="de.gempa.tb1.Pick/20250412174353.770684.125635"><time><value>2025-04-12T17:43:46.75Z</value></time><waveformID networkCode="CX" stationCode="PSGCX" channelCode="HHN"/><filterID>ITAPER(2)&gt;&gt;BW(3,3,20)</filterID><methodID>L2-AIC-GRID</methodID><horizontalSlowness><value>23.44606823392338</value></horizontalSlowness><backazimuth><value>245.54825590995117</value></backazimuth><phaseHint>S</phaseHint><evaluationMode>automatic</evaluationMode><comment><text>489.0128470663052</text><id>DFX:rectilinearity</id></comment><comment><text>de.gempa.tb1.Pick/20250412174332.509188.125616</text><id>RefPickID</id></comment><comment><text>5.294589869365183</text><id>SNR</id></comment></pick><pick publicID="de.gempa.tb1.Pick/20250412174407.778285.125644"><time><value>2025-04-12T17:43:41.328393Z</value></time><waveformID networkCode="CX" stationCode="PB07" channelCode="HHN"/><filterID>ITAPER(2)&gt;&gt;BW(3,3,20)</filterID><methodID>L2-AIC-GRID</methodID><horizontalSlowness><value>21.582222959221525</value></horizontalSlowness><backazimuth><value>288.9321915977939</value></backazimuth><phaseHint>S</phaseHint><evaluationMode>automatic</evaluationMode><comment><text>16662.899898332806</text><id>DFX:rectilinearity</id></comment><comment><text>de.gempa.tb1.Pick/20250412174330.053049.125614</text><id>RefPickID</id></comment><comment><text>5.126445817845744</text><id>SNR</id></comment></pick><pick publicID="de.gempa.tb1.Pick/20250412174410.616335.125647"><time><value>2025-04-12T17:43:59.378394Z</value></time><waveformID networkCode="CX" stationCode="PB06" channelCode="HHN"/><filterID>ITAPER(2)&gt;&gt;BW(3,3,20)</filterID><methodID>L2-AIC-GRID</methodID><horizontalSlowness><value>19.68612554069182</value></horizontalSlowness><backazimuth><value>165.7363910217837</value></backazimuth><phaseHint>S</phaseHint><evaluationMode>automatic</evaluationMode><comment><text>374.0989688489153</text><id>DFX:rectilinearity</id></comment><comment><text>de.gempa.tb1.Pick/20250412174339.556934.125626</text><id>RefPickID</id></comment><comment><text>9.544791720314583</text><id>SNR</id></comment></pick><origin publicID="de.gempa.tb1.Origin/20250412174410.619855.88544"><time><value>2025-04-12T17:43:01.293131Z</value><uncertainty>0.5809998512268066</uncertainty></time><latitude><value>-20.742826461791992</value><uncertainty>2.1782000064849854</uncertainty></latitude><longitude><value>-69.0876693725586</value><uncertainty>5.186172485351562</uncertainty></longitude><depth><value>89.92693328857422</value><uncertainty>5.964785575866699</uncertainty></depth><depthType>from location</depthType><methodID>LOCSAT</methodID><earthModelID>iasp91_scanloc</earthModelID><quality><associatedPhaseCount>18</associatedPhaseCount><usedPhaseCount>18</usedPhaseCount><associatedStationCount>10</associatedStationCount><usedStationCount>10</usedStationCount><depthPhaseCount>0</depthPhaseCount><standardError>0.5743222426300438</standardError><azimuthalGap>193.6765594482422</azimuthalGap><maximumDistance>2.4277124404907227</maximumDistance><minimumDistance>0.478579193353653</minimumDistance><medianDistance>1.230164647102356</medianDistance></quality><uncertainty><minHorizontalUncertainty>4.60478687286377</minHorizontalUncertainty><maxHorizontalUncertainty>11.145876884460449</maxHorizontalUncertainty><azimuthMaxHorizontalUncertainty>94.39070892333984</azimuthMaxHorizontalUncertainty><preferredDescription>horizontal uncertainty</preferredDescription></uncertainty><evaluationMode>automatic</evaluationMode><evaluationStatus>confirmed</evaluationStatus><comment><text>0.00</text><id>mismatchScore</id></comment><comment><text>mismatchScore</text><id>scevalMethod</id></comment><arrival><pickID>de.gempa.tb1.Pick/20250412174319.793273.125604</pickID><phase>P</phase><azimuth>231.2796936035156</azimuth><distance>0.478579193353653</distance><timeResidual>-0.8521308898925781</timeResidual><timeUsed>true</timeUsed><horizontalSlownessUsed>false</horizontalSlownessUsed><backazimuthUsed>false</backazimuthUsed><weight>1</weight></arrival><arrival><pickID>de.gempa.tb1.Pick/20250412174320.830095.125606</pickID><phase>P</phase><azimuth>354.1099853515625</azimuth><distance>0.601816713809967</distance><timeResidual>-0.19783592224121094</timeResidual><timeUsed>true</timeUsed><horizontalSlownessUsed>false</horizontalSlownessUsed><backazimuthUsed>false</backazimuthUsed><weight>1</weight></arrival><arrival><pickID>de.gempa.tb1.Pick/20250412174324.530261.125610</pickID><phase>P</phase><azimuth>232.6162872314453</azimuth><distance>0.9485587477684021</distance><timeResidual>-0.22632408142089844</timeResidual><timeUsed>true</timeUsed><horizontalSlownessUsed>false</horizontalSlownessUsed><backazimuthUsed>false</backazimuthUsed><weight>1</weight></arrival><arrival><pickID>de.gempa.tb1.Pick/20250412174327.471056.125612</pickID><phase>P</phase><azimuth>265.36676025390625</azimuth><distance>0.9997479319572449</distance><timeResidual>-0.2631654739379883</timeResidual><timeUsed>true</timeUsed><horizontalSlownessUsed>false</horizontalSlownessUsed><backazimuthUsed>false</backazimuthUsed><weight>1</weight></arrival><arrival><pickID>de.gempa.tb1.Pick/20250412174330.053049.125614</pickID><phase>P</phase><azimuth>217.126220703125</azimuth><distance>1.230164647102356</distance><timeResidual>-0.7425775527954102</timeResidual><timeUsed>true</timeUsed><horizontalSlownessUsed>false</horizontalSlownessUsed><backazimuthUsed>false</backazimuthUsed><weight>1</weight></arrival><arrival><pickID>de.gempa.tb1.Pick/20250412174332.509188.125616</pickID><phase>P</phase><azimuth>319.34527587890625</azimuth><distance>1.4983798265457153</distance><timeResidual>-0.7920551300048828</timeResidual><timeUsed>true</timeUsed><horizontalSlownessUsed>false</horizontalSlownessUsed><backazimuthUsed>false</backazimuthUsed><weight>1</weight></arrival><arrival><pickID>de.gempa.tb1.Pick/20250412174333.591427.125619</pickID><phase>P</phase><azimuth>205.3954315185547</azimuth><distance>1.439608097076416</distance><timeResidual>-0.5836467742919922</timeResidual><timeUsed>true</timeUsed><horizontalSlownessUsed>false</horizontalSlownessUsed><backazimuthUsed>false</backazimuthUsed><weight>1</weight></arrival><arrival><pickID>de.gempa.tb1.Pick/20250412174334.617268.125622</pickID><phase>S</phase><azimuth>354.1099853515625</azimuth><distance>0.601816713809967</distance><timeResidual>0.4257678985595703</timeResidual><timeUsed>true</timeUsed><horizontalSlownessUsed>false</horizontalSlownessUsed><backazimuthUsed>false</backazimuthUsed><weight>1</weight></arrival><arrival><pickID>de.gempa.tb1.Pick/20250412174335.780418.125623</pickID><phase>S</phase><azimuth>231.2796936035156</azimuth><distance>0.478579193353653</distance><timeResidual>-0.27156829833984375</timeResidual><timeUsed>true</timeUsed><horizontalSlownessUsed>false</horizontalSlownessUsed><backazimuthUsed>false</backazimuthUsed><weight>1</weight></arrival><arrival><pickID>de.gempa.tb1.Pick/20250412174336.568928.125624</pickID><phase>P</phase><azimuth>187.7865447998047</azimuth><distance>1.0581663846969604</distance><timeResidual>-0.21019554138183594</timeResidual><timeUsed>true</timeUsed><horizontalSlownessUsed>false</horizontalSlownessUsed><backazimuthUsed>false</backazimuthUsed><weight>1</weight></arrival><arrival><pickID>de.gempa.tb1.Pick/20250412174339.556934.125626</pickID><phase>P</phase><azimuth>192.8906707763672</azimuth><distance>2.0046110153198242</distance><timeResidual>0.37676239013671875</timeResidual><timeUsed>true</timeUsed><horizontalSlownessUsed>false</horizontalSlownessUsed><backazimuthUsed>false</backazimuthUsed><weight>1</weight></arrival><arrival><pickID>de.gempa.tb1.Pick/20250412174342.619047.125628</pickID><phase>S</phase><azimuth>232.6162872314453</azimuth><distance>0.9485587477684021</distance><timeResidual>0.33551788330078125</timeResidual><timeUsed>true</timeUsed><horizontalSlownessUsed>false</horizontalSlownessUsed><backazimuthUsed>false</backazimuthUsed><weight>1</weight></arrival><arrival><pickID>de.gempa.tb1.Pick/20250412174345.412153.125629</pickID><phase>S</phase><azimuth>265.36676025390625</azimuth><distance>0.9997479319572449</distance><timeResidual>0.5652389526367188</timeResidual><timeUsed>true</timeUsed><horizontalSlownessUsed>false</horizontalSlownessUsed><backazimuthUsed>false</backazimuthUsed><weight>1</weight></arrival><arrival><pickID>de.gempa.tb1.Pick/20250412174349.600822.125631</pickID><phase>P</phase><azimuth>350.5390625</azimuth><distance>2.4277124404907227</distance><timeResidual>1.38922119140625</timeResidual><timeUsed>true</timeUsed><horizontalSlownessUsed>false</horizontalSlownessUsed><backazimuthUsed>false</backazimuthUsed><weight>1</weight></arrival><arrival><pickID>de.gempa.tb1.Pick/20250412174353.56961.125634</pickID><phase>S</phase><azimuth>205.3954315185547</azimuth><distance>1.439608097076416</distance><timeResidual>0.19779205322265625</timeResidual><timeUsed>true</timeUsed><horizontalSlownessUsed>false</horizontalSlownessUsed><backazimuthUsed>false</backazimuthUsed><weight>1</weight></arrival><arrival><pickID>de.gempa.tb1.Pick/20250412174353.770684.125635</pickID><phase>S</phase><azimuth>319.34527587890625</azimuth><distance>1.4983798265457153</distance><timeResidual>-0.2105541229248047</timeResidual><timeUsed>true</timeUsed><horizontalSlownessUsed>false</horizontalSlownessUsed><backazimuthUsed>false</backazimuthUsed><weight>1</weight></arrival><arrival><pickID>de.gempa.tb1.Pick/20250412174407.778285.125644</pickID><phase>S</phase><azimuth>217.126220703125</azimuth><distance>1.230164647102356</distance><timeResidual>0.32585716247558594</timeResidual><timeUsed>true</timeUsed><horizontalSlownessUsed>false</horizontalSlownessUsed><backazimuthUsed>false</backazimuthUsed><weight>1</weight></arrival><arrival><pickID>de.gempa.tb1.Pick/20250412174410.616335.125647</pickID><phase>S</phase><azimuth>192.8906707763672</azimuth><distance>2.0046110153198242</distance><timeResidual>0.7343482971191406</timeResidual><timeUsed>true</timeUsed><horizontalSlownessUsed>false</horizontalSlownessUsed><backazimuthUsed>false</backazimuthUsed><weight>1</weight></arrival><magnitude publicID="de.gempa.tb1.Magnitude/20250412174455.848242.259330"><magnitude><value>2.3977438190304885</value></magnitude><type>M</type><methodID>weighted average</methodID><stationCount>4</stationCount>