<?xml version="1.0" encoding="UTF-8"?>
<seiscomp xmlns="http://geofon.gfz-potsdam.de/ns/seiscomp3-schema/0.13" version="0.13"><EventParameters><pick publicID="de.gempa.tb1.Pick/20250412042150.572379.121922"><time><value>2025-04-12T04:21:44.818393Z</value></time><waveformID networkCode="CX" stationCode="PB01" channelCode="HHZ"/><filterID>ITAPER(4)&gt;&gt;BW(4,4,20)</filterID><methodID>AIC</methodID><horizontalSlowness><value>17.49512207157876</value></horizontalSlowness><backazimuth><value>175.3923422429066</value></backazimuth><phaseHint>P</phaseHint><evaluationMode>automatic</evaluationMode><comment><text>23.104621518859425</text><id>DFX:rectilinearity</id></comment><comment><text>52.23083430763136</text><id>SNR</id></comment></pick><pick publicID="de.gempa.tb1.Pick/20250412042153.685908.121924"><time><value>2025-04-12T04:21:48.378394Z</value></time><waveformID networkCode="CX" stationCode="PB02" channelCode="HHZ"/><filterID>ITAPER(4)&gt;&gt;BW(4,4,20)</filterID><methodID>AIC</methodID><horizontalSlowness><value>19.27351263833259</value></horizontalSlowness><backazimuth><value>71.72173672704922</value></backazimuth><phaseHint>P</phaseHint><evaluationMode>automatic</evaluationMode><comment><text>56.11277179885135</text><id>DFX:rectilinearity</id></comment><comment><text>44.91446869482177</text><id>SNR</id></comment></pick><pick publicID="de.gempa.tb1.Pick/20250412042155.788071.121926"><time><value>2025-04-12T04:21:49.788394Z</value></time><waveformID networkCode="CX" stationCode="PB07" channelCode="HHZ"/><filterID>ITAPER(4)&gt;&gt;BW(4,4,20)</filterID><methodID>AIC</methodID><horizontalSlowness><value>20.067743474235844</value></horizontalSlowness><backazimuth><value>97.21471684375535</value></backazimuth><phaseHint>P</phaseHint><evaluationMode>automatic</evaluationMode><comment><text>200.34899269298242</text><id>DFX:rectilinearity</id></comment><comment><text>53.91550695342831</text><id>SNR</id></comment></pick><pick publicID="de.gempa.tb1.Pick/20250412042156.578081.121928"><time><value>2025-04-12T04:21:51.018393Z</value></time><waveformID networkCode="CX" stationCode="PB03" channelCode="HHZ"/><filterID>ITAPER(4)&gt;&gt;BW(4,4,20)</filterID><methodID>AIC</methodID><horizontalSlowness><value>17.179060475674095</value></horizontalSlowness><backazimuth><value>75.15217393826585</value></backazimuth><phaseHint>P</phaseHint><evaluationMode>automatic</evaluationMode><comment><text>6.539373192472703</text><id>DFX:rectilinearity</id></comment><comment><text>38.505460444337515</text><id>SNR</id></comment></pick><pick publicID="de.gempa.tb1.Pick/20250412042157.293066.121930"><time><value>2025-04-12T04:21:51.500001Z</value></time><waveformID networkCode="CX" stationCode="PATCX" channelCode="HHZ"/><filterID>ITAPER(4)&gt;&gt;BW(4,4,20)</filterID><methodID>AIC</methodID><horizontalSlowness><value>17.938822989255193</value></horizontalSlowness><backazimuth><value>306.0603714613786</value></backazimuth><phaseHint>P</phaseHint><evaluationMode>automatic</evaluationMode><comment><text>129.16888301116941</text><id>DFX:rectilinearity</id></comment><comment><text>10.406604762431654</text><id>SNR</id></comment></pick><pick publicID="de.gempa.tb1.Pick/20250412042159.108362.121932"><time><value>2025-04-12T04:21:46.930001Z</value></time><waveformID networkCode="CX" stationCode="PB09" channelCode="HHZ"/><filterID>ITAPER(4)&gt;&gt;BW(4,4,20)</filterID><methodID>AIC</methodID><horizontalSlowness><value>12.866861528012844</value></horizontalSlowness><backazimuth><value>55.61070152766469</value></backazimuth><phaseHint>P</phaseHint><evaluationMode>automatic</evaluationMode><comment><text>14.175801547830867</text><id>DFX:rectilinearity</id></comment><comment><text>66.6031569055811</text><id>SNR</id></comment></pick><pick publicID="de.gempa.tb1.Pick/20250412042203.502803.121934"><time><value>2025-04-12T04:21:56.918393Z</value></time><waveformID networkCode="CX" stationCode="PB06" channelCode="HHZ"/><filterID>ITAPER(4)&gt;&gt;BW(4,4,20)</filterID><methodID>AIC</methodID><horizontalSlowness><value>6.521212774062321</value></horizontalSlowness><backazimuth><value>308.64912754903486</value></backazimuth><phaseHint>P</phaseHint><evaluationMode>automatic</evaluationMode><comment><text>73.02231127822576</text><id>DFX:rectilinearity</id></comment><comment><text>7.731582929544641</text><id>SNR</id></comment></pick><pick publicID="de.gempa.tb1.Pick/20250412042205.566064.121936"><time><value>2025-04-12T04:21:58.198393Z</value></time><waveformID networkCode="CX" stationCode="PB01" channelCode="HHN"/><filterID>ITAPER(2)&gt;&gt;BW(3,3,20)</filterID><methodID>L2-AIC-GRID</methodID><horizontalSlowness><value>21.942974621079312</value></horizontalSlowness><backazimuth><value>8.384080528678027</value></backazimuth><phaseHint>S</phaseHint><evaluationMode>automatic</evaluationMode><comment><text>1740.264966465909</text><id>DFX:rectilinearity</id></comment><comment><text>de.gempa.tb1.Pick/20250412042150.572379.121922</text><id>RefPickID</id></comment><comment><text>13.10571423842583</text><id>SNR</id></comment></pick><pick publicID="de.gempa.tb1.Pick/20250412042213.681649.121939"><time><value>2025-04-12T04:22:04.318394Z</value></time><waveformID networkCode="CX" stationCode="PB02" channelCode="HHN"/><filterID>ITAPER(2)&gt;&gt;BW(3,3,20)</filterID><methodID>L2-AIC-GRID</methodID><horizontalSlowness><value>22.768194883516845</value></horizontalSlowness><backazimuth><value>60.87145756022413</value></backazimuth><phaseHint>S</phaseHint><evaluationMode>automatic</evaluationMode><comment><text>578.449375509482</text><id>DFX:rectilinearity</id></comment><comment><text>de.gempa.tb1.Pick/20250412042153.685908.121924</text><id>RefPickID</id></comment><comment><text>5.081170691688722</text><id>SNR</id></comment></pick><pick publicID="de.gempa.tb1.Pick/20250412042214.772252.121940"><time><value>2025-04-12T04:22:07.138394Z</value></time><waveformID networkCode="CX" stationCode="PB07" channelCode="HHN"/><filterID>ITAPER(2)&gt;&gt;BW(3,3,20)</filterID><methodID>L2-AIC-GRID</methodID><horizontalSlowness><value>22.627645509097675</value></horizontalSlowness><backazimuth><value>264.1607769400055</value></backazimuth><phaseHint>S</phaseHint><evaluationMode>automatic</evaluationMode><comment><text>1003.65771311346</text><id>DFX:rectilinearity</id></comment><comment><text>de.gempa.tb1.Pick/20250412042155.788071.121926</text><id>RefPickID</id></comment><comment><text>6.211303020666343</text><id>SNR</id></comment></pick><pick publicID="de.gempa.tb1.Pick/20250412042217.310996.121941"><time><value>2025-04-12T04:22:09.140001Z</value></time><waveformID networkCode="CX" stationCode="PATCX" channelCode="HHN"/><filterID>ITAPER(2)&gt;&gt;BW(3,3,20)</filterID><methodID>L2-AIC-GRID</methodID><horizontalSlowness><value>22.80349925540038</value></horizontalSlowness><backazimuth><value>80.24640093680327</value></backazimuth><phaseHint>S</phaseHint><evaluationMode>automatic</evaluationMode><comment><text>448.0804320083643</text><id>DFX:rectilinearity</id></comment><comment><text>de.gempa.tb1.Pick/20250412042157.293066.121930</text><id>RefPickID</id></comment><comment><text>6.461989229046265</text><id>SNR</id></comment></pick><pick publicID="de.gempa.tb1.Pick/20250412042219.573173.121943"><time><value>2025-04-12T04:22:08.718393Z</value></time><waveformID networkCode="CX" stationCode="PB03" channelCode="HHN"/><filterID>ITAPER(2)&gt;&gt;BW(3,3,20)</filterID><methodID>L2-AIC-GRID</methodID><horizontalSlowness><value>17.413730058672428</value></horizontalSlowness><backazimuth><value>283.73457134483044</value></backazimuth><phaseHint>S</phaseHint><evaluationMode>automatic</evaluationMode><comment><text>19.090070644199027</text><id>DFX:rectilinearity</id></comment><comment><text>de.gempa.tb1.Pick/20250412042156.578081.121928</text><id>RefPickID</id></comment><comment><text>8.96768727551566</text><id>SNR</id></comment></pick><pick publicID="de.gempa.tb1.Pick/20250412042227.646183.121946"><time><value>2025-04-12T04:22:19.478393Z</value></time><waveformID networkCode="CX" stationCode="PB06" channelCode="HHN"/><filterID>ITAPER(2)&gt;&gt;BW(3,3,20)</filterID><methodID>L2-AIC-GRID</methodID><horizontalSlowness><value>11.839060012624543</value></horizontalSlowness><backazimuth><value>285.1719056443759</value></backazimuth><phaseHint>S</phaseHint><evaluationMode>automatic</evaluationMode><comment><text>59.04906706924515</text><id>DFX:rectilinearity</id></comment><comment><text>de.gempa.tb1.Pick/20250412042203.502803.121934</text><id>RefPickID</id></comment><comment><text>13.045488859195112</text><id>SNR</id></comment></pick><origin publicID="de.gempa.tb1.Origin/20250412042227.652503.74207"><time><value>2025-04-12T04:21:28.03882Z</value><uncertainty>0.9775629043579102</uncertainty></time><latitude><value>-21.139266967773438</value><uncertainty>4.397909641265869</uncertainty></latitude><longitude><value>-68.93199920654297</value><uncertainty>9.077508926391602</uncertainty></longitude><depth><value>110.01692962646484</value><uncertainty>9.817769050598145</uncertainty></depth><depthType>from location</depthType><methodID>LOCSAT</methodID><earthModelID>iasp91_scanloc</earthModelID><quality><associatedPhaseCount>13</associatedPhaseCount><usedPhaseCount>13</usedPhaseCount><associatedStationCount>7</associatedStationCount><usedStationCount>7</usedStationCount><depthPhaseCount>0</depthPhaseCount><standardError>0.2323285803910577</standardError><azimuthalGap>275.43695068359375</azimuthalGap><maximumDistance>1.6683239936828613</maximumDistance><minimumDistance>0.5273680090904236</minimumDistance><medianDistance>1.0639243125915527</medianDistance></quality><uncertainty><minHorizontalUncertainty>9.037886619567871</minHorizontalUncertainty><maxHorizontalUncertainty>19.64577865600586</maxHorizontalUncertainty><azimuthMaxHorizontalUncertainty>81.14105224609375</azimuthMaxHorizontalUncertainty><preferredDescription>horizontal uncertainty</preferredDescription></uncertainty><evaluationMode>automatic</evaluationMode><evaluationStatus>confirmed</evaluationStatus><comment><text>0.05</text><id>mismatchScore</id></comment><comment><text>mismatchScore</text><id>scevalMethod</id></comment><arrival><pickID>de.gempa.tb1.Pick/20250412042150.572379.121922</pickID><phase>P</phase><azimuth>280.3402404785156</azimuth><distance>0.5273680090904236</distance><timeResidual>-0.27986717224121094</timeResidual><timeUsed>true</timeUsed><horizontalSlownessUsed>false</horizontalSlownessUsed><backazimuthUsed>false</backazimuthUsed><weight>1</weight></arrival><arrival><pickID>de.gempa.tb1.Pick/20250412042153.685908.121924</pickID><phase>P</phase><azimuth>258.5357360839844</azimuth><distance>0.917142391204834</distance><timeResidual>-0.05405998229980469</timeResidual><timeUsed>true</timeUsed><horizontalSlownessUsed>false</horizontalSlownessUsed><backazimuthUsed>false</backazimuthUsed><weight>1</weight></arrival><arrival><pickID>de.gempa.tb1.Pick/20250412042155.788071.121926</pickID><phase>P</phase><azimuth>236.5022888183594</azimuth><distance>1.0639243125915527</distance><timeResidual>-0.1469554901123047</timeResidual><timeUsed>true</timeUsed><horizontalSlownessUsed>false</horizontalSlownessUsed><backazimuthUsed>false</backazimuthUsed><weight>1</weight></arrival><arrival><pickID>de.gempa.tb1.Pick/20250412042156.578081.121928</pickID><phase>P</phase><azimuth>220.03529357910156</azimuth><distance>1.1842710971832275</distance><timeResidual>-0.21910667419433594</timeResidual><timeUsed>true</timeUsed><horizontalSlownessUsed>false</horizontalSlownessUsed><backazimuthUsed>false</backazimuthUsed><weight>1</weight></arrival><arrival><pickID>de.gempa.tb1.Pick/20250412042157.293066.121930</pickID><phase>P</phase><azimuth>285.3083801269531</azimuth><distance>1.184123992919922</distance><timeResidual>0.25787353515625</timeResidual><timeUsed>true</timeUsed><horizontalSlownessUsed>false</horizontalSlownessUsed><backazimuthUsed>false</backazimuthUsed><weight>1</weight></arrival><arrival><pickID>de.gempa.tb1.Pick/20250412042159.108362.121932</pickID><phase>P</phase><azimuth>203.7644500732422</azimuth><distance>0.7147692441940308</distance><timeResidual>0.37512779235839844</timeResidual><timeUsed>true</timeUsed><horizontalSlownessUsed>false</horizontalSlownessUsed><backazimuthUsed>false</backazimuthUsed><weight>1</weight></arrival><arrival><pickID>de.gempa.tb1.Pick/20250412042203.502803.121934</pickID><phase>P</phase><azimuth>200.74533081054688</azimuth><distance>1.6683239936828613</distance><timeResidual>0.010053634643554688</timeResidual><timeUsed>true</timeUsed><horizontalSlownessUsed>false</horizontalSlownessUsed><backazimuthUsed>false</backazimuthUsed><weight>1</weight></arrival><arrival><pickID>de.gempa.tb1.Pick/20250412042205.566064.121936</pickID><phase>S</phase><azimuth>280.3402404785156</azimuth><distance>0.5273680090904236</distance><timeResidual>-0.03305625915527344</timeResidual><timeUsed>true</timeUsed><horizontalSlownessUsed>false</horizontalSlownessUsed><backazimuthUsed>false</backazimuthUsed><weight>1</weight></arrival><arrival><pickID>de.gempa.tb1.Pick/20250412042213.681649.121939</pickID><phase>S</phase><azimuth>258.5357360839844</azimuth><distance>0.917142391204834</distance><timeResidual>0.14707374572753906</timeResidual><timeUsed>true</timeUsed><horizontalSlownessUsed>false</horizontalSlownessUsed><backazimuthUsed>false</backazimuthUsed><weight>1</weight></arrival><arrival><pickID>de.gempa.tb1.Pick/20250412042214.772252.121940</pickID><phase>S</phase><azimuth>236.5022888183594</azimuth><distance>1.0639243125915527</distance><timeResidual>0.2853889465332031</timeResidual><timeUsed>true</timeUsed><horizontalSlownessUsed>false</horizontalSlownessUsed><backazimuthUsed>false</backazimuthUsed><weight>1</weight></arrival><arrival><pickID>de.gempa.tb1.Pick/20250412042217.310996.121941</pickID><phase>S</phase><azimuth>285.3083801269531</azimuth><distance>1.184123992919922</distance><timeResidual>-0.0448150634765625</timeResidual><timeUsed>true</timeUsed><horizontalSlownessUsed>false</horizontalSlownessUsed><backazimuthUsed>false</backazimuthUsed><weight>1</weight></arrival><arrival><pickID>de.gempa.tb1.Pick/20250412042219.573173.121943</pickID><phase>S</phase><azimuth>220.03529357910156</azimuth><distance>1.1842710971832275</distance><timeResidual>-0.4594764709472656</timeResidual><timeUsed>true</timeUsed><horizontalSlownessUsed>false</horizontalSlownessUsed><backazimuthUsed>false</backazimuthUsed><weight>1</weight></arrival><arrival><pickID>de.gempa.tb1.Pick/20250412042227.646183.121946</pickID><phase>S</phase><azimuth>200.74533081054688</azimuth><distance>1.6683239936828613</distance><timeResidual>0.1619434356689453</timeResidual><timeUsed>true</timeUsed><horizontalSlownessUsed>false</horizontalSlownessUsed><backazimuthUsed>false</backazimuthUsed><weight>1</weight></arrival><magnitude publicID="de.gempa.tb1.Magnitude/20250412042235.939531.175677"><magnitude><value>2.5936343036976797</value></magnitude><type>M</type><methodID>weighted average</methodID><stationCount>7</stationCount></magnitude></origin><event publicID="gempa2025hewy"><preferredOriginID>de.gempa.tb1.Origin/20250412042227.652503.74207</preferredOriginID><preferredMagnitudeID>de.gempa.tb1.Magnitude/20250412042235.939531.175677</preferredMagnitudeID><description><text>Chile-Bolivia Border Region</text><type>region name</type></description><originReference>de.gempa.tb1.Origin/20250412042227.652503.74207</originReference></event></EventParameters></seiscomp>