<?xml version="1.0" encoding="UTF-8"?>
<seiscomp xmlns="http://geofon.gfz-potsdam.de/ns/seiscomp3-schema/0.13" version="0.13"><EventParameters><pick publicID="de.gempa.tb1.Pick/20250414181921.62723.140113"><time><value>2025-04-14T18:19:17.04Z</value></time><waveformID networkCode="CX" stationCode="PB09" channelCode="HHZ"/><filterID>ITAPER(4)&gt;&gt;BW(4,4,20)</filterID><methodID>AIC</methodID><horizontalSlowness><value>15.0995315155749</value></horizontalSlowness><backazimuth><value>75.89655911858218</value></backazimuth><phaseHint>P</phaseHint><evaluationMode>automatic</evaluationMode><comment><text>380.88100322135597</text><id>DFX:rectilinearity</id></comment><comment><text>61.45555751190999</text><id>SNR</id></comment></pick><pick publicID="de.gempa.tb1.Pick/20250414181923.818954.140115"><time><value>2025-04-14T18:19:18.868393Z</value></time><waveformID networkCode="CX" stationCode="PB01" channelCode="HHZ"/><filterID>ITAPER(4)&gt;&gt;BW(4,4,20)</filterID><methodID>AIC</methodID><horizontalSlowness><value>8.022213399955072</value></horizontalSlowness><backazimuth><value>109.92427472717085</value></backazimuth><phaseHint>P</phaseHint><evaluationMode>automatic</evaluationMode><comment><text>120.73691238779475</text><id>DFX:rectilinearity</id></comment><comment><text>186.38990820320842</text><id>SNR</id></comment></pick><pick publicID="de.gempa.tb1.Pick/20250414181927.536193.140117"><time><value>2025-04-14T18:19:21.628393Z</value></time><waveformID networkCode="CX" stationCode="PB02" channelCode="HHZ"/><filterID>ITAPER(4)&gt;&gt;BW(4,4,20)</filterID><methodID>AIC</methodID><horizontalSlowness><value>7.769371356082466</value></horizontalSlowness><backazimuth><value>85.87799368854581</value></backazimuth><phaseHint>P</phaseHint><evaluationMode>automatic</evaluationMode><comment><text>209.6464320563677</text><id>DFX:rectilinearity</id></comment><comment><text>175.32038423534414</text><id>SNR</id></comment></pick><pick publicID="de.gempa.tb1.Pick/20250414181927.590809.140119"><time><value>2025-04-14T18:19:21.658393Z</value></time><waveformID networkCode="CX" stationCode="PB03" channelCode="HHZ"/><filterID>ITAPER(4)&gt;&gt;BW(4,4,20)</filterID><methodID>AIC</methodID><horizontalSlowness><value>7.09960884377907</value></horizontalSlowness><backazimuth><value>61.9701269847403</value></backazimuth><phaseHint>P</phaseHint><evaluationMode>automatic</evaluationMode><comment><text>24.079554876385757</text><id>DFX:rectilinearity</id></comment><comment><text>35.20651261102646</text><id>SNR</id></comment></pick><pick publicID="de.gempa.tb1.Pick/20250414181929.701625.140121"><time><value>2025-04-14T18:19:25.278393Z</value></time><waveformID networkCode="CX" stationCode="PB08" channelCode="HHZ"/><filterID>ITAPER(4)&gt;&gt;BW(4,4,20)</filterID><methodID>AIC</methodID><horizontalSlowness><value>14.731536955000752</value></horizontalSlowness><backazimuth><value>91.15001328385354</value></backazimuth><phaseHint>P</phaseHint><evaluationMode>automatic</evaluationMode><comment><text>11.380353183098645</text><id>DFX:rectilinearity</id></comment><comment><text>10.447761674380372</text><id>SNR</id></comment></pick><pick publicID="de.gempa.tb1.Pick/20250414181931.409168.140123"><time><value>2025-04-14T18:19:26.230001Z</value></time><waveformID networkCode="CX" stationCode="PATCX" channelCode="HHZ"/><filterID>ITAPER(4)&gt;&gt;BW(4,4,20)</filterID><methodID>AIC</methodID><horizontalSlowness><value>7.448530077583432</value></horizontalSlowness><backazimuth><value>154.42632963351116</value></backazimuth><phaseHint>P</phaseHint><evaluationMode>automatic</evaluationMode><comment><text>305.5842920792269</text><id>DFX:rectilinearity</id></comment><comment><text>54.97190003907505</text><id>SNR</id></comment></pick><pick publicID="de.gempa.tb1.Pick/20250414181932.579792.140125"><time><value>2025-04-14T18:19:25.098393Z</value></time><waveformID networkCode="CX" stationCode="PB06" channelCode="HHZ"/><filterID>ITAPER(4)&gt;&gt;BW(4,4,20)</filterID><methodID>AIC</methodID><horizontalSlowness><value>15.28154046546119</value></horizontalSlowness><backazimuth><value>332.6322234016394</value></backazimuth><phaseHint>P</phaseHint><evaluationMode>automatic</evaluationMode><comment><text>24.053624143007244</text><id>DFX:rectilinearity</id></comment><comment><text>7.803205237905792</text><id>SNR</id></comment></pick><pick publicID="de.gempa.tb1.Pick/20250414181938.596497.140127"><time><value>2025-04-14T18:19:21.778393Z</value></time><waveformID networkCode="CX" stationCode="PB07" channelCode="HHZ"/><filterID>ITAPER(4)&gt;&gt;BW(4,4,20)</filterID><methodID>AIC</methodID><horizontalSlowness><value>14.304520166711992</value></horizontalSlowness><backazimuth><value>85.61786838824371</value></backazimuth><phaseHint>P</phaseHint><evaluationMode>automatic</evaluationMode><comment><text>638.1610102178379</text><id>DFX:rectilinearity</id></comment><comment><text>216.75068588285615</text><id>SNR</id></comment></pick><pick publicID="de.gempa.tb1.Pick/20250414181942.542494.140129"><time><value>2025-04-14T18:19:34.31Z</value></time><waveformID networkCode="CX" stationCode="PSGCX" channelCode="HHZ"/><filterID>ITAPER(4)&gt;&gt;BW(4,4,20)</filterID><methodID>AIC</methodID><horizontalSlowness><value>22.278288849800063</value></horizontalSlowness><backazimuth><value>327.2905498059764</value></backazimuth><phaseHint>P</phaseHint><evaluationMode>automatic</evaluationMode><comment><text>7.11419605815219</text><id>DFX:rectilinearity</id></comment><comment><text>43.30157484451474</text><id>SNR</id></comment></pick><pick publicID="de.gempa.tb1.Pick/20250414181947.070796.140131"><time><value>2025-04-14T18:19:39.998393Z</value></time><waveformID networkCode="CX" stationCode="PB03" channelCode="HHN"/><filterID>ITAPER(2)&gt;&gt;BW(3,3,20)</filterID><methodID>L2-AIC-GRID</methodID><horizontalSlowness><value>18.424924023898956</value></horizontalSlowness><backazimuth><value>316.17750299753834</value></backazimuth><phaseHint>S</phaseHint><evaluationMode>automatic</evaluationMode><comment><text>160.525972408127</text><id>DFX:rectilinearity</id></comment><comment><text>de.gempa.tb1.Pick/20250414181927.590809.140119</text><id>RefPickID</id></comment><comment><text>14.448843785229267</text><id>SNR</id></comment></pick><pick publicID="de.gempa.tb1.Pick/20250414181952.553646.140134"><time><value>2025-04-14T18:19:40.538393Z</value></time><waveformID networkCode="CX" stationCode="PB07" channelCode="HHN"/><filterID>ITAPER(2)&gt;&gt;BW(3,3,20)</filterID><methodID>L2-AIC-GRID</methodID><horizontalSlowness><value>22.351455346483622</value></horizontalSlowness><backazimuth><value>261.4921950481962</value></backazimuth><phaseHint>S</phaseHint><evaluationMode>automatic</evaluationMode><comment><text>8221.086993561343</text><id>DFX:rectilinearity</id></comment><comment><text>de.gempa.tb1.Pick/20250414181938.596497.140127</text><id>RefPickID</id></comment><comment><text>8.46616115527446</text><id>SNR</id></comment></pick><pick publicID="de.gempa.tb1.Pick/20250414181952.695259.140136"><time><value>2025-04-14T18:19:46.648393Z</value></time><waveformID networkCode="CX" stationCode="PB08" channelCode="HHN"/><filterID>ITAPER(2)&gt;&gt;BW(3,3,20)</filterID><methodID>L2-AIC-GRID</methodID><horizontalSlowness><value>16.225582301410142</value></horizontalSlowness><backazimuth><value>213.36429373980133</value></backazimuth><phaseHint>S</phaseHint><evaluationMode>automatic</evaluationMode><comment><text>42.569892502355337</text><id>DFX:rectilinearity</id></comment><comment><text>de.gempa.tb1.Pick/20250414181929.701625.140121</text><id>RefPickID</id></comment><comment><text>5.132604735054682</text><id>SNR</id></comment></pick><pick publicID="de.gempa.tb1.Pick/20250414181953.652547.140137"><time><value>2025-04-14T18:19:46.238393Z</value></time><waveformID networkCode="CX" stationCode="PB06" channelCode="HHN"/><filterID>ITAPER(2)&gt;&gt;BW(3,3,20)</filterID><methodID>L2-AIC-GRID</methodID><horizontalSlowness><value>21.41672807126536</value></horizontalSlowness><backazimuth><value>308.2926650531354</value></backazimuth><phaseHint>S</phaseHint><evaluationMode>automatic</evaluationMode><comment><text>121.87671520172643</text><id>DFX:rectilinearity</id></comment><comment><text>de.gempa.tb1.Pick/20250414181932.579792.140125</text><id>RefPickID</id></comment><comment><text>14.358647163138105</text><id>SNR</id></comment></pick><origin publicID="de.gempa.tb1.Origin/20250414181953.660242.146939"><time><value>2025-04-14T18:18:57.185163Z</value><uncertainty>0.9830450415611267</uncertainty></time><latitude><value>-21.512331008911133</value><uncertainty>3.8282103538513184</uncertainty></latitude><longitude><value>-68.74774169921875</value><uncertainty>11.254764556884766</uncertainty></longitude><depth><value>137.22039794921875</value><uncertainty>10.583864212036133</uncertainty></depth><depthType>from location</depthType><methodID>LOCSAT</methodID><earthModelID>iasp91_scanloc</earthModelID><quality><associatedPhaseCount>13</associatedPhaseCount><usedPhaseCount>13</usedPhaseCount><associatedStationCount>9</associatedStationCount><usedStationCount>9</usedStationCount><depthPhaseCount>0</depthPhaseCount><standardError>0.3945471805064042</standardError><azimuthalGap>228.2218017578125</azimuthalGap><maximumDistance>2.3003571033477783</maximumDistance><minimumDistance>0.5396658182144165</minimumDistance><medianDistance>1.0869781970977783</medianDistance></quality><uncertainty><minHorizontalUncertainty>7.539938449859619</minHorizontalUncertainty><maxHorizontalUncertainty>24.34761619567871</maxHorizontalUncertainty><azimuthMaxHorizontalUncertainty>98.05290222167969</azimuthMaxHorizontalUncertainty><preferredDescription>horizontal uncertainty</preferredDescription></uncertainty><evaluationMode>automatic</evaluationMode><evaluationStatus>confirmed</evaluationStatus><comment><text>0.06</text><id>mismatchScore</id></comment><comment><text>mismatchScore</text><id>scevalMethod</id></comment><arrival><pickID>de.gempa.tb1.Pick/20250414181921.62723.140113</pickID><phase>P</phase><azimuth>238.3241882324219</azimuth><distance>0.5396658182144165</distance><timeResidual>-0.2583961486816406</timeResidual><timeUsed>true</timeUsed><horizontalSlownessUsed>false</horizontalSlownessUsed><backazimuthUsed>false</backazimuthUsed><weight>1</weight></arrival><arrival><pickID>de.gempa.tb1.Pick/20250414181923.818954.140115</pickID><phase>P</phase><azimuth>303.9504089355469</azimuth><distance>0.8329220414161682</distance><timeResidual>-0.4794673919677734</timeResidual><timeUsed>true</timeUsed><horizontalSlownessUsed>false</horizontalSlownessUsed><backazimuthUsed>false</backazimuthUsed><weight>1</weight></arrival><arrival><pickID>de.gempa.tb1.Pick/20250414181927.536193.140117</pickID><phase>P</phase><azimuth>279.94647216796875</azimuth><distance>1.0869781970977783</distance><timeResidual>0.05349540710449219</timeResidual><timeUsed>true</timeUsed><horizontalSlownessUsed>false</horizontalSlownessUsed><backazimuthUsed>false</backazimuthUsed><weight>1</weight></arrival><arrival><pickID>de.gempa.tb1.Pick/20250414181927.590809.140119</pickID><phase>P</phase><azimuth>240.0906982421875</azimuth><distance>1.0760246515274048</distance><timeResidual>0.19123458862304688</timeResidual><timeUsed>true</timeUsed><horizontalSlownessUsed>false</horizontalSlownessUsed><backazimuthUsed>false</backazimuthUsed><weight>1</weight></arrival><arrival><pickID>de.gempa.tb1.Pick/20250414181929.701625.140121</pickID><phase>P</phase><azimuth>344.3847351074219</azimuth><distance>1.4161181449890137</distance><timeResidual>0.36512184143066406</timeResidual><timeUsed>true</timeUsed><horizontalSlownessUsed>false</horizontalSlownessUsed><backazimuthUsed>false</backazimuthUsed><weight>1</weight></arrival><arrival><pickID>de.gempa.tb1.Pick/20250414181931.409168.140123</pickID><phase>P</phase><azimuth>297.4343566894531</azimuth><distance>1.481061339378357</distance><timeResidual>0.6196727752685547</timeResidual><timeUsed>true</timeUsed><horizontalSlownessUsed>false</horizontalSlownessUsed><backazimuthUsed>false</backazimuthUsed><weight>1</weight></arrival><arrival><pickID>de.gempa.tb1.Pick/20250414181932.579792.140125</pickID><phase>P</phase><azimuth>212.60653686523438</azimuth><distance>1.4123547077178955</distance><timeResidual>0.24198341369628906</timeResidual><timeUsed>true</timeUsed><horizontalSlownessUsed>false</horizontalSlownessUsed><backazimuthUsed>false</backazimuthUsed><weight>1</weight></arrival><arrival><pickID>de.gempa.tb1.Pick/20250414181938.596497.140127</pickID><phase>P</phase><azimuth>258.40765380859375</azimuth><distance>1.0805639028549194</distance><timeResidual>0.2665271759033203</timeResidual><timeUsed>true</timeUsed><horizontalSlownessUsed>false</horizontalSlownessUsed><backazimuthUsed>false</backazimuthUsed><weight>1</weight></arrival><arrival><pickID>de.gempa.tb1.Pick/20250414181942.542494.140129</pickID><phase>P</phase><azimuth>325.68414306640625</azimuth><distance>2.3003571033477783</distance><timeResidual>-0.9340496063232422</timeResidual><timeUsed>true</timeUsed><horizontalSlownessUsed>false</horizontalSlownessUsed><backazimuthUsed>false</backazimuthUsed><weight>1</weight></arrival><arrival><pickID>de.gempa.tb1.Pick/20250414181947.070796.140131</pickID><phase>S</phase><azimuth>240.0906982421875</azimuth><distance>1.0760246515274048</distance><timeResidual>-0.30325889587402344</timeResidual><timeUsed>true</timeUsed><horizontalSlownessUsed>false</horizontalSlownessUsed><backazimuthUsed>false</backazimuthUsed><weight>1</weight></arrival><arrival><pickID>de.gempa.tb1.Pick/20250414181952.553646.140134</pickID><phase>S</phase><azimuth>258.40765380859375</azimuth><distance>1.0805639028549194</distance><timeResidual>0.15698814392089844</timeResidual><timeUsed>true</timeUsed><horizontalSlownessUsed>false</horizontalSlownessUsed><backazimuthUsed>false</backazimuthUsed><weight>1</weight></arrival><arrival><pickID>de.gempa.tb1.Pick/20250414181952.695259.140136</pickID><phase>S</phase><azimuth>344.3847351074219</azimuth><distance>1.4161181449890137</distance><timeResidual>0.19557952880859375</timeResidual><timeUsed>true</timeUsed><horizontalSlownessUsed>false</horizontalSlownessUsed><backazimuthUsed>false</backazimuthUsed><weight>1</weight></arrival><arrival><pickID>de.gempa.tb1.Pick/20250414181953.652547.140137</pickID><phase>S</phase><azimuth>212.60653686523438</azimuth><distance>1.4123547077178955</distance><timeResidual>-0.11565017700195312</timeResidual><timeUsed>true</timeUsed><horizontalSlownessUsed>false</horizontalSlownessUsed><backazimuthUsed>false</backazimuthUsed><weight>1</weight></arrival><magnitude publicID="de.gempa.tb1.Magnitude/20250414182000.938689.527040"><magnitude><value>2.30137551037009</value></magnitude><type>M</type><methodID>weighted average</methodID><stationCount>6</stationCount></magnitude></origin><event publicID="gempa2025hjqx"><preferredOriginID>de.gempa.tb1.Origin/20250414181953.660242.146939</preferredOriginID><preferredMagnitudeID>de.gempa.tb1.Magnitude/20250414182000.938689.527040</preferredMagnitudeID><description><text>Chile-Bolivia Border Region</text><type>region name</type></description><originReference>de.gempa.tb1.Origin/20250414181953.660242.146939</originReference></event></EventParameters></seiscomp>