<?xml version="1.0" encoding="UTF-8"?>
<seiscomp xmlns="http://geofon.gfz-potsdam.de/ns/seiscomp3-schema/0.13" version="0.13"><EventParameters><pick publicID="de.gempa.tb1.Pick/20250413235618.46716.134405"><time><value>2025-04-13T23:56:13.858393Z</value></time><waveformID networkCode="CX" stationCode="PB02" channelCode="HHZ"/><filterID>ITAPER(4)&gt;&gt;BW(4,4,20)</filterID><methodID>AIC</methodID><horizontalSlowness><value>9.892665530711254</value></horizontalSlowness><backazimuth><value>274.10229599704013</value></backazimuth><phaseHint>P</phaseHint><evaluationMode>automatic</evaluationMode><comment><text>37.742841551396985</text><id>DFX:rectilinearity</id></comment><comment><text>16.885757365029164</text><id>SNR</id></comment></pick><pick publicID="de.gempa.tb1.Pick/20250413235618.581723.134407"><time><value>2025-04-13T23:56:09.998393Z</value></time><waveformID networkCode="CX" stationCode="PB01" channelCode="HHZ"/><filterID>ITAPER(4)&gt;&gt;BW(4,4,20)</filterID><methodID>AIC</methodID><horizontalSlowness><value>14.361544416405975</value></horizontalSlowness><backazimuth><value>259.67940568868755</value></backazimuth><phaseHint>P</phaseHint><evaluationMode>automatic</evaluationMode><comment><text>4.842205401727505</text><id>DFX:rectilinearity</id></comment><comment><text>8.607409044230522</text><id>SNR</id></comment></pick><pick publicID="de.gempa.tb1.Pick/20250413235623.238975.134409"><time><value>2025-04-13T23:56:15.108391Z</value></time><waveformID networkCode="CX" stationCode="PB07" channelCode="HHZ"/><filterID>ITAPER(4)&gt;&gt;BW(4,4,20)</filterID><methodID>AIC</methodID><horizontalSlowness><value>21.707214247742836</value></horizontalSlowness><backazimuth><value>275.10866404264505</value></backazimuth><phaseHint>P</phaseHint><evaluationMode>automatic</evaluationMode><comment><text>159.70448828992227</text><id>DFX:rectilinearity</id></comment><comment><text>15.857553114231665</text><id>SNR</id></comment></pick><pick publicID="de.gempa.tb1.Pick/20250413235625.571738.134411"><time><value>2025-04-13T23:56:16.528393Z</value></time><waveformID networkCode="CX" stationCode="PB03" channelCode="HHZ"/><filterID>ITAPER(4)&gt;&gt;BW(4,4,20)</filterID><methodID>AIC</methodID><horizontalSlowness><value>5.73512107865583</value></horizontalSlowness><backazimuth><value>358.7520041687916</value></backazimuth><phaseHint>P</phaseHint><evaluationMode>automatic</evaluationMode><comment><text>5.476499385798244</text><id>DFX:rectilinearity</id></comment><comment><text>7.408831686716606</text><id>SNR</id></comment></pick><pick publicID="de.gempa.tb1.Pick/20250413235630.067102.134413"><time><value>2025-04-13T23:56:11.33Z</value></time><waveformID networkCode="CX" stationCode="PB09" channelCode="HHZ"/><filterID>ITAPER(4)&gt;&gt;BW(4,4,20)</filterID><methodID>AIC</methodID><horizontalSlowness><value>18.475626598868093</value></horizontalSlowness><backazimuth><value>269.4938295099663</value></backazimuth><phaseHint>P</phaseHint><evaluationMode>automatic</evaluationMode><comment><text>6.444671703830896</text><id>DFX:rectilinearity</id></comment><comment><text>14.879708311367757</text><id>SNR</id></comment></pick><pick publicID="de.gempa.tb1.Pick/20250413235632.749596.134415"><time><value>2025-04-13T23:56:24.528393Z</value></time><waveformID networkCode="CX" stationCode="PB01" channelCode="HHN"/><filterID>ITAPER(2)&gt;&gt;BW(3,3,20)</filterID><methodID>L2-AIC-GRID</methodID><horizontalSlowness><value>19.079783880548124</value></horizontalSlowness><backazimuth><value>305.16806582770045</value></backazimuth><phaseHint>S</phaseHint><evaluationMode>automatic</evaluationMode><comment><text>29.7633964636252</text><id>DFX:rectilinearity</id></comment><comment><text>de.gempa.tb1.Pick/20250413235618.581723.134407</text><id>RefPickID</id></comment><comment><text>11.153108827446154</text><id>SNR</id></comment></pick><pick publicID="de.gempa.tb1.Pick/20250413235641.891088.134418"><time><value>2025-04-13T23:56:31.418393Z</value></time><waveformID networkCode="CX" stationCode="PB02" channelCode="HHN"/><filterID>ITAPER(2)&gt;&gt;BW(3,3,20)</filterID><methodID>L2-AIC-GRID</methodID><horizontalSlowness><value>23.20403790340958</value></horizontalSlowness><backazimuth><value>62.1413870797855</value></backazimuth><phaseHint>S</phaseHint><evaluationMode>automatic</evaluationMode><comment><text>253.0350053991925</text><id>DFX:rectilinearity</id></comment><comment><text>de.gempa.tb1.Pick/20250413235618.46716.134405</text><id>RefPickID</id></comment><comment><text>9.99829012861974</text><id>SNR</id></comment></pick><pick publicID="de.gempa.tb1.Pick/20250413235642.708638.134419"><time><value>2025-04-13T23:56:35.218393Z</value></time><waveformID networkCode="CX" stationCode="PB03" channelCode="HHN"/><filterID>ITAPER(2)&gt;&gt;BW(3,3,20)</filterID><methodID>L2-AIC-GRID</methodID><horizontalSlowness><value>4.788988078842756</value></horizontalSlowness><backazimuth><value>16.51060477365482</value></backazimuth><phaseHint>S</phaseHint><evaluationMode>automatic</evaluationMode><comment><text>17.79759912589752</text><id>DFX:rectilinearity</id></comment><comment><text>de.gempa.tb1.Pick/20250413235625.571738.134411</text><id>RefPickID</id></comment><comment><text>12.585851908951946</text><id>SNR</id></comment></pick><pick publicID="de.gempa.tb1.Pick/20250413235644.516006.134420"><time><value>2025-04-13T23:56:27.59Z</value></time><waveformID networkCode="CX" stationCode="PB09" channelCode="HHN"/><filterID>ITAPER(2)&gt;&gt;BW(3,3,20)</filterID><methodID>L2-AIC-GRID</methodID><horizontalSlowness><value>6.260645625197822</value></horizontalSlowness><backazimuth><value>356.6116236219121</value></backazimuth><phaseHint>S</phaseHint><evaluationMode>automatic</evaluationMode><comment><text>58.43531587622292</text><id>DFX:rectilinearity</id></comment><comment><text>de.gempa.tb1.Pick/20250413235630.067102.134413</text><id>RefPickID</id></comment><comment><text>5.589306226269155</text><id>SNR</id></comment></pick><pick publicID="de.gempa.tb1.Pick/20250413235700.956221.134421"><time><value>2025-04-13T23:56:33.558391Z</value></time><waveformID networkCode="CX" stationCode="PB07" channelCode="HHN"/><filterID>ITAPER(2)&gt;&gt;BW(3,3,20)</filterID><methodID>L2-AIC-GRID</methodID><horizontalSlowness><value>22.66350515076971</value></horizontalSlowness><backazimuth><value>328.4036660218958</value></backazimuth><phaseHint>S</phaseHint><evaluationMode>automatic</evaluationMode><comment><text>438.85201935990443</text><id>DFX:rectilinearity</id></comment><comment><text>de.gempa.tb1.Pick/20250413235623.238975.134409</text><id>RefPickID</id></comment><comment><text>10.470162561347317</text><id>SNR</id></comment></pick><origin publicID="de.gempa.tb1.Origin/20250413235701.194451.121642"><time><value>2025-04-13T23:55:51.233519Z</value><uncertainty>1.1555893421173096</uncertainty></time><latitude><value>-21.102352142333984</value><uncertainty>6.773886680603027</uncertainty></latitude><longitude><value>-68.82131958007812</value><uncertainty>10.132288932800293</uncertainty></longitude><depth><value>121.17960357666016</value><uncertainty>9.595693588256836</uncertainty></depth><depthType>from location</depthType><methodID>LOCSAT</methodID><earthModelID>iasp91_scanloc</earthModelID><quality><associatedPhaseCount>10</associatedPhaseCount><usedPhaseCount>10</usedPhaseCount><associatedStationCount>5</associatedStationCount><usedStationCount>5</usedStationCount><depthPhaseCount>0</depthPhaseCount><standardError>0.28839162560069276</standardError><azimuthalGap>294.20909118652344</azimuthalGap><maximumDistance>1.280050277709961</maximumDistance><minimumDistance>0.6248441338539124</minimumDistance><medianDistance>1.025836706161499</medianDistance></quality><uncertainty><minHorizontalUncertainty>14.508634567260742</minHorizontalUncertainty><maxHorizontalUncertainty>21.736780166625977</maxHorizontalUncertainty><azimuthMaxHorizontalUncertainty>87.5749282836914</azimuthMaxHorizontalUncertainty><preferredDescription>horizontal uncertainty</preferredDescription></uncertainty><evaluationMode>automatic</evaluationMode><evaluationStatus>confirmed</evaluationStatus><comment><text>0.09</text><id>mismatchScore</id></comment><comment><text>mismatchScore</text><id>scevalMethod</id></comment><arrival><pickID>de.gempa.tb1.Pick/20250413235618.46716.134405</pickID><phase>P</phase><azimuth>257.6347351074219</azimuth><distance>1.025836706161499</distance><timeResidual>0.197967529296875</timeResidual><timeUsed>true</timeUsed><horizontalSlownessUsed>false</horizontalSlownessUsed><backazimuthUsed>false</backazimuthUsed><weight>1</weight></arrival><arrival><pickID>de.gempa.tb1.Pick/20250413235618.581723.134407</pickID><phase>P</phase><azimuth>275.2831726074219</azimuth><distance>0.6248441338539124</distance><timeResidual>-0.17745399475097656</timeResidual><timeUsed>true</timeUsed><horizontalSlownessUsed>false</horizontalSlownessUsed><backazimuthUsed>false</backazimuthUsed><weight>1</weight></arrival><arrival><pickID>de.gempa.tb1.Pick/20250413235623.238975.134409</pickID><phase>P</phase><azimuth>237.7565002441406</azimuth><distance>1.17065691947937</distance><timeResidual>-0.027179718017578125</timeResidual><timeUsed>true</timeUsed><horizontalSlownessUsed>false</horizontalSlownessUsed><backazimuthUsed>false</backazimuthUsed><weight>1</weight></arrival><arrival><pickID>de.gempa.tb1.Pick/20250413235625.571738.134411</pickID><phase>P</phase><azimuth>222.48126220703125</azimuth><distance>1.280050277709961</distance><timeResidual>0.22341156005859375</timeResidual><timeUsed>true</timeUsed><horizontalSlownessUsed>false</horizontalSlownessUsed><backazimuthUsed>false</backazimuthUsed><weight>1</weight></arrival><arrival><pickID>de.gempa.tb1.Pick/20250413235630.067102.134413</pickID><phase>P</phase><azimuth>209.4922637939453</azimuth><distance>0.7940194606781006</distance><timeResidual>-0.18306350708007812</timeResidual><timeUsed>true</timeUsed><horizontalSlownessUsed>false</horizontalSlownessUsed><backazimuthUsed>false</backazimuthUsed><weight>1</weight></arrival><arrival><pickID>de.gempa.tb1.Pick/20250413235632.749596.134415</pickID><phase>S</phase><azimuth>275.2831726074219</azimuth><distance>0.6248441338539124</distance><timeResidual>-0.26586341857910156</timeResidual><timeUsed>true</timeUsed><horizontalSlownessUsed>false</horizontalSlownessUsed><backazimuthUsed>false</backazimuthUsed><weight>1</weight></arrival><arrival><pickID>de.gempa.tb1.Pick/20250413235641.891088.134418</pickID><phase>S</phase><azimuth>257.6347351074219</azimuth><distance>1.025836706161499</distance><timeResidual>0.41147804260253906</timeResidual><timeUsed>true</timeUsed><horizontalSlownessUsed>false</horizontalSlownessUsed><backazimuthUsed>false</backazimuthUsed><weight>1</weight></arrival><arrival><pickID>de.gempa.tb1.Pick/20250413235642.708638.134419</pickID><phase>S</phase><azimuth>222.48126220703125</azimuth><distance>1.280050277709961</distance><timeResidual>-0.5098133087158203</timeResidual><timeUsed>true</timeUsed><horizontalSlownessUsed>false</horizontalSlownessUsed><backazimuthUsed>false</backazimuthUsed><weight>1</weight></arrival><arrival><pickID>de.gempa.tb1.Pick/20250413235644.516006.134420</pickID><phase>S</phase><azimuth>209.4922637939453</azimuth><distance>0.7940194606781006</distance><timeResidual>0.4126091003417969</timeResidual><timeUsed>true</timeUsed><horizontalSlownessUsed>false</horizontalSlownessUsed><backazimuthUsed>false</backazimuthUsed><weight>1</weight></arrival><arrival><pickID>de.gempa.tb1.Pick/20250413235700.956221.134421</pickID><phase>S</phase><azimuth>237.7565002441406</azimuth><distance>1.17065691947937</distance><timeResidual>-0.08184814453125</timeResidual><timeUsed>true</timeUsed><horizontalSlownessUsed>false</horizontalSlownessUsed><backazimuthUsed>false</backazimuthUsed><weight>1</weight></arrival><magnitude publicID="de.gempa.tb1.Magnitude/20250413235710.938228.411722"><magnitude><value>2.570066507347502</value></magnitude><type>M</type><methodID>weighted average</methodID><stationCount>2</stationCount></magnitude></origin><event publicID="gempa2025higc"><preferredOriginID>de.gempa.tb1.Origin/20250413235701.194451.121642</preferredOriginID><preferredMagnitudeID>de.gempa.tb1.Magnitude/20250413235710.938228.411722</preferredMagnitudeID><description><text>Chile-Bolivia Border Region</text><type>region name</type></description><originReference>de.gempa.tb1.Origin/20250413235701.194451.121642</originReference></event></EventParameters></seiscomp>