<?xml version="1.0" encoding="UTF-8"?>
<seiscomp xmlns="http://geofon.gfz-potsdam.de/ns/seiscomp3-schema/0.13" version="0.13"><EventParameters><pick publicID="de.gempa.tb1.Pick/20250412123426.544981.158109"><time><value>2025-04-12T12:34:24.13Z</value></time><waveformID networkCode="CH" stationCode="TRULL" channelCode="HHZ"/><filterID>ITAPER(4)&gt;&gt;BW(4,4,20)</filterID><methodID>AIC</methodID><phaseHint>P</phaseHint><evaluationMode>automatic</evaluationMode></pick><pick publicID="de.gempa.tb1.Pick/20250412123429.141355.158112"><time><value>2025-04-12T12:34:26.505Z</value></time><waveformID networkCode="CH" stationCode="SLE" channelCode="HHZ"/><filterID>ITAPER(4)&gt;&gt;BW(4,4,20)</filterID><methodID>AIC</methodID><phaseHint>P</phaseHint><evaluationMode>automatic</evaluationMode></pick><pick publicID="de.gempa.tb1.Pick/20250412123432.181085.158118"><time><value>2025-04-12T12:34:30.015Z</value></time><waveformID networkCode="CH" stationCode="LIENZ" channelCode="HHZ"/><filterID>ITAPER(4)&gt;&gt;BW(4,4,20)</filterID><methodID>AIC</methodID><phaseHint>P</phaseHint><evaluationMode>automatic</evaluationMode></pick><pick publicID="de.gempa.tb1.Pick/20250412123435.874027.158123"><time><value>2025-04-12T12:34:25.575Z</value></time><waveformID networkCode="CH" stationCode="WALHA" channelCode="HHZ"/><filterID>ITAPER(4)&gt;&gt;BW(4,4,20)</filterID><methodID>AIC</methodID><phaseHint>P</phaseHint><evaluationMode>automatic</evaluationMode></pick><pick publicID="de.gempa.tb1.Pick/20250412123439.329973.158125"><time><value>2025-04-12T12:34:36.635Z</value></time><waveformID networkCode="CH" stationCode="BALST" channelCode="HHZ"/><filterID>ITAPER(4)&gt;&gt;BW(4,4,20)</filterID><methodID>AIC</methodID><phaseHint>P</phaseHint><evaluationMode>automatic</evaluationMode></pick><pick publicID="de.gempa.tb1.Pick/20250412123440.855639.158127"><time><value>2025-04-12T12:34:34.49Z</value></time><waveformID networkCode="CH" stationCode="ROTHE" channelCode="HHZ"/><filterID>ITAPER(4)&gt;&gt;BW(4,4,20)</filterID><methodID>AIC</methodID><phaseHint>P</phaseHint><evaluationMode>automatic</evaluationMode></pick><origin publicID="de.gempa.tb1.Origin/20250412123440.857635.101434"><time><value>2025-04-12T12:34:20.667945Z</value><uncertainty>1.6940858364105225</uncertainty></time><latitude><value>47.57830047607422</value><uncertainty>8.340935707092285</uncertainty></latitude><longitude><value>8.89980411529541</value><uncertainty>3.590085506439209</uncertainty></longitude><depth><value>0.6426523327827454</value><uncertainty>21.026674270629883</uncertainty></depth><depthType>from location</depthType><methodID>LOCSAT</methodID><earthModelID>iasp91</earthModelID><quality><associatedPhaseCount>6</associatedPhaseCount><usedPhaseCount>6</usedPhaseCount><associatedStationCount>6</associatedStationCount><usedStationCount>6</usedStationCount><depthPhaseCount>0</depthPhaseCount><standardError>0.5128399063753966</standardError><azimuthalGap>128.93807220458984</azimuthalGap><maximumDistance>0.8528376817703247</maximumDistance><minimumDistance>0.1635737419128418</minimumDistance><medianDistance>0.4925202131271362</medianDistance></quality><uncertainty><minHorizontalUncertainty>6.729986667633057</minHorizontalUncertainty><maxHorizontalUncertainty>18.276105880737305</maxHorizontalUncertainty><azimuthMaxHorizontalUncertainty>12.718317031860352</azimuthMaxHorizontalUncertainty><preferredDescription>horizontal uncertainty</preferredDescription></uncertainty><evaluationMode>automatic</evaluationMode><evaluationStatus>confirmed</evaluationStatus><comment><text>0.49</text><id>mismatchScore</id></comment><comment><text>mismatchScore</text><id>scevalMethod</id></comment><arrival><pickID>de.gempa.tb1.Pick/20250412123426.544981.158109</pickID><phase>P</phase><azimuth>295.588623046875</azimuth><distance>0.1635737419128418</distance><timeResidual>0.1283559799194336</timeResidual><timeUsed>true</timeUsed><horizontalSlownessUsed>false</horizontalSlownessUsed><backazimuthUsed>false</backazimuthUsed><weight>1</weight></arrival><arrival><pickID>de.gempa.tb1.Pick/20250412123429.141355.158112</pickID><phase>P</phase><azimuth>304.23162841796875</azimuth><distance>0.3324768841266632</distance><timeResidual>-0.6923182010650635</timeResidual><timeUsed>true</timeUsed><horizontalSlownessUsed>false</horizontalSlownessUsed><backazimuthUsed>false</backazimuthUsed><weight>1</weight></arrival><arrival><pickID>de.gempa.tb1.Pick/20250412123432.181085.158118</pickID><phase>P</phase><azimuth>124.9747543334961</azimuth><distance>0.4925202131271362</distance><timeResidual>-0.21139979362487793</timeResidual><timeUsed>true</timeUsed><horizontalSlownessUsed>false</horizontalSlownessUsed><backazimuthUsed>false</backazimuthUsed><weight>1</weight></arrival><arrival><pickID>de.gempa.tb1.Pick/20250412123435.874027.158123</pickID><phase>P</phase><azimuth>40.75856399536133</azimuth><distance>0.2307965010404587</distance><timeResidual>0.30159425735473633</timeResidual><timeUsed>true</timeUsed><horizontalSlownessUsed>false</horizontalSlownessUsed><backazimuthUsed>false</backazimuthUsed><weight>1</weight></arrival><arrival><pickID>de.gempa.tb1.Pick/20250412123439.329973.158125</pickID><phase>P</phase><azimuth>253.91282653808594</azimuth><distance>0.8528376817703247</distance><timeResidual>-0.4090259075164795</timeResidual><timeUsed>true</timeUsed><horizontalSlownessUsed>false</horizontalSlownessUsed><backazimuthUsed>false</backazimuthUsed><weight>1</weight></arrival><arrival><pickID>de.gempa.tb1.Pick/20250412123440.855639.158127</pickID><phase>P</phase><azimuth>261.5988464355469</azimuth><distance>0.6712148785591125</distance><timeResidual>0.8827784061431885</timeResidual><timeUsed>true</timeUsed><horizontalSlownessUsed>false</horizontalSlownessUsed><backazimuthUsed>false</backazimuthUsed><weight>1</weight></arrival><magnitude publicID="de.gempa.tb1.Magnitude/20250412123532.453246.224977"><magnitude><value>1.6664819338027583</value></magnitude><type>M</type><methodID>weighted average</methodID><stationCount>5</stationCount></magnitude></origin><event publicID="gempa2025hfnj"><preferredOriginID>de.gempa.tb1.Origin/20250412123440.857635.101434</preferredOriginID><preferredMagnitudeID>de.gempa.tb1.Magnitude/20250412123532.453246.224977</preferredMagnitudeID><description><text>Switzerland</text><type>region name</type></description><originReference>de.gempa.tb1.Origin/20250412123440.857635.101434</originReference></event></EventParameters></seiscomp>