<?xml version="1.0" encoding="UTF-8"?>
<seiscomp xmlns="http://geofon.gfz-potsdam.de/ns/seiscomp3-schema/0.13" version="0.13"><EventParameters><pick publicID="de.gempa.tb1.Pick/20250415042546.654723.143458"><time><value>2025-04-15T04:25:40.278393Z</value></time><waveformID networkCode="CX" stationCode="PB08" channelCode="HHZ"/><filterID>ITAPER(4)&gt;&gt;BW(4,4,20)</filterID><methodID>AIC</methodID><horizontalSlowness><value>14.82578422381827</value></horizontalSlowness><backazimuth><value>96.980163209783</value></backazimuth><phaseHint>P</phaseHint><evaluationMode>automatic</evaluationMode><comment><text>13.102700609478303</text><id>DFX:rectilinearity</id></comment><comment><text>9.699451448750008</text><id>SNR</id></comment></pick><pick publicID="de.gempa.tb1.Pick/20250415042550.578187.143460"><time><value>2025-04-15T04:25:43.748393Z</value></time><waveformID networkCode="CX" stationCode="PB01" channelCode="HHZ"/><filterID>ITAPER(4)&gt;&gt;BW(4,4,20)</filterID><methodID>AIC</methodID><horizontalSlowness><value>22.992554336265144</value></horizontalSlowness><backazimuth><value>6.349971737770062</value></backazimuth><phaseHint>P</phaseHint><evaluationMode>automatic</evaluationMode><comment><text>14.571425468217218</text><id>DFX:rectilinearity</id></comment><comment><text>10.093829071657513</text><id>SNR</id></comment></pick><pick publicID="de.gempa.tb1.Pick/20250415042554.224874.143462"><time><value>2025-04-15T04:25:46.109999Z</value></time><waveformID networkCode="CX" stationCode="PATCX" channelCode="HHZ"/><filterID>ITAPER(4)&gt;&gt;BW(4,4,20)</filterID><methodID>AIC</methodID><horizontalSlowness><value>20.722141438004687</value></horizontalSlowness><backazimuth><value>133.67045394403465</value></backazimuth><phaseHint>P</phaseHint><evaluationMode>automatic</evaluationMode><comment><text>437.8096813980953</text><id>DFX:rectilinearity</id></comment><comment><text>6.733759875003994</text><id>SNR</id></comment></pick><pick publicID="de.gempa.tb1.Pick/20250415042600.153376.143465"><time><value>2025-04-15T04:25:51.678393Z</value></time><waveformID networkCode="CX" stationCode="PB08" channelCode="HHN"/><filterID>ITAPER(2)&gt;&gt;BW(3,3,20)</filterID><methodID>L2-AIC-GRID</methodID><horizontalSlowness><value>14.956230038059214</value></horizontalSlowness><backazimuth><value>213.550985250733</value></backazimuth><phaseHint>S</phaseHint><evaluationMode>automatic</evaluationMode><comment><text>1099.3681429878179</text><id>DFX:rectilinearity</id></comment><comment><text>de.gempa.tb1.Pick/20250415042546.654723.143458</text><id>RefPickID</id></comment><comment><text>20.506944376306638</text><id>SNR</id></comment></pick><pick publicID="de.gempa.tb1.Pick/20250415042606.78206.143466"><time><value>2025-04-15T04:25:57.878393Z</value></time><waveformID networkCode="CX" stationCode="PB01" channelCode="HHN"/><filterID>ITAPER(2)&gt;&gt;BW(3,3,20)</filterID><methodID>L2-AIC-GRID</methodID><horizontalSlowness><value>21.669670504514183</value></horizontalSlowness><backazimuth><value>212.0652783788094</value></backazimuth><phaseHint>S</phaseHint><evaluationMode>automatic</evaluationMode><comment><text>64.27480548908854</text><id>DFX:rectilinearity</id></comment><comment><text>de.gempa.tb1.Pick/20250415042550.578187.143460</text><id>RefPickID</id></comment><comment><text>10.769182578447211</text><id>SNR</id></comment></pick><pick publicID="de.gempa.tb1.Pick/20250415042614.46208.143468"><time><value>2025-04-15T04:26:01.839999Z</value></time><waveformID networkCode="CX" stationCode="PATCX" channelCode="HHN"/><filterID>ITAPER(2)&gt;&gt;BW(3,3,20)</filterID><methodID>L2-AIC-GRID</methodID><horizontalSlowness><value>23.05991118911475</value></horizontalSlowness><backazimuth><value>253.67380588826273</value></backazimuth><phaseHint>S</phaseHint><evaluationMode>automatic</evaluationMode><comment><text>188.5207209663502</text><id>DFX:rectilinearity</id></comment><comment><text>de.gempa.tb1.Pick/20250415042554.224874.143462</text><id>RefPickID</id></comment><comment><text>7.576386398496996</text><id>SNR</id></comment></pick><origin publicID="de.gempa.tb1.Origin/20250415042614.465665.160748"><time><value>2025-04-15T04:25:25.523889Z</value><uncertainty>1.5002490282058716</uncertainty></time><latitude><value>-20.327800750732422</value><uncertainty>7.894182205200195</uncertainty></latitude><longitude><value>-69.2547378540039</value><uncertainty>9.013789176940918</uncertainty></longitude><depth><value>104.70885467529297</value><uncertainty>9.348316192626953</uncertainty></depth><depthType>from location</depthType><methodID>LOCSAT</methodID><earthModelID>iasp91_scanloc</earthModelID><quality><associatedPhaseCount>6</associatedPhaseCount><usedPhaseCount>6</usedPhaseCount><associatedStationCount>3</associatedStationCount><usedStationCount>3</usedStationCount><depthPhaseCount>0</depthPhaseCount><standardError>0.038403096808957107</standardError><azimuthalGap>169.827823638916</azimuthalGap><maximumDistance>0.9740143418312073</maximumDistance><minimumDistance>0.2086871862411499</minimumDistance><medianDistance>0.744411826133728</medianDistance></quality><uncertainty><minHorizontalUncertainty>11.593833923339844</minHorizontalUncertainty><maxHorizontalUncertainty>22.93193054199219</maxHorizontalUncertainty><azimuthMaxHorizontalUncertainty>128.57467651367188</azimuthMaxHorizontalUncertainty><preferredDescription>horizontal uncertainty</preferredDescription></uncertainty><evaluationMode>automatic</evaluationMode><evaluationStatus>confirmed</evaluationStatus><comment><text>0.00</text><id>mismatchScore</id></comment><comment><text>mismatchScore</text><id>scevalMethod</id></comment><arrival><pickID>de.gempa.tb1.Pick/20250415042546.654723.143458</pickID><phase>P</phase><azimuth>27.147228240966797</azimuth><distance>0.2086871862411499</distance><timeResidual>-0.027358055114746094</timeResidual><timeUsed>true</timeUsed><horizontalSlownessUsed>false</horizontalSlownessUsed><backazimuthUsed>false</backazimuthUsed><weight>1</weight></arrival><arrival><pickID>de.gempa.tb1.Pick/20250415042550.578187.143460</pickID><phase>P</phase><azimuth>196.9750518798828</azimuth><distance>0.744411826133728</distance><timeResidual>-0.039277076721191406</timeResidual><timeUsed>true</timeUsed><horizontalSlownessUsed>false</horizontalSlownessUsed><backazimuthUsed>false</backazimuthUsed><weight>1</weight></arrival><arrival><pickID>de.gempa.tb1.Pick/20250415042554.224874.143462</pickID><phase>P</phase><azimuth>239.61195373535156</azimuth><distance>0.9740143418312073</distance><timeResidual>0.06665897369384766</timeResidual><timeUsed>true</timeUsed><horizontalSlownessUsed>false</horizontalSlownessUsed><backazimuthUsed>false</backazimuthUsed><weight>1</weight></arrival><arrival><pickID>de.gempa.tb1.Pick/20250415042600.153376.143465</pickID><phase>S</phase><azimuth>27.147228240966797</azimuth><distance>0.2086871862411499</distance><timeResidual>0.01532268524169922</timeResidual><timeUsed>true</timeUsed><horizontalSlownessUsed>false</horizontalSlownessUsed><backazimuthUsed>false</backazimuthUsed><weight>1</weight></arrival><arrival><pickID>de.gempa.tb1.Pick/20250415042606.78206.143466</pickID><phase>S</phase><azimuth>196.9750518798828</azimuth><distance>0.744411826133728</distance><timeResidual>0.02203083038330078</timeResidual><timeUsed>true</timeUsed><horizontalSlownessUsed>false</horizontalSlownessUsed><backazimuthUsed>false</backazimuthUsed><weight>1</weight></arrival><arrival><pickID>de.gempa.tb1.Pick/20250415042614.46208.143468</pickID><phase>S</phase><azimuth>239.61195373535156</azimuth><distance>0.9740143418312073</distance><timeResidual>-0.037337303161621094</timeResidual><timeUsed>true</timeUsed><horizontalSlownessUsed>false</horizontalSlownessUsed><backazimuthUsed>false</backazimuthUsed><weight>1</weight></arrival><magnitude publicID="de.gempa.tb1.Magnitude/20250415042625.748706.571102"><magnitude><value>1.384887333005694</value></magnitude><type>M</type><methodID>weighted average</methodID><stationCount>2</stationCount></magnitude></origin><event publicID="gempa2025hkld"><preferredOriginID>de.gempa.tb1.Origin/20250415042614.465665.160748</preferredOriginID><preferredMagnitudeID>de.gempa.tb1.Magnitude/20250415042625.748706.571102</preferredMagnitudeID><description><text>Northern Chile</text><type>region name</type></description><originReference>de.gempa.tb1.Origin/20250415042614.465665.160748</originReference></event></EventParameters></seiscomp>