<?xml version="1.0" encoding="UTF-8"?>
<seiscomp xmlns="http://geofon.gfz-potsdam.de/ns/seiscomp3-schema/0.13" version="0.13"><EventParameters><pick publicID="de.gempa.tb1.Pick/20250414112354.581704.137639"><time><value>2025-04-14T11:23:48.310001Z</value></time><waveformID networkCode="CX" stationCode="PSGCX" channelCode="HHZ"/><filterID>ITAPER(4)&gt;&gt;BW(4,4,20)</filterID><methodID>AIC</methodID><horizontalSlowness><value>17.887009568940456</value></horizontalSlowness><backazimuth><value>23.190604838369353</value></backazimuth><phaseHint>P</phaseHint><evaluationMode>automatic</evaluationMode><comment><text>7.44857140288779</text><id>DFX:rectilinearity</id></comment><comment><text>30.51421580871414</text><id>SNR</id></comment></pick><pick publicID="de.gempa.tb1.Pick/20250414112403.123717.137641"><time><value>2025-04-14T11:23:58.328393Z</value></time><waveformID networkCode="CX" stationCode="PB08" channelCode="HHZ"/><filterID>ITAPER(4)&gt;&gt;BW(4,4,20)</filterID><methodID>AIC</methodID><horizontalSlowness><value>15.735889861996727</value></horizontalSlowness><backazimuth><value>94.53092860546737</value></backazimuth><phaseHint>P</phaseHint><evaluationMode>automatic</evaluationMode><comment><text>6.788407649309663</text><id>DFX:rectilinearity</id></comment><comment><text>9.002297012907331</text><id>SNR</id></comment></pick><pick publicID="de.gempa.tb1.Pick/20250414112413.587753.137643"><time><value>2025-04-14T11:24:07.288393Z</value></time><waveformID networkCode="CX" stationCode="PB01" channelCode="HHZ"/><filterID>ITAPER(4)&gt;&gt;BW(4,4,20)</filterID><methodID>AIC</methodID><horizontalSlowness><value>14.714843393710995</value></horizontalSlowness><backazimuth><value>333.6400893692719</value></backazimuth><phaseHint>P</phaseHint><evaluationMode>automatic</evaluationMode><comment><text>6.794033599956594</text><id>DFX:rectilinearity</id></comment><comment><text>15.49397616246898</text><id>SNR</id></comment></pick><pick publicID="de.gempa.tb1.Pick/20250414112418.552008.137645"><time><value>2025-04-14T11:24:10.948393Z</value></time><waveformID networkCode="CX" stationCode="PB02" channelCode="HHZ"/><filterID>ITAPER(4)&gt;&gt;BW(4,4,20)</filterID><methodID>AIC</methodID><horizontalSlowness><value>21.575992083474198</value></horizontalSlowness><backazimuth><value>246.0514584453657</value></backazimuth><phaseHint>P</phaseHint><evaluationMode>automatic</evaluationMode><comment><text>18.044769593391962</text><id>DFX:rectilinearity</id></comment><comment><text>14.980398152617791</text><id>SNR</id></comment></pick><pick publicID="de.gempa.tb1.Pick/20250414112420.827835.137649"><time><value>2025-04-14T11:24:12.368393Z</value></time><waveformID networkCode="CX" stationCode="PB08" channelCode="HHN"/><filterID>ITAPER(2)&gt;&gt;BW(3,3,20)</filterID><methodID>L2-AIC-GRID</methodID><horizontalSlowness><value>17.627420471613135</value></horizontalSlowness><backazimuth><value>219.34057535564065</value></backazimuth><phaseHint>S</phaseHint><evaluationMode>automatic</evaluationMode><comment><text>12.183506055664019</text><id>DFX:rectilinearity</id></comment><comment><text>de.gempa.tb1.Pick/20250414112403.123717.137641</text><id>RefPickID</id></comment><comment><text>19.36102856442119</text><id>SNR</id></comment></pick><pick publicID="de.gempa.tb1.Pick/20250414112423.679416.137650"><time><value>2025-04-14T11:24:15.678393Z</value></time><waveformID networkCode="CX" stationCode="PB07" channelCode="HHZ"/><filterID>ITAPER(4)&gt;&gt;BW(4,4,20)</filterID><methodID>AIC</methodID><horizontalSlowness><value>22.617604685899536</value></horizontalSlowness><backazimuth><value>220.4501252614333</value></backazimuth><phaseHint>P</phaseHint><evaluationMode>automatic</evaluationMode><comment><text>112.13332190833869</text><id>DFX:rectilinearity</id></comment><comment><text>16.688883882672219</text><id>SNR</id></comment></pick><pick publicID="de.gempa.tb1.Pick/20250414112427.413938.137653"><time><value>2025-04-14T11:24:18.01Z</value></time><waveformID networkCode="CX" stationCode="PB09" channelCode="HHZ"/><filterID>ITAPER(4)&gt;&gt;BW(4,4,20)</filterID><methodID>AIC</methodID><horizontalSlowness><value>19.169669416524627</value></horizontalSlowness><backazimuth><value>324.96026300480236</value></backazimuth><phaseHint>P</phaseHint><evaluationMode>automatic</evaluationMode><comment><text>8.103869831472592</text><id>DFX:rectilinearity</id></comment><comment><text>12.505398952701535</text><id>SNR</id></comment></pick><pick publicID="de.gempa.tb1.Pick/20250414112428.517472.137657"><time><value>2025-04-14T11:24:19.938393Z</value></time><waveformID networkCode="CX" stationCode="PB03" channelCode="HHZ"/><filterID>ITAPER(4)&gt;&gt;BW(4,4,20)</filterID><methodID>AIC</methodID><horizontalSlowness><value>21.617445619389454</value></horizontalSlowness><backazimuth><value>292.8789310720564</value></backazimuth><phaseHint>P</phaseHint><evaluationMode>automatic</evaluationMode><comment><text>4.371813587856612</text><id>DFX:rectilinearity</id></comment><comment><text>13.197443949180306</text><id>SNR</id></comment></pick><pick publicID="de.gempa.tb1.Pick/20250414112435.577054.137661"><time><value>2025-04-14T11:24:28.228393Z</value></time><waveformID networkCode="CX" stationCode="PB06" channelCode="HHZ"/><filterID>ITAPER(4)&gt;&gt;BW(4,4,20)</filterID><methodID>AIC</methodID><horizontalSlowness><value>18.770456215646984</value></horizontalSlowness><backazimuth><value>109.70777990281348</value></backazimuth><phaseHint>P</phaseHint><evaluationMode>automatic</evaluationMode><comment><text>28.887249181286435</text><id>DFX:rectilinearity</id></comment><comment><text>9.266227322334558</text><id>SNR</id></comment></pick><origin publicID="de.gempa.tb1.Origin/20250414112436.588918.136266"><time><value>2025-04-14T11:23:42.628468Z</value><uncertainty>0.7050904631614685</uncertainty></time><latitude><value>-19.871654510498047</value><uncertainty>5.440864562988281</uncertainty></latitude><longitude><value>-70.04129028320312</value><uncertainty>5.290014266967773</uncertainty></longitude><depth><value>1.6141351461410522</value><uncertainty>9.197830200195312</uncertainty></depth><depthType>from location</depthType><methodID>LOCSAT</methodID><earthModelID>iasp91_scanloc</earthModelID><quality><associatedPhaseCount>9</associatedPhaseCount><usedPhaseCount>9</usedPhaseCount><associatedStationCount>8</associatedStationCount><usedStationCount>8</usedStationCount><depthPhaseCount>0</depthPhaseCount><standardError>0.6770874727104275</standardError><azimuthalGap>168.70460510253906</azimuthalGap><maximumDistance>2.853902578353882</maximumDistance><minimumDistance>0.28371500968933105</minimumDistance><medianDistance>1.4471746683120728</medianDistance></quality><uncertainty><minHorizontalUncertainty>6.902132034301758</minHorizontalUncertainty><maxHorizontalUncertainty>14.739240646362305</maxHorizontalUncertainty><azimuthMaxHorizontalUncertainty>43.74193572998047</azimuthMaxHorizontalUncertainty><preferredDescription>horizontal uncertainty</preferredDescription></uncertainty><evaluationMode>automatic</evaluationMode><evaluationStatus>confirmed</evaluationStatus><comment><text>0.13</text><id>mismatchScore</id></comment><comment><text>mismatchScore</text><id>scevalMethod</id></comment><arrival><pickID>de.gempa.tb1.Pick/20250414112354.581704.137639</pickID><phase>P</phase><azimuth>344.23590087890625</azimuth><distance>0.28371500968933105</distance><timeResidual>0.22805023193359375</timeResidual><timeUsed>true</timeUsed><horizontalSlownessUsed>false</horizontalSlownessUsed><backazimuthUsed>false</backazimuthUsed><weight>1</weight></arrival><arrival><pickID>de.gempa.tb1.Pick/20250414112403.123717.137641</pickID><phase>P</phase><azimuth>107.9508285522461</azimuth><distance>0.8769445419311523</distance><timeResidual>-1.1240625381469727</timeResidual><timeUsed>true</timeUsed><horizontalSlownessUsed>false</horizontalSlownessUsed><backazimuthUsed>false</backazimuthUsed><weight>1</weight></arrival><arrival><pickID>de.gempa.tb1.Pick/20250414112413.587753.137643</pickID><phase>P</phase><azimuth>156.07882690429688</azimuth><distance>1.2761061191558838</distance><timeResidual>0.18326473236083984</timeResidual><timeUsed>true</timeUsed><horizontalSlownessUsed>false</horizontalSlownessUsed><backazimuthUsed>false</backazimuthUsed><weight>1</weight></arrival><arrival><pickID>de.gempa.tb1.Pick/20250414112418.552008.137645</pickID><phase>P</phase><azimuth>174.62921142578125</azimuth><distance>1.4471746683120728</distance><timeResidual>1.0755529403686523</timeResidual><timeUsed>true</timeUsed><horizontalSlownessUsed>false</horizontalSlownessUsed><backazimuthUsed>false</backazimuthUsed><weight>1</weight></arrival><arrival><pickID>de.gempa.tb1.Pick/20250414112420.827835.137649</pickID><phase>S</phase><azimuth>107.9508285522461</azimuth><distance>0.8769445419311523</distance><timeResidual>0.6987333297729492</timeResidual><timeUsed>true</timeUsed><horizontalSlownessUsed>false</horizontalSlownessUsed><backazimuthUsed>false</backazimuthUsed><weight>1</weight></arrival><arrival><pickID>de.gempa.tb1.Pick/20250414112423.679416.137650</pickID><phase>P</phase><azimuth>175.5312957763672</azimuth><distance>1.8513996601104736</distance><timeResidual>0.24196529388427734</timeResidual><timeUsed>true</timeUsed><horizontalSlownessUsed>false</horizontalSlownessUsed><backazimuthUsed>false</backazimuthUsed><weight>1</weight></arrival><arrival><pickID>de.gempa.tb1.Pick/20250414112427.413938.137653</pickID><phase>P</phase><azimuth>158.81214904785156</azimuth><distance>2.0558545589447021</distance><timeResidual>-0.2406339645385742</timeResidual><timeUsed>true</timeUsed><horizontalSlownessUsed>false</horizontalSlownessUsed><backazimuthUsed>false</backazimuthUsed><weight>1</weight></arrival><arrival><pickID>de.gempa.tb1.Pick/20250414112428.517472.137657</pickID><phase>P</phase><azimuth>172.96200561523438</azimuth><distance>2.182624340057373</distance><timeResidual>-0.05690860748291016</timeResidual><timeUsed>true</timeUsed><horizontalSlownessUsed>false</horizontalSlownessUsed><backazimuthUsed>false</backazimuthUsed><weight>1</weight></arrival><arrival><pickID>de.gempa.tb1.Pick/20250414112435.577054.137661</pickID><phase>P</phase><azimuth>171.26028442382812</azimuth><distance>2.853902578353882</distance><timeResidual>-1.0060739517211914</timeResidual><timeUsed>true</timeUsed><horizontalSlownessUsed>false</horizontalSlownessUsed><backazimuthUsed>false</backazimuthUsed><weight>1</weight></arrival><magnitude publicID="de.gempa.tb1.Magnitude/20250414112436.593685.479144"><magnitude><value>2.4485071936730076</value></magnitude><type>M</type><methodID>weighted average</methodID><stationCount>7</stationCount></magnitude></origin><event publicID="gempa2025hjdb"><preferredOriginID>de.gempa.tb1.Origin/20250414112436.588918.136266</preferredOriginID><preferredMagnitudeID>de.gempa.tb1.Magnitude/20250414112436.593685.479144</preferredMagnitudeID><description><text>Near Coast of Northern Chile</text><type>region name</type></description><originReference>de.gempa.tb1.Origin/20250414112436.588918.136266</originReference></event></EventParameters></seiscomp>