<?xml version="1.0" encoding="UTF-8"?>
<seiscomp xmlns="http://geofon.gfz-potsdam.de/ns/seiscomp3-schema/0.13" version="0.13"><EventParameters><pick publicID="de.gempa.tb1.Pick/20250412193416.830017.126295"><time><value>2025-04-12T19:34:08.348393Z</value></time><waveformID networkCode="CX" stationCode="PB08" channelCode="HHZ"/><filterID>ITAPER(4)&gt;&gt;BW(4,4,20)</filterID><methodID>AIC</methodID><horizontalSlowness><value>16.5275534147241</value></horizontalSlowness><backazimuth><value>89.68666963305343</value></backazimuth><phaseHint>P</phaseHint><evaluationMode>automatic</evaluationMode><comment><text>11.88340563752026</text><id>DFX:rectilinearity</id></comment><comment><text>18.293818260400133</text><id>SNR</id></comment></pick><pick publicID="de.gempa.tb1.Pick/20250412193419.508195.126297"><time><value>2025-04-12T19:34:15.118393Z</value></time><waveformID networkCode="CX" stationCode="PB01" channelCode="HHZ"/><filterID>ITAPER(4)&gt;&gt;BW(4,4,20)</filterID><methodID>AIC</methodID><horizontalSlowness><value>12.54680709469322</value></horizontalSlowness><backazimuth><value>333.8064662676353</value></backazimuth><phaseHint>P</phaseHint><evaluationMode>automatic</evaluationMode><comment><text>29.193438014832537</text><id>DFX:rectilinearity</id></comment><comment><text>32.546204340166724</text><id>SNR</id></comment></pick><pick publicID="de.gempa.tb1.Pick/20250412193419.546303.126299"><time><value>2025-04-12T19:34:14.56Z</value></time><waveformID networkCode="CX" stationCode="PSGCX" channelCode="HHZ"/><filterID>ITAPER(4)&gt;&gt;BW(4,4,20)</filterID><methodID>AIC</methodID><horizontalSlowness><value>16.716399047404892</value></horizontalSlowness><backazimuth><value>112.90468139931968</value></backazimuth><phaseHint>P</phaseHint><evaluationMode>automatic</evaluationMode><comment><text>18.63691182871288</text><id>DFX:rectilinearity</id></comment><comment><text>38.74890310504435</text><id>SNR</id></comment></pick><pick publicID="de.gempa.tb1.Pick/20250412193426.518053.126301"><time><value>2025-04-12T19:34:20.608393Z</value></time><waveformID networkCode="CX" stationCode="PB02" channelCode="HHZ"/><filterID>ITAPER(4)&gt;&gt;BW(4,4,20)</filterID><methodID>AIC</methodID><horizontalSlowness><value>13.819128435962055</value></horizontalSlowness><backazimuth><value>306.0424992742871</value></backazimuth><phaseHint>P</phaseHint><evaluationMode>automatic</evaluationMode><comment><text>52.48000916398456</text><id>DFX:rectilinearity</id></comment><comment><text>10.402562583420362</text><id>SNR</id></comment></pick><pick publicID="de.gempa.tb1.Pick/20250412193428.525814.126303"><time><value>2025-04-12T19:34:23.398393Z</value></time><waveformID networkCode="CX" stationCode="PB16" channelCode="HHZ"/><filterID>ITAPER(4)&gt;&gt;BW(4,4,20)</filterID><methodID>AIC</methodID><horizontalSlowness><value>13.974223082350745</value></horizontalSlowness><backazimuth><value>343.8555128882342</value></backazimuth><phaseHint>P</phaseHint><evaluationMode>automatic</evaluationMode><comment><text>1.8758779414023088</text><id>DFX:rectilinearity</id></comment><comment><text>14.07244039832693</text><id>SNR</id></comment></pick><pick publicID="de.gempa.tb1.Pick/20250412193428.853251.126307"><time><value>2025-04-12T19:34:20.788393Z</value></time><waveformID networkCode="CX" stationCode="PB08" channelCode="HHN"/><filterID>ITAPER(2)&gt;&gt;BW(3,3,20)</filterID><methodID>L2-AIC-GRID</methodID><horizontalSlowness><value>15.649781269540382</value></horizontalSlowness><backazimuth><value>202.6051775300965</value></backazimuth><phaseHint>S</phaseHint><evaluationMode>automatic</evaluationMode><comment><text>233.35673089931996</text><id>DFX:rectilinearity</id></comment><comment><text>de.gempa.tb1.Pick/20250412193416.830017.126295</text><id>RefPickID</id></comment><comment><text>7.620728506362398</text><id>SNR</id></comment></pick><pick publicID="de.gempa.tb1.Pick/20250412193440.617317.126308"><time><value>2025-04-12T19:34:31.62Z</value></time><waveformID networkCode="CX" stationCode="PSGCX" channelCode="HHN"/><filterID>ITAPER(2)&gt;&gt;BW(3,3,20)</filterID><methodID>L2-AIC-GRID</methodID><horizontalSlowness><value>20.083146812881274</value></horizontalSlowness><backazimuth><value>244.4441578023548</value></backazimuth><phaseHint>S</phaseHint><evaluationMode>automatic</evaluationMode><comment><text>72.97914952417767</text><id>DFX:rectilinearity</id></comment><comment><text>de.gempa.tb1.Pick/20250412193419.546303.126299</text><id>RefPickID</id></comment><comment><text>11.57867422492591</text><id>SNR</id></comment></pick><pick publicID="de.gempa.tb1.Pick/20250412193443.604684.126310"><time><value>2025-04-12T19:34:32.788393Z</value></time><waveformID networkCode="CX" stationCode="PB01" channelCode="HHN"/><filterID>ITAPER(2)&gt;&gt;BW(3,3,20)</filterID><methodID>L2-AIC-GRID</methodID><horizontalSlowness><value>23.23447332342412</value></horizontalSlowness><backazimuth><value>139.45411175796562</value></backazimuth><phaseHint>S</phaseHint><evaluationMode>automatic</evaluationMode><comment><text>89.63969634242761</text><id>DFX:rectilinearity</id></comment><comment><text>de.gempa.tb1.Pick/20250412193419.508195.126297</text><id>RefPickID</id></comment><comment><text>11.327901959094214</text><id>SNR</id></comment></pick><pick publicID="de.gempa.tb1.Pick/20250412193450.664932.126313"><time><value>2025-04-12T19:34:41.558393Z</value></time><waveformID networkCode="CX" stationCode="PB02" channelCode="HHN"/><filterID>ITAPER(2)&gt;&gt;BW(3,3,20)</filterID><methodID>L2-AIC-GRID</methodID><horizontalSlowness><value>6.73578301983966</value></horizontalSlowness><backazimuth><value>168.33571462282649</value></backazimuth><phaseHint>S</phaseHint><evaluationMode>automatic</evaluationMode><comment><text>42.557491630653523</text><id>DFX:rectilinearity</id></comment><comment><text>de.gempa.tb1.Pick/20250412193426.518053.126301</text><id>RefPickID</id></comment><comment><text>6.297911783023014</text><id>SNR</id></comment></pick><origin publicID="de.gempa.tb1.Origin/20250412193450.674435.90626"><time><value>2025-04-12T19:33:53.488252Z</value><uncertainty>0.9438402056694031</uncertainty></time><latitude><value>-20.00443458557129</value><uncertainty>3.601285457611084</uncertainty></latitude><longitude><value>-69.1202163696289</value><uncertainty>7.237259387969971</uncertainty></longitude><depth><value>110.40773010253906</value><uncertainty>6.829845428466797</uncertainty></depth><depthType>from location</depthType><methodID>LOCSAT</methodID><earthModelID>iasp91_scanloc</earthModelID><quality><associatedPhaseCount>9</associatedPhaseCount><usedPhaseCount>9</usedPhaseCount><associatedStationCount>5</associatedStationCount><usedStationCount>5</usedStationCount><depthPhaseCount>0</depthPhaseCount><standardError>0.40332701625902367</standardError><azimuthalGap>205.4132537841797</azimuthalGap><maximumDistance>1.7004518508911133</maximumDistance><minimumDistance>0.1395159512758255</minimumDistance><medianDistance>1.0893286466598511</medianDistance></quality><uncertainty><minHorizontalUncertainty>7.680037975311279</minHorizontalUncertainty><maxHorizontalUncertainty>15.54075527191162</maxHorizontalUncertainty><azimuthMaxHorizontalUncertainty>86.56322479248047</azimuthMaxHorizontalUncertainty><preferredDescription>horizontal uncertainty</preferredDescription></uncertainty><evaluationMode>automatic</evaluationMode><evaluationStatus>confirmed</evaluationStatus><comment><text>0.13</text><id>mismatchScore</id></comment><comment><text>mismatchScore</text><id>scevalMethod</id></comment><arrival><pickID>de.gempa.tb1.Pick/20250412193416.830017.126295</pickID><phase>P</phase><azimuth>192.9121856689453</azimuth><distance>0.1395159512758255</distance><timeResidual>-0.43140602111816406</timeResidual><timeUsed>true</timeUsed><horizontalSlownessUsed>false</horizontalSlownessUsed><backazimuthUsed>false</backazimuthUsed><weight>1</weight></arrival><arrival><pickID>de.gempa.tb1.Pick/20250412193419.508195.126297</pickID><phase>P</phase><azimuth>198.3534698486328</azimuth><distance>1.0893286466598511</distance><timeResidual>-0.5668840408325195</timeResidual><timeUsed>true</timeUsed><horizontalSlownessUsed>false</horizontalSlownessUsed><backazimuthUsed>false</backazimuthUsed><weight>1</weight></arrival><arrival><pickID>de.gempa.tb1.Pick/20250412193419.546303.126299</pickID><phase>P</phase><azimuth>293.0534973144531</azimuth><distance>1.0275102853775024</distance><timeResidual>-0.4803361892700195</timeResidual><timeUsed>true</timeUsed><horizontalSlownessUsed>false</horizontalSlownessUsed><backazimuthUsed>false</backazimuthUsed><weight>1</weight></arrival><arrival><pickID>de.gempa.tb1.Pick/20250412193426.518053.126301</pickID><phase>P</phase><azimuth>208.90187072753906</azimuth><distance>1.4967939853668213</distance><timeResidual>0.2961606979370117</timeResidual><timeUsed>true</timeUsed><horizontalSlownessUsed>false</horizontalSlownessUsed><backazimuthUsed>false</backazimuthUsed><weight>1</weight></arrival><arrival><pickID>de.gempa.tb1.Pick/20250412193428.525814.126303</pickID><phase>P</phase><azimuth>347.4989318847656</azimuth><distance>1.7004518508911133</distance><timeResidual>0.607553482055664</timeResidual><timeUsed>true</timeUsed><horizontalSlownessUsed>false</horizontalSlownessUsed><backazimuthUsed>false</backazimuthUsed><weight>1</weight></arrival><arrival><pickID>de.gempa.tb1.Pick/20250412193428.853251.126307</pickID><phase>S</phase><azimuth>192.9121856689453</azimuth><distance>0.1395159512758255</distance><timeResidual>0.24079227447509766</timeResidual><timeUsed>true</timeUsed><horizontalSlownessUsed>false</horizontalSlownessUsed><backazimuthUsed>false</backazimuthUsed><weight>1</weight></arrival><arrival><pickID>de.gempa.tb1.Pick/20250412193440.617317.126308</pickID><phase>S</phase><azimuth>293.0534973144531</azimuth><distance>1.0275102853775024</distance><timeResidual>-0.06688404083251953</timeResidual><timeUsed>true</timeUsed><horizontalSlownessUsed>false</horizontalSlownessUsed><backazimuthUsed>false</backazimuthUsed><weight>1</weight></arrival><arrival><pickID>de.gempa.tb1.Pick/20250412193443.604684.126310</pickID><phase>S</phase><azimuth>198.3534698486328</azimuth><distance>1.0893286466598511</distance><timeResidual>-0.05079174041748047</timeResidual><timeUsed>true</timeUsed><horizontalSlownessUsed>false</horizontalSlownessUsed><backazimuthUsed>false</backazimuthUsed><weight>1</weight></arrival><arrival><pickID>de.gempa.tb1.Pick/20250412193450.664932.126313</pickID><phase>S</phase><azimuth>208.90187072753906</azimuth><distance>1.4967939853668213</distance><timeResidual>0.4516592025756836</timeResidual><timeUsed>true</timeUsed><horizontalSlownessUsed>false</horizontalSlownessUsed><backazimuthUsed>false</backazimuthUsed><weight>1</weight></arrival><magnitude publicID="de.gempa.tb1.Magnitude/20250412193521.595719.270999"><magnitude><value>2.6575282490163374</value></magnitude><type>M</type><methodID>weighted average</methodID><stationCount>3</stationCount></magnitude></origin><event publicID="gempa2025hgbj"><preferredOriginID>de.gempa.tb1.Origin/20250412193450.674435.90626</preferredOriginID><preferredMagnitudeID>de.gempa.tb1.Magnitude/20250412193521.595719.270999</preferredMagnitudeID><description><text>Northern Chile</text><type>region name</type></description><originReference>de.gempa.tb1.Origin/20250412193450.674435.90626</originReference></event></EventParameters></seiscomp>