<?xml version="1.0" encoding="UTF-8"?>
<seiscomp xmlns="http://geofon.gfz-potsdam.de/ns/seiscomp3-schema/0.13" version="0.13"><EventParameters><pick publicID="de.gempa.tb1.Pick/20250413000415.84925.127654"><time><value>2025-04-13T00:04:09.988393Z</value></time><waveformID networkCode="CX" stationCode="PB03" channelCode="HHZ"/><filterID>ITAPER(4)&gt;&gt;BW(4,4,20)</filterID><methodID>AIC</methodID><horizontalSlowness><value>13.337709179643898</value></horizontalSlowness><backazimuth><value>85.32672521123658</value></backazimuth><phaseHint>P</phaseHint><evaluationMode>automatic</evaluationMode><comment><text>11.234232280530996</text><id>DFX:rectilinearity</id></comment><comment><text>15.526087114455878</text><id>SNR</id></comment></pick><pick publicID="de.gempa.tb1.Pick/20250413000415.927742.127656"><time><value>2025-04-13T00:04:10.968413Z</value></time><waveformID networkCode="CX" stationCode="PB07" channelCode="HHZ"/><filterID>ITAPER(4)&gt;&gt;BW(4,4,20)</filterID><methodID>AIC</methodID><horizontalSlowness><value>23.542670623246284</value></horizontalSlowness><backazimuth><value>316.0008076661427</value></backazimuth><phaseHint>P</phaseHint><evaluationMode>automatic</evaluationMode><comment><text>555.7918790762363</text><id>DFX:rectilinearity</id></comment><comment><text>64.71615189874136</text><id>SNR</id></comment></pick><pick publicID="de.gempa.tb1.Pick/20250413000417.711498.127658"><time><value>2025-04-13T00:04:12.298394Z</value></time><waveformID networkCode="CX" stationCode="PB06" channelCode="HHZ"/><filterID>ITAPER(4)&gt;&gt;BW(4,4,20)</filterID><methodID>AIC</methodID><horizontalSlowness><value>9.814578907955031</value></horizontalSlowness><backazimuth><value>292.8103772095211</value></backazimuth><phaseHint>P</phaseHint><evaluationMode>automatic</evaluationMode><comment><text>107.90031027621797</text><id>DFX:rectilinearity</id></comment><comment><text>11.29737693060354</text><id>SNR</id></comment></pick><pick publicID="de.gempa.tb1.Pick/20250413000417.927637.127660"><time><value>2025-04-13T00:04:05.63Z</value></time><waveformID networkCode="CX" stationCode="PB09" channelCode="HHZ"/><filterID>ITAPER(4)&gt;&gt;BW(4,4,20)</filterID><methodID>AIC</methodID><horizontalSlowness><value>18.777412824707557</value></horizontalSlowness><backazimuth><value>266.9552049179183</value></backazimuth><phaseHint>P</phaseHint><evaluationMode>automatic</evaluationMode><comment><text>20.057034280406047</text><id>DFX:rectilinearity</id></comment><comment><text>63.56707699766308</text><id>SNR</id></comment></pick><pick publicID="de.gempa.tb1.Pick/20250413000417.952803.127662"><time><value>2025-04-13T00:04:09.818393Z</value></time><waveformID networkCode="CX" stationCode="PB01" channelCode="HHZ"/><filterID>ITAPER(4)&gt;&gt;BW(4,4,20)</filterID><methodID>AIC</methodID><horizontalSlowness><value>17.498494597671204</value></horizontalSlowness><backazimuth><value>312.7741711246656</value></backazimuth><phaseHint>P</phaseHint><evaluationMode>automatic</evaluationMode><comment><text>12.42609332163956</text><id>DFX:rectilinearity</id></comment><comment><text>43.48915777057237</text><id>SNR</id></comment></pick><pick publicID="de.gempa.tb1.Pick/20250413000419.883853.127664"><time><value>2025-04-13T00:04:12.138393Z</value></time><waveformID networkCode="CX" stationCode="PB02" channelCode="HHZ"/><filterID>ITAPER(4)&gt;&gt;BW(4,4,20)</filterID><methodID>AIC</methodID><horizontalSlowness><value>10.773995814824824</value></horizontalSlowness><backazimuth><value>257.54456040475816</value></backazimuth><phaseHint>P</phaseHint><evaluationMode>automatic</evaluationMode><comment><text>62.50073189647345</text><id>DFX:rectilinearity</id></comment><comment><text>35.543912852806265</text><id>SNR</id></comment></pick><pick publicID="de.gempa.tb1.Pick/20250413000433.960083.127666"><time><value>2025-04-13T00:04:28.248393Z</value></time><waveformID networkCode="CX" stationCode="PB03" channelCode="HHN"/><filterID>ITAPER(2)&gt;&gt;BW(3,3,20)</filterID><methodID>L2-AIC-GRID</methodID><horizontalSlowness><value>14.292171801437046</value></horizontalSlowness><backazimuth><value>309.0573980363771</value></backazimuth><phaseHint>S</phaseHint><evaluationMode>automatic</evaluationMode><comment><text>99.57022683275933</text><id>DFX:rectilinearity</id></comment><comment><text>de.gempa.tb1.Pick/20250413000415.84925.127654</text><id>RefPickID</id></comment><comment><text>9.472972412262646</text><id>SNR</id></comment></pick><pick publicID="de.gempa.tb1.Pick/20250413000434.672243.127667"><time><value>2025-04-13T00:04:24.43Z</value></time><waveformID networkCode="CX" stationCode="PSGCX" channelCode="HHZ"/><filterID>ITAPER(4)&gt;&gt;BW(4,4,20)</filterID><methodID>AIC</methodID><horizontalSlowness><value>5.602898865769236</value></horizontalSlowness><backazimuth><value>180.55731957370415</value></backazimuth><phaseHint>P</phaseHint><evaluationMode>automatic</evaluationMode><comment><text>24.49122386833267</text><id>DFX:rectilinearity</id></comment><comment><text>12.275885390246003</text><id>SNR</id></comment></pick><pick publicID="de.gempa.tb1.Pick/20250413000435.976807.127669"><time><value>2025-04-13T00:04:27.828393Z</value></time><waveformID networkCode="CX" stationCode="PB01" channelCode="HHN"/><filterID>ITAPER(2)&gt;&gt;BW(3,3,20)</filterID><methodID>L2-AIC-GRID</methodID><horizontalSlowness><value>21.154469152749254</value></horizontalSlowness><backazimuth><value>3.1693027828881384</value></backazimuth><phaseHint>S</phaseHint><evaluationMode>automatic</evaluationMode><comment><text>152.8663723116536</text><id>DFX:rectilinearity</id></comment><comment><text>de.gempa.tb1.Pick/20250413000417.952803.127662</text><id>RefPickID</id></comment><comment><text>12.727264530331713</text><id>SNR</id></comment></pick><pick publicID="de.gempa.tb1.Pick/20250413000436.089452.127670"><time><value>2025-04-13T00:04:30.258413Z</value></time><waveformID networkCode="CX" stationCode="PB07" channelCode="HHN"/><filterID>ITAPER(2)&gt;&gt;BW(3,3,20)</filterID><methodID>L2-AIC-GRID</methodID><horizontalSlowness><value>20.967417574458953</value></horizontalSlowness><backazimuth><value>236.58214073837163</value></backazimuth><phaseHint>S</phaseHint><evaluationMode>automatic</evaluationMode><comment><text>4056.6764058200756</text><id>DFX:rectilinearity</id></comment><comment><text>de.gempa.tb1.Pick/20250413000415.927742.127656</text><id>RefPickID</id></comment><comment><text>6.870448020886494</text><id>SNR</id></comment></pick><pick publicID="de.gempa.tb1.Pick/20250413000439.82357.127671"><time><value>2025-04-13T00:04:31.608393Z</value></time><waveformID networkCode="CX" stationCode="PB02" channelCode="HHN"/><filterID>ITAPER(2)&gt;&gt;BW(3,3,20)</filterID><methodID>L2-AIC-GRID</methodID><horizontalSlowness><value>15.688478349389106</value></horizontalSlowness><backazimuth><value>6.032404297459777</value></backazimuth><phaseHint>S</phaseHint><evaluationMode>automatic</evaluationMode><comment><text>958.0435048557812</text><id>DFX:rectilinearity</id></comment><comment><text>de.gempa.tb1.Pick/20250413000419.883853.127664</text><id>RefPickID</id></comment><comment><text>7.240600198307779</text><id>SNR</id></comment></pick><pick publicID="de.gempa.tb1.Pick/20250413000441.80818.127673"><time><value>2025-04-13T00:04:32.218394Z</value></time><waveformID networkCode="CX" stationCode="PB06" channelCode="HHN"/><filterID>ITAPER(2)&gt;&gt;BW(3,3,20)</filterID><methodID>L2-AIC-GRID</methodID><horizontalSlowness><value>17.777935030350143</value></horizontalSlowness><backazimuth><value>316.3249833198263</value></backazimuth><phaseHint>S</phaseHint><evaluationMode>automatic</evaluationMode><comment><text>81.06096778081078</text><id>DFX:rectilinearity</id></comment><comment><text>de.gempa.tb1.Pick/20250413000417.711498.127658</text><id>RefPickID</id></comment><comment><text>7.545818619598203</text><id>SNR</id></comment></pick><origin publicID="de.gempa.tb1.Origin/20250413000441.81102.95841"><time><value>2025-04-13T00:03:45.175097Z</value><uncertainty>0.925083339214325</uncertainty></time><latitude><value>-21.70682144165039</value><uncertainty>4.619976043701172</uncertainty></latitude><longitude><value>-68.64720916748047</value><uncertainty>13.770716667175293</uncertainty></longitude><depth><value>140.18606567382812</value><uncertainty>13.316566467285156</uncertainty></depth><depthType>from location</depthType><methodID>LOCSAT</methodID><earthModelID>iasp91_scanloc</earthModelID><quality><associatedPhaseCount>12</associatedPhaseCount><usedPhaseCount>12</usedPhaseCount><associatedStationCount>7</associatedStationCount><usedStationCount>7</usedStationCount><depthPhaseCount>0</depthPhaseCount><standardError>0.6556338168111977</standardError><azimuthalGap>254.2112731933594</azimuthalGap><maximumDistance>2.513140916824341</maximumDistance><minimumDistance>0.5600107908248901</minimumDistance><medianDistance>1.1522506475448608</medianDistance></quality><uncertainty><minHorizontalUncertainty>9.79952335357666</minHorizontalUncertainty><maxHorizontalUncertainty>29.56705093383789</maxHorizontalUncertainty><azimuthMaxHorizontalUncertainty>87.00310516357422</azimuthMaxHorizontalUncertainty><preferredDescription>horizontal uncertainty</preferredDescription></uncertainty><evaluationMode>automatic</evaluationMode><evaluationStatus>confirmed</evaluationStatus><comment><text>0.10</text><id>mismatchScore</id></comment><comment><text>mismatchScore</text><id>scevalMethod</id></comment><arrival><pickID>de.gempa.tb1.Pick/20250413000415.84925.127654</pickID><phase>P</phase><azimuth>251.48170471191406</azimuth><distance>1.0819966793060303</distance><timeResidual>0.2164592742919922</timeResidual><timeUsed>true</timeUsed><horizontalSlownessUsed>false</horizontalSlownessUsed><backazimuthUsed>false</backazimuthUsed><weight>1</weight></arrival><arrival><pickID>de.gempa.tb1.Pick/20250413000415.927742.127656</pickID><phase>P</phase><azimuth>268.78997802734375</azimuth><distance>1.1522506475448608</distance><timeResidual>0.5299873352050781</timeResidual><timeUsed>true</timeUsed><horizontalSlownessUsed>false</horizontalSlownessUsed><backazimuthUsed>false</backazimuthUsed><weight>1</weight></arrival><arrival><pickID>de.gempa.tb1.Pick/20250413000417.711498.127658</pickID><phase>P</phase><azimuth>220.585693359375</azimuth><distance>1.312498927116394</distance><timeResidual>0.273040771484375</timeResidual><timeUsed>true</timeUsed><horizontalSlownessUsed>false</horizontalSlownessUsed><backazimuthUsed>false</backazimuthUsed><weight>1</weight></arrival><arrival><pickID>de.gempa.tb1.Pick/20250413000417.927637.127660</pickID><phase>P</phase><azimuth>260.7333984375</azimuth><distance>0.5600107908248901</distance><timeResidual>-0.10478401184082031</timeResidual><timeUsed>true</timeUsed><horizontalSlownessUsed>false</horizontalSlownessUsed><backazimuthUsed>false</backazimuthUsed><weight>1</weight></arrival><arrival><pickID>de.gempa.tb1.Pick/20250413000417.952803.127662</pickID><phase>P</phase><azimuth>309.9855041503906</azimuth><distance>1.024323582649231</distance><timeResidual>0.5673484802246094</timeResidual><timeUsed>true</timeUsed><horizontalSlownessUsed>false</horizontalSlownessUsed><backazimuthUsed>false</backazimuthUsed><weight>1</weight></arrival><arrival><pickID>de.gempa.tb1.Pick/20250413000419.883853.127664</pickID><phase>P</phase><azimuth>288.0987854003906</azimuth><distance>1.2249895334243774</distance><timeResidual>0.986663818359375</timeResidual><timeUsed>true</timeUsed><horizontalSlownessUsed>false</horizontalSlownessUsed><backazimuthUsed>false</backazimuthUsed><weight>1</weight></arrival><arrival><pickID>de.gempa.tb1.Pick/20250413000433.960083.127666</pickID><phase>S</phase><azimuth>251.48170471191406</azimuth><distance>1.0819966793060303</distance><timeResidual>-0.6128616333007812</timeResidual><timeUsed>true</timeUsed><horizontalSlownessUsed>false</horizontalSlownessUsed><backazimuthUsed>false</backazimuthUsed><weight>1</weight></arrival><arrival><pickID>de.gempa.tb1.Pick/20250413000434.672243.127667</pickID><phase>P</phase><azimuth>326.3744201660156</azimuth><distance>2.513140916824341</distance><timeResidual>-1.5799827575683594</timeResidual><timeUsed>true</timeUsed><horizontalSlownessUsed>false</horizontalSlownessUsed><backazimuthUsed>false</backazimuthUsed><weight>1</weight></arrival><arrival><pickID>de.gempa.tb1.Pick/20250413000435.976807.127669</pickID><phase>S</phase><azimuth>309.9855041503906</azimuth><distance>1.024323582649231</distance><timeResidual>-0.10154914855957031</timeResidual><timeUsed>true</timeUsed><horizontalSlownessUsed>false</horizontalSlownessUsed><backazimuthUsed>false</backazimuthUsed><weight>1</weight></arrival><arrival><pickID>de.gempa.tb1.Pick/20250413000436.089452.127670</pickID><phase>S</phase><azimuth>268.78997802734375</azimuth><distance>1.1522506475448608</distance><timeResidual>0.20717430114746094</timeResidual><timeUsed>true</timeUsed><horizontalSlownessUsed>false</horizontalSlownessUsed><backazimuthUsed>false</backazimuthUsed><weight>1</weight></arrival><arrival><pickID>de.gempa.tb1.Pick/20250413000439.82357.127671</pickID><phase>S</phase><azimuth>288.0987854003906</azimuth><distance>1.2249895334243774</distance><timeResidual>0.2843437194824219</timeResidual><timeUsed>true</timeUsed><horizontalSlownessUsed>false</horizontalSlownessUsed><backazimuthUsed>false</backazimuthUsed><weight>1</weight></arrival><arrival><pickID>de.gempa.tb1.Pick/20250413000441.80818.127673</pickID><phase>S</phase><azimuth>220.585693359375</azimuth><distance>1.312498927116394</distance><timeResidual>-0.666015625</timeResidual><timeUsed>true</timeUsed><horizontalSlownessUsed>false</horizontalSlownessUsed><backazimuthUsed>false</backazimuthUsed><weight>1</weight></arrival><magnitude publicID="de.gempa.tb1.Magnitude/20250413000522.854406.294912"><magnitude><value>2.4833557813673415</value></magnitude><type>M</type><methodID>weighted average</methodID><stationCount>4</stationCount></magnitude></origin><event publicID="gempa2025hgkj"><preferredOriginID>de.gempa.tb1.Origin/20250413000441.81102.95841</preferredOriginID><preferredMagnitudeID>de.gempa.tb1.Magnitude/20250413000522.854406.294912</preferredMagnitudeID><description><text>Chile-Bolivia Border Region</text><type>region name</type></description><originReference>de.gempa.tb1.Origin/20250413000441.81102.95841</originReference></event></EventParameters></seiscomp>