<?xml version="1.0" encoding="UTF-8"?>
<seiscomp xmlns="http://geofon.gfz-potsdam.de/ns/seiscomp3-schema/0.13" version="0.13"><EventParameters><pick publicID="de.gempa.tb1.Pick/20250414173146.184627.139643"><time><value>2025-04-14T17:31:41.25Z</value></time><waveformID networkCode="CX" stationCode="PB10" channelCode="HHZ"/><filterID>ITAPER(4)&gt;&gt;BW(4,4,20)</filterID><methodID>AIC</methodID><horizontalSlowness><value>13.889386439887128</value></horizontalSlowness><backazimuth><value>81.99227542463689</value></backazimuth><phaseHint>P</phaseHint><evaluationMode>automatic</evaluationMode><comment><text>664.8797343807081</text><id>DFX:rectilinearity</id></comment><comment><text>83.23206023526625</text><id>SNR</id></comment></pick><pick publicID="de.gempa.tb1.Pick/20250414173148.741515.139645"><time><value>2025-04-14T17:31:43.678393Z</value></time><waveformID networkCode="CX" stationCode="PB15" channelCode="HHZ"/><filterID>ITAPER(4)&gt;&gt;BW(4,4,20)</filterID><methodID>AIC</methodID><horizontalSlowness><value>17.101780058455837</value></horizontalSlowness><backazimuth><value>149.62257940037662</value></backazimuth><phaseHint>P</phaseHint><evaluationMode>automatic</evaluationMode><comment><text>1107.0763962896579</text><id>DFX:rectilinearity</id></comment><comment><text>95.59808336639995</text><id>SNR</id></comment></pick><pick publicID="de.gempa.tb1.Pick/20250414173154.567941.139647"><time><value>2025-04-14T17:31:48.58Z</value></time><waveformID networkCode="CX" stationCode="PB19" channelCode="HHZ"/><filterID>ITAPER(4)&gt;&gt;BW(4,4,20)</filterID><methodID>AIC</methodID><horizontalSlowness><value>11.727709856308064</value></horizontalSlowness><backazimuth><value>298.4164618789639</value></backazimuth><phaseHint>P</phaseHint><evaluationMode>automatic</evaluationMode><comment><text>262.24026562124055</text><id>DFX:rectilinearity</id></comment><comment><text>84.94509018922315</text><id>SNR</id></comment></pick><pick publicID="de.gempa.tb1.Pick/20250414173154.700575.139649"><time><value>2025-04-14T17:31:48.188393Z</value></time><waveformID networkCode="CX" stationCode="PB06" channelCode="HHZ"/><filterID>ITAPER(4)&gt;&gt;BW(4,4,20)</filterID><methodID>AIC</methodID><horizontalSlowness><value>14.83714250778147</value></horizontalSlowness><backazimuth><value>170.65628936507153</value></backazimuth><phaseHint>P</phaseHint><evaluationMode>automatic</evaluationMode><comment><text>158.136384434131</text><id>DFX:rectilinearity</id></comment><comment><text>157.49829848013587</text><id>SNR</id></comment></pick><pick publicID="de.gempa.tb1.Pick/20250414173202.528277.139651"><time><value>2025-04-14T17:31:57.468394Z</value></time><waveformID networkCode="CX" stationCode="PB03" channelCode="HHZ"/><filterID>ITAPER(4)&gt;&gt;BW(4,4,20)</filterID><methodID>AIC</methodID><horizontalSlowness><value>12.05111760981469</value></horizontalSlowness><backazimuth><value>192.37672206635605</value></backazimuth><phaseHint>P</phaseHint><evaluationMode>automatic</evaluationMode><comment><text>90.98257962173217</text><id>DFX:rectilinearity</id></comment><comment><text>75.05933368248979</text><id>SNR</id></comment></pick><pick publicID="de.gempa.tb1.Pick/20250414173219.508412.139664"><time><value>2025-04-14T17:32:14.128393Z</value></time><waveformID networkCode="CX" stationCode="PB01" channelCode="HHZ"/><filterID>ITAPER(4)&gt;&gt;BW(4,4,20)</filterID><methodID>AIC</methodID><horizontalSlowness><value>10.505803989005159</value></horizontalSlowness><backazimuth><value>198.3826130244252</value></backazimuth><phaseHint>P</phaseHint><evaluationMode>automatic</evaluationMode><comment><text>20.73217357237764</text><id>DFX:rectilinearity</id></comment><comment><text>89.12777796381629</text><id>SNR</id></comment></pick><pick publicID="de.gempa.tb1.Pick/20250414173225.483378.139669"><time><value>2025-04-14T17:32:15.789999Z</value></time><waveformID networkCode="CX" stationCode="PATCX" channelCode="HHZ"/><filterID>ITAPER(4)&gt;&gt;BW(4,4,20)</filterID><methodID>AIC</methodID><horizontalSlowness><value>21.01206586430305</value></horizontalSlowness><backazimuth><value>109.04931894200625</value></backazimuth><phaseHint>P</phaseHint><evaluationMode>automatic</evaluationMode><comment><text>89.21013213295606</text><id>DFX:rectilinearity</id></comment><comment><text>7.654676500832835</text><id>SNR</id></comment></pick><pick publicID="de.gempa.tb1.Pick/20250414173236.722277.139673"><time><value>2025-04-14T17:32:02.478393Z</value></time><waveformID networkCode="CX" stationCode="PB07" channelCode="HHZ"/><filterID>ITAPER(4)&gt;&gt;BW(4,4,20)</filterID><methodID>AIC</methodID><horizontalSlowness><value>17.256555940820643</value></horizontalSlowness><backazimuth><value>180.49154253709884</value></backazimuth><phaseHint>P</phaseHint><evaluationMode>automatic</evaluationMode><comment><text>1587.171040432602</text><id>DFX:rectilinearity</id></comment><comment><text>114.04181621460877</text><id>SNR</id></comment></pick><pick publicID="de.gempa.tb1.Pick/20250414173244.540407.139677"><time><value>2025-04-14T17:32:32.530001Z</value></time><waveformID networkCode="CX" stationCode="PSGCX" channelCode="HHZ"/><filterID>ITAPER(4)&gt;&gt;BW(4,4,20)</filterID><methodID>AIC</methodID><horizontalSlowness><value>15.069426470069638</value></horizontalSlowness><backazimuth><value>199.12870843647863</value></backazimuth><phaseHint>P</phaseHint><evaluationMode>automatic</evaluationMode><comment><text>10.608313737079106</text><id>DFX:rectilinearity</id></comment><comment><text>8.221673897435222</text><id>SNR</id></comment></pick><origin publicID="de.gempa.tb1.Origin/20250414173244.544313.144429"><time><value>2025-04-14T17:31:32.359736Z</value><uncertainty>0.4705460667610168</uncertainty></time><latitude><value>-23.407352447509766</value><uncertainty>3.920658588409424</uncertainty></latitude><longitude><value>-70.05660247802734</value><uncertainty>3.645352602005005</uncertainty></longitude><depth><value>0</value></depth><depthType>operator assigned</depthType><methodID>LOCSAT</methodID><earthModelID>iasp91_scanloc</earthModelID><quality><associatedPhaseCount>9</associatedPhaseCount><usedPhaseCount>9</usedPhaseCount><associatedStationCount>9</associatedStationCount><usedStationCount>9</usedStationCount><depthPhaseCount>0</depthPhaseCount><standardError>0.6494699728153663</standardError><azimuthalGap>131.5505599975586</azimuthalGap><maximumDistance>3.7919907569885254</maximumDistance><minimumDistance>0.4688782691955566</minimumDistance><medianDistance>1.3812021017074585</medianDistance></quality><uncertainty><minHorizontalUncertainty>7.803688526153564</minHorizontalUncertainty><maxHorizontalUncertainty>8.421005249023438</maxHorizontalUncertainty><azimuthMaxHorizontalUncertainty>171.5160675048828</azimuthMaxHorizontalUncertainty><preferredDescription>horizontal uncertainty</preferredDescription></uncertainty><evaluationMode>automatic</evaluationMode><evaluationStatus>confirmed</evaluationStatus><comment><text>0.21</text><id>mismatchScore</id></comment><comment><text>mismatchScore</text><id>scevalMethod</id></comment><arrival><pickID>de.gempa.tb1.Pick/20250414173146.184627.139643</pickID><phase>P</phase><azimuth>256.8871154785156</azimuth><distance>0.4688782691955566</distance><timeResidual>-0.10274124145507812</timeResidual><timeUsed>true</timeUsed><horizontalSlownessUsed>false</horizontalSlownessUsed><backazimuthUsed>false</backazimuthUsed><weight>1</weight></arrival><arrival><pickID>de.gempa.tb1.Pick/20250414173148.741515.139645</pickID><phase>P</phase><azimuth>69.91666412353516</azimuth><distance>0.5737355947494507</distance><timeResidual>0.3141593933105469</timeResidual><timeUsed>true</timeUsed><horizontalSlownessUsed>false</horizontalSlownessUsed><backazimuthUsed>false</backazimuthUsed><weight>1</weight></arrival><arrival><pickID>de.gempa.tb1.Pick/20250414173154.567941.139647</pickID><phase>P</phase><azimuth>125.33655548095703</azimuth><distance>0.8593410849571228</distance><timeResidual>-0.26122283935546875</timeResidual><timeUsed>true</timeUsed><horizontalSlownessUsed>false</horizontalSlownessUsed><backazimuthUsed>false</backazimuthUsed><weight>1</weight></arrival><arrival><pickID>de.gempa.tb1.Pick/20250414173154.700575.139649</pickID><phase>P</phase><azimuth>32.68828582763672</azimuth><distance>0.8288113474845886</distance><timeResidual>-0.06879329681396484</timeResidual><timeUsed>true</timeUsed><horizontalSlownessUsed>false</horizontalSlownessUsed><backazimuthUsed>false</backazimuthUsed><weight>1</weight></arrival><arrival><pickID>de.gempa.tb1.Pick/20250414173202.528277.139651</pickID><phase>P</phase><azimuth>11.763940811157227</azimuth><distance>1.3812021017074585</distance><timeResidual>-1.3368072509765625</timeResidual><timeUsed>true</timeUsed><horizontalSlownessUsed>false</horizontalSlownessUsed><backazimuthUsed>false</backazimuthUsed><weight>1</weight></arrival><arrival><pickID>de.gempa.tb1.Pick/20250414173219.508412.139664</pickID><phase>P</phase><azimuth>12.743000030517578</azimuth><distance>2.4111692905426025</distance><timeResidual>1.0620403289794922</timeResidual><timeUsed>true</timeUsed><horizontalSlownessUsed>false</horizontalSlownessUsed><backazimuthUsed>false</backazimuthUsed><weight>1</weight></arrival><arrival><pickID>de.gempa.tb1.Pick/20250414173225.483378.139669</pickID><phase>P</phase><azimuth>357.9954833984375</azimuth><distance>2.5757462978363037</distance><timeResidual>0.4583492279052734</timeResidual><timeUsed>true</timeUsed><horizontalSlownessUsed>false</horizontalSlownessUsed><backazimuthUsed>false</backazimuthUsed><weight>1</weight></arrival><arrival><pickID>de.gempa.tb1.Pick/20250414173236.722277.139673</pickID><phase>P</phase><azimuth>5.412761211395264</azimuth><distance>1.6801209449768066</distance><timeResidual>-0.5259609222412109</timeResidual><timeUsed>true</timeUsed><horizontalSlownessUsed>false</horizontalSlownessUsed><backazimuthUsed>false</backazimuthUsed><weight>1</weight></arrival><arrival><pickID>de.gempa.tb1.Pick/20250414173244.540407.139677</pickID><phase>P</phase><azimuth>359.0527648925781</azimuth><distance>3.7919907569885254</distance><timeResidual>0.4608440399169922</timeResidual><timeUsed>true</timeUsed><horizontalSlownessUsed>false</horizontalSlownessUsed><backazimuthUsed>false</backazimuthUsed><weight>1</weight></arrival><magnitude publicID="de.gempa.tb1.Magnitude/20250414173245.939745.520352"><magnitude><value>2.636173477134202</value></magnitude><type>M</type><methodID>weighted average</methodID><stationCount>7</stationCount></magnitude></origin><event publicID="gempa2025hjpi"><preferredOriginID>de.gempa.tb1.Origin/20250414173244.544313.144429</preferredOriginID><preferredMagnitudeID>de.gempa.tb1.Magnitude/20250414173245.939745.520352</preferredMagnitudeID><type>mining explosion</type><description><text>Near Coast of Northern Chile</text><type>region name</type></description><originReference>de.gempa.tb1.Origin/20250414173244.544313.144429</originReference></event></EventParameters></seiscomp>