<?xml version="1.0" encoding="UTF-8"?>
<seiscomp xmlns="http://geofon.gfz-potsdam.de/ns/seiscomp3-schema/0.13" version="0.13"><EventParameters><pick publicID="de.gempa.tb1.Pick/20250414063629.593415.136232"><time><value>2025-04-14T06:36:20.010001Z</value></time><waveformID networkCode="CX" stationCode="PSGCX" channelCode="HHZ"/><filterID>ITAPER(4)&gt;&gt;BW(4,4,20)</filterID><methodID>AIC</methodID><horizontalSlowness><value>16.446617223229925</value></horizontalSlowness><backazimuth><value>132.35591415973659</value></backazimuth><phaseHint>P</phaseHint><evaluationMode>automatic</evaluationMode><comment><text>11.630236702783472</text><id>DFX:rectilinearity</id></comment><comment><text>6.79538697237375</text><id>SNR</id></comment></pick><pick publicID="de.gempa.tb1.Pick/20250414063637.601654.136236"><time><value>2025-04-14T06:36:30.688393Z</value></time><waveformID networkCode="CX" stationCode="PB01" channelCode="HHZ"/><filterID>ITAPER(4)&gt;&gt;BW(4,4,20)</filterID><methodID>AIC</methodID><horizontalSlowness><value>17.659346578226057</value></horizontalSlowness><backazimuth><value>359.8675992595853</value></backazimuth><phaseHint>P</phaseHint><evaluationMode>automatic</evaluationMode><comment><text>6.471217695939113</text><id>DFX:rectilinearity</id></comment><comment><text>22.22755625463899</text><id>SNR</id></comment></pick><pick publicID="de.gempa.tb1.Pick/20250414063642.493735.136238"><time><value>2025-04-14T06:36:34.868391Z</value></time><waveformID networkCode="CX" stationCode="PB02" channelCode="HHZ"/><filterID>ITAPER(4)&gt;&gt;BW(4,4,20)</filterID><methodID>AIC</methodID><horizontalSlowness><value>7.031087981724952</value></horizontalSlowness><backazimuth><value>307.614700007324</value></backazimuth><phaseHint>P</phaseHint><evaluationMode>automatic</evaluationMode><comment><text>15.312272060917623</text><id>DFX:rectilinearity</id></comment><comment><text>8.506373261691037</text><id>SNR</id></comment></pick><pick publicID="de.gempa.tb1.Pick/20250414063642.773555.136240"><time><value>2025-04-14T06:36:28.380001Z</value></time><waveformID networkCode="CX" stationCode="PSGCX" channelCode="HHN"/><filterID>ITAPER(2)&gt;&gt;BW(3,3,20)</filterID><methodID>L2-AIC-GRID</methodID><horizontalSlowness><value>16.448942295282936</value></horizontalSlowness><backazimuth><value>112.82292831030796</value></backazimuth><phaseHint>S</phaseHint><evaluationMode>automatic</evaluationMode><comment><text>12.587779536364007</text><id>DFX:rectilinearity</id></comment><comment><text>de.gempa.tb1.Pick/20250414063629.593415.136232</text><id>RefPickID</id></comment><comment><text>8.509913496196145</text><id>SNR</id></comment></pick><pick publicID="de.gempa.tb1.Pick/20250414063654.592194.136243"><time><value>2025-04-14T06:36:42.668393Z</value></time><waveformID networkCode="CX" stationCode="PB01" channelCode="HHN"/><filterID>ITAPER(2)&gt;&gt;BW(3,3,20)</filterID><methodID>L2-AIC-GRID</methodID><horizontalSlowness><value>18.558478774280864</value></horizontalSlowness><backazimuth><value>254.51027001076335</value></backazimuth><phaseHint>S</phaseHint><evaluationMode>automatic</evaluationMode><comment><text>25.619567466148066</text><id>DFX:rectilinearity</id></comment><comment><text>de.gempa.tb1.Pick/20250414063637.601654.136236</text><id>RefPickID</id></comment><comment><text>12.281376039130796</text><id>SNR</id></comment></pick><pick publicID="de.gempa.tb1.Pick/20250414063657.662986.136249"><time><value>2025-04-14T06:36:50.128391Z</value></time><waveformID networkCode="CX" stationCode="PB02" channelCode="HHN"/><filterID>ITAPER(2)&gt;&gt;BW(3,3,20)</filterID><methodID>L2-AIC-GRID</methodID><horizontalSlowness><value>12.693146894413871</value></horizontalSlowness><backazimuth><value>17.82704907814096</value></backazimuth><phaseHint>S</phaseHint><evaluationMode>automatic</evaluationMode><comment><text>11.766261608828163</text><id>DFX:rectilinearity</id></comment><comment><text>de.gempa.tb1.Pick/20250414063642.493735.136238</text><id>RefPickID</id></comment><comment><text>5.113408356389533</text><id>SNR</id></comment></pick><origin publicID="de.gempa.tb1.Origin/20250414063657.68003.130124"><time><value>2025-04-14T06:36:10.195911Z</value><uncertainty>0.5673280954360962</uncertainty></time><latitude><value>-20.089649200439453</value><uncertainty>3.743281364440918</uncertainty></latitude><longitude><value>-69.86382293701172</value><uncertainty>10.189980506896973</uncertainty></longitude><depth><value>0</value></depth><depthType>operator assigned</depthType><methodID>LOCSAT</methodID><earthModelID>iasp91_scanloc</earthModelID><quality><associatedPhaseCount>6</associatedPhaseCount><usedPhaseCount>6</usedPhaseCount><associatedStationCount>3</associatedStationCount><usedStationCount>3</usedStationCount><depthPhaseCount>0</depthPhaseCount><standardError>0.8657615567357205</standardError><azimuthalGap>186.19168090820312</azimuthalGap><maximumDistance>1.2242599725723267</maximumDistance><minimumDistance>0.5473410487174988</minimumDistance><medianDistance>1.0122036933898926</medianDistance></quality><uncertainty><minHorizontalUncertainty>3.880455493927002</minHorizontalUncertainty><maxHorizontalUncertainty>22.95945358276367</maxHorizontalUncertainty><azimuthMaxHorizontalUncertainty>71.90313720703125</azimuthMaxHorizontalUncertainty><preferredDescription>horizontal uncertainty</preferredDescription></uncertainty><evaluationMode>automatic</evaluationMode><evaluationStatus>confirmed</evaluationStatus><comment><text>0.47</text><id>mismatchScore</id></comment><comment><text>mismatchScore</text><id>scevalMethod</id></comment><arrival><pickID>de.gempa.tb1.Pick/20250414063629.593415.136232</pickID><phase>P</phase><azimuth>333.4798583984375</azimuth><distance>0.5473410487174988</distance><timeResidual>-0.6856508255004883</timeResidual><timeUsed>true</timeUsed><horizontalSlownessUsed>false</horizontalSlownessUsed><backazimuthUsed>false</backazimuthUsed><weight>1</weight></arrival><arrival><pickID>de.gempa.tb1.Pick/20250414063637.601654.136236</pickID><phase>P</phase><azimuth>159.67153930664062</azimuth><distance>1.0122036933898926</distance><timeResidual>1.077427864074707</timeResidual><timeUsed>true</timeUsed><horizontalSlownessUsed>false</horizontalSlownessUsed><backazimuthUsed>false</backazimuthUsed><weight>1</weight></arrival><arrival><pickID>de.gempa.tb1.Pick/20250414063642.493735.136238</pickID><phase>P</phase><azimuth>181.40548706054688</azimuth><distance>1.2242599725723267</distance><timeResidual>1.1901473999023438</timeResidual><timeUsed>true</timeUsed><horizontalSlownessUsed>false</horizontalSlownessUsed><backazimuthUsed>false</backazimuthUsed><weight>1</weight></arrival><arrival><pickID>de.gempa.tb1.Pick/20250414063642.773555.136240</pickID><phase>S</phase><azimuth>333.4798583984375</azimuth><distance>0.5473410487174988</distance><timeResidual>0.05967140197753906</timeResidual><timeUsed>true</timeUsed><horizontalSlownessUsed>false</horizontalSlownessUsed><backazimuthUsed>false</backazimuthUsed><weight>1</weight></arrival><arrival><pickID>de.gempa.tb1.Pick/20250414063654.592194.136243</pickID><phase>S</phase><azimuth>159.67153930664062</azimuth><distance>1.0122036933898926</distance><timeResidual>-1.0410985946655273</timeResidual><timeUsed>true</timeUsed><horizontalSlownessUsed>false</horizontalSlownessUsed><backazimuthUsed>false</backazimuthUsed><weight>1</weight></arrival><arrival><pickID>de.gempa.tb1.Pick/20250414063657.662986.136249</pickID><phase>S</phase><azimuth>181.40548706054688</azimuth><distance>1.2242599725723267</distance><timeResidual>-0.6019906997680664</timeResidual><timeUsed>true</timeUsed><horizontalSlownessUsed>false</horizontalSlownessUsed><backazimuthUsed>false</backazimuthUsed><weight>1</weight></arrival><magnitude publicID="de.gempa.tb1.Magnitude/20250414063715.584597.439342"><magnitude><value>1.8505751704390272</value></magnitude><type>M</type><methodID>weighted average</methodID><stationCount>3</stationCount></magnitude></origin><event publicID="gempa2025hitm"><preferredOriginID>de.gempa.tb1.Origin/20250414063657.68003.130124</preferredOriginID><preferredMagnitudeID>de.gempa.tb1.Magnitude/20250414063715.584597.439342</preferredMagnitudeID><description><text>Northern Chile</text><type>region name</type></description><originReference>de.gempa.tb1.Origin/20250414063657.68003.130124</originReference></event></EventParameters></seiscomp>