<?xml version="1.0" encoding="UTF-8"?>
<seiscomp xmlns="http://geofon.gfz-potsdam.de/ns/seiscomp3-schema/0.13" version="0.13"><EventParameters><pick publicID="de.gempa.tb1.Pick/20250411173703.594091.119001"><time><value>2025-04-11T17:36:58.668393Z</value></time><waveformID networkCode="CX" stationCode="PB01" channelCode="HHZ"/><filterID>ITAPER(4)&gt;&gt;BW(4,4,20)</filterID><methodID>AIC</methodID><horizontalSlowness><value>23.527750890022713</value></horizontalSlowness><backazimuth><value>178.9015726724672</value></backazimuth><phaseHint>P</phaseHint><evaluationMode>automatic</evaluationMode><comment><text>10.756221910272574</text><id>DFX:rectilinearity</id></comment><comment><text>23.85944985029524</text><id>SNR</id></comment></pick><pick publicID="de.gempa.tb1.Pick/20250411173707.595539.119003"><time><value>2025-04-11T17:37:00.84Z</value></time><waveformID networkCode="CX" stationCode="PB09" channelCode="HHZ"/><filterID>ITAPER(4)&gt;&gt;BW(4,4,20)</filterID><methodID>AIC</methodID><horizontalSlowness><value>20.022127458096882</value></horizontalSlowness><backazimuth><value>299.9693759321248</value></backazimuth><phaseHint>P</phaseHint><evaluationMode>automatic</evaluationMode><comment><text>14.680480509048053</text><id>DFX:rectilinearity</id></comment><comment><text>25.90770902913706</text><id>SNR</id></comment></pick><pick publicID="de.gempa.tb1.Pick/20250411173707.6378.119005"><time><value>2025-04-11T17:37:02.038393Z</value></time><waveformID networkCode="CX" stationCode="PB02" channelCode="HHZ"/><filterID>ITAPER(4)&gt;&gt;BW(4,4,20)</filterID><methodID>AIC</methodID><horizontalSlowness><value>6.45194458973558</value></horizontalSlowness><backazimuth><value>331.6087074497073</value></backazimuth><phaseHint>P</phaseHint><evaluationMode>automatic</evaluationMode><comment><text>27.307851270750824</text><id>DFX:rectilinearity</id></comment><comment><text>20.662310539925024</text><id>SNR</id></comment></pick><pick publicID="de.gempa.tb1.Pick/20250411173709.723337.119007"><time><value>2025-04-11T17:37:03.498396Z</value></time><waveformID networkCode="CX" stationCode="PB07" channelCode="HHZ"/><filterID>ITAPER(4)&gt;&gt;BW(4,4,20)</filterID><methodID>AIC</methodID><horizontalSlowness><value>23.017060173101857</value></horizontalSlowness><backazimuth><value>85.85542086084439</value></backazimuth><phaseHint>P</phaseHint><evaluationMode>automatic</evaluationMode><comment><text>192.26917662268846</text><id>DFX:rectilinearity</id></comment><comment><text>10.773701969146259</text><id>SNR</id></comment></pick><pick publicID="de.gempa.tb1.Pick/20250411173710.612269.119009"><time><value>2025-04-11T17:37:04.998393Z</value></time><waveformID networkCode="CX" stationCode="PB03" channelCode="HHZ"/><filterID>ITAPER(4)&gt;&gt;BW(4,4,20)</filterID><methodID>AIC</methodID><horizontalSlowness><value>20.563798318749864</value></horizontalSlowness><backazimuth><value>184.4421438965739</value></backazimuth><phaseHint>P</phaseHint><evaluationMode>automatic</evaluationMode><comment><text>2.364753251515403</text><id>DFX:rectilinearity</id></comment><comment><text>9.06900995124025</text><id>SNR</id></comment></pick><pick publicID="de.gempa.tb1.Pick/20250411173718.600652.119011"><time><value>2025-04-11T17:37:10.448393Z</value></time><waveformID networkCode="CX" stationCode="PB01" channelCode="HHN"/><filterID>ITAPER(2)&gt;&gt;BW(3,3,20)</filterID><methodID>L2-AIC-GRID</methodID><horizontalSlowness><value>21.883865950899374</value></horizontalSlowness><backazimuth><value>9.331549854635426</value></backazimuth><phaseHint>S</phaseHint><evaluationMode>automatic</evaluationMode><comment><text>578.1152676903338</text><id>DFX:rectilinearity</id></comment><comment><text>de.gempa.tb1.Pick/20250411173703.594091.119001</text><id>RefPickID</id></comment><comment><text>17.740210652404567</text><id>SNR</id></comment></pick><pick publicID="de.gempa.tb1.Pick/20250411173728.705275.119014"><time><value>2025-04-11T17:37:21.138393Z</value></time><waveformID networkCode="CX" stationCode="PB03" channelCode="HHN"/><filterID>ITAPER(2)&gt;&gt;BW(3,3,20)</filterID><methodID>L2-AIC-GRID</methodID><horizontalSlowness><value>2.766114437487733</value></horizontalSlowness><backazimuth><value>263.9840868270822</value></backazimuth><phaseHint>S</phaseHint><evaluationMode>automatic</evaluationMode><comment><text>9.063652680116901</text><id>DFX:rectilinearity</id></comment><comment><text>de.gempa.tb1.Pick/20250411173710.612269.119009</text><id>RefPickID</id></comment><comment><text>10.996434678659995</text><id>SNR</id></comment></pick><origin publicID="de.gempa.tb1.Origin/20250411173729.746925.61807"><time><value>2025-04-11T17:36:44.038509Z</value><uncertainty>1.4069169759750366</uncertainty></time><latitude><value>-21.17618179321289</value><uncertainty>7.371071338653564</uncertainty></latitude><longitude><value>-69.09581756591797</value><uncertainty>15.61584758758545</uncertainty></longitude><depth><value>98.62305450439453</value><uncertainty>11.542842864990234</uncertainty></depth><depthType>from location</depthType><methodID>LOCSAT</methodID><earthModelID>iasp91_scanloc</earthModelID><quality><associatedPhaseCount>7</associatedPhaseCount><usedPhaseCount>7</usedPhaseCount><associatedStationCount>5</associatedStationCount><usedStationCount>5</usedStationCount><depthPhaseCount>0</depthPhaseCount><standardError>0.13437962482252602</standardError><azimuthalGap>262.5859069824219</azimuthalGap><maximumDistance>1.0618534088134766</maximumDistance><minimumDistance>0.3888145387172699</minimumDistance><medianDistance>0.7600082159042358</medianDistance></quality><uncertainty><minHorizontalUncertainty>15.055156707763672</minHorizontalUncertainty><maxHorizontalUncertainty>33.832576751708984</maxHorizontalUncertainty><azimuthMaxHorizontalUncertainty>99.14871215820312</azimuthMaxHorizontalUncertainty><preferredDescription>horizontal uncertainty</preferredDescription></uncertainty><evaluationMode>automatic</evaluationMode><evaluationStatus>confirmed</evaluationStatus><comment><text>0.00</text><id>mismatchScore</id></comment><comment><text>mismatchScore</text><id>scevalMethod</id></comment><arrival><pickID>de.gempa.tb1.Pick/20250411173703.594091.119001</pickID><phase>P</phase><azimuth>289.8213806152344</azimuth><distance>0.3888145387172699</distance><timeResidual>-0.26596546173095703</timeResidual><timeUsed>true</timeUsed><horizontalSlownessUsed>false</horizontalSlownessUsed><backazimuthUsed>false</backazimuthUsed><weight>1</weight></arrival><arrival><pickID>de.gempa.tb1.Pick/20250411173707.595539.119003</pickID><phase>P</phase><azimuth>192.40728759765625</azimuth><distance>0.6319727897644043</distance><timeResidual>0.12246322631835938</timeResidual><timeUsed>true</timeUsed><horizontalSlownessUsed>false</horizontalSlownessUsed><backazimuthUsed>false</backazimuthUsed><weight>1</weight></arrival><arrival><pickID>de.gempa.tb1.Pick/20250411173707.6378.119005</pickID><phase>P</phase><azimuth>259.02325439453125</azimuth><distance>0.7600082159042358</distance><timeResidual>0.15608787536621094</timeResidual><timeUsed>true</timeUsed><horizontalSlownessUsed>false</horizontalSlownessUsed><backazimuthUsed>false</backazimuthUsed><weight>1</weight></arrival><arrival><pickID>de.gempa.tb1.Pick/20250411173709.723337.119007</pickID><phase>P</phase><azimuth>233.2077331542969</azimuth><distance>0.9176844358444214</distance><timeResidual>0.03194618225097656</timeResidual><timeUsed>true</timeUsed><horizontalSlownessUsed>false</horizontalSlownessUsed><backazimuthUsed>false</backazimuthUsed><weight>1</weight></arrival><arrival><pickID>de.gempa.tb1.Pick/20250411173710.612269.119009</pickID><phase>P</phase><azimuth>215.04954528808594</azimuth><distance>1.0618534088134766</distance><timeResidual>-0.03096294403076172</timeResidual><timeUsed>true</timeUsed><horizontalSlownessUsed>false</horizontalSlownessUsed><backazimuthUsed>false</backazimuthUsed><weight>1</weight></arrival><arrival><pickID>de.gempa.tb1.Pick/20250411173718.600652.119011</pickID><phase>S</phase><azimuth>289.8213806152344</azimuth><distance>0.3888145387172699</distance><timeResidual>0.07762527465820312</timeResidual><timeUsed>true</timeUsed><horizontalSlownessUsed>false</horizontalSlownessUsed><backazimuthUsed>false</backazimuthUsed><weight>1</weight></arrival><arrival><pickID>de.gempa.tb1.Pick/20250411173728.705275.119014</pickID><phase>S</phase><azimuth>215.04954528808594</azimuth><distance>1.0618534088134766</distance><timeResidual>-0.09111499786376953</timeResidual><timeUsed>true</timeUsed><horizontalSlownessUsed>false</horizontalSlownessUsed><backazimuthUsed>false</backazimuthUsed><weight>1</weight></arrival><magnitude publicID="de.gempa.tb1.Magnitude/20250411173735.936966.124271"><magnitude><value>2.4299483614556863</value></magnitude><type>M</type><methodID>weighted average</methodID><stationCount>4</stationCount></magnitude></origin><event publicID="gempa2025hebl"><preferredOriginID>de.gempa.tb1.Origin/20250411173729.746925.61807</preferredOriginID><preferredMagnitudeID>de.gempa.tb1.Magnitude/20250411173735.936966.124271</preferredMagnitudeID><description><text>Northern Chile</text><type>region name</type></description><originReference>de.gempa.tb1.Origin/20250411173729.746925.61807</originReference></event></EventParameters></seiscomp>