<?xml version="1.0" encoding="UTF-8"?>
<seiscomp xmlns="http://geofon.gfz-potsdam.de/ns/seiscomp3-schema/0.13" version="0.13"><EventParameters><pick publicID="de.gempa.tb1.Pick/20250415015211.570942.142759"><time><value>2025-04-15T01:52:04.308393Z</value></time><waveformID networkCode="CX" stationCode="PB03" channelCode="HHZ"/><filterID>ITAPER(4)&gt;&gt;BW(4,4,20)</filterID><methodID>AIC</methodID><horizontalSlowness><value>1.8364802639592877</value></horizontalSlowness><backazimuth><value>132.76506028305394</value></backazimuth><phaseHint>P</phaseHint><evaluationMode>automatic</evaluationMode><comment><text>11.960199821412745</text><id>DFX:rectilinearity</id></comment><comment><text>15.84128749796553</text><id>SNR</id></comment></pick><pick publicID="de.gempa.tb1.Pick/20250415015211.586775.142761"><time><value>2025-04-15T01:52:05.208393Z</value></time><waveformID networkCode="CX" stationCode="PB01" channelCode="HHZ"/><filterID>ITAPER(4)&gt;&gt;BW(4,4,20)</filterID><methodID>AIC</methodID><horizontalSlowness><value>16.026807457871328</value></horizontalSlowness><backazimuth><value>315.33289525002124</value></backazimuth><phaseHint>P</phaseHint><evaluationMode>automatic</evaluationMode><comment><text>45.8758443484145</text><id>DFX:rectilinearity</id></comment><comment><text>9.023123763775683</text><id>SNR</id></comment></pick><pick publicID="de.gempa.tb1.Pick/20250415015216.031118.142763"><time><value>2025-04-15T01:52:00.97Z</value></time><waveformID networkCode="CX" stationCode="PB09" channelCode="HHZ"/><filterID>ITAPER(4)&gt;&gt;BW(4,4,20)</filterID><methodID>AIC</methodID><horizontalSlowness><value>16.60592958409432</value></horizontalSlowness><backazimuth><value>295.0267760888978</value></backazimuth><phaseHint>P</phaseHint><evaluationMode>automatic</evaluationMode><comment><text>16.125071545361166</text><id>DFX:rectilinearity</id></comment><comment><text>9.940996131425962</text><id>SNR</id></comment></pick><pick publicID="de.gempa.tb1.Pick/20250415015222.177514.142765"><time><value>2025-04-15T01:52:06.218393Z</value></time><waveformID networkCode="CX" stationCode="PB07" channelCode="HHZ"/><filterID>ITAPER(4)&gt;&gt;BW(4,4,20)</filterID><methodID>AIC</methodID><horizontalSlowness><value>16.952313392907087</value></horizontalSlowness><backazimuth><value>232.48241787134373</value></backazimuth><phaseHint>P</phaseHint><evaluationMode>automatic</evaluationMode><comment><text>232.8438660665205</text><id>DFX:rectilinearity</id></comment><comment><text>30.74433666402551</text><id>SNR</id></comment></pick><pick publicID="de.gempa.tb1.Pick/20250415015222.280888.142767"><time><value>2025-04-15T01:52:12.649999Z</value></time><waveformID networkCode="CX" stationCode="PATCX" channelCode="HHZ"/><filterID>ITAPER(4)&gt;&gt;BW(4,4,20)</filterID><methodID>AIC</methodID><horizontalSlowness><value>10.966543267677093</value></horizontalSlowness><backazimuth><value>239.0692785680394</value></backazimuth><phaseHint>P</phaseHint><evaluationMode>automatic</evaluationMode><comment><text>100.56877470706429</text><id>DFX:rectilinearity</id></comment><comment><text>7.395646134660357</text><id>SNR</id></comment></pick><pick publicID="de.gempa.tb1.Pick/20250415015226.572491.142775"><time><value>2025-04-15T01:52:17.998393Z</value></time><waveformID networkCode="CX" stationCode="PB01" channelCode="HHN"/><filterID>ITAPER(2)&gt;&gt;BW(3,3,20)</filterID><methodID>L2-AIC-GRID</methodID><horizontalSlowness><value>16.388405814891502</value></horizontalSlowness><backazimuth><value>328.1520548917242</value></backazimuth><phaseHint>S</phaseHint><evaluationMode>automatic</evaluationMode><comment><text>25.793398450022174</text><id>DFX:rectilinearity</id></comment><comment><text>de.gempa.tb1.Pick/20250415015211.586775.142761</text><id>RefPickID</id></comment><comment><text>8.967590523615252</text><id>SNR</id></comment></pick><pick publicID="de.gempa.tb1.Pick/20250415015242.490887.142784"><time><value>2025-04-15T01:52:31.769999Z</value></time><waveformID networkCode="CX" stationCode="PATCX" channelCode="HHN"/><filterID>ITAPER(2)&gt;&gt;BW(3,3,20)</filterID><methodID>L2-AIC-GRID</methodID><horizontalSlowness><value>21.902780791067997</value></horizontalSlowness><backazimuth><value>224.45638609237665</value></backazimuth><phaseHint>S</phaseHint><evaluationMode>automatic</evaluationMode><comment><text>169.28092555665563</text><id>DFX:rectilinearity</id></comment><comment><text>de.gempa.tb1.Pick/20250415015222.280888.142767</text><id>RefPickID</id></comment><comment><text>9.599973454978143</text><id>SNR</id></comment></pick><origin publicID="de.gempa.tb1.Origin/20250415015242.511589.157789"><time><value>2025-04-15T01:51:48.304429Z</value><uncertainty>1.8180174827575684</uncertainty></time><latitude><value>-21.710744857788086</value><uncertainty>6.748077869415283</uncertainty></latitude><longitude><value>-68.955322265625</value><uncertainty>13.109807014465332</uncertainty></longitude><depth><value>79.33309936523438</value><uncertainty>14.37053108215332</uncertainty></depth><depthType>from location</depthType><methodID>LOCSAT</methodID><earthModelID>iasp91_scanloc</earthModelID><quality><associatedPhaseCount>7</associatedPhaseCount><usedPhaseCount>7</usedPhaseCount><associatedStationCount>5</associatedStationCount><usedStationCount>5</usedStationCount><depthPhaseCount>0</depthPhaseCount><standardError>0.4690157166732317</standardError><azimuthalGap>282.2971649169922</azimuthalGap><maximumDistance>1.4254735708236694</maximumDistance><minimumDistance>0.27972912788391113</minimumDistance><medianDistance>0.8289234042167664</medianDistance></quality><uncertainty><minHorizontalUncertainty>11.522082328796387</minHorizontalUncertainty><maxHorizontalUncertainty>29.44785690307617</maxHorizontalUncertainty><azimuthMaxHorizontalUncertainty>71.14749145507812</azimuthMaxHorizontalUncertainty><preferredDescription>horizontal uncertainty</preferredDescription></uncertainty><evaluationMode>automatic</evaluationMode><evaluationStatus>confirmed</evaluationStatus><comment><text>0.12</text><id>mismatchScore</id></comment><comment><text>mismatchScore</text><id>scevalMethod</id></comment><arrival><pickID>de.gempa.tb1.Pick/20250415015211.570942.142759</pickID><phase>P</phase><azimuth>245.45545959472656</azimuth><distance>0.8136510848999023</distance><timeResidual>-0.8492879867553711</timeResidual><timeUsed>true</timeUsed><horizontalSlownessUsed>false</horizontalSlownessUsed><backazimuthUsed>false</backazimuthUsed><weight>1</weight></arrival><arrival><pickID>de.gempa.tb1.Pick/20250415015211.586775.142761</pickID><phase>P</phase><azimuth>323.1582946777344</azimuth><distance>0.8289234042167664</distance><timeResidual>-0.1255941390991211</timeResidual><timeUsed>true</timeUsed><horizontalSlownessUsed>false</horizontalSlownessUsed><backazimuthUsed>false</backazimuthUsed><weight>1</weight></arrival><arrival><pickID>de.gempa.tb1.Pick/20250415015216.031118.142763</pickID><phase>P</phase><azimuth>252.21063232421875</azimuth><distance>0.27972912788391113</distance><timeResidual>0.5718011856079102</timeResidual><timeUsed>true</timeUsed><horizontalSlownessUsed>false</horizontalSlownessUsed><backazimuthUsed>false</backazimuthUsed><weight>1</weight></arrival><arrival><pickID>de.gempa.tb1.Pick/20250415015222.177514.142765</pickID><phase>P</phase><azimuth>268.7799377441406</azimuth><distance>0.8657100200653076</distance><timeResidual>0.4703512191772461</timeResidual><timeUsed>true</timeUsed><horizontalSlownessUsed>false</horizontalSlownessUsed><backazimuthUsed>false</backazimuthUsed><weight>1</weight></arrival><arrival><pickID>de.gempa.tb1.Pick/20250415015222.280888.142767</pickID><phase>P</phase><azimuth>308.19268798828125</azimuth><distance>1.4254735708236694</distance><timeResidual>0.008928298950195312</timeResidual><timeUsed>true</timeUsed><horizontalSlownessUsed>false</horizontalSlownessUsed><backazimuthUsed>false</backazimuthUsed><weight>1</weight></arrival><arrival><pickID>de.gempa.tb1.Pick/20250415015226.572491.142775</pickID><phase>S</phase><azimuth>323.1582946777344</azimuth><distance>0.8289234042167664</distance><timeResidual>-0.3927040100097656</timeResidual><timeUsed>true</timeUsed><horizontalSlownessUsed>false</horizontalSlownessUsed><backazimuthUsed>false</backazimuthUsed><weight>1</weight></arrival><arrival><pickID>de.gempa.tb1.Pick/20250415015242.490887.142784</pickID><phase>S</phase><azimuth>308.19268798828125</azimuth><distance>1.4254735708236694</distance><timeResidual>0.31667518615722656</timeResidual><timeUsed>true</timeUsed><horizontalSlownessUsed>false</horizontalSlownessUsed><backazimuthUsed>false</backazimuthUsed><weight>1</weight></arrival><magnitude publicID="de.gempa.tb1.Magnitude/20250415015405.484672.560236"><magnitude><value>2.13676959982278</value></magnitude><type>M</type><methodID>weighted average</methodID><stationCount>5</stationCount></magnitude></origin><event publicID="gempa2025hkga"><preferredOriginID>de.gempa.tb1.Origin/20250415015242.511589.157789</preferredOriginID><preferredMagnitudeID>de.gempa.tb1.Magnitude/20250415015405.484672.560236</preferredMagnitudeID><description><text>Chile-Bolivia Border Region</text><type>region name</type></description><originReference>de.gempa.tb1.Origin/20250415015242.511589.157789</originReference></event></EventParameters></seiscomp>