<?xml version="1.0" encoding="UTF-8"?>
<seiscomp xmlns="http://geofon.gfz-potsdam.de/ns/seiscomp3-schema/0.13" version="0.13"><EventParameters><pick publicID="de.gempa.tb1.Pick/20250413193223.543657.133446"><time><value>2025-04-13T19:32:18.690001Z</value></time><waveformID networkCode="CX" stationCode="PSGCX" channelCode="HHZ"/><filterID>ITAPER(4)&gt;&gt;BW(4,4,20)</filterID><methodID>AIC</methodID><horizontalSlowness><value>11.664134469865665</value></horizontalSlowness><backazimuth><value>97.33975214041588</value></backazimuth><phaseHint>P</phaseHint><evaluationMode>automatic</evaluationMode><comment><text>31.771010568705925</text><id>DFX:rectilinearity</id></comment><comment><text>58.38947112919315</text><id>SNR</id></comment></pick><pick publicID="de.gempa.tb1.Pick/20250413193227.046746.133448"><time><value>2025-04-13T19:32:21.048393Z</value></time><waveformID networkCode="CX" stationCode="PB08" channelCode="HHZ"/><filterID>ITAPER(4)&gt;&gt;BW(4,4,20)</filterID><methodID>AIC</methodID><horizontalSlowness><value>14.666145678329597</value></horizontalSlowness><backazimuth><value>91.81578689993611</value></backazimuth><phaseHint>P</phaseHint><evaluationMode>automatic</evaluationMode><comment><text>6.219083091474143</text><id>DFX:rectilinearity</id></comment><comment><text>13.12878154394888</text><id>SNR</id></comment></pick><pick publicID="de.gempa.tb1.Pick/20250413193234.531874.133450"><time><value>2025-04-13T19:32:30.078394Z</value></time><waveformID networkCode="CX" stationCode="PB01" channelCode="HHZ"/><filterID>ITAPER(4)&gt;&gt;BW(4,4,20)</filterID><methodID>AIC</methodID><horizontalSlowness><value>15.7640958620018</value></horizontalSlowness><backazimuth><value>12.06737904756244</value></backazimuth><phaseHint>P</phaseHint><evaluationMode>automatic</evaluationMode><comment><text>14.03306650849109</text><id>DFX:rectilinearity</id></comment><comment><text>19.87134824045371</text><id>SNR</id></comment></pick><pick publicID="de.gempa.tb1.Pick/20250413193241.580804.133452"><time><value>2025-04-13T19:32:30.460001Z</value></time><waveformID networkCode="CX" stationCode="PSGCX" channelCode="HHN"/><filterID>ITAPER(2)&gt;&gt;BW(3,3,20)</filterID><methodID>L2-AIC-GRID</methodID><horizontalSlowness><value>19.02657844533687</value></horizontalSlowness><backazimuth><value>223.49162844655578</value></backazimuth><phaseHint>S</phaseHint><evaluationMode>automatic</evaluationMode><comment><text>89.56008881922074</text><id>DFX:rectilinearity</id></comment><comment><text>de.gempa.tb1.Pick/20250413193223.543657.133446</text><id>RefPickID</id></comment><comment><text>12.971646793335735</text><id>SNR</id></comment></pick><pick publicID="de.gempa.tb1.Pick/20250413193242.573781.133453"><time><value>2025-04-13T19:32:34.158393Z</value></time><waveformID networkCode="CX" stationCode="PB08" channelCode="HHN"/><filterID>ITAPER(2)&gt;&gt;BW(3,3,20)</filterID><methodID>L2-AIC-GRID</methodID><horizontalSlowness><value>16.437101020919272</value></horizontalSlowness><backazimuth><value>211.42136984532809</value></backazimuth><phaseHint>S</phaseHint><evaluationMode>automatic</evaluationMode><comment><text>66.24573238893878</text><id>DFX:rectilinearity</id></comment><comment><text>de.gempa.tb1.Pick/20250413193227.046746.133448</text><id>RefPickID</id></comment><comment><text>9.828384963433198</text><id>SNR</id></comment></pick><pick publicID="de.gempa.tb1.Pick/20250413193247.619658.133454"><time><value>2025-04-13T19:32:40.588396Z</value></time><waveformID networkCode="CX" stationCode="PB07" channelCode="HHZ"/><filterID>ITAPER(4)&gt;&gt;BW(4,4,20)</filterID><methodID>AIC</methodID><horizontalSlowness><value>23.357496592070884</value></horizontalSlowness><backazimuth><value>112.8038722279683</value></backazimuth><phaseHint>P</phaseHint><evaluationMode>automatic</evaluationMode><comment><text>183.05916740797497</text><id>DFX:rectilinearity</id></comment><comment><text>8.541722625453119</text><id>SNR</id></comment></pick><pick publicID="de.gempa.tb1.Pick/20250413193257.600109.133457"><time><value>2025-04-13T19:32:50.018393Z</value></time><waveformID networkCode="CX" stationCode="PB06" channelCode="HHZ"/><filterID>ITAPER(4)&gt;&gt;BW(4,4,20)</filterID><methodID>AIC</methodID><horizontalSlowness><value>9.338561177774739</value></horizontalSlowness><backazimuth><value>95.08586855166695</value></backazimuth><phaseHint>P</phaseHint><evaluationMode>automatic</evaluationMode><comment><text>29.48326798258782</text><id>DFX:rectilinearity</id></comment><comment><text>14.565946764723558</text><id>SNR</id></comment></pick><pick publicID="de.gempa.tb1.Pick/20250413193259.648817.133461"><time><value>2025-04-13T19:32:50.998394Z</value></time><waveformID networkCode="CX" stationCode="PB01" channelCode="HHN"/><filterID>ITAPER(2)&gt;&gt;BW(3,3,20)</filterID><methodID>L2-AIC-GRID</methodID><horizontalSlowness><value>23.36871842097787</value></horizontalSlowness><backazimuth><value>293.59348991046443</value></backazimuth><phaseHint>S</phaseHint><evaluationMode>automatic</evaluationMode><comment><text>141.06679889513606</text><id>DFX:rectilinearity</id></comment><comment><text>de.gempa.tb1.Pick/20250413193234.531874.133450</text><id>RefPickID</id></comment><comment><text>9.733844175653148</text><id>SNR</id></comment></pick><pick publicID="de.gempa.tb1.Pick/20250413193302.613899.133467"><time><value>2025-04-13T19:32:56.818393Z</value></time><waveformID networkCode="CX" stationCode="PB15" channelCode="HHZ"/><filterID>ITAPER(4)&gt;&gt;BW(4,4,20)</filterID><methodID>AIC</methodID><horizontalSlowness><value>20.641082667108364</value></horizontalSlowness><backazimuth><value>72.89628653858772</value></backazimuth><phaseHint>P</phaseHint><evaluationMode>automatic</evaluationMode><comment><text>277.3331952625813</text><id>DFX:rectilinearity</id></comment><comment><text>16.128858734096951</text><id>SNR</id></comment></pick><pick publicID="de.gempa.tb1.Pick/20250413193314.627132.133473"><time><value>2025-04-13T19:33:08.119998Z</value></time><waveformID networkCode="CX" stationCode="PB19" channelCode="HHZ"/><filterID>ITAPER(4)&gt;&gt;BW(4,4,20)</filterID><methodID>AIC</methodID><horizontalSlowness><value>20.431619085871837</value></horizontalSlowness><backazimuth><value>197.41515510343163</value></backazimuth><phaseHint>P</phaseHint><evaluationMode>automatic</evaluationMode><comment><text>25.92635079361727</text><id>DFX:rectilinearity</id></comment><comment><text>48.00072620045516</text><id>SNR</id></comment></pick><origin publicID="de.gempa.tb1.Origin/20250413193315.564988.118370"><time><value>2025-04-13T19:32:02.685271Z</value><uncertainty>1.177475094795227</uncertainty></time><latitude><value>-19.459321975708008</value><uncertainty>8.467413902282715</uncertainty></latitude><longitude><value>-69.56185150146484</value><uncertainty>7.87018632888794</uncertainty></longitude><depth><value>97.53336334228516</value><uncertainty>6.13018798828125</uncertainty></depth><depthType>from location</depthType><methodID>LOCSAT</methodID><earthModelID>iasp91_scanloc</earthModelID><quality><associatedPhaseCount>10</associatedPhaseCount><usedPhaseCount>10</usedPhaseCount><associatedStationCount>7</associatedStationCount><usedStationCount>7</usedStationCount><depthPhaseCount>0</depthPhaseCount><standardError>0.8966328914473682</standardError><azimuthalGap>255.1315612792969</azimuthalGap><maximumDistance>4.4309568405151367</maximumDistance><minimumDistance>0.5467827916145325</minimumDistance><medianDistance>1.577374815940857</medianDistance></quality><uncertainty><minHorizontalUncertainty>10.89609432220459</minHorizontalUncertainty><maxHorizontalUncertainty>22.274316787719727</maxHorizontalUncertainty><azimuthMaxHorizontalUncertainty>41.58428192138672</azimuthMaxHorizontalUncertainty><preferredDescription>horizontal uncertainty</preferredDescription></uncertainty><evaluationMode>automatic</evaluationMode><evaluationStatus>confirmed</evaluationStatus><comment><text>0.57</text><id>mismatchScore</id></comment><comment><text>extendedGap</text><id>scevalMethod</id></comment><arrival><pickID>de.gempa.tb1.Pick/20250413193223.543657.133446</pickID><phase>P</phase><azimuth>255.3824157714844</azimuth><distance>0.5467827916145325</distance><timeResidual>0.12680912017822266</timeResidual><timeUsed>true</timeUsed><horizontalSlownessUsed>false</horizontalSlownessUsed><backazimuthUsed>false</backazimuthUsed><weight>1</weight></arrival><arrival><pickID>de.gempa.tb1.Pick/20250413193227.046746.133448</pickID><phase>P</phase><azimuth>150.51397705078125</azimuth><distance>0.7797245383262634</distance><timeResidual>0.4225606918334961</timeResidual><timeUsed>true</timeUsed><horizontalSlownessUsed>false</horizontalSlownessUsed><backazimuthUsed>false</backazimuthUsed><weight>1</weight></arrival><arrival><pickID>de.gempa.tb1.Pick/20250413193234.531874.133450</pickID><phase>P</phase><azimuth>177.4725799560547</azimuth><distance>1.577374815940857</distance><timeResidual>0.3133811950683594</timeResidual><timeUsed>true</timeUsed><horizontalSlownessUsed>false</horizontalSlownessUsed><backazimuthUsed>false</backazimuthUsed><weight>1</weight></arrival><arrival><pickID>de.gempa.tb1.Pick/20250413193241.580804.133452</pickID><phase>S</phase><azimuth>255.3824157714844</azimuth><distance>0.5467827916145325</distance><timeResidual>-0.3012580871582031</timeResidual><timeUsed>true</timeUsed><horizontalSlownessUsed>false</horizontalSlownessUsed><backazimuthUsed>false</backazimuthUsed><weight>1</weight></arrival><arrival><pickID>de.gempa.tb1.Pick/20250413193242.573781.133453</pickID><phase>S</phase><azimuth>150.51397705078125</azimuth><distance>0.7797245383262634</distance><timeResidual>-0.27556800842285156</timeResidual><timeUsed>true</timeUsed><horizontalSlownessUsed>false</horizontalSlownessUsed><backazimuthUsed>false</backazimuthUsed><weight>1</weight></arrival><arrival><pickID>de.gempa.tb1.Pick/20250413193247.619658.133454</pickID><phase>P</phase><azimuth>187.61495971679688</azimuth><distance>2.2762632369995117</distance><timeResidual>1.8241043090820312</timeResidual><timeUsed>true</timeUsed><horizontalSlownessUsed>false</horizontalSlownessUsed><backazimuthUsed>false</backazimuthUsed><weight>1</weight></arrival><arrival><pickID>de.gempa.tb1.Pick/20250413193257.600109.133457</pickID><phase>P</phase><azimuth>180.16427612304688</azimuth><distance>3.2303433418273926</distance><timeResidual>-1.4384536743164062</timeResidual><timeUsed>true</timeUsed><horizontalSlownessUsed>false</horizontalSlownessUsed><backazimuthUsed>false</backazimuthUsed><weight>1</weight></arrival><arrival><pickID>de.gempa.tb1.Pick/20250413193259.648817.133461</pickID><phase>S</phase><azimuth>177.4725799560547</azimuth><distance>1.577374815940857</distance><timeResidual>0.23639678955078125</timeResidual><timeUsed>true</timeUsed><horizontalSlownessUsed>false</horizontalSlownessUsed><backazimuthUsed>false</backazimuthUsed><weight>1</weight></arrival><arrival><pickID>de.gempa.tb1.Pick/20250413193302.613899.133467</pickID><phase>P</phase><azimuth>178.71437072753906</azimuth><distance>3.731480360031128</distance><timeResidual>-1.380096435546875</timeResidual><timeUsed>true</timeUsed><horizontalSlownessUsed>false</horizontalSlownessUsed><backazimuthUsed>false</backazimuthUsed><weight>1</weight></arrival><arrival><pickID>de.gempa.tb1.Pick/20250413193314.627132.133473</pickID><phase>P</phase><azimuth>176.7855682373047</azimuth><distance>4.4309568405151367</distance><timeResidual>0.4721336364746094</timeResidual><timeUsed>true</timeUsed><horizontalSlownessUsed>false</horizontalSlownessUsed><backazimuthUsed>false</backazimuthUsed><weight>1</weight></arrival><magnitude publicID="de.gempa.tb1.Magnitude/20250413193315.569837.394239"><magnitude><value>3.127967853837687</value></magnitude><type>M</type><methodID>weighted average</methodID><stationCount>5</stationCount></magnitude></origin><event publicID="gempa2025hhxi"><preferredOriginID>de.gempa.tb1.Origin/20250413193315.564988.118370</preferredOriginID><preferredMagnitudeID>de.gempa.tb1.Magnitude/20250413193315.569837.394239</preferredMagnitudeID><description><text>Northern Chile</text><type>region name</type></description><originReference>de.gempa.tb1.Origin/20250413193315.564988.118370</originReference></event></EventParameters></seiscomp>