<?xml version="1.0" encoding="UTF-8"?>
<seiscomp xmlns="http://geofon.gfz-potsdam.de/ns/seiscomp3-schema/0.13" version="0.13"><EventParameters><pick publicID="de.gempa.tb1.Pick/20250412082946.857379.122968"><time><value>2025-04-12T08:29:41.64Z</value></time><waveformID networkCode="CX" stationCode="PB09" channelCode="HHZ"/><filterID>ITAPER(4)&gt;&gt;BW(4,4,20)</filterID><methodID>AIC</methodID><horizontalSlowness><value>16.392854186698948</value></horizontalSlowness><backazimuth><value>72.41236114156376</value></backazimuth><phaseHint>P</phaseHint><evaluationMode>automatic</evaluationMode><comment><text>51812.37687128024</text><id>DFX:rectilinearity</id></comment><comment><text>622.1892440873978</text><id>SNR</id></comment></pick><pick publicID="de.gempa.tb1.Pick/20250412082949.643806.122970"><time><value>2025-04-12T08:29:43.688393Z</value></time><waveformID networkCode="CX" stationCode="PB01" channelCode="HHZ"/><filterID>ITAPER(4)&gt;&gt;BW(4,4,20)</filterID><methodID>AIC</methodID><horizontalSlowness><value>9.085782870724028</value></horizontalSlowness><backazimuth><value>113.37050716602381</value></backazimuth><phaseHint>P</phaseHint><evaluationMode>automatic</evaluationMode><comment><text>5319.48586697854</text><id>DFX:rectilinearity</id></comment><comment><text>647.5201366278077</text><id>SNR</id></comment></pick><pick publicID="de.gempa.tb1.Pick/20250412082950.560341.122972"><time><value>2025-04-12T08:29:46.398391Z</value></time><waveformID networkCode="CX" stationCode="PB03" channelCode="HHZ"/><filterID>ITAPER(4)&gt;&gt;BW(4,4,20)</filterID><methodID>AIC</methodID><horizontalSlowness><value>9.463470665432336</value></horizontalSlowness><backazimuth><value>56.61013527688428</value></backazimuth><phaseHint>P</phaseHint><evaluationMode>automatic</evaluationMode><comment><text>11935.340807034707</text><id>DFX:rectilinearity</id></comment><comment><text>421.04664520653017</text><id>SNR</id></comment></pick><pick publicID="de.gempa.tb1.Pick/20250412082950.70794.122974"><time><value>2025-04-12T08:29:46.628393Z</value></time><waveformID networkCode="CX" stationCode="PB02" channelCode="HHZ"/><filterID>ITAPER(4)&gt;&gt;BW(4,4,20)</filterID><methodID>AIC</methodID><horizontalSlowness><value>5.17290744100977</value></horizontalSlowness><backazimuth><value>63.68456057832113</value></backazimuth><phaseHint>P</phaseHint><evaluationMode>automatic</evaluationMode><comment><text>32006.2428220271</text><id>DFX:rectilinearity</id></comment><comment><text>421.59012625415284</text><id>SNR</id></comment></pick><pick publicID="de.gempa.tb1.Pick/20250412082954.577971.122976"><time><value>2025-04-12T08:29:50.608393Z</value></time><waveformID networkCode="CX" stationCode="PB08" channelCode="HHZ"/><filterID>ITAPER(4)&gt;&gt;BW(4,4,20)</filterID><methodID>AIC</methodID><horizontalSlowness><value>15.732710464259947</value></horizontalSlowness><backazimuth><value>209.9998542112569</value></backazimuth><phaseHint>P</phaseHint><evaluationMode>automatic</evaluationMode><comment><text>560.3299748286614</text><id>DFX:rectilinearity</id></comment><comment><text>58.29972629054366</text><id>SNR</id></comment></pick><pick publicID="de.gempa.tb1.Pick/20250412082955.681398.122978"><time><value>2025-04-12T08:29:49.908394Z</value></time><waveformID networkCode="CX" stationCode="PB06" channelCode="HHZ"/><filterID>ITAPER(4)&gt;&gt;BW(4,4,20)</filterID><methodID>AIC</methodID><horizontalSlowness><value>5.92010308005668</value></horizontalSlowness><backazimuth><value>70.13390334560904</value></backazimuth><phaseHint>P</phaseHint><evaluationMode>automatic</evaluationMode><comment><text>3255.6673223533253</text><id>DFX:rectilinearity</id></comment><comment><text>133.89640157862274</text><id>SNR</id></comment></pick><pick publicID="de.gempa.tb1.Pick/20250412082956.237783.122980"><time><value>2025-04-12T08:29:51.499999Z</value></time><waveformID networkCode="CX" stationCode="PATCX" channelCode="HHZ"/><filterID>ITAPER(4)&gt;&gt;BW(4,4,20)</filterID><methodID>AIC</methodID><horizontalSlowness><value>5.150130442079051</value></horizontalSlowness><backazimuth><value>166.22479598293032</value></backazimuth><phaseHint>P</phaseHint><evaluationMode>automatic</evaluationMode><comment><text>69506.60664756356</text><id>DFX:rectilinearity</id></comment><comment><text>183.96518998269988</text><id>SNR</id></comment></pick><pick publicID="de.gempa.tb1.Pick/20250412083001.209676.122982"><time><value>2025-04-12T08:29:54.738393Z</value></time><waveformID networkCode="CX" stationCode="PB15" channelCode="HHZ"/><filterID>ITAPER(4)&gt;&gt;BW(4,4,20)</filterID><methodID>AIC</methodID><horizontalSlowness><value>20.590203840604637</value></horizontalSlowness><backazimuth><value>68.84732350558485</value></backazimuth><phaseHint>P</phaseHint><evaluationMode>automatic</evaluationMode><comment><text>34419.498847489886</text><id>DFX:rectilinearity</id></comment><comment><text>60.52521287327212</text><id>SNR</id></comment></pick><pick publicID="de.gempa.tb1.Pick/20250412083005.434507.122984"><time><value>2025-04-12T08:29:56.69Z</value></time><waveformID networkCode="CX" stationCode="PB09" channelCode="HHN"/><filterID>ITAPER(2)&gt;&gt;BW(3,3,20)</filterID><methodID>L2-AIC-GRID</methodID><horizontalSlowness><value>11.762234722831828</value></horizontalSlowness><backazimuth><value>320.6459027743719</value></backazimuth><phaseHint>S</phaseHint><evaluationMode>automatic</evaluationMode><comment><text>336132.0272652299</text><id>DFX:rectilinearity</id></comment><comment><text>de.gempa.tb1.Pick/20250412082946.857379.122968</text><id>RefPickID</id></comment><comment><text>5.151201823436902</text><id>SNR</id></comment></pick><pick publicID="de.gempa.tb1.Pick/20250412083007.56428.122985"><time><value>2025-04-12T08:29:59.9Z</value></time><waveformID networkCode="CX" stationCode="PSGCX" channelCode="HHZ"/><filterID>ITAPER(4)&gt;&gt;BW(4,4,20)</filterID><methodID>AIC</methodID><horizontalSlowness><value>9.527667816452285</value></horizontalSlowness><backazimuth><value>161.34304493905037</value></backazimuth><phaseHint>P</phaseHint><evaluationMode>automatic</evaluationMode><comment><text>651.1327173625659</text><id>DFX:rectilinearity</id></comment><comment><text>110.9381722549453</text><id>SNR</id></comment></pick><pick publicID="de.gempa.tb1.Pick/20250412083007.965727.122988"><time><value>2025-04-12T08:30:00.158393Z</value></time><waveformID networkCode="CX" stationCode="PB01" channelCode="HHN"/><filterID>ITAPER(2)&gt;&gt;BW(3,3,20)</filterID><methodID>L2-AIC-GRID</methodID><horizontalSlowness><value>22.172905619204734</value></horizontalSlowness><backazimuth><value>225.8021376676313</value></backazimuth><phaseHint>S</phaseHint><evaluationMode>automatic</evaluationMode><comment><text>201598.64501462731</text><id>DFX:rectilinearity</id></comment><comment><text>de.gempa.tb1.Pick/20250412082949.643806.122970</text><id>RefPickID</id></comment><comment><text>11.205304072478942</text><id>SNR</id></comment></pick><pick publicID="de.gempa.tb1.Pick/20250412083008.651593.122989"><time><value>2025-04-12T08:30:02.38Z</value></time><waveformID networkCode="CX" stationCode="PB19" channelCode="HHZ"/><filterID>ITAPER(4)&gt;&gt;BW(4,4,20)</filterID><methodID>AIC</methodID><horizontalSlowness><value>12.933876507116443</value></horizontalSlowness><backazimuth><value>49.83633856891657</value></backazimuth><phaseHint>P</phaseHint><evaluationMode>automatic</evaluationMode><comment><text>101.90829047952504</text><id>DFX:rectilinearity</id></comment><comment><text>72.9319068974515</text><id>SNR</id></comment></pick><pick publicID="de.gempa.tb1.Pick/20250412083012.785187.122991"><time><value>2025-04-12T08:30:04.708391Z</value></time><waveformID networkCode="CX" stationCode="PB03" channelCode="HHN"/><filterID>ITAPER(2)&gt;&gt;BW(3,3,20)</filterID><methodID>L2-AIC-GRID</methodID><horizontalSlowness><value>17.35155313033896</value></horizontalSlowness><backazimuth><value>287.3061406667938</value></backazimuth><phaseHint>S</phaseHint><evaluationMode>automatic</evaluationMode><comment><text>64589.91496916721</text><id>DFX:rectilinearity</id></comment><comment><text>de.gempa.tb1.Pick/20250412082950.560341.122972</text><id>RefPickID</id></comment><comment><text>13.053802827995147</text><id>SNR</id></comment></pick><pick publicID="de.gempa.tb1.Pick/20250412083013.55675.122992"><time><value>2025-04-12T08:29:46.748391Z</value></time><waveformID networkCode="CX" stationCode="PB07" channelCode="HHZ"/><filterID>ITAPER(4)&gt;&gt;BW(4,4,20)</filterID><methodID>AIC</methodID><horizontalSlowness><value>14.144057915500316</value></horizontalSlowness><backazimuth><value>104.85606439397465</value></backazimuth><phaseHint>P</phaseHint><evaluationMode>automatic</evaluationMode><comment><text>816685.4907887204</text><id>DFX:rectilinearity</id></comment><comment><text>1592.4999442845285</text><id>SNR</id></comment></pick><pick publicID="de.gempa.tb1.Pick/20250412083015.658096.122995"><time><value>2025-04-12T08:30:05.368393Z</value></time><waveformID networkCode="CX" stationCode="PB02" channelCode="HHN"/><filterID>ITAPER(2)&gt;&gt;BW(3,3,20)</filterID><methodID>L2-AIC-GRID</methodID><horizontalSlowness><value>19.694254288911235</value></horizontalSlowness><backazimuth><value>275.1569041326135</value></backazimuth><phaseHint>S</phaseHint><evaluationMode>automatic</evaluationMode><comment><text>394427.3440534926</text><id>DFX:rectilinearity</id></comment><comment><text>de.gempa.tb1.Pick/20250412082950.70794.122974</text><id>RefPickID</id></comment><comment><text>6.284547692605564</text><id>SNR</id></comment></pick><pick publicID="de.gempa.tb1.Pick/20250412083018.819789.122997"><time><value>2025-04-12T08:30:11.018394Z</value></time><waveformID networkCode="CX" stationCode="PB06" channelCode="HHN"/><filterID>ITAPER(2)&gt;&gt;BW(3,3,20)</filterID><methodID>L2-AIC-GRID</methodID><horizontalSlowness><value>23.204633775128226</value></horizontalSlowness><backazimuth><value>134.35452840110116</value></backazimuth><phaseHint>S</phaseHint><evaluationMode>automatic</evaluationMode><comment><text>56283.00576526807</text><id>DFX:rectilinearity</id></comment><comment><text>de.gempa.tb1.Pick/20250412082955.681398.122978</text><id>RefPickID</id></comment><comment><text>16.61313630081073</text><id>SNR</id></comment></pick><pick publicID="de.gempa.tb1.Pick/20250412083022.269043.123000"><time><value>2025-04-12T08:30:13.939999Z</value></time><waveformID networkCode="CX" stationCode="PATCX" channelCode="HHN"/><filterID>ITAPER(2)&gt;&gt;BW(3,3,20)</filterID><methodID>L2-AIC-GRID</methodID><horizontalSlowness><value>22.89470886445533</value></horizontalSlowness><backazimuth><value>235.2059228218523</value></backazimuth><phaseHint>S</phaseHint><evaluationMode>automatic</evaluationMode><comment><text>90230.52910081342</text><id>DFX:rectilinearity</id></comment><comment><text>de.gempa.tb1.Pick/20250412082956.237783.122980</text><id>RefPickID</id></comment><comment><text>10.294382246267313</text><id>SNR</id></comment></pick><pick publicID="de.gempa.tb1.Pick/20250412083023.730409.123003"><time><value>2025-04-12T08:30:12.188393Z</value></time><waveformID networkCode="CX" stationCode="PB08" channelCode="HHN"/><filterID>ITAPER(2)&gt;&gt;BW(3,3,20)</filterID><methodID>L2-AIC-GRID</methodID><horizontalSlowness><value>11.993208192007172</value></horizontalSlowness><backazimuth><value>226.46778435375154</value></backazimuth><phaseHint>S</phaseHint><evaluationMode>automatic</evaluationMode><comment><text>7718.376181973478</text><id>DFX:rectilinearity</id></comment><comment><text>de.gempa.tb1.Pick/20250412082954.577971.122976</text><id>RefPickID</id></comment><comment><text>6.903139472127681</text><id>SNR</id></comment></pick><pick publicID="de.gempa.tb1.Pick/20250412083026.999488.123006"><time><value>2025-04-12T08:30:20.578393Z</value></time><waveformID networkCode="CX" stationCode="PB15" channelCode="HHN"/><filterID>ITAPER(2)&gt;&gt;BW(3,3,20)</filterID><methodID>L2-AIC-GRID</methodID><horizontalSlowness><value>22.997014722824947</value></horizontalSlowness><backazimuth><value>153.66750856192124</value></backazimuth><phaseHint>S</phaseHint><evaluationMode>automatic</evaluationMode><comment><text>533273.5430033481</text><id>DFX:rectilinearity</id></comment><comment><text>de.gempa.tb1.Pick/20250412083001.209676.122982</text><id>RefPickID</id></comment><comment><text>5.779171792751153</text><id>SNR</id></comment></pick><pick publicID="de.gempa.tb1.Pick/20250412083038.798991.123008"><time><value>2025-04-12T08:30:29.77Z</value></time><waveformID networkCode="CX" stationCode="PSGCX" channelCode="HHN"/><filterID>ITAPER(2)&gt;&gt;BW(3,3,20)</filterID><methodID>L2-AIC-GRID</methodID><horizontalSlowness><value>22.65180495183898</value></horizontalSlowness><backazimuth><value>176.27957711585123</value></backazimuth><phaseHint>S</phaseHint><evaluationMode>automatic</evaluationMode><comment><text>3634.152665187814</text><id>DFX:rectilinearity</id></comment><comment><text>de.gempa.tb1.Pick/20250412083007.56428.122985</text><id>RefPickID</id></comment><comment><text>5.882181556724764</text><id>SNR</id></comment></pick><pick publicID="de.gempa.tb1.Pick/20250412083042.68122.123009"><time><value>2025-04-12T08:30:33.56Z</value></time><waveformID networkCode="CX" stationCode="PB19" channelCode="HHN"/><filterID>ITAPER(2)&gt;&gt;BW(3,3,20)</filterID><methodID>L2-AIC-GRID</methodID><horizontalSlowness><value>20.941848550669565</value></horizontalSlowness><backazimuth><value>47.27246123621384</value></backazimuth><phaseHint>S</phaseHint><evaluationMode>automatic</evaluationMode><comment><text>16803.680150875116</text><id>DFX:rectilinearity</id></comment><comment><text>de.gempa.tb1.Pick/20250412083008.651593.122989</text><id>RefPickID</id></comment><comment><text>7.751994358792598</text><id>SNR</id></comment></pick><pick publicID="de.gempa.tb1.Pick/20250412083059.378118.123010"><time><value>2025-04-12T08:30:05.758391Z</value></time><waveformID networkCode="CX" stationCode="PB07" channelCode="HHN"/><filterID>ITAPER(2)&gt;&gt;BW(3,3,20)</filterID><methodID>L2-AIC-GRID</methodID><horizontalSlowness><value>21.998467115349357</value></horizontalSlowness><backazimuth><value>272.0456018428705</value></backazimuth><phaseHint>S</phaseHint><evaluationMode>automatic</evaluationMode><comment><text>3078702.8035429684</text><id>DFX:rectilinearity</id></comment><comment><text>de.gempa.tb1.Pick/20250412083013.55675.122992</text><id>RefPickID</id></comment><comment><text>7.425250621370282</text><id>SNR</id></comment></pick><origin publicID="de.gempa.tb1.Origin/20250412083059.383052.78885"><time><value>2025-04-12T08:29:22.947379Z</value><uncertainty>0.601831316947937</uncertainty></time><latitude><value>-21.505720138549805</value><uncertainty>2.1301417350769043</uncertainty></latitude><longitude><value>-68.69842529296875</value><uncertainty>6.734368324279785</uncertainty></longitude><depth><value>126.38705444335938</value><uncertainty>6.878909111022949</uncertainty></depth><depthType>from location</depthType><methodID>LOCSAT</methodID><earthModelID>iasp91_scanloc</earthModelID><quality><associatedPhaseCount>22</associatedPhaseCount><usedPhaseCount>22</usedPhaseCount><associatedStationCount>11</associatedStationCount><usedStationCount>11</usedStationCount><depthPhaseCount>0</depthPhaseCount><standardError>0.5898763949604654</standardError><azimuthalGap>210.2728271484375</azimuthalGap><maximumDistance>2.4495608806610107</maximumDistance><minimumDistance>0.5824940800666809</minimumDistance><medianDistance>1.4228947162628174</medianDistance></quality><uncertainty><minHorizontalUncertainty>4.435391426086426</minHorizontalUncertainty><maxHorizontalUncertainty>14.477093696594238</maxHorizontalUncertainty><azimuthMaxHorizontalUncertainty>85.4813461303711</azimuthMaxHorizontalUncertainty><preferredDescription>horizontal uncertainty</preferredDescription></uncertainty><evaluationMode>automatic</evaluationMode><evaluationStatus>confirmed</evaluationStatus><comment><text>0.00</text><id>mismatchScore</id></comment><comment><text>mismatchScore</text><id>scevalMethod</id></comment><arrival><pickID>de.gempa.tb1.Pick/20250412082946.857379.122968</pickID><phase>P</phase><azimuth>240.1284484863281</azimuth><distance>0.5824940800666809</distance><timeResidual>-0.5050907135009766</timeResidual><timeUsed>true</timeUsed><horizontalSlownessUsed>false</horizontalSlownessUsed><backazimuthUsed>false</backazimuthUsed><weight>1</weight></arrival><arrival><pickID>de.gempa.tb1.Pick/20250412082949.643806.122970</pickID><phase>P</phase><azimuth>301.8791198730469</azimuth><distance>0.8679046034812927</distance><timeResidual>-0.6789798736572266</timeResidual><timeUsed>true</timeUsed><horizontalSlownessUsed>false</horizontalSlownessUsed><backazimuthUsed>false</backazimuthUsed><weight>1</weight></arrival><arrival><pickID>de.gempa.tb1.Pick/20250412082950.560341.122972</pickID><phase>P</phase><azimuth>240.9532928466797</azimuth><distance>1.1192412376403809</distance><timeResidual>-0.33809471130371094</timeResidual><timeUsed>true</timeUsed><horizontalSlownessUsed>false</horizontalSlownessUsed><backazimuthUsed>false</backazimuthUsed><weight>1</weight></arrival><arrival><pickID>de.gempa.tb1.Pick/20250412082950.70794.122974</pickID><phase>P</phase><azimuth>279.19891357421875</azimuth><distance>1.1311689615249634</distance><timeResidual>-0.23281288146972656</timeResidual><timeUsed>true</timeUsed><horizontalSlownessUsed>false</horizontalSlownessUsed><backazimuthUsed>false</backazimuthUsed><weight>1</weight></arrival><arrival><pickID>de.gempa.tb1.Pick/20250412082954.577971.122976</pickID><phase>P</phase><azimuth>342.5146179199219</azimuth><distance>1.4228947162628174</distance><timeResidual>0.6318206787109375</timeResidual><timeUsed>true</timeUsed><horizontalSlownessUsed>false</horizontalSlownessUsed><backazimuthUsed>false</backazimuthUsed><weight>1</weight></arrival><arrival><pickID>de.gempa.tb1.Pick/20250412082955.681398.122978</pickID><phase>P</phase><azimuth>213.98382568359375</azimuth><distance>1.4430652856826782</distance><timeResidual>-0.2779712677001953</timeResidual><timeUsed>true</timeUsed><horizontalSlownessUsed>false</horizontalSlownessUsed><backazimuthUsed>false</backazimuthUsed><weight>1</weight></arrival><arrival><pickID>de.gempa.tb1.Pick/20250412082956.237783.122980</pickID><phase>P</phase><azimuth>296.39849853515625</azimuth><distance>1.5190330743789673</distance><timeResidual>0.4455280303955078</timeResidual><timeUsed>true</timeUsed><horizontalSlownessUsed>false</horizontalSlownessUsed><backazimuthUsed>false</backazimuthUsed><weight>1</weight></arrival><arrival><pickID>de.gempa.tb1.Pick/20250412083001.209676.122982</pickID><phase>P</phase><azimuth>202.73585510253906</azimuth><distance>1.8391926288604736</distance><timeResidual>-0.05414199829101562</timeResidual><timeUsed>true</timeUsed><horizontalSlownessUsed>false</horizontalSlownessUsed><backazimuthUsed>false</backazimuthUsed><weight>1</weight></arrival><arrival><pickID>de.gempa.tb1.Pick/20250412083005.434507.122984</pickID><phase>S</phase><azimuth>240.1284484863281</azimuth><distance>0.5824940800666809</distance><timeResidual>-0.2829456329345703</timeResidual><timeUsed>true</timeUsed><horizontalSlownessUsed>false</horizontalSlownessUsed><backazimuthUsed>false</backazimuthUsed><weight>1</weight></arrival><arrival><pickID>de.gempa.tb1.Pick/20250412083007.56428.122985</pickID><phase>P</phase><azimuth>324.6389465332031</azimuth><distance>2.321192741394043</distance><timeResidual>-0.8656425476074219</timeResidual><timeUsed>true</timeUsed><horizontalSlownessUsed>false</horizontalSlownessUsed><backazimuthUsed>false</backazimuthUsed><weight>1</weight></arrival><arrival><pickID>de.gempa.tb1.Pick/20250412083007.965727.122988</pickID><phase>S</phase><azimuth>301.8791198730469</azimuth><distance>0.8679046034812927</distance><timeResidual>-0.7741889953613281</timeResidual><timeUsed>true</timeUsed><horizontalSlownessUsed>false</horizontalSlownessUsed><backazimuthUsed>false</backazimuthUsed><weight>1</weight></arriv