<?xml version="1.0" encoding="UTF-8"?>
<seiscomp xmlns="http://geofon.gfz-potsdam.de/ns/seiscomp3-schema/0.13" version="0.13"><EventParameters><pick publicID="de.gempa.tb1.Pick/20250413014749.633247.128125"><time><value>2025-04-13T01:47:42.750001Z</value></time><waveformID networkCode="CX" stationCode="PB19" channelCode="HHZ"/><filterID>ITAPER(4)&gt;&gt;BW(4,4,20)</filterID><methodID>AIC</methodID><horizontalSlowness><value>23.293453805785195</value></horizontalSlowness><backazimuth><value>123.58394948443288</value></backazimuth><phaseHint>P</phaseHint><evaluationMode>automatic</evaluationMode><comment><text>26.990813316514345</text><id>DFX:rectilinearity</id></comment><comment><text>32.765838525632155</text><id>SNR</id></comment></pick><pick publicID="de.gempa.tb1.Pick/20250413014752.686677.128127"><time><value>2025-04-13T01:47:45.908393Z</value></time><waveformID networkCode="CX" stationCode="PB15" channelCode="HHZ"/><filterID>ITAPER(4)&gt;&gt;BW(4,4,20)</filterID><methodID>AIC</methodID><horizontalSlowness><value>23.33723960316084</value></horizontalSlowness><backazimuth><value>71.19956609824008</value></backazimuth><phaseHint>P</phaseHint><evaluationMode>automatic</evaluationMode><comment><text>167.86069967590117</text><id>DFX:rectilinearity</id></comment><comment><text>16.236951179539407</text><id>SNR</id></comment></pick><pick publicID="de.gempa.tb1.Pick/20250413014755.651853.128129"><time><value>2025-04-13T01:47:48.748393Z</value></time><waveformID networkCode="CX" stationCode="PB06" channelCode="HHZ"/><filterID>ITAPER(4)&gt;&gt;BW(4,4,20)</filterID><methodID>AIC</methodID><horizontalSlowness><value>12.493451394528904</value></horizontalSlowness><backazimuth><value>318.95048049962907</value></backazimuth><phaseHint>P</phaseHint><evaluationMode>automatic</evaluationMode><comment><text>38.9128744143142</text><id>DFX:rectilinearity</id></comment><comment><text>22.094136873193875</text><id>SNR</id></comment></pick><pick publicID="de.gempa.tb1.Pick/20250413014801.774167.128131"><time><value>2025-04-13T01:47:54.398393Z</value></time><waveformID networkCode="CX" stationCode="PB03" channelCode="HHZ"/><filterID>ITAPER(4)&gt;&gt;BW(4,4,20)</filterID><methodID>AIC</methodID><horizontalSlowness><value>17.55213764179292</value></horizontalSlowness><backazimuth><value>188.47600960966179</value></backazimuth><phaseHint>P</phaseHint><evaluationMode>automatic</evaluationMode><comment><text>17.991213594133807</text><id>DFX:rectilinearity</id></comment><comment><text>41.21325442808346</text><id>SNR</id></comment></pick><pick publicID="de.gempa.tb1.Pick/20250413014806.182294.128133"><time><value>2025-04-13T01:47:53.27Z</value></time><waveformID networkCode="CX" stationCode="PB09" channelCode="HHZ"/><filterID>ITAPER(4)&gt;&gt;BW(4,4,20)</filterID><methodID>AIC</methodID><horizontalSlowness><value>20.56751895873492</value></horizontalSlowness><backazimuth><value>134.00454089134473</value></backazimuth><phaseHint>P</phaseHint><evaluationMode>automatic</evaluationMode><comment><text>53.98869363242735</text><id>DFX:rectilinearity</id></comment><comment><text>33.73683600727982</text><id>SNR</id></comment></pick><pick publicID="de.gempa.tb1.Pick/20250413014806.545571.128135"><time><value>2025-04-13T01:48:01.578393Z</value></time><waveformID networkCode="CX" stationCode="PB02" channelCode="HHZ"/><filterID>ITAPER(4)&gt;&gt;BW(4,4,20)</filterID><methodID>AIC</methodID><horizontalSlowness><value>11.858765361520028</value></horizontalSlowness><backazimuth><value>60.61308155130351</value></backazimuth><phaseHint>P</phaseHint><evaluationMode>automatic</evaluationMode><comment><text>60.31836271907848</text><id>DFX:rectilinearity</id></comment><comment><text>15.785598088379956</text><id>SNR</id></comment></pick><pick publicID="de.gempa.tb1.Pick/20250413014807.534008.128137"><time><value>2025-04-13T01:48:00.808393Z</value></time><waveformID networkCode="CX" stationCode="PB01" channelCode="HHZ"/><filterID>ITAPER(4)&gt;&gt;BW(4,4,20)</filterID><methodID>AIC</methodID><horizontalSlowness><value>9.202260325581493</value></horizontalSlowness><backazimuth><value>355.7615147304735</value></backazimuth><phaseHint>P</phaseHint><evaluationMode>automatic</evaluationMode><comment><text>27.073261940669035</text><id>DFX:rectilinearity</id></comment><comment><text>9.879750947489851</text><id>SNR</id></comment></pick><pick publicID="de.gempa.tb1.Pick/20250413014818.544514.128139"><time><value>2025-04-13T01:48:09.818393Z</value></time><waveformID networkCode="CX" stationCode="PB08" channelCode="HHZ"/><filterID>ITAPER(4)&gt;&gt;BW(4,4,20)</filterID><methodID>AIC</methodID><horizontalSlowness><value>14.123364948039184</value></horizontalSlowness><backazimuth><value>210.52637568303786</value></backazimuth><phaseHint>P</phaseHint><evaluationMode>automatic</evaluationMode><comment><text>18.038785189387024</text><id>DFX:rectilinearity</id></comment><comment><text>6.77613695619612</text><id>SNR</id></comment></pick><pick publicID="de.gempa.tb1.Pick/20250413014820.58049.128141"><time><value>2025-04-13T01:48:13.690001Z</value></time><waveformID networkCode="CX" stationCode="PB19" channelCode="HHN"/><filterID>ITAPER(2)&gt;&gt;BW(3,3,20)</filterID><methodID>L2-AIC-GRID</methodID><horizontalSlowness><value>21.76286577367249</value></horizontalSlowness><backazimuth><value>181.77298704631647</value></backazimuth><phaseHint>S</phaseHint><evaluationMode>automatic</evaluationMode><comment><text>1599.533792849994</text><id>DFX:rectilinearity</id></comment><comment><text>de.gempa.tb1.Pick/20250413014749.633247.128125</text><id>RefPickID</id></comment><comment><text>12.087848564665286</text><id>SNR</id></comment></pick><pick publicID="de.gempa.tb1.Pick/20250413014828.98802.128143"><time><value>2025-04-13T01:48:18.838393Z</value></time><waveformID networkCode="CX" stationCode="PB15" channelCode="HHN"/><filterID>ITAPER(2)&gt;&gt;BW(3,3,20)</filterID><methodID>L2-AIC-GRID</methodID><horizontalSlowness><value>21.025225994088743</value></horizontalSlowness><backazimuth><value>95.03811048256843</value></backazimuth><phaseHint>S</phaseHint><evaluationMode>automatic</evaluationMode><comment><text>7993.337756396547</text><id>DFX:rectilinearity</id></comment><comment><text>de.gempa.tb1.Pick/20250413014752.686677.128127</text><id>RefPickID</id></comment><comment><text>15.769302344390466</text><id>SNR</id></comment></pick><pick publicID="de.gempa.tb1.Pick/20250413014829.519093.128144"><time><value>2025-04-13T01:48:18.530001Z</value></time><waveformID networkCode="CX" stationCode="PSGCX" channelCode="HHZ"/><filterID>ITAPER(4)&gt;&gt;BW(4,4,20)</filterID><methodID>AIC</methodID><horizontalSlowness><value>13.682561332921873</value></horizontalSlowness><backazimuth><value>42.54380548030903</value></backazimuth><phaseHint>P</phaseHint><evaluationMode>automatic</evaluationMode><comment><text>26.8675217090366</text><id>DFX:rectilinearity</id></comment><comment><text>9.852259858017341</text><id>SNR</id></comment></pick><pick publicID="de.gempa.tb1.Pick/20250413014829.644166.128146"><time><value>2025-04-13T01:48:24.318393Z</value></time><waveformID networkCode="CX" stationCode="PB06" channelCode="HHN"/><filterID>ITAPER(2)&gt;&gt;BW(3,3,20)</filterID><methodID>L2-AIC-GRID</methodID><horizontalSlowness><value>22.45547550183213</value></horizontalSlowness><backazimuth><value>107.23093889024383</value></backazimuth><phaseHint>S</phaseHint><evaluationMode>automatic</evaluationMode><comment><text>370.85293393490514</text><id>DFX:rectilinearity</id></comment><comment><text>de.gempa.tb1.Pick/20250413014755.651853.128129</text><id>RefPickID</id></comment><comment><text>24.720421147808263</text><id>SNR</id></comment></pick><pick publicID="de.gempa.tb1.Pick/20250413014839.319817.128150"><time><value>2025-04-13T01:47:57.698394Z</value></time><waveformID networkCode="CX" stationCode="PB07" channelCode="HHZ"/><filterID>ITAPER(4)&gt;&gt;BW(4,4,20)</filterID><methodID>AIC</methodID><horizontalSlowness><value>19.31039566647678</value></horizontalSlowness><backazimuth><value>47.36901165543097</value></backazimuth><phaseHint>P</phaseHint><evaluationMode>automatic</evaluationMode><comment><text>234.619191977982</text><id>DFX:rectilinearity</id></comment><comment><text>40.41602304582839</text><id>SNR</id></comment></pick><pick publicID="de.gempa.tb1.Pick/20250413014839.630986.128153"><time><value>2025-04-13T01:48:33.988393Z</value></time><waveformID networkCode="CX" stationCode="PB03" channelCode="HHN"/><filterID>ITAPER(2)&gt;&gt;BW(3,3,20)</filterID><methodID>L2-AIC-GRID</methodID><horizontalSlowness><value>8.455206947448321</value></horizontalSlowness><backazimuth><value>335.2360930195773</value></backazimuth><phaseHint>S</phaseHint><evaluationMode>automatic</evaluationMode><comment><text>170.60632434569132</text><id>DFX:rectilinearity</id></comment><comment><text>de.gempa.tb1.Pick/20250413014801.774167.128131</text><id>RefPickID</id></comment><comment><text>13.81154663595311</text><id>SNR</id></comment></pick><pick publicID="de.gempa.tb1.Pick/20250413014841.509549.128154"><time><value>2025-04-13T01:48:31.788393Z</value></time><waveformID networkCode="CX" stationCode="PB16" channelCode="HHZ"/><filterID>ITAPER(4)&gt;&gt;BW(4,4,20)</filterID><methodID>AIC</methodID><horizontalSlowness><value>7.510372941153345</value></horizontalSlowness><backazimuth><value>78.84848966965104</value></backazimuth><phaseHint>P</phaseHint><evaluationMode>automatic</evaluationMode><comment><text>2.407561310007262</text><id>DFX:rectilinearity</id></comment><comment><text>17.281065831146456</text><id>SNR</id></comment></pick><pick publicID="de.gempa.tb1.Pick/20250413014853.573902.128158"><time><value>2025-04-13T01:48:45.558393Z</value></time><waveformID networkCode="CX" stationCode="PB01" channelCode="HHN"/><filterID>ITAPER(2)&gt;&gt;BW(3,3,20)</filterID><methodID>L2-AIC-GRID</methodID><horizontalSlowness><value>22.599981898201925</value></horizontalSlowness><backazimuth><value>106.10603054804677</value></backazimuth><phaseHint>S</phaseHint><evaluationMode>automatic</evaluationMode><comment><text>78.3862822234362</text><id>DFX:rectilinearity</id></comment><comment><text>de.gempa.tb1.Pick/20250413014807.534008.128137</text><id>RefPickID</id></comment><comment><text>8.245326492318062</text><id>SNR</id></comment></pick><pick publicID="de.gempa.tb1.Pick/20250413014855.563077.128159"><time><value>2025-04-13T01:48:46.008393Z</value></time><waveformID networkCode="CX" stationCode="PB02" channelCode="HHN"/><filterID>ITAPER(2)&gt;&gt;BW(3,3,20)</filterID><methodID>L2-AIC-GRID</methodID><horizontalSlowness><value>14.41607051940693</value></horizontalSlowness><backazimuth><value>44.733934453638284</value></backazimuth><phaseHint>S</phaseHint><evaluationMode>automatic</evaluationMode><comment><text>444.4327602904823</text><id>DFX:rectilinearity</id></comment><comment><text>de.gempa.tb1.Pick/20250413014806.545571.128135</text><id>RefPickID</id></comment><comment><text>5.011831407650625</text><id>SNR</id></comment></pick><pick publicID="de.gempa.tb1.Pick/20250413014906.604929.128160"><time><value>2025-04-13T01:48:40.148394Z</value></time><waveformID networkCode="CX" stationCode="PB07" channelCode="HHN"/><filterID>ITAPER(2)&gt;&gt;BW(3,3,20)</filterID><methodID>L2-AIC-GRID</methodID><horizontalSlowness><value>22.112796996626614</value></horizontalSlowness><backazimuth><value>82.17374063486483</value></backazimuth><phaseHint>S</phaseHint><evaluationMode>automatic</evaluationMode><comment><text>5087.977176924229</text><id>DFX:rectilinearity</id></comment><comment><text>de.gempa.tb1.Pick/20250413014839.319817.128150</text><id>RefPickID</id></comment><comment><text>5.265215900688822</text><id>SNR</id></comment></pick><origin publicID="de.gempa.tb1.Origin/20250413014906.608212.97959"><time><value>2025-04-13T01:47:04.836228Z</value><uncertainty>0.7758151292800903</uncertainty></time><latitude><value>-23.941246032714844</value><uncertainty>7.8820219039917</uncertainty></latitude><longitude><value>-67.62662506103516</value><uncertainty>27.55845642089844</uncertainty></longitude><depth><value>248.6854248046875</value><uncertainty>21.948766708374023</uncertainty></depth><depthType>from location</depthType><methodID>LOCSAT</methodID><earthModelID>iasp91_scanloc</earthModelID><quality><associatedPhaseCount>18</associatedPhaseCount><usedPhaseCount>18</usedPhaseCount><associatedStationCount>11</associatedStationCount><usedStationCount>11</usedStationCount><depthPhaseCount>0</depthPhaseCount><standardError>0.4567697995417341</standardError><azimuthalGap>288.8489990234375</azimuthalGap><maximumDistance>5.847891330718994</maximumDistance><minimumDistance>1.523165464401245</minimumDistance><medianDistance>3.0336387157440186</medianDistance></quality><uncertainty><minHorizontalUncertainty>11.563034057617188</minHorizontalUncertainty><maxHorizontalUncertainty>60.34779739379883</maxHorizontalUncertainty><azimuthMaxHorizontalUncertainty>77.99423217773438</azimuthMaxHorizontalUncertainty><preferredDescription>horizontal uncertainty</preferredDescription></uncertainty><evaluationMode>automatic</evaluationMode><evaluationStatus>confirmed</evaluationStatus><comment><text>0.10</text><id>mismatchScore</id></comment><comment><text>mismatchScore</text><id>scevalMethod</id></comment><arrival><pickID>de.gempa.tb1.Pick/20250413014749.633247.128125</pickID><phase>P</phase><azimuth>271.0300598144531</azimuth><distance>1.523165464401245</distance><timeResidual>-0.4973258972167969</timeResidual><timeUsed>true</timeUsed><horizontalSlownessUsed>false</horizontalSlownessUsed><backazimuthUsed>false</backazimuthUsed><weight>1</weight></arrival><arrival><pickID>de.gempa.tb1.Pick/20250413014752.686677.128127</pickID><phase>P</phase><azimuth>292.95404052734375</azimuth><distance>1.8427165746688843</distance><timeResidual>0.04245758056640625</timeResidual><timeUsed>true</timeUsed><horizontalSlownessUsed>false</horizontalSlownessUsed><backazimuthUsed>false</backazimuthUsed><weight>1</weight></arrival><arrival><pickID>de.gempa.tb1.Pick/20250413014755.651853.128129</pickID><phase>P</phase><azimuth>304.1308898925781</azimuth><distance>2.1701555252075195</distance><timeResidual>-0.09679412841796875</timeResidual><timeUsed>true</timeUsed><horizontalSlownessUsed>false</horizontalSlownessUsed><backazimuthUsed>false</backazimuthUsed><weight>1</weight></arrival><arrival><pickID>de.gempa.tb1.Pick/20250413014801.774167.128131</pickID><phase>P</phase><azimuth>313.4561462402344</azimuth><distance>2.7181386947631836</distance><timeResidual>0.08239364624023438</timeResidual><timeUsed>true</timeUsed><horizontalSlownessUsed>false</horizontalSlownessUsed><backazimuthUsed>false</backazimuthUsed><weight>1</weight></arrival><arrival><pickID>de.gempa.tb1.Pick/20250413014806.182294.128133</pickID><phase>P</phase><azimuth>324.7743225097656</azimuth><distance>2.6031908988952637</distance><timeResidual>0.143096923828125</timeResidual><timeUsed>true</timeUsed><horizontalSlownessUsed>false</horizontalSlownessUsed><backazimuthUsed>false</backazimuthUsed><weight>1</weight></arrival><arrival><pickID>de.gempa.tb1.Pick/20250413014806.545571.128135</pickID><phase>P</phase><azimuth>320.7736511230469</azimuth><distance>3.3470311164855957</distance><timeResidual>0.41507720947265625</timeResidual><timeUsed>true</timeUsed><horizontalSlownessUsed>false</horizontalSlownessUsed><backazimuthUsed>false</backazimuthUsed><weight>1</weight></arrival><arrival><pickID>de.gempa.tb1.Pick/20250413014807.534008.128137</pickID><phase>P</phase><azimuth>328.8184814453125</azimuth><distance>3.3584892749786377</distance><timeResidual>-0.4868965148925781</timeResidual><timeUsed>true</timeUsed><horizontalSlownessUsed>false</horizontalSlownessUsed><backazimuthUsed>false</backazimuthUsed><weight>1</weight></arrival><arrival><pickID>de.gempa.tb1.Pick/20250413014818.544514.128139</pickID><phase>P</phase><azimuth>339.176513671875</azimuth><distance>4.0382509231567383</distance><timeResidual>0.7219314575195312</timeResidual><timeUsed>true</timeUsed><horizontalSlownessUsed>false</horizontalSlownessUsed><backazimuthUsed>false</backazimuthUsed><weight>1</weight></arrival><arrival><pickID>de.gempa.tb1.Pick/20250413014820.58049.128141</pickID><phase>S</phase><azimuth>271.0300598144531</azimuth><distance>1.523165464401245</distance><timeResidual>-0.1407928466796875</timeResidual><timeUsed>true</timeUsed><horizontalSlownessUsed>false</horizontalSlownessUsed><backazimuthUsed>false</backazimuthUsed><weight>1</weight></arrival><arrival><pickID>de.gempa.tb1.Pick/20250413014828.98802.128143</pickID><phase>S</phase><azimuth>292.95404052734375</azimuth><distance>1.8427165746688843</distance><timeResidual>0.2855873107910156</timeResidual><timeUsed>true</timeUsed><horizontalSlownessUsed>false</horizontalSlownessUsed><backazimuthUsed>false</backazimuthUsed><weight>1</weight></arrival><arrival><pickID>de.gempa.tb1.Pick/20250413014829.519093.128144</pickID><phase>P</phase><azimuth>331.303466796875</azimuth><distance>4.905996322631836</distance><timeResidual>-0.9689788818359375</timeResidual><timeUsed>true</timeUsed><horizontalSlownessUsed>false</horizontalSlownessUsed><backazimuthUsed>false</backazimuthUsed><weight>1</weight></arrival><arrival><pickID>de.gempa.tb1.Pick/20250413014829.644166.128146</pickID><phase>S</phase><azimuth>304.1308898925781</azimuth><distance>2.1701555252075195</distance><timeResidual>0.3898200988769531</timeResidual><timeUsed>true</timeUsed><horizontalSlownessUsed>false</horizontalSlownessUsed><backazimuthUsed>false</backazimuthUsed><weight>1</weight></arrival><arrival><pickID>de.gempa.tb1.Pick/20250413014839.319817.128150</pickID><phase>P</phase><azimuth>316.156005859375</azimuth><distance>3.0336387157440186</distance><timeResidual>0.02214813232421875</timeResidual><timeUsed>true</timeUsed><horizontalSlownessUsed>false</horizontalSlownessUsed><backazimuthUsed>false</backazimuthUsed><weight>1</weight></arrival><arrival><pickID>de.gempa.tb1.Pick/20250413014839.630986.128153</pickID><phase>S</phase><azimuth>313.4561462402344</azimuth><distance>2.7181386947631836</distance><timeResidual>0.18160629272460938</timeResidual><timeUsed>true</timeUsed><horizontalSlownessUsed>false</horizontalSlownessUsed><backazimuthUsed>false</backazimuthUsed><weight>1</weight></arrival><arrival><pickID>de.gempa.tb1.Pick/20250413014841.509549.128154</pickID><phase>P</phase><azimuth>342.1810607910156</azimuth><distance>5.847891330718994</distance><timeResidual>0.6794662475585938</timeResidual><timeUsed>true</timeUsed><horizontalSlownessUsed>false</horizontalSlownessUsed><backazimuthUsed>false</backazimuthUsed><weight>1</weight></arrival><arrival><pickID>de.gempa.tb1.Pick/20250413014853.573902.128158</pickID><phase>S</phase><azimuth>328.8184814453125</azimuth><distance>3.3584892749786377</distance><timeResidual>-0.8648033142089844</timeResidual><timeUsed>true</timeUsed><horizontalSlownessUsed>false</horizontalSlownessUsed><backazimuthUsed>false</backazimuthUsed><weight>1</weight></arrival><arrival><pickID>de.gempa.tb1.Pick/20250413014855.563077.128159</pickID><phase>S</phase><azimuth>320.7736511230469</azimuth><distance>3.3470311164855957</distance><timeResidual>-0.1773834228515625</timeResidual><timeUsed>true</timeUsed><horizontalSlownessUsed>false</horizontalSlownessUsed><backazimuthUsed>false</backazimuthUsed><weight>1</weight></arrival><arrival><pickID>de.gempa.tb1.Pick/20250413014906.604929.128160</pickID><phase>S</phase><azimuth>316.156005859375</azimuth><distance>3.0336387157440186</distance><timeResidual>0.2691192626953125</timeResidual><timeUsed>true</timeUsed><horizontalSlownessUsed>false</horizontalSlownessUsed><backazimuthUsed>false</backazimuthUsed><weight>1</weight></arrival><magnitude publicID="de.gempa.tb1.Magnitude/20250413014915.939664.300181"><magnitude><value>3.48054595535128</value></magnitude><type>M</type><methodID>weighted average</methodID><stationCount>6</stationCount></magnitude></origin><event publicID="gempa2025hgnu"><preferredOriginID>de.gempa.tb1.Origin/202504