<?xml version="1.0" encoding="UTF-8"?>
<seiscomp xmlns="http://geofon.gfz-potsdam.de/ns/seiscomp3-schema/0.13" version="0.13"><EventParameters><pick publicID="de.gempa.tb1.Pick/20250413155559.535905.132249"><time><value>2025-04-13T15:55:54.568393Z</value></time><waveformID networkCode="CX" stationCode="PB01" channelCode="HHZ"/><filterID>ITAPER(4)&gt;&gt;BW(4,4,20)</filterID><methodID>AIC</methodID><horizontalSlowness><value>20.831694606831366</value></horizontalSlowness><backazimuth><value>144.9802222173081</value></backazimuth><phaseHint>P</phaseHint><evaluationMode>automatic</evaluationMode><comment><text>27.313131924910774</text><id>DFX:rectilinearity</id></comment><comment><text>14.352988005720828</text><id>SNR</id></comment></pick><pick publicID="de.gempa.tb1.Pick/20250413155602.041923.132251"><time><value>2025-04-13T15:55:53.058393Z</value></time><waveformID networkCode="CX" stationCode="PB08" channelCode="HHZ"/><filterID>ITAPER(4)&gt;&gt;BW(4,4,20)</filterID><methodID>AIC</methodID><horizontalSlowness><value>13.885980254020906</value></horizontalSlowness><backazimuth><value>92.7271895280127</value></backazimuth><phaseHint>P</phaseHint><evaluationMode>automatic</evaluationMode><comment><text>7.687664645449628</text><id>DFX:rectilinearity</id></comment><comment><text>9.79620451409793</text><id>SNR</id></comment></pick><pick publicID="de.gempa.tb1.Pick/20250413155607.575512.132255"><time><value>2025-04-13T15:56:02.51Z</value></time><waveformID networkCode="CX" stationCode="PSGCX" channelCode="HHZ"/><filterID>ITAPER(4)&gt;&gt;BW(4,4,20)</filterID><methodID>AIC</methodID><horizontalSlowness><value>23.25203727432798</value></horizontalSlowness><backazimuth><value>49.07157628585767</value></backazimuth><phaseHint>P</phaseHint><evaluationMode>automatic</evaluationMode><comment><text>32.405643057573464</text><id>DFX:rectilinearity</id></comment><comment><text>33.0510735393555</text><id>SNR</id></comment></pick><pick publicID="de.gempa.tb1.Pick/20250413155608.300782.132257"><time><value>2025-04-13T15:56:00.959999Z</value></time><waveformID networkCode="CX" stationCode="PATCX" channelCode="HHZ"/><filterID>ITAPER(4)&gt;&gt;BW(4,4,20)</filterID><methodID>AIC</methodID><horizontalSlowness><value>18.343020778114724</value></horizontalSlowness><backazimuth><value>45.19001988515589</value></backazimuth><phaseHint>P</phaseHint><evaluationMode>automatic</evaluationMode><comment><text>157.98407297565734</text><id>DFX:rectilinearity</id></comment><comment><text>16.791955627264155</text><id>SNR</id></comment></pick><pick publicID="de.gempa.tb1.Pick/20250413155613.873375.132261"><time><value>2025-04-13T15:56:05.928393Z</value></time><waveformID networkCode="CX" stationCode="PB08" channelCode="HHN"/><filterID>ITAPER(2)&gt;&gt;BW(3,3,20)</filterID><methodID>L2-AIC-GRID</methodID><horizontalSlowness><value>19.118547265700098</value></horizontalSlowness><backazimuth><value>193.89392805073436</value></backazimuth><phaseHint>S</phaseHint><evaluationMode>automatic</evaluationMode><comment><text>45.36960249483899</text><id>DFX:rectilinearity</id></comment><comment><text>de.gempa.tb1.Pick/20250413155602.041923.132251</text><id>RefPickID</id></comment><comment><text>10.526107252776312</text><id>SNR</id></comment></pick><pick publicID="de.gempa.tb1.Pick/20250413155622.774711.132262"><time><value>2025-04-13T15:56:11.348393Z</value></time><waveformID networkCode="CX" stationCode="PB01" channelCode="HHN"/><filterID>ITAPER(2)&gt;&gt;BW(3,3,20)</filterID><methodID>L2-AIC-GRID</methodID><horizontalSlowness><value>21.722777780091537</value></horizontalSlowness><backazimuth><value>306.1387319020987</value></backazimuth><phaseHint>S</phaseHint><evaluationMode>automatic</evaluationMode><comment><text>110.7501702650073</text><id>DFX:rectilinearity</id></comment><comment><text>de.gempa.tb1.Pick/20250413155559.535905.132249</text><id>RefPickID</id></comment><comment><text>12.026504352134015</text><id>SNR</id></comment></pick><pick publicID="de.gempa.tb1.Pick/20250413155630.580482.132267"><time><value>2025-04-13T15:56:23.22Z</value></time><waveformID networkCode="CX" stationCode="PSGCX" channelCode="HHN"/><filterID>ITAPER(2)&gt;&gt;BW(3,3,20)</filterID><methodID>L2-AIC-GRID</methodID><horizontalSlowness><value>5.704361357710865</value></horizontalSlowness><backazimuth><value>58.91738979023839</value></backazimuth><phaseHint>S</phaseHint><evaluationMode>automatic</evaluationMode><comment><text>20.79129640386876</text><id>DFX:rectilinearity</id></comment><comment><text>de.gempa.tb1.Pick/20250413155607.575512.132255</text><id>RefPickID</id></comment><comment><text>5.65783533760535</text><id>SNR</id></comment></pick><origin publicID="de.gempa.tb1.Origin/20250413155633.576105.114148"><time><value>2025-04-13T15:55:35.485744Z</value><uncertainty>1.4159057140350342</uncertainty></time><latitude><value>-20.469799041748047</value><uncertainty>5.375690460205078</uncertainty></latitude><longitude><value>-68.84234619140625</value><uncertainty>10.562519073486328</uncertainty></longitude><depth><value>116.2437286376953</value><uncertainty>8.090103149414062</uncertainty></depth><depthType>from location</depthType><methodID>LOCSAT</methodID><earthModelID>iasp91_scanloc</earthModelID><quality><associatedPhaseCount>7</associatedPhaseCount><usedPhaseCount>7</usedPhaseCount><associatedStationCount>4</associatedStationCount><usedStationCount>4</usedStationCount><depthPhaseCount>0</depthPhaseCount><standardError>0.5371992643993712</standardError><azimuthalGap>268.3163146972656</azimuthalGap><maximumDistance>1.4844579696655273</maximumDistance><minimumDistance>0.43837037682533264</minimumDistance><medianDistance>0.8306390643119812</medianDistance></quality><uncertainty><minHorizontalUncertainty>11.307679176330566</minHorizontalUncertainty><maxHorizontalUncertainty>22.76460075378418</maxHorizontalUncertainty><azimuthMaxHorizontalUncertainty>83.4641342163086</azimuthMaxHorizontalUncertainty><preferredDescription>horizontal uncertainty</preferredDescription></uncertainty><evaluationMode>automatic</evaluationMode><evaluationStatus>confirmed</evaluationStatus><comment><text>0.03</text><id>mismatchScore</id></comment><comment><text>mismatchScore</text><id>scevalMethod</id></comment><arrival><pickID>de.gempa.tb1.Pick/20250413155559.535905.132249</pickID><phase>P</phase><azimuth>226.50341796875</azimuth><distance>0.8306390643119812</distance><timeResidual>-1.0534286499023438</timeResidual><timeUsed>true</timeUsed><horizontalSlownessUsed>false</horizontalSlownessUsed><backazimuthUsed>false</backazimuthUsed><weight>1</weight></arrival><arrival><pickID>de.gempa.tb1.Pick/20250413155602.041923.132251</pickID><phase>P</phase><azimuth>318.1871032714844</azimuth><distance>0.43837037682533264</distance><timeResidual>0.38414955139160156</timeResidual><timeUsed>true</timeUsed><horizontalSlownessUsed>false</horizontalSlownessUsed><backazimuthUsed>false</backazimuthUsed><weight>1</weight></arrival><arrival><pickID>de.gempa.tb1.Pick/20250413155607.575512.132255</pickID><phase>P</phase><azimuth>305.5706787109375</azimuth><distance>1.4844579696655273</distance><timeResidual>-0.029605865478515625</timeResidual><timeUsed>true</timeUsed><horizontalSlownessUsed>false</horizontalSlownessUsed><backazimuthUsed>false</backazimuthUsed><weight>1</weight></arrival><arrival><pickID>de.gempa.tb1.Pick/20250413155608.300782.132257</pickID><phase>P</phase><azimuth>253.89219665527344</azimuth><distance>1.2760757207870483</distance><timeResidual>0.800567626953125</timeResidual><timeUsed>true</timeUsed><horizontalSlownessUsed>false</horizontalSlownessUsed><backazimuthUsed>false</backazimuthUsed><weight>1</weight></arrival><arrival><pickID>de.gempa.tb1.Pick/20250413155613.873375.132261</pickID><phase>S</phase><azimuth>318.1871032714844</azimuth><distance>0.43837037682533264</distance><timeResidual>0.012414932250976562</timeResidual><timeUsed>true</timeUsed><horizontalSlownessUsed>false</horizontalSlownessUsed><backazimuthUsed>false</backazimuthUsed><weight>1</weight></arrival><arrival><pickID>de.gempa.tb1.Pick/20250413155622.774711.132262</pickID><phase>S</phase><azimuth>226.50341796875</azimuth><distance>0.8306390643119812</distance><timeResidual>0.18202781677246094</timeResidual><timeUsed>true</timeUsed><horizontalSlownessUsed>false</horizontalSlownessUsed><backazimuthUsed>false</backazimuthUsed><weight>1</weight></arrival><arrival><pickID>de.gempa.tb1.Pick/20250413155630.580482.132267</pickID><phase>S</phase><azimuth>305.5706787109375</azimuth><distance>1.4844579696655273</distance><timeResidual>-0.2961845397949219</timeResidual><timeUsed>true</timeUsed><horizontalSlownessUsed>false</horizontalSlownessUsed><backazimuthUsed>false</backazimuthUsed><weight>1</weight></arrival><magnitude publicID="de.gempa.tb1.Magnitude/20250413155723.59748.375978"><magnitude><value>1.9548346521745879</value></magnitude><type>M</type><methodID>weighted average</methodID><stationCount>4</stationCount></magnitude></origin><event publicID="gempa2025hhqc"><preferredOriginID>de.gempa.tb1.Origin/20250413155633.576105.114148</preferredOriginID><preferredMagnitudeID>de.gempa.tb1.Magnitude/20250413155723.59748.375978</preferredMagnitudeID><description><text>Chile-Bolivia Border Region</text><type>region name</type></description><originReference>de.gempa.tb1.Origin/20250413155633.576105.114148</originReference></event></EventParameters></seiscomp>