<?xml version="1.0" encoding="UTF-8"?>
<seiscomp xmlns="http://geofon.gfz-potsdam.de/ns/seiscomp3-schema/0.13" version="0.13"><EventParameters><pick publicID="de.gempa.tb1.Pick/20250414185549.57717.140361"><time><value>2025-04-14T18:55:41.8Z</value></time><waveformID networkCode="CX" stationCode="PB09" channelCode="HHZ"/><filterID>ITAPER(4)&gt;&gt;BW(4,4,20)</filterID><methodID>AIC</methodID><horizontalSlowness><value>19.558627882741707</value></horizontalSlowness><backazimuth><value>321.32851757766986</value></backazimuth><phaseHint>P</phaseHint><evaluationMode>automatic</evaluationMode><comment><text>7.513936881215367</text><id>DFX:rectilinearity</id></comment><comment><text>31.13417035231875</text><id>SNR</id></comment></pick><pick publicID="de.gempa.tb1.Pick/20250414185550.585179.140363"><time><value>2025-04-14T18:55:45.178393Z</value></time><waveformID networkCode="CX" stationCode="PB03" channelCode="HHZ"/><filterID>ITAPER(4)&gt;&gt;BW(4,4,20)</filterID><methodID>AIC</methodID><horizontalSlowness><value>9.181257088803878</value></horizontalSlowness><backazimuth><value>277.1364592516721</value></backazimuth><phaseHint>P</phaseHint><evaluationMode>automatic</evaluationMode><comment><text>7.233945843206437</text><id>DFX:rectilinearity</id></comment><comment><text>9.872680144894533</text><id>SNR</id></comment></pick><pick publicID="de.gempa.tb1.Pick/20250414185552.566944.140365"><time><value>2025-04-14T18:55:45.248394Z</value></time><waveformID networkCode="CX" stationCode="PB06" channelCode="HHZ"/><filterID>ITAPER(4)&gt;&gt;BW(4,4,20)</filterID><methodID>AIC</methodID><horizontalSlowness><value>15.11280138920363</value></horizontalSlowness><backazimuth><value>65.08737733277758</value></backazimuth><phaseHint>P</phaseHint><evaluationMode>automatic</evaluationMode><comment><text>57.48560145404443</text><id>DFX:rectilinearity</id></comment><comment><text>9.208989466919443</text><id>SNR</id></comment></pick><pick publicID="de.gempa.tb1.Pick/20250414185556.485931.140367"><time><value>2025-04-14T18:55:49.378393Z</value></time><waveformID networkCode="CX" stationCode="PB02" channelCode="HHZ"/><filterID>ITAPER(4)&gt;&gt;BW(4,4,20)</filterID><methodID>AIC</methodID><horizontalSlowness><value>9.38314836954766</value></horizontalSlowness><backazimuth><value>226.4098934008144</value></backazimuth><phaseHint>P</phaseHint><evaluationMode>automatic</evaluationMode><comment><text>11.061937271558431</text><id>DFX:rectilinearity</id></comment><comment><text>9.550161564792283</text><id>SNR</id></comment></pick><pick publicID="de.gempa.tb1.Pick/20250414185610.703065.140369"><time><value>2025-04-14T18:56:01.978393Z</value></time><waveformID networkCode="CX" stationCode="PB03" channelCode="HHN"/><filterID>ITAPER(2)&gt;&gt;BW(3,3,20)</filterID><methodID>L2-AIC-GRID</methodID><horizontalSlowness><value>11.330030872593278</value></horizontalSlowness><backazimuth><value>339.7977647008971</value></backazimuth><phaseHint>S</phaseHint><evaluationMode>automatic</evaluationMode><comment><text>45.80060568384124</text><id>DFX:rectilinearity</id></comment><comment><text>de.gempa.tb1.Pick/20250414185550.585179.140363</text><id>RefPickID</id></comment><comment><text>13.887376683578927</text><id>SNR</id></comment></pick><pick publicID="de.gempa.tb1.Pick/20250414185610.708572.140370"><time><value>2025-04-14T18:56:02.498394Z</value></time><waveformID networkCode="CX" stationCode="PB06" channelCode="HHN"/><filterID>ITAPER(2)&gt;&gt;BW(3,3,20)</filterID><methodID>L2-AIC-GRID</methodID><horizontalSlowness><value>12.824613755708787</value></horizontalSlowness><backazimuth><value>122.3608480790298</value></backazimuth><phaseHint>S</phaseHint><evaluationMode>automatic</evaluationMode><comment><text>62.54823210425565</text><id>DFX:rectilinearity</id></comment><comment><text>de.gempa.tb1.Pick/20250414185552.566944.140365</text><id>RefPickID</id></comment><comment><text>9.4554025235498</text><id>SNR</id></comment></pick><pick publicID="de.gempa.tb1.Pick/20250414185614.399204.140371"><time><value>2025-04-14T18:55:47.088393Z</value></time><waveformID networkCode="CX" stationCode="PB07" channelCode="HHZ"/><filterID>ITAPER(4)&gt;&gt;BW(4,4,20)</filterID><methodID>AIC</methodID><horizontalSlowness><value>22.493175204535575</value></horizontalSlowness><backazimuth><value>275.211915245324</value></backazimuth><phaseHint>P</phaseHint><evaluationMode>automatic</evaluationMode><comment><text>117.3135950875751</text><id>DFX:rectilinearity</id></comment><comment><text>42.960273213592615</text><id>SNR</id></comment></pick><pick publicID="de.gempa.tb1.Pick/20250414185616.096627.140377"><time><value>2025-04-14T18:55:56.37Z</value></time><waveformID networkCode="CX" stationCode="PB09" channelCode="HHN"/><filterID>ITAPER(2)&gt;&gt;BW(3,3,20)</filterID><methodID>L2-AIC-GRID</methodID><horizontalSlowness><value>23.47688590894908</value></horizontalSlowness><backazimuth><value>167.33243487300564</value></backazimuth><phaseHint>S</phaseHint><evaluationMode>automatic</evaluationMode><comment><text>72.87892177706252</text><id>DFX:rectilinearity</id></comment><comment><text>de.gempa.tb1.Pick/20250414185549.57717.140361</text><id>RefPickID</id></comment><comment><text>5.528499664929157</text><id>SNR</id></comment></pick><pick publicID="de.gempa.tb1.Pick/20250414185616.510153.140378"><time><value>2025-04-14T18:56:09.228393Z</value></time><waveformID networkCode="CX" stationCode="PB02" channelCode="HHN"/><filterID>ITAPER(2)&gt;&gt;BW(3,3,20)</filterID><methodID>L2-AIC-GRID</methodID><horizontalSlowness><value>17.516098913267061</value></horizontalSlowness><backazimuth><value>52.91809304116374</value></backazimuth><phaseHint>S</phaseHint><evaluationMode>automatic</evaluationMode><comment><text>66.15270659613115</text><id>DFX:rectilinearity</id></comment><comment><text>de.gempa.tb1.Pick/20250414185556.485931.140367</text><id>RefPickID</id></comment><comment><text>10.305873172482583</text><id>SNR</id></comment></pick><origin publicID="de.gempa.tb1.Origin/20250414185617.503443.147689"><time><value>2025-04-14T18:55:23.298398Z</value><uncertainty>1.1985430717468262</uncertainty></time><latitude><value>-22.114604949951172</value><uncertainty>5.835585117340088</uncertainty></latitude><longitude><value>-68.70734405517578</value><uncertainty>11.920711517333984</uncertainty></longitude><depth><value>120.64495086669922</value><uncertainty>9.895442008972168</uncertainty></depth><depthType>from location</depthType><methodID>LOCSAT</methodID><earthModelID>iasp91_scanloc</earthModelID><quality><associatedPhaseCount>9</associatedPhaseCount><usedPhaseCount>9</usedPhaseCount><associatedStationCount>5</associatedStationCount><usedStationCount>5</usedStationCount><depthPhaseCount>0</depthPhaseCount><standardError>0.09405524144991062</standardError><azimuthalGap>288.13525390625</azimuthalGap><maximumDistance>1.3591837882995605</maximumDistance><minimumDistance>0.5887036919593811</minimumDistance><medianDistance>0.9930790662765503</medianDistance></quality><uncertainty><minHorizontalUncertainty>12.42420768737793</minHorizontalUncertainty><maxHorizontalUncertainty>25.604379653930664</maxHorizontalUncertainty><azimuthMaxHorizontalUncertainty>86.18880462646484</azimuthMaxHorizontalUncertainty><preferredDescription>horizontal uncertainty</preferredDescription></uncertainty><evaluationMode>automatic</evaluationMode><evaluationStatus>confirmed</evaluationStatus><comment><text>0.01</text><id>mismatchScore</id></comment><comment><text>mismatchScore</text><id>scevalMethod</id></comment><arrival><pickID>de.gempa.tb1.Pick/20250414185549.57717.140361</pickID><phase>P</phase><azimuth>302.4437561035156</azimuth><distance>0.5887036919593811</distance><timeResidual>-0.12660789489746094</timeResidual><timeUsed>true</timeUsed><horizontalSlownessUsed>false</horizontalSlownessUsed><backazimuthUsed>false</backazimuthUsed><weight>1</weight></arrival><arrival><pickID>de.gempa.tb1.Pick/20250414185550.585179.140363</pickID><phase>P</phase><azimuth>273.6863098144531</azimuth><distance>0.9721907377243042</distance><timeResidual>0.022405624389648438</timeResidual><timeUsed>true</timeUsed><horizontalSlownessUsed>false</horizontalSlownessUsed><backazimuthUsed>false</backazimuthUsed><weight>1</weight></arrival><arrival><pickID>de.gempa.tb1.Pick/20250414185552.566944.140365</pickID><phase>P</phase><azimuth>233.5039367675781</azimuth><distance>0.9930790662765503</distance><timeResidual>-0.10590553283691406</timeResidual><timeUsed>true</timeUsed><horizontalSlownessUsed>false</horizontalSlownessUsed><backazimuthUsed>false</backazimuthUsed><weight>1</weight></arrival><arrival><pickID>de.gempa.tb1.Pick/20250414185556.485931.140367</pickID><phase>P</phase><azimuth>305.3686828613281</azimuth><distance>1.3591837882995605</distance><timeResidual>0.16526412963867188</timeResidual><timeUsed>true</timeUsed><horizontalSlownessUsed>false</horizontalSlownessUsed><backazimuthUsed>false</backazimuthUsed><weight>1</weight></arrival><arrival><pickID>de.gempa.tb1.Pick/20250414185610.703065.140369</pickID><phase>S</phase><azimuth>273.6863098144531</azimuth><distance>0.9721907377243042</distance><timeResidual>-0.07662391662597656</timeResidual><timeUsed>true</timeUsed><horizontalSlownessUsed>false</horizontalSlownessUsed><backazimuthUsed>false</backazimuthUsed><weight>1</weight></arrival><arrival><pickID>de.gempa.tb1.Pick/20250414185610.708572.140370</pickID><phase>S</phase><azimuth>233.5039367675781</azimuth><distance>0.9930790662765503</distance><timeResidual>0.08901596069335938</timeResidual><timeUsed>true</timeUsed><horizontalSlownessUsed>false</horizontalSlownessUsed><backazimuthUsed>false</backazimuthUsed><weight>1</weight></arrival><arrival><pickID>de.gempa.tb1.Pick/20250414185614.399204.140371</pickID><phase>P</phase><azimuth>289.2074890136719</azimuth><distance>1.1607017517089844</distance><timeResidual>0.02996063232421875</timeResidual><timeUsed>true</timeUsed><horizontalSlownessUsed>false</horizontalSlownessUsed><backazimuthUsed>false</backazimuthUsed><weight>1</weight></arrival><arrival><pickID>de.gempa.tb1.Pick/20250414185616.096627.140377</pickID><phase>S</phase><azimuth>302.4437561035156</azimuth><distance>0.5887036919593811</distance><timeResidual>0.07139968872070312</timeResidual><timeUsed>true</timeUsed><horizontalSlownessUsed>false</horizontalSlownessUsed><backazimuthUsed>false</backazimuthUsed><weight>1</weight></arrival><arrival><pickID>de.gempa.tb1.Pick/20250414185616.510153.140378</pickID><phase>S</phase><azimuth>305.3686828613281</azimuth><distance>1.3591837882995605</distance><timeResidual>-0.06904411315917969</timeResidual><timeUsed>true</timeUsed><horizontalSlownessUsed>false</horizontalSlownessUsed><backazimuthUsed>false</backazimuthUsed><weight>1</weight></arrival><magnitude publicID="de.gempa.tb1.Magnitude/20250414185620.937639.530643"><magnitude><value>2.0059345621175977</value></magnitude><type>M</type><methodID>weighted average</methodID><stationCount>4</stationCount></magnitude></origin><event publicID="gempa2025hjsc"><preferredOriginID>de.gempa.tb1.Origin/20250414185617.503443.147689</preferredOriginID><preferredMagnitudeID>de.gempa.tb1.Magnitude/20250414185620.937639.530643</preferredMagnitudeID><description><text>Northern Chile</text><type>region name</type></description><originReference>de.gempa.tb1.Origin/20250414185617.503443.147689</originReference></event></EventParameters></seiscomp>