<?xml version="1.0" encoding="UTF-8"?>
<seiscomp xmlns="http://geofon.gfz-potsdam.de/ns/seiscomp3-schema/0.13" version="0.13"><EventParameters><pick publicID="de.gempa.tb1.Pick/20250411133507.522406.117903"><time><value>2025-04-11T13:35:00.24Z</value></time><waveformID networkCode="CX" stationCode="PB09" channelCode="HHZ"/><filterID>ITAPER(4)&gt;&gt;BW(4,4,20)</filterID><methodID>AIC</methodID><horizontalSlowness><value>20.107320420300685</value></horizontalSlowness><backazimuth><value>83.10621648321339</value></backazimuth><phaseHint>P</phaseHint><evaluationMode>automatic</evaluationMode><comment><text>16.819773126234544</text><id>DFX:rectilinearity</id></comment><comment><text>42.22209973935774</text><id>SNR</id></comment></pick><pick publicID="de.gempa.tb1.Pick/20250411133507.568301.117905"><time><value>2025-04-11T13:35:00.308393Z</value></time><waveformID networkCode="CX" stationCode="PB01" channelCode="HHZ"/><filterID>ITAPER(4)&gt;&gt;BW(4,4,20)</filterID><methodID>AIC</methodID><horizontalSlowness><value>16.565972329517425</value></horizontalSlowness><backazimuth><value>330.6952811932042</value></backazimuth><phaseHint>P</phaseHint><evaluationMode>automatic</evaluationMode><comment><text>15.930759069814613</text><id>DFX:rectilinearity</id></comment><comment><text>9.324901684003576</text><id>SNR</id></comment></pick><pick publicID="de.gempa.tb1.Pick/20250411133509.494677.117907"><time><value>2025-04-11T13:35:03.858393Z</value></time><waveformID networkCode="CX" stationCode="PB02" channelCode="HHZ"/><filterID>ITAPER(4)&gt;&gt;BW(4,4,20)</filterID><methodID>AIC</methodID><horizontalSlowness><value>18.329802688144447</value></horizontalSlowness><backazimuth><value>275.96577938339055</value></backazimuth><phaseHint>P</phaseHint><evaluationMode>automatic</evaluationMode><comment><text>50.62174847448739</text><id>DFX:rectilinearity</id></comment><comment><text>11.351336645200957</text><id>SNR</id></comment></pick><pick publicID="de.gempa.tb1.Pick/20250411133511.518189.117909"><time><value>2025-04-11T13:35:04.848393Z</value></time><waveformID networkCode="CX" stationCode="PB03" channelCode="HHZ"/><filterID>ITAPER(4)&gt;&gt;BW(4,4,20)</filterID><methodID>AIC</methodID><horizontalSlowness><value>4.752479996510004</value></horizontalSlowness><backazimuth><value>71.00661496018033</value></backazimuth><phaseHint>P</phaseHint><evaluationMode>automatic</evaluationMode><comment><text>8.188052592874909</text><id>DFX:rectilinearity</id></comment><comment><text>16.63361581908385</text><id>SNR</id></comment></pick><pick publicID="de.gempa.tb1.Pick/20250411133516.535303.117911"><time><value>2025-04-11T13:35:09.318393Z</value></time><waveformID networkCode="CX" stationCode="PB06" channelCode="HHZ"/><filterID>ITAPER(4)&gt;&gt;BW(4,4,20)</filterID><methodID>AIC</methodID><horizontalSlowness><value>6.488195389461857</value></horizontalSlowness><backazimuth><value>285.5643271922819</value></backazimuth><phaseHint>P</phaseHint><evaluationMode>automatic</evaluationMode><comment><text>123.37477293743063</text><id>DFX:rectilinearity</id></comment><comment><text>11.098023137301666</text><id>SNR</id></comment></pick><pick publicID="de.gempa.tb1.Pick/20250411133522.39982.117913"><time><value>2025-04-11T13:35:04.398393Z</value></time><waveformID networkCode="CX" stationCode="PB07" channelCode="HHZ"/><filterID>ITAPER(4)&gt;&gt;BW(4,4,20)</filterID><methodID>AIC</methodID><horizontalSlowness><value>23.42236962281308</value></horizontalSlowness><backazimuth><value>87.20158857885407</value></backazimuth><phaseHint>P</phaseHint><evaluationMode>automatic</evaluationMode><comment><text>191.7504086966184</text><id>DFX:rectilinearity</id></comment><comment><text>29.89326810209832</text><id>SNR</id></comment></pick><pick publicID="de.gempa.tb1.Pick/20250411133523.624546.117915"><time><value>2025-04-11T13:35:15.938393Z</value></time><waveformID networkCode="CX" stationCode="PB01" channelCode="HHN"/><filterID>ITAPER(2)&gt;&gt;BW(3,3,20)</filterID><methodID>L2-AIC-GRID</methodID><horizontalSlowness><value>21.706568823332795</value></horizontalSlowness><backazimuth><value>3.992948667264699</value></backazimuth><phaseHint>S</phaseHint><evaluationMode>automatic</evaluationMode><comment><text>83.17886128571617</text><id>DFX:rectilinearity</id></comment><comment><text>de.gempa.tb1.Pick/20250411133507.568301.117905</text><id>RefPickID</id></comment><comment><text>11.209498474524068</text><id>SNR</id></comment></pick><pick publicID="de.gempa.tb1.Pick/20250411133530.636149.117916"><time><value>2025-04-11T13:35:24.058393Z</value></time><waveformID networkCode="CX" stationCode="PB03" channelCode="HHN"/><filterID>ITAPER(2)&gt;&gt;BW(3,3,20)</filterID><methodID>L2-AIC-GRID</methodID><horizontalSlowness><value>19.911539826259116</value></horizontalSlowness><backazimuth><value>166.94355025505985</value></backazimuth><phaseHint>S</phaseHint><evaluationMode>automatic</evaluationMode><comment><text>44.46193998013993</text><id>DFX:rectilinearity</id></comment><comment><text>de.gempa.tb1.Pick/20250411133511.518189.117909</text><id>RefPickID</id></comment><comment><text>10.817039246494945</text><id>SNR</id></comment></pick><pick publicID="de.gempa.tb1.Pick/20250411133530.745564.117917"><time><value>2025-04-11T13:35:23.328393Z</value></time><waveformID networkCode="CX" stationCode="PB07" channelCode="HHN"/><filterID>ITAPER(2)&gt;&gt;BW(3,3,20)</filterID><methodID>L2-AIC-GRID</methodID><horizontalSlowness><value>22.058054008169744</value></horizontalSlowness><backazimuth><value>244.40431554295856</value></backazimuth><phaseHint>S</phaseHint><evaluationMode>automatic</evaluationMode><comment><text>2452.4110744682653</text><id>DFX:rectilinearity</id></comment><comment><text>de.gempa.tb1.Pick/20250411133522.39982.117913</text><id>RefPickID</id></comment><comment><text>5.481581101674515</text><id>SNR</id></comment></pick><pick publicID="de.gempa.tb1.Pick/20250411133532.626759.117919"><time><value>2025-04-11T13:35:22.498393Z</value></time><waveformID networkCode="CX" stationCode="PB02" channelCode="HHN"/><filterID>ITAPER(2)&gt;&gt;BW(3,3,20)</filterID><methodID>L2-AIC-GRID</methodID><horizontalSlowness><value>15.547124862603612</value></horizontalSlowness><backazimuth><value>343.34535238276135</value></backazimuth><phaseHint>S</phaseHint><evaluationMode>automatic</evaluationMode><comment><text>486.2432369434654</text><id>DFX:rectilinearity</id></comment><comment><text>de.gempa.tb1.Pick/20250411133509.494677.117907</text><id>RefPickID</id></comment><comment><text>8.891860962956084</text><id>SNR</id></comment></pick><origin publicID="de.gempa.tb1.Origin/20250411133532.629376.56992"><time><value>2025-04-11T13:34:40.163941Z</value><uncertainty>1.179650068283081</uncertainty></time><latitude><value>-21.290090560913086</value><uncertainty>7.476202011108398</uncertainty></latitude><longitude><value>-68.65532684326172</value><uncertainty>13.416831970214844</uncertainty></longitude><depth><value>119.49496459960938</value><uncertainty>16.848255157470703</uncertainty></depth><depthType>from location</depthType><methodID>LOCSAT</methodID><earthModelID>iasp91_scanloc</earthModelID><quality><associatedPhaseCount>10</associatedPhaseCount><usedPhaseCount>10</usedPhaseCount><associatedStationCount>6</associatedStationCount><usedStationCount>6</usedStationCount><depthPhaseCount>0</depthPhaseCount><standardError>0.2154075937420156</standardError><azimuthalGap>283.55029296875</azimuthalGap><maximumDistance>1.6457245349884033</maximumDistance><minimumDistance>0.7429999709129333</minimumDistance><medianDistance>1.2257312536239624</medianDistance></quality><uncertainty><minHorizontalUncertainty>15.19219970703125</minHorizontalUncertainty><maxHorizontalUncertainty>29.21961212158203</maxHorizontalUncertainty><azimuthMaxHorizontalUncertainty>101.8273696899414</azimuthMaxHorizontalUncertainty><preferredDescription>horizontal uncertainty</preferredDescription></uncertainty><evaluationMode>automatic</evaluationMode><evaluationStatus>confirmed</evaluationStatus><comment><text>0.14</text><id>mismatchScore</id></comment><comment><text>mismatchScore</text><id>scevalMethod</id></comment><arrival><pickID>de.gempa.tb1.Pick/20250411133507.522406.117903</pickID><phase>P</phase><azimuth>227.200439453125</azimuth><distance>0.7429999709129333</distance><timeResidual>0.3885993957519531</timeResidual><timeUsed>true</timeUsed><horizontalSlownessUsed>false</horizontalSlownessUsed><backazimuthUsed>false</backazimuthUsed><weight>1</weight></arrival><arrival><pickID>de.gempa.tb1.Pick/20250411133507.568301.117905</pickID><phase>P</phase><azimuth>287.402099609375</azimuth><distance>0.8145277500152588</distance><timeResidual>-0.1570587158203125</timeResidual><timeUsed>true</timeUsed><horizontalSlownessUsed>false</horizontalSlownessUsed><backazimuthUsed>false</backazimuthUsed><weight>1</weight></arrival><arrival><pickID>de.gempa.tb1.Pick/20250411133509.494677.117907</pickID><phase>P</phase><azimuth>268.3156433105469</azimuth><distance>1.1573028564453125</distance><timeResidual>0.06121635437011719</timeResidual><timeUsed>true</timeUsed><horizontalSlownessUsed>false</horizontalSlownessUsed><backazimuthUsed>false</backazimuthUsed><weight>1</weight></arrival><arrival><pickID>de.gempa.tb1.Pick/20250411133511.518189.117909</pickID><phase>P</phase><azimuth>233.33270263671875</azimuth><distance>1.2697230577468872</distance><timeResidual>-0.15169334411621094</timeResidual><timeUsed>true</timeUsed><horizontalSlownessUsed>false</horizontalSlownessUsed><backazimuthUsed>false</backazimuthUsed><weight>1</weight></arrival><arrival><pickID>de.gempa.tb1.Pick/20250411133516.535303.117911</pickID><phase>P</phase><azimuth>210.952392578125</azimuth><distance>1.6457245349884033</distance><timeResidual>0.015222549438476562</timeResidual><timeUsed>true</timeUsed><horizontalSlownessUsed>false</horizontalSlownessUsed><backazimuthUsed>false</backazimuthUsed><weight>1</weight></arrival><arrival><pickID>de.gempa.tb1.Pick/20250411133522.39982.117913</pickID><phase>P</phase><azimuth>249.01806640625</azimuth><distance>1.2257312536239624</distance><timeResidual>-0.12578392028808594</timeResidual><timeUsed>true</timeUsed><horizontalSlownessUsed>false</horizontalSlownessUsed><backazimuthUsed>false</backazimuthUsed><weight>1</weight></arrival><arrival><pickID>de.gempa.tb1.Pick/20250411133523.624546.117915</pickID><phase>S</phase><azimuth>287.402099609375</azimuth><distance>0.8145277500152588</distance><timeResidual>-0.2051544189453125</timeResidual><timeUsed>true</timeUsed><horizontalSlownessUsed>false</horizontalSlownessUsed><backazimuthUsed>false</backazimuthUsed><weight>1</weight></arrival><arrival><pickID>de.gempa.tb1.Pick/20250411133530.636149.117916</pickID><phase>S</phase><azimuth>233.33270263671875</azimuth><distance>1.2697230577468872</distance><timeResidual>-0.17775917053222656</timeResidual><timeUsed>true</timeUsed><horizontalSlownessUsed>false</horizontalSlownessUsed><backazimuthUsed>false</backazimuthUsed><weight>1</weight></arrival><arrival><pickID>de.gempa.tb1.Pick/20250411133530.745564.117917</pickID><phase>S</phase><azimuth>249.01806640625</azimuth><distance>1.2257312536239624</distance><timeResidual>-0.05778884887695312</timeResidual><timeUsed>true</timeUsed><horizontalSlownessUsed>false</horizontalSlownessUsed><backazimuthUsed>false</backazimuthUsed><weight>1</weight></arrival><arrival><pickID>de.gempa.tb1.Pick/20250411133532.626759.117919</pickID><phase>S</phase><azimuth>268.3156433105469</azimuth><distance>1.1573028564453125</distance><timeResidual>0.4104747772216797</timeResidual><timeUsed>true</timeUsed><horizontalSlownessUsed>false</horizontalSlownessUsed><backazimuthUsed>false</backazimuthUsed><weight>1</weight></arrival><magnitude publicID="de.gempa.tb1.Magnitude/20250411133606.368937.104212"><magnitude><value>2.4153013789607747</value></magnitude><type>M</type><methodID>weighted average</methodID><stationCount>5</stationCount></magnitude></origin><event publicID="gempa2025hdtj"><preferredOriginID>de.gempa.tb1.Origin/20250411133532.629376.56992</preferredOriginID><preferredMagnitudeID>de.gempa.tb1.Magnitude/20250411133606.368937.104212</preferredMagnitudeID><description><text>Chile-Bolivia Border Region</text><type>region name</type></description><originReference>de.gempa.tb1.Origin/20250411133532.629376.56992</originReference></event></EventParameters></seiscomp>