<?xml version="1.0" encoding="UTF-8"?>
<seiscomp xmlns="http://geofon.gfz-potsdam.de/ns/seiscomp3-schema/0.13" version="0.13"><EventParameters><pick publicID="de.gempa.tb1.Pick/20250412041403.322674.139412"><time><value>2025-04-12T04:14:00.04Z</value></time><waveformID networkCode="CH" stationCode="SIMPL" channelCode="HHZ"/><filterID>ITAPER(4)&gt;&gt;BW(4,4,20)</filterID><methodID>AIC</methodID><phaseHint>P</phaseHint><evaluationMode>automatic</evaluationMode></pick><pick publicID="de.gempa.tb1.Pick/20250412041407.110065.139418"><time><value>2025-04-12T04:14:03.885Z</value></time><waveformID networkCode="CH" stationCode="DIX" channelCode="HHZ"/><filterID>ITAPER(4)&gt;&gt;BW(4,4,20)</filterID><methodID>AIC</methodID><phaseHint>P</phaseHint><evaluationMode>automatic</evaluationMode></pick><pick publicID="de.gempa.tb1.Pick/20250412041414.434084.139425"><time><value>2025-04-12T04:14:03.705Z</value></time><waveformID networkCode="CH" stationCode="VANNI" channelCode="HHZ"/><filterID>ITAPER(4)&gt;&gt;BW(4,4,20)</filterID><methodID>AIC</methodID><phaseHint>P</phaseHint><evaluationMode>automatic</evaluationMode></pick><pick publicID="de.gempa.tb1.Pick/20250412041416.105866.139427"><time><value>2025-04-12T04:14:09.96Z</value></time><waveformID networkCode="CH" stationCode="AIGLE" channelCode="HHZ"/><filterID>ITAPER(4)&gt;&gt;BW(4,4,20)</filterID><methodID>AIC</methodID><phaseHint>P</phaseHint><evaluationMode>automatic</evaluationMode></pick><pick publicID="de.gempa.tb1.Pick/20250412041421.864742.139433"><time><value>2025-04-12T04:14:15.18Z</value></time><waveformID networkCode="CH" stationCode="EMMET" channelCode="HHZ"/><filterID>ITAPER(4)&gt;&gt;BW(4,4,20)</filterID><methodID>AIC</methodID><phaseHint>P</phaseHint><evaluationMode>automatic</evaluationMode></pick><origin publicID="de.gempa.tb1.Origin/20250412041421.866836.91194"><time><value>2025-04-12T04:13:34.729507Z</value><uncertainty>6.047721862792969</uncertainty></time><latitude><value>45.2327995300293</value><uncertainty>40.75723648071289</uncertainty></latitude><longitude><value>9.383745193481445</value><uncertainty>28.66963768005371</uncertainty></longitude><depth><value>0</value></depth><depthType>operator assigned</depthType><methodID>LOCSAT</methodID><earthModelID>iasp91</earthModelID><quality><associatedPhaseCount>5</associatedPhaseCount><usedPhaseCount>5</usedPhaseCount><associatedStationCount>5</associatedStationCount><usedStationCount>5</usedStationCount><depthPhaseCount>0</depthPhaseCount><standardError>0.17316521921993441</standardError><azimuthalGap>324.9478454589844</azimuthalGap><maximumDistance>2.400951385498047</maximumDistance><minimumDistance>1.3880503177642822</minimumDistance><medianDistance>1.6240978240966797</medianDistance></quality><uncertainty><minHorizontalUncertainty>33.602169036865234</minHorizontalUncertainty><maxHorizontalUncertainty>101.44613647460938</maxHorizontalUncertainty><azimuthMaxHorizontalUncertainty>147.4572296142578</azimuthMaxHorizontalUncertainty><preferredDescription>horizontal uncertainty</preferredDescription></uncertainty><evaluationMode>automatic</evaluationMode><arrival><pickID>de.gempa.tb1.Pick/20250412041403.322674.139412</pickID><phase>P</phase><azimuth>316.990234375</azimuth><distance>1.3880503177642822</distance><timeResidual>-0.19650840759277344</timeResidual><timeUsed>true</timeUsed><horizontalSlownessUsed>false</horizontalSlownessUsed><backazimuthUsed>false</backazimuthUsed><weight>1</weight></arrival><arrival><pickID>de.gempa.tb1.Pick/20250412041407.110065.139418</pickID><phase>P</phase><azimuth>302.14990234375</azimuth><distance>1.6240978240966797</distance><timeResidual>-0.06564903259277344</timeResidual><timeUsed>true</timeUsed><horizontalSlownessUsed>false</horizontalSlownessUsed><backazimuthUsed>false</backazimuthUsed><weight>1</weight></arrival><arrival><pickID>de.gempa.tb1.Pick/20250412041414.434084.139425</pickID><phase>P</phase><azimuth>308.6165466308594</azimuth><distance>1.5881545543670654</distance><timeResidual>0.3128852844238281</timeResidual><timeUsed>true</timeUsed><horizontalSlownessUsed>false</horizontalSlownessUsed><backazimuthUsed>false</backazimuthUsed><weight>1</weight></arrival><arrival><pickID>de.gempa.tb1.Pick/20250412041416.105866.139427</pickID><phase>P</phase><azimuth>303.9728698730469</azimuth><distance>2.0301055908203125</distance><timeResidual>-0.08788108825683594</timeResidual><timeUsed>true</timeUsed><horizontalSlownessUsed>false</horizontalSlownessUsed><backazimuthUsed>false</backazimuthUsed><weight>1</weight></arrival><arrival><pickID>de.gempa.tb1.Pick/20250412041421.864742.139433</pickID><phase>P</phase><azimuth>337.2020568847656</azimuth><distance>2.400951385498047</distance><timeResidual>0.037220001220703125</timeResidual><timeUsed>true</timeUsed><horizontalSlownessUsed>false</horizontalSlownessUsed><backazimuthUsed>false</backazimuthUsed><weight>1</weight></arrival><magnitude publicID="de.gempa.tb1.Magnitude/20250412041557.930727.175012"><magnitude><value>2.314818586859517</value></magnitude><type>M</type><methodID>weighted average</methodID><stationCount>5</stationCount></magnitude></origin><event publicID="gempa2025hewr"><preferredOriginID>de.gempa.tb1.Origin/20250412041421.866836.91194</preferredOriginID><preferredMagnitudeID>de.gempa.tb1.Magnitude/20250412041557.930727.175012</preferredMagnitudeID><typeCertainty>suspected</typeCertainty><description><text>Northern Italy</text><type>region name</type></description><originReference>de.gempa.tb1.Origin/20250412041421.866836.91194</originReference></event></EventParameters></seiscomp>