<?xml version="1.0" encoding="UTF-8"?>
<seiscomp xmlns="http://geofon.gfz-potsdam.de/ns/seiscomp3-schema/0.13" version="0.13"><EventParameters><pick publicID="de.gempa.tb1.Pick/20250414082023.773171.136727"><time><value>2025-04-14T08:20:17.618393Z</value></time><waveformID networkCode="CX" stationCode="PB01" channelCode="HHZ"/><filterID>ITAPER(4)&gt;&gt;BW(4,4,20)</filterID><methodID>AIC</methodID><horizontalSlowness><value>6.090419836975429</value></horizontalSlowness><backazimuth><value>0.39647746669675143</value></backazimuth><phaseHint>P</phaseHint><evaluationMode>automatic</evaluationMode><comment><text>159.47807370048417</text><id>DFX:rectilinearity</id></comment><comment><text>560.8634556893481</text><id>SNR</id></comment></pick><pick publicID="de.gempa.tb1.Pick/20250414082025.623706.136729"><time><value>2025-04-14T08:20:21.498393Z</value></time><waveformID networkCode="CX" stationCode="PB02" channelCode="HHZ"/><filterID>ITAPER(4)&gt;&gt;BW(4,4,20)</filterID><methodID>AIC</methodID><horizontalSlowness><value>5.624156164825819</value></horizontalSlowness><backazimuth><value>33.90452175230112</value></backazimuth><phaseHint>P</phaseHint><evaluationMode>automatic</evaluationMode><comment><text>174.93546143200194</text><id>DFX:rectilinearity</id></comment><comment><text>221.312244556389</text><id>SNR</id></comment></pick><pick publicID="de.gempa.tb1.Pick/20250414082027.808565.136731"><time><value>2025-04-14T08:20:22.218393Z</value></time><waveformID networkCode="CX" stationCode="PB08" channelCode="HHZ"/><filterID>ITAPER(4)&gt;&gt;BW(4,4,20)</filterID><methodID>AIC</methodID><horizontalSlowness><value>14.23966473236012</value></horizontalSlowness><backazimuth><value>93.9537538346186</value></backazimuth><phaseHint>P</phaseHint><evaluationMode>automatic</evaluationMode><comment><text>9.804176544772448</text><id>DFX:rectilinearity</id></comment><comment><text>12.322705633283993</text><id>SNR</id></comment></pick><pick publicID="de.gempa.tb1.Pick/20250414082028.260604.136733"><time><value>2025-04-14T08:20:22.329999Z</value></time><waveformID networkCode="CX" stationCode="PATCX" channelCode="HHZ"/><filterID>ITAPER(4)&gt;&gt;BW(4,4,20)</filterID><methodID>AIC</methodID><horizontalSlowness><value>7.87335186492155</value></horizontalSlowness><backazimuth><value>74.52262291519187</value></backazimuth><phaseHint>P</phaseHint><evaluationMode>automatic</evaluationMode><comment><text>143.84150249788811</text><id>DFX:rectilinearity</id></comment><comment><text>72.61317662755016</text><id>SNR</id></comment></pick><pick publicID="de.gempa.tb1.Pick/20250414082032.560452.136735"><time><value>2025-04-14T08:20:27.868393Z</value></time><waveformID networkCode="CX" stationCode="PB03" channelCode="HHZ"/><filterID>ITAPER(4)&gt;&gt;BW(4,4,20)</filterID><methodID>AIC</methodID><horizontalSlowness><value>10.543603058151815</value></horizontalSlowness><backazimuth><value>25.917944903827077</value></backazimuth><phaseHint>P</phaseHint><evaluationMode>automatic</evaluationMode><comment><text>9.908562442515692</text><id>DFX:rectilinearity</id></comment><comment><text>38.162381073964767</text><id>SNR</id></comment></pick><pick publicID="de.gempa.tb1.Pick/20250414082034.788594.136737"><time><value>2025-04-14T08:20:27.238393Z</value></time><waveformID networkCode="CX" stationCode="PB01" channelCode="HHN"/><filterID>ITAPER(2)&gt;&gt;BW(3,3,20)</filterID><methodID>L2-AIC-GRID</methodID><horizontalSlowness><value>21.624885231021178</value></horizontalSlowness><backazimuth><value>271.5776547790793</value></backazimuth><phaseHint>S</phaseHint><evaluationMode>automatic</evaluationMode><comment><text>26436.219537231736</text><id>DFX:rectilinearity</id></comment><comment><text>de.gempa.tb1.Pick/20250414082023.773171.136727</text><id>RefPickID</id></comment><comment><text>35.82800564994168</text><id>SNR</id></comment></pick><pick publicID="de.gempa.tb1.Pick/20250414082036.57765.136738"><time><value>2025-04-14T08:20:30.420001Z</value></time><waveformID networkCode="CX" stationCode="PSGCX" channelCode="HHZ"/><filterID>ITAPER(4)&gt;&gt;BW(4,4,20)</filterID><methodID>AIC</methodID><horizontalSlowness><value>8.299642901931326</value></horizontalSlowness><backazimuth><value>181.3245363827989</value></backazimuth><phaseHint>P</phaseHint><evaluationMode>automatic</evaluationMode><comment><text>17.564561398639075</text><id>DFX:rectilinearity</id></comment><comment><text>97.31388690188733</text><id>SNR</id></comment></pick><pick publicID="de.gempa.tb1.Pick/20250414082037.996377.136740"><time><value>2025-04-14T08:20:24.08Z</value></time><waveformID networkCode="CX" stationCode="PB09" channelCode="HHZ"/><filterID>ITAPER(4)&gt;&gt;BW(4,4,20)</filterID><methodID>AIC</methodID><horizontalSlowness><value>16.350850374468326</value></horizontalSlowness><backazimuth><value>60.02045791494976</value></backazimuth><phaseHint>P</phaseHint><evaluationMode>automatic</evaluationMode><comment><text>37.086912904745944</text><id>DFX:rectilinearity</id></comment><comment><text>126.97341946443424</text><id>SNR</id></comment></pick><pick publicID="de.gempa.tb1.Pick/20250414082040.482766.136742"><time><value>2025-04-14T08:20:34.198393Z</value></time><waveformID networkCode="CX" stationCode="PB02" channelCode="HHN"/><filterID>ITAPER(2)&gt;&gt;BW(3,3,20)</filterID><methodID>L2-AIC-GRID</methodID><horizontalSlowness><value>8.719076767630758</value></horizontalSlowness><backazimuth><value>52.3199440239854</value></backazimuth><phaseHint>S</phaseHint><evaluationMode>automatic</evaluationMode><comment><text>7112.047621679666</text><id>DFX:rectilinearity</id></comment><comment><text>de.gempa.tb1.Pick/20250414082025.623706.136729</text><id>RefPickID</id></comment><comment><text>7.009075222789176</text><id>SNR</id></comment></pick><pick publicID="de.gempa.tb1.Pick/20250414082041.624064.136743"><time><value>2025-04-14T08:20:34.698393Z</value></time><waveformID networkCode="CX" stationCode="PB08" channelCode="HHN"/><filterID>ITAPER(2)&gt;&gt;BW(3,3,20)</filterID><methodID>L2-AIC-GRID</methodID><horizontalSlowness><value>16.91278653153724</value></horizontalSlowness><backazimuth><value>205.98926984393435</value></backazimuth><phaseHint>S</phaseHint><evaluationMode>automatic</evaluationMode><comment><text>411.33884878400437</text><id>DFX:rectilinearity</id></comment><comment><text>de.gempa.tb1.Pick/20250414082027.808565.136731</text><id>RefPickID</id></comment><comment><text>9.96711345883454</text><id>SNR</id></comment></pick><origin publicID="de.gempa.tb1.Origin/20250414082041.627121.132267"><time><value>2025-04-14T08:20:05.546353Z</value><uncertainty>0.7688249349594116</uncertainty></time><latitude><value>-20.86545181274414</value><uncertainty>3.8784074783325195</uncertainty></latitude><longitude><value>-69.32532501220703</value><uncertainty>7.352734565734863</uncertainty></longitude><depth><value>84.17552185058594</value><uncertainty>6.354854583740234</uncertainty></depth><depthType>from location</depthType><methodID>LOCSAT</methodID><earthModelID>iasp91_scanloc</earthModelID><quality><associatedPhaseCount>10</associatedPhaseCount><usedPhaseCount>10</usedPhaseCount><associatedStationCount>7</associatedStationCount><usedStationCount>7</usedStationCount><depthPhaseCount>0</depthPhaseCount><standardError>0.2096023773542146</standardError><azimuthalGap>162.5804204940796</azimuthalGap><maximumDistance>1.46740460395813</maximumDistance><minimumDistance>0.2328880876302719</minimumDistance><medianDistance>0.7384634613990784</medianDistance></quality><uncertainty><minHorizontalUncertainty>7.072390079498291</minHorizontalUncertainty><maxHorizontalUncertainty>16.361360549926758</maxHorizontalUncertainty><azimuthMaxHorizontalUncertainty>107.24823760986328</azimuthMaxHorizontalUncertainty><preferredDescription>horizontal uncertainty</preferredDescription></uncertainty><evaluationMode>automatic</evaluationMode><evaluationStatus>confirmed</evaluationStatus><comment><text>0.05</text><id>mismatchScore</id></comment><comment><text>mismatchScore</text><id>scevalMethod</id></comment><arrival><pickID>de.gempa.tb1.Pick/20250414082023.773171.136727</pickID><phase>P</phase><azimuth>220.5467529296875</azimuth><distance>0.2328880876302719</distance><timeResidual>-0.3486356735229492</timeResidual><timeUsed>true</timeUsed><horizontalSlownessUsed>false</horizontalSlownessUsed><backazimuthUsed>false</backazimuthUsed><weight>1</weight></arrival><arrival><pickID>de.gempa.tb1.Pick/20250414082025.623706.136729</pickID><phase>P</phase><azimuth>229.5941162109375</azimuth><distance>0.6988047957420349</distance><timeResidual>-0.05838680267333984</timeResidual><timeUsed>true</timeUsed><horizontalSlownessUsed>false</horizontalSlownessUsed><backazimuthUsed>false</backazimuthUsed><weight>1</weight></arrival><arrival><pickID>de.gempa.tb1.Pick/20250414082027.808565.136731</pickID><phase>P</phase><azimuth>12.636239051818848</azimuth><distance>0.7384634613990784</distance><timeResidual>0.2488536834716797</timeResidual><timeUsed>true</timeUsed><horizontalSlownessUsed>false</horizontalSlownessUsed><backazimuthUsed>false</backazimuthUsed><weight>1</weight></arrival><arrival><pickID>de.gempa.tb1.Pick/20250414082028.260604.136733</pickID><phase>P</phase><azimuth>273.1452331542969</azimuth><distance>0.7753288149833679</distance><timeResidual>-0.02333545684814453</timeResidual><timeUsed>true</timeUsed><horizontalSlownessUsed>false</horizontalSlownessUsed><backazimuthUsed>false</backazimuthUsed><weight>1</weight></arrival><arrival><pickID>de.gempa.tb1.Pick/20250414082032.560452.136735</pickID><phase>P</phase><azimuth>198.62347412109375</azimuth><distance>1.2428110837936401</distance><timeResidual>0.07355880737304688</timeResidual><timeUsed>true</timeUsed><horizontalSlownessUsed>false</horizontalSlownessUsed><backazimuthUsed>false</backazimuthUsed><weight>1</weight></arrival><arrival><pickID>de.gempa.tb1.Pick/20250414082034.788594.136737</pickID><phase>S</phase><azimuth>220.5467529296875</azimuth><distance>0.2328880876302719</distance><timeResidual>-0.21259784698486328</timeResidual><timeUsed>true</timeUsed><horizontalSlownessUsed>false</horizontalSlownessUsed><backazimuthUsed>false</backazimuthUsed><weight>1</weight></arrival><arrival><pickID>de.gempa.tb1.Pick/20250414082036.57765.136738</pickID><phase>P</phase><azimuth>329.1653747558594</azimuth><distance>1.46740460395813</distance><timeResidual>-0.2129354476928711</timeResidual><timeUsed>true</timeUsed><horizontalSlownessUsed>false</horizontalSlownessUsed><backazimuthUsed>false</backazimuthUsed><weight>1</weight></arrival><arrival><pickID>de.gempa.tb1.Pick/20250414082037.996377.136740</pickID><phase>P</phase><azimuth>175.21665954589844</azimuth><distance>0.929588794708252</distance><timeResidual>0.0279693603515625</timeResidual><timeUsed>true</timeUsed><horizontalSlownessUsed>false</horizontalSlownessUsed><backazimuthUsed>false</backazimuthUsed><weight>1</weight></arrival><arrival><pickID>de.gempa.tb1.Pick/20250414082040.482766.136742</pickID><phase>S</phase><azimuth>229.5941162109375</azimuth><distance>0.6988047957420349</distance><timeResidual>0.3697681427001953</timeResidual><timeUsed>true</timeUsed><horizontalSlownessUsed>false</horizontalSlownessUsed><backazimuthUsed>false</backazimuthUsed><weight>1</weight></arrival><arrival><pickID>de.gempa.tb1.Pick/20250414082041.624064.136743</pickID><phase>S</phase><azimuth>12.636239051818848</azimuth><distance>0.7384634613990784</distance><timeResidual>0.1358013153076172</timeResidual><timeUsed>true</timeUsed><horizontalSlownessUsed>false</horizontalSlownessUsed><backazimuthUsed>false</backazimuthUsed><weight>1</weight></arrival><magnitude publicID="de.gempa.tb1.Magnitude/20250414082057.571535.451484"><magnitude><value>2.3821387151019704</value></magnitude><type>M</type><methodID>weighted average</methodID><stationCount>6</stationCount></magnitude></origin><event publicID="gempa2025hiwy"><preferredOriginID>de.gempa.tb1.Origin/20250414082041.627121.132267</preferredOriginID><preferredMagnitudeID>de.gempa.tb1.Magnitude/20250414082057.571535.451484</preferredMagnitudeID><description><text>Northern Chile</text><type>region name</type></description><originReference>de.gempa.tb1.Origin/20250414082041.627121.132267</originReference></event></EventParameters></seiscomp>