<?xml version="1.0" encoding="UTF-8"?>
<seiscomp xmlns="http://geofon.gfz-potsdam.de/ns/seiscomp3-schema/0.13" version="0.13"><EventParameters><pick publicID="de.gempa.tb1.Pick/20250412210019.228231.190241"><time><value>2025-04-12T21:00:11.42Z</value></time><waveformID networkCode="SX" stationCode="ROHR" channelCode="HHZ"/><filterID>ITAPER(2)&gt;&gt;BW(3,3,20)</filterID><methodID>AIC</methodID><horizontalSlowness><value>1.4924134595122474</value></horizontalSlowness><backazimuth><value>114.03979658734808</value></backazimuth><phaseHint>P</phaseHint><evaluationMode>automatic</evaluationMode><comment><text>34.6809304785464</text><id>DFX:rectilinearity</id></comment></pick><pick publicID="de.gempa.tb1.Pick/20250412210019.634485.190243"><time><value>2025-04-12T21:00:13.36Z</value></time><waveformID networkCode="SX" stationCode="WERD" channelCode="HHZ"/><filterID>ITAPER(2)&gt;&gt;BW(3,3,20)</filterID><methodID>AIC</methodID><horizontalSlowness><value>19.126703788696016</value></horizontalSlowness><backazimuth><value>70.32757890830717</value></backazimuth><phaseHint>P</phaseHint><evaluationMode>automatic</evaluationMode><comment><text>26.71061667433868</text><id>DFX:rectilinearity</id></comment></pick><pick publicID="de.gempa.tb1.Pick/20250412210020.921988.190245"><time><value>2025-04-12T21:00:12.13Z</value></time><waveformID networkCode="SX" stationCode="GUNZ" channelCode="HHZ"/><filterID>ITAPER(2)&gt;&gt;BW(3,3,20)</filterID><methodID>AIC</methodID><horizontalSlowness><value>22.59754566145284</value></horizontalSlowness><backazimuth><value>319.4696339671915</value></backazimuth><phaseHint>P</phaseHint><evaluationMode>automatic</evaluationMode><comment><text>14.04776139701642</text><id>DFX:rectilinearity</id></comment></pick><pick publicID="de.gempa.tb1.Pick/20250412210021.029329.190247"><time><value>2025-04-12T21:00:15.78Z</value></time><waveformID networkCode="SX" stationCode="LEUT" channelCode="HHZ"/><filterID>ITAPER(2)&gt;&gt;BW(3,3,20)</filterID><methodID>AIC</methodID><horizontalSlowness><value>18.103775304275437</value></horizontalSlowness><backazimuth><value>251.3952040988358</value></backazimuth><phaseHint>P</phaseHint><evaluationMode>automatic</evaluationMode><comment><text>1.620690060401913</text><id>DFX:rectilinearity</id></comment></pick><pick publicID="de.gempa.tb1.Pick/20250412210021.350236.190249"><time><value>2025-04-12T21:00:12.46Z</value></time><waveformID networkCode="SX" stationCode="MULD" channelCode="HHZ"/><filterID>ITAPER(2)&gt;&gt;BW(3,3,20)</filterID><methodID>AIC</methodID><horizontalSlowness><value>22.271030247540416</value></horizontalSlowness><backazimuth><value>149.82053662648073</value></backazimuth><phaseHint>P</phaseHint><evaluationMode>automatic</evaluationMode><comment><text>5.144685435812418</text><id>DFX:rectilinearity</id></comment></pick><pick publicID="de.gempa.tb1.Pick/20250412210021.451814.190251"><time><value>2025-04-12T21:00:11.1775Z</value></time><waveformID networkCode="SX" stationCode="WERN" channelCode="HHZ"/><filterID>ITAPER(2)&gt;&gt;BW(3,3,20)</filterID><methodID>AIC</methodID><horizontalSlowness><value>23.540409016098575</value></horizontalSlowness><backazimuth><value>43.626337825773135</value></backazimuth><phaseHint>P</phaseHint><evaluationMode>automatic</evaluationMode><comment><text>56.42681298148845</text><id>DFX:rectilinearity</id></comment></pick><pick publicID="de.gempa.tb1.Pick/20250412210021.846187.190254"><time><value>2025-04-12T21:00:12.44Z</value></time><waveformID networkCode="SX" stationCode="TANN" channelCode="HHZ"/><filterID>ITAPER(2)&gt;&gt;BW(3,3,20)</filterID><methodID>AIC</methodID><horizontalSlowness><value>23.006073474578393</value></horizontalSlowness><backazimuth><value>318.9052488613052</value></backazimuth><phaseHint>P</phaseHint><evaluationMode>automatic</evaluationMode><comment><text>2.474259789480834</text><id>DFX:rectilinearity</id></comment></pick><pick publicID="de.gempa.tb1.Pick/20250412210022.782454.190256"><time><value>2025-04-12T21:00:18.92Z</value></time><waveformID networkCode="BW" stationCode="ROTZ" channelCode="HHZ"/><filterID>ITAPER(2)&gt;&gt;BW(3,3,20)</filterID><methodID>AIC</methodID><horizontalSlowness><value>21.828306029895732</value><uncertainty>6.212385288138361</uncertainty></horizontalSlowness><backazimuth><value>186.28192309095155</value><uncertainty>16.36204951864228</uncertainty></backazimuth><phaseHint>P</phaseHint><evaluationMode>automatic</evaluationMode><comment><text>0.5557254653634767</text><id>DFX:rectilinearity</id></comment></pick><pick publicID="de.gempa.tb1.Pick/20250412210024.908567.190262"><time><value>2025-04-12T21:00:13.46Z</value></time><waveformID networkCode="SX" stationCode="TRIB" channelCode="HHZ"/><filterID>ITAPER(2)&gt;&gt;BW(3,3,20)</filterID><methodID>AIC</methodID><horizontalSlowness><value>20.931307097893242</value></horizontalSlowness><backazimuth><value>212.47160170072746</value></backazimuth><phaseHint>P</phaseHint><evaluationMode>automatic</evaluationMode><comment><text>4.029118045874757</text><id>DFX:rectilinearity</id></comment></pick><pick publicID="de.gempa.tb1.Pick/20250412210024.914741.190266"><time><value>2025-04-12T21:00:16.11Z</value></time><waveformID networkCode="SX" stationCode="WERD" channelCode="HHN"/><filterID>ITAPER(3)&gt;&gt;BW(4,3,10)</filterID><methodID>L2-AIC-GRID</methodID><horizontalSlowness><value>19.887508257822674</value></horizontalSlowness><backazimuth><value>76.42671185850594</value></backazimuth><phaseHint>S</phaseHint><evaluationMode>automatic</evaluationMode><comment><text>48.97901511162915</text><id>DFX:rectilinearity</id></comment><comment><text>de.gempa.tb1.Pick/20250412210019.634485.190243</text><id>RefPickID</id></comment></pick><pick publicID="de.gempa.tb1.Pick/20250412210024.920244.190267"><time><value>2025-04-12T21:00:14.81Z</value></time><waveformID networkCode="SX" stationCode="TANN" channelCode="HHN"/><filterID>ITAPER(3)&gt;&gt;BW(4,3,10)</filterID><methodID>L2-AIC-GRID</methodID><horizontalSlowness><value>21.885761411536404</value></horizontalSlowness><backazimuth><value>325.99037279576334</value></backazimuth><phaseHint>S</phaseHint><evaluationMode>automatic</evaluationMode><comment><text>2.5804300340357003</text><id>DFX:rectilinearity</id></comment><comment><text>de.gempa.tb1.Pick/20250412210021.846187.190254</text><id>RefPickID</id></comment></pick><pick publicID="de.gempa.tb1.Pick/20250412210026.341516.190268"><time><value>2025-04-12T21:00:14.74Z</value></time><waveformID networkCode="SX" stationCode="MULD" channelCode="HHN"/><filterID>ITAPER(3)&gt;&gt;BW(4,3,10)</filterID><methodID>L2-AIC-GRID</methodID><horizontalSlowness><value>21.524690093075058</value></horizontalSlowness><backazimuth><value>136.9021316467015</value></backazimuth><phaseHint>S</phaseHint><evaluationMode>automatic</evaluationMode><comment><text>4.90452473556109</text><id>DFX:rectilinearity</id></comment><comment><text>de.gempa.tb1.Pick/20250412210021.350236.190249</text><id>RefPickID</id></comment></pick><pick publicID="de.gempa.tb1.Pick/20250412210027.996924.190273"><time><value>2025-04-12T21:00:14.15Z</value></time><waveformID networkCode="SX" stationCode="GUNZ" channelCode="HHN"/><filterID>ITAPER(3)&gt;&gt;BW(4,3,10)</filterID><methodID>L2-AIC-GRID</methodID><horizontalSlowness><value>22.60535790571929</value></horizontalSlowness><backazimuth><value>319.6216217358982</value></backazimuth><phaseHint>S</phaseHint><evaluationMode>automatic</evaluationMode><comment><text>14.0501007486843</text><id>DFX:rectilinearity</id></comment><comment><text>de.gempa.tb1.Pick/20250412210020.921988.190245</text><id>RefPickID</id></comment></pick><pick publicID="de.gempa.tb1.Pick/20250412210028.333623.190274"><time><value>2025-04-12T21:00:16.46Z</value></time><waveformID networkCode="SX" stationCode="TRIB" channelCode="HHN"/><filterID>ITAPER(3)&gt;&gt;BW(4,3,10)</filterID><methodID>L2-AIC-GRID</methodID><horizontalSlowness><value>20.93130709789332</value></horizontalSlowness><backazimuth><value>212.4716017007218</value></backazimuth><phaseHint>S</phaseHint><evaluationMode>automatic</evaluationMode><comment><text>4.029118045874374</text><id>DFX:rectilinearity</id></comment><comment><text>de.gempa.tb1.Pick/20250412210024.908567.190262</text><id>RefPickID</id></comment></pick><pick publicID="de.gempa.tb1.Pick/20250412210029.663718.190275"><time><value>2025-04-12T21:00:25.67Z</value></time><waveformID networkCode="BW" stationCode="ROTZ" channelCode="HHN"/><filterID>ITAPER(3)&gt;&gt;BW(4,3,10)</filterID><methodID>L2-AIC-GRID</methodID><horizontalSlowness><value>10.660494336483696</value><uncertainty>6.071389581826888</uncertainty></horizontalSlowness><backazimuth><value>28.22587784137562</value><uncertainty>33.08914565396436</uncertainty></backazimuth><phaseHint>S</phaseHint><evaluationMode>automatic</evaluationMode><comment><text>0.5837408500506052</text><id>DFX:rectilinearity</id></comment><comment><text>de.gempa.tb1.Pick/20250412210022.782454.190256</text><id>RefPickID</id></comment></pick><origin publicID="de.gempa.tb1.Origin/20250412210032.599397.175128"><time><value>2025-04-12T21:00:08.859641Z</value><uncertainty>0.5524525046348572</uncertainty></time><latitude><value>50.24927139282227</value><uncertainty>1.8953074216842651</uncertainty></latitude><longitude><value>12.464842796325684</value><uncertainty>3.8662612438201904</uncertainty></longitude><depth><value>2.4752235412597656</value><uncertainty>2.353142499923706</uncertainty></depth><depthType>from location</depthType><methodID>LOCSAT</methodID><earthModelID>iasp91</earthModelID><quality><associatedPhaseCount>15</associatedPhaseCount><usedPhaseCount>15</usedPhaseCount><associatedStationCount>9</associatedStationCount><usedStationCount>9</usedStationCount><depthPhaseCount>0</depthPhaseCount><standardError>0.25130305645319645</standardError><azimuthalGap>193.19452095031738</azimuthalGap><maximumDistance>0.5107768177986145</maximumDistance><minimumDistance>0.06855989992618561</minimumDistance><medianDistance>0.16734923422336578</medianDistance></quality><uncertainty><minHorizontalUncertainty>3.8614988327026367</minHorizontalUncertainty><maxHorizontalUncertainty>8.383913040161133</maxHorizontalUncertainty><azimuthMaxHorizontalUncertainty>99.77625274658203</azimuthMaxHorizontalUncertainty><preferredDescription>horizontal uncertainty</preferredDescription></uncertainty><evaluationMode>automatic</evaluationMode><evaluationStatus>confirmed</evaluationStatus><comment><text>0.09</text><id>mismatchScore</id></comment><comment><text>mismatchScore</text><id>scevalMethod</id></comment><arrival><pickID>de.gempa.tb1.Pick/20250412210019.228231.190241</pickID><phase>P</phase><azimuth>260.9075012207031</azimuth><distance>0.09615109115839005</distance><timeResidual>0.26556921005249023</timeResidual><timeUsed>true</timeUsed><horizontalSlownessUsed>false</horizontalSlownessUsed><backazimuthUsed>false</backazimuthUsed><weight>1</weight></arrival><arrival><pickID>de.gempa.tb1.Pick/20250412210019.634485.190243</pickID><phase>P</phase><azimuth>333.1200256347656</azimuth><distance>0.22319580614566803</distance><timeResidual>-0.16489434242248535</timeResidual><timeUsed>true</timeUsed><horizontalSlownessUsed>false</horizontalSlownessUsed><backazimuthUsed>false</backazimuthUsed><weight>1</weight></arrival><arrival><pickID>de.gempa.tb1.Pick/20250412210020.921988.190245</pickID><phase>P</phase><azimuth>323.2893371582031</azimuth><distance>0.14275586605072021</distance><timeResidual>0.1060934066772461</timeResidual><timeUsed>true</timeUsed><horizontalSlownessUsed>false</horizontalSlownessUsed><backazimuthUsed>false</backazimuthUsed><weight>1</weight></arrival><arrival><pickID>de.gempa.tb1.Pick/20250412210021.029329.190247</pickID><phase>P</phase><azimuth>5.912397384643555</azimuth><distance>0.36030566692352295</distance><timeResidual>-0.3032982349395752</timeResidual><timeUsed>true</timeUsed><horizontalSlownessUsed>false</horizontalSlownessUsed><backazimuthUsed>false</backazimuthUsed><weight>1</weight></arrival><arrival><pickID>de.gempa.tb1.Pick/20250412210021.350236.190249</pickID><phase>P</phase><azimuth>346.52655029296875</azimuth><distance>0.16734923422336578</distance><timeResidual>-0.022768497467041016</timeResidual><timeUsed>true</timeUsed><horizontalSlownessUsed>false</horizontalSlownessUsed><backazimuthUsed>false</backazimuthUsed><weight>1</weight></arrival><arrival><pickID>de.gempa.tb1.Pick/20250412210021.451814.190251</pickID><phase>P</phase><azimuth>303.86859130859375</azimuth><distance>0.06855989992618561</distance><timeResidual>0.5380740165710449</timeResidual><timeUsed>true</timeUsed><horizontalSlownessUsed>false</horizontalSlownessUsed><backazimuthUsed>false</backazimuthUsed><weight>1</weight></arrival><arrival><pickID>de.gempa.tb1.Pick/20250412210021.846187.190254</pickID><phase>P</phase><azimuth>359.1512451171875</azimuth><distance>0.16595031321048737</distance><timeResidual>-0.01665639877319336</timeResidual><timeUsed>true</timeUsed><horizontalSlownessUsed>false</horizontalSlownessUsed><backazimuthUsed>false</backazimuthUsed><weight>1</weight></arrival><arrival><pickID>de.gempa.tb1.Pick/20250412210022.782454.190256</pickID><phase>P</phase><azimuth>199.10691833496094</azimuth><distance>0.5107768177986145</distance><timeResidual>0.0270082950592041</timeResidual><timeUsed>true</timeUsed><horizontalSlownessUsed>false</horizontalSlownessUsed><backazimuthUsed>false</backazimuthUsed><weight>1</weight></arrival><arrival><pickID>de.gempa.tb1.Pick/20250412210024.908567.190262</pickID><phase>P</phase><azimuth>296.1942443847656</azimuth><distance>0.2340549975633621</distance><timeResidual>-0.2677321434020996</timeResidual><timeUsed>true</timeUsed><horizontalSlownessUsed>false</horizontalSlownessUsed><backazimuthUsed>false</backazimuthUsed><weight>1</weight></arrival><arrival><pickID>de.gempa.tb1.Pick/20250412210024.914741.190266</pickID><phase>S</phase><azimuth>333.1200256347656</azimuth><distance>0.22319580614566803</distance><timeResidual>-0.34085965156555176</timeResidual><timeUsed>true</timeUsed><horizontalSlownessUsed>false</horizontalSlownessUsed><backazimuthUsed>false</backazimuthUsed><weight>1</weight></arrival><arrival><pickID>de.gempa.tb1.Pick/20250412210024.920244.190267</pickID><phase>S</phase><azimuth>359.1512451171875</azimuth><distance>0.16595031321048737</distance><timeResidual>0.2102217674255371</timeResidual><timeUsed>true</timeUsed><horizontalSlownessUsed>false</horizontalSlownessUsed><backazimuthUsed>false</backazimuthUsed><weight>1</weight></arrival><arrival><pickID>de.gempa.tb1.Pick/20250412210026.341516.190268</pickID><phase>S</phase><azimuth>346.52655029296875</azimuth><distance>0.16734923422336578</distance><timeResidual>0.09497189521789551</timeResidual><timeUsed>true</timeUsed><horizontalSlownessUsed>false</horizontalSlownessUsed><backazimuthUsed>false</backazimuthUsed><weight>1</weight></arrival><arrival><pickID>de.gempa.tb1.Pick/20250412210027.996924.190273</pickID><phase>S</phase><azimuth>323.2893371582031</azimuth><distance>0.14275586605072021</distance><timeResidual>0.30009055137634277</timeResidual><timeUsed>true</timeUsed><horizontalSlownessUsed>false</horizontalSlownessUsed><backazimuthUsed>false</backazimuthUsed><weight>1</weight></arrival><arrival><pickID>de.gempa.tb1.Pick/20250412210028.333623.190274</pickID><phase>S</phase><azimuth>296.1942443847656</azimuth><distance>0.2340549975633621</distance><timeResidual>-0.34238409996032715</timeResidual><timeUsed>true</timeUsed><horizontalSlownessUsed>false</horizontalSlownessUsed><backazimuthUsed>false</backazimuthUsed><weight>1</weight></arrival><arrival><pickID>de.gempa.tb1.Pick/20250412210029.663718.190275</pickID><phase>S</phase><azimuth>199.10691833496094</azimuth><distance>0.5107768177986145</distance><timeResidual>-0.08322739601135254</timeResidual><timeUsed>true</timeUsed><horizontalSlownessUsed>false</horizontalSlownessUsed><backazimuthUsed>false</backazimuthUsed><weight>1</weight></arrival><magnitude publicID="de.gempa.tb1.Magnitude/20250412210051.212314.282549"><magnitude><value>0.3806895903728601</value></magnitude><type>M</type><methodID>weighted average</methodID><stationCount>7</stationCount></magnitude></origin><event publicID="gempa2025hgeg"><preferredOriginID>de.gempa.tb1.Origin/20250412210032.599397.175128</preferredOriginID><preferredMagnitudeID>de.gempa.tb1.Magnitude/20250412210051.212314.282549</preferredMagnitudeID><description><text>Germany</text><type>region name</type></description><originReference>de.gempa.tb1.Origin/20250412210032.599397.175128</originReference></event></EventParameters></seiscomp>