<?xml version="1.0" encoding="UTF-8"?>
<seiscomp xmlns="http://geofon.gfz-potsdam.de/ns/seiscomp3-schema/0.13" version="0.13"><EventParameters><pick publicID="de.gempa.tb1.Pick/20250413130408.515219.131329"><time><value>2025-04-13T13:04:00.9Z</value></time><waveformID networkCode="CX" stationCode="PB19" channelCode="HHZ"/><filterID>ITAPER(4)&gt;&gt;BW(4,4,20)</filterID><methodID>AIC</methodID><horizontalSlowness><value>20.205716619806637</value></horizontalSlowness><backazimuth><value>208.13844222277595</value></backazimuth><phaseHint>P</phaseHint><evaluationMode>automatic</evaluationMode><comment><text>24.0750242625903</text><id>DFX:rectilinearity</id></comment><comment><text>22.59214159590948</text><id>SNR</id></comment></pick><pick publicID="de.gempa.tb1.Pick/20250413130408.691249.131331"><time><value>2025-04-13T13:04:04.258393Z</value></time><waveformID networkCode="CX" stationCode="PB15" channelCode="HHZ"/><filterID>ITAPER(4)&gt;&gt;BW(4,4,20)</filterID><methodID>AIC</methodID><horizontalSlowness><value>22.222707607191833</value></horizontalSlowness><backazimuth><value>148.0106638342096</value></backazimuth><phaseHint>P</phaseHint><evaluationMode>automatic</evaluationMode><comment><text>291.56027673087613</text><id>DFX:rectilinearity</id></comment><comment><text>13.967769291159057</text><id>SNR</id></comment></pick><pick publicID="de.gempa.tb1.Pick/20250413130415.637845.131333"><time><value>2025-04-13T13:04:07.488393Z</value></time><waveformID networkCode="CX" stationCode="PB06" channelCode="HHZ"/><filterID>ITAPER(4)&gt;&gt;BW(4,4,20)</filterID><methodID>AIC</methodID><horizontalSlowness><value>1.1048931955809893</value></horizontalSlowness><backazimuth><value>179.43842065889572</value></backazimuth><phaseHint>P</phaseHint><evaluationMode>automatic</evaluationMode><comment><text>70.5504713957737</text><id>DFX:rectilinearity</id></comment><comment><text>14.18015195805451</text><id>SNR</id></comment></pick><pick publicID="de.gempa.tb1.Pick/20250413130418.467292.131335"><time><value>2025-04-13T13:04:13.338393Z</value></time><waveformID networkCode="CX" stationCode="PB03" channelCode="HHZ"/><filterID>ITAPER(4)&gt;&gt;BW(4,4,20)</filterID><methodID>AIC</methodID><horizontalSlowness><value>13.123441823290468</value></horizontalSlowness><backazimuth><value>124.17399054012193</value></backazimuth><phaseHint>P</phaseHint><evaluationMode>automatic</evaluationMode><comment><text>11.259368527105883</text><id>DFX:rectilinearity</id></comment><comment><text>15.539836854175082</text><id>SNR</id></comment></pick><pick publicID="de.gempa.tb1.Pick/20250413130421.513647.131337"><time><value>2025-04-13T13:04:12.23Z</value></time><waveformID networkCode="CX" stationCode="PB09" channelCode="HHZ"/><filterID>ITAPER(4)&gt;&gt;BW(4,4,20)</filterID><methodID>AIC</methodID><horizontalSlowness><value>17.39200021142966</value></horizontalSlowness><backazimuth><value>243.73214790698233</value></backazimuth><phaseHint>P</phaseHint><evaluationMode>automatic</evaluationMode><comment><text>23.802125973326596</text><id>DFX:rectilinearity</id></comment><comment><text>27.357496259212343</text><id>SNR</id></comment></pick><pick publicID="de.gempa.tb1.Pick/20250413130425.577975.131339"><time><value>2025-04-13T13:04:19.768394Z</value></time><waveformID networkCode="CX" stationCode="PB01" channelCode="HHZ"/><filterID>ITAPER(4)&gt;&gt;BW(4,4,20)</filterID><methodID>AIC</methodID><horizontalSlowness><value>16.578426911555244</value></horizontalSlowness><backazimuth><value>347.65137482065887</value></backazimuth><phaseHint>P</phaseHint><evaluationMode>automatic</evaluationMode><comment><text>18.445612549147995</text><id>DFX:rectilinearity</id></comment><comment><text>8.538723145557668</text><id>SNR</id></comment></pick><pick publicID="de.gempa.tb1.Pick/20250413130427.483102.131341"><time><value>2025-04-13T13:04:20.378393Z</value></time><waveformID networkCode="CX" stationCode="PB02" channelCode="HHZ"/><filterID>ITAPER(4)&gt;&gt;BW(4,4,20)</filterID><methodID>AIC</methodID><horizontalSlowness><value>17.581140029332598</value></horizontalSlowness><backazimuth><value>85.05752119388335</value></backazimuth><phaseHint>P</phaseHint><evaluationMode>automatic</evaluationMode><comment><text>25.52348214779399</text><id>DFX:rectilinearity</id></comment><comment><text>8.41588318569798</text><id>SNR</id></comment></pick><pick publicID="de.gempa.tb1.Pick/20250413130438.531258.131347"><time><value>2025-04-13T13:04:30.46Z</value></time><waveformID networkCode="CX" stationCode="PB19" channelCode="HHN"/><filterID>ITAPER(2)&gt;&gt;BW(3,3,20)</filterID><methodID>L2-AIC-GRID</methodID><horizontalSlowness><value>21.06278102515386</value></horizontalSlowness><backazimuth><value>182.78380634575424</value></backazimuth><phaseHint>S</phaseHint><evaluationMode>automatic</evaluationMode><comment><text>189.27282124626413</text><id>DFX:rectilinearity</id></comment><comment><text>de.gempa.tb1.Pick/20250413130408.515219.131329</text><id>RefPickID</id></comment><comment><text>9.937675510915986</text><id>SNR</id></comment></pick><pick publicID="de.gempa.tb1.Pick/20250413130445.82307.131350"><time><value>2025-04-13T13:04:16.718394Z</value></time><waveformID networkCode="CX" stationCode="PB07" channelCode="HHZ"/><filterID>ITAPER(4)&gt;&gt;BW(4,4,20)</filterID><methodID>AIC</methodID><horizontalSlowness><value>23.254672135845237</value></horizontalSlowness><backazimuth><value>273.8006504416851</value></backazimuth><phaseHint>P</phaseHint><evaluationMode>automatic</evaluationMode><comment><text>362.0231389909708</text><id>DFX:rectilinearity</id></comment><comment><text>33.22313929818924</text><id>SNR</id></comment></pick><pick publicID="de.gempa.tb1.Pick/20250413130446.243066.131352"><time><value>2025-04-13T13:04:36.548393Z</value></time><waveformID networkCode="CX" stationCode="PB15" channelCode="HHN"/><filterID>ITAPER(2)&gt;&gt;BW(3,3,20)</filterID><methodID>L2-AIC-GRID</methodID><horizontalSlowness><value>20.076711362276694</value></horizontalSlowness><backazimuth><value>137.26709396568162</value></backazimuth><phaseHint>S</phaseHint><evaluationMode>automatic</evaluationMode><comment><text>957.5915334377512</text><id>DFX:rectilinearity</id></comment><comment><text>de.gempa.tb1.Pick/20250413130408.691249.131331</text><id>RefPickID</id></comment><comment><text>8.141192285098409</text><id>SNR</id></comment></pick><pick publicID="de.gempa.tb1.Pick/20250413130451.594566.131355"><time><value>2025-04-13T13:04:41.878393Z</value></time><waveformID networkCode="CX" stationCode="PB06" channelCode="HHN"/><filterID>ITAPER(2)&gt;&gt;BW(3,3,20)</filterID><methodID>L2-AIC-GRID</methodID><horizontalSlowness><value>9.594637003717702</value></horizontalSlowness><backazimuth><value>334.04502116153765</value></backazimuth><phaseHint>S</phaseHint><evaluationMode>automatic</evaluationMode><comment><text>111.46652261678992</text><id>DFX:rectilinearity</id></comment><comment><text>de.gempa.tb1.Pick/20250413130415.637845.131333</text><id>RefPickID</id></comment><comment><text>12.107145146101393</text><id>SNR</id></comment></pick><pick publicID="de.gempa.tb1.Pick/20250413130502.568883.131359"><time><value>2025-04-13T13:04:52.328393Z</value></time><waveformID networkCode="CX" stationCode="PB03" channelCode="HHN"/><filterID>ITAPER(2)&gt;&gt;BW(3,3,20)</filterID><methodID>L2-AIC-GRID</methodID><horizontalSlowness><value>15.434106723336743</value></horizontalSlowness><backazimuth><value>231.8798562320841</value></backazimuth><phaseHint>S</phaseHint><evaluationMode>automatic</evaluationMode><comment><text>16.82067420516526</text><id>DFX:rectilinearity</id></comment><comment><text>de.gempa.tb1.Pick/20250413130418.467292.131335</text><id>RefPickID</id></comment><comment><text>8.320737567155827</text><id>SNR</id></comment></pick><origin publicID="de.gempa.tb1.Origin/20250413130502.57235.110627"><time><value>2025-04-13T13:03:23.135798Z</value><uncertainty>1.5261199474334717</uncertainty></time><latitude><value>-23.730220794677734</value><uncertainty>10.876748085021973</uncertainty></latitude><longitude><value>-66.75603485107422</value><uncertainty>27.927913665771484</uncertainty></longitude><depth><value>12.539650917053223</value><uncertainty>37.58564758300781</uncertainty></depth><depthType>from location</depthType><methodID>LOCSAT</methodID><earthModelID>iasp91_scanloc</earthModelID><quality><associatedPhaseCount>12</associatedPhaseCount><usedPhaseCount>12</usedPhaseCount><associatedStationCount>8</associatedStationCount><usedStationCount>8</usedStationCount><depthPhaseCount>0</depthPhaseCount><standardError>0.6609129783871177</standardError><azimuthalGap>309.12591552734375</azimuthalGap><maximumDistance>3.7659528255462646</maximumDistance><minimumDistance>2.3277478218078613</minimumDistance><medianDistance>2.9947853088378906</medianDistance></quality><uncertainty><minHorizontalUncertainty>14.973403930664062</minHorizontalUncertainty><maxHorizontalUncertainty>62.50447463989258</maxHorizontalUncertainty><azimuthMaxHorizontalUncertainty>107.14037322998047</azimuthMaxHorizontalUncertainty><preferredDescription>horizontal uncertainty</preferredDescription></uncertainty><evaluationMode>automatic</evaluationMode><evaluationStatus>confirmed</evaluationStatus><comment><text>0.00</text><id>mismatchScore</id></comment><comment><text>mismatchScore</text><id>scevalMethod</id></comment><arrival><pickID>de.gempa.tb1.Pick/20250413130408.515219.131329</pickID><phase>P</phase><azimuth>265.21063232421875</azimuth><distance>2.3277478218078613</distance><timeResidual>-0.28585052490234375</timeResidual><timeUsed>true</timeUsed><horizontalSlownessUsed>false</horizontalSlownessUsed><backazimuthUsed>false</backazimuthUsed><weight>1</weight></arrival><arrival><pickID>de.gempa.tb1.Pick/20250413130408.691249.131331</pickID><phase>P</phase><azimuth>281.2313232421875</azimuth><distance>2.5464324951171875</distance><timeResidual>0.0615692138671875</timeResidual><timeUsed>true</timeUsed><horizontalSlownessUsed>false</horizontalSlownessUsed><backazimuthUsed>false</backazimuthUsed><weight>1</weight></arrival><arrival><pickID>de.gempa.tb1.Pick/20250413130415.637845.131333</pickID><phase>P</phase><azimuth>290.9296569824219</azimuth><distance>2.78385329246521</distance><timeResidual>0.023357391357421875</timeResidual><timeUsed>true</timeUsed><horizontalSlownessUsed>false</horizontalSlownessUsed><backazimuthUsed>false</backazimuthUsed><weight>1</weight></arrival><arrival><pickID>de.gempa.tb1.Pick/20250413130418.467292.131335</pickID><phase>P</phase><azimuth>300.6139221191406</azimuth><distance>3.2310473918914795</distance><timeResidual>-0.2812347412109375</timeResidual><timeUsed>true</timeUsed><horizontalSlownessUsed>false</horizontalSlownessUsed><backazimuthUsed>false</backazimuthUsed><weight>1</weight></arrival><arrival><pickID>de.gempa.tb1.Pick/20250413130421.513647.131337</pickID><phase>P</phase><azimuth>309.5068664550781</azimuth><distance>2.9947853088378906</distance><timeResidual>1.860454559326172</timeResidual><timeUsed>true</timeUsed><horizontalSlownessUsed>false</horizontalSlownessUsed><backazimuthUsed>false</backazimuthUsed><weight>1</weight></arrival><arrival><pickID>de.gempa.tb1.Pick/20250413130425.577975.131339</pickID><phase>P</phase><azimuth>316.084716796875</azimuth><distance>3.6796603202819824</distance><timeResidual>-0.025173187255859375</timeResidual><timeUsed>true</timeUsed><horizontalSlownessUsed>false</horizontalSlownessUsed><backazimuthUsed>false</backazimuthUsed><weight>1</weight></arrival><arrival><pickID>de.gempa.tb1.Pick/20250413130427.483102.131341</pickID><phase>P</phase><azimuth>308.9603271484375</azimuth><distance>3.7659528255462646</distance><timeResidual>-0.6016311645507812</timeResidual><timeUsed>true</timeUsed><horizontalSlownessUsed>false</horizontalSlownessUsed><backazimuthUsed>false</backazimuthUsed><weight>1</weight></arrival><arrival><pickID>de.gempa.tb1.Pick/20250413130438.531258.131347</pickID><phase>S</phase><azimuth>265.21063232421875</azimuth><distance>2.3277478218078613</distance><timeResidual>-0.07695388793945312</timeResidual><timeUsed>true</timeUsed><horizontalSlownessUsed>false</horizontalSlownessUsed><backazimuthUsed>false</backazimuthUsed><weight>1</weight></arrival><arrival><pickID>de.gempa.tb1.Pick/20250413130445.82307.131350</pickID><phase>P</phase><azimuth>303.9967956542969</azimuth><distance>3.510944128036499</distance><timeResidual>-0.7526626586914062</timeResidual><timeUsed>true</timeUsed><horizontalSlownessUsed>false</horizontalSlownessUsed><backazimuthUsed>false</backazimuthUsed><weight>1</weight></arrival><arrival><pickID>de.gempa.tb1.Pick/20250413130446.243066.131352</pickID><phase>S</phase><azimuth>281.2313232421875</azimuth><distance>2.5464324951171875</distance><timeResidual>0.5961875915527344</timeResidual><timeUsed>true</timeUsed><horizontalSlownessUsed>false</horizontalSlownessUsed><backazimuthUsed>false</backazimuthUsed><weight>1</weight></arrival><arrival><pickID>de.gempa.tb1.Pick/20250413130451.594566.131355</pickID><phase>S</phase><azimuth>290.9296569824219</azimuth><distance>2.78385329246521</distance><timeResidual>0.04909896850585938</timeResidual><timeUsed>true</timeUsed><horizontalSlownessUsed>false</horizontalSlownessUsed><backazimuthUsed>false</backazimuthUsed><weight>1</weight></arrival><arrival><pickID>de.gempa.tb1.Pick/20250413130502.568883.131359</pickID><phase>S</phase><azimuth>300.6139221191406</azimuth><distance>3.2310473918914795</distance><timeResidual>-0.567779541015625</timeResidual><timeUsed>true</timeUsed><horizontalSlownessUsed>false</horizontalSlownessUsed><backazimuthUsed>false</backazimuthUsed><weight>1</weight></arrival><magnitude publicID="de.gempa.tb1.Magnitude/20250413130624.648946.360079"><magnitude><value>3.3392202353597993</value></magnitude><type>M</type><methodID>weighted average</methodID><stationCount>6</stationCount></magnitude></origin><event publicID="gempa2025hhkj"><preferredOriginID>de.gempa.tb1.Origin/20250413130502.57235.110627</preferredOriginID><preferredMagnitudeID>de.gempa.tb1.Magnitude/20250413130624.648946.360079</preferredMagnitudeID><description><text>Jujuy Province, Argentina</text><type>region name</type></description><originReference>de.gempa.tb1.Origin/20250413130502.57235.110627</originReference></event></EventParameters></seiscomp>