<?xml version="1.0" encoding="UTF-8"?>
<seiscomp xmlns="http://geofon.gfz-potsdam.de/ns/seiscomp3-schema/0.13" version="0.13"><EventParameters><pick publicID="de.gempa.tb1.Pick/20250413154122.122053.197184"><time><value>2025-04-13T15:41:18.765Z</value></time><waveformID networkCode="CH" stationCode="SIMPL" channelCode="HHZ"/><filterID>ITAPER(4)&gt;&gt;BW(4,4,20)</filterID><methodID>AIC</methodID><phaseHint>P</phaseHint><evaluationMode>automatic</evaluationMode></pick><pick publicID="de.gempa.tb1.Pick/20250413154123.178413.197186"><time><value>2025-04-13T15:41:18.25Z</value></time><waveformID networkCode="CH" stationCode="FUSIO" channelCode="HHZ"/><filterID>ITAPER(4)&gt;&gt;BW(4,4,20)</filterID><methodID>AIC</methodID><phaseHint>P</phaseHint><evaluationMode>automatic</evaluationMode></pick><pick publicID="de.gempa.tb1.Pick/20250413154125.940308.197190"><time><value>2025-04-13T15:41:20.86Z</value></time><waveformID networkCode="CH" stationCode="VANNI" channelCode="HHZ"/><filterID>ITAPER(4)&gt;&gt;BW(4,4,20)</filterID><methodID>AIC</methodID><phaseHint>P</phaseHint><evaluationMode>automatic</evaluationMode></pick><pick publicID="de.gempa.tb1.Pick/20250413154129.966898.197194"><time><value>2025-04-13T15:41:26.745Z</value></time><waveformID networkCode="CH" stationCode="ACB" channelCode="HHZ"/><filterID>ITAPER(4)&gt;&gt;BW(4,4,20)</filterID><methodID>AIC</methodID><phaseHint>P</phaseHint><evaluationMode>automatic</evaluationMode></pick><pick publicID="de.gempa.tb1.Pick/20250413154138.180024.197198"><time><value>2025-04-13T15:41:26.69Z</value></time><waveformID networkCode="CH" stationCode="DIX" channelCode="HHZ"/><filterID>ITAPER(4)&gt;&gt;BW(4,4,20)</filterID><methodID>AIC</methodID><phaseHint>P</phaseHint><evaluationMode>automatic</evaluationMode></pick><origin publicID="de.gempa.tb1.Origin/20250413154138.182151.124274"><time><value>2025-04-13T15:41:09.825696Z</value><uncertainty>0.519036591053009</uncertainty></time><latitude><value>46.7053108215332</value><uncertainty>3.7706236839294434</uncertainty></latitude><longitude><value>8.158126831054688</value><uncertainty>5.070511341094971</uncertainty></longitude><depth><value>0</value></depth><depthType>operator assigned</depthType><methodID>LOCSAT</methodID><earthModelID>iasp91</earthModelID><quality><associatedPhaseCount>5</associatedPhaseCount><usedPhaseCount>5</usedPhaseCount><associatedStationCount>5</associatedStationCount><usedStationCount>5</usedStationCount><depthPhaseCount>0</depthPhaseCount><standardError>0.7534592199065101</standardError><azimuthalGap>144.2572741508484</azimuthalGap><maximumDistance>0.8851037621498108</maximumDistance><minimumDistance>0.4290708899497986</minimumDistance><medianDistance>0.629303514957428</medianDistance></quality><uncertainty><minHorizontalUncertainty>7.481485843658447</minHorizontalUncertainty><maxHorizontalUncertainty>11.301087379455566</maxHorizontalUncertainty><azimuthMaxHorizontalUncertainty>111.26335144042969</azimuthMaxHorizontalUncertainty><preferredDescription>horizontal uncertainty</preferredDescription></uncertainty><evaluationMode>automatic</evaluationMode><arrival><pickID>de.gempa.tb1.Pick/20250413154122.122053.197184</pickID><phase>P</phase><azimuth>191.66552734375</azimuth><distance>0.4755800068378448</distance><timeResidual>-0.25041675567626953</timeResidual><timeUsed>true</timeUsed><horizontalSlownessUsed>false</horizontalSlownessUsed><backazimuthUsed>false</backazimuthUsed><weight>1</weight></arrival><arrival><pickID>de.gempa.tb1.Pick/20250413154123.178413.197186</pickID><phase>P</phase><azimuth>125.5363311767578</azimuth><distance>0.4290708899497986</distance><timeResidual>0.11920738220214844</timeResidual><timeUsed>true</timeUsed><horizontalSlownessUsed>false</horizontalSlownessUsed><backazimuthUsed>false</backazimuthUsed><weight>1</weight></arrival><arrival><pickID>de.gempa.tb1.Pick/20250413154125.940308.197190</pickID><phase>P</phase><azimuth>218.27581787109375</azimuth><distance>0.629303514957428</distance><timeResidual>-1.0781164169311523</timeResidual><timeUsed>true</timeUsed><horizontalSlownessUsed>false</horizontalSlownessUsed><backazimuthUsed>false</backazimuthUsed><weight>1</weight></arrival><arrival><pickID>de.gempa.tb1.Pick/20250413154129.966898.197194</pickID><phase>P</phase><azimuth>4.2200427055358887</azimuth><distance>0.8851037621498108</distance><timeResidual>-0.05411148071289062</timeResidual><timeUsed>true</timeUsed><horizontalSlownessUsed>false</horizontalSlownessUsed><backazimuthUsed>false</backazimuthUsed><weight>1</weight></arrival><arrival><pickID>de.gempa.tb1.Pick/20250413154138.180024.197198</pickID><phase>P</phase><azimuth>219.9627685546875</azimuth><distance>0.8127735257148743</distance><timeResidual>1.2634563446044922</timeResidual><timeUsed>true</timeUsed><horizontalSlownessUsed>false</horizontalSlownessUsed><backazimuthUsed>false</backazimuthUsed><weight>1</weight></arrival><magnitude publicID="de.gempa.tb1.Magnitude/20250413154159.152936.374797"><magnitude><value>2.087246915854177</value></magnitude><type>M</type><methodID>weighted average</methodID><stationCount>4</stationCount></magnitude></origin><event publicID="gempa2025hhpq"><preferredOriginID>de.gempa.tb1.Origin/20250413154138.182151.124274</preferredOriginID><preferredMagnitudeID>de.gempa.tb1.Magnitude/20250413154159.152936.374797</preferredMagnitudeID><typeCertainty>suspected</typeCertainty><description><text>Switzerland</text><type>region name</type></description><originReference>de.gempa.tb1.Origin/20250413154138.182151.124274</originReference></event></EventParameters></seiscomp>