<?xml version="1.0" encoding="UTF-8"?>
<seiscomp xmlns="http://geofon.gfz-potsdam.de/ns/seiscomp3-schema/0.13" version="0.13"><EventParameters><pick publicID="de.gempa.tb1.Pick/20250415031712.819579.143147"><time><value>2025-04-15T03:17:06.758393Z</value></time><waveformID networkCode="CX" stationCode="PB01" channelCode="HHZ"/><filterID>ITAPER(4)&gt;&gt;BW(4,4,20)</filterID><methodID>AIC</methodID><horizontalSlowness><value>12.71735333239837</value></horizontalSlowness><backazimuth><value>312.9956039358436</value></backazimuth><phaseHint>P</phaseHint><evaluationMode>automatic</evaluationMode><comment><text>22.461699929655754</text><id>SNR</id></comment><comment><text>9.628703557642263</text><id>DFX:rectilinearity</id></comment></pick><pick publicID="de.gempa.tb1.Pick/20250415031713.409269.143149"><time><value>2025-04-15T03:17:06.05Z</value></time><waveformID networkCode="CX" stationCode="PB09" channelCode="HHZ"/><filterID>ITAPER(4)&gt;&gt;BW(4,4,20)</filterID><methodID>AIC</methodID><horizontalSlowness><value>18.840602832915902</value></horizontalSlowness><backazimuth><value>83.4558264489434</value></backazimuth><phaseHint>P</phaseHint><evaluationMode>automatic</evaluationMode><comment><text>78.17047365066634</text><id>DFX:rectilinearity</id></comment><comment><text>34.963221273796265</text><id>SNR</id></comment></pick><pick publicID="de.gempa.tb1.Pick/20250415031716.512087.143151"><time><value>2025-04-15T03:17:10.578393Z</value></time><waveformID networkCode="CX" stationCode="PB02" channelCode="HHZ"/><filterID>ITAPER(4)&gt;&gt;BW(4,4,20)</filterID><methodID>AIC</methodID><horizontalSlowness><value>10.109817181136496</value></horizontalSlowness><backazimuth><value>84.3731166466611</value></backazimuth><phaseHint>P</phaseHint><evaluationMode>automatic</evaluationMode><comment><text>57.54694985164418</text><id>DFX:rectilinearity</id></comment><comment><text>40.91309136052255</text><id>SNR</id></comment></pick><pick publicID="de.gempa.tb1.Pick/20250415031717.60361.143153"><time><value>2025-04-15T03:17:11.048393Z</value></time><waveformID networkCode="CX" stationCode="PB03" channelCode="HHZ"/><filterID>ITAPER(4)&gt;&gt;BW(4,4,20)</filterID><methodID>AIC</methodID><horizontalSlowness><value>7.772054976947173</value></horizontalSlowness><backazimuth><value>127.68382370543353</value></backazimuth><phaseHint>P</phaseHint><evaluationMode>automatic</evaluationMode><comment><text>19.058910996250727</text><id>DFX:rectilinearity</id></comment><comment><text>22.304995155609198</text><id>SNR</id></comment></pick><pick publicID="de.gempa.tb1.Pick/20250415031717.730015.143155"><time><value>2025-04-15T03:17:10.838388Z</value></time><waveformID networkCode="CX" stationCode="PB07" channelCode="HHZ"/><filterID>ITAPER(4)&gt;&gt;BW(4,4,20)</filterID><methodID>AIC</methodID><horizontalSlowness><value>17.649559351113215</value></horizontalSlowness><backazimuth><value>66.82469804247945</value></backazimuth><phaseHint>P</phaseHint><evaluationMode>automatic</evaluationMode><comment><text>313.0735982161582</text><id>DFX:rectilinearity</id></comment><comment><text>36.92632509374102</text><id>SNR</id></comment></pick><pick publicID="de.gempa.tb1.Pick/20250415031720.858074.143157"><time><value>2025-04-15T03:17:14.059999Z</value></time><waveformID networkCode="CX" stationCode="PATCX" channelCode="HHZ"/><filterID>ITAPER(4)&gt;&gt;BW(4,4,20)</filterID><methodID>AIC</methodID><horizontalSlowness><value>22.185228043680546</value></horizontalSlowness><backazimuth><value>90.31015189498962</value></backazimuth><phaseHint>P</phaseHint><evaluationMode>automatic</evaluationMode><comment><text>118.5733818599599</text><id>DFX:rectilinearity</id></comment><comment><text>40.40625577798784</text><id>SNR</id></comment></pick><pick publicID="de.gempa.tb1.Pick/20250415031722.515445.143159"><time><value>2025-04-15T03:17:14.528393Z</value></time><waveformID networkCode="CX" stationCode="PB06" channelCode="HHZ"/><filterID>ITAPER(4)&gt;&gt;BW(4,4,20)</filterID><methodID>AIC</methodID><horizontalSlowness><value>2.7862464221771375</value></horizontalSlowness><backazimuth><value>117.58895721578125</value></backazimuth><phaseHint>P</phaseHint><evaluationMode>automatic</evaluationMode><comment><text>65.80949561122668</text><id>DFX:rectilinearity</id></comment><comment><text>7.767655734698121</text><id>SNR</id></comment></pick><pick publicID="de.gempa.tb1.Pick/20250415031726.498522.143161"><time><value>2025-04-15T03:17:20.94Z</value></time><waveformID networkCode="CX" stationCode="PSGCX" channelCode="HHZ"/><filterID>ITAPER(4)&gt;&gt;BW(4,4,20)</filterID><methodID>AIC</methodID><horizontalSlowness><value>1.0681273769919968</value></horizontalSlowness><backazimuth><value>67.35494639860902</value></backazimuth><phaseHint>P</phaseHint><evaluationMode>automatic</evaluationMode><comment><text>16.01650305808863</text><id>DFX:rectilinearity</id></comment><comment><text>9.043792910853863</text><id>SNR</id></comment></pick><pick publicID="de.gempa.tb1.Pick/20250415031732.711367.143163"><time><value>2025-04-15T03:17:24.858393Z</value></time><waveformID networkCode="CX" stationCode="PB01" channelCode="HHN"/><filterID>ITAPER(2)&gt;&gt;BW(3,3,20)</filterID><methodID>L2-AIC-GRID</methodID><horizontalSlowness><value>20.822661017330692</value></horizontalSlowness><backazimuth><value>336.5122271530176</value></backazimuth><phaseHint>S</phaseHint><evaluationMode>automatic</evaluationMode><comment><text>205.1952675831213</text><id>DFX:rectilinearity</id></comment><comment><text>de.gempa.tb1.Pick/20250415031712.819579.143147</text><id>RefPickID</id></comment><comment><text>6.42110253843584</text><id>SNR</id></comment></pick><pick publicID="de.gempa.tb1.Pick/20250415031737.640169.143164"><time><value>2025-04-15T03:17:31.838393Z</value></time><waveformID networkCode="CX" stationCode="PB03" channelCode="HHN"/><filterID>ITAPER(2)&gt;&gt;BW(3,3,20)</filterID><methodID>L2-AIC-GRID</methodID><horizontalSlowness><value>16.93006397444518</value></horizontalSlowness><backazimuth><value>224.18383823303637</value></backazimuth><phaseHint>S</phaseHint><evaluationMode>automatic</evaluationMode><comment><text>117.82615781561964</text><id>DFX:rectilinearity</id></comment><comment><text>de.gempa.tb1.Pick/20250415031717.60361.143153</text><id>RefPickID</id></comment><comment><text>11.942799500144606</text><id>SNR</id></comment></pick><pick publicID="de.gempa.tb1.Pick/20250415031737.732499.143165"><time><value>2025-04-15T03:17:31.578388Z</value></time><waveformID networkCode="CX" stationCode="PB07" channelCode="HHN"/><filterID>ITAPER(2)&gt;&gt;BW(3,3,20)</filterID><methodID>L2-AIC-GRID</methodID><horizontalSlowness><value>22.007690129828273</value></horizontalSlowness><backazimuth><value>275.3409063940694</value></backazimuth><phaseHint>S</phaseHint><evaluationMode>automatic</evaluationMode><comment><text>1837.7480161083893</text><id>DFX:rectilinearity</id></comment><comment><text>de.gempa.tb1.Pick/20250415031717.730015.143155</text><id>RefPickID</id></comment><comment><text>6.010538119065622</text><id>SNR</id></comment></pick><pick publicID="de.gempa.tb1.Pick/20250415031737.960653.143166"><time><value>2025-04-15T03:17:23.65Z</value></time><waveformID networkCode="CX" stationCode="PB09" channelCode="HHN"/><filterID>ITAPER(2)&gt;&gt;BW(3,3,20)</filterID><methodID>L2-AIC-GRID</methodID><horizontalSlowness><value>11.72938115352906</value></horizontalSlowness><backazimuth><value>291.9129734886791</value></backazimuth><phaseHint>S</phaseHint><evaluationMode>automatic</evaluationMode><comment><text>254.1086776514697</text><id>DFX:rectilinearity</id></comment><comment><text>de.gempa.tb1.Pick/20250415031713.409269.143149</text><id>RefPickID</id></comment><comment><text>5.084520645295116</text><id>SNR</id></comment></pick><pick publicID="de.gempa.tb1.Pick/20250415031738.644226.143168"><time><value>2025-04-15T03:17:31.368393Z</value></time><waveformID networkCode="CX" stationCode="PB02" channelCode="HHN"/><filterID>ITAPER(2)&gt;&gt;BW(3,3,20)</filterID><methodID>L2-AIC-GRID</methodID><horizontalSlowness><value>6.585216165022786</value></horizontalSlowness><backazimuth><value>252.5021411724103</value></backazimuth><phaseHint>S</phaseHint><evaluationMode>automatic</evaluationMode><comment><text>1150.2667536708418</text><id>DFX:rectilinearity</id></comment><comment><text>de.gempa.tb1.Pick/20250415031716.512087.143151</text><id>RefPickID</id></comment><comment><text>5.195579080075324</text><id>SNR</id></comment></pick><pick publicID="de.gempa.tb1.Pick/20250415031745.08814.143171"><time><value>2025-04-15T03:17:37.119999Z</value></time><waveformID networkCode="CX" stationCode="PATCX" channelCode="HHN"/><filterID>ITAPER(2)&gt;&gt;BW(3,3,20)</filterID><methodID>L2-AIC-GRID</methodID><horizontalSlowness><value>20.45776297730703</value></horizontalSlowness><backazimuth><value>43.249641096901257</value></backazimuth><phaseHint>S</phaseHint><evaluationMode>automatic</evaluationMode><comment><text>367.795655082011</text><id>DFX:rectilinearity</id></comment><comment><text>de.gempa.tb1.Pick/20250415031720.858074.143157</text><id>RefPickID</id></comment><comment><text>12.035502428302566</text><id>SNR</id></comment></pick><pick publicID="de.gempa.tb1.Pick/20250415031745.658043.143172"><time><value>2025-04-15T03:17:38.468393Z</value></time><waveformID networkCode="CX" stationCode="PB06" channelCode="HHN"/><filterID>ITAPER(2)&gt;&gt;BW(3,3,20)</filterID><methodID>L2-AIC-GRID</methodID><horizontalSlowness><value>18.952862253821792</value></horizontalSlowness><backazimuth><value>166.40459446023746</value></backazimuth><phaseHint>S</phaseHint><evaluationMode>automatic</evaluationMode><comment><text>53.9253076159159</text><id>DFX:rectilinearity</id></comment><comment><text>de.gempa.tb1.Pick/20250415031722.515445.143159</text><id>RefPickID</id></comment><comment><text>9.352306117765767</text><id>SNR</id></comment></pick><pick publicID="de.gempa.tb1.Pick/20250415031805.624822.143175"><time><value>2025-04-15T03:17:50.02Z</value></time><waveformID networkCode="CX" stationCode="PSGCX" channelCode="HHN"/><filterID>ITAPER(2)&gt;&gt;BW(3,3,20)</filterID><methodID>L2-AIC-GRID</methodID><horizontalSlowness><value>8.941049909978812</value></horizontalSlowness><backazimuth><value>127.93407008923147</value></backazimuth><phaseHint>S</phaseHint><evaluationMode>automatic</evaluationMode><comment><text>13.518101128096985</text><id>DFX:rectilinearity</id></comment><comment><text>de.gempa.tb1.Pick/20250415031726.498522.143161</text><id>RefPickID</id></comment><comment><text>6.768578460791196</text><id>SNR</id></comment></pick><origin publicID="de.gempa.tb1.Origin/20250415031805.641625.159423"><time><value>2025-04-15T03:16:43.465052Z</value><uncertainty>0.8438899517059326</uncertainty></time><latitude><value>-21.29735565185547</value><uncertainty>3.9186346530914307</uncertainty></latitude><longitude><value>-68.5113296508789</value><uncertainty>9.879399299621582</uncertainty></longitude><depth><value>140.03895568847656</value><uncertainty>9.928242683410645</uncertainty></depth><depthType>from location</depthType><methodID>LOCSAT</methodID><earthModelID>iasp91_scanloc</earthModelID><quality><associatedPhaseCount>16</associatedPhaseCount><usedPhaseCount>16</usedPhaseCount><associatedStationCount>8</associatedStationCount><usedStationCount>8</usedStationCount><depthPhaseCount>0</depthPhaseCount><standardError>0.3852798547001706</standardError><azimuthalGap>256.94390869140625</azimuthalGap><maximumDistance>2.2683591842651367</maximumDistance><minimumDistance>0.8421306014060974</minimumDistance><medianDistance>1.3757716417312622</medianDistance></quality><uncertainty><minHorizontalUncertainty>7.400167465209961</minHorizontalUncertainty><maxHorizontalUncertainty>21.54897689819336</maxHorizontalUncertainty><azimuthMaxHorizontalUncertainty>78.67050170898438</azimuthMaxHorizontalUncertainty><preferredDescription>horizontal uncertainty</preferredDescription></uncertainty><evaluationMode>automatic</evaluationMode><evaluationStatus>confirmed</evaluationStatus><comment><text>0.06</text><id>mismatchScore</id></comment><comment><text>mismatchScore</text><id>scevalMethod</id></comment><arrival><pickID>de.gempa.tb1.Pick/20250415031712.819579.143147</pickID><phase>P</phase><azimuth>285.33758544921875</azimuth><distance>0.9454266428947449</distance><timeResidual>-0.07287979125976562</timeResidual><timeUsed>true</timeUsed><horizontalSlownessUsed>false</horizontalSlownessUsed><backazimuthUsed>false</backazimuthUsed><weight>1</weight></arrival><arrival><pickID>de.gempa.tb1.Pick/20250415031713.409269.143149</pickID><phase>P</phase><azimuth>233.7338562011719</azimuth><distance>0.8421306014060974</distance><timeResidual>0.0791473388671875</timeResidual><timeUsed>true</timeUsed><horizontalSlownessUsed>false</horizontalSlownessUsed><backazimuthUsed>false</backazimuthUsed><weight>1</weight></arrival><arrival><pickID>de.gempa.tb1.Pick/20250415031716.512087.143151</pickID><phase>P</phase><azimuth>268.76202392578125</azimuth><distance>1.2913609743118286</distance><timeResidual>0.4834823608398438</timeResidual><timeUsed>true</timeUsed><horizontalSlownessUsed>false</horizontalSlownessUsed><backazimuthUsed>false</backazimuthUsed><weight>1</weight></arrival><arrival><pickID>de.gempa.tb1.Pick/20250415031717.60361.143153</pickID><phase>P</phase><azimuth>236.8655242919922</azimuth><distance>1.3757716417312622</distance><timeResidual>0.08624076843261719</timeResidual><timeUsed>true</timeUsed><horizontalSlownessUsed>false</horizontalSlownessUsed><backazimuthUsed>false</backazimuthUsed><weight>1</weight></arrival><arrival><pickID>de.gempa.tb1.Pick/20250415031717.730015.143155</pickID><phase>P</phase><azimuth>251.2965850830078</azimuth><distance>1.349615216255188</distance><timeResidual>0.1468372344970703</timeResidual><timeUsed>true</timeUsed><horizontalSlownessUsed>false</horizontalSlownessUsed><backazimuthUsed>false</backazimuthUsed><weight>1</weight></arrival><arrival><pickID>de.gempa.tb1.Pick/20250415031720.858074.143157</pickID><phase>P</phase><azimuth>286.8939514160156</azimuth><distance>1.604896903038025</distance><timeResidual>0.6121082305908203</timeResidual><timeUsed>true</timeUsed><horizontalSlownessUsed>false</horizontalSlownessUsed><backazimuthUsed>false</backazimuthUsed><weight>1</weight></arrival><arrival><pickID>de.gempa.tb1.Pick/20250415031722.515445.143159</pickID><phase>P</phase><azimuth>214.88046264648438</azimuth><distance>1.712668776512146</distance><timeResidual>-0.11987876892089844</timeResidual><timeUsed>true</timeUsed><horizontalSlownessUsed>false</horizontalSlownessUsed><backazimuthUsed>false</backazimuthUsed><weight>1</weight></arrival><arrival><pickID>de.gempa.tb1.Pick/20250415031726.498522.143161</pickID><phase>P</phase><azimuth>317.9365539550781</azimuth><distance>2.2683591842651367</distance><timeResidual>-0.32779502868652344</timeResidual><timeUsed>true</timeUsed><horizontalSlownessUsed>false</horizontalSlownessUsed><backazimuthUsed>false</backazimuthUsed><weight>1</weight></arrival><arrival><pickID>de.gempa.tb1.Pick/20250415031732.711367.143163</pickID><phase>S</phase><azimuth>285.33758544921875</azimuth><distance>0.9454266428947449</distance><timeResidual>-0.0951080322265625</timeResidual><timeUsed>true</timeUsed><horizontalSlownessUsed>false</horizontalSlownessUsed><backazimuthUsed>false</backazimuthUsed><weight>1</weight></arrival><arrival><pickID>de.gempa.tb1.Pick/20250415031737.640169.143164</pickID><phase>S</phase><azimuth>236.8655242919922</azimuth><distance>1.3757716417312622</distance><timeResidual>-0.4914360046386719</timeResidual><timeUsed>true</timeUsed><horizontalSlownessUsed>false</horizontalSlownessUsed><backazimuthUsed>false</backazimuthUsed><weight>1</weight></arrival><arrival><pickID>de.gempa.tb1.Pick/20250415031737.732499.143165</pickID><phase>S</phase><azimuth>251.2965850830078</azimuth><distance>1.349615216255188</distance><timeResidual>-0.26793861389160156</timeResidual><timeUsed>true</timeUsed><horizontalSlownessUsed>false</horizontalSlownessUsed><backazimuthUsed>false</backazimuthUsed><weight>1</weight></arrival><arrival><pickID>de.gempa.tb1.Pick/20250415031737.960653.143166</pickID><phase>S</phase><azimuth>233.7338562011719</azimuth><distance>0.8421306014060974</distance><timeResidual>0.23119354248046875</timeResidual><timeUsed>true</timeUsed><horizontalSlownessUsed>false</horizontalSlownessUsed><backazimuthUsed>false</backazimuthUsed><weight>1</weight></arrival><arrival><pickID>de.gempa.tb1.Pick/20250415031738.644226.143168</pickID><phase>S</phase><azimuth>268.76202392578125</azimuth><distance>1.2913609743118286</distance><timeResidual>0.588125228881836</timeResidual><timeUsed>true</timeUsed><horizontalSlownessUsed>false</horizontalSlownessUsed><backazimuthUsed>false</backazimuthUsed><weight>1</weight></arrival><arrival><pickID>de.gempa.tb1.Pick/20250415031745.08814.143171</pickID><phase>S</phase><azimuth>286.8939514160156</azimuth><distance>1.604896903038025</distance><timeResidual>0.34691810607910156</timeResidual><timeUsed>true</timeUsed><horizontalSlownessUsed>false</horizontalSlownessUsed><backazimuthUsed>false</backazimuthUsed><weight>1</weight></arrival><arrival><pickID>de.gempa.tb1.Pick/20250415031745.658043.143172</pickID><phase>S</phase><azimuth>214.88046264648438</azimuth><distance>1.712668776512146</distance><timeResidual>-0.4527378082275391</timeResidual><timeUsed>true</timeUsed><horizontalSlownessUsed>false</horizontalSlownessUsed><backazimuthUsed>false</backazimuthUsed><weight>1</weight></arrival><arrival><pickID>de.gempa.tb1.Pick/20250415031805.624822.143175</pickID><phase>S</phase><azimuth>317.9365539550781</azimuth><distance>2.2683591842651367</distance><timeResidual>-0.7464656829833984</timeResidual><timeUsed>true</timeUsed><horizontalSlownessUsed>false</horizontalSlownessUsed><backazimuthUsed>false</backazimuthUsed><weight>1</weight></arrival><magnitude publicID="de.gempa.tb1.Magnitude/20250415031815.940199.566118"><magnitude><value>2.2171574031127759</value></magnitude><type>M</type><methodID>weighted average</methodID><stationCount>6</stationCount></magnitude></origin><event publicID="gempa2025hkiv"><preferredOriginID>de.gempa.tb1.Origin/20250415031805.641625.159423</preferredOriginID><preferredMagnitudeID>de.gempa.tb1.Magnitude/20250415031815.940199.566118</preferredMagnitudeID><description><text>Chile-Bolivia Border Region</text><type>region name</type></description><originReference>de.gempa.tb1.Origin/20250415031805.641625.159423</originReference></event></EventParameters></seiscomp>