<?xml version="1.0" encoding="UTF-8"?>
<seiscomp xmlns="http://geofon.gfz-potsdam.de/ns/seiscomp3-schema/0.13" version="0.13"><EventParameters><pick publicID="de.gempa.tb1.Pick/20250412074047.57576.122772"><time><value>2025-04-12T07:40:38.468393Z</value></time><waveformID networkCode="CX" stationCode="PB01" channelCode="HHZ"/><filterID>ITAPER(4)&gt;&gt;BW(4,4,20)</filterID><methodID>AIC</methodID><horizontalSlowness><value>19.507555294122128</value></horizontalSlowness><backazimuth><value>138.38458193482703</value></backazimuth><phaseHint>P</phaseHint><evaluationMode>automatic</evaluationMode><comment><text>6.938770493049693</text><id>DFX:rectilinearity</id></comment><comment><text>27.199496263311236</text><id>SNR</id></comment></pick><pick publicID="de.gempa.tb1.Pick/20250412074049.776329.122774"><time><value>2025-04-12T07:40:42.598391Z</value></time><waveformID networkCode="CX" stationCode="PB07" channelCode="HHZ"/><filterID>ITAPER(4)&gt;&gt;BW(4,4,20)</filterID><methodID>AIC</methodID><horizontalSlowness><value>23.196969188670884</value></horizontalSlowness><backazimuth><value>127.74341316889772</value></backazimuth><phaseHint>P</phaseHint><evaluationMode>automatic</evaluationMode><comment><text>125.82825811410085</text><id>DFX:rectilinearity</id></comment><comment><text>15.833339624847103</text><id>SNR</id></comment></pick><pick publicID="de.gempa.tb1.Pick/20250412074056.975811.122776"><time><value>2025-04-12T07:40:38.13Z</value></time><waveformID networkCode="CX" stationCode="PB09" channelCode="HHZ"/><filterID>ITAPER(4)&gt;&gt;BW(4,4,20)</filterID><methodID>AIC</methodID><horizontalSlowness><value>11.413130695225474</value></horizontalSlowness><backazimuth><value>72.30017056195813</value></backazimuth><phaseHint>P</phaseHint><evaluationMode>automatic</evaluationMode><comment><text>10.093437780523271</text><id>DFX:rectilinearity</id></comment><comment><text>18.007340232505769</text><id>SNR</id></comment></pick><pick publicID="de.gempa.tb1.Pick/20250412074058.591948.122778"><time><value>2025-04-12T07:40:51.8Z</value></time><waveformID networkCode="CX" stationCode="PSGCX" channelCode="HHZ"/><filterID>ITAPER(4)&gt;&gt;BW(4,4,20)</filterID><methodID>AIC</methodID><horizontalSlowness><value>20.779705969073767</value></horizontalSlowness><backazimuth><value>261.79849783119505</value></backazimuth><phaseHint>P</phaseHint><evaluationMode>automatic</evaluationMode><comment><text>22.290466476469813</text><id>DFX:rectilinearity</id></comment><comment><text>12.345208830206236</text><id>SNR</id></comment></pick><pick publicID="de.gempa.tb1.Pick/20250412074103.568123.122780"><time><value>2025-04-12T07:40:55.568393Z</value></time><waveformID networkCode="CX" stationCode="PB01" channelCode="HHN"/><filterID>ITAPER(2)&gt;&gt;BW(3,3,20)</filterID><methodID>L2-AIC-GRID</methodID><horizontalSlowness><value>21.107208780237563</value></horizontalSlowness><backazimuth><value>235.26198600572164</value></backazimuth><phaseHint>S</phaseHint><evaluationMode>automatic</evaluationMode><comment><text>32.00838571463286</text><id>DFX:rectilinearity</id></comment><comment><text>de.gempa.tb1.Pick/20250412074047.57576.122772</text><id>RefPickID</id></comment><comment><text>9.440503785326644</text><id>SNR</id></comment></pick><pick publicID="de.gempa.tb1.Pick/20250412074109.776779.122783"><time><value>2025-04-12T07:41:03.138391Z</value></time><waveformID networkCode="CX" stationCode="PB07" channelCode="HHN"/><filterID>ITAPER(2)&gt;&gt;BW(3,3,20)</filterID><methodID>L2-AIC-GRID</methodID><horizontalSlowness><value>23.13474364979289</value></horizontalSlowness><backazimuth><value>159.30511659316403</value></backazimuth><phaseHint>S</phaseHint><evaluationMode>automatic</evaluationMode><comment><text>766.7188686071406</text><id>DFX:rectilinearity</id></comment><comment><text>de.gempa.tb1.Pick/20250412074049.776329.122774</text><id>RefPickID</id></comment><comment><text>11.127224428027647</text><id>SNR</id></comment></pick><origin publicID="de.gempa.tb1.Origin/20250412074111.677216.77894"><time><value>2025-04-12T07:40:15.850209Z</value><uncertainty>1.2636057138442993</uncertainty></time><latitude><value>-21.196638107299805</value><uncertainty>8.205241203308105</uncertainty></latitude><longitude><value>-68.62248992919922</value><uncertainty>17.026662826538086</uncertainty></longitude><depth><value>140.38084411621094</value><uncertainty>14.609410285949707</uncertainty></depth><depthType>from location</depthType><methodID>LOCSAT</methodID><earthModelID>iasp91_scanloc</earthModelID><quality><associatedPhaseCount>6</associatedPhaseCount><usedPhaseCount>6</usedPhaseCount><associatedStationCount>4</associatedStationCount><usedStationCount>4</usedStationCount><depthPhaseCount>0</depthPhaseCount><standardError>0.13565680938916674</standardError><azimuthalGap>265.6712188720703</azimuthalGap><maximumDistance>2.12451171875</maximumDistance><minimumDistance>0.821808397769928</minimumDistance><medianDistance>1.2898693084716797</medianDistance></quality><uncertainty><minHorizontalUncertainty>17.579133987426758</minHorizontalUncertainty><maxHorizontalUncertainty>36.52363967895508</maxHorizontalUncertainty><azimuthMaxHorizontalUncertainty>91.41216278076172</azimuthMaxHorizontalUncertainty><preferredDescription>horizontal uncertainty</preferredDescription></uncertainty><evaluationMode>automatic</evaluationMode><evaluationStatus>confirmed</evaluationStatus><comment><text>0.41</text><id>mismatchScore</id></comment><comment><text>mismatchScore</text><id>scevalMethod</id></comment><arrival><pickID>de.gempa.tb1.Pick/20250412074047.57576.122772</pickID><phase>P</phase><azimuth>280.5493469238281</azimuth><distance>0.821808397769928</distance><timeResidual>0.2348747253417969</timeResidual><timeUsed>true</timeUsed><horizontalSlownessUsed>false</horizontalSlownessUsed><backazimuthUsed>false</backazimuthUsed><weight>1</weight></arrival><arrival><pickID>de.gempa.tb1.Pick/20250412074049.776329.122774</pickID><phase>P</phase><azimuth>245.63563537597656</azimuth><distance>1.2898693084716797</distance><timeResidual>0.109649658203125</timeResidual><timeUsed>true</timeUsed><horizontalSlownessUsed>false</horizontalSlownessUsed><backazimuthUsed>false</backazimuthUsed><weight>1</weight></arrival><arrival><pickID>de.gempa.tb1.Pick/20250412074056.975811.122776</pickID><phase>P</phase><azimuth>223.91444396972656</azimuth><distance>0.8300164937973022</distance><timeResidual>-0.16307640075683594</timeResidual><timeUsed>true</timeUsed><horizontalSlownessUsed>false</horizontalSlownessUsed><backazimuthUsed>false</backazimuthUsed><weight>1</weight></arrival><arrival><pickID>de.gempa.tb1.Pick/20250412074058.591948.122778</pickID><phase>P</phase><azimuth>318.24322509765625</azimuth><distance>2.12451171875</distance><timeResidual>-0.12006759643554688</timeResidual><timeUsed>true</timeUsed><horizontalSlownessUsed>false</horizontalSlownessUsed><backazimuthUsed>false</backazimuthUsed><weight>1</weight></arrival><arrival><pickID>de.gempa.tb1.Pick/20250412074103.568123.122780</pickID><phase>S</phase><azimuth>280.5493469238281</azimuth><distance>0.821808397769928</distance><timeResidual>-0.017705917358398438</timeResidual><timeUsed>true</timeUsed><horizontalSlownessUsed>false</horizontalSlownessUsed><backazimuthUsed>false</backazimuthUsed><weight>1</weight></arrival><arrival><pickID>de.gempa.tb1.Pick/20250412074109.776779.122783</pickID><phase>S</phase><azimuth>245.63563537597656</azimuth><distance>1.2898693084716797</distance><timeResidual>-0.04363250732421875</timeResidual><timeUsed>true</timeUsed><horizontalSlownessUsed>false</horizontalSlownessUsed><backazimuthUsed>false</backazimuthUsed><weight>1</weight></arrival></origin><event publicID="gempa2025hfdo"><preferredOriginID>de.gempa.tb1.Origin/20250412074111.677216.77894</preferredOriginID><description><text>Chile-Bolivia Border Region</text><type>region name</type></description><originReference>de.gempa.tb1.Origin/20250412074111.677216.77894</originReference></event></EventParameters></seiscomp>