<?xml version="1.0" encoding="UTF-8"?>
<seiscomp xmlns="http://geofon.gfz-potsdam.de/ns/seiscomp3-schema/0.13" version="0.13"><EventParameters><pick publicID="de.gempa.tb1.Pick/20250412201201.489846.188542"><time><value>2025-04-12T20:11:55.5375Z</value></time><waveformID networkCode="SX" stationCode="WERN" channelCode="HHZ"/><filterID>ITAPER(2)&gt;&gt;BW(3,3,20)</filterID><methodID>AIC</methodID><horizontalSlowness><value>22.67604275687255</value></horizontalSlowness><backazimuth><value>49.68146519849904</value></backazimuth><phaseHint>P</phaseHint><evaluationMode>automatic</evaluationMode><comment><text>264.8602632838177</text><id>DFX:rectilinearity</id></comment></pick><pick publicID="de.gempa.tb1.Pick/20250412201203.328819.188546"><time><value>2025-04-12T20:11:55.78Z</value></time><waveformID networkCode="SX" stationCode="ROHR" channelCode="HHZ"/><filterID>ITAPER(2)&gt;&gt;BW(3,3,20)</filterID><methodID>AIC</methodID><horizontalSlowness><value>12.793548558696177</value></horizontalSlowness><backazimuth><value>94.2217667540156</value></backazimuth><phaseHint>P</phaseHint><evaluationMode>automatic</evaluationMode><comment><text>13.25317665544599</text><id>DFX:rectilinearity</id></comment></pick><pick publicID="de.gempa.tb1.Pick/20250412201206.540036.188555"><time><value>2025-04-12T20:11:56.49Z</value></time><waveformID networkCode="SX" stationCode="GUNZ" channelCode="HHZ"/><filterID>ITAPER(2)&gt;&gt;BW(3,3,20)</filterID><methodID>AIC</methodID><horizontalSlowness><value>22.87472646673473</value></horizontalSlowness><backazimuth><value>298.4852057300839</value></backazimuth><phaseHint>P</phaseHint><evaluationMode>automatic</evaluationMode><comment><text>59.59699127701097</text><id>DFX:rectilinearity</id></comment></pick><pick publicID="de.gempa.tb1.Pick/20250412201206.560221.188558"><time><value>2025-04-12T20:11:57.7Z</value></time><waveformID networkCode="SX" stationCode="WERD" channelCode="HHZ"/><filterID>ITAPER(2)&gt;&gt;BW(3,3,20)</filterID><methodID>AIC</methodID><horizontalSlowness><value>21.41503647390919</value></horizontalSlowness><backazimuth><value>50.84872110252121</value></backazimuth><phaseHint>P</phaseHint><evaluationMode>automatic</evaluationMode><comment><text>25.216293060362847</text><id>DFX:rectilinearity</id></comment></pick><pick publicID="de.gempa.tb1.Pick/20250412201206.565194.188560"><time><value>2025-04-12T20:11:56.79Z</value></time><waveformID networkCode="SX" stationCode="TANN" channelCode="HHZ"/><filterID>ITAPER(2)&gt;&gt;BW(3,3,20)</filterID><methodID>AIC</methodID><horizontalSlowness><value>20.914002682368753</value></horizontalSlowness><backazimuth><value>326.23577600688</value></backazimuth><phaseHint>P</phaseHint><evaluationMode>automatic</evaluationMode><comment><text>10.639694761068435</text><id>DFX:rectilinearity</id></comment></pick><pick publicID="de.gempa.tb1.Pick/20250412201206.572279.188562"><time><value>2025-04-12T20:11:56.81Z</value></time><waveformID networkCode="SX" stationCode="MULD" channelCode="HHZ"/><filterID>ITAPER(2)&gt;&gt;BW(3,3,20)</filterID><methodID>AIC</methodID><horizontalSlowness><value>22.402692822464552</value></horizontalSlowness><backazimuth><value>172.36957709691202</value></backazimuth><phaseHint>P</phaseHint><evaluationMode>automatic</evaluationMode><comment><text>23.83599316528605</text><id>DFX:rectilinearity</id></comment></pick><pick publicID="de.gempa.tb1.Pick/20250412201206.580557.188564"><time><value>2025-04-12T20:12:00.46Z</value></time><waveformID networkCode="SX" stationCode="WERD" channelCode="HHN"/><filterID>ITAPER(3)&gt;&gt;BW(4,3,10)</filterID><methodID>L2-AIC-GRID</methodID><horizontalSlowness><value>21.999571945432976</value></horizontalSlowness><backazimuth><value>51.39581445890232</value></backazimuth><phaseHint>S</phaseHint><evaluationMode>automatic</evaluationMode><comment><text>24.480268750594693</text><id>DFX:rectilinearity</id></comment><comment><text>de.gempa.tb1.Pick/20250412201206.560221.188558</text><id>RefPickID</id></comment></pick><pick publicID="de.gempa.tb1.Pick/20250412201206.582143.188565"><time><value>2025-04-12T20:11:57.0275Z</value></time><waveformID networkCode="SX" stationCode="WERN" channelCode="HHN"/><filterID>ITAPER(3)&gt;&gt;BW(4,3,10)</filterID><methodID>L2-AIC-GRID</methodID><horizontalSlowness><value>22.85168324373941</value></horizontalSlowness><backazimuth><value>53.12343550632963</value></backazimuth><phaseHint>S</phaseHint><evaluationMode>automatic</evaluationMode><comment><text>238.98460021567507</text><id>DFX:rectilinearity</id></comment><comment><text>de.gempa.tb1.Pick/20250412201201.489846.188542</text><id>RefPickID</id></comment></pick><pick publicID="de.gempa.tb1.Pick/20250412201207.7417.188568"><time><value>2025-04-12T20:11:57.8Z</value></time><waveformID networkCode="SX" stationCode="TRIB" channelCode="HHZ"/><filterID>ITAPER(2)&gt;&gt;BW(3,3,20)</filterID><methodID>AIC</methodID><horizontalSlowness><value>17.710097788333325</value></horizontalSlowness><backazimuth><value>51.71190830187854</value></backazimuth><phaseHint>P</phaseHint><evaluationMode>automatic</evaluationMode><comment><text>7.394795588333066</text><id>DFX:rectilinearity</id></comment></pick><pick publicID="de.gempa.tb1.Pick/20250412201207.856834.188570"><time><value>2025-04-12T20:11:57.47Z</value></time><waveformID networkCode="SX" stationCode="ROHR" channelCode="HHN"/><filterID>ITAPER(3)&gt;&gt;BW(4,3,10)</filterID><methodID>L2-AIC-GRID</methodID><horizontalSlowness><value>17.381633870374475</value></horizontalSlowness><backazimuth><value>87.64654905280598</value></backazimuth><phaseHint>S</phaseHint><evaluationMode>automatic</evaluationMode><comment><text>12.435195307161932</text><id>DFX:rectilinearity</id></comment><comment><text>de.gempa.tb1.Pick/20250412201203.328819.188546</text><id>RefPickID</id></comment></pick><pick publicID="de.gempa.tb1.Pick/20250412201210.023868.188581"><time><value>2025-04-12T20:12:00.21Z</value></time><waveformID networkCode="SX" stationCode="LEUT" channelCode="HHZ"/><filterID>ITAPER(2)&gt;&gt;BW(3,3,20)</filterID><methodID>AIC</methodID><horizontalSlowness><value>20.618877348571754</value></horizontalSlowness><backazimuth><value>11.863704214329601</value></backazimuth><phaseHint>P</phaseHint><evaluationMode>automatic</evaluationMode><comment><text>2.1567917409749624</text><id>DFX:rectilinearity</id></comment></pick><origin publicID="de.gempa.tb1.Origin/20250412201211.19871.122382"><time><value>2025-04-12T20:11:53.12466Z</value><uncertainty>1.0259814262390137</uncertainty></time><latitude><value>50.26483154296875</value><uncertainty>5.512660980224609</uncertainty></latitude><longitude><value>12.490015029907227</value><uncertainty>8.797219276428223</uncertainty></longitude><depth><value>3.576451063156128</value><uncertainty>4.843360900878906</uncertainty></depth><depthType>from location</depthType><methodID>LOCSAT</methodID><earthModelID>iasp91</earthModelID><quality><associatedPhaseCount>11</associatedPhaseCount><usedPhaseCount>11</usedPhaseCount><associatedStationCount>8</associatedStationCount><usedStationCount>8</usedStationCount><depthPhaseCount>0</depthPhaseCount><standardError>0.3125145446172353</standardError><azimuthalGap>251.0174844264984</azimuthalGap><maximumDistance>0.3434475362300873</maximumDistance><minimumDistance>0.07650388777256012</minimumDistance><medianDistance>0.1514982432126999</medianDistance></quality><uncertainty><minHorizontalUncertainty>6.3675537109375</minHorizontalUncertainty><maxHorizontalUncertainty>21.329858779907227</maxHorizontalUncertainty><azimuthMaxHorizontalUncertainty>119.28628540039062</azimuthMaxHorizontalUncertainty><preferredDescription>horizontal uncertainty</preferredDescription></uncertainty><evaluationMode>automatic</evaluationMode><evaluationStatus>confirmed</evaluationStatus><comment><text>0.03</text><id>mismatchScore</id></comment><comment><text>mismatchScore</text><id>scevalMethod</id></comment><arrival><pickID>de.gempa.tb1.Pick/20250412201201.489846.188542</pickID><phase>P</phase><azimuth>287.2218933105469</azimuth><distance>0.07650388777256012</distance><timeResidual>0.3393685817718506</timeResidual><timeUsed>true</timeUsed><horizontalSlownessUsed>false</horizontalSlownessUsed><backazimuthUsed>false</backazimuthUsed><weight>1</weight></arrival><arrival><pickID>de.gempa.tb1.Pick/20250412201203.328819.188546</pickID><phase>P</phase><azimuth>254.53553771972656</azimuth><distance>0.11528189480304718</distance><timeResidual>-0.13591504096984863</timeResidual><timeUsed>true</timeUsed><horizontalSlownessUsed>false</horizontalSlownessUsed><backazimuthUsed>false</backazimuthUsed><weight>1</weight></arrival><arrival><pickID>de.gempa.tb1.Pick/20250412201206.540036.188555</pickID><phase>P</phase><azimuth>314.2672424316406</azimuth><distance>0.14168207347393036</distance><timeResidual>0.08575606346130371</timeResidual><timeUsed>true</timeUsed><horizontalSlownessUsed>false</horizontalSlownessUsed><backazimuthUsed>false</backazimuthUsed><weight>1</weight></arrival><arrival><pickID>de.gempa.tb1.Pick/20250412201206.560221.188558</pickID><phase>P</phase><azimuth>327.482666015625</azimuth><distance>0.21766164898872375</distance><timeResidual>-0.110243558883667</timeResidual><timeUsed>true</timeUsed><horizontalSlownessUsed>false</horizontalSlownessUsed><backazimuthUsed>false</backazimuthUsed><weight>1</weight></arrival><arrival><pickID>de.gempa.tb1.Pick/20250412201206.565194.188560</pickID><phase>P</phase><azimuth>352.96209716796875</azimuth><distance>0.1514982432126999</distance><timeResidual>0.2041912078857422</timeResidual><timeUsed>true</timeUsed><horizontalSlownessUsed>false</horizontalSlownessUsed><backazimuthUsed>false</backazimuthUsed><weight>1</weight></arrival><arrival><pickID>de.gempa.tb1.Pick/20250412201206.572279.188562</pickID><phase>P</phase><azimuth>339.4766540527344</azimuth><distance>0.1571551263332367</distance><timeResidual>0.1194913387298584</timeResidual><timeUsed>true</timeUsed><horizontalSlownessUsed>false</horizontalSlownessUsed><backazimuthUsed>false</backazimuthUsed><weight>1</weight></arrival><arrival><pickID>de.gempa.tb1.Pick/20250412201206.580557.188564</pickID><phase>S</phase><azimuth>327.482666015625</azimuth><distance>0.21766164898872375</distance><timeResidual>-0.4921724796295166</timeResidual><timeUsed>true</timeUsed><horizontalSlownessUsed>false</horizontalSlownessUsed><backazimuthUsed>false</backazimuthUsed><weight>1</weight></arrival><arrival><pickID>de.gempa.tb1.Pick/20250412201206.582143.188565</pickID><phase>S</phase><azimuth>287.2218933105469</azimuth><distance>0.07650388777256012</distance><timeResidual>0.5941743850708008</timeResidual><timeUsed>true</timeUsed><horizontalSlownessUsed>false</horizontalSlownessUsed><backazimuthUsed>false</backazimuthUsed><weight>1</weight></arrival><arrival><pickID>de.gempa.tb1.Pick/20250412201207.7417.188568</pickID><phase>P</phase><azimuth>291.22088623046875</azimuth><distance>0.24259336292743683</distance><timeResidual>-0.4718570709228516</timeResidual><timeUsed>true</timeUsed><horizontalSlownessUsed>false</horizontalSlownessUsed><backazimuthUsed>false</backazimuthUsed><weight>1</weight></arrival><arrival><pickID>de.gempa.tb1.Pick/20250412201207.856834.188570</pickID><phase>S</phase><azimuth>254.53553771972656</azimuth><distance>0.11528189480304718</distance><timeResidual>-0.20509910583496094</timeResidual><timeUsed>true</timeUsed><horizontalSlownessUsed>false</horizontalSlownessUsed><backazimuthUsed>false</backazimuthUsed><weight>1</weight></arrival><arrival><pickID>de.gempa.tb1.Pick/20250412201210.023868.188581</pickID><phase>P</phase><azimuth>3.5180532932281494</azimuth><distance>0.3434475362300873</distance><timeResidual>0.07213282585144043</timeResidual><timeUsed>true</timeUsed><horizontalSlownessUsed>false</horizontalSlownessUsed><backazimuthUsed>false</backazimuthUsed><weight>1</weight></arrival><magnitude publicID="de.gempa.tb1.Magnitude/20250412201303.01207.277260"><magnitude><value>0.41959615207532847</value></magnitude><type>M</type><methodID>weighted average</methodID><stationCount>7</stationCount></magnitude></origin><event publicID="gempa2025hgcr"><preferredOriginID>de.gempa.tb1.Origin/20250412201211.19871.122382</preferredOriginID><preferredMagnitudeID>de.gempa.tb1.Magnitude/20250412201303.01207.277260</preferredMagnitudeID><description><text>Germany</text><type>region name</type></description><originReference>de.gempa.tb1.Origin/20250412201211.19871.122382</originReference></event></EventParameters></seiscomp>