<?xml version="1.0" encoding="UTF-8"?>
<seiscomp xmlns="http://geofon.gfz-potsdam.de/ns/seiscomp3-schema/0.13" version="0.13"><EventParameters><pick publicID="de.gempa.tb1.Pick/20250413213800.594793.133875"><time><value>2025-04-13T21:37:54.438393Z</value></time><waveformID networkCode="CX" stationCode="PB06" channelCode="HHZ"/><filterID>ITAPER(4)&gt;&gt;BW(4,4,20)</filterID><methodID>AIC</methodID><horizontalSlowness><value>22.016555534840823</value></horizontalSlowness><backazimuth><value>310.309908178055</value></backazimuth><phaseHint>P</phaseHint><evaluationMode>automatic</evaluationMode><comment><text>101.83430644957633</text><id>DFX:rectilinearity</id></comment><comment><text>24.03238080489246</text><id>SNR</id></comment></pick><pick publicID="de.gempa.tb1.Pick/20250413213803.584867.133877"><time><value>2025-04-13T21:37:56.708393Z</value></time><waveformID networkCode="CX" stationCode="PB03" channelCode="HHZ"/><filterID>ITAPER(4)&gt;&gt;BW(4,4,20)</filterID><methodID>AIC</methodID><horizontalSlowness><value>13.198716176575982</value></horizontalSlowness><backazimuth><value>115.52691878120423</value></backazimuth><phaseHint>P</phaseHint><evaluationMode>automatic</evaluationMode><comment><text>38.30580871190881</text><id>DFX:rectilinearity</id></comment><comment><text>18.297421860169052</text><id>SNR</id></comment></pick><pick publicID="de.gempa.tb1.Pick/20250413213805.628428.133879"><time><value>2025-04-13T21:37:57.118393Z</value></time><waveformID networkCode="CX" stationCode="PB06" channelCode="HHN"/><filterID>ITAPER(2)&gt;&gt;BW(3,3,20)</filterID><methodID>L2-AIC-GRID</methodID><horizontalSlowness><value>7.274311177825211</value></horizontalSlowness><backazimuth><value>281.6161459273762</value></backazimuth><phaseHint>S</phaseHint><evaluationMode>automatic</evaluationMode><comment><text>94.79414709647446</text><id>DFX:rectilinearity</id></comment><comment><text>de.gempa.tb1.Pick/20250413213800.594793.133875</text><id>RefPickID</id></comment><comment><text>5.295140458964978</text><id>SNR</id></comment></pick><pick publicID="de.gempa.tb1.Pick/20250413213805.629171.133880"><time><value>2025-04-13T21:37:59.728391Z</value></time><waveformID networkCode="CX" stationCode="PB15" channelCode="HHZ"/><filterID>ITAPER(4)&gt;&gt;BW(4,4,20)</filterID><methodID>AIC</methodID><horizontalSlowness><value>20.837214556721797</value></horizontalSlowness><backazimuth><value>26.97798652006105</value></backazimuth><phaseHint>P</phaseHint><evaluationMode>automatic</evaluationMode><comment><text>501.54833613238</text><id>DFX:rectilinearity</id></comment><comment><text>15.113395165040817</text><id>SNR</id></comment></pick><pick publicID="de.gempa.tb1.Pick/20250413213805.980776.133882"><time><value>2025-04-13T21:37:53.94Z</value></time><waveformID networkCode="CX" stationCode="PB09" channelCode="HHZ"/><filterID>ITAPER(4)&gt;&gt;BW(4,4,20)</filterID><methodID>AIC</methodID><horizontalSlowness><value>19.613167551218861</value></horizontalSlowness><backazimuth><value>314.43818442055135</value></backazimuth><phaseHint>P</phaseHint><evaluationMode>automatic</evaluationMode><comment><text>121.55123034048228</text><id>DFX:rectilinearity</id></comment><comment><text>83.664395414506</text><id>SNR</id></comment></pick><pick publicID="de.gempa.tb1.Pick/20250413213812.652143.133884"><time><value>2025-04-13T21:38:07.568393Z</value></time><waveformID networkCode="CX" stationCode="PB02" channelCode="HHZ"/><filterID>ITAPER(4)&gt;&gt;BW(4,4,20)</filterID><methodID>AIC</methodID><horizontalSlowness><value>11.12861078661239</value></horizontalSlowness><backazimuth><value>88.33669732293141</value></backazimuth><phaseHint>P</phaseHint><evaluationMode>automatic</evaluationMode><comment><text>46.74157807549818</text><id>DFX:rectilinearity</id></comment><comment><text>25.96403740299254</text><id>SNR</id></comment></pick><pick publicID="de.gempa.tb1.Pick/20250413213814.561455.133886"><time><value>2025-04-13T21:38:07.958393Z</value></time><waveformID networkCode="CX" stationCode="PB01" channelCode="HHZ"/><filterID>ITAPER(4)&gt;&gt;BW(4,4,20)</filterID><methodID>AIC</methodID><horizontalSlowness><value>17.63746212052427</value></horizontalSlowness><backazimuth><value>323.39886813145574</value></backazimuth><phaseHint>P</phaseHint><evaluationMode>automatic</evaluationMode><comment><text>19.99621080346085</text><id>DFX:rectilinearity</id></comment><comment><text>46.35524456312122</text><id>SNR</id></comment></pick><pick publicID="de.gempa.tb1.Pick/20250413213818.485746.133889"><time><value>2025-04-13T21:38:11.15Z</value></time><waveformID networkCode="CX" stationCode="PB19" channelCode="HHZ"/><filterID>ITAPER(4)&gt;&gt;BW(4,4,20)</filterID><methodID>AIC</methodID><horizontalSlowness><value>19.166494142854358</value></horizontalSlowness><backazimuth><value>353.4532487618965</value></backazimuth><phaseHint>P</phaseHint><evaluationMode>automatic</evaluationMode><comment><text>54.30895511576473</text><id>DFX:rectilinearity</id></comment><comment><text>17.127048000777826</text><id>SNR</id></comment></pick><pick publicID="de.gempa.tb1.Pick/20250413213821.619404.133891"><time><value>2025-04-13T21:38:01.718396Z</value></time><waveformID networkCode="CX" stationCode="PB07" channelCode="HHZ"/><filterID>ITAPER(4)&gt;&gt;BW(4,4,20)</filterID><methodID>AIC</methodID><horizontalSlowness><value>22.292240595640898</value></horizontalSlowness><backazimuth><value>315.55821288449317</value></backazimuth><phaseHint>P</phaseHint><evaluationMode>automatic</evaluationMode><comment><text>426.2051020517511</text><id>DFX:rectilinearity</id></comment><comment><text>32.960580302916505</text><id>SNR</id></comment></pick><pick publicID="de.gempa.tb1.Pick/20250413213823.306664.133893"><time><value>2025-04-13T21:38:16.369999Z</value></time><waveformID networkCode="CX" stationCode="PATCX" channelCode="HHZ"/><filterID>ITAPER(4)&gt;&gt;BW(4,4,20)</filterID><methodID>AIC</methodID><horizontalSlowness><value>22.941236489584895</value></horizontalSlowness><backazimuth><value>77.76413961407737</value></backazimuth><phaseHint>P</phaseHint><evaluationMode>automatic</evaluationMode><comment><text>278.85105962940156</text><id>DFX:rectilinearity</id></comment><comment><text>17.1643640678491</text><id>SNR</id></comment></pick><origin publicID="de.gempa.tb1.Origin/20250413213836.695503.119718"><time><value>2025-04-13T21:37:43.410314Z</value><uncertainty>0.7880852818489075</uncertainty></time><latitude><value>-22.40219497680664</value><uncertainty>2.463914394378662</uncertainty></latitude><longitude><value>-69.179931640625</value><uncertainty>6.417750835418701</uncertainty></longitude><depth><value>4.88886833190918</value><uncertainty>6.826823234558105</uncertainty></depth><depthType>from location</depthType><methodID>LOCSAT</methodID><earthModelID>iasp91_scanloc</earthModelID><quality><associatedPhaseCount>10</associatedPhaseCount><usedPhaseCount>10</usedPhaseCount><associatedStationCount>9</associatedStationCount><usedStationCount>9</usedStationCount><depthPhaseCount>0</depthPhaseCount><standardError>1.1493199935475924</standardError><azimuthalGap>189.3349151611328</azimuthalGap><maximumDistance>1.8155717849731445</maximumDistance><minimumDistance>0.4717858135700226</minimumDistance><medianDistance>0.9386929273605347</medianDistance></quality><uncertainty><minHorizontalUncertainty>5.048930644989014</minHorizontalUncertainty><maxHorizontalUncertainty>13.858531951904297</maxHorizontalUncertainty><azimuthMaxHorizontalUncertainty>96.97328186035156</azimuthMaxHorizontalUncertainty><preferredDescription>horizontal uncertainty</preferredDescription></uncertainty><evaluationMode>automatic</evaluationMode><evaluationStatus>confirmed</evaluationStatus><comment><text>0.00</text><id>mismatchScore</id></comment><comment><text>mismatchScore</text><id>scevalMethod</id></comment><arrival><pickID>de.gempa.tb1.Pick/20250413213800.594793.133875</pickID><phase>P</phase><azimuth>230.0985565185547</azimuth><distance>0.4717858135700226</distance><timeResidual>1.9423799514770508</timeResidual><timeUsed>true</timeUsed><horizontalSlownessUsed>false</horizontalSlownessUsed><backazimuthUsed>false</backazimuthUsed><weight>1</weight></arrival><arrival><pickID>de.gempa.tb1.Pick/20250413213803.584867.133877</pickID><phase>P</phase><azimuth>303.43017578125</azimuth><distance>0.6371644139289856</distance><timeResidual>1.0506725311279297</timeResidual><timeUsed>true</timeUsed><horizontalSlownessUsed>false</horizontalSlownessUsed><backazimuthUsed>false</backazimuthUsed><weight>1</weight></arrival><arrival><pickID>de.gempa.tb1.Pick/20250413213805.628428.133879</pickID><phase>S</phase><azimuth>230.0985565185547</azimuth><distance>0.4717858135700226</distance><timeResidual>-1.9753055572509766</timeResidual><timeUsed>true</timeUsed><horizontalSlownessUsed>false</horizontalSlownessUsed><backazimuthUsed>false</backazimuthUsed><weight>1</weight></arrival><arrival><pickID>de.gempa.tb1.Pick/20250413213805.629171.133880</pickID><phase>P</phase><azimuth>198.44691467285156</azimuth><distance>0.8460876941680908</distance><timeResidual>0.07348251342773438</timeResidual><timeUsed>true</timeUsed><horizontalSlownessUsed>false</horizontalSlownessUsed><backazimuthUsed>false</backazimuthUsed><weight>1</weight></arrival><arrival><pickID>de.gempa.tb1.Pick/20250413213805.980776.133882</pickID><phase>P</phase><azimuth>354.54144287109375</azimuth><distance>0.6056336760520935</distance><timeResidual>-1.115015983581543</timeResidual><timeUsed>true</timeUsed><horizontalSlownessUsed>false</horizontalSlownessUsed><backazimuthUsed>false</backazimuthUsed><weight>1</weight></arrival><arrival><pickID>de.gempa.tb1.Pick/20250413213812.652143.133884</pickID><phase>P</phase><azimuth>328.169921875</azimuth><distance>1.2660473585128784</distance><timeResidual>-0.06825447082519531</timeResidual><timeUsed>true</timeUsed><horizontalSlownessUsed>false</horizontalSlownessUsed><backazimuthUsed>false</backazimuthUsed><weight>1</weight></arrival><arrival><pickID>de.gempa.tb1.Pick/20250413213814.561455.133886</pickID><phase>P</phase><azimuth>348.0062561035156</azimuth><distance>1.382227063179016</distance><timeResidual>-1.4105873107910156</timeResidual><timeUsed>true</timeUsed><horizontalSlownessUsed>false</horizontalSlownessUsed><backazimuthUsed>false</backazimuthUsed><weight>1</weight></arrival><arrival><pickID>de.gempa.tb1.Pick/20250413213818.485746.133889</pickID><phase>P</phase><azimuth>183.87635803222656</azimuth><distance>1.4990791082382202</distance><timeResidual>0.1768054962158203</timeResidual><timeUsed>true</timeUsed><horizontalSlownessUsed>false</horizontalSlownessUsed><backazimuthUsed>false</backazimuthUsed><weight>1</weight></arrival><arrival><pickID>de.gempa.tb1.Pick/20250413213821.619404.133891</pickID><phase>P</phase><azimuth>315.6069641113281</azimuth><distance>0.9386929273605347</distance><timeResidual>0.28775978088378906</timeResidual><timeUsed>true</timeUsed><horizontalSlownessUsed>false</horizontalSlownessUsed><backazimuthUsed>false</backazimuthUsed><weight>1</weight></arrival><arrival><pickID>de.gempa.tb1.Pick/20250413213823.306664.133893</pickID><phase>P</phase><azimuth>329.9088439941406</azimuth><distance>1.8155717849731445</distance><timeResidual>1.0361652374267578</timeResidual><timeUsed>true</timeUsed><horizontalSlownessUsed>false</horizontalSlownessUsed><backazimuthUsed>false</backazimuthUsed><weight>1</weight></arrival><magnitude publicID="de.gempa.tb1.Magnitude/20250413213836.701339.404854"><magnitude><value>2.4808212368938</value></magnitude><type>M</type><methodID>weighted average</methodID><stationCount>7</stationCount></magnitude></origin><event publicID="gempa2025hibn"><preferredOriginID>de.gempa.tb1.Origin/20250413213836.695503.119718</preferredOriginID><preferredMagnitudeID>de.gempa.tb1.Magnitude/20250413213836.701339.404854</preferredMagnitudeID><description><text>Northern Chile</text><type>region name</type></description><originReference>de.gempa.tb1.Origin/20250413213836.695503.119718</originReference></event></EventParameters></seiscomp>