<?xml version="1.0" encoding="UTF-8"?>
<seiscomp xmlns="http://geofon.gfz-potsdam.de/ns/seiscomp3-schema/0.13" version="0.13"><EventParameters><pick publicID="de.gempa.tb1.Pick/20250415021908.508255.142874"><time><value>2025-04-15T02:19:02.538393Z</value></time><waveformID networkCode="CX" stationCode="PB01" channelCode="HHZ"/><filterID>ITAPER(4)&gt;&gt;BW(4,4,20)</filterID><methodID>AIC</methodID><horizontalSlowness><value>17.662820696489572</value></horizontalSlowness><backazimuth><value>288.598272261408</value></backazimuth><phaseHint>P</phaseHint><evaluationMode>automatic</evaluationMode><comment><text>19.712882808597783</text><id>DFX:rectilinearity</id></comment><comment><text>35.118564167595807</text><id>SNR</id></comment></pick><pick publicID="de.gempa.tb1.Pick/20250415021912.0974.142877"><time><value>2025-04-15T02:19:03.2Z</value></time><waveformID networkCode="CX" stationCode="PB09" channelCode="HHZ"/><filterID>ITAPER(4)&gt;&gt;BW(4,4,20)</filterID><methodID>AIC</methodID><horizontalSlowness><value>16.064521117164858</value></horizontalSlowness><backazimuth><value>67.81709004138335</value></backazimuth><phaseHint>P</phaseHint><evaluationMode>automatic</evaluationMode><comment><text>22.624976607279674</text><id>DFX:rectilinearity</id></comment><comment><text>28.77100575699536</text><id>SNR</id></comment></pick><pick publicID="de.gempa.tb1.Pick/20250415021912.616312.142879"><time><value>2025-04-15T02:19:06.558393Z</value></time><waveformID networkCode="CX" stationCode="PB02" channelCode="HHZ"/><filterID>ITAPER(4)&gt;&gt;BW(4,4,20)</filterID><methodID>AIC</methodID><horizontalSlowness><value>3.177852215676346</value></horizontalSlowness><backazimuth><value>85.32983330980333</value></backazimuth><phaseHint>P</phaseHint><evaluationMode>automatic</evaluationMode><comment><text>70.64970440504109</text><id>DFX:rectilinearity</id></comment><comment><text>32.4738077685276</text><id>SNR</id></comment></pick><pick publicID="de.gempa.tb1.Pick/20250415021914.720498.142881"><time><value>2025-04-15T02:19:07.998393Z</value></time><waveformID networkCode="CX" stationCode="PB03" channelCode="HHZ"/><filterID>ITAPER(4)&gt;&gt;BW(4,4,20)</filterID><methodID>AIC</methodID><horizontalSlowness><value>6.368801593282753</value></horizontalSlowness><backazimuth><value>221.127553097607</value></backazimuth><phaseHint>P</phaseHint><evaluationMode>automatic</evaluationMode><comment><text>9.213911130204004</text><id>DFX:rectilinearity</id></comment><comment><text>18.49078239832646</text><id>SNR</id></comment></pick><pick publicID="de.gempa.tb1.Pick/20250415021914.855537.142883"><time><value>2025-04-15T02:19:05.898393Z</value></time><waveformID networkCode="CX" stationCode="PB08" channelCode="HHZ"/><filterID>ITAPER(4)&gt;&gt;BW(4,4,20)</filterID><methodID>AIC</methodID><horizontalSlowness><value>14.525751559956847</value></horizontalSlowness><backazimuth><value>91.10143804010944</value></backazimuth><phaseHint>P</phaseHint><evaluationMode>automatic</evaluationMode><comment><text>5.815521920205448</text><id>DFX:rectilinearity</id></comment><comment><text>6.903789496435958</text><id>SNR</id></comment></pick><pick publicID="de.gempa.tb1.Pick/20250415021917.449333.142885"><time><value>2025-04-15T02:19:09.409999Z</value></time><waveformID networkCode="CX" stationCode="PATCX" channelCode="HHZ"/><filterID>ITAPER(4)&gt;&gt;BW(4,4,20)</filterID><methodID>AIC</methodID><horizontalSlowness><value>22.265592682962268</value></horizontalSlowness><backazimuth><value>58.21208577747466</value></backazimuth><phaseHint>P</phaseHint><evaluationMode>automatic</evaluationMode><comment><text>216.69165226409697</text><id>DFX:rectilinearity</id></comment><comment><text>34.19459646990311</text><id>SNR</id></comment></pick><pick publicID="de.gempa.tb1.Pick/20250415021921.571457.142887"><time><value>2025-04-15T02:19:15.68Z</value></time><waveformID networkCode="CX" stationCode="PSGCX" channelCode="HHZ"/><filterID>ITAPER(4)&gt;&gt;BW(4,4,20)</filterID><methodID>AIC</methodID><horizontalSlowness><value>13.406022184609984</value></horizontalSlowness><backazimuth><value>138.0904567578847</value></backazimuth><phaseHint>P</phaseHint><evaluationMode>automatic</evaluationMode><comment><text>16.23143106060957</text><id>DFX:rectilinearity</id></comment><comment><text>13.290543788535214</text><id>SNR</id></comment></pick><pick publicID="de.gempa.tb1.Pick/20250415021929.705894.142889"><time><value>2025-04-15T02:19:19.348393Z</value></time><waveformID networkCode="CX" stationCode="PB01" channelCode="HHN"/><filterID>ITAPER(2)&gt;&gt;BW(3,3,20)</filterID><methodID>L2-AIC-GRID</methodID><horizontalSlowness><value>19.500466047398916</value></horizontalSlowness><backazimuth><value>337.52424036017214</value></backazimuth><phaseHint>S</phaseHint><evaluationMode>automatic</evaluationMode><comment><text>88.0873741204808</text><id>DFX:rectilinearity</id></comment><comment><text>de.gempa.tb1.Pick/20250415021908.508255.142874</text><id>RefPickID</id></comment><comment><text>6.285609286223684</text><id>SNR</id></comment></pick><pick publicID="de.gempa.tb1.Pick/20250415021929.706874.142890"><time><value>2025-04-15T02:19:07.358393Z</value></time><waveformID networkCode="CX" stationCode="PB07" channelCode="HHZ"/><filterID>ITAPER(4)&gt;&gt;BW(4,4,20)</filterID><methodID>AIC</methodID><horizontalSlowness><value>22.33236155599914</value></horizontalSlowness><backazimuth><value>76.76922650750586</value></backazimuth><phaseHint>P</phaseHint><evaluationMode>automatic</evaluationMode><comment><text>235.01532900559206</text><id>DFX:rectilinearity</id></comment><comment><text>27.836799346691013</text><id>SNR</id></comment></pick><pick publicID="de.gempa.tb1.Pick/20250415021933.813653.142892"><time><value>2025-04-15T02:19:24.978393Z</value></time><waveformID networkCode="CX" stationCode="PB08" channelCode="HHN"/><filterID>ITAPER(2)&gt;&gt;BW(3,3,20)</filterID><methodID>L2-AIC-GRID</methodID><horizontalSlowness><value>11.756167652641565</value></horizontalSlowness><backazimuth><value>221.72017631241</value></backazimuth><phaseHint>S</phaseHint><evaluationMode>automatic</evaluationMode><comment><text>29.20104533104507</text><id>DFX:rectilinearity</id></comment><comment><text>de.gempa.tb1.Pick/20250415021914.855537.142883</text><id>RefPickID</id></comment><comment><text>6.221369084957948</text><id>SNR</id></comment></pick><pick publicID="de.gempa.tb1.Pick/20250415021937.63792.142894"><time><value>2025-04-15T02:19:28.898393Z</value></time><waveformID networkCode="CX" stationCode="PB03" channelCode="HHN"/><filterID>ITAPER(2)&gt;&gt;BW(3,3,20)</filterID><methodID>L2-AIC-GRID</methodID><horizontalSlowness><value>19.22101161715715</value></horizontalSlowness><backazimuth><value>329.01360756978113</value></backazimuth><phaseHint>S</phaseHint><evaluationMode>automatic</evaluationMode><comment><text>60.39839116484901</text><id>DFX:rectilinearity</id></comment><comment><text>de.gempa.tb1.Pick/20250415021914.720498.142881</text><id>RefPickID</id></comment><comment><text>10.931860342379673</text><id>SNR</id></comment></pick><pick publicID="de.gempa.tb1.Pick/20250415021938.189039.142895"><time><value>2025-04-15T02:19:28.148393Z</value></time><waveformID networkCode="CX" stationCode="PB07" channelCode="HHN"/><filterID>ITAPER(2)&gt;&gt;BW(3,3,20)</filterID><methodID>L2-AIC-GRID</methodID><horizontalSlowness><value>21.624204391481197</value></horizontalSlowness><backazimuth><value>312.96434964715604</value></backazimuth><phaseHint>S</phaseHint><evaluationMode>automatic</evaluationMode><comment><text>2702.614330299323</text><id>DFX:rectilinearity</id></comment><comment><text>de.gempa.tb1.Pick/20250415021929.706874.142890</text><id>RefPickID</id></comment><comment><text>6.752715967361191</text><id>SNR</id></comment></pick><pick publicID="de.gempa.tb1.Pick/20250415021942.295551.142898"><time><value>2025-04-15T02:19:31.509999Z</value></time><waveformID networkCode="CX" stationCode="PATCX" channelCode="HHN"/><filterID>ITAPER(2)&gt;&gt;BW(3,3,20)</filterID><methodID>L2-AIC-GRID</methodID><horizontalSlowness><value>21.434930301778945</value></horizontalSlowness><backazimuth><value>85.66537465321471</value></backazimuth><phaseHint>S</phaseHint><evaluationMode>automatic</evaluationMode><comment><text>354.88072855848594</text><id>DFX:rectilinearity</id></comment><comment><text>de.gempa.tb1.Pick/20250415021917.449333.142885</text><id>RefPickID</id></comment><comment><text>6.529134698682248</text><id>SNR</id></comment></pick><origin publicID="de.gempa.tb1.Origin/20250415021942.299369.158074"><time><value>2025-04-15T02:18:40.782681Z</value><uncertainty>0.9113731384277344</uncertainty></time><latitude><value>-21.166141510009766</value><uncertainty>4.2716712951660156</uncertainty></latitude><longitude><value>-68.60480499267578</value><uncertainty>9.225071907043457</uncertainty></longitude><depth><value>135.54913330078125</value><uncertainty>9.558573722839355</uncertainty></depth><depthType>from location</depthType><methodID>LOCSAT</methodID><earthModelID>iasp91_scanloc</earthModelID><quality><associatedPhaseCount>13</associatedPhaseCount><usedPhaseCount>13</usedPhaseCount><associatedStationCount>8</associatedStationCount><usedStationCount>8</usedStationCount><depthPhaseCount>0</depthPhaseCount><standardError>0.3327555139077053</standardError><azimuthalGap>250.1343078613281</azimuthalGap><maximumDistance>2.1131184101104736</maximumDistance><minimumDistance>0.8331280946731567</minimumDistance><medianDistance>1.3175883293151855</medianDistance></quality><uncertainty><minHorizontalUncertainty>8.401993751525879</minHorizontalUncertainty><maxHorizontalUncertainty>20.111310958862305</maxHorizontalUncertainty><azimuthMaxHorizontalUncertainty>101.50507354736328</azimuthMaxHorizontalUncertainty><preferredDescription>horizontal uncertainty</preferredDescription></uncertainty><evaluationMode>automatic</evaluationMode><evaluationStatus>confirmed</evaluationStatus><comment><text>0.04</text><id>mismatchScore</id></comment><comment><text>mismatchScore</text><id>scevalMethod</id></comment><arrival><pickID>de.gempa.tb1.Pick/20250415021908.508255.142874</pickID><phase>P</phase><azimuth>278.2831726074219</azimuth><distance>0.8331280946731567</distance><timeResidual>-0.2440643310546875</timeResidual><timeUsed>true</timeUsed><horizontalSlownessUsed>false</horizontalSlownessUsed><backazimuthUsed>false</backazimuthUsed><weight>1</weight></arrival><arrival><pickID>de.gempa.tb1.Pick/20250415021912.0974.142877</pickID><phase>P</phase><azimuth>223.300537109375</azimuth><distance>0.8633728623390198</distance><timeResidual>0.1741008758544922</timeResidual><timeUsed>true</timeUsed><horizontalSlownessUsed>false</horizontalSlownessUsed><backazimuthUsed>false</backazimuthUsed><weight>1</weight></arrival><arrival><pickID>de.gempa.tb1.Pick/20250415021912.616312.142879</pickID><phase>P</phase><azimuth>262.536865234375</azimuth><distance>1.214194655418396</distance><timeResidual>0.28517723083496094</timeResidual><timeUsed>true</timeUsed><horizontalSlownessUsed>false</horizontalSlownessUsed><backazimuthUsed>false</backazimuthUsed><weight>1</weight></arrival><arrival><pickID>de.gempa.tb1.Pick/20250415021914.720498.142881</pickID><phase>P</phase><azimuth>230.38209533691406</azimuth><distance>1.3830050230026245</distance><timeResidual>-0.021806716918945312</timeResidual><timeUsed>true</timeUsed><horizontalSlownessUsed>false</horizontalSlownessUsed><backazimuthUsed>false</backazimuthUsed><weight>1</weight></arrival><arrival><pickID>de.gempa.tb1.Pick/20250415021914.855537.142883</pickID><phase>P</phase><azimuth>333.1662292480469</azimuth><distance>1.1419445276260376</distance><timeResidual>0.3340320587158203</timeResidual><timeUsed>true</timeUsed><horizontalSlownessUsed>false</horizontalSlownessUsed><backazimuthUsed>false</backazimuthUsed><weight>1</weight></arrival><arrival><pickID>de.gempa.tb1.Pick/20250415021917.449333.142885</pickID><phase>P</phase><azimuth>283.08941650390625</azimuth><distance>1.4868178367614746</distance><timeResidual>0.25872230529785156</timeResidual><timeUsed>true</timeUsed><horizontalSlownessUsed>false</horizontalSlownessUsed><backazimuthUsed>false</backazimuthUsed><weight>1</weight></arrival><arrival><pickID>de.gempa.tb1.Pick/20250415021921.571457.142887</pickID><phase>P</phase><azimuth>317.3554382324219</azimuth><distance>2.1131184101104736</distance><timeResidual>-0.7803688049316406</timeResidual><timeUsed>true</timeUsed><horizontalSlownessUsed>false</horizontalSlownessUsed><backazimuthUsed>false</backazimuthUsed><weight>1</weight></arrival><arrival><pickID>de.gempa.tb1.Pick/20250415021929.705894.142889</pickID><phase>S</phase><azimuth>278.2831726074219</azimuth><distance>0.8331280946731567</distance><timeResidual>-0.473846435546875</timeResidual><timeUsed>true</timeUsed><horizontalSlownessUsed>false</horizontalSlownessUsed><backazimuthUsed>false</backazimuthUsed><weight>1</weight></arrival><arrival><pickID>de.gempa.tb1.Pick/20250415021929.706874.142890</pickID><phase>P</phase><azimuth>244.7234802246094</azimuth><distance>1.3175883293151855</distance><timeResidual>0.026737213134765625</timeResidual><timeUsed>true</timeUsed><horizontalSlownessUsed>false</horizontalSlownessUsed><backazimuthUsed>false</backazimuthUsed><weight>1</weight></arrival><arrival><pickID>de.gempa.tb1.Pick/20250415021933.813653.142892</pickID><phase>S</phase><azimuth>333.1662292480469</azimuth><distance>1.1419445276260376</distance><timeResidual>0.19327926635742188</timeResidual><timeUsed>true</timeUsed><horizontalSlownessUsed>false</horizontalSlownessUsed><backazimuthUsed>false</backazimuthUsed><weight>1</weight></arrival><arrival><pickID>de.gempa.tb1.Pick/20250415021937.63792.142894</pickID><phase>S</phase><azimuth>230.38209533691406</azimuth><distance>1.3830050230026245</distance><timeResidual>-0.2743663787841797</timeResidual><timeUsed>true</timeUsed><horizontalSlownessUsed>false</horizontalSlownessUsed><backazimuthUsed>false</backazimuthUsed><weight>1</weight></arrival><arrival><pickID>de.gempa.tb1.Pick/20250415021938.189039.142895</pickID><phase>S</phase><azimuth>244.7234802246094</azimuth><distance>1.3175883293151855</distance><timeResidual>0.20584678649902344</timeResidual><timeUsed>true</timeUsed><horizontalSlownessUsed>false</horizontalSlownessUsed><backazimuthUsed>false</backazimuthUsed><weight>1</weight></arrival><arrival><pickID>de.gempa.tb1.Pick/20250415021942.295551.142898</pickID><phase>S</phase><azimuth>283.08941650390625</azimuth><distance>1.4868178367614746</distance><timeResidual>0.3162574768066406</timeResidual><timeUsed>true</timeUsed><horizontalSlownessUsed>false</horizontalSlownessUsed><backazimuthUsed>false</backazimuthUsed><weight>1</weight></arrival><magnitude publicID="de.gempa.tb1.Magnitude/20250415021950.939751.561903"><magnitude><value>2.1827663743268997</value></magnitude><type>M</type><methodID>weighted average</methodID><stationCount>5</stationCount></magnitude></origin><event publicID="gempa2025hkgx"><preferredOriginID>de.gempa.tb1.Origin/20250415021942.299369.158074</preferredOriginID><preferredMagnitudeID>de.gempa.tb1.Magnitude/20250415021950.939751.561903</preferredMagnitudeID><description><text>Chile-Bolivia Border Region</text><type>region name</type></description><originReference>de.gempa.tb1.Origin/20250415021942.299369.158074</originReference></event></EventParameters></seiscomp>