<?xml version="1.0" encoding="UTF-8"?>
<seiscomp xmlns="http://geofon.gfz-potsdam.de/ns/seiscomp3-schema/0.13" version="0.13"><EventParameters><pick publicID="de.gempa.tb1.Pick/20250412061014.575226.122389"><time><value>2025-04-12T06:10:10.008393Z</value></time><waveformID networkCode="CX" stationCode="PB01" channelCode="HHZ"/><filterID>ITAPER(4)&gt;&gt;BW(4,4,20)</filterID><methodID>AIC</methodID><horizontalSlowness><value>2.830222013291968</value></horizontalSlowness><backazimuth><value>23.573300705276864</value></backazimuth><phaseHint>P</phaseHint><evaluationMode>automatic</evaluationMode><comment><text>15.131853757797906</text><id>DFX:rectilinearity</id></comment><comment><text>40.24360954814616</text><id>SNR</id></comment></pick><pick publicID="de.gempa.tb1.Pick/20250412061014.901801.122391"><time><value>2025-04-12T06:10:07.438393Z</value></time><waveformID networkCode="CX" stationCode="PB08" channelCode="HHZ"/><filterID>ITAPER(4)&gt;&gt;BW(4,4,20)</filterID><methodID>AIC</methodID><horizontalSlowness><value>19.280190807974517</value></horizontalSlowness><backazimuth><value>233.27149936165966</value></backazimuth><phaseHint>P</phaseHint><evaluationMode>automatic</evaluationMode><comment><text>18.69984531561207</text><id>DFX:rectilinearity</id></comment><comment><text>42.121576101856526</text><id>SNR</id></comment></pick><pick publicID="de.gempa.tb1.Pick/20250412061021.579762.122393"><time><value>2025-04-12T06:10:15.178393Z</value></time><waveformID networkCode="CX" stationCode="PB02" channelCode="HHZ"/><filterID>ITAPER(4)&gt;&gt;BW(4,4,20)</filterID><methodID>AIC</methodID><horizontalSlowness><value>6.98556763708319</value></horizontalSlowness><backazimuth><value>356.2007618473661</value></backazimuth><phaseHint>P</phaseHint><evaluationMode>automatic</evaluationMode><comment><text>36.123879690979415</text><id>DFX:rectilinearity</id></comment><comment><text>17.595433108124254</text><id>SNR</id></comment></pick><pick publicID="de.gempa.tb1.Pick/20250412061022.572884.122395"><time><value>2025-04-12T06:10:15.6Z</value></time><waveformID networkCode="CX" stationCode="PSGCX" channelCode="HHZ"/><filterID>ITAPER(4)&gt;&gt;BW(4,4,20)</filterID><methodID>AIC</methodID><horizontalSlowness><value>20.871783562671602</value></horizontalSlowness><backazimuth><value>14.948190905301118</value></backazimuth><phaseHint>P</phaseHint><evaluationMode>automatic</evaluationMode><comment><text>19.592377601398873</text><id>DFX:rectilinearity</id></comment><comment><text>22.307292968221923</text><id>SNR</id></comment></pick><pick publicID="de.gempa.tb1.Pick/20250412061025.029801.122397"><time><value>2025-04-12T06:10:18.208393Z</value></time><waveformID networkCode="CX" stationCode="PB08" channelCode="HHN"/><filterID>ITAPER(2)&gt;&gt;BW(3,3,20)</filterID><methodID>L2-AIC-GRID</methodID><horizontalSlowness><value>12.508333975167147</value></horizontalSlowness><backazimuth><value>211.80510905634904</value></backazimuth><phaseHint>S</phaseHint><evaluationMode>automatic</evaluationMode><comment><text>60.0551130667249</text><id>DFX:rectilinearity</id></comment><comment><text>de.gempa.tb1.Pick/20250412061014.901801.122391</text><id>RefPickID</id></comment><comment><text>9.092236766668849</text><id>SNR</id></comment></pick><pick publicID="de.gempa.tb1.Pick/20250412061025.48921.122398"><time><value>2025-04-12T06:10:18.41Z</value></time><waveformID networkCode="CX" stationCode="PB09" channelCode="HHZ"/><filterID>ITAPER(4)&gt;&gt;BW(4,4,20)</filterID><methodID>AIC</methodID><horizontalSlowness><value>17.105780867653287</value></horizontalSlowness><backazimuth><value>65.65589413053652</value></backazimuth><phaseHint>P</phaseHint><evaluationMode>automatic</evaluationMode><comment><text>37.859015742182756</text><id>DFX:rectilinearity</id></comment><comment><text>25.01616453524492</text><id>SNR</id></comment></pick><pick publicID="de.gempa.tb1.Pick/20250412061027.531118.122400"><time><value>2025-04-12T06:10:22.318393Z</value></time><waveformID networkCode="CX" stationCode="PB03" channelCode="HHZ"/><filterID>ITAPER(4)&gt;&gt;BW(4,4,20)</filterID><methodID>AIC</methodID><horizontalSlowness><value>3.5903364359161265</value></horizontalSlowness><backazimuth><value>232.12025601900146</value></backazimuth><phaseHint>P</phaseHint><evaluationMode>automatic</evaluationMode><comment><text>8.15413114494728</text><id>DFX:rectilinearity</id></comment><comment><text>17.017150386927888</text><id>SNR</id></comment></pick><pick publicID="de.gempa.tb1.Pick/20250412061030.767755.122402"><time><value>2025-04-12T06:10:23.248393Z</value></time><waveformID networkCode="CX" stationCode="PB01" channelCode="HHN"/><filterID>ITAPER(2)&gt;&gt;BW(3,3,20)</filterID><methodID>L2-AIC-GRID</methodID><horizontalSlowness><value>22.58602311716828</value></horizontalSlowness><backazimuth><value>172.1042855358692</value></backazimuth><phaseHint>S</phaseHint><evaluationMode>automatic</evaluationMode><comment><text>649.1435569529295</text><id>DFX:rectilinearity</id></comment><comment><text>de.gempa.tb1.Pick/20250412061014.575226.122389</text><id>RefPickID</id></comment><comment><text>15.544847847702727</text><id>SNR</id></comment></pick><pick publicID="de.gempa.tb1.Pick/20250412061038.581815.122403"><time><value>2025-04-12T06:10:32.418393Z</value></time><waveformID networkCode="CX" stationCode="PB02" channelCode="HHN"/><filterID>ITAPER(2)&gt;&gt;BW(3,3,20)</filterID><methodID>L2-AIC-GRID</methodID><horizontalSlowness><value>8.994840338393105</value></horizontalSlowness><backazimuth><value>306.04923289468337</value></backazimuth><phaseHint>S</phaseHint><evaluationMode>automatic</evaluationMode><comment><text>335.46123457100384</text><id>DFX:rectilinearity</id></comment><comment><text>de.gempa.tb1.Pick/20250412061021.579762.122393</text><id>RefPickID</id></comment><comment><text>6.864859872817382</text><id>SNR</id></comment></pick><pick publicID="de.gempa.tb1.Pick/20250412061040.767531.122404"><time><value>2025-04-12T06:10:33.07Z</value></time><waveformID networkCode="CX" stationCode="PSGCX" channelCode="HHN"/><filterID>ITAPER(2)&gt;&gt;BW(3,3,20)</filterID><methodID>L2-AIC-GRID</methodID><horizontalSlowness><value>7.680925803946195</value></horizontalSlowness><backazimuth><value>94.80155590550531</value></backazimuth><phaseHint>S</phaseHint><evaluationMode>automatic</evaluationMode><comment><text>22.899847778561444</text><id>DFX:rectilinearity</id></comment><comment><text>de.gempa.tb1.Pick/20250412061022.572884.122395</text><id>RefPickID</id></comment><comment><text>8.503559225486578</text><id>SNR</id></comment></pick><pick publicID="de.gempa.tb1.Pick/20250412061052.767243.122408"><time><value>2025-04-12T06:10:44.478393Z</value></time><waveformID networkCode="CX" stationCode="PB03" channelCode="HHN"/><filterID>ITAPER(2)&gt;&gt;BW(3,3,20)</filterID><methodID>L2-AIC-GRID</methodID><horizontalSlowness><value>16.225639960963996</value></horizontalSlowness><backazimuth><value>147.98408348228213</value></backazimuth><phaseHint>S</phaseHint><evaluationMode>automatic</evaluationMode><comment><text>11.97907610945916</text><id>DFX:rectilinearity</id></comment><comment><text>de.gempa.tb1.Pick/20250412061027.531118.122400</text><id>RefPickID</id></comment><comment><text>5.67413645258933</text><id>SNR</id></comment></pick><pick publicID="de.gempa.tb1.Pick/20250412061118.911405.122410"><time><value>2025-04-12T06:10:19.078394Z</value></time><waveformID networkCode="CX" stationCode="PB07" channelCode="HHZ"/><filterID>ITAPER(4)&gt;&gt;BW(4,4,20)</filterID><methodID>AIC</methodID><horizontalSlowness><value>21.99510379374346</value></horizontalSlowness><backazimuth><value>91.4846157213818</value></backazimuth><phaseHint>P</phaseHint><evaluationMode>automatic</evaluationMode><comment><text>193.13049702181664</text><id>DFX:rectilinearity</id></comment><comment><text>30.68538196668553</text><id>SNR</id></comment></pick><pick publicID="de.gempa.tb1.Pick/20250412061140.262258.122412"><time><value>2025-04-12T06:10:39.688394Z</value></time><waveformID networkCode="CX" stationCode="PB07" channelCode="HHN"/><filterID>ITAPER(2)&gt;&gt;BW(3,3,20)</filterID><methodID>L2-AIC-GRID</methodID><horizontalSlowness><value>22.782696734319497</value></horizontalSlowness><backazimuth><value>89.8076592522807</value></backazimuth><phaseHint>S</phaseHint><evaluationMode>automatic</evaluationMode><comment><text>830.8638943617711</text><id>DFX:rectilinearity</id></comment><comment><text>de.gempa.tb1.Pick/20250412061118.911405.122410</text><id>RefPickID</id></comment><comment><text>5.057074108501343</text><id>SNR</id></comment></pick><origin publicID="de.gempa.tb1.Origin/20250412061140.265201.76219"><time><value>2025-04-12T06:09:53.269349Z</value><uncertainty>0.8714368939399719</uncertainty></time><latitude><value>-20.39522933959961</value><uncertainty>2.892277240753174</uncertainty></latitude><longitude><value>-69.16543579101562</value><uncertainty>6.637556076049805</uncertainty></longitude><depth><value>96.92799377441406</value><uncertainty>6.367888927459717</uncertainty></depth><depthType>from location</depthType><methodID>LOCSAT</methodID><earthModelID>iasp91_scanloc</earthModelID><quality><associatedPhaseCount>13</associatedPhaseCount><usedPhaseCount>13</usedPhaseCount><associatedStationCount>7</associatedStationCount><usedStationCount>7</usedStationCount><depthPhaseCount>0</depthPhaseCount><standardError>0.3092378148369451</standardError><azimuthalGap>180.35698056221008</azimuthalGap><maximumDistance>1.7340070009231567</maximumDistance><minimumDistance>0.25306466221809387</minimumDistance><medianDistance>1.200582504272461</medianDistance></quality><uncertainty><minHorizontalUncertainty>6.199147701263428</minHorizontalUncertainty><maxHorizontalUncertainty>14.23139476776123</maxHorizontalUncertainty><azimuthMaxHorizontalUncertainty>89.33806610107422</azimuthMaxHorizontalUncertainty><preferredDescription>horizontal uncertainty</preferredDescription></uncertainty><evaluationMode>automatic</evaluationMode><evaluationStatus>confirmed</evaluationStatus><comment><text>0.19</text><id>mismatchScore</id></comment><comment><text>mismatchScore</text><id>scevalMethod</id></comment><arrival><pickID>de.gempa.tb1.Pick/20250412061014.575226.122389</pickID><phase>P</phase><azimuth>204.9977264404297</azimuth><distance>0.7117046117782593</distance><timeResidual>-0.4985237121582031</timeResidual><timeUsed>true</timeUsed><horizontalSlownessUsed>false</horizontalSlownessUsed><backazimuthUsed>false</backazimuthUsed><weight>1</weight></arrival><arrival><pickID>de.gempa.tb1.Pick/20250412061014.901801.122391</pickID><phase>P</phase><azimuth>2.561964750289917</azimuth><distance>0.25306466221809387</distance><timeResidual>0.157257080078125</timeResidual><timeUsed>true</timeUsed><horizontalSlownessUsed>false</horizontalSlownessUsed><backazimuthUsed>false</backazimuthUsed><weight>1</weight></arrival><arrival><pickID>de.gempa.tb1.Pick/20250412061021.579762.122393</pickID><phase>P</phase><azimuth>216.47689819335938</azimuth><distance>1.1458759307861328</distance><timeResidual>0.0757293701171875</timeResidual><timeUsed>true</timeUsed><horizontalSlownessUsed>false</horizontalSlownessUsed><backazimuthUsed>false</backazimuthUsed><weight>1</weight></arrival><arrival><pickID>de.gempa.tb1.Pick/20250412061022.572884.122395</pickID><phase>P</phase><azimuth>311.2357482910156</azimuth><distance>1.200582504272461</distance><timeResidual>-0.14647769927978516</timeResidual><timeUsed>true</timeUsed><horizontalSlownessUsed>false</horizontalSlownessUsed><backazimuthUsed>false</backazimuthUsed><weight>1</weight></arrival><arrival><pickID>de.gempa.tb1.Pick/20250412061025.029801.122397</pickID><phase>S</phase><azimuth>2.561964750289917</azimuth><distance>0.25306466221809387</distance><timeResidual>0.181396484375</timeResidual><timeUsed>true</timeUsed><horizontalSlownessUsed>false</horizontalSlownessUsed><backazimuthUsed>false</backazimuthUsed><weight>1</weight></arrival><arrival><pickID>de.gempa.tb1.Pick/20250412061025.48921.122398</pickID><phase>P</phase><azimuth>182.9189453125</azimuth><distance>1.3960086107254028</distance><timeResidual>0.3337249755859375</timeResidual><timeUsed>true</timeUsed><horizontalSlownessUsed>false</horizontalSlownessUsed><backazimuthUsed>false</backazimuthUsed><weight>1</weight></arrival><arrival><pickID>de.gempa.tb1.Pick/20250412061027.531118.122400</pickID><phase>P</phase><azimuth>198.32803344726562</azimuth><distance>1.7340070009231567</distance><timeResidual>0.02182292938232422</timeResidual><timeUsed>true</timeUsed><horizontalSlownessUsed>false</horizontalSlownessUsed><backazimuthUsed>false</backazimuthUsed><weight>1</weight></arrival><arrival><pickID>de.gempa.tb1.Pick/20250412061030.767755.122402</pickID><phase>S</phase><azimuth>204.9977264404297</azimuth><distance>0.7117046117782593</distance><timeResidual>-0.5161933898925781</timeResidual><timeUsed>true</timeUsed><horizontalSlownessUsed>false</horizontalSlownessUsed><backazimuthUsed>false</backazimuthUsed><weight>1</weight></arrival><arrival><pickID>de.gempa.tb1.Pick/20250412061038.581815.122403</pickID><phase>S</phase><azimuth>216.47689819335938</azimuth><distance>1.1458759307861328</distance><timeResidual>0.4568252563476562</timeResidual><timeUsed>true</timeUsed><horizontalSlownessUsed>false</horizontalSlownessUsed><backazimuthUsed>false</backazimuthUsed><weight>1</weight></arrival><arrival><pickID>de.gempa.tb1.Pick/20250412061040.767531.122404</pickID><phase>S</phase><azimuth>311.2357482910156</azimuth><distance>1.200582504272461</distance><timeResidual>-0.039608001708984375</timeResidual><timeUsed>true</timeUsed><horizontalSlownessUsed>false</horizontalSlownessUsed><backazimuthUsed>false</backazimuthUsed><weight>1</weight></arrival><arrival><pickID>de.gempa.tb1.Pick/20250412061052.767243.122408</pickID><phase>S</phase><azimuth>198.32803344726562</azimuth><distance>1.7340070009231567</distance><timeResidual>-0.35285186767578125</timeResidual><timeUsed>true</timeUsed><horizontalSlownessUsed>false</horizontalSlownessUsed><backazimuthUsed>false</backazimuthUsed><weight>1</weight></arrival><arrival><pickID>de.gempa.tb1.Pick/20250412061118.911405.122410</pickID><phase>P</phase><azimuth>206.8085174560547</azimuth><distance>1.4860204458236694</distance><timeResidual>-0.10423088073730469</timeResidual><timeUsed>true</timeUsed><horizontalSlownessUsed>false</horizontalSlownessUsed><backazimuthUsed>false</backazimuthUsed><weight>1</weight></arrival><arrival><pickID>de.gempa.tb1.Pick/20250412061140.262258.122412</pickID><phase>S</phase><azimuth>206.8085174560547</azimuth><distance>1.4860204458236694</distance><timeResidual>0.4311408996582031</timeResidual><timeUsed>true</timeUsed><horizontalSlownessUsed>false</horizontalSlownessUsed><backazimuthUsed>false</backazimuthUsed><weight>1</weight></arrival><magnitude publicID="de.gempa.tb1.Magnitude/20250412061140.274648.186698"><magnitude><value>2.2728439363230115</value></magnitude><type>M</type><methodID>weighted average</methodID><stationCount>4</stationCount></magnitude></origin><event publicID="gempa2025hfao"><preferredOriginID>de.gempa.tb1.Origin/20250412061140.265201.76219</preferredOriginID><preferredMagnitudeID>de.gempa.tb1.Magnitude/20250412061140.274648.186698</preferredMagnitudeID><description><text>Northern Chile</text><type>region name</type></description><originReference>de.gempa.tb1.Origin/20250412061140.265201.76219</originReference></event></EventParameters></seiscomp>