<?xml version="1.0" encoding="UTF-8"?>
<seiscomp xmlns="http://geofon.gfz-potsdam.de/ns/seiscomp3-schema/0.13" version="0.13"><EventParameters><pick publicID="de.gempa.tb1.Pick/20250412202523.507542.189232"><time><value>2025-04-12T20:25:16.4675Z</value></time><waveformID networkCode="SX" stationCode="WERN" channelCode="HHZ"/><filterID>ITAPER(2)&gt;&gt;BW(3,3,20)</filterID><methodID>AIC</methodID><horizontalSlowness><value>23.33986381407501</value></horizontalSlowness><backazimuth><value>52.17715894258959</value></backazimuth><phaseHint>P</phaseHint><evaluationMode>automatic</evaluationMode><comment><text>15.821418856125602</text><id>DFX:rectilinearity</id></comment></pick><pick publicID="de.gempa.tb1.Pick/20250412202524.55349.189234"><time><value>2025-04-12T20:25:18.71Z</value></time><waveformID networkCode="SX" stationCode="TRIB" channelCode="HHZ"/><filterID>ITAPER(2)&gt;&gt;BW(3,3,20)</filterID><methodID>AIC</methodID><horizontalSlowness><value>15.094242886416595</value></horizontalSlowness><backazimuth><value>195.41400884854903</value></backazimuth><phaseHint>P</phaseHint><evaluationMode>automatic</evaluationMode><comment><text>3.510741795597484</text><id>DFX:rectilinearity</id></comment></pick><pick publicID="de.gempa.tb1.Pick/20250412202524.625758.189236"><time><value>2025-04-12T20:25:16.7Z</value></time><waveformID networkCode="SX" stationCode="ROHR" channelCode="HHZ"/><filterID>ITAPER(2)&gt;&gt;BW(3,3,20)</filterID><methodID>AIC</methodID><horizontalSlowness><value>1.631271385024585</value></horizontalSlowness><backazimuth><value>84.03049524343558</value></backazimuth><phaseHint>P</phaseHint><evaluationMode>automatic</evaluationMode><comment><text>15.886102940704298</text><id>DFX:rectilinearity</id></comment></pick><pick publicID="de.gempa.tb1.Pick/20250412202525.336044.189238"><time><value>2025-04-12T20:25:17.73Z</value></time><waveformID networkCode="SX" stationCode="MULD" channelCode="HHZ"/><filterID>ITAPER(2)&gt;&gt;BW(3,3,20)</filterID><methodID>AIC</methodID><horizontalSlowness><value>21.43990340126289</value></horizontalSlowness><backazimuth><value>332.2831628544348</value></backazimuth><phaseHint>P</phaseHint><evaluationMode>automatic</evaluationMode><comment><text>6.533542257195872</text><id>DFX:rectilinearity</id></comment></pick><pick publicID="de.gempa.tb1.Pick/20250412202525.859358.189240"><time><value>2025-04-12T20:25:17.71Z</value></time><waveformID networkCode="SX" stationCode="TANN" channelCode="HHZ"/><filterID>ITAPER(2)&gt;&gt;BW(3,3,20)</filterID><methodID>AIC</methodID><horizontalSlowness><value>18.901077425765596</value></horizontalSlowness><backazimuth><value>309.526583348178</value></backazimuth><phaseHint>P</phaseHint><evaluationMode>automatic</evaluationMode><comment><text>2.337698014861478</text><id>DFX:rectilinearity</id></comment></pick><pick publicID="de.gempa.tb1.Pick/20250412202525.883358.189242"><time><value>2025-04-12T20:25:17.54Z</value></time><waveformID networkCode="SX" stationCode="GUNZ" channelCode="HHZ"/><filterID>ITAPER(2)&gt;&gt;BW(3,3,20)</filterID><methodID>AIC</methodID><horizontalSlowness><value>19.761109836105202</value></horizontalSlowness><backazimuth><value>242.4979922946413</value></backazimuth><phaseHint>P</phaseHint><evaluationMode>automatic</evaluationMode><comment><text>11.89116389995731</text><id>DFX:rectilinearity</id></comment></pick><pick publicID="de.gempa.tb1.Pick/20250412202526.019037.189244"><time><value>2025-04-12T20:25:21.11Z</value></time><waveformID networkCode="SX" stationCode="LEUT" channelCode="HHZ"/><filterID>ITAPER(2)&gt;&gt;BW(3,3,20)</filterID><methodID>AIC</methodID><horizontalSlowness><value>0.4542553000392155</value></horizontalSlowness><backazimuth><value>70.46649005538774</value></backazimuth><phaseHint>P</phaseHint><evaluationMode>automatic</evaluationMode><comment><text>1.766120254467357</text><id>DFX:rectilinearity</id></comment></pick><pick publicID="de.gempa.tb1.Pick/20250412202526.707511.189246"><time><value>2025-04-12T20:25:18.75Z</value></time><waveformID networkCode="SX" stationCode="WERD" channelCode="HHZ"/><filterID>ITAPER(2)&gt;&gt;BW(3,3,20)</filterID><methodID>AIC</methodID><horizontalSlowness><value>7.089080861409196</value></horizontalSlowness><backazimuth><value>79.70453678358416</value></backazimuth><phaseHint>P</phaseHint><evaluationMode>automatic</evaluationMode><comment><text>5.375333972683132</text><id>DFX:rectilinearity</id></comment></pick><pick publicID="de.gempa.tb1.Pick/20250412202526.731815.189248"><time><value>2025-04-12T20:25:24.23Z</value></time><waveformID networkCode="BW" stationCode="ROTZ" channelCode="HHZ"/><filterID>ITAPER(2)&gt;&gt;BW(3,3,20)</filterID><methodID>AIC</methodID><horizontalSlowness><value>20.825273841989162</value><uncertainty>6.564617715678136</uncertainty></horizontalSlowness><backazimuth><value>355.7688508699582</value><uncertainty>18.136607069567305</uncertainty></backazimuth><phaseHint>P</phaseHint><evaluationMode>automatic</evaluationMode><comment><text>0.4829278443150718</text><id>DFX:rectilinearity</id></comment></pick><pick publicID="de.gempa.tb1.Pick/20250412202529.692845.189261"><time><value>2025-04-12T20:25:21.51Z</value></time><waveformID networkCode="SX" stationCode="WERD" channelCode="HHN"/><filterID>ITAPER(3)&gt;&gt;BW(4,3,10)</filterID><methodID>L2-AIC-GRID</methodID><horizontalSlowness><value>18.675992376188347</value></horizontalSlowness><backazimuth><value>219.23679788074656</value></backazimuth><phaseHint>S</phaseHint><evaluationMode>automatic</evaluationMode><comment><text>3.9010128506202535</text><id>DFX:rectilinearity</id></comment><comment><text>de.gempa.tb1.Pick/20250412202526.707511.189246</text><id>RefPickID</id></comment></pick><pick publicID="de.gempa.tb1.Pick/20250412202529.858144.189262"><time><value>2025-04-12T20:25:20.12Z</value></time><waveformID networkCode="SX" stationCode="TANN" channelCode="HHN"/><filterID>ITAPER(3)&gt;&gt;BW(4,3,10)</filterID><methodID>L2-AIC-GRID</methodID><horizontalSlowness><value>21.541583593291932</value></horizontalSlowness><backazimuth><value>322.85611447564145</value></backazimuth><phaseHint>S</phaseHint><evaluationMode>automatic</evaluationMode><comment><text>2.3480394124072923</text><id>DFX:rectilinearity</id></comment><comment><text>de.gempa.tb1.Pick/20250412202525.859358.189240</text><id>RefPickID</id></comment></pick><pick publicID="de.gempa.tb1.Pick/20250412202531.33858.189265"><time><value>2025-04-12T20:25:20.05Z</value></time><waveformID networkCode="SX" stationCode="MULD" channelCode="HHN"/><filterID>ITAPER(3)&gt;&gt;BW(4,3,10)</filterID><methodID>L2-AIC-GRID</methodID><horizontalSlowness><value>21.908902782784462</value></horizontalSlowness><backazimuth><value>333.37306059063513</value></backazimuth><phaseHint>S</phaseHint><evaluationMode>automatic</evaluationMode><comment><text>7.437109962399213</text><id>DFX:rectilinearity</id></comment><comment><text>de.gempa.tb1.Pick/20250412202525.336044.189238</text><id>RefPickID</id></comment></pick><pick publicID="de.gempa.tb1.Pick/20250412202531.862569.189267"><time><value>2025-04-12T20:25:21.77Z</value></time><waveformID networkCode="SX" stationCode="TRIB" channelCode="HHN"/><filterID>ITAPER(3)&gt;&gt;BW(4,3,10)</filterID><methodID>L2-AIC-GRID</methodID><horizontalSlowness><value>14.532437308510612</value></horizontalSlowness><backazimuth><value>192.0725857727676</value></backazimuth><phaseHint>S</phaseHint><evaluationMode>automatic</evaluationMode><comment><text>2.414776983957444</text><id>DFX:rectilinearity</id></comment><comment><text>de.gempa.tb1.Pick/20250412202524.55349.189234</text><id>RefPickID</id></comment></pick><pick publicID="de.gempa.tb1.Pick/20250412202531.998099.189268"><time><value>2025-04-12T20:25:19.44Z</value></time><waveformID networkCode="SX" stationCode="GUNZ" channelCode="HHN"/><filterID>ITAPER(3)&gt;&gt;BW(4,3,10)</filterID><methodID>L2-AIC-GRID</methodID><horizontalSlowness><value>19.738981784842025</value></horizontalSlowness><backazimuth><value>243.05665633920253</value></backazimuth><phaseHint>S</phaseHint><evaluationMode>automatic</evaluationMode><comment><text>11.82851841654723</text><id>DFX:rectilinearity</id></comment><comment><text>de.gempa.tb1.Pick/20250412202525.883358.189242</text><id>RefPickID</id></comment></pick><origin publicID="de.gempa.tb1.Origin/20250412202535.154999.162874"><time><value>2025-04-12T20:25:14.193765Z</value><uncertainty>0.5736908316612244</uncertainty></time><latitude><value>50.25314331054688</value><uncertainty>3.655843496322632</uncertainty></latitude><longitude><value>12.459900856018066</value><uncertainty>4.373225688934326</uncertainty></longitude><depth><value>2.8617148399353027</value><uncertainty>3.3627779483795166</uncertainty></depth><depthType>from location</depthType><methodID>LOCSAT</methodID><earthModelID>iasp91</earthModelID><quality><associatedPhaseCount>14</associatedPhaseCount><usedPhaseCount>14</usedPhaseCount><associatedStationCount>9</associatedStationCount><usedStationCount>9</usedStationCount><depthPhaseCount>0</depthPhaseCount><standardError>0.2485231118384599</standardError><azimuthalGap>192.1475329399109</azimuthalGap><maximumDistance>0.5134192109107971</maximumDistance><minimumDistance>0.06378187239170074</minimumDistance><medianDistance>0.16285471618175507</medianDistance></quality><uncertainty><minHorizontalUncertainty>5.669160842895508</minHorizontalUncertainty><maxHorizontalUncertainty>10.825118064880371</maxHorizontalUncertainty><azimuthMaxHorizontalUncertainty>125.93193817138672</azimuthMaxHorizontalUncertainty><preferredDescription>horizontal uncertainty</preferredDescription></uncertainty><evaluationMode>automatic</evaluationMode><evaluationStatus>confirmed</evaluationStatus><comment><text>0.09</text><id>mismatchScore</id></comment><comment><text>mismatchScore</text><id>scevalMethod</id></comment><arrival><pickID>de.gempa.tb1.Pick/20250412202523.507542.189232</pickID><phase>P</phase><azimuth>302.561279296875</azimuth><distance>0.06378187239170074</distance><timeResidual>0.5313866138458252</timeResidual><timeUsed>true</timeUsed><horizontalSlownessUsed>false</horizontalSlownessUsed><backazimuthUsed>false</backazimuthUsed><weight>1</weight></arrival><arrival><pickID>de.gempa.tb1.Pick/20250412202524.55349.189234</pickID><phase>P</phase><azimuth>295.6716003417969</azimuth><distance>0.22950658202171326</distance><timeResidual>-0.30971407890319824</timeResidual><timeUsed>true</timeUsed><horizontalSlownessUsed>false</horizontalSlownessUsed><backazimuthUsed>false</backazimuthUsed><weight>1</weight></arrival><arrival><pickID>de.gempa.tb1.Pick/20250412202524.625758.189236</pickID><phase>P</phase><azimuth>258.25634765625</azimuth><distance>0.09373121708631516</distance><timeResidual>0.2064967155456543</timeResidual><timeUsed>true</timeUsed><horizontalSlownessUsed>false</horizontalSlownessUsed><backazimuthUsed>false</backazimuthUsed><weight>1</weight></arrival><arrival><pickID>de.gempa.tb1.Pick/20250412202525.336044.189238</pickID><phase>P</phase><azimuth>347.2904052734375</azimuth><distance>0.16285471618175507</distance><timeResidual>-0.04936885833740234</timeResidual><timeUsed>true</timeUsed><horizontalSlownessUsed>false</horizontalSlownessUsed><backazimuthUsed>false</backazimuthUsed><weight>1</weight></arrival><arrival><pickID>de.gempa.tb1.Pick/20250412202525.859358.189240</pickID><phase>P</phase><azimuth>0.2487167567014694</azimuth><distance>0.16205699741840363</distance><timeResidual>-0.0545191764831543</timeResidual><timeUsed>true</timeUsed><horizontalSlownessUsed>false</horizontalSlownessUsed><backazimuthUsed>false</backazimuthUsed><weight>1</weight></arrival><arrival><pickID>de.gempa.tb1.Pick/20250412202525.883358.189242</pickID><phase>P</phase><azimuth>323.3794860839844</azimuth><distance>0.13775187730789185</distance><timeResidual>0.22763752937316895</timeResidual><timeUsed>true</timeUsed><horizontalSlownessUsed>false</horizontalSlownessUsed><backazimuthUsed>false</backazimuthUsed><weight>1</weight></arrival><arrival><pickID>de.gempa.tb1.Pick/20250412202526.019037.189244</pickID><phase>P</phase><azimuth>6.479465961456299</azimuth><distance>0.3567940890789032</distance><timeResidual>-0.27771711349487305</timeResidual><timeUsed>true</timeUsed><horizontalSlownessUsed>false</horizontalSlownessUsed><backazimuthUsed>false</backazimuthUsed><weight>1</weight></arrival><arrival><pickID>de.gempa.tb1.Pick/20250412202526.707511.189246</pickID><phase>P</phase><azimuth>333.39886474609375</azimuth><distance>0.21830631792545319</distance><timeResidual>-0.06111502647399902</timeResidual><timeUsed>true</timeUsed><horizontalSlownessUsed>false</horizontalSlownessUsed><backazimuthUsed>false</backazimuthUsed><weight>1</weight></arrival><arrival><pickID>de.gempa.tb1.Pick/20250412202526.731815.189248</pickID><phase>P</phase><azimuth>198.6269989013672</azimuth><distance>0.5134192109107971</distance><timeResidual>-0.0737919807434082</timeResidual><timeUsed>true</timeUsed><horizontalSlownessUsed>false</horizontalSlownessUsed><backazimuthUsed>false</backazimuthUsed><weight>1</weight></arrival><arrival><pickID>de.gempa.tb1.Pick/20250412202529.692845.189261</pickID><phase>S</phase><azimuth>333.39886474609375</azimuth><distance>0.21830631792545319</distance><timeResidual>-0.2625293731689453</timeResidual><timeUsed>true</timeUsed><horizontalSlownessUsed>false</horizontalSlownessUsed><backazimuthUsed>false</backazimuthUsed><weight>1</weight></arrival><arrival><pickID>de.gempa.tb1.Pick/20250412202529.858144.189262</pickID><phase>S</phase><azimuth>0.2487167567014694</azimuth><distance>0.16205699741840363</distance><timeResidual>0.1600034236907959</timeResidual><timeUsed>true</timeUsed><horizontalSlownessUsed>false</horizontalSlownessUsed><backazimuthUsed>false</backazimuthUsed><weight>1</weight></arrival><arrival><pickID>de.gempa.tb1.Pick/20250412202531.33858.189265</pickID><phase>S</phase><azimuth>347.2904052734375</azimuth><distance>0.16285471618175507</distance><timeResidual>0.06428384780883789</timeResidual><timeUsed>true</timeUsed><horizontalSlownessUsed>false</horizontalSlownessUsed><backazimuthUsed>false</backazimuthUsed><weight>1</weight></arrival><arrival><pickID>de.gempa.tb1.Pick/20250412202531.862569.189267</pickID><phase>S</phase><azimuth>295.6716003417969</azimuth><distance>0.22950658202171326</distance><timeResidual>-0.3638286590576172</timeResidual><timeUsed>true</timeUsed><horizontalSlownessUsed>false</horizontalSlownessUsed><backazimuthUsed>false</backazimuthUsed><weight>1</weight></arrival><arrival><pickID>de.gempa.tb1.Pick/20250412202531.998099.189268</pickID><phase>S</phase><azimuth>323.3794860839844</azimuth><distance>0.13775187730789185</distance><timeResidual>0.2630491256713867</timeResidual><timeUsed>true</timeUsed><horizontalSlownessUsed>false</horizontalSlownessUsed><backazimuthUsed>false</backazimuthUsed><weight>1</weight></arrival><magnitude publicID="de.gempa.tb1.Magnitude/20250412202557.492099.279653"><magnitude><value>0.2465656256690864</value></magnitude><type>M</type><methodID>weighted average</methodID><stationCount>6</stationCount></magnitude></origin><event publicID="gempa2025hgdc"><preferredOriginID>de.gempa.tb1.Origin/20250412202535.154999.162874</preferredOriginID><preferredMagnitudeID>de.gempa.tb1.Magnitude/20250412202557.492099.279653</preferredMagnitudeID><description><text>Germany</text><type>region name</type></description><originReference>de.gempa.tb1.Origin/20250412202535.154999.162874</originReference></event></EventParameters></seiscomp>