<?xml version="1.0" encoding="UTF-8"?>
<seiscomp xmlns="http://geofon.gfz-potsdam.de/ns/seiscomp3-schema/0.13" version="0.13"><EventParameters><pick publicID="de.gempa.tb1.Pick/20250414222138.504535.141680"><time><value>2025-04-14T22:21:30.37Z</value></time><waveformID networkCode="CX" stationCode="PB19" channelCode="HHZ"/><filterID>ITAPER(4)&gt;&gt;BW(4,4,20)</filterID><methodID>AIC</methodID><horizontalSlowness><value>14.117591828211857</value></horizontalSlowness><backazimuth><value>61.87731928779804</value></backazimuth><phaseHint>P</phaseHint><evaluationMode>automatic</evaluationMode><comment><text>22.674457190989305</text><id>DFX:rectilinearity</id></comment><comment><text>6.981006214512356</text><id>SNR</id></comment></pick><pick publicID="de.gempa.tb1.Pick/20250414222145.650306.141682"><time><value>2025-04-14T22:21:35.978393Z</value></time><waveformID networkCode="CX" stationCode="PB06" channelCode="HHZ"/><filterID>ITAPER(4)&gt;&gt;BW(4,4,20)</filterID><methodID>AIC</methodID><horizontalSlowness><value>20.959175452814577</value></horizontalSlowness><backazimuth><value>297.62291498638126</value></backazimuth><phaseHint>P</phaseHint><evaluationMode>automatic</evaluationMode><comment><text>59.88850924931626</text><id>DFX:rectilinearity</id></comment><comment><text>7.192259642780053</text><id>SNR</id></comment></pick><pick publicID="de.gempa.tb1.Pick/20250414222149.529743.141684"><time><value>2025-04-14T22:21:40.938393Z</value></time><waveformID networkCode="CX" stationCode="PB03" channelCode="HHZ"/><filterID>ITAPER(4)&gt;&gt;BW(4,4,20)</filterID><methodID>AIC</methodID><horizontalSlowness><value>19.479630132415757</value></horizontalSlowness><backazimuth><value>283.73786540444723</value></backazimuth><phaseHint>P</phaseHint><evaluationMode>automatic</evaluationMode><comment><text>10.040097810599788</text><id>DFX:rectilinearity</id></comment><comment><text>8.567054373674303</text><id>SNR</id></comment></pick><pick publicID="de.gempa.tb1.Pick/20250414222150.219922.141686"><time><value>2025-04-14T22:21:42.83Z</value></time><waveformID networkCode="CX" stationCode="PB10" channelCode="HHZ"/><filterID>ITAPER(4)&gt;&gt;BW(4,4,20)</filterID><methodID>AIC</methodID><horizontalSlowness><value>9.016266919452013</value></horizontalSlowness><backazimuth><value>306.766345470086</value></backazimuth><phaseHint>P</phaseHint><evaluationMode>automatic</evaluationMode><comment><text>77.18671133729606</text><id>DFX:rectilinearity</id></comment><comment><text>6.282605892517286</text><id>SNR</id></comment></pick><pick publicID="de.gempa.tb1.Pick/20250414222201.396271.141690"><time><value>2025-04-14T22:21:39.74Z</value></time><waveformID networkCode="CX" stationCode="PB09" channelCode="HHZ"/><filterID>ITAPER(4)&gt;&gt;BW(4,4,20)</filterID><methodID>AIC</methodID><horizontalSlowness><value>15.569815719845042</value></horizontalSlowness><backazimuth><value>241.6458505401482</value></backazimuth><phaseHint>P</phaseHint><evaluationMode>automatic</evaluationMode><comment><text>10.50099335598504</text><id>DFX:rectilinearity</id></comment><comment><text>13.395426529663727</text><id>SNR</id></comment></pick><pick publicID="de.gempa.tb1.Pick/20250414222210.566141.141692"><time><value>2025-04-14T22:22:02.35Z</value></time><waveformID networkCode="CX" stationCode="PB19" channelCode="HHN"/><filterID>ITAPER(2)&gt;&gt;BW(3,3,20)</filterID><methodID>L2-AIC-GRID</methodID><horizontalSlowness><value>18.264384589286006</value></horizontalSlowness><backazimuth><value>244.23870887837955</value></backazimuth><phaseHint>S</phaseHint><evaluationMode>automatic</evaluationMode><comment><text>38.1603290452555</text><id>DFX:rectilinearity</id></comment><comment><text>de.gempa.tb1.Pick/20250414222138.504535.141680</text><id>RefPickID</id></comment><comment><text>6.897531434985284</text><id>SNR</id></comment></pick><pick publicID="de.gempa.tb1.Pick/20250414222222.578314.141702"><time><value>2025-04-14T22:21:44.078393Z</value></time><waveformID networkCode="CX" stationCode="PB07" channelCode="HHZ"/><filterID>ITAPER(4)&gt;&gt;BW(4,4,20)</filterID><methodID>AIC</methodID><horizontalSlowness><value>23.531216024527325</value></horizontalSlowness><backazimuth><value>119.19144176545103</value></backazimuth><phaseHint>P</phaseHint><evaluationMode>automatic</evaluationMode><comment><text>380.2628295343574</text><id>DFX:rectilinearity</id></comment><comment><text>21.005860227472898</text><id>SNR</id></comment></pick><pick publicID="de.gempa.tb1.Pick/20250414222230.726451.141704"><time><value>2025-04-14T22:22:20.958393Z</value></time><waveformID networkCode="CX" stationCode="PB03" channelCode="HHN"/><filterID>ITAPER(2)&gt;&gt;BW(3,3,20)</filterID><methodID>L2-AIC-GRID</methodID><horizontalSlowness><value>9.592393366792605</value></horizontalSlowness><backazimuth><value>71.62312409440852</value></backazimuth><phaseHint>S</phaseHint><evaluationMode>automatic</evaluationMode><comment><text>10.948654788492984</text><id>DFX:rectilinearity</id></comment><comment><text>de.gempa.tb1.Pick/20250414222149.529743.141684</text><id>RefPickID</id></comment><comment><text>5.677951615396344</text><id>SNR</id></comment></pick><origin publicID="de.gempa.tb1.Origin/20250414222230.729786.152814"><time><value>2025-04-14T22:20:51.000047Z</value><uncertainty>1.3377115726470947</uncertainty></time><latitude><value>-23.80979919433594</value><uncertainty>9.503251075744629</uncertainty></latitude><longitude><value>-67.31441497802734</value><uncertainty>25.939666748046875</uncertainty></longitude><depth><value>236.65232849121094</value><uncertainty>22.71068572998047</uncertainty></depth><depthType>from location</depthType><methodID>LOCSAT</methodID><earthModelID>iasp91_scanloc</earthModelID><quality><associatedPhaseCount>8</associatedPhaseCount><usedPhaseCount>8</usedPhaseCount><associatedStationCount>6</associatedStationCount><usedStationCount>6</usedStationCount><depthPhaseCount>0</depthPhaseCount><standardError>0.2754037960433472</standardError><azimuthalGap>308.578125</azimuthalGap><maximumDistance>3.1515469551086426</maximumDistance><minimumDistance>1.8118064403533936</minimumDistance><medianDistance>2.850848913192749</medianDistance></quality><uncertainty><minHorizontalUncertainty>19.372257232666016</minHorizontalUncertainty><maxHorizontalUncertainty>55.98418045043945</maxHorizontalUncertainty><azimuthMaxHorizontalUncertainty>83.08265686035156</azimuthMaxHorizontalUncertainty><preferredDescription>horizontal uncertainty</preferredDescription></uncertainty><evaluationMode>automatic</evaluationMode><evaluationStatus>confirmed</evaluationStatus><comment><text>0.24</text><id>mismatchScore</id></comment><comment><text>mismatchScore</text><id>scevalMethod</id></comment><arrival><pickID>de.gempa.tb1.Pick/20250414222138.504535.141680</pickID><phase>P</phase><azimuth>266.6114807128906</azimuth><distance>1.8118064403533936</distance><timeResidual>-0.3423194885253906</timeResidual><timeUsed>true</timeUsed><horizontalSlownessUsed>false</horizontalSlownessUsed><backazimuthUsed>false</backazimuthUsed><weight>1</weight></arrival><arrival><pickID>de.gempa.tb1.Pick/20250414222145.650306.141682</pickID><phase>P</phase><azimuth>297.4450988769531</azimuth><distance>2.348996639251709</distance><timeResidual>0.14150619506835938</timeResidual><timeUsed>true</timeUsed><horizontalSlownessUsed>false</horizontalSlownessUsed><backazimuthUsed>false</backazimuthUsed><weight>1</weight></arrival><arrival><pickID>de.gempa.tb1.Pick/20250414222149.529743.141684</pickID><phase>P</phase><azimuth>307.46759033203125</azimuth><distance>2.850848913192749</distance><timeResidual>-0.17370223999023438</timeResidual><timeUsed>true</timeUsed><horizontalSlownessUsed>false</horizontalSlownessUsed><backazimuthUsed>false</backazimuthUsed><weight>1</weight></arrival><arrival><pickID>de.gempa.tb1.Pick/20250414222150.219922.141686</pickID><phase>P</phase><azimuth>275.0237121582031</azimuth><distance>2.9850494861602783</distance><timeResidual>0.2724266052246094</timeResidual><timeUsed>true</timeUsed><horizontalSlownessUsed>false</horizontalSlownessUsed><backazimuthUsed>false</backazimuthUsed><weight>1</weight></arrival><arrival><pickID>de.gempa.tb1.Pick/20250414222201.396271.141690</pickID><phase>P</phase><azimuth>318.0333557128906</azimuth><distance>2.679342031478882</distance><timeResidual>0.4660224914550781</timeResidual><timeUsed>true</timeUsed><horizontalSlownessUsed>false</horizontalSlownessUsed><backazimuthUsed>false</backazimuthUsed><weight>1</weight></arrival><arrival><pickID>de.gempa.tb1.Pick/20250414222210.566141.141692</pickID><phase>S</phase><azimuth>266.6114807128906</azimuth><distance>1.8118064403533936</distance><timeResidual>0.0774688720703125</timeResidual><timeUsed>true</timeUsed><horizontalSlownessUsed>false</horizontalSlownessUsed><backazimuthUsed>false</backazimuthUsed><weight>1</weight></arrival><arrival><pickID>de.gempa.tb1.Pick/20250414222222.578314.141702</pickID><phase>P</phase><azimuth>310.6341857910156</azimuth><distance>3.1515469551086426</distance><timeResidual>-0.3700218200683594</timeResidual><timeUsed>true</timeUsed><horizontalSlownessUsed>false</horizontalSlownessUsed><backazimuthUsed>false</backazimuthUsed><weight>1</weight></arrival><arrival><pickID>de.gempa.tb1.Pick/20250414222230.726451.141704</pickID><phase>S</phase><azimuth>307.46759033203125</azimuth><distance>2.850848913192749</distance><timeResidual>-0.07133102416992188</timeResidual><timeUsed>true</timeUsed><horizontalSlownessUsed>false</horizontalSlownessUsed><backazimuthUsed>false</backazimuthUsed><weight>1</weight></arrival><magnitude publicID="de.gempa.tb1.Magnitude/20250414222313.513191.546517"><magnitude><value>3.168773989483858</value></magnitude><type>M</type><methodID>weighted average</methodID><stationCount>3</stationCount></magnitude></origin><event publicID="gempa2025hjyz"><preferredOriginID>de.gempa.tb1.Origin/20250414222230.729786.152814</preferredOriginID><preferredMagnitudeID>de.gempa.tb1.Magnitude/20250414222313.513191.546517</preferredMagnitudeID><description><text>Chile-Argentina Border Region</text><type>region name</type></description><originReference>de.gempa.tb1.Origin/20250414222230.729786.152814</originReference></event></EventParameters></seiscomp>