<?xml version="1.0" encoding="UTF-8"?>
<seiscomp xmlns="http://geofon.gfz-potsdam.de/ns/seiscomp3-schema/0.13" version="0.13"><EventParameters><pick publicID="de.gempa.tb1.Pick/20250413133105.658331.131464"><time><value>2025-04-13T13:30:59.348393Z</value></time><waveformID networkCode="CX" stationCode="PB01" channelCode="HHZ"/><filterID>ITAPER(4)&gt;&gt;BW(4,4,20)</filterID><methodID>AIC</methodID><horizontalSlowness><value>12.07466315783634</value></horizontalSlowness><backazimuth><value>11.31516205728144</value></backazimuth><phaseHint>P</phaseHint><evaluationMode>automatic</evaluationMode><comment><text>15.341765493655284</text><id>DFX:rectilinearity</id></comment><comment><text>40.64336018918906</text><id>SNR</id></comment></pick><pick publicID="de.gempa.tb1.Pick/20250413133108.660628.131466"><time><value>2025-04-13T13:31:02.958393Z</value></time><waveformID networkCode="CX" stationCode="PB02" channelCode="HHZ"/><filterID>ITAPER(4)&gt;&gt;BW(4,4,20)</filterID><methodID>AIC</methodID><horizontalSlowness><value>11.64087384499096</value></horizontalSlowness><backazimuth><value>315.5602611262572</value></backazimuth><phaseHint>P</phaseHint><evaluationMode>automatic</evaluationMode><comment><text>39.240120455070425</text><id>DFX:rectilinearity</id></comment><comment><text>33.053752435965585</text><id>SNR</id></comment></pick><pick publicID="de.gempa.tb1.Pick/20250413133112.454147.131468"><time><value>2025-04-13T13:31:05.759999Z</value></time><waveformID networkCode="CX" stationCode="PATCX" channelCode="HHZ"/><filterID>ITAPER(4)&gt;&gt;BW(4,4,20)</filterID><methodID>AIC</methodID><horizontalSlowness><value>22.187319102434458</value></horizontalSlowness><backazimuth><value>286.7301271066987</value></backazimuth><phaseHint>P</phaseHint><evaluationMode>automatic</evaluationMode><comment><text>406.22254099986253</text><id>DFX:rectilinearity</id></comment><comment><text>12.21113609486096</text><id>SNR</id></comment></pick><pick publicID="de.gempa.tb1.Pick/20250413133114.511376.131472"><time><value>2025-04-13T13:31:06.218393Z</value></time><waveformID networkCode="CX" stationCode="PB03" channelCode="HHZ"/><filterID>ITAPER(4)&gt;&gt;BW(4,4,20)</filterID><methodID>AIC</methodID><horizontalSlowness><value>6.432803287117244</value></horizontalSlowness><backazimuth><value>224.06340874966827</value></backazimuth><phaseHint>P</phaseHint><evaluationMode>automatic</evaluationMode><comment><text>8.97143075313919</text><id>DFX:rectilinearity</id></comment><comment><text>12.041282699835993</text><id>SNR</id></comment></pick><pick publicID="de.gempa.tb1.Pick/20250413133115.13304.131474"><time><value>2025-04-13T13:31:04.448394Z</value></time><waveformID networkCode="CX" stationCode="PB07" channelCode="HHZ"/><filterID>ITAPER(4)&gt;&gt;BW(4,4,20)</filterID><methodID>AIC</methodID><horizontalSlowness><value>23.024851254482716</value></horizontalSlowness><backazimuth><value>263.60436262036734</value></backazimuth><phaseHint>P</phaseHint><evaluationMode>automatic</evaluationMode><comment><text>357.60223251325277</text><id>DFX:rectilinearity</id></comment><comment><text>25.886690996130685</text><id>SNR</id></comment></pick><pick publicID="de.gempa.tb1.Pick/20250413133117.561549.131476"><time><value>2025-04-13T13:31:01.920001Z</value></time><waveformID networkCode="CX" stationCode="PB09" channelCode="HHZ"/><filterID>ITAPER(4)&gt;&gt;BW(4,4,20)</filterID><methodID>AIC</methodID><horizontalSlowness><value>5.035522368016506</value></horizontalSlowness><backazimuth><value>318.50980546927104</value></backazimuth><phaseHint>P</phaseHint><evaluationMode>automatic</evaluationMode><comment><text>13.35921638940916</text><id>DFX:rectilinearity</id></comment><comment><text>18.399552379573617</text><id>SNR</id></comment></pick><pick publicID="de.gempa.tb1.Pick/20250413133120.525636.131478"><time><value>2025-04-13T13:31:13.05Z</value></time><waveformID networkCode="CX" stationCode="PSGCX" channelCode="HHZ"/><filterID>ITAPER(4)&gt;&gt;BW(4,4,20)</filterID><methodID>AIC</methodID><horizontalSlowness><value>16.049724528082</value></horizontalSlowness><backazimuth><value>260.67708138462137</value></backazimuth><phaseHint>P</phaseHint><evaluationMode>automatic</evaluationMode><comment><text>32.196928513281776</text><id>DFX:rectilinearity</id></comment><comment><text>23.12188362699323</text><id>SNR</id></comment></pick><pick publicID="de.gempa.tb1.Pick/20250413133121.643649.131480"><time><value>2025-04-13T13:31:13.028393Z</value></time><waveformID networkCode="CX" stationCode="PB06" channelCode="HHZ"/><filterID>ITAPER(4)&gt;&gt;BW(4,4,20)</filterID><methodID>AIC</methodID><horizontalSlowness><value>3.9953522414302483</value></horizontalSlowness><backazimuth><value>147.67257237694582</value></backazimuth><phaseHint>P</phaseHint><evaluationMode>automatic</evaluationMode><comment><text>37.32060724190245</text><id>DFX:rectilinearity</id></comment><comment><text>8.087444249258906</text><id>SNR</id></comment></pick><pick publicID="de.gempa.tb1.Pick/20250413133121.745014.131482"><time><value>2025-04-13T13:31:12.388393Z</value></time><waveformID networkCode="CX" stationCode="PB01" channelCode="HHN"/><filterID>ITAPER(2)&gt;&gt;BW(3,3,20)</filterID><methodID>L2-AIC-GRID</methodID><horizontalSlowness><value>20.539377478409392</value></horizontalSlowness><backazimuth><value>280.6848271575475</value></backazimuth><phaseHint>S</phaseHint><evaluationMode>automatic</evaluationMode><comment><text>507.8215451576259</text><id>DFX:rectilinearity</id></comment><comment><text>de.gempa.tb1.Pick/20250413133105.658331.131464</text><id>RefPickID</id></comment><comment><text>14.480532378279994</text><id>SNR</id></comment></pick><pick publicID="de.gempa.tb1.Pick/20250413133127.550368.131483"><time><value>2025-04-13T13:31:18.948393Z</value></time><waveformID networkCode="CX" stationCode="PB02" channelCode="HHN"/><filterID>ITAPER(2)&gt;&gt;BW(3,3,20)</filterID><methodID>L2-AIC-GRID</methodID><horizontalSlowness><value>21.19779694922899</value></horizontalSlowness><backazimuth><value>244.54160005892766</value></backazimuth><phaseHint>S</phaseHint><evaluationMode>automatic</evaluationMode><comment><text>914.3055419564348</text><id>DFX:rectilinearity</id></comment><comment><text>de.gempa.tb1.Pick/20250413133108.660628.131466</text><id>RefPickID</id></comment><comment><text>7.792063485901845</text><id>SNR</id></comment></pick><pick publicID="de.gempa.tb1.Pick/20250413133131.411028.131486"><time><value>2025-04-13T13:31:23.999999Z</value></time><waveformID networkCode="CX" stationCode="PATCX" channelCode="HHN"/><filterID>ITAPER(2)&gt;&gt;BW(3,3,20)</filterID><methodID>L2-AIC-GRID</methodID><horizontalSlowness><value>22.69691322144317</value></horizontalSlowness><backazimuth><value>228.2761286205557</value></backazimuth><phaseHint>S</phaseHint><evaluationMode>automatic</evaluationMode><comment><text>735.79473004074</text><id>DFX:rectilinearity</id></comment><comment><text>de.gempa.tb1.Pick/20250413133112.454147.131468</text><id>RefPickID</id></comment><comment><text>7.402707300373705</text><id>SNR</id></comment></pick><pick publicID="de.gempa.tb1.Pick/20250413133131.580286.131487"><time><value>2025-04-13T13:31:23.448393Z</value></time><waveformID networkCode="CX" stationCode="PB03" channelCode="HHN"/><filterID>ITAPER(2)&gt;&gt;BW(3,3,20)</filterID><methodID>L2-AIC-GRID</methodID><horizontalSlowness><value>15.466891594779147</value></horizontalSlowness><backazimuth><value>165.8399751488254</value></backazimuth><phaseHint>S</phaseHint><evaluationMode>automatic</evaluationMode><comment><text>28.28055916735096</text><id>DFX:rectilinearity</id></comment><comment><text>de.gempa.tb1.Pick/20250413133114.511376.131472</text><id>RefPickID</id></comment><comment><text>9.748111779249394</text><id>SNR</id></comment></pick><pick publicID="de.gempa.tb1.Pick/20250413133133.783221.131488"><time><value>2025-04-13T13:31:16.950001Z</value></time><waveformID networkCode="CX" stationCode="PB09" channelCode="HHN"/><filterID>ITAPER(2)&gt;&gt;BW(3,3,20)</filterID><methodID>L2-AIC-GRID</methodID><horizontalSlowness><value>13.6379028108734</value></horizontalSlowness><backazimuth><value>253.4394286438441</value></backazimuth><phaseHint>S</phaseHint><evaluationMode>automatic</evaluationMode><comment><text>36.2064169481472</text><id>DFX:rectilinearity</id></comment><comment><text>de.gempa.tb1.Pick/20250413133117.561549.131476</text><id>RefPickID</id></comment><comment><text>5.296799512122254</text><id>SNR</id></comment></pick><pick publicID="de.gempa.tb1.Pick/20250413133157.374397.131496"><time><value>2025-04-13T13:31:21.628394Z</value></time><waveformID networkCode="CX" stationCode="PB07" channelCode="HHN"/><filterID>ITAPER(2)&gt;&gt;BW(3,3,20)</filterID><methodID>L2-AIC-GRID</methodID><horizontalSlowness><value>22.285699737579847</value></horizontalSlowness><backazimuth><value>264.0521704541851</value></backazimuth><phaseHint>S</phaseHint><evaluationMode>automatic</evaluationMode><comment><text>1134.3695344564826</text><id>DFX:rectilinearity</id></comment><comment><text>de.gempa.tb1.Pick/20250413133115.13304.131474</text><id>RefPickID</id></comment><comment><text>7.092496122177195</text><id>SNR</id></comment></pick><origin publicID="de.gempa.tb1.Origin/20250413133157.378103.111445"><time><value>2025-04-13T13:30:42.678963Z</value><uncertainty>0.7949559092521667</uncertainty></time><latitude><value>-21.079822540283203</value><uncertainty>4.365133762359619</uncertainty></latitude><longitude><value>-68.96839141845703</value><uncertainty>7.890603542327881</uncertainty></longitude><depth><value>111.65132904052734</value><uncertainty>7.4622220993042</uncertainty></depth><depthType>from location</depthType><methodID>LOCSAT</methodID><earthModelID>iasp91_scanloc</earthModelID><quality><associatedPhaseCount>14</associatedPhaseCount><usedPhaseCount>14</usedPhaseCount><associatedStationCount>8</associatedStationCount><usedStationCount>8</usedStationCount><depthPhaseCount>0</depthPhaseCount><standardError>0.5225837396401513</standardError><azimuthalGap>235.49461364746094</azimuthalGap><maximumDistance>1.8302747011184692</maximumDistance><minimumDistance>0.4861158728599548</minimumDistance><medianDistance>1.0703922510147095</medianDistance></quality><uncertainty><minHorizontalUncertainty>8.423748970031738</minHorizontalUncertainty><maxHorizontalUncertainty>17.403226852416992</maxHorizontalUncertainty><azimuthMaxHorizontalUncertainty>74.46343231201172</azimuthMaxHorizontalUncertainty><preferredDescription>horizontal uncertainty</preferredDescription></uncertainty><evaluationMode>automatic</evaluationMode><evaluationStatus>confirmed</evaluationStatus><comment><text>0.10</text><id>mismatchScore</id></comment><comment><text>mismatchScore</text><id>scevalMethod</id></comment><arrival><pickID>de.gempa.tb1.Pick/20250413133105.658331.131464</pickID><phase>P</phase><azimuth>274.2027587890625</azimuth><distance>0.4861158728599548</distance><timeResidual>-0.2924041748046875</timeResidual><timeUsed>true</timeUsed><horizontalSlownessUsed>false</horizontalSlownessUsed><backazimuthUsed>false</backazimuthUsed><weight>1</weight></arrival><arrival><pickID>de.gempa.tb1.Pick/20250413133108.660628.131466</pickID><phase>P</phase><azimuth>254.41578674316406</azimuth><distance>0.8979249596595764</distance><timeResidual>-0.06954383850097656</timeResidual><timeUsed>true</timeUsed><horizontalSlownessUsed>false</horizontalSlownessUsed><backazimuthUsed>false</backazimuthUsed><weight>1</weight></arrival><arrival><pickID>de.gempa.tb1.Pick/20250413133112.454147.131468</pickID><phase>P</phase><azimuth>282.89794921875</azimuth><distance>1.1367454528808594</distance><timeResidual>0.2725944519042969</timeResidual><timeUsed>true</timeUsed><horizontalSlownessUsed>false</horizontalSlownessUsed><backazimuthUsed>false</backazimuthUsed><weight>1</weight></arrival><arrival><pickID>de.gempa.tb1.Pick/20250413133114.511376.131472</pickID><phase>P</phase><azimuth>217.01211547851562</azimuth><distance>1.2093912363052368</distance><timeResidual>-0.05745697021484375</timeResidual><timeUsed>true</timeUsed><horizontalSlownessUsed>false</horizontalSlownessUsed><backazimuthUsed>false</backazimuthUsed><weight>1</weight></arrival><arrival><pickID>de.gempa.tb1.Pick/20250413133115.13304.131474</pickID><phase>P</phase><azimuth>232.8691864013672</azimuth><distance>1.0703922510147095</distance><timeResidual>-0.3257160186767578</timeResidual><timeUsed>true</timeUsed><horizontalSlownessUsed>false</horizontalSlownessUsed><backazimuthUsed>false</backazimuthUsed><weight>1</weight></arrival><arrival><pickID>de.gempa.tb1.Pick/20250413133117.561549.131476</pickID><phase>P</phase><azimuth>199.616943359375</azimuth><distance>0.757199227809906</distance><timeResidual>0.19729232788085938</timeResidual><timeUsed>true</timeUsed><horizontalSlownessUsed>false</horizontalSlownessUsed><backazimuthUsed>false</backazimuthUsed><weight>1</weight></arrival><arrival><pickID>de.gempa.tb1.Pick/20250413133120.525636.131478</pickID><phase>P</phase><azimuth>323.49957275390625</azimuth><distance>1.8302747011184692</distance><timeResidual>-0.5978126525878906</timeResidual><timeUsed>true</timeUsed><horizontalSlownessUsed>false</horizontalSlownessUsed><backazimuthUsed>false</backazimuthUsed><weight>1</weight></arrival><arrival><pickID>de.gempa.tb1.Pick/20250413133121.643649.131480</pickID><phase>P</phase><azimuth>198.9941864013672</azimuth><distance>1.7124077081680298</distance><timeResidual>0.8508529663085938</timeResidual><timeUsed>true</timeUsed><horizontalSlownessUsed>false</horizontalSlownessUsed><backazimuthUsed>false</backazimuthUsed><weight>1</weight></arrival><arrival><pickID>de.gempa.tb1.Pick/20250413133121.745014.131482</pickID><phase>S</phase><azimuth>274.2027587890625</azimuth><distance>0.4861158728599548</distance><timeResidual>-0.3115997314453125</timeResidual><timeUsed>true</timeUsed><horizontalSlownessUsed>false</horizontalSlownessUsed><backazimuthUsed>false</backazimuthUsed><weight>1</weight></arrival><arrival><pickID>de.gempa.tb1.Pick/20250413133127.550368.131483</pickID><phase>S</phase><azimuth>254.41578674316406</azimuth><distance>0.8979249596595764</distance><timeResidual>0.2149944305419922</timeResidual><timeUsed>true</timeUsed><horizontalSlownessUsed>false</horizontalSlownessUsed><backazimuthUsed>false</backazimuthUsed><weight>1</weight></arrival><arrival><pickID>de.gempa.tb1.Pick/20250413133131.411028.131486</pickID><phase>S</phase><azimuth>282.89794921875</azimuth><distance>1.1367454528808594</distance><timeResidual>0.8787174224853516</timeResidual><timeUsed>true</timeUsed><horizontalSlownessUsed>false</horizontalSlownessUsed><backazimuthUsed>false</backazimuthUsed><weight>1</weight></arrival><arrival><pickID>de.gempa.tb1.Pick/20250413133131.580286.131487</pickID><phase>S</phase><azimuth>217.01211547851562</azimuth><distance>1.2093912363052368</distance><timeResidual>-1.0819339752197266</timeResidual><timeUsed>true</timeUsed><horizontalSlownessUsed>false</horizontalSlownessUsed><backazimuthUsed>false</backazimuthUsed><weight>1</weight></arrival><arrival><pickID>de.gempa.tb1.Pick/20250413133133.783221.131488</pickID><phase>S</phase><azimuth>199.616943359375</azimuth><distance>0.757199227809906</distance><timeResidual>0.5424880981445312</timeResidual><timeUsed>true</timeUsed><horizontalSlownessUsed>false</horizontalSlownessUsed><backazimuthUsed>false</backazimuthUsed><weight>1</weight></arrival><arrival><pickID>de.gempa.tb1.Pick/20250413133157.374397.131496</pickID><phase>S</phase><azimuth>232.8691864013672</azimuth><distance>1.0703922510147095</distance><timeResidual>-0.22064781188964844</timeResidual><timeUsed>true</timeUsed><horizontalSlownessUsed>false</horizontalSlownessUsed><backazimuthUsed>false</backazimuthUsed><weight>1</weight></arrival><magnitude publicID="de.gempa.tb1.Magnitude/20250413133209.723986.362664"><magnitude><value>2.3687319237360573</value></magnitude><type>M</type><methodID>weighted average</methodID><stationCount>5</stationCount></magnitude></origin><event publicID="gempa2025hhlg"><preferredOriginID>de.gempa.tb1.Origin/20250413133157.378103.111445</preferredOriginID><preferredMagnitudeID>de.gempa.tb1.Magnitude/20250413133209.723986.362664</preferredMagnitudeID><description><text>Chile-Bolivia Border Region</text><type>region name</type></description><originReference>de.gempa.tb1.Origin/20250413133157.378103.111445</originReference></event></EventParameters></seiscomp>