<?xml version="1.0" encoding="UTF-8"?>
<seiscomp xmlns="http://geofon.gfz-potsdam.de/ns/seiscomp3-schema/0.13" version="0.13"><EventParameters><pick publicID="de.gempa.tb1.Pick/20250413075130.529993.129928"><time><value>2025-04-13T07:51:24.708393Z</value></time><waveformID networkCode="CX" stationCode="PB08" channelCode="HHZ"/><filterID>ITAPER(4)&gt;&gt;BW(4,4,20)</filterID><methodID>AIC</methodID><horizontalSlowness><value>11.792174840584899</value></horizontalSlowness><backazimuth><value>224.88063782509442</value></backazimuth><phaseHint>P</phaseHint><evaluationMode>automatic</evaluationMode><comment><text>526.1913320515881</text><id>DFX:rectilinearity</id></comment><comment><text>409.14390217973653</text><id>SNR</id></comment></pick><pick publicID="de.gempa.tb1.Pick/20250413075134.550007.129932"><time><value>2025-04-13T07:51:29.94Z</value></time><waveformID networkCode="CX" stationCode="PSGCX" channelCode="HHZ"/><filterID>ITAPER(4)&gt;&gt;BW(4,4,20)</filterID><methodID>AIC</methodID><horizontalSlowness><value>8.532752963007384</value></horizontalSlowness><backazimuth><value>152.50736431934902</value></backazimuth><phaseHint>P</phaseHint><evaluationMode>automatic</evaluationMode><comment><text>183.14810212379436</text><id>DFX:rectilinearity</id></comment><comment><text>326.89924393078155</text><id>SNR</id></comment></pick><pick publicID="de.gempa.tb1.Pick/20250413075135.769246.129934"><time><value>2025-04-13T07:51:28.918393Z</value></time><waveformID networkCode="CX" stationCode="PB01" channelCode="HHZ"/><filterID>ITAPER(4)&gt;&gt;BW(4,4,20)</filterID><methodID>AIC</methodID><horizontalSlowness><value>12.421316032317554</value></horizontalSlowness><backazimuth><value>8.669762957448029</value></backazimuth><phaseHint>P</phaseHint><evaluationMode>automatic</evaluationMode><comment><text>386.76196946547475</text><id>DFX:rectilinearity</id></comment><comment><text>215.86080331585842</text><id>SNR</id></comment></pick><pick publicID="de.gempa.tb1.Pick/20250413075138.500916.129937"><time><value>2025-04-13T07:51:31.338393Z</value></time><waveformID networkCode="CX" stationCode="PB02" channelCode="HHZ"/><filterID>ITAPER(4)&gt;&gt;BW(4,4,20)</filterID><methodID>AIC</methodID><horizontalSlowness><value>4.3184167429466456</value></horizontalSlowness><backazimuth><value>31.923027290919606</value></backazimuth><phaseHint>P</phaseHint><evaluationMode>automatic</evaluationMode><comment><text>31.50015936269898</text><id>DFX:rectilinearity</id></comment><comment><text>29.66735229210371</text><id>SNR</id></comment></pick><pick publicID="de.gempa.tb1.Pick/20250413075142.600422.129942"><time><value>2025-04-13T07:51:35.438393Z</value></time><waveformID networkCode="CX" stationCode="PB08" channelCode="HHN"/><filterID>ITAPER(2)&gt;&gt;BW(3,3,20)</filterID><methodID>L2-AIC-GRID</methodID><horizontalSlowness><value>16.190512787888498</value></horizontalSlowness><backazimuth><value>204.62298946837578</value></backazimuth><phaseHint>S</phaseHint><evaluationMode>automatic</evaluationMode><comment><text>7368.075465917331</text><id>DFX:rectilinearity</id></comment><comment><text>de.gempa.tb1.Pick/20250413075130.529993.129928</text><id>RefPickID</id></comment><comment><text>15.501359364581212</text><id>SNR</id></comment></pick><pick publicID="de.gempa.tb1.Pick/20250413075151.652752.129946"><time><value>2025-04-13T07:51:45.16Z</value></time><waveformID networkCode="CX" stationCode="PSGCX" channelCode="HHN"/><filterID>ITAPER(2)&gt;&gt;BW(3,3,20)</filterID><methodID>L2-AIC-GRID</methodID><horizontalSlowness><value>15.50709816784585</value></horizontalSlowness><backazimuth><value>60.25773959983908</value></backazimuth><phaseHint>S</phaseHint><evaluationMode>automatic</evaluationMode><comment><text>2624.092560401867</text><id>DFX:rectilinearity</id></comment><comment><text>de.gempa.tb1.Pick/20250413075134.550007.129932</text><id>RefPickID</id></comment><comment><text>11.09927596473331</text><id>SNR</id></comment></pick><pick publicID="de.gempa.tb1.Pick/20250413075152.592099.129947"><time><value>2025-04-13T07:51:44.898393Z</value></time><waveformID networkCode="CX" stationCode="PB03" channelCode="HHZ"/><filterID>ITAPER(4)&gt;&gt;BW(4,4,20)</filterID><methodID>AIC</methodID><horizontalSlowness><value>4.411296331348095</value></horizontalSlowness><backazimuth><value>11.535111093961604</value></backazimuth><phaseHint>P</phaseHint><evaluationMode>automatic</evaluationMode><comment><text>24.274587766564856</text><id>DFX:rectilinearity</id></comment><comment><text>9.417901038103434</text><id>SNR</id></comment></pick><pick publicID="de.gempa.tb1.Pick/20250413075220.684911.129959"><time><value>2025-04-13T07:52:08.658393Z</value></time><waveformID networkCode="CX" stationCode="PB03" channelCode="HHN"/><filterID>ITAPER(2)&gt;&gt;BW(3,3,20)</filterID><methodID>L2-AIC-GRID</methodID><horizontalSlowness><value>16.824972953655813</value></horizontalSlowness><backazimuth><value>297.2921934550298</value></backazimuth><phaseHint>S</phaseHint><evaluationMode>automatic</evaluationMode><comment><text>185.48766472961404</text><id>DFX:rectilinearity</id></comment><comment><text>de.gempa.tb1.Pick/20250413075152.592099.129947</text><id>RefPickID</id></comment><comment><text>5.108932514872048</text><id>SNR</id></comment></pick><origin publicID="de.gempa.tb1.Origin/20250413075220.688418.105178"><time><value>2025-04-13T07:51:14.718658Z</value><uncertainty>0.36622363328933716</uncertainty></time><latitude><value>-20.394472122192383</value><uncertainty>2.0507991313934326</uncertainty></latitude><longitude><value>-69.73414611816406</value><uncertainty>2.956714630126953</uncertainty></longitude><depth><value>0</value></depth><depthType>operator assigned</depthType><methodID>LOCSAT</methodID><earthModelID>iasp91_scanloc</earthModelID><quality><associatedPhaseCount>8</associatedPhaseCount><usedPhaseCount>8</usedPhaseCount><associatedStationCount>5</associatedStationCount><usedStationCount>5</usedStationCount><depthPhaseCount>0</depthPhaseCount><standardError>1.1887445720788992</standardError><azimuthalGap>145.86898803710938</azimuthalGap><maximumDistance>1.6458983421325684</maximumDistance><minimumDistance>0.6006718277931213</minimumDistance><medianDistance>0.8734612464904785</medianDistance></quality><uncertainty><minHorizontalUncertainty>4.399059772491455</minHorizontalUncertainty><maxHorizontalUncertainty>6.344112396240234</maxHorizontalUncertainty><azimuthMaxHorizontalUncertainty>88.91403198242188</azimuthMaxHorizontalUncertainty><preferredDescription>horizontal uncertainty</preferredDescription></uncertainty><evaluationMode>automatic</evaluationMode><evaluationStatus>confirmed</evaluationStatus><comment><text>0.25</text><id>mismatchScore</id></comment><comment><text>mismatchScore</text><id>scevalMethod</id></comment><arrival><pickID>de.gempa.tb1.Pick/20250413075130.529993.129928</pickID><phase>P</phase><azimuth>65.28913116455078</azimuth><distance>0.6006718277931213</distance><timeResidual>-1.5326013565063477</timeResidual><timeUsed>true</timeUsed><horizontalSlownessUsed>false</horizontalSlownessUsed><backazimuthUsed>false</backazimuthUsed><weight>1</weight></arrival><arrival><pickID>de.gempa.tb1.Pick/20250413075134.550007.129932</pickID><phase>P</phase><azimuth>335.1794128417969</azimuth><distance>0.8734612464904785</distance><timeResidual>-1.5342025756835938</timeResidual><timeUsed>true</timeUsed><horizontalSlownessUsed>false</horizontalSlownessUsed><backazimuthUsed>false</backazimuthUsed><weight>1</weight></arrival><arrival><pickID>de.gempa.tb1.Pick/20250413075135.769246.129934</pickID><phase>P</phase><azimuth>160.35389709472656</azimuth><distance>0.6855759620666504</distance><timeResidual>1.0498285293579102</timeResidual><timeUsed>true</timeUsed><horizontalSlownessUsed>false</horizontalSlownessUsed><backazimuthUsed>false</backazimuthUsed><weight>1</weight></arrival><arrival><pickID>de.gempa.tb1.Pick/20250413075138.500916.129937</pickID><phase>P</phase><azimuth>189.3104248046875</azimuth><distance>0.9329878091812134</distance><timeResidual>-1.2756757736206055</timeResidual><timeUsed>true</timeUsed><horizontalSlownessUsed>false</horizontalSlownessUsed><backazimuthUsed>false</backazimuthUsed><weight>1</weight></arrival><arrival><pickID>de.gempa.tb1.Pick/20250413075142.600422.129942</pickID><phase>S</phase><azimuth>65.28913116455078</azimuth><distance>0.6006718277931213</distance><timeResidual>0.8301963806152344</timeResidual><timeUsed>true</timeUsed><horizontalSlownessUsed>false</horizontalSlownessUsed><backazimuthUsed>false</backazimuthUsed><weight>1</weight></arrival><arrival><pickID>de.gempa.tb1.Pick/20250413075151.652752.129946</pickID><phase>S</phase><azimuth>335.1794128417969</azimuth><distance>0.8734612464904785</distance><timeResidual>1.51812744140625</timeResidual><timeUsed>true</timeUsed><horizontalSlownessUsed>false</horizontalSlownessUsed><backazimuthUsed>false</backazimuthUsed><weight>1</weight></arrival><arrival><pickID>de.gempa.tb1.Pick/20250413075152.592099.129947</pickID><phase>P</phase><azimuth>180.61215209960938</azimuth><distance>1.6458983421325684</distance><timeResidual>0.0068817138671875</timeResidual><timeUsed>true</timeUsed><horizontalSlownessUsed>false</horizontalSlownessUsed><backazimuthUsed>false</backazimuthUsed><weight>1</weight></arrival><arrival><pickID>de.gempa.tb1.Pick/20250413075220.684911.129959</pickID><phase>S</phase><azimuth>180.61215209960938</azimuth><distance>1.6458983421325684</distance><timeResidual>0.93743896484375</timeResidual><timeUsed>true</timeUsed><horizontalSlownessUsed>false</horizontalSlownessUsed><backazimuthUsed>false</backazimuthUsed><weight>1</weight></arrival><magnitude publicID="de.gempa.tb1.Magnitude/20250413075220.692758.329697"><magnitude><value>2.634264721198784</value></magnitude><type>M</type><methodID>weighted average</methodID><stationCount>5</stationCount></magnitude></origin><event publicID="gempa2025hgzy"><preferredOriginID>de.gempa.tb1.Origin/20250413075220.688418.105178</preferredOriginID><preferredMagnitudeID>de.gempa.tb1.Magnitude/20250413075220.692758.329697</preferredMagnitudeID><description><text>Northern Chile</text><type>region name</type></description><originReference>de.gempa.tb1.Origin/20250413075220.688418.105178</originReference></event></EventParameters></seiscomp>