<?xml version="1.0" encoding="UTF-8"?>
<seiscomp xmlns="http://geofon.gfz-potsdam.de/ns/seiscomp3-schema/0.13" version="0.13"><EventParameters><pick publicID="de.gempa.tb1.Pick/20250414151758.164189.138803"><time><value>2025-04-14T15:17:52.188396Z</value></time><waveformID networkCode="CX" stationCode="PB07" channelCode="HHZ"/><filterID>ITAPER(4)&gt;&gt;BW(4,4,20)</filterID><methodID>AIC</methodID><horizontalSlowness><value>17.27647692143757</value></horizontalSlowness><backazimuth><value>262.64956163871466</value></backazimuth><phaseHint>P</phaseHint><evaluationMode>automatic</evaluationMode><comment><text>358.15779050406934</text><id>DFX:rectilinearity</id></comment><comment><text>104.60024084165497</text><id>SNR</id></comment></pick><pick publicID="de.gempa.tb1.Pick/20250414151759.233687.138805"><time><value>2025-04-14T15:17:53.448393Z</value></time><waveformID networkCode="CX" stationCode="PB03" channelCode="HHZ"/><filterID>ITAPER(4)&gt;&gt;BW(4,4,20)</filterID><methodID>AIC</methodID><horizontalSlowness><value>13.220680505574123</value></horizontalSlowness><backazimuth><value>258.48815348051164</value></backazimuth><phaseHint>P</phaseHint><evaluationMode>automatic</evaluationMode><comment><text>33.811657603706585</text><id>DFX:rectilinearity</id></comment><comment><text>26.62020051203468</text><id>SNR</id></comment></pick><pick publicID="de.gempa.tb1.Pick/20250414151800.648902.138807"><time><value>2025-04-14T15:17:55.978393Z</value></time><waveformID networkCode="CX" stationCode="PB02" channelCode="HHZ"/><filterID>ITAPER(4)&gt;&gt;BW(4,4,20)</filterID><methodID>AIC</methodID><horizontalSlowness><value>15.616211289422976</value></horizontalSlowness><backazimuth><value>92.93667482199893</value></backazimuth><phaseHint>P</phaseHint><evaluationMode>automatic</evaluationMode><comment><text>15.725258903016893</text><id>DFX:rectilinearity</id></comment><comment><text>27.311845398478596</text><id>SNR</id></comment></pick><pick publicID="de.gempa.tb1.Pick/20250414151805.785516.138809"><time><value>2025-04-14T15:17:59.108396Z</value></time><waveformID networkCode="CX" stationCode="PB07" channelCode="HHN"/><filterID>ITAPER(2)&gt;&gt;BW(3,3,20)</filterID><methodID>L2-AIC-GRID</methodID><horizontalSlowness><value>22.820146889397545</value></horizontalSlowness><backazimuth><value>10.524493307961336</value></backazimuth><phaseHint>S</phaseHint><evaluationMode>automatic</evaluationMode><comment><text>68051.90549211563</text><id>DFX:rectilinearity</id></comment><comment><text>de.gempa.tb1.Pick/20250414151758.164189.138803</text><id>RefPickID</id></comment><comment><text>28.882846417775653</text><id>SNR</id></comment></pick><pick publicID="de.gempa.tb1.Pick/20250414151807.726835.138810"><time><value>2025-04-14T15:18:01.178393Z</value></time><waveformID networkCode="CX" stationCode="PB03" channelCode="HHN"/><filterID>ITAPER(2)&gt;&gt;BW(3,3,20)</filterID><methodID>L2-AIC-GRID</methodID><horizontalSlowness><value>8.486070231538651</value></horizontalSlowness><backazimuth><value>151.3198925658599</value></backazimuth><phaseHint>S</phaseHint><evaluationMode>automatic</evaluationMode><comment><text>444.20105250533504</text><id>DFX:rectilinearity</id></comment><comment><text>de.gempa.tb1.Pick/20250414151759.233687.138805</text><id>RefPickID</id></comment><comment><text>8.887480163308005</text><id>SNR</id></comment></pick><pick publicID="de.gempa.tb1.Pick/20250414151813.634854.138811"><time><value>2025-04-14T15:18:06.208393Z</value></time><waveformID networkCode="CX" stationCode="PB02" channelCode="HHN"/><filterID>ITAPER(2)&gt;&gt;BW(3,3,20)</filterID><methodID>L2-AIC-GRID</methodID><horizontalSlowness><value>23.36051168747611</value></horizontalSlowness><backazimuth><value>213.07490059864762</value></backazimuth><phaseHint>S</phaseHint><evaluationMode>automatic</evaluationMode><comment><text>226.63594534947475</text><id>DFX:rectilinearity</id></comment><comment><text>de.gempa.tb1.Pick/20250414151800.648902.138807</text><id>RefPickID</id></comment><comment><text>5.283718966404784</text><id>SNR</id></comment></pick><pick publicID="de.gempa.tb1.Pick/20250414151818.579902.138812"><time><value>2025-04-14T15:18:01.11Z</value></time><waveformID networkCode="CX" stationCode="PB09" channelCode="HHZ"/><filterID>ITAPER(4)&gt;&gt;BW(4,4,20)</filterID><methodID>AIC</methodID><horizontalSlowness><value>9.233883374615152</value></horizontalSlowness><backazimuth><value>274.809950754336</value></backazimuth><phaseHint>P</phaseHint><evaluationMode>automatic</evaluationMode><comment><text>7.185515166323416</text><id>DFX:rectilinearity</id></comment><comment><text>39.0475274948264</text><id>SNR</id></comment></pick><origin publicID="de.gempa.tb1.Origin/20250414151819.132795.141533"><time><value>2025-04-14T15:17:42.261428Z</value><uncertainty>1.5644017457962036</uncertainty></time><latitude><value>-21.919727325439453</value><uncertainty>5.181702136993408</uncertainty></latitude><longitude><value>-70.33680725097656</value><uncertainty>9.13898754119873</uncertainty></longitude><depth><value>24.934938430786133</value><uncertainty>17.173242568969727</uncertainty></depth><depthType>from location</depthType><methodID>LOCSAT</methodID><earthModelID>iasp91_scanloc</earthModelID><quality><associatedPhaseCount>7</associatedPhaseCount><usedPhaseCount>7</usedPhaseCount><associatedStationCount>4</associatedStationCount><usedStationCount>4</usedStationCount><depthPhaseCount>0</depthPhaseCount><standardError>0.2681888208499313</standardError><azimuthalGap>291.1540412902832</azimuthalGap><maximumDistance>1.0244932174682617</maximumDistance><minimumDistance>0.4606929123401642</minimumDistance><medianDistance>0.5567162036895752</medianDistance></quality><uncertainty><minHorizontalUncertainty>8.829936027526855</minHorizontalUncertainty><maxHorizontalUncertainty>20.72739601135254</maxHorizontalUncertainty><azimuthMaxHorizontalUncertainty>68.91441345214844</azimuthMaxHorizontalUncertainty><preferredDescription>horizontal uncertainty</preferredDescription></uncertainty><evaluationMode>automatic</evaluationMode><evaluationStatus>confirmed</evaluationStatus><comment><text>0.00</text><id>mismatchScore</id></comment><comment><text>mismatchScore</text><id>scevalMethod</id></comment><arrival><pickID>de.gempa.tb1.Pick/20250414151758.164189.138803</pickID><phase>P</phase><azimuth>65.43659973144531</azimuth><distance>0.4606929123401642</distance><timeResidual>0.375981330871582</timeResidual><timeUsed>true</timeUsed><horizontalSlownessUsed>false</horizontalSlownessUsed><backazimuthUsed>false</backazimuthUsed><weight>1</weight></arrival><arrival><pickID>de.gempa.tb1.Pick/20250414151759.233687.138805</pickID><phase>P</phase><azimuth>103.41352844238281</azimuth><distance>0.5567162036895752</distance><timeResidual>0.03974151611328125</timeResidual><timeUsed>true</timeUsed><horizontalSlownessUsed>false</horizontalSlownessUsed><backazimuthUsed>false</backazimuthUsed><weight>1</weight></arrival><arrival><pickID>de.gempa.tb1.Pick/20250414151800.648902.138807</pickID><phase>P</phase><azimuth>34.567569732666016</azimuth><distance>0.7243601083755493</distance><timeResidual>-0.25699329376220703</timeResidual><timeUsed>true</timeUsed><horizontalSlownessUsed>false</horizontalSlownessUsed><backazimuthUsed>false</backazimuthUsed><weight>1</weight></arrival><arrival><pickID>de.gempa.tb1.Pick/20250414151805.785516.138809</pickID><phase>S</phase><azimuth>65.43659973144531</azimuth><distance>0.4606929123401642</distance><timeResidual>0.34003257751464844</timeResidual><timeUsed>true</timeUsed><horizontalSlownessUsed>false</horizontalSlownessUsed><backazimuthUsed>false</backazimuthUsed><weight>1</weight></arrival><arrival><pickID>de.gempa.tb1.Pick/20250414151807.726835.138810</pickID><phase>S</phase><azimuth>103.41352844238281</azimuth><distance>0.5567162036895752</distance><timeResidual>-0.3526277542114258</timeResidual><timeUsed>true</timeUsed><horizontalSlownessUsed>false</horizontalSlownessUsed><backazimuthUsed>false</backazimuthUsed><weight>1</weight></arrival><arrival><pickID>de.gempa.tb1.Pick/20250414151813.634854.138811</pickID><phase>S</phase><azimuth>34.567569732666016</azimuth><distance>0.7243601083755493</distance><timeResidual>-0.2211933135986328</timeResidual><timeUsed>true</timeUsed><horizontalSlownessUsed>false</horizontalSlownessUsed><backazimuthUsed>false</backazimuthUsed><weight>1</weight></arrival><arrival><pickID>de.gempa.tb1.Pick/20250414151818.579902.138812</pickID><phase>P</phase><azimuth>83.32144927978516</azimuth><distance>1.0244932174682617</distance><timeResidual>0.074798583984375</timeResidual><timeUsed>true</timeUsed><horizontalSlownessUsed>false</horizontalSlownessUsed><backazimuthUsed>false</backazimuthUsed><weight>1</weight></arrival><magnitude publicID="de.gempa.tb1.Magnitude/20250414151819.139395.505873"><magnitude><value>2.307592051724034</value></magnitude><type>M</type><methodID>weighted average</methodID><stationCount>4</stationCount></magnitude></origin><event publicID="gempa2025hjkw"><preferredOriginID>de.gempa.tb1.Origin/20250414151819.132795.141533</preferredOriginID><preferredMagnitudeID>de.gempa.tb1.Magnitude/20250414151819.139395.505873</preferredMagnitudeID><typeCertainty>suspected</typeCertainty><description><text>Near Coast of Northern Chile</text><type>region name</type></description><originReference>de.gempa.tb1.Origin/20250414151819.132795.141533</originReference></event></EventParameters></seiscomp>