<?xml version="1.0" encoding="UTF-8"?>
<seiscomp xmlns="http://geofon.gfz-potsdam.de/ns/seiscomp3-schema/0.13" version="0.13"><EventParameters><pick publicID="de.gempa.tb1.Pick/20250415070614.56747.117849"><time><value>2025-04-15T07:06:10.068393Z</value></time><waveformID networkCode="CX" stationCode="PB02" channelCode="HHZ"/><filterID>ITAPER(4)&gt;&gt;BW(4,4,20)</filterID><methodID>AIC</methodID><horizontalSlowness><value>17.856179540980566</value></horizontalSlowness><backazimuth><value>340.19235752014146</value></backazimuth><phaseHint>P</phaseHint><evaluationMode>automatic</evaluationMode><comment><text>18.34740369564933</text><id>DFX:rectilinearity</id></comment><comment><text>20.859353464471106</text><id>SNR</id></comment></pick><pick publicID="de.gempa.tb1.Pick/20250415070615.526953.117851"><time><value>2025-04-15T07:06:06.868394Z</value></time><waveformID networkCode="CX" stationCode="PB01" channelCode="HHZ"/><filterID>ITAPER(4)&gt;&gt;BW(4,4,20)</filterID><methodID>AIC</methodID><horizontalSlowness><value>18.954841956333858</value></horizontalSlowness><backazimuth><value>2.0726636451490776</value></backazimuth><phaseHint>P</phaseHint><evaluationMode>automatic</evaluationMode><comment><text>8.17785629690985</text><id>DFX:rectilinearity</id></comment><comment><text>15.243212792003668</text><id>SNR</id></comment></pick><pick publicID="de.gempa.tb1.Pick/20250415070620.838556.117853"><time><value>2025-04-15T07:06:09.668396Z</value></time><waveformID networkCode="CX" stationCode="PB07" channelCode="HHZ"/><filterID>ITAPER(4)&gt;&gt;BW(4,4,20)</filterID><methodID>AIC</methodID><horizontalSlowness><value>22.67753887460816</value></horizontalSlowness><backazimuth><value>323.3688917528981</value></backazimuth><phaseHint>P</phaseHint><evaluationMode>automatic</evaluationMode><comment><text>228.66690878706345</text><id>DFX:rectilinearity</id></comment><comment><text>10.611380090305435</text><id>SNR</id></comment></pick><pick publicID="de.gempa.tb1.Pick/20250415070623.450321.117855"><time><value>2025-04-15T07:06:14.519999Z</value></time><waveformID networkCode="CX" stationCode="PATCX" channelCode="HHZ"/><filterID>ITAPER(4)&gt;&gt;BW(4,4,20)</filterID><methodID>AIC</methodID><horizontalSlowness><value>22.19943948731446</value></horizontalSlowness><backazimuth><value>83.2672104907499</value></backazimuth><phaseHint>P</phaseHint><evaluationMode>automatic</evaluationMode><comment><text>186.63379649133222</text><id>DFX:rectilinearity</id></comment><comment><text>7.386583477684321</text><id>SNR</id></comment></pick><pick publicID="de.gempa.tb1.Pick/20250415070631.606977.117857"><time><value>2025-04-15T07:06:26.178394Z</value></time><waveformID networkCode="CX" stationCode="PB01" channelCode="HHN"/><filterID>ITAPER(2)&gt;&gt;BW(3,3,20)</filterID><methodID>L2-AIC-GRID</methodID><horizontalSlowness><value>21.317535076687118</value></horizontalSlowness><backazimuth><value>353.5281456781837</value></backazimuth><phaseHint>S</phaseHint><evaluationMode>automatic</evaluationMode><comment><text>15.9897774216446</text><id>DFX:rectilinearity</id></comment><comment><text>de.gempa.tb1.Pick/20250415070615.526953.117851</text><id>RefPickID</id></comment><comment><text>5.95794288003647</text><id>SNR</id></comment></pick><origin publicID="de.gempa.tb1.Origin/20250415070635.577636.56635"><time><value>2025-04-15T07:05:41.950097Z</value><uncertainty>2.63153338432312</uncertainty></time><latitude><value>-21.588218688964844</value><uncertainty>21.4666690826416</uncertainty></latitude><longitude><value>-68.26542663574219</value><uncertainty>42.43712615966797</uncertainty></longitude><depth><value>121.7467269897461</value><uncertainty>39.03268051147461</uncertainty></depth><depthType>from location</depthType><methodID>LOCSAT</methodID><earthModelID>iasp91_scanloc</earthModelID><quality><associatedPhaseCount>5</associatedPhaseCount><usedPhaseCount>5</usedPhaseCount><associatedStationCount>4</associatedStationCount><usedStationCount>4</usedStationCount><depthPhaseCount>0</depthPhaseCount><standardError>0.024744814383555934</standardError><azimuthalGap>329.2511291503906</azimuthalGap><maximumDistance>1.9196271896362305</maximumDistance><minimumDistance>1.2618458271026611</minimumDistance><medianDistance>1.5139820575714111</medianDistance></quality><uncertainty><minHorizontalUncertainty>46.02100372314453</minHorizontalUncertainty><maxHorizontalUncertainty>91.02323150634766</maxHorizontalUncertainty><azimuthMaxHorizontalUncertainty>90.94274139404297</azimuthMaxHorizontalUncertainty><preferredDescription>horizontal uncertainty</preferredDescription></uncertainty><evaluationMode>automatic</evaluationMode><comment><text>0.70</text><id>mismatchScore</id></comment><arrival><pickID>de.gempa.tb1.Pick/20250415070614.56747.117849</pickID><phase>P</phase><azimuth>279.6783752441406</azimuth><distance>1.5422828197479248</distance><timeResidual>0.04697036743164062</timeResidual><timeUsed>true</timeUsed><horizontalSlownessUsed>false</horizontalSlownessUsed><backazimuthUsed>false</backazimuthUsed><weight>1</weight></arrival><arrival><pickID>de.gempa.tb1.Pick/20250415070615.526953.117851</pickID><phase>P</phase><azimuth>295.2306823730469</azimuth><distance>1.2618458271026611</distance><timeResidual>-0.0051727294921875</timeResidual><timeUsed>true</timeUsed><horizontalSlownessUsed>false</horizontalSlownessUsed><backazimuthUsed>false</backazimuthUsed><weight>1</weight></arrival><arrival><pickID>de.gempa.tb1.Pick/20250415070620.838556.117853</pickID><phase>P</phase><azimuth>264.4818115234375</azimuth><distance>1.5139820575714111</distance><timeResidual>-0.023426055908203125</timeResidual><timeUsed>true</timeUsed><horizontalSlownessUsed>false</horizontalSlownessUsed><backazimuthUsed>false</backazimuthUsed><weight>1</weight></arrival><arrival><pickID>de.gempa.tb1.Pick/20250415070623.450321.117855</pickID><phase>P</phase><azimuth>293.1014404296875</azimuth><distance>1.9196271896362305</distance><timeResidual>-0.016653060913085938</timeResidual><timeUsed>true</timeUsed><horizontalSlownessUsed>false</horizontalSlownessUsed><backazimuthUsed>false</backazimuthUsed><weight>1</weight></arrival><arrival><pickID>de.gempa.tb1.Pick/20250415070631.606977.117857</pickID><phase>S</phase><azimuth>295.2306823730469</azimuth><distance>1.2618458271026611</distance><timeResidual>-0.0015659332275390625</timeResidual><timeUsed>true</timeUsed><horizontalSlownessUsed>false</horizontalSlownessUsed><backazimuthUsed>false</backazimuthUsed><weight>1</weight></arrival><magnitude publicID="de.gempa.tb1.Magnitude/20250415070659.248646.100883"><magnitude><value>2.756042431972505</value></magnitude><type>M</type><methodID>weighted average</methodID><stationCount>3</stationCount></magnitude></origin><event publicID="gempa2025hkqm"><preferredOriginID>de.gempa.tb1.Origin/20250415070635.577636.56635</preferredOriginID><preferredMagnitudeID>de.gempa.tb1.Magnitude/20250415070659.248646.100883</preferredMagnitudeID><typeCertainty>suspected</typeCertainty><description><text>Chile-Bolivia Border Region</text><type>region name</type></description><originReference>de.gempa.tb1.Origin/20250415070635.577636.56635</originReference></event></EventParameters></seiscomp>