<?xml version="1.0" encoding="UTF-8"?>
<seiscomp xmlns="http://geofon.gfz-potsdam.de/ns/seiscomp3-schema/0.13" version="0.13"><EventParameters><pick publicID="de.gempa.tb1.Pick/20250412200738.84381.172833"><time><value>2025-04-12T20:07:35.49Z</value></time><waveformID networkCode="CH" stationCode="EMING" channelCode="HHZ"/><filterID>ITAPER(4)&gt;&gt;BW(4,4,20)</filterID><methodID>AIC</methodID><phaseHint>P</phaseHint><evaluationMode>automatic</evaluationMode></pick><pick publicID="de.gempa.tb1.Pick/20250412200742.103846.172835"><time><value>2025-04-12T20:07:39.85Z</value></time><waveformID networkCode="CH" stationCode="SLE" channelCode="HHZ"/><filterID>ITAPER(4)&gt;&gt;BW(4,4,20)</filterID><methodID>AIC</methodID><phaseHint>P</phaseHint><evaluationMode>automatic</evaluationMode></pick><pick publicID="de.gempa.tb1.Pick/20250412200745.363301.172844"><time><value>2025-04-12T20:07:41.485Z</value></time><waveformID networkCode="CH" stationCode="BERGE" channelCode="HHZ"/><filterID>ITAPER(4)&gt;&gt;BW(4,4,20)</filterID><methodID>AIC</methodID><phaseHint>P</phaseHint><evaluationMode>automatic</evaluationMode></pick><pick publicID="de.gempa.tb1.Pick/20250412200745.887865.172846"><time><value>2025-04-12T20:07:42.94Z</value></time><waveformID networkCode="CH" stationCode="ACB" channelCode="HHZ"/><filterID>ITAPER(4)&gt;&gt;BW(4,4,20)</filterID><methodID>AIC</methodID><phaseHint>P</phaseHint><evaluationMode>automatic</evaluationMode></pick><pick publicID="de.gempa.tb1.Pick/20250412200747.214317.172859"><time><value>2025-04-12T20:07:42.615Z</value></time><waveformID networkCode="CH" stationCode="METMA" channelCode="HHZ"/><filterID>ITAPER(4)&gt;&gt;BW(4,4,20)</filterID><methodID>AIC</methodID><phaseHint>P</phaseHint><evaluationMode>automatic</evaluationMode></pick><pick publicID="de.gempa.tb1.Pick/20250412200752.321694.172878"><time><value>2025-04-12T20:07:33.769538Z</value></time><waveformID networkCode="GR" stationCode="BFO" channelCode="BHZ"/><filterID>ITAPER(4)&gt;&gt;BW_HP(4,4)</filterID><methodID>AIC</methodID><phaseHint>P</phaseHint><evaluationMode>automatic</evaluationMode></pick><origin publicID="de.gempa.tb1.Origin/20250412200752.326122.109682"><time><value>2025-04-12T20:07:20.925647Z</value><uncertainty>5.744879245758057</uncertainty></time><latitude><value>48.60132598876953</value><uncertainty>26.97572135925293</uncertainty></latitude><longitude><value>9.276694297790527</value><uncertainty>27.449920654296875</uncertainty></longitude><depth><value>0</value></depth><depthType>operator assigned</depthType><methodID>LOCSAT</methodID><earthModelID>iasp91</earthModelID><quality><associatedPhaseCount>6</associatedPhaseCount><usedPhaseCount>6</usedPhaseCount><associatedStationCount>6</associatedStationCount><usedStationCount>6</usedStationCount><depthPhaseCount>0</depthPhaseCount><standardError>0.5351079748084592</standardError><azimuthalGap>315.17210388183594</azimuthalGap><maximumDistance>1.2242770195007324</maximumDistance><minimumDistance>0.6854730844497681</minimumDistance><medianDistance>1.03574800491333</medianDistance></quality><uncertainty><minHorizontalUncertainty>20.659305572509766</minHorizontalUncertainty><maxHorizontalUncertainty>79.91212463378906</maxHorizontalUncertainty><azimuthMaxHorizontalUncertainty>45.57070922851562</azimuthMaxHorizontalUncertainty><preferredDescription>horizontal uncertainty</preferredDescription></uncertainty><evaluationMode>automatic</evaluationMode><comment><text>0.62</text><id>mismatchScore</id></comment><arrival><pickID>de.gempa.tb1.Pick/20250412200738.84381.172833</pickID><phase>P</phase><azimuth>202.2894287109375</azimuth><distance>0.7628470659255981</distance><timeResidual>-0.08605194091796875</timeResidual><timeUsed>true</timeUsed><horizontalSlownessUsed>false</horizontalSlownessUsed><backazimuthUsed>false</backazimuthUsed><weight>1</weight></arrival><arrival><pickID>de.gempa.tb1.Pick/20250412200742.103846.172835</pickID><phase>P</phase><azimuth>212.37179565429688</azimuth><distance>0.9883283972740173</distance><timeResidual>-0.012811660766601562</timeResidual><timeUsed>true</timeUsed><horizontalSlownessUsed>false</horizontalSlownessUsed><backazimuthUsed>false</backazimuthUsed><weight>1</weight></arrival><arrival><pickID>de.gempa.tb1.Pick/20250412200745.363301.172844</pickID><phase>P</phase><azimuth>225.5772247314453</azimuth><distance>1.03574800491333</distance><timeResidual>0.803201675415039</timeResidual><timeUsed>true</timeUsed><horizontalSlownessUsed>false</horizontalSlownessUsed><backazimuthUsed>false</backazimuthUsed><weight>1</weight></arrival><arrival><pickID>de.gempa.tb1.Pick/20250412200745.887865.172846</pickID><phase>P</phase><azimuth>214.42276000976562</azimuth><distance>1.2242770195007324</distance><timeResidual>-0.8499412536621094</timeResidual><timeUsed>true</timeUsed><horizontalSlownessUsed>false</horizontalSlownessUsed><backazimuthUsed>false</backazimuthUsed><weight>1</weight></arrival><arrival><pickID>de.gempa.tb1.Pick/20250412200747.214317.172859</pickID><phase>P</phase><azimuth>218.00015258789062</azimuth><distance>1.1233271360397339</distance><timeResidual>0.4804468154907227</timeResidual><timeUsed>true</timeUsed><horizontalSlownessUsed>false</horizontalSlownessUsed><backazimuthUsed>false</backazimuthUsed><weight>1</weight></arrival><arrival><pickID>de.gempa.tb1.Pick/20250412200752.321694.172878</pickID><phase>P</phase><azimuth>247.11732482910156</azimuth><distance>0.6854730844497681</distance><timeResidual>-0.33483123779296875</timeResidual><timeUsed>true</timeUsed><horizontalSlownessUsed>false</horizontalSlownessUsed><backazimuthUsed>false</backazimuthUsed><weight>1</weight></arrival><magnitude publicID="de.gempa.tb1.Magnitude/20250412200855.144907.276093"><magnitude><value>1.9744047429742118</value></magnitude><type>M</type><methodID>weighted average</methodID><stationCount>4</stationCount></magnitude></origin><event publicID="gempa2025hgcn"><preferredOriginID>de.gempa.tb1.Origin/20250412200752.326122.109682</preferredOriginID><preferredMagnitudeID>de.gempa.tb1.Magnitude/20250412200855.144907.276093</preferredMagnitudeID><description><text>Germany</text><type>region name</type></description><originReference>de.gempa.tb1.Origin/20250412200752.326122.109682</originReference></event></EventParameters></seiscomp>