<?xml version="1.0" encoding="UTF-8"?>
<seiscomp xmlns="http://geofon.gfz-potsdam.de/ns/seiscomp3-schema/0.13" version="0.13"><EventParameters><pick publicID="de.gempa.tb1.Pick/20250413214857.613396.133963"><time><value>2025-04-13T21:48:51.078393Z</value></time><waveformID networkCode="CX" stationCode="PB06" channelCode="HHZ"/><filterID>ITAPER(4)&gt;&gt;BW(4,4,20)</filterID><methodID>AIC</methodID><horizontalSlowness><value>22.36397634900364</value></horizontalSlowness><backazimuth><value>342.8717318661936</value></backazimuth><phaseHint>P</phaseHint><evaluationMode>automatic</evaluationMode><comment><text>72.29031173591997</text><id>DFX:rectilinearity</id></comment><comment><text>63.1686614374611</text><id>SNR</id></comment></pick><pick publicID="de.gempa.tb1.Pick/20250413214858.681429.133965"><time><value>2025-04-13T21:48:52.118394Z</value></time><waveformID networkCode="CX" stationCode="PB03" channelCode="HHZ"/><filterID>ITAPER(4)&gt;&gt;BW(4,4,20)</filterID><methodID>AIC</methodID><horizontalSlowness><value>10.066505207706005</value></horizontalSlowness><backazimuth><value>252.32348651279383</value></backazimuth><phaseHint>P</phaseHint><evaluationMode>automatic</evaluationMode><comment><text>74.87099494552564</text><id>DFX:rectilinearity</id></comment><comment><text>50.25692438761771</text><id>SNR</id></comment></pick><pick publicID="de.gempa.tb1.Pick/20250413214859.170394.133967"><time><value>2025-04-13T21:48:53.64Z</value></time><waveformID networkCode="CX" stationCode="PB10" channelCode="HHZ"/><filterID>ITAPER(4)&gt;&gt;BW(4,4,20)</filterID><methodID>AIC</methodID><horizontalSlowness><value>9.096152613637916</value></horizontalSlowness><backazimuth><value>20.213562852865579</value></backazimuth><phaseHint>P</phaseHint><evaluationMode>automatic</evaluationMode><comment><text>75.12409603112178</text><id>DFX:rectilinearity</id></comment><comment><text>7.967005468018962</text><id>SNR</id></comment></pick><pick publicID="de.gempa.tb1.Pick/20250413214901.709758.133969"><time><value>2025-04-13T21:48:54.748393Z</value></time><waveformID networkCode="CX" stationCode="PB15" channelCode="HHZ"/><filterID>ITAPER(4)&gt;&gt;BW(4,4,20)</filterID><methodID>AIC</methodID><horizontalSlowness><value>20.574843151822588</value></horizontalSlowness><backazimuth><value>111.98160948635301</value></backazimuth><phaseHint>P</phaseHint><evaluationMode>automatic</evaluationMode><comment><text>257.52351832193295</text><id>DFX:rectilinearity</id></comment><comment><text>10.504653040849965</text><id>SNR</id></comment></pick><pick publicID="de.gempa.tb1.Pick/20250413214906.460791.133971"><time><value>2025-04-13T21:48:59.358393Z</value></time><waveformID networkCode="CX" stationCode="PB02" channelCode="HHZ"/><filterID>ITAPER(4)&gt;&gt;BW(4,4,20)</filterID><methodID>AIC</methodID><horizontalSlowness><value>14.8892919628759</value></horizontalSlowness><backazimuth><value>265.39130399133865</value></backazimuth><phaseHint>P</phaseHint><evaluationMode>automatic</evaluationMode><comment><text>26.121964015618484</text><id>DFX:rectilinearity</id></comment><comment><text>20.694574373235653</text><id>SNR</id></comment></pick><pick publicID="de.gempa.tb1.Pick/20250413214909.596091.133973"><time><value>2025-04-13T21:49:04.41Z</value></time><waveformID networkCode="CX" stationCode="PB19" channelCode="HHZ"/><filterID>ITAPER(4)&gt;&gt;BW(4,4,20)</filterID><methodID>AIC</methodID><horizontalSlowness><value>7.879728384060812</value></horizontalSlowness><backazimuth><value>11.195946706378663</value></backazimuth><phaseHint>P</phaseHint><evaluationMode>automatic</evaluationMode><comment><text>79.85780955806457</text><id>DFX:rectilinearity</id></comment><comment><text>38.642675934349853</text><id>SNR</id></comment></pick><pick publicID="de.gempa.tb1.Pick/20250413214910.586885.133976"><time><value>2025-04-13T21:49:01.558393Z</value></time><waveformID networkCode="CX" stationCode="PB06" channelCode="HHN"/><filterID>ITAPER(2)&gt;&gt;BW(3,3,20)</filterID><methodID>L2-AIC-GRID</methodID><horizontalSlowness><value>22.328295411203772</value></horizontalSlowness><backazimuth><value>25.67786996038447</value></backazimuth><phaseHint>S</phaseHint><evaluationMode>automatic</evaluationMode><comment><text>2334.8826550571225</text><id>DFX:rectilinearity</id></comment><comment><text>de.gempa.tb1.Pick/20250413214857.613396.133963</text><id>RefPickID</id></comment><comment><text>21.793082015867817</text><id>SNR</id></comment></pick><pick publicID="de.gempa.tb1.Pick/20250413214910.884619.133977"><time><value>2025-04-13T21:48:59.24Z</value></time><waveformID networkCode="CX" stationCode="PB09" channelCode="HHZ"/><filterID>ITAPER(4)&gt;&gt;BW(4,4,20)</filterID><methodID>AIC</methodID><horizontalSlowness><value>22.811329006858156</value></horizontalSlowness><backazimuth><value>66.08829080681618</value></backazimuth><phaseHint>P</phaseHint><evaluationMode>automatic</evaluationMode><comment><text>14.218390033539597</text><id>DFX:rectilinearity</id></comment><comment><text>63.70005555060963</text><id>SNR</id></comment></pick><pick publicID="de.gempa.tb1.Pick/20250413214912.518285.133979"><time><value>2025-04-13T21:49:04.988393Z</value></time><waveformID networkCode="CX" stationCode="PB01" channelCode="HHZ"/><filterID>ITAPER(4)&gt;&gt;BW(4,4,20)</filterID><methodID>AIC</methodID><horizontalSlowness><value>20.81290511774458</value></horizontalSlowness><backazimuth><value>281.513321210849</value></backazimuth><phaseHint>P</phaseHint><evaluationMode>automatic</evaluationMode><comment><text>9.381728456546595</text><id>DFX:rectilinearity</id></comment><comment><text>11.487537215760936</text><id>SNR</id></comment></pick><pick publicID="de.gempa.tb1.Pick/20250413214913.191738.133981"><time><value>2025-04-13T21:49:06.07Z</value></time><waveformID networkCode="CX" stationCode="PB10" channelCode="HHN"/><filterID>ITAPER(2)&gt;&gt;BW(3,3,20)</filterID><methodID>L2-AIC-GRID</methodID><horizontalSlowness><value>20.589868797499552</value></horizontalSlowness><backazimuth><value>115.86734669125585</value></backazimuth><phaseHint>S</phaseHint><evaluationMode>automatic</evaluationMode><comment><text>61.05340166095368</text><id>DFX:rectilinearity</id></comment><comment><text>de.gempa.tb1.Pick/20250413214859.170394.133967</text><id>RefPickID</id></comment><comment><text>5.613689499529567</text><id>SNR</id></comment></pick><pick publicID="de.gempa.tb1.Pick/20250413214914.791704.133984"><time><value>2025-04-13T21:49:03.178394Z</value></time><waveformID networkCode="CX" stationCode="PB03" channelCode="HHN"/><filterID>ITAPER(2)&gt;&gt;BW(3,3,20)</filterID><methodID>L2-AIC-GRID</methodID><horizontalSlowness><value>7.966512646859249</value></horizontalSlowness><backazimuth><value>106.60808038854901</value></backazimuth><phaseHint>S</phaseHint><evaluationMode>automatic</evaluationMode><comment><text>437.51309945761523</text><id>DFX:rectilinearity</id></comment><comment><text>de.gempa.tb1.Pick/20250413214858.681429.133965</text><id>RefPickID</id></comment><comment><text>11.073277632028475</text><id>SNR</id></comment></pick><pick publicID="de.gempa.tb1.Pick/20250413214914.904858.133985"><time><value>2025-04-13T21:49:08.158393Z</value></time><waveformID networkCode="CX" stationCode="PB15" channelCode="HHN"/><filterID>ITAPER(2)&gt;&gt;BW(3,3,20)</filterID><methodID>L2-AIC-GRID</methodID><horizontalSlowness><value>20.112269264558396</value></horizontalSlowness><backazimuth><value>55.39335803443423</value></backazimuth><phaseHint>S</phaseHint><evaluationMode>automatic</evaluationMode><comment><text>3624.0399965325</text><id>DFX:rectilinearity</id></comment><comment><text>de.gempa.tb1.Pick/20250413214901.709758.133969</text><id>RefPickID</id></comment><comment><text>9.890229860757044</text><id>SNR</id></comment></pick><pick publicID="de.gempa.tb1.Pick/20250413214925.572478.133989"><time><value>2025-04-13T21:48:54.278396Z</value></time><waveformID networkCode="CX" stationCode="PB07" channelCode="HHZ"/><filterID>ITAPER(4)&gt;&gt;BW(4,4,20)</filterID><methodID>AIC</methodID><horizontalSlowness><value>22.748011706563684</value></horizontalSlowness><backazimuth><value>301.12419151551586</value></backazimuth><phaseHint>P</phaseHint><evaluationMode>automatic</evaluationMode><comment><text>301.03953269009463</text><id>DFX:rectilinearity</id></comment><comment><text>45.41576481145528</text><id>SNR</id></comment></pick><origin publicID="de.gempa.tb1.Origin/20250413214926.193986.120027"><time><value>2025-04-13T21:48:37.268733Z</value><uncertainty>0.7478305697441101</uncertainty></time><latitude><value>-22.60586166381836</value><uncertainty>2.5347819328308105</uncertainty></latitude><longitude><value>-70.35928344726562</value><uncertainty>3.97821307182312</uncertainty></longitude><depth><value>39.46153259277344</value><uncertainty>19.17607879638672</uncertainty></depth><depthType>from location</depthType><methodID>LOCSAT</methodID><earthModelID>iasp91_scanloc</earthModelID><quality><associatedPhaseCount>13</associatedPhaseCount><usedPhaseCount>13</usedPhaseCount><associatedStationCount>9</associatedStationCount><usedStationCount>9</usedStationCount><depthPhaseCount>0</depthPhaseCount><standardError>0.3525167291908412</standardError><azimuthalGap>187.4629306793213</azimuthalGap><maximumDistance>1.7534019947052002</maximumDistance><minimumDistance>0.7341356873512268</minimumDistance><medianDistance>0.9787221550941467</medianDistance></quality><uncertainty><minHorizontalUncertainty>5.225906372070312</minHorizontalUncertainty><maxHorizontalUncertainty>8.658689498901367</maxHorizontalUncertainty><azimuthMaxHorizontalUncertainty>102.47599029541016</azimuthMaxHorizontalUncertainty><preferredDescription>horizontal uncertainty</preferredDescription></uncertainty><evaluationMode>automatic</evaluationMode><evaluationStatus>confirmed</evaluationStatus><comment><text>0.00</text><id>mismatchScore</id></comment><comment><text>mismatchScore</text><id>scevalMethod</id></comment><arrival><pickID>de.gempa.tb1.Pick/20250413214857.613396.133963</pickID><phase>P</phase><azimuth>97.9374008178711</azimuth><distance>0.7341356873512268</distance><timeResidual>-0.11273670196533203</timeResidual><timeUsed>true</timeUsed><horizontalSlownessUsed>false</horizontalSlownessUsed><backazimuthUsed>false</backazimuthUsed><weight>1</weight></arrival><arrival><pickID>de.gempa.tb1.Pick/20250413214858.681429.133965</pickID><phase>P</phase><azimuth>45.45122146606445</azimuth><distance>0.7891489863395691</distance><timeResidual>0.16832733154296875</timeResidual><timeUsed>true</timeUsed><horizontalSlownessUsed>false</horizontalSlownessUsed><backazimuthUsed>false</backazimuthUsed><weight>1</weight></arrival><arrival><pickID>de.gempa.tb1.Pick/20250413214859.170394.133967</pickID><phase>P</phase><azimuth>191.19554138183594</azimuth><distance>0.9209855198860168</distance><timeResidual>-0.09966659545898438</timeResidual><timeUsed>true</timeUsed><horizontalSlownessUsed>false</horizontalSlownessUsed><backazimuthUsed>false</backazimuthUsed><weight>1</weight></arrival><arrival><pickID>de.gempa.tb1.Pick/20250413214901.709758.133969</pickID><phase>P</phase><azimuth>126.37745666503906</azimuth><distance>1.0151633024215698</distance><timeResidual>-0.2805213928222656</timeResidual><timeUsed>true</timeUsed><horizontalSlownessUsed>false</horizontalSlownessUsed><backazimuthUsed>false</backazimuthUsed><weight>1</weight></arrival><arrival><pickID>de.gempa.tb1.Pick/20250413214906.460791.133971</pickID><phase>P</phase><azimuth>18.658472061157227</azimuth><distance>1.3502192497253418</distance><timeResidual>-0.281916618347168</timeResidual><timeUsed>true</timeUsed><horizontalSlownessUsed>false</horizontalSlownessUsed><backazimuthUsed>false</backazimuthUsed><weight>1</weight></arrival><arrival><pickID>de.gempa.tb1.Pick/20250413214909.596091.133973</pickID><phase>P</phase><azimuth>142.96734619140625</azimuth><distance>1.6240439414978027</distance><timeResidual>1.0155096054077148</timeResidual><timeUsed>true</timeUsed><horizontalSlownessUsed>false</horizontalSlownessUsed><backazimuthUsed>false</backazimuthUsed><weight>1</weight></arrival><arrival><pickID>de.gempa.tb1.Pick/20250413214910.586885.133976</pickID><phase>S</phase><azimuth>97.9374008178711</azimuth><distance>0.7341356873512268</distance><timeResidual>-0.10933113098144531</timeResidual><timeUsed>true</timeUsed><horizontalSlownessUsed>false</horizontalSlownessUsed><backazimuthUsed>false</backazimuthUsed><weight>1</weight></arrival><arrival><pickID>de.gempa.tb1.Pick/20250413214910.884619.133977</pickID><phase>P</phase><azimuth>52.32912445068359</azimuth><distance>1.311961531639099</distance><timeResidual>0.1276540756225586</timeResidual><timeUsed>true</timeUsed><horizontalSlownessUsed>false</horizontalSlownessUsed><backazimuthUsed>false</backazimuthUsed><weight>1</weight></arrival><arrival><pickID>de.gempa.tb1.Pick/20250413214912.518285.133979</pickID><phase>P</phase><azimuth>27.6809024810791</azimuth><distance>1.7534019947052002</distance><timeResidual>-0.1960468292236328</timeResidual><timeUsed>true</timeUsed><horizontalSlownessUsed>false</horizontalSlownessUsed><backazimuthUsed>false</backazimuthUsed><weight>1</weight></arrival><arrival><pickID>de.gempa.tb1.Pick/20250413214913.191738.133981</pickID><phase>S</phase><azimuth>191.19554138183594</azimuth><distance>0.9209855198860168</distance><timeResidual>-0.20833301544189453</timeResidual><timeUsed>true</timeUsed><horizontalSlownessUsed>false</horizontalSlownessUsed><backazimuthUsed>false</backazimuthUsed><weight>1</weight></arrival><arrival><pickID>de.gempa.tb1.Pick/20250413214914.791704.133984</pickID><phase>S</phase><azimuth>45.45122146606445</azimuth><distance>0.7891489863395691</distance><timeResidual>0.1431903839111328</timeResidual><timeUsed>true</timeUsed><horizontalSlownessUsed>false</horizontalSlownessUsed><backazimuthUsed>false</backazimuthUsed><weight>1</weight></arrival><arrival><pickID>de.gempa.tb1.Pick/20250413214914.904858.133985</pickID><phase>S</phase><azimuth>126.37745666503906</azimuth><distance>1.0151633024215698</distance><timeResidual>-0.4227867126464844</timeResidual><timeUsed>true</timeUsed><horizontalSlownessUsed>false</horizontalSlownessUsed><backazimuthUsed>false</backazimuthUsed><weight>1</weight></arrival><arrival><pickID>de.gempa.tb1.Pick/20250413214925.572478.133989</pickID><phase>P</phase><azimuth>26.710315704345703</azimuth><distance>0.9787221550941467</distance><timeResidual>-0.25639915466308594</timeResidual><timeUsed>true</timeUsed><horizontalSlownessUsed>false</horizontalSlownessUsed><backazimuthUsed>false</backazimuthUsed><weight>1</weight></arrival><magnitude publicID="de.gempa.tb1.Magnitude/20250413214930.937983.405718"><magnitude><value>2.5320871173144743</value></magnitude><type>M</type><methodID>weighted average</methodID><stationCount>7</stationCount></magnitude></origin><event publicID="gempa2025hibw"><preferredOriginID>de.gempa.tb1.Origin/20250413214926.193986.120027</preferredOriginID><preferredMagnitudeID>de.gempa.tb1.Magnitude/20250413214930.937983.405718</preferredMagnitudeID><description><text>Near Coast of Northern Chile</text><type>region name</type></description><originReference>de.gempa.tb1.Origin/20250413214926.193986.120027</originReference></event></EventParameters></seiscomp>