<?xml version="1.0" encoding="UTF-8"?>
<seiscomp xmlns="http://geofon.gfz-potsdam.de/ns/seiscomp3-schema/0.13" version="0.13"><EventParameters><pick publicID="de.gempa.tb1.Pick/20250412063250.526459.122497"><time><value>2025-04-12T06:32:45.21Z</value></time><waveformID networkCode="CX" stationCode="PB19" channelCode="HHZ"/><filterID>ITAPER(4)&gt;&gt;BW(4,4,20)</filterID><methodID>AIC</methodID><horizontalSlowness><value>5.593095914597943</value></horizontalSlowness><backazimuth><value>131.33203705531997</value></backazimuth><phaseHint>P</phaseHint><evaluationMode>automatic</evaluationMode><comment><text>52.95668266437676</text><id>DFX:rectilinearity</id></comment><comment><text>77.86084270736501</text><id>SNR</id></comment></pick><pick publicID="de.gempa.tb1.Pick/20250412063253.846452.122500"><time><value>2025-04-12T06:32:47.838393Z</value></time><waveformID networkCode="CX" stationCode="PB15" channelCode="HHZ"/><filterID>ITAPER(4)&gt;&gt;BW(4,4,20)</filterID><methodID>AIC</methodID><horizontalSlowness><value>17.94466117152126</value></horizontalSlowness><backazimuth><value>111.12714520687508</value></backazimuth><phaseHint>P</phaseHint><evaluationMode>automatic</evaluationMode><comment><text>819.3625082800276</text><id>DFX:rectilinearity</id></comment><comment><text>128.58306018829381</text><id>SNR</id></comment></pick><pick publicID="de.gempa.tb1.Pick/20250412063257.581703.122502"><time><value>2025-04-12T06:32:50.798393Z</value></time><waveformID networkCode="CX" stationCode="PB06" channelCode="HHZ"/><filterID>ITAPER(4)&gt;&gt;BW(4,4,20)</filterID><methodID>AIC</methodID><horizontalSlowness><value>7.721857914492291</value></horizontalSlowness><backazimuth><value>134.42355341893295</value></backazimuth><phaseHint>P</phaseHint><evaluationMode>automatic</evaluationMode><comment><text>96.41486413243572</text><id>DFX:rectilinearity</id></comment><comment><text>182.36704960839714</text><id>SNR</id></comment></pick><pick publicID="de.gempa.tb1.Pick/20250412063301.642695.122504"><time><value>2025-04-12T06:32:54.66Z</value></time><waveformID networkCode="CX" stationCode="PB09" channelCode="HHZ"/><filterID>ITAPER(4)&gt;&gt;BW(4,4,20)</filterID><methodID>AIC</methodID><horizontalSlowness><value>20.69460970583206</value></horizontalSlowness><backazimuth><value>135.2706408044124</value></backazimuth><phaseHint>P</phaseHint><evaluationMode>automatic</evaluationMode><comment><text>40.92907603781166</text><id>DFX:rectilinearity</id></comment><comment><text>160.26495825388426</text><id>SNR</id></comment></pick><pick publicID="de.gempa.tb1.Pick/20250412063301.676753.122506"><time><value>2025-04-12T06:32:56.158393Z</value></time><waveformID networkCode="CX" stationCode="PB03" channelCode="HHZ"/><filterID>ITAPER(4)&gt;&gt;BW(4,4,20)</filterID><methodID>AIC</methodID><horizontalSlowness><value>8.352674010025327</value></horizontalSlowness><backazimuth><value>149.57833509291584</value></backazimuth><phaseHint>P</phaseHint><evaluationMode>automatic</evaluationMode><comment><text>45.34708817528688</text><id>DFX:rectilinearity</id></comment><comment><text>172.57752202679808</text><id>SNR</id></comment></pick><pick publicID="de.gempa.tb1.Pick/20250412063304.363538.122508"><time><value>2025-04-12T06:32:57.71Z</value></time><waveformID networkCode="CX" stationCode="PB10" channelCode="HHZ"/><filterID>ITAPER(4)&gt;&gt;BW(4,4,20)</filterID><methodID>AIC</methodID><horizontalSlowness><value>7.710650787591042</value></horizontalSlowness><backazimuth><value>101.66600223322683</value></backazimuth><phaseHint>P</phaseHint><evaluationMode>automatic</evaluationMode><comment><text>250.4773574489784</text><id>DFX:rectilinearity</id></comment><comment><text>29.511873335369675</text><id>SNR</id></comment></pick><pick publicID="de.gempa.tb1.Pick/20250412063308.493721.122510"><time><value>2025-04-12T06:33:02.778393Z</value></time><waveformID networkCode="CX" stationCode="PB02" channelCode="HHZ"/><filterID>ITAPER(4)&gt;&gt;BW(4,4,20)</filterID><methodID>AIC</methodID><horizontalSlowness><value>2.632282694101463</value></horizontalSlowness><backazimuth><value>143.16578114799267</value></backazimuth><phaseHint>P</phaseHint><evaluationMode>automatic</evaluationMode><comment><text>66.33484526789668</text><id>DFX:rectilinearity</id></comment><comment><text>64.95197940808602</text><id>SNR</id></comment></pick><pick publicID="de.gempa.tb1.Pick/20250412063309.544709.122512"><time><value>2025-04-12T06:33:01.988393Z</value></time><waveformID networkCode="CX" stationCode="PB01" channelCode="HHZ"/><filterID>ITAPER(4)&gt;&gt;BW(4,4,20)</filterID><methodID>AIC</methodID><horizontalSlowness><value>4.4470028349607906</value></horizontalSlowness><backazimuth><value>303.76003934361927</value></backazimuth><phaseHint>P</phaseHint><evaluationMode>automatic</evaluationMode><comment><text>25.21885533307813</text><id>DFX:rectilinearity</id></comment><comment><text>73.51252801041213</text><id>SNR</id></comment></pick><pick publicID="de.gempa.tb1.Pick/20250412063315.238308.122514"><time><value>2025-04-12T06:33:09.019999Z</value></time><waveformID networkCode="CX" stationCode="PATCX" channelCode="HHZ"/><filterID>ITAPER(4)&gt;&gt;BW(4,4,20)</filterID><methodID>AIC</methodID><horizontalSlowness><value>21.835448754683835</value></horizontalSlowness><backazimuth><value>71.52530348888558</value></backazimuth><phaseHint>P</phaseHint><evaluationMode>automatic</evaluationMode><comment><text>304.77852902449416</text><id>DFX:rectilinearity</id></comment><comment><text>9.269265357173227</text><id>SNR</id></comment></pick><pick publicID="de.gempa.tb1.Pick/20250412063317.765697.122516"><time><value>2025-04-12T06:32:59.478393Z</value></time><waveformID networkCode="CX" stationCode="PB07" channelCode="HHZ"/><filterID>ITAPER(4)&gt;&gt;BW(4,4,20)</filterID><methodID>AIC</methodID><horizontalSlowness><value>18.435336859509416</value></horizontalSlowness><backazimuth><value>159.17529484397562</value></backazimuth><phaseHint>P</phaseHint><evaluationMode>automatic</evaluationMode><comment><text>421.05433277208493</text><id>DFX:rectilinearity</id></comment><comment><text>241.79723506039355</text><id>SNR</id></comment></pick><pick publicID="de.gempa.tb1.Pick/20250412063327.559973.122519"><time><value>2025-04-12T06:33:19.76Z</value></time><waveformID networkCode="CX" stationCode="PSGCX" channelCode="HHZ"/><filterID>ITAPER(4)&gt;&gt;BW(4,4,20)</filterID><methodID>AIC</methodID><horizontalSlowness><value>21.38287415954258</value></horizontalSlowness><backazimuth><value>260.57509444844163</value></backazimuth><phaseHint>P</phaseHint><evaluationMode>automatic</evaluationMode><comment><text>14.18468618693064</text><id>DFX:rectilinearity</id></comment><comment><text>19.484132811594506</text><id>SNR</id></comment></pick><pick publicID="de.gempa.tb1.Pick/20250412063329.024118.122521"><time><value>2025-04-12T06:33:21.418393Z</value></time><waveformID networkCode="CX" stationCode="PB15" channelCode="HHN"/><filterID>ITAPER(2)&gt;&gt;BW(3,3,20)</filterID><methodID>L2-AIC-GRID</methodID><horizontalSlowness><value>20.29019664739915</value></horizontalSlowness><backazimuth><value>102.63305850700705</value></backazimuth><phaseHint>S</phaseHint><evaluationMode>automatic</evaluationMode><comment><text>183957.79514209583</text><id>DFX:rectilinearity</id></comment><comment><text>de.gempa.tb1.Pick/20250412063253.846452.122500</text><id>RefPickID</id></comment><comment><text>9.328349597010565</text><id>SNR</id></comment></pick><pick publicID="de.gempa.tb1.Pick/20250412063332.619148.122523"><time><value>2025-04-12T06:33:26.298393Z</value></time><waveformID networkCode="CX" stationCode="PB06" channelCode="HHN"/><filterID>ITAPER(2)&gt;&gt;BW(3,3,20)</filterID><methodID>L2-AIC-GRID</methodID><horizontalSlowness><value>19.915747500475248</value></horizontalSlowness><backazimuth><value>297.5714254532928</value></backazimuth><phaseHint>S</phaseHint><evaluationMode>automatic</evaluationMode><comment><text>5263.65766204617</text><id>DFX:rectilinearity</id></comment><comment><text>de.gempa.tb1.Pick/20250412063257.581703.122502</text><id>RefPickID</id></comment><comment><text>15.954040530228097</text><id>SNR</id></comment></pick><pick publicID="de.gempa.tb1.Pick/20250412063343.764614.122524"><time><value>2025-04-12T06:33:36.058393Z</value></time><waveformID networkCode="CX" stationCode="PB03" channelCode="HHN"/><filterID>ITAPER(2)&gt;&gt;BW(3,3,20)</filterID><methodID>L2-AIC-GRID</methodID><horizontalSlowness><value>12.697573631127938</value></horizontalSlowness><backazimuth><value>309.781943800608</value></backazimuth><phaseHint>S</phaseHint><evaluationMode>automatic</evaluationMode><comment><text>1690.6608357224275</text><id>DFX:rectilinearity</id></comment><comment><text>de.gempa.tb1.Pick/20250412063301.676753.122506</text><id>RefPickID</id></comment><comment><text>14.450600234775644</text><id>SNR</id></comment></pick><pick publicID="de.gempa.tb1.Pick/20250412063346.33879.122527"><time><value>2025-04-12T06:33:38.94Z</value></time><waveformID networkCode="CX" stationCode="PB10" channelCode="HHN"/><filterID>ITAPER(2)&gt;&gt;BW(3,3,20)</filterID><methodID>L2-AIC-GRID</methodID><horizontalSlowness><value>20.301903564755069</value></horizontalSlowness><backazimuth><value>280.05087350038377</value></backazimuth><phaseHint>S</phaseHint><evaluationMode>automatic</evaluationMode><comment><text>727.7509198681338</text><id>DFX:rectilinearity</id></comment><comment><text>de.gempa.tb1.Pick/20250412063304.363538.122508</text><id>RefPickID</id></comment><comment><text>8.725692667988117</text><id>SNR</id></comment></pick><pick publicID="de.gempa.tb1.Pick/20250412063350.579377.122528"><time><value>2025-04-12T06:33:41.668393Z</value></time><waveformID networkCode="CX" stationCode="PB07" channelCode="HHN"/><filterID>ITAPER(2)&gt;&gt;BW(3,3,20)</filterID><methodID>L2-AIC-GRID</methodID><horizontalSlowness><value>22.551174525288836</value></horizontalSlowness><backazimuth><value>265.30816469672345</value></backazimuth><phaseHint>S</phaseHint><evaluationMode>automatic</evaluationMode><comment><text>26819.36117818345</text><id>DFX:rectilinearity</id></comment><comment><text>de.gempa.tb1.Pick/20250412063317.765697.122516</text><id>RefPickID</id></comment><comment><text>6.55775182458127</text><id>SNR</id></comment></pick><origin publicID="de.gempa.tb1.Origin/20250412063350.583588.77005"><time><value>2025-04-12T06:32:05.827657Z</value><uncertainty>0.8472476601600647</uncertainty></time><latitude><value>-23.793031692504883</value><uncertainty>6.995089530944824</uncertainty></latitude><longitude><value>-67.27129364013672</value><uncertainty>13.534564971923828</uncertainty></longitude><depth><value>233.38885498046875</value><uncertainty>15.593952178955078</uncertainty></depth><depthType>from location</depthType><methodID>LOCSAT</methodID><earthModelID>iasp91_scanloc</earthModelID><quality><associatedPhaseCount>16</associatedPhaseCount><usedPhaseCount>16</usedPhaseCount><associatedStationCount>11</associatedStationCount><usedStationCount>11</usedStationCount><depthPhaseCount>0</depthPhaseCount><standardError>0.3007610807472284</standardError><azimuthalGap>299.11004638671875</azimuthalGap><maximumDistance>4.946027278900146</maximumDistance><minimumDistance>1.852278232574463</minimumDistance><medianDistance>3.023002624511719</medianDistance></quality><uncertainty><minHorizontalUncertainty>14.992490768432617</minHorizontalUncertainty><maxHorizontalUncertainty>29.01478576660156</maxHorizontalUncertainty><azimuthMaxHorizontalUncertainty>89.35892486572266</azimuthMaxHorizontalUncertainty><preferredDescription>horizontal uncertainty</preferredDescription></uncertainty><evaluationMode>automatic</evaluationMode><evaluationStatus>confirmed</evaluationStatus><comment><text>0.02</text><id>mismatchScore</id></comment><comment><text>mismatchScore</text><id>scevalMethod</id></comment><arrival><pickID>de.gempa.tb1.Pick/20250412063250.526459.122497</pickID><phase>P</phase><azimuth>266.15130615234375</azimuth><distance>1.852278232574463</distance><timeResidual>-0.4127616882324219</timeResidual><timeUsed>true</timeUsed><horizontalSlownessUsed>false</horizontalSlownessUsed><backazimuthUsed>false</backazimuthUsed><weight>1</weight></arrival><arrival><pickID>de.gempa.tb1.Pick/20250412063253.846452.122500</pickID><phase>P</phase><azimuth>285.6401672363281</azimuth><distance>2.1014902591705322</distance><timeResidual>-0.13077163696289062</timeResidual><timeUsed>true</timeUsed><horizontalSlownessUsed>false</horizontalSlownessUsed><backazimuthUsed>false</backazimuthUsed><weight>1</weight></arrival><arrival><pickID>de.gempa.tb1.Pick/20250412063257.581703.122502</pickID><phase>P</phase><azimuth>296.63232421875</azimuth><distance>2.376589298248291</distance><timeResidual>0.09277725219726562</timeResidual><timeUsed>true</timeUsed><horizontalSlownessUsed>false</horizontalSlownessUsed><backazimuthUsed>false</backazimuthUsed><weight>1</weight></arrival><arrival><pickID>de.gempa.tb1.Pick/20250412063301.642695.122504</pickID><phase>P</phase><azimuth>317.15460205078125</azimuth><distance>2.6936535835266113</distance><timeResidual>0.6199989318847656</timeResidual><timeUsed>true</timeUsed><horizontalSlownessUsed>false</horizontalSlownessUsed><backazimuthUsed>false</backazimuthUsed><weight>1</weight></arrival><arrival><pickID>de.gempa.tb1.Pick/20250412063301.676753.122506</pickID><phase>P</phase><azimuth>306.7073974609375</azimuth><distance>2.872290849685669</distance><timeResidual>0.18831253051757812</timeResidual><timeUsed>true</timeUsed><horizontalSlownessUsed>false</horizontalSlownessUsed><backazimuthUsed>false</backazimuthUsed><weight>1</weight></arrival><arrival><pickID>de.gempa.tb1.Pick/20250412063304.363538.122508</pickID><phase>P</phase><azimuth>274.62615966796875</azimuth><distance>3.023002624511719</distance><timeResidual>0.09487152099609375</timeResidual><timeUsed>true</timeUsed><horizontalSlownessUsed>false</horizontalSlownessUsed><backazimuthUsed>false</backazimuthUsed><weight>1</weight></arrival><arrival><pickID>de.gempa.tb1.Pick/20250412063308.493721.122510</pickID><phase>P</phase><azimuth>314.9052734375</azimuth><distance>3.456143856048584</distance><timeResidual>0.19256210327148438</timeResidual><timeUsed>true</timeUsed><horizontalSlownessUsed>false</horizontalSlownessUsed><backazimuthUsed>false</backazimuthUsed><weight>1</weight></arrival><arrival><pickID>de.gempa.tb1.Pick/20250412063309.544709.122512</pickID><phase>P</phase><azimuth>322.7294921875</azimuth><distance>3.4195470809936523</distance><timeResidual>-0.17837142944335938</timeResidual><timeUsed>true</timeUsed><horizontalSlownessUsed>false</horizontalSlownessUsed><backazimuthUsed>false</backazimuthUsed><weight>1</weight></arrival><arrival><pickID>de.gempa.tb1.Pick/20250412063315.238308.122514</pickID><phase>P</phase><azimuth>317.39337158203125</azimuth><distance>3.983563184738159</distance><timeResidual>0.2509498596191406</timeResidual><timeUsed>true</timeUsed><horizontalSlownessUsed>false</horizontalSlownessUsed><backazimuthUsed>false</backazimuthUsed><weight>1</weight></arrival><arrival><pickID>de.gempa.tb1.Pick/20250412063317.765697.122516</pickID><phase>P</phase><azimuth>309.9239501953125</azimuth><distance>3.1708881855010986</distance><timeResidual>0.16711807250976562</timeResidual><timeUsed>true</timeUsed><horizontalSlownessUsed>false</horizontalSlownessUsed><backazimuthUsed>false</backazimuthUsed><weight>1</weight></arrival><arrival><pickID>de.gempa.tb1.Pick/20250412063327.559973.122519</pickID><phase>P</phase><azimuth>327.041259765625</azimuth><distance>4.946027278900146</distance><timeResidual>-0.7436141967773438</timeResidual><timeUsed>true</timeUsed><horizontalSlownessUsed>false</horizontalSlownessUsed><backazimuthUsed>false</backazimuthUsed><weight>1</weight></arrival><arrival><pickID>de.gempa.tb1.Pick/20250412063329.024118.122521</pickID><phase>S</phase><azimuth>285.6401672363281</azimuth><distance>2.1014902591705322</distance><timeResidual>-0.04044342041015625</timeResidual><timeUsed>true</timeUsed><horizontalSlownessUsed>false</horizontalSlownessUsed><backazimuthUsed>false</backazimuthUsed><weight>1</weight></arrival><arrival><pickID>de.gempa.tb1.Pick/20250412063332.619148.122523</pickID><phase>S</phase><azimuth>296.63232421875</azimuth><distance>2.376589298248291</distance><timeResidual>-0.09375381469726562</timeResidual><timeUsed>true</timeUsed><horizontalSlownessUsed>false</horizontalSlownessUsed><backazimuthUsed>false</backazimuthUsed><weight>1</weight></arrival><arrival><pickID>de.gempa.tb1.Pick/20250412063343.764614.122524</pickID><phase>S</phase><azimuth>306.7073974609375</azimuth><distance>2.872290849685669</distance><timeResidual>0.169586181640625</timeResidual><timeUsed>true</timeUsed><horizontalSlownessUsed>false</horizontalSlownessUsed><backazimuthUsed>false</backazimuthUsed><weight>1</weight></arrival><arrival><pickID>de.gempa.tb1.Pick/20250412063346.33879.122527</pickID><phase>S</phase><azimuth>274.62615966796875</azimuth><distance>3.023002624511719</distance><timeResidual>0.0775604248046875</timeResidual><timeUsed>true</timeUsed><horizontalSlownessUsed>false</horizontalSlownessUsed><backazimuthUsed>false</backazimuthUsed><weight>1</weight></arrival><arrival><pickID>de.gempa.tb1.Pick/20250412063350.579377.122528</pickID><phase>S</phase><azimuth>309.9239501953125</azimuth><distance>3.1708881855010986</distance><timeResidual>-0.25379180908203125</timeResidual><timeUsed>true</timeUsed><horizontalSlownessUsed>false</horizontalSlownessUsed><backazimuthUsed>false</backazimuthUsed><weight>1</weight></arrival><magnitude publicID="de.gempa.tb1.Magnitude/20250412063350.938852.188338"><magnitude><value>3.6773248089611554</value></magnitude><type>M</type><methodID>weighted average</methodID><stationCount>8</stationCount></magnitude></origin><event publicID="gempa2025hfbh"><preferredOriginID>de.gempa.tb1.Origin/20250412063350.583588.77005</preferredOriginID><preferredMagnitudeID>de.gempa.tb1.Magnitude/20250412063350.938852.188338</preferredMagnitudeID><description><text>Chile-Argentina Border Region</text><type>region name</type></description><originReference>de.gempa.tb1.Origin/20250412063350.583588.77005</originReference></event></EventParameters></seiscomp>