<?xml version="1.0" encoding="UTF-8"?>
<seiscomp xmlns="http://geofon.gfz-potsdam.de/ns/seiscomp3-schema/0.13" version="0.13"><EventParameters><pick publicID="de.gempa.tb1.Pick/20250412172014.692984.125455"><time><value>2025-04-12T17:20:09.318393Z</value></time><waveformID networkCode="CX" stationCode="PB15" channelCode="HHZ"/><filterID>ITAPER(4)&gt;&gt;BW(4,4,20)</filterID><methodID>AIC</methodID><horizontalSlowness><value>23.56854769479949</value></horizontalSlowness><backazimuth><value>309.64230326339543</value></backazimuth><phaseHint>P</phaseHint><evaluationMode>automatic</evaluationMode><comment><text>183.6961038540259</text><id>DFX:rectilinearity</id></comment><comment><text>19.122059262667381</text><id>SNR</id></comment></pick><pick publicID="de.gempa.tb1.Pick/20250412172017.589411.125457"><time><value>2025-04-12T17:20:10.478393Z</value></time><waveformID networkCode="CX" stationCode="PB06" channelCode="HHZ"/><filterID>ITAPER(4)&gt;&gt;BW(4,4,20)</filterID><methodID>AIC</methodID><horizontalSlowness><value>9.928492870999639</value></horizontalSlowness><backazimuth><value>258.23499311545106</value></backazimuth><phaseHint>P</phaseHint><evaluationMode>automatic</evaluationMode><comment><text>57.59874446418038</text><id>DFX:rectilinearity</id></comment><comment><text>7.738360427679445</text><id>SNR</id></comment></pick><pick publicID="de.gempa.tb1.Pick/20250412172019.539318.125459"><time><value>2025-04-12T17:20:12.79Z</value></time><waveformID networkCode="CX" stationCode="PB19" channelCode="HHZ"/><filterID>ITAPER(4)&gt;&gt;BW(4,4,20)</filterID><methodID>AIC</methodID><horizontalSlowness><value>18.345623668620078</value></horizontalSlowness><backazimuth><value>257.77150247013265</value></backazimuth><phaseHint>P</phaseHint><evaluationMode>automatic</evaluationMode><comment><text>28.18840232533028</text><id>DFX:rectilinearity</id></comment><comment><text>9.293464774256453</text><id>SNR</id></comment></pick><pick publicID="de.gempa.tb1.Pick/20250412172025.570996.125461"><time><value>2025-04-12T17:20:17.038393Z</value></time><waveformID networkCode="CX" stationCode="PB03" channelCode="HHZ"/><filterID>ITAPER(4)&gt;&gt;BW(4,4,20)</filterID><methodID>AIC</methodID><horizontalSlowness><value>12.189607366113044</value></horizontalSlowness><backazimuth><value>243.249694259213</value></backazimuth><phaseHint>P</phaseHint><evaluationMode>automatic</evaluationMode><comment><text>14.022946371951466</text><id>DFX:rectilinearity</id></comment><comment><text>13.978273803795743</text><id>SNR</id></comment></pick><pick publicID="de.gempa.tb1.Pick/20250412172027.316966.125463"><time><value>2025-04-12T17:20:17.14Z</value></time><waveformID networkCode="CX" stationCode="PB09" channelCode="HHZ"/><filterID>ITAPER(4)&gt;&gt;BW(4,4,20)</filterID><methodID>AIC</methodID><horizontalSlowness><value>19.920144562072263</value></horizontalSlowness><backazimuth><value>135.35892036305447</value></backazimuth><phaseHint>P</phaseHint><evaluationMode>automatic</evaluationMode><comment><text>9.020419998099518</text><id>DFX:rectilinearity</id></comment><comment><text>11.30564921992237</text><id>SNR</id></comment></pick><pick publicID="de.gempa.tb1.Pick/20250412172028.777774.125467"><time><value>2025-04-12T17:20:21.138393Z</value></time><waveformID networkCode="CX" stationCode="PB07" channelCode="HHZ"/><filterID>ITAPER(4)&gt;&gt;BW(4,4,20)</filterID><methodID>AIC</methodID><horizontalSlowness><value>23.174394192406197</value></horizontalSlowness><backazimuth><value>131.59811678136572</value></backazimuth><phaseHint>P</phaseHint><evaluationMode>automatic</evaluationMode><comment><text>165.6478833299531</text><id>DFX:rectilinearity</id></comment><comment><text>26.74352029114407</text><id>SNR</id></comment></pick><pick publicID="de.gempa.tb1.Pick/20250412172029.747556.125469"><time><value>2025-04-12T17:20:22.638393Z</value></time><waveformID networkCode="CX" stationCode="PB15" channelCode="HHN"/><filterID>ITAPER(2)&gt;&gt;BW(3,3,20)</filterID><methodID>L2-AIC-GRID</methodID><horizontalSlowness><value>19.89456120704837</value></horizontalSlowness><backazimuth><value>122.19902959783096</value></backazimuth><phaseHint>S</phaseHint><evaluationMode>automatic</evaluationMode><comment><text>549.9722818767179</text><id>DFX:rectilinearity</id></comment><comment><text>de.gempa.tb1.Pick/20250412172014.692984.125455</text><id>RefPickID</id></comment><comment><text>7.728076955554896</text><id>SNR</id></comment></pick><pick publicID="de.gempa.tb1.Pick/20250412172034.664513.125470"><time><value>2025-04-12T17:20:26.128391Z</value></time><waveformID networkCode="CX" stationCode="PB02" channelCode="HHZ"/><filterID>ITAPER(4)&gt;&gt;BW(4,4,20)</filterID><methodID>AIC</methodID><horizontalSlowness><value>20.054019751927296</value></horizontalSlowness><backazimuth><value>60.84117231004767</value></backazimuth><phaseHint>P</phaseHint><evaluationMode>automatic</evaluationMode><comment><text>31.85149462766463</text><id>DFX:rectilinearity</id></comment><comment><text>10.402999989433532</text><id>SNR</id></comment></pick><pick publicID="de.gempa.tb1.Pick/20250412172035.658755.125472"><time><value>2025-04-12T17:20:24.178393Z</value></time><waveformID networkCode="CX" stationCode="PB06" channelCode="HHN"/><filterID>ITAPER(2)&gt;&gt;BW(3,3,20)</filterID><methodID>L2-AIC-GRID</methodID><horizontalSlowness><value>21.636113908326145</value></horizontalSlowness><backazimuth><value>323.0826222980729</value></backazimuth><phaseHint>S</phaseHint><evaluationMode>automatic</evaluationMode><comment><text>106.29483183990166</text><id>DFX:rectilinearity</id></comment><comment><text>de.gempa.tb1.Pick/20250412172017.589411.125457</text><id>RefPickID</id></comment><comment><text>15.135639377445823</text><id>SNR</id></comment></pick><pick publicID="de.gempa.tb1.Pick/20250412172036.659876.125473"><time><value>2025-04-12T17:20:27.92Z</value></time><waveformID networkCode="CX" stationCode="PB19" channelCode="HHN"/><filterID>ITAPER(2)&gt;&gt;BW(3,3,20)</filterID><methodID>L2-AIC-GRID</methodID><horizontalSlowness><value>22.435995256863087</value></horizontalSlowness><backazimuth><value>305.9449660639723</value></backazimuth><phaseHint>S</phaseHint><evaluationMode>automatic</evaluationMode><comment><text>77.44862360221876</text><id>DFX:rectilinearity</id></comment><comment><text>de.gempa.tb1.Pick/20250412172019.539318.125459</text><id>RefPickID</id></comment><comment><text>12.838901563811866</text><id>SNR</id></comment></pick><pick publicID="de.gempa.tb1.Pick/20250412172037.504425.125474"><time><value>2025-04-12T17:20:27.978393Z</value></time><waveformID networkCode="CX" stationCode="PB01" channelCode="HHZ"/><filterID>ITAPER(4)&gt;&gt;BW(4,4,20)</filterID><methodID>AIC</methodID><horizontalSlowness><value>22.844207869207946</value></horizontalSlowness><backazimuth><value>227.25331769374205</value></backazimuth><phaseHint>P</phaseHint><evaluationMode>automatic</evaluationMode><comment><text>14.346586893588537</text><id>DFX:rectilinearity</id></comment><comment><text>5.790140047873655</text><id>SNR</id></comment></pick><origin publicID="de.gempa.tb1.Origin/20250412172037.508849.87881"><time><value>2025-04-12T17:19:53.564822Z</value><uncertainty>0.862339198589325</uncertainty></time><latitude><value>-23.070714950561523</value><uncertainty>6.064704895019531</uncertainty></latitude><longitude><value>-68.91193389892578</value><uncertainty>23.741004943847656</uncertainty></longitude><depth><value>100.15365600585938</value><uncertainty>17.596712112426758</uncertainty></depth><depthType>from location</depthType><methodID>LOCSAT</methodID><earthModelID>iasp91_scanloc</earthModelID><quality><associatedPhaseCount>11</associatedPhaseCount><usedPhaseCount>11</usedPhaseCount><associatedStationCount>8</associatedStationCount><usedStationCount>8</usedStationCount><depthPhaseCount>0</depthPhaseCount><standardError>0.4140375529154743</standardError><azimuthalGap>216.24740600585938</azimuthalGap><maximumDistance>2.0871286392211914</maximumDistance><minimumDistance>0.5324645638465881</minimumDistance><medianDistance>0.9001086950302124</medianDistance></quality><uncertainty><minHorizontalUncertainty>9.00294303894043</minHorizontalUncertainty><maxHorizontalUncertainty>51.7640380859375</maxHorizontalUncertainty><azimuthMaxHorizontalUncertainty>79.39216613769531</azimuthMaxHorizontalUncertainty><preferredDescription>horizontal uncertainty</preferredDescription></uncertainty><evaluationMode>automatic</evaluationMode><evaluationStatus>confirmed</evaluationStatus><comment><text>0.03</text><id>mismatchScore</id></comment><comment><text>mismatchScore</text><id>scevalMethod</id></comment><arrival><pickID>de.gempa.tb1.Pick/20250412172014.692984.125455</pickID><phase>P</phase><azimuth>254.9833679199219</azimuth><distance>0.5324645638465881</distance><timeResidual>-0.27556514739990234</timeResidual><timeUsed>true</timeUsed><horizontalSlownessUsed>false</horizontalSlownessUsed><backazimuthUsed>false</backazimuthUsed><weight>1</weight></arrival><arrival><pickID>de.gempa.tb1.Pick/20250412172017.589411.125457</pickID><phase>P</phase><azimuth>300.70050048828125</azimuth><distance>0.7087355256080627</distance><timeResidual>-0.5879716873168945</timeResidual><timeUsed>true</timeUsed><horizontalSlownessUsed>false</horizontalSlownessUsed><backazimuthUsed>false</backazimuthUsed><weight>1</weight></arrival><arrival><pickID>de.gempa.tb1.Pick/20250412172019.539318.125459</pickID><phase>P</phase><azimuth>202.64920043945312</azimuth><distance>0.9001086950302124</distance><timeResidual>-0.13550662994384766</timeResidual><timeUsed>true</timeUsed><horizontalSlownessUsed>false</horizontalSlownessUsed><backazimuthUsed>false</backazimuthUsed><weight>1</weight></arrival><arrival><pickID>de.gempa.tb1.Pick/20250412172025.570996.125461</pickID><phase>P</phase><azimuth>322.4493103027344</azimuth><distance>1.2805004119873047</distance><timeResidual>-0.13845443725585938</timeResidual><timeUsed>true</timeUsed><horizontalSlownessUsed>false</horizontalSlownessUsed><backazimuthUsed>false</backazimuthUsed><weight>1</weight></arrival><arrival><pickID>de.gempa.tb1.Pick/20250412172027.316966.125463</pickID><phase>P</phase><azimuth>346.40179443359375</azimuth><distance>1.3044989109039307</distance><timeResidual>-0.321986198425293</timeResidual><timeUsed>true</timeUsed><horizontalSlownessUsed>false</horizontalSlownessUsed><backazimuthUsed>false</backazimuthUsed><weight>1</weight></arrival><arrival><pickID>de.gempa.tb1.Pick/20250412172028.777774.125467</pickID><phase>P</phase><azimuth>325.8328857421875</azimuth><distance>1.6131125688552856</distance><timeResidual>-0.08783817291259766</timeResidual><timeUsed>true</timeUsed><horizontalSlownessUsed>false</horizontalSlownessUsed><backazimuthUsed>false</backazimuthUsed><weight>1</weight></arrival><arrival><pickID>de.gempa.tb1.Pick/20250412172029.747556.125469</pickID><phase>S</phase><azimuth>254.9833679199219</azimuth><distance>0.5324645638465881</distance><timeResidual>0.7225713729858398</timeResidual><timeUsed>true</timeUsed><horizontalSlownessUsed>false</horizontalSlownessUsed><backazimuthUsed>false</backazimuthUsed><weight>1</weight></arrival><arrival><pickID>de.gempa.tb1.Pick/20250412172034.664513.125470</pickID><phase>P</phase><azimuth>332.186767578125</azimuth><distance>1.9668028354644775</distance><timeResidual>0.411046028137207</timeResidual><timeUsed>true</timeUsed><horizontalSlownessUsed>false</horizontalSlownessUsed><backazimuthUsed>false</backazimuthUsed><weight>1</weight></arrival><arrival><pickID>de.gempa.tb1.Pick/20250412172035.658755.125472</pickID><phase>S</phase><azimuth>300.70050048828125</azimuth><distance>0.7087355256080627</distance><timeResidual>-0.35737133026123047</timeResidual><timeUsed>true</timeUsed><horizontalSlownessUsed>false</horizontalSlownessUsed><backazimuthUsed>false</backazimuthUsed><weight>1</weight></arrival><arrival><pickID>de.gempa.tb1.Pick/20250412172036.659876.125473</pickID><phase>S</phase><azimuth>202.64920043945312</azimuth><distance>0.9001086950302124</distance><timeResidual>0.0698537826538086</timeResidual><timeUsed>true</timeUsed><horizontalSlownessUsed>false</horizontalSlownessUsed><backazimuthUsed>false</backazimuthUsed><weight>1</weight></arrival><arrival><pickID>de.gempa.tb1.Pick/20250412172037.504425.125474</pickID><phase>P</phase><azimuth>345.0719299316406</azimuth><distance>2.0871286392211914</distance><timeResidual>0.7010469436645508</timeResidual><timeUsed>true</timeUsed><horizontalSlownessUsed>false</horizontalSlownessUsed><backazimuthUsed>false</backazimuthUsed><weight>1</weight></arrival><magnitude publicID="de.gempa.tb1.Magnitude/20250412172040.937104.257046"><magnitude><value>2.547368420483757</value></magnitude><type>M</type><methodID>weighted average</methodID><stationCount>6</stationCount></magnitude></origin><event publicID="gempa2025hfwx"><preferredOriginID>de.gempa.tb1.Origin/20250412172037.508849.87881</preferredOriginID><preferredMagnitudeID>de.gempa.tb1.Magnitude/20250412172040.937104.257046</preferredMagnitudeID><description><text>Northern Chile</text><type>region name</type></description><originReference>de.gempa.tb1.Origin/20250412172037.508849.87881</originReference></event></EventParameters></seiscomp>