<?xml version="1.0" encoding="UTF-8"?>
<seiscomp xmlns="http://geofon.gfz-potsdam.de/ns/seiscomp3-schema/0.13" version="0.13"><EventParameters><pick publicID="de.gempa.tb1.Pick/20250411170500.542799.118846"><time><value>2025-04-11T17:04:54.530001Z</value></time><waveformID networkCode="CX" stationCode="PB19" channelCode="HHZ"/><filterID>ITAPER(4)&gt;&gt;BW(4,4,20)</filterID><methodID>AIC</methodID><horizontalSlowness><value>12.867541490019422</value></horizontalSlowness><backazimuth><value>210.33093395923845</value></backazimuth><phaseHint>P</phaseHint><evaluationMode>automatic</evaluationMode><comment><text>723.9420560946528</text><id>DFX:rectilinearity</id></comment><comment><text>340.24121659334287</text><id>SNR</id></comment></pick><pick publicID="de.gempa.tb1.Pick/20250411170508.72871.118848"><time><value>2025-04-11T17:05:03.038393Z</value></time><waveformID networkCode="CX" stationCode="PB15" channelCode="HHZ"/><filterID>ITAPER(4)&gt;&gt;BW(4,4,20)</filterID><methodID>AIC</methodID><horizontalSlowness><value>23.38468489094983</value></horizontalSlowness><backazimuth><value>98.63469895997983</value></backazimuth><phaseHint>P</phaseHint><evaluationMode>automatic</evaluationMode><comment><text>547.6430535097462</text><id>DFX:rectilinearity</id></comment><comment><text>65.15236984614785</text><id>SNR</id></comment></pick><pick publicID="de.gempa.tb1.Pick/20250411170512.213916.118850"><time><value>2025-04-11T17:05:05.5Z</value></time><waveformID networkCode="CX" stationCode="PB10" channelCode="HHZ"/><filterID>ITAPER(4)&gt;&gt;BW(4,4,20)</filterID><methodID>AIC</methodID><horizontalSlowness><value>12.608405041067774</value></horizontalSlowness><backazimuth><value>144.40814674646074</value></backazimuth><phaseHint>P</phaseHint><evaluationMode>automatic</evaluationMode><comment><text>245.2066388773385</text><id>DFX:rectilinearity</id></comment><comment><text>20.415788745362104</text><id>SNR</id></comment></pick><pick publicID="de.gempa.tb1.Pick/20250411170514.326765.118852"><time><value>2025-04-11T17:05:07.790001Z</value></time><waveformID networkCode="CX" stationCode="PB19" channelCode="HHN"/><filterID>ITAPER(2)&gt;&gt;BW(3,3,20)</filterID><methodID>L2-AIC-GRID</methodID><horizontalSlowness><value>19.416031004090378</value></horizontalSlowness><backazimuth><value>138.65414837803021</value></backazimuth><phaseHint>S</phaseHint><evaluationMode>automatic</evaluationMode><comment><text>90914.8042110379</text><id>DFX:rectilinearity</id></comment><comment><text>de.gempa.tb1.Pick/20250411170500.542799.118846</text><id>RefPickID</id></comment><comment><text>13.011188991538885</text><id>SNR</id></comment></pick><pick publicID="de.gempa.tb1.Pick/20250411170516.626623.118853"><time><value>2025-04-11T17:05:09.788394Z</value></time><waveformID networkCode="CX" stationCode="PB06" channelCode="HHZ"/><filterID>ITAPER(4)&gt;&gt;BW(4,4,20)</filterID><methodID>AIC</methodID><horizontalSlowness><value>5.19215524425957</value></horizontalSlowness><backazimuth><value>211.37954319157535</value></backazimuth><phaseHint>P</phaseHint><evaluationMode>automatic</evaluationMode><comment><text>154.5912067815263</text><id>DFX:rectilinearity</id></comment><comment><text>34.56917503409548</text><id>SNR</id></comment></pick><pick publicID="de.gempa.tb1.Pick/20250411170522.830065.118856"><time><value>2025-04-11T17:05:17.908393Z</value></time><waveformID networkCode="CX" stationCode="PB03" channelCode="HHZ"/><filterID>ITAPER(4)&gt;&gt;BW(4,4,20)</filterID><methodID>AIC</methodID><horizontalSlowness><value>7.528341003499201</value></horizontalSlowness><backazimuth><value>161.12837858241426</value></backazimuth><phaseHint>P</phaseHint><evaluationMode>automatic</evaluationMode><comment><text>70.935444288736</text><id>DFX:rectilinearity</id></comment><comment><text>45.13475867350812</text><id>SNR</id></comment></pick><pick publicID="de.gempa.tb1.Pick/20250411170526.651678.118858"><time><value>2025-04-11T17:05:22.108396Z</value></time><waveformID networkCode="CX" stationCode="PB07" channelCode="HHZ"/><filterID>ITAPER(4)&gt;&gt;BW(4,4,20)</filterID><methodID>AIC</methodID><horizontalSlowness><value>22.038316999872507</value></horizontalSlowness><backazimuth><value>186.25940333217503</value></backazimuth><phaseHint>P</phaseHint><evaluationMode>automatic</evaluationMode><comment><text>180.70846483825406</text><id>DFX:rectilinearity</id></comment><comment><text>57.59598087798081</text><id>SNR</id></comment></pick><pick publicID="de.gempa.tb1.Pick/20250411170526.763255.118860"><time><value>2025-04-11T17:05:21.98Z</value></time><waveformID networkCode="CX" stationCode="PB09" channelCode="HHZ"/><filterID>ITAPER(4)&gt;&gt;BW(4,4,20)</filterID><methodID>AIC</methodID><horizontalSlowness><value>22.407159976058885</value></horizontalSlowness><backazimuth><value>323.72824765687665</value></backazimuth><phaseHint>P</phaseHint><evaluationMode>automatic</evaluationMode><comment><text>13.796515473116624</text><id>DFX:rectilinearity</id></comment><comment><text>57.52785561093496</text><id>SNR</id></comment></pick><pick publicID="de.gempa.tb1.Pick/20250411170533.584183.118863"><time><value>2025-04-11T17:05:27.378393Z</value></time><waveformID networkCode="CX" stationCode="PB02" channelCode="HHZ"/><filterID>ITAPER(4)&gt;&gt;BW(4,4,20)</filterID><methodID>AIC</methodID><horizontalSlowness><value>9.456480047652043</value></horizontalSlowness><backazimuth><value>159.11883409962871</value></backazimuth><phaseHint>P</phaseHint><evaluationMode>automatic</evaluationMode><comment><text>41.64202343087713</text><id>DFX:rectilinearity</id></comment><comment><text>29.1882675915409</text><id>SNR</id></comment></pick><pick publicID="de.gempa.tb1.Pick/20250411170538.601123.118867"><time><value>2025-04-11T17:05:30.678393Z</value></time><waveformID networkCode="CX" stationCode="PB01" channelCode="HHZ"/><filterID>ITAPER(4)&gt;&gt;BW(4,4,20)</filterID><methodID>AIC</methodID><horizontalSlowness><value>15.527735873060283</value></horizontalSlowness><backazimuth><value>317.76535246488925</value></backazimuth><phaseHint>P</phaseHint><evaluationMode>automatic</evaluationMode><comment><text>12.196072710471983</text><id>DFX:rectilinearity</id></comment><comment><text>25.120010619664864</text><id>SNR</id></comment></pick><pick publicID="de.gempa.tb1.Pick/20250411170540.401704.118869"><time><value>2025-04-11T17:05:29.61Z</value></time><waveformID networkCode="CX" stationCode="PB10" channelCode="HHN"/><filterID>ITAPER(2)&gt;&gt;BW(3,3,20)</filterID><methodID>L2-AIC-GRID</methodID><horizontalSlowness><value>18.027757441328202</value></horizontalSlowness><backazimuth><value>189.09137836422389</value></backazimuth><phaseHint>S</phaseHint><evaluationMode>automatic</evaluationMode><comment><text>13282.138230701206</text><id>DFX:rectilinearity</id></comment><comment><text>de.gempa.tb1.Pick/20250411170512.213916.118850</text><id>RefPickID</id></comment><comment><text>8.56889746069097</text><id>SNR</id></comment></pick><pick publicID="de.gempa.tb1.Pick/20250411170540.707081.118870"><time><value>2025-04-11T17:05:34.468394Z</value></time><waveformID networkCode="CX" stationCode="PB06" channelCode="HHN"/><filterID>ITAPER(2)&gt;&gt;BW(3,3,20)</filterID><methodID>L2-AIC-GRID</methodID><horizontalSlowness><value>22.76928934179138</value></horizontalSlowness><backazimuth><value>245.77832251413525</value></backazimuth><phaseHint>S</phaseHint><evaluationMode>automatic</evaluationMode><comment><text>3917.0980378764534</text><id>DFX:rectilinearity</id></comment><comment><text>de.gempa.tb1.Pick/20250411170516.626623.118853</text><id>RefPickID</id></comment><comment><text>10.53353567989218</text><id>SNR</id></comment></pick><pick publicID="de.gempa.tb1.Pick/20250411170557.81023.118873"><time><value>2025-04-11T17:05:49.388393Z</value></time><waveformID networkCode="CX" stationCode="PB03" channelCode="HHN"/><filterID>ITAPER(2)&gt;&gt;BW(3,3,20)</filterID><methodID>L2-AIC-GRID</methodID><horizontalSlowness><value>19.69991845261259</value></horizontalSlowness><backazimuth><value>320.83504324860667</value></backazimuth><phaseHint>S</phaseHint><evaluationMode>automatic</evaluationMode><comment><text>2085.8839986552293</text><id>DFX:rectilinearity</id></comment><comment><text>de.gempa.tb1.Pick/20250411170522.830065.118856</text><id>RefPickID</id></comment><comment><text>5.694943844011285</text><id>SNR</id></comment></pick><origin publicID="de.gempa.tb1.Origin/20250411170557.814253.61001"><time><value>2025-04-11T17:04:37.13774Z</value><uncertainty>1.0169039964675903</uncertainty></time><latitude><value>-24.638322830200195</value><uncertainty>7.354823589324951</uncertainty></latitude><longitude><value>-69.08321380615234</value><uncertainty>7.323431491851807</uncertainty></longitude><depth><value>95.005859375</value><uncertainty>8.051233291625977</uncertainty></depth><depthType>from location</depthType><methodID>LOCSAT</methodID><earthModelID>iasp91_scanloc</earthModelID><quality><associatedPhaseCount>13</associatedPhaseCount><usedPhaseCount>13</usedPhaseCount><associatedStationCount>9</associatedStationCount><usedStationCount>9</usedStationCount><depthPhaseCount>0</depthPhaseCount><standardError>0.6232048681316827</standardError><azimuthalGap>312.4790954589844</azimuthalGap><maximumDistance>3.597595691680908</maximumDistance><minimumDistance>0.754418134689331</minimumDistance><medianDistance>1.9752017259597778</medianDistance></quality><uncertainty><minHorizontalUncertainty>15.683701515197754</minHorizontalUncertainty><maxHorizontalUncertainty>15.791701316833496</maxHorizontalUncertainty><azimuthMaxHorizontalUncertainty>25.72114562988281</azimuthMaxHorizontalUncertainty><preferredDescription>horizontal uncertainty</preferredDescription></uncertainty><evaluationMode>automatic</evaluationMode><evaluationStatus>confirmed</evaluationStatus><comment><text>0.00</text><id>mismatchScore</id></comment><comment><text>mismatchScore</text><id>scevalMethod</id></comment><arrival><pickID>de.gempa.tb1.Pick/20250411170500.542799.118846</pickID><phase>P</phase><azimuth>345.42437744140625</azimuth><distance>0.754418134689331</distance><timeResidual>-0.08765792846679688</timeResidual><timeUsed>true</timeUsed><horizontalSlownessUsed>false</horizontalSlownessUsed><backazimuthUsed>false</backazimuthUsed><weight>1</weight></arrival><arrival><pickID>de.gempa.tb1.Pick/20250411170508.72871.118848</pickID><phase>P</phase><azimuth>345.9268798828125</azimuth><distance>1.4670796394348145</distance><timeResidual>0.31194496154785156</timeResidual><timeUsed>true</timeUsed><horizontalSlownessUsed>false</horizontalSlownessUsed><backazimuthUsed>false</backazimuthUsed><weight>1</weight></arrival><arrival><pickID>de.gempa.tb1.Pick/20250411170512.213916.118850</pickID><phase>P</phase><azimuth>309.4930419921875</azimuth><distance>1.7496765851974487</distance><timeResidual>-0.7892684936523438</timeResidual><timeUsed>true</timeUsed><horizontalSlownessUsed>false</horizontalSlownessUsed><backazimuthUsed>false</backazimuthUsed><weight>1</weight></arrival><arrival><pickID>de.gempa.tb1.Pick/20250411170514.326765.118852</pickID><phase>S</phase><azimuth>345.42437744140625</azimuth><distance>0.754418134689331</distance><timeResidual>-0.2695121765136719</timeResidual><timeUsed>true</timeUsed><horizontalSlownessUsed>false</horizontalSlownessUsed><backazimuthUsed>false</backazimuthUsed><weight>1</weight></arrival><arrival><pickID>de.gempa.tb1.Pick/20250411170516.626623.118853</pickID><phase>P</phase><azimuth>346.7915344238281</azimuth><distance>1.9752017259597778</distance><timeResidual>0.5867195129394531</timeResidual><timeUsed>true</timeUsed><horizontalSlownessUsed>false</horizontalSlownessUsed><backazimuthUsed>false</backazimuthUsed><weight>1</weight></arrival><arrival><pickID>de.gempa.tb1.Pick/20250411170522.830065.118856</pickID><phase>P</phase><azimuth>346.4341735839844</azimuth><distance>2.650406837463379</distance><timeResidual>-0.19948959350585938</timeResidual><timeUsed>true</timeUsed><horizontalSlownessUsed>false</horizontalSlownessUsed><backazimuthUsed>false</backazimuthUsed><weight>1</weight></arrival><arrival><pickID>de.gempa.tb1.Pick/20250411170526.651678.118858</pickID><phase>P</phase><azimuth>345.53814697265625</azimuth><distance>2.9908382892608643</distance><timeResidual>-0.5480461120605469</timeResidual><timeUsed>true</timeUsed><horizontalSlownessUsed>false</horizontalSlownessUsed><backazimuthUsed>false</backazimuthUsed><weight>1</weight></arrival><arrival><pickID>de.gempa.tb1.Pick/20250411170526.763255.118860</pickID><phase>P</phase><azimuth>357.0139465332031</azimuth><distance>2.832554340362549</distance><timeResidual>1.4405384063720703</timeResidual><timeUsed>true</timeUsed><horizontalSlownessUsed>false</horizontalSlownessUsed><backazimuthUsed>false</backazimuthUsed><weight>1</weight></arrival><arrival><pickID>de.gempa.tb1.Pick/20250411170533.584183.118863</pickID><phase>P</phase><azimuth>347.0628662109375</azimuth><distance>3.386939287185669</distance><timeResidual>-0.6077003479003906</timeResidual><timeUsed>true</timeUsed><horizontalSlownessUsed>false</horizontalSlownessUsed><backazimuthUsed>false</backazimuthUsed><weight>1</weight></arrival><arrival><pickID>de.gempa.tb1.Pick/20250411170538.601123.118867</pickID><phase>P</phase><azimuth>353.9720458984375</azimuth><distance>3.597595691680908</distance><timeResidual>-0.14793777465820312</timeResidual><timeUsed>true</timeUsed><horizontalSlownessUsed>false</horizontalSlownessUsed><backazimuthUsed>false</backazimuthUsed><weight>1</weight></arrival><arrival><pickID>de.gempa.tb1.Pick/20250411170540.401704.118869</pickID><phase>S</phase><azimuth>309.4930419921875</azimuth><distance>1.7496765851974487</distance><timeResidual>0.691497802734375</timeResidual><timeUsed>true</timeUsed><horizontalSlownessUsed>false</horizontalSlownessUsed><backazimuthUsed>false</backazimuthUsed><weight>1</weight></arrival><arrival><pickID>de.gempa.tb1.Pick/20250411170540.707081.118870</pickID><phase>S</phase><azimuth>346.7915344238281</azimuth><distance>1.9752017259597778</distance><timeResidual>0.3323516845703125</timeResidual><timeUsed>true</timeUsed><horizontalSlownessUsed>false</horizontalSlownessUsed><backazimuthUsed>false</backazimuthUsed><weight>1</weight></arrival><arrival><pickID>de.gempa.tb1.Pick/20250411170557.81023.118873</pickID><phase>S</phase><azimuth>346.4341735839844</azimuth><distance>2.650406837463379</distance><timeResidual>-0.7134895324707031</timeResidual><timeUsed>true</timeUsed><horizontalSlownessUsed>false</horizontalSlownessUsed><backazimuthUsed>false</backazimuthUsed><weight>1</weight></arrival><magnitude publicID="de.gempa.tb1.Magnitude/20250411170605.939425.121994"><magnitude><value>3.4618481027551673</value></magnitude><type>M</type><methodID>weighted average</methodID><stationCount>7</stationCount></magnitude></origin><event publicID="gempa2025heaj"><preferredOriginID>de.gempa.tb1.Origin/20250411170557.814253.61001</preferredOriginID><preferredMagnitudeID>de.gempa.tb1.Magnitude/20250411170605.939425.121994</preferredMagnitudeID><description><text>Northern Chile</text><type>region name</type></description><originReference>de.gempa.tb1.Origin/20250411170557.814253.61001</originReference></event></EventParameters></seiscomp>