<?xml version="1.0" encoding="UTF-8"?>
<seiscomp xmlns="http://geofon.gfz-potsdam.de/ns/seiscomp3-schema/0.13" version="0.13"><EventParameters><pick publicID="de.gempa.tb1.Pick/20250411092457.442852.118028"><time><value>2025-04-11T09:24:51.899999Z</value></time><waveformID networkCode="CX" stationCode="PATCX" channelCode="HHZ"/><filterID>ITAPER(4)&gt;&gt;BW(4,4,20)</filterID><methodID>AIC</methodID><horizontalSlowness><value>7.591219090416478</value></horizontalSlowness><backazimuth><value>194.98084640724804</value></backazimuth><phaseHint>P</phaseHint><evaluationMode>automatic</evaluationMode><comment><text>9255.331203728672</text><id>DFX:rectilinearity</id></comment><comment><text>156.3500134687755</text><id>SNR</id></comment></pick><pick publicID="de.gempa.tb1.Pick/20250411092457.552682.118030"><time><value>2025-04-11T09:24:51.628393Z</value></time><waveformID networkCode="CX" stationCode="PB02" channelCode="HHZ"/><filterID>ITAPER(4)&gt;&gt;BW(4,4,20)</filterID><methodID>AIC</methodID><horizontalSlowness><value>7.360981873594262</value></horizontalSlowness><backazimuth><value>289.2352749150616</value></backazimuth><phaseHint>P</phaseHint><evaluationMode>automatic</evaluationMode><comment><text>226065.3099010114</text><id>DFX:rectilinearity</id></comment><comment><text>1282.8751608909442</text><id>SNR</id></comment></pick><pick publicID="de.gempa.tb1.Pick/20250411092500.795576.118032"><time><value>2025-04-11T09:24:55.138393Z</value></time><waveformID networkCode="CX" stationCode="PB07" channelCode="HHZ"/><filterID>ITAPER(4)&gt;&gt;BW(4,4,20)</filterID><methodID>AIC</methodID><horizontalSlowness><value>17.18267114027038</value></horizontalSlowness><backazimuth><value>312.5882628709599</value></backazimuth><phaseHint>P</phaseHint><evaluationMode>automatic</evaluationMode><comment><text>14359.500091145976</text><id>DFX:rectilinearity</id></comment><comment><text>678.6911055195297</text><id>SNR</id></comment></pick><pick publicID="de.gempa.tb1.Pick/20250411092502.595962.118034"><time><value>2025-04-11T09:24:56.708393Z</value></time><waveformID networkCode="CX" stationCode="PB01" channelCode="HHZ"/><filterID>ITAPER(4)&gt;&gt;BW(4,4,20)</filterID><methodID>AIC</methodID><horizontalSlowness><value>14.249947976713987</value></horizontalSlowness><backazimuth><value>259.67402618981885</value></backazimuth><phaseHint>P</phaseHint><evaluationMode>automatic</evaluationMode><comment><text>63005.21860067087</text><id>DFX:rectilinearity</id></comment><comment><text>1142.541813977627</text><id>SNR</id></comment></pick><pick publicID="de.gempa.tb1.Pick/20250411092503.718131.118036"><time><value>2025-04-11T09:24:57.728393Z</value></time><waveformID networkCode="CX" stationCode="PB02" channelCode="HHN"/><filterID>ITAPER(2)&gt;&gt;BW(3,3,20)</filterID><methodID>L2-AIC-GRID</methodID><horizontalSlowness><value>3.9409693284973075</value></horizontalSlowness><backazimuth><value>140.8418150068753</value></backazimuth><phaseHint>S</phaseHint><evaluationMode>automatic</evaluationMode><comment><text>4044931.106233096</text><id>DFX:rectilinearity</id></comment><comment><text>de.gempa.tb1.Pick/20250411092457.552682.118030</text><id>RefPickID</id></comment><comment><text>14.924183550497746</text><id>SNR</id></comment></pick><pick publicID="de.gempa.tb1.Pick/20250411092504.397694.118037"><time><value>2025-04-11T09:24:58.499999Z</value></time><waveformID networkCode="CX" stationCode="PATCX" channelCode="HHN"/><filterID>ITAPER(2)&gt;&gt;BW(3,3,20)</filterID><methodID>L2-AIC-GRID</methodID><horizontalSlowness><value>23.039503971232243</value></horizontalSlowness><backazimuth><value>94.45181668103704</value></backazimuth><phaseHint>S</phaseHint><evaluationMode>automatic</evaluationMode><comment><text>1215575.4452530842</text><id>DFX:rectilinearity</id></comment><comment><text>de.gempa.tb1.Pick/20250411092457.442852.118028</text><id>RefPickID</id></comment><comment><text>14.44711809929533</text><id>SNR</id></comment></pick><pick publicID="de.gempa.tb1.Pick/20250411092505.676126.118038"><time><value>2025-04-11T09:24:59.968393Z</value></time><waveformID networkCode="CX" stationCode="PB03" channelCode="HHZ"/><filterID>ITAPER(4)&gt;&gt;BW(4,4,20)</filterID><methodID>AIC</methodID><horizontalSlowness><value>13.678177141794764</value></horizontalSlowness><backazimuth><value>327.1159178260282</value></backazimuth><phaseHint>P</phaseHint><evaluationMode>automatic</evaluationMode><comment><text>175.6626287027303</text><id>DFX:rectilinearity</id></comment><comment><text>164.159427104181</text><id>SNR</id></comment></pick><pick publicID="de.gempa.tb1.Pick/20250411092512.740558.118040"><time><value>2025-04-11T09:25:06.718393Z</value></time><waveformID networkCode="CX" stationCode="PB01" channelCode="HHN"/><filterID>ITAPER(2)&gt;&gt;BW(3,3,20)</filterID><methodID>L2-AIC-GRID</methodID><horizontalSlowness><value>12.30241978297333</value></horizontalSlowness><backazimuth><value>347.18419379476995</value></backazimuth><phaseHint>S</phaseHint><evaluationMode>automatic</evaluationMode><comment><text>145154.31814203577</text><id>DFX:rectilinearity</id></comment><comment><text>de.gempa.tb1.Pick/20250411092502.595962.118034</text><id>RefPickID</id></comment><comment><text>9.375884923081564</text><id>SNR</id></comment></pick><pick publicID="de.gempa.tb1.Pick/20250411092513.79632.118041"><time><value>2025-04-11T09:25:03.848393Z</value></time><waveformID networkCode="CX" stationCode="PB07" channelCode="HHN"/><filterID>ITAPER(2)&gt;&gt;BW(3,3,20)</filterID><methodID>L2-AIC-GRID</methodID><horizontalSlowness><value>23.148688473951243</value></horizontalSlowness><backazimuth><value>67.6653152854857</value></backazimuth><phaseHint>S</phaseHint><evaluationMode>automatic</evaluationMode><comment><text>969720.6813964598</text><id>DFX:rectilinearity</id></comment><comment><text>de.gempa.tb1.Pick/20250411092500.795576.118032</text><id>RefPickID</id></comment><comment><text>11.43692682056065</text><id>SNR</id></comment></pick><pick publicID="de.gempa.tb1.Pick/20250411092515.195093.118042"><time><value>2025-04-11T09:25:08.408393Z</value></time><waveformID networkCode="CX" stationCode="PB08" channelCode="HHZ"/><filterID>ITAPER(4)&gt;&gt;BW(4,4,20)</filterID><methodID>AIC</methodID><horizontalSlowness><value>15.613243984419693</value></horizontalSlowness><backazimuth><value>208.3362948973846</value></backazimuth><phaseHint>P</phaseHint><evaluationMode>automatic</evaluationMode><comment><text>1457.7747651641114</text><id>DFX:rectilinearity</id></comment><comment><text>44.653836388547</text><id>SNR</id></comment></pick><pick publicID="de.gempa.tb1.Pick/20250411092516.833341.118044"><time><value>2025-04-11T09:25:10.468393Z</value></time><waveformID networkCode="CX" stationCode="PB06" channelCode="HHZ"/><filterID>ITAPER(4)&gt;&gt;BW(4,4,20)</filterID><methodID>AIC</methodID><horizontalSlowness><value>5.86672171365468</value></horizontalSlowness><backazimuth><value>304.64712592322633</value></backazimuth><phaseHint>P</phaseHint><evaluationMode>automatic</evaluationMode><comment><text>399.24728891706445</text><id>DFX:rectilinearity</id></comment><comment><text>82.66394562218257</text><id>SNR</id></comment></pick><pick publicID="de.gempa.tb1.Pick/20250411092517.593963.118046"><time><value>2025-04-11T09:25:09.429998Z</value></time><waveformID networkCode="CX" stationCode="PSGCX" channelCode="HHZ"/><filterID>ITAPER(4)&gt;&gt;BW(4,4,20)</filterID><methodID>AIC</methodID><horizontalSlowness><value>11.725917679636865</value></horizontalSlowness><backazimuth><value>195.83845877682364</value></backazimuth><phaseHint>P</phaseHint><evaluationMode>automatic</evaluationMode><comment><text>543.2715735181054</text><id>DFX:rectilinearity</id></comment><comment><text>105.52897624051583</text><id>SNR</id></comment></pick><pick publicID="de.gempa.tb1.Pick/20250411092518.521994.118048"><time><value>2025-04-11T09:25:03.05Z</value></time><waveformID networkCode="CX" stationCode="PB09" channelCode="HHZ"/><filterID>ITAPER(4)&gt;&gt;BW(4,4,20)</filterID><methodID>AIC</methodID><horizontalSlowness><value>19.376087667994657</value></horizontalSlowness><backazimuth><value>83.59141544325773</value></backazimuth><phaseHint>P</phaseHint><evaluationMode>automatic</evaluationMode><comment><text>671.805468307154</text><id>DFX:rectilinearity</id></comment><comment><text>372.17521745054307</text><id>SNR</id></comment></pick><pick publicID="de.gempa.tb1.Pick/20250411092523.687293.118050"><time><value>2025-04-11T09:25:12.828393Z</value></time><waveformID networkCode="CX" stationCode="PB03" channelCode="HHN"/><filterID>ITAPER(2)&gt;&gt;BW(3,3,20)</filterID><methodID>L2-AIC-GRID</methodID><horizontalSlowness><value>7.648267244990596</value></horizontalSlowness><backazimuth><value>159.20228054961808</value></backazimuth><phaseHint>S</phaseHint><evaluationMode>automatic</evaluationMode><comment><text>27740.6946828604</text><id>DFX:rectilinearity</id></comment><comment><text>de.gempa.tb1.Pick/20250411092505.676126.118038</text><id>RefPickID</id></comment><comment><text>5.989785870698921</text><id>SNR</id></comment></pick><pick publicID="de.gempa.tb1.Pick/20250411092534.482778.118058"><time><value>2025-04-11T09:25:27.66Z</value></time><waveformID networkCode="CX" stationCode="PB19" channelCode="HHZ"/><filterID>ITAPER(4)&gt;&gt;BW(4,4,20)</filterID><methodID>AIC</methodID><horizontalSlowness><value>5.061266005469033</value></horizontalSlowness><backazimuth><value>331.02958327576016</value></backazimuth><phaseHint>P</phaseHint><evaluationMode>automatic</evaluationMode><comment><text>25.65768975568714</text><id>DFX:rectilinearity</id></comment><comment><text>12.20768537357483</text><id>SNR</id></comment></pick><pick publicID="de.gempa.tb1.Pick/20250411092535.639505.118060"><time><value>2025-04-11T09:25:28.038393Z</value></time><waveformID networkCode="CX" stationCode="PB08" channelCode="HHN"/><filterID>ITAPER(2)&gt;&gt;BW(3,3,20)</filterID><methodID>L2-AIC-GRID</methodID><horizontalSlowness><value>16.388992527197129</value></horizontalSlowness><backazimuth><value>203.13975872620773</value></backazimuth><phaseHint>S</phaseHint><evaluationMode>automatic</evaluationMode><comment><text>7011.60601201024</text><id>DFX:rectilinearity</id></comment><comment><text>de.gempa.tb1.Pick/20250411092515.195093.118042</text><id>RefPickID</id></comment><comment><text>6.458036862276082</text><id>SNR</id></comment></pick><pick publicID="de.gempa.tb1.Pick/20250411092539.796547.118061"><time><value>2025-04-11T09:25:30.339998Z</value></time><waveformID networkCode="CX" stationCode="PSGCX" channelCode="HHN"/><filterID>ITAPER(2)&gt;&gt;BW(3,3,20)</filterID><methodID>L2-AIC-GRID</methodID><horizontalSlowness><value>20.670850537726896</value></horizontalSlowness><backazimuth><value>44.076781599051543</value></backazimuth><phaseHint>S</phaseHint><evaluationMode>automatic</evaluationMode><comment><text>14133.4619606738</text><id>DFX:rectilinearity</id></comment><comment><text>de.gempa.tb1.Pick/20250411092517.593963.118046</text><id>RefPickID</id></comment><comment><text>6.715284136649562</text><id>SNR</id></comment></pick><pick publicID="de.gempa.tb1.Pick/20250411092540.591608.118062"><time><value>2025-04-11T09:25:31.488393Z</value></time><waveformID networkCode="CX" stationCode="PB06" channelCode="HHN"/><filterID>ITAPER(2)&gt;&gt;BW(3,3,20)</filterID><methodID>L2-AIC-GRID</methodID><horizontalSlowness><value>22.56266062986648</value></horizontalSlowness><backazimuth><value>53.00904508092876</value></backazimuth><phaseHint>S</phaseHint><evaluationMode>automatic</evaluationMode><comment><text>12369.999854112608</text><id>DFX:rectilinearity</id></comment><comment><text>de.gempa.tb1.Pick/20250411092516.833341.118044</text><id>RefPickID</id></comment><comment><text>9.853268299529265</text><id>SNR</id></comment></pick><origin publicID="de.gempa.tb1.Origin/20250411092540.596865.57151"><time><value>2025-04-11T09:24:43.326062Z</value><uncertainty>0.4967737197875977</uncertainty></time><latitude><value>-21.212968826293945</value><uncertainty>1.660197138786316</uncertainty></latitude><longitude><value>-70.2430191040039</value><uncertainty>4.0178418159484863</uncertainty></longitude><depth><value>26.270544052124023</value><uncertainty>2.8746514320373535</uncertainty></depth><depthType>from location</depthType><methodID>LOCSAT</methodID><earthModelID>iasp91_scanloc</earthModelID><quality><associatedPhaseCount>18</associatedPhaseCount><usedPhaseCount>18</usedPhaseCount><associatedStationCount>10</associatedStationCount><usedStationCount>10</usedStationCount><depthPhaseCount>0</depthPhaseCount><standardError>0.6690281214105431</standardError><azimuthalGap>202.03651809692383</azimuthalGap><maximumDistance>2.8199586868286133</maximumDistance><minimumDistance>0.3406369984149933</minimumDistance><medianDistance>0.9481721520423889</medianDistance></quality><uncertainty><minHorizontalUncertainty>3.4320623874664307</minHorizontalUncertainty><maxHorizontalUncertainty>8.666501045227051</maxHorizontalUncertainty><azimuthMaxHorizontalUncertainty>83.18211364746094</azimuthMaxHorizontalUncertainty><preferredDescription>horizontal uncertainty</preferredDescription></uncertainty><evaluationMode>automatic</evaluationMode><evaluationStatus>confirmed</evaluationStatus><comment><text>0.08</text><id>mismatchScore</id></comment><comment><text>mismatchScore</text><id>scevalMethod</id></comment><arrival><pickID>de.gempa.tb1.Pick/20250411092457.442852.118028</pickID><phase>P</phase><azimuth>12.19230079650879</azimuth><distance>0.39928600192070007</distance><timeResidual>-0.06246662139892578</timeResidual><timeUsed>true</timeUsed><horizontalSlownessUsed>false</horizontalSlownessUsed><backazimuthUsed>false</backazimuthUsed><weight>1</weight></arrival><arrival><pickID>de.gempa.tb1.Pick/20250411092457.552682.118030</pickID><phase>P</phase><azimuth>108.23432922363281</azimuth><distance>0.3406369984149933</distance><timeResidual>0.5754251480102539</timeResidual><timeUsed>true</timeUsed><horizontalSlownessUsed>false</horizontalSlownessUsed><backazimuthUsed>false</backazimuthUsed><weight>1</weight></arrival><arrival><pickID>de.gempa.tb1.Pick/20250411092500.795576.118032</pickID><phase>P</phase><azimuth>147.03189086914062</azimuth><distance>0.609732985496521</distance><timeResidual>-0.2678976058959961</timeResidual><timeUsed>true</timeUsed><horizontalSlownessUsed>false</horizontalSlownessUsed><backazimuthUsed>false</backazimuthUsed><weight>1</weight></arrival><arrival><pickID>de.gempa.tb1.Pick/20250411092502.595962.118034</pickID><phase>P</phase><azimuth>76.67135620117188</azimuth><distance>0.7253749370574951</distance><timeResidual>-0.6356706619262695</timeResidual><timeUsed>true</timeUsed><horizontalSlownessUsed>false</horizontalSlownessUsed><backazimuthUsed>false</backazimuthUsed><weight>1</weight></arrival><arrival><pickID>de.gempa.tb1.Pick/20250411092503.718131.118036</pickID><phase>S</phase><azimuth>108.23432922363281</azimuth><distance>0.3406369984149933</distance><timeResidual>1.0455174446105957</timeResidual><timeUsed>true</timeUsed><horizontalSlownessUsed>false</horizontalSlownessUsed><backazimuthUsed>false</backazimuthUsed><weight>1</weight></arrival><arrival><pickID>de.gempa.tb1.Pick/20250411092504.397694.118037</pickID><phase>S</phase><azimuth>12.19230079650879</azimuth><distance>0.39928600192070007</distance><timeResidual>0.24887943267822266</timeResidual><timeUsed>true</timeUsed><horizontalSlownessUsed>false</horizontalSlownessUsed><backazimuthUsed>false</backazimuthUsed><weight>1</weight></arrival><arrival><pickID>de.gempa.tb1.Pick/20250411092505.676126.118038</pickID><phase>P</phase><azimuth>151.35508728027344</azimuth><distance>0.9481721520423889</distance><timeResidual>-0.930058479309082</timeResidual><timeUsed>true</timeUsed><horizontalSlownessUsed>false</horizontalSlownessUsed><backazimuthUsed>false</backazimuthUsed><weight>1</weight></arrival><arrival><pickID>de.gempa.tb1.Pick/20250411092512.740558.118040</pickID><phase>S</phase><azimuth>76.67135620117188</azimuth><distance>0.7253749370574951</distance><timeResidual>-0.8641748428344727</timeResidual><timeUsed>true</timeUsed><horizontalSlownessUsed>false</horizontalSlownessUsed><backazimuthUsed>false</backazimuthUsed><weight>1</weight></arrival><arrival><pickID>de.gempa.tb1.Pick/20250411092513.79632.118041</pickID><phase>S</phase><azimuth>147.03189086914062</azimuth><distance>0.609732985496521</distance><timeResidual>-0.3646240234375</timeResidual><timeUsed>true</timeUsed><horizontalSlownessUsed>false</horizontalSlownessUsed><backazimuthUsed>false</backazimuthUsed><weight>1</weight></arrival><arrival><pickID>de.gempa.tb1.Pick/20250411092515.195093.118042</pickID><phase>P</phase><azimuth>43.925235748291016</azimuth><distance>1.4758869409561157</distance><timeResidual>0.21173572540283203</timeResidual><timeUsed>true</timeUsed><horizontalSlownessUsed>false</horizontalSlownessUsed><backazimuthUsed>false</backazimuthUsed><weight>1</weight></arrival><arrival><pickID>de.gempa.tb1.Pick/20250411092516.833341.118044</pickID><phase>P</phase><azimuth>157.37185668945312</azimuth><distance>1.6109535694122314</distance><timeResidual>0.420384407043457</timeResidual><timeUsed>true</timeUsed><horizontalSlownessUsed>false</horizontalSlownessUsed><backazimuthUsed>false</backazimuthUsed><weight>1</weight></arrival><arrival><pickID>de.gempa.tb1.Pick/20250411092517.593963.118046</pickID><phase>P</phase><azimuth>4.0252418518066406</azimuth><distance>1.61152446269989</distance><timeResidual>-0.6349096298217773</timeResidual><timeUsed>true</timeUsed><horizontalSlownessUsed>false</horizontalSlownessUsed><backazimuthUsed>false</backazimuthUsed><weight>1</weight></arrival><arrival><pickID>de.gempa.tb1.Pick/20250411092518.521994.118048</pickID><phase>P</phase><azimuth>122.09378814697266</azimuth><distance>1.09822678565979</distance><timeResidual>0.05558586120605469</timeResidual><timeUsed>true</timeUsed><horizontalSlownessUsed>false</horizontalSlownessUsed><backazimuthUsed>false</backazimuthUsed><weight>1</weight></arrival><arrival><pickID>de.gempa.tb1.Pick/20250411092523.687293.118050</pickID><phase>S</phase><azimuth>151.35508728027344</azimuth><distance>0.9481721520423889</distance><timeResidual>-1.1405839920043945</timeResidual><timeUsed>true</timeUsed><horizontalSlownessUsed>false</horizontalSlownessUsed><backazimuthUsed>false</backazimuthUsed><weight>1</weight></arrival><arrival><pickID>de.gempa.tb1.Pick/20250411092534.482778.118058</pickID><phase>P</phase><azimuth>161.9887237548828</azimuth><distance>2.8199586868286133</distance><timeResidual>0.9773187637329102</timeResidual><timeUsed>true</timeUsed><horizontalSlownessUsed>false</horizontalSlownessUsed><backazimuthUsed>false</backazimuthUsed><weight>1</weight></arrival><arrival><pickID>de.gempa.tb1.Pick/20250411092535.639505.118060</pickID><phase>S</phase><azimuth>43.925235748291016</azimuth><distance>1.4758869409561157</distance><timeResidual>0.7682428359985352</timeResidual><timeUsed>true</timeUsed><horizontalSlownessUsed>false</horizontalSlownessUsed><backazimuthUsed>false</backazimuthUsed><weight>1</weight></arrival><arrival><pickID>de.gempa.tb1.Pick/20250411092539.796547.118061</pickID><phase>S</phase><azimuth>4.0252418518066406</azimuth><distance>1.61152446269989</distance><timeResidual>-0.2903280258178711</timeResidual><timeUsed>true</timeUsed><horizontalSlownessUsed>false</horizontalSlownessUsed><backazimuthUsed>false</backazimuthUsed><weight>1</weight></arrival><arrival><pickID>de.gempa.tb1.Pick/20250411092540.591608.118062</pickID><phase>S</phase><azimuth>157.37185668945312</azimuth><distance>1.6109535694122314</distance><timeResidual>0.8875703811645508</timeResidual><timeUsed>true</timeUsed><horizontalSlownessUsed>false</horizontalSlownessUsed><backazimuthUsed>false</backazimuthUsed><weight>1</weight></arrival><magnitude publicID="de.gempa.tb1.Magnitude/20250411092545.320595.111215"><magnitude><value>3.0537931184482416</value></magnitude><type>M</type><methodID>weighted average</methodID><stationCount