<?xml version="1.0" encoding="UTF-8"?>
<seiscomp xmlns="http://geofon.gfz-potsdam.de/ns/seiscomp3-schema/0.13" version="0.13"><EventParameters><pick publicID="de.gempa.tb1.Pick/20250413144149.534237.131872"><time><value>2025-04-13T14:41:42.878394Z</value></time><waveformID networkCode="CX" stationCode="PB01" channelCode="HHZ"/><filterID>ITAPER(4)&gt;&gt;BW(4,4,20)</filterID><methodID>AIC</methodID><horizontalSlowness><value>22.503620140177873</value></horizontalSlowness><backazimuth><value>18.93617804598867</value></backazimuth><phaseHint>P</phaseHint><evaluationMode>automatic</evaluationMode><comment><text>16.55638940516969</text><id>DFX:rectilinearity</id></comment><comment><text>6.315853165934239</text><id>SNR</id></comment></pick><pick publicID="de.gempa.tb1.Pick/20250413144150.562299.131875"><time><value>2025-04-13T14:41:42.23Z</value></time><waveformID networkCode="CX" stationCode="PB09" channelCode="HHZ"/><filterID>ITAPER(4)&gt;&gt;BW(4,4,20)</filterID><methodID>AIC</methodID><horizontalSlowness><value>16.104559297563338</value></horizontalSlowness><backazimuth><value>70.97519554092035</value></backazimuth><phaseHint>P</phaseHint><evaluationMode>automatic</evaluationMode><comment><text>11.87944655424536</text><id>DFX:rectilinearity</id></comment><comment><text>21.464965302236564</text><id>SNR</id></comment></pick><pick publicID="de.gempa.tb1.Pick/20250413144152.727161.131877"><time><value>2025-04-13T14:41:47.178391Z</value></time><waveformID networkCode="CX" stationCode="PB03" channelCode="HHZ"/><filterID>ITAPER(4)&gt;&gt;BW(4,4,20)</filterID><methodID>AIC</methodID><horizontalSlowness><value>10.95233666327692</value></horizontalSlowness><backazimuth><value>338.78404117615423</value></backazimuth><phaseHint>P</phaseHint><evaluationMode>automatic</evaluationMode><comment><text>11.782829699155291</text><id>DFX:rectilinearity</id></comment><comment><text>8.123089611931977</text><id>SNR</id></comment></pick><pick publicID="de.gempa.tb1.Pick/20250413144206.578606.131879"><time><value>2025-04-13T14:41:47.038394Z</value></time><waveformID networkCode="CX" stationCode="PB07" channelCode="HHZ"/><filterID>ITAPER(4)&gt;&gt;BW(4,4,20)</filterID><methodID>AIC</methodID><horizontalSlowness><value>21.73177696797751</value></horizontalSlowness><backazimuth><value>140.02662666660837</value></backazimuth><phaseHint>P</phaseHint><evaluationMode>automatic</evaluationMode><comment><text>243.45095998512647</text><id>DFX:rectilinearity</id></comment><comment><text>22.025464987611137</text><id>SNR</id></comment></pick><pick publicID="de.gempa.tb1.Pick/20250413144208.581254.131882"><time><value>2025-04-13T14:42:02.55Z</value></time><waveformID networkCode="CX" stationCode="PB19" channelCode="HHZ"/><filterID>ITAPER(4)&gt;&gt;BW(4,4,20)</filterID><methodID>AIC</methodID><horizontalSlowness><value>22.435318997848373</value></horizontalSlowness><backazimuth><value>192.16737240288126</value></backazimuth><phaseHint>P</phaseHint><evaluationMode>automatic</evaluationMode><comment><text>22.8190534958485</text><id>DFX:rectilinearity</id></comment><comment><text>7.801614131771102</text><id>SNR</id></comment></pick><pick publicID="de.gempa.tb1.Pick/20250413144214.583243.131886"><time><value>2025-04-13T14:42:01.918394Z</value></time><waveformID networkCode="CX" stationCode="PB01" channelCode="HHN"/><filterID>ITAPER(2)&gt;&gt;BW(3,3,20)</filterID><methodID>L2-AIC-GRID</methodID><horizontalSlowness><value>18.84606032971842</value></horizontalSlowness><backazimuth><value>31.73071579452787</value></backazimuth><phaseHint>S</phaseHint><evaluationMode>automatic</evaluationMode><comment><text>11.935897183268917</text><id>DFX:rectilinearity</id></comment><comment><text>de.gempa.tb1.Pick/20250413144149.534237.131872</text><id>RefPickID</id></comment><comment><text>7.578384036412462</text><id>SNR</id></comment></pick><pick publicID="de.gempa.tb1.Pick/20250413144217.574827.131889"><time><value>2025-04-13T14:42:08.768391Z</value></time><waveformID networkCode="CX" stationCode="PB03" channelCode="HHN"/><filterID>ITAPER(2)&gt;&gt;BW(3,3,20)</filterID><methodID>L2-AIC-GRID</methodID><horizontalSlowness><value>7.022394033219116</value></horizontalSlowness><backazimuth><value>230.89579372793165</value></backazimuth><phaseHint>S</phaseHint><evaluationMode>automatic</evaluationMode><comment><text>11.320937082212188</text><id>DFX:rectilinearity</id></comment><comment><text>de.gempa.tb1.Pick/20250413144152.727161.131877</text><id>RefPickID</id></comment><comment><text>8.336172639074173</text><id>SNR</id></comment></pick><pick publicID="de.gempa.tb1.Pick/20250413144217.737679.131890"><time><value>2025-04-13T14:42:08.398394Z</value></time><waveformID networkCode="CX" stationCode="PB07" channelCode="HHN"/><filterID>ITAPER(2)&gt;&gt;BW(3,3,20)</filterID><methodID>L2-AIC-GRID</methodID><horizontalSlowness><value>21.366689830950683</value></horizontalSlowness><backazimuth><value>277.1076840849146</value></backazimuth><phaseHint>S</phaseHint><evaluationMode>automatic</evaluationMode><comment><text>300.03316371538284</text><id>DFX:rectilinearity</id></comment><comment><text>de.gempa.tb1.Pick/20250413144206.578606.131879</text><id>RefPickID</id></comment><comment><text>5.108928255101101</text><id>SNR</id></comment></pick><origin publicID="de.gempa.tb1.Origin/20250413144217.753123.112784"><time><value>2025-04-13T14:41:19.19312Z</value><uncertainty>1.3506038188934326</uncertainty></time><latitude><value>-21.301158905029297</value><uncertainty>9.272479057312012</uncertainty></latitude><longitude><value>-68.50770568847656</value><uncertainty>19.575862884521484</uncertainty></longitude><depth><value>145.84060668945312</value><uncertainty>22.395078659057617</uncertainty></depth><depthType>from location</depthType><methodID>LOCSAT</methodID><earthModelID>iasp91_scanloc</earthModelID><quality><associatedPhaseCount>8</associatedPhaseCount><usedPhaseCount>8</usedPhaseCount><associatedStationCount>5</associatedStationCount><usedStationCount>5</usedStationCount><depthPhaseCount>0</depthPhaseCount><standardError>0.13603027832465717</standardError><azimuthalGap>269.9496154785156</azimuthalGap><maximumDistance>2.6903889179229736</maximumDistance><minimumDistance>0.8426317572593689</minimumDistance><medianDistance>1.351610541343689</medianDistance></quality><uncertainty><minHorizontalUncertainty>17.488744735717773</minHorizontalUncertainty><maxHorizontalUncertainty>43.030845642089844</maxHorizontalUncertainty><azimuthMaxHorizontalUncertainty>103.92355346679688</azimuthMaxHorizontalUncertainty><preferredDescription>horizontal uncertainty</preferredDescription></uncertainty><evaluationMode>automatic</evaluationMode><comment><text>0.52</text><id>mismatchScore</id></comment><arrival><pickID>de.gempa.tb1.Pick/20250413144149.534237.131872</pickID><phase>P</phase><azimuth>285.5025329589844</azimuth><distance>0.9496906399726868</distance><timeResidual>-0.2616157531738281</timeResidual><timeUsed>true</timeUsed><horizontalSlownessUsed>false</horizontalSlownessUsed><backazimuthUsed>false</backazimuthUsed><weight>1</weight></arrival><arrival><pickID>de.gempa.tb1.Pick/20250413144150.562299.131875</pickID><phase>P</phase><azimuth>234.075927734375</azimuth><distance>0.8426317572593689</distance><timeResidual>-0.04364967346191406</timeResidual><timeUsed>true</timeUsed><horizontalSlownessUsed>false</horizontalSlownessUsed><backazimuthUsed>false</backazimuthUsed><weight>1</weight></arrival><arrival><pickID>de.gempa.tb1.Pick/20250413144152.727161.131877</pickID><phase>P</phase><azimuth>237.0729675292969</azimuth><distance>1.3765419721603394</distance><timeResidual>0.03634834289550781</timeResidual><timeUsed>true</timeUsed><horizontalSlownessUsed>false</horizontalSlownessUsed><backazimuthUsed>false</backazimuthUsed><weight>1</weight></arrival><arrival><pickID>de.gempa.tb1.Pick/20250413144206.578606.131879</pickID><phase>P</phase><azimuth>251.4931335449219</azimuth><distance>1.351610541343689</distance><timeResidual>0.1488361358642578</timeResidual><timeUsed>true</timeUsed><horizontalSlownessUsed>false</horizontalSlownessUsed><backazimuthUsed>false</backazimuthUsed><weight>1</weight></arrival><arrival><pickID>de.gempa.tb1.Pick/20250413144208.581254.131882</pickID><phase>P</phase><azimuth>195.4521484375</azimuth><distance>2.6903889179229736</distance><timeResidual>0.08057403564453125</timeResidual><timeUsed>true</timeUsed><horizontalSlownessUsed>false</horizontalSlownessUsed><backazimuthUsed>false</backazimuthUsed><weight>1</weight></arrival><arrival><pickID>de.gempa.tb1.Pick/20250413144214.583243.131886</pickID><phase>S</phase><azimuth>285.5025329589844</azimuth><distance>0.9496906399726868</distance><timeResidual>0.18424034118652344</timeResidual><timeUsed>true</timeUsed><horizontalSlownessUsed>false</horizontalSlownessUsed><backazimuthUsed>false</backazimuthUsed><weight>1</weight></arrival><arrival><pickID>de.gempa.tb1.Pick/20250413144217.574827.131889</pickID><phase>S</phase><azimuth>237.0729675292969</azimuth><distance>1.3765419721603394</distance><timeResidual>-0.11296463012695312</timeResidual><timeUsed>true</timeUsed><horizontalSlownessUsed>false</horizontalSlownessUsed><backazimuthUsed>false</backazimuthUsed><weight>1</weight></arrival><arrival><pickID>de.gempa.tb1.Pick/20250413144217.737679.131890</pickID><phase>S</phase><azimuth>251.4931335449219</azimuth><distance>1.351610541343689</distance><timeResidual>-0.03185462951660156</timeResidual><timeUsed>true</timeUsed><horizontalSlownessUsed>false</horizontalSlownessUsed><backazimuthUsed>false</backazimuthUsed><weight>1</weight></arrival><magnitude publicID="de.gempa.tb1.Magnitude/20250413144251.509774.368941"><magnitude><value>2.3779673811976116</value></magnitude><type>M</type><methodID>weighted average</methodID><stationCount>3</stationCount></magnitude></origin><event publicID="gempa2025hhnq"><preferredOriginID>de.gempa.tb1.Origin/20250413144217.753123.112784</preferredOriginID><preferredMagnitudeID>de.gempa.tb1.Magnitude/20250413144251.509774.368941</preferredMagnitudeID><description><text>Chile-Bolivia Border Region</text><type>region name</type></description><originReference>de.gempa.tb1.Origin/20250413144217.753123.112784</originReference></event></EventParameters></seiscomp>