<?xml version="1.0" encoding="UTF-8"?>
<seiscomp xmlns="http://geofon.gfz-potsdam.de/ns/seiscomp3-schema/0.13" version="0.13"><EventParameters><pick publicID="de.gempa.tb1.Pick/20250414050114.596676.135807"><time><value>2025-04-14T05:01:09.658393Z</value></time><waveformID networkCode="CX" stationCode="PB06" channelCode="HHZ"/><filterID>ITAPER(4)&gt;&gt;BW(4,4,20)</filterID><methodID>AIC</methodID><horizontalSlowness><value>20.845312711150445</value></horizontalSlowness><backazimuth><value>276.24818777565486</value></backazimuth><phaseHint>P</phaseHint><evaluationMode>automatic</evaluationMode><comment><text>50.86357921053971</text><id>DFX:rectilinearity</id></comment><comment><text>10.644601488778026</text><id>SNR</id></comment></pick><pick publicID="de.gempa.tb1.Pick/20250414050115.705996.135809"><time><value>2025-04-14T05:01:09.448393Z</value></time><waveformID networkCode="CX" stationCode="PB03" channelCode="HHZ"/><filterID>ITAPER(4)&gt;&gt;BW(4,4,20)</filterID><methodID>AIC</methodID><horizontalSlowness><value>9.310710422447942</value></horizontalSlowness><backazimuth><value>108.15669744208705</value></backazimuth><phaseHint>P</phaseHint><evaluationMode>automatic</evaluationMode><comment><text>43.756179243999625</text><id>DFX:rectilinearity</id></comment><comment><text>102.00640314403839</text><id>SNR</id></comment></pick><pick publicID="de.gempa.tb1.Pick/20250414050116.886689.135811"><time><value>2025-04-14T05:01:11.658393Z</value></time><waveformID networkCode="CX" stationCode="PB07" channelCode="HHZ"/><filterID>ITAPER(4)&gt;&gt;BW(4,4,20)</filterID><methodID>AIC</methodID><horizontalSlowness><value>17.405238055440428</value></horizontalSlowness><backazimuth><value>123.78171704089027</value></backazimuth><phaseHint>P</phaseHint><evaluationMode>automatic</evaluationMode><comment><text>346.44645832911124</text><id>DFX:rectilinearity</id></comment><comment><text>234.20665651102655</text><id>SNR</id></comment></pick><pick publicID="de.gempa.tb1.Pick/20250414050117.237916.135813"><time><value>2025-04-14T05:01:06.880001Z</value></time><waveformID networkCode="CX" stationCode="PB09" channelCode="HHZ"/><filterID>ITAPER(4)&gt;&gt;BW(4,4,20)</filterID><methodID>AIC</methodID><horizontalSlowness><value>20.127012570418568</value></horizontalSlowness><backazimuth><value>108.09947629825498</value></backazimuth><phaseHint>P</phaseHint><evaluationMode>automatic</evaluationMode><comment><text>21.461168616263908</text><id>DFX:rectilinearity</id></comment><comment><text>210.80248271070408</text><id>SNR</id></comment></pick><pick publicID="de.gempa.tb1.Pick/20250414050118.575721.135815"><time><value>2025-04-14T05:01:13.558393Z</value></time><waveformID networkCode="CX" stationCode="PB01" channelCode="HHZ"/><filterID>ITAPER(4)&gt;&gt;BW(4,4,20)</filterID><methodID>AIC</methodID><horizontalSlowness><value>12.746834637932992</value></horizontalSlowness><backazimuth><value>247.0401893466419</value></backazimuth><phaseHint>P</phaseHint><evaluationMode>automatic</evaluationMode><comment><text>10.319307353302653</text><id>DFX:rectilinearity</id></comment><comment><text>29.43061532616361</text><id>SNR</id></comment></pick><pick publicID="de.gempa.tb1.Pick/20250414050120.485146.135817"><time><value>2025-04-14T05:01:14.218393Z</value></time><waveformID networkCode="CX" stationCode="PB02" channelCode="HHZ"/><filterID>ITAPER(4)&gt;&gt;BW(4,4,20)</filterID><methodID>AIC</methodID><horizontalSlowness><value>10.708342893149233</value></horizontalSlowness><backazimuth><value>96.23431769429095</value></backazimuth><phaseHint>P</phaseHint><evaluationMode>automatic</evaluationMode><comment><text>40.79020843595494</text><id>DFX:rectilinearity</id></comment><comment><text>17.490695228512834</text><id>SNR</id></comment></pick><pick publicID="de.gempa.tb1.Pick/20250414050133.78827.135819"><time><value>2025-04-14T05:01:25.468393Z</value></time><waveformID networkCode="CX" stationCode="PB03" channelCode="HHN"/><filterID>ITAPER(2)&gt;&gt;BW(3,3,20)</filterID><methodID>L2-AIC-GRID</methodID><horizontalSlowness><value>20.260653276677058</value></horizontalSlowness><backazimuth><value>284.48208009651955</value></backazimuth><phaseHint>S</phaseHint><evaluationMode>automatic</evaluationMode><comment><text>31.03439328497043</text><id>DFX:rectilinearity</id></comment><comment><text>de.gempa.tb1.Pick/20250414050115.705996.135809</text><id>RefPickID</id></comment><comment><text>5.418003429372924</text><id>SNR</id></comment></pick><pick publicID="de.gempa.tb1.Pick/20250414050134.532469.135820"><time><value>2025-04-14T05:01:25.278393Z</value></time><waveformID networkCode="CX" stationCode="PB06" channelCode="HHN"/><filterID>ITAPER(2)&gt;&gt;BW(3,3,20)</filterID><methodID>L2-AIC-GRID</methodID><horizontalSlowness><value>22.328440974073974</value></horizontalSlowness><backazimuth><value>154.19437483503498</value></backazimuth><phaseHint>S</phaseHint><evaluationMode>automatic</evaluationMode><comment><text>294.79031966344195</text><id>DFX:rectilinearity</id></comment><comment><text>de.gempa.tb1.Pick/20250414050114.596676.135807</text><id>RefPickID</id></comment><comment><text>9.358891610034664</text><id>SNR</id></comment></pick><pick publicID="de.gempa.tb1.Pick/20250414050138.776128.135821"><time><value>2025-04-14T05:01:32.248393Z</value></time><waveformID networkCode="CX" stationCode="PB01" channelCode="HHN"/><filterID>ITAPER(2)&gt;&gt;BW(3,3,20)</filterID><methodID>L2-AIC-GRID</methodID><horizontalSlowness><value>23.346330831178026</value></horizontalSlowness><backazimuth><value>71.05472938182163</value></backazimuth><phaseHint>S</phaseHint><evaluationMode>automatic</evaluationMode><comment><text>59.04680775460931</text><id>DFX:rectilinearity</id></comment><comment><text>de.gempa.tb1.Pick/20250414050118.575721.135815</text><id>RefPickID</id></comment><comment><text>6.498980950856043</text><id>SNR</id></comment></pick><origin publicID="de.gempa.tb1.Origin/20250414050139.542596.127856"><time><value>2025-04-14T05:00:49.295076Z</value><uncertainty>1.2263129949569702</uncertainty></time><latitude><value>-22.150793075561523</value><uncertainty>4.939101219177246</uncertainty></latitude><longitude><value>-68.79386901855469</value><uncertainty>16.4989070892334</uncertainty></longitude><depth><value>111.2485122680664</value><uncertainty>15.924460411071777</uncertainty></depth><depthType>from location</depthType><methodID>LOCSAT</methodID><earthModelID>iasp91_scanloc</earthModelID><quality><associatedPhaseCount>9</associatedPhaseCount><usedPhaseCount>9</usedPhaseCount><associatedStationCount>6</associatedStationCount><usedStationCount>6</usedStationCount><depthPhaseCount>0</depthPhaseCount><standardError>0.1635716903184782</standardError><azimuthalGap>262.8341979980469</azimuthalGap><maximumDistance>1.3168162107467651</maximumDistance><minimumDistance>0.545309841632843</minimumDistance><medianDistance>0.9073543548583984</medianDistance></quality><uncertainty><minHorizontalUncertainty>10.511726379394531</minHorizontalUncertainty><maxHorizontalUncertainty>35.401798248291016</maxHorizontalUncertainty><azimuthMaxHorizontalUncertainty>92.18992614746094</azimuthMaxHorizontalUncertainty><preferredDescription>horizontal uncertainty</preferredDescription></uncertainty><evaluationMode>automatic</evaluationMode><evaluationStatus>confirmed</evaluationStatus><comment><text>0.00</text><id>mismatchScore</id></comment><comment><text>mismatchScore</text><id>scevalMethod</id></comment><arrival><pickID>de.gempa.tb1.Pick/20250414050114.596676.135807</pickID><phase>P</phase><azimuth>232.3530578613281</azimuth><distance>0.9073543548583984</distance><timeResidual>-0.03868293762207031</timeResidual><timeUsed>true</timeUsed><horizontalSlownessUsed>false</horizontalSlownessUsed><backazimuthUsed>false</backazimuthUsed><weight>1</weight></arrival><arrival><pickID>de.gempa.tb1.Pick/20250414050115.705996.135809</pickID><phase>P</phase><azimuth>276.3505859375</azimuth><distance>0.8954031467437744</distance><timeResidual>-0.13582229614257812</timeResidual><timeUsed>true</timeUsed><horizontalSlownessUsed>false</horizontalSlownessUsed><backazimuthUsed>false</backazimuthUsed><weight>1</weight></arrival><arrival><pickID>de.gempa.tb1.Pick/20250414050116.886689.135811</pickID><phase>P</phase><azimuth>292.3926086425781</azimuth><distance>1.0984704494476318</distance><timeResidual>-0.0016422271728515625</timeResidual><timeUsed>true</timeUsed><horizontalSlownessUsed>false</horizontalSlownessUsed><backazimuthUsed>false</backazimuthUsed><weight>1</weight></arrival><arrival><pickID>de.gempa.tb1.Pick/20250414050117.237916.135813</pickID><phase>P</phase><azimuth>310.21630859375</azimuth><distance>0.545309841632843</distance><timeResidual>0.2666187286376953</timeResidual><timeUsed>true</timeUsed><horizontalSlownessUsed>false</horizontalSlownessUsed><backazimuthUsed>false</backazimuthUsed><weight>1</weight></arrival><arrival><pickID>de.gempa.tb1.Pick/20250414050118.575721.135815</pickID><phase>P</phase><azimuth>329.51885986328125</azimuth><distance>1.2772101163864136</distance><timeResidual>-0.07300567626953125</timeResidual><timeUsed>true</timeUsed><horizontalSlownessUsed>false</horizontalSlownessUsed><backazimuthUsed>false</backazimuthUsed><weight>1</weight></arrival><arrival><pickID>de.gempa.tb1.Pick/20250414050120.485146.135817</pickID><phase>P</phase><azimuth>308.701171875</azimuth><distance>1.3168162107467651</distance><timeResidual>0.13828086853027344</timeResidual><timeUsed>true</timeUsed><horizontalSlownessUsed>false</horizontalSlownessUsed><backazimuthUsed>false</backazimuthUsed><weight>1</weight></arrival><arrival><pickID>de.gempa.tb1.Pick/20250414050133.78827.135819</pickID><phase>S</phase><azimuth>276.3505859375</azimuth><distance>0.8954031467437744</distance><timeResidual>0.22624969482421875</timeResidual><timeUsed>true</timeUsed><horizontalSlownessUsed>false</horizontalSlownessUsed><backazimuthUsed>false</backazimuthUsed><weight>1</weight></arrival><arrival><pickID>de.gempa.tb1.Pick/20250414050134.532469.135820</pickID><phase>S</phase><azimuth>232.3530578613281</azimuth><distance>0.9073543548583984</distance><timeResidual>-0.16574668884277344</timeResidual><timeUsed>true</timeUsed><horizontalSlownessUsed>false</horizontalSlownessUsed><backazimuthUsed>false</backazimuthUsed><weight>1</weight></arrival><arrival><pickID>de.gempa.tb1.Pick/20250414050138.776128.135821</pickID><phase>S</phase><azimuth>329.51885986328125</azimuth><distance>1.2772101163864136</distance><timeResidual>-0.2160015106201172</timeResidual><timeUsed>true</timeUsed><horizontalSlownessUsed>false</horizontalSlownessUsed><backazimuthUsed>false</backazimuthUsed><weight>1</weight></arrival><magnitude publicID="de.gempa.tb1.Magnitude/20250414050143.177905.430809"><magnitude><value>2.093691475629877</value></magnitude><type>M</type><methodID>weighted average</methodID><stationCount>5</stationCount></magnitude></origin><event publicID="gempa2025hiqh"><preferredOriginID>de.gempa.tb1.Origin/20250414050139.542596.127856</preferredOriginID><preferredMagnitudeID>de.gempa.tb1.Magnitude/20250414050143.177905.430809</preferredMagnitudeID><description><text>Northern Chile</text><type>region name</type></description><originReference>de.gempa.tb1.Origin/20250414050139.542596.127856</originReference></event></EventParameters></seiscomp>