<?xml version="1.0" encoding="UTF-8"?>
<seiscomp xmlns="http://geofon.gfz-potsdam.de/ns/seiscomp3-schema/0.13" version="0.13"><EventParameters><pick publicID="de.gempa.tb1.Pick/20250411181239.672888.119302"><time><value>2025-04-11T18:12:33.188393Z</value></time><waveformID networkCode="CX" stationCode="PB06" channelCode="HHZ"/><filterID>ITAPER(4)&gt;&gt;BW(4,4,20)</filterID><methodID>AIC</methodID><horizontalSlowness><value>7.461422967185156</value></horizontalSlowness><backazimuth><value>283.47603753894305</value></backazimuth><phaseHint>P</phaseHint><evaluationMode>automatic</evaluationMode><comment><text>4977.168886037133</text><id>DFX:rectilinearity</id></comment><comment><text>110.37768459982193</text><id>SNR</id></comment></pick><pick publicID="de.gempa.tb1.Pick/20250411181244.789719.119305"><time><value>2025-04-11T18:12:38.638393Z</value></time><waveformID networkCode="CX" stationCode="PB03" channelCode="HHZ"/><filterID>ITAPER(4)&gt;&gt;BW(4,4,20)</filterID><methodID>AIC</methodID><horizontalSlowness><value>14.54840072412024</value></horizontalSlowness><backazimuth><value>196.30617627118502</value></backazimuth><phaseHint>P</phaseHint><evaluationMode>automatic</evaluationMode><comment><text>10085.825244594334</text><id>DFX:rectilinearity</id></comment><comment><text>228.51502888272464</text><id>SNR</id></comment></pick><pick publicID="de.gempa.tb1.Pick/20250411181245.71093.119307"><time><value>2025-04-11T18:12:40.518393Z</value></time><waveformID networkCode="CX" stationCode="PB15" channelCode="HHZ"/><filterID>ITAPER(4)&gt;&gt;BW(4,4,20)</filterID><methodID>AIC</methodID><horizontalSlowness><value>19.772073176114223</value></horizontalSlowness><backazimuth><value>43.632360971544813</value></backazimuth><phaseHint>P</phaseHint><evaluationMode>automatic</evaluationMode><comment><text>79393.08545658113</text><id>DFX:rectilinearity</id></comment><comment><text>99.42148696944638</text><id>SNR</id></comment></pick><pick publicID="de.gempa.tb1.Pick/20250411181252.175689.119309"><time><value>2025-04-11T18:12:44.128396Z</value></time><waveformID networkCode="CX" stationCode="PB07" channelCode="HHZ"/><filterID>ITAPER(4)&gt;&gt;BW(4,4,20)</filterID><methodID>AIC</methodID><horizontalSlowness><value>18.244914178880705</value></horizontalSlowness><backazimuth><value>176.62481795289514</value></backazimuth><phaseHint>P</phaseHint><evaluationMode>automatic</evaluationMode><comment><text>84698.45283273615</text><id>DFX:rectilinearity</id></comment><comment><text>456.7581444830103</text><id>SNR</id></comment></pick><pick publicID="de.gempa.tb1.Pick/20250411181252.177842.119311"><time><value>2025-04-11T18:12:46.57Z</value></time><waveformID networkCode="CX" stationCode="PB10" channelCode="HHZ"/><filterID>ITAPER(4)&gt;&gt;BW(4,4,20)</filterID><methodID>AIC</methodID><horizontalSlowness><value>8.536640857337995</value></horizontalSlowness><backazimuth><value>38.886625074934074</value></backazimuth><phaseHint>P</phaseHint><evaluationMode>automatic</evaluationMode><comment><text>231.5689077364104</text><id>DFX:rectilinearity</id></comment><comment><text>17.152921675238968</text><id>SNR</id></comment></pick><pick publicID="de.gempa.tb1.Pick/20250411181257.530031.119313"><time><value>2025-04-11T18:12:51.518393Z</value></time><waveformID networkCode="CX" stationCode="PB02" channelCode="HHZ"/><filterID>ITAPER(4)&gt;&gt;BW(4,4,20)</filterID><methodID>AIC</methodID><horizontalSlowness><value>14.094079938360208</value></horizontalSlowness><backazimuth><value>112.34051416965056</value></backazimuth><phaseHint>P</phaseHint><evaluationMode>automatic</evaluationMode><comment><text>1849.211346645988</text><id>DFX:rectilinearity</id></comment><comment><text>50.63827675332357</text><id>SNR</id></comment></pick><pick publicID="de.gempa.tb1.Pick/20250411181258.52145.119315"><time><value>2025-04-11T18:12:53.24Z</value></time><waveformID networkCode="CX" stationCode="PB19" channelCode="HHZ"/><filterID>ITAPER(4)&gt;&gt;BW(4,4,20)</filterID><methodID>AIC</methodID><horizontalSlowness><value>4.958933026420607</value></horizontalSlowness><backazimuth><value>68.44353177714636</value></backazimuth><phaseHint>P</phaseHint><evaluationMode>automatic</evaluationMode><comment><text>206.53390089292898</text><id>DFX:rectilinearity</id></comment><comment><text>63.74566994380201</text><id>SNR</id></comment></pick><pick publicID="de.gempa.tb1.Pick/20250411181300.955176.119317"><time><value>2025-04-11T18:12:47.009998Z</value></time><waveformID networkCode="CX" stationCode="PB09" channelCode="HHZ"/><filterID>ITAPER(4)&gt;&gt;BW(4,4,20)</filterID><methodID>AIC</methodID><horizontalSlowness><value>20.63295744158998</value></horizontalSlowness><backazimuth><value>152.53156577482335</value></backazimuth><phaseHint>P</phaseHint><evaluationMode>automatic</evaluationMode><comment><text>1260.1500998310119</text><id>DFX:rectilinearity</id></comment><comment><text>129.00584228239038</text><id>SNR</id></comment></pick><pick publicID="de.gempa.tb1.Pick/20250411181301.606483.119319"><time><value>2025-04-11T18:12:56.828393Z</value></time><waveformID networkCode="CX" stationCode="PB01" channelCode="HHZ"/><filterID>ITAPER(4)&gt;&gt;BW(4,4,20)</filterID><methodID>AIC</methodID><horizontalSlowness><value>22.285792124971227</value></horizontalSlowness><backazimuth><value>190.58238743792168</value></backazimuth><phaseHint>P</phaseHint><evaluationMode>automatic</evaluationMode><comment><text>331.78697460897513</text><id>DFX:rectilinearity</id></comment><comment><text>55.31817262304482</text><id>SNR</id></comment></pick><pick publicID="de.gempa.tb1.Pick/20250411181309.620119.119324"><time><value>2025-04-11T18:12:36.058393Z</value></time><waveformID networkCode="CX" stationCode="PB06" channelCode="HHN"/><filterID>ITAPER(2)&gt;&gt;BW(3,3,20)</filterID><methodID>L2-AIC-GRID</methodID><horizontalSlowness><value>21.522378723449187</value></horizontalSlowness><backazimuth><value>132.3639624764561</value></backazimuth><phaseHint>S</phaseHint><evaluationMode>automatic</evaluationMode><comment><text>29271.954650015065</text><id>DFX:rectilinearity</id></comment><comment><text>de.gempa.tb1.Pick/20250411181239.672888.119302</text><id>RefPickID</id></comment><comment><text>5.133881809497181</text><id>SNR</id></comment></pick><origin publicID="de.gempa.tb1.Origin/20250411181309.622818.62887"><time><value>2025-04-11T18:12:26.760911Z</value><uncertainty>0.3974844515323639</uncertainty></time><latitude><value>-22.641714096069336</value><uncertainty>2.3836727142333984</uncertainty></latitude><longitude><value>-69.89689636230469</value><uncertainty>3.208834648132324</uncertainty></longitude><depth><value>0</value></depth><depthType>operator assigned</depthType><methodID>LOCSAT</methodID><earthModelID>iasp91_scanloc</earthModelID><quality><associatedPhaseCount>10</associatedPhaseCount><usedPhaseCount>10</usedPhaseCount><associatedStationCount>9</associatedStationCount><usedStationCount>9</usedStationCount><depthPhaseCount>0</depthPhaseCount><standardError>0.4529495786188048</standardError><azimuthalGap>145.26624735444784</azimuthalGap><maximumDistance>1.6355819702148438</maximumDistance><minimumDistance>0.30689936876297</minimumDistance><medianDistance>1.0373502969741821</medianDistance></quality><uncertainty><minHorizontalUncertainty>4.911098957061768</minHorizontalUncertainty><maxHorizontalUncertainty>7.024791717529297</maxHorizontalUncertainty><azimuthMaxHorizontalUncertainty>73.62360382080078</azimuthMaxHorizontalUncertainty><preferredDescription>horizontal uncertainty</preferredDescription></uncertainty><evaluationMode>automatic</evaluationMode><evaluationStatus>confirmed</evaluationStatus><comment><text>0.00</text><id>mismatchScore</id></comment><comment><text>mismatchScore</text><id>scevalMethod</id></comment><arrival><pickID>de.gempa.tb1.Pick/20250411181239.672888.119302</pickID><phase>P</phase><azimuth>102.05738830566406</azimuth><distance>0.30689936876297</distance><timeResidual>0.5409317016601562</timeResidual><timeUsed>true</timeUsed><horizontalSlownessUsed>false</horizontalSlownessUsed><backazimuthUsed>false</backazimuthUsed><weight>1</weight></arrival><arrival><pickID>de.gempa.tb1.Pick/20250411181244.789719.119305</pickID><phase>P</phase><azimuth>12.734116554260254</azimuth><distance>0.6052350401878357</distance><timeResidual>0.2680492401123047</timeResidual><timeUsed>true</timeUsed><horizontalSlownessUsed>false</horizontalSlownessUsed><backazimuthUsed>false</backazimuthUsed><weight>1</weight></arrival><arrival><pickID>de.gempa.tb1.Pick/20250411181245.71093.119307</pickID><phase>P</phase><azimuth>145.2301025390625</azimuth><distance>0.687239944934845</distance><timeResidual>0.5766153335571289</timeResidual><timeUsed>true</timeUsed><horizontalSlownessUsed>false</horizontalSlownessUsed><backazimuthUsed>false</backazimuthUsed><weight>1</weight></arrival><arrival><pickID>de.gempa.tb1.Pick/20250411181252.175689.119309</pickID><phase>P</phase><azimuth>0.6270937323570251</azimuth><distance>0.9107058644294739</distance><timeResidual>-0.10137367248535156</timeResidual><timeUsed>true</timeUsed><horizontalSlownessUsed>false</horizontalSlownessUsed><backazimuthUsed>false</backazimuthUsed><weight>1</weight></arrival><arrival><pickID>de.gempa.tb1.Pick/20250411181252.177842.119311</pickID><phase>P</phase><azimuth>214.76907348632812</azimuth><distance>1.057875394821167</distance><timeResidual>-0.4802885055541992</timeResidual><timeUsed>true</timeUsed><horizontalSlownessUsed>false</horizontalSlownessUsed><backazimuthUsed>false</backazimuthUsed><weight>1</weight></arrival><arrival><pickID>de.gempa.tb1.Pick/20250411181257.530031.119313</pickID><phase>P</phase><azimuth>0.035320840775966644</azimuth><distance>1.3155936002731323</distance><timeResidual>-0.4718179702758789</timeResidual><timeUsed>true</timeUsed><horizontalSlownessUsed>false</horizontalSlownessUsed><backazimuthUsed>false</backazimuthUsed><weight>1</weight></arrival><arrival><pickID>de.gempa.tb1.Pick/20250411181258.52145.119315</pickID><phase>P</phase><azimuth>156.20436096191406</azimuth><distance>1.3752853870391846</distance><timeResidual>0.1447610855102539</timeResidual><timeUsed>true</timeUsed><horizontalSlownessUsed>false</horizontalSlownessUsed><backazimuthUsed>false</backazimuthUsed><weight>1</weight></arrival><arrival><pickID>de.gempa.tb1.Pick/20250411181300.955176.119317</pickID><phase>P</phase><azimuth>35.93122863769531</azimuth><distance>1.0373502969741821</distance><timeResidual>0.3512763977050781</timeResidual><timeUsed>true</timeUsed><horizontalSlownessUsed>false</horizontalSlownessUsed><backazimuthUsed>false</backazimuthUsed><weight>1</weight></arrival><arrival><pickID>de.gempa.tb1.Pick/20250411181301.606483.119319</pickID><phase>P</phase><azimuth>13.526996612548828</azimuth><distance>1.6355819702148438</distance><timeResidual>0.035180091857910156</timeResidual><timeUsed>true</timeUsed><horizontalSlownessUsed>false</horizontalSlownessUsed><backazimuthUsed>false</backazimuthUsed><weight>1</weight></arrival><arrival><pickID>de.gempa.tb1.Pick/20250411181309.620119.119324</pickID><phase>S</phase><azimuth>102.05738830566406</azimuth><distance>0.30689936876297</distance><timeResidual>-0.8634443283081055</timeResidual><timeUsed>true</timeUsed><horizontalSlownessUsed>false</horizontalSlownessUsed><backazimuthUsed>false</backazimuthUsed><weight>1</weight></arrival><magnitude publicID="de.gempa.tb1.Magnitude/20250411181310.94417.128512"><magnitude><value>2.7129702193028726</value></magnitude><type>M</type><methodID>weighted average</methodID><stationCount>7</stationCount></magnitude></origin><event publicID="gempa2025hecq"><preferredOriginID>de.gempa.tb1.Origin/20250411181309.622818.62887</preferredOriginID><preferredMagnitudeID>de.gempa.tb1.Magnitude/20250411181310.94417.128512</preferredMagnitudeID><description><text>Northern Chile</text><type>region name</type></description><originReference>de.gempa.tb1.Origin/20250411181309.622818.62887</originReference></event></EventParameters></seiscomp>