<?xml version="1.0" encoding="UTF-8"?>
<seiscomp xmlns="http://geofon.gfz-potsdam.de/ns/seiscomp3-schema/0.13" version="0.13"><EventParameters><pick publicID="de.gempa.tb1.Pick/20250415075358.627889.118139"><time><value>2025-04-15T07:53:52.888393Z</value></time><waveformID networkCode="CX" stationCode="PB03" channelCode="HHZ"/><filterID>ITAPER(4)&gt;&gt;BW(4,4,20)</filterID><methodID>AIC</methodID><horizontalSlowness><value>10.753113395717728</value></horizontalSlowness><backazimuth><value>179.76244825096754</value></backazimuth><phaseHint>P</phaseHint><evaluationMode>automatic</evaluationMode><comment><text>9.10673167032731</text><id>DFX:rectilinearity</id></comment><comment><text>7.65312290178455</text><id>SNR</id></comment></pick><pick publicID="de.gempa.tb1.Pick/20250415075401.630861.118141"><time><value>2025-04-15T07:53:54.388396Z</value></time><waveformID networkCode="CX" stationCode="PB07" channelCode="HHZ"/><filterID>ITAPER(4)&gt;&gt;BW(4,4,20)</filterID><methodID>AIC</methodID><horizontalSlowness><value>18.316214734427032</value></horizontalSlowness><backazimuth><value>246.6247366681181</value></backazimuth><phaseHint>P</phaseHint><evaluationMode>automatic</evaluationMode><comment><text>212.53390852928032</text><id>DFX:rectilinearity</id></comment><comment><text>21.061545901541688</text><id>SNR</id></comment></pick><pick publicID="de.gempa.tb1.Pick/20250415075402.538915.118143"><time><value>2025-04-15T07:53:54.698393Z</value></time><waveformID networkCode="CX" stationCode="PB01" channelCode="HHZ"/><filterID>ITAPER(4)&gt;&gt;BW(4,4,20)</filterID><methodID>AIC</methodID><horizontalSlowness><value>23.07057876757804</value></horizontalSlowness><backazimuth><value>88.27755417513121</value></backazimuth><phaseHint>P</phaseHint><evaluationMode>automatic</evaluationMode><comment><text>8.655543064154921</text><id>DFX:rectilinearity</id></comment><comment><text>9.605394537995622</text><id>SNR</id></comment></pick><pick publicID="de.gempa.tb1.Pick/20250415075405.048794.118145"><time><value>2025-04-15T07:53:49.109998Z</value></time><waveformID networkCode="CX" stationCode="PB09" channelCode="HHZ"/><filterID>ITAPER(4)&gt;&gt;BW(4,4,20)</filterID><methodID>AIC</methodID><horizontalSlowness><value>16.082811480181714</value></horizontalSlowness><backazimuth><value>0.5263357095530523</value></backazimuth><phaseHint>P</phaseHint><evaluationMode>automatic</evaluationMode><comment><text>11.121013346846249</text><id>DFX:rectilinearity</id></comment><comment><text>26.89387673192969</text><id>SNR</id></comment></pick><pick publicID="de.gempa.tb1.Pick/20250415075420.780599.118149"><time><value>2025-04-15T07:54:10.198393Z</value></time><waveformID networkCode="CX" stationCode="PB03" channelCode="HHN"/><filterID>ITAPER(2)&gt;&gt;BW(3,3,20)</filterID><methodID>L2-AIC-GRID</methodID><horizontalSlowness><value>12.817565089838547</value></horizontalSlowness><backazimuth><value>122.81276494827654</value></backazimuth><phaseHint>S</phaseHint><evaluationMode>automatic</evaluationMode><comment><text>14.674280644232464</text><id>DFX:rectilinearity</id></comment><comment><text>de.gempa.tb1.Pick/20250415075358.627889.118139</text><id>RefPickID</id></comment><comment><text>21.98912426238394</text><id>SNR</id></comment></pick><pick publicID="de.gempa.tb1.Pick/20250415075421.582616.118152"><time><value>2025-04-15T07:54:12.408393Z</value></time><waveformID networkCode="CX" stationCode="PB01" channelCode="HHN"/><filterID>ITAPER(2)&gt;&gt;BW(3,3,20)</filterID><methodID>L2-AIC-GRID</methodID><horizontalSlowness><value>18.635069811712544</value></horizontalSlowness><backazimuth><value>356.1722922493875</value></backazimuth><phaseHint>S</phaseHint><evaluationMode>automatic</evaluationMode><comment><text>19.766699959598334</text><id>DFX:rectilinearity</id></comment><comment><text>de.gempa.tb1.Pick/20250415075402.538915.118143</text><id>RefPickID</id></comment><comment><text>7.868747978795374</text><id>SNR</id></comment></pick><pick publicID="de.gempa.tb1.Pick/20250415075432.364512.118155"><time><value>2025-04-15T07:54:13.098396Z</value></time><waveformID networkCode="CX" stationCode="PB07" channelCode="HHN"/><filterID>ITAPER(2)&gt;&gt;BW(3,3,20)</filterID><methodID>L2-AIC-GRID</methodID><horizontalSlowness><value>23.143420426858754</value></horizontalSlowness><backazimuth><value>358.2736626534051</value></backazimuth><phaseHint>S</phaseHint><evaluationMode>automatic</evaluationMode><comment><text>286.5761394338392</text><id>DFX:rectilinearity</id></comment><comment><text>de.gempa.tb1.Pick/20250415075401.630861.118141</text><id>RefPickID</id></comment><comment><text>8.268541723339474</text><id>SNR</id></comment></pick><origin publicID="de.gempa.tb1.Origin/20250415075432.368055.58122"><time><value>2025-04-15T07:53:30.919242Z</value><uncertainty>1.4696619510650635</uncertainty></time><latitude><value>-21.910663604736328</value><uncertainty>8.456488609313965</uncertainty></latitude><longitude><value>-68.62950134277344</value><uncertainty>16.336076736450195</uncertainty></longitude><depth><value>115.5485076904297</value><uncertainty>22.89419937133789</uncertainty></depth><depthType>from location</depthType><methodID>LOCSAT</methodID><earthModelID>iasp91_scanloc</earthModelID><quality><associatedPhaseCount>7</associatedPhaseCount><usedPhaseCount>7</usedPhaseCount><associatedStationCount>4</associatedStationCount><usedStationCount>4</usedStationCount><depthPhaseCount>0</depthPhaseCount><standardError>0.22456476112027582</standardError><azimuthalGap>305.2474365234375</azimuthalGap><maximumDistance>1.1819941997528076</maximumDistance><minimumDistance>0.5801913738250732</minimumDistance><medianDistance>1.1762279272079468</medianDistance></quality><uncertainty><minHorizontalUncertainty>16.23623275756836</minHorizontalUncertainty><maxHorizontalUncertainty>35.952144622802734</maxHorizontalUncertainty><azimuthMaxHorizontalUncertainty>104.58673858642578</azimuthMaxHorizontalUncertainty><preferredDescription>horizontal uncertainty</preferredDescription></uncertainty><evaluationMode>automatic</evaluationMode><evaluationStatus>confirmed</evaluationStatus><comment><text>0.00</text><id>mismatchScore</id></comment><comment><text>mismatchScore</text><id>scevalMethod</id></comment><arrival><pickID>de.gempa.tb1.Pick/20250415075358.627889.118139</pickID><phase>P</phase><azimuth>262.2998962402344</azimuth><distance>1.051880955696106</distance><timeResidual>-0.25029754638671875</timeResidual><timeUsed>true</timeUsed><horizontalSlownessUsed>false</horizontalSlownessUsed><backazimuthUsed>false</backazimuthUsed><weight>1</weight></arrival><arrival><pickID>de.gempa.tb1.Pick/20250415075401.630861.118141</pickID><phase>P</phase><azimuth>278.6788635253906</azimuth><distance>1.1819941997528076</distance><timeResidual>-0.12372589111328125</timeResidual><timeUsed>true</timeUsed><horizontalSlownessUsed>false</horizontalSlownessUsed><backazimuthUsed>false</backazimuthUsed><weight>1</weight></arrival><arrival><pickID>de.gempa.tb1.Pick/20250415075402.538915.118143</pickID><phase>P</phase><azimuth>317.0524597167969</azimuth><distance>1.1762279272079468</distance><timeResidual>0.24465370178222656</timeResidual><timeUsed>true</timeUsed><horizontalSlownessUsed>false</horizontalSlownessUsed><backazimuthUsed>false</backazimuthUsed><weight>1</weight></arrival><arrival><pickID>de.gempa.tb1.Pick/20250415075405.048794.118145</pickID><phase>P</phase><azimuth>281.1909484863281</azimuth><distance>0.5801913738250732</distance><timeResidual>0.16591453552246094</timeResidual><timeUsed>true</timeUsed><horizontalSlownessUsed>false</horizontalSlownessUsed><backazimuthUsed>false</backazimuthUsed><weight>1</weight></arrival><arrival><pickID>de.gempa.tb1.Pick/20250415075420.780599.118149</pickID><phase>S</phase><azimuth>262.2998962402344</azimuth><distance>1.051880955696106</distance><timeResidual>-0.11646080017089844</timeResidual><timeUsed>true</timeUsed><horizontalSlownessUsed>false</horizontalSlownessUsed><backazimuthUsed>false</backazimuthUsed><weight>1</weight></arrival><arrival><pickID>de.gempa.tb1.Pick/20250415075421.582616.118152</pickID><phase>S</phase><azimuth>317.0524597167969</azimuth><distance>1.1762279272079468</distance><timeResidual>-0.2523841857910156</timeResidual><timeUsed>true</timeUsed><horizontalSlownessUsed>false</horizontalSlownessUsed><backazimuthUsed>false</backazimuthUsed><weight>1</weight></arrival><arrival><pickID>de.gempa.tb1.Pick/20250415075432.364512.118155</pickID><phase>S</phase><azimuth>278.6788635253906</azimuth><distance>1.1819941997528076</distance><timeResidual>0.3322715759277344</timeResidual><timeUsed>true</timeUsed><horizontalSlownessUsed>false</horizontalSlownessUsed><backazimuthUsed>false</backazimuthUsed><weight>1</weight></arrival><magnitude publicID="de.gempa.tb1.Magnitude/20250415075504.578558.107216"><magnitude><value>1.936603775210081</value></magnitude><type>M</type><methodID>weighted average</methodID><stationCount>2</stationCount></magnitude></origin><event publicID="gempa2025hksb"><preferredOriginID>de.gempa.tb1.Origin/20250415075432.368055.58122</preferredOriginID><preferredMagnitudeID>de.gempa.tb1.Magnitude/20250415075504.578558.107216</preferredMagnitudeID><description><text>Chile-Bolivia Border Region</text><type>region name</type></description><originReference>de.gempa.tb1.Origin/20250415075432.368055.58122</originReference></event></EventParameters></seiscomp>