<?xml version="1.0" encoding="UTF-8"?>
<seiscomp xmlns="http://geofon.gfz-potsdam.de/ns/seiscomp3-schema/0.13" version="0.13"><EventParameters><pick publicID="de.gempa.tb1.Pick/20250413144508.533476.124009"><time><value>2025-04-13T14:44:40.135Z</value></time><waveformID networkCode="GE" stationCode="TIRR" channelCode="BHZ"/><filterID>BW(4,0.7,2)</filterID><methodID>AIC</methodID><horizontalSlowness><value>10.995158626353382</value></horizontalSlowness><backazimuth><value>80.1784949812229</value></backazimuth><phaseHint>P</phaseHint><evaluationMode>automatic</evaluationMode><comment><text>1096.316601790623</text><id>DFX:rectilinearity</id></comment></pick><pick publicID="de.gempa.tb1.Pick/20250413144521.521951.124011"><time><value>2025-04-13T14:44:41.95Z</value></time><waveformID networkCode="GE" stationCode="CSS" channelCode="BHZ"/><filterID>BW(4,0.7,2)</filterID><methodID>AIC</methodID><horizontalSlowness><value>9.942564645016146</value></horizontalSlowness><backazimuth><value>94.75186508641102</value></backazimuth><phaseHint>P</phaseHint><evaluationMode>automatic</evaluationMode><comment><text>109.9084656313079</text><id>DFX:rectilinearity</id></comment></pick><pick publicID="de.gempa.tb1.Pick/20250413144535.536753.124015"><time><value>2025-04-13T14:45:10.382037Z</value></time><waveformID networkCode="RO" stationCode="MLR" channelCode="BHZ"/><filterID>BW(4,0.7,2)</filterID><methodID>AIC</methodID><horizontalSlowness><value>15.055670399502548</value></horizontalSlowness><backazimuth><value>331.8366996865622</value></backazimuth><phaseHint>P</phaseHint><evaluationMode>automatic</evaluationMode><comment><text>214.6871264073591</text><id>DFX:rectilinearity</id></comment></pick><pick publicID="de.gempa.tb1.Pick/20250413144610.528649.124020"><time><value>2025-04-13T14:45:44.95Z</value></time><waveformID networkCode="GE" stationCode="EIL" channelCode="BHZ"/><filterID>BW(4,0.7,2)</filterID><methodID>AIC</methodID><horizontalSlowness><value>9.200217311880776</value></horizontalSlowness><backazimuth><value>316.71400777085984</value></backazimuth><phaseHint>P</phaseHint><evaluationMode>automatic</evaluationMode><comment><text>11.610992365041655</text><id>DFX:rectilinearity</id></comment></pick><pick publicID="de.gempa.tb1.Pick/20250413144640.065571.124026"><time><value>2025-04-13T14:45:58.619536Z</value></time><waveformID networkCode="RO" stationCode="BZS" channelCode="BHZ"/><filterID>BW(4,0.7,2)</filterID><methodID>AIC</methodID><horizontalSlowness><value>11.36324352241109</value></horizontalSlowness><backazimuth><value>119.94213812125915</value></backazimuth><phaseHint>P</phaseHint><evaluationMode>automatic</evaluationMode><comment><text>13.127427050395005</text><id>DFX:rectilinearity</id></comment></pick><pick publicID="de.gempa.tb1.Pick/20250413144642.470175.124029"><time><value>2025-04-13T14:46:13.595Z</value></time><waveformID networkCode="GE" stationCode="PSZ" channelCode="BHZ"/><filterID>BW(4,0.7,2)</filterID><methodID>AIC</methodID><horizontalSlowness><value>9.876175432258671</value></horizontalSlowness><backazimuth><value>150.61948855202712</value></backazimuth><phaseHint>P</phaseHint><evaluationMode>automatic</evaluationMode><comment><text>12.137657705456515</text><id>DFX:rectilinearity</id></comment></pick><pick publicID="de.gempa.tb1.Pick/20250413144703.483324.124035"><time><value>2025-04-13T14:46:41.29Z</value></time><waveformID networkCode="PL" stationCode="SUW" channelCode="HHZ"/><methodID>AIC</methodID><horizontalSlowness><value>5.363035896345321</value></horizontalSlowness><backazimuth><value>139.38310995795348</value></backazimuth><phaseHint>P</phaseHint><evaluationMode>automatic</evaluationMode><comment><text>37.280501223884556</text><id>DFX:rectilinearity</id></comment></pick><pick publicID="de.gempa.tb1.Pick/20250413144708.087262.124037"><time><value>2025-04-13T14:46:47.169538Z</value></time><waveformID networkCode="MN" stationCode="CUC" channelCode="BHZ"/><filterID>BW(4,0.7,2)</filterID><methodID>AIC</methodID><horizontalSlowness><value>12.128704068287822</value></horizontalSlowness><backazimuth><value>141.46329686888447</value></backazimuth><phaseHint>P</phaseHint><evaluationMode>automatic</evaluationMode><comment><text>622.7471993525837</text><id>DFX:rectilinearity</id></comment></pick><pick publicID="de.gempa.tb1.Pick/20250413144724.260818.124047"><time><value>2025-04-13T14:46:51.0000Z</value></time><waveformID networkCode="GE" stationCode="MORC" channelCode="BHZ"/><filterID>BW(4,0.7,2)</filterID><methodID>AIC</methodID><horizontalSlowness><value>10.140411726595255</value></horizontalSlowness><backazimuth><value>118.2313135424369</value></backazimuth><phaseHint>P</phaseHint><evaluationMode>automatic</evaluationMode><comment><text>12.033364231318972</text><id>DFX:rectilinearity</id></comment></pick><pick publicID="de.gempa.tb1.Pick/20250413144732.16957.124050"><time><value>2025-04-13T14:47:13.93Z</value></time><waveformID networkCode="CZ" stationCode="KHC" channelCode="HHZ"/><filterID>BW(4,0.7,2)</filterID><methodID>AIC</methodID><horizontalSlowness><value>9.88575552902981</value><uncertainty>5.212143079532435</uncertainty></horizontalSlowness><backazimuth><value>100.80214295032906</value><uncertainty>30.56980199941511</uncertainty></backazimuth><phaseHint>P</phaseHint><evaluationMode>automatic</evaluationMode><comment><text>0.7405681689107131</text><id>DFX:rectilinearity</id></comment></pick><pick publicID="de.gempa.tb1.Pick/20250413144826.146635.124053"><time><value>2025-04-13T14:47:40.550001Z</value></time><waveformID networkCode="GE" stationCode="FLT1" channelCode="BHZ"/><filterID>BW(4,0.7,2)</filterID><methodID>AIC</methodID><horizontalSlowness><value>12.148026651528689</value></horizontalSlowness><backazimuth><value>136.99922973472647</value></backazimuth><phaseHint>P</phaseHint><evaluationMode>automatic</evaluationMode><comment><text>24.941297855779656</text><id>DFX:rectilinearity</id></comment></pick><origin publicID="de.gempa.tb1.Origin/20250413144826.171409.147467"><time><value>2025-04-13T14:42:58.304624Z</value><uncertainty>1.152529001235962</uncertainty></time><latitude><value>41.276851654052734</value><uncertainty>5.67696475982666</uncertainty></latitude><longitude><value>36.96929931640625</value><uncertainty>14.626619338989258</uncertainty></longitude><depth><value>0</value></depth><depthType>operator assigned</depthType><methodID>LOCSAT</methodID><earthModelID>iasp91</earthModelID><quality><associatedPhaseCount>11</associatedPhaseCount><usedPhaseCount>9</usedPhaseCount><associatedStationCount>11</associatedStationCount><usedStationCount>9</usedStationCount><depthPhaseCount>0</depthPhaseCount><standardError>1.443302140357913</standardError><azimuthalGap>219.9504852294922</azimuthalGap><maximumDistance>20.680437088012695</maximumDistance><minimumDistance>6.926053047180176</minimumDistance><medianDistance>13.845890998840332</medianDistance></quality><uncertainty><minHorizontalUncertainty>8.978793144226074</minHorizontalUncertainty><maxHorizontalUncertainty>32.45327377319336</maxHorizontalUncertainty><azimuthMaxHorizontalUncertainty>74.68827819824219</azimuthMaxHorizontalUncertainty><preferredDescription>horizontal uncertainty</preferredDescription></uncertainty><evaluationMode>automatic</evaluationMode><comment><text>219.95</text><id>maxGap</id></comment><arrival><pickID>de.gempa.tb1.Pick/20250413144508.533476.124009</pickID><phase>P</phase><azimuth>299.67205810546875</azimuth><distance>7.043666362762451</distance><timeResidual>-2.367698669433594</timeResidual><timeUsed>true</timeUsed><horizontalSlownessUsed>false</horizontalSlownessUsed><backazimuthUsed>false</backazimuthUsed><weight>1</weight></arrival><arrival><pickID>de.gempa.tb1.Pick/20250413144521.521951.124011</pickID><phase>P</phase><azimuth>205.60841369628906</azimuth><distance>6.926053047180176</distance><timeResidual>1.0329055786132812</timeResidual><timeUsed>true</timeUsed><horizontalSlownessUsed>false</horizontalSlownessUsed><backazimuthUsed>false</backazimuthUsed><weight>1</weight></arrival><arrival><pickID>de.gempa.tb1.Pick/20250413144535.536753.124015</pickID><phase>P</phase><azimuth>301.3651428222656</azimuth><distance>9.06306266784668</distance><timeResidual>0.18782806396484375</timeResidual><timeUsed>true</timeUsed><horizontalSlownessUsed>false</horizontalSlownessUsed><backazimuthUsed>false</backazimuthUsed><weight>1</weight></arrival><arrival><pickID>de.gempa.tb1.Pick/20250413144610.528649.124020</pickID><phase>P</phase><azimuth>188.69493103027344</azimuth><distance>11.697022438049316</distance><timeResidual>-1.3744125366210938</timeResidual><timeUsed>true</timeUsed><horizontalSlownessUsed>false</horizontalSlownessUsed><backazimuthUsed>false</backazimuthUsed><weight>1</weight></arrival><arrival><pickID>de.gempa.tb1.Pick/20250413144640.065571.124026</pickID><phase>P</phase><azimuth>296.3655090332031</azimuth><distance>11.969694137573242</distance><timeResidual>8.640106201171875</timeResidual><timeUsed>false</timeUsed><horizontalSlownessUsed>false</horizontalSlownessUsed><backazimuthUsed>false</backazimuthUsed><weight>0</weight></arrival><arrival><pickID>de.gempa.tb1.Pick/20250413144642.470175.124029</pickID><phase>P</phase><azimuth>304.3787841796875</azimuth><distance>13.845890998840332</distance><timeResidual>-1.991455078125</timeResidual><timeUsed>true</timeUsed><horizontalSlownessUsed>false</horizontalSlownessUsed><backazimuthUsed>false</backazimuthUsed><weight>1</weight></arrival><arrival><pickID>de.gempa.tb1.Pick/20250413144703.483324.124035</pickID><phase>P</phase><azimuth>328.74444580078125</azimuth><distance>15.7301664352417</distance><timeResidual>0.37854766845703125</timeResidual><timeUsed>true</timeUsed><horizontalSlownessUsed>false</horizontalSlownessUsed><backazimuthUsed>false</backazimuthUsed><weight>1</weight></arrival><arrival><pickID>de.gempa.tb1.Pick/20250413144708.087262.124037</pickID><phase>P</phase><azimuth>272.4068603515625</azimuth><distance>16.109830856323242</distance><timeResidual>1.241455078125</timeResidual><timeUsed>true</timeUsed><horizontalSlownessUsed>false</horizontalSlownessUsed><backazimuthUsed>false</backazimuthUsed><weight>1</weight></arrival><arrival><pickID>de.gempa.tb1.Pick/20250413144724.260818.124047</pickID><phase>P</phase><azimuth>308.5914306640625</azimuth><distance>16.01369857788086</distance><timeResidual>6.376228332519531</timeResidual><timeUsed>false</timeUsed><horizontalSlownessUsed>false</horizontalSlownessUsed><backazimuthUsed>false</backazimuthUsed><weight>0</weight></arrival><arrival><pickID>de.gempa.tb1.Pick/20250413144732.16957.124050</pickID><phase>P</phase><azimuth>303.4281005859375</azimuth><distance>18.207427978515625</distance><timeResidual>1.8442306518554688</timeResidual><timeUsed>true</timeUsed><horizontalSlownessUsed>false</horizontalSlownessUsed><backazimuthUsed>false</backazimuthUsed><weight>1</weight></arrival><arrival><pickID>de.gempa.tb1.Pick/20250413144826.146635.124053</pickID><phase>P</phase><azimuth>311.0232849121094</azimuth><distance>20.680437088012695</distance><timeResidual>1.0484848022460938</timeResidual><timeUsed>true</timeUsed><horizontalSlownessUsed>false</horizontalSlownessUsed><backazimuthUsed>false</backazimuthUsed><weight>1</weight></arrival><magnitude publicID="de.gempa.tb1.Magnitude/20250413144826.185155.369440"><magnitude><value>4.431570334204597</value></magnitude><type>M</type><methodID>weighted average</methodID><stationCount>7</stationCount></magnitude></origin><event publicID="gempa2025hhnr"><preferredOriginID>de.gempa.tb1.Origin/20250413144826.171409.147467</preferredOriginID><preferredMagnitudeID>de.gempa.tb1.Magnitude/20250413144826.185155.369440</preferredMagnitudeID><type>not locatable</type><description><text>Türkiye</text><type>region name</type></description><originReference>de.gempa.tb1.Origin/20250413144826.171409.147467</originReference></event></EventParameters></seiscomp>