<?xml version="1.0" encoding="UTF-8"?>
<seiscomp xmlns="http://geofon.gfz-potsdam.de/ns/seiscomp3-schema/0.13" version="0.13"><EventParameters><pick publicID="de.gempa.tb1.Pick/20250414133124.362685.138298"><time><value>2025-04-14T13:31:17.51Z</value></time><waveformID networkCode="CX" stationCode="PB09" channelCode="HHZ"/><filterID>ITAPER(4)&gt;&gt;BW(4,4,20)</filterID><methodID>AIC</methodID><horizontalSlowness><value>16.6402465607727</value></horizontalSlowness><backazimuth><value>78.2604096480845</value></backazimuth><phaseHint>P</phaseHint><evaluationMode>automatic</evaluationMode><comment><text>392.7224121430184</text><id>DFX:rectilinearity</id></comment><comment><text>386.312805742765</text><id>SNR</id></comment></pick><pick publicID="de.gempa.tb1.Pick/20250414133125.777482.138300"><time><value>2025-04-14T13:31:20.958393Z</value></time><waveformID networkCode="CX" stationCode="PB01" channelCode="HHZ"/><filterID>ITAPER(4)&gt;&gt;BW(4,4,20)</filterID><methodID>AIC</methodID><horizontalSlowness><value>8.061544064496642</value></horizontalSlowness><backazimuth><value>143.73856508320245</value></backazimuth><phaseHint>P</phaseHint><evaluationMode>automatic</evaluationMode><comment><text>267.710931948376</text><id>DFX:rectilinearity</id></comment><comment><text>146.70032259875632</text><id>SNR</id></comment></pick><pick publicID="de.gempa.tb1.Pick/20250414133128.501896.138302"><time><value>2025-04-14T13:31:21.858393Z</value></time><waveformID networkCode="CX" stationCode="PB03" channelCode="HHZ"/><filterID>ITAPER(4)&gt;&gt;BW(4,4,20)</filterID><methodID>AIC</methodID><horizontalSlowness><value>8.800322990828978</value></horizontalSlowness><backazimuth><value>83.9897062187822</value></backazimuth><phaseHint>P</phaseHint><evaluationMode>automatic</evaluationMode><comment><text>1289.3991510936335</text><id>DFX:rectilinearity</id></comment><comment><text>302.4482804243123</text><id>SNR</id></comment></pick><pick publicID="de.gempa.tb1.Pick/20250414133130.646687.138304"><time><value>2025-04-14T13:31:23.368393Z</value></time><waveformID networkCode="CX" stationCode="PB02" channelCode="HHZ"/><filterID>ITAPER(4)&gt;&gt;BW(4,4,20)</filterID><methodID>AIC</methodID><horizontalSlowness><value>4.091970260245085</value></horizontalSlowness><backazimuth><value>97.845590127773</value></backazimuth><phaseHint>P</phaseHint><evaluationMode>automatic</evaluationMode><comment><text>381.4882200385724</text><id>DFX:rectilinearity</id></comment><comment><text>108.76570525767318</text><id>SNR</id></comment></pick><pick publicID="de.gempa.tb1.Pick/20250414133130.651662.138306"><time><value>2025-04-14T13:31:24.158393Z</value></time><waveformID networkCode="CX" stationCode="PB06" channelCode="HHZ"/><filterID>ITAPER(4)&gt;&gt;BW(4,4,20)</filterID><methodID>AIC</methodID><horizontalSlowness><value>7.904667161101137</value></horizontalSlowness><backazimuth><value>70.73150391891397</value></backazimuth><phaseHint>P</phaseHint><evaluationMode>automatic</evaluationMode><comment><text>167.99914531057894</text><id>DFX:rectilinearity</id></comment><comment><text>57.55065518602372</text><id>SNR</id></comment></pick><pick publicID="de.gempa.tb1.Pick/20250414133133.58559.138308"><time><value>2025-04-14T13:31:28.300001Z</value></time><waveformID networkCode="CX" stationCode="PATCX" channelCode="HHZ"/><filterID>ITAPER(4)&gt;&gt;BW(4,4,20)</filterID><methodID>AIC</methodID><horizontalSlowness><value>19.676504939188948</value></horizontalSlowness><backazimuth><value>91.21453233161654</value></backazimuth><phaseHint>P</phaseHint><evaluationMode>automatic</evaluationMode><comment><text>118.17809803875932</text><id>DFX:rectilinearity</id></comment><comment><text>29.62320922541908</text><id>SNR</id></comment></pick><pick publicID="de.gempa.tb1.Pick/20250414133133.842071.138310"><time><value>2025-04-14T13:31:22.648396Z</value></time><waveformID networkCode="CX" stationCode="PB07" channelCode="HHZ"/><filterID>ITAPER(4)&gt;&gt;BW(4,4,20)</filterID><methodID>AIC</methodID><horizontalSlowness><value>12.695468350716864</value></horizontalSlowness><backazimuth><value>90.47229576957061</value></backazimuth><phaseHint>P</phaseHint><evaluationMode>automatic</evaluationMode><comment><text>6251.152360644788</text><id>DFX:rectilinearity</id></comment><comment><text>894.4822034604091</text><id>SNR</id></comment></pick><pick publicID="de.gempa.tb1.Pick/20250414133134.061622.138312"><time><value>2025-04-14T13:31:28.188393Z</value></time><waveformID networkCode="CX" stationCode="PB08" channelCode="HHZ"/><filterID>ITAPER(4)&gt;&gt;BW(4,4,20)</filterID><methodID>AIC</methodID><horizontalSlowness><value>15.49441874756526</value></horizontalSlowness><backazimuth><value>205.99279020082125</value></backazimuth><phaseHint>P</phaseHint><evaluationMode>automatic</evaluationMode><comment><text>55.0944565208462</text><id>DFX:rectilinearity</id></comment><comment><text>14.516760233922158</text><id>SNR</id></comment></pick><pick publicID="de.gempa.tb1.Pick/20250414133134.698769.138314"><time><value>2025-04-14T13:31:28.848393Z</value></time><waveformID networkCode="CX" stationCode="PB15" channelCode="HHZ"/><filterID>ITAPER(4)&gt;&gt;BW(4,4,20)</filterID><methodID>AIC</methodID><horizontalSlowness><value>22.53286201193184</value></horizontalSlowness><backazimuth><value>64.49168480889557</value></backazimuth><phaseHint>P</phaseHint><evaluationMode>automatic</evaluationMode><comment><text>376.43221468338174</text><id>DFX:rectilinearity</id></comment><comment><text>16.330706241056596</text><id>SNR</id></comment></pick><pick publicID="de.gempa.tb1.Pick/20250414133140.515138.138316"><time><value>2025-04-14T13:31:35.43Z</value></time><waveformID networkCode="CX" stationCode="PB19" channelCode="HHZ"/><filterID>ITAPER(4)&gt;&gt;BW(4,4,20)</filterID><methodID>AIC</methodID><horizontalSlowness><value>8.059270130374159</value></horizontalSlowness><backazimuth><value>24.132987681645716</value></backazimuth><phaseHint>P</phaseHint><evaluationMode>automatic</evaluationMode><comment><text>41.137638366437635</text><id>DFX:rectilinearity</id></comment><comment><text>47.75744901911833</text><id>SNR</id></comment></pick><pick publicID="de.gempa.tb1.Pick/20250414133144.593973.138318"><time><value>2025-04-14T13:31:37.03Z</value></time><waveformID networkCode="CX" stationCode="PSGCX" channelCode="HHZ"/><filterID>ITAPER(4)&gt;&gt;BW(4,4,20)</filterID><methodID>AIC</methodID><horizontalSlowness><value>6.526952337992562</value></horizontalSlowness><backazimuth><value>178.75346112746328</value></backazimuth><phaseHint>P</phaseHint><evaluationMode>automatic</evaluationMode><comment><text>8.972177637267077</text><id>DFX:rectilinearity</id></comment><comment><text>21.559209463646184</text><id>SNR</id></comment></pick><pick publicID="de.gempa.tb1.Pick/20250414133146.928057.138320"><time><value>2025-04-14T13:31:40.448393Z</value></time><waveformID networkCode="CX" stationCode="PB03" channelCode="HHN"/><filterID>ITAPER(2)&gt;&gt;BW(3,3,20)</filterID><methodID>L2-AIC-GRID</methodID><horizontalSlowness><value>14.80663654617937</value></horizontalSlowness><backazimuth><value>219.3727986862205</value></backazimuth><phaseHint>S</phaseHint><evaluationMode>automatic</evaluationMode><comment><text>3368.5779643319443</text><id>DFX:rectilinearity</id></comment><comment><text>de.gempa.tb1.Pick/20250414133128.501896.138302</text><id>RefPickID</id></comment><comment><text>5.834874411184433</text><id>SNR</id></comment></pick><pick publicID="de.gempa.tb1.Pick/20250414133147.030258.138321"><time><value>2025-04-14T13:31:39.268393Z</value></time><waveformID networkCode="CX" stationCode="PB01" channelCode="HHN"/><filterID>ITAPER(2)&gt;&gt;BW(3,3,20)</filterID><methodID>L2-AIC-GRID</methodID><horizontalSlowness><value>18.231566136596697</value></horizontalSlowness><backazimuth><value>319.15969181481626</value></backazimuth><phaseHint>S</phaseHint><evaluationMode>automatic</evaluationMode><comment><text>6942.925210173018</text><id>DFX:rectilinearity</id></comment><comment><text>de.gempa.tb1.Pick/20250414133125.777482.138300</text><id>RefPickID</id></comment><comment><text>13.210827659579357</text><id>SNR</id></comment></pick><pick publicID="de.gempa.tb1.Pick/20250414133149.598487.138322"><time><value>2025-04-14T13:31:43.378393Z</value></time><waveformID networkCode="CX" stationCode="PB02" channelCode="HHN"/><filterID>ITAPER(2)&gt;&gt;BW(3,3,20)</filterID><methodID>L2-AIC-GRID</methodID><horizontalSlowness><value>18.188878993232656</value></horizontalSlowness><backazimuth><value>14.061020361152003</value></backazimuth><phaseHint>S</phaseHint><evaluationMode>automatic</evaluationMode><comment><text>11766.80722759971</text><id>DFX:rectilinearity</id></comment><comment><text>de.gempa.tb1.Pick/20250414133130.646687.138304</text><id>RefPickID</id></comment><comment><text>7.402347758040451</text><id>SNR</id></comment></pick><pick publicID="de.gempa.tb1.Pick/20250414133152.592504.138324"><time><value>2025-04-14T13:31:44.658393Z</value></time><waveformID networkCode="CX" stationCode="PB06" channelCode="HHN"/><filterID>ITAPER(2)&gt;&gt;BW(3,3,20)</filterID><methodID>L2-AIC-GRID</methodID><horizontalSlowness><value>23.425008045221393</value></horizontalSlowness><backazimuth><value>330.76020343611373</value></backazimuth><phaseHint>S</phaseHint><evaluationMode>automatic</evaluationMode><comment><text>3318.589501620378</text><id>DFX:rectilinearity</id></comment><comment><text>de.gempa.tb1.Pick/20250414133130.651662.138306</text><id>RefPickID</id></comment><comment><text>16.091868340040342</text><id>SNR</id></comment></pick><pick publicID="de.gempa.tb1.Pick/20250414133157.719884.138328"><time><value>2025-04-14T13:31:51.588393Z</value></time><waveformID networkCode="CX" stationCode="PB08" channelCode="HHN"/><filterID>ITAPER(2)&gt;&gt;BW(3,3,20)</filterID><methodID>L2-AIC-GRID</methodID><horizontalSlowness><value>15.054996424344028</value></horizontalSlowness><backazimuth><value>212.13773549044276</value></backazimuth><phaseHint>S</phaseHint><evaluationMode>automatic</evaluationMode><comment><text>1252.460326158893</text><id>DFX:rectilinearity</id></comment><comment><text>de.gempa.tb1.Pick/20250414133134.061622.138312</text><id>RefPickID</id></comment><comment><text>9.934399424761779</text><id>SNR</id></comment></pick><pick publicID="de.gempa.tb1.Pick/20250414133158.123694.138329"><time><value>2025-04-14T13:31:51.470001Z</value></time><waveformID networkCode="CX" stationCode="PATCX" channelCode="HHN"/><filterID>ITAPER(2)&gt;&gt;BW(3,3,20)</filterID><methodID>L2-AIC-GRID</methodID><horizontalSlowness><value>23.574502495349247</value></horizontalSlowness><backazimuth><value>183.36327007273476</value></backazimuth><phaseHint>S</phaseHint><evaluationMode>automatic</evaluationMode><comment><text>8452.630472917479</text><id>DFX:rectilinearity</id></comment><comment><text>de.gempa.tb1.Pick/20250414133133.58559.138308</text><id>RefPickID</id></comment><comment><text>16.281422488358377</text><id>SNR</id></comment></pick><pick publicID="de.gempa.tb1.Pick/20250414133159.29408.138330"><time><value>2025-04-14T13:31:51.318391Z</value></time><waveformID networkCode="CX" stationCode="PB16" channelCode="HHZ"/><filterID>ITAPER(4)&gt;&gt;BW(4,4,20)</filterID><methodID>AIC</methodID><horizontalSlowness><value>7.27323724449869</value><uncertainty>4.943648435030181</uncertainty></horizontalSlowness><backazimuth><value>343.2869035493489</value><uncertainty>39.73571463090419</uncertainty></backazimuth><phaseHint>P</phaseHint><evaluationMode>automatic</evaluationMode><comment><text>0.7846752439778366</text><id>DFX:rectilinearity</id></comment><comment><text>10.224007067859869</text><id>SNR</id></comment></pick><pick publicID="de.gempa.tb1.Pick/20250414133201.96162.138334"><time><value>2025-04-14T13:31:52.628393Z</value></time><waveformID networkCode="CX" stationCode="PB15" channelCode="HHN"/><filterID>ITAPER(2)&gt;&gt;BW(3,3,20)</filterID><methodID>L2-AIC-GRID</methodID><horizontalSlowness><value>23.454026897615645</value></horizontalSlowness><backazimuth><value>290.24015092164677</value></backazimuth><phaseHint>S</phaseHint><evaluationMode>automatic</evaluationMode><comment><text>39613.38053748937</text><id>DFX:rectilinearity</id></comment><comment><text>de.gempa.tb1.Pick/20250414133134.698769.138314</text><id>RefPickID</id></comment><comment><text>9.983643808116454</text><id>SNR</id></comment></pick><origin publicID="de.gempa.tb1.Origin/20250414133201.964925.140136"><time><value>2025-04-14T13:30:58.012178Z</value><uncertainty>0.6222355365753174</uncertainty></time><latitude><value>-21.702545166015625</value><uncertainty>2.465700387954712</uncertainty></latitude><longitude><value>-68.69349670410156</value><uncertainty>8.796692848205566</uncertainty></longitude><depth><value>137.11134338378906</value><uncertainty>8.983574867248535</uncertainty></depth><depthType>from location</depthType><methodID>LOCSAT</methodID><earthModelID>iasp91_scanloc</earthModelID><quality><associatedPhaseCount>19</associatedPhaseCount><usedPhaseCount>19</usedPhaseCount><associatedStationCount>12</associatedStationCount><usedStationCount>12</usedStationCount><depthPhaseCount>0</depthPhaseCount><standardError>0.4737688856676089</standardError><azimuthalGap>207.01011657714844</azimuthalGap><maximumDistance>3.4364781379699707</maximumDistance><minimumDistance>0.5183303356170654</minimumDistance><medianDistance>1.2882087230682373</medianDistance></quality><uncertainty><minHorizontalUncertainty>5.267497062683105</minHorizontalUncertainty><maxHorizontalUncertainty>18.861970901489258</maxHorizontalUncertainty><azimuthMaxHorizontalUncertainty>88.6184310913086</azimuthMaxHorizontalUncertainty><preferredDescription>horizontal uncertainty</preferredDescription></uncertainty><evaluationMode>automatic</evaluationMode><evaluationStatus>confirmed</evaluationStatus><comment><text>0.02</text><id>mismatchScore</id></comment><comment><text>mismatchScore</text><id>scevalMethod</id></comment><arrival><pickID>de.gempa.tb1.Pick/20250414133124.362685.138298</pickID><phase>P</phase><azimuth>259.5205993652344</azimuth><distance>0.5183303356170654</distance><timeResidual>-0.48248291015625</timeResidual><timeUsed>true</timeUsed><horizontalSlownessUsed>false</horizontalSlownessUsed><backazimuthUsed>false</backazimuthUsed><weight>1</weight></arrival><arrival><pickID>de.gempa.tb1.Pick/20250414133125.777482.138300</pickID><phase>P</phase><azimuth>311.4165344238281</azimuth><distance>0.9889124035835266</distance><timeResidual>-0.5340862274169922</timeResidual><timeUsed>true</timeUsed><horizontalSlownessUsed>false</horizontalSlownessUsed><backazimuthUsed>false</backazimuthUsed><weight>1</weight></arrival><arrival><pickID>de.gempa.tb1.Pick/20250414133128.501896.138302</pickID><phase>P</phase><azimuth>250.52613830566406</azimuth><distance>1.0426794290542603</distance><timeResidual>-0.1168193817138672</timeResidual><timeUsed>true</timeUsed><horizontalSlownessUsed>false</horizontalSlownessUsed><backazimuthUsed>false</backazimuthUsed><weight>1</weight></arrival><arrival><pickID>de.gempa.tb1.Pick/20250414133130.646687.138304</pickID><phase>P</phase><azimuth>288.56787109375</azimuth><distance>1.1827903985977173</distance><timeResidual>0.04911041259765625</timeResidual><timeUsed>true</timeUsed><horizontalSlownessUsed>false</horizontalSlownessUsed><backazimuthUsed>false</backazimuthUsed><weight>1</weight></arrival><arrival><pickID>de.gempa.tb1.Pick/20250414133130.651662.138306</pickID><phase>P</phase><azimuth>219.02586364746094</azimuth><distance>1.2882087230682373</distance><timeResidual>-0.21483993530273438</timeResidual><timeUsed>true</timeUsed><horizontalSlownessUsed>false</horizontalSlownessUsed><backazimuthUsed>false</backazimuthUsed><weight>1</weight></arrival><arrival><pickID>de.gempa.tb1.Pick/20250414133133.58559.138308</pickID><phase>P</phase><azimuth>302.5415344238281</azimuth><distance>1.6195284128189087</distance><timeResidual>0.33499717712402344</timeResidual><timeUsed>true</timeUsed><horizontalSlownessUsed>false</horizontalSlownessUsed><backazimuthUsed>false</backazimuthUsed><weight>1</weight></arrival><arrival><pickID>de.gempa.tb1.Pick/20250414133133.842071.138310</pickID><phase>P</phase><azimuth>268.5406494140625</azimuth><distance>1.1093162298202515</distance><timeResidual>0.04541015625</timeResidual><timeUsed>true</timeUsed><horizontalSlownessUsed>false</horizontalSlownessUsed><backazimuthUsed>false</backazimuthUsed><weight>1</weight></arrival><arrival><pickID>de.gempa.tb1.Pick/20250414133134.061622.138312</pickID><phase>P</phase><azimuth>344.4490661621094</azimuth><distance>1.6120041608810425</distance><timeResidual>0.30358314514160156</timeResidual><timeUsed>true</timeUsed><horizontalSlownessUsed>false</horizontalSlownessUsed><backazimuthUsed>false</backazimuthUsed><weight>1</weight></arrival><arrival><pickID>de.gempa.tb1.Pick/20250414133134.698769.138314</pickID><phase>P</phase><azimuth>205.4891357421875</azimuth><distance>1.662243366241455</distance><timeResidual>0.4159889221191406</timeResidual><timeUsed>true</timeUsed><horizontalSlownessUsed>false</horizontalSlownessUsed><backazimuthUsed>false</backazimuthUsed><weight>1</weight></arrival><arrival><pickID>de.gempa.tb1.Pick/20250414133140.515138.138316</pickID><phase>P</phase><azimuth>193.99732971191406</azimuth><distance>2.2600769996643066</distance><timeResidual>-0.11293983459472656</timeResidual><timeUsed>true</timeUsed><horizontalSlownessUsed>false</horizontalSlownessUsed><backazimuthUsed>false</backazimuthUsed><weight>1</weight></arrival><arrival><pickID>de.gempa.tb1.Pick/20250414133144.593973.138318</pickID><phase>P</phase><azimuth>327.162841796875</azimuth><distance>2.4859912395477295</distance><timeResidual>-1.34033203125</timeResidual><timeUsed>true</timeUsed><horizontalSlownessUsed>false</horizontalSlownessUsed><backazimuthUsed>false</backazimuthUsed><weight>1</weight></arrival><arrival><pickID>de.gempa.tb1.Pick/20250414133146.928057.138320</pickID><phase>S</phase><azimuth>250.52613830566406</azimuth><distance>1.0426794290542603</distance><timeResidual>-0.11059188842773438</timeResidual><timeUsed>true</timeUsed><horizontalSlownessUsed>false</horizontalSlownessUsed><backazimuthUsed>false</backazimuthUsed><weight>1</weight></arrival><arrival><pickID>de.gempa.tb1.Pick/20250414133147.030258.138321</pickID><phase>S</phase><azimuth>311.4165344238281</azimuth><distance>0.9889124035835266</distance><timeResidual>-0.4275703430175781</timeResidual><timeUsed>true</timeUsed><horizontalSlownessUsed>false</horizontalSlownessUsed><backazimuthUsed>false</backazimuthUsed><weight>1</weight></arrival><arrival><pickID>de.gempa.tb1.Pick/20250414133149.598487.138322</pickID><phase>S</phase><azimuth>288.56787109375</azimuth><distance>1.1827903985977173</distance><timeResidual>0.4203681945800781</timeResidual><timeUsed>true</timeUsed><horizontalSlownessUsed>false</horizontalSlownessUsed><backazimuthUsed>false</backazimuthUsed><weight>1</weight></arrival><arrival><pickID>de.gempa.tb1.Pick/20250414133152.592504.138324</pickID><phase>S</phase><azimuth>219.02586364746094</azimuth><distance>1.2882087230682373</distance><timeResidual>-0.1815776824951172</timeResidual><timeUsed>true</timeUsed><horizontalSlownessUsed>false</horizontalSlownessUsed><backazimuthUsed>false</backazimuthUsed><weight>1</weight></arrival><arrival><pickID>de.gempa.tb1.Pick/20250414133157.719884.138328</pickID><phase>S</phase><azimuth>344.4490661621094</azimuth><distance>1.6120041608810425</distance><timeResidual>0.4748954772949219</timeResidual><timeUsed>true</timeUsed><horizontalSlownessUsed>false</horizontalSlownessUsed><backazimuthUsed>false</backazimuthUsed><weight>1</weight></arrival><arrival><pickID>de.gempa.tb1.Pick/20250414133158.123694.138329</pickID><phase>S</phase><azimuth>302.5415344238281</azimuth><distance>1.6195284128189087</distance><timeResidual>0.21120071411132812</timeResidual><timeUsed>true</timeUsed><horizontalSlownessUsed>false</horizontalSlownessUsed><backazimuthUsed>false</backazimuthUsed><weight>1</