<?xml version="1.0" encoding="UTF-8"?>
<seiscomp xmlns="http://geofon.gfz-potsdam.de/ns/seiscomp3-schema/0.13" version="0.13"><EventParameters><pick publicID="de.gempa.tb1.Pick/20250412164020.622631.125280"><time><value>2025-04-12T16:40:14.080001Z</value></time><waveformID networkCode="CX" stationCode="PB09" channelCode="HHZ"/><filterID>ITAPER(4)&gt;&gt;BW(4,4,20)</filterID><methodID>AIC</methodID><horizontalSlowness><value>19.919125714619877</value></horizontalSlowness><backazimuth><value>285.104354528415</value></backazimuth><phaseHint>P</phaseHint><evaluationMode>automatic</evaluationMode><comment><text>9.327904137291133</text><id>DFX:rectilinearity</id></comment><comment><text>20.02711917687751</text><id>SNR</id></comment></pick><pick publicID="de.gempa.tb1.Pick/20250412164022.515952.125282"><time><value>2025-04-12T16:40:17.038393Z</value></time><waveformID networkCode="CX" stationCode="PB01" channelCode="HHZ"/><filterID>ITAPER(4)&gt;&gt;BW(4,4,20)</filterID><methodID>AIC</methodID><horizontalSlowness><value>19.51071182209943</value></horizontalSlowness><backazimuth><value>335.4702877431961</value></backazimuth><phaseHint>P</phaseHint><evaluationMode>automatic</evaluationMode><comment><text>18.41925379020202</text><id>DFX:rectilinearity</id></comment><comment><text>28.511465511605717</text><id>SNR</id></comment></pick><pick publicID="de.gempa.tb1.Pick/20250412164025.517857.125284"><time><value>2025-04-12T16:40:18.288394Z</value></time><waveformID networkCode="CX" stationCode="PB03" channelCode="HHZ"/><filterID>ITAPER(4)&gt;&gt;BW(4,4,20)</filterID><methodID>AIC</methodID><horizontalSlowness><value>19.72570186534503</value></horizontalSlowness><backazimuth><value>238.0691527368167</value></backazimuth><phaseHint>P</phaseHint><evaluationMode>automatic</evaluationMode><comment><text>7.365321328768029</text><id>DFX:rectilinearity</id></comment><comment><text>8.181717329759342</text><id>SNR</id></comment></pick><pick publicID="de.gempa.tb1.Pick/20250412164026.504924.125286"><time><value>2025-04-12T16:40:19.748393Z</value></time><waveformID networkCode="CX" stationCode="PB02" channelCode="HHZ"/><filterID>ITAPER(4)&gt;&gt;BW(4,4,20)</filterID><methodID>AIC</methodID><horizontalSlowness><value>21.49825202302999</value></horizontalSlowness><backazimuth><value>64.55981524548034</value></backazimuth><phaseHint>P</phaseHint><evaluationMode>automatic</evaluationMode><comment><text>32.911911721909725</text><id>DFX:rectilinearity</id></comment><comment><text>20.186439898394141</text><id>SNR</id></comment></pick><pick publicID="de.gempa.tb1.Pick/20250412164036.643165.125288"><time><value>2025-04-12T16:40:28.200001Z</value></time><waveformID networkCode="CX" stationCode="PB09" channelCode="HHN"/><filterID>ITAPER(2)&gt;&gt;BW(3,3,20)</filterID><methodID>L2-AIC-GRID</methodID><horizontalSlowness><value>16.069409142340433</value></horizontalSlowness><backazimuth><value>308.26993830009576</value></backazimuth><phaseHint>S</phaseHint><evaluationMode>automatic</evaluationMode><comment><text>56.35285816247585</text><id>DFX:rectilinearity</id></comment><comment><text>de.gempa.tb1.Pick/20250412164020.622631.125280</text><id>RefPickID</id></comment><comment><text>5.510249321183339</text><id>SNR</id></comment></pick><pick publicID="de.gempa.tb1.Pick/20250412164042.779043.125289"><time><value>2025-04-12T16:40:18.918393Z</value></time><waveformID networkCode="CX" stationCode="PB07" channelCode="HHZ"/><filterID>ITAPER(4)&gt;&gt;BW(4,4,20)</filterID><methodID>AIC</methodID><horizontalSlowness><value>23.553815074861827</value></horizontalSlowness><backazimuth><value>281.66353174749707</value></backazimuth><phaseHint>P</phaseHint><evaluationMode>automatic</evaluationMode><comment><text>259.92792067383874</text><id>DFX:rectilinearity</id></comment><comment><text>28.442256673984623</text><id>SNR</id></comment></pick><pick publicID="de.gempa.tb1.Pick/20250412164044.523361.125291"><time><value>2025-04-12T16:40:35.538394Z</value></time><waveformID networkCode="CX" stationCode="PB03" channelCode="HHN"/><filterID>ITAPER(2)&gt;&gt;BW(3,3,20)</filterID><methodID>L2-AIC-GRID</methodID><horizontalSlowness><value>20.25541416319021</value></horizontalSlowness><backazimuth><value>268.23896042348804</value></backazimuth><phaseHint>S</phaseHint><evaluationMode>automatic</evaluationMode><comment><text>22.113183398105267</text><id>DFX:rectilinearity</id></comment><comment><text>de.gempa.tb1.Pick/20250412164025.517857.125284</text><id>RefPickID</id></comment><comment><text>14.390110065379853</text><id>SNR</id></comment></pick><pick publicID="de.gempa.tb1.Pick/20250412164124.108583.125296"><time><value>2025-04-12T16:40:36.748393Z</value></time><waveformID networkCode="CX" stationCode="PB07" channelCode="HHN"/><filterID>ITAPER(2)&gt;&gt;BW(3,3,20)</filterID><methodID>L2-AIC-GRID</methodID><horizontalSlowness><value>21.144320173334016</value></horizontalSlowness><backazimuth><value>202.30513146314217</value></backazimuth><phaseHint>S</phaseHint><evaluationMode>automatic</evaluationMode><comment><text>287.9927094693107</text><id>DFX:rectilinearity</id></comment><comment><text>de.gempa.tb1.Pick/20250412164042.779043.125289</text><id>RefPickID</id></comment><comment><text>5.973825333802636</text><id>SNR</id></comment></pick><origin publicID="de.gempa.tb1.Origin/20250412164124.112312.87132"><time><value>2025-04-12T16:39:55.791728Z</value><uncertainty>1.3926587104797363</uncertainty></time><latitude><value>-21.652421951293945</value><uncertainty>12.584879875183105</uncertainty></latitude><longitude><value>-68.73240661621094</value><uncertainty>11.632793426513672</uncertainty></longitude><depth><value>122.57313537597656</value><uncertainty>10.69391918182373</uncertainty></depth><depthType>from location</depthType><methodID>LOCSAT</methodID><earthModelID>iasp91_scanloc</earthModelID><quality><associatedPhaseCount>8</associatedPhaseCount><usedPhaseCount>8</usedPhaseCount><associatedStationCount>5</associatedStationCount><usedStationCount>5</usedStationCount><depthPhaseCount>0</depthPhaseCount><standardError>0.2095882585429528</standardError><azimuthalGap>296.64122009277344</azimuthalGap><maximumDistance>1.1331599950790405</maximumDistance><minimumDistance>0.4949436485767365</minimumDistance><medianDistance>1.0268809795379639</medianDistance></quality><uncertainty><minHorizontalUncertainty>22.02690315246582</minHorizontalUncertainty><maxHorizontalUncertainty>29.417348861694336</maxHorizontalUncertainty><azimuthMaxHorizontalUncertainty>143.0965576171875</azimuthMaxHorizontalUncertainty><preferredDescription>horizontal uncertainty</preferredDescription></uncertainty><evaluationMode>automatic</evaluationMode><evaluationStatus>confirmed</evaluationStatus><comment><text>0.00</text><id>mismatchScore</id></comment><comment><text>mismatchScore</text><id>scevalMethod</id></comment><arrival><pickID>de.gempa.tb1.Pick/20250412164020.622631.125280</pickID><phase>P</phase><azimuth>253.0820770263672</azimuth><distance>0.4949436485767365</distance><timeResidual>0.06189727783203125</timeResidual><timeUsed>true</timeUsed><horizontalSlownessUsed>false</horizontalSlownessUsed><backazimuthUsed>false</backazimuthUsed><weight>1</weight></arrival><arrival><pickID>de.gempa.tb1.Pick/20250412164022.515952.125282</pickID><phase>P</phase><azimuth>310.6008605957031</azimuth><distance>0.928871750831604</distance><timeResidual>-0.3751792907714844</timeResidual><timeUsed>true</timeUsed><horizontalSlownessUsed>false</horizontalSlownessUsed><backazimuthUsed>false</backazimuthUsed><weight>1</weight></arrival><arrival><pickID>de.gempa.tb1.Pick/20250412164025.517857.125284</pickID><phase>P</phase><azimuth>247.24208068847656</azimuth><distance>1.0268809795379639</distance><timeResidual>-0.05691146850585938</timeResidual><timeUsed>true</timeUsed><horizontalSlownessUsed>false</horizontalSlownessUsed><backazimuthUsed>false</backazimuthUsed><weight>1</weight></arrival><arrival><pickID>de.gempa.tb1.Pick/20250412164026.504924.125286</pickID><phase>P</phase><azimuth>286.7744140625</azimuth><distance>1.1331599950790405</distance><timeResidual>0.3296928405761719</timeResidual><timeUsed>true</timeUsed><horizontalSlownessUsed>false</horizontalSlownessUsed><backazimuthUsed>false</backazimuthUsed><weight>1</weight></arrival><arrival><pickID>de.gempa.tb1.Pick/20250412164036.643165.125288</pickID><phase>S</phase><azimuth>253.0820770263672</azimuth><distance>0.4949436485767365</distance><timeResidual>0.119598388671875</timeResidual><timeUsed>true</timeUsed><horizontalSlownessUsed>false</horizontalSlownessUsed><backazimuthUsed>false</backazimuthUsed><weight>1</weight></arrival><arrival><pickID>de.gempa.tb1.Pick/20250412164042.779043.125289</pickID><phase>P</phase><azimuth>265.84930419921875</azimuth><distance>1.0756000280380249</distance><timeResidual>0.08749580383300781</timeResidual><timeUsed>true</timeUsed><horizontalSlownessUsed>false</horizontalSlownessUsed><backazimuthUsed>false</backazimuthUsed><weight>1</weight></arrival><arrival><pickID>de.gempa.tb1.Pick/20250412164044.523361.125291</pickID><phase>S</phase><azimuth>247.24208068847656</azimuth><distance>1.0268809795379639</distance><timeResidual>-0.2551307678222656</timeResidual><timeUsed>true</timeUsed><horizontalSlownessUsed>false</horizontalSlownessUsed><backazimuthUsed>false</backazimuthUsed><weight>1</weight></arrival><arrival><pickID>de.gempa.tb1.Pick/20250412164124.108583.125296</pickID><phase>S</phase><azimuth>265.84930419921875</azimuth><distance>1.0756000280380249</distance><timeResidual>0.08854293823242188</timeResidual><timeUsed>true</timeUsed><horizontalSlownessUsed>false</horizontalSlownessUsed><backazimuthUsed>false</backazimuthUsed><weight>1</weight></arrival><magnitude publicID="de.gempa.tb1.Magnitude/20250412164130.937681.253515"><magnitude><value>2.4334036723199097</value></magnitude><type>M</type><methodID>weighted average</methodID><stationCount>2</stationCount></magnitude></origin><event publicID="gempa2025hfvo"><preferredOriginID>de.gempa.tb1.Origin/20250412164124.112312.87132</preferredOriginID><preferredMagnitudeID>de.gempa.tb1.Magnitude/20250412164130.937681.253515</preferredMagnitudeID><typeCertainty>suspected</typeCertainty><description><text>Chile-Bolivia Border Region</text><type>region name</type></description><originReference>de.gempa.tb1.Origin/20250412164124.112312.87132</originReference></event></EventParameters></seiscomp>