<?xml version="1.0" encoding="UTF-8"?>
<seiscomp xmlns="http://geofon.gfz-potsdam.de/ns/seiscomp3-schema/0.13" version="0.13"><EventParameters><pick publicID="de.gempa.tb1.Pick/20250413020957.550501.128221"><time><value>2025-04-13T02:09:50.918393Z</value></time><waveformID networkCode="CX" stationCode="PB08" channelCode="HHZ"/><filterID>ITAPER(4)&gt;&gt;BW(4,4,20)</filterID><methodID>AIC</methodID><horizontalSlowness><value>15.17268416781207</value></horizontalSlowness><backazimuth><value>226.17977695080623</value></backazimuth><phaseHint>P</phaseHint><evaluationMode>automatic</evaluationMode><comment><text>12.11919429484647</text><id>DFX:rectilinearity</id></comment><comment><text>53.46969802816689</text><id>SNR</id></comment></pick><pick publicID="de.gempa.tb1.Pick/20250413021002.778082.128223"><time><value>2025-04-13T02:09:55.328393Z</value></time><waveformID networkCode="CX" stationCode="PB01" channelCode="HHZ"/><filterID>ITAPER(4)&gt;&gt;BW(4,4,20)</filterID><methodID>AIC</methodID><horizontalSlowness><value>12.497790633326781</value></horizontalSlowness><backazimuth><value>356.26145580204957</value></backazimuth><phaseHint>P</phaseHint><evaluationMode>automatic</evaluationMode><comment><text>24.899730991501865</text><id>DFX:rectilinearity</id></comment><comment><text>169.18695160241896</text><id>SNR</id></comment></pick><pick publicID="de.gempa.tb1.Pick/20250413021004.566114.128225"><time><value>2025-04-13T02:09:59.25Z</value></time><waveformID networkCode="CX" stationCode="PSGCX" channelCode="HHZ"/><filterID>ITAPER(4)&gt;&gt;BW(4,4,20)</filterID><methodID>AIC</methodID><horizontalSlowness><value>7.054083838856254</value></horizontalSlowness><backazimuth><value>200.0356136295091</value></backazimuth><phaseHint>P</phaseHint><evaluationMode>automatic</evaluationMode><comment><text>49.18242184750007</text><id>DFX:rectilinearity</id></comment><comment><text>51.13578828236904</text><id>SNR</id></comment></pick><pick publicID="de.gempa.tb1.Pick/20250413021005.553373.128227"><time><value>2025-04-13T02:10:00.928393Z</value></time><waveformID networkCode="CX" stationCode="PB02" channelCode="HHZ"/><filterID>ITAPER(4)&gt;&gt;BW(4,4,20)</filterID><methodID>AIC</methodID><horizontalSlowness><value>4.529760052346775</value></horizontalSlowness><backazimuth><value>9.86040884182458</value></backazimuth><phaseHint>P</phaseHint><evaluationMode>automatic</evaluationMode><comment><text>107.86134939633978</text><id>DFX:rectilinearity</id></comment><comment><text>46.53777812871996</text><id>SNR</id></comment></pick><pick publicID="de.gempa.tb1.Pick/20250413021007.285336.128229"><time><value>2025-04-13T02:09:58.880001Z</value></time><waveformID networkCode="CX" stationCode="PATCX" channelCode="HHZ"/><filterID>ITAPER(4)&gt;&gt;BW(4,4,20)</filterID><methodID>AIC</methodID><horizontalSlowness><value>20.72146173677325</value></horizontalSlowness><backazimuth><value>46.67536677126506</value></backazimuth><phaseHint>P</phaseHint><evaluationMode>automatic</evaluationMode><comment><text>550.7502789435695</text><id>DFX:rectilinearity</id></comment><comment><text>12.897997352484966</text><id>SNR</id></comment></pick><pick publicID="de.gempa.tb1.Pick/20250413021009.587008.128231"><time><value>2025-04-13T02:10:03.599998Z</value></time><waveformID networkCode="CX" stationCode="PB09" channelCode="HHZ"/><filterID>ITAPER(4)&gt;&gt;BW(4,4,20)</filterID><methodID>AIC</methodID><horizontalSlowness><value>16.17481839326338</value></horizontalSlowness><backazimuth><value>275.85066232495836</value></backazimuth><phaseHint>P</phaseHint><evaluationMode>automatic</evaluationMode><comment><text>28.567908663079983</text><id>DFX:rectilinearity</id></comment><comment><text>38.133292966712226</text><id>SNR</id></comment></pick><pick publicID="de.gempa.tb1.Pick/20250413021010.042286.128233"><time><value>2025-04-13T02:10:02.198393Z</value></time><waveformID networkCode="CX" stationCode="PB08" channelCode="HHN"/><filterID>ITAPER(2)&gt;&gt;BW(3,3,20)</filterID><methodID>L2-AIC-GRID</methodID><horizontalSlowness><value>15.00821800480337</value></horizontalSlowness><backazimuth><value>213.339417292809</value></backazimuth><phaseHint>S</phaseHint><evaluationMode>automatic</evaluationMode><comment><text>530.0110384079539</text><id>DFX:rectilinearity</id></comment><comment><text>de.gempa.tb1.Pick/20250413020957.550501.128221</text><id>RefPickID</id></comment><comment><text>15.832873564807382</text><id>SNR</id></comment></pick><pick publicID="de.gempa.tb1.Pick/20250413021014.673328.128234"><time><value>2025-04-13T02:10:07.888393Z</value></time><waveformID networkCode="CX" stationCode="PB03" channelCode="HHZ"/><filterID>ITAPER(4)&gt;&gt;BW(4,4,20)</filterID><methodID>AIC</methodID><horizontalSlowness><value>6.467339999500187</value></horizontalSlowness><backazimuth><value>102.82581689345524</value></backazimuth><phaseHint>P</phaseHint><evaluationMode>automatic</evaluationMode><comment><text>13.560137157728</text><id>DFX:rectilinearity</id></comment><comment><text>20.308369878718555</text><id>SNR</id></comment></pick><pick publicID="de.gempa.tb1.Pick/20250413021016.532732.128236"><time><value>2025-04-13T02:10:10.578393Z</value></time><waveformID networkCode="CX" stationCode="PB16" channelCode="HHZ"/><filterID>ITAPER(4)&gt;&gt;BW(4,4,20)</filterID><methodID>AIC</methodID><horizontalSlowness><value>12.260420614415493</value></horizontalSlowness><backazimuth><value>265.46803141827496</value></backazimuth><phaseHint>P</phaseHint><evaluationMode>automatic</evaluationMode><comment><text>2.3538887778049644</text><id>DFX:rectilinearity</id></comment><comment><text>19.930513372338694</text><id>SNR</id></comment></pick><pick publicID="de.gempa.tb1.Pick/20250413021018.626331.128238"><time><value>2025-04-13T02:10:10.518393Z</value></time><waveformID networkCode="CX" stationCode="PB01" channelCode="HHN"/><filterID>ITAPER(2)&gt;&gt;BW(3,3,20)</filterID><methodID>L2-AIC-GRID</methodID><horizontalSlowness><value>23.310847792461917</value></horizontalSlowness><backazimuth><value>122.5074068101695</value></backazimuth><phaseHint>S</phaseHint><evaluationMode>automatic</evaluationMode><comment><text>1180.8101298918564</text><id>DFX:rectilinearity</id></comment><comment><text>de.gempa.tb1.Pick/20250413021002.778082.128223</text><id>RefPickID</id></comment><comment><text>9.555610287791181</text><id>SNR</id></comment></pick><pick publicID="de.gempa.tb1.Pick/20250413021021.511683.128239"><time><value>2025-04-13T02:10:04.608394Z</value></time><waveformID networkCode="CX" stationCode="PB07" channelCode="HHZ"/><filterID>ITAPER(4)&gt;&gt;BW(4,4,20)</filterID><methodID>AIC</methodID><horizontalSlowness><value>22.58686723860113</value></horizontalSlowness><backazimuth><value>206.16251838583656</value></backazimuth><phaseHint>P</phaseHint><evaluationMode>automatic</evaluationMode><comment><text>450.8700890863155</text><id>DFX:rectilinearity</id></comment><comment><text>55.13047883152637</text><id>SNR</id></comment></pick><pick publicID="de.gempa.tb1.Pick/20250413021025.658333.128241"><time><value>2025-04-13T02:10:17.06Z</value></time><waveformID networkCode="CX" stationCode="PSGCX" channelCode="HHN"/><filterID>ITAPER(2)&gt;&gt;BW(3,3,20)</filterID><methodID>L2-AIC-GRID</methodID><horizontalSlowness><value>19.275976487853736</value></horizontalSlowness><backazimuth><value>154.18593600323348</value></backazimuth><phaseHint>S</phaseHint><evaluationMode>automatic</evaluationMode><comment><text>311.73812415612406</text><id>DFX:rectilinearity</id></comment><comment><text>de.gempa.tb1.Pick/20250413021004.566114.128225</text><id>RefPickID</id></comment><comment><text>9.030443135872686</text><id>SNR</id></comment></pick><pick publicID="de.gempa.tb1.Pick/20250413021045.641909.128244"><time><value>2025-04-13T02:10:31.628393Z</value></time><waveformID networkCode="CX" stationCode="PB03" channelCode="HHN"/><filterID>ITAPER(2)&gt;&gt;BW(3,3,20)</filterID><methodID>L2-AIC-GRID</methodID><horizontalSlowness><value>16.989731537726385</value></horizontalSlowness><backazimuth><value>295.46837975653784</value></backazimuth><phaseHint>S</phaseHint><evaluationMode>automatic</evaluationMode><comment><text>60.96416700044378</text><id>DFX:rectilinearity</id></comment><comment><text>de.gempa.tb1.Pick/20250413021014.673328.128234</text><id>RefPickID</id></comment><comment><text>7.138909894946336</text><id>SNR</id></comment></pick><pick publicID="de.gempa.tb1.Pick/20250413021054.561194.128245"><time><value>2025-04-13T02:10:36.978393Z</value></time><waveformID networkCode="CX" stationCode="PB16" channelCode="HHN"/><filterID>ITAPER(2)&gt;&gt;BW(3,3,20)</filterID><methodID>L2-AIC-GRID</methodID><horizontalSlowness><value>19.791385351239004</value></horizontalSlowness><backazimuth><value>322.8887280400345</value></backazimuth><phaseHint>S</phaseHint><evaluationMode>automatic</evaluationMode><comment><text>13.775452851856535</text><id>DFX:rectilinearity</id></comment><comment><text>de.gempa.tb1.Pick/20250413021016.532732.128236</text><id>RefPickID</id></comment><comment><text>5.506876749813076</text><id>SNR</id></comment></pick><origin publicID="de.gempa.tb1.Origin/20250413021054.566185.98353"><time><value>2025-04-13T02:09:37.892037Z</value><uncertainty>0.6825687289237976</uncertainty></time><latitude><value>-20.32322883605957</value><uncertainty>2.3448195457458496</uncertainty></latitude><longitude><value>-69.13520050048828</value><uncertainty>6.941150188446045</uncertainty></longitude><depth><value>97.2371826171875</value><uncertainty>5.60581636428833</uncertainty></depth><depthType>from location</depthType><methodID>LOCSAT</methodID><earthModelID>iasp91_scanloc</earthModelID><quality><associatedPhaseCount>14</associatedPhaseCount><usedPhaseCount>14</usedPhaseCount><associatedStationCount>9</associatedStationCount><usedStationCount>9</usedStationCount><depthPhaseCount>0</depthPhaseCount><standardError>0.5280050293802008</standardError><azimuthalGap>189.26205444335938</azimuthalGap><maximumDistance>2.0087416172027588</maximumDistance><minimumDistance>0.1819819062948227</minimumDistance><medianDistance>1.2205042839050293</medianDistance></quality><uncertainty><minHorizontalUncertainty>5.018061637878418</minHorizontalUncertainty><maxHorizontalUncertainty>14.885973930358887</maxHorizontalUncertainty><azimuthMaxHorizontalUncertainty>88.7339859008789</azimuthMaxHorizontalUncertainty><preferredDescription>horizontal uncertainty</preferredDescription></uncertainty><evaluationMode>automatic</evaluationMode><evaluationStatus>confirmed</evaluationStatus><comment><text>0.00</text><id>mismatchScore</id></comment><comment><text>mismatchScore</text><id>scevalMethod</id></comment><arrival><pickID>de.gempa.tb1.Pick/20250413020957.550501.128221</pickID><phase>P</phase><azimuth>354.60919189453125</azimuth><distance>0.1819819062948227</distance><timeResidual>-0.7652521133422852</timeResidual><timeUsed>true</timeUsed><horizontalSlownessUsed>false</horizontalSlownessUsed><backazimuthUsed>false</backazimuthUsed><weight>1</weight></arrival><arrival><pickID>de.gempa.tb1.Pick/20250413021002.778082.128223</pickID><phase>P</phase><azimuth>204.6565399169922</azimuth><distance>0.7886303663253784</distance><timeResidual>-0.56512451171875</timeResidual><timeUsed>true</timeUsed><horizontalSlownessUsed>false</horizontalSlownessUsed><backazimuthUsed>false</backazimuthUsed><weight>1</weight></arrival><arrival><pickID>de.gempa.tb1.Pick/20250413021004.566114.128225</pickID><phase>P</phase><azimuth>307.6906433105469</azimuth><distance>1.1769438982009888</distance><timeResidual>-0.8624334335327148</timeResidual><timeUsed>true</timeUsed><horizontalSlownessUsed>false</horizontalSlownessUsed><backazimuthUsed>false</backazimuthUsed><weight>1</weight></arrival><arrival><pickID>de.gempa.tb1.Pick/20250413021005.553373.128227</pickID><phase>P</phase><azimuth>215.5385284423828</azimuth><distance>1.2205042839050293</distance><timeResidual>0.3142242431640625</timeResidual><timeUsed>true</timeUsed><horizontalSlownessUsed>false</horizontalSlownessUsed><backazimuthUsed>false</backazimuthUsed><weight>1</weight></arrival><arrival><pickID>de.gempa.tb1.Pick/20250413021007.285336.128229</pickID><phase>P</phase><azimuth>242.3905944824219</azimuth><distance>1.07437002658844</distance><timeResidual>-0.05119800567626953</timeResidual><timeUsed>true</timeUsed><horizontalSlownessUsed>false</horizontalSlownessUsed><backazimuthUsed>false</backazimuthUsed><weight>1</weight></arrival><arrival><pickID>de.gempa.tb1.Pick/20250413021009.587008.128231</pickID><phase>P</phase><azimuth>183.87124633789062</azimuth><distance>1.4691996574401855</distance><timeResidual>-0.012923240661621094</timeResidual><timeUsed>true</timeUsed><horizontalSlownessUsed>false</horizontalSlownessUsed><backazimuthUsed>false</backazimuthUsed><weight>1</weight></arrival><arrival><pickID>de.gempa.tb1.Pick/20250413021010.042286.128233</pickID><phase>S</phase><azimuth>354.60919189453125</azimuth><distance>0.1819819062948227</distance><timeResidual>-0.06104183197021484</timeResidual><timeUsed>true</timeUsed><horizontalSlownessUsed>false</horizontalSlownessUsed><backazimuthUsed>false</backazimuthUsed><weight>1</weight></arrival><arrival><pickID>de.gempa.tb1.Pick/20250413021014.673328.128234</pickID><phase>P</phase><azimuth>198.4571075439453</azimuth><distance>1.8109333515167236</distance><timeResidual>-0.025241851806640625</timeResidual><timeUsed>true</timeUsed><horizontalSlownessUsed>false</horizontalSlownessUsed><backazimuthUsed>false</backazimuthUsed><weight>1</weight></arrival><arrival><pickID>de.gempa.tb1.Pick/20250413021016.532732.128236</pickID><phase>P</phase><azimuth>349.8537902832031</azimuth><distance>2.0087416172027588</distance><timeResidual>0.09823226928710938</timeResidual><timeUsed>true</timeUsed><horizontalSlownessUsed>false</horizontalSlownessUsed><backazimuthUsed>false</backazimuthUsed><weight>1</weight></arrival><arrival><pickID>de.gempa.tb1.Pick/20250413021018.626331.128238</pickID><phase>S</phase><azimuth>204.6565399169922</azimuth><distance>0.7886303663253784</distance><timeResidual>0.7695446014404297</timeResidual><timeUsed>true</timeUsed><horizontalSlownessUsed>false</horizontalSlownessUsed><backazimuthUsed>false</backazimuthUsed><weight>1</weight></arrival><arrival><pickID>de.gempa.tb1.Pick/20250413021021.511683.128239</pickID><phase>P</phase><azimuth>206.5421905517578</azimuth><distance>1.562766432762146</distance><timeResidual>-0.1659107208251953</timeResidual><timeUsed>true</timeUsed><horizontalSlownessUsed>false</horizontalSlownessUsed><backazimuthUsed>false</backazimuthUsed><weight>1</weight></arrival><arrival><pickID>de.gempa.tb1.Pick/20250413021025.658333.128241</pickID><phase>S</phase><azimuth>307.6906433105469</azimuth><distance>1.1769438982009888</distance><timeResidual>-0.2141094207763672</timeResidual><timeUsed>true</timeUsed><horizontalSlownessUsed>false</horizontalSlownessUsed><backazimuthUsed>false</backazimuthUsed><weight>1</weight></arrival><arrival><pickID>de.gempa.tb1.Pick/20250413021045.641909.128244</pickID><phase>S</phase><azimuth>198.4571075439453</azimuth><distance>1.8109333515167236</distance><timeResidual>0.3927803039550781</timeResidual><timeUsed>true</timeUsed><horizontalSlownessUsed>false</horizontalSlownessUsed><backazimuthUsed>false</backazimuthUsed><weight>1</weight></arrival><arrival><pickID>de.gempa.tb1.Pick/20250413021054.561194.128245</pickID><phase>S</phase><azimuth>349.8537902832031</azimuth><distance>2.0087416172027588</distance><timeResidual>1.1484336853027344</timeResidual><timeUsed>true</timeUsed><horizontalSlownessUsed>false</horizontalSlownessUsed><backazimuthUsed>false</backazimuthUsed><weight>1</weight></arrival><magnitude publicID="de.gempa.tb1.Magnitude/20250413021105.938792.301637"><magnitude><value>2.5014189210121893</value></magnitude><type>M</type><methodID>weighted average</methodID><stationCount>7</stationCount></magnitude></origin><event publicID="gempa2025hgoo"><preferredOriginID>de.gempa.tb1.Origin/20250413021054.566185.98353</preferredOriginID><preferredMagnitudeID>de.gempa.tb1.Magnitude/20250413021105.938792.301637</preferredMagnitudeID><description><text>Northern Chile</text><type>region name</type></description><originReference>de.gempa.tb1.Origin/20250413021054.566185.98353</originReference></event></EventParameters></seiscomp>