<?xml version="1.0" encoding="UTF-8"?>
<seiscomp xmlns="http://geofon.gfz-potsdam.de/ns/seiscomp3-schema/0.13" version="0.13"><EventParameters><pick publicID="de.gempa.tb1.Pick/20250412091714.649823.123146"><time><value>2025-04-12T09:17:09.608393Z</value></time><waveformID networkCode="CX" stationCode="PB01" channelCode="HHZ"/><filterID>ITAPER(4)&gt;&gt;BW(4,4,20)</filterID><methodID>AIC</methodID><horizontalSlowness><value>5.620629680895415</value></horizontalSlowness><backazimuth><value>88.8657342787713</value></backazimuth><phaseHint>P</phaseHint><evaluationMode>automatic</evaluationMode><comment><text>4609.685704184114</text><id>DFX:rectilinearity</id></comment><comment><text>1294.398290842591</text><id>SNR</id></comment></pick><pick publicID="de.gempa.tb1.Pick/20250412091719.586504.123148"><time><value>2025-04-12T09:17:15.098394Z</value></time><waveformID networkCode="CX" stationCode="PB03" channelCode="HHZ"/><filterID>ITAPER(4)&gt;&gt;BW(4,4,20)</filterID><methodID>AIC</methodID><horizontalSlowness><value>8.50759743734559</value></horizontalSlowness><backazimuth><value>57.10763858985223</value></backazimuth><phaseHint>P</phaseHint><evaluationMode>automatic</evaluationMode><comment><text>477.7395120203397</text><id>DFX:rectilinearity</id></comment><comment><text>231.66722483760697</text><id>SNR</id></comment></pick><pick publicID="de.gempa.tb1.Pick/20250412091719.620108.123150"><time><value>2025-04-12T09:17:13.398393Z</value></time><waveformID networkCode="CX" stationCode="PB02" channelCode="HHZ"/><filterID>ITAPER(4)&gt;&gt;BW(4,4,20)</filterID><methodID>AIC</methodID><horizontalSlowness><value>6.026684175411186</value></horizontalSlowness><backazimuth><value>68.00953952054132</value></backazimuth><phaseHint>P</phaseHint><evaluationMode>automatic</evaluationMode><comment><text>7418.669188221059</text><id>DFX:rectilinearity</id></comment><comment><text>663.2582874460253</text><id>SNR</id></comment></pick><pick publicID="de.gempa.tb1.Pick/20250412091720.069019.123152"><time><value>2025-04-12T09:17:14.178393Z</value></time><waveformID networkCode="CX" stationCode="PB08" channelCode="HHZ"/><filterID>ITAPER(4)&gt;&gt;BW(4,4,20)</filterID><methodID>AIC</methodID><horizontalSlowness><value>18.187683589718645</value></horizontalSlowness><backazimuth><value>200.10438883620319</value></backazimuth><phaseHint>P</phaseHint><evaluationMode>automatic</evaluationMode><comment><text>287.3803162740025</text><id>DFX:rectilinearity</id></comment><comment><text>49.66298191004429</text><id>SNR</id></comment></pick><pick publicID="de.gempa.tb1.Pick/20250412091722.173273.123154"><time><value>2025-04-12T09:17:10.42Z</value></time><waveformID networkCode="CX" stationCode="PB09" channelCode="HHZ"/><filterID>ITAPER(4)&gt;&gt;BW(4,4,20)</filterID><methodID>AIC</methodID><horizontalSlowness><value>16.059042082310242</value></horizontalSlowness><backazimuth><value>68.37695557464015</value></backazimuth><phaseHint>P</phaseHint><evaluationMode>automatic</evaluationMode><comment><text>8678.261661303706</text><id>DFX:rectilinearity</id></comment><comment><text>538.5211142649499</text><id>SNR</id></comment></pick><pick publicID="de.gempa.tb1.Pick/20250412091722.42465.123156"><time><value>2025-04-12T09:17:16.619999Z</value></time><waveformID networkCode="CX" stationCode="PATCX" channelCode="HHZ"/><filterID>ITAPER(4)&gt;&gt;BW(4,4,20)</filterID><methodID>AIC</methodID><horizontalSlowness><value>8.521825911587609</value></horizontalSlowness><backazimuth><value>146.79105360741434</value></backazimuth><phaseHint>P</phaseHint><evaluationMode>automatic</evaluationMode><comment><text>2145.6530427545463</text><id>DFX:rectilinearity</id></comment><comment><text>206.6091144830257</text><id>SNR</id></comment></pick><pick publicID="de.gempa.tb1.Pick/20250412091726.53202.123158"><time><value>2025-04-12T09:17:19.648393Z</value></time><waveformID networkCode="CX" stationCode="PB06" channelCode="HHZ"/><filterID>ITAPER(4)&gt;&gt;BW(4,4,20)</filterID><methodID>AIC</methodID><horizontalSlowness><value>3.570114773958794</value></horizontalSlowness><backazimuth><value>47.70851719912577</value></backazimuth><phaseHint>P</phaseHint><evaluationMode>automatic</evaluationMode><comment><text>3190.9014265455544</text><id>DFX:rectilinearity</id></comment><comment><text>163.59535445842263</text><id>SNR</id></comment></pick><pick publicID="de.gempa.tb1.Pick/20250412091729.627009.123160"><time><value>2025-04-12T09:17:24.968394Z</value></time><waveformID networkCode="CX" stationCode="PB15" channelCode="HHZ"/><filterID>ITAPER(4)&gt;&gt;BW(4,4,20)</filterID><methodID>AIC</methodID><horizontalSlowness><value>22.68945272069697</value></horizontalSlowness><backazimuth><value>32.15553636552653</value></backazimuth><phaseHint>P</phaseHint><evaluationMode>automatic</evaluationMode><comment><text>14872.961192710407</text><id>DFX:rectilinearity</id></comment><comment><text>109.67297693312348</text><id>SNR</id></comment></pick><pick publicID="de.gempa.tb1.Pick/20250412091731.586809.123162"><time><value>2025-04-12T09:17:23.56Z</value></time><waveformID networkCode="CX" stationCode="PSGCX" channelCode="HHZ"/><filterID>ITAPER(4)&gt;&gt;BW(4,4,20)</filterID><methodID>AIC</methodID><horizontalSlowness><value>8.319553787410646</value></horizontalSlowness><backazimuth><value>151.76465592964794</value></backazimuth><phaseHint>P</phaseHint><evaluationMode>automatic</evaluationMode><comment><text>105.84495052039632</text><id>DFX:rectilinearity</id></comment><comment><text>126.62181296457324</text><id>SNR</id></comment></pick><pick publicID="de.gempa.tb1.Pick/20250412091732.582289.123164"><time><value>2025-04-12T09:17:26.048393Z</value></time><waveformID networkCode="CX" stationCode="PB01" channelCode="HHN"/><filterID>ITAPER(2)&gt;&gt;BW(3,3,20)</filterID><methodID>L2-AIC-GRID</methodID><horizontalSlowness><value>20.633968538577868</value></horizontalSlowness><backazimuth><value>289.74258478756036</value></backazimuth><phaseHint>S</phaseHint><evaluationMode>automatic</evaluationMode><comment><text>206348.32077924153</text><id>DFX:rectilinearity</id></comment><comment><text>de.gempa.tb1.Pick/20250412091714.649823.123146</text><id>RefPickID</id></comment><comment><text>12.249437309412812</text><id>SNR</id></comment></pick><pick publicID="de.gempa.tb1.Pick/20250412091733.587651.123165"><time><value>2025-04-12T09:17:26.82Z</value></time><waveformID networkCode="CX" stationCode="PB09" channelCode="HHN"/><filterID>ITAPER(2)&gt;&gt;BW(3,3,20)</filterID><methodID>L2-AIC-GRID</methodID><horizontalSlowness><value>19.717806440810808</value></horizontalSlowness><backazimuth><value>319.41180434793853</value></backazimuth><phaseHint>S</phaseHint><evaluationMode>automatic</evaluationMode><comment><text>271798.1748451024</text><id>DFX:rectilinearity</id></comment><comment><text>de.gempa.tb1.Pick/20250412091722.173273.123154</text><id>RefPickID</id></comment><comment><text>7.077498005939005</text><id>SNR</id></comment></pick><pick publicID="de.gempa.tb1.Pick/20250412091737.510785.123166"><time><value>2025-04-12T09:17:32.78Z</value></time><waveformID networkCode="CX" stationCode="PB19" channelCode="HHZ"/><filterID>ITAPER(4)&gt;&gt;BW(4,4,20)</filterID><methodID>AIC</methodID><horizontalSlowness><value>6.368953893303765</value></horizontalSlowness><backazimuth><value>19.534917670102516</value></backazimuth><phaseHint>P</phaseHint><evaluationMode>automatic</evaluationMode><comment><text>540.5531807847231</text><id>DFX:rectilinearity</id></comment><comment><text>99.66218507012923</text><id>SNR</id></comment></pick><pick publicID="de.gempa.tb1.Pick/20250412091738.498898.123168"><time><value>2025-04-12T09:17:32.718393Z</value></time><waveformID networkCode="CX" stationCode="PB08" channelCode="HHN"/><filterID>ITAPER(2)&gt;&gt;BW(3,3,20)</filterID><methodID>L2-AIC-GRID</methodID><horizontalSlowness><value>12.045727733759236</value></horizontalSlowness><backazimuth><value>227.86703053472633</value></backazimuth><phaseHint>S</phaseHint><evaluationMode>automatic</evaluationMode><comment><text>17673.26430999119</text><id>DFX:rectilinearity</id></comment><comment><text>de.gempa.tb1.Pick/20250412091720.069019.123152</text><id>RefPickID</id></comment><comment><text>10.194120007623811</text><id>SNR</id></comment></pick><pick publicID="de.gempa.tb1.Pick/20250412091740.631747.123169"><time><value>2025-04-12T09:17:34.478394Z</value></time><waveformID networkCode="CX" stationCode="PB03" channelCode="HHN"/><filterID>ITAPER(2)&gt;&gt;BW(3,3,20)</filterID><methodID>L2-AIC-GRID</methodID><horizontalSlowness><value>22.64134035160722</value></horizontalSlowness><backazimuth><value>143.61575908849412</value></backazimuth><phaseHint>S</phaseHint><evaluationMode>automatic</evaluationMode><comment><text>190095.46797364787</text><id>DFX:rectilinearity</id></comment><comment><text>de.gempa.tb1.Pick/20250412091719.586504.123148</text><id>RefPickID</id></comment><comment><text>14.43646411377278</text><id>SNR</id></comment></pick><pick publicID="de.gempa.tb1.Pick/20250412091743.190233.123171"><time><value>2025-04-12T09:17:14.428391Z</value></time><waveformID networkCode="CX" stationCode="PB07" channelCode="HHZ"/><filterID>ITAPER(4)&gt;&gt;BW(4,4,20)</filterID><methodID>AIC</methodID><horizontalSlowness><value>15.40601335207238</value></horizontalSlowness><backazimuth><value>76.63907123828234</value></backazimuth><phaseHint>P</phaseHint><evaluationMode>automatic</evaluationMode><comment><text>431.4410173109009</text><id>SNR</id></comment><comment><text>6676.03372240924</text><id>DFX:rectilinearity</id></comment></pick><pick publicID="de.gempa.tb1.Pick/20250412091743.526364.123174"><time><value>2025-04-12T09:17:31.708393Z</value></time><waveformID networkCode="CX" stationCode="PB02" channelCode="HHN"/><filterID>ITAPER(2)&gt;&gt;BW(3,3,20)</filterID><methodID>L2-AIC-GRID</methodID><horizontalSlowness><value>11.638446961241884</value></horizontalSlowness><backazimuth><value>10.10103335929324</value></backazimuth><phaseHint>S</phaseHint><evaluationMode>automatic</evaluationMode><comment><text>593092.825731071</text><id>DFX:rectilinearity</id></comment><comment><text>de.gempa.tb1.Pick/20250412091719.620108.123150</text><id>RefPickID</id></comment><comment><text>12.262491567777175</text><id>SNR</id></comment></pick><pick publicID="de.gempa.tb1.Pick/20250412091747.43357.123177"><time><value>2025-04-12T09:17:37.689999Z</value></time><waveformID networkCode="CX" stationCode="PATCX" channelCode="HHN"/><filterID>ITAPER(2)&gt;&gt;BW(3,3,20)</filterID><methodID>L2-AIC-GRID</methodID><horizontalSlowness><value>23.22484545570051</value></horizontalSlowness><backazimuth><value>70.78964381044045</value></backazimuth><phaseHint>S</phaseHint><evaluationMode>automatic</evaluationMode><comment><text>275505.60566571297</text><id>DFX:rectilinearity</id></comment><comment><text>de.gempa.tb1.Pick/20250412091722.42465.123156</text><id>RefPickID</id></comment><comment><text>11.771812112853889</text><id>SNR</id></comment></pick><pick publicID="de.gempa.tb1.Pick/20250412091748.592839.123179"><time><value>2025-04-12T09:17:42.778393Z</value></time><waveformID networkCode="CX" stationCode="PB06" channelCode="HHN"/><filterID>ITAPER(2)&gt;&gt;BW(3,3,20)</filterID><methodID>L2-AIC-GRID</methodID><horizontalSlowness><value>22.92133329669913</value></horizontalSlowness><backazimuth><value>303.6137272172847</value></backazimuth><phaseHint>S</phaseHint><evaluationMode>automatic</evaluationMode><comment><text>95898.07701727349</text><id>DFX:rectilinearity</id></comment><comment><text>de.gempa.tb1.Pick/20250412091726.53202.123158</text><id>RefPickID</id></comment><comment><text>11.296258278862625</text><id>SNR</id></comment></pick><origin publicID="de.gempa.tb1.Origin/20250412091748.596062.79638"><time><value>2025-04-12T09:16:49.461882Z</value><uncertainty>0.6503517031669617</uncertainty></time><latitude><value>-21.213363647460938</value><uncertainty>2.8470664024353027</uncertainty></latitude><longitude><value>-68.74617767333984</value><uncertainty>7.281861305236816</uncertainty></longitude><depth><value>131.81996154785156</value><uncertainty>6.783484935760498</uncertainty></depth><depthType>from location</depthType><methodID>LOCSAT</methodID><earthModelID>iasp91_scanloc</earthModelID><quality><associatedPhaseCount>18</associatedPhaseCount><usedPhaseCount>18</usedPhaseCount><associatedStationCount>11</associatedStationCount><usedStationCount>11</usedStationCount><depthPhaseCount>0</depthPhaseCount><standardError>0.32482807109165496</standardError><azimuthalGap>210.27809143066406</azimuthalGap><maximumDistance>2.725524425506592</maximumDistance><minimumDistance>0.7123962044715881</minimumDistance><medianDistance>1.2523094415664673</medianDistance></quality><uncertainty><minHorizontalUncertainty>6.099538803100586</minHorizontalUncertainty><maxHorizontalUncertainty>15.609820365905762</maxHorizontalUncertainty><azimuthMaxHorizontalUncertainty>89.22181701660156</azimuthMaxHorizontalUncertainty><preferredDescription>horizontal uncertainty</preferredDescription></uncertainty><evaluationMode>automatic</evaluationMode><evaluationStatus>confirmed</evaluationStatus><comment><text>0.00</text><id>mismatchScore</id></comment><comment><text>mismatchScore</text><id>scevalMethod</id></comment><arrival><pickID>de.gempa.tb1.Pick/20250412091714.649823.123146</pickID><phase>P</phase><azimuth>283.6138000488281</azimuth><distance>0.7123962044715881</distance><timeResidual>-0.5411968231201172</timeResidual><timeUsed>true</timeUsed><horizontalSlownessUsed>false</horizontalSlownessUsed><backazimuthUsed>false</backazimuthUsed><weight>1</weight></arrival><arrival><pickID>de.gempa.tb1.Pick/20250412091719.586504.123148</pickID><phase>P</phase><azimuth>228.24249267578125</azimuth><distance>1.2523094415664673</distance><timeResidual>0.055816650390625</timeResidual><timeUsed>true</timeUsed><horizontalSlownessUsed>false</horizontalSlownessUsed><backazimuthUsed>false</backazimuthUsed><weight>1</weight></arrival><arrival><pickID>de.gempa.tb1.Pick/20250412091719.620108.123150</pickID><phase>P</phase><azimuth>264.1567687988281</azimuth><distance>1.0776970386505127</distance><timeResidual>0.09980392456054688</timeResidual><timeUsed>true</timeUsed><horizontalSlownessUsed>false</horizontalSlownessUsed><backazimuthUsed>false</backazimuthUsed><weight>1</weight></arrival><arrival><pickID>de.gempa.tb1.Pick/20250412091720.069019.123152</pickID><phase>P</phase><azimuth>340.2605285644531</azimuth><distance>1.13293194770813</distance><timeResidual>0.3333721160888672</timeResidual><timeUsed>true</timeUsed><horizontalSlownessUsed>false</horizontalSlownessUsed><backazimuthUsed>false</backazimuthUsed><weight>1</weight></arrival><arrival><pickID>de.gempa.tb1.Pick/20250412091722.173273.123154</pickID><phase>P</phase><azimuth>218.4203643798828</azimuth><distance>0.741412103176117</distance><timeResidual>0.05562019348144531</timeResidual><timeUsed>true</timeUsed><horizontalSlownessUsed>false</horizontalSlownessUsed><backazimuthUsed>false</backazimuthUsed><weight>1</weight></arrival><arrival><pickID>de.gempa.tb1.Pick/20250412091722.42465.123156</pickID><phase>P</phase><azimuth>286.304443359375</azimuth><distance>1.371082067489624</distance><timeResidual>0.3144721984863281</timeResidual><timeUsed>true</timeUsed><horizontalSlownessUsed>false</horizontalSlownessUsed><backazimuthUsed>false</backazimuthUsed><weight>1</weight></arrival><arrival><pickID>de.gempa.tb1.Pick/20250412091726.53202.123158</pickID><phase>P</phase><azimuth>207.1454315185547</azimuth><distance>1.671332597732544</distance><timeResidual>-0.0023651123046875</timeResidual><timeUsed>true</timeUsed><horizontalSlownessUsed>false</horizontalSlownessUsed><backazimuthUsed>false</backazimuthUsed><weight>1</weight></arrival><arrival><pickID>de.gempa.tb1.Pick/20250412091729.627009.123160</pickID><phase>P</phase><azimuth>198.5540313720703</azimuth><distance>2.0959041118621826</distance><timeResidual>0.2530975341796875</timeResidual><timeUsed>true</timeUsed><horizontalSlownessUsed>false</horizontalSlownessUsed><backazimuthUsed>false</backazimuthUsed><weight>1</weight></arrival><arrival><pickID>de.gempa.tb1.Pick/20250412091731.586809.123162</pickID><phase>P</phase><azimuth>320.98797607421875</azimuth><distance>2.0623934268951416</distance><timeResidual>-0.7665138244628906</timeResidual><timeUsed>true</timeUsed><horizontalSlownessUsed>false</horizontalSlownessUsed><backazimuthUsed>false</backazimuthUsed><weight>1</weight></arrival><arrival><pickID>de.gempa.tb1.Pick/20250412091732.582289.123164</pickID><phase>S</phase><azimuth>283.6138000488281</azimuth><distance>0.7123962044715881</distance><timeResidual>-0.10484123229980469</timeResidual><timeUsed>true</timeUsed><horizontalSlownessUsed>false</horizontalSlownessUsed><backazimuthUsed>false</backazimuthUsed><weight>1</weight></arrival><arrival><pickID>de.gempa.tb1.Pick/20250412091733.587651.123165</pickID><phase>S</phase><azimuth>218.4203643798828</azimuth><distance>0.741412103176117</distance><timeResidual>0.2834758758544922</timeResidual><timeUsed>true</timeUsed><horizontalSlownessUsed>false</horizontalSlownessUsed><backazimuthUsed>false</backazimuthUsed><weight>1</weight></arrival><arrival><pickID>de.gempa.tb1.Pick/20250412091737.510785.123166</pickID><phase>P</phase><azimuth>190.5386199951172</azimuth><distance>2.725524425506592</distance><timeResidual>0.16545867919921875</timeResidual><timeUsed>true</timeUsed><horizontalSlownessUsed>false</horizontalSlownessUsed><backazimuthUsed>false</backazimuthUsed><weight>1</weight></arrival><arrival><pickID>de.gempa.tb1.Pick/20250412091738.498898.123168</pickID><phase>S</phase><azimuth>340.2605285644531</azimuth><distance>1.13293194770813</distance><timeResidual>-0.025852203369140625</timeResidual><timeUsed>true</timeUsed><horizontalSlownessUsed>false</horizontalSlownessUsed><backazimuthUsed>false</backazimuthUsed><weight>1</weight></arrival><arrival><pickID>de.gempa.tb1.Pick/20250412091740.631747.123169</pickID><phase>S</phase><azimuth>228.24249267578125</azimuth><distance>1.2523094415664673</distance><timeResidual>-0.4059276580810547</timeResidual><timeUsed>true</timeUsed><horizontalSlownessUsed>false</horizontalSlownessUsed><backazimuthUsed>false</backazimuthUsed><weight>1</weight></arrival><arrival><pickID>de.gempa.tb1.Pick/20250412091743.190233.123171</pickID><phase>P</phase><azimuth>244.10426330566406</azimuth><distance>1.1783015727996826</distance><timeResidual>0.14049530029296875</timeResidual><timeUsed>true</timeUsed><horizontalSlownessUsed>false</horizontalSlownessUsed><backazimuthUsed>false</backazimuthUsed><weight>1</weight></arrival><arrival><pickID>de.gempa.tb1.Pick/20250412091743.526364.123174</pickID><phase>S</phase><azimuth>264.1567687988281</azimuth><distance>1.0776970386505127</distance><timeResidual>-0.06244468688964844</timeResidual><timeUsed>true</timeUsed><horizontalSlownessUsed>false</horizontalSlownessUsed><backazimuthUsed>false</backazimuthUsed><weight>1</weight></arrival><arrival><pickID>de.gempa.tb1.Pick/20250412091747.43357.123177</pickID><phase>S</phase><azimuth>286.304443359375</azimuth><distance>1.371082067489624</distance><timeResidual>0.5505809783935547</timeResidual><timeUsed>true</timeUsed><horizontalSlownessUsed>false</horizontalSlownessUsed><backazimuthUsed>false</backazimuthUsed><weight>1</weight></arrival><arrival><pickID>de.gempa.tb1.Pick/20250412091748.592839.123179</pickID><phase>S</phase><azimuth>207.1454315185547</azimuth><distance>1.671332597732544</distance><timeResidual>-0.3429107666015625</timeResidual><timeUsed>true</timeUsed><horizontalSlownessUsed>false</horizontalSlownessUsed><backazimuthUsed>false</backazimuthUsed><weight>1</weight></arrival><magnitude publicID="de.gempa.tb1.Magnitude/20250412091750.939882.202248"><magnitude><value>3.3450705127767377</value></magnitude><type>M</type><methodID>weighted average</methodID><stationCount>9</stationCount></magnitude></origin><event publicID="gempa2025hfgu"><preferredOriginID>de.gempa.tb1.Origin/2025041209174