<?xml version="1.0" encoding="UTF-8"?>
<seiscomp xmlns="http://geofon.gfz-potsdam.de/ns/seiscomp3-schema/0.13" version="0.13"><EventParameters><pick publicID="de.gempa.tb1.Pick/20250413135451.326863.131582"><time><value>2025-04-13T13:54:45.058393Z</value></time><waveformID networkCode="CX" stationCode="PB08" channelCode="HHZ"/><filterID>ITAPER(4)&gt;&gt;BW(4,4,20)</filterID><methodID>AIC</methodID><horizontalSlowness><value>13.519825976924306</value></horizontalSlowness><backazimuth><value>225.6840174044953</value></backazimuth><phaseHint>P</phaseHint><evaluationMode>automatic</evaluationMode><comment><text>254.14526564061316</text><id>DFX:rectilinearity</id></comment><comment><text>183.77038099880386</text><id>SNR</id></comment></pick><pick publicID="de.gempa.tb1.Pick/20250413135454.699462.131584"><time><value>2025-04-13T13:54:48.89Z</value></time><waveformID networkCode="CX" stationCode="PSGCX" channelCode="HHZ"/><filterID>ITAPER(4)&gt;&gt;BW(4,4,20)</filterID><methodID>AIC</methodID><horizontalSlowness><value>6.438949106593097</value></horizontalSlowness><backazimuth><value>138.78493094542767</value></backazimuth><phaseHint>P</phaseHint><evaluationMode>automatic</evaluationMode><comment><text>184.69642987688388</text><id>DFX:rectilinearity</id></comment><comment><text>332.6056314901095</text><id>SNR</id></comment></pick><pick publicID="de.gempa.tb1.Pick/20250413135456.584412.131586"><time><value>2025-04-13T13:54:50.338393Z</value></time><waveformID networkCode="CX" stationCode="PB01" channelCode="HHZ"/><filterID>ITAPER(4)&gt;&gt;BW(4,4,20)</filterID><methodID>AIC</methodID><horizontalSlowness><value>9.75409529237344</value></horizontalSlowness><backazimuth><value>20.461176010344275</value></backazimuth><phaseHint>P</phaseHint><evaluationMode>automatic</evaluationMode><comment><text>19.307318107511819</text><id>DFX:rectilinearity</id></comment><comment><text>37.99425583536484</text><id>SNR</id></comment></pick><pick publicID="de.gempa.tb1.Pick/20250413135501.609232.131588"><time><value>2025-04-13T13:54:55.258393Z</value></time><waveformID networkCode="CX" stationCode="PB02" channelCode="HHZ"/><filterID>ITAPER(4)&gt;&gt;BW(4,4,20)</filterID><methodID>AIC</methodID><horizontalSlowness><value>14.742874074281948</value></horizontalSlowness><backazimuth><value>319.530788445188</value></backazimuth><phaseHint>P</phaseHint><evaluationMode>automatic</evaluationMode><comment><text>30.087542196722485</text><id>DFX:rectilinearity</id></comment><comment><text>21.61653839173957</text><id>SNR</id></comment></pick><pick publicID="de.gempa.tb1.Pick/20250413135502.575865.131590"><time><value>2025-04-13T13:54:56.788393Z</value></time><waveformID networkCode="CX" stationCode="PB08" channelCode="HHN"/><filterID>ITAPER(2)&gt;&gt;BW(3,3,20)</filterID><methodID>L2-AIC-GRID</methodID><horizontalSlowness><value>13.675045041235645</value></horizontalSlowness><backazimuth><value>216.6244934969744</value></backazimuth><phaseHint>S</phaseHint><evaluationMode>automatic</evaluationMode><comment><text>8930.695617831881</text><id>DFX:rectilinearity</id></comment><comment><text>de.gempa.tb1.Pick/20250413135451.326863.131582</text><id>RefPickID</id></comment><comment><text>10.281956787505214</text><id>SNR</id></comment></pick><pick publicID="de.gempa.tb1.Pick/20250413135506.780077.131591"><time><value>2025-04-13T13:54:59.918394Z</value></time><waveformID networkCode="CX" stationCode="PB07" channelCode="HHZ"/><filterID>ITAPER(4)&gt;&gt;BW(4,4,20)</filterID><methodID>AIC</methodID><horizontalSlowness><value>20.31020487827367</value></horizontalSlowness><backazimuth><value>88.8628095051302</value></backazimuth><phaseHint>P</phaseHint><evaluationMode>automatic</evaluationMode><comment><text>313.3760156097864</text><id>DFX:rectilinearity</id></comment><comment><text>11.412204865937786</text><id>SNR</id></comment></pick><pick publicID="de.gempa.tb1.Pick/20250413135513.67175.131596"><time><value>2025-04-13T13:55:05.688393Z</value></time><waveformID networkCode="CX" stationCode="PB01" channelCode="HHN"/><filterID>ITAPER(2)&gt;&gt;BW(3,3,20)</filterID><methodID>L2-AIC-GRID</methodID><horizontalSlowness><value>23.26138853933511</value></horizontalSlowness><backazimuth><value>37.81576910494448</value></backazimuth><phaseHint>S</phaseHint><evaluationMode>automatic</evaluationMode><comment><text>1717.3950036053677</text><id>DFX:rectilinearity</id></comment><comment><text>de.gempa.tb1.Pick/20250413135456.584412.131586</text><id>RefPickID</id></comment><comment><text>14.085326136093673</text><id>SNR</id></comment></pick><pick publicID="de.gempa.tb1.Pick/20250413135514.794039.131597"><time><value>2025-04-13T13:55:04.0000Z</value></time><waveformID networkCode="CX" stationCode="PSGCX" channelCode="HHN"/><filterID>ITAPER(2)&gt;&gt;BW(3,3,20)</filterID><methodID>L2-AIC-GRID</methodID><horizontalSlowness><value>21.103036988354596</value></horizontalSlowness><backazimuth><value>52.16291371263506</value></backazimuth><phaseHint>S</phaseHint><evaluationMode>automatic</evaluationMode><comment><text>429.6185415495711</text><id>DFX:rectilinearity</id></comment><comment><text>de.gempa.tb1.Pick/20250413135454.699462.131584</text><id>RefPickID</id></comment><comment><text>5.939402628364304</text><id>SNR</id></comment></pick><pick publicID="de.gempa.tb1.Pick/20250413135531.774575.131602"><time><value>2025-04-13T13:55:21.688394Z</value></time><waveformID networkCode="CX" stationCode="PB07" channelCode="HHN"/><filterID>ITAPER(2)&gt;&gt;BW(3,3,20)</filterID><methodID>L2-AIC-GRID</methodID><horizontalSlowness><value>23.406454487815136</value></horizontalSlowness><backazimuth><value>277.17979316138417</value></backazimuth><phaseHint>S</phaseHint><evaluationMode>automatic</evaluationMode><comment><text>1401.2419341687996</text><id>DFX:rectilinearity</id></comment><comment><text>de.gempa.tb1.Pick/20250413135506.780077.131591</text><id>RefPickID</id></comment><comment><text>6.425438321518378</text><id>SNR</id></comment></pick><origin publicID="de.gempa.tb1.Origin/20250413135531.778358.111673"><time><value>2025-04-13T13:54:30.782881Z</value><uncertainty>1.2107622623443604</uncertainty></time><latitude><value>-20.08646011352539</value><uncertainty>4.2033143043518066</uncertainty></latitude><longitude><value>-69.42018127441406</value><uncertainty>7.061379909515381</uncertainty></longitude><depth><value>100.8464126586914</value><uncertainty>8.042526245117188</uncertainty></depth><depthType>from location</depthType><methodID>LOCSAT</methodID><earthModelID>iasp91_scanloc</earthModelID><quality><associatedPhaseCount>9</associatedPhaseCount><usedPhaseCount>9</usedPhaseCount><associatedStationCount>5</associatedStationCount><usedStationCount>5</usedStationCount><depthPhaseCount>0</depthPhaseCount><standardError>0.40681452696092857</standardError><azimuthalGap>156.06146240234375</azimuthalGap><maximumDistance>1.6891530752182007</maximumDistance><minimumDistance>0.2565416693687439</minimumDistance><medianDistance>0.9540137052536011</medianDistance></quality><uncertainty><minHorizontalUncertainty>7.897846221923828</minHorizontalUncertainty><maxHorizontalUncertainty>15.75324821472168</maxHorizontalUncertainty><azimuthMaxHorizontalUncertainty>71.41615295410156</azimuthMaxHorizontalUncertainty><preferredDescription>horizontal uncertainty</preferredDescription></uncertainty><evaluationMode>automatic</evaluationMode><evaluationStatus>confirmed</evaluationStatus><comment><text>0.14</text><id>mismatchScore</id></comment><comment><text>mismatchScore</text><id>scevalMethod</id></comment><arrival><pickID>de.gempa.tb1.Pick/20250413135451.326863.131582</pickID><phase>P</phase><azimuth>102.28375244140625</azimuth><distance>0.2565416693687439</distance><timeResidual>-0.21331119537353516</timeResidual><timeUsed>true</timeUsed><horizontalSlownessUsed>false</horizontalSlownessUsed><backazimuthUsed>false</backazimuthUsed><weight>1</weight></arrival><arrival><pickID>de.gempa.tb1.Pick/20250413135454.699462.131584</pickID><phase>P</phase><azimuth>306.2222900390625</azimuth><distance>0.821408212184906</distance><timeResidual>-0.5313777923583984</timeResidual><timeUsed>true</timeUsed><horizontalSlownessUsed>false</horizontalSlownessUsed><backazimuthUsed>false</backazimuthUsed><weight>1</weight></arrival><arrival><pickID>de.gempa.tb1.Pick/20250413135456.584412.131586</pickID><phase>P</phase><azimuth>183.77369689941406</azimuth><distance>0.9540137052536011</distance><timeResidual>-0.43123626708984375</timeResidual><timeUsed>true</timeUsed><horizontalSlownessUsed>false</horizontalSlownessUsed><backazimuthUsed>false</backazimuthUsed><weight>1</weight></arrival><arrival><pickID>de.gempa.tb1.Pick/20250413135501.609232.131588</pickID><phase>P</phase><azimuth>199.87045288085938</azimuth><distance>1.3054230213165283</distance><timeResidual>0.5293750762939453</timeResidual><timeUsed>true</timeUsed><horizontalSlownessUsed>false</horizontalSlownessUsed><backazimuthUsed>false</backazimuthUsed><weight>1</weight></arrival><arrival><pickID>de.gempa.tb1.Pick/20250413135502.575865.131590</pickID><phase>S</phase><azimuth>102.28375244140625</azimuth><distance>0.2565416693687439</distance><timeResidual>0.3927469253540039</timeResidual><timeUsed>true</timeUsed><horizontalSlownessUsed>false</horizontalSlownessUsed><backazimuthUsed>false</backazimuthUsed><weight>1</weight></arrival><arrival><pickID>de.gempa.tb1.Pick/20250413135506.780077.131591</pickID><phase>P</phase><azimuth>194.865234375</azimuth><distance>1.6891530752182007</distance><timeResidual>0.4946069717407227</timeResidual><timeUsed>true</timeUsed><horizontalSlownessUsed>false</horizontalSlownessUsed><backazimuthUsed>false</backazimuthUsed><weight>1</weight></arrival><arrival><pickID>de.gempa.tb1.Pick/20250413135513.67175.131596</pickID><phase>S</phase><azimuth>183.77369689941406</azimuth><distance>0.9540137052536011</distance><timeResidual>-0.4965047836303711</timeResidual><timeUsed>true</timeUsed><horizontalSlownessUsed>false</horizontalSlownessUsed><backazimuthUsed>false</backazimuthUsed><weight>1</weight></arrival><arrival><pickID>de.gempa.tb1.Pick/20250413135514.794039.131597</pickID><phase>S</phase><azimuth>306.2222900390625</azimuth><distance>0.821408212184906</distance><timeResidual>0.22091007232666016</timeResidual><timeUsed>true</timeUsed><horizontalSlownessUsed>false</horizontalSlownessUsed><backazimuthUsed>false</backazimuthUsed><weight>1</weight></arrival><arrival><pickID>de.gempa.tb1.Pick/20250413135531.774575.131602</pickID><phase>S</phase><azimuth>194.865234375</azimuth><distance>1.6891530752182007</distance><timeResidual>0.034804344177246094</timeResidual><timeUsed>true</timeUsed><horizontalSlownessUsed>false</horizontalSlownessUsed><backazimuthUsed>false</backazimuthUsed><weight>1</weight></arrival><magnitude publicID="de.gempa.tb1.Magnitude/20250413135540.938137.364401"><magnitude><value>2.2385122010672216</value></magnitude><type>M</type><methodID>weighted average</methodID><stationCount>4</stationCount></magnitude></origin><event publicID="gempa2025hhmb"><preferredOriginID>de.gempa.tb1.Origin/20250413135531.778358.111673</preferredOriginID><preferredMagnitudeID>de.gempa.tb1.Magnitude/20250413135540.938137.364401</preferredMagnitudeID><description><text>Northern Chile</text><type>region name</type></description><originReference>de.gempa.tb1.Origin/20250413135531.778358.111673</originReference></event></EventParameters></seiscomp>