<?xml version="1.0" encoding="UTF-8"?>
<seiscomp xmlns="http://geofon.gfz-potsdam.de/ns/seiscomp3-schema/0.13" version="0.13"><EventParameters><pick publicID="de.gempa.tb1.Pick/20250412084802.480728.123069"><time><value>2025-04-12T08:47:55.71Z</value></time><waveformID networkCode="CX" stationCode="PB19" channelCode="HHZ"/><filterID>ITAPER(4)&gt;&gt;BW(4,4,20)</filterID><methodID>AIC</methodID><horizontalSlowness><value>22.172726320542754</value></horizontalSlowness><backazimuth><value>219.55303530868412</value></backazimuth><phaseHint>P</phaseHint><evaluationMode>automatic</evaluationMode><comment><text>17.4440953353103</text><id>DFX:rectilinearity</id></comment><comment><text>9.703903477725436</text><id>SNR</id></comment></pick><pick publicID="de.gempa.tb1.Pick/20250412084806.514467.123071"><time><value>2025-04-12T08:48:01.148393Z</value></time><waveformID networkCode="CX" stationCode="PB06" channelCode="HHZ"/><filterID>ITAPER(4)&gt;&gt;BW(4,4,20)</filterID><methodID>AIC</methodID><horizontalSlowness><value>4.977635647394878</value></horizontalSlowness><backazimuth><value>353.48623434963486</value></backazimuth><phaseHint>P</phaseHint><evaluationMode>automatic</evaluationMode><comment><text>60.32138454391744</text><id>DFX:rectilinearity</id></comment><comment><text>7.471817256080903</text><id>SNR</id></comment></pick><pick publicID="de.gempa.tb1.Pick/20250412084814.567999.123073"><time><value>2025-04-12T08:48:06.238393Z</value></time><waveformID networkCode="CX" stationCode="PB03" channelCode="HHZ"/><filterID>ITAPER(4)&gt;&gt;BW(4,4,20)</filterID><methodID>AIC</methodID><horizontalSlowness><value>14.849287652312944</value></horizontalSlowness><backazimuth><value>261.4835515758192</value></backazimuth><phaseHint>P</phaseHint><evaluationMode>automatic</evaluationMode><comment><text>8.091417183088092</text><id>DFX:rectilinearity</id></comment><comment><text>16.583727635036812</text><id>SNR</id></comment></pick><pick publicID="de.gempa.tb1.Pick/20250412084817.582713.123075"><time><value>2025-04-12T08:48:10.338393Z</value></time><waveformID networkCode="CX" stationCode="PB01" channelCode="HHZ"/><filterID>ITAPER(4)&gt;&gt;BW(4,4,20)</filterID><methodID>AIC</methodID><horizontalSlowness><value>21.273860518991377</value></horizontalSlowness><backazimuth><value>202.4293788080681</value></backazimuth><phaseHint>P</phaseHint><evaluationMode>automatic</evaluationMode><comment><text>15.41010364113424</text><id>DFX:rectilinearity</id></comment><comment><text>7.559813716835918</text><id>SNR</id></comment></pick><pick publicID="de.gempa.tb1.Pick/20250412084826.370045.123077"><time><value>2025-04-12T08:48:05.48Z</value></time><waveformID networkCode="CX" stationCode="PB09" channelCode="HHZ"/><filterID>ITAPER(4)&gt;&gt;BW(4,4,20)</filterID><methodID>AIC</methodID><horizontalSlowness><value>12.54396201928165</value></horizontalSlowness><backazimuth><value>275.60010478154197</value></backazimuth><phaseHint>P</phaseHint><evaluationMode>automatic</evaluationMode><comment><text>11.014729013094151</text><id>DFX:rectilinearity</id></comment><comment><text>14.807943454888722</text><id>SNR</id></comment></pick><pick publicID="de.gempa.tb1.Pick/20250412084833.67993.123083"><time><value>2025-04-12T08:48:27.35Z</value></time><waveformID networkCode="CX" stationCode="PB19" channelCode="HHN"/><filterID>ITAPER(2)&gt;&gt;BW(3,3,20)</filterID><methodID>L2-AIC-GRID</methodID><horizontalSlowness><value>19.427794173929243</value></horizontalSlowness><backazimuth><value>73.43145917554344</value></backazimuth><phaseHint>S</phaseHint><evaluationMode>automatic</evaluationMode><comment><text>99.105175063722</text><id>DFX:rectilinearity</id></comment><comment><text>de.gempa.tb1.Pick/20250412084802.480728.123069</text><id>RefPickID</id></comment><comment><text>11.75881487872111</text><id>SNR</id></comment></pick><pick publicID="de.gempa.tb1.Pick/20250412084841.169888.123088"><time><value>2025-04-12T08:48:09.718391Z</value></time><waveformID networkCode="CX" stationCode="PB07" channelCode="HHZ"/><filterID>ITAPER(4)&gt;&gt;BW(4,4,20)</filterID><methodID>AIC</methodID><horizontalSlowness><value>23.12009162885555</value></horizontalSlowness><backazimuth><value>297.9672702361541</value></backazimuth><phaseHint>P</phaseHint><evaluationMode>automatic</evaluationMode><comment><text>319.3559516157963</text><id>DFX:rectilinearity</id></comment><comment><text>25.0779635934909</text><id>SNR</id></comment></pick><pick publicID="de.gempa.tb1.Pick/20250412084844.70507.123093"><time><value>2025-04-12T08:48:36.918393Z</value></time><waveformID networkCode="CX" stationCode="PB06" channelCode="HHN"/><filterID>ITAPER(2)&gt;&gt;BW(3,3,20)</filterID><methodID>L2-AIC-GRID</methodID><horizontalSlowness><value>20.134608045711243</value></horizontalSlowness><backazimuth><value>208.50824523766934</value></backazimuth><phaseHint>S</phaseHint><evaluationMode>automatic</evaluationMode><comment><text>112.13676113940727</text><id>DFX:rectilinearity</id></comment><comment><text>de.gempa.tb1.Pick/20250412084806.514467.123071</text><id>RefPickID</id></comment><comment><text>14.662576739977652</text><id>SNR</id></comment></pick><pick publicID="de.gempa.tb1.Pick/20250412084853.629532.123096"><time><value>2025-04-12T08:48:46.028393Z</value></time><waveformID networkCode="CX" stationCode="PB03" channelCode="HHN"/><filterID>ITAPER(2)&gt;&gt;BW(3,3,20)</filterID><methodID>L2-AIC-GRID</methodID><horizontalSlowness><value>21.471171263470406</value></horizontalSlowness><backazimuth><value>357.6802087711785</value></backazimuth><phaseHint>S</phaseHint><evaluationMode>automatic</evaluationMode><comment><text>22.33053960465767</text><id>DFX:rectilinearity</id></comment><comment><text>de.gempa.tb1.Pick/20250412084814.567999.123073</text><id>RefPickID</id></comment><comment><text>17.55811504376729</text><id>SNR</id></comment></pick><pick publicID="de.gempa.tb1.Pick/20250412084907.994732.123100"><time><value>2025-04-12T08:48:51.808391Z</value></time><waveformID networkCode="CX" stationCode="PB07" channelCode="HHN"/><filterID>ITAPER(2)&gt;&gt;BW(3,3,20)</filterID><methodID>L2-AIC-GRID</methodID><horizontalSlowness><value>23.00572755089714</value></horizontalSlowness><backazimuth><value>293.7098041526191</value></backazimuth><phaseHint>S</phaseHint><evaluationMode>automatic</evaluationMode><comment><text>289.8328243508292</text><id>DFX:rectilinearity</id></comment><comment><text>de.gempa.tb1.Pick/20250412084841.169888.123088</text><id>RefPickID</id></comment><comment><text>6.76543788420662</text><id>SNR</id></comment></pick><origin publicID="de.gempa.tb1.Origin/20250412084907.998358.79317"><time><value>2025-04-12T08:47:15.846948Z</value><uncertainty>1.0024480819702148</uncertainty></time><latitude><value>-23.78916549682617</value><uncertainty>11.63114356994629</uncertainty></latitude><longitude><value>-67.33097839355469</value><uncertainty>32.713932037353516</uncertainty></longitude><depth><value>241.68377685546875</value><uncertainty>31.777929306030273</uncertainty></depth><depthType>from location</depthType><methodID>LOCSAT</methodID><earthModelID>iasp91_scanloc</earthModelID><quality><associatedPhaseCount>10</associatedPhaseCount><usedPhaseCount>10</usedPhaseCount><associatedStationCount>6</associatedStationCount><usedStationCount>6</usedStationCount><depthPhaseCount>0</depthPhaseCount><standardError>0.7586849889592487</standardError><azimuthalGap>302.48638916015625</azimuthalGap><maximumDistance>3.3836348056793213</maximumDistance><minimumDistance>1.7980016469955444</minimumDistance><medianDistance>2.8263208866119385</medianDistance></quality><uncertainty><minHorizontalUncertainty>15.275609016418457</minHorizontalUncertainty><maxHorizontalUncertainty>72.88267517089844</maxHorizontalUncertainty><azimuthMaxHorizontalUncertainty>73.93385314941406</azimuthMaxHorizontalUncertainty><preferredDescription>horizontal uncertainty</preferredDescription></uncertainty><evaluationMode>automatic</evaluationMode><evaluationStatus>confirmed</evaluationStatus><comment><text>0.17</text><id>mismatchScore</id></comment><comment><text>mismatchScore</text><id>scevalMethod</id></comment><arrival><pickID>de.gempa.tb1.Pick/20250412084802.480728.123069</pickID><phase>P</phase><azimuth>265.9364013671875</azimuth><distance>1.7980016469955444</distance><timeResidual>-0.16319656372070312</timeResidual><timeUsed>true</timeUsed><horizontalSlownessUsed>false</horizontalSlownessUsed><backazimuthUsed>false</backazimuthUsed><weight>1</weight></arrival><arrival><pickID>de.gempa.tb1.Pick/20250412084806.514467.123071</pickID><phase>P</phase><azimuth>297.1751708984375</azimuth><distance>2.32609224319458</distance><timeResidual>0.32180023193359375</timeResidual><timeUsed>true</timeUsed><horizontalSlownessUsed>false</horizontalSlownessUsed><backazimuthUsed>false</backazimuthUsed><weight>1</weight></arrival><arrival><pickID>de.gempa.tb1.Pick/20250412084814.567999.123073</pickID><phase>P</phase><azimuth>307.3309631347656</azimuth><distance>2.8263208866119385</distance><timeResidual>0.22625732421875</timeResidual><timeUsed>true</timeUsed><horizontalSlownessUsed>false</horizontalSlownessUsed><backazimuthUsed>false</backazimuthUsed><weight>1</weight></arrival><arrival><pickID>de.gempa.tb1.Pick/20250412084817.582713.123075</pickID><phase>P</phase><azimuth>323.45001220703125</azimuth><distance>3.3836348056793213</distance><timeResidual>-1.8716964721679688</timeResidual><timeUsed>true</timeUsed><horizontalSlownessUsed>false</horizontalSlownessUsed><backazimuthUsed>false</backazimuthUsed><weight>1</weight></arrival><arrival><pickID>de.gempa.tb1.Pick/20250412084826.370045.123077</pickID><phase>P</phase><azimuth>317.987060546875</azimuth><distance>2.653925657272339</distance><timeResidual>1.2929916381835938</timeResidual><timeUsed>true</timeUsed><horizontalSlownessUsed>false</horizontalSlownessUsed><backazimuthUsed>false</backazimuthUsed><weight>1</weight></arrival><arrival><pickID>de.gempa.tb1.Pick/20250412084833.67993.123083</pickID><phase>S</phase><azimuth>265.9364013671875</azimuth><distance>1.7980016469955444</distance><timeResidual>-0.3644256591796875</timeResidual><timeUsed>true</timeUsed><horizontalSlownessUsed>false</horizontalSlownessUsed><backazimuthUsed>false</backazimuthUsed><weight>1</weight></arrival><arrival><pickID>de.gempa.tb1.Pick/20250412084841.169888.123088</pickID><phase>P</phase><azimuth>310.536376953125</azimuth><distance>3.126662015914917</distance><timeResidual>0.41483306884765625</timeResidual><timeUsed>true</timeUsed><horizontalSlownessUsed>false</horizontalSlownessUsed><backazimuthUsed>false</backazimuthUsed><weight>1</weight></arrival><arrival><pickID>de.gempa.tb1.Pick/20250412084844.70507.123093</pickID><phase>S</phase><azimuth>297.1751708984375</azimuth><distance>2.32609224319458</distance><timeResidual>0.2698554992675781</timeResidual><timeUsed>true</timeUsed><horizontalSlownessUsed>false</horizontalSlownessUsed><backazimuthUsed>false</backazimuthUsed><weight>1</weight></arrival><arrival><pickID>de.gempa.tb1.Pick/20250412084853.629532.123096</pickID><phase>S</phase><azimuth>307.3309631347656</azimuth><distance>2.8263208866119385</distance><timeResidual>0.020160675048828125</timeResidual><timeUsed>true</timeUsed><horizontalSlownessUsed>false</horizontalSlownessUsed><backazimuthUsed>false</backazimuthUsed><weight>1</weight></arrival><arrival><pickID>de.gempa.tb1.Pick/20250412084907.994732.123100</pickID><phase>S</phase><azimuth>310.536376953125</azimuth><distance>3.126662015914917</distance><timeResidual>-0.14646530151367188</timeResidual><timeUsed>true</timeUsed><horizontalSlownessUsed>false</horizontalSlownessUsed><backazimuthUsed>false</backazimuthUsed><weight>1</weight></arrival><magnitude publicID="de.gempa.tb1.Magnitude/20250412085025.530325.200548"><magnitude><value>3.6198959270794346</value></magnitude><type>M</type><methodID>weighted average</methodID><stationCount>3</stationCount></magnitude></origin><event publicID="gempa2025hffu"><preferredOriginID>de.gempa.tb1.Origin/20250412084907.998358.79317</preferredOriginID><preferredMagnitudeID>de.gempa.tb1.Magnitude/20250412085025.530325.200548</preferredMagnitudeID><description><text>Chile-Argentina Border Region</text><type>region name</type></description><originReference>de.gempa.tb1.Origin/20250412084907.998358.79317</originReference></event></EventParameters></seiscomp>