<?xml version="1.0" encoding="UTF-8"?>
<seiscomp xmlns="http://geofon.gfz-potsdam.de/ns/seiscomp3-schema/0.13" version="0.13"><EventParameters><pick publicID="de.gempa.tb1.Pick/20250412235500.633233.127591"><time><value>2025-04-12T23:54:54.928391Z</value></time><waveformID networkCode="CX" stationCode="PB01" channelCode="HHZ"/><filterID>ITAPER(4)&gt;&gt;BW(4,4,20)</filterID><methodID>AIC</methodID><horizontalSlowness><value>10.535791378660845</value></horizontalSlowness><backazimuth><value>124.47309554756727</value></backazimuth><phaseHint>P</phaseHint><evaluationMode>automatic</evaluationMode><comment><text>4.5257957254311</text><id>DFX:rectilinearity</id></comment><comment><text>10.35912556079728</text><id>SNR</id></comment></pick><pick publicID="de.gempa.tb1.Pick/20250412235502.546249.127593"><time><value>2025-04-12T23:54:57.838393Z</value></time><waveformID networkCode="CX" stationCode="PB03" channelCode="HHZ"/><filterID>ITAPER(4)&gt;&gt;BW(4,4,20)</filterID><methodID>AIC</methodID><horizontalSlowness><value>2.001604453167729</value></horizontalSlowness><backazimuth><value>97.7092053948121</value></backazimuth><phaseHint>P</phaseHint><evaluationMode>automatic</evaluationMode><comment><text>7.106859045240368</text><id>DFX:rectilinearity</id></comment><comment><text>8.472704167208311</text><id>SNR</id></comment></pick><pick publicID="de.gempa.tb1.Pick/20250412235502.576005.127595"><time><value>2025-04-12T23:54:58.008393Z</value></time><waveformID networkCode="CX" stationCode="PB02" channelCode="HHZ"/><filterID>ITAPER(4)&gt;&gt;BW(4,4,20)</filterID><methodID>AIC</methodID><horizontalSlowness><value>16.77854957033161</value></horizontalSlowness><backazimuth><value>107.63923063013677</value></backazimuth><phaseHint>P</phaseHint><evaluationMode>automatic</evaluationMode><comment><text>47.41870159551847</text><id>DFX:rectilinearity</id></comment><comment><text>16.131872468591968</text><id>SNR</id></comment></pick><pick publicID="de.gempa.tb1.Pick/20250412235505.230066.127597"><time><value>2025-04-12T23:54:53.24Z</value></time><waveformID networkCode="CX" stationCode="PB09" channelCode="HHZ"/><filterID>ITAPER(4)&gt;&gt;BW(4,4,20)</filterID><methodID>AIC</methodID><horizontalSlowness><value>19.615111686223194</value></horizontalSlowness><backazimuth><value>274.7152585739177</value></backazimuth><phaseHint>P</phaseHint><evaluationMode>automatic</evaluationMode><comment><text>15.363338403120363</text><id>DFX:rectilinearity</id></comment><comment><text>19.91748756835386</text><id>SNR</id></comment></pick><origin publicID="de.gempa.tb1.Origin/20250412235519.562718.95364"><time><value>2025-04-12T23:54:18.592749Z</value><uncertainty>4.3291802406311035</uncertainty></time><latitude><value>-21.38198471069336</value><uncertainty>23.95427131652832</uncertainty></latitude><longitude><value>-67.84577178955078</value><uncertainty>33.194164276123047</uncertainty></longitude><depth><value>222.21286010742188</value><uncertainty>33.47842788696289</uncertainty></depth><depthType>from location</depthType><methodID>LOCSAT</methodID><earthModelID>iasp91_scanloc</earthModelID><quality><associatedPhaseCount>4</associatedPhaseCount><usedPhaseCount>4</usedPhaseCount><associatedStationCount>4</associatedStationCount><usedStationCount>4</usedStationCount><depthPhaseCount>0</depthPhaseCount><standardError>0.006610760850213947</standardError><azimuthalGap>327.03306579589844</azimuthalGap><maximumDistance>1.9122238159179688</maximumDistance><minimumDistance>1.3632333278656006</minimumDistance><medianDistance>1.893519639968872</medianDistance></quality><uncertainty><minHorizontalUncertainty>50.8570556640625</minHorizontalUncertainty><maxHorizontalUncertainty>71.56661224365234</maxHorizontalUncertainty><azimuthMaxHorizontalUncertainty>81.6760482788086</azimuthMaxHorizontalUncertainty><preferredDescription>horizontal uncertainty</preferredDescription></uncertainty><evaluationMode>automatic</evaluationMode><arrival><pickID>de.gempa.tb1.Pick/20250412235500.633233.127591</pickID><phase>P</phase><azimuth>282.1146545410156</azimuth><distance>1.5683739185333252</distance><timeResidual>0.0066070556640625</timeResidual><timeUsed>true</timeUsed><horizontalSlownessUsed>false</horizontalSlownessUsed><backazimuthUsed>false</backazimuthUsed><weight>1</weight></arrival><arrival><pickID>de.gempa.tb1.Pick/20250412235502.546249.127593</pickID><phase>P</phase><azimuth>249.14772033691406</azimuth><distance>1.893519639968872</distance><timeResidual>0.006580352783203125</timeResidual><timeUsed>true</timeUsed><horizontalSlownessUsed>false</horizontalSlownessUsed><backazimuthUsed>false</backazimuthUsed><weight>1</weight></arrival><arrival><pickID>de.gempa.tb1.Pick/20250412235502.576005.127595</pickID><phase>P</phase><azimuth>271.4851379394531</azimuth><distance>1.9122238159179688</distance><timeResidual>-0.007831573486328125</timeResidual><timeUsed>true</timeUsed><horizontalSlownessUsed>false</horizontalSlownessUsed><backazimuthUsed>false</backazimuthUsed><weight>1</weight></arrival><arrival><pickID>de.gempa.tb1.Pick/20250412235505.230066.127597</pickID><phase>P</phase><azimuth>252.13832092285156</azimuth><distance>1.3632333278656006</distance><timeResidual>-0.00514984130859375</timeResidual><timeUsed>true</timeUsed><horizontalSlownessUsed>false</horizontalSlownessUsed><backazimuthUsed>false</backazimuthUsed><weight>1</weight></arrival><magnitude publicID="de.gempa.tb1.Magnitude/20250412235632.813087.293617"><magnitude><value>2.508070498970955</value></magnitude><type>M</type><methodID>weighted average</methodID><stationCount>1</stationCount></magnitude></origin><event publicID="gempa2025hgkb"><preferredOriginID>de.gempa.tb1.Origin/20250412235519.562718.95364</preferredOriginID><preferredMagnitudeID>de.gempa.tb1.Magnitude/20250412235632.813087.293617</preferredMagnitudeID><typeCertainty>suspected</typeCertainty><description><text>Chile-Bolivia Border Region</text><type>region name</type></description><originReference>de.gempa.tb1.Origin/20250412235519.562718.95364</originReference></event></EventParameters></seiscomp>