<?xml version="1.0" encoding="UTF-8"?>
<seiscomp xmlns="http://geofon.gfz-potsdam.de/ns/seiscomp3-schema/0.13" version="0.13"><EventParameters><pick publicID="de.gempa.tb1.Pick/20250414005832.673435.134647"><time><value>2025-04-14T00:58:26.588393Z</value></time><waveformID networkCode="CX" stationCode="PB02" channelCode="HHZ"/><filterID>ITAPER(4)&gt;&gt;BW(4,4,20)</filterID><methodID>AIC</methodID><horizontalSlowness><value>21.065010781606038</value></horizontalSlowness><backazimuth><value>271.48248473259127</value></backazimuth><phaseHint>P</phaseHint><evaluationMode>automatic</evaluationMode><comment><text>39.14387829684206</text><id>DFX:rectilinearity</id></comment><comment><text>15.671956466284023</text><id>SNR</id></comment></pick><pick publicID="de.gempa.tb1.Pick/20250414005834.380913.134649"><time><value>2025-04-14T00:58:26.179999Z</value></time><waveformID networkCode="CX" stationCode="PATCX" channelCode="HHZ"/><filterID>ITAPER(4)&gt;&gt;BW(4,4,20)</filterID><methodID>AIC</methodID><horizontalSlowness><value>22.227344648524447</value></horizontalSlowness><backazimuth><value>71.88138479242762</value></backazimuth><phaseHint>P</phaseHint><evaluationMode>automatic</evaluationMode><comment><text>181.89296292402318</text><id>DFX:rectilinearity</id></comment><comment><text>27.713117190236655</text><id>SNR</id></comment></pick><pick publicID="de.gempa.tb1.Pick/20250414005835.572691.134651"><time><value>2025-04-14T00:58:29.118391Z</value></time><waveformID networkCode="CX" stationCode="PB01" channelCode="HHZ"/><filterID>ITAPER(4)&gt;&gt;BW(4,4,20)</filterID><methodID>AIC</methodID><horizontalSlowness><value>5.797911680107907</value></horizontalSlowness><backazimuth><value>260.0684066628311</value></backazimuth><phaseHint>P</phaseHint><evaluationMode>automatic</evaluationMode><comment><text>24.53083793232528</text><id>DFX:rectilinearity</id></comment><comment><text>13.40583359946184</text><id>SNR</id></comment></pick><pick publicID="de.gempa.tb1.Pick/20250414005841.64512.134653"><time><value>2025-04-14T00:58:34.498393Z</value></time><waveformID networkCode="CX" stationCode="PB02" channelCode="HHN"/><filterID>ITAPER(2)&gt;&gt;BW(3,3,20)</filterID><methodID>L2-AIC-GRID</methodID><horizontalSlowness><value>22.660511501097595</value></horizontalSlowness><backazimuth><value>2.490050402829297</value></backazimuth><phaseHint>S</phaseHint><evaluationMode>automatic</evaluationMode><comment><text>143.038507708909</text><id>DFX:rectilinearity</id></comment><comment><text>de.gempa.tb1.Pick/20250414005832.673435.134647</text><id>RefPickID</id></comment><comment><text>7.754762062773836</text><id>SNR</id></comment></pick><pick publicID="de.gempa.tb1.Pick/20250414005844.263584.134654"><time><value>2025-04-14T00:58:34.529999Z</value></time><waveformID networkCode="CX" stationCode="PATCX" channelCode="HHN"/><filterID>ITAPER(2)&gt;&gt;BW(3,3,20)</filterID><methodID>L2-AIC-GRID</methodID><horizontalSlowness><value>23.14429713347195</value></horizontalSlowness><backazimuth><value>60.22918996425824</value></backazimuth><phaseHint>S</phaseHint><evaluationMode>automatic</evaluationMode><comment><text>219.54879963808025</text><id>DFX:rectilinearity</id></comment><comment><text>de.gempa.tb1.Pick/20250414005834.380913.134649</text><id>RefPickID</id></comment><comment><text>6.492219339312726</text><id>SNR</id></comment></pick><pick publicID="de.gempa.tb1.Pick/20250414005844.570888.134655"><time><value>2025-04-14T00:58:38.908391Z</value></time><waveformID networkCode="CX" stationCode="PB01" channelCode="HHN"/><filterID>ITAPER(2)&gt;&gt;BW(3,3,20)</filterID><methodID>L2-AIC-GRID</methodID><horizontalSlowness><value>21.930517918390414</value></horizontalSlowness><backazimuth><value>114.04707139297803</value></backazimuth><phaseHint>S</phaseHint><evaluationMode>automatic</evaluationMode><comment><text>89.21961246648632</text><id>DFX:rectilinearity</id></comment><comment><text>de.gempa.tb1.Pick/20250414005835.572691.134651</text><id>RefPickID</id></comment><comment><text>19.336035805236357</text><id>SNR</id></comment></pick><pick publicID="de.gempa.tb1.Pick/20250414005848.717066.134656"><time><value>2025-04-14T00:58:39.8Z</value></time><waveformID networkCode="CX" stationCode="PSGCX" channelCode="HHZ"/><filterID>ITAPER(4)&gt;&gt;BW(4,4,20)</filterID><methodID>AIC</methodID><horizontalSlowness><value>22.71075079912741</value></horizontalSlowness><backazimuth><value>209.82273545492424</value></backazimuth><phaseHint>P</phaseHint><evaluationMode>automatic</evaluationMode><comment><text>20.253815017668522</text><id>DFX:rectilinearity</id></comment><comment><text>9.750657156178661</text><id>SNR</id></comment></pick><pick publicID="de.gempa.tb1.Pick/20250414005910.550945.134659"><time><value>2025-04-14T00:58:58.65Z</value></time><waveformID networkCode="CX" stationCode="PSGCX" channelCode="HHN"/><filterID>ITAPER(2)&gt;&gt;BW(3,3,20)</filterID><methodID>L2-AIC-GRID</methodID><horizontalSlowness><value>19.723020287697715</value></horizontalSlowness><backazimuth><value>91.84948336714832</value></backazimuth><phaseHint>S</phaseHint><evaluationMode>automatic</evaluationMode><comment><text>de.gempa.tb1.Pick/20250414005848.717066.134656</text><id>RefPickID</id></comment><comment><text>5.094080657314827</text><id>SNR</id></comment><comment><text>25.535949701884263</text><id>DFX:rectilinearity</id></comment></pick><origin publicID="de.gempa.tb1.Origin/20250414005910.553862.122456"><time><value>2025-04-14T00:58:15.429824Z</value><uncertainty>1.134061098098755</uncertainty></time><latitude><value>-21.071792602539062</value><uncertainty>5.284106731414795</uncertainty></latitude><longitude><value>-70.09317016601562</value><uncertainty>6.970071792602539</uncertainty></longitude><depth><value>68.34201049804688</value><uncertainty>7.305338382720947</uncertainty></depth><depthType>from location</depthType><methodID>LOCSAT</methodID><earthModelID>iasp91_scanloc</earthModelID><quality><associatedPhaseCount>8</associatedPhaseCount><usedPhaseCount>8</usedPhaseCount><associatedStationCount>4</associatedStationCount><usedStationCount>4</usedStationCount><depthPhaseCount>0</depthPhaseCount><standardError>0.2170943175399229</standardError><azimuthalGap>204.07278442382812</azimuthalGap><maximumDistance>1.467383623123169</maximumDistance><minimumDistance>0.2559863328933716</minimumDistance><medianDistance>0.5665210485458374</medianDistance></quality><uncertainty><minHorizontalUncertainty>8.573212623596191</minHorizontalUncertainty><maxHorizontalUncertainty>16.68226432800293</maxHorizontalUncertainty><azimuthMaxHorizontalUncertainty>58.81930923461914</azimuthMaxHorizontalUncertainty><preferredDescription>horizontal uncertainty</preferredDescription></uncertainty><evaluationMode>automatic</evaluationMode><evaluationStatus>confirmed</evaluationStatus><comment><text>0.30</text><id>mismatchScore</id></comment><comment><text>mismatchScore</text><id>scevalMethod</id></comment><arrival><pickID>de.gempa.tb1.Pick/20250414005832.673435.134647</pickID><phase>P</phase><azimuth>143.323974609375</azimuth><distance>0.3077484369277954</distance><timeResidual>0.1008291244506836</timeResidual><timeUsed>true</timeUsed><horizontalSlownessUsed>false</horizontalSlownessUsed><backazimuthUsed>false</backazimuthUsed><weight>1</weight></arrival><arrival><pickID>de.gempa.tb1.Pick/20250414005834.380913.134649</pickID><phase>P</phase><azimuth>347.3967590332031</azimuth><distance>0.2559863328933716</distance><timeResidual>0.027704238891601559</timeResidual><timeUsed>true</timeUsed><horizontalSlownessUsed>false</horizontalSlownessUsed><backazimuthUsed>false</backazimuthUsed><weight>1</weight></arrival><arrival><pickID>de.gempa.tb1.Pick/20250414005835.572691.134651</pickID><phase>P</phase><azimuth>87.23269653320312</azimuth><distance>0.5665210485458374</distance><timeResidual>0.335270881652832</timeResidual><timeUsed>true</timeUsed><horizontalSlownessUsed>false</horizontalSlownessUsed><backazimuthUsed>false</backazimuthUsed><weight>1</weight></arrival><arrival><pickID>de.gempa.tb1.Pick/20250414005841.64512.134653</pickID><phase>S</phase><azimuth>143.323974609375</azimuth><distance>0.3077484369277954</distance><timeResidual>-0.3739347457885742</timeResidual><timeUsed>true</timeUsed><horizontalSlownessUsed>false</horizontalSlownessUsed><backazimuthUsed>false</backazimuthUsed><weight>1</weight></arrival><arrival><pickID>de.gempa.tb1.Pick/20250414005844.263584.134654</pickID><phase>S</phase><azimuth>347.3967590332031</azimuth><distance>0.2559863328933716</distance><timeResidual>0.25069332122802734</timeResidual><timeUsed>true</timeUsed><horizontalSlownessUsed>false</horizontalSlownessUsed><backazimuthUsed>false</backazimuthUsed><weight>1</weight></arrival><arrival><pickID>de.gempa.tb1.Pick/20250414005844.570888.134655</pickID><phase>S</phase><azimuth>87.23269653320312</azimuth><distance>0.5665210485458374</distance><timeResidual>-0.03362560272216797</timeResidual><timeUsed>true</timeUsed><horizontalSlownessUsed>false</horizontalSlownessUsed><backazimuthUsed>false</backazimuthUsed><weight>1</weight></arrival><arrival><pickID>de.gempa.tb1.Pick/20250414005848.717066.134656</pickID><phase>P</phase><azimuth>358.8999938964844</azimuth><distance>1.467383623123169</distance><timeResidual>-0.1162862777709961</timeResidual><timeUsed>true</timeUsed><horizontalSlownessUsed>false</horizontalSlownessUsed><backazimuthUsed>false</backazimuthUsed><weight>1</weight></arrival><arrival><pickID>de.gempa.tb1.Pick/20250414005910.550945.134659</pickID><phase>S</phase><azimuth>358.8999938964844</azimuth><distance>1.467383623123169</distance><timeResidual>-0.19071292877197266</timeResidual><timeUsed>true</timeUsed><horizontalSlownessUsed>false</horizontalSlownessUsed><backazimuthUsed>false</backazimuthUsed><weight>1</weight></arrival><magnitude publicID="de.gempa.tb1.Magnitude/20250414005915.93755.414787"><magnitude><value>1.392894587960352</value></magnitude><type>M</type><methodID>weighted average</methodID><stationCount>4</stationCount></magnitude></origin><event publicID="gempa2025hiif"><preferredOriginID>de.gempa.tb1.Origin/20250414005910.553862.122456</preferredOriginID><preferredMagnitudeID>de.gempa.tb1.Magnitude/20250414005915.93755.414787</preferredMagnitudeID><description><text>Near Coast of Northern Chile</text><type>region name</type></description><originReference>de.gempa.tb1.Origin/20250414005910.553862.122456</originReference></event></EventParameters></seiscomp>