<?xml version="1.0" encoding="UTF-8"?>
<seiscomp xmlns="http://geofon.gfz-potsdam.de/ns/seiscomp3-schema/0.13" version="0.13"><EventParameters><pick publicID="de.gempa.tb1.Pick/20250415044435.542301.143541"><time><value>2025-04-15T04:44:30.208394Z</value></time><waveformID networkCode="CX" stationCode="PB03" channelCode="HHZ"/><filterID>ITAPER(4)&gt;&gt;BW(4,4,20)</filterID><methodID>AIC</methodID><horizontalSlowness><value>14.99175749205098</value></horizontalSlowness><backazimuth><value>235.3027218271501</value></backazimuth><phaseHint>P</phaseHint><evaluationMode>automatic</evaluationMode><comment><text>16.712251479976878</text><id>DFX:rectilinearity</id></comment><comment><text>27.07999466656666</text><id>SNR</id></comment></pick><pick publicID="de.gempa.tb1.Pick/20250415044436.497158.143543"><time><value>2025-04-15T04:44:30.758393Z</value></time><waveformID networkCode="CX" stationCode="PB06" channelCode="HHZ"/><filterID>ITAPER(4)&gt;&gt;BW(4,4,20)</filterID><methodID>AIC</methodID><horizontalSlowness><value>4.300625819373434</value></horizontalSlowness><backazimuth><value>89.16956303538286</value></backazimuth><phaseHint>P</phaseHint><evaluationMode>automatic</evaluationMode><comment><text>64.80980991686577</text><id>DFX:rectilinearity</id></comment><comment><text>26.52921247905647</text><id>SNR</id></comment></pick><pick publicID="de.gempa.tb1.Pick/20250415044441.232997.143545"><time><value>2025-04-15T04:44:31.9Z</value></time><waveformID networkCode="CX" stationCode="PB10" channelCode="HHZ"/><filterID>ITAPER(4)&gt;&gt;BW(4,4,20)</filterID><methodID>AIC</methodID><horizontalSlowness><value>7.356120205334094</value></horizontalSlowness><backazimuth><value>67.88148024116592</value></backazimuth><phaseHint>P</phaseHint><evaluationMode>automatic</evaluationMode><comment><text>101.05680292513301</text><id>DFX:rectilinearity</id></comment><comment><text>9.227788170097451</text><id>SNR</id></comment></pick><pick publicID="de.gempa.tb1.Pick/20250415044445.579826.143547"><time><value>2025-04-15T04:44:37.938393Z</value></time><waveformID networkCode="CX" stationCode="PB02" channelCode="HHZ"/><filterID>ITAPER(4)&gt;&gt;BW(4,4,20)</filterID><methodID>AIC</methodID><horizontalSlowness><value>22.5398625097588</value></horizontalSlowness><backazimuth><value>271.32815599551213</value></backazimuth><phaseHint>P</phaseHint><evaluationMode>automatic</evaluationMode><comment><text>46.61213182800027</text><id>DFX:rectilinearity</id></comment><comment><text>14.461222594826403</text><id>SNR</id></comment></pick><pick publicID="de.gempa.tb1.Pick/20250415044450.254554.143549"><time><value>2025-04-15T04:44:39.429998Z</value></time><waveformID networkCode="CX" stationCode="PB09" channelCode="HHZ"/><filterID>ITAPER(4)&gt;&gt;BW(4,4,20)</filterID><methodID>AIC</methodID><horizontalSlowness><value>18.008059216076436</value></horizontalSlowness><backazimuth><value>236.78005903591244</value></backazimuth><phaseHint>P</phaseHint><evaluationMode>automatic</evaluationMode><comment><text>15.152670671503868</text><id>DFX:rectilinearity</id></comment><comment><text>20.989510134583526</text><id>SNR</id></comment></pick><pick publicID="de.gempa.tb1.Pick/20250415044453.579139.143551"><time><value>2025-04-15T04:44:41.718394Z</value></time><waveformID networkCode="CX" stationCode="PB03" channelCode="HHN"/><filterID>ITAPER(2)&gt;&gt;BW(3,3,20)</filterID><methodID>L2-AIC-GRID</methodID><horizontalSlowness><value>15.223963703573288</value></horizontalSlowness><backazimuth><value>182.15879431895755</value></backazimuth><phaseHint>S</phaseHint><evaluationMode>automatic</evaluationMode><comment><text>55.15856242642768</text><id>DFX:rectilinearity</id></comment><comment><text>de.gempa.tb1.Pick/20250415044435.542301.143541</text><id>RefPickID</id></comment><comment><text>5.169240153929727</text><id>SNR</id></comment></pick><pick publicID="de.gempa.tb1.Pick/20250415044454.574504.143552"><time><value>2025-04-15T04:44:42.648393Z</value></time><waveformID networkCode="CX" stationCode="PB06" channelCode="HHN"/><filterID>ITAPER(2)&gt;&gt;BW(3,3,20)</filterID><methodID>L2-AIC-GRID</methodID><horizontalSlowness><value>21.294176354044755</value></horizontalSlowness><backazimuth><value>146.89322676351924</value></backazimuth><phaseHint>S</phaseHint><evaluationMode>automatic</evaluationMode><comment><text>374.72515312415305</text><id>DFX:rectilinearity</id></comment><comment><text>de.gempa.tb1.Pick/20250415044436.497158.143543</text><id>RefPickID</id></comment><comment><text>8.142192323954486</text><id>SNR</id></comment></pick><pick publicID="de.gempa.tb1.Pick/20250415044456.772769.143553"><time><value>2025-04-15T04:44:32.298393Z</value></time><waveformID networkCode="CX" stationCode="PB07" channelCode="HHZ"/><filterID>ITAPER(4)&gt;&gt;BW(4,4,20)</filterID><methodID>AIC</methodID><horizontalSlowness><value>21.32347728893447</value></horizontalSlowness><backazimuth><value>258.54143400027465</value></backazimuth><phaseHint>P</phaseHint><evaluationMode>automatic</evaluationMode><comment><text>311.0016422400952</text><id>DFX:rectilinearity</id></comment><comment><text>52.5296948413164</text><id>SNR</id></comment></pick><origin publicID="de.gempa.tb1.Origin/20250415044456.777871.161056"><time><value>2025-04-15T04:44:13.293425Z</value><uncertainty>0.7534347772598267</uncertainty></time><latitude><value>-22.53526496887207</value><uncertainty>3.589244604110718</uncertainty></latitude><longitude><value>-70.51996612548828</value><uncertainty>4.629522323608398</uncertainty></longitude><depth><value>7.852901935577393</value><uncertainty>7.092236518859863</uncertainty></depth><depthType>from location</depthType><methodID>LOCSAT</methodID><earthModelID>iasp91_scanloc</earthModelID><quality><associatedPhaseCount>8</associatedPhaseCount><usedPhaseCount>8</usedPhaseCount><associatedStationCount>6</associatedStationCount><usedStationCount>6</usedStationCount><depthPhaseCount>0</depthPhaseCount><standardError>0.28416931528321454</standardError><azimuthalGap>203.86566162109375</azimuthalGap><maximumDistance>1.394360065460205</maximumDistance><minimumDistance>0.8597325682640076</minimumDistance><medianDistance>0.974111020565033</medianDistance></quality><uncertainty><minHorizontalUncertainty>6.716367244720459</minHorizontalUncertainty><maxHorizontalUncertainty>10.615601539611816</maxHorizontalUncertainty><azimuthMaxHorizontalUncertainty>117.21243286132812</azimuthMaxHorizontalUncertainty><preferredDescription>horizontal uncertainty</preferredDescription></uncertainty><evaluationMode>automatic</evaluationMode><evaluationStatus>confirmed</evaluationStatus><comment><text>0.18</text><id>mismatchScore</id></comment><comment><text>mismatchScore</text><id>scevalMethod</id></comment><arrival><pickID>de.gempa.tb1.Pick/20250415044435.542301.143541</pickID><phase>P</phase><azimuth>55.84644317626953</azimuth><distance>0.8597325682640076</distance><timeResidual>0.3761482238769531</timeResidual><timeUsed>true</timeUsed><horizontalSlownessUsed>false</horizontalSlownessUsed><backazimuthUsed>false</backazimuthUsed><weight>1</weight></arrival><arrival><pickID>de.gempa.tb1.Pick/20250415044436.497158.143543</pickID><phase>P</phase><azimuth>101.14614868164062</azimuth><distance>0.892309308052063</distance><timeResidual>0.3049812316894531</timeResidual><timeUsed>true</timeUsed><horizontalSlownessUsed>false</horizontalSlownessUsed><backazimuthUsed>false</backazimuthUsed><weight>1</weight></arrival><arrival><pickID>de.gempa.tb1.Pick/20250415044441.232997.143545</pickID><phase>P</phase><azimuth>181.84213256835938</azimuth><distance>0.974111020565033</distance><timeResidual>-0.11568641662597656</timeResidual><timeUsed>true</timeUsed><horizontalSlownessUsed>false</horizontalSlownessUsed><backazimuthUsed>false</backazimuthUsed><weight>1</weight></arrival><arrival><pickID>de.gempa.tb1.Pick/20250415044445.579826.143547</pickID><phase>P</phase><azimuth>25.707794189453125</azimuth><distance>1.341218113899231</distance><timeResidual>-0.3941993713378906</timeResidual><timeUsed>true</timeUsed><horizontalSlownessUsed>false</horizontalSlownessUsed><backazimuthUsed>false</backazimuthUsed><weight>1</weight></arrival><arrival><pickID>de.gempa.tb1.Pick/20250415044450.254554.143549</pickID><phase>P</phase><azimuth>58.41373443603516</azimuth><distance>1.394360065460205</distance><timeResidual>0.36688804626464844</timeResidual><timeUsed>true</timeUsed><horizontalSlownessUsed>false</horizontalSlownessUsed><backazimuthUsed>false</backazimuthUsed><weight>1</weight></arrival><arrival><pickID>de.gempa.tb1.Pick/20250415044453.579139.143551</pickID><phase>S</phase><azimuth>55.84644317626953</azimuth><distance>0.8597325682640076</distance><timeResidual>-0.12444305419921875</timeResidual><timeUsed>true</timeUsed><horizontalSlownessUsed>false</horizontalSlownessUsed><backazimuthUsed>false</backazimuthUsed><weight>1</weight></arrival><arrival><pickID>de.gempa.tb1.Pick/20250415044454.574504.143552</pickID><phase>S</phase><azimuth>101.14614868164062</azimuth><distance>0.892309308052063</distance><timeResidual>-0.2664070129394531</timeResidual><timeUsed>true</timeUsed><horizontalSlownessUsed>false</horizontalSlownessUsed><backazimuthUsed>false</backazimuthUsed><weight>1</weight></arrival><arrival><pickID>de.gempa.tb1.Pick/20250415044456.772769.143553</pickID><phase>P</phase><azimuth>36.25865936279297</azimuth><distance>0.9964326024055481</distance><timeResidual>-0.14722251892089844</timeResidual><timeUsed>true</timeUsed><horizontalSlownessUsed>false</horizontalSlownessUsed><backazimuthUsed>false</backazimuthUsed><weight>1</weight></arrival><magnitude publicID="de.gempa.tb1.Magnitude/20250415044500.936848.572232"><magnitude><value>2.1246919463437073</value></magnitude><type>M</type><methodID>weighted average</methodID><stationCount>6</stationCount></magnitude></origin><event publicID="gempa2025hklt"><preferredOriginID>de.gempa.tb1.Origin/20250415044456.777871.161056</preferredOriginID><preferredMagnitudeID>de.gempa.tb1.Magnitude/20250415044500.936848.572232</preferredMagnitudeID><description><text>Near Coast of Northern Chile</text><type>region name</type></description><originReference>de.gempa.tb1.Origin/20250415044456.777871.161056</originReference></event></EventParameters></seiscomp>