<?xml version="1.0" encoding="UTF-8"?>
<seiscomp xmlns="http://geofon.gfz-potsdam.de/ns/seiscomp3-schema/0.13" version="0.13"><EventParameters><pick publicID="de.gempa.tb1.Pick/20250414082233.574623.136767"><time><value>2025-04-14T08:22:28.198394Z</value></time><waveformID networkCode="CX" stationCode="PB01" channelCode="HHZ"/><filterID>ITAPER(4)&gt;&gt;BW(4,4,20)</filterID><methodID>AIC</methodID><horizontalSlowness><value>22.103697785724403</value></horizontalSlowness><backazimuth><value>343.3797379168674</value></backazimuth><phaseHint>P</phaseHint><evaluationMode>automatic</evaluationMode><comment><text>8.491527866688063</text><id>DFX:rectilinearity</id></comment><comment><text>49.19392958417791</text><id>SNR</id></comment></pick><pick publicID="de.gempa.tb1.Pick/20250414082239.524028.136771"><time><value>2025-04-14T08:22:32.708393Z</value></time><waveformID networkCode="CX" stationCode="PB02" channelCode="HHN"/><filterID>ITAPER(2)&gt;&gt;BW(3,3,20)</filterID><methodID>L2-AIC-GRID</methodID><horizontalSlowness><value>18.155757428168425</value></horizontalSlowness><backazimuth><value>267.62997643027404</value></backazimuth><phaseHint>S</phaseHint><evaluationMode>automatic</evaluationMode><comment><text>33.99162461394121</text><id>DFX:rectilinearity</id></comment><comment><text>de.gempa.tb1.Pick/20250414082239.523075.136769</text><id>RefPickID</id></comment><comment><text>7.698372489645763</text><id>SNR</id></comment></pick><pick publicID="de.gempa.tb1.Pick/20250414082242.566349.136772"><time><value>2025-04-14T08:22:34.208394Z</value></time><waveformID networkCode="CX" stationCode="PB01" channelCode="HHN"/><filterID>ITAPER(2)&gt;&gt;BW(3,3,20)</filterID><methodID>L2-AIC-GRID</methodID><horizontalSlowness><value>17.900044499140758</value></horizontalSlowness><backazimuth><value>46.41274982601107</value></backazimuth><phaseHint>S</phaseHint><evaluationMode>automatic</evaluationMode><comment><text>21.11410645516436</text><id>DFX:rectilinearity</id></comment><comment><text>de.gempa.tb1.Pick/20250414082233.574623.136767</text><id>RefPickID</id></comment><comment><text>20.726067425352294</text><id>SNR</id></comment></pick><pick publicID="de.gempa.tb1.Pick/20250414082244.172138.136773"><time><value>2025-04-14T08:22:31.62Z</value></time><waveformID networkCode="CX" stationCode="PB09" channelCode="HHZ"/><filterID>ITAPER(4)&gt;&gt;BW(4,4,20)</filterID><methodID>AIC</methodID><horizontalSlowness><value>19.328188340796345</value></horizontalSlowness><backazimuth><value>298.01828850646075</value></backazimuth><phaseHint>P</phaseHint><evaluationMode>automatic</evaluationMode><comment><text>8.784648990456025</text><id>DFX:rectilinearity</id></comment><comment><text>15.625910673734174</text><id>SNR</id></comment></pick><pick publicID="de.gempa.tb1.Pick/20250414082245.287507.136775"><time><value>2025-04-14T08:22:29.768394Z</value></time><waveformID networkCode="CX" stationCode="PB07" channelCode="HHZ"/><filterID>ITAPER(4)&gt;&gt;BW(4,4,20)</filterID><methodID>AIC</methodID><horizontalSlowness><value>21.8100057604019</value></horizontalSlowness><backazimuth><value>317.00197275448676</value></backazimuth><phaseHint>P</phaseHint><evaluationMode>automatic</evaluationMode><comment><text>168.75592604936332</text><id>DFX:rectilinearity</id></comment><comment><text>9.104736478569926</text><id>SNR</id></comment></pick><pick publicID="de.gempa.tb1.Pick/20250414082248.171924.136777"><time><value>2025-04-14T08:22:36.598394Z</value></time><waveformID networkCode="CX" stationCode="PB07" channelCode="HHN"/><filterID>ITAPER(2)&gt;&gt;BW(3,3,20)</filterID><methodID>L2-AIC-GRID</methodID><horizontalSlowness><value>21.480607865209013</value></horizontalSlowness><backazimuth><value>268.6669968165272</value></backazimuth><phaseHint>S</phaseHint><evaluationMode>automatic</evaluationMode><comment><text>694.5478931577802</text><id>DFX:rectilinearity</id></comment><comment><text>de.gempa.tb1.Pick/20250414082245.287507.136775</text><id>RefPickID</id></comment><comment><text>18.096673389935724</text><id>SNR</id></comment></pick><origin publicID="de.gempa.tb1.Origin/20250414082251.781087.132436"><time><value>2025-04-14T08:22:20.18706Z</value><uncertainty>1.678095817565918</uncertainty></time><latitude><value>-21.364763259887695</value><uncertainty>7.100296974182129</uncertainty></latitude><longitude><value>-69.61310577392578</value><uncertainty>9.018353462219238</uncertainty></longitude><depth><value>31.54151153564453</value><uncertainty>21.054378509521484</uncertainty></depth><depthType>from location</depthType><methodID>LOCSAT</methodID><earthModelID>iasp91_scanloc</earthModelID><quality><associatedPhaseCount>6</associatedPhaseCount><usedPhaseCount>6</usedPhaseCount><associatedStationCount>4</associatedStationCount><usedStationCount>4</usedStationCount><depthPhaseCount>0</depthPhaseCount><standardError>0.1204956274681012</standardError><azimuthalGap>121.09820938110352</azimuthalGap><maximumDistance>0.5512038469314575</maximumDistance><minimumDistance>0.2675316035747528</minimumDistance><medianDistance>0.4408193826675415</medianDistance></quality><uncertainty><minHorizontalUncertainty>5.89751672744751</minHorizontalUncertainty><maxHorizontalUncertainty>23.898632049560547</maxHorizontalUncertainty><azimuthMaxHorizontalUncertainty>127.31344604492188</azimuthMaxHorizontalUncertainty><preferredDescription>horizontal uncertainty</preferredDescription></uncertainty><evaluationMode>automatic</evaluationMode><evaluationStatus>confirmed</evaluationStatus><comment><text>0.00</text><id>mismatchScore</id></comment><comment><text>mismatchScore</text><id>scevalMethod</id></comment><arrival><pickID>de.gempa.tb1.Pick/20250414082233.574623.136767</pickID><phase>P</phase><azimuth>20.157390594482422</azimuth><distance>0.34076476097106934</distance><timeResidual>-0.11091995239257812</timeResidual><timeUsed>true</timeUsed><horizontalSlownessUsed>false</horizontalSlownessUsed><backazimuthUsed>false</backazimuthUsed><weight>1</weight></arrival><arrival><pickID>de.gempa.tb1.Pick/20250414082239.524028.136771</pickID><phase>S</phase><azimuth>279.59100341796875</azimuth><distance>0.2675316035747528</distance><timeResidual>0.14940643310546875</timeResidual><timeUsed>true</timeUsed><horizontalSlownessUsed>false</horizontalSlownessUsed><backazimuthUsed>false</backazimuthUsed><weight>1</weight></arrival><arrival><pickID>de.gempa.tb1.Pick/20250414082242.566349.136772</pickID><phase>S</phase><azimuth>20.157390594482422</azimuth><distance>0.34076476097106934</distance><timeResidual>-0.031289100646972656</timeResidual><timeUsed>true</timeUsed><horizontalSlownessUsed>false</horizontalSlownessUsed><backazimuthUsed>false</backazimuthUsed><weight>1</weight></arrival><arrival><pickID>de.gempa.tb1.Pick/20250414082244.172138.136773</pickID><phase>P</phase><azimuth>141.25559997558594</azimuth><distance>0.5512038469314575</distance><timeResidual>0.15324783325195312</timeResidual><timeUsed>true</timeUsed><horizontalSlownessUsed>false</horizontalSlownessUsed><backazimuthUsed>false</backazimuthUsed><weight>1</weight></arrival><arrival><pickID>de.gempa.tb1.Pick/20250414082245.287507.136775</pickID><phase>P</phase><azimuth>215.1687774658203</azimuth><distance>0.4408193826675415</distance><timeResidual>0.006755828857421875</timeResidual><timeUsed>true</timeUsed><horizontalSlownessUsed>false</horizontalSlownessUsed><backazimuthUsed>false</backazimuthUsed><weight>1</weight></arrival><arrival><pickID>de.gempa.tb1.Pick/20250414082248.171924.136777</pickID><phase>S</phase><azimuth>215.1687774658203</azimuth><distance>0.4408193826675415</distance><timeResidual>-0.16727256774902344</timeResidual><timeUsed>true</timeUsed><horizontalSlownessUsed>false</horizontalSlownessUsed><backazimuthUsed>false</backazimuthUsed><weight>1</weight></arrival><magnitude publicID="de.gempa.tb1.Magnitude/20250414082313.782412.452108"><magnitude><value>1.6029191705543386</value></magnitude><type>M</type><methodID>weighted average</methodID><stationCount>2</stationCount></magnitude></origin><event publicID="gempa2025hixa"><preferredOriginID>de.gempa.tb1.Origin/20250414082251.781087.132436</preferredOriginID><preferredMagnitudeID>de.gempa.tb1.Magnitude/20250414082313.782412.452108</preferredMagnitudeID><description><text>Northern Chile</text><type>region name</type></description><originReference>de.gempa.tb1.Origin/20250414082251.781087.132436</originReference></event></EventParameters></seiscomp>