<?xml version="1.0" encoding="UTF-8"?>
<seiscomp xmlns="http://geofon.gfz-potsdam.de/ns/seiscomp3-schema/0.13" version="0.13"><EventParameters><pick publicID="de.gempa.tb1.Pick/20250413114600.312107.130918"><time><value>2025-04-13T11:45:53.22Z</value></time><waveformID networkCode="CX" stationCode="PB09" channelCode="HHZ"/><filterID>ITAPER(4)&gt;&gt;BW(4,4,20)</filterID><methodID>AIC</methodID><horizontalSlowness><value>17.780601551718345</value></horizontalSlowness><backazimuth><value>87.32927247005232</value></backazimuth><phaseHint>P</phaseHint><evaluationMode>automatic</evaluationMode><comment><text>45.98189939822213</text><id>DFX:rectilinearity</id></comment><comment><text>64.47768379411472</text><id>SNR</id></comment></pick><pick publicID="de.gempa.tb1.Pick/20250413114602.602353.130920"><time><value>2025-04-13T11:45:57.638393Z</value></time><waveformID networkCode="CX" stationCode="PB03" channelCode="HHZ"/><filterID>ITAPER(4)&gt;&gt;BW(4,4,20)</filterID><methodID>AIC</methodID><horizontalSlowness><value>6.450164024080775</value></horizontalSlowness><backazimuth><value>76.93829423791372</value></backazimuth><phaseHint>P</phaseHint><evaluationMode>automatic</evaluationMode><comment><text>15.439968920832476</text><id>DFX:rectilinearity</id></comment><comment><text>25.945096939099596</text><id>SNR</id></comment></pick><pick publicID="de.gempa.tb1.Pick/20250413114604.602174.130924"><time><value>2025-04-13T11:45:57.018393Z</value></time><waveformID networkCode="CX" stationCode="PB01" channelCode="HHZ"/><filterID>ITAPER(4)&gt;&gt;BW(4,4,20)</filterID><methodID>AIC</methodID><horizontalSlowness><value>7.472863084784644</value></horizontalSlowness><backazimuth><value>117.18771778068987</value></backazimuth><phaseHint>P</phaseHint><evaluationMode>automatic</evaluationMode><comment><text>164.51920481999008</text><id>DFX:rectilinearity</id></comment><comment><text>244.3188969617528</text><id>SNR</id></comment></pick><pick publicID="de.gempa.tb1.Pick/20250413114612.239599.130928"><time><value>2025-04-13T11:46:04.628393Z</value></time><waveformID networkCode="CX" stationCode="PB08" channelCode="HHZ"/><filterID>ITAPER(4)&gt;&gt;BW(4,4,20)</filterID><methodID>AIC</methodID><horizontalSlowness><value>11.000250487617524</value></horizontalSlowness><backazimuth><value>130.01391973446482</value></backazimuth><phaseHint>P</phaseHint><evaluationMode>automatic</evaluationMode><comment><text>14.496969759499388</text><id>DFX:rectilinearity</id></comment><comment><text>7.304582147950567</text><id>SNR</id></comment></pick><pick publicID="de.gempa.tb1.Pick/20250413114613.452297.130930"><time><value>2025-04-13T11:46:04.699999Z</value></time><waveformID networkCode="CX" stationCode="PATCX" channelCode="HHZ"/><filterID>ITAPER(4)&gt;&gt;BW(4,4,20)</filterID><methodID>AIC</methodID><horizontalSlowness><value>21.264381665782636</value></horizontalSlowness><backazimuth><value>87.78848094322522</value></backazimuth><phaseHint>P</phaseHint><evaluationMode>automatic</evaluationMode><comment><text>121.27564561608445</text><id>DFX:rectilinearity</id></comment><comment><text>35.2678105400447</text><id>SNR</id></comment></pick><pick publicID="de.gempa.tb1.Pick/20250413114619.494041.130932"><time><value>2025-04-13T11:46:14.520001Z</value></time><waveformID networkCode="CX" stationCode="PSGCX" channelCode="HHZ"/><filterID>ITAPER(4)&gt;&gt;BW(4,4,20)</filterID><methodID>AIC</methodID><horizontalSlowness><value>14.07283102763241</value></horizontalSlowness><backazimuth><value>220.0045571850598</value></backazimuth><phaseHint>P</phaseHint><evaluationMode>automatic</evaluationMode><comment><text>47.55301734229965</text><id>DFX:rectilinearity</id></comment><comment><text>26.160081226115413</text><id>SNR</id></comment></pick><pick publicID="de.gempa.tb1.Pick/20250413114621.715818.130934"><time><value>2025-04-13T11:46:16.138393Z</value></time><waveformID networkCode="CX" stationCode="PB01" channelCode="HHN"/><filterID>ITAPER(2)&gt;&gt;BW(3,3,20)</filterID><methodID>L2-AIC-GRID</methodID><horizontalSlowness><value>20.812254437935138</value></horizontalSlowness><backazimuth><value>332.3720204209688</value></backazimuth><phaseHint>S</phaseHint><evaluationMode>automatic</evaluationMode><comment><text>546.4935499412258</text><id>DFX:rectilinearity</id></comment><comment><text>de.gempa.tb1.Pick/20250413114604.602174.130924</text><id>RefPickID</id></comment><comment><text>5.337657162111608</text><id>SNR</id></comment></pick><pick publicID="de.gempa.tb1.Pick/20250413114623.172828.130935"><time><value>2025-04-13T11:45:58.648394Z</value></time><waveformID networkCode="CX" stationCode="PB07" channelCode="HHZ"/><filterID>ITAPER(4)&gt;&gt;BW(4,4,20)</filterID><methodID>AIC</methodID><horizontalSlowness><value>12.977308568563455</value></horizontalSlowness><backazimuth><value>96.19372059750573</value></backazimuth><phaseHint>P</phaseHint><evaluationMode>automatic</evaluationMode><comment><text>391.18834006063423</text><id>DFX:rectilinearity</id></comment><comment><text>270.4576477907454</text><id>SNR</id></comment></pick><pick publicID="de.gempa.tb1.Pick/20250413114624.579613.130937"><time><value>2025-04-13T11:46:16.538393Z</value></time><waveformID networkCode="CX" stationCode="PB03" channelCode="HHN"/><filterID>ITAPER(2)&gt;&gt;BW(3,3,20)</filterID><methodID>L2-AIC-GRID</methodID><horizontalSlowness><value>12.985226150151776</value></horizontalSlowness><backazimuth><value>293.89530179975793</value></backazimuth><phaseHint>S</phaseHint><evaluationMode>automatic</evaluationMode><comment><text>1649.606224661018</text><id>DFX:rectilinearity</id></comment><comment><text>de.gempa.tb1.Pick/20250413114602.602353.130920</text><id>RefPickID</id></comment><comment><text>11.606087174920097</text><id>SNR</id></comment></pick><pick publicID="de.gempa.tb1.Pick/20250413114639.172753.130944"><time><value>2025-04-13T11:46:28.668393Z</value></time><waveformID networkCode="CX" stationCode="PB08" channelCode="HHN"/><filterID>ITAPER(2)&gt;&gt;BW(3,3,20)</filterID><methodID>L2-AIC-GRID</methodID><horizontalSlowness><value>14.642821321754242</value></horizontalSlowness><backazimuth><value>198.6487647286222</value></backazimuth><phaseHint>S</phaseHint><evaluationMode>automatic</evaluationMode><comment><text>46.5302392867743</text><id>DFX:rectilinearity</id></comment><comment><text>de.gempa.tb1.Pick/20250413114612.239599.130928</text><id>RefPickID</id></comment><comment><text>7.320362990905755</text><id>SNR</id></comment></pick><pick publicID="de.gempa.tb1.Pick/20250413114640.459033.130948"><time><value>2025-04-13T11:46:29.139999Z</value></time><waveformID networkCode="CX" stationCode="PATCX" channelCode="HHN"/><filterID>ITAPER(2)&gt;&gt;BW(3,3,20)</filterID><methodID>L2-AIC-GRID</methodID><horizontalSlowness><value>23.52511092179852</value></horizontalSlowness><backazimuth><value>63.74568618648215</value></backazimuth><phaseHint>S</phaseHint><evaluationMode>automatic</evaluationMode><comment><text>1961.3946520694471</text><id>DFX:rectilinearity</id></comment><comment><text>de.gempa.tb1.Pick/20250413114613.452297.130930</text><id>RefPickID</id></comment><comment><text>10.719544766200764</text><id>SNR</id></comment></pick><pick publicID="de.gempa.tb1.Pick/20250413114651.483111.130949"><time><value>2025-04-13T11:46:18.898394Z</value></time><waveformID networkCode="CX" stationCode="PB07" channelCode="HHN"/><filterID>ITAPER(2)&gt;&gt;BW(3,3,20)</filterID><methodID>L2-AIC-GRID</methodID><horizontalSlowness><value>22.633885725270826</value></horizontalSlowness><backazimuth><value>229.02405443655243</value></backazimuth><phaseHint>S</phaseHint><evaluationMode>automatic</evaluationMode><comment><text>15784.999137933863</text><id>DFX:rectilinearity</id></comment><comment><text>de.gempa.tb1.Pick/20250413114623.172828.130935</text><id>RefPickID</id></comment><comment><text>20.119214077636634</text><id>SNR</id></comment></pick><pick publicID="de.gempa.tb1.Pick/20250413114654.566851.130950"><time><value>2025-04-13T11:46:45.790001Z</value></time><waveformID networkCode="CX" stationCode="PSGCX" channelCode="HHN"/><filterID>ITAPER(2)&gt;&gt;BW(3,3,20)</filterID><methodID>L2-AIC-GRID</methodID><horizontalSlowness><value>17.883021506349046</value></horizontalSlowness><backazimuth><value>13.265142615558688</value></backazimuth><phaseHint>S</phaseHint><evaluationMode>automatic</evaluationMode><comment><text>94.51602492283506</text><id>DFX:rectilinearity</id></comment><comment><text>de.gempa.tb1.Pick/20250413114619.494041.130932</text><id>RefPickID</id></comment><comment><text>6.07097106971047</text><id>SNR</id></comment></pick><origin publicID="de.gempa.tb1.Origin/20250413114654.571924.108700"><time><value>2025-04-13T11:45:33.076404Z</value><uncertainty>0.9729620814323425</uncertainty></time><latitude><value>-21.759397506713867</value><uncertainty>4.1998400688171387</uncertainty></latitude><longitude><value>-68.6213607788086</value><uncertainty>9.015176773071289</uncertainty></longitude><depth><value>139.83387756347656</value><uncertainty>10.129719734191895</uncertainty></depth><depthType>from location</depthType><methodID>LOCSAT</methodID><earthModelID>iasp91_scanloc</earthModelID><quality><associatedPhaseCount>13</associatedPhaseCount><usedPhaseCount>13</usedPhaseCount><associatedStationCount>7</associatedStationCount><usedStationCount>7</usedStationCount><depthPhaseCount>0</depthPhaseCount><standardError>0.594672235003766</standardError><azimuthalGap>271.7410583496094</azimuthalGap><maximumDistance>2.5700299739837646</maximumDistance><minimumDistance>0.5779721736907959</minimumDistance><medianDistance>1.176355242729187</medianDistance></quality><uncertainty><minHorizontalUncertainty>8.960296630859375</minHorizontalUncertainty><maxHorizontalUncertainty>19.352502822875977</maxHorizontalUncertainty><azimuthMaxHorizontalUncertainty>93.0208969116211</azimuthMaxHorizontalUncertainty><preferredDescription>horizontal uncertainty</preferredDescription></uncertainty><evaluationMode>automatic</evaluationMode><evaluationStatus>confirmed</evaluationStatus><comment><text>0.34</text><id>mismatchScore</id></comment><comment><text>mismatchScore</text><id>scevalMethod</id></comment><arrival><pickID>de.gempa.tb1.Pick/20250413114600.312107.130918</pickID><phase>P</phase><azimuth>266.2348937988281</azimuth><distance>0.5779721736907959</distance><timeResidual>-0.4841594696044922</timeResidual><timeUsed>true</timeUsed><horizontalSlownessUsed>false</horizontalSlownessUsed><backazimuthUsed>false</backazimuthUsed><weight>1</weight></arrival><arrival><pickID>de.gempa.tb1.Pick/20250413114602.602353.130920</pickID><phase>P</phase><azimuth>254.4831848144531</azimuth><distance>1.0896679162979126</distance><timeResidual>-0.07582473754882812</timeResidual><timeUsed>true</timeUsed><horizontalSlownessUsed>false</horizontalSlownessUsed><backazimuthUsed>false</backazimuthUsed><weight>1</weight></arrival><arrival><pickID>de.gempa.tb1.Pick/20250413114604.602174.130924</pickID><phase>P</phase><azimuth>311.2876892089844</azimuth><distance>1.0766384601593018</distance><timeResidual>-0.5812950134277344</timeResidual><timeUsed>true</timeUsed><horizontalSlownessUsed>false</horizontalSlownessUsed><backazimuthUsed>false</backazimuthUsed><weight>1</weight></arrival><arrival><pickID>de.gempa.tb1.Pick/20250413114612.239599.130928</pickID><phase>P</phase><azimuth>342.74212646484375</azimuth><distance>1.6852260828018188</distance><timeResidual>0.6743850708007812</timeResidual><timeUsed>true</timeUsed><horizontalSlownessUsed>false</horizontalSlownessUsed><backazimuthUsed>false</backazimuthUsed><weight>1</weight></arrival><arrival><pickID>de.gempa.tb1.Pick/20250413114613.452297.130930</pickID><phase>P</phase><azimuth>302.905517578125</azimuth><distance>1.7065385580062866</distance><timeResidual>0.5087509155273438</timeResidual><timeUsed>true</timeUsed><horizontalSlownessUsed>false</horizontalSlownessUsed><backazimuthUsed>false</backazimuthUsed><weight>1</weight></arrival><arrival><pickID>de.gempa.tb1.Pick/20250413114619.494041.130932</pickID><phase>P</phase><azimuth>326.5646667480469</azimuth><distance>2.5700299739837646</distance><timeResidual>-0.09152793884277344</timeResidual><timeUsed>true</timeUsed><horizontalSlownessUsed>false</horizontalSlownessUsed><backazimuthUsed>false</backazimuthUsed><weight>1</weight></arrival><arrival><pickID>de.gempa.tb1.Pick/20250413114621.715818.130934</pickID><phase>S</phase><azimuth>311.2876892089844</azimuth><distance>1.0766384601593018</distance><timeResidual>-0.4904899597167969</timeResidual><timeUsed>true</timeUsed><horizontalSlownessUsed>false</horizontalSlownessUsed><backazimuthUsed>false</backazimuthUsed><weight>1</weight></arrival><arrival><pickID>de.gempa.tb1.Pick/20250413114623.172828.130935</pickID><phase>P</phase><azimuth>271.353515625</azimuth><distance>1.176355242729187</distance><timeResidual>0.10489463806152344</timeResidual><timeUsed>true</timeUsed><horizontalSlownessUsed>false</horizontalSlownessUsed><backazimuthUsed>false</backazimuthUsed><weight>1</weight></arrival><arrival><pickID>de.gempa.tb1.Pick/20250413114624.579613.130937</pickID><phase>S</phase><azimuth>254.4831848144531</azimuth><distance>1.0896679162979126</distance><timeResidual>-0.29639434814453125</timeResidual><timeUsed>true</timeUsed><horizontalSlownessUsed>false</horizontalSlownessUsed><backazimuthUsed>false</backazimuthUsed><weight>1</weight></arrival><arrival><pickID>de.gempa.tb1.Pick/20250413114639.172753.130944</pickID><phase>S</phase><azimuth>342.74212646484375</azimuth><distance>1.6852260828018188</distance><timeResidual>0.6863937377929688</timeResidual><timeUsed>true</timeUsed><horizontalSlownessUsed>false</horizontalSlownessUsed><backazimuthUsed>false</backazimuthUsed><weight>1</weight></arrival><arrival><pickID>de.gempa.tb1.Pick/20250413114640.459033.130948</pickID><phase>S</phase><azimuth>302.905517578125</azimuth><distance>1.7065385580062866</distance><timeResidual>0.7317543029785156</timeResidual><timeUsed>true</timeUsed><horizontalSlownessUsed>false</horizontalSlownessUsed><backazimuthUsed>false</backazimuthUsed><weight>1</weight></arrival><arrival><pickID>de.gempa.tb1.Pick/20250413114651.483111.130949</pickID><phase>S</phase><azimuth>271.353515625</azimuth><distance>1.176355242729187</distance><timeResidual>0.5829963684082031</timeResidual><timeUsed>true</timeUsed><horizontalSlownessUsed>false</horizontalSlownessUsed><backazimuthUsed>false</backazimuthUsed><weight>1</weight></arrival><arrival><pickID>de.gempa.tb1.Pick/20250413114654.566851.130950</pickID><phase>S</phase><azimuth>326.5646667480469</azimuth><distance>2.5700299739837646</distance><timeResidual>-1.269359588623047</timeResidual><timeUsed>true</timeUsed><horizontalSlownessUsed>false</horizontalSlownessUsed><backazimuthUsed>false</backazimuthUsed><weight>1</weight></arrival><magnitude publicID="de.gempa.tb1.Magnitude/20250413114812.532752.353247"><magnitude><value>2.4160775105720544</value></magnitude><type>M</type><methodID>weighted average</methodID><stationCount>5</stationCount></magnitude></origin><event publicID="gempa2025hhht"><preferredOriginID>de.gempa.tb1.Origin/20250413114654.571924.108700</preferredOriginID><preferredMagnitudeID>de.gempa.tb1.Magnitude/20250413114812.532752.353247</preferredMagnitudeID><description><text>Chile-Bolivia Border Region</text><type>region name</type></description><originReference>de.gempa.tb1.Origin/20250413114654.571924.108700</originReference></event></EventParameters></seiscomp>