<?xml version="1.0" encoding="UTF-8"?>
<seiscomp xmlns="http://geofon.gfz-potsdam.de/ns/seiscomp3-schema/0.13" version="0.13"><EventParameters><pick publicID="de.gempa.tb1.Pick/20250412135609.528231.124374"><time><value>2025-04-12T13:56:04.508393Z</value></time><waveformID networkCode="CX" stationCode="PB01" channelCode="HHZ"/><filterID>ITAPER(4)&gt;&gt;BW(4,4,20)</filterID><methodID>AIC</methodID><horizontalSlowness><value>4.4159684562671915</value></horizontalSlowness><backazimuth><value>124.74841962390522</value></backazimuth><phaseHint>P</phaseHint><evaluationMode>automatic</evaluationMode><comment><text>37.32559503536841</text><id>DFX:rectilinearity</id></comment><comment><text>36.098221943648007</text><id>SNR</id></comment></pick><pick publicID="de.gempa.tb1.Pick/20250412135611.598791.124376"><time><value>2025-04-12T13:56:06.018393Z</value></time><waveformID networkCode="CX" stationCode="PB03" channelCode="HHZ"/><filterID>ITAPER(4)&gt;&gt;BW(4,4,20)</filterID><methodID>AIC</methodID><horizontalSlowness><value>9.461821790663979</value></horizontalSlowness><backazimuth><value>88.76144509536215</value></backazimuth><phaseHint>P</phaseHint><evaluationMode>automatic</evaluationMode><comment><text>12.57398057202924</text><id>DFX:rectilinearity</id></comment><comment><text>11.710117945826257</text><id>SNR</id></comment></pick><pick publicID="de.gempa.tb1.Pick/20250412135613.499838.124380"><time><value>2025-04-12T13:56:07.608393Z</value></time><waveformID networkCode="CX" stationCode="PB02" channelCode="HHZ"/><filterID>ITAPER(4)&gt;&gt;BW(4,4,20)</filterID><methodID>AIC</methodID><horizontalSlowness><value>21.361760553531976</value></horizontalSlowness><backazimuth><value>81.02573492691127</value></backazimuth><phaseHint>P</phaseHint><evaluationMode>automatic</evaluationMode><comment><text>54.00932391845144</text><id>DFX:rectilinearity</id></comment><comment><text>16.691357968358822</text><id>SNR</id></comment></pick><pick publicID="de.gempa.tb1.Pick/20250412135614.700592.124382"><time><value>2025-04-12T13:56:02.030001Z</value></time><waveformID networkCode="CX" stationCode="PB09" channelCode="HHZ"/><filterID>ITAPER(4)&gt;&gt;BW(4,4,20)</filterID><methodID>AIC</methodID><horizontalSlowness><value>19.062985394398726</value></horizontalSlowness><backazimuth><value>269.3876597510065</value></backazimuth><phaseHint>P</phaseHint><evaluationMode>automatic</evaluationMode><comment><text>11.2605238176517</text><id>DFX:rectilinearity</id></comment><comment><text>13.466047829147433</text><id>SNR</id></comment></pick><pick publicID="de.gempa.tb1.Pick/20250412135616.864249.124387"><time><value>2025-04-12T13:56:08.298393Z</value></time><waveformID networkCode="CX" stationCode="PB08" channelCode="HHZ"/><filterID>ITAPER(4)&gt;&gt;BW(4,4,20)</filterID><methodID>AIC</methodID><horizontalSlowness><value>15.866517866264468</value></horizontalSlowness><backazimuth><value>205.5699669217247</value></backazimuth><phaseHint>P</phaseHint><evaluationMode>automatic</evaluationMode><comment><text>45.38118348938541</text><id>DFX:rectilinearity</id></comment><comment><text>7.661919751198726</text><id>SNR</id></comment></pick><pick publicID="de.gempa.tb1.Pick/20250412135620.436987.124390"><time><value>2025-04-12T13:56:11.659999Z</value></time><waveformID networkCode="CX" stationCode="PATCX" channelCode="HHZ"/><filterID>ITAPER(4)&gt;&gt;BW(4,4,20)</filterID><methodID>AIC</methodID><horizontalSlowness><value>23.424877622661505</value></horizontalSlowness><backazimuth><value>231.63942686014434</value></backazimuth><phaseHint>P</phaseHint><evaluationMode>automatic</evaluationMode><comment><text>352.7374687999848</text><id>DFX:rectilinearity</id></comment><comment><text>15.446106654288787</text><id>SNR</id></comment></pick><pick publicID="de.gempa.tb1.Pick/20250412135634.452141.124393"><time><value>2025-04-12T13:56:28.678393Z</value></time><waveformID networkCode="CX" stationCode="PB16" channelCode="HHZ"/><filterID>ITAPER(4)&gt;&gt;BW(4,4,20)</filterID><methodID>AIC</methodID><horizontalSlowness><value>7.26676977973457</value></horizontalSlowness><backazimuth><value>186.7570035610417</value></backazimuth><phaseHint>P</phaseHint><evaluationMode>automatic</evaluationMode><comment><text>3.910620427836832</text><id>DFX:rectilinearity</id></comment><comment><text>4.4492301080927295</text><id>SNR</id></comment></pick><pick publicID="de.gempa.tb1.Pick/20250412135642.785446.124401"><time><value>2025-04-12T13:56:35.948393Z</value></time><waveformID networkCode="CX" stationCode="PB03" channelCode="HHN"/><filterID>ITAPER(2)&gt;&gt;BW(3,3,20)</filterID><methodID>L2-AIC-GRID</methodID><horizontalSlowness><value>13.319639379601174</value></horizontalSlowness><backazimuth><value>247.6695500586916</value></backazimuth><phaseHint>S</phaseHint><evaluationMode>automatic</evaluationMode><comment><text>116.2171383590228</text><id>DFX:rectilinearity</id></comment><comment><text>de.gempa.tb1.Pick/20250412135611.598791.124376</text><id>RefPickID</id></comment><comment><text>15.057919202548396</text><id>SNR</id></comment></pick><pick publicID="de.gempa.tb1.Pick/20250412135646.511664.124404"><time><value>2025-04-12T13:56:38.958393Z</value></time><waveformID networkCode="CX" stationCode="PB02" channelCode="HHN"/><filterID>ITAPER(2)&gt;&gt;BW(3,3,20)</filterID><methodID>L2-AIC-GRID</methodID><horizontalSlowness><value>22.27920489817896</value></horizontalSlowness><backazimuth><value>6.255542268580513</value></backazimuth><phaseHint>S</phaseHint><evaluationMode>automatic</evaluationMode><comment><text>1075.3894112255143</text><id>DFX:rectilinearity</id></comment><comment><text>de.gempa.tb1.Pick/20250412135613.499838.124380</text><id>RefPickID</id></comment><comment><text>5.786621617540831</text><id>SNR</id></comment></pick><pick publicID="de.gempa.tb1.Pick/20250412135646.574899.124405"><time><value>2025-04-12T13:56:34.148393Z</value></time><waveformID networkCode="CX" stationCode="PB01" channelCode="HHN"/><filterID>ITAPER(2)&gt;&gt;BW(3,3,20)</filterID><methodID>L2-AIC-GRID</methodID><horizontalSlowness><value>21.172387003984934</value></horizontalSlowness><backazimuth><value>13.09756277595318</value></backazimuth><phaseHint>S</phaseHint><evaluationMode>automatic</evaluationMode><comment><text>1353.262898654502</text><id>DFX:rectilinearity</id></comment><comment><text>de.gempa.tb1.Pick/20250412135609.528231.124374</text><id>RefPickID</id></comment><comment><text>7.735770857332374</text><id>SNR</id></comment></pick><pick publicID="de.gempa.tb1.Pick/20250412135658.476536.124408"><time><value>2025-04-12T13:56:46.389999Z</value></time><waveformID networkCode="CX" stationCode="PATCX" channelCode="HHN"/><filterID>ITAPER(2)&gt;&gt;BW(3,3,20)</filterID><methodID>L2-AIC-GRID</methodID><horizontalSlowness><value>21.97158419058596</value></horizontalSlowness><backazimuth><value>340.76394527345894</value></backazimuth><phaseHint>S</phaseHint><evaluationMode>automatic</evaluationMode><comment><text>512.2467101378132</text><id>DFX:rectilinearity</id></comment><comment><text>de.gempa.tb1.Pick/20250412135620.436987.124390</text><id>RefPickID</id></comment><comment><text>5.126235689906455</text><id>SNR</id></comment></pick><origin publicID="de.gempa.tb1.Origin/20250412135658.480498.83972"><time><value>2025-04-12T13:55:28.332129Z</value><uncertainty>1.0162447690963745</uncertainty></time><latitude><value>-21.800935745239258</value><uncertainty>8.350911140441895</uncertainty></latitude><longitude><value>-67.78379821777344</value><uncertainty>17.317094802856445</uncertainty></longitude><depth><value>208.68466186523438</value><uncertainty>19.46592903137207</uncertainty></depth><depthType>from location</depthType><methodID>LOCSAT</methodID><earthModelID>iasp91_scanloc</earthModelID><quality><associatedPhaseCount>11</associatedPhaseCount><usedPhaseCount>11</usedPhaseCount><associatedStationCount>7</associatedStationCount><usedStationCount>7</usedStationCount><depthPhaseCount>0</depthPhaseCount><standardError>0.30540328855124854</standardError><azimuthalGap>287.4339599609375</azimuthalGap><maximumDistance>3.809717655181885</maximumDistance><minimumDistance>1.3551084995269775</minimumDistance><medianDistance>2.0236566066741943</medianDistance></quality><uncertainty><minHorizontalUncertainty>17.815210342407227</minHorizontalUncertainty><maxHorizontalUncertainty>37.17383575439453</maxHorizontalUncertainty><azimuthMaxHorizontalUncertainty>86.84327697753906</azimuthMaxHorizontalUncertainty><preferredDescription>horizontal uncertainty</preferredDescription></uncertainty><evaluationMode>automatic</evaluationMode><evaluationStatus>confirmed</evaluationStatus><comment><text>0.28</text><id>mismatchScore</id></comment><comment><text>mismatchScore</text><id>scevalMethod</id></comment><arrival><pickID>de.gempa.tb1.Pick/20250412135609.528231.124374</pickID><phase>P</phase><azimuth>295.0965576171875</azimuth><distance>1.757265329360962</distance><timeResidual>-0.6530570983886719</timeResidual><timeUsed>true</timeUsed><horizontalSlownessUsed>false</horizontalSlownessUsed><backazimuthUsed>false</backazimuthUsed><weight>1</weight></arrival><arrival><pickID>de.gempa.tb1.Pick/20250412135611.598791.124376</pickID><phase>P</phase><azimuth>261.9627990722656</azimuth><distance>1.8450756072998047</distance><timeResidual>0.028354644775390625</timeResidual><timeUsed>true</timeUsed><horizontalSlownessUsed>false</horizontalSlownessUsed><backazimuthUsed>false</backazimuthUsed><weight>1</weight></arrival><arrival><pickID>de.gempa.tb1.Pick/20250412135613.499838.124380</pickID><phase>P</phase><azimuth>283.2998046875</azimuth><distance>2.0236566066741943</distance><timeResidual>-0.15665054321289062</timeResidual><timeUsed>true</timeUsed><horizontalSlownessUsed>false</horizontalSlownessUsed><backazimuthUsed>false</backazimuthUsed><weight>1</weight></arrival><arrival><pickID>de.gempa.tb1.Pick/20250412135614.700592.124382</pickID><phase>P</phase><azimuth>269.92254638671875</azimuth><distance>1.3551084995269775</distance><timeResidual>0.41472625732421875</timeResidual><timeUsed>true</timeUsed><horizontalSlownessUsed>false</horizontalSlownessUsed><backazimuthUsed>false</backazimuthUsed><weight>1</weight></arrival><arrival><pickID>de.gempa.tb1.Pick/20250412135616.864249.124387</pickID><phase>P</phase><azimuth>321.9775085449219</azimuth><distance>2.0894253253936768</distance><timeResidual>-0.152130126953125</timeResidual><timeUsed>true</timeUsed><horizontalSlownessUsed>false</horizontalSlownessUsed><backazimuthUsed>false</backazimuthUsed><weight>1</weight></arrival><arrival><pickID>de.gempa.tb1.Pick/20250412135620.436987.124390</pickID><phase>P</phase><azimuth>293.3921813964844</azimuth><distance>2.414735794067383</distance><timeResidual>-0.21414947509765625</timeResidual><timeUsed>true</timeUsed><horizontalSlownessUsed>false</horizontalSlownessUsed><backazimuthUsed>false</backazimuthUsed><weight>1</weight></arrival><arrival><pickID>de.gempa.tb1.Pick/20250412135634.452141.124393</pickID><phase>P</phase><azimuth>334.5288391113281</azimuth><distance>3.809717655181885</distance><timeResidual>0.5231666564941406</timeResidual><timeUsed>true</timeUsed><horizontalSlownessUsed>false</horizontalSlownessUsed><backazimuthUsed>false</backazimuthUsed><weight>1</weight></arrival><arrival><pickID>de.gempa.tb1.Pick/20250412135642.785446.124401</pickID><phase>S</phase><azimuth>261.9627990722656</azimuth><distance>1.8450756072998047</distance><timeResidual>0.21051788330078125</timeResidual><timeUsed>true</timeUsed><horizontalSlownessUsed>false</horizontalSlownessUsed><backazimuthUsed>false</backazimuthUsed><weight>1</weight></arrival><arrival><pickID>de.gempa.tb1.Pick/20250412135646.511664.124404</pickID><phase>S</phase><azimuth>283.2998046875</azimuth><distance>2.0236566066741943</distance><timeResidual>0.029041290283203125</timeResidual><timeUsed>true</timeUsed><horizontalSlownessUsed>false</horizontalSlownessUsed><backazimuthUsed>false</backazimuthUsed><weight>1</weight></arrival><arrival><pickID>de.gempa.tb1.Pick/20250412135646.574899.124405</pickID><phase>S</phase><azimuth>295.0965576171875</azimuth><distance>1.757265329360962</distance><timeResidual>-0.09827804565429688</timeResidual><timeUsed>true</timeUsed><horizontalSlownessUsed>false</horizontalSlownessUsed><backazimuthUsed>false</backazimuthUsed><weight>1</weight></arrival><arrival><pickID>de.gempa.tb1.Pick/20250412135658.476536.124408</pickID><phase>S</phase><azimuth>293.3921813964844</azimuth><distance>2.414735794067383</distance><timeResidual>0.06805419921875</timeResidual><timeUsed>true</timeUsed><horizontalSlownessUsed>false</horizontalSlownessUsed><backazimuthUsed>false</backazimuthUsed><weight>1</weight></arrival><magnitude publicID="de.gempa.tb1.Magnitude/20250412135705.937644.235189"><magnitude><value>2.4908946940836025</value></magnitude><type>M</type><methodID>weighted average</methodID><stationCount>3</stationCount></magnitude></origin><event publicID="gempa2025hfqb"><preferredOriginID>de.gempa.tb1.Origin/20250412135658.480498.83972</preferredOriginID><preferredMagnitudeID>de.gempa.tb1.Magnitude/20250412135705.937644.235189</preferredMagnitudeID><description><text>Chile-Bolivia Border Region</text><type>region name</type></description><originReference>de.gempa.tb1.Origin/20250412135658.480498.83972</originReference></event></EventParameters></seiscomp>