<?xml version="1.0" encoding="UTF-8"?>
<seiscomp xmlns="http://geofon.gfz-potsdam.de/ns/seiscomp3-schema/0.13" version="0.13"><EventParameters><pick publicID="de.gempa.tb1.Pick/20250412142714.774664.124590"><time><value>2025-04-12T14:27:08.978393Z</value></time><waveformID networkCode="CX" stationCode="PB16" channelCode="HHZ"/><filterID>ITAPER(4)&gt;&gt;BW(4,4,20)</filterID><methodID>AIC</methodID><horizontalSlowness><value>3.966032888597241</value></horizontalSlowness><backazimuth><value>263.45872264400117</value></backazimuth><phaseHint>P</phaseHint><evaluationMode>automatic</evaluationMode><comment><text>209860.56872739337</text><id>DFX:rectilinearity</id></comment><comment><text>5612.30197233785</text><id>SNR</id></comment></pick><pick publicID="de.gempa.tb1.Pick/20250412142722.766583.124592"><time><value>2025-04-12T14:27:16.61Z</value></time><waveformID networkCode="CX" stationCode="PSGCX" channelCode="HHZ"/><filterID>ITAPER(4)&gt;&gt;BW(4,4,20)</filterID><methodID>AIC</methodID><horizontalSlowness><value>10.117172293961126</value></horizontalSlowness><backazimuth><value>13.626038614874346</value></backazimuth><phaseHint>P</phaseHint><evaluationMode>automatic</evaluationMode><comment><text>292482.3661032298</text><id>DFX:rectilinearity</id></comment><comment><text>1178.5030495777596</text><id>SNR</id></comment></pick><pick publicID="de.gempa.tb1.Pick/20250412142728.989757.124594"><time><value>2025-04-12T14:27:22.338393Z</value></time><waveformID networkCode="CX" stationCode="PB16" channelCode="HHN"/><filterID>ITAPER(2)&gt;&gt;BW(3,3,20)</filterID><methodID>L2-AIC-GRID</methodID><horizontalSlowness><value>20.729128957802615</value></horizontalSlowness><backazimuth><value>25.02493967399633</value></backazimuth><phaseHint>S</phaseHint><evaluationMode>automatic</evaluationMode><comment><text>10379035.965589156</text><id>DFX:rectilinearity</id></comment><comment><text>de.gempa.tb1.Pick/20250412142714.774664.124590</text><id>RefPickID</id></comment><comment><text>16.400230078183508</text><id>SNR</id></comment></pick><pick publicID="de.gempa.tb1.Pick/20250412142730.229477.124595"><time><value>2025-04-12T14:27:23.518393Z</value></time><waveformID networkCode="CX" stationCode="PB08" channelCode="HHZ"/><filterID>ITAPER(4)&gt;&gt;BW(4,4,20)</filterID><methodID>AIC</methodID><horizontalSlowness><value>11.257379703101348</value></horizontalSlowness><backazimuth><value>230.4583617784151</value></backazimuth><phaseHint>P</phaseHint><evaluationMode>automatic</evaluationMode><comment><text>252.83535194312887</text><id>DFX:rectilinearity</id></comment><comment><text>68.32139438445363</text><id>SNR</id></comment></pick><pick publicID="de.gempa.tb1.Pick/20250412142736.285695.124597"><time><value>2025-04-12T14:27:30.639999Z</value></time><waveformID networkCode="CX" stationCode="PATCX" channelCode="HHZ"/><filterID>ITAPER(4)&gt;&gt;BW(4,4,20)</filterID><methodID>AIC</methodID><horizontalSlowness><value>19.93133813692343</value></horizontalSlowness><backazimuth><value>231.966010526869</value></backazimuth><phaseHint>P</phaseHint><evaluationMode>automatic</evaluationMode><comment><text>230.97539697575297</text><id>DFX:rectilinearity</id></comment><comment><text>18.083195919862924</text><id>SNR</id></comment></pick><pick publicID="de.gempa.tb1.Pick/20250412142737.631966.124599"><time><value>2025-04-12T14:27:32.978394Z</value></time><waveformID networkCode="CX" stationCode="PB01" channelCode="HHZ"/><filterID>ITAPER(4)&gt;&gt;BW(4,4,20)</filterID><methodID>AIC</methodID><horizontalSlowness><value>13.154417361459734</value></horizontalSlowness><backazimuth><value>347.5879039848884</value></backazimuth><phaseHint>P</phaseHint><evaluationMode>automatic</evaluationMode><comment><text>390.79533728071215</text><id>DFX:rectilinearity</id></comment><comment><text>87.64064206338936</text><id>SNR</id></comment></pick><pick publicID="de.gempa.tb1.Pick/20250412142743.686869.124604"><time><value>2025-04-12T14:27:36.1Z</value></time><waveformID networkCode="CX" stationCode="PSGCX" channelCode="HHN"/><filterID>ITAPER(2)&gt;&gt;BW(3,3,20)</filterID><methodID>L2-AIC-GRID</methodID><horizontalSlowness><value>18.701103842267027</value></horizontalSlowness><backazimuth><value>157.5576623837299</value></backazimuth><phaseHint>S</phaseHint><evaluationMode>automatic</evaluationMode><comment><text>963576.7394539022</text><id>DFX:rectilinearity</id></comment><comment><text>de.gempa.tb1.Pick/20250412142722.766583.124592</text><id>RefPickID</id></comment><comment><text>10.725874202610463</text><id>SNR</id></comment></pick><pick publicID="de.gempa.tb1.Pick/20250412142751.607319.124606"><time><value>2025-04-12T14:27:45.928393Z</value></time><waveformID networkCode="CX" stationCode="PB03" channelCode="HHZ"/><filterID>ITAPER(4)&gt;&gt;BW(4,4,20)</filterID><methodID>AIC</methodID><horizontalSlowness><value>6.645163958680601</value></horizontalSlowness><backazimuth><value>13.203312643530523</value></backazimuth><phaseHint>P</phaseHint><evaluationMode>automatic</evaluationMode><comment><text>87.00900110043037</text><id>DFX:rectilinearity</id></comment><comment><text>44.033730014388873</text><id>SNR</id></comment></pick><origin publicID="de.gempa.tb1.Origin/20250412142752.789682.84855"><time><value>2025-04-12T14:26:51.171646Z</value><uncertainty>1.592631220817566</uncertainty></time><latitude><value>-18.385639190673828</value><uncertainty>11.393999099731445</uncertainty></latitude><longitude><value>-69.75919342041016</value><uncertainty>18.205320358276367</uncertainty></longitude><depth><value>127.7727508544922</value><uncertainty>7.596338272094727</uncertainty></depth><depthType>from location</depthType><methodID>LOCSAT</methodID><earthModelID>iasp91_scanloc</earthModelID><quality><associatedPhaseCount>8</associatedPhaseCount><usedPhaseCount>8</usedPhaseCount><associatedStationCount>6</associatedStationCount><usedStationCount>6</usedStationCount><depthPhaseCount>0</depthPhaseCount><standardError>0.22924786752144335</standardError><azimuthalGap>242.27052307128906</azimuthalGap><maximumDistance>3.644134044647217</maximumDistance><minimumDistance>0.24411144852638245</minimumDistance><medianDistance>1.8376442193984985</medianDistance></quality><uncertainty><minHorizontalUncertainty>14.351863861083984</minHorizontalUncertainty><maxHorizontalUncertainty>43.7618293762207</maxHorizontalUncertainty><azimuthMaxHorizontalUncertainty>118.5749969482422</azimuthMaxHorizontalUncertainty><preferredDescription>horizontal uncertainty</preferredDescription></uncertainty><evaluationMode>automatic</evaluationMode><evaluationStatus>confirmed</evaluationStatus><comment><text>0.03</text><id>mismatchScore</id></comment><comment><text>mismatchScore</text><id>scevalMethod</id></comment><arrival><pickID>de.gempa.tb1.Pick/20250412142714.774664.124590</pickID><phase>P</phase><azimuth>78.15608215332031</azimuth><distance>0.24411144852638245</distance><timeResidual>0.118438720703125</timeResidual><timeUsed>true</timeUsed><horizontalSlownessUsed>false</horizontalSlownessUsed><backazimuthUsed>false</backazimuthUsed><weight>1</weight></arrival><arrival><pickID>de.gempa.tb1.Pick/20250412142722.766583.124592</pickID><phase>P</phase><azimuth>195.88555908203125</azimuth><distance>1.2533369064331055</distance><timeResidual>0.15616416931152344</timeResidual><timeUsed>true</timeUsed><horizontalSlownessUsed>false</horizontalSlownessUsed><backazimuthUsed>false</backazimuthUsed><weight>1</weight></arrival><arrival><pickID>de.gempa.tb1.Pick/20250412142728.989757.124594</pickID><phase>S</phase><azimuth>78.15608215332031</azimuth><distance>0.24411144852638245</distance><timeResidual>-0.1759967803955078</timeResidual><timeUsed>true</timeUsed><horizontalSlownessUsed>false</horizontalSlownessUsed><backazimuthUsed>false</backazimuthUsed><weight>1</weight></arrival><arrival><pickID>de.gempa.tb1.Pick/20250412142730.229477.124595</pickID><phase>P</phase><azimuth>161.95327758789062</azimuth><distance>1.8376442193984985</distance><timeResidual>0.4363670349121094</timeResidual><timeUsed>true</timeUsed><horizontalSlownessUsed>false</horizontalSlownessUsed><backazimuthUsed>false</backazimuthUsed><weight>1</weight></arrival><arrival><pickID>de.gempa.tb1.Pick/20250412142736.285695.124597</pickID><phase>P</phase><azimuth>188.64572143554688</azimuth><distance>2.450672149658203</distance><timeResidual>-0.024005889892578125</timeResidual><timeUsed>true</timeUsed><horizontalSlownessUsed>false</horizontalSlownessUsed><backazimuthUsed>false</backazimuthUsed><weight>1</weight></arrival><arrival><pickID>de.gempa.tb1.Pick/20250412142737.631966.124599</pickID><phase>P</phase><azimuth>174.5131072998047</azimuth><distance>2.656187057495117</distance><timeResidual>-0.31001853942871094</timeResidual><timeUsed>true</timeUsed><horizontalSlownessUsed>false</horizontalSlownessUsed><backazimuthUsed>false</backazimuthUsed><weight>1</weight></arrival><arrival><pickID>de.gempa.tb1.Pick/20250412142743.686869.124604</pickID><phase>S</phase><azimuth>195.88555908203125</azimuth><distance>1.2533369064331055</distance><timeResidual>0.04740333557128906</timeResidual><timeUsed>true</timeUsed><horizontalSlownessUsed>false</horizontalSlownessUsed><backazimuthUsed>false</backazimuthUsed><weight>1</weight></arrival><arrival><pickID>de.gempa.tb1.Pick/20250412142751.607319.124606</pickID><phase>P</phase><azimuth>179.91102600097656</azimuth><distance>3.644134044647217</distance><timeResidual>-0.2483863830566406</timeResidual><timeUsed>true</timeUsed><horizontalSlownessUsed>false</horizontalSlownessUsed><backazimuthUsed>false</backazimuthUsed><weight>1</weight></arrival><magnitude publicID="de.gempa.tb1.Magnitude/20250412142752.794677.238750"><magnitude><value>3.7269346524101854</value></magnitude><type>M</type><methodID>weighted average</methodID><stationCount>6</stationCount></magnitude></origin><event publicID="gempa2025hfrd"><preferredOriginID>de.gempa.tb1.Origin/20250412142752.789682.84855</preferredOriginID><preferredMagnitudeID>de.gempa.tb1.Magnitude/20250412142752.794677.238750</preferredMagnitudeID><description><text>Northern Chile</text><type>region name</type></description><originReference>de.gempa.tb1.Origin/20250412142752.789682.84855</originReference></event></EventParameters></seiscomp>