<?xml version="1.0" encoding="UTF-8"?>
<seiscomp xmlns="http://geofon.gfz-potsdam.de/ns/seiscomp3-schema/0.13" version="0.13"><EventParameters><pick publicID="de.gempa.tb1.Pick/20250413002251.583018.194828"><time><value>2025-04-13T00:22:46.05Z</value></time><waveformID networkCode="SX" stationCode="WERD" channelCode="HHZ"/><filterID>ITAPER(2)&gt;&gt;BW(3,3,20)</filterID><methodID>AIC</methodID><horizontalSlowness><value>23.44825548555957</value></horizontalSlowness><backazimuth><value>80.21854248994877</value></backazimuth><phaseHint>P</phaseHint><evaluationMode>automatic</evaluationMode><comment><text>7.559932079095556</text><id>DFX:rectilinearity</id></comment></pick><pick publicID="de.gempa.tb1.Pick/20250413002252.472837.194830"><time><value>2025-04-13T00:22:43.8575Z</value></time><waveformID networkCode="SX" stationCode="WERN" channelCode="HHZ"/><filterID>ITAPER(2)&gt;&gt;BW(3,3,20)</filterID><methodID>AIC</methodID><horizontalSlowness><value>22.650349133602546</value></horizontalSlowness><backazimuth><value>1.0445306665108092</value></backazimuth><phaseHint>P</phaseHint><evaluationMode>automatic</evaluationMode><comment><text>11.213083472749572</text><id>DFX:rectilinearity</id></comment></pick><pick publicID="de.gempa.tb1.Pick/20250413002253.716741.194832"><time><value>2025-04-13T00:22:46.14Z</value></time><waveformID networkCode="SX" stationCode="TRIB" channelCode="HHZ"/><filterID>ITAPER(2)&gt;&gt;BW(3,3,20)</filterID><methodID>AIC</methodID><horizontalSlowness><value>19.723593073992415</value></horizontalSlowness><backazimuth><value>288.3929124273273</value></backazimuth><phaseHint>P</phaseHint><evaluationMode>automatic</evaluationMode><comment><text>2.432360724426795</text><id>DFX:rectilinearity</id></comment></pick><pick publicID="de.gempa.tb1.Pick/20250413002255.434783.194834"><time><value>2025-04-13T00:22:45.68Z</value></time><waveformID networkCode="SX" stationCode="ROHR" channelCode="HHZ"/><filterID>ITAPER(2)&gt;&gt;BW(3,3,20)</filterID><methodID>AIC</methodID><horizontalSlowness><value>7.890040059553709</value></horizontalSlowness><backazimuth><value>55.11576458761256</value></backazimuth><phaseHint>P</phaseHint><evaluationMode>automatic</evaluationMode><comment><text>8.856808179783927</text><id>DFX:rectilinearity</id></comment></pick><pick publicID="de.gempa.tb1.Pick/20250413002255.436286.194836"><time><value>2025-04-13T00:22:45.3675Z</value></time><waveformID networkCode="SX" stationCode="WERN" channelCode="HHN"/><filterID>ITAPER(3)&gt;&gt;BW(4,3,10)</filterID><methodID>L2-AIC-GRID</methodID><horizontalSlowness><value>22.51146030979901</value></horizontalSlowness><backazimuth><value>0.6264264507249209</value></backazimuth><phaseHint>S</phaseHint><evaluationMode>automatic</evaluationMode><comment><text>10.53342363552076</text><id>DFX:rectilinearity</id></comment><comment><text>de.gempa.tb1.Pick/20250413002252.472837.194830</text><id>RefPickID</id></comment></pick><pick publicID="de.gempa.tb1.Pick/20250413002255.910348.194837"><time><value>2025-04-13T00:22:44.81Z</value></time><waveformID networkCode="SX" stationCode="GUNZ" channelCode="HHZ"/><filterID>ITAPER(2)&gt;&gt;BW(3,3,20)</filterID><methodID>AIC</methodID><horizontalSlowness><value>9.472426353187975</value></horizontalSlowness><backazimuth><value>229.8031824790453</value></backazimuth><phaseHint>P</phaseHint><evaluationMode>automatic</evaluationMode><comment><text>2.903355564502827</text><id>DFX:rectilinearity</id></comment></pick><origin publicID="de.gempa.tb1.Origin/20250413002301.428113.193120"><time><value>2025-04-13T00:22:42.470603Z</value><uncertainty>2.2621617317199707</uncertainty></time><latitude><value>50.31686782836914</value><uncertainty>3.655463457107544</uncertainty></latitude><longitude><value>12.374135971069336</value><uncertainty>9.557536125183105</uncertainty></longitude><depth><value>6.670009136199951</value><uncertainty>11.463305473327637</uncertainty></depth><depthType>from location</depthType><methodID>LOCSAT</methodID><earthModelID>iasp91</earthModelID><quality><associatedPhaseCount>6</associatedPhaseCount><usedPhaseCount>6</usedPhaseCount><associatedStationCount>5</associatedStationCount><usedStationCount>5</usedStationCount><depthPhaseCount>0</depthPhaseCount><standardError>0.25885009177214763</standardError><azimuthalGap>195.65573120117188</azimuthalGap><maximumDistance>0.15598510205745697</maximumDistance><minimumDistance>0.029531201347708699</minimumDistance><medianDistance>0.09070537984371185</medianDistance></quality><uncertainty><minHorizontalUncertainty>7.364765167236328</minHorizontalUncertainty><maxHorizontalUncertainty>20.672588348388672</maxHorizontalUncertainty><azimuthMaxHorizontalUncertainty>82.00442504882812</azimuthMaxHorizontalUncertainty><preferredDescription>horizontal uncertainty</preferredDescription></uncertainty><evaluationMode>automatic</evaluationMode><evaluationStatus>confirmed</evaluationStatus><comment><text>0.05</text><id>mismatchScore</id></comment><comment><text>mismatchScore</text><id>scevalMethod</id></comment><arrival><pickID>de.gempa.tb1.Pick/20250413002251.583018.194828</pickID><phase>P</phase><azimuth>341.899658203125</azimuth><distance>0.13815169036388397</distance><timeResidual>-0.0541611909866333</timeResidual><timeUsed>true</timeUsed><horizontalSlownessUsed>false</horizontalSlownessUsed><backazimuthUsed>false</backazimuthUsed><weight>1</weight></arrival><arrival><pickID>de.gempa.tb1.Pick/20250413002252.472837.194830</pickID><phase>P</phase><azimuth>177.55538940429688</azimuth><distance>0.029531201347708699</distance><timeResidual>-0.29288721084594727</timeResidual><timeUsed>true</timeUsed><horizontalSlownessUsed>false</horizontalSlownessUsed><backazimuthUsed>false</backazimuthUsed><weight>1</weight></arrival><arrival><pickID>de.gempa.tb1.Pick/20250413002253.716741.194832</pickID><phase>P</phase><azimuth>283.1239013671875</azimuth><distance>0.15598510205745697</distance><timeResidual>-0.2852212190628052</timeResidual><timeUsed>true</timeUsed><horizontalSlownessUsed>false</horizontalSlownessUsed><backazimuthUsed>false</backazimuthUsed><weight>1</weight></arrival><arrival><pickID>de.gempa.tb1.Pick/20250413002255.434783.194834</pickID><phase>P</phase><azimuth>203.86090087890625</azimuth><distance>0.09070537984371185</distance><timeResidual>0.42892444133758545</timeResidual><timeUsed>true</timeUsed><horizontalSlownessUsed>false</horizontalSlownessUsed><backazimuthUsed>false</backazimuthUsed><weight>1</weight></arrival><arrival><pickID>de.gempa.tb1.Pick/20250413002255.436286.194836</pickID><phase>S</phase><azimuth>177.55538940429688</azimuth><distance>0.029531201347708699</distance><timeResidual>-0.015596508979797363</timeResidual><timeUsed>true</timeUsed><horizontalSlownessUsed>false</horizontalSlownessUsed><backazimuthUsed>false</backazimuthUsed><weight>1</weight></arrival><arrival><pickID>de.gempa.tb1.Pick/20250413002255.910348.194837</pickID><phase>P</phase><azimuth>329.7407531738281</azimuth><distance>0.05406131595373154</distance><timeResidual>0.21847951412200928</timeResidual><timeUsed>true</timeUsed><horizontalSlownessUsed>false</horizontalSlownessUsed><backazimuthUsed>false</backazimuthUsed><weight>1</weight></arrival><magnitude publicID="de.gempa.tb1.Magnitude/20250413002322.574326.295733"><magnitude><value>0.34949071330654125</value></magnitude><type>M</type><methodID>weighted average</methodID><stationCount>5</stationCount></magnitude></origin><event publicID="gempa2025hgkz"><preferredOriginID>de.gempa.tb1.Origin/20250413002301.428113.193120</preferredOriginID><preferredMagnitudeID>de.gempa.tb1.Magnitude/20250413002322.574326.295733</preferredMagnitudeID><description><text>Germany</text><type>region name</type></description><originReference>de.gempa.tb1.Origin/20250413002301.428113.193120</originReference></event></EventParameters></seiscomp>