<?xml version="1.0" encoding="UTF-8"?>
<seiscomp xmlns="http://geofon.gfz-potsdam.de/ns/seiscomp3-schema/0.13" version="0.13"><EventParameters><pick publicID="de.gempa.tb1.Pick/20250411223249.556138.133621"><time><value>2025-04-11T22:32:47.06Z</value></time><waveformID networkCode="CH" stationCode="MUO" channelCode="HHZ"/><filterID>ITAPER(4)&gt;&gt;BW(4,4,20)</filterID><methodID>AIC</methodID><phaseHint>P</phaseHint><evaluationMode>automatic</evaluationMode></pick><pick publicID="de.gempa.tb1.Pick/20250411223252.17007.133627"><time><value>2025-04-11T22:32:48.815Z</value></time><waveformID networkCode="CH" stationCode="BNALP" channelCode="HHZ"/><filterID>ITAPER(4)&gt;&gt;BW(4,4,20)</filterID><methodID>AIC</methodID><phaseHint>P</phaseHint><evaluationMode>automatic</evaluationMode></pick><pick publicID="de.gempa.tb1.Pick/20250411223254.189055.133635"><time><value>2025-04-11T22:32:51.495Z</value></time><waveformID networkCode="CH" stationCode="HASLI" channelCode="HHZ"/><filterID>ITAPER(4)&gt;&gt;BW(4,4,20)</filterID><methodID>AIC</methodID><phaseHint>P</phaseHint><evaluationMode>automatic</evaluationMode></pick><pick publicID="de.gempa.tb1.Pick/20250411223258.151815.133642"><time><value>2025-04-11T22:32:54.705001Z</value></time><waveformID networkCode="CH" stationCode="PANIX" channelCode="HHZ"/><filterID>ITAPER(4)&gt;&gt;BW(4,4,20)</filterID><methodID>AIC</methodID><phaseHint>P</phaseHint><evaluationMode>automatic</evaluationMode></pick><pick publicID="de.gempa.tb1.Pick/20250411223259.190733.133644"><time><value>2025-04-11T22:32:54.750001Z</value></time><waveformID networkCode="CH" stationCode="WIMIS" channelCode="HHZ"/><filterID>ITAPER(4)&gt;&gt;BW(4,4,20)</filterID><methodID>AIC</methodID><phaseHint>P</phaseHint><evaluationMode>automatic</evaluationMode></pick><origin publicID="de.gempa.tb1.Origin/20250411223259.193649.64754"><time><value>2025-04-11T22:32:39.25547Z</value><uncertainty>3.97851037979126</uncertainty></time><latitude><value>47.35275268554688</value><uncertainty>26.141260147094727</uncertainty></latitude><longitude><value>8.283952713012695</value><uncertainty>6.423300743103027</uncertainty></longitude><depth><value>0</value></depth><depthType>operator assigned</depthType><methodID>LOCSAT</methodID><earthModelID>iasp91</earthModelID><quality><associatedPhaseCount>5</associatedPhaseCount><usedPhaseCount>5</usedPhaseCount><associatedStationCount>5</associatedStationCount><usedStationCount>5</usedStationCount><depthPhaseCount>0</depthPhaseCount><standardError>0.6020947233036932</standardError><azimuthalGap>279.17787170410156</azimuthalGap><maximumDistance>0.823066771030426</maximumDistance><minimumDistance>0.4544314742088318</minimumDistance><medianDistance>0.603089690208435</medianDistance></quality><uncertainty><minHorizontalUncertainty>12.00907802581787</minHorizontalUncertainty><maxHorizontalUncertainty>56.47186660766602</maxHorizontalUncertainty><azimuthMaxHorizontalUncertainty>172.97274780273438</azimuthMaxHorizontalUncertainty><preferredDescription>horizontal uncertainty</preferredDescription></uncertainty><evaluationMode>automatic</evaluationMode><arrival><pickID>de.gempa.tb1.Pick/20250411223249.556138.133621</pickID><phase>P</phase><azimuth>147.84864807128906</azimuth><distance>0.4544314742088318</distance><timeResidual>-0.9826879501342773</timeResidual><timeUsed>true</timeUsed><horizontalSlownessUsed>false</horizontalSlownessUsed><backazimuthUsed>false</backazimuthUsed><weight>1</weight></arrival><arrival><pickID>de.gempa.tb1.Pick/20250411223252.17007.133627</pickID><phase>P</phase><azimuth>168.65513610839844</azimuth><distance>0.4920158386230469</distance><timeResidual>0.05759811401367188</timeResidual><timeUsed>true</timeUsed><horizontalSlownessUsed>false</horizontalSlownessUsed><backazimuthUsed>false</backazimuthUsed><weight>1</weight></arrival><arrival><pickID>de.gempa.tb1.Pick/20250411223254.189055.133635</pickID><phase>P</phase><azimuth>188.706787109375</azimuth><distance>0.603089690208435</distance><timeResidual>0.6256890296936035</timeResidual><timeUsed>true</timeUsed><horizontalSlownessUsed>false</horizontalSlownessUsed><backazimuthUsed>false</backazimuthUsed><weight>1</weight></arrival><arrival><pickID>de.gempa.tb1.Pick/20250411223258.151815.133642</pickID><phase>P</phase><azimuth>132.6870574951172</azimuth><distance>0.7732404470443726</distance><timeResidual>0.600944995880127</timeResidual><timeUsed>true</timeUsed><horizontalSlownessUsed>false</horizontalSlownessUsed><backazimuthUsed>false</backazimuthUsed><weight>1</weight></arrival><arrival><pickID>de.gempa.tb1.Pick/20250411223259.190733.133644</pickID><phase>P</phase><azimuth>213.50918579101562</azimuth><distance>0.823066771030426</distance><timeResidual>-0.3016214370727539</timeResidual><timeUsed>true</timeUsed><horizontalSlownessUsed>false</horizontalSlownessUsed><backazimuthUsed>false</backazimuthUsed><weight>1</weight></arrival><magnitude publicID="de.gempa.tb1.Magnitude/20250411223433.75372.149198"><magnitude><value>1.8386306438220195</value></magnitude><type>M</type><methodID>weighted average</methodID><stationCount>5</stationCount></magnitude></origin><event publicID="gempa2025heli"><preferredOriginID>de.gempa.tb1.Origin/20250411223259.193649.64754</preferredOriginID><preferredMagnitudeID>de.gempa.tb1.Magnitude/20250411223433.75372.149198</preferredMagnitudeID><typeCertainty>suspected</typeCertainty><description><text>Switzerland</text><type>region name</type></description><originReference>de.gempa.tb1.Origin/20250411223259.193649.64754</originReference></event></EventParameters></seiscomp>