<?xml version="1.0" encoding="UTF-8"?>
<seiscomp xmlns="http://geofon.gfz-potsdam.de/ns/seiscomp3-schema/0.13" version="0.13"><EventParameters><pick publicID="de.gempa.tb1.Pick/20250412114212.603098.123668"><time><value>2025-04-12T11:42:07.06Z</value></time><waveformID networkCode="CX" stationCode="PB19" channelCode="HHZ"/><filterID>ITAPER(4)&gt;&gt;BW(4,4,20)</filterID><methodID>AIC</methodID><horizontalSlowness><value>8.658027206618723</value></horizontalSlowness><backazimuth><value>265.015689604844</value></backazimuth><phaseHint>P</phaseHint><evaluationMode>automatic</evaluationMode><comment><text>16.791374293381285</text><id>DFX:rectilinearity</id></comment><comment><text>27.44963903560267</text><id>SNR</id></comment></pick><pick publicID="de.gempa.tb1.Pick/20250412114217.670714.123670"><time><value>2025-04-12T11:42:09.298393Z</value></time><waveformID networkCode="CX" stationCode="PB15" channelCode="HHZ"/><filterID>ITAPER(4)&gt;&gt;BW(4,4,20)</filterID><methodID>AIC</methodID><horizontalSlowness><value>21.6485583270273</value></horizontalSlowness><backazimuth><value>128.97926526634214</value></backazimuth><phaseHint>P</phaseHint><evaluationMode>automatic</evaluationMode><comment><text>181.4888731519568</text><id>DFX:rectilinearity</id></comment><comment><text>7.889475574171772</text><id>SNR</id></comment></pick><pick publicID="de.gempa.tb1.Pick/20250412114218.481619.123672"><time><value>2025-04-12T11:42:12.298393Z</value></time><waveformID networkCode="CX" stationCode="PB06" channelCode="HHZ"/><filterID>ITAPER(4)&gt;&gt;BW(4,4,20)</filterID><methodID>AIC</methodID><horizontalSlowness><value>15.064499745425229</value></horizontalSlowness><backazimuth><value>312.1598817234586</value></backazimuth><phaseHint>P</phaseHint><evaluationMode>automatic</evaluationMode><comment><text>190.00021921343838</text><id>DFX:rectilinearity</id></comment><comment><text>8.804037943471203</text><id>SNR</id></comment></pick><pick publicID="de.gempa.tb1.Pick/20250412114222.574738.123674"><time><value>2025-04-12T11:42:17.078393Z</value></time><waveformID networkCode="CX" stationCode="PB03" channelCode="HHZ"/><filterID>ITAPER(4)&gt;&gt;BW(4,4,20)</filterID><methodID>AIC</methodID><horizontalSlowness><value>9.912911064371878</value></horizontalSlowness><backazimuth><value>119.8151070683191</value></backazimuth><phaseHint>P</phaseHint><evaluationMode>automatic</evaluationMode><comment><text>41.85449935138651</text><id>DFX:rectilinearity</id></comment><comment><text>28.60649316525471</text><id>SNR</id></comment></pick><pick publicID="de.gempa.tb1.Pick/20250412114229.584424.123676"><time><value>2025-04-12T11:42:22.618393Z</value></time><waveformID networkCode="CX" stationCode="PB01" channelCode="HHZ"/><filterID>ITAPER(4)&gt;&gt;BW(4,4,20)</filterID><methodID>AIC</methodID><horizontalSlowness><value>19.882125596896621</value></horizontalSlowness><backazimuth><value>2.512220858246849</value></backazimuth><phaseHint>P</phaseHint><evaluationMode>automatic</evaluationMode><comment><text>7.739730129074482</text><id>DFX:rectilinearity</id></comment><comment><text>45.19124130689778</text><id>SNR</id></comment></pick><pick publicID="de.gempa.tb1.Pick/20250412114229.601825.123678"><time><value>2025-04-12T11:42:23.348393Z</value></time><waveformID networkCode="CX" stationCode="PB02" channelCode="HHZ"/><filterID>ITAPER(4)&gt;&gt;BW(4,4,20)</filterID><methodID>AIC</methodID><horizontalSlowness><value>18.999626042978633</value></horizontalSlowness><backazimuth><value>278.52821616895795</value></backazimuth><phaseHint>P</phaseHint><evaluationMode>automatic</evaluationMode><comment><text>37.456799299180915</text><id>DFX:rectilinearity</id></comment><comment><text>21.772011863809372</text><id>SNR</id></comment></pick><pick publicID="de.gempa.tb1.Pick/20250412114232.879269.123680"><time><value>2025-04-12T11:42:15.47Z</value></time><waveformID networkCode="CX" stationCode="PB09" channelCode="HHZ"/><filterID>ITAPER(4)&gt;&gt;BW(4,4,20)</filterID><methodID>AIC</methodID><horizontalSlowness><value>19.172226178858025</value></horizontalSlowness><backazimuth><value>289.21653479508</value></backazimuth><phaseHint>P</phaseHint><evaluationMode>automatic</evaluationMode><comment><text>8.930271326619291</text><id>DFX:rectilinearity</id></comment><comment><text>41.156376327186983</text><id>SNR</id></comment></pick><pick publicID="de.gempa.tb1.Pick/20250412114245.586996.123682"><time><value>2025-04-12T11:42:38.78Z</value></time><waveformID networkCode="CX" stationCode="PB19" channelCode="HHN"/><filterID>ITAPER(2)&gt;&gt;BW(3,3,20)</filterID><methodID>L2-AIC-GRID</methodID><horizontalSlowness><value>16.430804336040485</value></horizontalSlowness><backazimuth><value>99.40075290477634</value></backazimuth><phaseHint>S</phaseHint><evaluationMode>automatic</evaluationMode><comment><text>907.7315834919899</text><id>DFX:rectilinearity</id></comment><comment><text>de.gempa.tb1.Pick/20250412114212.603098.123668</text><id>RefPickID</id></comment><comment><text>13.291560663654284</text><id>SNR</id></comment></pick><pick publicID="de.gempa.tb1.Pick/20250412114247.567316.123683"><time><value>2025-04-12T11:42:20.258397Z</value></time><waveformID networkCode="CX" stationCode="PB07" channelCode="HHZ"/><filterID>ITAPER(4)&gt;&gt;BW(4,4,20)</filterID><methodID>AIC</methodID><horizontalSlowness><value>22.865652593374985</value></horizontalSlowness><backazimuth><value>7.001622686535654</value></backazimuth><phaseHint>P</phaseHint><evaluationMode>automatic</evaluationMode><comment><text>162.646887521003</text><id>DFX:rectilinearity</id></comment><comment><text>47.0221126465589</text><id>SNR</id></comment></pick><pick publicID="de.gempa.tb1.Pick/20250412114249.809939.123687"><time><value>2025-04-12T11:42:43.268393Z</value></time><waveformID networkCode="CX" stationCode="PB15" channelCode="HHN"/><filterID>ITAPER(2)&gt;&gt;BW(3,3,20)</filterID><methodID>L2-AIC-GRID</methodID><horizontalSlowness><value>20.934879973489053</value></horizontalSlowness><backazimuth><value>83.24694711784855</value></backazimuth><phaseHint>S</phaseHint><evaluationMode>automatic</evaluationMode><comment><text>4938.39144896948</text><id>DFX:rectilinearity</id></comment><comment><text>de.gempa.tb1.Pick/20250412114217.670714.123670</text><id>RefPickID</id></comment><comment><text>13.205680793674174</text><id>SNR</id></comment></pick><origin publicID="de.gempa.tb1.Origin/20250412114249.815759.81638"><time><value>2025-04-12T11:41:25.712481Z</value><uncertainty>1.89786958694458</uncertainty></time><latitude><value>-23.54869079589844</value><uncertainty>12.852263450622559</uncertainty></latitude><longitude><value>-66.47467803955078</value><uncertainty>33.69544219970703</uncertainty></longitude><depth><value>17.821195602416992</value><uncertainty>43.270626068115234</uncertainty></depth><depthType>from location</depthType><methodID>LOCSAT</methodID><earthModelID>iasp91_scanloc</earthModelID><quality><associatedPhaseCount>10</associatedPhaseCount><usedPhaseCount>10</usedPhaseCount><associatedStationCount>8</associatedStationCount><usedStationCount>8</usedStationCount><depthPhaseCount>0</depthPhaseCount><standardError>0.7215084971499386</standardError><azimuthalGap>310.40838623046875</azimuthalGap><maximumDistance>3.8651134967803955</maximumDistance><minimumDistance>2.6049227714538574</minimumDistance><medianDistance>3.094109296798706</medianDistance></quality><uncertainty><minHorizontalUncertainty>19.871692657470703</minHorizontalUncertainty><maxHorizontalUncertainty>74.74876403808594</maxHorizontalUncertainty><azimuthMaxHorizontalUncertainty>105.37261199951172</azimuthMaxHorizontalUncertainty><preferredDescription>horizontal uncertainty</preferredDescription></uncertainty><evaluationMode>automatic</evaluationMode><evaluationStatus>confirmed</evaluationStatus><comment><text>0.00</text><id>mismatchScore</id></comment><comment><text>mismatchScore</text><id>scevalMethod</id></comment><arrival><pickID>de.gempa.tb1.Pick/20250412114212.603098.123668</pickID><phase>P</phase><azimuth>261.6173400878906</azimuth><distance>2.6049227714538574</distance><timeResidual>0.1161651611328125</timeResidual><timeUsed>true</timeUsed><horizontalSlownessUsed>false</horizontalSlownessUsed><backazimuthUsed>false</backazimuthUsed><weight>1</weight></arrival><arrival><pickID>de.gempa.tb1.Pick/20250412114217.670714.123670</pickID><phase>P</phase><azimuth>276.42242431640625</azimuth><distance>2.7738635540008545</distance><timeResidual>0.02811431884765625</timeResidual><timeUsed>true</timeUsed><horizontalSlownessUsed>false</horizontalSlownessUsed><backazimuthUsed>false</backazimuthUsed><weight>1</weight></arrival><arrival><pickID>de.gempa.tb1.Pick/20250412114218.481619.123672</pickID><phase>P</phase><azimuth>285.7877197265625</azimuth><distance>2.9720118045806885</distance><timeResidual>0.3003692626953125</timeResidual><timeUsed>true</timeUsed><horizontalSlownessUsed>false</horizontalSlownessUsed><backazimuthUsed>false</backazimuthUsed><weight>1</weight></arrival><arrival><pickID>de.gempa.tb1.Pick/20250412114222.574738.123674</pickID><phase>P</phase><azimuth>295.6304016113281</azimuth><distance>3.3735649585723877</distance><timeResidual>-0.44586181640625</timeResidual><timeUsed>true</timeUsed><horizontalSlownessUsed>false</horizontalSlownessUsed><backazimuthUsed>false</backazimuthUsed><weight>1</weight></arrival><arrival><pickID>de.gempa.tb1.Pick/20250412114229.584424.123676</pickID><phase>P</phase><azimuth>311.2089538574219</azimuth><distance>3.741699695587158</distance><timeResidual>0.02727508544921875</timeResidual><timeUsed>true</timeUsed><horizontalSlownessUsed>false</horizontalSlownessUsed><backazimuthUsed>false</backazimuthUsed><weight>1</weight></arrival><arrival><pickID>de.gempa.tb1.Pick/20250412114229.601825.123678</pickID><phase>P</phase><azimuth>304.3634033203125</azimuth><distance>3.8651134967803955</distance><timeResidual>-0.9396438598632812</timeResidual><timeUsed>true</timeUsed><horizontalSlownessUsed>false</horizontalSlownessUsed><backazimuthUsed>false</backazimuthUsed><weight>1</weight></arrival><arrival><pickID>de.gempa.tb1.Pick/20250412114232.879269.123680</pickID><phase>P</phase><azimuth>303.77099609375</azimuth><distance>3.094109296798706</distance><timeResidual>1.7897491455078125</timeResidual><timeUsed>true</timeUsed><horizontalSlownessUsed>false</horizontalSlownessUsed><backazimuthUsed>false</backazimuthUsed><weight>1</weight></arrival><arrival><pickID>de.gempa.tb1.Pick/20250412114245.586996.123682</pickID><phase>S</phase><azimuth>261.6173400878906</azimuth><distance>2.6049227714538574</distance><timeResidual>-0.15228271484375</timeResidual><timeUsed>true</timeUsed><horizontalSlownessUsed>false</horizontalSlownessUsed><backazimuthUsed>false</backazimuthUsed><weight>1</weight></arrival><arrival><pickID>de.gempa.tb1.Pick/20250412114247.567316.123683</pickID><phase>P</phase><azimuth>299.2530212402344</azimuth><distance>3.6360018253326416</distance><timeResidual>-0.8769607543945312</timeResidual><timeUsed>true</timeUsed><horizontalSlownessUsed>false</horizontalSlownessUsed><backazimuthUsed>false</backazimuthUsed><weight>1</weight></arrival><arrival><pickID>de.gempa.tb1.Pick/20250412114249.809939.123687</pickID><phase>S</phase><azimuth>276.42242431640625</azimuth><distance>2.7738635540008545</distance><timeResidual>0.15270614624023438</timeResidual><timeUsed>true</timeUsed><horizontalSlownessUsed>false</horizontalSlownessUsed><backazimuthUsed>false</backazimuthUsed><weight>1</weight></arrival><magnitude publicID="de.gempa.tb1.Magnitude/20250412114415.60488.219690"><magnitude><value>3.5077281446147395</value></magnitude><type>M</type><methodID>weighted average</methodID><stationCount>6</stationCount></magnitude></origin><event publicID="gempa2025hflp"><preferredOriginID>de.gempa.tb1.Origin/20250412114249.815759.81638</preferredOriginID><preferredMagnitudeID>de.gempa.tb1.Magnitude/20250412114415.60488.219690</preferredMagnitudeID><description><text>Jujuy Province, Argentina</text><type>region name</type></description><originReference>de.gempa.tb1.Origin/20250412114249.815759.81638</originReference></event></EventParameters></seiscomp>