<?xml version="1.0" encoding="UTF-8"?>
<seiscomp xmlns="http://geofon.gfz-potsdam.de/ns/seiscomp3-schema/0.13" version="0.13"><EventParameters><pick publicID="de.gempa.tb1.Pick/20250411184035.692671.119499"><time><value>2025-04-11T18:40:31.118391Z</value></time><waveformID networkCode="CX" stationCode="PB08" channelCode="HHZ"/><filterID>ITAPER(4)&gt;&gt;BW(4,4,20)</filterID><methodID>AIC</methodID><horizontalSlowness><value>15.943029693929237</value></horizontalSlowness><backazimuth><value>85.21676043218974</value></backazimuth><phaseHint>P</phaseHint><evaluationMode>automatic</evaluationMode><comment><text>11.812128677539421</text><id>DFX:rectilinearity</id></comment><comment><text>15.89719979892877</text><id>SNR</id></comment></pick><pick publicID="de.gempa.tb1.Pick/20250411184044.50599.119501"><time><value>2025-04-11T18:40:39.028393Z</value></time><waveformID networkCode="CX" stationCode="PB01" channelCode="HHZ"/><filterID>ITAPER(4)&gt;&gt;BW(4,4,20)</filterID><methodID>AIC</methodID><horizontalSlowness><value>15.645023173752172</value></horizontalSlowness><backazimuth><value>305.1274660630486</value></backazimuth><phaseHint>P</phaseHint><evaluationMode>automatic</evaluationMode><comment><text>12.688820411746493</text><id>DFX:rectilinearity</id></comment><comment><text>19.965382958226634</text><id>SNR</id></comment></pick><pick publicID="de.gempa.tb1.Pick/20250411184045.456928.119503"><time><value>2025-04-11T18:40:36.67Z</value></time><waveformID networkCode="CX" stationCode="PSGCX" channelCode="HHZ"/><filterID>ITAPER(4)&gt;&gt;BW(4,4,20)</filterID><methodID>AIC</methodID><horizontalSlowness><value>17.548936672868777</value></horizontalSlowness><backazimuth><value>49.48928085070668</value></backazimuth><phaseHint>P</phaseHint><evaluationMode>automatic</evaluationMode><comment><text>11.289114673948623</text><id>DFX:rectilinearity</id></comment><comment><text>13.67333531073064</text><id>SNR</id></comment></pick><pick publicID="de.gempa.tb1.Pick/20250411184051.649458.119505"><time><value>2025-04-11T18:40:43.018391Z</value></time><waveformID networkCode="CX" stationCode="PB08" channelCode="HHN"/><filterID>ITAPER(2)&gt;&gt;BW(3,3,20)</filterID><methodID>L2-AIC-GRID</methodID><horizontalSlowness><value>16.75888706015698</value></horizontalSlowness><backazimuth><value>204.93019656874225</value></backazimuth><phaseHint>S</phaseHint><evaluationMode>automatic</evaluationMode><comment><text>853.39223189097</text><id>DFX:rectilinearity</id></comment><comment><text>de.gempa.tb1.Pick/20250411184035.692671.119499</text><id>RefPickID</id></comment><comment><text>13.088246853805632</text><id>SNR</id></comment></pick><pick publicID="de.gempa.tb1.Pick/20250411184053.470776.119508"><time><value>2025-04-11T18:40:45.818393Z</value></time><waveformID networkCode="CX" stationCode="PB02" channelCode="HHZ"/><filterID>ITAPER(4)&gt;&gt;BW(4,4,20)</filterID><methodID>AIC</methodID><horizontalSlowness><value>3.960603853627411</value></horizontalSlowness><backazimuth><value>54.75834962674594</value></backazimuth><phaseHint>P</phaseHint><evaluationMode>automatic</evaluationMode><comment><text>22.869216062889983</text><id>DFX:rectilinearity</id></comment><comment><text>18.536768275197275</text><id>SNR</id></comment></pick><pick publicID="de.gempa.tb1.Pick/20250411184058.608452.119511"><time><value>2025-04-11T18:40:53.278393Z</value></time><waveformID networkCode="CX" stationCode="PB03" channelCode="HHZ"/><filterID>ITAPER(4)&gt;&gt;BW(4,4,20)</filterID><methodID>AIC</methodID><horizontalSlowness><value>11.343291795770545</value></horizontalSlowness><backazimuth><value>228.47599104599217</value></backazimuth><phaseHint>P</phaseHint><evaluationMode>automatic</evaluationMode><comment><text>7.956389925424723</text><id>DFX:rectilinearity</id></comment><comment><text>10.033780023127559</text><id>SNR</id></comment></pick><pick publicID="de.gempa.tb1.Pick/20250411184059.56134.119513"><time><value>2025-04-11T18:40:52.46Z</value></time><waveformID networkCode="CX" stationCode="PSGCX" channelCode="HHN"/><filterID>ITAPER(2)&gt;&gt;BW(3,3,20)</filterID><methodID>L2-AIC-GRID</methodID><horizontalSlowness><value>21.10514264736534</value></horizontalSlowness><backazimuth><value>155.9595366647546</value></backazimuth><phaseHint>S</phaseHint><evaluationMode>automatic</evaluationMode><comment><text>23.65883920580186</text><id>DFX:rectilinearity</id></comment><comment><text>de.gempa.tb1.Pick/20250411184045.456928.119503</text><id>RefPickID</id></comment><comment><text>6.40122973401158</text><id>SNR</id></comment></pick><origin publicID="de.gempa.tb1.Origin/20250411184103.551932.63546"><time><value>2025-04-11T18:40:15.724258Z</value><uncertainty>1.8360214233398438</uncertainty></time><latitude><value>-19.76386260986328</value><uncertainty>12.60648536682129</uncertainty></latitude><longitude><value>-69.05841827392578</value><uncertainty>12.585580825805664</uncertainty></longitude><depth><value>102.7320556640625</value><uncertainty>7.361556529998779</uncertainty></depth><depthType>from location</depthType><methodID>LOCSAT</methodID><earthModelID>iasp91_scanloc</earthModelID><quality><associatedPhaseCount>7</associatedPhaseCount><usedPhaseCount>7</usedPhaseCount><associatedStationCount>5</associatedStationCount><usedStationCount>5</usedStationCount><depthPhaseCount>0</depthPhaseCount><standardError>0.5248585854157173</standardError><azimuthalGap>274.1667938232422</azimuthalGap><maximumDistance>2.364128828048706</maximumDistance><minimumDistance>0.3858041763305664</minimumDistance><medianDistance>1.0168091058731079</medianDistance></quality><uncertainty><minHorizontalUncertainty>11.452333450317383</minHorizontalUncertainty><maxHorizontalUncertainty>36.44717025756836</maxHorizontalUncertainty><azimuthMaxHorizontalUncertainty>44.942039489746094</azimuthMaxHorizontalUncertainty><preferredDescription>horizontal uncertainty</preferredDescription></uncertainty><evaluationMode>automatic</evaluationMode><evaluationStatus>confirmed</evaluationStatus><comment><text>0.35</text><id>mismatchScore</id></comment><comment><text>mismatchScore</text><id>scevalMethod</id></comment><arrival><pickID>de.gempa.tb1.Pick/20250411184035.692671.119499</pickID><phase>P</phase><azimuth>193.37437438964844</azimuth><distance>0.3858041763305664</distance><timeResidual>0.05042839050292969</timeResidual><timeUsed>true</timeUsed><horizontalSlownessUsed>false</horizontalSlownessUsed><backazimuthUsed>false</backazimuthUsed><weight>1</weight></arrival><arrival><pickID>de.gempa.tb1.Pick/20250411184044.50599.119501</pickID><phase>P</phase><azimuth>197.46932983398438</azimuth><distance>1.3349534273147583</distance><timeResidual>-1.1154069900512695</timeResidual><timeUsed>true</timeUsed><horizontalSlownessUsed>false</horizontalSlownessUsed><backazimuthUsed>false</backazimuthUsed><weight>1</weight></arrival><arrival><pickID>de.gempa.tb1.Pick/20250411184045.456928.119503</pickID><phase>P</phase><azimuth>279.20758056640625</azimuth><distance>1.0168091058731079</distance><timeResidual>0.12981319427490234</timeResidual><timeUsed>true</timeUsed><horizontalSlownessUsed>false</horizontalSlownessUsed><backazimuthUsed>false</backazimuthUsed><weight>1</weight></arrival><arrival><pickID>de.gempa.tb1.Pick/20250411184051.649458.119505</pickID><phase>S</phase><azimuth>193.37437438964844</azimuth><distance>0.3858041763305664</distance><timeResidual>0.1601572036743164</timeResidual><timeUsed>true</timeUsed><horizontalSlownessUsed>false</horizontalSlownessUsed><backazimuthUsed>false</backazimuthUsed><weight>1</weight></arrival><arrival><pickID>de.gempa.tb1.Pick/20250411184053.470776.119508</pickID><phase>P</phase><azimuth>206.7447509765625</azimuth><distance>1.7356430292129517</distance><timeResidual>0.7722740173339844</timeResidual><timeUsed>true</timeUsed><horizontalSlownessUsed>false</horizontalSlownessUsed><backazimuthUsed>false</backazimuthUsed><weight>1</weight></arrival><arrival><pickID>de.gempa.tb1.Pick/20250411184058.608452.119511</pickID><phase>P</phase><azimuth>195.82374572753906</azimuth><distance>2.364128828048706</distance><timeResidual>0.1475534439086914</timeResidual><timeUsed>true</timeUsed><horizontalSlownessUsed>false</horizontalSlownessUsed><backazimuthUsed>false</backazimuthUsed><weight>1</weight></arrival><arrival><pickID>de.gempa.tb1.Pick/20250411184059.56134.119513</pickID><phase>S</phase><azimuth>279.20758056640625</azimuth><distance>1.0168091058731079</distance><timeResidual>-0.14484119415283203</timeResidual><timeUsed>true</timeUsed><horizontalSlownessUsed>false</horizontalSlownessUsed><backazimuthUsed>false</backazimuthUsed><weight>1</weight></arrival><magnitude publicID="de.gempa.tb1.Magnitude/20250411184113.034294.132240"><magnitude><value>2.3193827196063697</value></magnitude><type>M</type><methodID>weighted average</methodID><stationCount>5</stationCount></magnitude></origin><event publicID="gempa2025hedo"><preferredOriginID>de.gempa.tb1.Origin/20250411184103.551932.63546</preferredOriginID><preferredMagnitudeID>de.gempa.tb1.Magnitude/20250411184113.034294.132240</preferredMagnitudeID><description><text>Northern Chile</text><type>region name</type></description><originReference>de.gempa.tb1.Origin/20250411184103.551932.63546</originReference></event></EventParameters></seiscomp>