<?xml version="1.0" encoding="UTF-8"?>
<seiscomp xmlns="http://geofon.gfz-potsdam.de/ns/seiscomp3-schema/0.13" version="0.13"><EventParameters><pick publicID="de.gempa.tb1.Pick/20250414064644.549823.136349"><time><value>2025-04-14T06:46:39.35Z</value></time><waveformID networkCode="CX" stationCode="PSGCX" channelCode="HHZ"/><filterID>ITAPER(4)&gt;&gt;BW(4,4,20)</filterID><methodID>AIC</methodID><horizontalSlowness><value>19.641280847709584</value></horizontalSlowness><backazimuth><value>115.79770481893247</value></backazimuth><phaseHint>P</phaseHint><evaluationMode>automatic</evaluationMode><comment><text>10.820497244782922</text><id>DFX:rectilinearity</id></comment><comment><text>12.877632381006368</text><id>SNR</id></comment></pick><pick publicID="de.gempa.tb1.Pick/20250414064704.260423.136351"><time><value>2025-04-14T06:46:54.909999Z</value></time><waveformID networkCode="CX" stationCode="PATCX" channelCode="HHZ"/><filterID>ITAPER(4)&gt;&gt;BW(4,4,20)</filterID><methodID>AIC</methodID><horizontalSlowness><value>21.414377805276942</value></horizontalSlowness><backazimuth><value>84.15725555341311</value></backazimuth><phaseHint>P</phaseHint><evaluationMode>automatic</evaluationMode><comment><text>167.02622745307391</text><id>DFX:rectilinearity</id></comment><comment><text>8.486022489665743</text><id>SNR</id></comment></pick><pick publicID="de.gempa.tb1.Pick/20250414064708.513912.136353"><time><value>2025-04-14T06:46:59.448393Z</value></time><waveformID networkCode="CX" stationCode="PB01" channelCode="HHZ"/><filterID>ITAPER(4)&gt;&gt;BW(4,4,20)</filterID><methodID>AIC</methodID><horizontalSlowness><value>20.143602187793466</value></horizontalSlowness><backazimuth><value>313.13580801718</value></backazimuth><phaseHint>P</phaseHint><evaluationMode>automatic</evaluationMode><comment><text>24.27672774790265</text><id>DFX:rectilinearity</id></comment><comment><text>10.039053589513783</text><id>SNR</id></comment></pick><pick publicID="de.gempa.tb1.Pick/20250414064709.615264.136355"><time><value>2025-04-14T06:47:01.988393Z</value></time><waveformID networkCode="CX" stationCode="PB02" channelCode="HHZ"/><filterID>ITAPER(4)&gt;&gt;BW(4,4,20)</filterID><methodID>AIC</methodID><horizontalSlowness><value>19.139293164920687</value></horizontalSlowness><backazimuth><value>81.33323023944716</value></backazimuth><phaseHint>P</phaseHint><evaluationMode>automatic</evaluationMode><comment><text>23.67545240174269</text><id>DFX:rectilinearity</id></comment><comment><text>15.076004896533297</text><id>SNR</id></comment></pick><pick publicID="de.gempa.tb1.Pick/20250414064718.570993.136358"><time><value>2025-04-14T06:47:11.518393Z</value></time><waveformID networkCode="CX" stationCode="PB03" channelCode="HHZ"/><filterID>ITAPER(4)&gt;&gt;BW(4,4,20)</filterID><methodID>AIC</methodID><horizontalSlowness><value>7.743508735385828</value></horizontalSlowness><backazimuth><value>310.8275927808868</value></backazimuth><phaseHint>P</phaseHint><evaluationMode>automatic</evaluationMode><comment><text>5.963730618503356</text><id>DFX:rectilinearity</id></comment><comment><text>11.461228942671463</text><id>SNR</id></comment></pick><pick publicID="de.gempa.tb1.Pick/20250414064730.495135.136362"><time><value>2025-04-14T06:47:11.16Z</value></time><waveformID networkCode="CX" stationCode="PB09" channelCode="HHZ"/><filterID>ITAPER(4)&gt;&gt;BW(4,4,20)</filterID><methodID>AIC</methodID><horizontalSlowness><value>12.83133609979236</value></horizontalSlowness><backazimuth><value>278.9289220765479</value></backazimuth><phaseHint>P</phaseHint><evaluationMode>automatic</evaluationMode><comment><text>6.423812501739164</text><id>DFX:rectilinearity</id></comment><comment><text>15.497646355805205</text><id>SNR</id></comment></pick><pick publicID="de.gempa.tb1.Pick/20250414064736.516761.136364"><time><value>2025-04-14T06:47:07.528394Z</value></time><waveformID networkCode="CX" stationCode="PB07" channelCode="HHZ"/><filterID>ITAPER(4)&gt;&gt;BW(4,4,20)</filterID><methodID>AIC</methodID><horizontalSlowness><value>18.85078899731392</value></horizontalSlowness><backazimuth><value>45.1392882771452</value></backazimuth><phaseHint>P</phaseHint><evaluationMode>automatic</evaluationMode><comment><text>128.14149649213223</text><id>DFX:rectilinearity</id></comment><comment><text>15.733133295922165</text><id>SNR</id></comment></pick><origin publicID="de.gempa.tb1.Origin/20250414064736.520111.130779"><time><value>2025-04-14T06:46:30.048495Z</value><uncertainty>3.033252239227295</uncertainty></time><latitude><value>-19.303899765014648</value><uncertainty>23.2123966217041</uncertainty></latitude><longitude><value>-70.29795837402344</value><uncertainty>22.89111328125</uncertainty></longitude><depth><value>48.1588249206543</value><uncertainty>17.80375862121582</uncertainty></depth><depthType>from location</depthType><methodID>LOCSAT</methodID><earthModelID>iasp91_scanloc</earthModelID><quality><associatedPhaseCount>7</associatedPhaseCount><usedPhaseCount>7</usedPhaseCount><associatedStationCount>7</associatedStationCount><usedStationCount>7</usedStationCount><depthPhaseCount>0</depthPhaseCount><standardError>0.3502335516593965</standardError><azimuthalGap>335.6695556640625</azimuthalGap><maximumDistance>2.7779829502105713</maximumDistance><minimumDistance>0.3351913094520569</minimumDistance><medianDistance>2.0407285690307617</medianDistance></quality><uncertainty><minHorizontalUncertainty>44.77214050292969</minHorizontalUncertainty><maxHorizontalUncertainty>53.69815444946289</maxHorizontalUncertainty><azimuthMaxHorizontalUncertainty>137.2226104736328</azimuthMaxHorizontalUncertainty><preferredDescription>horizontal uncertainty</preferredDescription></uncertainty><evaluationMode>automatic</evaluationMode><evaluationStatus>confirmed</evaluationStatus><comment><text>0.27</text><id>mismatchScore</id></comment><comment><text>mismatchScore</text><id>scevalMethod</id></comment><arrival><pickID>de.gempa.tb1.Pick/20250414064644.549823.136349</pickID><phase>P</phase><azimuth>150.52984619140625</azimuth><distance>0.3351913094520569</distance><timeResidual>-0.0031909942626953125</timeResidual><timeUsed>true</timeUsed><horizontalSlownessUsed>false</horizontalSlownessUsed><backazimuthUsed>false</backazimuthUsed><weight>1</weight></arrival><arrival><pickID>de.gempa.tb1.Pick/20250414064704.260423.136351</pickID><phase>P</phase><azimuth>174.86029052734375</azimuth><distance>1.5151758193969727</distance><timeResidual>0.17798519134521484</timeResidual><timeUsed>true</timeUsed><horizontalSlownessUsed>false</horizontalSlownessUsed><backazimuthUsed>false</backazimuthUsed><weight>1</weight></arrival><arrival><pickID>de.gempa.tb1.Pick/20250414064708.513912.136353</pickID><phase>P</phase><azimuth>156.38694763183594</azimuth><distance>1.890536904335022</distance><timeResidual>-0.42158985137939453</timeResidual><timeUsed>true</timeUsed><horizontalSlownessUsed>false</horizontalSlownessUsed><backazimuthUsed>false</backazimuthUsed><weight>1</weight></arrival><arrival><pickID>de.gempa.tb1.Pick/20250414064709.615264.136355</pickID><phase>P</phase><azimuth>169.41604614257812</azimuth><distance>2.0407285690307617</distance><timeResidual>0.06012821197509766</timeResidual><timeUsed>true</timeUsed><horizontalSlownessUsed>false</horizontalSlownessUsed><backazimuthUsed>false</backazimuthUsed><weight>1</weight></arrival><arrival><pickID>de.gempa.tb1.Pick/20250414064718.570993.136358</pickID><phase>P</phase><azimuth>169.5119171142578</azimuth><distance>2.7779829502105713</distance><timeResidual>-0.5226411819458008</timeResidual><timeUsed>true</timeUsed><horizontalSlownessUsed>false</horizontalSlownessUsed><backazimuthUsed>false</backazimuthUsed><weight>1</weight></arrival><arrival><pickID>de.gempa.tb1.Pick/20250414064730.495135.136362</pickID><phase>P</phase><azimuth>158.42662048339844</azimuth><distance>2.6700127124786377</distance><timeResidual>0.6004838943481445</timeResidual><timeUsed>true</timeUsed><horizontalSlownessUsed>false</horizontalSlownessUsed><backazimuthUsed>false</backazimuthUsed><weight>1</weight></arrival><arrival><pickID>de.gempa.tb1.Pick/20250414064736.516761.136364</pickID><phase>P</phase><azimuth>170.9738006591797</azimuth><distance>2.4412052631378174</distance><timeResidual>0.10893917083740234</timeResidual><timeUsed>true</timeUsed><horizontalSlownessUsed>false</horizontalSlownessUsed><backazimuthUsed>false</backazimuthUsed><weight>1</weight></arrival><magnitude publicID="de.gempa.tb1.Magnitude/20250414064736.525535.441965"><magnitude><value>2.619013248863592</value></magnitude><type>M</type><methodID>weighted average</methodID><stationCount>7</stationCount></magnitude></origin><event publicID="gempa2025hitu"><preferredOriginID>de.gempa.tb1.Origin/20250414064736.520111.130779</preferredOriginID><preferredMagnitudeID>de.gempa.tb1.Magnitude/20250414064736.525535.441965</preferredMagnitudeID><description><text>Near Coast of Northern Chile</text><type>region name</type></description><originReference>de.gempa.tb1.Origin/20250414064736.520111.130779</originReference></event></EventParameters></seiscomp>