<?xml version="1.0" encoding="UTF-8"?>
<seiscomp xmlns="http://geofon.gfz-potsdam.de/ns/seiscomp3-schema/0.13" version="0.13"><EventParameters><pick publicID="de.gempa.tb1.Pick/20250413234413.698983.134336"><time><value>2025-04-13T23:44:08.848391Z</value></time><waveformID networkCode="CX" stationCode="PB07" channelCode="HHZ"/><filterID>ITAPER(4)&gt;&gt;BW(4,4,20)</filterID><methodID>AIC</methodID><horizontalSlowness><value>22.164836455383206</value></horizontalSlowness><backazimuth><value>272.031748517521</value></backazimuth><phaseHint>P</phaseHint><evaluationMode>automatic</evaluationMode><comment><text>170.61581045555377</text><id>DFX:rectilinearity</id></comment><comment><text>24.870091577922665</text><id>SNR</id></comment></pick><pick publicID="de.gempa.tb1.Pick/20250413234415.532501.134338"><time><value>2025-04-13T23:44:10.068393Z</value></time><waveformID networkCode="CX" stationCode="PB02" channelCode="HHZ"/><filterID>ITAPER(4)&gt;&gt;BW(4,4,20)</filterID><methodID>AIC</methodID><horizontalSlowness><value>13.494674078396095</value></horizontalSlowness><backazimuth><value>262.2665111246723</value></backazimuth><phaseHint>P</phaseHint><evaluationMode>automatic</evaluationMode><comment><text>22.964265011686727</text><id>DFX:rectilinearity</id></comment><comment><text>9.178872090525228</text><id>SNR</id></comment></pick><pick publicID="de.gempa.tb1.Pick/20250413234417.616584.134340"><time><value>2025-04-13T23:44:08.288393Z</value></time><waveformID networkCode="CX" stationCode="PB01" channelCode="HHZ"/><filterID>ITAPER(4)&gt;&gt;BW(4,4,20)</filterID><methodID>AIC</methodID><horizontalSlowness><value>11.080426576880594</value></horizontalSlowness><backazimuth><value>315.9309542026175</value></backazimuth><phaseHint>P</phaseHint><evaluationMode>automatic</evaluationMode><comment><text>8.060827938149467</text><id>DFX:rectilinearity</id></comment><comment><text>9.90799357219834</text><id>SNR</id></comment></pick><pick publicID="de.gempa.tb1.Pick/20250413234421.414483.134342"><time><value>2025-04-13T23:44:03.09Z</value></time><waveformID networkCode="CX" stationCode="PB09" channelCode="HHZ"/><filterID>ITAPER(4)&gt;&gt;BW(4,4,20)</filterID><methodID>AIC</methodID><horizontalSlowness><value>8.05473802935313</value></horizontalSlowness><backazimuth><value>324.78518918864796</value></backazimuth><phaseHint>P</phaseHint><evaluationMode>automatic</evaluationMode><comment><text>8.725720622760758</text><id>DFX:rectilinearity</id></comment><comment><text>8.490339186669392</text><id>SNR</id></comment></pick><pick publicID="de.gempa.tb1.Pick/20250413234434.547669.134346"><time><value>2025-04-13T23:44:26.768393Z</value></time><waveformID networkCode="CX" stationCode="PB01" channelCode="HHN"/><filterID>ITAPER(2)&gt;&gt;BW(3,3,20)</filterID><methodID>L2-AIC-GRID</methodID><horizontalSlowness><value>23.304264135552867</value></horizontalSlowness><backazimuth><value>211.67434719023873</value></backazimuth><phaseHint>S</phaseHint><evaluationMode>automatic</evaluationMode><comment><text>10.470470440972292</text><id>DFX:rectilinearity</id></comment><comment><text>de.gempa.tb1.Pick/20250413234417.616584.134340</text><id>RefPickID</id></comment><comment><text>18.920626035481085</text><id>SNR</id></comment></pick><pick publicID="de.gempa.tb1.Pick/20250413234436.817544.134350"><time><value>2025-04-13T23:44:27.918391Z</value></time><waveformID networkCode="CX" stationCode="PB07" channelCode="HHN"/><filterID>ITAPER(2)&gt;&gt;BW(3,3,20)</filterID><methodID>L2-AIC-GRID</methodID><horizontalSlowness><value>22.7078225532476</value></horizontalSlowness><backazimuth><value>143.05480140959705</value></backazimuth><phaseHint>S</phaseHint><evaluationMode>automatic</evaluationMode><comment><text>182.4090004796603</text><id>DFX:rectilinearity</id></comment><comment><text>de.gempa.tb1.Pick/20250413234413.698983.134336</text><id>RefPickID</id></comment><comment><text>8.075617965816166</text><id>SNR</id></comment></pick><pick publicID="de.gempa.tb1.Pick/20250413234442.570196.134351"><time><value>2025-04-13T23:44:30.348393Z</value></time><waveformID networkCode="CX" stationCode="PB02" channelCode="HHN"/><filterID>ITAPER(2)&gt;&gt;BW(3,3,20)</filterID><methodID>L2-AIC-GRID</methodID><horizontalSlowness><value>14.574240063475058</value></horizontalSlowness><backazimuth><value>229.08283798252683</value></backazimuth><phaseHint>S</phaseHint><evaluationMode>automatic</evaluationMode><comment><text>33.48931020407292</text><id>DFX:rectilinearity</id></comment><comment><text>de.gempa.tb1.Pick/20250413234415.532501.134338</text><id>RefPickID</id></comment><comment><text>7.341563050610141</text><id>SNR</id></comment></pick><origin publicID="de.gempa.tb1.Origin/20250413234442.574189.121283"><time><value>2025-04-13T23:43:44.195789Z</value><uncertainty>1.4678950309753418</uncertainty></time><latitude><value>-21.863727569580078</value><uncertainty>10.990495681762695</uncertainty></latitude><longitude><value>-68.53186798095703</value><uncertainty>13.81104850769043</uncertainty></longitude><depth><value>117.66056060791016</value><uncertainty>22.434221267700195</uncertainty></depth><depthType>from location</depthType><methodID>LOCSAT</methodID><earthModelID>iasp91_scanloc</earthModelID><quality><associatedPhaseCount>7</associatedPhaseCount><usedPhaseCount>7</usedPhaseCount><associatedStationCount>4</associatedStationCount><usedStationCount>4</usedStationCount><depthPhaseCount>0</depthPhaseCount><standardError>0.06148251449190046</standardError><azimuthalGap>323.3152770996094</azimuthalGap><maximumDistance>1.3801645040512085</maximumDistance><minimumDistance>0.6631391048431396</minimumDistance><medianDistance>1.2660211324691772</medianDistance></quality><uncertainty><minHorizontalUncertainty>23.02469253540039</minHorizontalUncertainty><maxHorizontalUncertainty>30.04227066040039</maxHorizontalUncertainty><azimuthMaxHorizontalUncertainty>105.12390899658203</azimuthMaxHorizontalUncertainty><preferredDescription>horizontal uncertainty</preferredDescription></uncertainty><evaluationMode>automatic</evaluationMode><evaluationStatus>confirmed</evaluationStatus><comment><text>0.06</text><id>mismatchScore</id></comment><comment><text>mismatchScore</text><id>scevalMethod</id></comment><arrival><pickID>de.gempa.tb1.Pick/20250413234413.698983.134336</pickID><phase>P</phase><azimuth>275.934326171875</azimuth><distance>1.2660211324691772</distance><timeResidual>-0.01312255859375</timeResidual><timeUsed>true</timeUsed><horizontalSlownessUsed>false</horizontalSlownessUsed><backazimuthUsed>false</backazimuthUsed><weight>1</weight></arrival><arrival><pickID>de.gempa.tb1.Pick/20250413234415.532501.134338</pickID><phase>P</phase><azimuth>292.8421630859375</azimuth><distance>1.3801645040512085</distance><timeResidual>-0.07094001770019531</timeResidual><timeUsed>true</timeUsed><horizontalSlownessUsed>false</horizontalSlownessUsed><backazimuthUsed>false</backazimuthUsed><weight>1</weight></arrival><arrival><pickID>de.gempa.tb1.Pick/20250413234417.616584.134340</pickID><phase>P</phase><azimuth>312.3539733886719</azimuth><distance>1.2078495025634766</distance><timeResidual>0.05728340148925781</timeResidual><timeUsed>true</timeUsed><horizontalSlownessUsed>false</horizontalSlownessUsed><backazimuthUsed>false</backazimuthUsed><weight>1</weight></arrival><arrival><pickID>de.gempa.tb1.Pick/20250413234421.414483.134342</pickID><phase>P</phase><azimuth>275.66925048828125</azimuth><distance>0.6631391048431396</distance><timeResidual>0.02957916259765625</timeResidual><timeUsed>true</timeUsed><horizontalSlownessUsed>false</horizontalSlownessUsed><backazimuthUsed>false</backazimuthUsed><weight>1</weight></arrival><arrival><pickID>de.gempa.tb1.Pick/20250413234434.547669.134346</pickID><phase>S</phase><azimuth>312.3539733886719</azimuth><distance>1.2078495025634766</distance><timeResidual>-0.06563377380371094</timeResidual><timeUsed>true</timeUsed><horizontalSlownessUsed>false</horizontalSlownessUsed><backazimuthUsed>false</backazimuthUsed><weight>1</weight></arrival><arrival><pickID>de.gempa.tb1.Pick/20250413234436.817544.134350</pickID><phase>S</phase><azimuth>275.934326171875</azimuth><distance>1.2660211324691772</distance><timeResidual>-0.042339324951171875</timeResidual><timeUsed>true</timeUsed><horizontalSlownessUsed>false</horizontalSlownessUsed><backazimuthUsed>false</backazimuthUsed><weight>1</weight></arrival><arrival><pickID>de.gempa.tb1.Pick/20250413234442.570196.134351</pickID><phase>S</phase><azimuth>292.8421630859375</azimuth><distance>1.3801645040512085</distance><timeResidual>0.10487747192382812</timeResidual><timeUsed>true</timeUsed><horizontalSlownessUsed>false</horizontalSlownessUsed><backazimuthUsed>false</backazimuthUsed><weight>1</weight></arrival><magnitude publicID="de.gempa.tb1.Magnitude/20250413234530.644904.411065"><magnitude><value>2.289560408442374</value></magnitude><type>M</type><methodID>weighted average</methodID><stationCount>2</stationCount></magnitude></origin><event publicID="gempa2025hifs"><preferredOriginID>de.gempa.tb1.Origin/20250413234442.574189.121283</preferredOriginID><preferredMagnitudeID>de.gempa.tb1.Magnitude/20250413234530.644904.411065</preferredMagnitudeID><description><text>Chile-Bolivia Border Region</text><type>region name</type></description><originReference>de.gempa.tb1.Origin/20250413234442.574189.121283</originReference></event></EventParameters></seiscomp>