<?xml version="1.0" encoding="UTF-8"?>
<seiscomp xmlns="http://geofon.gfz-potsdam.de/ns/seiscomp3-schema/0.13" version="0.13"><EventParameters><pick publicID="de.gempa.tb1.Pick/20250414210708.047586.240720"><time><value>2025-04-14T21:07:06.33Z</value></time><waveformID networkCode="CH" stationCode="VDL" channelCode="HHZ"/><filterID>ITAPER(4)&gt;&gt;BW(4,4,20)</filterID><methodID>AIC</methodID><phaseHint>P</phaseHint><evaluationMode>automatic</evaluationMode></pick><pick publicID="de.gempa.tb1.Pick/20250414210709.334542.240722"><time><value>2025-04-14T21:07:06.295Z</value></time><waveformID networkCode="CH" stationCode="BERNI" channelCode="HHZ"/><filterID>ITAPER(4)&gt;&gt;BW_HP(4,4)</filterID><methodID>AIC</methodID><phaseHint>P</phaseHint><evaluationMode>automatic</evaluationMode></pick><pick publicID="de.gempa.tb1.Pick/20250414210710.063212.240724"><time><value>2025-04-14T21:07:08.785Z</value></time><waveformID networkCode="CH" stationCode="DAVOX" channelCode="HHZ"/><filterID>ITAPER(4)&gt;&gt;BW(4,4,20)</filterID><methodID>AIC</methodID><phaseHint>P</phaseHint><evaluationMode>automatic</evaluationMode></pick><pick publicID="de.gempa.tb1.Pick/20250414210711.407989.240726"><time><value>2025-04-14T21:07:09.665Z</value></time><waveformID networkCode="CH" stationCode="FUORN" channelCode="HHZ"/><filterID>ITAPER(4)&gt;&gt;BW(4,4,20)</filterID><methodID>AIC</methodID><phaseHint>P</phaseHint><evaluationMode>automatic</evaluationMode></pick><pick publicID="de.gempa.tb1.Pick/20250414210714.922248.240728"><time><value>2025-04-14T21:07:09.09Z</value></time><waveformID networkCode="CH" stationCode="BERNI" channelCode="HHN"/><filterID>RMHP(1)&gt;&gt;ITAPER(2)&gt;&gt;BW(2,3,9.0)</filterID><methodID>L2-AIC-GRID</methodID><phaseHint>S</phaseHint><evaluationMode>automatic</evaluationMode><comment><text>de.gempa.tb1.Pick/20250414210709.334542.240722</text><id>RefPickID</id></comment></pick><pick publicID="de.gempa.tb1.Pick/20250414210718.108847.240729"><time><value>2025-04-14T21:07:13.16Z</value></time><waveformID networkCode="CH" stationCode="DAVOX" channelCode="HHN"/><filterID>RMHP(1)&gt;&gt;ITAPER(2)&gt;&gt;BW(4,3,20)</filterID><methodID>L2-AIC-GRID</methodID><phaseHint>S</phaseHint><evaluationMode>automatic</evaluationMode><comment><text>de.gempa.tb1.Pick/20250414210710.063212.240724</text><id>RefPickID</id></comment></pick><pick publicID="de.gempa.tb1.Pick/20250414210718.304256.240730"><time><value>2025-04-14T21:07:15.85Z</value></time><waveformID networkCode="CH" stationCode="MUGIO" channelCode="HHZ"/><filterID>ITAPER(4)&gt;&gt;BW(4,4,20)</filterID><methodID>AIC</methodID><phaseHint>P</phaseHint><evaluationMode>automatic</evaluationMode></pick><pick publicID="de.gempa.tb1.Pick/20250414210720.801468.240732"><time><value>2025-04-14T21:07:15.145Z</value></time><waveformID networkCode="CH" stationCode="FUORN" channelCode="HHN"/><filterID>RMHP(1)&gt;&gt;ITAPER(2)&gt;&gt;BW(4,3,20)</filterID><methodID>L2-AIC-GRID</methodID><phaseHint>S</phaseHint><evaluationMode>automatic</evaluationMode><comment><text>de.gempa.tb1.Pick/20250414210711.407989.240726</text><id>RefPickID</id></comment></pick><pick publicID="de.gempa.tb1.Pick/20250414210726.193009.240733"><time><value>2025-04-14T21:07:20.588393Z</value></time><waveformID networkCode="CH" stationCode="GRIMS" channelCode="HHZ"/><filterID>ITAPER(4)&gt;&gt;BW(4,4,20)</filterID><methodID>AIC</methodID><phaseHint>P</phaseHint><evaluationMode>automatic</evaluationMode></pick><origin publicID="de.gempa.tb1.Origin/20250414210726.195511.148871"><time><value>2025-04-14T21:07:01.82313Z</value><uncertainty>0.5930694341659546</uncertainty></time><latitude><value>46.46305847167969</value><uncertainty>3.0722055435180664</uncertainty></latitude><longitude><value>9.739038467407227</value><uncertainty>2.956256151199341</uncertainty></longitude><depth><value>3.292482614517212</value><uncertainty>3.804150104522705</uncertainty></depth><depthType>from location</depthType><methodID>LOCSAT</methodID><earthModelID>iasp91</earthModelID><quality><associatedPhaseCount>9</associatedPhaseCount><usedPhaseCount>9</usedPhaseCount><associatedStationCount>6</associatedStationCount><usedStationCount>6</usedStationCount><depthPhaseCount>0</depthPhaseCount><standardError>0.11681444002299342</standardError><azimuthalGap>118.0522918701172</azimuthalGap><maximumDistance>0.9873853921890259</maximumDistance><minimumDistance>0.20107512176036835</minimumDistance><medianDistance>0.33198723196983337</medianDistance></quality><uncertainty><minHorizontalUncertainty>5.985727787017822</minHorizontalUncertainty><maxHorizontalUncertainty>6.910184383392334</maxHorizontalUncertainty><azimuthMaxHorizontalUncertainty>37.180267333984375</azimuthMaxHorizontalUncertainty><preferredDescription>horizontal uncertainty</preferredDescription></uncertainty><evaluationMode>automatic</evaluationMode><evaluationStatus>confirmed</evaluationStatus><comment><text>0.32</text><id>mismatchScore</id></comment><comment><text>mismatchScore</text><id>scevalMethod</id></comment><arrival><pickID>de.gempa.tb1.Pick/20250414210708.047586.240720</pickID><phase>P</phase><azimuth>275.84991455078125</azimuth><distance>0.20107512176036835</distance><timeResidual>0.15957069396972656</timeResidual><timeUsed>true</timeUsed><horizontalSlownessUsed>false</horizontalSlownessUsed><backazimuthUsed>false</backazimuthUsed><weight>1</weight></arrival><arrival><pickID>de.gempa.tb1.Pick/20250414210709.334542.240722</pickID><phase>P</phase><azimuth>104.02365112304688</azimuth><distance>0.20256824791431427</distance><timeResidual>0.09672975540161133</timeResidual><timeUsed>true</timeUsed><horizontalSlownessUsed>false</horizontalSlownessUsed><backazimuthUsed>false</backazimuthUsed><weight>1</weight></arrival><arrival><pickID>de.gempa.tb1.Pick/20250414210710.063212.240724</pickID><phase>P</phase><azimuth>16.906328201293945</azimuth><distance>0.33198723196983337</distance><timeResidual>0.18668651580810547</timeResidual><timeUsed>true</timeUsed><horizontalSlownessUsed>false</horizontalSlownessUsed><backazimuthUsed>false</backazimuthUsed><weight>1</weight></arrival><arrival><pickID>de.gempa.tb1.Pick/20250414210711.407989.240726</pickID><phase>P</phase><azimuth>66.33692169189453</azimuth><distance>0.39468955993652344</distance><timeResidual>-0.09680461883544922</timeResidual><timeUsed>true</timeUsed><horizontalSlownessUsed>false</horizontalSlownessUsed><backazimuthUsed>false</backazimuthUsed><weight>1</weight></arrival><arrival><pickID>de.gempa.tb1.Pick/20250414210714.922248.240728</pickID><phase>S</phase><azimuth>104.02365112304688</azimuth><distance>0.20256824791431427</distance><timeResidual>0.028514862060546875</timeResidual><timeUsed>true</timeUsed><horizontalSlownessUsed>false</horizontalSlownessUsed><backazimuthUsed>false</backazimuthUsed><weight>1</weight></arrival><arrival><pickID>de.gempa.tb1.Pick/20250414210718.108847.240729</pickID><phase>S</phase><azimuth>16.906328201293945</azimuth><distance>0.33198723196983337</distance><timeResidual>-0.05515956878662109</timeResidual><timeUsed>true</timeUsed><horizontalSlownessUsed>false</horizontalSlownessUsed><backazimuthUsed>false</backazimuthUsed><weight>1</weight></arrival><arrival><pickID>de.gempa.tb1.Pick/20250414210718.304256.240730</pickID><phase>P</phase><azimuth>222.07594299316406</azimuth><distance>0.7264375686645508</distance><timeResidual>-0.0673532485961914</timeResidual><timeUsed>true</timeUsed><horizontalSlownessUsed>false</horizontalSlownessUsed><backazimuthUsed>false</backazimuthUsed><weight>1</weight></arrival><arrival><pickID>de.gempa.tb1.Pick/20250414210720.801468.240732</pickID><phase>S</phase><azimuth>66.33692169189453</azimuth><distance>0.39468955993652344</distance><timeResidual>-0.08390617370605469</timeResidual><timeUsed>true</timeUsed><horizontalSlownessUsed>false</horizontalSlownessUsed><backazimuthUsed>false</backazimuthUsed><weight>1</weight></arrival><arrival><pickID>de.gempa.tb1.Pick/20250414210726.193009.240733</pickID><phase>P</phase><azimuth>277.20904541015625</azimuth><distance>0.9873853921890259</distance><timeResidual>-0.16833209991455078</timeResidual><timeUsed>true</timeUsed><horizontalSlownessUsed>false</horizontalSlownessUsed><backazimuthUsed>false</backazimuthUsed><weight>1</weight></arrival><magnitude publicID="de.gempa.tb1.Magnitude/20250414210854.808689.541201"><magnitude><value>0.9883555841448715</value></magnitude><type>M</type><methodID>weighted average</methodID><stationCount>6</stationCount></magnitude></origin><event publicID="gempa2025hjwn"><preferredOriginID>de.gempa.tb1.Origin/20250414210726.195511.148871</preferredOriginID><preferredMagnitudeID>de.gempa.tb1.Magnitude/20250414210854.808689.541201</preferredMagnitudeID><description><text>Switzerland</text><type>region name</type></description><originReference>de.gempa.tb1.Origin/20250414210726.195511.148871</originReference></event></EventParameters></seiscomp>