<?xml version="1.0" encoding="UTF-8"?>
<seiscomp xmlns="http://geofon.gfz-potsdam.de/ns/seiscomp3-schema/0.13" version="0.13"><EventParameters><pick publicID="de.gempa.tb1.Pick/20250414033537.496878.135406"><time><value>2025-04-14T03:35:32.498393Z</value></time><waveformID networkCode="CX" stationCode="PB06" channelCode="HHZ"/><filterID>ITAPER(4)&gt;&gt;BW(4,4,20)</filterID><methodID>AIC</methodID><horizontalSlowness><value>20.346346960143809</value></horizontalSlowness><backazimuth><value>322.05116902969343</value></backazimuth><phaseHint>P</phaseHint><evaluationMode>automatic</evaluationMode><comment><text>43.333619624282207</text><id>DFX:rectilinearity</id></comment><comment><text>24.185282498283716</text><id>SNR</id></comment></pick><pick publicID="de.gempa.tb1.Pick/20250414033537.597401.135408"><time><value>2025-04-14T03:35:32.81Z</value></time><waveformID networkCode="CX" stationCode="PB19" channelCode="HHZ"/><filterID>ITAPER(4)&gt;&gt;BW(4,4,20)</filterID><methodID>AIC</methodID><horizontalSlowness><value>13.108702129646536</value></horizontalSlowness><backazimuth><value>43.20085528901839</value></backazimuth><phaseHint>P</phaseHint><evaluationMode>automatic</evaluationMode><comment><text>16.55085938824874</text><id>DFX:rectilinearity</id></comment><comment><text>6.595086722594481</text><id>SNR</id></comment></pick><pick publicID="de.gempa.tb1.Pick/20250414033545.588816.135410"><time><value>2025-04-14T03:35:39.828393Z</value></time><waveformID networkCode="CX" stationCode="PB03" channelCode="HHZ"/><filterID>ITAPER(4)&gt;&gt;BW(4,4,20)</filterID><methodID>AIC</methodID><horizontalSlowness><value>9.164902577378118</value></horizontalSlowness><backazimuth><value>138.66136610799703</value></backazimuth><phaseHint>P</phaseHint><evaluationMode>automatic</evaluationMode><comment><text>6.963788538286691</text><id>DFX:rectilinearity</id></comment><comment><text>7.54245235132271</text><id>SNR</id></comment></pick><pick publicID="de.gempa.tb1.Pick/20250414033550.570895.135414"><time><value>2025-04-14T03:35:44.488393Z</value></time><waveformID networkCode="CX" stationCode="PB07" channelCode="HHZ"/><filterID>ITAPER(4)&gt;&gt;BW(4,4,20)</filterID><methodID>AIC</methodID><horizontalSlowness><value>23.17394057378829</value></horizontalSlowness><backazimuth><value>277.6908103532496</value></backazimuth><phaseHint>P</phaseHint><evaluationMode>automatic</evaluationMode><comment><text>247.58567015263634</text><id>DFX:rectilinearity</id></comment><comment><text>8.548678216686271</text><id>SNR</id></comment></pick><pick publicID="de.gempa.tb1.Pick/20250414033551.737814.135416"><time><value>2025-04-14T03:35:45.18Z</value></time><waveformID networkCode="CX" stationCode="PB19" channelCode="HHN"/><filterID>ITAPER(2)&gt;&gt;BW(3,3,20)</filterID><methodID>L2-AIC-GRID</methodID><horizontalSlowness><value>21.412339745835602</value></horizontalSlowness><backazimuth><value>230.8135027878149</value></backazimuth><phaseHint>S</phaseHint><evaluationMode>automatic</evaluationMode><comment><text>29.88577665608503</text><id>DFX:rectilinearity</id></comment><comment><text>de.gempa.tb1.Pick/20250414033537.597401.135408</text><id>RefPickID</id></comment><comment><text>11.32228964255187</text><id>SNR</id></comment></pick><pick publicID="de.gempa.tb1.Pick/20250414033553.669924.135417"><time><value>2025-04-14T03:35:45.218393Z</value></time><waveformID networkCode="CX" stationCode="PB06" channelCode="HHN"/><filterID>ITAPER(2)&gt;&gt;BW(3,3,20)</filterID><methodID>L2-AIC-GRID</methodID><horizontalSlowness><value>15.527588089240593</value></horizontalSlowness><backazimuth><value>318.5714028277556</value></backazimuth><phaseHint>S</phaseHint><evaluationMode>automatic</evaluationMode><comment><text>146.76442618684615</text><id>DFX:rectilinearity</id></comment><comment><text>de.gempa.tb1.Pick/20250414033537.496878.135406</text><id>RefPickID</id></comment><comment><text>36.109349425259126</text><id>SNR</id></comment></pick><pick publicID="de.gempa.tb1.Pick/20250414033555.300014.135418"><time><value>2025-04-14T03:35:42.38Z</value></time><waveformID networkCode="CX" stationCode="PB09" channelCode="HHZ"/><filterID>ITAPER(4)&gt;&gt;BW(4,4,20)</filterID><methodID>AIC</methodID><horizontalSlowness><value>23.133357546554883</value></horizontalSlowness><backazimuth><value>307.2878024790217</value></backazimuth><phaseHint>P</phaseHint><evaluationMode>automatic</evaluationMode><comment><text>14.085155949872942</text><id>DFX:rectilinearity</id></comment><comment><text>9.633759285067649</text><id>SNR</id></comment></pick><origin publicID="de.gempa.tb1.Origin/20250414033555.415499.125744"><time><value>2025-04-14T03:35:16.615272Z</value><uncertainty>1.0367220640182495</uncertainty></time><latitude><value>-23.283300399780273</value><uncertainty>7.134373664855957</uncertainty></latitude><longitude><value>-69.32869720458984</value><uncertainty>28.27043914794922</uncertainty></longitude><depth><value>94.16925048828125</value><uncertainty>10.249845504760742</uncertainty></depth><depthType>from location</depthType><methodID>LOCSAT</methodID><earthModelID>iasp91_scanloc</earthModelID><quality><associatedPhaseCount>7</associatedPhaseCount><usedPhaseCount>7</usedPhaseCount><associatedStationCount>5</associatedStationCount><usedStationCount>5</usedStationCount><depthPhaseCount>0</depthPhaseCount><standardError>0.1500369229645045</standardError><azimuthalGap>173.65856385231018</azimuthalGap><maximumDistance>1.6327553987503052</maximumDistance><minimumDistance>0.6169401407241821</minimumDistance><medianDistance>0.6196249723434448</medianDistance></quality><uncertainty><minHorizontalUncertainty>8.815310478210449</minHorizontalUncertainty><maxHorizontalUncertainty>61.90163040161133</maxHorizontalUncertainty><azimuthMaxHorizontalUncertainty>78.22386169433594</azimuthMaxHorizontalUncertainty><preferredDescription>horizontal uncertainty</preferredDescription></uncertainty><evaluationMode>automatic</evaluationMode><evaluationStatus>confirmed</evaluationStatus><comment><text>0.50</text><id>mismatchScore</id></comment><comment><text>mismatchScore</text><id>scevalMethod</id></comment><arrival><pickID>de.gempa.tb1.Pick/20250414033537.496878.135406</pickID><phase>P</phase><azimuth>338.65460205078125</azimuth><distance>0.6169401407241821</distance><timeResidual>-0.2488260269165039</timeResidual><timeUsed>true</timeUsed><horizontalSlownessUsed>false</horizontalSlownessUsed><backazimuthUsed>false</backazimuthUsed><weight>1</weight></arrival><arrival><pickID>de.gempa.tb1.Pick/20250414033537.597401.135408</pickID><phase>P</phase><azimuth>176.7782745361328</azimuth><distance>0.6196249723434448</distance><timeResidual>0.04524135589599609</timeResidual><timeUsed>true</timeUsed><horizontalSlownessUsed>false</horizontalSlownessUsed><backazimuthUsed>false</backazimuthUsed><weight>1</weight></arrival><arrival><pickID>de.gempa.tb1.Pick/20250414033545.588816.135410</pickID><phase>P</phase><azimuth>342.227294921875</azimuth><distance>1.2900019884109497</distance><timeResidual>-0.16362667083740234</timeResidual><timeUsed>true</timeUsed><horizontalSlownessUsed>false</horizontalSlownessUsed><backazimuthUsed>false</backazimuthUsed><weight>1</weight></arrival><arrival><pickID>de.gempa.tb1.Pick/20250414033550.570895.135414</pickID><phase>P</phase><azimuth>341.48773193359375</azimuth><distance>1.6327553987503052</distance><timeResidual>0.24276256561279297</timeResidual><timeUsed>true</timeUsed><horizontalSlownessUsed>false</horizontalSlownessUsed><backazimuthUsed>false</backazimuthUsed><weight>1</weight></arrival><arrival><pickID>de.gempa.tb1.Pick/20250414033551.737814.135416</pickID><phase>S</phase><azimuth>176.7782745361328</azimuth><distance>0.6196249723434448</distance><timeResidual>0.011932373046875</timeResidual><timeUsed>true</timeUsed><horizontalSlownessUsed>false</horizontalSlownessUsed><backazimuthUsed>false</backazimuthUsed><weight>1</weight></arrival><arrival><pickID>de.gempa.tb1.Pick/20250414033553.669924.135417</pickID><phase>S</phase><azimuth>338.65460205078125</azimuth><distance>0.6169401407241821</distance><timeResidual>0.08302688598632812</timeResidual><timeUsed>true</timeUsed><horizontalSlownessUsed>false</horizontalSlownessUsed><backazimuthUsed>false</backazimuthUsed><weight>1</weight></arrival><arrival><pickID>de.gempa.tb1.Pick/20250414033555.300014.135418</pickID><phase>P</phase><azimuth>3.119710683822632</azimuth><distance>1.48204243183136</distance><timeResidual>0.029549598693847656</timeResidual><timeUsed>true</timeUsed><horizontalSlownessUsed>false</horizontalSlownessUsed><backazimuthUsed>false</backazimuthUsed><weight>1</weight></arrival><magnitude publicID="de.gempa.tb1.Magnitude/20250414033600.937014.424552"><magnitude><value>2.0176103945032957</value></magnitude><type>M</type><methodID>weighted average</methodID><stationCount>3</stationCount></magnitude></origin><event publicID="gempa2025hinl"><preferredOriginID>de.gempa.tb1.Origin/20250414033555.415499.125744</preferredOriginID><preferredMagnitudeID>de.gempa.tb1.Magnitude/20250414033600.937014.424552</preferredMagnitudeID><typeCertainty>suspected</typeCertainty><description><text>Northern Chile</text><type>region name</type></description><originReference>de.gempa.tb1.Origin/20250414033555.415499.125744</originReference></event></EventParameters></seiscomp>