<?xml version="1.0" encoding="UTF-8"?>
<seiscomp xmlns="http://geofon.gfz-potsdam.de/ns/seiscomp3-schema/0.13" version="0.13"><EventParameters><pick publicID="de.gempa.tb1.Pick/20250412223532.322978.192708"><time><value>2025-04-12T22:35:25.33Z</value></time><waveformID networkCode="SX" stationCode="ROHR" channelCode="HHZ"/><filterID>ITAPER(2)&gt;&gt;BW(3,3,20)</filterID><methodID>AIC</methodID><horizontalSlowness><value>22.58747543689555</value></horizontalSlowness><backazimuth><value>84.84326911364494</value></backazimuth><phaseHint>P</phaseHint><evaluationMode>automatic</evaluationMode><comment><text>5.357098145109635</text><id>DFX:rectilinearity</id></comment></pick><pick publicID="de.gempa.tb1.Pick/20250412223533.472225.192712"><time><value>2025-04-12T22:35:25.0975Z</value></time><waveformID networkCode="SX" stationCode="WERN" channelCode="HHZ"/><filterID>ITAPER(2)&gt;&gt;BW(3,3,20)</filterID><methodID>AIC</methodID><horizontalSlowness><value>22.434869539199148</value></horizontalSlowness><backazimuth><value>84.60577241412022</value></backazimuth><phaseHint>P</phaseHint><evaluationMode>automatic</evaluationMode><comment><text>15.016658438517704</text><id>DFX:rectilinearity</id></comment></pick><pick publicID="de.gempa.tb1.Pick/20250412223533.87652.192714"><time><value>2025-04-12T22:35:26.05Z</value></time><waveformID networkCode="SX" stationCode="GUNZ" channelCode="HHZ"/><filterID>ITAPER(2)&gt;&gt;BW(3,3,20)</filterID><methodID>AIC</methodID><horizontalSlowness><value>22.409471830041486</value></horizontalSlowness><backazimuth><value>280.82052867232073</value></backazimuth><phaseHint>P</phaseHint><evaluationMode>automatic</evaluationMode><comment><text>10.044268652100856</text><id>DFX:rectilinearity</id></comment></pick><pick publicID="de.gempa.tb1.Pick/20250412223535.84465.192720"><time><value>2025-04-12T22:35:26.38Z</value></time><waveformID networkCode="SX" stationCode="TANN" channelCode="HHZ"/><filterID>ITAPER(2)&gt;&gt;BW(3,3,20)</filterID><methodID>AIC</methodID><horizontalSlowness><value>18.60960423721815</value></horizontalSlowness><backazimuth><value>290.9198649995824</value></backazimuth><phaseHint>P</phaseHint><evaluationMode>automatic</evaluationMode><comment><text>4.537734749910514</text><id>DFX:rectilinearity</id></comment></pick><pick publicID="de.gempa.tb1.Pick/20250412223536.335894.192722"><time><value>2025-04-12T22:35:26.39Z</value></time><waveformID networkCode="SX" stationCode="MULD" channelCode="HHZ"/><filterID>ITAPER(2)&gt;&gt;BW(3,3,20)</filterID><methodID>AIC</methodID><horizontalSlowness><value>21.153912414730403</value></horizontalSlowness><backazimuth><value>144.22876698265043</value></backazimuth><phaseHint>P</phaseHint><evaluationMode>automatic</evaluationMode><comment><text>5.852658277316641</text><id>DFX:rectilinearity</id></comment></pick><pick publicID="de.gempa.tb1.Pick/20250412223536.562028.192726"><time><value>2025-04-12T22:35:26.99Z</value></time><waveformID networkCode="SX" stationCode="ROHR" channelCode="HHN"/><filterID>ITAPER(3)&gt;&gt;BW(4,3,10)</filterID><methodID>L2-AIC-GRID</methodID><horizontalSlowness><value>23.517871971514356</value></horizontalSlowness><backazimuth><value>263.47193851724614</value></backazimuth><phaseHint>S</phaseHint><evaluationMode>automatic</evaluationMode><comment><text>4.710786117205666</text><id>DFX:rectilinearity</id></comment><comment><text>de.gempa.tb1.Pick/20250412223532.322978.192708</text><id>RefPickID</id></comment></pick><pick publicID="de.gempa.tb1.Pick/20250412223536.90576.192727"><time><value>2025-04-12T22:35:27.39Z</value></time><waveformID networkCode="SX" stationCode="TRIB" channelCode="HHZ"/><filterID>ITAPER(2)&gt;&gt;BW(3,3,20)</filterID><methodID>AIC</methodID><horizontalSlowness><value>21.119634111096762</value></horizontalSlowness><backazimuth><value>89.3933594648376</value></backazimuth><phaseHint>P</phaseHint><evaluationMode>automatic</evaluationMode><comment><text>2.719415199735715</text><id>DFX:rectilinearity</id></comment></pick><pick publicID="de.gempa.tb1.Pick/20250412223539.854181.192735"><time><value>2025-04-12T22:35:28.66Z</value></time><waveformID networkCode="SX" stationCode="TANN" channelCode="HHN"/><filterID>ITAPER(3)&gt;&gt;BW(4,3,10)</filterID><methodID>L2-AIC-GRID</methodID><horizontalSlowness><value>19.737806906900996</value></horizontalSlowness><backazimuth><value>292.3757281303459</value></backazimuth><phaseHint>S</phaseHint><evaluationMode>automatic</evaluationMode><comment><text>5.19352913081397</text><id>DFX:rectilinearity</id></comment><comment><text>de.gempa.tb1.Pick/20250412223535.84465.192720</text><id>RefPickID</id></comment></pick><pick publicID="de.gempa.tb1.Pick/20250412223539.925236.192736"><time><value>2025-04-12T22:35:28.07Z</value></time><waveformID networkCode="SX" stationCode="GUNZ" channelCode="HHN"/><filterID>ITAPER(3)&gt;&gt;BW(4,3,10)</filterID><methodID>L2-AIC-GRID</methodID><horizontalSlowness><value>22.421627151774661</value></horizontalSlowness><backazimuth><value>280.8906531784891</value></backazimuth><phaseHint>S</phaseHint><evaluationMode>automatic</evaluationMode><comment><text>10.069690766793318</text><id>DFX:rectilinearity</id></comment><comment><text>de.gempa.tb1.Pick/20250412223533.87652.192714</text><id>RefPickID</id></comment></pick><pick publicID="de.gempa.tb1.Pick/20250412223540.358129.192737"><time><value>2025-04-12T22:35:28.63Z</value></time><waveformID networkCode="SX" stationCode="MULD" channelCode="HHN"/><filterID>ITAPER(3)&gt;&gt;BW(4,3,10)</filterID><methodID>L2-AIC-GRID</methodID><horizontalSlowness><value>21.979266819956337</value></horizontalSlowness><backazimuth><value>146.36973462628654</value></backazimuth><phaseHint>S</phaseHint><evaluationMode>automatic</evaluationMode><comment><text>6.104501217915988</text><id>DFX:rectilinearity</id></comment><comment><text>de.gempa.tb1.Pick/20250412223536.335894.192722</text><id>RefPickID</id></comment></pick><origin publicID="de.gempa.tb1.Origin/20250412223543.330227.190771"><time><value>2025-04-12T22:35:22.843429Z</value><uncertainty>1.1400609016418457</uncertainty></time><latitude><value>50.26206588745117</value><uncertainty>5.51875114440918</uncertainty></latitude><longitude><value>12.468173027038574</value><uncertainty>7.772785186767578</uncertainty></longitude><depth><value>3.678497076034546</value><uncertainty>3.43809700012207</uncertainty></depth><depthType>from location</depthType><methodID>LOCSAT</methodID><earthModelID>iasp91</earthModelID><quality><associatedPhaseCount>10</associatedPhaseCount><usedPhaseCount>10</usedPhaseCount><associatedStationCount>6</associatedStationCount><usedStationCount>6</usedStationCount><depthPhaseCount>0</depthPhaseCount><standardError>0.17991875391790188</standardError><azimuthalGap>255.6278991699219</azimuthalGap><maximumDistance>0.23065397143363953</maximumDistance><minimumDistance>0.0642930269241333</minimumDistance><medianDistance>0.15319108963012695</medianDistance></quality><uncertainty><minHorizontalUncertainty>5.110843181610107</minHorizontalUncertainty><maxHorizontalUncertainty>19.79058074951172</maxHorizontalUncertainty><azimuthMaxHorizontalUncertainty>123.93209075927734</azimuthMaxHorizontalUncertainty><preferredDescription>horizontal uncertainty</preferredDescription></uncertainty><evaluationMode>automatic</evaluationMode><evaluationStatus>confirmed</evaluationStatus><comment><text>0.02</text><id>mismatchScore</id></comment><comment><text>mismatchScore</text><id>scevalMethod</id></comment><arrival><pickID>de.gempa.tb1.Pick/20250412223532.322978.192708</pickID><phase>P</phase><azimuth>253.911376953125</azimuth><distance>0.10103880614042282</distance><timeResidual>-0.05420184135437012</timeResidual><timeUsed>true</timeUsed><horizontalSlownessUsed>false</horizontalSlownessUsed><backazimuthUsed>false</backazimuthUsed><weight>1</weight></arrival><arrival><pickID>de.gempa.tb1.Pick/20250412223533.472225.192712</pickID><phase>P</phase><azimuth>293.2705078125</azimuth><distance>0.0642930269241333</distance><timeResidual>0.39294517040252686</timeResidual><timeUsed>true</timeUsed><horizontalSlownessUsed>false</horizontalSlownessUsed><backazimuthUsed>false</backazimuthUsed><weight>1</weight></arrival><arrival><pickID>de.gempa.tb1.Pick/20250412223533.87652.192714</pickID><phase>P</phase><azimuth>319.2845764160156</azimuth><distance>0.13409210741519928</distance><timeResidual>0.05481266975402832</timeResidual><timeUsed>true</timeUsed><horizontalSlownessUsed>false</horizontalSlownessUsed><backazimuthUsed>false</backazimuthUsed><weight>1</weight></arrival><arrival><pickID>de.gempa.tb1.Pick/20250412223535.84465.192720</pickID><phase>P</phase><azimuth>358.2834777832031</azimuth><distance>0.15319108963012695</distance><timeResidual>0.0317225456237793</timeResidual><timeUsed>true</timeUsed><horizontalSlownessUsed>false</horizontalSlownessUsed><backazimuthUsed>false</backazimuthUsed><weight>1</weight></arrival><arrival><pickID>de.gempa.tb1.Pick/20250412223536.335894.192722</pickID><phase>P</phase><azimuth>344.662841796875</azimuth><distance>0.1554723083972931</distance><timeResidual>-0.0004706382751464844</timeResidual><timeUsed>true</timeUsed><horizontalSlownessUsed>false</horizontalSlownessUsed><backazimuthUsed>false</backazimuthUsed><weight>1</weight></arrival><arrival><pickID>de.gempa.tb1.Pick/20250412223536.562028.192726</pickID><phase>S</phase><azimuth>253.911376953125</azimuth><distance>0.10103880614042282</distance><timeResidual>0.010220766067504883</timeResidual><timeUsed>true</timeUsed><horizontalSlownessUsed>false</horizontalSlownessUsed><backazimuthUsed>false</backazimuthUsed><weight>1</weight></arrival><arrival><pickID>de.gempa.tb1.Pick/20250412223536.90576.192727</pickID><phase>P</phase><azimuth>293.10565185546875</azimuth><distance>0.23065397143363953</distance><timeResidual>-0.39092206954956055</timeResidual><timeUsed>true</timeUsed><horizontalSlownessUsed>false</horizontalSlownessUsed><backazimuthUsed>false</backazimuthUsed><weight>1</weight></arrival><arrival><pickID>de.gempa.tb1.Pick/20250412223539.854181.192735</pickID><phase>S</phase><azimuth>358.2834777832031</azimuth><distance>0.15319108963012695</distance><timeResidual>0.012713909149169922</timeResidual><timeUsed>true</timeUsed><horizontalSlownessUsed>false</horizontalSlownessUsed><backazimuthUsed>false</backazimuthUsed><weight>1</weight></arrival><arrival><pickID>de.gempa.tb1.Pick/20250412223539.925236.192736</pickID><phase>S</phase><azimuth>319.2845764160156</azimuth><distance>0.13409210741519928</distance><timeResidual>0.03343987464904785</timeResidual><timeUsed>true</timeUsed><horizontalSlownessUsed>false</horizontalSlownessUsed><backazimuthUsed>false</backazimuthUsed><weight>1</weight></arrival><arrival><pickID>de.gempa.tb1.Pick/20250412223540.358129.192737</pickID><phase>S</phase><azimuth>344.662841796875</azimuth><distance>0.1554723083972931</distance><timeResidual>-0.09026885032653809</timeResidual><timeUsed>true</timeUsed><horizontalSlownessUsed>false</horizontalSlownessUsed><backazimuthUsed>false</backazimuthUsed><weight>1</weight></arrival></origin><event publicID="gempa2025hghk"><preferredOriginID>de.gempa.tb1.Origin/20250412223543.330227.190771</preferredOriginID><description><text>Germany</text><type>region name</type></description><originReference>de.gempa.tb1.Origin/20250412223543.330227.190771</originReference></event></EventParameters></seiscomp>