<?xml version="1.0" encoding="UTF-8"?>
<seiscomp xmlns="http://geofon.gfz-potsdam.de/ns/seiscomp3-schema/0.13" version="0.13"><EventParameters><pick publicID="de.gempa.tb1.Pick/20250412175103.794879.125684"><time><value>2025-04-12T17:50:58.368393Z</value></time><waveformID networkCode="CX" stationCode="PB01" channelCode="HHZ"/><filterID>ITAPER(4)&gt;&gt;BW(4,4,20)</filterID><methodID>AIC</methodID><horizontalSlowness><value>22.884362121008184</value></horizontalSlowness><backazimuth><value>178.52909087113957</value></backazimuth><phaseHint>P</phaseHint><evaluationMode>automatic</evaluationMode><comment><text>178.4021303697719</text><id>DFX:rectilinearity</id></comment><comment><text>122.58934548535098</text><id>SNR</id></comment></pick><pick publicID="de.gempa.tb1.Pick/20250412175108.557954.125686"><time><value>2025-04-12T17:51:01.128393Z</value></time><waveformID networkCode="CX" stationCode="PB02" channelCode="HHZ"/><filterID>ITAPER(4)&gt;&gt;BW(4,4,20)</filterID><methodID>AIC</methodID><horizontalSlowness><value>15.244954921178195</value></horizontalSlowness><backazimuth><value>46.61344821804235</value></backazimuth><phaseHint>P</phaseHint><evaluationMode>automatic</evaluationMode><comment><text>133.91066759244453</text><id>DFX:rectilinearity</id></comment><comment><text>183.8052292994534</text><id>SNR</id></comment></pick><pick publicID="de.gempa.tb1.Pick/20250412175111.475415.125688"><time><value>2025-04-12T17:51:03.859999Z</value></time><waveformID networkCode="CX" stationCode="PATCX" channelCode="HHZ"/><filterID>ITAPER(4)&gt;&gt;BW(4,4,20)</filterID><methodID>AIC</methodID><horizontalSlowness><value>22.22634282797958</value></horizontalSlowness><backazimuth><value>185.63639225915642</value></backazimuth><phaseHint>P</phaseHint><evaluationMode>automatic</evaluationMode><comment><text>263.1233000217668</text><id>DFX:rectilinearity</id></comment><comment><text>7.491995519551927</text><id>SNR</id></comment></pick><pick publicID="de.gempa.tb1.Pick/20250412175115.580814.125690"><time><value>2025-04-12T17:51:08.098393Z</value></time><waveformID networkCode="CX" stationCode="PB07" channelCode="HHZ"/><filterID>ITAPER(4)&gt;&gt;BW(4,4,20)</filterID><methodID>AIC</methodID><horizontalSlowness><value>22.25413100756609</value></horizontalSlowness><backazimuth><value>95.1220215087103</value></backazimuth><phaseHint>P</phaseHint><evaluationMode>automatic</evaluationMode><comment><text>194.10442800582112</text><id>DFX:rectilinearity</id></comment><comment><text>33.051994095305176</text><id>SNR</id></comment></pick><pick publicID="de.gempa.tb1.Pick/20250412175117.511681.125692"><time><value>2025-04-12T17:51:13.168393Z</value></time><waveformID networkCode="CX" stationCode="PB03" channelCode="HHZ"/><filterID>ITAPER(4)&gt;&gt;BW(4,4,20)</filterID><methodID>AIC</methodID><horizontalSlowness><value>17.346830386178407</value></horizontalSlowness><backazimuth><value>246.3977473149181</value></backazimuth><phaseHint>P</phaseHint><evaluationMode>automatic</evaluationMode><comment><text>16.158872334570212</text><id>DFX:rectilinearity</id></comment><comment><text>43.751923070218886</text><id>SNR</id></comment></pick><pick publicID="de.gempa.tb1.Pick/20250412175119.517816.125694"><time><value>2025-04-12T17:51:13.598393Z</value></time><waveformID networkCode="CX" stationCode="PB08" channelCode="HHZ"/><filterID>ITAPER(4)&gt;&gt;BW(4,4,20)</filterID><methodID>AIC</methodID><horizontalSlowness><value>14.709822435076617</value></horizontalSlowness><backazimuth><value>91.96565100416839</value></backazimuth><phaseHint>P</phaseHint><evaluationMode>automatic</evaluationMode><comment><text>15.475848839311922</text><id>DFX:rectilinearity</id></comment><comment><text>5.755794076700337</text><id>SNR</id></comment></pick><pick publicID="de.gempa.tb1.Pick/20250412175126.201026.125696"><time><value>2025-04-12T17:51:11.85Z</value></time><waveformID networkCode="CX" stationCode="PB09" channelCode="HHZ"/><filterID>ITAPER(4)&gt;&gt;BW(4,4,20)</filterID><methodID>AIC</methodID><horizontalSlowness><value>23.17669758346578</value></horizontalSlowness><backazimuth><value>120.19033078531396</value></backazimuth><phaseHint>P</phaseHint><evaluationMode>automatic</evaluationMode><comment><text>28.656104419346484</text><id>DFX:rectilinearity</id></comment><comment><text>20.16907877641826</text><id>SNR</id></comment></pick><pick publicID="de.gempa.tb1.Pick/20250412175127.585877.125698"><time><value>2025-04-12T17:51:21.13Z</value></time><waveformID networkCode="CX" stationCode="PSGCX" channelCode="HHZ"/><filterID>ITAPER(4)&gt;&gt;BW(4,4,20)</filterID><methodID>AIC</methodID><horizontalSlowness><value>17.766844819283904</value></horizontalSlowness><backazimuth><value>265.6761569340987</value></backazimuth><phaseHint>P</phaseHint><evaluationMode>automatic</evaluationMode><comment><text>26.124869990182564</text><id>DFX:rectilinearity</id></comment><comment><text>66.98612696976188</text><id>SNR</id></comment></pick><pick publicID="de.gempa.tb1.Pick/20250412175130.634844.125700"><time><value>2025-04-12T17:51:25.388393Z</value></time><waveformID networkCode="CX" stationCode="PB06" channelCode="HHZ"/><filterID>ITAPER(4)&gt;&gt;BW(4,4,20)</filterID><methodID>AIC</methodID><horizontalSlowness><value>18.217980826193823</value></horizontalSlowness><backazimuth><value>277.1838637902415</value></backazimuth><phaseHint>P</phaseHint><evaluationMode>automatic</evaluationMode><comment><text>26.39889779723424</text><id>DFX:rectilinearity</id></comment><comment><text>8.832037185444214</text><id>SNR</id></comment></pick><origin publicID="de.gempa.tb1.Origin/20250412175135.539415.88663"><time><value>2025-04-12T17:50:54.339182Z</value><uncertainty>0.3941405713558197</uncertainty></time><latitude><value>-21.015037536621094</value><uncertainty>2.755862236022949</uncertainty></latitude><longitude><value>-69.7013168334961</value><uncertainty>3.5924859046936035</uncertainty></longitude><depth><value>2.615122079849243</value><uncertainty>6.417596817016602</uncertainty></depth><depthType>from location</depthType><methodID>LOCSAT</methodID><earthModelID>iasp91_scanloc</earthModelID><quality><associatedPhaseCount>9</associatedPhaseCount><usedPhaseCount>9</usedPhaseCount><associatedStationCount>9</associatedStationCount><usedStationCount>9</usedStationCount><depthPhaseCount>0</depthPhaseCount><standardError>0.5008567269386361</standardError><azimuthalGap>83.62420654296875</azimuthalGap><maximumDistance>1.686847448348999</maximumDistance><minimumDistance>0.2018040418624878</minimumDistance><medianDistance>0.887552797794342</medianDistance></quality><uncertainty><minHorizontalUncertainty>5.894191265106201</minHorizontalUncertainty><maxHorizontalUncertainty>7.716106414794922</maxHorizontalUncertainty><azimuthMaxHorizontalUncertainty>94.96514892578125</azimuthMaxHorizontalUncertainty><preferredDescription>horizontal uncertainty</preferredDescription></uncertainty><evaluationMode>automatic</evaluationMode><evaluationStatus>confirmed</evaluationStatus><comment><text>0.00</text><id>mismatchScore</id></comment><comment><text>mismatchScore</text><id>scevalMethod</id></comment><arrival><pickID>de.gempa.tb1.Pick/20250412175103.794879.125684</pickID><phase>P</phase><azimuth>98.02848052978516</azimuth><distance>0.2018040418624878</distance><timeResidual>0.13209795951843262</timeResidual><timeUsed>true</timeUsed><horizontalSlownessUsed>false</horizontalSlownessUsed><backazimuthUsed>false</backazimuthUsed><weight>1</weight></arrival><arrival><pickID>de.gempa.tb1.Pick/20250412175108.557954.125686</pickID><phase>P</phase><azimuth>210.90414428710938</azimuth><distance>0.3534751236438751</distance><timeResidual>-0.005015373229980469</timeResidual><timeUsed>true</timeUsed><horizontalSlownessUsed>false</horizontalSlownessUsed><backazimuthUsed>false</backazimuthUsed><weight>1</weight></arrival><arrival><pickID>de.gempa.tb1.Pick/20250412175111.475415.125688</pickID><phase>P</phase><azimuth>294.5283508300781</azimuth><distance>0.4643325209617615</distance><timeResidual>0.6032743453979492</timeResidual><timeUsed>true</timeUsed><horizontalSlownessUsed>false</horizontalSlownessUsed><backazimuthUsed>false</backazimuthUsed><weight>1</weight></arrival><arrival><pickID>de.gempa.tb1.Pick/20250412175115.580814.125690</pickID><phase>P</phase><azimuth>193.6422119140625</azimuth><distance>0.7287833094596863</distance><timeResidual>-0.2247934341430664</timeResidual><timeUsed>true</timeUsed><horizontalSlownessUsed>false</horizontalSlownessUsed><backazimuthUsed>false</backazimuthUsed><weight>1</weight></arrival><arrival><pickID>de.gempa.tb1.Pick/20250412175117.511681.125692</pickID><phase>P</phase><azimuth>182.67469787597656</azimuth><distance>1.0294917821884155</distance><timeResidual>-0.9195947647094727</timeResidual><timeUsed>true</timeUsed><horizontalSlownessUsed>false</horizontalSlownessUsed><backazimuthUsed>false</backazimuthUsed><weight>1</weight></arrival><arrival><pickID>de.gempa.tb1.Pick/20250412175119.517816.125694</pickID><phase>P</phase><azimuth>30.65524673461914</azimuth><distance>1.0097447633743286</distance><timeResidual>-0.113525390625</timeResidual><timeUsed>true</timeUsed><horizontalSlownessUsed>false</horizontalSlownessUsed><backazimuthUsed>false</backazimuthUsed><weight>1</weight></arrival><arrival><pickID>de.gempa.tb1.Pick/20250412175126.201026.125696</pickID><phase>P</phase><azimuth>151.245849609375</azimuth><distance>0.887552797794342</distance><timeResidual>0.4829769134521484</timeResidual><timeUsed>true</timeUsed><horizontalSlownessUsed>false</horizontalSlownessUsed><backazimuthUsed>false</backazimuthUsed><weight>1</weight></arrival><arrival><pickID>de.gempa.tb1.Pick/20250412175127.585877.125698</pickID><phase>P</phase><azimuth>344.2522277832031</azimuth><distance>1.4651252031326294</distance><timeResidual>-0.5830955505371094</timeResidual><timeUsed>true</timeUsed><horizontalSlownessUsed>false</horizontalSlownessUsed><backazimuthUsed>false</backazimuthUsed><weight>1</weight></arrival><arrival><pickID>de.gempa.tb1.Pick/20250412175130.634844.125700</pickID><phase>P</phase><azimuth>175.9361114501953</azimuth><distance>1.686847448348999</distance><timeResidual>0.6276626586914062</timeResidual><timeUsed>true</timeUsed><horizontalSlownessUsed>false</horizontalSlownessUsed><backazimuthUsed>false</backazimuthUsed><weight>1</weight></arrival><magnitude publicID="de.gempa.tb1.Magnitude/20250412175135.544603.259890"><magnitude><value>2.03071173312224</value></magnitude><type>M</type><methodID>weighted average</methodID><stationCount>7</stationCount></magnitude></origin><event publicID="gempa2025hfxx"><preferredOriginID>de.gempa.tb1.Origin/20250412175135.539415.88663</preferredOriginID><preferredMagnitudeID>de.gempa.tb1.Magnitude/20250412175135.544603.259890</preferredMagnitudeID><description><text>Northern Chile</text><type>region name</type></description><originReference>de.gempa.tb1.Origin/20250412175135.539415.88663</originReference></event></EventParameters></seiscomp>