<?xml version="1.0" encoding="UTF-8"?>
<seiscomp xmlns="http://geofon.gfz-potsdam.de/ns/seiscomp3-schema/0.13" version="0.13"><EventParameters><pick publicID="de.gempa.tb1.Pick/20250412141432.708061.162316"><time><value>2025-04-12T14:14:28.73Z</value></time><waveformID networkCode="CH" stationCode="WILA" channelCode="HHZ"/><filterID>ITAPER(4)&gt;&gt;BW(4,4,20)</filterID><methodID>AIC</methodID><phaseHint>P</phaseHint><evaluationMode>automatic</evaluationMode></pick><pick publicID="de.gempa.tb1.Pick/20250412141433.199563.162318"><time><value>2025-04-12T14:14:30.17Z</value></time><waveformID networkCode="CH" stationCode="LIENZ" channelCode="HHZ"/><filterID>ITAPER(4)&gt;&gt;BW(4,4,20)</filterID><methodID>AIC</methodID><phaseHint>P</phaseHint><evaluationMode>automatic</evaluationMode></pick><pick publicID="de.gempa.tb1.Pick/20250412141436.135748.162322"><time><value>2025-04-12T14:14:32.005Z</value></time><waveformID networkCode="CH" stationCode="SLE" channelCode="HHZ"/><filterID>ITAPER(4)&gt;&gt;BW(4,4,20)</filterID><methodID>AIC</methodID><phaseHint>P</phaseHint><evaluationMode>automatic</evaluationMode></pick><pick publicID="de.gempa.tb1.Pick/20250412141437.259921.162326"><time><value>2025-04-12T14:14:30.15Z</value></time><waveformID networkCode="CH" stationCode="WALHA" channelCode="HHZ"/><filterID>ITAPER(4)&gt;&gt;BW(4,4,20)</filterID><methodID>AIC</methodID><phaseHint>P</phaseHint><evaluationMode>automatic</evaluationMode></pick><pick publicID="de.gempa.tb1.Pick/20250412141440.666674.162331"><time><value>2025-04-12T14:14:37.795Z</value></time><waveformID networkCode="CH" stationCode="SIMPL" channelCode="HHZ"/><filterID>ITAPER(4)&gt;&gt;BW(4,4,20)</filterID><methodID>AIC</methodID><phaseHint>P</phaseHint><evaluationMode>automatic</evaluationMode></pick><pick publicID="de.gempa.tb1.Pick/20250412141449.234861.162337"><time><value>2025-04-12T14:14:43.69Z</value></time><waveformID networkCode="CH" stationCode="SLE" channelCode="HHN"/><filterID>RMHP(1)&gt;&gt;ITAPER(2)&gt;&gt;BW(4,3,20)</filterID><methodID>L2-AIC-GRID</methodID><phaseHint>S</phaseHint><evaluationMode>automatic</evaluationMode><comment><text>de.gempa.tb1.Pick/20250412141436.135748.162322</text><id>RefPickID</id></comment></pick><origin publicID="de.gempa.tb1.Origin/20250412141449.236779.103721"><time><value>2025-04-12T14:14:15.559643Z</value><uncertainty>2.0213751792907715</uncertainty></time><latitude><value>47.30290222167969</value><uncertainty>10.992551803588867</uncertainty></latitude><longitude><value>8.97842025756836</value><uncertainty>8.723462104797363</uncertainty></longitude><depth><value>83.8833999633789</value><uncertainty>21.799753189086914</uncertainty></depth><depthType>from location</depthType><methodID>LOCSAT</methodID><earthModelID>iasp91</earthModelID><quality><associatedPhaseCount>6</associatedPhaseCount><usedPhaseCount>6</usedPhaseCount><associatedStationCount>5</associatedStationCount><usedStationCount>5</usedStationCount><depthPhaseCount>0</depthPhaseCount><standardError>0.38715379700992214</standardError><azimuthalGap>120.9604721069336</azimuthalGap><maximumDistance>1.2513022422790527</maximumDistance><minimumDistance>0.12175238132476807</minimumDistance><medianDistance>0.5672686100006104</medianDistance></quality><uncertainty><minHorizontalUncertainty>18.428611755371094</minHorizontalUncertainty><maxHorizontalUncertainty>23.795156478881836</maxHorizontalUncertainty><azimuthMaxHorizontalUncertainty>167.62289428710938</azimuthMaxHorizontalUncertainty><preferredDescription>horizontal uncertainty</preferredDescription></uncertainty><evaluationMode>automatic</evaluationMode><comment><text>0.64</text><id>mismatchScore</id></comment><arrival><pickID>de.gempa.tb1.Pick/20250412141432.708061.162316</pickID><phase>P</phase><azimuth>336.7068786621094</azimuth><distance>0.12175238132476807</distance><timeResidual>0.4438447952270508</timeResidual><timeUsed>true</timeUsed><horizontalSlownessUsed>false</horizontalSlownessUsed><backazimuthUsed>false</backazimuthUsed><weight>1</weight></arrival><arrival><pickID>de.gempa.tb1.Pick/20250412141433.199563.162318</pickID><phase>P</phase><azimuth>91.17076873779297</azimuth><distance>0.3501332700252533</distance><timeResidual>0.1837005615234375</timeResidual><timeUsed>true</timeUsed><horizontalSlownessUsed>false</horizontalSlownessUsed><backazimuthUsed>false</backazimuthUsed><weight>1</weight></arrival><arrival><pickID>de.gempa.tb1.Pick/20250412141436.135748.162322</pickID><phase>P</phase><azimuth>324.68487548828125</azimuth><distance>0.5672686100006104</distance><timeResidual>0.40630149841308594</timeResidual><timeUsed>true</timeUsed><horizontalSlownessUsed>false</horizontalSlownessUsed><backazimuthUsed>false</backazimuthUsed><weight>1</weight></arrival><arrival><pickID>de.gempa.tb1.Pick/20250412141437.259921.162326</pickID><phase>P</phase><azimuth>12.234647750854492</azimuth><distance>0.4607082605361938</distance><timeResidual>-0.6559000015258789</timeResidual><timeUsed>true</timeUsed><horizontalSlownessUsed>false</horizontalSlownessUsed><backazimuthUsed>false</backazimuthUsed><weight>1</weight></arrival><arrival><pickID>de.gempa.tb1.Pick/20250412141440.666674.162331</pickID><phase>P</phase><azimuth>212.13124084472656</azimuth><distance>1.2513022422790527</distance><timeResidual>-0.1584920883178711</timeResidual><timeUsed>true</timeUsed><horizontalSlownessUsed>false</horizontalSlownessUsed><backazimuthUsed>false</backazimuthUsed><weight>1</weight></arrival><arrival><pickID>de.gempa.tb1.Pick/20250412141449.234861.162337</pickID><phase>S</phase><azimuth>324.68487548828125</azimuth><distance>0.5672686100006104</distance><timeResidual>-0.2194967269897461</timeResidual><timeUsed>true</timeUsed><horizontalSlownessUsed>false</horizontalSlownessUsed><backazimuthUsed>false</backazimuthUsed><weight>1</weight></arrival><magnitude publicID="de.gempa.tb1.Magnitude/20250412141519.006686.237459"><magnitude><value>1.1604216365032574</value></magnitude><type>M</type><methodID>weighted average</methodID><stationCount>1</stationCount></magnitude></origin><event publicID="gempa2025hfqs"><preferredOriginID>de.gempa.tb1.Origin/20250412141449.236779.103721</preferredOriginID><preferredMagnitudeID>de.gempa.tb1.Magnitude/20250412141519.006686.237459</preferredMagnitudeID><description><text>Switzerland</text><type>region name</type></description><originReference>de.gempa.tb1.Origin/20250412141449.236779.103721</originReference></event></EventParameters></seiscomp>