<?xml version="1.0" encoding="UTF-8"?>
<seiscomp xmlns="http://geofon.gfz-potsdam.de/ns/seiscomp3-schema/0.13" version="0.13"><EventParameters><pick publicID="de.gempa.tb1.Pick/20250411162344.616752.118696"><time><value>2025-04-11T16:23:38.058393Z</value></time><waveformID networkCode="CX" stationCode="PB01" channelCode="HHZ"/><filterID>ITAPER(4)&gt;&gt;BW(4,4,20)</filterID><methodID>AIC</methodID><horizontalSlowness><value>19.450181652062426</value></horizontalSlowness><backazimuth><value>265.96793545932013</value></backazimuth><phaseHint>P</phaseHint><evaluationMode>automatic</evaluationMode><comment><text>5.146830023963963</text><id>DFX:rectilinearity</id></comment><comment><text>28.27964058581239</text><id>SNR</id></comment></pick><pick publicID="de.gempa.tb1.Pick/20250411162346.572929.118698"><time><value>2025-04-11T16:23:40.41Z</value></time><waveformID networkCode="CX" stationCode="PB09" channelCode="HHZ"/><filterID>ITAPER(4)&gt;&gt;BW(4,4,20)</filterID><methodID>AIC</methodID><horizontalSlowness><value>13.591086611083107</value></horizontalSlowness><backazimuth><value>237.9912912278515</value></backazimuth><phaseHint>P</phaseHint><evaluationMode>automatic</evaluationMode><comment><text>8.059446162582326</text><id>DFX:rectilinearity</id></comment><comment><text>20.445474790839537</text><id>SNR</id></comment></pick><pick publicID="de.gempa.tb1.Pick/20250411162346.698019.118700"><time><value>2025-04-11T16:23:41.678394Z</value></time><waveformID networkCode="CX" stationCode="PB02" channelCode="HHZ"/><filterID>ITAPER(4)&gt;&gt;BW(4,4,20)</filterID><methodID>AIC</methodID><horizontalSlowness><value>3.348356789809953</value></horizontalSlowness><backazimuth><value>169.7396751389499</value></backazimuth><phaseHint>P</phaseHint><evaluationMode>automatic</evaluationMode><comment><text>27.98463681226644</text><id>DFX:rectilinearity</id></comment><comment><text>26.63592572343313</text><id>SNR</id></comment></pick><pick publicID="de.gempa.tb1.Pick/20250411162349.599633.118702"><time><value>2025-04-11T16:23:44.208393Z</value></time><waveformID networkCode="CX" stationCode="PB03" channelCode="HHZ"/><filterID>ITAPER(4)&gt;&gt;BW(4,4,20)</filterID><methodID>AIC</methodID><horizontalSlowness><value>5.834207878014146</value></horizontalSlowness><backazimuth><value>235.41513194326177</value></backazimuth><phaseHint>P</phaseHint><evaluationMode>automatic</evaluationMode><comment><text>6.579671668558561</text><id>DFX:rectilinearity</id></comment><comment><text>13.995623747547365</text><id>SNR</id></comment></pick><pick publicID="de.gempa.tb1.Pick/20250411162359.81399.118704"><time><value>2025-04-11T16:23:51.478393Z</value></time><waveformID networkCode="CX" stationCode="PB01" channelCode="HHN"/><filterID>ITAPER(2)&gt;&gt;BW(3,3,20)</filterID><methodID>L2-AIC-GRID</methodID><horizontalSlowness><value>21.959551502116245</value></horizontalSlowness><backazimuth><value>273.9375152260706</value></backazimuth><phaseHint>S</phaseHint><evaluationMode>automatic</evaluationMode><comment><text>117.55738703608594</text><id>DFX:rectilinearity</id></comment><comment><text>de.gempa.tb1.Pick/20250411162344.616752.118696</text><id>RefPickID</id></comment><comment><text>14.737400135846276</text><id>SNR</id></comment></pick><pick publicID="de.gempa.tb1.Pick/20250411162402.171196.118705"><time><value>2025-04-11T16:23:43.018396Z</value></time><waveformID networkCode="CX" stationCode="PB07" channelCode="HHZ"/><filterID>ITAPER(4)&gt;&gt;BW(4,4,20)</filterID><methodID>AIC</methodID><horizontalSlowness><value>22.723422027805444</value></horizontalSlowness><backazimuth><value>238.07320652206337</value></backazimuth><phaseHint>P</phaseHint><evaluationMode>automatic</evaluationMode><comment><text>166.92753506048678</text><id>DFX:rectilinearity</id></comment><comment><text>27.82308090528541</text><id>SNR</id></comment></pick><pick publicID="de.gempa.tb1.Pick/20250411162403.556167.118707"><time><value>2025-04-11T16:23:57.648394Z</value></time><waveformID networkCode="CX" stationCode="PB02" channelCode="HHN"/><filterID>ITAPER(2)&gt;&gt;BW(3,3,20)</filterID><methodID>L2-AIC-GRID</methodID><horizontalSlowness><value>21.040617646315255</value></horizontalSlowness><backazimuth><value>64.6152969348806</value></backazimuth><phaseHint>S</phaseHint><evaluationMode>automatic</evaluationMode><comment><text>241.4278875421649</text><id>DFX:rectilinearity</id></comment><comment><text>de.gempa.tb1.Pick/20250411162346.698019.118700</text><id>RefPickID</id></comment><comment><text>6.915591040703845</text><id>SNR</id></comment></pick><pick publicID="de.gempa.tb1.Pick/20250411162409.797559.118708"><time><value>2025-04-11T16:24:02.228393Z</value></time><waveformID networkCode="CX" stationCode="PB03" channelCode="HHN"/><filterID>ITAPER(2)&gt;&gt;BW(3,3,20)</filterID><methodID>L2-AIC-GRID</methodID><horizontalSlowness><value>22.38814482987901</value></horizontalSlowness><backazimuth><value>318.125061649326</value></backazimuth><phaseHint>S</phaseHint><evaluationMode>automatic</evaluationMode><comment><text>19.794604304802824</text><id>DFX:rectilinearity</id></comment><comment><text>de.gempa.tb1.Pick/20250411162349.599633.118702</text><id>RefPickID</id></comment><comment><text>11.612264014284046</text><id>SNR</id></comment></pick><origin publicID="de.gempa.tb1.Origin/20250411162409.801045.60367"><time><value>2025-04-11T16:23:21.115844Z</value><uncertainty>1.314114809036255</uncertainty></time><latitude><value>-21.131513595581055</value><uncertainty>7.996619701385498</uncertainty></latitude><longitude><value>-68.96453857421875</value><uncertainty>13.436326026916504</uncertainty></longitude><depth><value>113.50006866455078</value><uncertainty>12.546027183532715</uncertainty></depth><depthType>from location</depthType><methodID>LOCSAT</methodID><earthModelID>iasp91_scanloc</earthModelID><quality><associatedPhaseCount>8</associatedPhaseCount><usedPhaseCount>8</usedPhaseCount><associatedStationCount>5</associatedStationCount><usedStationCount>5</usedStationCount><depthPhaseCount>0</depthPhaseCount><standardError>0.26521768681600583</standardError><azimuthalGap>281.17657470703125</azimuthalGap><maximumDistance>1.170974850654602</maximumDistance><minimumDistance>0.4961041510105133</minimumDistance><medianDistance>0.889007568359375</medianDistance></quality><uncertainty><minHorizontalUncertainty>16.356332778930664</minHorizontalUncertainty><maxHorizontalUncertainty>29.269824981689453</maxHorizontalUncertainty><azimuthMaxHorizontalUncertainty>102.25059509277344</azimuthMaxHorizontalUncertainty><preferredDescription>horizontal uncertainty</preferredDescription></uncertainty><evaluationMode>automatic</evaluationMode><evaluationStatus>confirmed</evaluationStatus><comment><text>0.04</text><id>mismatchScore</id></comment><comment><text>mismatchScore</text><id>scevalMethod</id></comment><arrival><pickID>de.gempa.tb1.Pick/20250411162344.616752.118696</pickID><phase>P</phase><azimuth>280.1054382324219</azimuth><distance>0.4961041510105133</distance><timeResidual>-0.2880725860595703</timeResidual><timeUsed>true</timeUsed><horizontalSlownessUsed>false</horizontalSlownessUsed><backazimuthUsed>false</backazimuthUsed><weight>1</weight></arrival><arrival><pickID>de.gempa.tb1.Pick/20250411162346.572929.118698</pickID><phase>P</phase><azimuth>201.28201293945312</azimuth><distance>0.7102584838867188</distance><timeResidual>0.4723930358886719</timeResidual><timeUsed>true</timeUsed><horizontalSlownessUsed>false</horizontalSlownessUsed><backazimuthUsed>false</backazimuthUsed><weight>1</weight></arrival><arrival><pickID>de.gempa.tb1.Pick/20250411162346.698019.118700</pickID><phase>P</phase><azimuth>257.67120361328125</azimuth><distance>0.889007568359375</distance><timeResidual>0.13408660888671875</timeResidual><timeUsed>true</timeUsed><horizontalSlownessUsed>false</horizontalSlownessUsed><backazimuthUsed>false</backazimuthUsed><weight>1</weight></arrival><arrival><pickID>de.gempa.tb1.Pick/20250411162349.599633.118702</pickID><phase>P</phase><azimuth>218.66624450683594</azimuth><distance>1.170974850654602</distance><timeResidual>-0.22124671936035156</timeResidual><timeUsed>true</timeUsed><horizontalSlownessUsed>false</horizontalSlownessUsed><backazimuthUsed>false</backazimuthUsed><weight>1</weight></arrival><arrival><pickID>de.gempa.tb1.Pick/20250411162359.81399.118704</pickID><phase>S</phase><azimuth>280.1054382324219</azimuth><distance>0.4961041510105133</distance><timeResidual>-0.13913917541503906</timeResidual><timeUsed>true</timeUsed><horizontalSlownessUsed>false</horizontalSlownessUsed><backazimuthUsed>false</backazimuthUsed><weight>1</weight></arrival><arrival><pickID>de.gempa.tb1.Pick/20250411162402.171196.118705</pickID><phase>P</phase><azimuth>235.2398681640625</azimuth><distance>1.0431063175201416</distance><timeResidual>-0.057586669921875</timeResidual><timeUsed>true</timeUsed><horizontalSlownessUsed>false</horizontalSlownessUsed><backazimuthUsed>false</backazimuthUsed><weight>1</weight></arrival><arrival><pickID>de.gempa.tb1.Pick/20250411162403.556167.118707</pickID><phase>S</phase><azimuth>257.67120361328125</azimuth><distance>0.889007568359375</distance><timeResidual>0.33438682556152344</timeResidual><timeUsed>true</timeUsed><horizontalSlownessUsed>false</horizontalSlownessUsed><backazimuthUsed>false</backazimuthUsed><weight>1</weight></arrival><arrival><pickID>de.gempa.tb1.Pick/20250411162409.797559.118708</pickID><phase>S</phase><azimuth>218.66624450683594</azimuth><distance>1.170974850654602</distance><timeResidual>-0.2348670959472656</timeResidual><timeUsed>true</timeUsed><horizontalSlownessUsed>false</horizontalSlownessUsed><backazimuthUsed>false</backazimuthUsed><weight>1</weight></arrival><magnitude publicID="de.gempa.tb1.Magnitude/20250411162427.489482.118859"><magnitude><value>2.4134027365105557</value></magnitude><type>M</type><methodID>weighted average</methodID><stationCount>3</stationCount></magnitude></origin><event publicID="gempa2025hdyz"><preferredOriginID>de.gempa.tb1.Origin/20250411162409.801045.60367</preferredOriginID><preferredMagnitudeID>de.gempa.tb1.Magnitude/20250411162427.489482.118859</preferredMagnitudeID><typeCertainty>suspected</typeCertainty><description><text>Chile-Bolivia Border Region</text><type>region name</type></description><originReference>de.gempa.tb1.Origin/20250411162409.801045.60367</originReference></event></EventParameters></seiscomp>