<?xml version="1.0" encoding="UTF-8"?>
<seiscomp xmlns="http://geofon.gfz-potsdam.de/ns/seiscomp3-schema/0.13" version="0.13"><EventParameters><pick publicID="de.gempa.tb1.Pick/20250414101754.53782.137317"><time><value>2025-04-14T10:17:49.34Z</value></time><waveformID networkCode="CX" stationCode="PB19" channelCode="HHZ"/><filterID>ITAPER(4)&gt;&gt;BW(4,4,20)</filterID><methodID>AIC</methodID><horizontalSlowness><value>13.533851470341716</value></horizontalSlowness><backazimuth><value>106.0523147673973</value></backazimuth><phaseHint>P</phaseHint><evaluationMode>automatic</evaluationMode><comment><text>287.12220824715467</text><id>DFX:rectilinearity</id></comment><comment><text>128.30527155825808</text><id>SNR</id></comment></pick><pick publicID="de.gempa.tb1.Pick/20250414101755.686039.137319"><time><value>2025-04-14T10:17:50.438393Z</value></time><waveformID networkCode="CX" stationCode="PB15" channelCode="HHZ"/><filterID>ITAPER(4)&gt;&gt;BW(4,4,20)</filterID><methodID>AIC</methodID><horizontalSlowness><value>19.904699409793626</value></horizontalSlowness><backazimuth><value>96.41525568942802</value></backazimuth><phaseHint>P</phaseHint><evaluationMode>automatic</evaluationMode><comment><text>6418.526644319468</text><id>DFX:rectilinearity</id></comment><comment><text>65.07753093182154</text><id>SNR</id></comment></pick><pick publicID="de.gempa.tb1.Pick/20250414101757.547056.137321"><time><value>2025-04-14T10:17:52.248393Z</value></time><waveformID networkCode="CX" stationCode="PB06" channelCode="HHZ"/><filterID>ITAPER(4)&gt;&gt;BW(4,4,20)</filterID><methodID>AIC</methodID><horizontalSlowness><value>5.896295931855199</value></horizontalSlowness><backazimuth><value>124.1986279128096</value></backazimuth><phaseHint>P</phaseHint><evaluationMode>automatic</evaluationMode><comment><text>93.39904732461746</text><id>SNR</id></comment><comment><text>158.56303900605897</text><id>DFX:rectilinearity</id></comment></pick><pick publicID="de.gempa.tb1.Pick/20250414101803.34184.137323"><time><value>2025-04-14T10:17:54.36Z</value></time><waveformID networkCode="CX" stationCode="PB09" channelCode="HHZ"/><filterID>ITAPER(4)&gt;&gt;BW(4,4,20)</filterID><methodID>AIC</methodID><horizontalSlowness><value>18.23714608826826</value></horizontalSlowness><backazimuth><value>83.06507163331581</value></backazimuth><phaseHint>P</phaseHint><evaluationMode>automatic</evaluationMode><comment><text>16.712337440209843</text><id>DFX:rectilinearity</id></comment><comment><text>141.85519326768733</text><id>SNR</id></comment></pick><pick publicID="de.gempa.tb1.Pick/20250414101803.585834.137325"><time><value>2025-04-14T10:17:56.528393Z</value></time><waveformID networkCode="CX" stationCode="PB03" channelCode="HHZ"/><filterID>ITAPER(4)&gt;&gt;BW(4,4,20)</filterID><methodID>AIC</methodID><horizontalSlowness><value>9.222550612271377</value></horizontalSlowness><backazimuth><value>128.853626311126</value></backazimuth><phaseHint>P</phaseHint><evaluationMode>automatic</evaluationMode><comment><text>233.3282504067129</text><id>DFX:rectilinearity</id></comment><comment><text>175.38280428940297</text><id>SNR</id></comment></pick><pick publicID="de.gempa.tb1.Pick/20250414101808.180794.137327"><time><value>2025-04-14T10:18:01.44Z</value></time><waveformID networkCode="CX" stationCode="PB10" channelCode="HHZ"/><filterID>ITAPER(4)&gt;&gt;BW(4,4,20)</filterID><methodID>AIC</methodID><horizontalSlowness><value>7.032678360290583</value></horizontalSlowness><backazimuth><value>103.34655120106301</value></backazimuth><phaseHint>P</phaseHint><evaluationMode>automatic</evaluationMode><comment><text>136.39865731401432</text><id>DFX:rectilinearity</id></comment><comment><text>55.25151978250567</text><id>SNR</id></comment></pick><pick publicID="de.gempa.tb1.Pick/20250414101808.509849.137329"><time><value>2025-04-14T10:18:02.448391Z</value></time><waveformID networkCode="CX" stationCode="PB02" channelCode="HHZ"/><filterID>ITAPER(4)&gt;&gt;BW(4,4,20)</filterID><methodID>AIC</methodID><horizontalSlowness><value>8.595208267231291</value></horizontalSlowness><backazimuth><value>111.39429787235962</value></backazimuth><phaseHint>P</phaseHint><evaluationMode>automatic</evaluationMode><comment><text>42.623480028647755</text><id>DFX:rectilinearity</id></comment><comment><text>54.70529975804057</text><id>SNR</id></comment></pick><pick publicID="de.gempa.tb1.Pick/20250414101808.569421.137331"><time><value>2025-04-14T10:18:01.398393Z</value></time><waveformID networkCode="CX" stationCode="PB01" channelCode="HHZ"/><filterID>ITAPER(4)&gt;&gt;BW(4,4,20)</filterID><methodID>AIC</methodID><horizontalSlowness><value>1.0680875189155794</value></horizontalSlowness><backazimuth><value>129.40740955676262</value></backazimuth><phaseHint>P</phaseHint><evaluationMode>automatic</evaluationMode><comment><text>37.708220476162154</text><id>DFX:rectilinearity</id></comment><comment><text>121.02894064958834</text><id>SNR</id></comment></pick><pick publicID="de.gempa.tb1.Pick/20250414101813.700635.137333"><time><value>2025-04-14T10:18:08.858393Z</value></time><waveformID networkCode="CX" stationCode="PB08" channelCode="HHZ"/><filterID>ITAPER(4)&gt;&gt;BW(4,4,20)</filterID><methodID>AIC</methodID><horizontalSlowness><value>16.209096543309858</value></horizontalSlowness><backazimuth><value>206.2039951953449</value></backazimuth><phaseHint>P</phaseHint><evaluationMode>automatic</evaluationMode><comment><text>439.7113698570559</text><id>DFX:rectilinearity</id></comment><comment><text>27.978276105381134</text><id>SNR</id></comment></pick><pick publicID="de.gempa.tb1.Pick/20250414101816.340811.137335"><time><value>2025-04-14T10:18:08.509999Z</value></time><waveformID networkCode="CX" stationCode="PATCX" channelCode="HHZ"/><filterID>ITAPER(4)&gt;&gt;BW(4,4,20)</filterID><methodID>AIC</methodID><horizontalSlowness><value>21.478846849038213</value></horizontalSlowness><backazimuth><value>225.12095810555323</value></backazimuth><phaseHint>P</phaseHint><evaluationMode>automatic</evaluationMode><comment><text>122.57311026268262</text><id>DFX:rectilinearity</id></comment><comment><text>58.44965009653689</text><id>SNR</id></comment></pick><pick publicID="de.gempa.tb1.Pick/20250414101826.542404.137339"><time><value>2025-04-14T10:18:17.65Z</value></time><waveformID networkCode="CX" stationCode="PSGCX" channelCode="HHZ"/><filterID>ITAPER(4)&gt;&gt;BW(4,4,20)</filterID><methodID>AIC</methodID><horizontalSlowness><value>7.26755969914815</value></horizontalSlowness><backazimuth><value>173.2501240175153</value></backazimuth><phaseHint>P</phaseHint><evaluationMode>automatic</evaluationMode><comment><text>22.958774994523065</text><id>DFX:rectilinearity</id></comment><comment><text>48.0697671638198</text><id>SNR</id></comment></pick><pick publicID="de.gempa.tb1.Pick/20250414101830.380191.137341"><time><value>2025-04-14T10:17:59.578393Z</value></time><waveformID networkCode="CX" stationCode="PB07" channelCode="HHZ"/><filterID>ITAPER(4)&gt;&gt;BW(4,4,20)</filterID><methodID>AIC</methodID><horizontalSlowness><value>20.614736349430029</value></horizontalSlowness><backazimuth><value>116.84564848877358</value></backazimuth><phaseHint>P</phaseHint><evaluationMode>automatic</evaluationMode><comment><text>420.25594934638013</text><id>DFX:rectilinearity</id></comment><comment><text>200.81184444343876</text><id>SNR</id></comment></pick><pick publicID="de.gempa.tb1.Pick/20250414101830.733353.137343"><time><value>2025-04-14T10:18:22.348393Z</value></time><waveformID networkCode="CX" stationCode="PB15" channelCode="HHN"/><filterID>ITAPER(2)&gt;&gt;BW(3,3,20)</filterID><methodID>L2-AIC-GRID</methodID><horizontalSlowness><value>20.083755606583175</value></horizontalSlowness><backazimuth><value>129.68271209103375</value></backazimuth><phaseHint>S</phaseHint><evaluationMode>automatic</evaluationMode><comment><text>193778.1169756187</text><id>DFX:rectilinearity</id></comment><comment><text>de.gempa.tb1.Pick/20250414101755.686039.137319</text><id>RefPickID</id></comment><comment><text>8.925379114028033</text><id>SNR</id></comment></pick><pick publicID="de.gempa.tb1.Pick/20250414101831.802685.137345"><time><value>2025-04-14T10:18:20.48Z</value></time><waveformID networkCode="CX" stationCode="PB19" channelCode="HHN"/><filterID>ITAPER(2)&gt;&gt;BW(3,3,20)</filterID><methodID>L2-AIC-GRID</methodID><horizontalSlowness><value>15.637016587237497</value></horizontalSlowness><backazimuth><value>90.0741261327689</value></backazimuth><phaseHint>S</phaseHint><evaluationMode>automatic</evaluationMode><comment><text>4244.919798329679</text><id>DFX:rectilinearity</id></comment><comment><text>de.gempa.tb1.Pick/20250414101754.53782.137317</text><id>RefPickID</id></comment><comment><text>5.483025323603436</text><id>SNR</id></comment></pick><pick publicID="de.gempa.tb1.Pick/20250414101835.545437.137346"><time><value>2025-04-14T10:18:25.038393Z</value></time><waveformID networkCode="CX" stationCode="PB06" channelCode="HHN"/><filterID>ITAPER(2)&gt;&gt;BW(3,3,20)</filterID><methodID>L2-AIC-GRID</methodID><horizontalSlowness><value>22.292670851997084</value></horizontalSlowness><backazimuth><value>15.924452452469012</value></backazimuth><phaseHint>S</phaseHint><evaluationMode>automatic</evaluationMode><comment><text>6181.112959585844</text><id>DFX:rectilinearity</id></comment><comment><text>de.gempa.tb1.Pick/20250414101757.547056.137321</text><id>RefPickID</id></comment><comment><text>24.545899834012207</text><id>SNR</id></comment></pick><pick publicID="de.gempa.tb1.Pick/20250414101838.820891.137347"><time><value>2025-04-14T10:18:32.208393Z</value></time><waveformID networkCode="CX" stationCode="PB03" channelCode="HHN"/><filterID>ITAPER(2)&gt;&gt;BW(3,3,20)</filterID><methodID>L2-AIC-GRID</methodID><horizontalSlowness><value>19.548263632162353</value></horizontalSlowness><backazimuth><value>10.019853196774221</value></backazimuth><phaseHint>S</phaseHint><evaluationMode>automatic</evaluationMode><comment><text>13476.294884712455</text><id>DFX:rectilinearity</id></comment><comment><text>de.gempa.tb1.Pick/20250414101803.585834.137325</text><id>RefPickID</id></comment><comment><text>21.700794590243586</text><id>SNR</id></comment></pick><pick publicID="de.gempa.tb1.Pick/20250414101841.62973.137349"><time><value>2025-04-14T10:18:29.25Z</value></time><waveformID networkCode="CX" stationCode="PB09" channelCode="HHN"/><filterID>ITAPER(2)&gt;&gt;BW(3,3,20)</filterID><methodID>L2-AIC-GRID</methodID><horizontalSlowness><value>17.341132851258802</value></horizontalSlowness><backazimuth><value>284.04268966825305</value></backazimuth><phaseHint>S</phaseHint><evaluationMode>automatic</evaluationMode><comment><text>3812.5838244466017</text><id>DFX:rectilinearity</id></comment><comment><text>de.gempa.tb1.Pick/20250414101803.34184.137323</text><id>RefPickID</id></comment><comment><text>6.698570780103861</text><id>SNR</id></comment></pick><pick publicID="de.gempa.tb1.Pick/20250414101850.478634.137350"><time><value>2025-04-14T10:18:41.898391Z</value></time><waveformID networkCode="CX" stationCode="PB02" channelCode="HHN"/><filterID>ITAPER(2)&gt;&gt;BW(3,3,20)</filterID><methodID>L2-AIC-GRID</methodID><horizontalSlowness><value>4.564322425029933</value></horizontalSlowness><backazimuth><value>268.7713784265137</value></backazimuth><phaseHint>S</phaseHint><evaluationMode>automatic</evaluationMode><comment><text>11699.33331973921</text><id>DFX:rectilinearity</id></comment><comment><text>de.gempa.tb1.Pick/20250414101808.509849.137329</text><id>RefPickID</id></comment><comment><text>10.925657036873744</text><id>SNR</id></comment></pick><pick publicID="de.gempa.tb1.Pick/20250414101850.668038.137351"><time><value>2025-04-14T10:18:41.038393Z</value></time><waveformID networkCode="CX" stationCode="PB01" channelCode="HHN"/><filterID>ITAPER(2)&gt;&gt;BW(3,3,20)</filterID><methodID>L2-AIC-GRID</methodID><horizontalSlowness><value>20.862071888816367</value></horizontalSlowness><backazimuth><value>49.27620116815001</value></backazimuth><phaseHint>S</phaseHint><evaluationMode>automatic</evaluationMode><comment><text>3913.7550449196847</text><id>DFX:rectilinearity</id></comment><comment><text>de.gempa.tb1.Pick/20250414101808.569421.137331</text><id>RefPickID</id></comment><comment><text>12.279880055036024</text><id>SNR</id></comment></pick><pick publicID="de.gempa.tb1.Pick/20250414101851.178126.137352"><time><value>2025-04-14T10:18:37.318393Z</value></time><waveformID networkCode="CX" stationCode="PB07" channelCode="HHN"/><filterID>ITAPER(2)&gt;&gt;BW(3,3,20)</filterID><methodID>L2-AIC-GRID</methodID><horizontalSlowness><value>22.491303514307102</value></horizontalSlowness><backazimuth><value>19.812214399249342</value></backazimuth><phaseHint>S</phaseHint><evaluationMode>automatic</evaluationMode><comment><text>336980.0347641112</text><id>DFX:rectilinearity</id></comment><comment><text>de.gempa.tb1.Pick/20250414101830.380191.137341</text><id>RefPickID</id></comment><comment><text>12.881038574811814</text><id>SNR</id></comment></pick><pick publicID="de.gempa.tb1.Pick/20250414101900.559192.137353"><time><value>2025-04-14T10:18:52.989999Z</value></time><waveformID networkCode="CX" stationCode="PATCX" channelCode="HHN"/><filterID>ITAPER(2)&gt;&gt;BW(3,3,20)</filterID><methodID>L2-AIC-GRID</methodID><horizontalSlowness><value>21.46659672350836</value></horizontalSlowness><backazimuth><value>32.761047918019415</value></backazimuth><phaseHint>S</phaseHint><evaluationMode>automatic</evaluationMode><comment><text>1377.9884745965815</text><id>DFX:rectilinearity</id></comment><comment><text>de.gempa.tb1.Pick/20250414101816.340811.137335</text><id>RefPickID</id></comment><comment><text>12.039988509940077</text><id>SNR</id></comment></pick><origin publicID="de.gempa.tb1.Origin/20250414101900.567893.135000"><time><value>2025-04-14T10:17:11.334892Z</value><uncertainty>0.7230854630470276</uncertainty></time><latitude><value>-23.27589225769043</value><uncertainty>4.535264492034912</uncertainty></latitude><longitude><value>-67.57585144042969</value><uncertainty>14.9432373046875</uncertainty></longitude><depth><value>238.8923797607422</value><uncertainty>12.57098388671875</uncertainty></depth><depthType>from location</depthType><methodID>LOCSAT</methodID><earthModelID>iasp91_scanloc</earthModelID><quality><associatedPhaseCount>21</associatedPhaseCount><usedPhaseCount>21</usedPhaseCount><associatedStationCount>12</associatedStationCount><usedStationCount>12</usedStationCount><depthPhaseCount>0</depthPhaseCount><standardError>0.5745224377018582</standardError><azimuthalGap>273.44166564941406</azimuthalGap><maximumDistance>4.3622145652771</maximumDistance><minimumDistance>1.6931347846984863</minimumDistance><medianDistance>2.6346936225891113</medianDistance></quality><uncertainty><minHorizontalUncertainty>8.84469985961914</minHorizontalUncertainty><maxHorizontalUncertainty>32.28727340698242</maxHorizontalUncertainty><azimuthMaxHorizontalUncertainty>82.53075408935547</azimuthMaxHorizontalUncertainty><preferredDescription>horizontal uncertainty</preferredDescription></uncertainty><evaluationMode>automatic</evaluationMode><evaluationStatus>confirmed</evaluationStatus><comment><text>0.00</text><id>mismatchScore</id></comment><comment><text>mismatchScore</text><id>scevalMethod</id></comment><arrival><pickID>de.gempa.tb1.Pick/20250414101754.53782.137317</pickID><phase>P</phase><azimuth>247.96119689941406</azimuth><distance>1.6931347846984863</distance><timeResidual>-0.8720550537109375</timeResidual><timeUsed>true</timeUsed><horizontalSlownessUsed>false</horizontalSlownessUsed><backazimuthUsed>false</backazimuthUsed><weight>1</weight></arrival><arrival><pickID>de.gempa.tb1.Pick/20250414101755.686039.137319</pickID><phase>P</phase><azimuth>271.83721923828125</azimuth><distance>1.7443684339523315</distance><timeResidual>-0.21868133544921875</timeResidual><timeUsed>true</timeUsed><horizontalSlownessUsed>false</horizontalSlownessUsed><backazimuthUsed>false</backazimuthUsed><weight>1</weight></arrival><arrival><pickID>de.gempa.tb1.Pick/20250414101757.547056.137321</pickID><phase>P</phase><azimuth>286.7554626464844</azimuth><distance>1.9248603582382202</distance><timeResidual>-0.01218414306640625</timeResidual><timeUsed>true</timeUsed><horizontalSlownessUsed>false</horizontalSlownessUsed><backazimuthUsed>false</backazimuthUsed><weight>1</weight></arrival><arrival><pickID>de.gempa.tb1.Pick/20250414101803.34184.137323</pickID><phase>P</phase><azimuth>313.3894348144531</azimuth><distance>2.1308951377868652</distance><timeResidual>0.15552520751953125</timeResidual><timeUsed>true</timeUsed><horizontalSlownessUsed>false</horizontalSlownessUsed><backazimuthUsed>false</backazimuthUsed><weight>1</weight></arrival><arrival><pickID>de.gempa.tb1.Pick/20250414101803.585834.137325</pickID><phase>P</phase><azimuth>300.8551025390625</azimuth><distance>2.353029489517212</distance><timeResidual>0.14938735961914062</timeResidual><timeUsed>true</timeUsed><horizontalSlownessUsed>false</horizontalSlownessUsed><backazimuthUsed>false</backazimuthUsed><weight>1</weight></arrival><arrival><pickID>de.gempa.tb1.Pick/20250414101808.180794.137327</pickID><phase>P</phase><azimuth>264.4743347167969</azimuth><distance>2.7464163303375244</distance><timeResidual>0.9946556091308594</timeResidual><timeUsed>true</timeUsed><horizontalSlownessUsed>false</horizontalSlownessUsed><backazimuthUsed>false</backazimuthUsed><weight>1</weight></arrival><arrival><pickID>de.gempa.tb1.Pick/20250414101808.509849.137329</pickID><phase>P</phase><azimuth>311.73419189453125</azimuth><distance>2.899381637573242</distance><timeResidual>0.3331031799316406</timeResidual><timeUsed>true</timeUsed><horizontalSlownessUsed>false</horizontalSlownessUsed><backazimuthUsed>false</backazimuthUsed><weight>1</weight></arrival><arrival><pickID>de.gempa.tb1.Pick/20250414101808.569421.137331</pickID><phase>P</phase><azimuth>321.06414794921875</azimuth><distance>2.841914653778076</distance><timeResidual>-0.09928512573242188</timeResidual><timeUsed>true</timeUsed><horizontalSlownessUsed>false</horizontalSlownessUsed><backazimuthUsed>false</backazimuthUsed><weight>1</weight></arrival><arrival><pickID>de.gempa.tb1.Pick/20250414101813.700635.137333</pickID><phase>P</phase><azimuth>334.51953125</azimuth><distance>3.4470996856689453</distance><timeResidual>0.5776481628417969</timeResidual><timeUsed>true</timeUsed><horizontalSlownessUsed>false</horizontalSlownessUsed><backazimuthUsed>false</backazimuthUsed><weight>1</weight></arrival><arrival><pickID>de.gempa.tb1.Pick/20250414101816.340811.137335</pickID><phase>P</phase><azimuth>315.1345520019531</azimuth><distance>3.418257236480713</distance><timeResidual>0.5672073364257812</timeResidual><timeUsed>true</timeUsed><horizontalSlownessUsed>false</horizontalSlownessUsed><backazimuthUsed>false</backazimuthUsed><weight>1</weight></arrival><arrival><pickID>de.gempa.tb1.Pick/20250414101826.542404.137339</pickID><phase>P</phase><azimuth>326.5738220214844</azimuth><distance>4.3622145652771</distance><timeResidual>-1.4131126403808594</timeResidual><timeUsed>true</timeUsed><horizontalSlownessUsed>false</horizontalSlownessUsed><backazimuthUsed>false</backazimuthUsed><weight>1</weight></arrival><arrival><pickID>de.gempa.tb1.Pick/20250414101830.380191.137341</pickID><phase>P</phase><azimuth>305.37261962890625</azimuth><distance>2.6346936225891113</distance><timeResidual>0.2976264953613281</timeResidual><timeUsed>true</timeUsed><horizontalSlownessUsed>false</horizontalSlownessUsed><backazimuthUsed>false</backazimuthUsed><weight>1</weight></arrival><arrival><pickID>de.gempa.tb1.Pick/20250414101830.733353.137343</pickID><phase>S</phase><azimuth>271.83721923828125</azimuth><distance>1.7443684339523315</distance><timeResidual>0.4310951232910156</timeResidual><timeUsed>true</timeUsed><horizontalSlownessUsed>false</horizontalSlownessUsed><backazimuthUsed>false</backazimuthUsed><weight>1</weight></arrival><arrival><pickID>de.gempa.tb1.Pick/20250414101831.802685.137345</pickID><phase>S</phase><az