<?xml version="1.0" encoding="UTF-8"?>
<seiscomp xmlns="http://geofon.gfz-potsdam.de/ns/seiscomp3-schema/0.13" version="0.13"><EventParameters><pick publicID="de.gempa.tb1.Pick/20250412215408.574338.127064"><time><value>2025-04-12T21:54:01.268393Z</value></time><waveformID networkCode="CX" stationCode="PB01" channelCode="HHZ"/><filterID>ITAPER(4)&gt;&gt;BW(4,4,20)</filterID><methodID>AIC</methodID><horizontalSlowness><value>12.721942217196547</value></horizontalSlowness><backazimuth><value>47.69509106097257</value></backazimuth><phaseHint>P</phaseHint><evaluationMode>automatic</evaluationMode><comment><text>46.03907282280369</text><id>DFX:rectilinearity</id></comment><comment><text>7.322907055564758</text><id>SNR</id></comment></pick><pick publicID="de.gempa.tb1.Pick/20250412215414.541691.127066"><time><value>2025-04-12T21:54:09.018393Z</value></time><waveformID networkCode="CX" stationCode="PB02" channelCode="HHZ"/><filterID>ITAPER(4)&gt;&gt;BW(4,4,20)</filterID><methodID>AIC</methodID><horizontalSlowness><value>9.585303883639337</value></horizontalSlowness><backazimuth><value>57.62547501270322</value></backazimuth><phaseHint>P</phaseHint><evaluationMode>automatic</evaluationMode><comment><text>116.52216548141372</text><id>DFX:rectilinearity</id></comment><comment><text>16.730874433821832</text><id>SNR</id></comment></pick><pick publicID="de.gempa.tb1.Pick/20250412215416.659915.127068"><time><value>2025-04-12T21:54:10.098393Z</value></time><waveformID networkCode="CX" stationCode="PB01" channelCode="HHN"/><filterID>ITAPER(2)&gt;&gt;BW(3,3,20)</filterID><methodID>L2-AIC-GRID</methodID><horizontalSlowness><value>20.092143150880972</value></horizontalSlowness><backazimuth><value>77.56109987251699</value></backazimuth><phaseHint>S</phaseHint><evaluationMode>automatic</evaluationMode><comment><text>164.24974975792011</text><id>DFX:rectilinearity</id></comment><comment><text>de.gempa.tb1.Pick/20250412215408.574338.127064</text><id>RefPickID</id></comment><comment><text>5.646085238530153</text><id>SNR</id></comment></pick><pick publicID="de.gempa.tb1.Pick/20250412215416.997627.127069"><time><value>2025-04-12T21:54:05.070001Z</value></time><waveformID networkCode="CX" stationCode="PB09" channelCode="HHZ"/><filterID>ITAPER(4)&gt;&gt;BW(4,4,20)</filterID><methodID>AIC</methodID><horizontalSlowness><value>1.5223314539732569</value></horizontalSlowness><backazimuth><value>164.78910357852249</value></backazimuth><phaseHint>P</phaseHint><evaluationMode>automatic</evaluationMode><comment><text>18.746960268536728</text><id>DFX:rectilinearity</id></comment><comment><text>19.922438989223991</text><id>SNR</id></comment></pick><pick publicID="de.gempa.tb1.Pick/20250412215424.564151.127071"><time><value>2025-04-12T21:54:11.848393Z</value></time><waveformID networkCode="CX" stationCode="PB07" channelCode="HHZ"/><filterID>ITAPER(4)&gt;&gt;BW(4,4,20)</filterID><methodID>AIC</methodID><horizontalSlowness><value>22.513611721602505</value></horizontalSlowness><backazimuth><value>83.14230844920698</value></backazimuth><phaseHint>P</phaseHint><evaluationMode>automatic</evaluationMode><comment><text>520.7432048892075</text><id>DFX:rectilinearity</id></comment><comment><text>13.423239764324014</text><id>SNR</id></comment></pick><pick publicID="de.gempa.tb1.Pick/20250412215429.550561.127077"><time><value>2025-04-12T21:54:21.63Z</value></time><waveformID networkCode="CX" stationCode="PSGCX" channelCode="HHZ"/><filterID>ITAPER(4)&gt;&gt;BW(4,4,20)</filterID><methodID>AIC</methodID><horizontalSlowness><value>10.07278788906428</value></horizontalSlowness><backazimuth><value>158.52648239350958</value></backazimuth><phaseHint>P</phaseHint><evaluationMode>automatic</evaluationMode><comment><text>41.619288113632877</text><id>DFX:rectilinearity</id></comment><comment><text>10.831611132868456</text><id>SNR</id></comment></pick><pick publicID="de.gempa.tb1.Pick/20250412215429.551106.127079"><time><value>2025-04-12T21:54:13.970001Z</value></time><waveformID networkCode="CX" stationCode="PB09" channelCode="HHN"/><filterID>ITAPER(2)&gt;&gt;BW(3,3,20)</filterID><methodID>L2-AIC-GRID</methodID><horizontalSlowness><value>12.87524765714802</value></horizontalSlowness><backazimuth><value>26.009410130699365</value></backazimuth><phaseHint>S</phaseHint><evaluationMode>automatic</evaluationMode><comment><text>197.7212859929045</text><id>DFX:rectilinearity</id></comment><comment><text>de.gempa.tb1.Pick/20250412215416.997627.127069</text><id>RefPickID</id></comment><comment><text>5.371448087358615</text><id>SNR</id></comment></pick><pick publicID="de.gempa.tb1.Pick/20250412215441.566503.127083"><time><value>2025-04-12T21:54:18.308393Z</value></time><waveformID networkCode="CX" stationCode="PB02" channelCode="HHN"/><filterID>ITAPER(2)&gt;&gt;BW(3,3,20)</filterID><methodID>L2-AIC-GRID</methodID><horizontalSlowness><value>11.679102438349705</value></horizontalSlowness><backazimuth><value>50.80997715441848</value></backazimuth><phaseHint>S</phaseHint><evaluationMode>automatic</evaluationMode><comment><text>1394.2627146428106</text><id>DFX:rectilinearity</id></comment><comment><text>de.gempa.tb1.Pick/20250412215414.541691.127066</text><id>RefPickID</id></comment><comment><text>5.754880374584613</text><id>SNR</id></comment></pick><origin publicID="de.gempa.tb1.Origin/20250412215441.570289.93492"><time><value>2025-04-12T21:53:52.462534Z</value><uncertainty>0.9475248456001282</uncertainty></time><latitude><value>-21.180261611938477</value><uncertainty>3.580239772796631</uncertainty></latitude><longitude><value>-69.02737426757812</value><uncertainty>6.225529670715332</uncertainty></longitude><depth><value>30.56251525878906</value><uncertainty>6.982761859893799</uncertainty></depth><depthType>from location</depthType><methodID>LOCSAT</methodID><earthModelID>iasp91_scanloc</earthModelID><quality><associatedPhaseCount>8</associatedPhaseCount><usedPhaseCount>8</usedPhaseCount><associatedStationCount>5</associatedStationCount><usedStationCount>5</usedStationCount><depthPhaseCount>0</depthPhaseCount><standardError>1.0650851585782655</standardError><azimuthalGap>231.3318786621094</azimuthalGap><maximumDistance>1.8807369470596313</maximumDistance><minimumDistance>0.4506396651268005</minimumDistance><medianDistance>0.8220983743667603</medianDistance></quality><uncertainty><minHorizontalUncertainty>6.855550765991211</minHorizontalUncertainty><maxHorizontalUncertainty>13.797611236572266</maxHorizontalUncertainty><azimuthMaxHorizontalUncertainty>73.18657684326172</azimuthMaxHorizontalUncertainty><preferredDescription>horizontal uncertainty</preferredDescription></uncertainty><evaluationMode>automatic</evaluationMode><evaluationStatus>confirmed</evaluationStatus><comment><text>0.14</text><id>mismatchScore</id></comment><comment><text>mismatchScore</text><id>scevalMethod</id></comment><arrival><pickID>de.gempa.tb1.Pick/20250412215408.574338.127064</pickID><phase>P</phase><azimuth>287.52960205078125</azimuth><distance>0.4506396651268005</distance><timeResidual>-0.8758296966552734</timeResidual><timeUsed>true</timeUsed><horizontalSlownessUsed>false</horizontalSlownessUsed><backazimuthUsed>false</backazimuthUsed><weight>1</weight></arrival><arrival><pickID>de.gempa.tb1.Pick/20250412215414.541691.127066</pickID><phase>P</phase><azimuth>260.1250305175781</azimuth><distance>0.8220983743667603</distance><timeResidual>1.0481834411621094</timeResidual><timeUsed>true</timeUsed><horizontalSlownessUsed>false</horizontalSlownessUsed><backazimuthUsed>false</backazimuthUsed><weight>1</weight></arrival><arrival><pickID>de.gempa.tb1.Pick/20250412215416.659915.127068</pickID><phase>S</phase><azimuth>287.52960205078125</azimuth><distance>0.4506396651268005</distance><timeResidual>0.8823347091674805</timeResidual><timeUsed>true</timeUsed><horizontalSlownessUsed>false</horizontalSlownessUsed><backazimuthUsed>false</backazimuthUsed><weight>1</weight></arrival><arrival><pickID>de.gempa.tb1.Pick/20250412215416.997627.127069</pickID><phase>P</phase><azimuth>198.01235961914062</azimuth><distance>0.6448292136192322</distance><timeResidual>-0.17138957977294922</timeResidual><timeUsed>true</timeUsed><horizontalSlownessUsed>false</horizontalSlownessUsed><backazimuthUsed>false</backazimuthUsed><weight>1</weight></arrival><arrival><pickID>de.gempa.tb1.Pick/20250412215424.564151.127071</pickID><phase>P</phase><azimuth>235.6429443359375</azimuth><distance>0.9672885537147522</distance><timeResidual>1.8971014022827148</timeResidual><timeUsed>true</timeUsed><horizontalSlownessUsed>false</horizontalSlownessUsed><backazimuthUsed>false</backazimuthUsed><weight>1</weight></arrival><arrival><pickID>de.gempa.tb1.Pick/20250412215429.550561.127077</pickID><phase>P</phase><azimuth>326.68048095703125</azimuth><distance>1.8807369470596313</distance><timeResidual>-0.8996858596801758</timeResidual><timeUsed>true</timeUsed><horizontalSlownessUsed>false</horizontalSlownessUsed><backazimuthUsed>false</backazimuthUsed><weight>1</weight></arrival><arrival><pickID>de.gempa.tb1.Pick/20250412215429.551106.127079</pickID><phase>S</phase><azimuth>198.01235961914062</azimuth><distance>0.6448292136192322</distance><timeResidual>-0.6056938171386719</timeResidual><timeUsed>true</timeUsed><horizontalSlownessUsed>false</horizontalSlownessUsed><backazimuthUsed>false</backazimuthUsed><weight>1</weight></arrival><arrival><pickID>de.gempa.tb1.Pick/20250412215441.566503.127083</pickID><phase>S</phase><azimuth>260.1250305175781</azimuth><distance>0.8220983743667603</distance><timeResidual>-1.2752656936645508</timeResidual><timeUsed>true</timeUsed><horizontalSlownessUsed>false</horizontalSlownessUsed><backazimuthUsed>false</backazimuthUsed><weight>1</weight></arrival><magnitude publicID="de.gempa.tb1.Magnitude/20250412215441.575546.287292"><magnitude><value>2.368821702646605</value></magnitude><type>M</type><methodID>weighted average</methodID><stationCount>5</stationCount></magnitude></origin><event publicID="gempa2025hgga"><preferredOriginID>de.gempa.tb1.Origin/20250412215441.570289.93492</preferredOriginID><preferredMagnitudeID>de.gempa.tb1.Magnitude/20250412215441.575546.287292</preferredMagnitudeID><description><text>Northern Chile</text><type>region name</type></description><originReference>de.gempa.tb1.Origin/20250412215441.570289.93492</originReference></event></EventParameters></seiscomp>