<?xml version="1.0" encoding="UTF-8"?>
<seiscomp xmlns="http://geofon.gfz-potsdam.de/ns/seiscomp3-schema/0.13" version="0.13"><EventParameters><pick publicID="de.gempa.tb1.Pick/20250411092805.639339.118079"><time><value>2025-04-11T09:28:00.039998Z</value></time><waveformID networkCode="CX" stationCode="PB19" channelCode="HHZ"/><filterID>ITAPER(4)&gt;&gt;BW(4,4,20)</filterID><methodID>AIC</methodID><horizontalSlowness><value>14.890852857632884</value></horizontalSlowness><backazimuth><value>204.09275674852842</value></backazimuth><phaseHint>P</phaseHint><evaluationMode>automatic</evaluationMode><comment><text>217.4929014821737</text><id>DFX:rectilinearity</id></comment><comment><text>37.265997039170834</text><id>SNR</id></comment></pick><pick publicID="de.gempa.tb1.Pick/20250411092812.637825.118082"><time><value>2025-04-11T09:28:07.938393Z</value></time><waveformID networkCode="CX" stationCode="PB15" channelCode="HHZ"/><filterID>ITAPER(4)&gt;&gt;BW(4,4,20)</filterID><methodID>AIC</methodID><horizontalSlowness><value>20.735221811798855</value></horizontalSlowness><backazimuth><value>148.04959777164086</value></backazimuth><phaseHint>P</phaseHint><evaluationMode>automatic</evaluationMode><comment><text>785.6181443940031</text><id>DFX:rectilinearity</id></comment><comment><text>10.507403975706824</text><id>SNR</id></comment></pick><pick publicID="de.gempa.tb1.Pick/20250411092819.552531.118084"><time><value>2025-04-11T09:28:12.508393Z</value></time><waveformID networkCode="CX" stationCode="PB06" channelCode="HHZ"/><filterID>ITAPER(4)&gt;&gt;BW(4,4,20)</filterID><methodID>AIC</methodID><horizontalSlowness><value>17.481929311226448</value></horizontalSlowness><backazimuth><value>217.752120126401</value></backazimuth><phaseHint>P</phaseHint><evaluationMode>automatic</evaluationMode><comment><text>52.98626441795501</text><id>DFX:rectilinearity</id></comment><comment><text>15.054279267257487</text><id>SNR</id></comment></pick><pick publicID="de.gempa.tb1.Pick/20250411092839.634763.118086"><time><value>2025-04-11T09:28:28.029998Z</value></time><waveformID networkCode="CX" stationCode="PB19" channelCode="HHN"/><filterID>ITAPER(2)&gt;&gt;BW(3,3,20)</filterID><methodID>L2-AIC-GRID</methodID><horizontalSlowness><value>17.67403143708093</value></horizontalSlowness><backazimuth><value>272.9335216868012</value></backazimuth><phaseHint>S</phaseHint><evaluationMode>automatic</evaluationMode><comment><text>2053.0445058996502</text><id>DFX:rectilinearity</id></comment><comment><text>de.gempa.tb1.Pick/20250411092805.639339.118079</text><id>RefPickID</id></comment><comment><text>5.950022456183068</text><id>SNR</id></comment></pick><pick publicID="de.gempa.tb1.Pick/20250411092843.549551.118087"><time><value>2025-04-11T09:28:33.898393Z</value></time><waveformID networkCode="CX" stationCode="PB01" channelCode="HHZ"/><filterID>ITAPER(4)&gt;&gt;BW(4,4,20)</filterID><methodID>AIC</methodID><horizontalSlowness><value>22.147019930565637</value></horizontalSlowness><backazimuth><value>235.7851648056783</value></backazimuth><phaseHint>P</phaseHint><evaluationMode>automatic</evaluationMode><comment><text>7.583921995687517</text><id>DFX:rectilinearity</id></comment><comment><text>9.876017875661168</text><id>SNR</id></comment></pick><pick publicID="de.gempa.tb1.Pick/20250411092848.195358.118089"><time><value>2025-04-11T09:28:26.29Z</value></time><waveformID networkCode="CX" stationCode="PB09" channelCode="HHZ"/><filterID>ITAPER(4)&gt;&gt;BW(4,4,20)</filterID><methodID>AIC</methodID><horizontalSlowness><value>17.227692431094482</value></horizontalSlowness><backazimuth><value>301.52417041504094</value></backazimuth><phaseHint>P</phaseHint><evaluationMode>automatic</evaluationMode><comment><text>12.806630289403197</text><id>DFX:rectilinearity</id></comment><comment><text>23.570680859003716</text><id>SNR</id></comment></pick><pick publicID="de.gempa.tb1.Pick/20250411092900.536094.118091"><time><value>2025-04-11T09:28:24.198393Z</value></time><waveformID networkCode="CX" stationCode="PB07" channelCode="HHZ"/><filterID>ITAPER(4)&gt;&gt;BW(4,4,20)</filterID><methodID>AIC</methodID><horizontalSlowness><value>21.827948507396172</value></horizontalSlowness><backazimuth><value>99.68872062267782</value></backazimuth><phaseHint>P</phaseHint><evaluationMode>automatic</evaluationMode><comment><text>176.1778152383834</text><id>DFX:rectilinearity</id></comment><comment><text>11.530124916879345</text><id>SNR</id></comment></pick><origin publicID="de.gempa.tb1.Origin/20250411092901.362038.57225"><time><value>2025-04-11T09:27:24.438458Z</value><uncertainty>2.4018023014068604</uncertainty></time><latitude><value>-25.44394302368164</value><uncertainty>23.470544815063477</uncertainty></latitude><longitude><value>-70.82933044433594</value><uncertainty>12.323933601379395</uncertainty></longitude><depth><value>0</value></depth><depthType>operator assigned</depthType><methodID>LOCSAT</methodID><earthModelID>iasp91_scanloc</earthModelID><quality><associatedPhaseCount>7</associatedPhaseCount><usedPhaseCount>7</usedPhaseCount><associatedStationCount>6</associatedStationCount><usedStationCount>6</usedStationCount><depthPhaseCount>0</depthPhaseCount><standardError>0.5111164849030874</standardError><azimuthalGap>330.61923789978027</azimuthalGap><maximumDistance>4.550826549530029</maximumDistance><minimumDistance>2.0754780769348145</minimumDistance><medianDistance>2.9582033157348633</medianDistance></quality><uncertainty><minHorizontalUncertainty>19.59361457824707</minHorizontalUncertainty><maxHorizontalUncertainty>53.36757278442383</maxHorizontalUncertainty><azimuthMaxHorizontalUncertainty>159.06503295898438</azimuthMaxHorizontalUncertainty><preferredDescription>horizontal uncertainty</preferredDescription></uncertainty><evaluationMode>automatic</evaluationMode><evaluationStatus>confirmed</evaluationStatus><comment><text>0.32</text><id>mismatchScore</id></comment><comment><text>mismatchScore</text><id>scevalMethod</id></comment><arrival><pickID>de.gempa.tb1.Pick/20250411092805.639339.118079</pickID><phase>P</phase><azimuth>42.73269271850586</azimuth><distance>2.0754780769348145</distance><timeResidual>-0.4811439514160156</timeResidual><timeUsed>true</timeUsed><horizontalSlownessUsed>false</horizontalSlownessUsed><backazimuthUsed>false</backazimuthUsed><weight>1</weight></arrival><arrival><pickID>de.gempa.tb1.Pick/20250411092812.637825.118082</pickID><phase>P</phase><azimuth>29.389041900634766</azimuth><distance>2.5473484992980957</distance><timeResidual>0.9227981567382812</timeResidual><timeUsed>true</timeUsed><horizontalSlownessUsed>false</horizontalSlownessUsed><backazimuthUsed>false</backazimuthUsed><weight>1</weight></arrival><arrival><pickID>de.gempa.tb1.Pick/20250411092819.552531.118084</pickID><phase>P</phase><azimuth>23.12031555175781</azimuth><distance>2.9582033157348633</distance><timeResidual>-0.16174697875976562</timeResidual><timeUsed>true</timeUsed><horizontalSlownessUsed>false</horizontalSlownessUsed><backazimuthUsed>false</backazimuthUsed><weight>1</weight></arrival><arrival><pickID>de.gempa.tb1.Pick/20250411092839.634763.118086</pickID><phase>S</phase><azimuth>42.73269271850586</azimuth><distance>2.0754780769348145</distance><timeResidual>-0.04125213623046875</timeResidual><timeUsed>true</timeUsed><horizontalSlownessUsed>false</horizontalSlownessUsed><backazimuthUsed>false</backazimuthUsed><weight>1</weight></arrival><arrival><pickID>de.gempa.tb1.Pick/20250411092843.549551.118087</pickID><phase>P</phase><azimuth>16.004526138305664</azimuth><distance>4.550826549530029</distance><timeResidual>-0.6823921203613281</timeResidual><timeUsed>true</timeUsed><horizontalSlownessUsed>false</horizontalSlownessUsed><backazimuthUsed>false</backazimuthUsed><weight>1</weight></arrival><arrival><pickID>de.gempa.tb1.Pick/20250411092848.195358.118089</pickID><phase>P</phase><azimuth>22.171388626098633</azimuth><distance>3.9118311405181885</distance><timeResidual>0.4990310668945312</timeResidual><timeUsed>true</timeUsed><horizontalSlownessUsed>false</horizontalSlownessUsed><backazimuthUsed>false</backazimuthUsed><weight>1</weight></arrival><arrival><pickID>de.gempa.tb1.Pick/20250411092900.536094.118091</pickID><phase>P</phase><azimuth>13.351930618286133</azimuth><distance>3.8000757694244385</distance><timeResidual>-0.0554046630859375</timeResidual><timeUsed>true</timeUsed><horizontalSlownessUsed>false</horizontalSlownessUsed><backazimuthUsed>false</backazimuthUsed><weight>1</weight></arrival><magnitude publicID="de.gempa.tb1.Magnitude/20250411092901.366171.111569"><magnitude><value>3.302888277864103</value></magnitude><type>M</type><methodID>weighted average</methodID><stationCount>5</stationCount></magnitude></origin><event publicID="gempa2025hdlc"><preferredOriginID>de.gempa.tb1.Origin/20250411092901.362038.57225</preferredOriginID><preferredMagnitudeID>de.gempa.tb1.Magnitude/20250411092901.366171.111569</preferredMagnitudeID><description><text>Near Coast of Northern Chile</text><type>region name</type></description><originReference>de.gempa.tb1.Origin/20250411092901.362038.57225</originReference></event></EventParameters></seiscomp>