<?xml version="1.0" encoding="UTF-8"?>
<seiscomp xmlns="http://geofon.gfz-potsdam.de/ns/seiscomp3-schema/0.13" version="0.13"><EventParameters><pick publicID="de.gempa.tb1.Pick/20250413092210.080681.122691"><time><value>2025-04-13T09:21:52.069538Z</value></time><waveformID networkCode="GE" stationCode="KBS" locationCode="00" channelCode="BHZ"/><filterID>BW(4,0.7,2)</filterID><methodID>AIC</methodID><horizontalSlowness><value>8.824139913922856</value></horizontalSlowness><backazimuth><value>64.8486604351393</value></backazimuth><phaseHint>P</phaseHint><evaluationMode>automatic</evaluationMode><comment><text>11472.600671159995</text><id>DFX:rectilinearity</id></comment></pick><pick publicID="de.gempa.tb1.Pick/20250413092221.291455.122696"><time><value>2025-04-13T09:22:01.569541Z</value></time><waveformID networkCode="GE" stationCode="TNTI" channelCode="BHZ"/><filterID>BW(4,0.7,2)</filterID><methodID>AIC</methodID><horizontalSlowness><value>21.906277325180824</value></horizontalSlowness><backazimuth><value>152.5719150442334</value></backazimuth><phaseHint>P</phaseHint><evaluationMode>automatic</evaluationMode><comment><text>17492.330149013262</text><id>DFX:rectilinearity</id></comment></pick><pick publicID="de.gempa.tb1.Pick/20250413092231.310477.122699"><time><value>2025-04-13T09:22:17.819538Z</value></time><waveformID networkCode="GE" stationCode="FAKI" channelCode="BHZ"/><filterID>BW(4,0.7,2)</filterID><methodID>AIC</methodID><horizontalSlowness><value>5.34409376015441</value></horizontalSlowness><backazimuth><value>7.873164731319861</value></backazimuth><phaseHint>P</phaseHint><evaluationMode>automatic</evaluationMode><comment><text>14595.37448894224</text><id>DFX:rectilinearity</id></comment></pick><pick publicID="de.gempa.tb1.Pick/20250413092242.981879.122702"><time><value>2025-04-13T09:22:23.025Z</value></time><waveformID networkCode="GE" stationCode="DAG" channelCode="BHZ"/><filterID>BW(4,0.7,2)</filterID><methodID>AIC</methodID><horizontalSlowness><value>7.756903299152426</value></horizontalSlowness><backazimuth><value>16.429559171149066</value></backazimuth><phaseHint>P</phaseHint><evaluationMode>automatic</evaluationMode><comment><text>8801.544585200643</text><id>DFX:rectilinearity</id></comment></pick><pick publicID="de.gempa.tb1.Pick/20250413092248.184653.122704"><time><value>2025-04-13T09:22:33.119538Z</value></time><waveformID networkCode="GE" stationCode="BNDI" channelCode="BHZ"/><filterID>BW(4,0.7,2)</filterID><methodID>AIC</methodID><horizontalSlowness><value>22.361092495832068</value></horizontalSlowness><backazimuth><value>328.69377009575044</value></backazimuth><phaseHint>P</phaseHint><evaluationMode>automatic</evaluationMode><comment><text>180847.6937942027</text><id>DFX:rectilinearity</id></comment></pick><pick publicID="de.gempa.tb1.Pick/20250413092248.680337.122706"><time><value>2025-04-13T09:22:23.919538Z</value></time><waveformID networkCode="GE" stationCode="SANI" channelCode="BHZ"/><filterID>BW(4,0.7,2)</filterID><methodID>AIC</methodID><horizontalSlowness><value>13.100976441980452</value></horizontalSlowness><backazimuth><value>297.2410385401265</value></backazimuth><phaseHint>P</phaseHint><evaluationMode>automatic</evaluationMode><comment><text>23759.782150958294</text><id>DFX:rectilinearity</id></comment></pick><pick publicID="de.gempa.tb1.Pick/20250413092259.298597.122711"><time><value>2025-04-13T09:22:45.02186Z</value></time><waveformID networkCode="GE" stationCode="BKB" channelCode="BHZ"/><filterID>BW(4,0.7,2)</filterID><methodID>AIC</methodID><horizontalSlowness><value>17.120120350128293</value></horizontalSlowness><backazimuth><value>43.258201128220833</value></backazimuth><phaseHint>P</phaseHint><evaluationMode>automatic</evaluationMode><comment><text>47889.2910297554</text><id>DFX:rectilinearity</id></comment></pick><pick publicID="de.gempa.tb1.Pick/20250413092307.768908.122716"><time><value>2025-04-13T09:22:37.745Z</value></time><waveformID networkCode="FN" stationCode="SGF" channelCode="BHZ"/><filterID>BW(4,0.7,2)</filterID><methodID>AIC</methodID><horizontalSlowness><value>6.838478502827404</value></horizontalSlowness><backazimuth><value>40.709653237472224</value></backazimuth><phaseHint>P</phaseHint><evaluationMode>automatic</evaluationMode><comment><text>37212.591140968187</text><id>DFX:rectilinearity</id></comment></pick><origin publicID="de.gempa.tb1.Origin/20250413092328.340916.137153"><time><value>2025-04-13T09:13:07.428425Z</value><uncertainty>10.734329223632812</uncertainty></time><latitude><value>48.65506744384766</value><uncertainty>9.265597343444824</uncertainty></latitude><longitude><value>150.4830780029297</value><uncertainty>46.09379959106445</uncertainty></longitude><depth><value>118.5670394897461</value><uncertainty>103.84178161621094</uncertainty></depth><depthType>from location</depthType><methodID>LOCSAT</methodID><earthModelID>iasp91</earthModelID><quality><associatedPhaseCount>8</associatedPhaseCount><usedPhaseCount>8</usedPhaseCount><associatedStationCount>8</associatedStationCount><usedStationCount>8</usedStationCount><depthPhaseCount>0</depthPhaseCount><standardError>0.7221727693461372</standardError><azimuthalGap>205.8448486328125</azimuthalGap><maximumDistance>57.4544792175293</maximumDistance><minimumDistance>50.34027099609375</minimumDistance><medianDistance>54.79973220825195</medianDistance></quality><uncertainty><minHorizontalUncertainty>12.481497764587402</minHorizontalUncertainty><maxHorizontalUncertainty>100.06440734863281</maxHorizontalUncertainty><azimuthMaxHorizontalUncertainty>98.96086883544922</azimuthMaxHorizontalUncertainty><preferredDescription>horizontal uncertainty</preferredDescription></uncertainty><evaluationMode>automatic</evaluationMode><arrival><pickID>de.gempa.tb1.Pick/20250413092210.080681.122691</pickID><phase>P</phase><azimuth>350.4210510253906</azimuth><distance>50.34027099609375</distance><timeResidual>0.75244140625</timeResidual><timeUsed>true</timeUsed><horizontalSlownessUsed>false</horizontalSlownessUsed><backazimuthUsed>false</backazimuthUsed><weight>1</weight></arrival><arrival><pickID>de.gempa.tb1.Pick/20250413092221.291455.122696</pickID><phase>P</phase><azimuth>210.01593017578125</azimuth><distance>51.69775009155273</distance><timeResidual>-0.6402587890625</timeResidual><timeUsed>true</timeUsed><horizontalSlownessUsed>false</horizontalSlownessUsed><backazimuthUsed>false</backazimuthUsed><weight>1</weight></arrival><arrival><pickID>de.gempa.tb1.Pick/20250413092231.310477.122699</pickID><phase>P</phase><azimuth>202.79513549804688</azimuth><distance>53.76359176635742</distance><timeResidual>0.42559814453125</timeResidual><timeUsed>true</timeUsed><horizontalSlownessUsed>false</horizontalSlownessUsed><backazimuthUsed>false</backazimuthUsed><weight>1</weight></arrival><arrival><pickID>de.gempa.tb1.Pick/20250413092242.981879.122702</pickID><phase>P</phase><azimuth>356.9502868652344</azimuth><distance>54.65862655639648</distance><timeResidual>-0.13690185546875</timeResidual><timeUsed>true</timeUsed><horizontalSlownessUsed>false</horizontalSlownessUsed><backazimuthUsed>false</backazimuthUsed><weight>1</weight></arrival><arrival><pickID>de.gempa.tb1.Pick/20250413092248.184653.122704</pickID><phase>P</phase><azimuth>205.02633666992188</azimuth><distance>55.92747116088867</distance><timeResidual>0.13555908203125</timeResidual><timeUsed>true</timeUsed><horizontalSlownessUsed>false</horizontalSlownessUsed><backazimuthUsed>false</backazimuthUsed><weight>1</weight></arrival><arrival><pickID>de.gempa.tb1.Pick/20250413092248.680337.122706</pickID><phase>P</phase><azimuth>210.46914672851562</azimuth><distance>54.79973220825195</distance><timeResidual>-0.99688720703125</timeResidual><timeUsed>true</timeUsed><horizontalSlownessUsed>false</horizontalSlownessUsed><backazimuthUsed>false</backazimuthUsed><weight>1</weight></arrival><arrival><pickID>de.gempa.tb1.Pick/20250413092259.298597.122711</pickID><phase>P</phase><azimuth>220.9945526123047</azimuth><distance>57.4544792175293</distance><timeResidual>1.198974609375</timeResidual><timeUsed>true</timeUsed><horizontalSlownessUsed>false</horizontalSlownessUsed><backazimuthUsed>false</backazimuthUsed><weight>1</weight></arrival><arrival><pickID>de.gempa.tb1.Pick/20250413092307.768908.122716</pickID><phase>P</phase><azimuth>337.51226806640625</azimuth><distance>56.79169464111328</distance><timeResidual>-0.73931884765625</timeResidual><timeUsed>true</timeUsed><horizontalSlownessUsed>false</horizontalSlownessUsed><backazimuthUsed>false</backazimuthUsed><weight>1</weight></arrival><magnitude publicID="de.gempa.tb1.Magnitude/20250413092328.350536.336778"><magnitude><value>5.593047325197806</value></magnitude><type>M</type><methodID>weighted average</methodID><stationCount>7</stationCount></magnitude></origin><event publicID="gempa2025hhcs"><preferredOriginID>de.gempa.tb1.Origin/20250413092328.340916.137153</preferredOriginID><preferredMagnitudeID>de.gempa.tb1.Magnitude/20250413092328.350536.336778</preferredMagnitudeID><description><text>Northwest of Kuril Islands</text><type>region name</type></description><originReference>de.gempa.tb1.Origin/20250413092328.340916.137153</originReference></event></EventParameters></seiscomp>