<?xml version="1.0" encoding="UTF-8"?>
<seiscomp xmlns="http://geofon.gfz-potsdam.de/ns/seiscomp3-schema/0.13" version="0.13"><EventParameters><pick publicID="de.gempa.tb1.Pick/20250414213010.733076.141396"><time><value>2025-04-14T21:30:04.268393Z</value></time><waveformID networkCode="CX" stationCode="PB01" channelCode="HHZ"/><filterID>ITAPER(4)&gt;&gt;BW(4,4,20)</filterID><methodID>AIC</methodID><horizontalSlowness><value>11.819226093697196</value></horizontalSlowness><backazimuth><value>206.85261986058825</value></backazimuth><phaseHint>P</phaseHint><evaluationMode>automatic</evaluationMode><comment><text>19.277579222845706</text><id>DFX:rectilinearity</id></comment><comment><text>31.779137101564796</text><id>SNR</id></comment></pick><pick publicID="de.gempa.tb1.Pick/20250414213012.530295.141398"><time><value>2025-04-14T21:30:07.758394Z</value></time><waveformID networkCode="CX" stationCode="PB02" channelCode="HHZ"/><filterID>ITAPER(4)&gt;&gt;BW(4,4,20)</filterID><methodID>AIC</methodID><horizontalSlowness><value>20.848940893784562</value></horizontalSlowness><backazimuth><value>290.2791340185291</value></backazimuth><phaseHint>P</phaseHint><evaluationMode>automatic</evaluationMode><comment><text>21.485904415658425</text><id>DFX:rectilinearity</id></comment><comment><text>19.05327858643665</text><id>SNR</id></comment></pick><pick publicID="de.gempa.tb1.Pick/20250414213013.844332.141400"><time><value>2025-04-14T21:30:05.829998Z</value></time><waveformID networkCode="CX" stationCode="PB09" channelCode="HHZ"/><filterID>ITAPER(4)&gt;&gt;BW(4,4,20)</filterID><methodID>AIC</methodID><horizontalSlowness><value>19.94391960463271</value></horizontalSlowness><backazimuth><value>282.27821223548773</value></backazimuth><phaseHint>P</phaseHint><evaluationMode>automatic</evaluationMode><comment><text>18.708491438594642</text><id>DFX:rectilinearity</id></comment><comment><text>9.543453545553099</text><id>SNR</id></comment></pick><pick publicID="de.gempa.tb1.Pick/20250414213016.617286.141402"><time><value>2025-04-14T21:30:08.828393Z</value></time><waveformID networkCode="CX" stationCode="PB07" channelCode="HHZ"/><filterID>ITAPER(4)&gt;&gt;BW(4,4,20)</filterID><methodID>AIC</methodID><horizontalSlowness><value>22.730473118172167</value></horizontalSlowness><backazimuth><value>105.90327141650054</value></backazimuth><phaseHint>P</phaseHint><evaluationMode>automatic</evaluationMode><comment><text>162.13407209306317</text><id>DFX:rectilinearity</id></comment><comment><text>9.664391471257776</text><id>SNR</id></comment></pick><pick publicID="de.gempa.tb1.Pick/20250414213018.319261.141404"><time><value>2025-04-14T21:30:11.419999Z</value></time><waveformID networkCode="CX" stationCode="PATCX" channelCode="HHZ"/><filterID>ITAPER(4)&gt;&gt;BW(4,4,20)</filterID><methodID>AIC</methodID><horizontalSlowness><value>20.107163382416463</value></horizontalSlowness><backazimuth><value>80.09247740797275</value></backazimuth><phaseHint>P</phaseHint><evaluationMode>automatic</evaluationMode><comment><text>154.49770141912393</text><id>DFX:rectilinearity</id></comment><comment><text>11.752431669602379</text><id>SNR</id></comment></pick><pick publicID="de.gempa.tb1.Pick/20250414213029.775825.141406"><time><value>2025-04-14T21:30:18.118393Z</value></time><waveformID networkCode="CX" stationCode="PB01" channelCode="HHN"/><filterID>ITAPER(2)&gt;&gt;BW(3,3,20)</filterID><methodID>L2-AIC-GRID</methodID><horizontalSlowness><value>22.099178391709515</value></horizontalSlowness><backazimuth><value>36.424514739686515</value></backazimuth><phaseHint>S</phaseHint><evaluationMode>automatic</evaluationMode><comment><text>9.236875387861643</text><id>DFX:rectilinearity</id></comment><comment><text>de.gempa.tb1.Pick/20250414213010.733076.141396</text><id>RefPickID</id></comment><comment><text>5.501925980522929</text><id>SNR</id></comment></pick><pick publicID="de.gempa.tb1.Pick/20250414213034.6794.141411"><time><value>2025-04-14T21:30:26.578393Z</value></time><waveformID networkCode="CX" stationCode="PB07" channelCode="HHN"/><filterID>ITAPER(2)&gt;&gt;BW(3,3,20)</filterID><methodID>L2-AIC-GRID</methodID><horizontalSlowness><value>19.009349507572846</value></horizontalSlowness><backazimuth><value>246.00830133097566</value></backazimuth><phaseHint>S</phaseHint><evaluationMode>automatic</evaluationMode><comment><text>206.5661125489619</text><id>DFX:rectilinearity</id></comment><comment><text>de.gempa.tb1.Pick/20250414213016.617286.141402</text><id>RefPickID</id></comment><comment><text>7.449326707157638</text><id>SNR</id></comment></pick><origin publicID="de.gempa.tb1.Origin/20250414213034.682501.151461"><time><value>2025-04-14T21:29:46.941434Z</value><uncertainty>1.295433759689331</uncertainty></time><latitude><value>-21.17512321472168</value><uncertainty>8.641931533813477</uncertainty></latitude><longitude><value>-68.86503601074219</value><uncertainty>13.256444931030273</uncertainty></longitude><depth><value>110.58568572998047</value><uncertainty>11.58493709564209</uncertainty></depth><depthType>from location</depthType><methodID>LOCSAT</methodID><earthModelID>iasp91_scanloc</earthModelID><quality><associatedPhaseCount>7</associatedPhaseCount><usedPhaseCount>7</usedPhaseCount><associatedStationCount>5</associatedStationCount><usedStationCount>5</usedStationCount><depthPhaseCount>0</depthPhaseCount><standardError>0.2995782510930337</standardError><azimuthalGap>283.4156799316406</azimuthalGap><maximumDistance>1.2539540529251099</maximumDistance><minimumDistance>0.5957350730895996</minimumDistance><medianDistance>0.972453773021698</medianDistance></quality><uncertainty><minHorizontalUncertainty>18.392431259155273</minHorizontalUncertainty><maxHorizontalUncertainty>28.519962310791016</maxHorizontalUncertainty><azimuthMaxHorizontalUncertainty>95.99761962890625</azimuthMaxHorizontalUncertainty><preferredDescription>horizontal uncertainty</preferredDescription></uncertainty><evaluationMode>automatic</evaluationMode><evaluationStatus>confirmed</evaluationStatus><comment><text>0.04</text><id>mismatchScore</id></comment><comment><text>mismatchScore</text><id>scevalMethod</id></comment><arrival><pickID>de.gempa.tb1.Pick/20250414213010.733076.141396</pickID><phase>P</phase><azimuth>282.61480712890625</azimuth><distance>0.5957350730895996</distance><timeResidual>-0.2885589599609375</timeResidual><timeUsed>true</timeUsed><horizontalSlownessUsed>false</horizontalSlownessUsed><backazimuthUsed>false</backazimuthUsed><weight>1</weight></arrival><arrival><pickID>de.gempa.tb1.Pick/20250414213012.530295.141398</pickID><phase>P</phase><azimuth>261.30535888671875</azimuth><distance>0.972453773021698</distance><timeResidual>-0.17952728271484375</timeResidual><timeUsed>true</timeUsed><horizontalSlownessUsed>false</horizontalSlownessUsed><backazimuthUsed>false</backazimuthUsed><weight>1</weight></arrival><arrival><pickID>de.gempa.tb1.Pick/20250414213013.844332.141400</pickID><phase>P</phase><azimuth>209.51898193359375</azimuth><distance>0.7109014987945557</distance><timeResidual>0.34949493408203125</timeResidual><timeUsed>true</timeUsed><horizontalSlownessUsed>false</horizontalSlownessUsed><backazimuthUsed>false</backazimuthUsed><weight>1</weight></arrival><arrival><pickID>de.gempa.tb1.Pick/20250414213016.617286.141402</pickID><phase>P</phase><azimuth>239.8320617675781</azimuth><distance>1.0982234477996826</distance><timeResidual>-0.41970252990722656</timeResidual><timeUsed>true</timeUsed><horizontalSlownessUsed>false</horizontalSlownessUsed><backazimuthUsed>false</backazimuthUsed><weight>1</weight></arrival><arrival><pickID>de.gempa.tb1.Pick/20250414213018.319261.141404</pickID><phase>P</phase><azimuth>286.1033020019531</azimuth><distance>1.2539540529251099</distance><timeResidual>0.454132080078125</timeResidual><timeUsed>true</timeUsed><horizontalSlownessUsed>false</horizontalSlownessUsed><backazimuthUsed>false</backazimuthUsed><weight>1</weight></arrival><arrival><pickID>de.gempa.tb1.Pick/20250414213029.775825.141406</pickID><phase>S</phase><azimuth>282.61480712890625</azimuth><distance>0.5957350730895996</distance><timeResidual>-0.006000518798828125</timeResidual><timeUsed>true</timeUsed><horizontalSlownessUsed>false</horizontalSlownessUsed><backazimuthUsed>false</backazimuthUsed><weight>1</weight></arrival><arrival><pickID>de.gempa.tb1.Pick/20250414213034.6794.141411</pickID><phase>S</phase><azimuth>239.8320617675781</azimuth><distance>1.0982234477996826</distance><timeResidual>0.09035873413085938</timeResidual><timeUsed>true</timeUsed><horizontalSlownessUsed>false</horizontalSlownessUsed><backazimuthUsed>false</backazimuthUsed><weight>1</weight></arrival><magnitude publicID="de.gempa.tb1.Magnitude/20250414213042.703312.543218"><magnitude><value>1.4670126107028707</value></magnitude><type>M</type><methodID>weighted average</methodID><stationCount>3</stationCount></magnitude></origin><event publicID="gempa2025hjxg"><preferredOriginID>de.gempa.tb1.Origin/20250414213034.682501.151461</preferredOriginID><preferredMagnitudeID>de.gempa.tb1.Magnitude/20250414213042.703312.543218</preferredMagnitudeID><description><text>Chile-Bolivia Border Region</text><type>region name</type></description><originReference>de.gempa.tb1.Origin/20250414213034.682501.151461</originReference></event></EventParameters></seiscomp>