<?xml version="1.0" encoding="UTF-8"?>
<seiscomp xmlns="http://geofon.gfz-potsdam.de/ns/seiscomp3-schema/0.13" version="0.13"><EventParameters><pick publicID="de.gempa.tb1.Pick/20250413031952.490144.128541"><time><value>2025-04-13T03:19:48.118393Z</value></time><waveformID networkCode="CX" stationCode="PB02" channelCode="HHZ"/><filterID>ITAPER(4)&gt;&gt;BW(4,4,20)</filterID><methodID>AIC</methodID><horizontalSlowness><value>2.1029825909714903</value></horizontalSlowness><backazimuth><value>348.52002298845957</value></backazimuth><phaseHint>P</phaseHint><evaluationMode>automatic</evaluationMode><comment><text>69.90763764790138</text><id>DFX:rectilinearity</id></comment><comment><text>55.489632087232</text><id>SNR</id></comment></pick><pick publicID="de.gempa.tb1.Pick/20250413031952.611958.128543"><time><value>2025-04-13T03:19:45.678393Z</value></time><waveformID networkCode="CX" stationCode="PB01" channelCode="HHZ"/><filterID>ITAPER(4)&gt;&gt;BW(4,4,20)</filterID><methodID>AIC</methodID><horizontalSlowness><value>20.426653131612113</value></horizontalSlowness><backazimuth><value>84.77151789501245</value></backazimuth><phaseHint>P</phaseHint><evaluationMode>automatic</evaluationMode><comment><text>11.105875071602458</text><id>DFX:rectilinearity</id></comment><comment><text>42.308079817951707</text><id>SNR</id></comment></pick><pick publicID="de.gempa.tb1.Pick/20250413031952.614922.128545"><time><value>2025-04-13T03:19:46.888391Z</value></time><waveformID networkCode="CX" stationCode="PB03" channelCode="HHZ"/><filterID>ITAPER(4)&gt;&gt;BW(4,4,20)</filterID><methodID>AIC</methodID><horizontalSlowness><value>8.703327688244691</value></horizontalSlowness><backazimuth><value>67.46032025474472</value></backazimuth><phaseHint>P</phaseHint><evaluationMode>automatic</evaluationMode><comment><text>88.70472117939913</text><id>DFX:rectilinearity</id></comment><comment><text>109.04875528696068</text><id>SNR</id></comment></pick><pick publicID="de.gempa.tb1.Pick/20250413031952.927278.128547"><time><value>2025-04-13T03:19:42.59Z</value></time><waveformID networkCode="CX" stationCode="PB09" channelCode="HHZ"/><filterID>ITAPER(4)&gt;&gt;BW(4,4,20)</filterID><methodID>AIC</methodID><horizontalSlowness><value>14.447892740105452</value></horizontalSlowness><backazimuth><value>95.32559172280877</value></backazimuth><phaseHint>P</phaseHint><evaluationMode>automatic</evaluationMode><comment><text>48.44562638687783</text><id>DFX:rectilinearity</id></comment><comment><text>193.28092635242646</text><id>SNR</id></comment></pick><pick publicID="de.gempa.tb1.Pick/20250413031955.614278.128549"><time><value>2025-04-13T03:19:49.458393Z</value></time><waveformID networkCode="CX" stationCode="PB06" channelCode="HHZ"/><filterID>ITAPER(4)&gt;&gt;BW(4,4,20)</filterID><methodID>AIC</methodID><horizontalSlowness><value>11.198071904765392</value></horizontalSlowness><backazimuth><value>106.66256756524409</value></backazimuth><phaseHint>P</phaseHint><evaluationMode>automatic</evaluationMode><comment><text>66.6313895685343</text><id>DFX:rectilinearity</id></comment><comment><text>32.824720461478705</text><id>SNR</id></comment></pick><pick publicID="de.gempa.tb1.Pick/20250413032009.461762.128551"><time><value>2025-04-13T03:20:01.32Z</value></time><waveformID networkCode="CX" stationCode="PB19" channelCode="HHZ"/><filterID>ITAPER(4)&gt;&gt;BW(4,4,20)</filterID><methodID>AIC</methodID><horizontalSlowness><value>11.153419801475328</value></horizontalSlowness><backazimuth><value>221.36752858657837</value></backazimuth><phaseHint>P</phaseHint><evaluationMode>automatic</evaluationMode><comment><text>23.79645399989399</text><id>DFX:rectilinearity</id></comment><comment><text>16.529287049284573</text><id>SNR</id></comment></pick><pick publicID="de.gempa.tb1.Pick/20250413032010.776608.128553"><time><value>2025-04-13T03:20:03.148393Z</value></time><waveformID networkCode="CX" stationCode="PB01" channelCode="HHN"/><filterID>ITAPER(2)&gt;&gt;BW(3,3,20)</filterID><methodID>L2-AIC-GRID</methodID><horizontalSlowness><value>17.646910226545106</value></horizontalSlowness><backazimuth><value>333.4646676384095</value></backazimuth><phaseHint>S</phaseHint><evaluationMode>automatic</evaluationMode><comment><text>551.4566952327571</text><id>DFX:rectilinearity</id></comment><comment><text>de.gempa.tb1.Pick/20250413031952.611958.128543</text><id>RefPickID</id></comment><comment><text>9.97906937729724</text><id>SNR</id></comment></pick><pick publicID="de.gempa.tb1.Pick/20250413032014.640836.128554"><time><value>2025-04-13T03:20:07.278393Z</value></time><waveformID networkCode="CX" stationCode="PB02" channelCode="HHN"/><filterID>ITAPER(2)&gt;&gt;BW(3,3,20)</filterID><methodID>L2-AIC-GRID</methodID><horizontalSlowness><value>7.52733840806775</value></horizontalSlowness><backazimuth><value>281.0720392831788</value></backazimuth><phaseHint>S</phaseHint><evaluationMode>automatic</evaluationMode><comment><text>1039.4355897352962</text><id>DFX:rectilinearity</id></comment><comment><text>de.gempa.tb1.Pick/20250413031952.490144.128541</text><id>RefPickID</id></comment><comment><text>8.135960165509784</text><id>SNR</id></comment></pick><pick publicID="de.gempa.tb1.Pick/20250413032016.668393.128555"><time><value>2025-04-13T03:20:09.908393Z</value></time><waveformID networkCode="CX" stationCode="PB06" channelCode="HHN"/><filterID>ITAPER(2)&gt;&gt;BW(3,3,20)</filterID><methodID>L2-AIC-GRID</methodID><horizontalSlowness><value>19.3220529766261</value></horizontalSlowness><backazimuth><value>287.61723182108665</value></backazimuth><phaseHint>S</phaseHint><evaluationMode>automatic</evaluationMode><comment><text>211.82709920071159</text><id>DFX:rectilinearity</id></comment><comment><text>de.gempa.tb1.Pick/20250413031955.614278.128549</text><id>RefPickID</id></comment><comment><text>9.720942420261835</text><id>SNR</id></comment></pick><pick publicID="de.gempa.tb1.Pick/20250413032035.170314.128557"><time><value>2025-04-13T03:19:47.568383Z</value></time><waveformID networkCode="CX" stationCode="PB07" channelCode="HHZ"/><filterID>ITAPER(4)&gt;&gt;BW(4,4,20)</filterID><methodID>AIC</methodID><horizontalSlowness><value>13.719217069368607</value></horizontalSlowness><backazimuth><value>98.46208061241256</value></backazimuth><phaseHint>P</phaseHint><evaluationMode>automatic</evaluationMode><comment><text>548.9686657874552</text><id>DFX:rectilinearity</id></comment><comment><text>226.1332776673751</text><id>SNR</id></comment></pick><pick publicID="de.gempa.tb1.Pick/20250413032039.631052.128561"><time><value>2025-04-13T03:20:30.71Z</value></time><waveformID networkCode="CX" stationCode="PB19" channelCode="HHN"/><filterID>ITAPER(2)&gt;&gt;BW(3,3,20)</filterID><methodID>L2-AIC-GRID</methodID><horizontalSlowness><value>13.52973074248709</value></horizontalSlowness><backazimuth><value>105.9520444640789</value></backazimuth><phaseHint>S</phaseHint><evaluationMode>automatic</evaluationMode><comment><text>42.436674034836933</text><id>DFX:rectilinearity</id></comment><comment><text>de.gempa.tb1.Pick/20250413032009.461762.128551</text><id>RefPickID</id></comment><comment><text>7.700416048973137</text><id>SNR</id></comment></pick><origin publicID="de.gempa.tb1.Origin/20250413032039.633953.99737"><time><value>2025-04-13T03:19:23.409984Z</value><uncertainty>1.1235949993133545</uncertainty></time><latitude><value>-21.646905899047852</value><uncertainty>4.098593235015869</uncertainty></latitude><longitude><value>-68.63934326171875</value><uncertainty>14.581575393676758</uncertainty></longitude><depth><value>124.82627868652344</value><uncertainty>15.833128929138184</uncertainty></depth><depthType>from location</depthType><methodID>LOCSAT</methodID><earthModelID>iasp91_scanloc</earthModelID><quality><associatedPhaseCount>11</associatedPhaseCount><usedPhaseCount>11</usedPhaseCount><associatedStationCount>7</associatedStationCount><usedStationCount>7</usedStationCount><depthPhaseCount>0</depthPhaseCount><standardError>0.1135539766065208</standardError><azimuthalGap>247.77711486816406</azimuthalGap><maximumDistance>2.3262486457824707</maximumDistance><minimumDistance>0.5797092318534851</minimumDistance><medianDistance>1.2148537635803223</medianDistance></quality><uncertainty><minHorizontalUncertainty>8.369975090026855</minHorizontalUncertainty><maxHorizontalUncertainty>31.37803840637207</maxHorizontalUncertainty><azimuthMaxHorizontalUncertainty>84.92176818847656</azimuthMaxHorizontalUncertainty><preferredDescription>horizontal uncertainty</preferredDescription></uncertainty><evaluationMode>automatic</evaluationMode><evaluationStatus>confirmed</evaluationStatus><comment><text>0.10</text><id>mismatchScore</id></comment><comment><text>mismatchScore</text><id>scevalMethod</id></comment><arrival><pickID>de.gempa.tb1.Pick/20250413031952.490144.128541</pickID><phase>P</phase><azimuth>285.3151550292969</azimuth><distance>1.2148537635803223</distance><timeResidual>0.05433273315429688</timeResidual><timeUsed>true</timeUsed><horizontalSlownessUsed>false</horizontalSlownessUsed><backazimuthUsed>false</backazimuthUsed><weight>1</weight></arrival><arrival><pickID>de.gempa.tb1.Pick/20250413031952.611958.128543</pickID><phase>P</phase><azimuth>307.0741271972656</azimuth><distance>0.9928964376449585</distance><timeResidual>-0.1558704376220703</timeResidual><timeUsed>true</timeUsed><horizontalSlownessUsed>false</horizontalSlownessUsed><backazimuthUsed>false</backazimuthUsed><weight>1</weight></arrival><arrival><pickID>de.gempa.tb1.Pick/20250413031952.614922.128545</pickID><phase>P</phase><azimuth>248.677734375</azimuth><distance>1.1091976165771484</distance><timeResidual>-0.08232307434082031</timeResidual><timeUsed>true</timeUsed><horizontalSlownessUsed>false</horizontalSlownessUsed><backazimuthUsed>false</backazimuthUsed><weight>1</weight></arrival><arrival><pickID>de.gempa.tb1.Pick/20250413031952.927278.128547</pickID><phase>P</phase><azimuth>255.02178955078125</azimuth><distance>0.5797092318534851</distance><timeResidual>0.16793060302734375</timeResidual><timeUsed>true</timeUsed><horizontalSlownessUsed>false</horizontalSlownessUsed><backazimuthUsed>false</backazimuthUsed><weight>1</weight></arrival><arrival><pickID>de.gempa.tb1.Pick/20250413031955.614278.128549</pickID><phase>P</phase><azimuth>219.18588256835938</azimuth><distance>1.362944483757019</distance><timeResidual>-0.1928844451904297</timeResidual><timeUsed>true</timeUsed><horizontalSlownessUsed>false</horizontalSlownessUsed><backazimuthUsed>false</backazimuthUsed><weight>1</weight></arrival><arrival><pickID>de.gempa.tb1.Pick/20250413032009.461762.128551</pickID><phase>P</phase><azimuth>194.8512420654297</azimuth><distance>2.3262486457824707</distance><timeResidual>0.12138748168945312</timeResidual><timeUsed>true</timeUsed><horizontalSlownessUsed>false</horizontalSlownessUsed><backazimuthUsed>false</backazimuthUsed><weight>1</weight></arrival><arrival><pickID>de.gempa.tb1.Pick/20250413032010.776608.128553</pickID><phase>S</phase><azimuth>307.0741271972656</azimuth><distance>0.9928964376449585</distance><timeResidual>-0.03519248962402344</timeResidual><timeUsed>true</timeUsed><horizontalSlownessUsed>false</horizontalSlownessUsed><backazimuthUsed>false</backazimuthUsed><weight>1</weight></arrival><arrival><pickID>de.gempa.tb1.Pick/20250413032014.640836.128554</pickID><phase>S</phase><azimuth>285.3151550292969</azimuth><distance>1.2148537635803223</distance><timeResidual>0.11425018310546875</timeResidual><timeUsed>true</timeUsed><horizontalSlownessUsed>false</horizontalSlownessUsed><backazimuthUsed>false</backazimuthUsed><weight>1</weight></arrival><arrival><pickID>de.gempa.tb1.Pick/20250413032016.668393.128555</pickID><phase>S</phase><azimuth>219.18588256835938</azimuth><distance>1.362944483757019</distance><timeResidual>-0.09159088134765625</timeResidual><timeUsed>true</timeUsed><horizontalSlownessUsed>false</horizontalSlownessUsed><backazimuthUsed>false</backazimuthUsed><weight>1</weight></arrival><arrival><pickID>de.gempa.tb1.Pick/20250413032035.170314.128557</pickID><phase>P</phase><azimuth>265.85546875</azimuth><distance>1.1623473167419434</distance><timeResidual>0.0534515380859375</timeResidual><timeUsed>true</timeUsed><horizontalSlownessUsed>false</horizontalSlownessUsed><backazimuthUsed>false</backazimuthUsed><weight>1</weight></arrival><arrival><pickID>de.gempa.tb1.Pick/20250413032039.631052.128561</pickID><phase>S</phase><azimuth>194.8512420654297</azimuth><distance>2.3262486457824707</distance><timeResidual>0.04623031616210938</timeResidual><timeUsed>true</timeUsed><horizontalSlownessUsed>false</horizontalSlownessUsed><backazimuthUsed>false</backazimuthUsed><weight>1</weight></arrival><magnitude publicID="de.gempa.tb1.Magnitude/20250413032045.93776.306726"><magnitude><value>2.428229065233197</value></magnitude><type>M</type><methodID>weighted average</methodID><stationCount>4</stationCount></magnitude></origin><event publicID="gempa2025hgqw"><preferredOriginID>de.gempa.tb1.Origin/20250413032039.633953.99737</preferredOriginID><preferredMagnitudeID>de.gempa.tb1.Magnitude/20250413032045.93776.306726</preferredMagnitudeID><description><text>Chile-Bolivia Border Region</text><type>region name</type></description><originReference>de.gempa.tb1.Origin/20250413032039.633953.99737</originReference></event></EventParameters></seiscomp>