<?xml version="1.0" encoding="UTF-8"?>
<seiscomp xmlns="http://geofon.gfz-potsdam.de/ns/seiscomp3-schema/0.13" version="0.13"><EventParameters><pick publicID="de.gempa.tb1.Pick/20250412192615.785353.172033"><time><value>2025-04-12T19:26:10.56Z</value></time><waveformID networkCode="CH" stationCode="WILA" channelCode="HHZ"/><filterID>ITAPER(4)&gt;&gt;BW(4,4,20)</filterID><methodID>AIC</methodID><phaseHint>P</phaseHint><evaluationMode>automatic</evaluationMode></pick><pick publicID="de.gempa.tb1.Pick/20250412192617.569932.172035"><time><value>2025-04-12T19:26:13.62Z</value></time><waveformID networkCode="CH" stationCode="ACB" channelCode="HHZ"/><filterID>ITAPER(4)&gt;&gt;BW(4,4,20)</filterID><methodID>AIC</methodID><phaseHint>P</phaseHint><evaluationMode>automatic</evaluationMode></pick><pick publicID="de.gempa.tb1.Pick/20250412192618.402597.172039"><time><value>2025-04-12T19:26:13.855Z</value></time><waveformID networkCode="CH" stationCode="DAGMA" channelCode="HHZ"/><filterID>ITAPER(4)&gt;&gt;BW(4,4,20)</filterID><methodID>AIC</methodID><phaseHint>P</phaseHint><evaluationMode>automatic</evaluationMode></pick><pick publicID="de.gempa.tb1.Pick/20250412192620.445618.172043"><time><value>2025-04-12T19:26:14.43Z</value></time><waveformID networkCode="CH" stationCode="WALHA" channelCode="HHZ"/><filterID>ITAPER(4)&gt;&gt;BW(4,4,20)</filterID><methodID>AIC</methodID><phaseHint>P</phaseHint><evaluationMode>automatic</evaluationMode></pick><pick publicID="de.gempa.tb1.Pick/20250412192624.633937.172051"><time><value>2025-04-12T19:26:19.86Z</value></time><waveformID networkCode="CH" stationCode="LAUCH" channelCode="HHZ"/><filterID>ITAPER(4)&gt;&gt;BW(4,4,20)</filterID><methodID>AIC</methodID><phaseHint>P</phaseHint><evaluationMode>automatic</evaluationMode></pick><pick publicID="de.gempa.tb1.Pick/20250412192820.72807.172088"><time><value>2025-04-12T19:26:30.189999Z</value></time><waveformID networkCode="GR" stationCode="FUR" channelCode="BHZ"/><filterID>ITAPER(4)&gt;&gt;BW_HP(4,4)</filterID><methodID>AIC</methodID><phaseHint>P</phaseHint><evaluationMode>automatic</evaluationMode></pick><origin publicID="de.gempa.tb1.Origin/20250412192820.730977.109267"><time><value>2025-04-12T19:26:00.27644Z</value><uncertainty>1.1657023429870605</uncertainty></time><latitude><value>47.2711296081543</value><uncertainty>14.20131015777588</uncertainty></latitude><longitude><value>8.793197631835938</value><uncertainty>11.102582931518555</uncertainty></longitude><depth><value>60.64436340332031</value><uncertainty>20.755043029785156</uncertainty></depth><depthType>from location</depthType><methodID>LOCSAT</methodID><earthModelID>iasp91</earthModelID><quality><associatedPhaseCount>6</associatedPhaseCount><usedPhaseCount>6</usedPhaseCount><associatedStationCount>6</associatedStationCount><usedStationCount>6</usedStationCount><depthPhaseCount>0</depthPhaseCount><standardError>0.20352126648451427</standardError><azimuthalGap>158.65290451049805</azimuthalGap><maximumDistance>1.9000200033187866</maximumDistance><minimumDistance>0.1632954478263855</minimumDistance><medianDistance>0.5333818197250366</medianDistance></quality><uncertainty><minHorizontalUncertainty>10.246586799621582</minHorizontalUncertainty><maxHorizontalUncertainty>37.2763557434082</maxHorizontalUncertainty><azimuthMaxHorizontalUncertainty>143.15243530273438</azimuthMaxHorizontalUncertainty><preferredDescription>horizontal uncertainty</preferredDescription></uncertainty><evaluationMode>automatic</evaluationMode><evaluationStatus>rejected</evaluationStatus><comment><text>0.85</text><id>mismatchScore</id></comment><comment><text>mismatchScore</text><id>scevalMethod</id></comment><arrival><pickID>de.gempa.tb1.Pick/20250412192615.785353.172033</pickID><phase>P</phase><azimuth>28.39255905151367</azimuth><distance>0.1632954478263855</distance><timeResidual>-0.13764572143554688</timeResidual><timeUsed>true</timeUsed><horizontalSlownessUsed>false</horizontalSlownessUsed><backazimuthUsed>false</backazimuthUsed><weight>1</weight></arrival><arrival><pickID>de.gempa.tb1.Pick/20250412192617.569932.172035</pickID><phase>P</phase><azimuth>311.0683898925781</azimuth><distance>0.4838239252567291</distance><timeResidual>0.003154754638671875</timeResidual><timeUsed>true</timeUsed><horizontalSlownessUsed>false</horizontalSlownessUsed><backazimuthUsed>false</backazimuthUsed><weight>1</weight></arrival><arrival><pickID>de.gempa.tb1.Pick/20250412192618.402597.172039</pickID><phase>P</phase><azimuth>265.9564208984375</azimuth><distance>0.5333818197250366</distance><timeResidual>-0.2158336639404297</timeResidual><timeUsed>true</timeUsed><horizontalSlownessUsed>false</horizontalSlownessUsed><backazimuthUsed>false</backazimuthUsed><weight>1</weight></arrival><arrival><pickID>de.gempa.tb1.Pick/20250412192620.445618.172043</pickID><phase>P</phase><azimuth>24.77206802368164</azimuth><distance>0.5313031077384949</distance><timeResidual>0.3816976547241211</timeResidual><timeUsed>true</timeUsed><horizontalSlownessUsed>false</horizontalSlownessUsed><backazimuthUsed>false</backazimuthUsed><weight>1</weight></arrival><arrival><pickID>de.gempa.tb1.Pick/20250412192624.633937.172051</pickID><phase>P</phase><azimuth>219.69815063476562</azimuth><distance>1.1064807176589966</distance><timeResidual>0.11996173858642578</timeResidual><timeUsed>true</timeUsed><horizontalSlownessUsed>false</horizontalSlownessUsed><backazimuthUsed>false</backazimuthUsed><weight>1</weight></arrival><arrival><pickID>de.gempa.tb1.Pick/20250412192820.72807.172088</pickID><phase>P</phase><azimuth>61.04524612426758</azimuth><distance>1.9000200033187866</distance><timeResidual>-0.15133094787597656</timeResidual><timeUsed>true</timeUsed><horizontalSlownessUsed>false</horizontalSlownessUsed><backazimuthUsed>false</backazimuthUsed><weight>1</weight></arrival><magnitude publicID="de.gempa.tb1.Magnitude/20250412192826.064319.269919"><magnitude><value>1.8040916867924213</value></magnitude><type>M</type><methodID>weighted average</methodID><stationCount>5</stationCount></magnitude></origin><event publicID="gempa2025hgbc"><preferredOriginID>de.gempa.tb1.Origin/20250412192820.730977.109267</preferredOriginID><preferredMagnitudeID>de.gempa.tb1.Magnitude/20250412192826.064319.269919</preferredMagnitudeID><type>not existing</type><typeCertainty>suspected</typeCertainty><description><text>Switzerland</text><type>region name</type></description><originReference>de.gempa.tb1.Origin/20250412192820.730977.109267</originReference></event></EventParameters></seiscomp>