<?xml version="1.0" encoding="UTF-8"?>
<seiscomp xmlns="http://geofon.gfz-potsdam.de/ns/seiscomp3-schema/0.13" version="0.13"><EventParameters><pick publicID="de.gempa.tb1.Pick/20250414201816.587491.141014"><time><value>2025-04-14T20:18:11.948391Z</value></time><waveformID networkCode="CX" stationCode="PB01" channelCode="HHZ"/><filterID>ITAPER(4)&gt;&gt;BW(4,4,20)</filterID><methodID>AIC</methodID><horizontalSlowness><value>23.18381722024935</value></horizontalSlowness><backazimuth><value>18.058442404869595</value></backazimuth><phaseHint>P</phaseHint><evaluationMode>automatic</evaluationMode><comment><text>21.9939475036235</text><id>DFX:rectilinearity</id></comment><comment><text>11.870505941606625</text><id>SNR</id></comment></pick><pick publicID="de.gempa.tb1.Pick/20250414201821.67575.141016"><time><value>2025-04-14T20:18:15.698393Z</value></time><waveformID networkCode="CX" stationCode="PB02" channelCode="HHZ"/><filterID>ITAPER(4)&gt;&gt;BW(4,4,20)</filterID><methodID>AIC</methodID><horizontalSlowness><value>17.55504763359291</value></horizontalSlowness><backazimuth><value>93.1187079657418</value></backazimuth><phaseHint>P</phaseHint><evaluationMode>automatic</evaluationMode><comment><text>19.266538298670952</text><id>DFX:rectilinearity</id></comment><comment><text>11.716405762209693</text><id>SNR</id></comment></pick><pick publicID="de.gempa.tb1.Pick/20250414201826.771079.141018"><time><value>2025-04-14T20:18:16.908393Z</value></time><waveformID networkCode="CX" stationCode="PB07" channelCode="HHZ"/><filterID>ITAPER(4)&gt;&gt;BW(4,4,20)</filterID><methodID>AIC</methodID><horizontalSlowness><value>20.64527509635926</value></horizontalSlowness><backazimuth><value>252.5784263625235</value></backazimuth><phaseHint>P</phaseHint><evaluationMode>automatic</evaluationMode><comment><text>175.63706807189769</text><id>DFX:rectilinearity</id></comment><comment><text>6.66665893808263</text><id>SNR</id></comment></pick><pick publicID="de.gempa.tb1.Pick/20250414201828.458969.141020"><time><value>2025-04-14T20:18:18.800001Z</value></time><waveformID networkCode="CX" stationCode="PATCX" channelCode="HHZ"/><filterID>ITAPER(4)&gt;&gt;BW(4,4,20)</filterID><methodID>AIC</methodID><horizontalSlowness><value>21.417576293232308</value></horizontalSlowness><backazimuth><value>69.53198143654392</value></backazimuth><phaseHint>P</phaseHint><evaluationMode>automatic</evaluationMode><comment><text>102.6151111368054</text><id>DFX:rectilinearity</id></comment><comment><text>8.725574134258276</text><id>SNR</id></comment></pick><pick publicID="de.gempa.tb1.Pick/20250414201832.584995.141024"><time><value>2025-04-14T20:18:25.198391Z</value></time><waveformID networkCode="CX" stationCode="PB01" channelCode="HHN"/><filterID>ITAPER(2)&gt;&gt;BW(3,3,20)</filterID><methodID>L2-AIC-GRID</methodID><horizontalSlowness><value>23.009977051856566</value></horizontalSlowness><backazimuth><value>189.95392396786968</value></backazimuth><phaseHint>S</phaseHint><evaluationMode>automatic</evaluationMode><comment><text>29.75358510412486</text><id>DFX:rectilinearity</id></comment><comment><text>de.gempa.tb1.Pick/20250414201816.587491.141014</text><id>RefPickID</id></comment><comment><text>9.768653844240688</text><id>SNR</id></comment></pick><pick publicID="de.gempa.tb1.Pick/20250414201858.772637.141025"><time><value>2025-04-14T20:18:33.888393Z</value></time><waveformID networkCode="CX" stationCode="PB07" channelCode="HHN"/><filterID>ITAPER(2)&gt;&gt;BW(3,3,20)</filterID><methodID>L2-AIC-GRID</methodID><horizontalSlowness><value>21.10728878316337</value></horizontalSlowness><backazimuth><value>199.82041735919847</value></backazimuth><phaseHint>S</phaseHint><evaluationMode>automatic</evaluationMode><comment><text>152.79677049301583</text><id>DFX:rectilinearity</id></comment><comment><text>de.gempa.tb1.Pick/20250414201826.771079.141018</text><id>RefPickID</id></comment><comment><text>6.209393310808113</text><id>SNR</id></comment></pick><origin publicID="de.gempa.tb1.Origin/20250414201859.453658.150234"><time><value>2025-04-14T20:17:54.878822Z</value><uncertainty>1.772343397140503</uncertainty></time><latitude><value>-21.185672760009766</value><uncertainty>12.228619575500488</uncertainty></latitude><longitude><value>-68.82208251953125</value><uncertainty>24.47528839111328</uncertainty></longitude><depth><value>102.6136245727539</value><uncertainty>15.617751121520996</uncertainty></depth><depthType>from location</depthType><methodID>LOCSAT</methodID><earthModelID>iasp91_scanloc</earthModelID><quality><associatedPhaseCount>6</associatedPhaseCount><usedPhaseCount>6</usedPhaseCount><associatedStationCount>4</associatedStationCount><usedStationCount>4</usedStationCount><depthPhaseCount>0</depthPhaseCount><standardError>0.04445272318715029</standardError><azimuthalGap>315.25868225097656</azimuthalGap><maximumDistance>1.2953801155090332</maximumDistance><minimumDistance>0.6371482610702515</minimumDistance><medianDistance>1.1279802322387695</medianDistance></quality><uncertainty><minHorizontalUncertainty>18.947771072387695</minHorizontalUncertainty><maxHorizontalUncertainty>55.53236389160156</maxHorizontalUncertainty><azimuthMaxHorizontalUncertainty>110.32486724853516</azimuthMaxHorizontalUncertainty><preferredDescription>horizontal uncertainty</preferredDescription></uncertainty><evaluationMode>automatic</evaluationMode><evaluationStatus>confirmed</evaluationStatus><comment><text>0.36</text><id>mismatchScore</id></comment><comment><text>mismatchScore</text><id>scevalMethod</id></comment><arrival><pickID>de.gempa.tb1.Pick/20250414201816.587491.141014</pickID><phase>P</phase><azimuth>282.7337646484375</azimuth><distance>0.6371482610702515</distance><timeResidual>-0.05283355712890625</timeResidual><timeUsed>true</timeUsed><horizontalSlownessUsed>false</horizontalSlownessUsed><backazimuthUsed>false</backazimuthUsed><weight>1</weight></arrival><arrival><pickID>de.gempa.tb1.Pick/20250414201821.67575.141016</pickID><phase>P</phase><azimuth>262.2220153808594</azimuth><distance>1.0106245279312134</distance><timeResidual>0.08298683166503906</timeResidual><timeUsed>true</timeUsed><horizontalSlownessUsed>false</horizontalSlownessUsed><backazimuthUsed>false</backazimuthUsed><weight>1</weight></arrival><arrival><pickID>de.gempa.tb1.Pick/20250414201826.771079.141018</pickID><phase>P</phase><azimuth>241.3010711669922</azimuth><distance>1.1279802322387695</distance><timeResidual>0.005519866943359375</timeResidual><timeUsed>true</timeUsed><horizontalSlownessUsed>false</horizontalSlownessUsed><backazimuthUsed>false</backazimuthUsed><weight>1</weight></arrival><arrival><pickID>de.gempa.tb1.Pick/20250414201828.458969.141020</pickID><phase>P</phase><azimuth>286.0423889160156</azimuth><distance>1.2953801155090332</distance><timeResidual>-0.029462814331054691</timeResidual><timeUsed>true</timeUsed><horizontalSlownessUsed>false</horizontalSlownessUsed><backazimuthUsed>false</backazimuthUsed><weight>1</weight></arrival><arrival><pickID>de.gempa.tb1.Pick/20250414201832.584995.141024</pickID><phase>S</phase><azimuth>282.7337646484375</azimuth><distance>0.6371482610702515</distance><timeResidual>0.02208709716796875</timeResidual><timeUsed>true</timeUsed><horizontalSlownessUsed>false</horizontalSlownessUsed><backazimuthUsed>false</backazimuthUsed><weight>1</weight></arrival><arrival><pickID>de.gempa.tb1.Pick/20250414201858.772637.141025</pickID><phase>S</phase><azimuth>241.3010711669922</azimuth><distance>1.1279802322387695</distance><timeResidual>-0.02813720703125</timeResidual><timeUsed>true</timeUsed><horizontalSlownessUsed>false</horizontalSlownessUsed><backazimuthUsed>false</backazimuthUsed><weight>1</weight></arrival><magnitude publicID="de.gempa.tb1.Magnitude/20250414201911.615416.537844"><magnitude><value>2.272182741393831</value></magnitude><type>M</type><methodID>weighted average</methodID><stationCount>4</stationCount></magnitude></origin><event publicID="gempa2025hjuw"><preferredOriginID>de.gempa.tb1.Origin/20250414201859.453658.150234</preferredOriginID><preferredMagnitudeID>de.gempa.tb1.Magnitude/20250414201911.615416.537844</preferredMagnitudeID><description><text>Chile-Bolivia Border Region</text><type>region name</type></description><originReference>de.gempa.tb1.Origin/20250414201859.453658.150234</originReference></event></EventParameters></seiscomp>