<?xml version="1.0" encoding="UTF-8"?>
<seiscomp xmlns="http://geofon.gfz-potsdam.de/ns/seiscomp3-schema/0.13" version="0.13"><EventParameters><pick publicID="de.gempa.tb1.Pick/20250412185455.644107.126080"><time><value>2025-04-12T18:54:50.198393Z</value></time><waveformID networkCode="CX" stationCode="PB06" channelCode="HHZ"/><filterID>ITAPER(4)&gt;&gt;BW(4,4,20)</filterID><methodID>AIC</methodID><horizontalSlowness><value>11.880299016299395</value></horizontalSlowness><backazimuth><value>124.08772991516744</value></backazimuth><phaseHint>P</phaseHint><evaluationMode>automatic</evaluationMode><comment><text>278.15063031840663</text><id>DFX:rectilinearity</id></comment><comment><text>153.06355532851123</text><id>SNR</id></comment></pick><pick publicID="de.gempa.tb1.Pick/20250412185458.771266.126082"><time><value>2025-04-12T18:54:53.138391Z</value></time><waveformID networkCode="CX" stationCode="PB15" channelCode="HHZ"/><filterID>ITAPER(4)&gt;&gt;BW(4,4,20)</filterID><methodID>AIC</methodID><horizontalSlowness><value>21.426905667020517</value></horizontalSlowness><backazimuth><value>30.73828791455307</value></backazimuth><phaseHint>P</phaseHint><evaluationMode>automatic</evaluationMode><comment><text>2228.0547982381227</text><id>DFX:rectilinearity</id></comment><comment><text>89.00106082376799</text><id>SNR</id></comment></pick><pick publicID="de.gempa.tb1.Pick/20250412185506.692356.126084"><time><value>2025-04-12T18:55:00.748393Z</value></time><waveformID networkCode="CX" stationCode="PB03" channelCode="HHZ"/><filterID>ITAPER(4)&gt;&gt;BW(4,4,20)</filterID><methodID>AIC</methodID><horizontalSlowness><value>15.052336752222175</value></horizontalSlowness><backazimuth><value>158.6841295407996</value></backazimuth><phaseHint>P</phaseHint><evaluationMode>automatic</evaluationMode><comment><text>60.02770383730232</text><id>DFX:rectilinearity</id></comment><comment><text>52.99096019563508</text><id>SNR</id></comment></pick><pick publicID="de.gempa.tb1.Pick/20250412185511.602205.126086"><time><value>2025-04-12T18:55:05.46Z</value></time><waveformID networkCode="CX" stationCode="PB19" channelCode="HHZ"/><filterID>ITAPER(4)&gt;&gt;BW(4,4,20)</filterID><methodID>AIC</methodID><horizontalSlowness><value>19.377637824506262</value></horizontalSlowness><backazimuth><value>2.0796801259108975</value></backazimuth><phaseHint>P</phaseHint><evaluationMode>automatic</evaluationMode><comment><text>28.52030467628119</text><id>DFX:rectilinearity</id></comment><comment><text>43.32097604485658</text><id>SNR</id></comment></pick><pick publicID="de.gempa.tb1.Pick/20250412185512.710369.126088"><time><value>2025-04-12T18:55:06.148393Z</value></time><waveformID networkCode="CX" stationCode="PB07" channelCode="HHZ"/><filterID>ITAPER(4)&gt;&gt;BW(4,4,20)</filterID><methodID>AIC</methodID><horizontalSlowness><value>21.044236893352242</value></horizontalSlowness><backazimuth><value>119.86007461020566</value></backazimuth><phaseHint>P</phaseHint><evaluationMode>automatic</evaluationMode><comment><text>361.5115827825136</text><id>DFX:rectilinearity</id></comment><comment><text>59.78543805452688</text><id>SNR</id></comment></pick><pick publicID="de.gempa.tb1.Pick/20250412185514.260916.126090"><time><value>2025-04-12T18:55:03.24Z</value></time><waveformID networkCode="CX" stationCode="PB09" channelCode="HHZ"/><filterID>ITAPER(4)&gt;&gt;BW(4,4,20)</filterID><methodID>AIC</methodID><horizontalSlowness><value>18.850366466533995</value></horizontalSlowness><backazimuth><value>297.81328997892484</value></backazimuth><phaseHint>P</phaseHint><evaluationMode>automatic</evaluationMode><comment><text>33.32208167758322</text><id>DFX:rectilinearity</id></comment><comment><text>52.27817158987533</text><id>SNR</id></comment></pick><pick publicID="de.gempa.tb1.Pick/20250412185515.220254.126092"><time><value>2025-04-12T18:55:09.16Z</value></time><waveformID networkCode="CX" stationCode="PB10" channelCode="HHZ"/><filterID>ITAPER(4)&gt;&gt;BW(4,4,20)</filterID><methodID>AIC</methodID><horizontalSlowness><value>12.374497892402912</value></horizontalSlowness><backazimuth><value>28.274122015452434</value></backazimuth><phaseHint>P</phaseHint><evaluationMode>automatic</evaluationMode><comment><text>162.06874117465046</text><id>DFX:rectilinearity</id></comment><comment><text>14.434701402691015</text><id>SNR</id></comment></pick><pick publicID="de.gempa.tb1.Pick/20250412185519.626251.126095"><time><value>2025-04-12T18:55:12.418393Z</value></time><waveformID networkCode="CX" stationCode="PB02" channelCode="HHZ"/><filterID>ITAPER(4)&gt;&gt;BW(4,4,20)</filterID><methodID>AIC</methodID><horizontalSlowness><value>1.6085086618914488</value></horizontalSlowness><backazimuth><value>105.68881944362943</value></backazimuth><phaseHint>P</phaseHint><evaluationMode>automatic</evaluationMode><comment><text>30.247408509815195</text><id>DFX:rectilinearity</id></comment><comment><text>54.46637357840271</text><id>SNR</id></comment></pick><pick publicID="de.gempa.tb1.Pick/20250412185521.772056.126097"><time><value>2025-04-12T18:55:16.348394Z</value></time><waveformID networkCode="CX" stationCode="PB01" channelCode="HHZ"/><filterID>ITAPER(4)&gt;&gt;BW(4,4,20)</filterID><methodID>AIC</methodID><horizontalSlowness><value>13.607465713804192</value></horizontalSlowness><backazimuth><value>189.29428109450967</value></backazimuth><phaseHint>P</phaseHint><evaluationMode>automatic</evaluationMode><comment><text>111.55009136161146</text><id>DFX:rectilinearity</id></comment><comment><text>232.17561586828586</text><id>SNR</id></comment></pick><pick publicID="de.gempa.tb1.Pick/20250412185528.298926.126103"><time><value>2025-04-12T18:55:21.949999Z</value></time><waveformID networkCode="CX" stationCode="PATCX" channelCode="HHZ"/><filterID>ITAPER(4)&gt;&gt;BW(4,4,20)</filterID><methodID>AIC</methodID><horizontalSlowness><value>23.23582574383274</value></horizontalSlowness><backazimuth><value>1.3836498312835772</value></backazimuth><phaseHint>P</phaseHint><evaluationMode>automatic</evaluationMode><comment><text>187.13497645958267</text><id>DFX:rectilinearity</id></comment><comment><text>8.754583374676159</text><id>SNR</id></comment></pick><origin publicID="de.gempa.tb1.Origin/20250412185531.361011.90076"><time><value>2025-04-12T18:54:44.30025Z</value><uncertainty>0.5699693560600281</uncertainty></time><latitude><value>-22.794416427612305</value><uncertainty>2.5687873363494873</uncertainty></latitude><longitude><value>-69.31111907958984</value><uncertainty>5.93843936920166</uncertainty></longitude><depth><value>0</value></depth><depthType>operator assigned</depthType><methodID>LOCSAT</methodID><earthModelID>iasp91_scanloc</earthModelID><quality><associatedPhaseCount>10</associatedPhaseCount><usedPhaseCount>10</usedPhaseCount><associatedStationCount>10</associatedStationCount><usedStationCount>10</usedStationCount><depthPhaseCount>0</depthPhaseCount><standardError>0.7250789916561549</standardError><azimuthalGap>175.3240625858307</azimuthalGap><maximumDistance>2.114130973815918</maximumDistance><minimumDistance>0.2563609778881073</minimumDistance><medianDistance>1.188679337501526</medianDistance></quality><uncertainty><minHorizontalUncertainty>5.506006717681885</minHorizontalUncertainty><maxHorizontalUncertainty>12.73763656616211</maxHorizontalUncertainty><azimuthMaxHorizontalUncertainty>90.94964599609375</azimuthMaxHorizontalUncertainty><preferredDescription>horizontal uncertainty</preferredDescription></uncertainty><evaluationMode>automatic</evaluationMode><evaluationStatus>confirmed</evaluationStatus><comment><text>0.00</text><id>mismatchScore</id></comment><comment><text>mismatchScore</text><id>scevalMethod</id></comment><arrival><pickID>de.gempa.tb1.Pick/20250412185455.644107.126080</pickID><phase>P</phase><azimuth>290.07342529296875</azimuth><distance>0.2563609778881073</distance><timeResidual>0.9808454513549805</timeResidual><timeUsed>true</timeUsed><horizontalSlownessUsed>false</horizontalSlownessUsed><backazimuthUsed>false</backazimuthUsed><weight>1</weight></arrival><arrival><pickID>de.gempa.tb1.Pick/20250412185458.771266.126082</pickID><phase>P</phase><azimuth>199.63572692871094</azimuth><distance>0.43750932812690735</distance><timeResidual>0.44696807861328125</timeResidual><timeUsed>true</timeUsed><horizontalSlownessUsed>false</horizontalSlownessUsed><backazimuthUsed>false</backazimuthUsed><weight>1</weight></arrival><arrival><pickID>de.gempa.tb1.Pick/20250412185506.692356.126084</pickID><phase>P</phase><azimuth>331.0668029785156</azimuth><distance>0.847582995891571</distance><timeResidual>0.19027185440063477</timeResidual><timeUsed>true</timeUsed><horizontalSlownessUsed>false</horizontalSlownessUsed><backazimuthUsed>false</backazimuthUsed><weight>1</weight></arrival><arrival><pickID>de.gempa.tb1.Pick/20250412185511.602205.126086</pickID><phase>P</phase><azimuth>179.0288543701172</azimuth><distance>1.1054068803787231</distance><timeResidual>-0.040870189666748047</timeResidual><timeUsed>true</timeUsed><horizontalSlownessUsed>false</horizontalSlownessUsed><backazimuthUsed>false</backazimuthUsed><weight>1</weight></arrival><arrival><pickID>de.gempa.tb1.Pick/20250412185512.710369.126088</pickID><phase>P</phase><azimuth>333.2660827636719</azimuth><distance>1.188679337501526</distance><timeResidual>-0.9523138999938965</timeResidual><timeUsed>true</timeUsed><horizontalSlownessUsed>false</horizontalSlownessUsed><backazimuthUsed>false</backazimuthUsed><weight>1</weight></arrival><arrival><pickID>de.gempa.tb1.Pick/20250412185514.260916.126090</pickID><phase>P</phase><azimuth>3.704791784286499</azimuth><distance>0.9953291416168213</distance><timeResidual>-0.15218782424926758</timeResidual><timeUsed>true</timeUsed><horizontalSlownessUsed>false</horizontalSlownessUsed><backazimuthUsed>false</backazimuthUsed><weight>1</weight></arrival><arrival><pickID>de.gempa.tb1.Pick/20250412185515.220254.126092</pickID><phase>P</phase><azimuth>237.7289123535156</azimuth><distance>1.349422812461853</distance><timeResidual>-0.9977669715881348</timeResidual><timeUsed>true</timeUsed><horizontalSlownessUsed>false</horizontalSlownessUsed><backazimuthUsed>false</backazimuthUsed><weight>1</weight></arrival><arrival><pickID>de.gempa.tb1.Pick/20250412185519.626251.126095</pickID><phase>P</phase><azimuth>339.59918212890625</azimuth><distance>1.5646657943725586</distance><timeResidual>-0.9378018379211426</timeResidual><timeUsed>true</timeUsed><horizontalSlownessUsed>false</horizontalSlownessUsed><backazimuthUsed>false</backazimuthUsed><weight>1</weight></arrival><arrival><pickID>de.gempa.tb1.Pick/20250412185521.772056.126097</pickID><phase>P</phase><azimuth>354.6011962890625</azimuth><distance>1.750374436378479</distance><timeResidual>0.4358706474304199</timeResidual><timeUsed>true</timeUsed><horizontalSlownessUsed>false</horizontalSlownessUsed><backazimuthUsed>false</backazimuthUsed><weight>1</weight></arrival><arrival><pickID>de.gempa.tb1.Pick/20250412185528.298926.126103</pickID><phase>P</phase><azimuth>338.1274719238281</azimuth><distance>2.114130973815918</distance><timeResidual>1.0308375358581543</timeResidual><timeUsed>true</timeUsed><horizontalSlownessUsed>false</horizontalSlownessUsed><backazimuthUsed>false</backazimuthUsed><weight>1</weight></arrival><magnitude publicID="de.gempa.tb1.Magnitude/20250412185531.366306.266754"><magnitude><value>2.5531617749274997</value></magnitude><type>M</type><methodID>weighted average</methodID><stationCount>8</stationCount></magnitude></origin><event publicID="gempa2025hgab"><preferredOriginID>de.gempa.tb1.Origin/20250412185531.361011.90076</preferredOriginID><preferredMagnitudeID>de.gempa.tb1.Magnitude/20250412185531.366306.266754</preferredMagnitudeID><type>mining explosion</type><description><text>Northern Chile</text><type>region name</type></description><originReference>de.gempa.tb1.Origin/20250412185531.361011.90076</originReference></event></EventParameters></seiscomp>