<?xml version="1.0" encoding="UTF-8"?>
<seiscomp xmlns="http://geofon.gfz-potsdam.de/ns/seiscomp3-schema/0.13" version="0.13"><EventParameters><pick publicID="de.gempa.tb1.Pick/20250414121351.62179.137901"><time><value>2025-04-14T12:13:46.198393Z</value></time><waveformID networkCode="CX" stationCode="PB03" channelCode="HHZ"/><filterID>ITAPER(4)&gt;&gt;BW(4,4,20)</filterID><methodID>AIC</methodID><horizontalSlowness><value>3.9368512715864057</value></horizontalSlowness><backazimuth><value>81.70846365621578</value></backazimuth><phaseHint>P</phaseHint><evaluationMode>automatic</evaluationMode><comment><text>11.843612596252902</text><id>DFX:rectilinearity</id></comment><comment><text>12.429095622917696</text><id>SNR</id></comment></pick><pick publicID="de.gempa.tb1.Pick/20250414121352.543426.137903"><time><value>2025-04-14T12:13:47.878393Z</value></time><waveformID networkCode="CX" stationCode="PB06" channelCode="HHZ"/><filterID>ITAPER(4)&gt;&gt;BW(4,4,20)</filterID><methodID>AIC</methodID><horizontalSlowness><value>7.65974974068294</value></horizontalSlowness><backazimuth><value>16.132101505199984</value></backazimuth><phaseHint>P</phaseHint><evaluationMode>automatic</evaluationMode><comment><text>80.58438467615234</text><id>DFX:rectilinearity</id></comment><comment><text>17.602693571685165</text><id>SNR</id></comment></pick><pick publicID="de.gempa.tb1.Pick/20250414121404.250888.137905"><time><value>2025-04-14T12:13:53.989999Z</value></time><waveformID networkCode="CX" stationCode="PATCX" channelCode="HHZ"/><filterID>ITAPER(4)&gt;&gt;BW(4,4,20)</filterID><methodID>AIC</methodID><horizontalSlowness><value>21.937086493261845</value></horizontalSlowness><backazimuth><value>40.0357265866966</value></backazimuth><phaseHint>P</phaseHint><evaluationMode>automatic</evaluationMode><comment><text>101.6687217992647</text><id>DFX:rectilinearity</id></comment><comment><text>9.913674628405927</text><id>SNR</id></comment></pick><pick publicID="de.gempa.tb1.Pick/20250414121406.605963.137907"><time><value>2025-04-14T12:13:58.79Z</value></time><waveformID networkCode="CX" stationCode="PB19" channelCode="HHZ"/><filterID>ITAPER(4)&gt;&gt;BW(4,4,20)</filterID><methodID>AIC</methodID><horizontalSlowness><value>20.92112636881161</value></horizontalSlowness><backazimuth><value>18.50991630189418</value></backazimuth><phaseHint>P</phaseHint><evaluationMode>automatic</evaluationMode><comment><text>18.731735068291055</text><id>DFX:rectilinearity</id></comment><comment><text>12.586859398811683</text><id>SNR</id></comment></pick><pick publicID="de.gempa.tb1.Pick/20250414121412.676324.137909"><time><value>2025-04-14T12:14:04.648393Z</value></time><waveformID networkCode="CX" stationCode="PB03" channelCode="HHN"/><filterID>ITAPER(2)&gt;&gt;BW(3,3,20)</filterID><methodID>L2-AIC-GRID</methodID><horizontalSlowness><value>10.7676312662631</value></horizontalSlowness><backazimuth><value>237.1151809654262</value></backazimuth><phaseHint>S</phaseHint><evaluationMode>automatic</evaluationMode><comment><text>783.4421029331797</text><id>DFX:rectilinearity</id></comment><comment><text>de.gempa.tb1.Pick/20250414121351.62179.137901</text><id>RefPickID</id></comment><comment><text>12.472320244739848</text><id>SNR</id></comment></pick><pick publicID="de.gempa.tb1.Pick/20250414121415.542342.137910"><time><value>2025-04-14T12:14:08.198393Z</value></time><waveformID networkCode="CX" stationCode="PB06" channelCode="HHN"/><filterID>ITAPER(2)&gt;&gt;BW(3,3,20)</filterID><methodID>L2-AIC-GRID</methodID><horizontalSlowness><value>20.74586332187916</value></horizontalSlowness><backazimuth><value>299.97565491024147</value></backazimuth><phaseHint>S</phaseHint><evaluationMode>automatic</evaluationMode><comment><text>181.9782328772021</text><id>DFX:rectilinearity</id></comment><comment><text>de.gempa.tb1.Pick/20250414121352.543426.137903</text><id>RefPickID</id></comment><comment><text>5.739826909464211</text><id>SNR</id></comment></pick><pick publicID="de.gempa.tb1.Pick/20250414121425.463333.137912"><time><value>2025-04-14T12:14:17.509999Z</value></time><waveformID networkCode="CX" stationCode="PATCX" channelCode="HHN"/><filterID>ITAPER(2)&gt;&gt;BW(3,3,20)</filterID><methodID>L2-AIC-GRID</methodID><horizontalSlowness><value>20.525165155949498</value></horizontalSlowness><backazimuth><value>61.43071054944696</value></backazimuth><phaseHint>S</phaseHint><evaluationMode>automatic</evaluationMode><comment><text>155.6659499424016</text><id>DFX:rectilinearity</id></comment><comment><text>de.gempa.tb1.Pick/20250414121404.250888.137905</text><id>RefPickID</id></comment><comment><text>7.194069317556407</text><id>SNR</id></comment></pick><origin publicID="de.gempa.tb1.Origin/20250414121426.297288.137095"><time><value>2025-04-14T12:13:21.920071Z</value><uncertainty>1.7161914110183716</uncertainty></time><latitude><value>-22.43531036376953</value><uncertainty>5.029217720031738</uncertainty></latitude><longitude><value>-71.1017074584961</value><uncertainty>8.365208625793457</uncertainty></longitude><depth><value>9.289315223693848</value><uncertainty>14.69729232788086</uncertainty></depth><depthType>from location</depthType><methodID>LOCSAT</methodID><earthModelID>iasp91_scanloc</earthModelID><quality><associatedPhaseCount>7</associatedPhaseCount><usedPhaseCount>7</usedPhaseCount><associatedStationCount>4</associatedStationCount><usedStationCount>4</usedStationCount><depthPhaseCount>0</depthPhaseCount><standardError>0.229060674672462</standardError><azimuthalGap>257.34194564819336</azimuthalGap><maximumDistance>2.2174274921417236</maximumDistance><minimumDistance>1.3074201345443726</minimumDistance><medianDistance>1.439437985420227</medianDistance></quality><uncertainty><minHorizontalUncertainty>9.200804710388184</minHorizontalUncertainty><maxHorizontalUncertainty>18.801095962524414</maxHorizontalUncertainty><azimuthMaxHorizontalUncertainty>69.92761993408203</azimuthMaxHorizontalUncertainty><preferredDescription>horizontal uncertainty</preferredDescription></uncertainty><evaluationMode>automatic</evaluationMode><comment><text>0.56</text><id>mismatchScore</id></comment><arrival><pickID>de.gempa.tb1.Pick/20250414121351.62179.137901</pickID><phase>P</phase><azimuth>73.12930297851562</azimuth><distance>1.3074201345443726</distance><timeResidual>-0.12215232849121094</timeResidual><timeUsed>true</timeUsed><horizontalSlownessUsed>false</horizontalSlownessUsed><backazimuthUsed>false</backazimuthUsed><weight>1</weight></arrival><arrival><pickID>de.gempa.tb1.Pick/20250414121352.543426.137903</pickID><phase>P</phase><azimuth>101.07029724121094</azimuth><distance>1.439437985420227</distance><timeResidual>-0.2578163146972656</timeResidual><timeUsed>true</timeUsed><horizontalSlownessUsed>false</horizontalSlownessUsed><backazimuthUsed>false</backazimuthUsed><weight>1</weight></arrival><arrival><pickID>de.gempa.tb1.Pick/20250414121404.250888.137905</pickID><phase>P</phase><azimuth>28.962474822998047</azimuth><distance>1.8332520723342896</distance><timeResidual>0.4302806854248047</timeResidual><timeUsed>true</timeUsed><horizontalSlownessUsed>false</horizontalSlownessUsed><backazimuthUsed>false</backazimuthUsed><weight>1</weight></arrival><arrival><pickID>de.gempa.tb1.Pick/20250414121406.605963.137907</pickID><phase>P</phase><azimuth>131.6205291748047</azimuth><distance>2.2174274921417236</distance><timeResidual>-0.05122566223144531</timeResidual><timeUsed>true</timeUsed><horizontalSlownessUsed>false</horizontalSlownessUsed><backazimuthUsed>false</backazimuthUsed><weight>1</weight></arrival><arrival><pickID>de.gempa.tb1.Pick/20250414121412.676324.137909</pickID><phase>S</phase><azimuth>73.12930297851562</azimuth><distance>1.3074201345443726</distance><timeResidual>0.0012302398681640625</timeResidual><timeUsed>true</timeUsed><horizontalSlownessUsed>false</horizontalSlownessUsed><backazimuthUsed>false</backazimuthUsed><weight>1</weight></arrival><arrival><pickID>de.gempa.tb1.Pick/20250414121415.542342.137910</pickID><phase>S</phase><azimuth>101.07029724121094</azimuth><distance>1.439437985420227</distance><timeResidual>0.22135353088378906</timeResidual><timeUsed>true</timeUsed><horizontalSlownessUsed>false</horizontalSlownessUsed><backazimuthUsed>false</backazimuthUsed><weight>1</weight></arrival><arrival><pickID>de.gempa.tb1.Pick/20250414121425.463333.137912</pickID><phase>S</phase><azimuth>28.962474822998047</azimuth><distance>1.8332520723342896</distance><timeResidual>-0.22164535522460938</timeResidual><timeUsed>true</timeUsed><horizontalSlownessUsed>false</horizontalSlownessUsed><backazimuthUsed>false</backazimuthUsed><weight>1</weight></arrival><magnitude publicID="de.gempa.tb1.Magnitude/20250414121524.726002.485939"><magnitude><value>2.462179985822752</value></magnitude><type>M</type><methodID>weighted average</methodID><stationCount>4</stationCount></magnitude></origin><event publicID="gempa2025hjes"><preferredOriginID>de.gempa.tb1.Origin/20250414121426.297288.137095</preferredOriginID><preferredMagnitudeID>de.gempa.tb1.Magnitude/20250414121524.726002.485939</preferredMagnitudeID><description><text>Off Coast of Northern Chile</text><type>region name</type></description><originReference>de.gempa.tb1.Origin/20250414121426.297288.137095</originReference></event></EventParameters></seiscomp>