<?xml version="1.0" encoding="UTF-8"?>
<seiscomp xmlns="http://geofon.gfz-potsdam.de/ns/seiscomp3-schema/0.13" version="0.13"><EventParameters><pick publicID="de.gempa.tb2.Pick/20250414194159.101497.185447"><time><value>2025-04-14T19:41:56.66Z</value></time><waveformID networkCode="CH" stationCode="DIX" channelCode="HHZ"/><filterID>ITAPER(4)&gt;&gt;BW(4,4,20)</filterID><methodID>AIC</methodID><phaseHint>P</phaseHint><evaluationMode>automatic</evaluationMode></pick><pick publicID="de.gempa.tb2.Pick/20250414194201.104526.185450"><time><value>2025-04-14T19:41:57.289998Z</value></time><waveformID networkCode="CH" stationCode="SALAN" channelCode="HHZ"/><filterID>ITAPER(4)&gt;&gt;BW(4,4,20)</filterID><methodID>AIC</methodID><phaseHint>P</phaseHint><evaluationMode>automatic</evaluationMode></pick><pick publicID="de.gempa.tb2.Pick/20250414194202.133784.185454"><time><value>2025-04-14T19:41:58.61Z</value></time><waveformID networkCode="CH" stationCode="SENIN" channelCode="HHZ"/><filterID>ITAPER(4)&gt;&gt;BW(4,4,20)</filterID><methodID>AIC</methodID><phaseHint>P</phaseHint><evaluationMode>automatic</evaluationMode></pick><pick publicID="de.gempa.tb2.Pick/20250414194203.490532.185456"><time><value>2025-04-14T19:41:57.64Z</value></time><waveformID networkCode="CH" stationCode="VANNI" channelCode="HHZ"/><filterID>ITAPER(4)&gt;&gt;BW(4,4,20)</filterID><methodID>AIC</methodID><phaseHint>P</phaseHint><evaluationMode>automatic</evaluationMode></pick><pick publicID="de.gempa.tb2.Pick/20250414194204.872653.185460"><time><value>2025-04-14T19:42:02.82Z</value></time><waveformID networkCode="CH" stationCode="SIMPL" channelCode="HHZ"/><filterID>ITAPER(4)&gt;&gt;BW(4,4,20)</filterID><methodID>AIC</methodID><phaseHint>P</phaseHint><evaluationMode>automatic</evaluationMode></pick><pick publicID="de.gempa.tb2.Pick/20250414194217.69489.185470"><time><value>2025-04-14T19:42:12.015Z</value></time><waveformID networkCode="CH" stationCode="ROTHE" channelCode="HHZ"/><filterID>ITAPER(4)&gt;&gt;BW(4,4,20)</filterID><methodID>AIC</methodID><phaseHint>P</phaseHint><evaluationMode>automatic</evaluationMode></pick><pick publicID="de.gempa.tb2.Pick/20250414194330.950511.185513"><time><value>2025-04-14T19:43:02.65Z</value></time><waveformID networkCode="GR" stationCode="UBBA" channelCode="BHZ"/><filterID>BW(4,4,8)</filterID><methodID>AIC</methodID><phaseHint>P</phaseHint><evaluationMode>automatic</evaluationMode></pick><origin publicID="de.gempa.tb2.Origin/20250414194330.966477.75828"><time><value>2025-04-14T19:41:49.226484Z</value><uncertainty>1.1846321821212769</uncertainty></time><latitude><value>46.12485504150391</value><uncertainty>10.601822853088379</uncertainty></latitude><longitude><value>7.224110126495361</value><uncertainty>6.009571552276611</uncertainty></longitude><depth><value>37.861644744873047</value><uncertainty>9.755064010620117</uncertainty></depth><depthType>from location</depthType><methodID>LOCSAT</methodID><earthModelID>iasp91</earthModelID><quality><associatedPhaseCount>7</associatedPhaseCount><usedPhaseCount>7</usedPhaseCount><associatedStationCount>7</associatedStationCount><usedStationCount>7</usedStationCount><depthPhaseCount>0</depthPhaseCount><standardError>0.610000877015936</standardError><azimuthalGap>167.16639709472656</azimuthalGap><maximumDistance>5.047077655792236</maximumDistance><minimumDistance>0.13566139340400696</minimumDistance><medianDistance>0.27265623211860657</medianDistance></quality><uncertainty><minHorizontalUncertainty>11.93562889099121</minHorizontalUncertainty><maxHorizontalUncertainty>23.252803802490234</maxHorizontalUncertainty><azimuthMaxHorizontalUncertainty>14.109898567199707</azimuthMaxHorizontalUncertainty><preferredDescription>horizontal uncertainty</preferredDescription></uncertainty><evaluationMode>automatic</evaluationMode><arrival><pickID>de.gempa.tb2.Pick/20250414194159.101497.185447</pickID><phase>P</phase><azimuth>109.21467590332031</azimuth><distance>0.13566139340400696</distance><timeResidual>-0.21015310287475586</timeResidual><timeUsed>true</timeUsed><horizontalSlownessUsed>false</horizontalSlownessUsed><backazimuthUsed>false</backazimuthUsed><weight>1</weight></arrival><arrival><pickID>de.gempa.tb2.Pick/20250414194201.104526.185450</pickID><phase>P</phase><azimuth>276.3810729980469</azimuth><distance>0.17567570507526398</distance><timeResidual>-0.03891611099243164</timeResidual><timeUsed>true</timeUsed><horizontalSlownessUsed>false</horizontalSlownessUsed><backazimuthUsed>false</backazimuthUsed><weight>1</weight></arrival><arrival><pickID>de.gempa.tb2.Pick/20250414194202.133784.185454</pickID><phase>P</phase><azimuth>12.311495780944824</azimuth><distance>0.24419954419136047</distance><timeResidual>0.4931330680847168</timeResidual><timeUsed>true</timeUsed><horizontalSlownessUsed>false</horizontalSlownessUsed><backazimuthUsed>false</backazimuthUsed><weight>1</weight></arrival><arrival><pickID>de.gempa.tb2.Pick/20250414194203.490532.185456</pickID><phase>P</phase><azimuth>71.65141296386719</azimuth><distance>0.27265623211860657</distance><timeResidual>-0.806006908416748</timeResidual><timeUsed>true</timeUsed><horizontalSlownessUsed>false</horizontalSlownessUsed><backazimuthUsed>false</backazimuthUsed><weight>1</weight></arrival><arrival><pickID>de.gempa.tb2.Pick/20250414194204.872653.185460</pickID><phase>P</phase><azimuth>77.9803466796875</azimuth><distance>0.5644732713699341</distance><timeResidual>1.011263370513916</timeResidual><timeUsed>true</timeUsed><horizontalSlownessUsed>false</horizontalSlownessUsed><backazimuthUsed>false</backazimuthUsed><weight>1</weight></arrival><arrival><pickID>de.gempa.tb2.Pick/20250414194217.69489.185470</pickID><phase>P</phase><azimuth>19.247528076171875</azimuth><distance>1.434044361114502</distance><timeResidual>-0.7455401420593262</timeResidual><timeUsed>true</timeUsed><horizontalSlownessUsed>false</horizontalSlownessUsed><backazimuthUsed>false</backazimuthUsed><weight>1</weight></arrival><arrival><pickID>de.gempa.tb2.Pick/20250414194330.950511.185513</pickID><phase>P</phase><azimuth>20.445470809936523</azimuth><distance>5.047077655792236</distance><timeResidual>0.2961716651916504</timeResidual><timeUsed>true</timeUsed><horizontalSlownessUsed>false</horizontalSlownessUsed><backazimuthUsed>false</backazimuthUsed><weight>1</weight></arrival><magnitude publicID="de.gempa.tb2.Magnitude/20250414194331.009198.37000"><magnitude><value>1.392148681994919</value></magnitude><type>M</type><methodID>weighted average</methodID><stationCount>5</stationCount></magnitude></origin><event publicID="gempa2025hjtr"><preferredOriginID>de.gempa.tb2.Origin/20250414194330.966477.75828</preferredOriginID><preferredMagnitudeID>de.gempa.tb2.Magnitude/20250414194331.009198.37000</preferredMagnitudeID><description><text>Switzerland</text><type>region name</type></description><originReference>de.gempa.tb2.Origin/20250414194330.966477.75828</originReference></event></EventParameters></seiscomp>