<?xml version="1.0" encoding="UTF-8"?>
<seiscomp xmlns="http://geofon.gfz-potsdam.de/ns/seiscomp3-schema/0.13" version="0.13"><EventParameters><pick publicID="de.gempa.tb1.Pick/20250415081804.644354.121197"><time><value>2025-04-15T08:18:02.02Z</value></time><waveformID networkCode="CH" stationCode="ROTHE" channelCode="HHZ"/><filterID>ITAPER(4)&gt;&gt;BW(4,4,20)</filterID><methodID>AIC</methodID><phaseHint>P</phaseHint><evaluationMode>automatic</evaluationMode></pick><pick publicID="de.gempa.tb1.Pick/20250415081807.900995.121202"><time><value>2025-04-15T08:18:05.0000Z</value></time><waveformID networkCode="CH" stationCode="DAGMA" channelCode="HHZ"/><filterID>ITAPER(4)&gt;&gt;BW(4,4,20)</filterID><methodID>AIC</methodID><phaseHint>P</phaseHint><evaluationMode>automatic</evaluationMode></pick><pick publicID="de.gempa.tb1.Pick/20250415081813.313137.121207"><time><value>2025-04-15T08:18:04.615Z</value></time><waveformID networkCode="CH" stationCode="BALST" channelCode="HHZ"/><filterID>ITAPER(4)&gt;&gt;BW(4,4,20)</filterID><methodID>AIC</methodID><phaseHint>P</phaseHint><evaluationMode>automatic</evaluationMode></pick><pick publicID="de.gempa.tb1.Pick/20250415081814.267214.121209"><time><value>2025-04-15T08:18:09.02Z</value></time><waveformID networkCode="CH" stationCode="BERGE" channelCode="HHZ"/><filterID>ITAPER(4)&gt;&gt;BW(4,4,20)</filterID><methodID>AIC</methodID><phaseHint>P</phaseHint><evaluationMode>automatic</evaluationMode></pick><pick publicID="de.gempa.tb1.Pick/20250415081819.672473.121219"><time><value>2025-04-15T08:18:17.88Z</value></time><waveformID networkCode="CH" stationCode="SIMPL" channelCode="HHZ"/><filterID>ITAPER(4)&gt;&gt;BW(4,4,20)</filterID><methodID>AIC</methodID><phaseHint>P</phaseHint><evaluationMode>automatic</evaluationMode></pick><origin publicID="de.gempa.tb1.Origin/20250415081819.674426.57433"><time><value>2025-04-15T08:17:57.384634Z</value><uncertainty>0.6646462082862854</uncertainty></time><latitude><value>47.43080139160156</value><uncertainty>4.91679573059082</uncertainty></latitude><longitude><value>7.913865089416504</value><uncertainty>9.291760444641113</uncertainty></longitude><depth><value>27.823598861694336</value><uncertainty>6.687711238861084</uncertainty></depth><depthType>from location</depthType><methodID>LOCSAT</methodID><earthModelID>iasp91</earthModelID><quality><associatedPhaseCount>5</associatedPhaseCount><usedPhaseCount>5</usedPhaseCount><associatedStationCount>5</associatedStationCount><usedStationCount>5</usedStationCount><depthPhaseCount>0</depthPhaseCount><standardError>0.42261591417406574</standardError><azimuthalGap>139.48137092590332</azimuthalGap><maximumDistance>1.193874478340149</maximumDistance><minimumDistance>0.0455964133143425</minimumDistance><medianDistance>0.21096886694431305</medianDistance></quality><uncertainty><minHorizontalUncertainty>9.40151596069336</minHorizontalUncertainty><maxHorizontalUncertainty>20.493221282958984</maxHorizontalUncertainty><azimuthMaxHorizontalUncertainty>105.20796203613281</azimuthMaxHorizontalUncertainty><preferredDescription>horizontal uncertainty</preferredDescription></uncertainty><evaluationMode>automatic</evaluationMode><arrival><pickID>de.gempa.tb1.Pick/20250415081804.644354.121197</pickID><phase>P</phase><azimuth>6.033320426940918</azimuth><distance>0.0455964133143425</distance><timeResidual>-0.6280627250671387</timeResidual><timeUsed>true</timeUsed><horizontalSlownessUsed>false</horizontalSlownessUsed><backazimuthUsed>false</backazimuthUsed><weight>1</weight></arrival><arrival><pickID>de.gempa.tb1.Pick/20250415081807.900995.121202</pickID><phase>P</phase><azimuth>161.42510986328125</azimuth><distance>0.21096886694431305</distance><timeResidual>0.12666797637939453</timeResidual><timeUsed>true</timeUsed><horizontalSlownessUsed>false</horizontalSlownessUsed><backazimuthUsed>false</backazimuthUsed><weight>1</weight></arrival><arrival><pickID>de.gempa.tb1.Pick/20250415081813.313137.121207</pickID><phase>P</phase><azimuth>237.49513244628906</azimuth><distance>0.17653070390224457</distance><timeResidual>0.2042245864868164</timeResidual><timeUsed>true</timeUsed><horizontalSlownessUsed>false</horizontalSlownessUsed><backazimuthUsed>false</backazimuthUsed><weight>1</weight></arrival><arrival><pickID>de.gempa.tb1.Pick/20250415081814.267214.121209</pickID><phase>P</phase><azimuth>21.94373893737793</azimuth><distance>0.4758473634719849</distance><timeResidual>0.5939064025878906</timeResidual><timeUsed>true</timeUsed><horizontalSlownessUsed>false</horizontalSlownessUsed><backazimuthUsed>false</backazimuthUsed><weight>1</weight></arrival><arrival><pickID>de.gempa.tb1.Pick/20250415081819.672473.121219</pickID><phase>P</phase><azimuth>176.47625732421875</azimuth><distance>1.193874478340149</distance><timeResidual>-0.2967844009399414</timeResidual><timeUsed>true</timeUsed><horizontalSlownessUsed>false</horizontalSlownessUsed><backazimuthUsed>false</backazimuthUsed><weight>1</weight></arrival><magnitude publicID="de.gempa.tb1.Magnitude/20250415081836.641732.109600"><magnitude><value>1.3123822645962577</value></magnitude><type>M</type><methodID>weighted average</methodID><stationCount>5</stationCount></magnitude></origin><event publicID="gempa2025hksw"><preferredOriginID>de.gempa.tb1.Origin/20250415081819.674426.57433</preferredOriginID><preferredMagnitudeID>de.gempa.tb1.Magnitude/20250415081836.641732.109600</preferredMagnitudeID><typeCertainty>suspected</typeCertainty><description><text>Switzerland</text><type>region name</type></description><originReference>de.gempa.tb1.Origin/20250415081819.674426.57433</originReference></event></EventParameters></seiscomp>