<?xml version="1.0" encoding="UTF-8"?>
<seiscomp xmlns="http://geofon.gfz-potsdam.de/ns/seiscomp3-schema/0.13" version="0.13"><EventParameters><pick publicID="de.gempa.tb1.Pick/20250412135018.661163.124319"><time><value>2025-04-12T13:50:13.688394Z</value></time><waveformID networkCode="CX" stationCode="PB03" channelCode="HHZ"/><filterID>ITAPER(4)&gt;&gt;BW(4,4,20)</filterID><methodID>AIC</methodID><horizontalSlowness><value>22.309000123277158</value></horizontalSlowness><backazimuth><value>293.3173858429677</value></backazimuth><phaseHint>P</phaseHint><evaluationMode>automatic</evaluationMode><comment><text>6.266360955499962</text><id>DFX:rectilinearity</id></comment><comment><text>16.283300800301483</text><id>SNR</id></comment></pick><pick publicID="de.gempa.tb1.Pick/20250412135021.50521.124321"><time><value>2025-04-12T13:50:16.348393Z</value></time><waveformID networkCode="CX" stationCode="PB02" channelCode="HHZ"/><filterID>ITAPER(4)&gt;&gt;BW(4,4,20)</filterID><methodID>AIC</methodID><horizontalSlowness><value>14.4867689353311</value></horizontalSlowness><backazimuth><value>269.24219045890527</value></backazimuth><phaseHint>P</phaseHint><evaluationMode>automatic</evaluationMode><comment><text>25.229400755377245</text><id>DFX:rectilinearity</id></comment><comment><text>8.798482391130133</text><id>SNR</id></comment></pick><pick publicID="de.gempa.tb1.Pick/20250412135021.591867.124323"><time><value>2025-04-12T13:50:14.888393Z</value></time><waveformID networkCode="CX" stationCode="PB01" channelCode="HHZ"/><filterID>ITAPER(4)&gt;&gt;BW(4,4,20)</filterID><methodID>AIC</methodID><horizontalSlowness><value>19.156237144588061</value></horizontalSlowness><backazimuth><value>170.77696399948326</value></backazimuth><phaseHint>P</phaseHint><evaluationMode>automatic</evaluationMode><comment><text>13.937709383505952</text><id>DFX:rectilinearity</id></comment><comment><text>19.017638473155767</text><id>SNR</id></comment></pick><pick publicID="de.gempa.tb1.Pick/20250412135023.217034.124325"><time><value>2025-04-12T13:50:10.28Z</value></time><waveformID networkCode="CX" stationCode="PB09" channelCode="HHZ"/><filterID>ITAPER(4)&gt;&gt;BW(4,4,20)</filterID><methodID>AIC</methodID><horizontalSlowness><value>22.271886771514286</value></horizontalSlowness><backazimuth><value>297.40518443176836</value></backazimuth><phaseHint>P</phaseHint><evaluationMode>automatic</evaluationMode><comment><text>19.382258804351725</text><id>DFX:rectilinearity</id></comment><comment><text>40.723750201788945</text><id>SNR</id></comment></pick><pick publicID="de.gempa.tb1.Pick/20250412135027.826198.124327"><time><value>2025-04-12T13:50:15.108391Z</value></time><waveformID networkCode="CX" stationCode="PB07" channelCode="HHZ"/><filterID>ITAPER(4)&gt;&gt;BW(4,4,20)</filterID><methodID>AIC</methodID><horizontalSlowness><value>22.61082295106232</value></horizontalSlowness><backazimuth><value>329.48243330742775</value></backazimuth><phaseHint>P</phaseHint><evaluationMode>automatic</evaluationMode><comment><text>121.95541916783105</text><id>DFX:rectilinearity</id></comment><comment><text>50.86755952284823</text><id>SNR</id></comment></pick><origin publicID="de.gempa.tb1.Origin/20250412135027.829228.83757"><time><value>2025-04-12T13:49:43.707918Z</value><uncertainty>13.214872360229492</uncertainty></time><latitude><value>-22.004043579101562</value><uncertainty>32.4600715637207</uncertainty></latitude><longitude><value>-68.37445831298828</value><uncertainty>69.27058410644531</uncertainty></longitude><depth><value>180.09933471679688</value><uncertainty>89.30292510986328</uncertainty></depth><depthType>from location</depthType><methodID>LOCSAT</methodID><earthModelID>iasp91_scanloc</earthModelID><quality><associatedPhaseCount>5</associatedPhaseCount><usedPhaseCount>5</usedPhaseCount><associatedStationCount>5</associatedStationCount><usedStationCount>5</usedStationCount><depthPhaseCount>0</depthPhaseCount><standardError>0.02943067850896778</standardError><azimuthalGap>315.2718200683594</azimuthalGap><maximumDistance>1.5706770420074463</maximumDistance><minimumDistance>0.8316921591758728</minimumDistance><medianDistance>1.409935474395752</medianDistance></quality><uncertainty><minHorizontalUncertainty>44.881595611572266</minHorizontalUncertainty><maxHorizontalUncertainty>157.80728149414062</maxHorizontalUncertainty><azimuthMaxHorizontalUncertainty>110.59481048583984</azimuthMaxHorizontalUncertainty><preferredDescription>horizontal uncertainty</preferredDescription></uncertainty><evaluationMode>automatic</evaluationMode><evaluationStatus>confirmed</evaluationStatus><comment><text>0.05</text><id>mismatchScore</id></comment><comment><text>mismatchScore</text><id>scevalMethod</id></comment><arrival><pickID>de.gempa.tb1.Pick/20250412135018.661163.124319</pickID><phase>P</phase><azimuth>267.76361083984375</azimuth><distance>1.2799756526947021</distance><timeResidual>-0.014404296875</timeResidual><timeUsed>true</timeUsed><horizontalSlownessUsed>false</horizontalSlownessUsed><backazimuthUsed>false</backazimuthUsed><weight>1</weight></arrival><arrival><pickID>de.gempa.tb1.Pick/20250412135021.50521.124321</pickID><phase>P</phase><azimuth>295.4122314453125</azimuth><distance>1.5706770420074463</distance><timeResidual>-0.04141998291015625</timeResidual><timeUsed>true</timeUsed><horizontalSlownessUsed>false</horizontalSlownessUsed><backazimuthUsed>false</backazimuthUsed><weight>1</weight></arrival><arrival><pickID>de.gempa.tb1.Pick/20250412135021.591867.124323</pickID><phase>P</phase><azimuth>312.4917907714844</azimuth><distance>1.409935474395752</distance><timeResidual>0.015594482421875</timeResidual><timeUsed>true</timeUsed><horizontalSlownessUsed>false</horizontalSlownessUsed><backazimuthUsed>false</backazimuthUsed><weight>1</weight></arrival><arrival><pickID>de.gempa.tb1.Pick/20250412135023.217034.124325</pickID><phase>P</phase><azimuth>284.22637939453125</azimuth><distance>0.8316921591758728</distance><timeResidual>-0.00609588623046875</timeResidual><timeUsed>true</timeUsed><horizontalSlownessUsed>false</horizontalSlownessUsed><backazimuthUsed>false</backazimuthUsed><weight>1</weight></arrival><arrival><pickID>de.gempa.tb1.Pick/20250412135027.826198.124327</pickID><phase>P</phase><azimuth>280.8399658203125</azimuth><distance>1.4311323165893555</distance><timeResidual>0.04612350463867188</timeResidual><timeUsed>true</timeUsed><horizontalSlownessUsed>false</horizontalSlownessUsed><backazimuthUsed>false</backazimuthUsed><weight>1</weight></arrival><magnitude publicID="de.gempa.tb1.Magnitude/20250412135139.552902.234526"><magnitude><value>2.394671101095104</value></magnitude><type>M</type><methodID>weighted average</methodID><stationCount>1</stationCount></magnitude></origin><event publicID="gempa2025hfpw"><preferredOriginID>de.gempa.tb1.Origin/20250412135027.829228.83757</preferredOriginID><preferredMagnitudeID>de.gempa.tb1.Magnitude/20250412135139.552902.234526</preferredMagnitudeID><typeCertainty>suspected</typeCertainty><description><text>Northern Chile</text><type>region name</type></description><originReference>de.gempa.tb1.Origin/20250412135027.829228.83757</originReference></event></EventParameters></seiscomp>