<?xml version="1.0" encoding="UTF-8"?>
<seiscomp xmlns="http://geofon.gfz-potsdam.de/ns/seiscomp3-schema/0.13" version="0.13"><EventParameters><pick publicID="de.gempa.tb1.Pick/20250413024957.838799.128348"><time><value>2025-04-13T02:49:53.128393Z</value></time><waveformID networkCode="CX" stationCode="PB03" channelCode="HHZ"/><filterID>ITAPER(4)&gt;&gt;BW(4,4,20)</filterID><methodID>AIC</methodID><horizontalSlowness><value>8.963179994558192</value></horizontalSlowness><backazimuth><value>97.66105691950483</value></backazimuth><phaseHint>P</phaseHint><evaluationMode>automatic</evaluationMode><comment><text>65.15582935523183</text><id>DFX:rectilinearity</id></comment><comment><text>139.2205784540112</text><id>SNR</id></comment></pick><pick publicID="de.gempa.tb1.Pick/20250413024959.57494.128350"><time><value>2025-04-13T02:49:54.908393Z</value></time><waveformID networkCode="CX" stationCode="PB06" channelCode="HHZ"/><filterID>ITAPER(4)&gt;&gt;BW(4,4,20)</filterID><methodID>AIC</methodID><horizontalSlowness><value>2.905241919709252</value></horizontalSlowness><backazimuth><value>75.00215207076563</value></backazimuth><phaseHint>P</phaseHint><evaluationMode>automatic</evaluationMode><comment><text>165.41831891493155</text><id>DFX:rectilinearity</id></comment><comment><text>40.958389555494747</text><id>SNR</id></comment></pick><pick publicID="de.gempa.tb1.Pick/20250413025000.141794.128352"><time><value>2025-04-13T02:49:49.1Z</value></time><waveformID networkCode="CX" stationCode="PB09" channelCode="HHZ"/><filterID>ITAPER(4)&gt;&gt;BW(4,4,20)</filterID><methodID>AIC</methodID><horizontalSlowness><value>16.119012414821892</value></horizontalSlowness><backazimuth><value>85.90797844641502</value></backazimuth><phaseHint>P</phaseHint><evaluationMode>automatic</evaluationMode><comment><text>243.15909512901413</text><id>DFX:rectilinearity</id></comment><comment><text>275.9791107030804</text><id>SNR</id></comment></pick><pick publicID="de.gempa.tb1.Pick/20250413025000.532924.128354"><time><value>2025-04-13T02:49:55.638393Z</value></time><waveformID networkCode="CX" stationCode="PB02" channelCode="HHZ"/><filterID>ITAPER(4)&gt;&gt;BW(4,4,20)</filterID><methodID>AIC</methodID><horizontalSlowness><value>20.228734785663583</value></horizontalSlowness><backazimuth><value>72.91753260573326</value></backazimuth><phaseHint>P</phaseHint><evaluationMode>automatic</evaluationMode><comment><text>55.39740379630896</text><id>DFX:rectilinearity</id></comment><comment><text>55.96937898539772</text><id>SNR</id></comment></pick><pick publicID="de.gempa.tb1.Pick/20250413025001.676995.128356"><time><value>2025-04-13T02:49:53.748393Z</value></time><waveformID networkCode="CX" stationCode="PB01" channelCode="HHZ"/><filterID>ITAPER(4)&gt;&gt;BW(4,4,20)</filterID><methodID>AIC</methodID><horizontalSlowness><value>14.557426785027983</value></horizontalSlowness><backazimuth><value>281.9471544421988</value></backazimuth><phaseHint>P</phaseHint><evaluationMode>automatic</evaluationMode><comment><text>23.24745912787354</text><id>DFX:rectilinearity</id></comment><comment><text>62.95360964744031</text><id>SNR</id></comment></pick><pick publicID="de.gempa.tb1.Pick/20250413025006.729703.128358"><time><value>2025-04-13T02:49:59.438391Z</value></time><waveformID networkCode="CX" stationCode="PB15" channelCode="HHZ"/><filterID>ITAPER(4)&gt;&gt;BW(4,4,20)</filterID><methodID>AIC</methodID><horizontalSlowness><value>19.2688357817972</value></horizontalSlowness><backazimuth><value>51.4567713199171</value></backazimuth><phaseHint>P</phaseHint><evaluationMode>automatic</evaluationMode><comment><text>327.1334232340386</text><id>DFX:rectilinearity</id></comment><comment><text>12.847139023198197</text><id>SNR</id></comment></pick><pick publicID="de.gempa.tb1.Pick/20250413025012.510918.128360"><time><value>2025-04-13T02:50:06.48Z</value></time><waveformID networkCode="CX" stationCode="PB19" channelCode="HHZ"/><filterID>ITAPER(4)&gt;&gt;BW(4,4,20)</filterID><methodID>AIC</methodID><horizontalSlowness><value>18.150000985268456</value></horizontalSlowness><backazimuth><value>183.94645135675361</value></backazimuth><phaseHint>P</phaseHint><evaluationMode>automatic</evaluationMode><comment><text>20.650349705326235</text><id>DFX:rectilinearity</id></comment><comment><text>13.524901062802297</text><id>SNR</id></comment></pick><pick publicID="de.gempa.tb1.Pick/20250413025017.574818.128362"><time><value>2025-04-13T02:50:10.938393Z</value></time><waveformID networkCode="CX" stationCode="PB03" channelCode="HHN"/><filterID>ITAPER(2)&gt;&gt;BW(3,3,20)</filterID><methodID>L2-AIC-GRID</methodID><horizontalSlowness><value>18.629436780875686</value></horizontalSlowness><backazimuth><value>226.795320936347</value></backazimuth><phaseHint>S</phaseHint><evaluationMode>automatic</evaluationMode><comment><text>1696.4591608532921</text><id>DFX:rectilinearity</id></comment><comment><text>de.gempa.tb1.Pick/20250413024957.838799.128348</text><id>RefPickID</id></comment><comment><text>17.04710444977524</text><id>SNR</id></comment></pick><pick publicID="de.gempa.tb1.Pick/20250413025019.686475.128363"><time><value>2025-04-13T02:50:12.018393Z</value></time><waveformID networkCode="CX" stationCode="PB01" channelCode="HHN"/><filterID>ITAPER(2)&gt;&gt;BW(3,3,20)</filterID><methodID>L2-AIC-GRID</methodID><horizontalSlowness><value>21.81402485763283</value></horizontalSlowness><backazimuth><value>354.923786550382</value></backazimuth><phaseHint>S</phaseHint><evaluationMode>automatic</evaluationMode><comment><text>575.381802125124</text><id>DFX:rectilinearity</id></comment><comment><text>de.gempa.tb1.Pick/20250413025001.676995.128356</text><id>RefPickID</id></comment><comment><text>8.556816401055114</text><id>SNR</id></comment></pick><pick publicID="de.gempa.tb1.Pick/20250413025022.482336.128364"><time><value>2025-04-13T02:50:15.258393Z</value></time><waveformID networkCode="CX" stationCode="PB02" channelCode="HHN"/><filterID>ITAPER(2)&gt;&gt;BW(3,3,20)</filterID><methodID>L2-AIC-GRID</methodID><horizontalSlowness><value>6.13118529343029</value></horizontalSlowness><backazimuth><value>11.943326819438425</value></backazimuth><phaseHint>S</phaseHint><evaluationMode>automatic</evaluationMode><comment><text>4901.119822745041</text><id>DFX:rectilinearity</id></comment><comment><text>de.gempa.tb1.Pick/20250413025000.532924.128354</text><id>RefPickID</id></comment><comment><text>8.46741975118127</text><id>SNR</id></comment></pick><pick publicID="de.gempa.tb1.Pick/20250413025022.787215.128365"><time><value>2025-04-13T02:49:54.438394Z</value></time><waveformID networkCode="CX" stationCode="PB07" channelCode="HHZ"/><filterID>ITAPER(4)&gt;&gt;BW(4,4,20)</filterID><methodID>AIC</methodID><horizontalSlowness><value>12.795011798121394</value></horizontalSlowness><backazimuth><value>131.29973906888534</value></backazimuth><phaseHint>P</phaseHint><evaluationMode>automatic</evaluationMode><comment><text>501.1164409034475</text><id>DFX:rectilinearity</id></comment><comment><text>498.7436181968999</text><id>SNR</id></comment></pick><pick publicID="de.gempa.tb1.Pick/20250413025024.711812.128367"><time><value>2025-04-13T02:50:14.038393Z</value></time><waveformID networkCode="CX" stationCode="PB06" channelCode="HHN"/><filterID>ITAPER(2)&gt;&gt;BW(3,3,20)</filterID><methodID>L2-AIC-GRID</methodID><horizontalSlowness><value>19.781378248777884</value></horizontalSlowness><backazimuth><value>288.59017287532197</value></backazimuth><phaseHint>S</phaseHint><evaluationMode>automatic</evaluationMode><comment><text>1202.3323408612962</text><id>DFX:rectilinearity</id></comment><comment><text>de.gempa.tb1.Pick/20250413024959.57494.128350</text><id>RefPickID</id></comment><comment><text>14.463203493848669</text><id>SNR</id></comment></pick><pick publicID="de.gempa.tb1.Pick/20250413025029.777819.128373"><time><value>2025-04-13T02:50:21.658391Z</value></time><waveformID networkCode="CX" stationCode="PB15" channelCode="HHN"/><filterID>ITAPER(2)&gt;&gt;BW(3,3,20)</filterID><methodID>L2-AIC-GRID</methodID><horizontalSlowness><value>21.804392812339984</value></horizontalSlowness><backazimuth><value>45.75980143480473</value></backazimuth><phaseHint>S</phaseHint><evaluationMode>automatic</evaluationMode><comment><text>29326.001424439306</text><id>DFX:rectilinearity</id></comment><comment><text>de.gempa.tb1.Pick/20250413025006.729703.128358</text><id>RefPickID</id></comment><comment><text>9.594257858618754</text><id>SNR</id></comment></pick><pick publicID="de.gempa.tb1.Pick/20250413025032.56971.128375"><time><value>2025-04-13T02:50:13.428394Z</value></time><waveformID networkCode="CX" stationCode="PB07" channelCode="HHN"/><filterID>ITAPER(2)&gt;&gt;BW(3,3,20)</filterID><methodID>L2-AIC-GRID</methodID><horizontalSlowness><value>21.434709144301948</value></horizontalSlowness><backazimuth><value>318.60824821825747</value></backazimuth><phaseHint>S</phaseHint><evaluationMode>automatic</evaluationMode><comment><text>33455.337495639324</text><id>DFX:rectilinearity</id></comment><comment><text>de.gempa.tb1.Pick/20250413025022.787215.128365</text><id>RefPickID</id></comment><comment><text>8.152932338021783</text><id>SNR</id></comment></pick><origin publicID="de.gempa.tb1.Origin/20250413025032.574286.98755"><time><value>2025-04-13T02:49:30.579061Z</value><uncertainty>0.9101875424385071</uncertainty></time><latitude><value>-21.815536499023438</value><uncertainty>3.5627763271331787</uncertainty></latitude><longitude><value>-68.6182632446289</value><uncertainty>12.835108757019043</uncertainty></longitude><depth><value>120.29074096679688</value><uncertainty>16.065963745117188</uncertainty></depth><depthType>from location</depthType><methodID>LOCSAT</methodID><earthModelID>iasp91_scanloc</earthModelID><quality><associatedPhaseCount>14</associatedPhaseCount><usedPhaseCount>14</usedPhaseCount><associatedStationCount>8</associatedStationCount><usedStationCount>8</usedStationCount><depthPhaseCount>0</depthPhaseCount><standardError>0.24798068997967085</standardError><azimuthalGap>243.134765625</azimuthalGap><maximumDistance>2.1699490547180176</maximumDistance><minimumDistance>0.5798797011375427</minimumDistance><medianDistance>1.2511359453201294</medianDistance></quality><uncertainty><minHorizontalUncertainty>7.435218334197998</minHorizontalUncertainty><maxHorizontalUncertainty>27.571462631225586</maxHorizontalUncertainty><azimuthMaxHorizontalUncertainty>86.22525024414062</azimuthMaxHorizontalUncertainty><preferredDescription>horizontal uncertainty</preferredDescription></uncertainty><evaluationMode>automatic</evaluationMode><evaluationStatus>confirmed</evaluationStatus><comment><text>0.08</text><id>mismatchScore</id></comment><comment><text>mismatchScore</text><id>scevalMethod</id></comment><arrival><pickID>de.gempa.tb1.Pick/20250413024957.838799.128348</pickID><phase>P</phase><azimuth>257.3825378417969</azimuth><distance>1.078878402709961</distance><timeResidual>-0.33385467529296875</timeResidual><timeUsed>true</timeUsed><horizontalSlownessUsed>false</horizontalSlownessUsed><backazimuthUsed>false</backazimuthUsed><weight>1</weight></arrival><arrival><pickID>de.gempa.tb1.Pick/20250413024959.57494.128350</pickID><phase>P</phase><azimuth>224.7367401123047</azimuth><distance>1.2511359453201294</distance><timeResidual>-0.36154747009277344</timeResidual><timeUsed>true</timeUsed><horizontalSlownessUsed>false</horizontalSlownessUsed><backazimuthUsed>false</backazimuthUsed><weight>1</weight></arrival><arrival><pickID>de.gempa.tb1.Pick/20250413025000.141794.128352</pickID><phase>P</phase><azimuth>271.7688293457031</azimuth><distance>0.5798797011375427</distance><timeResidual>-0.006959915161132812</timeResidual><timeUsed>true</timeUsed><horizontalSlownessUsed>false</horizontalSlownessUsed><backazimuthUsed>false</backazimuthUsed><weight>1</weight></arrival><arrival><pickID>de.gempa.tb1.Pick/20250413025000.532924.128354</pickID><phase>P</phase><azimuth>292.2952880859375</azimuth><distance>1.287636160850525</distance><timeResidual>-0.037090301513671875</timeResidual><timeUsed>true</timeUsed><horizontalSlownessUsed>false</horizontalSlownessUsed><backazimuthUsed>false</backazimuthUsed><weight>1</weight></arrival><arrival><pickID>de.gempa.tb1.Pick/20250413025001.676995.128356</pickID><phase>P</phase><azimuth>313.34368896484375</azimuth><distance>1.1163833141326904</distance><timeResidual>-0.10390853881835938</timeResidual><timeUsed>true</timeUsed><horizontalSlownessUsed>false</horizontalSlownessUsed><backazimuthUsed>false</backazimuthUsed><weight>1</weight></arrival><arrival><pickID>de.gempa.tb1.Pick/20250413025006.729703.128358</pickID><phase>P</phase><azimuth>209.46961975097656</azimuth><distance>1.594718098640442</distance><timeResidual>0.2765007019042969</timeResidual><timeUsed>true</timeUsed><horizontalSlownessUsed>false</horizontalSlownessUsed><backazimuthUsed>false</backazimuthUsed><weight>1</weight></arrival><arrival><pickID>de.gempa.tb1.Pick/20250413025012.510918.128360</pickID><phase>P</phase><azimuth>196.47845458984375</azimuth><distance>2.1699490547180176</distance><timeResidual>0.2825050354003906</timeResidual><timeUsed>true</timeUsed><horizontalSlownessUsed>false</horizontalSlownessUsed><backazimuthUsed>false</backazimuthUsed><weight>1</weight></arrival><arrival><pickID>de.gempa.tb1.Pick/20250413025017.574818.128362</pickID><phase>S</phase><azimuth>257.3825378417969</azimuth><distance>1.078878402709961</distance><timeResidual>-0.2270946502685547</timeResidual><timeUsed>true</timeUsed><horizontalSlownessUsed>false</horizontalSlownessUsed><backazimuthUsed>false</backazimuthUsed><weight>1</weight></arrival><arrival><pickID>de.gempa.tb1.Pick/20250413025019.686475.128363</pickID><phase>S</phase><azimuth>313.34368896484375</azimuth><distance>1.1163833141326904</distance><timeResidual>0.15810775756835938</timeResidual><timeUsed>true</timeUsed><horizontalSlownessUsed>false</horizontalSlownessUsed><backazimuthUsed>false</backazimuthUsed><weight>1</weight></arrival><arrival><pickID>de.gempa.tb1.Pick/20250413025022.482336.128364</pickID><phase>S</phase><azimuth>292.2952880859375</azimuth><distance>1.287636160850525</distance><timeResidual>0.14246368408203125</timeResidual><timeUsed>true</timeUsed><horizontalSlownessUsed>false</horizontalSlownessUsed><backazimuthUsed>false</backazimuthUsed><weight>1</weight></arrival><arrival><pickID>de.gempa.tb1.Pick/20250413025022.787215.128365</pickID><phase>P</phase><azimuth>274.0572509765625</azimuth><distance>1.181869387626648</distance><timeResidual>-0.09480094909667969</timeResidual><timeUsed>true</timeUsed><horizontalSlownessUsed>false</horizontalSlownessUsed><backazimuthUsed>false</backazimuthUsed><weight>1</weight></arrival><arrival><pickID>de.gempa.tb1.Pick/20250413025024.711812.128367</pickID><phase>S</phase><azimuth>224.7367401123047</azimuth><distance>1.2511359453201294</distance><timeResidual>-0.35460662841796875</timeResidual><timeUsed>true</timeUsed><horizontalSlownessUsed>false</horizontalSlownessUsed><backazimuthUsed>false</backazimuthUsed><weight>1</weight></arrival><arrival><pickID>de.gempa.tb1.Pick/20250413025029.777819.128373</pickID><phase>S</phase><azimuth>209.46961975097656</azimuth><distance>1.594718098640442</distance><timeResidual>0.30849456787109375</timeResidual><timeUsed>true</timeUsed><horizontalSlownessUsed>false</horizontalSlownessUsed><backazimuthUsed>false</backazimuthUsed><weight>1</weight></arrival><arrival><pickID>de.gempa.tb1.Pick/20250413025032.56971.128375</pickID><phase>S</phase><azimuth>274.0572509765625</azimuth><distance>1.181869387626648</distance><timeResidual>0.35141944885253906</timeResidual><timeUsed>true</timeUsed><horizontalSlownessUsed>false</horizontalSlownessUsed><backazimuthUsed>false</backazimuthUsed><weight>1</weight></arrival><magnitude publicID="de.gempa.tb1.Magnitude/20250413025040.939742.304832"><magnitude><value>2.69551678557626</value></magnitude><type>M</type><methodID>weighted average</methodID><stationCount>6</stationCount></magnitude></origin><event publicID="gempa2025hgpw"><preferredOriginID>de.gempa.tb1.Origin/20250413025032.574286.98755</preferredOriginID><preferredMagnitudeID>de.gempa.tb1.Magnitude/20250413025040.939742.304832</preferredMagnitudeID><description><text>Chile-Bolivia Border Region</text><type>region name</type></description><originReference>de.gempa.tb1.Origin/20250413025032.574286.98755</originReference></event></EventParameters></seiscomp>