<?xml version="1.0" encoding="UTF-8"?>
<seiscomp xmlns="http://geofon.gfz-potsdam.de/ns/seiscomp3-schema/0.13" version="0.13"><EventParameters><pick publicID="de.gempa.tb1.Pick/20250414232024.580407.142075"><time><value>2025-04-14T23:20:18.208393Z</value></time><waveformID networkCode="CX" stationCode="PB03" channelCode="HHZ"/><filterID>ITAPER(4)&gt;&gt;BW(4,4,20)</filterID><methodID>AIC</methodID><horizontalSlowness><value>17.331713496822523</value></horizontalSlowness><backazimuth><value>251.797717438021</value></backazimuth><phaseHint>P</phaseHint><evaluationMode>automatic</evaluationMode><comment><text>7.783819087627572</text><id>DFX:rectilinearity</id></comment><comment><text>7.124842396825111</text><id>SNR</id></comment></pick><pick publicID="de.gempa.tb1.Pick/20250414232026.179063.142077"><time><value>2025-04-14T23:20:14.580001Z</value></time><waveformID networkCode="CX" stationCode="PB09" channelCode="HHZ"/><filterID>ITAPER(4)&gt;&gt;BW(4,4,20)</filterID><methodID>AIC</methodID><horizontalSlowness><value>17.40802267855457</value></horizontalSlowness><backazimuth><value>294.012469412527</value></backazimuth><phaseHint>P</phaseHint><evaluationMode>automatic</evaluationMode><comment><text>33.56325671014227</text><id>DFX:rectilinearity</id></comment><comment><text>42.82489355196384</text><id>SNR</id></comment></pick><pick publicID="de.gempa.tb1.Pick/20250414232026.550786.142079"><time><value>2025-04-14T23:20:21.588391Z</value></time><waveformID networkCode="CX" stationCode="PB01" channelCode="HHZ"/><filterID>ITAPER(4)&gt;&gt;BW(4,4,20)</filterID><methodID>AIC</methodID><horizontalSlowness><value>19.99063434395088</value></horizontalSlowness><backazimuth><value>222.80502474597733</value></backazimuth><phaseHint>P</phaseHint><evaluationMode>automatic</evaluationMode><comment><text>4.241208586576602</text><id>DFX:rectilinearity</id></comment><comment><text>11.522967666507418</text><id>SNR</id></comment></pick><pick publicID="de.gempa.tb1.Pick/20250414232030.524489.142081"><time><value>2025-04-14T23:20:22.568393Z</value></time><waveformID networkCode="CX" stationCode="PB02" channelCode="HHZ"/><filterID>ITAPER(4)&gt;&gt;BW(4,4,20)</filterID><methodID>AIC</methodID><horizontalSlowness><value>22.669668896905595</value></horizontalSlowness><backazimuth><value>263.48780685934764</value></backazimuth><phaseHint>P</phaseHint><evaluationMode>automatic</evaluationMode><comment><text>29.875710138110723</text><id>DFX:rectilinearity</id></comment><comment><text>10.808235425641811</text><id>SNR</id></comment></pick><pick publicID="de.gempa.tb1.Pick/20250414232039.757515.142085"><time><value>2025-04-14T23:20:33.298393Z</value></time><waveformID networkCode="CX" stationCode="PB03" channelCode="HHN"/><filterID>ITAPER(2)&gt;&gt;BW(3,3,20)</filterID><methodID>L2-AIC-GRID</methodID><horizontalSlowness><value>9.197956415327187</value></horizontalSlowness><backazimuth><value>327.9886466946085</value></backazimuth><phaseHint>S</phaseHint><evaluationMode>automatic</evaluationMode><comment><text>14.292532595769542</text><id>DFX:rectilinearity</id></comment><comment><text>de.gempa.tb1.Pick/20250414232024.580407.142075</text><id>RefPickID</id></comment><comment><text>14.386912814203287</text><id>SNR</id></comment></pick><pick publicID="de.gempa.tb1.Pick/20250414232040.360966.142086"><time><value>2025-04-14T23:20:27.470001Z</value></time><waveformID networkCode="CX" stationCode="PB09" channelCode="HHN"/><filterID>ITAPER(2)&gt;&gt;BW(3,3,20)</filterID><methodID>L2-AIC-GRID</methodID><horizontalSlowness><value>17.072135207723555</value></horizontalSlowness><backazimuth><value>286.7490246931593</value></backazimuth><phaseHint>S</phaseHint><evaluationMode>automatic</evaluationMode><comment><text>57.59474615957957</text><id>DFX:rectilinearity</id></comment><comment><text>de.gempa.tb1.Pick/20250414232026.179063.142077</text><id>RefPickID</id></comment><comment><text>5.076701186938879</text><id>SNR</id></comment></pick><pick publicID="de.gempa.tb1.Pick/20250414232048.590276.142087"><time><value>2025-04-14T23:20:39.438391Z</value></time><waveformID networkCode="CX" stationCode="PB01" channelCode="HHN"/><filterID>ITAPER(2)&gt;&gt;BW(3,3,20)</filterID><methodID>L2-AIC-GRID</methodID><horizontalSlowness><value>21.97899619217483</value></horizontalSlowness><backazimuth><value>51.58530257402799</value></backazimuth><phaseHint>S</phaseHint><evaluationMode>automatic</evaluationMode><comment><text>13.641333813202282</text><id>DFX:rectilinearity</id></comment><comment><text>de.gempa.tb1.Pick/20250414232026.550786.142079</text><id>RefPickID</id></comment><comment><text>5.216570329083407</text><id>SNR</id></comment></pick><pick publicID="de.gempa.tb1.Pick/20250414232049.487416.142088"><time><value>2025-04-14T23:20:40.628393Z</value></time><waveformID networkCode="CX" stationCode="PB02" channelCode="HHN"/><filterID>ITAPER(2)&gt;&gt;BW(3,3,20)</filterID><methodID>L2-AIC-GRID</methodID><horizontalSlowness><value>9.933514046225323</value></horizontalSlowness><backazimuth><value>300.03460800814253</value></backazimuth><phaseHint>S</phaseHint><evaluationMode>automatic</evaluationMode><comment><text>59.51775095344212</text><id>DFX:rectilinearity</id></comment><comment><text>de.gempa.tb1.Pick/20250414232030.524489.142081</text><id>RefPickID</id></comment><comment><text>5.040619258482057</text><id>SNR</id></comment></pick><pick publicID="de.gempa.tb1.Pick/20250414232052.002956.142089"><time><value>2025-04-14T23:20:20.008396Z</value></time><waveformID networkCode="CX" stationCode="PB07" channelCode="HHZ"/><filterID>ITAPER(4)&gt;&gt;BW(4,4,20)</filterID><methodID>AIC</methodID><horizontalSlowness><value>23.50040401926198</value></horizontalSlowness><backazimuth><value>292.0852675242332</value></backazimuth><phaseHint>P</phaseHint><evaluationMode>automatic</evaluationMode><comment><text>181.64847638591147</text><id>DFX:rectilinearity</id></comment><comment><text>31.60928127853308</text><id>SNR</id></comment></pick><pick publicID="de.gempa.tb1.Pick/20250414232107.123267.142091"><time><value>2025-04-14T23:20:36.558396Z</value></time><waveformID networkCode="CX" stationCode="PB07" channelCode="HHN"/><filterID>ITAPER(2)&gt;&gt;BW(3,3,20)</filterID><methodID>L2-AIC-GRID</methodID><horizontalSlowness><value>23.434039874310585</value></horizontalSlowness><backazimuth><value>71.73781713383727</value></backazimuth><phaseHint>S</phaseHint><evaluationMode>automatic</evaluationMode><comment><text>272.40895661341096</text><id>DFX:rectilinearity</id></comment><comment><text>de.gempa.tb1.Pick/20250414232052.002956.142089</text><id>RefPickID</id></comment><comment><text>5.06270957610887</text><id>SNR</id></comment></pick><origin publicID="de.gempa.tb1.Origin/20250414232107.125972.154477"><time><value>2025-04-14T23:19:58.549602Z</value><uncertainty>1.1600254774093628</uncertainty></time><latitude><value>-22.070985794067383</value><uncertainty>6.934606075286865</uncertainty></latitude><longitude><value>-68.80067443847656</value><uncertainty>9.124500274658203</uncertainty></longitude><depth><value>104.92642211914062</value><uncertainty>9.21116828918457</uncertainty></depth><depthType>from location</depthType><methodID>LOCSAT</methodID><earthModelID>iasp91_scanloc</earthModelID><quality><associatedPhaseCount>10</associatedPhaseCount><usedPhaseCount>10</usedPhaseCount><associatedStationCount>5</associatedStationCount><usedStationCount>5</usedStationCount><depthPhaseCount>0</depthPhaseCount><standardError>0.1318285559590035</standardError><azimuthalGap>303.4089660644531</azimuthalGap><maximumDistance>1.2635630369186401</maximumDistance><minimumDistance>0.492467999458313</minimumDistance><medianDistance>1.0647491216659546</medianDistance></quality><uncertainty><minHorizontalUncertainty>14.805011749267578</minHorizontalUncertainty><maxHorizontalUncertainty>19.612815856933594</maxHorizontalUncertainty><azimuthMaxHorizontalUncertainty>96.14555358886719</azimuthMaxHorizontalUncertainty><preferredDescription>horizontal uncertainty</preferredDescription></uncertainty><evaluationMode>automatic</evaluationMode><evaluationStatus>confirmed</evaluationStatus><comment><text>0.13</text><id>mismatchScore</id></comment><comment><text>mismatchScore</text><id>scevalMethod</id></comment><arrival><pickID>de.gempa.tb1.Pick/20250414232024.580407.142075</pickID><phase>P</phase><azimuth>271.2749328613281</azimuth><distance>0.8838135004043579</distance><timeResidual>0.04255199432373047</timeResidual><timeUsed>true</timeUsed><horizontalSlownessUsed>false</horizontalSlownessUsed><backazimuthUsed>false</backazimuthUsed><weight>1</weight></arrival><arrival><pickID>de.gempa.tb1.Pick/20250414232026.179063.142077</pickID><phase>P</phase><azimuth>303.62261962890625</azimuth><distance>0.492467999458313</distance><timeResidual>-0.232086181640625</timeResidual><timeUsed>true</timeUsed><horizontalSlownessUsed>false</horizontalSlownessUsed><backazimuthUsed>false</backazimuthUsed><weight>1</weight></arrival><arrival><pickID>de.gempa.tb1.Pick/20250414232026.550786.142079</pickID><phase>P</phase><azimuth>327.865966796875</azimuth><distance>1.206065058708191</distance><timeResidual>-0.04211235046386719</timeResidual><timeUsed>true</timeUsed><horizontalSlownessUsed>false</horizontalSlownessUsed><backazimuthUsed>false</backazimuthUsed><weight>1</weight></arrival><arrival><pickID>de.gempa.tb1.Pick/20250414232030.524489.142081</pickID><phase>P</phase><azimuth>306.0716247558594</azimuth><distance>1.2635630369186401</distance><timeResidual>0.2805004119873047</timeResidual><timeUsed>true</timeUsed><horizontalSlownessUsed>false</horizontalSlownessUsed><backazimuthUsed>false</backazimuthUsed><weight>1</weight></arrival><arrival><pickID>de.gempa.tb1.Pick/20250414232039.757515.142085</pickID><phase>S</phase><azimuth>271.2749328613281</azimuth><distance>0.8838135004043579</distance><timeResidual>0.006732940673828125</timeResidual><timeUsed>true</timeUsed><horizontalSlownessUsed>false</horizontalSlownessUsed><backazimuthUsed>false</backazimuthUsed><weight>1</weight></arrival><arrival><pickID>de.gempa.tb1.Pick/20250414232040.360966.142086</pickID><phase>S</phase><azimuth>303.62261962890625</azimuth><distance>0.492467999458313</distance><timeResidual>0.15118694305419922</timeResidual><timeUsed>true</timeUsed><horizontalSlownessUsed>false</horizontalSlownessUsed><backazimuthUsed>false</backazimuthUsed><weight>1</weight></arrival><arrival><pickID>de.gempa.tb1.Pick/20250414232048.590276.142087</pickID><phase>S</phase><azimuth>327.865966796875</azimuth><distance>1.206065058708191</distance><timeResidual>-0.034969329833984375</timeResidual><timeUsed>true</timeUsed><horizontalSlownessUsed>false</horizontalSlownessUsed><backazimuthUsed>false</backazimuthUsed><weight>1</weight></arrival><arrival><pickID>de.gempa.tb1.Pick/20250414232049.487416.142088</pickID><phase>S</phase><azimuth>306.0716247558594</azimuth><distance>1.2635630369186401</distance><timeResidual>-0.019922256469726562</timeResidual><timeUsed>true</timeUsed><horizontalSlownessUsed>false</horizontalSlownessUsed><backazimuthUsed>false</backazimuthUsed><weight>1</weight></arrival><arrival><pickID>de.gempa.tb1.Pick/20250414232052.002956.142089</pickID><phase>P</phase><azimuth>288.570556640625</azimuth><distance>1.0647491216659546</distance><timeResidual>-0.04735183715820312</timeResidual><timeUsed>true</timeUsed><horizontalSlownessUsed>false</horizontalSlownessUsed><backazimuthUsed>false</backazimuthUsed><weight>1</weight></arrival><arrival><pickID>de.gempa.tb1.Pick/20250414232107.123267.142091</pickID><phase>S</phase><azimuth>288.570556640625</azimuth><distance>1.0647491216659546</distance><timeResidual>-0.10437583923339844</timeResidual><timeUsed>true</timeUsed><horizontalSlownessUsed>false</horizontalSlownessUsed><backazimuthUsed>false</backazimuthUsed><weight>1</weight></arrival><magnitude publicID="de.gempa.tb1.Magnitude/20250414232107.131295.551127"><magnitude><value>1.9526061613635888</value></magnitude><type>M</type><methodID>weighted average</methodID><stationCount>3</stationCount></magnitude></origin><event publicID="gempa2025hkay"><preferredOriginID>de.gempa.tb1.Origin/20250414232107.125972.154477</preferredOriginID><preferredMagnitudeID>de.gempa.tb1.Magnitude/20250414232107.131295.551127</preferredMagnitudeID><description><text>Northern Chile</text><type>region name</type></description><originReference>de.gempa.tb1.Origin/20250414232107.125972.154477</originReference></event></EventParameters></seiscomp>