<?xml version="1.0" encoding="UTF-8"?>
<seiscomp xmlns="http://geofon.gfz-potsdam.de/ns/seiscomp3-schema/0.13" version="0.13"><EventParameters><pick publicID="de.gempa.tb1.Pick/20250415022138.514047.142903"><time><value>2025-04-15T02:21:29.26Z</value></time><waveformID networkCode="CX" stationCode="PB09" channelCode="HHZ"/><filterID>ITAPER(4)&gt;&gt;BW(4,4,20)</filterID><methodID>AIC</methodID><horizontalSlowness><value>20.930242297982105</value></horizontalSlowness><backazimuth><value>92.82794078537901</value></backazimuth><phaseHint>P</phaseHint><evaluationMode>automatic</evaluationMode><comment><text>35.494526571998513</text><id>DFX:rectilinearity</id></comment><comment><text>61.38471738373587</text><id>SNR</id></comment></pick><pick publicID="de.gempa.tb1.Pick/20250415022138.58184.142905"><time><value>2025-04-15T02:21:30.538393Z</value></time><waveformID networkCode="CX" stationCode="PB01" channelCode="HHZ"/><filterID>ITAPER(4)&gt;&gt;BW(4,4,20)</filterID><methodID>AIC</methodID><horizontalSlowness><value>18.943491294068572</value></horizontalSlowness><backazimuth><value>28.423526138897785</value></backazimuth><phaseHint>P</phaseHint><evaluationMode>automatic</evaluationMode><comment><text>21.4749495064713</text><id>DFX:rectilinearity</id></comment><comment><text>18.596539503234794</text><id>SNR</id></comment></pick><pick publicID="de.gempa.tb1.Pick/20250415022139.585164.142907"><time><value>2025-04-15T02:21:34.148393Z</value></time><waveformID networkCode="CX" stationCode="PB03" channelCode="HHZ"/><filterID>ITAPER(4)&gt;&gt;BW(4,4,20)</filterID><methodID>AIC</methodID><horizontalSlowness><value>6.214874438081484</value></horizontalSlowness><backazimuth><value>220.71443402236807</value></backazimuth><phaseHint>P</phaseHint><evaluationMode>automatic</evaluationMode><comment><text>10.936641742260099</text><id>DFX:rectilinearity</id></comment><comment><text>15.355272735083737</text><id>SNR</id></comment></pick><pick publicID="de.gempa.tb1.Pick/20250415022140.532882.142909"><time><value>2025-04-15T02:21:34.118393Z</value></time><waveformID networkCode="CX" stationCode="PB02" channelCode="HHZ"/><filterID>ITAPER(4)&gt;&gt;BW(4,4,20)</filterID><methodID>AIC</methodID><horizontalSlowness><value>17.843380550876272</value></horizontalSlowness><backazimuth><value>287.44334150819884</value></backazimuth><phaseHint>P</phaseHint><evaluationMode>automatic</evaluationMode><comment><text>67.9179341702214</text><id>DFX:rectilinearity</id></comment><comment><text>23.253441677224615</text><id>SNR</id></comment></pick><pick publicID="de.gempa.tb1.Pick/20250415022147.444225.142911"><time><value>2025-04-15T02:21:38.149999Z</value></time><waveformID networkCode="CX" stationCode="PATCX" channelCode="HHZ"/><filterID>ITAPER(4)&gt;&gt;BW(4,4,20)</filterID><methodID>AIC</methodID><horizontalSlowness><value>20.42370517939944</value></horizontalSlowness><backazimuth><value>71.98262179696866</value></backazimuth><phaseHint>P</phaseHint><evaluationMode>automatic</evaluationMode><comment><text>211.56827574155</text><id>DFX:rectilinearity</id></comment><comment><text>85.76667837110297</text><id>SNR</id></comment></pick><pick publicID="de.gempa.tb1.Pick/20250415022157.383891.142913"><time><value>2025-04-15T02:21:34.228393Z</value></time><waveformID networkCode="CX" stationCode="PB07" channelCode="HHZ"/><filterID>ITAPER(4)&gt;&gt;BW(4,4,20)</filterID><methodID>AIC</methodID><horizontalSlowness><value>22.221652440222716</value></horizontalSlowness><backazimuth><value>284.3233016816492</value></backazimuth><phaseHint>P</phaseHint><evaluationMode>automatic</evaluationMode><comment><text>378.79737152138375</text><id>DFX:rectilinearity</id></comment><comment><text>47.43275039744615</text><id>SNR</id></comment></pick><pick publicID="de.gempa.tb1.Pick/20250415022202.548576.142915"><time><value>2025-04-15T02:21:55.098393Z</value></time><waveformID networkCode="CX" stationCode="PB03" channelCode="HHN"/><filterID>ITAPER(2)&gt;&gt;BW(3,3,20)</filterID><methodID>L2-AIC-GRID</methodID><horizontalSlowness><value>3.8399729981239403</value></horizontalSlowness><backazimuth><value>239.8117456868904</value></backazimuth><phaseHint>S</phaseHint><evaluationMode>automatic</evaluationMode><comment><text>18.246491666043138</text><id>DFX:rectilinearity</id></comment><comment><text>de.gempa.tb1.Pick/20250415022139.585164.142907</text><id>RefPickID</id></comment><comment><text>5.536208817753013</text><id>SNR</id></comment></pick><origin publicID="de.gempa.tb1.Origin/20250415022202.551405.158167"><time><value>2025-04-15T02:21:07.488186Z</value><uncertainty>2.1228716373443604</uncertainty></time><latitude><value>-21.4019775390625</value><uncertainty>13.328863143920898</uncertainty></latitude><longitude><value>-68.43777465820312</value><uncertainty>18.586795806884766</uncertainty></longitude><depth><value>129.7139434814453</value><uncertainty>27.5050106048584</uncertainty></depth><depthType>from location</depthType><methodID>LOCSAT</methodID><earthModelID>iasp91_scanloc</earthModelID><quality><associatedPhaseCount>7</associatedPhaseCount><usedPhaseCount>7</usedPhaseCount><associatedStationCount>6</associatedStationCount><usedStationCount>6</usedStationCount><depthPhaseCount>0</depthPhaseCount><standardError>0.17564770378831027</standardError><azimuthalGap>312.1751708984375</azimuthalGap><maximumDistance>1.7026069164276123</maximumDistance><minimumDistance>0.8450249433517456</minimumDistance><medianDistance>1.38188898563385</medianDistance></quality><uncertainty><minHorizontalUncertainty>28.210636138916016</minHorizontalUncertainty><maxHorizontalUncertainty>40.124000549316406</maxHorizontalUncertainty><azimuthMaxHorizontalUncertainty>99.2825698852539</azimuthMaxHorizontalUncertainty><preferredDescription>horizontal uncertainty</preferredDescription></uncertainty><evaluationMode>automatic</evaluationMode><evaluationStatus>confirmed</evaluationStatus><comment><text>0.03</text><id>mismatchScore</id></comment><comment><text>mismatchScore</text><id>scevalMethod</id></comment><arrival><pickID>de.gempa.tb1.Pick/20250415022138.514047.142903</pickID><phase>P</phase><azimuth>242.17881774902344</azimuth><distance>0.8450249433517456</distance><timeResidual>0.23921775817871094</timeResidual><timeUsed>true</timeUsed><horizontalSlownessUsed>false</horizontalSlownessUsed><backazimuthUsed>false</backazimuthUsed><weight>1</weight></arrival><arrival><pickID>de.gempa.tb1.Pick/20250415022138.58184.142905</pickID><phase>P</phase><azimuth>289.8382873535156</azimuth><distance>1.0423225164413452</distance><timeResidual>-0.26921653747558594</timeResidual><timeUsed>true</timeUsed><horizontalSlownessUsed>false</horizontalSlownessUsed><backazimuthUsed>false</backazimuthUsed><weight>1</weight></arrival><arrival><pickID>de.gempa.tb1.Pick/20250415022139.585164.142907</pickID><phase>P</phase><azimuth>242.0134582519531</azimuth><distance>1.38188898563385</distance><timeResidual>-0.1409015655517578</timeResidual><timeUsed>true</timeUsed><horizontalSlownessUsed>false</horizontalSlownessUsed><backazimuthUsed>false</backazimuthUsed><weight>1</weight></arrival><arrival><pickID>de.gempa.tb1.Pick/20250415022140.532882.142909</pickID><phase>P</phase><azimuth>273.18133544921875</azimuth><distance>1.3617374897003174</distance><timeResidual>0.043216705322265625</timeResidual><timeUsed>true</timeUsed><horizontalSlownessUsed>false</horizontalSlownessUsed><backazimuthUsed>false</backazimuthUsed><weight>1</weight></arrival><arrival><pickID>de.gempa.tb1.Pick/20250415022147.444225.142911</pickID><phase>P</phase><azimuth>289.5499572753906</azimuth><distance>1.7026069164276123</distance><timeResidual>0.2277240753173828</timeResidual><timeUsed>true</timeUsed><horizontalSlownessUsed>false</horizontalSlownessUsed><backazimuthUsed>false</backazimuthUsed><weight>1</weight></arrival><arrival><pickID>de.gempa.tb1.Pick/20250415022157.383891.142913</pickID><phase>P</phase><azimuth>256.2594909667969</azimuth><distance>1.386405348777771</distance><timeResidual>-0.11199760437011719</timeResidual><timeUsed>true</timeUsed><horizontalSlownessUsed>false</horizontalSlownessUsed><backazimuthUsed>false</backazimuthUsed><weight>1</weight></arrival><arrival><pickID>de.gempa.tb1.Pick/20250415022202.548576.142915</pickID><phase>S</phase><azimuth>242.0134582519531</azimuth><distance>1.38188898563385</distance><timeResidual>0.011810302734375</timeResidual><timeUsed>true</timeUsed><horizontalSlownessUsed>false</horizontalSlownessUsed><backazimuthUsed>false</backazimuthUsed><weight>1</weight></arrival><magnitude publicID="de.gempa.tb1.Magnitude/20250415022236.568852.562149"><magnitude><value>2.163106241589695</value></magnitude><type>M</type><methodID>weighted average</methodID><stationCount>2</stationCount></magnitude></origin><event publicID="gempa2025hkgz"><preferredOriginID>de.gempa.tb1.Origin/20250415022202.551405.158167</preferredOriginID><preferredMagnitudeID>de.gempa.tb1.Magnitude/20250415022236.568852.562149</preferredMagnitudeID><description><text>Chile-Bolivia Border Region</text><type>region name</type></description><originReference>de.gempa.tb1.Origin/20250415022202.551405.158167</originReference></event></EventParameters></seiscomp>