<?xml version="1.0" encoding="UTF-8"?>
<seiscomp xmlns="http://geofon.gfz-potsdam.de/ns/seiscomp3-schema/0.13" version="0.13"><EventParameters><pick publicID="de.gempa.tb1.Pick/20250414185317.520484.140335"><time><value>2025-04-14T18:53:09.278393Z</value></time><waveformID networkCode="CX" stationCode="PB06" channelCode="HHZ"/><filterID>ITAPER(4)&gt;&gt;BW(4,4,20)</filterID><methodID>AIC</methodID><horizontalSlowness><value>2.884933282383199</value></horizontalSlowness><backazimuth><value>298.5238466354057</value></backazimuth><phaseHint>P</phaseHint><evaluationMode>automatic</evaluationMode><comment><text>178.35067972895413</text><id>DFX:rectilinearity</id></comment><comment><text>15.329332722332124</text><id>SNR</id></comment></pick><pick publicID="de.gempa.tb1.Pick/20250414185321.191151.140337"><time><value>2025-04-14T18:53:15.19Z</value></time><waveformID networkCode="CX" stationCode="PB10" channelCode="HHZ"/><filterID>ITAPER(4)&gt;&gt;BW(4,4,20)</filterID><methodID>AIC</methodID><horizontalSlowness><value>9.293101610668851</value></horizontalSlowness><backazimuth><value>178.20257227860324</value></backazimuth><phaseHint>P</phaseHint><evaluationMode>automatic</evaluationMode><comment><text>98.60771333318546</text><id>DFX:rectilinearity</id></comment><comment><text>15.152024854321292</text><id>SNR</id></comment></pick><pick publicID="de.gempa.tb1.Pick/20250414185323.774652.140339"><time><value>2025-04-14T18:53:16.718393Z</value></time><waveformID networkCode="CX" stationCode="PB07" channelCode="HHZ"/><filterID>ITAPER(4)&gt;&gt;BW(4,4,20)</filterID><methodID>AIC</methodID><horizontalSlowness><value>18.272391769392012</value></horizontalSlowness><backazimuth><value>204.51182845229732</value></backazimuth><phaseHint>P</phaseHint><evaluationMode>automatic</evaluationMode><comment><text>330.8632882149813</text><id>DFX:rectilinearity</id></comment><comment><text>38.00074631042277</text><id>SNR</id></comment></pick><pick publicID="de.gempa.tb1.Pick/20250414185327.51398.140341"><time><value>2025-04-14T18:53:21.74Z</value></time><waveformID networkCode="CX" stationCode="PB09" channelCode="HHZ"/><filterID>ITAPER(4)&gt;&gt;BW(4,4,20)</filterID><methodID>AIC</methodID><horizontalSlowness><value>15.056387293034781</value></horizontalSlowness><backazimuth><value>292.85145468081117</value></backazimuth><phaseHint>P</phaseHint><evaluationMode>automatic</evaluationMode><comment><text>22.164732422295984</text><id>DFX:rectilinearity</id></comment><comment><text>26.315806088663454</text><id>SNR</id></comment></pick><pick publicID="de.gempa.tb1.Pick/20250414185328.568979.140345"><time><value>2025-04-14T18:53:23.588393Z</value></time><waveformID networkCode="CX" stationCode="PB02" channelCode="HHZ"/><filterID>ITAPER(4)&gt;&gt;BW(4,4,20)</filterID><methodID>AIC</methodID><horizontalSlowness><value>9.801426037686076</value></horizontalSlowness><backazimuth><value>219.70761180344525</value></backazimuth><phaseHint>P</phaseHint><evaluationMode>automatic</evaluationMode><comment><text>116.39413329329368</text><id>DFX:rectilinearity</id></comment><comment><text>28.103049916931585</text><id>SNR</id></comment></pick><pick publicID="de.gempa.tb1.Pick/20250414185331.577874.140347"><time><value>2025-04-14T18:53:26.339998Z</value></time><waveformID networkCode="CX" stationCode="PB19" channelCode="HHZ"/><filterID>ITAPER(4)&gt;&gt;BW(4,4,20)</filterID><methodID>AIC</methodID><horizontalSlowness><value>20.286564274821465</value></horizontalSlowness><backazimuth><value>58.43167163988248</value></backazimuth><phaseHint>P</phaseHint><evaluationMode>automatic</evaluationMode><comment><text>19.062551788136574</text><id>DFX:rectilinearity</id></comment><comment><text>13.270162918298757</text><id>SNR</id></comment></pick><pick publicID="de.gempa.tb1.Pick/20250414185337.568752.140349"><time><value>2025-04-14T18:53:29.878393Z</value></time><waveformID networkCode="CX" stationCode="PB01" channelCode="HHZ"/><filterID>ITAPER(4)&gt;&gt;BW(4,4,20)</filterID><methodID>AIC</methodID><horizontalSlowness><value>11.947799637952428</value></horizontalSlowness><backazimuth><value>220.60302722962822</value></backazimuth><phaseHint>P</phaseHint><evaluationMode>automatic</evaluationMode><comment><text>27.87084831970949</text><id>DFX:rectilinearity</id></comment><comment><text>12.488874856351798</text><id>SNR</id></comment></pick><pick publicID="de.gempa.tb1.Pick/20250414185405.592606.140359"><time><value>2025-04-14T18:53:52.928393Z</value></time><waveformID networkCode="CX" stationCode="PB01" channelCode="HHN"/><filterID>ITAPER(2)&gt;&gt;BW(3,3,20)</filterID><methodID>L2-AIC-GRID</methodID><horizontalSlowness><value>21.523456256780698</value></horizontalSlowness><backazimuth><value>280.98591082053377</value></backazimuth><phaseHint>S</phaseHint><evaluationMode>automatic</evaluationMode><comment><text>24.030207266107237</text><id>DFX:rectilinearity</id></comment><comment><text>de.gempa.tb1.Pick/20250414185337.568752.140349</text><id>RefPickID</id></comment><comment><text>5.879096502044648</text><id>SNR</id></comment></pick><origin publicID="de.gempa.tb1.Origin/20250414185405.595835.147589"><time><value>2025-04-14T18:52:57.869044Z</value><uncertainty>0.6031711101531982</uncertainty></time><latitude><value>-22.651695251464844</value><uncertainty>3.1000163555145264</uncertainty></latitude><longitude><value>-70.22012329101562</value><uncertainty>5.945796489715576</uncertainty></longitude><depth><value>0</value></depth><depthType>operator assigned</depthType><methodID>LOCSAT</methodID><earthModelID>iasp91_scanloc</earthModelID><quality><associatedPhaseCount>8</associatedPhaseCount><usedPhaseCount>8</usedPhaseCount><associatedStationCount>7</associatedStationCount><usedStationCount>7</usedStationCount><depthPhaseCount>0</depthPhaseCount><standardError>0.26930305644164665</standardError><azimuthalGap>173.1863203048706</azimuthalGap><maximumDistance>1.7393816709518433</maximumDistance><minimumDistance>0.6011354327201843</minimumDistance><medianDistance>1.3592286109924316</medianDistance></quality><uncertainty><minHorizontalUncertainty>6.140702247619629</minHorizontalUncertainty><maxHorizontalUncertainty>13.002077102661133</maxHorizontalUncertainty><azimuthMaxHorizontalUncertainty>102.83756256103516</azimuthMaxHorizontalUncertainty><preferredDescription>horizontal uncertainty</preferredDescription></uncertainty><evaluationMode>automatic</evaluationMode><evaluationStatus>confirmed</evaluationStatus><comment><text>0.36</text><id>mismatchScore</id></comment><comment><text>mismatchScore</text><id>scevalMethod</id></comment><arrival><pickID>de.gempa.tb1.Pick/20250414185317.520484.140335</pickID><phase>P</phase><azimuth>95.2635269165039</azimuth><distance>0.6011354327201843</distance><timeResidual>-0.12065410614013672</timeResidual><timeUsed>true</timeUsed><horizontalSlownessUsed>false</horizontalSlownessUsed><backazimuthUsed>false</backazimuthUsed><weight>1</weight></arrival><arrival><pickID>de.gempa.tb1.Pick/20250414185321.191151.140337</pickID><phase>P</phase><azimuth>199.66018676757812</azimuth><distance>0.9111893773078918</distance><timeResidual>-0.15499210357666016</timeResidual><timeUsed>true</timeUsed><horizontalSlownessUsed>false</horizontalSlownessUsed><backazimuthUsed>false</backazimuthUsed><weight>1</weight></arrival><arrival><pickID>de.gempa.tb1.Pick/20250414185323.774652.140339</pickID><phase>P</phase><azimuth>18.64605712890625</azimuth><distance>0.971221387386322</distance><timeResidual>0.21979808807373047</timeResidual><timeUsed>true</timeUsed><horizontalSlownessUsed>false</horizontalSlownessUsed><backazimuthUsed>false</backazimuthUsed><weight>1</weight></arrival><arrival><pickID>de.gempa.tb1.Pick/20250414185327.51398.140341</pickID><phase>P</phase><azimuth>46.98323440551758</azimuth><distance>1.243423581123352</distance><timeResidual>0.020658493041992188</timeResidual><timeUsed>true</timeUsed><horizontalSlownessUsed>false</horizontalSlownessUsed><backazimuthUsed>false</backazimuthUsed><weight>1</weight></arrival><arrival><pickID>de.gempa.tb1.Pick/20250414185328.568979.140345</pickID><phase>P</phase><azimuth>12.84650707244873</azimuth><distance>1.3592286109924316</distance><timeResidual>-0.3223075866699219</timeResidual><timeUsed>true</timeUsed><horizontalSlownessUsed>false</horizontalSlownessUsed><backazimuthUsed>false</backazimuthUsed><weight>1</weight></arrival><arrival><pickID>de.gempa.tb1.Pick/20250414185331.577874.140347</pickID><phase>P</phase><azimuth>145.76084899902344</azimuth><distance>1.5120233297348022</distance><timeResidual>0.142730712890625</timeResidual><timeUsed>true</timeUsed><horizontalSlownessUsed>false</horizontalSlownessUsed><backazimuthUsed>false</backazimuthUsed><weight>1</weight></arrival><arrival><pickID>de.gempa.tb1.Pick/20250414185337.568752.140349</pickID><phase>P</phase><azimuth>23.17568588256836</azimuth><distance>1.7393816709518433</distance><timeResidual>0.5483875274658203</timeResidual><timeUsed>true</timeUsed><horizontalSlownessUsed>false</horizontalSlownessUsed><backazimuthUsed>false</backazimuthUsed><weight>1</weight></arrival><arrival><pickID>de.gempa.tb1.Pick/20250414185405.592606.140359</pickID><phase>S</phase><azimuth>23.17568588256836</azimuth><distance>1.7393816709518433</distance><timeResidual>-0.2605609893798828</timeResidual><timeUsed>true</timeUsed><horizontalSlownessUsed>false</horizontalSlownessUsed><backazimuthUsed>false</backazimuthUsed><weight>1</weight></arrival><magnitude publicID="de.gempa.tb1.Magnitude/20250414185405.601441.530327"><magnitude><value>2.2934758613439574</value></magnitude><type>M</type><methodID>weighted average</methodID><stationCount>7</stationCount></magnitude></origin><event publicID="gempa2025hjsa"><preferredOriginID>de.gempa.tb1.Origin/20250414185405.595835.147589</preferredOriginID><preferredMagnitudeID>de.gempa.tb1.Magnitude/20250414185405.601441.530327</preferredMagnitudeID><description><text>Near Coast of Northern Chile</text><type>region name</type></description><originReference>de.gempa.tb1.Origin/20250414185405.595835.147589</originReference></event></EventParameters></seiscomp>