<?xml version="1.0" encoding="UTF-8"?>
<seiscomp xmlns="http://geofon.gfz-potsdam.de/ns/seiscomp3-schema/0.13" version="0.13"><EventParameters><pick publicID="de.gempa.tb1.Pick/20250412215208.327319.191877"><time><value>2025-04-12T21:52:02.54Z</value></time><waveformID networkCode="SX" stationCode="MULD" channelCode="HHZ"/><filterID>ITAPER(2)&gt;&gt;BW(3,3,20)</filterID><methodID>AIC</methodID><horizontalSlowness><value>22.789173325004853</value></horizontalSlowness><backazimuth><value>312.9501752295016</value></backazimuth><phaseHint>P</phaseHint><evaluationMode>automatic</evaluationMode><comment><text>16.463369762072848</text><id>DFX:rectilinearity</id></comment></pick><pick publicID="de.gempa.tb1.Pick/20250412215208.756709.191879"><time><value>2025-04-12T21:52:05.805Z</value></time><waveformID networkCode="BW" stationCode="MANZ" channelCode="HHZ"/><filterID>ITAPER(2)&gt;&gt;BW(3,3,20)</filterID><methodID>AIC</methodID><horizontalSlowness><value>19.983125872308303</value></horizontalSlowness><backazimuth><value>110.54196731879361</value></backazimuth><phaseHint>P</phaseHint><evaluationMode>automatic</evaluationMode><comment><text>1.2367102497642037</text><id>DFX:rectilinearity</id></comment></pick><pick publicID="de.gempa.tb1.Pick/20250412215209.48383.191881"><time><value>2025-04-12T21:52:01.2575Z</value></time><waveformID networkCode="SX" stationCode="WERN" channelCode="HHZ"/><filterID>ITAPER(2)&gt;&gt;BW(3,3,20)</filterID><methodID>AIC</methodID><horizontalSlowness><value>23.39150832014502</value></horizontalSlowness><backazimuth><value>247.85850433204973</value></backazimuth><phaseHint>P</phaseHint><evaluationMode>automatic</evaluationMode><comment><text>275.5232886869606</text><id>DFX:rectilinearity</id></comment></pick><pick publicID="de.gempa.tb1.Pick/20250412215209.613572.191883"><time><value>2025-04-12T21:52:01.5Z</value></time><waveformID networkCode="SX" stationCode="ROHR" channelCode="HHZ"/><filterID>ITAPER(2)&gt;&gt;BW(3,3,20)</filterID><methodID>AIC</methodID><horizontalSlowness><value>20.013412882586792</value></horizontalSlowness><backazimuth><value>78.01797546318859</value></backazimuth><phaseHint>P</phaseHint><evaluationMode>automatic</evaluationMode><comment><text>23.138997887731016</text><id>DFX:rectilinearity</id></comment></pick><pick publicID="de.gempa.tb1.Pick/20250412215209.92528.191885"><time><value>2025-04-12T21:52:02.21Z</value></time><waveformID networkCode="SX" stationCode="GUNZ" channelCode="HHZ"/><filterID>ITAPER(2)&gt;&gt;BW(3,3,20)</filterID><methodID>AIC</methodID><horizontalSlowness><value>22.95962499654732</value></horizontalSlowness><backazimuth><value>280.5988338484372</value></backazimuth><phaseHint>P</phaseHint><evaluationMode>automatic</evaluationMode><comment><text>67.41697919490875</text><id>DFX:rectilinearity</id></comment></pick><pick publicID="de.gempa.tb1.Pick/20250412215210.682695.191887"><time><value>2025-04-12T21:52:03.53Z</value></time><waveformID networkCode="SX" stationCode="TRIB" channelCode="HHZ"/><filterID>ITAPER(2)&gt;&gt;BW(3,3,20)</filterID><methodID>AIC</methodID><horizontalSlowness><value>23.25638827970086</value></horizontalSlowness><backazimuth><value>72.27675441529748</value></backazimuth><phaseHint>P</phaseHint><evaluationMode>automatic</evaluationMode><comment><text>3.778254191519284</text><id>DFX:rectilinearity</id></comment></pick><pick publicID="de.gempa.tb1.Pick/20250412215211.518356.191889"><time><value>2025-04-12T21:52:09.33Z</value></time><waveformID networkCode="BW" stationCode="ROTZ" channelCode="HHZ"/><filterID>ITAPER(2)&gt;&gt;BW(3,3,20)</filterID><methodID>AIC</methodID><horizontalSlowness><value>8.740688363034545</value><uncertainty>6.457784401017397</uncertainty></horizontalSlowness><backazimuth><value>278.75071785391975</value><uncertainty>43.35839270485527</uncertainty></backazimuth><phaseHint>P</phaseHint><evaluationMode>automatic</evaluationMode><comment><text>0.505431685768429</text><id>DFX:rectilinearity</id></comment></pick><pick publicID="de.gempa.tb1.Pick/20250412215211.594817.191891"><time><value>2025-04-12T21:52:03.44Z</value></time><waveformID networkCode="SX" stationCode="WERD" channelCode="HHZ"/><filterID>ITAPER(2)&gt;&gt;BW(3,3,20)</filterID><methodID>AIC</methodID><horizontalSlowness><value>21.89109856248588</value></horizontalSlowness><backazimuth><value>56.73365034283381</value></backazimuth><phaseHint>P</phaseHint><evaluationMode>automatic</evaluationMode><comment><text>30.565130213701654</text><id>DFX:rectilinearity</id></comment></pick><pick publicID="de.gempa.tb1.Pick/20250412215211.816569.191893"><time><value>2025-04-12T21:52:02.52Z</value></time><waveformID networkCode="SX" stationCode="TANN" channelCode="HHZ"/><filterID>ITAPER(2)&gt;&gt;BW(3,3,20)</filterID><methodID>AIC</methodID><horizontalSlowness><value>18.05008932131674</value></horizontalSlowness><backazimuth><value>320.7954306926167</value></backazimuth><phaseHint>P</phaseHint><evaluationMode>automatic</evaluationMode><comment><text>15.226563460750311</text><id>DFX:rectilinearity</id></comment></pick><pick publicID="de.gempa.tb1.Pick/20250412215212.000511.191895"><time><value>2025-04-12T21:52:05.91Z</value></time><waveformID networkCode="SX" stationCode="LEUT" channelCode="HHZ"/><filterID>ITAPER(2)&gt;&gt;BW(3,3,20)</filterID><methodID>AIC</methodID><horizontalSlowness><value>23.40070615547999</value></horizontalSlowness><backazimuth><value>200.5018117532445</value></backazimuth><phaseHint>P</phaseHint><evaluationMode>automatic</evaluationMode><comment><text>2.22042864592315</text><id>DFX:rectilinearity</id></comment></pick><pick publicID="de.gempa.tb1.Pick/20250412215214.336871.191897"><time><value>2025-04-12T21:52:03.18Z</value></time><waveformID networkCode="SX" stationCode="ROHR" channelCode="HHN"/><filterID>ITAPER(3)&gt;&gt;BW(4,3,10)</filterID><methodID>L2-AIC-GRID</methodID><horizontalSlowness><value>19.901015140127168</value></horizontalSlowness><backazimuth><value>78.82396728087693</value></backazimuth><phaseHint>S</phaseHint><evaluationMode>automatic</evaluationMode><comment><text>21.2752442404174</text><id>DFX:rectilinearity</id></comment><comment><text>de.gempa.tb1.Pick/20250412215209.613572.191883</text><id>RefPickID</id></comment></pick><pick publicID="de.gempa.tb1.Pick/20250412215214.38085.191898"><time><value>2025-04-12T21:52:10.415Z</value></time><waveformID networkCode="BW" stationCode="MANZ" channelCode="HHN"/><filterID>ITAPER(3)&gt;&gt;BW(4,3,10)</filterID><methodID>L2-AIC-GRID</methodID><horizontalSlowness><value>20.325746018364068</value></horizontalSlowness><backazimuth><value>117.12803927549405</value></backazimuth><phaseHint>S</phaseHint><evaluationMode>automatic</evaluationMode><comment><text>9.511011079783804</text><id>DFX:rectilinearity</id></comment><comment><text>de.gempa.tb1.Pick/20250412215208.756709.191879</text><id>RefPickID</id></comment></pick><pick publicID="de.gempa.tb1.Pick/20250412215214.391182.191899"><time><value>2025-04-12T21:52:04.83Z</value></time><waveformID networkCode="SX" stationCode="MULD" channelCode="HHN"/><filterID>ITAPER(3)&gt;&gt;BW(4,3,10)</filterID><methodID>L2-AIC-GRID</methodID><horizontalSlowness><value>23.239021457118273</value></horizontalSlowness><backazimuth><value>314.42154790533334</value></backazimuth><phaseHint>S</phaseHint><evaluationMode>automatic</evaluationMode><comment><text>17.278124194222535</text><id>DFX:rectilinearity</id></comment><comment><text>de.gempa.tb1.Pick/20250412215208.327319.191877</text><id>RefPickID</id></comment></pick><pick publicID="de.gempa.tb1.Pick/20250412215214.70622.191901"><time><value>2025-04-12T21:52:06.22Z</value></time><waveformID networkCode="SX" stationCode="WERD" channelCode="HHN"/><filterID>ITAPER(3)&gt;&gt;BW(4,3,10)</filterID><methodID>L2-AIC-GRID</methodID><horizontalSlowness><value>21.64905439611895</value></horizontalSlowness><backazimuth><value>57.36018069950529</value></backazimuth><phaseHint>S</phaseHint><evaluationMode>automatic</evaluationMode><comment><text>28.528037431687316</text><id>DFX:rectilinearity</id></comment><comment><text>de.gempa.tb1.Pick/20250412215211.594817.191891</text><id>RefPickID</id></comment></pick><pick publicID="de.gempa.tb1.Pick/20250412215215.84712.191902"><time><value>2025-04-12T21:52:04.82Z</value></time><waveformID networkCode="SX" stationCode="TANN" channelCode="HHN"/><filterID>ITAPER(3)&gt;&gt;BW(4,3,10)</filterID><methodID>L2-AIC-GRID</methodID><horizontalSlowness><value>17.76420120174097</value></horizontalSlowness><backazimuth><value>311.5152652508314</value></backazimuth><phaseHint>S</phaseHint><evaluationMode>automatic</evaluationMode><comment><text>17.039304838849525</text><id>DFX:rectilinearity</id></comment><comment><text>de.gempa.tb1.Pick/20250412215211.816569.191893</text><id>RefPickID</id></comment></pick><pick publicID="de.gempa.tb1.Pick/20250412215215.87105.191903"><time><value>2025-04-12T21:52:04.24Z</value></time><waveformID networkCode="SX" stationCode="GUNZ" channelCode="HHN"/><filterID>ITAPER(3)&gt;&gt;BW(4,3,10)</filterID><methodID>L2-AIC-GRID</methodID><horizontalSlowness><value>22.945446896957755</value></horizontalSlowness><backazimuth><value>280.4765033710871</value></backazimuth><phaseHint>S</phaseHint><evaluationMode>automatic</evaluationMode><comment><text>67.44704080062058</text><id>DFX:rectilinearity</id></comment><comment><text>de.gempa.tb1.Pick/20250412215209.92528.191885</text><id>RefPickID</id></comment></pick><pick publicID="de.gempa.tb1.Pick/20250412215216.831379.191904"><time><value>2025-04-12T21:52:09.610612Z</value></time><waveformID networkCode="SX" stationCode="MEINS" channelCode="HHZ"/><filterID>ITAPER(2)&gt;&gt;BW(3,3,20)</filterID><methodID>AIC</methodID><horizontalSlowness><value>18.534144215705435</value></horizontalSlowness><backazimuth><value>193.28684284012778</value></backazimuth><phaseHint>P</phaseHint><evaluationMode>automatic</evaluationMode><comment><text>1.3687912055174065</text><id>DFX:rectilinearity</id></comment></pick><pick publicID="de.gempa.tb1.Pick/20250412215216.871448.191906"><time><value>2025-04-12T21:52:07.19Z</value></time><waveformID networkCode="SX" stationCode="SCHF" channelCode="HHZ"/><filterID>ITAPER(2)&gt;&gt;BW(3,3,20)</filterID><methodID>AIC</methodID><horizontalSlowness><value>19.13902228145427</value></horizontalSlowness><backazimuth><value>187.56214772257962</value></backazimuth><phaseHint>P</phaseHint><evaluationMode>automatic</evaluationMode><comment><text>3.330992311384154</text><id>DFX:rectilinearity</id></comment></pick><pick publicID="de.gempa.tb1.Pick/20250412215218.456929.191909"><time><value>2025-04-12T21:52:06.55Z</value></time><waveformID networkCode="SX" stationCode="TRIB" channelCode="HHN"/><filterID>ITAPER(3)&gt;&gt;BW(4,3,10)</filterID><methodID>L2-AIC-GRID</methodID><horizontalSlowness><value>23.4882007441467</value></horizontalSlowness><backazimuth><value>258.0465274938231</value></backazimuth><phaseHint>S</phaseHint><evaluationMode>automatic</evaluationMode><comment><text>3.807074768433611</text><id>DFX:rectilinearity</id></comment><comment><text>de.gempa.tb1.Pick/20250412215210.682695.191887</text><id>RefPickID</id></comment></pick><pick publicID="de.gempa.tb1.Pick/20250412215219.238774.191910"><time><value>2025-04-12T21:52:15.83Z</value></time><waveformID networkCode="BW" stationCode="ROTZ" channelCode="HHN"/><filterID>ITAPER(3)&gt;&gt;BW(4,3,10)</filterID><methodID>L2-AIC-GRID</methodID><horizontalSlowness><value>19.502011878889938</value><uncertainty>2.715204995967884</uncertainty></horizontalSlowness><backazimuth><value>80.30367710761105</value><uncertainty>7.983571743791976</uncertainty></backazimuth><phaseHint>S</phaseHint><evaluationMode>automatic</evaluationMode><comment><text>1.0607484307717427</text><id>DFX:rectilinearity</id></comment><comment><text>de.gempa.tb1.Pick/20250412215211.518356.191889</text><id>RefPickID</id></comment></pick><origin publicID="de.gempa.tb1.Origin/20250412215227.629108.190127"><time><value>2025-04-12T21:51:58.862744Z</value><uncertainty>0.4377771019935608</uncertainty></time><latitude><value>50.25086975097656</value><uncertainty>1.5769436359405518</uncertainty></latitude><longitude><value>12.475214004516602</value><uncertainty>3.3774352073669434</uncertainty></longitude><depth><value>2.656463384628296</value><uncertainty>2.1696515083312988</uncertainty></depth><depthType>from location</depthType><methodID>LOCSAT</methodID><earthModelID>iasp91</earthModelID><quality><associatedPhaseCount>20</associatedPhaseCount><usedPhaseCount>20</usedPhaseCount><associatedStationCount>12</associatedStationCount><usedStationCount>12</usedStationCount><depthPhaseCount>0</depthPhaseCount><standardError>0.27868610054966525</standardError><azimuthalGap>171.64434051513672</azimuthalGap><maximumDistance>0.5475038886070251</maximumDistance><minimumDistance>0.07336931675672531</minimumDistance><medianDistance>0.22487694025039673</medianDistance></quality><uncertainty><minHorizontalUncertainty>2.922637701034546</minHorizontalUncertainty><maxHorizontalUncertainty>7.434991836547852</maxHorizontalUncertainty><azimuthMaxHorizontalUncertainty>104.37574005126953</azimuthMaxHorizontalUncertainty><preferredDescription>horizontal uncertainty</preferredDescription></uncertainty><evaluationMode>automatic</evaluationMode><evaluationStatus>confirmed</evaluationStatus><comment><text>0.00</text><id>mismatchScore</id></comment><comment><text>mismatchScore</text><id>scevalMethod</id></comment><arrival><pickID>de.gempa.tb1.Pick/20250412215208.327319.191877</pickID><phase>P</phase><azimuth>344.1912841796875</azimuth><distance>0.167483851313591</distance><timeResidual>0.029997825622558594</timeResidual><timeUsed>true</timeUsed><horizontalSlownessUsed>false</horizontalSlownessUsed><backazimuthUsed>false</backazimuthUsed><weight>1</weight></arrival><arrival><pickID>de.gempa.tb1.Pick/20250412215208.756709.191879</pickID><phase>P</phase><azimuth>221.85321044921875</azimuth><distance>0.35496896505355835</distance><timeResidual>-0.1998748779296875</timeResidual><timeUsed>true</timeUsed><horizontalSlownessUsed>false</horizontalSlownessUsed><backazimuthUsed>false</backazimuthUsed><weight>1</weight></arrival><arrival><pickID>de.gempa.tb1.Pick/20250412215209.48383.191881</pickID><phase>P</phase><azimuth>299.9379577636719</azimuth><distance>0.07336931675672531</distance><timeResidual>0.5012049674987793</timeResidual><timeUsed>true</timeUsed><horizontalSlownessUsed>false</horizontalSlownessUsed><backazimuthUsed>false</backazimuthUsed><weight>1</weight></arrival><arrival><pickID>de.gempa.tb1.Pick/20250412215209.613572.191883</pickID><phase>P</phase><azimuth>260.62139892578125</azimuth><distance>0.10297969728708267</distance><timeResidual>0.1917710304260254</timeResidual><timeUsed>true</timeUsed><horizontalSlownessUsed>false</horizontalSlownessUsed><backazimuthUsed>false</backazimuthUsed><weight>1</weight></arrival><arrival><pickID>de.gempa.tb1.Pick/20250412215209.92528.191885</pickID><phase>P</phase><azimuth>320.8194274902344</azimuth><distance>0.145588681101799</distance><timeResidual>0.10794925689697266</timeResidual><timeUsed>true</timeUsed><horizontalSlownessUsed>false</horizontalSlownessUsed><backazimuthUsed>false</backazimuthUsed><weight>1</weight></arrival><arrival><pickID>de.gempa.tb1.Pick/20250412215210.682695.191887</pickID><phase>P</phase><azimuth>295.1548156738281</azimuth><distance>0.23936258256435394</distance><timeResidual>-0.3196754455566406</timeResidual><timeUsed>true</timeUsed><horizontalSlownessUsed>false</horizontalSlownessUsed><backazimuthUsed>false</backazimuthUsed><weight>1</weight></arrival><arrival><pickID>de.gempa.tb1.Pick/20250412215211.518356.191889</pickID><phase>P</phase><azimuth>199.75711059570312</azimuth><distance>0.5145010352134705</distance><timeResidual>0.35159969329833984</timeResidual><timeUsed>true</timeUsed><horizontalSlownessUsed>false</horizontalSlownessUsed><backazimuthUsed>false</backazimuthUsed><weight>1</weight></arrival><arrival><pickID>de.gempa.tb1.Pick/20250412215211.594817.191891</pickID><phase>P</phase><azimuth>331.4302673339844</azimuth><distance>0.22487694025039673</distance><timeResidual>-0.1395282745361328</timeResidual><timeUsed>true</timeUsed><horizontalSlownessUsed>false</horizontalSlownessUsed><backazimuthUsed>false</backazimuthUsed><weight>1</weight></arrival><arrival><pickID>de.gempa.tb1.Pick/20250412215211.816569.191893</pickID><phase>P</phase><azimuth>356.832763671875</azimuth><distance>0.16458401083946228</distance><timeResidual>0.06404662132263184</timeResidual><timeUsed>true</timeUsed><horizontalSlownessUsed>false</horizontalSlownessUsed><backazimuthUsed>false</backazimuthUsed><weight>1</weight></arrival><arrival><pickID>de.gempa.tb1.Pick/20250412215212.000511.191895</pickID><phase>P</phase><azimuth>4.887047290802002</azimuth><distance>0.35808584094047546</distance><timeResidual>-0.15174293518066406</timeResidual><timeUsed>true</timeUsed><horizontalSlownessUsed>false</horizontalSlownessUsed><backazimuthUsed>false</backazimuthUsed><weight>1</weight></arrival><arrival><pickID>de.gempa.tb1.Pick/20250412215214.336871.191897</pickID><phase>S</phase><azimuth>260.62139892578125</azimuth><distance>0.10297969728708267</distance><timeResidual>0.5383813381195068</timeResidual><timeUsed>true</timeUsed><horizontalSlownessUsed>false</horizontalSlownessUsed><backazimuthUsed>false</backazimuthUsed><weight>1</weight></arrival><arrival><pickID>de.gempa.tb1.Pick/20250412215214.38085.191898</pickID><phase>S</phase><azimuth>221.85321044921875</azimuth><distance>0.35496896505355835</distance><timeResidual>-0.36308765411376953</timeResidual><timeUsed>true</timeUsed><horizontalSlownessUsed>false</horizontalSlownessUsed><backazimuthUsed>false</backazimuthUsed><weight>1</weight></arrival><arrival><pickID>de.gempa.tb1.Pick/20250412215214.391182.191899</pickID><phase>S</phase><azimuth>344.1912841796875</azimuth><distance>0.167483851313591</distance><timeResidual>0.10652565956115723</timeResidual><timeUsed>true</timeUsed><horizontalSlownessUsed>false</horizontalSlownessUsed><backazimuthUsed>false</backazimuthUsed><weight>1</weight></arrival><arrival><pickID>de.gempa.tb1.Pick/20250412215214.70622.191901</pickID><phase>S</phase><azimuth>331.4302673339844</azimuth><distance>0.22487694025039673</distance><timeResidual>-0.35628509521484375</timeResidual><timeUsed>true</timeUsed><horizontalSlownessUsed>false</horizontalSlownessUsed><backazimuthUsed>false</backazimuthUsed><weight>1</weight></arrival><arrival><pickID>de.gempa.tb1.Pick/20250412215215.84712.191902</pickID><phase>S</phase><azimuth>356.832763671875</azimuth><distance>0.16458401083946228</distance><timeResidual>0.19015979766845703</timeResidual><timeUsed>true</timeUsed><horizontalSlownessUsed>false</horizontalSlownessUsed><backazimuthUsed>false</backazimuthUsed><weight>1</weight></arrival><arrival><pickID>de.gempa.tb1.Pick/20250412215215.87105.191903</pickID><phase>S</phase><azimuth>320.8194274902344</azimuth><distance>0.145588681101799</distance><timeResidual>0.22323322296142578</timeResidual><timeUsed>true</timeUsed><horizontalSlownessUsed>false</horizontalSlownessUsed><backazimuthUsed>false</backazimuthUsed><weight>1</weight></arrival><arrival><pickID>de.gempa.tb1.Pick/20250412215216.831379.191904</pickID><phase>P</phase><azimuth>28.112770080566406</azimuth><distance>0.5475038886070251</distance><timeResidual>0.019056320190429688</timeResidual><timeUsed>true</timeUsed><horizontalSlownessUsed>false</horizontalSlownessUsed><backazimuthUsed>false</backazimuthUsed><weight>1</weight></arrival><arrival><pickID>de.gempa.tb1.Pick/20250412215216.871448.191906</pickID><phase>P</phase><azimuth>353.8653869628906</azimuth><distance>0.4293453097343445</distance><timeResidual>-0.19962215423583984</timeResidual><timeUsed>true</timeUsed><horizontalSlownessUsed>false</horizontalSlownessUsed><backazimuthUsed>false</backazimuthUsed><weight>1</weight></arrival><arrival><pickID>de.gempa.tb1.Pick/20250412215218.456929.191909</pickID><phase>S</phase><azimuth>295.1