<?xml version="1.0" encoding="UTF-8"?>
<seiscomp xmlns="http://geofon.gfz-potsdam.de/ns/seiscomp3-schema/0.13" version="0.13"><EventParameters><pick publicID="de.gempa.tb1.Pick/20250413142113.571531.131759"><time><value>2025-04-13T14:21:07.178394Z</value></time><waveformID networkCode="CX" stationCode="PB02" channelCode="HHZ"/><filterID>ITAPER(4)&gt;&gt;BW(4,4,20)</filterID><methodID>AIC</methodID><horizontalSlowness><value>19.82926769748367</value></horizontalSlowness><backazimuth><value>43.4155825440277</value></backazimuth><phaseHint>P</phaseHint><evaluationMode>automatic</evaluationMode><comment><text>69966.88774969733</text><id>DFX:rectilinearity</id></comment><comment><text>768.4033325140309</text><id>SNR</id></comment></pick><pick publicID="de.gempa.tb1.Pick/20250413142116.541832.131761"><time><value>2025-04-13T14:21:10.758394Z</value></time><waveformID networkCode="CX" stationCode="PB02" channelCode="HHN"/><filterID>ITAPER(2)&gt;&gt;BW(3,3,20)</filterID><methodID>L2-AIC-GRID</methodID><horizontalSlowness><value>19.67642624087357</value></horizontalSlowness><backazimuth><value>47.38244915847986</value></backazimuth><phaseHint>S</phaseHint><evaluationMode>automatic</evaluationMode><comment><text>88284.95266969303</text><id>DFX:rectilinearity</id></comment><comment><text>de.gempa.tb1.Pick/20250413142113.571531.131759</text><id>RefPickID</id></comment><comment><text>6.875174040832513</text><id>SNR</id></comment></pick><pick publicID="de.gempa.tb1.Pick/20250413142118.771898.131762"><time><value>2025-04-13T14:21:13.278393Z</value></time><waveformID networkCode="CX" stationCode="PB03" channelCode="HHZ"/><filterID>ITAPER(4)&gt;&gt;BW(4,4,20)</filterID><methodID>AIC</methodID><horizontalSlowness><value>13.3713851893151</value></horizontalSlowness><backazimuth><value>340.22800421451126</value></backazimuth><phaseHint>P</phaseHint><evaluationMode>automatic</evaluationMode><comment><text>194.27731460997694</text><id>DFX:rectilinearity</id></comment><comment><text>174.07069050031268</text><id>SNR</id></comment></pick><pick publicID="de.gempa.tb1.Pick/20250413142119.286138.131764"><time><value>2025-04-13T14:21:14.539999Z</value></time><waveformID networkCode="CX" stationCode="PATCX" channelCode="HHZ"/><filterID>ITAPER(4)&gt;&gt;BW(4,4,20)</filterID><methodID>AIC</methodID><horizontalSlowness><value>9.045798971975193</value></horizontalSlowness><backazimuth><value>181.49560196841696</value></backazimuth><phaseHint>P</phaseHint><evaluationMode>automatic</evaluationMode><comment><text>159.4731237959565</text><id>DFX:rectilinearity</id></comment><comment><text>32.953978992560714</text><id>SNR</id></comment></pick><pick publicID="de.gempa.tb1.Pick/20250413142119.580532.131766"><time><value>2025-04-13T14:21:12.528393Z</value></time><waveformID networkCode="CX" stationCode="PB01" channelCode="HHZ"/><filterID>ITAPER(4)&gt;&gt;BW(4,4,20)</filterID><methodID>AIC</methodID><horizontalSlowness><value>14.363826791685145</value></horizontalSlowness><backazimuth><value>231.1150062612641</value></backazimuth><phaseHint>P</phaseHint><evaluationMode>automatic</evaluationMode><comment><text>34.834098987293864</text><id>DFX:rectilinearity</id></comment><comment><text>183.78332851448712</text><id>SNR</id></comment></pick><pick publicID="de.gempa.tb1.Pick/20250413142126.666551.131768"><time><value>2025-04-13T14:21:08.598394Z</value></time><waveformID networkCode="CX" stationCode="PB07" channelCode="HHZ"/><filterID>ITAPER(4)&gt;&gt;BW(4,4,20)</filterID><methodID>AIC</methodID><horizontalSlowness><value>19.677396533026425</value></horizontalSlowness><backazimuth><value>59.29679218799258</value></backazimuth><phaseHint>P</phaseHint><evaluationMode>automatic</evaluationMode><comment><text>676.6236549337093</text><id>DFX:rectilinearity</id></comment><comment><text>648.5358306163314</text><id>SNR</id></comment></pick><pick publicID="de.gempa.tb1.Pick/20250413142126.788662.131770"><time><value>2025-04-13T14:21:20.098393Z</value></time><waveformID networkCode="CX" stationCode="PB01" channelCode="HHN"/><filterID>ITAPER(2)&gt;&gt;BW(3,3,20)</filterID><methodID>L2-AIC-GRID</methodID><horizontalSlowness><value>13.645176665675717</value></horizontalSlowness><backazimuth><value>87.75886260561549</value></backazimuth><phaseHint>S</phaseHint><evaluationMode>automatic</evaluationMode><comment><text>10216.91135435238</text><id>DFX:rectilinearity</id></comment><comment><text>de.gempa.tb1.Pick/20250413142119.580532.131766</text><id>RefPickID</id></comment><comment><text>23.435311330262795</text><id>SNR</id></comment></pick><pick publicID="de.gempa.tb1.Pick/20250413142127.525677.131771"><time><value>2025-04-13T14:21:13.81Z</value></time><waveformID networkCode="CX" stationCode="PB09" channelCode="HHZ"/><filterID>ITAPER(4)&gt;&gt;BW(4,4,20)</filterID><methodID>AIC</methodID><horizontalSlowness><value>11.11167635045423</value></horizontalSlowness><backazimuth><value>307.63532874661166</value></backazimuth><phaseHint>P</phaseHint><evaluationMode>automatic</evaluationMode><comment><text>26.876401992967445</text><id>DFX:rectilinearity</id></comment><comment><text>256.1333713735111</text><id>SNR</id></comment></pick><pick publicID="de.gempa.tb1.Pick/20250413142129.613663.131774"><time><value>2025-04-13T14:21:24.028393Z</value></time><waveformID networkCode="CX" stationCode="PB06" channelCode="HHZ"/><filterID>ITAPER(4)&gt;&gt;BW(4,4,20)</filterID><methodID>AIC</methodID><horizontalSlowness><value>10.1969460159892</value></horizontalSlowness><backazimuth><value>344.70971321891744</value></backazimuth><phaseHint>P</phaseHint><evaluationMode>automatic</evaluationMode><comment><text>85.82021616116398</text><id>DFX:rectilinearity</id></comment><comment><text>39.615173729424455</text><id>SNR</id></comment></pick><pick publicID="de.gempa.tb1.Pick/20250413142131.389687.131776"><time><value>2025-04-13T14:21:24.219999Z</value></time><waveformID networkCode="CX" stationCode="PATCX" channelCode="HHN"/><filterID>ITAPER(2)&gt;&gt;BW(3,3,20)</filterID><methodID>L2-AIC-GRID</methodID><horizontalSlowness><value>17.519059733044777</value></horizontalSlowness><backazimuth><value>359.47224743875375</value></backazimuth><phaseHint>S</phaseHint><evaluationMode>automatic</evaluationMode><comment><text>1787.7607339595704</text><id>DFX:rectilinearity</id></comment><comment><text>de.gempa.tb1.Pick/20250413142119.286138.131764</text><id>RefPickID</id></comment><comment><text>5.756580487275032</text><id>SNR</id></comment></pick><pick publicID="de.gempa.tb1.Pick/20250413142131.785515.131777"><time><value>2025-04-13T14:21:21.278393Z</value></time><waveformID networkCode="CX" stationCode="PB03" channelCode="HHN"/><filterID>ITAPER(2)&gt;&gt;BW(3,3,20)</filterID><methodID>L2-AIC-GRID</methodID><horizontalSlowness><value>22.744369858395157</value></horizontalSlowness><backazimuth><value>241.1590911134849</value></backazimuth><phaseHint>S</phaseHint><evaluationMode>automatic</evaluationMode><comment><text>2588.207615290129</text><id>DFX:rectilinearity</id></comment><comment><text>de.gempa.tb1.Pick/20250413142118.771898.131762</text><id>RefPickID</id></comment><comment><text>11.36943905649412</text><id>SNR</id></comment></pick><pick publicID="de.gempa.tb1.Pick/20250413142135.201862.131778"><time><value>2025-04-13T14:21:28.138393Z</value></time><waveformID networkCode="CX" stationCode="PB08" channelCode="HHZ"/><filterID>ITAPER(4)&gt;&gt;BW(4,4,20)</filterID><methodID>AIC</methodID><horizontalSlowness><value>9.89918979243541</value></horizontalSlowness><backazimuth><value>173.86070082256225</value></backazimuth><phaseHint>P</phaseHint><evaluationMode>automatic</evaluationMode><comment><text>9.289478361773364</text><id>DFX:rectilinearity</id></comment><comment><text>11.02780963813669</text><id>SNR</id></comment></pick><pick publicID="de.gempa.tb1.Pick/20250413142137.61497.131780"><time><value>2025-04-13T14:21:32.278393Z</value></time><waveformID networkCode="CX" stationCode="PB15" channelCode="HHZ"/><filterID>ITAPER(4)&gt;&gt;BW(4,4,20)</filterID><methodID>AIC</methodID><horizontalSlowness><value>19.54597943339241</value></horizontalSlowness><backazimuth><value>111.93937545967779</value></backazimuth><phaseHint>P</phaseHint><evaluationMode>automatic</evaluationMode><comment><text>900.6391571154901</text><id>DFX:rectilinearity</id></comment><comment><text>12.39294232162166</text><id>SNR</id></comment></pick><pick publicID="de.gempa.tb1.Pick/20250413142139.503595.131783"><time><value>2025-04-13T14:21:33.15Z</value></time><waveformID networkCode="CX" stationCode="PSGCX" channelCode="HHZ"/><filterID>ITAPER(4)&gt;&gt;BW(4,4,20)</filterID><methodID>AIC</methodID><horizontalSlowness><value>14.042525415347164</value></horizontalSlowness><backazimuth><value>218.44057717743772</value></backazimuth><phaseHint>P</phaseHint><evaluationMode>automatic</evaluationMode><comment><text>21.387599723786373</text><id>DFX:rectilinearity</id></comment><comment><text>37.31105188045563</text><id>SNR</id></comment></pick><pick publicID="de.gempa.tb1.Pick/20250413142147.662696.131788"><time><value>2025-04-13T14:21:40.648393Z</value></time><waveformID networkCode="CX" stationCode="PB06" channelCode="HHN"/><filterID>ITAPER(2)&gt;&gt;BW(3,3,20)</filterID><methodID>L2-AIC-GRID</methodID><horizontalSlowness><value>17.48498585587189</value></horizontalSlowness><backazimuth><value>166.53789745847013</value></backazimuth><phaseHint>S</phaseHint><evaluationMode>automatic</evaluationMode><comment><text>457.8886643295952</text><id>DFX:rectilinearity</id></comment><comment><text>de.gempa.tb1.Pick/20250413142129.613663.131774</text><id>RefPickID</id></comment><comment><text>9.825941017360352</text><id>SNR</id></comment></pick><origin publicID="de.gempa.tb1.Origin/20250413142147.666164.112539"><time><value>2025-04-13T14:21:01.863684Z</value><uncertainty>0.26912447810173035</uncertainty></time><latitude><value>-21.466333389282227</value><uncertainty>1.70624577999115</uncertainty></latitude><longitude><value>-69.84191131591797</value><uncertainty>3.7664966583251953</uncertainty></longitude><depth><value>21.855077743530273</value><uncertainty>3.21124529838562</uncertainty></depth><depthType>from location</depthType><methodID>LOCSAT</methodID><earthModelID>iasp91_scanloc</earthModelID><quality><associatedPhaseCount>15</associatedPhaseCount><usedPhaseCount>15</usedPhaseCount><associatedStationCount>10</associatedStationCount><usedStationCount>10</usedStationCount><depthPhaseCount>0</depthPhaseCount><standardError>0.6921240696384297</standardError><azimuthalGap>146.60032653808594</azimuthalGap><maximumDistance>1.878276228904724</maximumDistance><minimumDistance>0.15435145795345306</minimumDistance><medianDistance>0.6476888060569763</medianDistance></quality><uncertainty><minHorizontalUncertainty>3.609157085418701</minHorizontalUncertainty><maxHorizontalUncertainty>8.099114418029785</maxHorizontalUncertainty><azimuthMaxHorizontalUncertainty>85.2461166381836</azimuthMaxHorizontalUncertainty><preferredDescription>horizontal uncertainty</preferredDescription></uncertainty><evaluationMode>automatic</evaluationMode><evaluationStatus>confirmed</evaluationStatus><comment><text>0.00</text><id>mismatchScore</id></comment><comment><text>mismatchScore</text><id>scevalMethod</id></comment><arrival><pickID>de.gempa.tb1.Pick/20250413142113.571531.131759</pickID><phase>P</phase><azimuth>340.9196472167969</azimuth><distance>0.15435145795345306</distance><timeResidual>0.5562376976013184</timeResidual><timeUsed>true</timeUsed><horizontalSlownessUsed>false</horizontalSlownessUsed><backazimuthUsed>false</backazimuthUsed><weight>1</weight></arrival><arrival><pickID>de.gempa.tb1.Pick/20250413142116.541832.131761</pickID><phase>S</phase><azimuth>340.9196472167969</azimuth><distance>0.15435145795345306</distance><timeResidual>0.6789956092834473</timeResidual><timeUsed>true</timeUsed><horizontalSlownessUsed>false</horizontalSlownessUsed><backazimuthUsed>false</backazimuthUsed><weight>1</weight></arrival><arrival><pickID>de.gempa.tb1.Pick/20250413142118.771898.131762</pickID><phase>P</phase><azimuth>171.9051055908203</azimuth><distance>0.5851550102233887</distance><timeResidual>-0.1608109474182129</timeResidual><timeUsed>true</timeUsed><horizontalSlownessUsed>false</horizontalSlownessUsed><backazimuthUsed>false</backazimuthUsed><weight>1</weight></arrival><arrival><pickID>de.gempa.tb1.Pick/20250413142119.286138.131764</pickID><phase>P</phase><azimuth>335.6276550292969</azimuth><distance>0.704956591129303</distance><timeResidual>-0.9309816360473633</timeResidual><timeUsed>true</timeUsed><horizontalSlownessUsed>false</horizontalSlownessUsed><backazimuthUsed>false</backazimuthUsed><weight>1</weight></arrival><arrival><pickID>de.gempa.tb1.Pick/20250413142119.580532.131766</pickID><phase>P</phase><azimuth>38.212615966796875</azimuth><distance>0.5353540778160095</distance><timeResidual>-0.07278108596801758</timeResidual><timeUsed>true</timeUsed><horizontalSlownessUsed>false</horizontalSlownessUsed><backazimuthUsed>false</backazimuthUsed><weight>1</weight></arrival><arrival><pickID>de.gempa.tb1.Pick/20250413142126.666551.131768</pickID><phase>P</phase><azimuth>189.02732849121094</azimuth><distance>0.26231637597084045</distance><timeResidual>0.4992661476135254</timeResidual><timeUsed>true</timeUsed><horizontalSlownessUsed>false</horizontalSlownessUsed><backazimuthUsed>false</backazimuthUsed><weight>1</weight></arrival><arrival><pickID>de.gempa.tb1.Pick/20250413142126.788662.131770</pickID><phase>S</phase><azimuth>38.212615966796875</azimuth><distance>0.5353540778160095</distance><timeResidual>-0.3232264518737793</timeResidual><timeUsed>true</timeUsed><horizontalSlownessUsed>false</horizontalSlownessUsed><backazimuthUsed>false</backazimuthUsed><weight>1</weight></arrival><arrival><pickID>de.gempa.tb1.Pick/20250413142127.525677.131771</pickID><phase>P</phase><azimuth>120.5793228149414</azimuth><distance>0.6476888060569763</distance><timeResidual>-0.683265209197998</timeResidual><timeUsed>true</timeUsed><horizontalSlownessUsed>false</horizontalSlownessUsed><backazimuthUsed>false</backazimuthUsed><weight>1</weight></arrival><arrival><pickID>de.gempa.tb1.Pick/20250413142129.613663.131774</pickID><phase>P</phase><azimuth>168.57261657714844</azimuth><distance>1.25866436958313</distance><timeResidual>-0.11055612564086914</timeResidual><timeUsed>true</timeUsed><horizontalSlownessUsed>false</horizontalSlownessUsed><backazimuthUsed>false</backazimuthUsed><weight>1</weight></arrival><arrival><pickID>de.gempa.tb1.Pick/20250413142131.389687.131776</pickID><phase>S</phase><azimuth>335.6276550292969</azimuth><distance>0.704956591129303</distance><timeResidual>-1.1742291450500488</timeResidual><timeUsed>true</timeUsed><horizontalSlownessUsed>false</horizontalSlownessUsed><backazimuthUsed>false</backazimuthUsed><weight>1</weight></arrival><arrival><pickID>de.gempa.tb1.Pick/20250413142131.785515.131777</pickID><phase>S</phase><azimuth>171.9051055908203</azimuth><distance>0.5851550102233887</distance><timeResidual>-0.5983157157897949</timeResidual><timeUsed>true</timeUsed><horizontalSlownessUsed>false</horizontalSlownessUsed><backazimuthUsed>false</backazimuthUsed><weight>1</weight></arrival><arrival><pickID>de.gempa.tb1.Pick/20250413142135.201862.131778</pickID><phase>P</phase><azimuth>26.159616470336914</azimuth><distance>1.467490315437317</distance><timeResidual>1.1186842918395996</timeResidual><timeUsed>true</timeUsed><horizontalSlownessUsed>false</horizontalSlownessUsed><backazimuthUsed>false</backazimuthUsed><weight>1</weight></arrival><arrival><pickID>de.gempa.tb1.Pick/20250413142137.61497.131780</pickID><phase>P</phase><azimuth>168.86302185058594</azimuth><distance>1.7673789262771606</distance><timeResidual>1.1395869255065918</timeResidual><timeUsed>true</timeUsed><horizontalSlownessUsed>false</horizontalSlownessUsed><backazimuthUsed>false</backazimuthUsed><weight>1</weight></arrival><arrival><pickID>de.gempa.tb1.Pick/20250413142139.503595.131783</pickID><phase>P</phase><azimuth>351.88629150390625</azimuth><distance>1.878276228904724</distance><timeResidual>0.4754519462585449</timeResidual><timeUsed>true</timeUsed><horizontalSlownessUsed>false</horizontalSlownessUsed><backazimuthUsed>false</backazimuthUsed><weight>1</weight></arrival><arrival><pickID>de.gempa.tb1.Pick/20250413142147.662696.131788</pickID><phase>S</phase><azimuth>168.57261657714844</azimuth><distance>1.25866436958313</distance><timeResidual>-0.4140496253967285</timeResidual><timeUsed>true</timeUsed><horizontalSlownessUsed>false</horizontalSlownessUsed><backazimuthUsed>false</backazimuthUsed><weight>1</weight></arrival><magnitude publicID="de.gempa.tb1.Magnitude/20250413142151.520149.366888"><magnitude><value>2.541600979084799</value></magnitude><type>M</type><methodID>weighted average</methodID><stationCount>8</stationCount></magnitude></origin><event publicID="gempa2025hhmy"><preferredOriginID>de.gempa.tb1.Origin/20250413142147.666164.112539</preferredOriginID><preferredMagnitudeID>de.gempa.tb1.Magnitude/20250413142151.520149.366888</preferredMagnitudeID><description><text>Northern Chile</text><type>region name</type></description><originReference>de.gempa.tb1.Origin/20250413142147.666164.112539</originReference></event></EventParameters></seiscomp>