<?xml version="1.0" encoding="UTF-8"?>
<seiscomp xmlns="http://geofon.gfz-potsdam.de/ns/seiscomp3-schema/0.13" version="0.13"><EventParameters><pick publicID="de.gempa.tb1.Pick/20250414002817.593411.134523"><time><value>2025-04-14T00:28:10.98Z</value></time><waveformID networkCode="CX" stationCode="PB19" channelCode="HHZ"/><filterID>ITAPER(4)&gt;&gt;BW(4,4,20)</filterID><methodID>AIC</methodID><horizontalSlowness><value>21.94982119975479</value></horizontalSlowness><backazimuth><value>123.83707525233436</value></backazimuth><phaseHint>P</phaseHint><evaluationMode>automatic</evaluationMode><comment><text>15481.83342060159</text><id>DFX:rectilinearity</id></comment><comment><text>632.7206152960853</text><id>SNR</id></comment></pick><pick publicID="de.gempa.tb1.Pick/20250414002819.936655.134525"><time><value>2025-04-14T00:28:14.758393Z</value></time><waveformID networkCode="CX" stationCode="PB15" channelCode="HHZ"/><filterID>ITAPER(4)&gt;&gt;BW(4,4,20)</filterID><methodID>AIC</methodID><horizontalSlowness><value>21.178896004950563</value></horizontalSlowness><backazimuth><value>116.82338254418048</value></backazimuth><phaseHint>P</phaseHint><evaluationMode>automatic</evaluationMode><comment><text>106304.06347762718</text><id>DFX:rectilinearity</id></comment><comment><text>235.12878687160136</text><id>SNR</id></comment></pick><pick publicID="de.gempa.tb1.Pick/20250414002822.708336.134527"><time><value>2025-04-14T00:28:18.268393Z</value></time><waveformID networkCode="CX" stationCode="PB06" channelCode="HHZ"/><filterID>ITAPER(4)&gt;&gt;BW(4,4,20)</filterID><methodID>AIC</methodID><horizontalSlowness><value>9.316467755343114</value></horizontalSlowness><backazimuth><value>123.9655290832973</value></backazimuth><phaseHint>P</phaseHint><evaluationMode>automatic</evaluationMode><comment><text>14142.71551100457</text><id>DFX:rectilinearity</id></comment><comment><text>371.90636136868386</text><id>SNR</id></comment></pick><pick publicID="de.gempa.tb1.Pick/20250414002828.691014.134529"><time><value>2025-04-14T00:28:24.068391Z</value></time><waveformID networkCode="CX" stationCode="PB03" channelCode="HHZ"/><filterID>ITAPER(4)&gt;&gt;BW(4,4,20)</filterID><methodID>AIC</methodID><horizontalSlowness><value>8.126681570719239</value></horizontalSlowness><backazimuth><value>141.04073503185734</value></backazimuth><phaseHint>P</phaseHint><evaluationMode>automatic</evaluationMode><comment><text>5459.045517230496</text><id>DFX:rectilinearity</id></comment><comment><text>181.0066552457106</text><id>SNR</id></comment></pick><pick publicID="de.gempa.tb1.Pick/20250414002829.162876.134531"><time><value>2025-04-14T00:28:24.25Z</value></time><waveformID networkCode="CX" stationCode="PB10" channelCode="HHZ"/><filterID>ITAPER(4)&gt;&gt;BW(4,4,20)</filterID><methodID>AIC</methodID><horizontalSlowness><value>13.478520826927339</value></horizontalSlowness><backazimuth><value>121.86480619282574</value></backazimuth><phaseHint>P</phaseHint><evaluationMode>automatic</evaluationMode><comment><text>7042.264829136051</text><id>DFX:rectilinearity</id></comment><comment><text>114.21269399838783</text><id>SNR</id></comment></pick><pick publicID="de.gempa.tb1.Pick/20250414002835.753829.134533"><time><value>2025-04-14T00:28:30.658393Z</value></time><waveformID networkCode="CX" stationCode="PB01" channelCode="HHZ"/><filterID>ITAPER(4)&gt;&gt;BW(4,4,20)</filterID><methodID>AIC</methodID><horizontalSlowness><value>7.465862661972722</value></horizontalSlowness><backazimuth><value>193.5839991920837</value></backazimuth><phaseHint>P</phaseHint><evaluationMode>automatic</evaluationMode><comment><text>228.9643075217765</text><id>DFX:rectilinearity</id></comment><comment><text>133.09823107872566</text><id>SNR</id></comment></pick><pick publicID="de.gempa.tb1.Pick/20250414002836.346925.134535"><time><value>2025-04-14T00:28:23.2Z</value></time><waveformID networkCode="CX" stationCode="PB09" channelCode="HHZ"/><filterID>ITAPER(4)&gt;&gt;BW(4,4,20)</filterID><methodID>AIC</methodID><horizontalSlowness><value>18.213087758845205</value></horizontalSlowness><backazimuth><value>122.7304283098955</value></backazimuth><phaseHint>P</phaseHint><evaluationMode>automatic</evaluationMode><comment><text>1814.403053182836</text><id>DFX:rectilinearity</id></comment><comment><text>178.5249183350049</text><id>SNR</id></comment></pick><pick publicID="de.gempa.tb1.Pick/20250414002838.545059.134537"><time><value>2025-04-14T00:28:30.908393Z</value></time><waveformID networkCode="CX" stationCode="PB02" channelCode="HHZ"/><filterID>ITAPER(4)&gt;&gt;BW(4,4,20)</filterID><methodID>AIC</methodID><horizontalSlowness><value>7.413638350347099</value></horizontalSlowness><backazimuth><value>115.4991156452708</value></backazimuth><phaseHint>P</phaseHint><evaluationMode>automatic</evaluationMode><comment><text>1215.6554619513702</text><id>DFX:rectilinearity</id></comment><comment><text>87.89928475194748</text><id>SNR</id></comment></pick><pick publicID="de.gempa.tb1.Pick/20250414002845.249437.134540"><time><value>2025-04-14T00:28:37.619999Z</value></time><waveformID networkCode="CX" stationCode="PATCX" channelCode="HHZ"/><filterID>ITAPER(4)&gt;&gt;BW(4,4,20)</filterID><methodID>AIC</methodID><horizontalSlowness><value>10.024222844270499</value></horizontalSlowness><backazimuth><value>122.52100791976275</value></backazimuth><phaseHint>P</phaseHint><evaluationMode>automatic</evaluationMode><comment><text>202.30584645488955</text><id>DFX:rectilinearity</id></comment><comment><text>31.29793114645465</text><id>SNR</id></comment></pick><pick publicID="de.gempa.tb1.Pick/20250414002849.676041.134543"><time><value>2025-04-14T00:28:40.238393Z</value></time><waveformID networkCode="CX" stationCode="PB08" channelCode="HHZ"/><filterID>ITAPER(4)&gt;&gt;BW(4,4,20)</filterID><methodID>AIC</methodID><horizontalSlowness><value>15.424460850554965</value></horizontalSlowness><backazimuth><value>207.40307404282242</value></backazimuth><phaseHint>P</phaseHint><evaluationMode>automatic</evaluationMode><comment><text>253.7269982630572</text><id>DFX:rectilinearity</id></comment><comment><text>11.038958810073995</text><id>SNR</id></comment></pick><pick publicID="de.gempa.tb1.Pick/20250414002853.638778.134546"><time><value>2025-04-14T00:28:48.42Z</value></time><waveformID networkCode="CX" stationCode="PSGCX" channelCode="HHZ"/><filterID>ITAPER(4)&gt;&gt;BW(4,4,20)</filterID><methodID>AIC</methodID><horizontalSlowness><value>13.797781298608275</value></horizontalSlowness><backazimuth><value>196.2509450255028</value></backazimuth><phaseHint>P</phaseHint><evaluationMode>automatic</evaluationMode><comment><text>21.02199327641227</text><id>DFX:rectilinearity</id></comment><comment><text>40.8298807353504</text><id>SNR</id></comment></pick><pick publicID="de.gempa.tb1.Pick/20250414002858.719634.134549"><time><value>2025-04-14T00:28:27.638394Z</value></time><waveformID networkCode="CX" stationCode="PB07" channelCode="HHZ"/><filterID>ITAPER(4)&gt;&gt;BW(4,4,20)</filterID><methodID>AIC</methodID><horizontalSlowness><value>15.575656924983138</value></horizontalSlowness><backazimuth><value>154.82622079787572</value></backazimuth><phaseHint>P</phaseHint><evaluationMode>automatic</evaluationMode><comment><text>14931.493304249814</text><id>DFX:rectilinearity</id></comment><comment><text>258.67834360708326</text><id>SNR</id></comment></pick><pick publicID="de.gempa.tb1.Pick/20250414002900.249665.134552"><time><value>2025-04-14T00:28:52.978393Z</value></time><waveformID networkCode="CX" stationCode="PB06" channelCode="HHN"/><filterID>ITAPER(2)&gt;&gt;BW(3,3,20)</filterID><methodID>L2-AIC-GRID</methodID><horizontalSlowness><value>19.589815157185622</value></horizontalSlowness><backazimuth><value>63.20000338532047</value></backazimuth><phaseHint>S</phaseHint><evaluationMode>automatic</evaluationMode><comment><text>11374.350167999726</text><id>DFX:rectilinearity</id></comment><comment><text>de.gempa.tb1.Pick/20250414002822.708336.134527</text><id>RefPickID</id></comment><comment><text>7.587893551742364</text><id>SNR</id></comment></pick><pick publicID="de.gempa.tb1.Pick/20250414002910.773544.134555"><time><value>2025-04-14T00:29:03.518391Z</value></time><waveformID networkCode="CX" stationCode="PB03" channelCode="HHN"/><filterID>ITAPER(2)&gt;&gt;BW(3,3,20)</filterID><methodID>L2-AIC-GRID</methodID><horizontalSlowness><value>23.205761696560185</value></horizontalSlowness><backazimuth><value>57.18140302228801</value></backazimuth><phaseHint>S</phaseHint><evaluationMode>automatic</evaluationMode><comment><text>10234.011962908193</text><id>DFX:rectilinearity</id></comment><comment><text>de.gempa.tb1.Pick/20250414002828.691014.134529</text><id>RefPickID</id></comment><comment><text>7.059039446619843</text><id>SNR</id></comment></pick><pick publicID="de.gempa.tb1.Pick/20250414002915.556642.134558"><time><value>2025-04-14T00:29:02.03Z</value></time><waveformID networkCode="CX" stationCode="PB09" channelCode="HHN"/><filterID>ITAPER(2)&gt;&gt;BW(3,3,20)</filterID><methodID>L2-AIC-GRID</methodID><horizontalSlowness><value>16.664319200306842</value></horizontalSlowness><backazimuth><value>328.58562350843494</value></backazimuth><phaseHint>S</phaseHint><evaluationMode>automatic</evaluationMode><comment><text>15971.300001408166</text><id>DFX:rectilinearity</id></comment><comment><text>de.gempa.tb1.Pick/20250414002836.346925.134535</text><id>RefPickID</id></comment><comment><text>5.492537871816293</text><id>SNR</id></comment></pick><pick publicID="de.gempa.tb1.Pick/20250414002924.62492.134559"><time><value>2025-04-14T00:29:16.408393Z</value></time><waveformID networkCode="CX" stationCode="PB02" channelCode="HHN"/><filterID>ITAPER(2)&gt;&gt;BW(3,3,20)</filterID><methodID>L2-AIC-GRID</methodID><horizontalSlowness><value>20.930683615579628</value></horizontalSlowness><backazimuth><value>217.04256754080922</value></backazimuth><phaseHint>S</phaseHint><evaluationMode>automatic</evaluationMode><comment><text>13859.56685472937</text><id>DFX:rectilinearity</id></comment><comment><text>de.gempa.tb1.Pick/20250414002838.545059.134537</text><id>RefPickID</id></comment><comment><text>6.300534045767828</text><id>SNR</id></comment></pick><pick publicID="de.gempa.tb1.Pick/20250414003007.450125.134564"><time><value>2025-04-14T00:29:09.748394Z</value></time><waveformID networkCode="CX" stationCode="PB07" channelCode="HHN"/><filterID>ITAPER(2)&gt;&gt;BW(3,3,20)</filterID><methodID>L2-AIC-GRID</methodID><horizontalSlowness><value>23.453217190150344</value></horizontalSlowness><backazimuth><value>46.93817543384009</value></backazimuth><phaseHint>S</phaseHint><evaluationMode>automatic</evaluationMode><comment><text>576120.1739502731</text><id>DFX:rectilinearity</id></comment><comment><text>de.gempa.tb1.Pick/20250414002858.719634.134549</text><id>RefPickID</id></comment><comment><text>6.270166075479771</text><id>SNR</id></comment></pick><origin publicID="de.gempa.tb1.Origin/20250414003007.455993.122145"><time><value>2025-04-14T00:27:34.108895Z</value><uncertainty>0.7921345829963684</uncertainty></time><latitude><value>-24.052194595336914</value><uncertainty>6.464048385620117</uncertainty></latitude><longitude><value>-67.59959411621094</value><uncertainty>17.896272659301758</uncertainty></longitude><depth><value>238.3578338623047</value><uncertainty>15.618383407592773</uncertainty></depth><depthType>from location</depthType><methodID>LOCSAT</methodID><earthModelID>iasp91_scanloc</earthModelID><quality><associatedPhaseCount>17</associatedPhaseCount><usedPhaseCount>17</usedPhaseCount><associatedStationCount>12</associatedStationCount><usedStationCount>12</usedStationCount><depthPhaseCount>0</depthPhaseCount><standardError>0.5575763567190525</standardError><azimuthalGap>295.6891174316406</azimuthalGap><maximumDistance>5.014845371246338</maximumDistance><minimumDistance>1.553755521774292</minimumDistance><medianDistance>2.8127546310424805</medianDistance></quality><uncertainty><minHorizontalUncertainty>13.426555633544922</minHorizontalUncertainty><maxHorizontalUncertainty>38.52223587036133</maxHorizontalUncertainty><azimuthMaxHorizontalUncertainty>84.54301452636719</azimuthMaxHorizontalUncertainty><preferredDescription>horizontal uncertainty</preferredDescription></uncertainty><evaluationMode>automatic</evaluationMode><evaluationStatus>confirmed</evaluationStatus><comment><text>0.00</text><id>mismatchScore</id></comment><comment><text>mismatchScore</text><id>scevalMethod</id></comment><arrival><pickID>de.gempa.tb1.Pick/20250414002817.593411.134523</pickID><phase>P</phase><azimuth>275.0775146484375</azimuth><distance>1.553755521774292</distance><timeResidual>-0.8160209655761719</timeResidual><timeUsed>true</timeUsed><horizontalSlownessUsed>false</horizontalSlownessUsed><backazimuthUsed>false</backazimuthUsed><weight>1</weight></arrival><arrival><pickID>de.gempa.tb1.Pick/20250414002819.936655.134525</pickID><phase>P</phase><azimuth>295.7039794921875</azimuth><distance>1.9107654094696045</distance><timeResidual>-0.10468673706054688</timeResidual><timeUsed>true</timeUsed><horizontalSlownessUsed>false</horizontalSlownessUsed><backazimuthUsed>false</backazimuthUsed><weight>1</weight></arrival><arrival><pickID>de.gempa.tb1.Pick/20250414002822.708336.134527</pickID><phase>P</phase><azimuth>306.091064453125</azimuth><distance>2.253917694091797</distance><timeResidual>0.13816452026367188</timeResidual><timeUsed>true</timeUsed><horizontalSlownessUsed>false</horizontalSlownessUsed><backazimuthUsed>false</backazimuthUsed><weight>1</weight></arrival><arrival><pickID>de.gempa.tb1.Pick/20250414002828.691014.134529</pickID><phase>P</phase><azimuth>314.7313537597656</azimuth><distance>2.8127546310424805</distance><timeResidual>0.14868545532226562</timeResidual><timeUsed>true</timeUsed><horizontalSlownessUsed>false</horizontalSlownessUsed><backazimuthUsed>false</backazimuthUsed><weight>1</weight></arrival><arrival><pickID>de.gempa.tb1.Pick/20250414002829.162876.134531</pickID><phase>P</phase><azimuth>280.6134948730469</azimuth><distance>2.7590928077697754</distance><timeResidual>0.92303466796875</timeResidual><timeUsed>true</timeUsed><horizontalSlownessUsed>false</horizontalSlownessUsed><backazimuthUsed>false</backazimuthUsed><weight>1</weight></arrival><arrival><pickID>de.gempa.tb1.Pick/20250414002835.753829.134533</pickID><phase>P</phase><azimuth>329.4027099609375</azimuth><distance>3.465965747833252</distance><timeResidual>-0.5819358825683594</timeResidual><timeUsed>true</timeUsed><horizontalSlownessUsed>false</horizontalSlownessUsed><backazimuthUsed>false</backazimuthUsed><weight>1</weight></arrival><arrival><pickID>de.gempa.tb1.Pick/20250414002836.346925.134535</pickID><phase>P</phase><azimuth>325.6836242675781</azimuth><distance>2.7080206871032715</distance><timeResidual>0.3973655700683594</timeResidual><timeUsed>true</timeUsed><horizontalSlownessUsed>false</horizontalSlownessUsed><backazimuthUsed>false</backazimuthUsed><weight>1</weight></arrival><arrival><pickID>de.gempa.tb1.Pick/20250414002838.545059.134537</pickID><phase>P</phase><azimuth>321.60418701171875</azimuth><distance>3.4485926628112793</distance><timeResidual>-0.12941360473632812</timeResidual><timeUsed>true</timeUsed><horizontalSlownessUsed>false</horizontalSlownessUsed><backazimuthUsed>false</backazimuthUsed><weight>1</weight></arrival><arrival><pickID>de.gempa.tb1.Pick/20250414002845.249437.134540</pickID><phase>P</phase><azimuth>323.2091064453125</azimuth><distance>3.9901764392852783</distance><timeResidual>0.2764167785644531</timeResidual><timeUsed>true</timeUsed><horizontalSlownessUsed>false</horizontalSlownessUsed><backazimuthUsed>false</backazimuthUsed><weight>1</weight></arrival><arrival><pickID>de.gempa.tb1.Pick/20250414002849.676041.134543</pickID><phase>P</phase><azimuth>339.3883972167969</azimuth><distance>4.150303840637207</distance><timeResidual>0.9712638854980469</timeResidual><timeUsed>true</timeUsed><horizontalSlownessUsed>false</horizontalSlownessUsed><backazimuthUsed>false</backazimuthUsed><weight>1</weight></arrival><arrival><pickID>de.gempa.tb1.Pick/20250414002853.638778.134546</pickID><phase>P</phase><azimuth>331.6499328613281</azimuth><distance>5.014845371246338</distance><timeResidual>-1.3643646240234375</timeResidual><timeUsed>true</timeUsed><horizontalSlownessUsed>false</horizontalSlownessUsed><backazimuthUsed>false</backazimuthUsed><weight>1</weight></arrival><arrival><pickID>de.gempa.tb1.Pick/20250414002858.719634.134549</pickID><phase>P</phase><azimuth>317.21807861328125</azimuth><distance>3.130966901779175</distance><timeResidual>0.21365737915039062</timeResidual><timeUsed>true</timeUsed><horizontalSlownessUsed>false</horizontalSlownessUsed><backazimuthUsed>false</backazimuthUsed><weight>1</weight></arrival><arrival><pickID>de.gempa.tb1.Pick/20250414002900.249665.134552</pickID><phase>S</phase><azimuth>306.091064453125</azimuth><distance>2.253917694091797</distance><timeResidual>-0.18087005615234375</timeResidual><timeUsed>true</timeUsed><horizontalSlownessUsed>false</horizontalSlownessUsed><backazimuthUsed>false</backazimuthUsed><weight>1</weight></arrival><arrival><pickID>de.gempa.tb1.Pick/20250414002910.773544.134555</pickID><phase>S</phase><azimuth>314.7313537597656</azimuth><distance>2.8127546310424805</distance><timeResidual>-0.08729171752929688</timeResidual><timeUsed>true</timeUsed><horizontalSlownessUsed>false</horizontalSlownessUsed><backazimuthUsed>false</backazimuthUsed><weight>1</weight></arrival><arrival><pickID>de.gempa.tb1.Pick/20250414002915.556642.134558</pickID><phase>S</phase><azimuth>325.6836242675781</azimuth><distance>2.7080206871032715</distance><timeResidual>0.4424896240234375</timeResidual><timeUsed>true</timeUsed><horizontalSlownessUsed>false</horizontalSlownessUsed><backazimuthUsed>false</backazimuthUsed><weight>1</weight></arrival><arrival><pickID>de.gempa.tb1.Pick/20250414002924.62492.134559</pickID><phase>S</phase><azimuth>321.60418701171875</azimuth><distance>3.4485926628112793</distance><timeResidual>-0.05830764770507812</timeResidual><timeUsed>true</timeUsed><horizontalSlownessUsed>false</horizontalSlownessUsed><backazimuthUsed>false</backazimuthUsed><weight>1</weight></arrival><arrival><pickID>de.gempa.tb1.Pick/20250414003007.450125.134564</pickID><phase>S</phase><azimuth>317.21807861328125</azimuth><distance>3.130966901779175</distance><timeResidual>-0.18811416625976562</timeResidual><timeUsed>true</timeUsed><horizontalSlownessUsed>false</horizontalSlownessUsed><backazimuthUsed>false</backazimuthUsed><weight>1</weight></arrival><magnitude publicID="de.gempa.tb1.Magnitude/20250414003020.960051.413189"><magnitude><value>3.560991447444898</value></magnitude><type>M</type><methodID>weighted average</methodID><stationCount>9</stationCount></magnitude></origin><event publicID="gempa2025hihe"><preferredOriginID>de.gempa.tb1.Origin/20250414003007.455993.122145</preferredOriginID><preferredMagnitudeID>de.gempa.tb1.Magnitude/20250414003020.960051.413189</preferredMagnitudeID><description><text>Chile-Argentina Border Region</text><type>region name</type></description><originReference>de.gempa.tb1.Origin/20250414003007.455993.122145</originReference></event></EventParameters></seiscomp>