<?xml version="1.0" encoding="UTF-8"?>
<seiscomp xmlns="http://geofon.gfz-potsdam.de/ns/seiscomp3-schema/0.13" version="0.13"><EventParameters><pick publicID="de.gempa.tb1.Pick/20250412073740.186829.122758"><time><value>2025-04-12T07:37:27.98Z</value></time><waveformID networkCode="CX" stationCode="PB09" channelCode="HHZ"/><filterID>ITAPER(4)&gt;&gt;BW(4,4,20)</filterID><methodID>AIC</methodID><horizontalSlowness><value>17.956501235831432</value></horizontalSlowness><backazimuth><value>279.5787760474384</value></backazimuth><phaseHint>P</phaseHint><evaluationMode>automatic</evaluationMode><comment><text>16.064250129446176</text><id>DFX:rectilinearity</id></comment><comment><text>10.465881651674133</text><id>SNR</id></comment></pick><pick publicID="de.gempa.tb1.Pick/20250412073741.490809.122760"><time><value>2025-04-12T07:37:34.258393Z</value></time><waveformID networkCode="CX" stationCode="PB02" channelCode="HHZ"/><filterID>ITAPER(4)&gt;&gt;BW(4,4,20)</filterID><methodID>AIC</methodID><horizontalSlowness><value>11.091043440442816</value></horizontalSlowness><backazimuth><value>52.91742505626441</value></backazimuth><phaseHint>P</phaseHint><evaluationMode>automatic</evaluationMode><comment><text>25.01855159686052</text><id>DFX:rectilinearity</id></comment><comment><text>8.096345016932752</text><id>SNR</id></comment></pick><pick publicID="de.gempa.tb1.Pick/20250412073741.564235.122762"><time><value>2025-04-12T07:37:31.898393Z</value></time><waveformID networkCode="CX" stationCode="PB01" channelCode="HHZ"/><filterID>ITAPER(4)&gt;&gt;BW(4,4,20)</filterID><methodID>AIC</methodID><horizontalSlowness><value>13.99702525049365</value></horizontalSlowness><backazimuth><value>243.26813892549006</value></backazimuth><phaseHint>P</phaseHint><evaluationMode>automatic</evaluationMode><comment><text>7.300039171352769</text><id>DFX:rectilinearity</id></comment><comment><text>10.229281581493694</text><id>SNR</id></comment></pick><pick publicID="de.gempa.tb1.Pick/20250412073751.448545.122764"><time><value>2025-04-12T07:37:33.588391Z</value></time><waveformID networkCode="CX" stationCode="PB07" channelCode="HHZ"/><filterID>ITAPER(4)&gt;&gt;BW(4,4,20)</filterID><methodID>AIC</methodID><horizontalSlowness><value>22.377144711198078</value></horizontalSlowness><backazimuth><value>31.67133364585979</value></backazimuth><phaseHint>P</phaseHint><evaluationMode>automatic</evaluationMode><comment><text>158.25994064954577</text><id>DFX:rectilinearity</id></comment><comment><text>12.227983272478458</text><id>SNR</id></comment></pick><pick publicID="de.gempa.tb1.Pick/20250412073758.577812.122766"><time><value>2025-04-12T07:37:50.288393Z</value></time><waveformID networkCode="CX" stationCode="PB01" channelCode="HHN"/><filterID>ITAPER(2)&gt;&gt;BW(3,3,20)</filterID><methodID>L2-AIC-GRID</methodID><horizontalSlowness><value>20.3412570030223</value></horizontalSlowness><backazimuth><value>2.717803205545181</value></backazimuth><phaseHint>S</phaseHint><evaluationMode>automatic</evaluationMode><comment><text>5.472090206223116</text><id>DFX:rectilinearity</id></comment><comment><text>de.gempa.tb1.Pick/20250412073741.564235.122762</text><id>RefPickID</id></comment><comment><text>5.326538268815846</text><id>SNR</id></comment></pick><pick publicID="de.gempa.tb1.Pick/20250412073803.506916.122767"><time><value>2025-04-12T07:37:54.858393Z</value></time><waveformID networkCode="CX" stationCode="PB02" channelCode="HHN"/><filterID>ITAPER(2)&gt;&gt;BW(3,3,20)</filterID><methodID>L2-AIC-GRID</methodID><horizontalSlowness><value>11.289963931226271</value></horizontalSlowness><backazimuth><value>333.18019437799296</value></backazimuth><phaseHint>S</phaseHint><evaluationMode>automatic</evaluationMode><comment><text>33.785073257537377</text><id>DFX:rectilinearity</id></comment><comment><text>de.gempa.tb1.Pick/20250412073741.490809.122760</text><id>RefPickID</id></comment><comment><text>5.815051120425315</text><id>SNR</id></comment></pick><pick publicID="de.gempa.tb1.Pick/20250412073805.162072.122771"><time><value>2025-04-12T07:37:53.478391Z</value></time><waveformID networkCode="CX" stationCode="PB07" channelCode="HHN"/><filterID>ITAPER(2)&gt;&gt;BW(3,3,20)</filterID><methodID>L2-AIC-GRID</methodID><horizontalSlowness><value>22.281857247300835</value></horizontalSlowness><backazimuth><value>267.71106089036323</value></backazimuth><phaseHint>S</phaseHint><evaluationMode>automatic</evaluationMode><comment><text>187.55260457418356</text><id>DFX:rectilinearity</id></comment><comment><text>de.gempa.tb1.Pick/20250412073751.448545.122764</text><id>RefPickID</id></comment><comment><text>12.26406912726626</text><id>SNR</id></comment></pick><origin publicID="de.gempa.tb1.Origin/20250412073806.539932.77826"><time><value>2025-04-12T07:37:07.949168Z</value><uncertainty>1.4576640129089355</uncertainty></time><latitude><value>-21.695096969604492</value><uncertainty>11.65183925628662</uncertainty></latitude><longitude><value>-68.47346496582031</value><uncertainty>14.431081771850586</uncertainty></longitude><depth><value>124.28759002685547</value><uncertainty>22.43109893798828</uncertainty></depth><depthType>from location</depthType><methodID>LOCSAT</methodID><earthModelID>iasp91_scanloc</earthModelID><quality><associatedPhaseCount>7</associatedPhaseCount><usedPhaseCount>7</usedPhaseCount><associatedStationCount>4</associatedStationCount><usedStationCount>4</usedStationCount><depthPhaseCount>0</depthPhaseCount><standardError>0.06129918511187178</standardError><azimuthalGap>317.54888916015625</azimuthalGap><maximumDistance>1.3763436079025269</maximumDistance><minimumDistance>0.7214981913566589</minimumDistance><medianDistance>1.3140686750411987</medianDistance></quality><uncertainty><minHorizontalUncertainty>23.818450927734375</minHorizontalUncertainty><maxHorizontalUncertainty>31.8551082611084</maxHorizontalUncertainty><azimuthMaxHorizontalUncertainty>110.91742706298828</azimuthMaxHorizontalUncertainty><preferredDescription>horizontal uncertainty</preferredDescription></uncertainty><evaluationMode>automatic</evaluationMode><evaluationStatus>confirmed</evaluationStatus><comment><text>0.01</text><id>mismatchScore</id></comment><comment><text>mismatchScore</text><id>scevalMethod</id></comment><arrival><pickID>de.gempa.tb1.Pick/20250412073740.186829.122758</pickID><phase>P</phase><azimuth>261.8284912109375</azimuth><distance>0.7214981913566589</distance><timeResidual>0.03869819641113281</timeResidual><timeUsed>true</timeUsed><horizontalSlownessUsed>false</horizontalSlownessUsed><backazimuthUsed>false</backazimuthUsed><weight>1</weight></arrival><arrival><pickID>de.gempa.tb1.Pick/20250412073741.490809.122760</pickID><phase>P</phase><azimuth>285.4867248535156</azimuth><distance>1.3763436079025269</distance><timeResidual>-0.05018234252929688</timeResidual><timeUsed>true</timeUsed><horizontalSlownessUsed>false</horizontalSlownessUsed><backazimuthUsed>false</backazimuthUsed><weight>1</weight></arrival><arrival><pickID>de.gempa.tb1.Pick/20250412073741.564235.122762</pickID><phase>P</phase><azimuth>304.27960205078125</azimuth><distance>1.146244764328003</distance><timeResidual>0.04862785339355469</timeResidual><timeUsed>true</timeUsed><horizontalSlownessUsed>false</horizontalSlownessUsed><backazimuthUsed>false</backazimuthUsed><weight>1</weight></arrival><arrival><pickID>de.gempa.tb1.Pick/20250412073751.448545.122764</pickID><phase>P</phase><azimuth>268.3702392578125</azimuth><distance>1.3140686750411987</distance><timeResidual>-0.0341033935546875</timeResidual><timeUsed>true</timeUsed><horizontalSlownessUsed>false</horizontalSlownessUsed><backazimuthUsed>false</backazimuthUsed><weight>1</weight></arrival><arrival><pickID>de.gempa.tb1.Pick/20250412073758.577812.122766</pickID><phase>S</phase><azimuth>304.27960205078125</azimuth><distance>1.146244764328003</distance><timeResidual>-0.0683746337890625</timeResidual><timeUsed>true</timeUsed><horizontalSlownessUsed>false</horizontalSlownessUsed><backazimuthUsed>false</backazimuthUsed><weight>1</weight></arrival><arrival><pickID>de.gempa.tb1.Pick/20250412073803.506916.122767</pickID><phase>S</phase><azimuth>285.4867248535156</azimuth><distance>1.3763436079025269</distance><timeResidual>0.10999298095703125</timeResidual><timeUsed>true</timeUsed><horizontalSlownessUsed>false</horizontalSlownessUsed><backazimuthUsed>false</backazimuthUsed><weight>1</weight></arrival><arrival><pickID>de.gempa.tb1.Pick/20250412073805.162072.122771</pickID><phase>S</phase><azimuth>268.3702392578125</azimuth><distance>1.3140686750411987</distance><timeResidual>-0.04456520080566406</timeResidual><timeUsed>true</timeUsed><horizontalSlownessUsed>false</horizontalSlownessUsed><backazimuthUsed>false</backazimuthUsed><weight>1</weight></arrival><magnitude publicID="de.gempa.tb1.Magnitude/20250412073834.299523.193603"><magnitude><value>2.0442715807786525</value></magnitude><type>M</type><methodID>weighted average</methodID><stationCount>1</stationCount></magnitude></origin><event publicID="gempa2025hfdl"><preferredOriginID>de.gempa.tb1.Origin/20250412073806.539932.77826</preferredOriginID><preferredMagnitudeID>de.gempa.tb1.Magnitude/20250412073834.299523.193603</preferredMagnitudeID><description><text>Chile-Bolivia Border Region</text><type>region name</type></description><originReference>de.gempa.tb1.Origin/20250412073806.539932.77826</originReference></event></EventParameters></seiscomp>