<?xml version="1.0" encoding="UTF-8"?>
<seiscomp xmlns="http://geofon.gfz-potsdam.de/ns/seiscomp3-schema/0.13" version="0.13"><EventParameters><pick publicID="de.gempa.tb1.Pick/20250414224343.679903.141911"><time><value>2025-04-14T22:43:38.148393Z</value></time><waveformID networkCode="CX" stationCode="PB08" channelCode="HHZ"/><filterID>ITAPER(4)&gt;&gt;BW(4,4,20)</filterID><methodID>AIC</methodID><horizontalSlowness><value>13.29348048140007</value></horizontalSlowness><backazimuth><value>108.18544872314999</value></backazimuth><phaseHint>P</phaseHint><evaluationMode>automatic</evaluationMode><comment><text>9.291434030973733</text><id>DFX:rectilinearity</id></comment><comment><text>12.977310296483356</text><id>SNR</id></comment></pick><pick publicID="de.gempa.tb1.Pick/20250414224351.536495.141913"><time><value>2025-04-14T22:43:45.88Z</value></time><waveformID networkCode="CX" stationCode="PSGCX" channelCode="HHZ"/><filterID>ITAPER(4)&gt;&gt;BW(4,4,20)</filterID><methodID>AIC</methodID><horizontalSlowness><value>18.12794391468834</value></horizontalSlowness><backazimuth><value>130.59141865414645</value></backazimuth><phaseHint>P</phaseHint><evaluationMode>automatic</evaluationMode><comment><text>15.376922926469145</text><id>DFX:rectilinearity</id></comment><comment><text>12.54394250410144</text><id>SNR</id></comment></pick><pick publicID="de.gempa.tb1.Pick/20250414224352.576177.141915"><time><value>2025-04-14T22:43:44.108393Z</value></time><waveformID networkCode="CX" stationCode="PB01" channelCode="HHZ"/><filterID>ITAPER(4)&gt;&gt;BW(4,4,20)</filterID><methodID>AIC</methodID><horizontalSlowness><value>23.34632631712355</value></horizontalSlowness><backazimuth><value>279.77832171884006</value></backazimuth><phaseHint>P</phaseHint><evaluationMode>automatic</evaluationMode><comment><text>8.684080379730744</text><id>DFX:rectilinearity</id></comment><comment><text>17.725436489899494</text><id>SNR</id></comment></pick><pick publicID="de.gempa.tb1.Pick/20250414224354.691471.141917"><time><value>2025-04-14T22:43:49.478393Z</value></time><waveformID networkCode="CX" stationCode="PB08" channelCode="HHN"/><filterID>ITAPER(2)&gt;&gt;BW(3,3,20)</filterID><methodID>L2-AIC-GRID</methodID><horizontalSlowness><value>17.712983096790659</value></horizontalSlowness><backazimuth><value>212.7325777699889</value></backazimuth><phaseHint>S</phaseHint><evaluationMode>automatic</evaluationMode><comment><text>70.61157682164601</text><id>DFX:rectilinearity</id></comment><comment><text>de.gempa.tb1.Pick/20250414224343.679903.141911</text><id>RefPickID</id></comment><comment><text>7.71510158192225</text><id>SNR</id></comment></pick><pick publicID="de.gempa.tb1.Pick/20250414224406.634117.141920"><time><value>2025-04-14T22:43:59.918393Z</value></time><waveformID networkCode="CX" stationCode="PB01" channelCode="HHN"/><filterID>ITAPER(2)&gt;&gt;BW(3,3,20)</filterID><methodID>L2-AIC-GRID</methodID><horizontalSlowness><value>22.160019047697968</value></horizontalSlowness><backazimuth><value>104.66647558430624</value></backazimuth><phaseHint>S</phaseHint><evaluationMode>automatic</evaluationMode><comment><text>105.04029039822682</text><id>DFX:rectilinearity</id></comment><comment><text>de.gempa.tb1.Pick/20250414224352.576177.141915</text><id>RefPickID</id></comment><comment><text>6.492766807736028</text><id>SNR</id></comment></pick><pick publicID="de.gempa.tb1.Pick/20250414224411.617005.141921"><time><value>2025-04-14T22:44:03.42Z</value></time><waveformID networkCode="CX" stationCode="PSGCX" channelCode="HHN"/><filterID>ITAPER(2)&gt;&gt;BW(3,3,20)</filterID><methodID>L2-AIC-GRID</methodID><horizontalSlowness><value>20.718425115994794</value></horizontalSlowness><backazimuth><value>13.70135721433897</value></backazimuth><phaseHint>S</phaseHint><evaluationMode>automatic</evaluationMode><comment><text>29.036227312332294</text><id>DFX:rectilinearity</id></comment><comment><text>de.gempa.tb1.Pick/20250414224351.536495.141913</text><id>RefPickID</id></comment><comment><text>6.117587986802738</text><id>SNR</id></comment></pick><origin publicID="de.gempa.tb1.Origin/20250414224411.620794.153737"><time><value>2025-04-14T22:43:23.406453Z</value><uncertainty>1.4982198476791382</uncertainty></time><latitude><value>-20.15704345703125</value><uncertainty>5.632788181304932</uncertainty></latitude><longitude><value>-69.05702209472656</value><uncertainty>9.49683952331543</uncertainty></longitude><depth><value>106.61485290527344</value><uncertainty>8.690505981445312</uncertainty></depth><depthType>from location</depthType><methodID>LOCSAT</methodID><earthModelID>iasp91_scanloc</earthModelID><quality><associatedPhaseCount>6</associatedPhaseCount><usedPhaseCount>6</usedPhaseCount><associatedStationCount>3</associatedStationCount><usedStationCount>3</usedStationCount><depthPhaseCount>0</depthPhaseCount><standardError>0.04822917449745538</standardError><azimuthalGap>265.6424560546875</azimuthalGap><maximumDistance>1.1475223302841187</maximumDistance><minimumDistance>0.09192327409982681</minimumDistance><medianDistance>0.9695205688476562</medianDistance></quality><uncertainty><minHorizontalUncertainty>10.344582557678223</minHorizontalUncertainty><maxHorizontalUncertainty>21.30060577392578</maxHorizontalUncertainty><azimuthMaxHorizontalUncertainty>70.42606353759766</azimuthMaxHorizontalUncertainty><preferredDescription>horizontal uncertainty</preferredDescription></uncertainty><evaluationMode>automatic</evaluationMode><evaluationStatus>confirmed</evaluationStatus><comment><text>0.00</text><id>mismatchScore</id></comment><comment><text>mismatchScore</text><id>scevalMethod</id></comment><arrival><pickID>de.gempa.tb1.Pick/20250414224343.679903.141911</pickID><phase>P</phase><azimuth>279.90673828125</azimuth><distance>0.09192327409982681</distance><timeResidual>0.00197601318359375</timeResidual><timeUsed>true</timeUsed><horizontalSlownessUsed>false</horizontalSlownessUsed><backazimuthUsed>false</backazimuthUsed><weight>1</weight></arrival><arrival><pickID>de.gempa.tb1.Pick/20250414224351.536495.141913</pickID><phase>P</phase><azimuth>298.85626220703125</azimuth><distance>1.1475223302841187</distance><timeResidual>-0.07386302947998047</timeResidual><timeUsed>true</timeUsed><horizontalSlownessUsed>false</horizontalSlownessUsed><backazimuthUsed>false</backazimuthUsed><weight>1</weight></arrival><arrival><pickID>de.gempa.tb1.Pick/20250414224352.576177.141915</pickID><phase>P</phase><azimuth>204.49871826171875</azimuth><distance>0.9695205688476562</distance><timeResidual>0.07185554504394531</timeResidual><timeUsed>true</timeUsed><horizontalSlownessUsed>false</horizontalSlownessUsed><backazimuthUsed>false</backazimuthUsed><weight>1</weight></arrival><arrival><pickID>de.gempa.tb1.Pick/20250414224354.691471.141917</pickID><phase>S</phase><azimuth>279.90673828125</azimuth><distance>0.09192327409982681</distance><timeResidual>-0.0010862350463867188</timeResidual><timeUsed>true</timeUsed><horizontalSlownessUsed>false</horizontalSlownessUsed><backazimuthUsed>false</backazimuthUsed><weight>1</weight></arrival><arrival><pickID>de.gempa.tb1.Pick/20250414224406.634117.141920</pickID><phase>S</phase><azimuth>204.49871826171875</azimuth><distance>0.9695205688476562</distance><timeResidual>-0.04032421112060547</timeResidual><timeUsed>true</timeUsed><horizontalSlownessUsed>false</horizontalSlownessUsed><backazimuthUsed>false</backazimuthUsed><weight>1</weight></arrival><arrival><pickID>de.gempa.tb1.Pick/20250414224411.617005.141921</pickID><phase>S</phase><azimuth>298.85626220703125</azimuth><distance>1.1475223302841187</distance><timeResidual>0.041306495666503906</timeResidual><timeUsed>true</timeUsed><horizontalSlownessUsed>false</horizontalSlownessUsed><backazimuthUsed>false</backazimuthUsed><weight>1</weight></arrival><magnitude publicID="de.gempa.tb1.Magnitude/20250414224455.65492.548357"><magnitude><value>1.3451071631492895</value></magnitude><type>M</type><methodID>weighted average</methodID><stationCount>3</stationCount></magnitude></origin><event publicID="gempa2025hjzs"><preferredOriginID>de.gempa.tb1.Origin/20250414224411.620794.153737</preferredOriginID><preferredMagnitudeID>de.gempa.tb1.Magnitude/20250414224455.65492.548357</preferredMagnitudeID><description><text>Northern Chile</text><type>region name</type></description><originReference>de.gempa.tb1.Origin/20250414224411.620794.153737</originReference></event></EventParameters></seiscomp>