<?xml version="1.0" encoding="UTF-8"?>
<seiscomp xmlns="http://geofon.gfz-potsdam.de/ns/seiscomp3-schema/0.13" version="0.13"><EventParameters><pick publicID="de.gempa.tb1.Pick/20250415001029.891738.142342"><time><value>2025-04-15T00:10:25.108393Z</value></time><waveformID networkCode="CX" stationCode="PB01" channelCode="HHZ"/><filterID>ITAPER(4)&gt;&gt;BW(4,4,20)</filterID><methodID>AIC</methodID><horizontalSlowness><value>8.836157805188581</value></horizontalSlowness><backazimuth><value>136.79660040861685</value></backazimuth><phaseHint>P</phaseHint><evaluationMode>automatic</evaluationMode><comment><text>426.81245647832884</text><id>DFX:rectilinearity</id></comment><comment><text>460.5299659661212</text><id>SNR</id></comment></pick><pick publicID="de.gempa.tb1.Pick/20250415001031.174057.142344"><time><value>2025-04-15T00:10:21.88Z</value></time><waveformID networkCode="CX" stationCode="PB09" channelCode="HHZ"/><filterID>ITAPER(4)&gt;&gt;BW(4,4,20)</filterID><methodID>AIC</methodID><horizontalSlowness><value>15.971398886681397</value></horizontalSlowness><backazimuth><value>80.2674194344057</value></backazimuth><phaseHint>P</phaseHint><evaluationMode>automatic</evaluationMode><comment><text>810.0159717262868</text><id>DFX:rectilinearity</id></comment><comment><text>630.4233135864353</text><id>SNR</id></comment></pick><pick publicID="de.gempa.tb1.Pick/20250415001031.269971.142346"><time><value>2025-04-15T00:10:26.358393Z</value></time><waveformID networkCode="CX" stationCode="PB03" channelCode="HHZ"/><filterID>ITAPER(4)&gt;&gt;BW(4,4,20)</filterID><methodID>AIC</methodID><horizontalSlowness><value>9.925190302469433</value></horizontalSlowness><backazimuth><value>78.35012168294548</value></backazimuth><phaseHint>P</phaseHint><evaluationMode>automatic</evaluationMode><comment><text>59.95604981012401</text><id>DFX:rectilinearity</id></comment><comment><text>83.12938522865481</text><id>SNR</id></comment></pick><pick publicID="de.gempa.tb1.Pick/20250415001033.693164.142348"><time><value>2025-04-15T00:10:27.548393Z</value></time><waveformID networkCode="CX" stationCode="PB02" channelCode="HHZ"/><filterID>ITAPER(4)&gt;&gt;BW(4,4,20)</filterID><methodID>AIC</methodID><horizontalSlowness><value>6.65216206391916</value></horizontalSlowness><backazimuth><value>86.53938840193653</value></backazimuth><phaseHint>P</phaseHint><evaluationMode>automatic</evaluationMode><comment><text>245.36693903503456</text><id>DFX:rectilinearity</id></comment><comment><text>227.7697092260629</text><id>SNR</id></comment></pick><pick publicID="de.gempa.tb1.Pick/20250415001036.951411.142350"><time><value>2025-04-15T00:10:29.308393Z</value></time><waveformID networkCode="CX" stationCode="PB06" channelCode="HHZ"/><filterID>ITAPER(4)&gt;&gt;BW(4,4,20)</filterID><methodID>AIC</methodID><horizontalSlowness><value>4.228952782094787</value></horizontalSlowness><backazimuth><value>69.3523497178302</value></backazimuth><phaseHint>P</phaseHint><evaluationMode>automatic</evaluationMode><comment><text>184.5126868489844</text><id>DFX:rectilinearity</id></comment><comment><text>62.00551844405446</text><id>SNR</id></comment></pick><pick publicID="de.gempa.tb1.Pick/20250415001038.403349.142352"><time><value>2025-04-15T00:10:32.659999Z</value></time><waveformID networkCode="CX" stationCode="PATCX" channelCode="HHZ"/><filterID>ITAPER(4)&gt;&gt;BW(4,4,20)</filterID><methodID>AIC</methodID><horizontalSlowness><value>20.245920112116387</value></horizontalSlowness><backazimuth><value>53.96435014361789</value></backazimuth><phaseHint>P</phaseHint><evaluationMode>automatic</evaluationMode><comment><text>219.45551893397445</text><id>DFX:rectilinearity</id></comment><comment><text>171.57083984959198</text><id>SNR</id></comment></pick><pick publicID="de.gempa.tb1.Pick/20250415001040.198796.142354"><time><value>2025-04-15T00:10:33.818393Z</value></time><waveformID networkCode="CX" stationCode="PB15" channelCode="HHZ"/><filterID>ITAPER(4)&gt;&gt;BW(4,4,20)</filterID><methodID>AIC</methodID><horizontalSlowness><value>19.448176296972704</value></horizontalSlowness><backazimuth><value>77.49301436763487</value></backazimuth><phaseHint>P</phaseHint><evaluationMode>automatic</evaluationMode><comment><text>1318.1453545423772</text><id>DFX:rectilinearity</id></comment><comment><text>43.269613880271294</text><id>SNR</id></comment></pick><pick publicID="de.gempa.tb1.Pick/20250415001041.076018.142356"><time><value>2025-04-15T00:10:33.348393Z</value></time><waveformID networkCode="CX" stationCode="PB08" channelCode="HHZ"/><filterID>ITAPER(4)&gt;&gt;BW(4,4,20)</filterID><methodID>AIC</methodID><horizontalSlowness><value>11.72569167651928</value></horizontalSlowness><backazimuth><value>203.9283712471667</value></backazimuth><phaseHint>P</phaseHint><evaluationMode>automatic</evaluationMode><comment><text>8.980164723734736</text><id>DFX:rectilinearity</id></comment><comment><text>9.005356179894495</text><id>SNR</id></comment></pick><pick publicID="de.gempa.tb1.Pick/20250415001046.944137.142358"><time><value>2025-04-15T00:10:41.36Z</value></time><waveformID networkCode="CX" stationCode="PB19" channelCode="HHZ"/><filterID>ITAPER(4)&gt;&gt;BW(4,4,20)</filterID><methodID>AIC</methodID><horizontalSlowness><value>7.439957332651616</value></horizontalSlowness><backazimuth><value>64.66186014193465</value></backazimuth><phaseHint>P</phaseHint><evaluationMode>automatic</evaluationMode><comment><text>37.249647546573144</text><id>DFX:rectilinearity</id></comment><comment><text>38.714171916910125</text><id>SNR</id></comment></pick><pick publicID="de.gempa.tb1.Pick/20250415001048.091271.142360"><time><value>2025-04-15T00:10:41.81Z</value></time><waveformID networkCode="CX" stationCode="PSGCX" channelCode="HHZ"/><filterID>ITAPER(4)&gt;&gt;BW(4,4,20)</filterID><methodID>AIC</methodID><horizontalSlowness><value>21.906790450344122</value></horizontalSlowness><backazimuth><value>75.7128184872755</value></backazimuth><phaseHint>P</phaseHint><evaluationMode>automatic</evaluationMode><comment><text>15.623723462270512</text><id>DFX:rectilinearity</id></comment><comment><text>41.39824527811556</text><id>SNR</id></comment></pick><pick publicID="de.gempa.tb1.Pick/20250415001049.189535.142362"><time><value>2025-04-15T00:10:42.218393Z</value></time><waveformID networkCode="CX" stationCode="PB01" channelCode="HHN"/><filterID>ITAPER(2)&gt;&gt;BW(3,3,20)</filterID><methodID>L2-AIC-GRID</methodID><horizontalSlowness><value>19.687604937971361</value></horizontalSlowness><backazimuth><value>10.580399361343297</value></backazimuth><phaseHint>S</phaseHint><evaluationMode>automatic</evaluationMode><comment><text>2929.6812901903263</text><id>DFX:rectilinearity</id></comment><comment><text>de.gempa.tb1.Pick/20250415001029.891738.142342</text><id>RefPickID</id></comment><comment><text>6.441177395260996</text><id>SNR</id></comment></pick><pick publicID="de.gempa.tb1.Pick/20250415001050.466759.142363"><time><value>2025-04-15T00:10:43.758393Z</value></time><waveformID networkCode="CX" stationCode="PB03" channelCode="HHN"/><filterID>ITAPER(2)&gt;&gt;BW(3,3,20)</filterID><methodID>L2-AIC-GRID</methodID><horizontalSlowness><value>11.67190528516086</value></horizontalSlowness><backazimuth><value>230.1323488632305</value></backazimuth><phaseHint>S</phaseHint><evaluationMode>automatic</evaluationMode><comment><text>13532.523723844648</text><id>DFX:rectilinearity</id></comment><comment><text>de.gempa.tb1.Pick/20250415001031.269971.142346</text><id>RefPickID</id></comment><comment><text>19.184076564036115</text><id>SNR</id></comment></pick><pick publicID="de.gempa.tb1.Pick/20250415001052.877068.142364"><time><value>2025-04-15T00:10:46.278393Z</value></time><waveformID networkCode="CX" stationCode="PB02" channelCode="HHN"/><filterID>ITAPER(2)&gt;&gt;BW(3,3,20)</filterID><methodID>L2-AIC-GRID</methodID><horizontalSlowness><value>13.765006975240823</value></horizontalSlowness><backazimuth><value>273.65410563680007</value></backazimuth><phaseHint>S</phaseHint><evaluationMode>automatic</evaluationMode><comment><text>19637.461869164588</text><id>DFX:rectilinearity</id></comment><comment><text>de.gempa.tb1.Pick/20250415001033.693164.142348</text><id>RefPickID</id></comment><comment><text>6.826969091406228</text><id>SNR</id></comment></pick><pick publicID="de.gempa.tb1.Pick/20250415001052.979485.142365"><time><value>2025-04-15T00:10:36.07Z</value></time><waveformID networkCode="CX" stationCode="PB09" channelCode="HHN"/><filterID>ITAPER(2)&gt;&gt;BW(3,3,20)</filterID><methodID>L2-AIC-GRID</methodID><horizontalSlowness><value>20.678353794885677</value></horizontalSlowness><backazimuth><value>318.83346783433046</value></backazimuth><phaseHint>S</phaseHint><evaluationMode>automatic</evaluationMode><comment><text>10143.987352372829</text><id>DFX:rectilinearity</id></comment><comment><text>de.gempa.tb1.Pick/20250415001031.174057.142344</text><id>RefPickID</id></comment><comment><text>7.217084511468299</text><id>SNR</id></comment></pick><pick publicID="de.gempa.tb1.Pick/20250415001056.171348.142366"><time><value>2025-04-15T00:10:49.008393Z</value></time><waveformID networkCode="CX" stationCode="PB06" channelCode="HHN"/><filterID>ITAPER(2)&gt;&gt;BW(3,3,20)</filterID><methodID>L2-AIC-GRID</methodID><horizontalSlowness><value>21.344593250682149</value></horizontalSlowness><backazimuth><value>284.97323866891844</value></backazimuth><phaseHint>S</phaseHint><evaluationMode>automatic</evaluationMode><comment><text>6791.007195178914</text><id>DFX:rectilinearity</id></comment><comment><text>de.gempa.tb1.Pick/20250415001036.951411.142350</text><id>RefPickID</id></comment><comment><text>19.753105669061053</text><id>SNR</id></comment></pick><pick publicID="de.gempa.tb1.Pick/20250415001100.286974.142369"><time><value>2025-04-15T00:10:55.009999Z</value></time><waveformID networkCode="CX" stationCode="PATCX" channelCode="HHN"/><filterID>ITAPER(2)&gt;&gt;BW(3,3,20)</filterID><methodID>L2-AIC-GRID</methodID><horizontalSlowness><value>23.29073064330881</value></horizontalSlowness><backazimuth><value>124.24603703016737</value></backazimuth><phaseHint>S</phaseHint><evaluationMode>automatic</evaluationMode><comment><text>5713.107182427879</text><id>DFX:rectilinearity</id></comment><comment><text>de.gempa.tb1.Pick/20250415001038.403349.142352</text><id>RefPickID</id></comment><comment><text>7.158230823344058</text><id>SNR</id></comment></pick><pick publicID="de.gempa.tb1.Pick/20250415001105.527554.142372"><time><value>2025-04-15T00:10:57.708393Z</value></time><waveformID networkCode="CX" stationCode="PB15" channelCode="HHN"/><filterID>ITAPER(2)&gt;&gt;BW(3,3,20)</filterID><methodID>L2-AIC-GRID</methodID><horizontalSlowness><value>21.28098159967534</value></horizontalSlowness><backazimuth><value>117.25686070989968</value></backazimuth><phaseHint>S</phaseHint><evaluationMode>automatic</evaluationMode><comment><text>106417.74561466067</text><id>DFX:rectilinearity</id></comment><comment><text>de.gempa.tb1.Pick/20250415001040.198796.142354</text><id>RefPickID</id></comment><comment><text>7.20517873885452</text><id>SNR</id></comment></pick><pick publicID="de.gempa.tb1.Pick/20250415001108.670864.142375"><time><value>2025-04-15T00:10:54.938393Z</value></time><waveformID networkCode="CX" stationCode="PB08" channelCode="HHN"/><filterID>ITAPER(2)&gt;&gt;BW(3,3,20)</filterID><methodID>L2-AIC-GRID</methodID><horizontalSlowness><value>12.925358149845424</value></horizontalSlowness><backazimuth><value>220.93261494800595</value></backazimuth><phaseHint>S</phaseHint><evaluationMode>automatic</evaluationMode><comment><text>693.009196359496</text><id>DFX:rectilinearity</id></comment><comment><text>de.gempa.tb1.Pick/20250415001041.076018.142356</text><id>RefPickID</id></comment><comment><text>10.794155312562385</text><id>SNR</id></comment></pick><pick publicID="de.gempa.tb1.Pick/20250415001116.815459.142379"><time><value>2025-04-15T00:11:10.92Z</value></time><waveformID networkCode="CX" stationCode="PB19" channelCode="HHN"/><filterID>ITAPER(2)&gt;&gt;BW(3,3,20)</filterID><methodID>L2-AIC-GRID</methodID><horizontalSlowness><value>20.613776547381534</value></horizontalSlowness><backazimuth><value>43.07987514624432</value></backazimuth><phaseHint>S</phaseHint><evaluationMode>automatic</evaluationMode><comment><text>968.5922647270185</text><id>DFX:rectilinearity</id></comment><comment><text>de.gempa.tb1.Pick/20250415001046.944137.142358</text><id>RefPickID</id></comment><comment><text>5.318500204990118</text><id>SNR</id></comment></pick><pick publicID="de.gempa.tb1.Pick/20250415001123.922325.142381"><time><value>2025-04-15T00:10:27.008393Z</value></time><waveformID networkCode="CX" stationCode="PB07" channelCode="HHZ"/><filterID>ITAPER(4)&gt;&gt;BW(4,4,20)</filterID><methodID>AIC</methodID><horizontalSlowness><value>14.687414915678636</value></horizontalSlowness><backazimuth><value>88.77906016798043</value></backazimuth><phaseHint>P</phaseHint><evaluationMode>automatic</evaluationMode><comment><text>1861.3077053451182</text><id>DFX:rectilinearity</id></comment><comment><text>491.1809747930822</text><id>SNR</id></comment></pick><pick publicID="de.gempa.tb1.Pick/20250415001212.926249.142383"><time><value>2025-04-15T00:10:45.298393Z</value></time><waveformID networkCode="CX" stationCode="PB07" channelCode="HHN"/><filterID>ITAPER(2)&gt;&gt;BW(3,3,20)</filterID><methodID>L2-AIC-GRID</methodID><horizontalSlowness><value>22.067421366296763</value></horizontalSlowness><backazimuth><value>306.572057845731</value></backazimuth><phaseHint>S</phaseHint><evaluationMode>automatic</evaluationMode><comment><text>303468.2575556796</text><id>DFX:rectilinearity</id></comment><comment><text>de.gempa.tb1.Pick/20250415001123.922325.142381</text><id>RefPickID</id></comment><comment><text>10.100953203634843</text><id>SNR</id></comment></pick><origin publicID="de.gempa.tb1.Origin/20250415001212.933244.156376"><time><value>2025-04-15T00:10:03.975234Z</value><uncertainty>0.6002886295318604</uncertainty></time><latitude><value>-21.65524673461914</value><uncertainty>2.2130215167999268</uncertainty></latitude><longitude><value>-68.73042297363281</value><uncertainty>6.907045841217041</uncertainty></longitude><depth><value>123.2918472290039</value><uncertainty>6.999759197235107</uncertainty></depth><depthType>from location</depthType><methodID>LOCSAT</methodID><earthModelID>iasp91_scanloc</earthModelID><quality><associatedPhaseCount>21</associatedPhaseCount><usedPhaseCount>21</usedPhaseCount><associatedStationCount>11</associatedStationCount><usedStationCount>11</usedStationCount><depthPhaseCount>0</depthPhaseCount><standardError>0.481600011637296</standardError><azimuthalGap>207.68080139160156</azimuthalGap><maximumDistance>2.427823066711426</maximumDistance><minimumDistance>0.4959016144275665</minimumDistance><medianDistance>1.3043568134307861</medianDistance></quality><uncertainty><minHorizontalUncertainty>4.684237003326416</minHorizontalUncertainty><maxHorizontalUncertainty>14.82405185699463</maxHorizontalUncertainty><azimuthMaxHorizontalUncertainty>86.95133972167969</azimuthMaxHorizontalUncertainty><preferredDescription>horizontal uncertainty</preferredDescription></uncertainty><evaluationMode>automatic</evaluationMode><evaluationStatus>confirmed</evaluationStatus><comment><text>0.00</text><id>mismatchScore</id></comment><comment><text>mismatchScore</text><id>scevalMethod</id></comment><arrival><pickID>de.gempa.tb1.Pick/20250415001029.891738.142342</pickID><phase>P</phase><azimuth>310.6575012207031</azimuth><distance>0.932102620601654</distance><timeResidual>-0.5832843780517578</timeResidual><timeUsed>true</timeUsed><horizontalSlownessUsed>false</horizontalSlownessUsed><backazimuthUsed>false</backazimuthUsed><weight>1</weight></arrival><arrival><pickID>de.gempa.tb1.Pick/20250415001031.174057.142344</pickID><phase>P</phase><azimuth>253.45411682128906</azimuth><distance>0.4959016144275665</distance><timeResidual>-0.40725135803222656</timeResidual><timeUsed>true</timeUsed><horizontalSlownessUsed>false</horizontalSlownessUsed><backazimuthUsed>false</backazimuthUsed><weight>1</weight></arrival><arrival><pickID>de.gempa.tb1.Pick/20250415001031.269971.142346</pickID><phase>P</phase><azimuth>247.4256896972656</azimuth><distance>1.0275005102157593</distance><timeResidual>-0.2376575469970703</timeResidual><timeUsed>true</timeUsed><horizontalSlownessUsed>false</horizontalSlownessUsed><backazimuthUsed>false</backazimuthUsed><weight>1</weight></arrival><arrival><pickID>de.gempa.tb1.Pick/20250415001033.693164.142348</pickID><phase>P</phase><azimuth>286.882568359375</azimuth><distance>1.1357401609420776</distance><timeResidual>-0.137969970703125</timeResidual><timeUsed>true</timeUsed><horizontalSlownessUsed>false</horizontalSlownessUsed><backazimuthUsed>false</backazimuthUsed><weight>1</weight></arrival><arrival><pickID>de.gempa.tb1.Pick/20250415001036.951411.142350</pickID><phase>P</phase><azimuth>216.5651092529297</azimuth><distance>1.3043568134307861</distance><timeResidual>-0.15584945678710938</timeResidual><timeUsed>true</timeUsed><horizontalSlownessUsed>false</horizontalSlownessUsed><backazimuthUsed>false</backazimuthUsed><weight>1</weight></arrival><arrival><pickID>de.gempa.tb1.Pick/20250415001038.403349.142352</pickID><phase>P</phase><azimuth>301.7794494628906</azimuth><distance>1.5653977394104004</distance><timeResidual>0.2443828582763672</timeResidual><timeUsed>true</timeUsed><horizontalSlownessUsed>false</horizontalSlownessUsed><backazimuthUsed>false</backazimuthUsed><weight>1</weight></arrival><arrival><pickID>de.gempa.tb1.Pick/20250415001040.198796.142354</pickID><phase>P</phase><azimuth>203.76576232910156</azimuth><distance>1.6907203197479248</distance><timeResidual>-0.05284881591796875</timeResidual><timeUsed>true</timeUsed><horizontalSlownessUsed>false</horizontalSlownessUsed><backazimuthUsed>false</backazimuthUsed><weight>1</weight></arrival><arrival><pickID>de.gempa.tb1.Pick/20250415001041.076018.142356</pickID><phase>P</phase><azimuth>345.2156677246094</azimuth><distance>1.557588815689087</distance><timeResidual>1.0192203521728516</timeResidual><timeUsed>true</timeUsed><horizontalSlownessUsed>false</horizontalSlownessUsed><backazimuthUsed>false</backazimuthUsed><weight>1</weight></arrival><arrival><pickID>de.gempa.tb1.Pick/20250415001046.944137.142358</pickID><phase>P</phase><azimuth>192.89646911621094</azimuth><distance>2.2978692054748535</distance><timeResidual>0.020801544189453125</timeResidual><timeUsed>true</timeUsed><horizontalSlownessUsed>false</horizontalSlownessUsed><backazimuthUsed>false</backazimuthUsed><weight>1</weight></arrival><arrival><pickID>de.gempa.tb1.Pick/20250415001048.091271.142360</pickID><phase>P</phase><azimuth>327.2552185058594</azimuth><distance>2.427823066711426</distance><timeResidual>-1.2005233764648438</timeResidual><timeUsed>true</timeUsed><horizontalSlownessUsed>false</horizontalSlownessUsed><backazimuthUsed>false</backazimuthUsed><weight>1</weight></arrival><arrival><pickID>de.gempa.tb1.Pick/20250415001049.189535.142362</pickID><phase>S</phase><azimuth>310.6575012207031</azimuth><distance>0.932102620601654</distance><timeResidual>-0.2649517059326172</timeResidual><timeUsed>true</timeUsed><horizontalSlownessUsed>false</horizontalSlownessUsed><backazimuthUsed>false</backazimuthUsed><weight>1</weight></arrival><arrival><pickID>de.gempa.tb1.Pick/20250415001050.466759.142363</pickID><phase>S</phase><azimuth>247.4256896972656</azimuth><distance>1.0275005102157593</distance><timeResidual>-0.3397846221923828</timeResidual><timeUsed>true</timeUsed><horizontalSlownessUsed>false</horizontalSlownessUsed><backazimuthUsed>false</backazimuthUsed><weight>1</weight></arrival><arrival><pickID>de.gempa.tb1.Pick/20250415001052.877068.142364</pickID><phase>S</phase><azimuth>286.882568359375</azimuth><distance>1.1357401609420776</distance><timeResidual>0.23489952087402344</timeResidual><timeUsed>true</timeUsed><horizontalSlownessUsed>false</horizontalSlownessUsed><backazimuthUsed>false</backazimuthUsed><weigh