<?xml version="1.0" encoding="UTF-8"?>
<seiscomp xmlns="http://geofon.gfz-potsdam.de/ns/seiscomp3-schema/0.13" version="0.13"><EventParameters><pick publicID="de.gempa.tb1.Pick/20250412114006.571168.123640"><time><value>2025-04-12T11:39:59.248393Z</value></time><waveformID networkCode="CX" stationCode="PB01" channelCode="HHZ"/><filterID>ITAPER(4)&gt;&gt;BW(4,4,20)</filterID><methodID>AIC</methodID><horizontalSlowness><value>21.31142304801804</value></horizontalSlowness><backazimuth><value>153.41014097175554</value></backazimuth><phaseHint>P</phaseHint><evaluationMode>automatic</evaluationMode><comment><text>26.34095708374482</text><id>DFX:rectilinearity</id></comment><comment><text>39.001896637578987</text><id>SNR</id></comment></pick><pick publicID="de.gempa.tb1.Pick/20250412114007.354238.123642"><time><value>2025-04-12T11:39:56.96Z</value></time><waveformID networkCode="CX" stationCode="PB09" channelCode="HHZ"/><filterID>ITAPER(4)&gt;&gt;BW(4,4,20)</filterID><methodID>AIC</methodID><horizontalSlowness><value>14.975969146536029</value></horizontalSlowness><backazimuth><value>90.19653635741007</value></backazimuth><phaseHint>P</phaseHint><evaluationMode>automatic</evaluationMode><comment><text>57.36863599886922</text><id>DFX:rectilinearity</id></comment><comment><text>19.782777116172568</text><id>SNR</id></comment></pick><pick publicID="de.gempa.tb1.Pick/20250412114008.495101.123644"><time><value>2025-04-12T11:40:01.748393Z</value></time><waveformID networkCode="CX" stationCode="PB03" channelCode="HHZ"/><filterID>ITAPER(4)&gt;&gt;BW(4,4,20)</filterID><methodID>AIC</methodID><horizontalSlowness><value>9.930309191673523</value></horizontalSlowness><backazimuth><value>81.09342808420946</value></backazimuth><phaseHint>P</phaseHint><evaluationMode>automatic</evaluationMode><comment><text>14.828278222329475</text><id>DFX:rectilinearity</id></comment><comment><text>13.282005562590397</text><id>SNR</id></comment></pick><pick publicID="de.gempa.tb1.Pick/20250412114009.50375.123646"><time><value>2025-04-12T11:40:02.318393Z</value></time><waveformID networkCode="CX" stationCode="PB02" channelCode="HHZ"/><filterID>ITAPER(4)&gt;&gt;BW(4,4,20)</filterID><methodID>AIC</methodID><horizontalSlowness><value>3.5965146756793285</value></horizontalSlowness><backazimuth><value>42.444446414004233</value></backazimuth><phaseHint>P</phaseHint><evaluationMode>automatic</evaluationMode><comment><text>154.77484795329758</text><id>DFX:rectilinearity</id></comment><comment><text>64.90003739214973</text><id>SNR</id></comment></pick><pick publicID="de.gempa.tb1.Pick/20250412114012.425557.123648"><time><value>2025-04-12T11:40:06.969999Z</value></time><waveformID networkCode="CX" stationCode="PATCX" channelCode="HHZ"/><filterID>ITAPER(4)&gt;&gt;BW(4,4,20)</filterID><methodID>AIC</methodID><horizontalSlowness><value>0.5006687668023837</value></horizontalSlowness><backazimuth><value>355.2874848692767</value></backazimuth><phaseHint>P</phaseHint><evaluationMode>automatic</evaluationMode><comment><text>322.230587571054</text><id>DFX:rectilinearity</id></comment><comment><text>22.67713194329417</text><id>SNR</id></comment></pick><pick publicID="de.gempa.tb1.Pick/20250412114029.606796.123650"><time><value>2025-04-12T11:40:21.778393Z</value></time><waveformID networkCode="CX" stationCode="PB03" channelCode="HHN"/><filterID>ITAPER(2)&gt;&gt;BW(3,3,20)</filterID><methodID>L2-AIC-GRID</methodID><horizontalSlowness><value>21.926727291171925</value></horizontalSlowness><backazimuth><value>324.20060593867186</value></backazimuth><phaseHint>S</phaseHint><evaluationMode>automatic</evaluationMode><comment><text>30.097269519425634</text><id>DFX:rectilinearity</id></comment><comment><text>de.gempa.tb1.Pick/20250412114008.495101.123644</text><id>RefPickID</id></comment><comment><text>6.826739242971493</text><id>SNR</id></comment></pick><pick publicID="de.gempa.tb1.Pick/20250412114040.584451.123655"><time><value>2025-04-12T11:40:02.258397Z</value></time><waveformID networkCode="CX" stationCode="PB07" channelCode="HHZ"/><filterID>ITAPER(4)&gt;&gt;BW(4,4,20)</filterID><methodID>AIC</methodID><horizontalSlowness><value>14.095637880203778</value></horizontalSlowness><backazimuth><value>101.0518674743287</value></backazimuth><phaseHint>P</phaseHint><evaluationMode>automatic</evaluationMode><comment><text>783.499328000834</text><id>DFX:rectilinearity</id></comment><comment><text>45.6402001312028</text><id>SNR</id></comment></pick><pick publicID="de.gempa.tb1.Pick/20250412114046.411462.123659"><time><value>2025-04-12T11:40:30.439999Z</value></time><waveformID networkCode="CX" stationCode="PATCX" channelCode="HHN"/><filterID>ITAPER(2)&gt;&gt;BW(3,3,20)</filterID><methodID>L2-AIC-GRID</methodID><horizontalSlowness><value>19.128366679643218</value></horizontalSlowness><backazimuth><value>347.71619657685034</value></backazimuth><phaseHint>S</phaseHint><evaluationMode>automatic</evaluationMode><comment><text>710.8618527286229</text><id>DFX:rectilinearity</id></comment><comment><text>de.gempa.tb1.Pick/20250412114012.425557.123648</text><id>RefPickID</id></comment><comment><text>6.802547802390804</text><id>SNR</id></comment></pick><origin publicID="de.gempa.tb1.Origin/20250412114046.414884.81546"><time><value>2025-04-12T11:39:36.233533Z</value><uncertainty>1.5102484226226807</uncertainty></time><latitude><value>-21.532651901245117</value><uncertainty>9.300455093383789</uncertainty></latitude><longitude><value>-68.4624252319336</value><uncertainty>14.790804862976074</uncertainty></longitude><depth><value>125.45446014404297</value><uncertainty>25.23862838745117</uncertainty></depth><depthType>from location</depthType><methodID>LOCSAT</methodID><earthModelID>iasp91_scanloc</earthModelID><quality><associatedPhaseCount>8</associatedPhaseCount><usedPhaseCount>8</usedPhaseCount><associatedStationCount>6</associatedStationCount><usedStationCount>6</usedStationCount><depthPhaseCount>0</depthPhaseCount><standardError>0.15520826584230413</standardError><azimuthalGap>309.78350830078125</azimuthalGap><maximumDistance>1.7294001579284668</maximumDistance><minimumDistance>0.7711230516433716</minimumDistance><medianDistance>1.338690996170044</medianDistance></quality><uncertainty><minHorizontalUncertainty>16.295169830322266</minHorizontalUncertainty><maxHorizontalUncertainty>33.73710250854492</maxHorizontalUncertainty><azimuthMaxHorizontalUncertainty>67.09243774414062</azimuthMaxHorizontalUncertainty><preferredDescription>horizontal uncertainty</preferredDescription></uncertainty><evaluationMode>automatic</evaluationMode><evaluationStatus>confirmed</evaluationStatus><comment><text>0.08</text><id>mismatchScore</id></comment><comment><text>mismatchScore</text><id>scevalMethod</id></comment><arrival><pickID>de.gempa.tb1.Pick/20250412114006.571168.123640</pickID><phase>P</phase><azimuth>296.8123779296875</azimuth><distance>1.0727807283401489</distance><timeResidual>-0.2394523620605469</timeResidual><timeUsed>true</timeUsed><horizontalSlownessUsed>false</horizontalSlownessUsed><backazimuthUsed>false</backazimuthUsed><weight>1</weight></arrival><arrival><pickID>de.gempa.tb1.Pick/20250412114007.354238.123642</pickID><phase>P</phase><azimuth>249.96009826660156</azimuth><distance>0.7711230516433716</distance><timeResidual>0.22077560424804688</timeResidual><timeUsed>true</timeUsed><horizontalSlownessUsed>false</horizontalSlownessUsed><backazimuthUsed>false</backazimuthUsed><weight>1</weight></arrival><arrival><pickID>de.gempa.tb1.Pick/20250412114008.495101.123644</pickID><phase>P</phase><azimuth>246.59588623046875</azimuth><distance>1.3047571182250977</distance><timeResidual>-0.1403331756591797</timeResidual><timeUsed>true</timeUsed><horizontalSlownessUsed>false</horizontalSlownessUsed><backazimuthUsed>false</backazimuthUsed><weight>1</weight></arrival><arrival><pickID>de.gempa.tb1.Pick/20250412114009.50375.123646</pickID><phase>P</phase><azimuth>278.75244140625</azimuth><distance>1.3524072170257568</distance><timeResidual>-0.09328651428222656</timeResidual><timeUsed>true</timeUsed><horizontalSlownessUsed>false</horizontalSlownessUsed><backazimuthUsed>false</backazimuthUsed><weight>1</weight></arrival><arrival><pickID>de.gempa.tb1.Pick/20250412114012.425557.123648</pickID><phase>P</phase><azimuth>293.8758850097656</azimuth><distance>1.7294001579284668</distance><timeResidual>0.24109840393066406</timeResidual><timeUsed>true</timeUsed><horizontalSlownessUsed>false</horizontalSlownessUsed><backazimuthUsed>false</backazimuthUsed><weight>1</weight></arrival><arrival><pickID>de.gempa.tb1.Pick/20250412114029.606796.123650</pickID><phase>S</phase><azimuth>246.59588623046875</azimuth><distance>1.3047571182250977</distance><timeResidual>0.001316070556640625</timeResidual><timeUsed>true</timeUsed><horizontalSlownessUsed>false</horizontalSlownessUsed><backazimuthUsed>false</backazimuthUsed><weight>1</weight></arrival><arrival><pickID>de.gempa.tb1.Pick/20250412114040.584451.123655</pickID><phase>P</phase><azimuth>261.44732666015625</azimuth><distance>1.338690996170044</distance><timeResidual>-0.000911712646484375</timeResidual><timeUsed>true</timeUsed><horizontalSlownessUsed>false</horizontalSlownessUsed><backazimuthUsed>false</backazimuthUsed><weight>1</weight></arrival><arrival><pickID>de.gempa.tb1.Pick/20250412114046.411462.123659</pickID><phase>S</phase><azimuth>293.8758850097656</azimuth><distance>1.7294001579284668</distance><timeResidual>0.010524749755859375</timeResidual><timeUsed>true</timeUsed><horizontalSlownessUsed>false</horizontalSlownessUsed><backazimuthUsed>false</backazimuthUsed><weight>1</weight></arrival><magnitude publicID="de.gempa.tb1.Magnitude/20250412114051.92412.219188"><magnitude><value>2.3376888963926477</value></magnitude><type>M</type><methodID>weighted average</methodID><stationCount>4</stationCount></magnitude></origin><event publicID="gempa2025hfln"><preferredOriginID>de.gempa.tb1.Origin/20250412114046.414884.81546</preferredOriginID><preferredMagnitudeID>de.gempa.tb1.Magnitude/20250412114051.92412.219188</preferredMagnitudeID><description><text>Chile-Bolivia Border Region</text><type>region name</type></description><originReference>de.gempa.tb1.Origin/20250412114046.414884.81546</originReference></event></EventParameters></seiscomp>