<?xml version="1.0" encoding="UTF-8"?>
<seiscomp xmlns="http://geofon.gfz-potsdam.de/ns/seiscomp3-schema/0.13" version="0.13"><EventParameters><pick publicID="de.gempa.tb1.Pick/20250414170256.767172.139422"><time><value>2025-04-14T17:02:50.798393Z</value></time><waveformID networkCode="CX" stationCode="PB15" channelCode="HHZ"/><filterID>ITAPER(4)&gt;&gt;BW(4,4,20)</filterID><methodID>AIC</methodID><horizontalSlowness><value>22.90107187887608</value></horizontalSlowness><backazimuth><value>128.1998153149163</value></backazimuth><phaseHint>P</phaseHint><evaluationMode>automatic</evaluationMode><comment><text>160.76130975451878</text><id>DFX:rectilinearity</id></comment><comment><text>20.015712889148887</text><id>SNR</id></comment></pick><pick publicID="de.gempa.tb1.Pick/20250414170257.557736.139424"><time><value>2025-04-14T17:02:50.638393Z</value></time><waveformID networkCode="CX" stationCode="PB06" channelCode="HHZ"/><filterID>ITAPER(4)&gt;&gt;BW(4,4,20)</filterID><methodID>AIC</methodID><horizontalSlowness><value>3.037570261238433</value></horizontalSlowness><backazimuth><value>239.48770388331224</value></backazimuth><phaseHint>P</phaseHint><evaluationMode>automatic</evaluationMode><comment><text>101.84008991689177</text><id>DFX:rectilinearity</id></comment><comment><text>21.764981822031768</text><id>SNR</id></comment></pick><pick publicID="de.gempa.tb1.Pick/20250414170300.613258.139428"><time><value>2025-04-14T17:02:55.528393Z</value></time><waveformID networkCode="CX" stationCode="PB03" channelCode="HHZ"/><filterID>ITAPER(4)&gt;&gt;BW(4,4,20)</filterID><methodID>AIC</methodID><horizontalSlowness><value>5.785661764877061</value></horizontalSlowness><backazimuth><value>161.50692357250529</value></backazimuth><phaseHint>P</phaseHint><evaluationMode>automatic</evaluationMode><comment><text>8.703251847470808</text><id>DFX:rectilinearity</id></comment><comment><text>20.542039531360402</text><id>SNR</id></comment></pick><pick publicID="de.gempa.tb1.Pick/20250414170302.581517.139430"><time><value>2025-04-14T17:02:55.99Z</value></time><waveformID networkCode="CX" stationCode="PB19" channelCode="HHZ"/><filterID>ITAPER(4)&gt;&gt;BW(4,4,20)</filterID><methodID>AIC</methodID><horizontalSlowness><value>18.625286324265566</value></horizontalSlowness><backazimuth><value>77.75633606672727</value></backazimuth><phaseHint>P</phaseHint><evaluationMode>automatic</evaluationMode><comment><text>16.888573043761408</text><id>DFX:rectilinearity</id></comment><comment><text>13.38476720505649</text><id>SNR</id></comment></pick><pick publicID="de.gempa.tb1.Pick/20250414170305.973866.139432"><time><value>2025-04-14T17:02:55.71Z</value></time><waveformID networkCode="CX" stationCode="PB09" channelCode="HHZ"/><filterID>ITAPER(4)&gt;&gt;BW(4,4,20)</filterID><methodID>AIC</methodID><horizontalSlowness><value>19.10625797805847</value></horizontalSlowness><backazimuth><value>130.75787753632255</value></backazimuth><phaseHint>P</phaseHint><evaluationMode>automatic</evaluationMode><comment><text>21.235832122160144</text><id>DFX:rectilinearity</id></comment><comment><text>84.17176554144257</text><id>SNR</id></comment></pick><pick publicID="de.gempa.tb1.Pick/20250414170308.461444.139434"><time><value>2025-04-14T17:03:04.158393Z</value></time><waveformID networkCode="CX" stationCode="PB02" channelCode="HHZ"/><filterID>ITAPER(4)&gt;&gt;BW(4,4,20)</filterID><methodID>AIC</methodID><horizontalSlowness><value>14.962050939339994</value></horizontalSlowness><backazimuth><value>278.76163155256035</value></backazimuth><phaseHint>P</phaseHint><evaluationMode>automatic</evaluationMode><comment><text>14.235203098407037</text><id>DFX:rectilinearity</id></comment><comment><text>19.565690379111654</text><id>SNR</id></comment></pick><pick publicID="de.gempa.tb1.Pick/20250414170310.797705.139436"><time><value>2025-04-14T17:03:03.958393Z</value></time><waveformID networkCode="CX" stationCode="PB15" channelCode="HHN"/><filterID>ITAPER(2)&gt;&gt;BW(3,3,20)</filterID><methodID>L2-AIC-GRID</methodID><horizontalSlowness><value>23.01452391114941</value></horizontalSlowness><backazimuth><value>109.72430434177707</value></backazimuth><phaseHint>S</phaseHint><evaluationMode>automatic</evaluationMode><comment><text>4737.6032566815</text><id>DFX:rectilinearity</id></comment><comment><text>de.gempa.tb1.Pick/20250414170256.767172.139422</text><id>RefPickID</id></comment><comment><text>11.56518935714693</text><id>SNR</id></comment></pick><pick publicID="de.gempa.tb1.Pick/20250414170311.198839.139437"><time><value>2025-04-14T17:03:03.27Z</value></time><waveformID networkCode="CX" stationCode="PB10" channelCode="HHZ"/><filterID>ITAPER(4)&gt;&gt;BW(4,4,20)</filterID><methodID>AIC</methodID><horizontalSlowness><value>13.00085724876505</value></horizontalSlowness><backazimuth><value>296.01644938029796</value></backazimuth><phaseHint>P</phaseHint><evaluationMode>automatic</evaluationMode><comment><text>36.880236279142387</text><id>DFX:rectilinearity</id></comment><comment><text>6.63364116184119</text><id>SNR</id></comment></pick><pick publicID="de.gempa.tb1.Pick/20250414170311.707113.139439"><time><value>2025-04-14T17:03:03.378393Z</value></time><waveformID networkCode="CX" stationCode="PB06" channelCode="HHN"/><filterID>ITAPER(2)&gt;&gt;BW(3,3,20)</filterID><methodID>L2-AIC-GRID</methodID><horizontalSlowness><value>20.0455571916288</value></horizontalSlowness><backazimuth><value>236.0835226473249</value></backazimuth><phaseHint>S</phaseHint><evaluationMode>automatic</evaluationMode><comment><text>719.9398522061902</text><id>DFX:rectilinearity</id></comment><comment><text>de.gempa.tb1.Pick/20250414170257.557736.139424</text><id>RefPickID</id></comment><comment><text>19.411331964685708</text><id>SNR</id></comment></pick><pick publicID="de.gempa.tb1.Pick/20250414170314.531847.139440"><time><value>2025-04-14T17:03:05.488393Z</value></time><waveformID networkCode="CX" stationCode="PB01" channelCode="HHZ"/><filterID>ITAPER(4)&gt;&gt;BW(4,4,20)</filterID><methodID>AIC</methodID><horizontalSlowness><value>12.076430959407437</value></horizontalSlowness><backazimuth><value>262.257301686063</value></backazimuth><phaseHint>P</phaseHint><evaluationMode>automatic</evaluationMode><comment><text>12.637531369281346</text><id>DFX:rectilinearity</id></comment><comment><text>18.50451844567294</text><id>SNR</id></comment></pick><pick publicID="de.gempa.tb1.Pick/20250414170315.528351.139442"><time><value>2025-04-14T17:02:59.528393Z</value></time><waveformID networkCode="CX" stationCode="PB07" channelCode="HHZ"/><filterID>ITAPER(4)&gt;&gt;BW(4,4,20)</filterID><methodID>AIC</methodID><horizontalSlowness><value>20.62458624457843</value></horizontalSlowness><backazimuth><value>81.849300788932</value></backazimuth><phaseHint>P</phaseHint><evaluationMode>automatic</evaluationMode><comment><text>106.31366946748584</text><id>DFX:rectilinearity</id></comment><comment><text>56.56494776779167</text><id>SNR</id></comment></pick><pick publicID="de.gempa.tb1.Pick/20250414170317.665821.139444"><time><value>2025-04-14T17:03:12.178393Z</value></time><waveformID networkCode="CX" stationCode="PB03" channelCode="HHN"/><filterID>ITAPER(2)&gt;&gt;BW(3,3,20)</filterID><methodID>L2-AIC-GRID</methodID><horizontalSlowness><value>19.31978610852546</value></horizontalSlowness><backazimuth><value>39.335559787789236</value></backazimuth><phaseHint>S</phaseHint><evaluationMode>automatic</evaluationMode><comment><text>84.69840679697103</text><id>DFX:rectilinearity</id></comment><comment><text>de.gempa.tb1.Pick/20250414170300.613258.139428</text><id>RefPickID</id></comment><comment><text>11.976029784820302</text><id>SNR</id></comment></pick><pick publicID="de.gempa.tb1.Pick/20250414170318.580683.139445"><time><value>2025-04-14T17:03:12.36Z</value></time><waveformID networkCode="CX" stationCode="PB19" channelCode="HHN"/><filterID>ITAPER(2)&gt;&gt;BW(3,3,20)</filterID><methodID>L2-AIC-GRID</methodID><horizontalSlowness><value>17.880519229953624</value></horizontalSlowness><backazimuth><value>0.8666378601611768</value></backazimuth><phaseHint>S</phaseHint><evaluationMode>automatic</evaluationMode><comment><text>215.3814351556163</text><id>DFX:rectilinearity</id></comment><comment><text>de.gempa.tb1.Pick/20250414170302.581517.139430</text><id>RefPickID</id></comment><comment><text>10.357843647301523</text><id>SNR</id></comment></pick><pick publicID="de.gempa.tb1.Pick/20250414170336.568554.139451"><time><value>2025-04-14T17:03:28.638393Z</value></time><waveformID networkCode="CX" stationCode="PB02" channelCode="HHN"/><filterID>ITAPER(2)&gt;&gt;BW(3,3,20)</filterID><methodID>L2-AIC-GRID</methodID><horizontalSlowness><value>16.65215740175901</value></horizontalSlowness><backazimuth><value>70.10752529989897</value></backazimuth><phaseHint>S</phaseHint><evaluationMode>automatic</evaluationMode><comment><text>411.5721092763427</text><id>DFX:rectilinearity</id></comment><comment><text>de.gempa.tb1.Pick/20250414170308.461444.139434</text><id>RefPickID</id></comment><comment><text>6.860523189172502</text><id>SNR</id></comment></pick><pick publicID="de.gempa.tb1.Pick/20250414170337.468881.139452"><time><value>2025-04-14T17:03:26.33Z</value></time><waveformID networkCode="CX" stationCode="PB10" channelCode="HHN"/><filterID>ITAPER(2)&gt;&gt;BW(3,3,20)</filterID><methodID>L2-AIC-GRID</methodID><horizontalSlowness><value>21.225149988794733</value></horizontalSlowness><backazimuth><value>10.357229090841543</value></backazimuth><phaseHint>S</phaseHint><evaluationMode>automatic</evaluationMode><comment><text>33.556039447828745</text><id>DFX:rectilinearity</id></comment><comment><text>de.gempa.tb1.Pick/20250414170311.198839.139437</text><id>RefPickID</id></comment><comment><text>5.029737936733249</text><id>SNR</id></comment></pick><pick publicID="de.gempa.tb1.Pick/20250414170338.16182.139453"><time><value>2025-04-14T17:03:20.178393Z</value></time><waveformID networkCode="CX" stationCode="PB07" channelCode="HHN"/><filterID>ITAPER(2)&gt;&gt;BW(3,3,20)</filterID><methodID>L2-AIC-GRID</methodID><horizontalSlowness><value>23.480839261543814</value></horizontalSlowness><backazimuth><value>77.88697793340204</value></backazimuth><phaseHint>S</phaseHint><evaluationMode>automatic</evaluationMode><comment><text>16430.85099832793</text><id>DFX:rectilinearity</id></comment><comment><text>de.gempa.tb1.Pick/20250414170315.528351.139442</text><id>RefPickID</id></comment><comment><text>5.597028858333972</text><id>SNR</id></comment></pick><pick publicID="de.gempa.tb1.Pick/20250414170338.577122.139454"><time><value>2025-04-14T17:03:29.628393Z</value></time><waveformID networkCode="CX" stationCode="PB01" channelCode="HHN"/><filterID>ITAPER(2)&gt;&gt;BW(3,3,20)</filterID><methodID>L2-AIC-GRID</methodID><horizontalSlowness><value>18.339679258691412</value></horizontalSlowness><backazimuth><value>287.200593193481</value></backazimuth><phaseHint>S</phaseHint><evaluationMode>automatic</evaluationMode><comment><text>66.33524881230933</text><id>DFX:rectilinearity</id></comment><comment><text>de.gempa.tb1.Pick/20250414170314.531847.139440</text><id>RefPickID</id></comment><comment><text>6.549190928966865</text><id>SNR</id></comment></pick><origin publicID="de.gempa.tb1.Origin/20250414170338.592273.143788"><time><value>2025-04-14T17:02:34.523265Z</value><uncertainty>0.6980292201042175</uncertainty></time><latitude><value>-22.839488983154297</value><uncertainty>2.400603771209717</uncertainty></latitude><longitude><value>-68.7777099609375</value><uncertainty>6.593045234680176</uncertainty></longitude><depth><value>84.45597839355469</value><uncertainty>9.179718017578125</uncertainty></depth><depthType>from location</depthType><methodID>LOCSAT</methodID><earthModelID>iasp91_scanloc</earthModelID><quality><associatedPhaseCount>17</associatedPhaseCount><usedPhaseCount>17</usedPhaseCount><associatedStationCount>9</associatedStationCount><usedStationCount>9</usedStationCount><depthPhaseCount>0</depthPhaseCount><standardError>0.4768063270708221</standardError><azimuthalGap>224.2313232421875</azimuthalGap><maximumDistance>1.9051196575164795</maximumDistance><minimumDistance>0.7366406917572021</minimumDistance><medianDistance>1.1975157260894775</medianDistance></quality><uncertainty><minHorizontalUncertainty>5.112191200256348</minHorizontalUncertainty><maxHorizontalUncertainty>14.146645545959473</maxHorizontalUncertainty><azimuthMaxHorizontalUncertainty>87.42466735839844</azimuthMaxHorizontalUncertainty><preferredDescription>horizontal uncertainty</preferredDescription></uncertainty><evaluationMode>automatic</evaluationMode><evaluationStatus>confirmed</evaluationStatus><comment><text>0.00</text><id>mismatchScore</id></comment><comment><text>mismatchScore</text><id>scevalMethod</id></comment><arrival><pickID>de.gempa.tb1.Pick/20250414170256.767172.139422</pickID><phase>P</phase><azimuth>239.9727478027344</azimuth><distance>0.7366406917572021</distance><timeResidual>-0.14460372924804688</timeResidual><timeUsed>true</timeUsed><horizontalSlownessUsed>false</horizontalSlownessUsed><backazimuthUsed>false</backazimuthUsed><weight>1</weight></arrival><arrival><pickID>de.gempa.tb1.Pick/20250414170257.557736.139424</pickID><phase>P</phase><azimuth>280.13592529296875</azimuth><distance>0.7449712157249451</distance><timeResidual>-0.39356231689453125</timeResidual><timeUsed>true</timeUsed><horizontalSlownessUsed>false</horizontalSlownessUsed><backazimuthUsed>false</backazimuthUsed><weight>1</weight></arrival><arrival><pickID>de.gempa.tb1.Pick/20250414170300.613258.139428</pickID><phase>P</phase><azimuth>310.9159851074219</azimuth><distance>1.1975157260894775</distance><timeResidual>-0.7068023681640625</timeResidual><timeUsed>true</timeUsed><horizontalSlownessUsed>false</horizontalSlownessUsed><backazimuthUsed>false</backazimuthUsed><weight>1</weight></arrival><arrival><pickID>de.gempa.tb1.Pick/20250414170302.581517.139430</pickID><phase>P</phase><azimuth>203.86465454101562</azimuth><distance>1.160420536994934</distance><timeResidual>0.21701526641845703</timeResidual><timeUsed>true</timeUsed><horizontalSlownessUsed>false</horizontalSlownessUsed><backazimuthUsed>false</backazimuthUsed><weight>1</weight></arrival><arrival><pickID>de.gempa.tb1.Pick/20250414170305.973866.139432</pickID><phase>P</phase><azimuth>337.41925048828125</azimuth><distance>1.1235954761505127</distance><timeResidual>0.37322044372558594</timeResidual><timeUsed>true</timeUsed><horizontalSlownessUsed>false</horizontalSlownessUsed><backazimuthUsed>false</backazimuthUsed><weight>1</weight></arrival><arrival><pickID>de.gempa.tb1.Pick/20250414170308.461444.139434</pickID><phase>P</phase><azimuth>325.3457336425781</azimuth><distance>1.8339349031448364</distance><timeResidual>-0.2126617431640625</timeResidual><timeUsed>true</timeUsed><horizontalSlownessUsed>false</horizontalSlownessUsed><backazimuthUsed>false</backazimuthUsed><weight>1</weight></arrival><arrival><pickID>de.gempa.tb1.Pick/20250414170310.797705.139436</pickID><phase>S</phase><azimuth>239.9727478027344</azimuth><distance>0.7366406917572021</distance><timeResidual>0.4231700897216797</timeResidual><timeUsed>true</timeUsed><horizontalSlownessUsed>false</horizontalSlownessUsed><backazimuthUsed>false</backazimuthUsed><weight>1</weight></arrival><arrival><pickID>de.gempa.tb1.Pick/20250414170311.198839.139437</pickID><phase>P</phase><azimuth>247.34283447265625</azimuth><distance>1.7669622898101807</distance><timeResidual>-0.21329689025878906</timeResidual><timeUsed>true</timeUsed><horizontalSlownessUsed>false</horizontalSlownessUsed><backazimuthUsed>false</backazimuthUsed><weight>1</weight></arrival><arrival><pickID>de.gempa.tb1.Pick/20250414170311.707113.139439</pickID><phase>S</phase><azimuth>280.13592529296875</azimuth><distance>0.7449712157249451</distance><timeResidual>-0.31477928161621094</timeResidual><timeUsed>true</timeUsed><horizontalSlownessUsed>false</horizontalSlownessUsed><backazimuthUsed>false</backazimuthUsed><weight>1</weight></arrival><arrival><pickID>de.gempa.tb1.Pick/20250414170314.531847.139440</pickID><phase>P</phase><azimuth>339.6333312988281</azimuth><distance>1.9051196575164795</distance><timeResidual>0.18087005615234375</timeResidual><timeUsed>true</timeUsed><horizontalSlownessUsed>false</horizontalSlownessUsed><backazimuthUsed>false</backazimuthUsed><weight>1</weight></arrival><arrival><pickID>de.gempa.tb1.Pick/20250414170315.528351.139442</pickID><phase>P</phase><azimuth>316.9584655761719</azimuth><distance>1.5101492404937744</distance><timeResidual>-0.6368942260742188</timeResidual><timeUsed>true</timeUsed><horizontalSlownessUsed>false</horizontalSlownessUsed><backazimuthUsed>false</backazimuthUsed><weight>1</weight></arrival><arrival><pickID>de.gempa.tb1.Pick/20250414170317.665821.139444</pickID><phase>S</phase><azimuth>310.9159851074219</azimuth><distance>1.1975157260894775</distance><timeResidual>-0.8010597229003906</timeResidual><timeUsed>true</timeUsed><horizontalSlownessUsed>false</horizontalSlownessUsed><backazimuthUsed>false</backazimuthUsed><weight>1</weight></arrival><arrival><pickID>de.gempa.tb1.Pick/20250414170318.580683.139445</pickID><phase>S</phase><azimuth>203.86465454101562</azimuth><distance>1.160420536994934</distance><timeResidual>0.20502090454101562</timeResidual><timeUsed>true</timeUsed><horizontalSlownessUsed>false</horizontalSlownessUsed><backazimuthUsed>false</backazimuthUsed><weight>1</weight></arrival><arrival><pickID>de.gempa.tb1.Pick/20250414170336.568554.139451</pickID><phase>S</phase><azimuth>325.3457336425781</azimuth><distance>1.8339349031448364</distance><timeResidual>1.0898017883300781</timeResidual><timeUsed>true</timeUsed><horizontalSlownessUsed>false</horizontalSlownessUsed><backazimuthUsed>false</backazimuthUsed><weight>1</weight></arrival><arrival><pickID>de.gempa.tb1.Pick/20250414170337.468881.139452</pickID><phase>S</phase><azimuth>247.34283447265625</azimuth><distance>1.7669622898101807</distance><timeResidual>0.3701667785644531</timeResidual><timeUsed>true</timeUsed><horizontalSlownessUsed>false</horizontalSlownessUsed><backazimuthUsed>false</backazimuthUsed><weight>1</weight></arrival><arrival><pickID>de.gempa.tb1.Pick/20250414170338.16182.139453</pickID><phase>S</phase><azimuth>316.9584655761719</azimuth><distance>1.5101492404937744</distance><timeResidual>0.16436004638671875</timeResidual><timeUsed>true</timeUsed><horizontalSlownessUsed>false</horizontalSlownessUsed><backazimuthUsed>false</backazimuthUsed><weight>1</weight></arrival><arrival><pickID>de.gempa.tb1.Pick/20250414170338.577122.139454</pickID><phase>S</phase><azimuth>339.6333312988281</azimuth><distance>1.9051196575164795</distance><timeResidual>0.40053558349609375</timeResidual><timeUsed>true</timeUsed><horizontalSlownessUsed>false</horizontalSlownessUsed><backazimuthUsed>false</backazimuthUsed><weight>1</weight></arrival><magnitude publicID="de.gempa.tb1.Magnitude/20250414170345.940465.517454"><magnitude><value>2.4533465691450185</value></magnitude><type>M</type><methodID>weighted average</methodID><stationCount>7</stationCount></magnitude></origin><event publicID="gempa2025hjoj"><preferredOriginID>de.gempa.tb1.Origin/20250414170338.592273.143788</preferredOriginID><preferredMagnitudeID>de.gempa.tb1.Magnitude/20250414170345.940465.517454</preferredMagnitudeID><description><text>Northern Chile</text><type>region name</type></description><originReference>de.gempa.tb1.Origin/20250414170338.592273.143788</originReference></event></EventParameters></seiscomp>