<?xml version="1.0" encoding="UTF-8"?>
<seiscomp xmlns="http://geofon.gfz-potsdam.de/ns/seiscomp3-schema/0.13" version="0.13"><EventParameters><pick publicID="de.gempa.tb1.Pick/20250411170802.577481.118876"><time><value>2025-04-11T17:07:55.178394Z</value></time><waveformID networkCode="CX" stationCode="PB02" channelCode="HHZ"/><filterID>ITAPER(4)&gt;&gt;BW(4,4,20)</filterID><methodID>AIC</methodID><horizontalSlowness><value>9.962203724087118</value></horizontalSlowness><backazimuth><value>352.70683195730993</value></backazimuth><phaseHint>P</phaseHint><evaluationMode>automatic</evaluationMode><comment><text>28.79732431362131</text><id>DFX:rectilinearity</id></comment><comment><text>12.12894852995836</text><id>SNR</id></comment></pick><pick publicID="de.gempa.tb1.Pick/20250411170805.850316.118878"><time><value>2025-04-11T17:07:56.718396Z</value></time><waveformID networkCode="CX" stationCode="PB07" channelCode="HHZ"/><filterID>ITAPER(4)&gt;&gt;BW(4,4,20)</filterID><methodID>AIC</methodID><horizontalSlowness><value>20.56423966277065</value></horizontalSlowness><backazimuth><value>285.84744966037493</value></backazimuth><phaseHint>P</phaseHint><evaluationMode>automatic</evaluationMode><comment><text>157.82999656387824</text><id>DFX:rectilinearity</id></comment><comment><text>9.118152637548413</text><id>SNR</id></comment></pick><pick publicID="de.gempa.tb1.Pick/20250411170809.712239.118880"><time><value>2025-04-11T17:08:04.198391Z</value></time><waveformID networkCode="CX" stationCode="PB01" channelCode="HHN"/><filterID>ITAPER(2)&gt;&gt;BW(3,3,20)</filterID><methodID>L2-AIC-GRID</methodID><horizontalSlowness><value>21.182464256839687</value></horizontalSlowness><backazimuth><value>282.2245060312573</value></backazimuth><phaseHint>S</phaseHint><evaluationMode>automatic</evaluationMode><comment><text>609.9518383480782</text><id>DFX:rectilinearity</id></comment><comment><text>de.gempa.tb1.Pick/20250411170759.608515.118874</text><id>RefPickID</id></comment><comment><text>16.12653617353222</text><id>SNR</id></comment></pick><pick publicID="de.gempa.tb1.Pick/20250411170810.091896.118881"><time><value>2025-04-11T17:07:54.7Z</value></time><waveformID networkCode="CX" stationCode="PB09" channelCode="HHZ"/><filterID>ITAPER(4)&gt;&gt;BW(4,4,20)</filterID><methodID>AIC</methodID><horizontalSlowness><value>17.633324450745945</value></horizontalSlowness><backazimuth><value>308.80328878351304</value></backazimuth><phaseHint>P</phaseHint><evaluationMode>automatic</evaluationMode><comment><text>19.222834418856902</text><id>DFX:rectilinearity</id></comment><comment><text>9.081957652448052</text><id>SNR</id></comment></pick><origin publicID="de.gempa.tb1.Origin/20250411170810.62519.61037"><time><value>2025-04-11T17:07:47.998323Z</value><uncertainty>0.5508201718330383</uncertainty></time><latitude><value>-21.523326873779297</value><uncertainty>2.9895570278167725</uncertainty></latitude><longitude><value>-69.4979019165039</value><uncertainty>4.4758691787719727</uncertainty></longitude><depth><value>0</value></depth><depthType>operator assigned</depthType><methodID>LOCSAT</methodID><earthModelID>iasp91_scanloc</earthModelID><quality><associatedPhaseCount>4</associatedPhaseCount><usedPhaseCount>4</usedPhaseCount><associatedStationCount>4</associatedStationCount><usedStationCount>4</usedStationCount><depthPhaseCount>0</depthPhaseCount><standardError>0.6442416118300387</standardError><azimuthalGap>137.63997030258179</azimuthalGap><maximumDistance>0.4778231978416443</maximumDistance><minimumDistance>0.36129409074783325</minimumDistance><medianDistance>0.42266929149627686</medianDistance></quality><uncertainty><minHorizontalUncertainty>6.385022163391113</minHorizontalUncertainty><maxHorizontalUncertainty>9.618183135986328</maxHorizontalUncertainty><azimuthMaxHorizontalUncertainty>85.29936981201172</azimuthMaxHorizontalUncertainty><preferredDescription>horizontal uncertainty</preferredDescription></uncertainty><evaluationMode>automatic</evaluationMode><arrival><pickID>de.gempa.tb1.Pick/20250411170802.577481.118876</pickID><phase>P</phase><azimuth>298.5685729980469</azimuth><distance>0.42266929149627686</distance><timeResidual>-0.9275741577148438</timeResidual><timeUsed>true</timeUsed><horizontalSlownessUsed>false</horizontalSlownessUsed><backazimuthUsed>false</backazimuthUsed><weight>1</weight></arrival><arrival><pickID>de.gempa.tb1.Pick/20250411170805.850316.118878</pickID><phase>P</phase><azimuth>240.67601013183594</azimuth><distance>0.41408148407936096</distance><timeResidual>0.7776274681091309</timeResidual><timeUsed>true</timeUsed><horizontalSlownessUsed>false</horizontalSlownessUsed><backazimuthUsed>false</backazimuthUsed><weight>1</weight></arrival><arrival><pickID>de.gempa.tb1.Pick/20250411170809.712239.118880</pickID><phase>S</phase><azimuth>1.176832675933838</azimuth><distance>0.4778231978416443</distance><timeResidual>0.37818193435668945</timeResidual><timeUsed>true</timeUsed><horizontalSlownessUsed>false</horizontalSlownessUsed><backazimuthUsed>false</backazimuthUsed><weight>1</weight></arrival><arrival><pickID>de.gempa.tb1.Pick/20250411170810.091896.118881</pickID><phase>P</phase><azimuth>138.81680297851562</azimuth><distance>0.36129409074783325</distance><timeResidual>-0.22818660736083984</timeResidual><timeUsed>true</timeUsed><horizontalSlownessUsed>false</horizontalSlownessUsed><backazimuthUsed>false</backazimuthUsed><weight>1</weight></arrival><magnitude publicID="de.gempa.tb1.Magnitude/20250411170846.6327.122310"><magnitude><value>1.8369391355335416</value></magnitude><type>M</type><methodID>weighted average</methodID><stationCount>3</stationCount></magnitude></origin><event publicID="gempa2025heal"><preferredOriginID>de.gempa.tb1.Origin/20250411170810.62519.61037</preferredOriginID><preferredMagnitudeID>de.gempa.tb1.Magnitude/20250411170846.6327.122310</preferredMagnitudeID><typeCertainty>suspected</typeCertainty><description><text>Northern Chile</text><type>region name</type></description><originReference>de.gempa.tb1.Origin/20250411170810.62519.61037</originReference></event></EventParameters></seiscomp>