<?xml version="1.0" encoding="UTF-8"?>
<seiscomp xmlns="http://geofon.gfz-potsdam.de/ns/seiscomp3-schema/0.13" version="0.13"><EventParameters><pick publicID="de.gempa.tb1.Pick/20250412125307.573852.124042"><time><value>2025-04-12T12:53:01.438393Z</value></time><waveformID networkCode="CX" stationCode="PB01" channelCode="HHZ"/><filterID>ITAPER(4)&gt;&gt;BW(4,4,20)</filterID><methodID>AIC</methodID><horizontalSlowness><value>13.244698120444836</value></horizontalSlowness><backazimuth><value>135.93958117262775</value></backazimuth><phaseHint>P</phaseHint><evaluationMode>automatic</evaluationMode><comment><text>7.759948783210632</text><id>DFX:rectilinearity</id></comment><comment><text>23.02763763410166</text><id>SNR</id></comment></pick><pick publicID="de.gempa.tb1.Pick/20250412125313.526816.124044"><time><value>2025-04-12T12:53:05.488393Z</value></time><waveformID networkCode="CX" stationCode="PB02" channelCode="HHZ"/><filterID>ITAPER(4)&gt;&gt;BW(4,4,20)</filterID><methodID>AIC</methodID><horizontalSlowness><value>17.66439449337864</value></horizontalSlowness><backazimuth><value>267.5976697626512</value></backazimuth><phaseHint>P</phaseHint><evaluationMode>automatic</evaluationMode><comment><text>30.01996924393035</text><id>DFX:rectilinearity</id></comment><comment><text>18.753666232350184</text><id>SNR</id></comment></pick><pick publicID="de.gempa.tb1.Pick/20250412125314.522987.124046"><time><value>2025-04-12T12:53:08.648393Z</value></time><waveformID networkCode="CX" stationCode="PB03" channelCode="HHZ"/><filterID>ITAPER(4)&gt;&gt;BW(4,4,20)</filterID><methodID>AIC</methodID><horizontalSlowness><value>7.059376051684925</value></horizontalSlowness><backazimuth><value>135.06420754319228</value></backazimuth><phaseHint>P</phaseHint><evaluationMode>automatic</evaluationMode><comment><text>7.000319994406709</text><id>DFX:rectilinearity</id></comment><comment><text>12.895635065742246</text><id>SNR</id></comment></pick><pick publicID="de.gempa.tb1.Pick/20250412125317.27018.124048"><time><value>2025-04-12T12:53:07.989999Z</value></time><waveformID networkCode="CX" stationCode="PATCX" channelCode="HHZ"/><filterID>ITAPER(4)&gt;&gt;BW(4,4,20)</filterID><methodID>AIC</methodID><horizontalSlowness><value>22.404882590255848</value></horizontalSlowness><backazimuth><value>87.30424868295161</value></backazimuth><phaseHint>P</phaseHint><evaluationMode>automatic</evaluationMode><comment><text>159.39133312274103</text><id>DFX:rectilinearity</id></comment><comment><text>10.714932634061544</text><id>SNR</id></comment></pick><pick publicID="de.gempa.tb1.Pick/20250412125319.490362.124050"><time><value>2025-04-12T12:53:04.08Z</value></time><waveformID networkCode="CX" stationCode="PB09" channelCode="HHZ"/><filterID>ITAPER(4)&gt;&gt;BW(4,4,20)</filterID><methodID>AIC</methodID><horizontalSlowness><value>14.76338756623534</value></horizontalSlowness><backazimuth><value>300.10587345720137</value></backazimuth><phaseHint>P</phaseHint><evaluationMode>automatic</evaluationMode><comment><text>13.690105122779244</text><id>DFX:rectilinearity</id></comment><comment><text>28.2007712508525</text><id>SNR</id></comment></pick><pick publicID="de.gempa.tb1.Pick/20250412125320.661502.124052"><time><value>2025-04-12T12:53:15.76Z</value></time><waveformID networkCode="CX" stationCode="PSGCX" channelCode="HHZ"/><filterID>ITAPER(4)&gt;&gt;BW(4,4,20)</filterID><methodID>AIC</methodID><horizontalSlowness><value>21.457234597429604</value></horizontalSlowness><backazimuth><value>270.8321509944207</value></backazimuth><phaseHint>P</phaseHint><evaluationMode>automatic</evaluationMode><comment><text>35.735916478771017</text><id>DFX:rectilinearity</id></comment><comment><text>9.099742521790386</text><id>SNR</id></comment></pick><pick publicID="de.gempa.tb1.Pick/20250412125323.563231.124054"><time><value>2025-04-12T12:53:13.838393Z</value></time><waveformID networkCode="CX" stationCode="PB01" channelCode="HHN"/><filterID>ITAPER(2)&gt;&gt;BW(3,3,20)</filterID><methodID>L2-AIC-GRID</methodID><horizontalSlowness><value>21.691611929704884</value></horizontalSlowness><backazimuth><value>305.2311760981708</value></backazimuth><phaseHint>S</phaseHint><evaluationMode>automatic</evaluationMode><comment><text>68.31384058061552</text><id>DFX:rectilinearity</id></comment><comment><text>de.gempa.tb1.Pick/20250412125307.573852.124042</text><id>RefPickID</id></comment><comment><text>10.644441056889249</text><id>SNR</id></comment></pick><pick publicID="de.gempa.tb1.Pick/20250412125332.647784.124057"><time><value>2025-04-12T12:53:21.238393Z</value></time><waveformID networkCode="CX" stationCode="PB02" channelCode="HHN"/><filterID>ITAPER(2)&gt;&gt;BW(3,3,20)</filterID><methodID>L2-AIC-GRID</methodID><horizontalSlowness><value>23.370502277807685</value></horizontalSlowness><backazimuth><value>274.7876917029003</value></backazimuth><phaseHint>S</phaseHint><evaluationMode>automatic</evaluationMode><comment><text>647.091783332983</text><id>DFX:rectilinearity</id></comment><comment><text>de.gempa.tb1.Pick/20250412125313.526816.124044</text><id>RefPickID</id></comment><comment><text>9.058973815079742</text><id>SNR</id></comment></pick><pick publicID="de.gempa.tb1.Pick/20250412125332.732868.124058"><time><value>2025-04-12T12:53:06.958424Z</value></time><waveformID networkCode="CX" stationCode="PB07" channelCode="HHZ"/><filterID>ITAPER(4)&gt;&gt;BW(4,4,20)</filterID><methodID>AIC</methodID><horizontalSlowness><value>23.430284813338407</value></horizontalSlowness><backazimuth><value>98.10238529519049</value></backazimuth><phaseHint>P</phaseHint><evaluationMode>automatic</evaluationMode><comment><text>263.5955084586056</text><id>DFX:rectilinearity</id></comment><comment><text>13.110717640133483</text><id>SNR</id></comment></pick><pick publicID="de.gempa.tb1.Pick/20250412125334.271823.124060"><time><value>2025-04-12T12:53:26.369999Z</value></time><waveformID networkCode="CX" stationCode="PATCX" channelCode="HHN"/><filterID>ITAPER(2)&gt;&gt;BW(3,3,20)</filterID><methodID>L2-AIC-GRID</methodID><horizontalSlowness><value>19.954345178914078</value></horizontalSlowness><backazimuth><value>295.5529089474938</value></backazimuth><phaseHint>S</phaseHint><evaluationMode>automatic</evaluationMode><comment><text>576.7306527091407</text><id>DFX:rectilinearity</id></comment><comment><text>de.gempa.tb1.Pick/20250412125317.27018.124048</text><id>RefPickID</id></comment><comment><text>5.019731891573123</text><id>SNR</id></comment></pick><pick publicID="de.gempa.tb1.Pick/20250412125334.736067.124061"><time><value>2025-04-12T12:53:26.818393Z</value></time><waveformID networkCode="CX" stationCode="PB03" channelCode="HHN"/><filterID>ITAPER(2)&gt;&gt;BW(3,3,20)</filterID><methodID>L2-AIC-GRID</methodID><horizontalSlowness><value>15.551265808654048</value></horizontalSlowness><backazimuth><value>255.95651829606646</value></backazimuth><phaseHint>S</phaseHint><evaluationMode>automatic</evaluationMode><comment><text>19.702393536151249</text><id>DFX:rectilinearity</id></comment><comment><text>de.gempa.tb1.Pick/20250412125314.522987.124046</text><id>RefPickID</id></comment><comment><text>8.933836242934067</text><id>SNR</id></comment></pick><pick publicID="de.gempa.tb1.Pick/20250412125338.036547.124062"><time><value>2025-04-12T12:53:24.308424Z</value></time><waveformID networkCode="CX" stationCode="PB07" channelCode="HHN"/><filterID>ITAPER(2)&gt;&gt;BW(3,3,20)</filterID><methodID>L2-AIC-GRID</methodID><horizontalSlowness><value>22.505460175345863</value></horizontalSlowness><backazimuth><value>288.917012595289</value></backazimuth><phaseHint>S</phaseHint><evaluationMode>automatic</evaluationMode><comment><text>299.241328486591</text><id>DFX:rectilinearity</id></comment><comment><text>de.gempa.tb1.Pick/20250412125332.732868.124058</text><id>RefPickID</id></comment><comment><text>5.092397597051177</text><id>SNR</id></comment></pick><pick publicID="de.gempa.tb1.Pick/20250412125347.626311.124065"><time><value>2025-04-12T12:53:39.73Z</value></time><waveformID networkCode="CX" stationCode="PSGCX" channelCode="HHN"/><filterID>ITAPER(2)&gt;&gt;BW(3,3,20)</filterID><methodID>L2-AIC-GRID</methodID><horizontalSlowness><value>18.399652031390545</value></horizontalSlowness><backazimuth><value>171.6656704750005</value></backazimuth><phaseHint>S</phaseHint><evaluationMode>automatic</evaluationMode><comment><text>29.68376292282595</text><id>DFX:rectilinearity</id></comment><comment><text>de.gempa.tb1.Pick/20250412125320.661502.124052</text><id>RefPickID</id></comment><comment><text>6.492277513393335</text><id>SNR</id></comment></pick><origin publicID="de.gempa.tb1.Origin/20250412125350.581031.82828"><time><value>2025-04-12T12:52:44.945788Z</value><uncertainty>0.877716064453125</uncertainty></time><latitude><value>-21.05417251586914</value><uncertainty>3.7554194927215576</uncertainty></latitude><longitude><value>-68.86111450195312</value><uncertainty>8.85676383972168</uncertainty></longitude><depth><value>100.39476776123047</value><uncertainty>10.285319328308105</uncertainty></depth><depthType>from location</depthType><methodID>LOCSAT</methodID><earthModelID>iasp91_scanloc</earthModelID><quality><associatedPhaseCount>13</associatedPhaseCount><usedPhaseCount>13</usedPhaseCount><associatedStationCount>7</associatedStationCount><usedStationCount>7</usedStationCount><depthPhaseCount>0</depthPhaseCount><standardError>0.2728459390270533</standardError><azimuthalGap>245.0596618652344</azimuthalGap><maximumDistance>1.8718358278274536</maximumDistance><minimumDistance>0.5850980281829834</minimumDistance><medianDistance>1.1663564443588257</medianDistance></quality><uncertainty><minHorizontalUncertainty>7.505670070648193</minHorizontalUncertainty><maxHorizontalUncertainty>19.210479736328125</maxHorizontalUncertainty><azimuthMaxHorizontalUncertainty>80.51653289794922</azimuthMaxHorizontalUncertainty><preferredDescription>horizontal uncertainty</preferredDescription></uncertainty><evaluationMode>automatic</evaluationMode><evaluationStatus>confirmed</evaluationStatus><comment><text>0.10</text><id>mismatchScore</id></comment><comment><text>mismatchScore</text><id>scevalMethod</id></comment><arrival><pickID>de.gempa.tb1.Pick/20250412125307.573852.124042</pickID><phase>P</phase><azimuth>270.9544372558594</azimuth><distance>0.5850980281829834</distance><timeResidual>0.026325225830078125</timeResidual><timeUsed>true</timeUsed><horizontalSlownessUsed>false</horizontalSlownessUsed><backazimuthUsed>false</backazimuthUsed><weight>1</weight></arrival><arrival><pickID>de.gempa.tb1.Pick/20250412125313.526816.124044</pickID><phase>P</phase><azimuth>254.512939453125</azimuth><distance>1.0012933015823364</distance><timeResidual>0.08587837219238281</timeResidual><timeUsed>true</timeUsed><horizontalSlownessUsed>false</horizontalSlownessUsed><backazimuthUsed>false</backazimuthUsed><weight>1</weight></arrival><arrival><pickID>de.gempa.tb1.Pick/20250412125314.522987.124046</pickID><phase>P</phase><azimuth>219.84303283691406</azimuth><distance>1.291683554649353</distance><timeResidual>-0.05071830749511719</timeResidual><timeUsed>true</timeUsed><horizontalSlownessUsed>false</horizontalSlownessUsed><backazimuthUsed>false</backazimuthUsed><weight>1</weight></arrival><arrival><pickID>de.gempa.tb1.Pick/20250412125317.27018.124048</pickID><phase>P</phase><azimuth>280.65948486328125</azimuth><distance>1.2296359539031982</distance><timeResidual>0.013113021850585938</timeResidual><timeUsed>true</timeUsed><horizontalSlownessUsed>false</horizontalSlownessUsed><backazimuthUsed>false</backazimuthUsed><weight>1</weight></arrival><arrival><pickID>de.gempa.tb1.Pick/20250412125319.490362.124050</pickID><phase>P</phase><azimuth>205.591064453125</azimuth><distance>0.8193567395210266</distance><timeResidual>0.5636768341064453</timeResidual><timeUsed>true</timeUsed><horizontalSlownessUsed>false</horizontalSlownessUsed><backazimuthUsed>false</backazimuthUsed><weight>1</weight></arrival><arrival><pickID>de.gempa.tb1.Pick/20250412125320.661502.124052</pickID><phase>P</phase><azimuth>320.5314025878906</azimuth><distance>1.8718358278274536</distance><timeResidual>-0.13228988647460938</timeResidual><timeUsed>true</timeUsed><horizontalSlownessUsed>false</horizontalSlownessUsed><backazimuthUsed>false</backazimuthUsed><weight>1</weight></arrival><arrival><pickID>de.gempa.tb1.Pick/20250412125323.563231.124054</pickID><phase>S</phase><azimuth>270.9544372558594</azimuth><distance>0.5850980281829834</distance><timeResidual>-0.23581886291503906</timeResidual><timeUsed>true</timeUsed><horizontalSlownessUsed>false</horizontalSlownessUsed><backazimuthUsed>false</backazimuthUsed><weight>1</weight></arrival><arrival><pickID>de.gempa.tb1.Pick/20250412125332.647784.124057</pickID><phase>S</phase><azimuth>254.512939453125</azimuth><distance>1.0012933015823364</distance><timeResidual>0.05288887023925781</timeResidual><timeUsed>true</timeUsed><horizontalSlownessUsed>false</horizontalSlownessUsed><backazimuthUsed>false</backazimuthUsed><weight>1</weight></arrival><arrival><pickID>de.gempa.tb1.Pick/20250412125332.732868.124058</pickID><phase>P</phase><azimuth>234.80401611328125</azimuth><distance>1.1663564443588257</distance><timeResidual>-0.2833213806152344</timeResidual><timeUsed>true</timeUsed><horizontalSlownessUsed>false</horizontalSlownessUsed><backazimuthUsed>false</backazimuthUsed><weight>1</weight></arrival><arrival><pickID>de.gempa.tb1.Pick/20250412125334.271823.124060</pickID><phase>S</phase><azimuth>280.65948486328125</azimuth><distance>1.2296359539031982</distance><timeResidual>0.5889911651611328</timeResidual><timeUsed>true</timeUsed><horizontalSlownessUsed>false</horizontalSlownessUsed><backazimuthUsed>false</backazimuthUsed><weight>1</weight></arrival><arrival><pickID>de.gempa.tb1.Pick/20250412125334.736067.124061</pickID><phase>S</phase><azimuth>219.84303283691406</azimuth><distance>1.291683554649353</distance><timeResidual>-0.2551708221435547</timeResidual><timeUsed>true</timeUsed><horizontalSlownessUsed>false</horizontalSlownessUsed><backazimuthUsed>false</backazimuthUsed><weight>1</weight></arrival><arrival><pickID>de.gempa.tb1.Pick/20250412125338.036547.124062</pickID><phase>S</phase><azimuth>234.80401611328125</azimuth><distance>1.1663564443588257</distance><timeResidual>-0.16037750244140625</timeResidual><timeUsed>true</timeUsed><horizontalSlownessUsed>false</horizontalSlownessUsed><backazimuthUsed>false</backazimuthUsed><weight>1</weight></arrival><arrival><pickID>de.gempa.tb1.Pick/20250412125347.626311.124065</pickID><phase>S</phase><azimuth>320.5314025878906</azimuth><distance>1.8718358278274536</distance><timeResidual>-0.2128772735595703</timeResidual><timeUsed>true</timeUsed><horizontalSlownessUsed>false</horizontalSlownessUsed><backazimuthUsed>false</backazimuthUsed><weight>1</weight></arrival><magnitude publicID="de.gempa.tb1.Magnitude/20250412125400.939018.227572"><magnitude><value>2.0523038199868133</value></magnitude><type>M</type><methodID>weighted average</methodID><stationCount>2</stationCount></magnitude></origin><event publicID="gempa2025hfnz"><preferredOriginID>de.gempa.tb1.Origin/20250412125350.581031.82828</preferredOriginID><preferredMagnitudeID>de.gempa.tb1.Magnitude/20250412125400.939018.227572</preferredMagnitudeID><description><text>Chile-Bolivia Border Region</text><type>region name</type></description><originReference>de.gempa.tb1.Origin/20250412125350.581031.82828</originReference></event></EventParameters></seiscomp>