<?xml version="1.0" encoding="UTF-8"?>
<seiscomp xmlns="http://geofon.gfz-potsdam.de/ns/seiscomp3-schema/0.13" version="0.13"><EventParameters><pick publicID="de.gempa.tb1.Pick/20250413062602.570066.129425"><time><value>2025-04-13T06:25:55.598393Z</value></time><waveformID networkCode="CX" stationCode="PB03" channelCode="HHZ"/><filterID>ITAPER(4)&gt;&gt;BW(4,4,20)</filterID><methodID>AIC</methodID><horizontalSlowness><value>18.238973925837854</value></horizontalSlowness><backazimuth><value>86.93022648757807</value></backazimuth><phaseHint>P</phaseHint><evaluationMode>automatic</evaluationMode><comment><text>13.0609730800014</text><id>DFX:rectilinearity</id></comment><comment><text>11.44488846223772</text><id>SNR</id></comment></pick><pick publicID="de.gempa.tb1.Pick/20250413062609.509681.129427"><time><value>2025-04-13T06:26:04.608393Z</value></time><waveformID networkCode="CX" stationCode="PB01" channelCode="HHZ"/><filterID>ITAPER(4)&gt;&gt;BW(4,4,20)</filterID><methodID>AIC</methodID><horizontalSlowness><value>2.7690319353682797</value></horizontalSlowness><backazimuth><value>260.92577294322155</value></backazimuth><phaseHint>P</phaseHint><evaluationMode>automatic</evaluationMode><comment><text>11.635217541024305</text><id>DFX:rectilinearity</id></comment><comment><text>29.6137145098154</text><id>SNR</id></comment></pick><pick publicID="de.gempa.tb1.Pick/20250413062609.902328.129429"><time><value>2025-04-13T06:25:52.61Z</value></time><waveformID networkCode="CX" stationCode="PB09" channelCode="HHZ"/><filterID>ITAPER(4)&gt;&gt;BW(4,4,20)</filterID><methodID>AIC</methodID><horizontalSlowness><value>11.636401416455906</value></horizontalSlowness><backazimuth><value>283.17160982032294</value></backazimuth><phaseHint>P</phaseHint><evaluationMode>automatic</evaluationMode><comment><text>23.05626096872397</text><id>DFX:rectilinearity</id></comment><comment><text>15.386318275269497</text><id>SNR</id></comment></pick><pick publicID="de.gempa.tb1.Pick/20250413062623.778029.129435"><time><value>2025-04-13T06:26:17.308393Z</value></time><waveformID networkCode="CX" stationCode="PB01" channelCode="HHN"/><filterID>ITAPER(2)&gt;&gt;BW(3,3,20)</filterID><methodID>L2-AIC-GRID</methodID><horizontalSlowness><value>21.385509173320795</value></horizontalSlowness><backazimuth><value>257.9533642467405</value></backazimuth><phaseHint>S</phaseHint><evaluationMode>automatic</evaluationMode><comment><text>96.02389080973369</text><id>DFX:rectilinearity</id></comment><comment><text>de.gempa.tb1.Pick/20250413062609.509681.129427</text><id>RefPickID</id></comment><comment><text>9.212286811125615</text><id>SNR</id></comment></pick><pick publicID="de.gempa.tb1.Pick/20250413062638.51284.129442"><time><value>2025-04-13T06:25:57.758368Z</value></time><waveformID networkCode="CX" stationCode="PB07" channelCode="HHZ"/><filterID>ITAPER(4)&gt;&gt;BW(4,4,20)</filterID><methodID>AIC</methodID><horizontalSlowness><value>23.386336562821253</value></horizontalSlowness><backazimuth><value>47.69840412195418</value></backazimuth><phaseHint>P</phaseHint><evaluationMode>automatic</evaluationMode><comment><text>342.90686712287527</text><id>DFX:rectilinearity</id></comment><comment><text>23.60940456529042</text><id>SNR</id></comment></pick><pick publicID="de.gempa.tb1.Pick/20250413062641.866318.129446"><time><value>2025-04-13T06:26:11.838368Z</value></time><waveformID networkCode="CX" stationCode="PB07" channelCode="HHN"/><filterID>ITAPER(2)&gt;&gt;BW(3,3,20)</filterID><methodID>L2-AIC-GRID</methodID><horizontalSlowness><value>23.47808599980956</value></horizontalSlowness><backazimuth><value>278.41652084318275</value></backazimuth><phaseHint>S</phaseHint><evaluationMode>automatic</evaluationMode><comment><text>570.0962716715794</text><id>DFX:rectilinearity</id></comment><comment><text>de.gempa.tb1.Pick/20250413062638.51284.129442</text><id>RefPickID</id></comment><comment><text>5.283169072463461</text><id>SNR</id></comment></pick><origin publicID="de.gempa.tb1.Origin/20250413062641.870924.103024"><time><value>2025-04-13T06:25:43.283877Z</value><uncertainty>1.6189841032028198</uncertainty></time><latitude><value>-22.14664649963379</value><uncertainty>7.969250679016113</uncertainty></latitude><longitude><value>-69.07079315185547</value><uncertainty>12.091203689575195</uncertainty></longitude><depth><value>39.39894485473633</value><uncertainty>15.63429069519043</uncertainty></depth><depthType>from location</depthType><methodID>LOCSAT</methodID><earthModelID>iasp91_scanloc</earthModelID><quality><associatedPhaseCount>6</associatedPhaseCount><usedPhaseCount>6</usedPhaseCount><associatedStationCount>4</associatedStationCount><usedStationCount>4</usedStationCount><depthPhaseCount>0</depthPhaseCount><standardError>0.9783357413176986</standardError><azimuthalGap>298.1745300292969</azimuthalGap><maximumDistance>1.1644525527954102</maximumDistance><minimumDistance>0.38306108117103577</minimumDistance><medianDistance>0.8647553324699402</medianDistance></quality><uncertainty><minHorizontalUncertainty>13.975825309753418</minHorizontalUncertainty><maxHorizontalUncertainty>27.74363136291504</maxHorizontalUncertainty><azimuthMaxHorizontalUncertainty>114.2554473876953</azimuthMaxHorizontalUncertainty><preferredDescription>horizontal uncertainty</preferredDescription></uncertainty><evaluationMode>automatic</evaluationMode><evaluationStatus>confirmed</evaluationStatus><comment><text>0.13</text><id>mismatchScore</id></comment><comment><text>mismatchScore</text><id>scevalMethod</id></comment><arrival><pickID>de.gempa.tb1.Pick/20250413062602.570066.129425</pickID><phase>P</phase><azimuth>278.6496887207031</azimuth><distance>0.6402811408042908</distance><timeResidual>-0.31820106506347656</timeResidual><timeUsed>true</timeUsed><horizontalSlownessUsed>false</horizontalSlownessUsed><backazimuthUsed>false</backazimuthUsed><weight>1</weight></arrival><arrival><pickID>de.gempa.tb1.Pick/20250413062609.509681.129427</pickID><phase>P</phase><azimuth>340.47515869140625</azimuth><distance>1.1644525527954102</distance><timeResidual>1.505462646484375</timeResidual><timeUsed>true</timeUsed><horizontalSlownessUsed>false</horizontalSlownessUsed><backazimuthUsed>false</backazimuthUsed><weight>1</weight></arrival><arrival><pickID>de.gempa.tb1.Pick/20250413062609.902328.129429</pickID><phase>P</phase><azimuth>335.4691162109375</azimuth><distance>0.38306108117103577</distance><timeResidual>0.12321090698242188</timeResidual><timeUsed>true</timeUsed><horizontalSlownessUsed>false</horizontalSlownessUsed><backazimuthUsed>false</backazimuthUsed><weight>1</weight></arrival><arrival><pickID>de.gempa.tb1.Pick/20250413062623.778029.129435</pickID><phase>S</phase><azimuth>340.47515869140625</azimuth><distance>1.1644525527954102</distance><timeResidual>-0.9851655960083008</timeResidual><timeUsed>true</timeUsed><horizontalSlownessUsed>false</horizontalSlownessUsed><backazimuthUsed>false</backazimuthUsed><weight>1</weight></arrival><arrival><pickID>de.gempa.tb1.Pick/20250413062638.51284.129442</pickID><phase>P</phase><azimuth>298.7497253417969</azimuth><distance>0.8647553324699402</distance><timeResidual>-1.2435531616210938</timeResidual><timeUsed>true</timeUsed><horizontalSlownessUsed>false</horizontalSlownessUsed><backazimuthUsed>false</backazimuthUsed><weight>1</weight></arrival><arrival><pickID>de.gempa.tb1.Pick/20250413062641.866318.129446</pickID><phase>S</phase><azimuth>298.7497253417969</azimuth><distance>0.8647553324699402</distance><timeResidual>0.9181604385375977</timeResidual><timeUsed>true</timeUsed><horizontalSlownessUsed>false</horizontalSlownessUsed><backazimuthUsed>false</backazimuthUsed><weight>1</weight></arrival><magnitude publicID="de.gempa.tb1.Magnitude/20250413062642.718428.323358"><magnitude><value>2.453101639777504</value></magnitude><type>M</type><methodID>weighted average</methodID><stationCount>4</stationCount></magnitude></origin><event publicID="gempa2025hgxc"><preferredOriginID>de.gempa.tb1.Origin/20250413062641.870924.103024</preferredOriginID><preferredMagnitudeID>de.gempa.tb1.Magnitude/20250413062642.718428.323358</preferredMagnitudeID><description><text>Northern Chile</text><type>region name</type></description><originReference>de.gempa.tb1.Origin/20250413062641.870924.103024</originReference></event></EventParameters></seiscomp>