<?xml version="1.0" encoding="UTF-8"?>
<seiscomp xmlns="http://geofon.gfz-potsdam.de/ns/seiscomp3-schema/0.13" version="0.13"><EventParameters><pick publicID="de.gempa.tb1.Pick/20250414221907.503503.283038"><time><value>2025-04-14T22:18:59.9475Z</value></time><waveformID networkCode="SX" stationCode="WERN" channelCode="HHZ"/><filterID>ITAPER(2)&gt;&gt;BW(3,3,20)</filterID><methodID>AIC</methodID><horizontalSlowness><value>23.09897752988784</value></horizontalSlowness><backazimuth><value>237.5989852966413</value></backazimuth><phaseHint>P</phaseHint><evaluationMode>automatic</evaluationMode><comment><text>13.258101833296113</text><id>DFX:rectilinearity</id></comment></pick><pick publicID="de.gempa.tb1.Pick/20250414221908.851182.283040"><time><value>2025-04-14T22:19:01.19Z</value></time><waveformID networkCode="SX" stationCode="TANN" channelCode="HHZ"/><filterID>ITAPER(2)&gt;&gt;BW(3,3,20)</filterID><methodID>AIC</methodID><horizontalSlowness><value>21.7423349126466</value></horizontalSlowness><backazimuth><value>121.40249960100148</value></backazimuth><phaseHint>P</phaseHint><evaluationMode>automatic</evaluationMode><comment><text>2.692299784195034</text><id>DFX:rectilinearity</id></comment></pick><pick publicID="de.gempa.tb1.Pick/20250414221910.001716.283042"><time><value>2025-04-14T22:19:02.2Z</value></time><waveformID networkCode="SX" stationCode="TRIB" channelCode="HHZ"/><filterID>ITAPER(2)&gt;&gt;BW(3,3,20)</filterID><methodID>AIC</methodID><horizontalSlowness><value>0.8735966789147406</value></horizontalSlowness><backazimuth><value>25.29993524267391</value></backazimuth><phaseHint>P</phaseHint><evaluationMode>automatic</evaluationMode><comment><text>3.473116819804537</text><id>DFX:rectilinearity</id></comment></pick><pick publicID="de.gempa.tb1.Pick/20250414221911.022951.283046"><time><value>2025-04-14T22:19:01.82Z</value></time><waveformID networkCode="SX" stationCode="ROHR" channelCode="HHZ"/><filterID>ITAPER(2)&gt;&gt;BW(3,3,20)</filterID><methodID>AIC</methodID><horizontalSlowness><value>2.9321296044594534</value></horizontalSlowness><backazimuth><value>349.6855050316435</value></backazimuth><phaseHint>P</phaseHint><evaluationMode>automatic</evaluationMode><comment><text>11.969304190872972</text><id>DFX:rectilinearity</id></comment></pick><pick publicID="de.gempa.tb1.Pick/20250414221913.528829.283048"><time><value>2025-04-14T22:19:02.13Z</value></time><waveformID networkCode="SX" stationCode="WERD" channelCode="HHZ"/><filterID>ITAPER(2)&gt;&gt;BW(3,3,20)</filterID><methodID>AIC</methodID><horizontalSlowness><value>16.37725810203981</value></horizontalSlowness><backazimuth><value>183.2079459252707</value></backazimuth><phaseHint>P</phaseHint><evaluationMode>automatic</evaluationMode><comment><text>6.229223736929426</text><id>DFX:rectilinearity</id></comment></pick><pick publicID="de.gempa.tb1.Pick/20250414221913.849211.283052"><time><value>2025-04-14T22:19:03.58Z</value></time><waveformID networkCode="SX" stationCode="TANN" channelCode="HHN"/><filterID>ITAPER(3)&gt;&gt;BW(4,3,10)</filterID><methodID>L2-AIC-GRID</methodID><horizontalSlowness><value>21.63859237085613</value></horizontalSlowness><backazimuth><value>117.76074160274068</value></backazimuth><phaseHint>S</phaseHint><evaluationMode>automatic</evaluationMode><comment><text>2.5797884923591505</text><id>DFX:rectilinearity</id></comment><comment><text>de.gempa.tb1.Pick/20250414221908.851182.283040</text><id>RefPickID</id></comment></pick><pick publicID="de.gempa.tb1.Pick/20250414221918.037931.283055"><time><value>2025-04-14T22:19:05.24Z</value></time><waveformID networkCode="SX" stationCode="TRIB" channelCode="HHN"/><filterID>ITAPER(3)&gt;&gt;BW(4,3,10)</filterID><methodID>L2-AIC-GRID</methodID><horizontalSlowness><value>14.539225302659393</value></horizontalSlowness><backazimuth><value>172.99951949200783</value></backazimuth><phaseHint>S</phaseHint><evaluationMode>automatic</evaluationMode><comment><text>2.7059816852491596</text><id>DFX:rectilinearity</id></comment><comment><text>de.gempa.tb1.Pick/20250414221910.001716.283042</text><id>RefPickID</id></comment></pick><origin publicID="de.gempa.tb1.Origin/20250414221919.069531.246142"><time><value>2025-04-14T22:18:58.452865Z</value><uncertainty>1.508389711380005</uncertainty></time><latitude><value>50.32674026489258</value><uncertainty>3.1918461322784424</uncertainty></latitude><longitude><value>12.381502151489258</value><uncertainty>3.146613359451294</uncertainty></longitude><depth><value>6.301357746124268</value><uncertainty>8.28997802734375</uncertainty></depth><depthType>from location</depthType><methodID>LOCSAT</methodID><earthModelID>iasp91</earthModelID><quality><associatedPhaseCount>7</associatedPhaseCount><usedPhaseCount>7</usedPhaseCount><associatedStationCount>5</associatedStationCount><usedStationCount>5</usedStationCount><depthPhaseCount>0</depthPhaseCount><standardError>0.2482318854651645</standardError><azimuthalGap>155.11366653442383</azimuthalGap><maximumDistance>0.15869975090026855</maximumDistance><minimumDistance>0.039540860801935196</minimumDistance><medianDistance>0.10198365151882172</medianDistance></quality><uncertainty><minHorizontalUncertainty>5.315783500671387</minHorizontalUncertainty><maxHorizontalUncertainty>8.008158683776855</maxHorizontalUncertainty><azimuthMaxHorizontalUncertainty>136.05320739746094</azimuthMaxHorizontalUncertainty><preferredDescription>horizontal uncertainty</preferredDescription></uncertainty><evaluationMode>automatic</evaluationMode><evaluationStatus>confirmed</evaluationStatus><comment><text>0.00</text><id>mismatchScore</id></comment><comment><text>mismatchScore</text><id>scevalMethod</id></comment><arrival><pickID>de.gempa.tb1.Pick/20250414221907.503503.283038</pickID><phase>P</phase><azimuth>185.02821350097656</azimuth><distance>0.039540860801935196</distance><timeResidual>-0.30454134941101074</timeResidual><timeUsed>true</timeUsed><horizontalSlownessUsed>false</horizontalSlownessUsed><backazimuthUsed>false</backazimuthUsed><weight>1</weight></arrival><arrival><pickID>de.gempa.tb1.Pick/20250414221908.851182.283040</pickID><phase>P</phase><azimuth>29.914546966552734</azimuth><distance>0.10198365151882172</distance><timeResidual>-0.18949830532073975</timeResidual><timeUsed>true</timeUsed><horizontalSlownessUsed>false</horizontalSlownessUsed><backazimuthUsed>false</backazimuthUsed><weight>1</weight></arrival><arrival><pickID>de.gempa.tb1.Pick/20250414221910.001716.283042</pickID><phase>P</phase><azimuth>279.2641296386719</azimuth><distance>0.15869975090026855</distance><timeResidual>-0.20396912097930908</timeResidual><timeUsed>true</timeUsed><horizontalSlownessUsed>false</horizontalSlownessUsed><backazimuthUsed>false</backazimuthUsed><weight>1</weight></arrival><arrival><pickID>de.gempa.tb1.Pick/20250414221911.022951.283046</pickID><phase>P</phase><azimuth>204.0465087890625</azimuth><distance>0.10165560990571976</distance><timeResidual>0.4460068941116333</timeResidual><timeUsed>true</timeUsed><horizontalSlownessUsed>false</horizontalSlownessUsed><backazimuthUsed>false</backazimuthUsed><weight>1</weight></arrival><arrival><pickID>de.gempa.tb1.Pick/20250414221913.528829.283048</pickID><phase>P</phase><azimuth>338.5833740234375</azimuth><distance>0.13044215738773346</distance><timeResidual>0.23660171031951904</timeResidual><timeUsed>true</timeUsed><horizontalSlownessUsed>false</horizontalSlownessUsed><backazimuthUsed>false</backazimuthUsed><weight>1</weight></arrival><arrival><pickID>de.gempa.tb1.Pick/20250414221913.849211.283052</pickID><phase>S</phase><azimuth>29.914546966552734</azimuth><distance>0.10198365151882172</distance><timeResidual>0.06270992755889893</timeResidual><timeUsed>true</timeUsed><horizontalSlownessUsed>false</horizontalSlownessUsed><backazimuthUsed>false</backazimuthUsed><weight>1</weight></arrival><arrival><pickID>de.gempa.tb1.Pick/20250414221918.037931.283055</pickID><phase>S</phase><azimuth>279.2641296386719</azimuth><distance>0.15869975090026855</distance><timeResidual>-0.04732859134674072</timeResidual><timeUsed>true</timeUsed><horizontalSlownessUsed>false</horizontalSlownessUsed><backazimuthUsed>false</backazimuthUsed><weight>1</weight></arrival><magnitude publicID="de.gempa.tb1.Magnitude/20250414221941.484975.546289"><magnitude><value>0.28763625803209686</value></magnitude><type>M</type><methodID>weighted average</methodID><stationCount>5</stationCount></magnitude></origin><event publicID="gempa2025hjyx"><preferredOriginID>de.gempa.tb1.Origin/20250414221919.069531.246142</preferredOriginID><preferredMagnitudeID>de.gempa.tb1.Magnitude/20250414221941.484975.546289</preferredMagnitudeID><description><text>Germany</text><type>region name</type></description><originReference>de.gempa.tb1.Origin/20250414221919.069531.246142</originReference></event></EventParameters></seiscomp>