<?xml version="1.0" encoding="UTF-8"?>
<seiscomp xmlns="http://geofon.gfz-potsdam.de/ns/seiscomp3-schema/0.13" version="0.13"><EventParameters><pick publicID="de.gempa.tb1.Pick/20250412052927.541903.122188"><time><value>2025-04-12T05:29:22.508393Z</value></time><waveformID networkCode="CX" stationCode="PB03" channelCode="HHZ"/><filterID>ITAPER(4)&gt;&gt;BW(4,4,20)</filterID><methodID>AIC</methodID><horizontalSlowness><value>9.715231322265076</value></horizontalSlowness><backazimuth><value>219.6129878925321</value></backazimuth><phaseHint>P</phaseHint><evaluationMode>automatic</evaluationMode><comment><text>8.326527361524505</text><id>DFX:rectilinearity</id></comment><comment><text>21.04919576163147</text><id>SNR</id></comment></pick><pick publicID="de.gempa.tb1.Pick/20250412052927.606346.122190"><time><value>2025-04-12T05:29:21.328393Z</value></time><waveformID networkCode="CX" stationCode="PB06" channelCode="HHZ"/><filterID>ITAPER(4)&gt;&gt;BW(4,4,20)</filterID><methodID>AIC</methodID><horizontalSlowness><value>5.80313330724273</value></horizontalSlowness><backazimuth><value>173.09729587235518</value></backazimuth><phaseHint>P</phaseHint><evaluationMode>automatic</evaluationMode><comment><text>72.40620650946705</text><id>DFX:rectilinearity</id></comment><comment><text>10.630984471865677</text><id>SNR</id></comment></pick><pick publicID="de.gempa.tb1.Pick/20250412052938.550193.122192"><time><value>2025-04-12T05:29:31.2Z</value></time><waveformID networkCode="CX" stationCode="PB09" channelCode="HHZ"/><filterID>ITAPER(4)&gt;&gt;BW(4,4,20)</filterID><methodID>AIC</methodID><horizontalSlowness><value>19.084259062383964</value></horizontalSlowness><backazimuth><value>81.82554177315897</value></backazimuth><phaseHint>P</phaseHint><evaluationMode>automatic</evaluationMode><comment><text>4.742542799558866</text><id>DFX:rectilinearity</id></comment><comment><text>10.703105924721577</text><id>SNR</id></comment></pick><pick publicID="de.gempa.tb1.Pick/20250412052939.542154.122194"><time><value>2025-04-12T05:29:31.868393Z</value></time><waveformID networkCode="CX" stationCode="PB06" channelCode="HHN"/><filterID>ITAPER(2)&gt;&gt;BW(3,3,20)</filterID><methodID>L2-AIC-GRID</methodID><horizontalSlowness><value>14.856743821333275</value></horizontalSlowness><backazimuth><value>273.9927162085359</value></backazimuth><phaseHint>S</phaseHint><evaluationMode>automatic</evaluationMode><comment><text>81.08578666374069</text><id>DFX:rectilinearity</id></comment><comment><text>de.gempa.tb1.Pick/20250412052927.606346.122190</text><id>RefPickID</id></comment><comment><text>6.818935882004332</text><id>SNR</id></comment></pick><pick publicID="de.gempa.tb1.Pick/20250412052939.57413.122195"><time><value>2025-04-12T05:29:33.878393Z</value></time><waveformID networkCode="CX" stationCode="PB03" channelCode="HHN"/><filterID>ITAPER(2)&gt;&gt;BW(3,3,20)</filterID><methodID>L2-AIC-GRID</methodID><horizontalSlowness><value>18.377799738099363</value></horizontalSlowness><backazimuth><value>299.54276588694313</value></backazimuth><phaseHint>S</phaseHint><evaluationMode>automatic</evaluationMode><comment><text>118.05615572840044</text><id>DFX:rectilinearity</id></comment><comment><text>de.gempa.tb1.Pick/20250412052927.541903.122188</text><id>RefPickID</id></comment><comment><text>11.157196588198255</text><id>SNR</id></comment></pick><pick publicID="de.gempa.tb1.Pick/20250412052941.53014.122196"><time><value>2025-04-12T05:29:31.838393Z</value></time><waveformID networkCode="CX" stationCode="PB02" channelCode="HHZ"/><filterID>ITAPER(4)&gt;&gt;BW(4,4,20)</filterID><methodID>AIC</methodID><horizontalSlowness><value>20.265644944972578</value></horizontalSlowness><backazimuth><value>47.65929424534536</value></backazimuth><phaseHint>P</phaseHint><evaluationMode>automatic</evaluationMode><comment><text>31.72386308505903</text><id>DFX:rectilinearity</id></comment><comment><text>7.476413156234949</text><id>SNR</id></comment></pick><pick publicID="de.gempa.tb1.Pick/20250412052944.36769.122200"><time><value>2025-04-12T05:29:25.498394Z</value></time><waveformID networkCode="CX" stationCode="PB07" channelCode="HHZ"/><filterID>ITAPER(4)&gt;&gt;BW(4,4,20)</filterID><methodID>AIC</methodID><horizontalSlowness><value>22.58241535862385</value></horizontalSlowness><backazimuth><value>258.86882613839447</value></backazimuth><phaseHint>P</phaseHint><evaluationMode>automatic</evaluationMode><comment><text>415.11269292484843</text><id>DFX:rectilinearity</id></comment><comment><text>14.30763131240846</text><id>SNR</id></comment></pick><pick publicID="de.gempa.tb1.Pick/20250412052951.101678.122202"><time><value>2025-04-12T05:29:38.958394Z</value></time><waveformID networkCode="CX" stationCode="PB07" channelCode="HHN"/><filterID>ITAPER(2)&gt;&gt;BW(3,3,20)</filterID><methodID>L2-AIC-GRID</methodID><horizontalSlowness><value>21.669333473128223</value></horizontalSlowness><backazimuth><value>344.1764038773577</value></backazimuth><phaseHint>S</phaseHint><evaluationMode>automatic</evaluationMode><comment><text>739.259986003293</text><id>DFX:rectilinearity</id></comment><comment><text>de.gempa.tb1.Pick/20250412052944.36769.122200</text><id>RefPickID</id></comment><comment><text>6.383164298621718</text><id>SNR</id></comment></pick><origin publicID="de.gempa.tb1.Origin/20250412052951.117449.75405"><time><value>2025-04-12T05:29:06.645331Z</value><uncertainty>1.5129776000976562</uncertainty></time><latitude><value>-22.600427627563477</value><uncertainty>4.329836368560791</uncertainty></latitude><longitude><value>-70.38927459716797</value><uncertainty>7.42608642578125</uncertainty></longitude><depth><value>9.439229965209961</value><uncertainty>8.347304344177246</uncertainty></depth><depthType>from location</depthType><methodID>LOCSAT</methodID><earthModelID>iasp91_scanloc</earthModelID><quality><associatedPhaseCount>8</associatedPhaseCount><usedPhaseCount>8</usedPhaseCount><associatedStationCount>5</associatedStationCount><usedStationCount>5</usedStationCount><depthPhaseCount>0</depthPhaseCount><standardError>0.2744545594692906</standardError><azimuthalGap>281.7903347015381</azimuthalGap><maximumDistance>1.354253888130188</maximumDistance><minimumDistance>0.7623335123062134</minimumDistance><medianDistance>0.9867255091667175</medianDistance></quality><uncertainty><minHorizontalUncertainty>7.383645057678223</minHorizontalUncertainty><maxHorizontalUncertainty>16.890472412109375</maxHorizontalUncertainty><azimuthMaxHorizontalUncertainty>68.2480697631836</azimuthMaxHorizontalUncertainty><preferredDescription>horizontal uncertainty</preferredDescription></uncertainty><evaluationMode>automatic</evaluationMode><evaluationStatus>confirmed</evaluationStatus><comment><text>0.36</text><id>mismatchScore</id></comment><comment><text>mismatchScore</text><id>scevalMethod</id></comment><arrival><pickID>de.gempa.tb1.Pick/20250412052927.541903.122188</pickID><phase>P</phase><azimuth>47.11991500854492</azimuth><distance>0.8054453134536743</distance><timeResidual>0.3362703323364258</timeResidual><timeUsed>true</timeUsed><horizontalSlownessUsed>false</horizontalSlownessUsed><backazimuthUsed>false</backazimuthUsed><weight>1</weight></arrival><arrival><pickID>de.gempa.tb1.Pick/20250412052927.606346.122190</pickID><phase>P</phase><azimuth>98.06358337402344</azimuth><distance>0.7623335123062134</distance><timeResidual>-0.02080821990966797</timeResidual><timeUsed>true</timeUsed><horizontalSlownessUsed>false</horizontalSlownessUsed><backazimuthUsed>false</backazimuthUsed><weight>1</weight></arrival><arrival><pickID>de.gempa.tb1.Pick/20250412052938.550193.122192</pickID><phase>P</phase><azimuth>53.25392532348633</azimuth><distance>1.3307647705078125</distance><timeResidual>-0.14975452423095703</timeResidual><timeUsed>true</timeUsed><horizontalSlownessUsed>false</horizontalSlownessUsed><backazimuthUsed>false</backazimuthUsed><weight>1</weight></arrival><arrival><pickID>de.gempa.tb1.Pick/20250412052939.542154.122194</pickID><phase>S</phase><azimuth>98.06358337402344</azimuth><distance>0.7623335123062134</distance><timeResidual>-0.1629486083984375</timeResidual><timeUsed>true</timeUsed><horizontalSlownessUsed>false</horizontalSlownessUsed><backazimuthUsed>false</backazimuthUsed><weight>1</weight></arrival><arrival><pickID>de.gempa.tb1.Pick/20250412052939.57413.122195</pickID><phase>S</phase><azimuth>47.11991500854492</azimuth><distance>0.8054453134536743</distance><timeResidual>0.42727088928222656</timeResidual><timeUsed>true</timeUsed><horizontalSlownessUsed>false</horizontalSlownessUsed><backazimuthUsed>false</backazimuthUsed><weight>1</weight></arrival><arrival><pickID>de.gempa.tb1.Pick/20250412052941.53014.122196</pickID><phase>P</phase><azimuth>19.853918075561523</azimuth><distance>1.354253888130188</distance><timeResidual>0.16446971893310547</timeResidual><timeUsed>true</timeUsed><horizontalSlownessUsed>false</horizontalSlownessUsed><backazimuthUsed>false</backazimuthUsed><weight>1</weight></arrival><arrival><pickID>de.gempa.tb1.Pick/20250412052944.36769.122200</pickID><phase>P</phase><azimuth>28.30051040649414</azimuth><distance>0.9867255091667175</distance><timeResidual>-0.1333465576171875</timeResidual><timeUsed>true</timeUsed><horizontalSlownessUsed>false</horizontalSlownessUsed><backazimuthUsed>false</backazimuthUsed><weight>1</weight></arrival><arrival><pickID>de.gempa.tb1.Pick/20250412052951.101678.122202</pickID><phase>S</phase><azimuth>28.30051040649414</azimuth><distance>0.9867255091667175</distance><timeResidual>-0.461216926574707</timeResidual><timeUsed>true</timeUsed><horizontalSlownessUsed>false</horizontalSlownessUsed><backazimuthUsed>false</backazimuthUsed><weight>1</weight></arrival><magnitude publicID="de.gempa.tb1.Magnitude/20250412052951.122104.182384"><magnitude><value>2.2362690365000248</value></magnitude><type>M</type><methodID>weighted average</methodID><stationCount>4</stationCount></magnitude></origin><event publicID="gempa2025heze"><preferredOriginID>de.gempa.tb1.Origin/20250412052951.117449.75405</preferredOriginID><preferredMagnitudeID>de.gempa.tb1.Magnitude/20250412052951.122104.182384</preferredMagnitudeID><description><text>Near Coast of Northern Chile</text><type>region name</type></description><originReference>de.gempa.tb1.Origin/20250412052951.117449.75405</originReference></event></EventParameters></seiscomp>