<?xml version="1.0" encoding="UTF-8"?>
<seiscomp xmlns="http://geofon.gfz-potsdam.de/ns/seiscomp3-schema/0.13" version="0.13"><EventParameters><pick publicID="de.gempa.tb1.Pick/20250414150459.19495.231579"><time><value>2025-04-14T15:04:55.405Z</value></time><waveformID networkCode="CH" stationCode="WIMIS" channelCode="HHZ"/><filterID>ITAPER(4)&gt;&gt;BW(4,4,20)</filterID><methodID>AIC</methodID><phaseHint>P</phaseHint><evaluationMode>automatic</evaluationMode></pick><pick publicID="de.gempa.tb1.Pick/20250414150503.257204.231585"><time><value>2025-04-14T15:04:58.59Z</value></time><waveformID networkCode="CH" stationCode="WIMIS" channelCode="HHN"/><filterID>RMHP(1)&gt;&gt;ITAPER(2)&gt;&gt;BW(4,3,20)</filterID><methodID>L2-AIC-GRID</methodID><phaseHint>S</phaseHint><evaluationMode>automatic</evaluationMode><comment><text>de.gempa.tb1.Pick/20250414150459.19495.231579</text><id>RefPickID</id></comment></pick><pick publicID="de.gempa.tb1.Pick/20250414150503.668855.231586"><time><value>2025-04-14T15:05:00.14Z</value></time><waveformID networkCode="CH" stationCode="LAUCH" channelCode="HHZ"/><filterID>ITAPER(4)&gt;&gt;BW(4,4,20)</filterID><methodID>AIC</methodID><phaseHint>P</phaseHint><evaluationMode>automatic</evaluationMode></pick><pick publicID="de.gempa.tb1.Pick/20250414150505.158213.231588"><time><value>2025-04-14T15:05:01.375Z</value></time><waveformID networkCode="CH" stationCode="FIESA" channelCode="HHZ"/><filterID>ITAPER(4)&gt;&gt;BW(4,4,20)</filterID><methodID>AIC</methodID><phaseHint>P</phaseHint><evaluationMode>automatic</evaluationMode></pick><pick publicID="de.gempa.tb1.Pick/20250414150511.167029.231595"><time><value>2025-04-14T15:05:06.735Z</value></time><waveformID networkCode="CH" stationCode="GIMEL" channelCode="HHZ"/><filterID>ITAPER(4)&gt;&gt;BW(4,4,20)</filterID><methodID>AIC</methodID><phaseHint>P</phaseHint><evaluationMode>automatic</evaluationMode></pick><pick publicID="de.gempa.tb1.Pick/20250414150518.136524.231610"><time><value>2025-04-14T15:05:14.04Z</value></time><waveformID networkCode="CH" stationCode="WILA" channelCode="HHZ"/><filterID>ITAPER(4)&gt;&gt;BW(4,4,20)</filterID><methodID>AIC</methodID><phaseHint>P</phaseHint><evaluationMode>automatic</evaluationMode></pick><origin publicID="de.gempa.tb1.Origin/20250414150518.139443.144009"><time><value>2025-04-14T15:04:51.02364Z</value><uncertainty>0.5806354284286499</uncertainty></time><latitude><value>46.70174789428711</value><uncertainty>9.468226432800293</uncertainty></latitude><longitude><value>7.41667652130127</value><uncertainty>4.559487819671631</uncertainty></longitude><depth><value>10.596954345703125</value><uncertainty>7.61093807220459</uncertainty></depth><depthType>from location</depthType><methodID>LOCSAT</methodID><earthModelID>iasp91</earthModelID><quality><associatedPhaseCount>6</associatedPhaseCount><usedPhaseCount>6</usedPhaseCount><associatedStationCount>5</associatedStationCount><usedStationCount>5</usedStationCount><depthPhaseCount>0</depthPhaseCount><standardError>0.5100478468812421</standardError><azimuthalGap>156.02396392822266</azimuthalGap><maximumDistance>1.2440190315246582</maximumDistance><minimumDistance>0.1475432962179184</minimumDistance><medianDistance>0.5478566288948059</medianDistance></quality><uncertainty><minHorizontalUncertainty>8.760720252990723</minHorizontalUncertainty><maxHorizontalUncertainty>20.766475677490234</maxHorizontalUncertainty><azimuthMaxHorizontalUncertainty>166.65818786621094</azimuthMaxHorizontalUncertainty><preferredDescription>horizontal uncertainty</preferredDescription></uncertainty><evaluationMode>automatic</evaluationMode><comment><text>0.64</text><id>mismatchScore</id></comment><arrival><pickID>de.gempa.tb1.Pick/20250414150459.19495.231579</pickID><phase>P</phase><azimuth>104.40101623535156</azimuth><distance>0.1475432962179184</distance><timeResidual>0.011180400848388672</timeResidual><timeUsed>true</timeUsed><horizontalSlownessUsed>false</horizontalSlownessUsed><backazimuthUsed>false</backazimuthUsed><weight>1</weight></arrival><arrival><pickID>de.gempa.tb1.Pick/20250414150503.257204.231585</pickID><phase>S</phase><azimuth>104.40101623535156</azimuth><distance>0.1475432962179184</distance><timeResidual>-0.00984811782836914</timeResidual><timeUsed>true</timeUsed><horizontalSlownessUsed>false</horizontalSlownessUsed><backazimuthUsed>false</backazimuthUsed><weight>1</weight></arrival><arrival><pickID>de.gempa.tb1.Pick/20250414150503.668855.231586</pickID><phase>P</phase><azimuth>139.3223419189453</azimuth><distance>0.37679383158683777</distance><timeResidual>0.7911901473999023</timeResidual><timeUsed>true</timeUsed><horizontalSlownessUsed>false</horizontalSlownessUsed><backazimuthUsed>false</backazimuthUsed><weight>1</weight></arrival><arrival><pickID>de.gempa.tb1.Pick/20250414150505.158213.231588</pickID><phase>P</phase><azimuth>118.8638916015625</azimuth><distance>0.5478566288948059</distance><timeResidual>-0.9243793487548828</timeResidual><timeUsed>true</timeUsed><horizontalSlownessUsed>false</horizontalSlownessUsed><backazimuthUsed>false</backazimuthUsed><weight>1</weight></arrival><arrival><pickID>de.gempa.tb1.Pick/20250414150511.167029.231595</pickID><phase>P</phase><azimuth>258.45233154296875</azimuth><distance>0.8111517429351807</distance><timeResidual>-0.1231555938720703</timeResidual><timeUsed>true</timeUsed><horizontalSlownessUsed>false</horizontalSlownessUsed><backazimuthUsed>false</backazimuthUsed><weight>1</weight></arrival><arrival><pickID>de.gempa.tb1.Pick/20250414150518.136524.231610</pickID><phase>P</phase><azimuth>54.47629547119141</azimuth><distance>1.2440190315246582</distance><timeResidual>0.2550382614135742</timeResidual><timeUsed>true</timeUsed><horizontalSlownessUsed>false</horizontalSlownessUsed><backazimuthUsed>false</backazimuthUsed><weight>1</weight></arrival><magnitude publicID="de.gempa.tb1.Magnitude/20250414150536.123998.504406"><magnitude><value>1.7618423888581536</value></magnitude><type>M</type><methodID>weighted average</methodID><stationCount>5</stationCount></magnitude></origin><event publicID="gempa2025hjkl"><preferredOriginID>de.gempa.tb1.Origin/20250414150518.139443.144009</preferredOriginID><preferredMagnitudeID>de.gempa.tb1.Magnitude/20250414150536.123998.504406</preferredMagnitudeID><typeCertainty>suspected</typeCertainty><description><text>Switzerland</text><type>region name</type></description><originReference>de.gempa.tb1.Origin/20250414150518.139443.144009</originReference></event></EventParameters></seiscomp>