<?xml version="1.0" encoding="UTF-8"?>
<seiscomp xmlns="http://geofon.gfz-potsdam.de/ns/seiscomp3-schema/0.13" version="0.13"><EventParameters><pick publicID="de.gempa.tb1.Pick/20250413113540.669485.130868"><time><value>2025-04-13T11:35:33.458393Z</value></time><waveformID networkCode="CX" stationCode="PB08" channelCode="HHZ"/><filterID>ITAPER(4)&gt;&gt;BW(4,4,20)</filterID><methodID>AIC</methodID><horizontalSlowness><value>15.587559213141013</value></horizontalSlowness><backazimuth><value>85.96241550369251</value></backazimuth><phaseHint>P</phaseHint><evaluationMode>automatic</evaluationMode><comment><text>10.011280588176692</text><id>DFX:rectilinearity</id></comment><comment><text>15.47213095658721</text><id>SNR</id></comment></pick><pick publicID="de.gempa.tb1.Pick/20250413113545.574002.130870"><time><value>2025-04-13T11:35:39.238393Z</value></time><waveformID networkCode="CX" stationCode="PB01" channelCode="HHZ"/><filterID>ITAPER(4)&gt;&gt;BW(4,4,20)</filterID><methodID>AIC</methodID><horizontalSlowness><value>22.040629168663592</value></horizontalSlowness><backazimuth><value>117.86347547636602</value></backazimuth><phaseHint>P</phaseHint><evaluationMode>automatic</evaluationMode><comment><text>20.52794060172273</text><id>DFX:rectilinearity</id></comment><comment><text>12.959138328191985</text><id>SNR</id></comment></pick><pick publicID="de.gempa.tb1.Pick/20250413113548.643972.130872"><time><value>2025-04-13T11:35:40.2Z</value></time><waveformID networkCode="CX" stationCode="PSGCX" channelCode="HHZ"/><filterID>ITAPER(4)&gt;&gt;BW(4,4,20)</filterID><methodID>AIC</methodID><horizontalSlowness><value>19.540393715055519</value></horizontalSlowness><backazimuth><value>266.2444309967171</value></backazimuth><phaseHint>P</phaseHint><evaluationMode>automatic</evaluationMode><comment><text>26.67483490979937</text><id>DFX:rectilinearity</id></comment><comment><text>8.472644027715976</text><id>SNR</id></comment></pick><pick publicID="de.gempa.tb1.Pick/20250413113555.089809.130876"><time><value>2025-04-13T11:35:44.078393Z</value></time><waveformID networkCode="CX" stationCode="PB08" channelCode="HHN"/><filterID>ITAPER(2)&gt;&gt;BW(3,3,20)</filterID><methodID>L2-AIC-GRID</methodID><horizontalSlowness><value>18.27823387041835</value></horizontalSlowness><backazimuth><value>208.9597430829061</value></backazimuth><phaseHint>S</phaseHint><evaluationMode>automatic</evaluationMode><comment><text>19.611034589080205</text><id>DFX:rectilinearity</id></comment><comment><text>de.gempa.tb1.Pick/20250413113540.669485.130868</text><id>RefPickID</id></comment><comment><text>13.453600994974394</text><id>SNR</id></comment></pick><pick publicID="de.gempa.tb1.Pick/20250413113604.589053.130879"><time><value>2025-04-13T11:35:56.0000Z</value></time><waveformID networkCode="CX" stationCode="PSGCX" channelCode="HHN"/><filterID>ITAPER(2)&gt;&gt;BW(3,3,20)</filterID><methodID>L2-AIC-GRID</methodID><horizontalSlowness><value>5.569199842837737</value></horizontalSlowness><backazimuth><value>204.83087018781623</value></backazimuth><phaseHint>S</phaseHint><evaluationMode>automatic</evaluationMode><comment><text>33.775652082976677</text><id>DFX:rectilinearity</id></comment><comment><text>de.gempa.tb1.Pick/20250413113548.643972.130872</text><id>RefPickID</id></comment><comment><text>9.058016437737848</text><id>SNR</id></comment></pick><pick publicID="de.gempa.tb1.Pick/20250413113608.57224.130880"><time><value>2025-04-13T11:35:54.158393Z</value></time><waveformID networkCode="CX" stationCode="PB01" channelCode="HHN"/><filterID>ITAPER(2)&gt;&gt;BW(3,3,20)</filterID><methodID>L2-AIC-GRID</methodID><horizontalSlowness><value>23.13692227725196</value></horizontalSlowness><backazimuth><value>148.03232528826237</value></backazimuth><phaseHint>S</phaseHint><evaluationMode>automatic</evaluationMode><comment><text>42.54902240644951</text><id>DFX:rectilinearity</id></comment><comment><text>de.gempa.tb1.Pick/20250413113545.574002.130870</text><id>RefPickID</id></comment><comment><text>11.48044697551475</text><id>SNR</id></comment></pick><origin publicID="de.gempa.tb1.Origin/20250413113608.57642.108291"><time><value>2025-04-13T11:35:19.738207Z</value><uncertainty>1.4889483451843262</uncertainty></time><latitude><value>-20.154890060424805</value><uncertainty>5.330945491790771</uncertainty></latitude><longitude><value>-69.22398376464844</value><uncertainty>8.87680721282959</uncertainty></longitude><depth><value>98.94857788085938</value><uncertainty>9.194506645202637</uncertainty></depth><depthType>from location</depthType><methodID>LOCSAT</methodID><earthModelID>iasp91_scanloc</earthModelID><quality><associatedPhaseCount>6</associatedPhaseCount><usedPhaseCount>6</usedPhaseCount><associatedStationCount>3</associatedStationCount><usedStationCount>3</usedStationCount><depthPhaseCount>0</depthPhaseCount><standardError>0.0295483882449506</standardError><azimuthalGap>135.2405242919922</azimuthalGap><maximumDistance>1.0118428468704224</maximumDistance><minimumDistance>0.06772014498710632</minimumDistance><medianDistance>0.9176560044288635</medianDistance></quality><uncertainty><minHorizontalUncertainty>9.404566764831543</minHorizontalUncertainty><maxHorizontalUncertainty>20.116273880004883</maxHorizontalUncertainty><azimuthMaxHorizontalUncertainty>68.55770111083984</azimuthMaxHorizontalUncertainty><preferredDescription>horizontal uncertainty</preferredDescription></uncertainty><evaluationMode>automatic</evaluationMode><evaluationStatus>confirmed</evaluationStatus><comment><text>0.00</text><id>mismatchScore</id></comment><comment><text>mismatchScore</text><id>scevalMethod</id></comment><arrival><pickID>de.gempa.tb1.Pick/20250413113540.669485.130868</pickID><phase>P</phase><azimuth>78.34156799316406</azimuth><distance>0.06772014498710632</distance><timeResidual>-0.040879249572753906</timeResidual><timeUsed>true</timeUsed><horizontalSlownessUsed>false</horizontalSlownessUsed><backazimuthUsed>false</backazimuthUsed><weight>1</weight></arrival><arrival><pickID>de.gempa.tb1.Pick/20250413113545.574002.130870</pickID><phase>P</phase><azimuth>195.55404663085938</azimuth><distance>0.9176560044288635</distance><timeResidual>0.04759883880615234</timeResidual><timeUsed>true</timeUsed><horizontalSlownessUsed>false</horizontalSlownessUsed><backazimuthUsed>false</backazimuthUsed><weight>1</weight></arrival><arrival><pickID>de.gempa.tb1.Pick/20250413113548.643972.130872</pickID><phase>P</phase><azimuth>303.1010437011719</azimuth><distance>1.0118428468704224</distance><timeResidual>-0.006873130798339844</timeResidual><timeUsed>true</timeUsed><horizontalSlownessUsed>false</horizontalSlownessUsed><backazimuthUsed>false</backazimuthUsed><weight>1</weight></arrival><arrival><pickID>de.gempa.tb1.Pick/20250413113555.089809.130876</pickID><phase>S</phase><azimuth>78.34156799316406</azimuth><distance>0.06772014498710632</distance><timeResidual>0.02298450469970703</timeResidual><timeUsed>true</timeUsed><horizontalSlownessUsed>false</horizontalSlownessUsed><backazimuthUsed>false</backazimuthUsed><weight>1</weight></arrival><arrival><pickID>de.gempa.tb1.Pick/20250413113604.589053.130879</pickID><phase>S</phase><azimuth>303.1010437011719</azimuth><distance>1.0118428468704224</distance><timeResidual>0.0039043426513671875</timeResidual><timeUsed>true</timeUsed><horizontalSlownessUsed>false</horizontalSlownessUsed><backazimuthUsed>false</backazimuthUsed><weight>1</weight></arrival><arrival><pickID>de.gempa.tb1.Pick/20250413113608.57224.130880</pickID><phase>S</phase><azimuth>195.55404663085938</azimuth><distance>0.9176560044288635</distance><timeResidual>-0.026666641235351559</timeResidual><timeUsed>true</timeUsed><horizontalSlownessUsed>false</horizontalSlownessUsed><backazimuthUsed>false</backazimuthUsed><weight>1</weight></arrival></origin><event publicID="gempa2025hhhk"><preferredOriginID>de.gempa.tb1.Origin/20250413113608.57642.108291</preferredOriginID><description><text>Northern Chile</text><type>region name</type></description><originReference>de.gempa.tb1.Origin/20250413113608.57642.108291</originReference></event></EventParameters></seiscomp>