<?xml version="1.0" encoding="UTF-8"?>
<seiscomp xmlns="http://geofon.gfz-potsdam.de/ns/seiscomp3-schema/0.13" version="0.13"><EventParameters><pick publicID="de.gempa.tb1.Pick/20250412080721.49292.122888"><time><value>2025-04-12T08:07:14.06Z</value></time><waveformID networkCode="CX" stationCode="PB19" channelCode="HHZ"/><filterID>ITAPER(4)&gt;&gt;BW(4,4,20)</filterID><methodID>AIC</methodID><horizontalSlowness><value>18.161539386781048</value></horizontalSlowness><backazimuth><value>107.08472358807674</value></backazimuth><phaseHint>P</phaseHint><evaluationMode>automatic</evaluationMode><comment><text>20.2647430956375</text><id>DFX:rectilinearity</id></comment><comment><text>13.23617135943402</text><id>SNR</id></comment></pick><pick publicID="de.gempa.tb1.Pick/20250412080723.716886.122890"><time><value>2025-04-12T08:07:17.778393Z</value></time><waveformID networkCode="CX" stationCode="PB15" channelCode="HHZ"/><filterID>ITAPER(4)&gt;&gt;BW(4,4,20)</filterID><methodID>AIC</methodID><horizontalSlowness><value>22.794418556661675</value></horizontalSlowness><backazimuth><value>74.87146748554011</value></backazimuth><phaseHint>P</phaseHint><evaluationMode>automatic</evaluationMode><comment><text>188.9917137562682</text><id>DFX:rectilinearity</id></comment><comment><text>9.186662027483044</text><id>SNR</id></comment></pick><pick publicID="de.gempa.tb1.Pick/20250412080725.568191.122892"><time><value>2025-04-12T08:07:21.098393Z</value></time><waveformID networkCode="CX" stationCode="PB06" channelCode="HHZ"/><filterID>ITAPER(4)&gt;&gt;BW(4,4,20)</filterID><methodID>AIC</methodID><horizontalSlowness><value>14.306254340076226</value></horizontalSlowness><backazimuth><value>278.56078134859183</value></backazimuth><phaseHint>P</phaseHint><evaluationMode>automatic</evaluationMode><comment><text>77.89208131155245</text><id>DFX:rectilinearity</id></comment><comment><text>13.613855802122599</text><id>SNR</id></comment></pick><pick publicID="de.gempa.tb1.Pick/20250412080733.53828.122894"><time><value>2025-04-12T08:07:27.148393Z</value></time><waveformID networkCode="CX" stationCode="PB03" channelCode="HHZ"/><filterID>ITAPER(4)&gt;&gt;BW(4,4,20)</filterID><methodID>AIC</methodID><horizontalSlowness><value>17.756234749316235</value></horizontalSlowness><backazimuth><value>102.03085066381152</value></backazimuth><phaseHint>P</phaseHint><evaluationMode>automatic</evaluationMode><comment><text>4.836824867503483</text><id>DFX:rectilinearity</id></comment><comment><text>16.699943084244524</text><id>SNR</id></comment></pick><pick publicID="de.gempa.tb1.Pick/20250412080734.525183.122896"><time><value>2025-04-12T08:07:26.1Z</value></time><waveformID networkCode="CX" stationCode="PB09" channelCode="HHZ"/><filterID>ITAPER(4)&gt;&gt;BW(4,4,20)</filterID><methodID>AIC</methodID><horizontalSlowness><value>10.419153224950872</value></horizontalSlowness><backazimuth><value>253.7393596906902</value></backazimuth><phaseHint>P</phaseHint><evaluationMode>automatic</evaluationMode><comment><text>13.545425432724691</text><id>DFX:rectilinearity</id></comment><comment><text>16.876898393091817</text><id>SNR</id></comment></pick><pick publicID="de.gempa.tb1.Pick/20250412080740.51148.122898"><time><value>2025-04-12T08:07:30.668391Z</value></time><waveformID networkCode="CX" stationCode="PB07" channelCode="HHZ"/><filterID>ITAPER(4)&gt;&gt;BW(4,4,20)</filterID><methodID>AIC</methodID><horizontalSlowness><value>22.8242705345959</value></horizontalSlowness><backazimuth><value>112.32380816510572</value></backazimuth><phaseHint>P</phaseHint><evaluationMode>automatic</evaluationMode><comment><text>194.45485075705835</text><id>DFX:rectilinearity</id></comment><comment><text>22.583164747963085</text><id>SNR</id></comment></pick><pick publicID="de.gempa.tb1.Pick/20250412080756.622832.122901"><time><value>2025-04-12T08:07:43.89Z</value></time><waveformID networkCode="CX" stationCode="PB19" channelCode="HHN"/><filterID>ITAPER(2)&gt;&gt;BW(3,3,20)</filterID><methodID>L2-AIC-GRID</methodID><horizontalSlowness><value>19.747152054579377</value></horizontalSlowness><backazimuth><value>170.44778031370348</value></backazimuth><phaseHint>S</phaseHint><evaluationMode>automatic</evaluationMode><comment><text>90.73835671261442</text><id>DFX:rectilinearity</id></comment><comment><text>de.gempa.tb1.Pick/20250412080721.49292.122888</text><id>RefPickID</id></comment><comment><text>9.463526987658744</text><id>SNR</id></comment></pick><pick publicID="de.gempa.tb1.Pick/20250412080756.739758.122904"><time><value>2025-04-12T08:07:49.908393Z</value></time><waveformID networkCode="CX" stationCode="PB15" channelCode="HHN"/><filterID>ITAPER(2)&gt;&gt;BW(3,3,20)</filterID><methodID>L2-AIC-GRID</methodID><horizontalSlowness><value>20.77193620323538</value></horizontalSlowness><backazimuth><value>109.93788525570695</value></backazimuth><phaseHint>S</phaseHint><evaluationMode>automatic</evaluationMode><comment><text>929.6700073120094</text><id>DFX:rectilinearity</id></comment><comment><text>de.gempa.tb1.Pick/20250412080723.716886.122890</text><id>RefPickID</id></comment><comment><text>7.906117357286798</text><id>SNR</id></comment></pick><pick publicID="de.gempa.tb1.Pick/20250412080806.688155.122908"><time><value>2025-04-12T08:07:55.178393Z</value></time><waveformID networkCode="CX" stationCode="PB06" channelCode="HHN"/><filterID>ITAPER(2)&gt;&gt;BW(3,3,20)</filterID><methodID>L2-AIC-GRID</methodID><horizontalSlowness><value>15.321236365937732</value></horizontalSlowness><backazimuth><value>281.8397370964989</value></backazimuth><phaseHint>S</phaseHint><evaluationMode>automatic</evaluationMode><comment><text>75.7511988512008</text><id>DFX:rectilinearity</id></comment><comment><text>de.gempa.tb1.Pick/20250412080725.568191.122892</text><id>RefPickID</id></comment><comment><text>14.7122675267635</text><id>SNR</id></comment></pick><pick publicID="de.gempa.tb1.Pick/20250412080817.511296.122911"><time><value>2025-04-12T08:08:05.958393Z</value></time><waveformID networkCode="CX" stationCode="PB03" channelCode="HHN"/><filterID>ITAPER(2)&gt;&gt;BW(3,3,20)</filterID><methodID>L2-AIC-GRID</methodID><horizontalSlowness><value>15.79174183654595</value></horizontalSlowness><backazimuth><value>223.43678098413392</value></backazimuth><phaseHint>S</phaseHint><evaluationMode>automatic</evaluationMode><comment><text>7.391948872844944</text><id>DFX:rectilinearity</id></comment><comment><text>de.gempa.tb1.Pick/20250412080733.53828.122894</text><id>RefPickID</id></comment><comment><text>8.615529818489586</text><id>SNR</id></comment></pick><pick publicID="de.gempa.tb1.Pick/20250412080837.275749.122915"><time><value>2025-04-12T08:08:12.058391Z</value></time><waveformID networkCode="CX" stationCode="PB07" channelCode="HHN"/><filterID>ITAPER(2)&gt;&gt;BW(3,3,20)</filterID><methodID>L2-AIC-GRID</methodID><horizontalSlowness><value>23.42277871642988</value></horizontalSlowness><backazimuth><value>71.5576252643804</value></backazimuth><phaseHint>S</phaseHint><evaluationMode>automatic</evaluationMode><comment><text>342.37775246437866</text><id>DFX:rectilinearity</id></comment><comment><text>de.gempa.tb1.Pick/20250412080740.51148.122898</text><id>RefPickID</id></comment><comment><text>5.960887837051259</text><id>SNR</id></comment></pick><origin publicID="de.gempa.tb1.Origin/20250412080837.281471.78408"><time><value>2025-04-12T08:06:37.710894Z</value><uncertainty>1.4584015607833862</uncertainty></time><latitude><value>-23.731157302856445</value><uncertainty>10.878497123718262</uncertainty></latitude><longitude><value>-66.77286529541016</value><uncertainty>30.711727142333984</uncertainty></longitude><depth><value>17.816186904907227</value><uncertainty>40.00602340698242</uncertainty></depth><depthType>from location</depthType><methodID>LOCSAT</methodID><earthModelID>iasp91_scanloc</earthModelID><quality><associatedPhaseCount>11</associatedPhaseCount><usedPhaseCount>11</usedPhaseCount><associatedStationCount>6</associatedStationCount><usedStationCount>6</usedStationCount><depthPhaseCount>0</depthPhaseCount><standardError>0.7769279375883844</standardError><azimuthalGap>315.4927978515625</azimuthalGap><maximumDistance>3.4986910820007324</maximumDistance><minimumDistance>2.3122997283935547</minimumDistance><medianDistance>2.7697877883911133</medianDistance></quality><uncertainty><minHorizontalUncertainty>14.399364471435547</minHorizontalUncertainty><maxHorizontalUncertainty>68.37937927246094</maxHorizontalUncertainty><azimuthMaxHorizontalUncertainty>105.94020080566406</azimuthMaxHorizontalUncertainty><preferredDescription>horizontal uncertainty</preferredDescription></uncertainty><evaluationMode>automatic</evaluationMode><evaluationStatus>confirmed</evaluationStatus><comment><text>0.01</text><id>mismatchScore</id></comment><comment><text>mismatchScore</text><id>scevalMethod</id></comment><arrival><pickID>de.gempa.tb1.Pick/20250412080721.49292.122888</pickID><phase>P</phase><azimuth>265.20849609375</azimuth><distance>2.3122997283935547</distance><timeResidual>-0.8562164306640625</timeResidual><timeUsed>true</timeUsed><horizontalSlownessUsed>false</horizontalSlownessUsed><backazimuthUsed>false</backazimuthUsed><weight>1</weight></arrival><arrival><pickID>de.gempa.tb1.Pick/20250412080723.716886.122890</pickID><phase>P</phase><azimuth>281.32672119140625</azimuth><distance>2.5314886569976807</distance><timeResidual>-0.15589523315429688</timeResidual><timeUsed>true</timeUsed><horizontalSlownessUsed>false</horizontalSlownessUsed><backazimuthUsed>false</backazimuthUsed><weight>1</weight></arrival><arrival><pickID>de.gempa.tb1.Pick/20250412080725.568191.122892</pickID><phase>P</phase><azimuth>291.06829833984375</azimuth><distance>2.7697877883911133</distance><timeResidual>-0.11623382568359375</timeResidual><timeUsed>true</timeUsed><horizontalSlownessUsed>false</horizontalSlownessUsed><backazimuthUsed>false</backazimuthUsed><weight>1</weight></arrival><arrival><pickID>de.gempa.tb1.Pick/20250412080733.53828.122894</pickID><phase>P</phase><azimuth>300.7746276855469</azimuth><distance>3.2182600498199463</distance><timeResidual>-0.238372802734375</timeResidual><timeUsed>true</timeUsed><horizontalSlownessUsed>false</horizontalSlownessUsed><backazimuthUsed>false</backazimuthUsed><weight>1</weight></arrival><arrival><pickID>de.gempa.tb1.Pick/20250412080734.525183.122896</pickID><phase>P</phase><azimuth>309.7156982421875</azimuth><distance>2.983497381210327</distance><timeResidual>1.942462921142578</timeResidual><timeUsed>true</timeUsed><horizontalSlownessUsed>false</horizontalSlownessUsed><backazimuthUsed>false</backazimuthUsed><weight>1</weight></arrival><arrival><pickID>de.gempa.tb1.Pick/20250412080740.51148.122898</pickID><phase>P</phase><azimuth>304.1572570800781</azimuth><distance>3.4986910820007324</distance><timeResidual>-0.5771408081054688</timeResidual><timeUsed>true</timeUsed><horizontalSlownessUsed>false</horizontalSlownessUsed><backazimuthUsed>false</backazimuthUsed><weight>1</weight></arrival><arrival><pickID>de.gempa.tb1.Pick/20250412080756.622832.122901</pickID><phase>S</phase><azimuth>265.20849609375</azimuth><distance>2.3122997283935547</distance><timeResidual>0.20023345947265625</timeResidual><timeUsed>true</timeUsed><horizontalSlownessUsed>false</horizontalSlownessUsed><backazimuthUsed>false</backazimuthUsed><weight>1</weight></arrival><arrival><pickID>de.gempa.tb1.Pick/20250412080756.739758.122904</pickID><phase>S</phase><azimuth>281.32672119140625</azimuth><distance>2.5314886569976807</distance><timeResidual>0.7905006408691406</timeResidual><timeUsed>true</timeUsed><horizontalSlownessUsed>false</horizontalSlownessUsed><backazimuthUsed>false</backazimuthUsed><weight>1</weight></arrival><arrival><pickID>de.gempa.tb1.Pick/20250412080806.688155.122908</pickID><phase>S</phase><azimuth>291.06829833984375</azimuth><distance>2.7697877883911133</distance><timeResidual>0.1616668701171875</timeResidual><timeUsed>true</timeUsed><horizontalSlownessUsed>false</horizontalSlownessUsed><backazimuthUsed>false</backazimuthUsed><weight>1</weight></arrival><arrival><pickID>de.gempa.tb1.Pick/20250412080817.511296.122911</pickID><phase>S</phase><azimuth>300.7746276855469</azimuth><distance>3.2182600498199463</distance><timeResidual>-0.15673065185546875</timeResidual><timeUsed>true</timeUsed><horizontalSlownessUsed>false</horizontalSlownessUsed><backazimuthUsed>false</backazimuthUsed><weight>1</weight></arrival><arrival><pickID>de.gempa.tb1.Pick/20250412080837.275749.122915</pickID><phase>S</phase><azimuth>304.1572570800781</azimuth><distance>3.4986910820007324</distance><timeResidual>-0.9950408935546875</timeResidual><timeUsed>true</timeUsed><horizontalSlownessUsed>false</horizontalSlownessUsed><backazimuthUsed>false</backazimuthUsed><weight>1</weight></arrival><magnitude publicID="de.gempa.tb1.Magnitude/20250412080845.938292.196480"><magnitude><value>3.250982444976559</value></magnitude><type>M</type><methodID>weighted average</methodID><stationCount>6</stationCount></magnitude></origin><event publicID="gempa2025hfel"><preferredOriginID>de.gempa.tb1.Origin/20250412080837.281471.78408</preferredOriginID><preferredMagnitudeID>de.gempa.tb1.Magnitude/20250412080845.938292.196480</preferredMagnitudeID><description><text>Jujuy Province, Argentina</text><type>region name</type></description><originReference>de.gempa.tb1.Origin/20250412080837.281471.78408</originReference></event></EventParameters></seiscomp>