<?xml version="1.0" encoding="UTF-8"?>
<seiscomp xmlns="http://geofon.gfz-potsdam.de/ns/seiscomp3-schema/0.13" version="0.13"><EventParameters><pick publicID="de.gempa.tb1.Pick/20250411182914.719551.128741"><time><value>2025-04-11T18:29:11.765Z</value></time><waveformID networkCode="CH" stationCode="LAUCH" channelCode="HHZ"/><filterID>ITAPER(4)&gt;&gt;BW(4,4,20)</filterID><methodID>AIC</methodID><phaseHint>P</phaseHint><evaluationMode>automatic</evaluationMode></pick><pick publicID="de.gempa.tb1.Pick/20250411182915.894316.128743"><time><value>2025-04-11T18:29:13.765Z</value></time><waveformID networkCode="CH" stationCode="SIMPL" channelCode="HHZ"/><filterID>ITAPER(4)&gt;&gt;BW(4,4,20)</filterID><methodID>AIC</methodID><phaseHint>P</phaseHint><evaluationMode>automatic</evaluationMode></pick><pick publicID="de.gempa.tb1.Pick/20250411182917.681123.128745"><time><value>2025-04-11T18:29:14.05Z</value></time><waveformID networkCode="CH" stationCode="VANNI" channelCode="HHZ"/><filterID>ITAPER(4)&gt;&gt;BW(4,4,20)</filterID><methodID>AIC</methodID><phaseHint>P</phaseHint><evaluationMode>automatic</evaluationMode></pick><pick publicID="de.gempa.tb1.Pick/20250411182919.122474.128749"><time><value>2025-04-11T18:29:14.458393Z</value></time><waveformID networkCode="CH" stationCode="GRIMS" channelCode="HHZ"/><filterID>ITAPER(4)&gt;&gt;BW(4,4,20)</filterID><methodID>AIC</methodID><phaseHint>P</phaseHint><evaluationMode>automatic</evaluationMode></pick><pick publicID="de.gempa.tb1.Pick/20250411182931.200955.128770"><time><value>2025-04-11T18:29:18.305Z</value></time><waveformID networkCode="CH" stationCode="SIMPL" channelCode="HHN"/><filterID>RMHP(1)&gt;&gt;ITAPER(2)&gt;&gt;BW(4,3,20)</filterID><methodID>L2-AIC-GRID</methodID><phaseHint>S</phaseHint><evaluationMode>automatic</evaluationMode><comment><text>de.gempa.tb1.Pick/20250411182915.894316.128743</text><id>RefPickID</id></comment></pick><pick publicID="de.gempa.tb1.Pick/20250411183101.3972.128825"><time><value>2025-04-11T18:30:00.044999Z</value></time><waveformID networkCode="GR" stationCode="GRB1" channelCode="BHZ"/><filterID>ITAPER(4)&gt;&gt;BW_HP(4,4)</filterID><methodID>AIC</methodID><phaseHint>P</phaseHint><evaluationMode>automatic</evaluationMode></pick><origin publicID="de.gempa.tb1.Origin/20250411183101.399682.61653"><time><value>2025-04-11T18:29:03.839382Z</value><uncertainty>1.2413045167922974</uncertainty></time><latitude><value>46.42269134521484</value><uncertainty>8.938773155212402</uncertainty></latitude><longitude><value>7.949707508087158</value><uncertainty>5.92868185043335</uncertainty></longitude><depth><value>42.83216094970703</value><uncertainty>14.429156303405762</uncertainty></depth><depthType>from location</depthType><methodID>LOCSAT</methodID><earthModelID>iasp91</earthModelID><quality><associatedPhaseCount>6</associatedPhaseCount><usedPhaseCount>6</usedPhaseCount><associatedStationCount>5</associatedStationCount><usedStationCount>5</usedStationCount><depthPhaseCount>0</depthPhaseCount><standardError>0.7245549378485499</standardError><azimuthalGap>131.88325881958008</azimuthalGap><maximumDistance>3.875760793685913</maximumDistance><minimumDistance>0.12338174134492874</minimumDistance><medianDistance>0.2986805737018585</medianDistance></quality><uncertainty><minHorizontalUncertainty>12.51848602294922</minHorizontalUncertainty><maxHorizontalUncertainty>19.302730560302734</maxHorizontalUncertainty><azimuthMaxHorizontalUncertainty>171.2493133544922</azimuthMaxHorizontalUncertainty><preferredDescription>horizontal uncertainty</preferredDescription></uncertainty><evaluationMode>automatic</evaluationMode><evaluationStatus>rejected</evaluationStatus><comment><text>0.91</text><id>mismatchScore</id></comment><comment><text>mismatchScore</text><id>scevalMethod</id></comment><arrival><pickID>de.gempa.tb1.Pick/20250411182914.719551.128741</pickID><phase>P</phase><azimuth>266.7398986816406</azimuth><distance>0.12338174134492874</distance><timeResidual>-0.1348280906677246</timeResidual><timeUsed>true</timeUsed><horizontalSlownessUsed>false</horizontalSlownessUsed><backazimuthUsed>false</backazimuthUsed><weight>1</weight></arrival><arrival><pickID>de.gempa.tb1.Pick/20250411182915.894316.128743</pickID><phase>P</phase><azimuth>165.1654510498047</azimuth><distance>0.18941619992256165</distance><timeResidual>1.1482043266296387</timeResidual><timeUsed>true</timeUsed><horizontalSlownessUsed>false</horizontalSlownessUsed><backazimuthUsed>false</backazimuthUsed><weight>1</weight></arrival><arrival><pickID>de.gempa.tb1.Pick/20250411182917.681123.128745</pickID><phase>P</phase><azimuth>229.1202850341797</azimuth><distance>0.3241501748561859</distance><timeResidual>-0.02295351028442383</timeResidual><timeUsed>true</timeUsed><horizontalSlownessUsed>false</horizontalSlownessUsed><backazimuthUsed>false</backazimuthUsed><weight>1</weight></arrival><arrival><pickID>de.gempa.tb1.Pick/20250411182919.122474.128749</pickID><phase>P</phase><azimuth>58.49089813232422</azimuth><distance>0.2986805737018585</distance><timeResidual>0.6634373664855957</timeResidual><timeUsed>true</timeUsed><horizontalSlownessUsed>false</horizontalSlownessUsed><backazimuthUsed>false</backazimuthUsed><weight>1</weight></arrival><arrival><pickID>de.gempa.tb1.Pick/20250411182931.200955.128770</pickID><phase>S</phase><azimuth>165.1654510498047</azimuth><distance>0.18941619992256165</distance><timeResidual>-0.8776555061340332</timeResidual><timeUsed>true</timeUsed><horizontalSlownessUsed>false</horizontalSlownessUsed><backazimuthUsed>false</backazimuthUsed><weight>1</weight></arrival><arrival><pickID>de.gempa.tb1.Pick/20250411183101.3972.128825</pickID><phase>P</phase><azimuth>38.6231575012207</azimuth><distance>3.875760793685913</distance><timeResidual>-0.7761263847351074</timeResidual><timeUsed>true</timeUsed><horizontalSlownessUsed>false</horizontalSlownessUsed><backazimuthUsed>false</backazimuthUsed><weight>1</weight></arrival><magnitude publicID="de.gempa.tb1.Magnitude/20250411183101.409982.131036"><magnitude><value>0.6491120200086163</value></magnitude><type>M</type><methodID>weighted average</methodID><stationCount>4</stationCount></magnitude></origin><event publicID="gempa2025hede"><preferredOriginID>de.gempa.tb1.Origin/20250411183101.399682.61653</preferredOriginID><preferredMagnitudeID>de.gempa.tb1.Magnitude/20250411183101.409982.131036</preferredMagnitudeID><typeCertainty>suspected</typeCertainty><description><text>Switzerland</text><type>region name</type></description><originReference>de.gempa.tb1.Origin/20250411183101.399682.61653</originReference></event></EventParameters></seiscomp>