<?xml version="1.0" encoding="UTF-8"?>
<seiscomp xmlns="http://geofon.gfz-potsdam.de/ns/seiscomp3-schema/0.13" version="0.13"><EventParameters><pick publicID="de.gempa.tb1.Pick/20250412183928.443934.125993"><time><value>2025-04-12T18:39:23.229999Z</value></time><waveformID networkCode="CX" stationCode="PATCX" channelCode="HHZ"/><filterID>ITAPER(4)&gt;&gt;BW(4,4,20)</filterID><methodID>AIC</methodID><horizontalSlowness><value>9.338803284992801</value></horizontalSlowness><backazimuth><value>102.44846783761396</value></backazimuth><phaseHint>P</phaseHint><evaluationMode>automatic</evaluationMode><comment><text>62908.35324523408</text><id>DFX:rectilinearity</id></comment><comment><text>73.21532455025843</text><id>SNR</id></comment></pick><pick publicID="de.gempa.tb1.Pick/20250412183930.545107.125995"><time><value>2025-04-12T18:39:26.138393Z</value></time><waveformID networkCode="CX" stationCode="PB01" channelCode="HHZ"/><filterID>ITAPER(4)&gt;&gt;BW(4,4,20)</filterID><methodID>AIC</methodID><horizontalSlowness><value>19.689137419848258</value></horizontalSlowness><backazimuth><value>316.5691183182473</value></backazimuth><phaseHint>P</phaseHint><evaluationMode>automatic</evaluationMode><comment><text>15345.251515144842</text><id>DFX:rectilinearity</id></comment><comment><text>321.916917846129</text><id>SNR</id></comment></pick><pick publicID="de.gempa.tb1.Pick/20250412183934.492855.125997"><time><value>2025-04-12T18:39:27.959999Z</value></time><waveformID networkCode="CX" stationCode="PATCX" channelCode="HHN"/><filterID>ITAPER(2)&gt;&gt;BW(3,3,20)</filterID><methodID>L2-AIC-GRID</methodID><horizontalSlowness><value>20.315902460301615</value></horizontalSlowness><backazimuth><value>61.2358647598867</value></backazimuth><phaseHint>S</phaseHint><evaluationMode>automatic</evaluationMode><comment><text>1236349.3515753495</text><id>DFX:rectilinearity</id></comment><comment><text>de.gempa.tb1.Pick/20250412183928.443934.125993</text><id>RefPickID</id></comment><comment><text>5.173054652502904</text><id>SNR</id></comment></pick><pick publicID="de.gempa.tb1.Pick/20250412183934.590959.125998"><time><value>2025-04-12T18:39:27.878393Z</value></time><waveformID networkCode="CX" stationCode="PB02" channelCode="HHZ"/><filterID>ITAPER(4)&gt;&gt;BW(4,4,20)</filterID><methodID>AIC</methodID><horizontalSlowness><value>8.995181324367323</value></horizontalSlowness><backazimuth><value>26.101477667952935</value></backazimuth><phaseHint>P</phaseHint><evaluationMode>automatic</evaluationMode><comment><text>28010.451301025016</text><id>DFX:rectilinearity</id></comment><comment><text>211.54420188470988</text><id>SNR</id></comment></pick><pick publicID="de.gempa.tb1.Pick/20250412183941.716139.126000"><time><value>2025-04-12T18:39:34.778393Z</value></time><waveformID networkCode="CX" stationCode="PB08" channelCode="HHZ"/><filterID>ITAPER(4)&gt;&gt;BW(4,4,20)</filterID><methodID>AIC</methodID><horizontalSlowness><value>15.1887573814826</value></horizontalSlowness><backazimuth><value>207.48140020129807</value></backazimuth><phaseHint>P</phaseHint><evaluationMode>automatic</evaluationMode><comment><text>500.7546441996157</text><id>DFX:rectilinearity</id></comment><comment><text>9.332430103902238</text><id>SNR</id></comment></pick><pick publicID="de.gempa.tb1.Pick/20250412183945.552957.126004"><time><value>2025-04-12T18:39:39.04Z</value></time><waveformID networkCode="CX" stationCode="PSGCX" channelCode="HHZ"/><filterID>ITAPER(4)&gt;&gt;BW(4,4,20)</filterID><methodID>AIC</methodID><horizontalSlowness><value>8.848391366187448</value></horizontalSlowness><backazimuth><value>169.41162752487855</value></backazimuth><phaseHint>P</phaseHint><evaluationMode>automatic</evaluationMode><comment><text>3355.9365857460366</text><id>DFX:rectilinearity</id></comment><comment><text>476.3767749422402</text><id>SNR</id></comment></pick><pick publicID="de.gempa.tb1.Pick/20250412183949.089306.126006"><time><value>2025-04-12T18:39:35.098393Z</value></time><waveformID networkCode="CX" stationCode="PB07" channelCode="HHZ"/><filterID>ITAPER(4)&gt;&gt;BW(4,4,20)</filterID><methodID>AIC</methodID><horizontalSlowness><value>18.343070670095848</value></horizontalSlowness><backazimuth><value>324.65929031871315</value></backazimuth><phaseHint>P</phaseHint><evaluationMode>automatic</evaluationMode><comment><text>6576.732936536502</text><id>DFX:rectilinearity</id></comment><comment><text>85.70110589145413</text><id>SNR</id></comment></pick><pick publicID="de.gempa.tb1.Pick/20250412183950.292795.126008"><time><value>2025-04-12T18:39:39.84Z</value></time><waveformID networkCode="CX" stationCode="PB09" channelCode="HHZ"/><filterID>ITAPER(4)&gt;&gt;BW(4,4,20)</filterID><methodID>AIC</methodID><horizontalSlowness><value>14.62840885838791</value></horizontalSlowness><backazimuth><value>65.96059356085179</value></backazimuth><phaseHint>P</phaseHint><evaluationMode>automatic</evaluationMode><comment><text>801.7957040502109</text><id>DFX:rectilinearity</id></comment><comment><text>58.14669849435842</text><id>SNR</id></comment></pick><pick publicID="de.gempa.tb1.Pick/20250412183958.004577.126010"><time><value>2025-04-12T18:39:47.648393Z</value></time><waveformID networkCode="CX" stationCode="PB08" channelCode="HHN"/><filterID>ITAPER(2)&gt;&gt;BW(3,3,20)</filterID><methodID>L2-AIC-GRID</methodID><horizontalSlowness><value>17.531727008108525</value></horizontalSlowness><backazimuth><value>198.59398954430387</value></backazimuth><phaseHint>S</phaseHint><evaluationMode>automatic</evaluationMode><comment><text>736.1857870797801</text><id>DFX:rectilinearity</id></comment><comment><text>de.gempa.tb1.Pick/20250412183941.716139.126000</text><id>RefPickID</id></comment><comment><text>5.688361105502081</text><id>SNR</id></comment></pick><pick publicID="de.gempa.tb1.Pick/20250412183959.531528.126013"><time><value>2025-04-12T18:39:52.088393Z</value></time><waveformID networkCode="CX" stationCode="PB06" channelCode="HHZ"/><filterID>ITAPER(4)&gt;&gt;BW(4,4,20)</filterID><methodID>AIC</methodID><horizontalSlowness><value>6.392396125651196</value></horizontalSlowness><backazimuth><value>345.0335741447975</value></backazimuth><phaseHint>P</phaseHint><evaluationMode>automatic</evaluationMode><comment><text>1472.2063680576732</text><id>DFX:rectilinearity</id></comment><comment><text>32.448577744419225</text><id>SNR</id></comment></pick><pick publicID="de.gempa.tb1.Pick/20250412184006.631174.126016"><time><value>2025-04-12T18:40:00.238393Z</value></time><waveformID networkCode="CX" stationCode="PB15" channelCode="HHZ"/><filterID>ITAPER(4)&gt;&gt;BW(4,4,20)</filterID><methodID>AIC</methodID><horizontalSlowness><value>20.673479464872976</value></horizontalSlowness><backazimuth><value>38.312287645528414</value></backazimuth><phaseHint>P</phaseHint><evaluationMode>automatic</evaluationMode><comment><text>6752.183983442558</text><id>DFX:rectilinearity</id></comment><comment><text>20.731563230672254</text><id>SNR</id></comment></pick><pick publicID="de.gempa.tb1.Pick/20250412184007.474811.126019"><time><value>2025-04-12T18:40:00.418393Z</value></time><waveformID networkCode="CX" stationCode="PB16" channelCode="HHZ"/><filterID>ITAPER(4)&gt;&gt;BW(4,4,20)</filterID><methodID>AIC</methodID><horizontalSlowness><value>7.561533980935</value></horizontalSlowness><backazimuth><value>217.88227793644785</value></backazimuth><phaseHint>P</phaseHint><evaluationMode>automatic</evaluationMode><comment><text>163.43763767676955</text><id>DFX:rectilinearity</id></comment><comment><text>28.66101545318638</text><id>SNR</id></comment></pick><pick publicID="de.gempa.tb1.Pick/20250412184013.725866.126021"><time><value>2025-04-12T18:39:56.89Z</value></time><waveformID networkCode="CX" stationCode="PSGCX" channelCode="HHN"/><filterID>ITAPER(2)&gt;&gt;BW(3,3,20)</filterID><methodID>L2-AIC-GRID</methodID><horizontalSlowness><value>18.347410476139903</value></horizontalSlowness><backazimuth><value>355.9054042002516</value></backazimuth><phaseHint>S</phaseHint><evaluationMode>automatic</evaluationMode><comment><text>19925.454298226003</text><id>DFX:rectilinearity</id></comment><comment><text>de.gempa.tb1.Pick/20250412183945.552957.126004</text><id>RefPickID</id></comment><comment><text>5.408523861030946</text><id>SNR</id></comment></pick><origin publicID="de.gempa.tb1.Origin/20250412184013.729509.89963"><time><value>2025-04-12T18:39:17.706157Z</value><uncertainty>0.2774176597595215</uncertainty></time><latitude><value>-20.764986038208008</value><uncertainty>1.802379846572876</uncertainty></latitude><longitude><value>-69.84552001953125</value><uncertainty>2.2123537063598633</uncertainty></longitude><depth><value>0</value></depth><depthType>operator assigned</depthType><methodID>LOCSAT</methodID><earthModelID>iasp91_scanloc</earthModelID><quality><associatedPhaseCount>13</associatedPhaseCount><usedPhaseCount>13</usedPhaseCount><associatedStationCount>10</associatedStationCount><usedStationCount>10</usedStationCount><depthPhaseCount>0</depthPhaseCount><standardError>0.7895329017523813</standardError><azimuthalGap>88.27203369140625</azimuthalGap><maximumDistance>2.456270456314087</maximumDistance><minimumDistance>0.2928771674633026</minimumDistance><medianDistance>0.9576735496520996</medianDistance></quality><uncertainty><minHorizontalUncertainty>3.7887065410614014</minHorizontalUncertainty><maxHorizontalUncertainty>4.806005954742432</maxHorizontalUncertainty><azimuthMaxHorizontalUncertainty>105.01275634765625</azimuthMaxHorizontalUncertainty><preferredDescription>horizontal uncertainty</preferredDescription></uncertainty><evaluationMode>automatic</evaluationMode><evaluationStatus>confirmed</evaluationStatus><comment><text>0.11</text><id>mismatchScore</id></comment><comment><text>mismatchScore</text><id>scevalMethod</id></comment><arrival><pickID>de.gempa.tb1.Pick/20250412183928.443934.125993</pickID><phase>P</phase><azimuth>259.03350830078125</azimuth><distance>0.2928771674633026</distance><timeResidual>-0.09411859512329102</timeResidual><timeUsed>true</timeUsed><horizontalSlownessUsed>false</horizontalSlownessUsed><backazimuthUsed>false</backazimuthUsed><weight>1</weight></arrival><arrival><pickID>de.gempa.tb1.Pick/20250412183930.545107.125995</pickID><phase>P</phase><azimuth>129.64825439453125</azimuth><distance>0.43446722626686096</distance><timeResidual>0.09864664077758789</timeResidual><timeUsed>true</timeUsed><horizontalSlownessUsed>false</horizontalSlownessUsed><backazimuthUsed>false</backazimuthUsed><weight>1</weight></arrival><arrival><pickID>de.gempa.tb1.Pick/20250412183934.492855.125997</pickID><phase>S</phase><azimuth>259.03350830078125</azimuth><distance>0.2928771674633026</distance><timeResidual>0.5565242767333984</timeResidual><timeUsed>true</timeUsed><horizontalSlownessUsed>false</horizontalSlownessUsed><backazimuthUsed>false</backazimuthUsed><weight>1</weight></arrival><arrival><pickID>de.gempa.tb1.Pick/20250412183934.590959.125998</pickID><phase>P</phase><azimuth>184.8763427734375</azimuth><distance>0.5539931654930115</distance><timeResidual>-0.4536905288696289</timeResidual><timeUsed>true</timeUsed><horizontalSlownessUsed>false</horizontalSlownessUsed><backazimuthUsed>false</backazimuthUsed><weight>1</weight></arrival><arrival><pickID>de.gempa.tb1.Pick/20250412183941.716139.126000</pickID><phase>P</phase><azimuth>46.3984260559082</azimuth><distance>0.8980474472045898</distance><timeResidual>-0.15451478958129883</timeResidual><timeUsed>true</timeUsed><horizontalSlownessUsed>false</horizontalSlownessUsed><backazimuthUsed>false</backazimuthUsed><weight>1</weight></arrival><arrival><pickID>de.gempa.tb1.Pick/20250412183945.552957.126004</pickID><phase>P</phase><azimuth>347.3055419921875</azimuth><distance>1.1907309293746948</distance><timeResidual>-1.5075526237487793</timeResidual><timeUsed>true</timeUsed><horizontalSlownessUsed>false</horizontalSlownessUsed><backazimuthUsed>false</backazimuthUsed><weight>1</weight></arrival><arrival><pickID>de.gempa.tb1.Pick/20250412183949.089306.126006</pickID><phase>P</phase><azimuth>182.26239013671875</azimuth><distance>0.9576735496520996</distance><timeResidual>-0.9764065742492676</timeResidual><timeUsed>true</timeUsed><horizontalSlownessUsed>false</horizontalSlownessUsed><backazimuthUsed>false</backazimuthUsed><weight>1</weight></arrival><arrival><pickID>de.gempa.tb1.Pick/20250412183950.292795.126008</pickID><phase>P</phase><azimuth>151.3629150390625</azimuth><distance>1.1705392599105835</distance><timeResidual>-0.31773900985717773</timeResidual><timeUsed>true</timeUsed><horizontalSlownessUsed>false</horizontalSlownessUsed><backazimuthUsed>false</backazimuthUsed><weight>1</weight></arrival><arrival><pickID>de.gempa.tb1.Pick/20250412183958.004577.126010</pickID><phase>S</phase><azimuth>46.3984260559082</azimuth><distance>0.8980474472045898</distance><timeResidual>0.20568323135375977</timeResidual><timeUsed>true</timeUsed><horizontalSlownessUsed>false</horizontalSlownessUsed><backazimuthUsed>false</backazimuthUsed><weight>1</weight></arrival><arrival><pickID>de.gempa.tb1.Pick/20250412183959.531528.126013</pickID><phase>P</phase><azimuth>172.54554748535156</azimuth><distance>1.9480396509170532</distance><timeResidual>0.05132341384887695</timeResidual><timeUsed>true</timeUsed><horizontalSlownessUsed>false</horizontalSlownessUsed><backazimuthUsed>false</backazimuthUsed><weight>1</weight></arrival><arrival><pickID>de.gempa.tb1.Pick/20250412184006.631174.126016</pickID><phase>P</phase><azimuth>171.93161010742188</azimuth><distance>2.456270456314087</distance><timeResidual>1.2064061164855957</timeResidual><timeUsed>true</timeUsed><horizontalSlownessUsed>false</horizontalSlownessUsed><backazimuthUsed>false</backazimuthUsed><weight>1</weight></arrival><arrival><pickID>de.gempa.tb1.Pick/20250412184007.474811.126019</pickID><phase>P</phase><azimuth>7.565585136413574</azimuth><distance>2.438138008117676</distance><timeResidual>1.6304211616516113</timeResidual><timeUsed>true</timeUsed><horizontalSlownessUsed>false</horizontalSlownessUsed><backazimuthUsed>false</backazimuthUsed><weight>1</weight></arrival><arrival><pickID>de.gempa.tb1.Pick/20250412184013.725866.126021</pickID><phase>S</phase><azimuth>347.3055419921875</azimuth><distance>1.1907309293746948</distance><timeResidual>-0.24498701095581055</timeResidual><timeUsed>true</timeUsed><horizontalSlownessUsed>false</horizontalSlownessUsed><backazimuthUsed>false</backazimuthUsed><weight>1</weight></arrival><magnitude publicID="de.gempa.tb1.Magnitude/20250412184013.737452.265664"><magnitude><value>2.789820172076507</value></magnitude><type>M</type><methodID>weighted average</methodID><stationCount>8</stationCount></magnitude></origin><event publicID="gempa2025hfzn"><preferredOriginID>de.gempa.tb1.Origin/20250412184013.729509.89963</preferredOriginID><preferredMagnitudeID>de.gempa.tb1.Magnitude/20250412184013.737452.265664</preferredMagnitudeID><description><text>Northern Chile</text><type>region name</type></description><originReference>de.gempa.tb1.Origin/20250412184013.729509.89963</originReference></event></EventParameters></seiscomp>