<?xml version="1.0" encoding="UTF-8"?>
<seiscomp xmlns="http://geofon.gfz-potsdam.de/ns/seiscomp3-schema/0.13" version="0.13"><EventParameters><pick publicID="de.gempa.tb1.Pick/20250413174906.57297.132853"><time><value>2025-04-13T17:49:00.178393Z</value></time><waveformID networkCode="CX" stationCode="PB02" channelCode="HHZ"/><filterID>ITAPER(4)&gt;&gt;BW(4,4,20)</filterID><methodID>AIC</methodID><horizontalSlowness><value>14.184621728790377</value></horizontalSlowness><backazimuth><value>46.58004421637267</value></backazimuth><phaseHint>P</phaseHint><evaluationMode>automatic</evaluationMode><comment><text>93.42219485746956</text><id>DFX:rectilinearity</id></comment><comment><text>70.5537061092375</text><id>SNR</id></comment></pick><pick publicID="de.gempa.tb1.Pick/20250413174909.347225.132855"><time><value>2025-04-13T17:49:02.559999Z</value></time><waveformID networkCode="CX" stationCode="PATCX" channelCode="HHZ"/><filterID>ITAPER(4)&gt;&gt;BW(4,4,20)</filterID><methodID>AIC</methodID><horizontalSlowness><value>18.24436297177023</value></horizontalSlowness><backazimuth><value>243.7043640590888</value></backazimuth><phaseHint>P</phaseHint><evaluationMode>automatic</evaluationMode><comment><text>270.90309062407914</text><id>DFX:rectilinearity</id></comment><comment><text>10.370588514843408</text><id>SNR</id></comment></pick><pick publicID="de.gempa.tb1.Pick/20250413174916.36391.132859"><time><value>2025-04-13T17:49:09.229999Z</value></time><waveformID networkCode="CX" stationCode="PATCX" channelCode="HHN"/><filterID>ITAPER(2)&gt;&gt;BW(3,3,20)</filterID><methodID>L2-AIC-GRID</methodID><horizontalSlowness><value>22.360584010035613</value></horizontalSlowness><backazimuth><value>290.80268759746696</value></backazimuth><phaseHint>S</phaseHint><evaluationMode>automatic</evaluationMode><comment><text>312.891749488575</text><id>DFX:rectilinearity</id></comment><comment><text>de.gempa.tb1.Pick/20250413174909.347225.132855</text><id>RefPickID</id></comment><comment><text>5.999553255104093</text><id>SNR</id></comment></pick><pick publicID="de.gempa.tb1.Pick/20250413174919.523558.132861"><time><value>2025-04-13T17:49:12.468393Z</value></time><waveformID networkCode="CX" stationCode="PB03" channelCode="HHZ"/><filterID>ITAPER(4)&gt;&gt;BW(4,4,20)</filterID><methodID>AIC</methodID><horizontalSlowness><value>0.8825890534510892</value></horizontalSlowness><backazimuth><value>325.74426739647316</value></backazimuth><phaseHint>P</phaseHint><evaluationMode>automatic</evaluationMode><comment><text>7.914056070644223</text><id>DFX:rectilinearity</id></comment><comment><text>12.535668804029527</text><id>SNR</id></comment></pick><pick publicID="de.gempa.tb1.Pick/20250413174920.499357.132863"><time><value>2025-04-13T17:49:11.02Z</value></time><waveformID networkCode="CX" stationCode="PB09" channelCode="HHZ"/><filterID>ITAPER(4)&gt;&gt;BW(4,4,20)</filterID><methodID>AIC</methodID><horizontalSlowness><value>17.436649992130352</value></horizontalSlowness><backazimuth><value>296.5945883908141</value></backazimuth><phaseHint>P</phaseHint><evaluationMode>automatic</evaluationMode><comment><text>11.160405740939442</text><id>DFX:rectilinearity</id></comment><comment><text>7.872517035091375</text><id>SNR</id></comment></pick><pick publicID="de.gempa.tb1.Pick/20250413174928.551009.132866"><time><value>2025-04-13T17:49:20.53Z</value></time><waveformID networkCode="CX" stationCode="PSGCX" channelCode="HHZ"/><filterID>ITAPER(4)&gt;&gt;BW(4,4,20)</filterID><methodID>AIC</methodID><horizontalSlowness><value>6.283169213043123</value></horizontalSlowness><backazimuth><value>79.21088075185598</value></backazimuth><phaseHint>P</phaseHint><evaluationMode>automatic</evaluationMode><comment><text>18.871194303537415</text><id>DFX:rectilinearity</id></comment><comment><text>42.87442500255797</text><id>SNR</id></comment></pick><pick publicID="de.gempa.tb1.Pick/20250413174930.579464.132868"><time><value>2025-04-13T17:49:24.188393Z</value></time><waveformID networkCode="CX" stationCode="PB06" channelCode="HHZ"/><filterID>ITAPER(4)&gt;&gt;BW(4,4,20)</filterID><methodID>AIC</methodID><horizontalSlowness><value>19.246246548834375</value></horizontalSlowness><backazimuth><value>305.11644916207706</value></backazimuth><phaseHint>P</phaseHint><evaluationMode>automatic</evaluationMode><comment><text>157.9681756351522</text><id>DFX:rectilinearity</id></comment><comment><text>6.894187828859038</text><id>SNR</id></comment></pick><pick publicID="de.gempa.tb1.Pick/20250413174955.594883.132877"><time><value>2025-04-13T17:49:46.168393Z</value></time><waveformID networkCode="CX" stationCode="PB06" channelCode="HHN"/><filterID>ITAPER(2)&gt;&gt;BW(3,3,20)</filterID><methodID>L2-AIC-GRID</methodID><horizontalSlowness><value>22.057349121060152</value></horizontalSlowness><backazimuth><value>176.2683463694985</value></backazimuth><phaseHint>S</phaseHint><evaluationMode>automatic</evaluationMode><comment><text>28.318993297587387</text><id>DFX:rectilinearity</id></comment><comment><text>de.gempa.tb1.Pick/20250413174930.579464.132868</text><id>RefPickID</id></comment><comment><text>5.01765620185598</text><id>SNR</id></comment></pick><origin publicID="de.gempa.tb1.Origin/20250413174955.598595.116415"><time><value>2025-04-13T17:48:53.712013Z</value><uncertainty>0.6784020662307739</uncertainty></time><latitude><value>-21.030305862426758</value><uncertainty>3.784754514694214</uncertainty></latitude><longitude><value>-69.71483612060547</value><uncertainty>5.390867710113525</uncertainty></longitude><depth><value>5.50670862197876</value><uncertainty>4.862011432647705</uncertainty></depth><depthType>from location</depthType><methodID>LOCSAT</methodID><earthModelID>iasp91_scanloc</earthModelID><quality><associatedPhaseCount>8</associatedPhaseCount><usedPhaseCount>8</usedPhaseCount><associatedStationCount>6</associatedStationCount><usedStationCount>6</usedStationCount><depthPhaseCount>0</depthPhaseCount><standardError>0.38860545067751356</standardError><azimuthalGap>165.1659393310547</azimuthalGap><maximumDistance>1.672643780708313</maximumDistance><minimumDistance>0.3339664936065674</minimumDistance><medianDistance>1.0137962102890015</medianDistance></quality><uncertainty><minHorizontalUncertainty>5.071367263793945</minHorizontalUncertainty><maxHorizontalUncertainty>13.183517456054688</maxHorizontalUncertainty><azimuthMaxHorizontalUncertainty>58.61812973022461</azimuthMaxHorizontalUncertainty><preferredDescription>horizontal uncertainty</preferredDescription></uncertainty><evaluationMode>automatic</evaluationMode><evaluationStatus>confirmed</evaluationStatus><comment><text>0.38</text><id>mismatchScore</id></comment><comment><text>mismatchScore</text><id>scevalMethod</id></comment><arrival><pickID>de.gempa.tb1.Pick/20250413174906.57297.132853</pickID><phase>P</phase><azimuth>210.38853454589844</azimuth><distance>0.3339664936065674</distance><timeResidual>-0.008640766143798828</timeResidual><timeUsed>true</timeUsed><horizontalSlownessUsed>false</horizontalSlownessUsed><backazimuthUsed>false</backazimuthUsed><weight>1</weight></arrival><arrival><pickID>de.gempa.tb1.Pick/20250413174909.347225.132855</pickID><phase>P</phase><azimuth>296.9107666015625</azimuth><distance>0.4595454037189484</distance><timeResidual>-0.01667642593383789</timeResidual><timeUsed>true</timeUsed><horizontalSlownessUsed>false</horizontalSlownessUsed><backazimuthUsed>false</backazimuthUsed><weight>1</weight></arrival><arrival><pickID>de.gempa.tb1.Pick/20250413174916.36391.132859</pickID><phase>S</phase><azimuth>296.9107666015625</azimuth><distance>0.4595454037189484</distance><timeResidual>0.21732282638549805</timeResidual><timeUsed>true</timeUsed><horizontalSlownessUsed>false</horizontalSlownessUsed><backazimuthUsed>false</backazimuthUsed><weight>1</weight></arrival><arrival><pickID>de.gempa.tb1.Pick/20250413174919.523558.132861</pickID><phase>P</phase><azimuth>182.0066375732422</azimuth><distance>1.0137962102890015</distance><timeResidual>-0.705294132232666</timeResidual><timeUsed>true</timeUsed><horizontalSlownessUsed>false</horizontalSlownessUsed><backazimuthUsed>false</backazimuthUsed><weight>1</weight></arrival><arrival><pickID>de.gempa.tb1.Pick/20250413174920.499357.132863</pickID><phase>P</phase><azimuth>150.0546112060547</azimuth><distance>0.880500853061676</distance><timeResidual>0.3987898826599121</timeResidual><timeUsed>true</timeUsed><horizontalSlownessUsed>false</horizontalSlownessUsed><backazimuthUsed>false</backazimuthUsed><weight>1</weight></arrival><arrival><pickID>de.gempa.tb1.Pick/20250413174928.551009.132866</pickID><phase>P</phase><azimuth>344.888671875</azimuth><distance>1.476409673690796</distance><timeResidual>-0.3646407127380371</timeResidual><timeUsed>true</timeUsed><horizontalSlownessUsed>false</horizontalSlownessUsed><backazimuthUsed>false</backazimuthUsed><weight>1</weight></arrival><arrival><pickID>de.gempa.tb1.Pick/20250413174930.579464.132868</pickID><phase>P</phase><azimuth>175.47265625</azimuth><distance>1.672643780708313</distance><timeResidual>0.5975708961486816</timeResidual><timeUsed>true</timeUsed><horizontalSlownessUsed>false</horizontalSlownessUsed><backazimuthUsed>false</backazimuthUsed><weight>1</weight></arrival><arrival><pickID>de.gempa.tb1.Pick/20250413174955.594883.132877</pickID><phase>S</phase><azimuth>175.47265625</azimuth><distance>1.672643780708313</distance><timeResidual>-0.11834096908569336</timeResidual><timeUsed>true</timeUsed><horizontalSlownessUsed>false</horizontalSlownessUsed><backazimuthUsed>false</backazimuthUsed><weight>1</weight></arrival><magnitude publicID="de.gempa.tb1.Magnitude/20250413174955.873584.385007"><magnitude><value>2.101850907707825</value></magnitude><type>M</type><methodID>weighted average</methodID><stationCount>6</stationCount></magnitude></origin><event publicID="gempa2025hhtw"><preferredOriginID>de.gempa.tb1.Origin/20250413174955.598595.116415</preferredOriginID><preferredMagnitudeID>de.gempa.tb1.Magnitude/20250413174955.873584.385007</preferredMagnitudeID><description><text>Northern Chile</text><type>region name</type></description><originReference>de.gempa.tb1.Origin/20250413174955.598595.116415</originReference></event></EventParameters></seiscomp>