<?xml version="1.0" encoding="UTF-8"?>
<seiscomp xmlns="http://geofon.gfz-potsdam.de/ns/seiscomp3-schema/0.13" version="0.13"><EventParameters><pick publicID="de.gempa.tb1.Pick/20250412210352.580205.126747"><time><value>2025-04-12T21:03:46.118393Z</value></time><waveformID networkCode="CX" stationCode="PB01" channelCode="HHZ"/><filterID>ITAPER(4)&gt;&gt;BW(4,4,20)</filterID><methodID>AIC</methodID><horizontalSlowness><value>16.085886424760336</value></horizontalSlowness><backazimuth><value>106.07373901643913</value></backazimuth><phaseHint>P</phaseHint><evaluationMode>automatic</evaluationMode><comment><text>25.51452102077002</text><id>DFX:rectilinearity</id></comment><comment><text>9.019629247164072</text><id>SNR</id></comment></pick><pick publicID="de.gempa.tb1.Pick/20250412210357.583111.126749"><time><value>2025-04-12T21:03:50.548393Z</value></time><waveformID networkCode="CX" stationCode="PB01" channelCode="HHN"/><filterID>ITAPER(2)&gt;&gt;BW(3,3,20)</filterID><methodID>L2-AIC-GRID</methodID><horizontalSlowness><value>18.86945668956588</value></horizontalSlowness><backazimuth><value>95.05563316945644</value></backazimuth><phaseHint>S</phaseHint><evaluationMode>automatic</evaluationMode><comment><text>102.66642935850729</text><id>DFX:rectilinearity</id></comment><comment><text>de.gempa.tb1.Pick/20250412210352.580205.126747</text><id>RefPickID</id></comment><comment><text>9.047088114245451</text><id>SNR</id></comment></pick><pick publicID="de.gempa.tb1.Pick/20250412210400.505454.126750"><time><value>2025-04-12T21:03:53.958393Z</value></time><waveformID networkCode="CX" stationCode="PB02" channelCode="HHZ"/><filterID>ITAPER(4)&gt;&gt;BW(4,4,20)</filterID><methodID>AIC</methodID><horizontalSlowness><value>14.594045884046</value></horizontalSlowness><backazimuth><value>64.61351946785834</value></backazimuth><phaseHint>P</phaseHint><evaluationMode>automatic</evaluationMode><comment><text>141.89064689581187</text><id>DFX:rectilinearity</id></comment><comment><text>13.531912026356656</text><id>SNR</id></comment></pick><pick publicID="de.gempa.tb1.Pick/20250412210402.694688.126752"><time><value>2025-04-12T21:03:55.53Z</value></time><waveformID networkCode="CX" stationCode="PB09" channelCode="HHZ"/><filterID>ITAPER(4)&gt;&gt;BW(4,4,20)</filterID><methodID>AIC</methodID><horizontalSlowness><value>14.979003439929542</value></horizontalSlowness><backazimuth><value>279.85801705216403</value></backazimuth><phaseHint>P</phaseHint><evaluationMode>automatic</evaluationMode><comment><text>33.83192673585191</text><id>DFX:rectilinearity</id></comment><comment><text>28.469956403647704</text><id>SNR</id></comment></pick><pick publicID="de.gempa.tb1.Pick/20250412210404.106562.126754"><time><value>2025-04-12T21:03:57.108393Z</value></time><waveformID networkCode="CX" stationCode="PB07" channelCode="HHZ"/><filterID>ITAPER(4)&gt;&gt;BW(4,4,20)</filterID><methodID>AIC</methodID><horizontalSlowness><value>23.12101209073454</value></horizontalSlowness><backazimuth><value>266.56982796178784</value></backazimuth><phaseHint>P</phaseHint><evaluationMode>automatic</evaluationMode><comment><text>273.11733553631376</text><id>DFX:rectilinearity</id></comment><comment><text>14.03861622811818</text><id>SNR</id></comment></pick><pick publicID="de.gempa.tb1.Pick/20250412210406.514677.126756"><time><value>2025-04-12T21:03:57.968393Z</value></time><waveformID networkCode="CX" stationCode="PB02" channelCode="HHN"/><filterID>ITAPER(2)&gt;&gt;BW(3,3,20)</filterID><methodID>L2-AIC-GRID</methodID><horizontalSlowness><value>12.907887309032523</value></horizontalSlowness><backazimuth><value>50.40762802013256</value></backazimuth><phaseHint>S</phaseHint><evaluationMode>automatic</evaluationMode><comment><text>443.06911655944043</text><id>DFX:rectilinearity</id></comment><comment><text>de.gempa.tb1.Pick/20250412210400.505454.126750</text><id>RefPickID</id></comment><comment><text>18.915746206274633</text><id>SNR</id></comment></pick><pick publicID="de.gempa.tb1.Pick/20250412210409.558391.126757"><time><value>2025-04-12T21:04:03.568393Z</value></time><waveformID networkCode="CX" stationCode="PB03" channelCode="HHZ"/><filterID>ITAPER(4)&gt;&gt;BW(4,4,20)</filterID><methodID>AIC</methodID><horizontalSlowness><value>21.488966056775254</value></horizontalSlowness><backazimuth><value>54.97298181824678</value></backazimuth><phaseHint>P</phaseHint><evaluationMode>automatic</evaluationMode><comment><text>11.99492091428168</text><id>DFX:rectilinearity</id></comment><comment><text>14.07522073980749</text><id>SNR</id></comment></pick><pick publicID="de.gempa.tb1.Pick/20250412210422.545929.126764"><time><value>2025-04-12T21:04:13.198394Z</value></time><waveformID networkCode="CX" stationCode="PB06" channelCode="HHZ"/><filterID>ITAPER(4)&gt;&gt;BW(4,4,20)</filterID><methodID>AIC</methodID><horizontalSlowness><value>15.304586000718684</value></horizontalSlowness><backazimuth><value>116.9111588995449</value></backazimuth><phaseHint>P</phaseHint><evaluationMode>automatic</evaluationMode><comment><text>40.825886602482804</text><id>DFX:rectilinearity</id></comment><comment><text>18.93336931791324</text><id>SNR</id></comment></pick><pick publicID="de.gempa.tb1.Pick/20250412210427.623993.126768"><time><value>2025-04-12T21:04:21.968393Z</value></time><waveformID networkCode="CX" stationCode="PB15" channelCode="HHZ"/><filterID>ITAPER(4)&gt;&gt;BW(4,4,20)</filterID><methodID>AIC</methodID><horizontalSlowness><value>19.36577835391081</value></horizontalSlowness><backazimuth><value>58.88904870099364</value></backazimuth><phaseHint>P</phaseHint><evaluationMode>automatic</evaluationMode><comment><text>1403.165957464904</text><id>DFX:rectilinearity</id></comment><comment><text>9.302744911018891</text><id>SNR</id></comment></pick><pick publicID="de.gempa.tb1.Pick/20250412210437.51619.126770"><time><value>2025-04-12T21:04:30.158393Z</value></time><waveformID networkCode="CX" stationCode="PB16" channelCode="HHZ"/><filterID>ITAPER(4)&gt;&gt;BW(4,4,20)</filterID><methodID>AIC</methodID><horizontalSlowness><value>11.052897735635337</value></horizontalSlowness><backazimuth><value>214.73083855516865</value></backazimuth><phaseHint>P</phaseHint><evaluationMode>automatic</evaluationMode><comment><text>15.739585623756163</text><id>DFX:rectilinearity</id></comment><comment><text>11.530324193196817</text><id>SNR</id></comment></pick><origin publicID="de.gempa.tb1.Origin/20250412210437.519676.92326"><time><value>2025-04-12T21:03:44.735759Z</value><uncertainty>0.3882977068424225</uncertainty></time><latitude><value>-21.176902770996094</value><uncertainty>2.0561187267303467</uncertainty></latitude><longitude><value>-69.45984649658203</value><uncertainty>3.458232879638672</uncertainty></longitude><depth><value>0</value></depth><depthType>operator assigned</depthType><methodID>LOCSAT</methodID><earthModelID>iasp91_scanloc</earthModelID><quality><associatedPhaseCount>10</associatedPhaseCount><usedPhaseCount>10</usedPhaseCount><associatedStationCount>8</associatedStationCount><usedStationCount>8</usedStationCount><depthPhaseCount>0</depthPhaseCount><standardError>1.2190687365124566</standardError><azimuthalGap>162.73614501953125</azimuthalGap><maximumDistance>2.8274528980255127</maximumDistance><minimumDistance>0.1354726105928421</minimumDistance><medianDistance>0.6760212779045105</medianDistance></quality><uncertainty><minHorizontalUncertainty>4.3903560638427734</minHorizontalUncertainty><maxHorizontalUncertainty>7.432716846466064</maxHorizontalUncertainty><azimuthMaxHorizontalUncertainty>94.141357421875</azimuthMaxHorizontalUncertainty><preferredDescription>horizontal uncertainty</preferredDescription></uncertainty><evaluationMode>automatic</evaluationMode><evaluationStatus>confirmed</evaluationStatus><comment><text>0.25</text><id>mismatchScore</id></comment><comment><text>mismatchScore</text><id>scevalMethod</id></comment><arrival><pickID>de.gempa.tb1.Pick/20250412210352.580205.126747</pickID><phase>P</phase><azimuth>349.0494384765625</azimuth><distance>0.1354726105928421</distance><timeResidual>-1.2162153720855713</timeResidual><timeUsed>true</timeUsed><horizontalSlownessUsed>false</horizontalSlownessUsed><backazimuthUsed>false</backazimuthUsed><weight>1</weight></arrival><arrival><pickID>de.gempa.tb1.Pick/20250412210357.583111.126749</pickID><phase>S</phase><azimuth>349.0494384765625</azimuth><distance>0.1354726105928421</distance><timeResidual>1.326779842376709</timeResidual><timeUsed>true</timeUsed><horizontalSlownessUsed>false</horizontalSlownessUsed><backazimuthUsed>false</backazimuthUsed><weight>1</weight></arrival><arrival><pickID>de.gempa.tb1.Pick/20250412210400.505454.126750</pickID><phase>P</phase><azimuth>250.6676940917969</azimuth><distance>0.4309910237789154</distance><timeResidual>0.9556822776794434</timeResidual><timeUsed>true</timeUsed><horizontalSlownessUsed>false</horizontalSlownessUsed><backazimuthUsed>false</backazimuthUsed><weight>1</weight></arrival><arrival><pickID>de.gempa.tb1.Pick/20250412210402.694688.126752</pickID><phase>P</phase><azimuth>161.81527709960938</azimuth><distance>0.6489859223365784</distance><timeResidual>-1.6535086631774902</timeResidual><timeUsed>true</timeUsed><horizontalSlownessUsed>false</horizontalSlownessUsed><backazimuthUsed>false</backazimuthUsed><weight>1</weight></arrival><arrival><pickID>de.gempa.tb1.Pick/20250412210404.106562.126754</pickID><phase>P</phase><azimuth>215.90127563476562</azimuth><distance>0.6760212779045105</distance><timeResidual>-0.5937600135803223</timeResidual><timeUsed>true</timeUsed><horizontalSlownessUsed>false</horizontalSlownessUsed><backazimuthUsed>false</backazimuthUsed><weight>1</weight></arrival><arrival><pickID>de.gempa.tb1.Pick/20250412210406.514677.126756</pickID><phase>S</phase><azimuth>250.6676940917969</azimuth><distance>0.4309910237789154</distance><timeResidual>-1.0373187065124512</timeResidual><timeUsed>true</timeUsed><horizontalSlownessUsed>false</horizontalSlownessUsed><backazimuthUsed>false</backazimuthUsed><weight>1</weight></arrival><arrival><pickID>de.gempa.tb1.Pick/20250412210409.558391.126757</pickID><phase>P</phase><azimuth>197.4117431640625</azimuth><distance>0.9092168807983398</distance><timeResidual>1.3936009407043457</timeResidual><timeUsed>true</timeUsed><horizontalSlownessUsed>false</horizontalSlownessUsed><backazimuthUsed>false</backazimuthUsed><weight>1</weight></arrival><arrival><pickID>de.gempa.tb1.Pick/20250412210422.545929.126764</pickID><phase>P</phase><azimuth>183.8900604248047</azimuth><distance>1.5250474214553833</distance><timeResidual>-0.04606962203979492</timeResidual><timeUsed>true</timeUsed><horizontalSlownessUsed>false</horizontalSlownessUsed><backazimuthUsed>false</backazimuthUsed><weight>1</weight></arrival><arrival><pickID>de.gempa.tb1.Pick/20250412210427.623993.126768</pickID><phase>P</phase><azimuth>180.28871154785156</azimuth><distance>2.0217106342315674</distance><timeResidual>1.8883557319641113</timeResidual><timeUsed>true</timeUsed><horizontalSlownessUsed>false</horizontalSlownessUsed><backazimuthUsed>false</backazimuthUsed><weight>1</weight></arrival><arrival><pickID>de.gempa.tb1.Pick/20250412210437.51619.126770</pickID><phase>P</phase><azimuth>359.0791320800781</azimuth><distance>2.8274528980255127</distance><timeResidual>-1.01765775680542</timeResidual><timeUsed>true</timeUsed><horizontalSlownessUsed>false</horizontalSlownessUsed><backazimuthUsed>false</backazimuthUsed><weight>1</weight></arrival><magnitude publicID="de.gempa.tb1.Magnitude/20250412210437.524956.283102"><magnitude><value>2.335189607359344</value></magnitude><type>M</type><methodID>weighted average</methodID><stationCount>7</stationCount></magnitude></origin><event publicID="gempa2025hgej"><preferredOriginID>de.gempa.tb1.Origin/20250412210437.519676.92326</preferredOriginID><preferredMagnitudeID>de.gempa.tb1.Magnitude/20250412210437.524956.283102</preferredMagnitudeID><description><text>Northern Chile</text><type>region name</type></description><originReference>de.gempa.tb1.Origin/20250412210437.519676.92326</originReference></event></EventParameters></seiscomp>