<?xml version="1.0" encoding="UTF-8"?>
<seiscomp xmlns="http://geofon.gfz-potsdam.de/ns/seiscomp3-schema/0.13" version="0.13"><EventParameters><pick publicID="de.gempa.tb1.Pick/20250412105511.485149.123502"><time><value>2025-04-12T10:55:06.908393Z</value></time><waveformID networkCode="CX" stationCode="PB02" channelCode="HHZ"/><filterID>ITAPER(4)&gt;&gt;BW(4,4,20)</filterID><methodID>AIC</methodID><horizontalSlowness><value>3.838481514785344</value></horizontalSlowness><backazimuth><value>304.10678147276377</value></backazimuth><phaseHint>P</phaseHint><evaluationMode>automatic</evaluationMode><comment><text>42.13671277375454</text><id>DFX:rectilinearity</id></comment><comment><text>12.267863895753614</text><id>SNR</id></comment></pick><pick publicID="de.gempa.tb1.Pick/20250412105512.573452.123504"><time><value>2025-04-12T10:55:02.798393Z</value></time><waveformID networkCode="CX" stationCode="PB01" channelCode="HHZ"/><filterID>ITAPER(4)&gt;&gt;BW(4,4,20)</filterID><methodID>AIC</methodID><horizontalSlowness><value>19.201202383241242</value></horizontalSlowness><backazimuth><value>208.5253630569386</value></backazimuth><phaseHint>P</phaseHint><evaluationMode>automatic</evaluationMode><comment><text>14.193948830736792</text><id>DFX:rectilinearity</id></comment><comment><text>7.935721848625928</text><id>SNR</id></comment></pick><pick publicID="de.gempa.tb1.Pick/20250412105523.775677.123506"><time><value>2025-04-12T10:55:07.868397Z</value></time><waveformID networkCode="CX" stationCode="PB07" channelCode="HHZ"/><filterID>ITAPER(4)&gt;&gt;BW(4,4,20)</filterID><methodID>AIC</methodID><horizontalSlowness><value>23.313115571931185</value></horizontalSlowness><backazimuth><value>81.88041582423573</value></backazimuth><phaseHint>P</phaseHint><evaluationMode>automatic</evaluationMode><comment><text>233.3567538709594</text><id>DFX:rectilinearity</id></comment><comment><text>13.476148637918703</text><id>SNR</id></comment></pick><pick publicID="de.gempa.tb1.Pick/20250412105529.584351.123508"><time><value>2025-04-12T10:55:20.038393Z</value></time><waveformID networkCode="CX" stationCode="PB01" channelCode="HHN"/><filterID>ITAPER(2)&gt;&gt;BW(3,3,20)</filterID><methodID>L2-AIC-GRID</methodID><horizontalSlowness><value>20.824924273634057</value></horizontalSlowness><backazimuth><value>198.9677874341054</value></backazimuth><phaseHint>S</phaseHint><evaluationMode>automatic</evaluationMode><comment><text>13.325574014011838</text><id>DFX:rectilinearity</id></comment><comment><text>de.gempa.tb1.Pick/20250412105512.573452.123504</text><id>RefPickID</id></comment><comment><text>6.823962911411549</text><id>SNR</id></comment></pick><pick publicID="de.gempa.tb1.Pick/20250412105535.513128.123509"><time><value>2025-04-12T10:55:27.618393Z</value></time><waveformID networkCode="CX" stationCode="PB02" channelCode="HHN"/><filterID>ITAPER(2)&gt;&gt;BW(3,3,20)</filterID><methodID>L2-AIC-GRID</methodID><horizontalSlowness><value>13.388326814197745</value></horizontalSlowness><backazimuth><value>297.04061021264113</value></backazimuth><phaseHint>S</phaseHint><evaluationMode>automatic</evaluationMode><comment><text>42.69546552715712</text><id>DFX:rectilinearity</id></comment><comment><text>de.gempa.tb1.Pick/20250412105511.485149.123502</text><id>RefPickID</id></comment><comment><text>5.410202364130408</text><id>SNR</id></comment></pick><pick publicID="de.gempa.tb1.Pick/20250412105541.77404.123512"><time><value>2025-04-12T10:55:29.598397Z</value></time><waveformID networkCode="CX" stationCode="PB07" channelCode="HHN"/><filterID>ITAPER(2)&gt;&gt;BW(3,3,20)</filterID><methodID>L2-AIC-GRID</methodID><horizontalSlowness><value>22.84378754580739</value></horizontalSlowness><backazimuth><value>86.11733240885417</value></backazimuth><phaseHint>S</phaseHint><evaluationMode>automatic</evaluationMode><comment><text>255.4142996084279</text><id>DFX:rectilinearity</id></comment><comment><text>de.gempa.tb1.Pick/20250412105523.775677.123506</text><id>RefPickID</id></comment><comment><text>6.6389330759694</text><id>SNR</id></comment></pick><origin publicID="de.gempa.tb1.Origin/20250412105541.77696.81133"><time><value>2025-04-12T10:54:40.186756Z</value><uncertainty>1.4951071739196777</uncertainty></time><latitude><value>-21.141206741333008</value><uncertainty>23.69415855407715</uncertainty></latitude><longitude><value>-68.35869598388672</value><uncertainty>32.43547821044922</uncertainty></longitude><depth><value>118.18697357177734</value><uncertainty>40.597328186035156</uncertainty></depth><depthType>from location</depthType><methodID>LOCSAT</methodID><earthModelID>iasp91_scanloc</earthModelID><quality><associatedPhaseCount>6</associatedPhaseCount><usedPhaseCount>6</usedPhaseCount><associatedStationCount>3</associatedStationCount><usedStationCount>3</usedStationCount><depthPhaseCount>0</depthPhaseCount><standardError>0.070775872626221</standardError><azimuthalGap>332.37847900390625</azimuthalGap><maximumDistance>1.5377246141433716</maximumDistance><minimumDistance>1.0584878921508789</minimumDistance><medianDistance>1.445202112197876</medianDistance></quality><uncertainty><minHorizontalUncertainty>25.089494705200195</minHorizontalUncertainty><maxHorizontalUncertainty>82.4088134765625</maxHorizontalUncertainty><azimuthMaxHorizontalUncertainty>124.2584686279297</azimuthMaxHorizontalUncertainty><preferredDescription>horizontal uncertainty</preferredDescription></uncertainty><evaluationMode>automatic</evaluationMode><comment><text>0.62</text><id>mismatchScore</id></comment><arrival><pickID>de.gempa.tb1.Pick/20250412105511.485149.123502</pickID><phase>P</phase><azimuth>262.6632385253906</azimuth><distance>1.445202112197876</distance><timeResidual>0.00290679931640625</timeResidual><timeUsed>true</timeUsed><horizontalSlownessUsed>false</horizontalSlownessUsed><backazimuthUsed>false</backazimuthUsed><weight>1</weight></arrival><arrival><pickID>de.gempa.tb1.Pick/20250412105512.573452.123504</pickID><phase>P</phase><azimuth>275.08245849609375</azimuth><distance>1.0584878921508789</distance><timeResidual>0.10558319091796875</timeResidual><timeUsed>true</timeUsed><horizontalSlownessUsed>false</horizontalSlownessUsed><backazimuthUsed>false</backazimuthUsed><weight>1</weight></arrival><arrival><pickID>de.gempa.tb1.Pick/20250412105523.775677.123506</pickID><phase>P</phase><azimuth>247.4609375</azimuth><distance>1.5377246141433716</distance><timeResidual>-0.10838127136230469</timeResidual><timeUsed>true</timeUsed><horizontalSlownessUsed>false</horizontalSlownessUsed><backazimuthUsed>false</backazimuthUsed><weight>1</weight></arrival><arrival><pickID>de.gempa.tb1.Pick/20250412105529.584351.123508</pickID><phase>S</phase><azimuth>275.08245849609375</azimuth><distance>1.0584878921508789</distance><timeResidual>-0.05837821960449219</timeResidual><timeUsed>true</timeUsed><horizontalSlownessUsed>false</horizontalSlownessUsed><backazimuthUsed>false</backazimuthUsed><weight>1</weight></arrival><arrival><pickID>de.gempa.tb1.Pick/20250412105535.513128.123509</pickID><phase>S</phase><azimuth>262.6632385253906</azimuth><distance>1.445202112197876</distance><timeResidual>-0.002925872802734375</timeResidual><timeUsed>true</timeUsed><horizontalSlownessUsed>false</horizontalSlownessUsed><backazimuthUsed>false</backazimuthUsed><weight>1</weight></arrival><arrival><pickID>de.gempa.tb1.Pick/20250412105541.77404.123512</pickID><phase>S</phase><azimuth>247.4609375</azimuth><distance>1.5377246141433716</distance><timeResidual>0.06112289428710938</timeResidual><timeUsed>true</timeUsed><horizontalSlownessUsed>false</horizontalSlownessUsed><backazimuthUsed>false</backazimuthUsed><weight>1</weight></arrival></origin><event publicID="gempa2025hfkb"><preferredOriginID>de.gempa.tb1.Origin/20250412105541.77696.81133</preferredOriginID><description><text>Chile-Bolivia Border Region</text><type>region name</type></description><originReference>de.gempa.tb1.Origin/20250412105541.77696.81133</originReference></event></EventParameters></seiscomp>