<?xml version="1.0" encoding="UTF-8"?>
<seiscomp xmlns="http://geofon.gfz-potsdam.de/ns/seiscomp3-schema/0.13" version="0.13"><EventParameters><pick publicID="de.gempa.tb1.Pick/20250414223700.558701.141828"><time><value>2025-04-14T22:36:54.638393Z</value></time><waveformID networkCode="CX" stationCode="PB01" channelCode="HHZ"/><filterID>ITAPER(4)&gt;&gt;BW(4,4,20)</filterID><methodID>AIC</methodID><horizontalSlowness><value>18.62785263170754</value></horizontalSlowness><backazimuth><value>21.00906928782905</value></backazimuth><phaseHint>P</phaseHint><evaluationMode>automatic</evaluationMode><comment><text>18.661462344573241</text><id>DFX:rectilinearity</id></comment><comment><text>55.93328801602086</text><id>SNR</id></comment></pick><pick publicID="de.gempa.tb1.Pick/20250414223706.413256.141830"><time><value>2025-04-14T22:37:01.128393Z</value></time><waveformID networkCode="CX" stationCode="PB03" channelCode="HHZ"/><filterID>ITAPER(4)&gt;&gt;BW(4,4,20)</filterID><methodID>AIC</methodID><horizontalSlowness><value>14.06684787756185</value></horizontalSlowness><backazimuth><value>245.24999183623265</value></backazimuth><phaseHint>P</phaseHint><evaluationMode>automatic</evaluationMode><comment><text>7.792037089423705</text><id>DFX:rectilinearity</id></comment><comment><text>12.88040899437402</text><id>SNR</id></comment></pick><pick publicID="de.gempa.tb1.Pick/20250414223706.654345.141832"><time><value>2025-04-14T22:36:58.218393Z</value></time><waveformID networkCode="CX" stationCode="PB02" channelCode="HHZ"/><filterID>ITAPER(4)&gt;&gt;BW(4,4,20)</filterID><methodID>AIC</methodID><horizontalSlowness><value>6.934640550723077</value></horizontalSlowness><backazimuth><value>76.7788886411447</value></backazimuth><phaseHint>P</phaseHint><evaluationMode>automatic</evaluationMode><comment><text>51.7380032288034</text><id>DFX:rectilinearity</id></comment><comment><text>19.466382782117016</text><id>SNR</id></comment></pick><pick publicID="de.gempa.tb1.Pick/20250414223708.265943.141834"><time><value>2025-04-14T22:37:01.089999Z</value></time><waveformID networkCode="CX" stationCode="PATCX" channelCode="HHZ"/><filterID>ITAPER(4)&gt;&gt;BW(4,4,20)</filterID><methodID>AIC</methodID><horizontalSlowness><value>19.158854724995848</value></horizontalSlowness><backazimuth><value>251.2231347840103</value></backazimuth><phaseHint>P</phaseHint><evaluationMode>automatic</evaluationMode><comment><text>279.95835962123874</text><id>DFX:rectilinearity</id></comment><comment><text>9.874822970892856</text><id>SNR</id></comment></pick><pick publicID="de.gempa.tb1.Pick/20250414223708.318528.141836"><time><value>2025-04-14T22:36:57.54Z</value></time><waveformID networkCode="CX" stationCode="PB09" channelCode="HHZ"/><filterID>ITAPER(4)&gt;&gt;BW(4,4,20)</filterID><methodID>AIC</methodID><horizontalSlowness><value>13.670254093523427</value></horizontalSlowness><backazimuth><value>276.26176559691294</value></backazimuth><phaseHint>P</phaseHint><evaluationMode>automatic</evaluationMode><comment><text>11.69211547297853</text><id>DFX:rectilinearity</id></comment><comment><text>24.759238495250234</text><id>SNR</id></comment></pick><pick publicID="de.gempa.tb1.Pick/20250414223714.385616.141838"><time><value>2025-04-14T22:36:59.768396Z</value></time><waveformID networkCode="CX" stationCode="PB07" channelCode="HHZ"/><filterID>ITAPER(4)&gt;&gt;BW(4,4,20)</filterID><methodID>AIC</methodID><horizontalSlowness><value>23.29327378294928</value></horizontalSlowness><backazimuth><value>75.35906539631168</value></backazimuth><phaseHint>P</phaseHint><evaluationMode>automatic</evaluationMode><comment><text>186.96684527490046</text><id>DFX:rectilinearity</id></comment><comment><text>21.41643122516092</text><id>SNR</id></comment></pick><pick publicID="de.gempa.tb1.Pick/20250414223714.785774.141840"><time><value>2025-04-14T22:37:07.498393Z</value></time><waveformID networkCode="CX" stationCode="PB01" channelCode="HHN"/><filterID>ITAPER(2)&gt;&gt;BW(3,3,20)</filterID><methodID>L2-AIC-GRID</methodID><horizontalSlowness><value>21.992554009646348</value></horizontalSlowness><backazimuth><value>262.3716313788453</value></backazimuth><phaseHint>S</phaseHint><evaluationMode>automatic</evaluationMode><comment><text>267.54829401836184</text><id>DFX:rectilinearity</id></comment><comment><text>de.gempa.tb1.Pick/20250414223700.558701.141828</text><id>RefPickID</id></comment><comment><text>13.02501297022392</text><id>SNR</id></comment></pick><pick publicID="de.gempa.tb1.Pick/20250414223717.573917.141841"><time><value>2025-04-14T22:37:08.5Z</value></time><waveformID networkCode="CX" stationCode="PSGCX" channelCode="HHZ"/><filterID>ITAPER(4)&gt;&gt;BW(4,4,20)</filterID><methodID>AIC</methodID><horizontalSlowness><value>18.043160560671478</value></horizontalSlowness><backazimuth><value>81.72549806865871</value></backazimuth><phaseHint>P</phaseHint><evaluationMode>automatic</evaluationMode><comment><text>15.135221939878</text><id>DFX:rectilinearity</id></comment><comment><text>10.624641291611134</text><id>SNR</id></comment></pick><pick publicID="de.gempa.tb1.Pick/20250414223720.542565.141843"><time><value>2025-04-14T22:37:13.818393Z</value></time><waveformID networkCode="CX" stationCode="PB02" channelCode="HHN"/><filterID>ITAPER(2)&gt;&gt;BW(3,3,20)</filterID><methodID>L2-AIC-GRID</methodID><horizontalSlowness><value>17.257093291334872</value></horizontalSlowness><backazimuth><value>282.7994383679246</value></backazimuth><phaseHint>S</phaseHint><evaluationMode>automatic</evaluationMode><comment><text>295.8013036054648</text><id>DFX:rectilinearity</id></comment><comment><text>de.gempa.tb1.Pick/20250414223706.654345.141832</text><id>RefPickID</id></comment><comment><text>5.485810413771671</text><id>SNR</id></comment></pick><pick publicID="de.gempa.tb1.Pick/20250414223727.458095.141846"><time><value>2025-04-14T22:37:18.179999Z</value></time><waveformID networkCode="CX" stationCode="PATCX" channelCode="HHN"/><filterID>ITAPER(2)&gt;&gt;BW(3,3,20)</filterID><methodID>L2-AIC-GRID</methodID><horizontalSlowness><value>23.24209255393186</value></horizontalSlowness><backazimuth><value>140.4131230193539</value></backazimuth><phaseHint>S</phaseHint><evaluationMode>automatic</evaluationMode><comment><text>201.33620952118872</text><id>DFX:rectilinearity</id></comment><comment><text>de.gempa.tb1.Pick/20250414223708.265943.141834</text><id>RefPickID</id></comment><comment><text>10.718971604997961</text><id>SNR</id></comment></pick><pick publicID="de.gempa.tb1.Pick/20250414223733.51338.141849"><time><value>2025-04-14T22:37:18.348393Z</value></time><waveformID networkCode="CX" stationCode="PB03" channelCode="HHN"/><filterID>ITAPER(2)&gt;&gt;BW(3,3,20)</filterID><methodID>L2-AIC-GRID</methodID><horizontalSlowness><value>3.42347863393738</value></horizontalSlowness><backazimuth><value>258.84016995765603</value></backazimuth><phaseHint>S</phaseHint><evaluationMode>automatic</evaluationMode><comment><text>18.625553572258795</text><id>DFX:rectilinearity</id></comment><comment><text>de.gempa.tb1.Pick/20250414223706.413256.141830</text><id>RefPickID</id></comment><comment><text>10.469037660153745</text><id>SNR</id></comment></pick><pick publicID="de.gempa.tb1.Pick/20250414223744.575926.141851"><time><value>2025-04-14T22:37:32.12Z</value></time><waveformID networkCode="CX" stationCode="PSGCX" channelCode="HHN"/><filterID>ITAPER(2)&gt;&gt;BW(3,3,20)</filterID><methodID>L2-AIC-GRID</methodID><horizontalSlowness><value>19.223963328462343</value></horizontalSlowness><backazimuth><value>107.43672725578745</value></backazimuth><phaseHint>S</phaseHint><evaluationMode>automatic</evaluationMode><comment><text>12.510532564103693</text><id>DFX:rectilinearity</id></comment><comment><text>de.gempa.tb1.Pick/20250414223717.573917.141841</text><id>RefPickID</id></comment><comment><text>6.95887130726364</text><id>SNR</id></comment></pick><pick publicID="de.gempa.tb1.Pick/20250414223802.786744.141852"><time><value>2025-04-14T22:37:16.748396Z</value></time><waveformID networkCode="CX" stationCode="PB07" channelCode="HHN"/><filterID>ITAPER(2)&gt;&gt;BW(3,3,20)</filterID><methodID>L2-AIC-GRID</methodID><horizontalSlowness><value>23.140300035538846</value></horizontalSlowness><backazimuth><value>77.0343449587756</value></backazimuth><phaseHint>S</phaseHint><evaluationMode>automatic</evaluationMode><comment><text>466.5343511981071</text><id>DFX:rectilinearity</id></comment><comment><text>de.gempa.tb1.Pick/20250414223714.385616.141838</text><id>RefPickID</id></comment><comment><text>5.669034920787229</text><id>SNR</id></comment></pick><origin publicID="de.gempa.tb1.Origin/20250414223802.791165.153457"><time><value>2025-04-14T22:36:38.009773Z</value><uncertainty>0.8728445172309875</uncertainty></time><latitude><value>-21.08384895324707</value><uncertainty>3.73207688331604</uncertainty></latitude><longitude><value>-69.00353240966797</value><uncertainty>8.956954002380371</uncertainty></longitude><depth><value>111.41112518310547</value><uncertainty>8.900668144226074</uncertainty></depth><depthType>from location</depthType><methodID>LOCSAT</methodID><earthModelID>iasp91_scanloc</earthModelID><quality><associatedPhaseCount>13</associatedPhaseCount><usedPhaseCount>13</usedPhaseCount><associatedStationCount>7</associatedStationCount><usedStationCount>7</usedStationCount><depthPhaseCount>0</depthPhaseCount><standardError>0.44744193414547395</standardError><azimuthalGap>232.92872619628906</azimuthalGap><maximumDistance>1.8142057657241821</maximumDistance><minimumDistance>0.4537263810634613</minimumDistance><medianDistance>1.0419405698776245</medianDistance></quality><uncertainty><minHorizontalUncertainty>7.452898502349854</minHorizontalUncertainty><maxHorizontalUncertainty>19.424283981323242</maxHorizontalUncertainty><azimuthMaxHorizontalUncertainty>80.65400695800781</azimuthMaxHorizontalUncertainty><preferredDescription>horizontal uncertainty</preferredDescription></uncertainty><evaluationMode>automatic</evaluationMode><evaluationStatus>confirmed</evaluationStatus><comment><text>0.10</text><id>mismatchScore</id></comment><comment><text>mismatchScore</text><id>scevalMethod</id></comment><arrival><pickID>de.gempa.tb1.Pick/20250414223700.558701.141828</pickID><phase>P</phase><azimuth>275.0240478515625</azimuth><distance>0.4537263810634613</distance><timeResidual>-0.1033782958984375</timeResidual><timeUsed>true</timeUsed><horizontalSlownessUsed>false</horizontalSlownessUsed><backazimuthUsed>false</backazimuthUsed><weight>1</weight></arrival><arrival><pickID>de.gempa.tb1.Pick/20250414223706.413256.141830</pickID><phase>P</phase><azimuth>215.8760986328125</azimuth><distance>1.186672568321228</distance><timeResidual>-0.20975875854492188</timeResidual><timeUsed>true</timeUsed><horizontalSlownessUsed>false</horizontalSlownessUsed><backazimuthUsed>false</backazimuthUsed><weight>1</weight></arrival><arrival><pickID>de.gempa.tb1.Pick/20250414223706.654345.141832</pickID><phase>P</phase><azimuth>254.10035705566406</azimuth><distance>0.8652514815330505</distance><timeResidual>0.19448089599609375</timeResidual><timeUsed>true</timeUsed><horizontalSlownessUsed>false</horizontalSlownessUsed><backazimuthUsed>false</backazimuthUsed><weight>1</weight></arrival><arrival><pickID>de.gempa.tb1.Pick/20250414223708.265943.141834</pickID><phase>P</phase><azimuth>283.4925842285156</azimuth><distance>1.1057087182998657</distance><timeResidual>0.6244583129882812</timeResidual><timeUsed>true</timeUsed><horizontalSlownessUsed>false</horizontalSlownessUsed><backazimuthUsed>false</backazimuthUsed><weight>1</weight></arrival><arrival><pickID>de.gempa.tb1.Pick/20250414223708.318528.141836</pickID><phase>P</phase><azimuth>197.3490753173828</azimuth><distance>0.7429928779602051</distance><timeResidual>0.6339759826660156</timeResidual><timeUsed>true</timeUsed><horizontalSlownessUsed>false</horizontalSlownessUsed><backazimuthUsed>false</backazimuthUsed><weight>1</weight></arrival><arrival><pickID>de.gempa.tb1.Pick/20250414223714.385616.141838</pickID><phase>P</phase><azimuth>231.9683074951172</azimuth><distance>1.0419405698776245</distance><timeResidual>-0.018951416015625</timeResidual><timeUsed>true</timeUsed><horizontalSlownessUsed>false</horizontalSlownessUsed><backazimuthUsed>false</backazimuthUsed><weight>1</weight></arrival><arrival><pickID>de.gempa.tb1.Pick/20250414223714.785774.141840</pickID><phase>S</phase><azimuth>275.0240478515625</azimuth><distance>0.4537263810634613</distance><timeResidual>-0.12318801879882812</timeResidual><timeUsed>true</timeUsed><horizontalSlownessUsed>false</horizontalSlownessUsed><backazimuthUsed>false</backazimuthUsed><weight>1</weight></arrival><arrival><pickID>de.gempa.tb1.Pick/20250414223717.573917.141841</pickID><phase>P</phase><azimuth>324.42034912109375</azimuth><distance>1.8142057657241821</distance><timeResidual>-0.2668743133544922</timeResidual><timeUsed>true</timeUsed><horizontalSlownessUsed>false</horizontalSlownessUsed><backazimuthUsed>false</backazimuthUsed><weight>1</weight></arrival><arrival><pickID>de.gempa.tb1.Pick/20250414223720.542565.141843</pickID><phase>S</phase><azimuth>254.10035705566406</azimuth><distance>0.8652514815330505</distance><timeResidual>0.35141754150390625</timeResidual><timeUsed>true</timeUsed><horizontalSlownessUsed>false</horizontalSlownessUsed><backazimuthUsed>false</backazimuthUsed><weight>1</weight></arrival><arrival><pickID>de.gempa.tb1.Pick/20250414223727.458095.141846</pickID><phase>S</phase><azimuth>283.4925842285156</azimuth><distance>1.1057087182998657</distance><timeResidual>0.35770416259765625</timeResidual><timeUsed>true</timeUsed><horizontalSlownessUsed>false</horizontalSlownessUsed><backazimuthUsed>false</backazimuthUsed><weight>1</weight></arrival><arrival><pickID>de.gempa.tb1.Pick/20250414223733.51338.141849</pickID><phase>S</phase><azimuth>215.8760986328125</azimuth><distance>1.186672568321228</distance><timeResidual>-1.0330810546875</timeResidual><timeUsed>true</timeUsed><horizontalSlownessUsed>false</horizontalSlownessUsed><backazimuthUsed>false</backazimuthUsed><weight>1</weight></arrival><arrival><pickID>de.gempa.tb1.Pick/20250414223744.575926.141851</pickID><phase>S</phase><azimuth>324.42034912109375</azimuth><distance>1.8142057657241821</distance><timeResidual>-0.5426445007324219</timeResidual><timeUsed>true</timeUsed><horizontalSlownessUsed>false</horizontalSlownessUsed><backazimuthUsed>false</backazimuthUsed><weight>1</weight></arrival><arrival><pickID>de.gempa.tb1.Pick/20250414223802.786744.141852</pickID><phase>S</phase><azimuth>231.9683074951172</azimuth><distance>1.0419405698776245</distance><timeResidual>0.1354656219482422</timeResidual><timeUsed>true</timeUsed><horizontalSlownessUsed>false</horizontalSlownessUsed><backazimuthUsed>false</backazimuthUsed><weight>1</weight></arrival><magnitude publicID="de.gempa.tb1.Magnitude/20250414223810.939651.547824"><magnitude><value>2.1812605931830862</value></magnitude><type>M</type><methodID>weighted average</methodID><stationCount>4</stationCount></magnitude></origin><event publicID="gempa2025hjzm"><preferredOriginID>de.gempa.tb1.Origin/20250414223802.791165.153457</preferredOriginID><preferredMagnitudeID>de.gempa.tb1.Magnitude/20250414223810.939651.547824</preferredMagnitudeID><description><text>Northern Chile</text><type>region name</type></description><originReference>de.gempa.tb1.Origin/20250414223802.791165.153457</originReference></event></EventParameters></seiscomp>