<?xml version="1.0" encoding="UTF-8"?>
<seiscomp xmlns="http://geofon.gfz-potsdam.de/ns/seiscomp3-schema/0.13" version="0.13"><EventParameters><pick publicID="de.gempa.tb1.Pick/20250412220857.594943.127139"><time><value>2025-04-12T22:08:53.13Z</value></time><waveformID networkCode="CX" stationCode="PB19" channelCode="HHZ"/><filterID>ITAPER(4)&gt;&gt;BW(4,4,20)</filterID><methodID>AIC</methodID><horizontalSlowness><value>22.339306133172705</value></horizontalSlowness><backazimuth><value>247.5986800931451</value></backazimuth><phaseHint>P</phaseHint><evaluationMode>automatic</evaluationMode><comment><text>62.24022692199949</text><id>DFX:rectilinearity</id></comment><comment><text>64.55320426645841</text><id>SNR</id></comment></pick><pick publicID="de.gempa.tb1.Pick/20250412220858.695509.127141"><time><value>2025-04-12T22:08:52.658393Z</value></time><waveformID networkCode="CX" stationCode="PB15" channelCode="HHZ"/><filterID>ITAPER(4)&gt;&gt;BW(4,4,20)</filterID><methodID>AIC</methodID><horizontalSlowness><value>17.747966458454833</value></horizontalSlowness><backazimuth><value>139.19609864949393</value></backazimuth><phaseHint>P</phaseHint><evaluationMode>automatic</evaluationMode><comment><text>1284.2024399798684</text><id>DFX:rectilinearity</id></comment><comment><text>20.951962801725813</text><id>SNR</id></comment></pick><pick publicID="de.gempa.tb1.Pick/20250412220905.596646.127146"><time><value>2025-04-12T22:08:58.958394Z</value></time><waveformID networkCode="CX" stationCode="PB06" channelCode="HHZ"/><filterID>ITAPER(4)&gt;&gt;BW(4,4,20)</filterID><methodID>AIC</methodID><horizontalSlowness><value>8.622908715828302</value></horizontalSlowness><backazimuth><value>124.51978204668055</value></backazimuth><phaseHint>P</phaseHint><evaluationMode>automatic</evaluationMode><comment><text>111.33626521221262</text><id>DFX:rectilinearity</id></comment><comment><text>11.567574596511221</text><id>SNR</id></comment></pick><pick publicID="de.gempa.tb1.Pick/20250412220916.690762.127148"><time><value>2025-04-12T22:09:10.438393Z</value></time><waveformID networkCode="CX" stationCode="PB03" channelCode="HHZ"/><filterID>ITAPER(4)&gt;&gt;BW(4,4,20)</filterID><methodID>AIC</methodID><horizontalSlowness><value>13.150381691659485</value></horizontalSlowness><backazimuth><value>155.42866852591976</value></backazimuth><phaseHint>P</phaseHint><evaluationMode>automatic</evaluationMode><comment><text>53.88378655699473</text><id>DFX:rectilinearity</id></comment><comment><text>43.739586644769346</text><id>SNR</id></comment></pick><pick publicID="de.gempa.tb1.Pick/20250412220921.343889.127150"><time><value>2025-04-12T22:09:12.270001Z</value></time><waveformID networkCode="CX" stationCode="PB09" channelCode="HHZ"/><filterID>ITAPER(4)&gt;&gt;BW(4,4,20)</filterID><methodID>AIC</methodID><horizontalSlowness><value>17.1562814003049</value></horizontalSlowness><backazimuth><value>274.1085208548377</value></backazimuth><phaseHint>P</phaseHint><evaluationMode>automatic</evaluationMode><comment><text>23.411680213377227</text><id>DFX:rectilinearity</id></comment><comment><text>53.07972852940549</text><id>SNR</id></comment></pick><pick publicID="de.gempa.tb1.Pick/20250412220922.771167.127152"><time><value>2025-04-12T22:09:16.128393Z</value></time><waveformID networkCode="CX" stationCode="PB07" channelCode="HHZ"/><filterID>ITAPER(4)&gt;&gt;BW(4,4,20)</filterID><methodID>AIC</methodID><horizontalSlowness><value>19.03972917460353</value></horizontalSlowness><backazimuth><value>176.8868818410828</value></backazimuth><phaseHint>P</phaseHint><evaluationMode>automatic</evaluationMode><comment><text>1380.0342159716704</text><id>DFX:rectilinearity</id></comment><comment><text>74.88704587852469</text><id>SNR</id></comment></pick><pick publicID="de.gempa.tb1.Pick/20250412220929.614594.127155"><time><value>2025-04-12T22:09:22.428393Z</value></time><waveformID networkCode="CX" stationCode="PB02" channelCode="HHZ"/><filterID>ITAPER(4)&gt;&gt;BW(4,4,20)</filterID><methodID>AIC</methodID><horizontalSlowness><value>9.809845667280726</value></horizontalSlowness><backazimuth><value>159.4083023001933</value></backazimuth><phaseHint>P</phaseHint><evaluationMode>automatic</evaluationMode><comment><text>207.70165429783717</text><id>DFX:rectilinearity</id></comment><comment><text>47.00937084100966</text><id>SNR</id></comment></pick><pick publicID="de.gempa.tb1.Pick/20250412220931.530141.127158"><time><value>2025-04-12T22:09:25.248393Z</value></time><waveformID networkCode="CX" stationCode="PB01" channelCode="HHZ"/><filterID>ITAPER(4)&gt;&gt;BW(4,4,20)</filterID><methodID>AIC</methodID><horizontalSlowness><value>21.837906917628366</value></horizontalSlowness><backazimuth><value>201.36618209246154</value></backazimuth><phaseHint>P</phaseHint><evaluationMode>automatic</evaluationMode><comment><text>53.51385014794722</text><id>DFX:rectilinearity</id></comment><comment><text>48.6304379272886</text><id>SNR</id></comment></pick><pick publicID="de.gempa.tb1.Pick/20250412220936.372032.127160"><time><value>2025-04-12T22:09:30.949999Z</value></time><waveformID networkCode="CX" stationCode="PATCX" channelCode="HHZ"/><filterID>ITAPER(4)&gt;&gt;BW(4,4,20)</filterID><methodID>AIC</methodID><horizontalSlowness><value>19.056553277131503</value></horizontalSlowness><backazimuth><value>62.29400660992792</value></backazimuth><phaseHint>P</phaseHint><evaluationMode>automatic</evaluationMode><comment><text>359.0209007664786</text><id>DFX:rectilinearity</id></comment><comment><text>6.214640889313572</text><id>SNR</id></comment></pick><origin publicID="de.gempa.tb1.Origin/20250412220941.304123.93728"><time><value>2025-04-12T22:08:43.292861Z</value><uncertainty>0.7618353962898254</uncertainty></time><latitude><value>-23.433691024780273</value><uncertainty>3.940549850463867</uncertainty></latitude><longitude><value>-69.04171752929688</value><uncertainty>8.676028251647949</uncertainty></longitude><depth><value>0</value></depth><depthType>operator assigned</depthType><methodID>LOCSAT</methodID><earthModelID>iasp91_scanloc</earthModelID><quality><associatedPhaseCount>9</associatedPhaseCount><usedPhaseCount>9</usedPhaseCount><associatedStationCount>9</associatedStationCount><usedStationCount>9</usedStationCount><depthPhaseCount>0</depthPhaseCount><standardError>1.0334809910558467</standardError><azimuthalGap>212.4179229736328</azimuthalGap><maximumDistance>2.797034978866577</maximumDistance><minimumDistance>0.453855037689209</minimumDistance><medianDistance>1.6400330066680908</medianDistance></quality><uncertainty><minHorizontalUncertainty>8.243435859680176</minHorizontalUncertainty><maxHorizontalUncertainty>18.705429077148438</maxHorizontalUncertainty><azimuthMaxHorizontalUncertainty>96.39869689941406</azimuthMaxHorizontalUncertainty><preferredDescription>horizontal uncertainty</preferredDescription></uncertainty><evaluationMode>automatic</evaluationMode><evaluationStatus>confirmed</evaluationStatus><comment><text>0.21</text><id>mismatchScore</id></comment><comment><text>mismatchScore</text><id>scevalMethod</id></comment><arrival><pickID>de.gempa.tb1.Pick/20250412220857.594943.127139</pickID><phase>P</phase><azimuth>205.90281677246094</azimuth><distance>0.5215355753898621</distance><timeResidual>-0.16533851623535156</timeResidual><timeUsed>true</timeUsed><horizontalSlownessUsed>false</horizontalSlownessUsed><backazimuthUsed>false</backazimuthUsed><weight>1</weight></arrival><arrival><pickID>de.gempa.tb1.Pick/20250412220858.695509.127141</pickID><phase>P</phase><azimuth>299.53533935546875</azimuth><distance>0.453855037689209</distance><timeResidual>0.6602554321289062</timeResidual><timeUsed>true</timeUsed><horizontalSlownessUsed>false</horizontalSlownessUsed><backazimuthUsed>false</backazimuthUsed><weight>1</weight></arrival><arrival><pickID>de.gempa.tb1.Pick/20250412220905.596646.127146</pickID><phase>P</phase><azimuth>325.9192810058594</azimuth><distance>0.8736703991889954</distance><timeResidual>-1.0923099517822266</timeResidual><timeUsed>true</timeUsed><horizontalSlownessUsed>false</horizontalSlownessUsed><backazimuthUsed>false</backazimuthUsed><weight>1</weight></arrival><arrival><pickID>de.gempa.tb1.Pick/20250412220916.690762.127148</pickID><phase>P</phase><azimuth>334.3919982910156</azimuth><distance>1.5271129608154297</distance><timeResidual>-1.3928375244140625</timeResidual><timeUsed>true</timeUsed><horizontalSlownessUsed>false</horizontalSlownessUsed><backazimuthUsed>false</backazimuthUsed><weight>1</weight></arrival><arrival><pickID>de.gempa.tb1.Pick/20250412220921.343889.127150</pickID><phase>P</phase><azimuth>353.4848937988281</azimuth><distance>1.6400330066680908</distance><timeResidual>-1.1156463623046875</timeResidual><timeUsed>true</timeUsed><horizontalSlownessUsed>false</horizontalSlownessUsed><backazimuthUsed>false</backazimuthUsed><weight>1</weight></arrival><arrival><pickID>de.gempa.tb1.Pick/20250412220922.771167.127152</pickID><phase>P</phase><azimuth>335.1634826660156</azimuth><distance>1.8696231842041016</distance><timeResidual>-0.41712379455566406</timeResidual><timeUsed>true</timeUsed><horizontalSlownessUsed>false</horizontalSlownessUsed><backazimuthUsed>false</backazimuthUsed><weight>1</weight></arrival><arrival><pickID>de.gempa.tb1.Pick/20250412220929.614594.127155</pickID><phase>P</phase><azimuth>339.23809814453125</azimuth><distance>2.2475495338439941</distance><timeResidual>0.6811141967773438</timeResidual><timeUsed>true</timeUsed><horizontalSlownessUsed>false</horizontalSlownessUsed><backazimuthUsed>false</backazimuthUsed><weight>1</weight></arrival><arrival><pickID>de.gempa.tb1.Pick/20250412220931.530141.127158</pickID><phase>P</phase><azimuth>350.0687255859375</azimuth><distance>2.414570093154907</distance><timeResidual>1.202117919921875</timeResidual><timeUsed>true</timeUsed><horizontalSlownessUsed>false</horizontalSlownessUsed><backazimuthUsed>false</backazimuthUsed><weight>1</weight></arrival><arrival><pickID>de.gempa.tb1.Pick/20250412220936.372032.127160</pickID><phase>P</phase><azimuth>338.1758728027344</azimuth><distance>2.797034978866577</distance><timeResidual>1.6397171020507812</timeResidual><timeUsed>true</timeUsed><horizontalSlownessUsed>false</horizontalSlownessUsed><backazimuthUsed>false</backazimuthUsed><weight>1</weight></arrival><magnitude publicID="de.gempa.tb1.Magnitude/20250412220941.309265.288219"><magnitude><value>2.812083017717717</value></magnitude><type>M</type><methodID>weighted average</methodID><stationCount>7</stationCount></magnitude></origin><event publicID="gempa2025hggn"><preferredOriginID>de.gempa.tb1.Origin/20250412220941.304123.93728</preferredOriginID><preferredMagnitudeID>de.gempa.tb1.Magnitude/20250412220941.309265.288219</preferredMagnitudeID><description><text>Northern Chile</text><type>region name</type></description><originReference>de.gempa.tb1.Origin/20250412220941.304123.93728</originReference></event></EventParameters></seiscomp>