<?xml version="1.0" encoding="UTF-8"?>
<seiscomp xmlns="http://geofon.gfz-potsdam.de/ns/seiscomp3-schema/0.13" version="0.13"><EventParameters><pick publicID="de.gempa.tb1.Pick/20250414203353.575148.141089"><time><value>2025-04-14T20:33:47.08Z</value></time><waveformID networkCode="CX" stationCode="PSGCX" channelCode="HHZ"/><filterID>ITAPER(4)&gt;&gt;BW(4,4,20)</filterID><methodID>AIC</methodID><horizontalSlowness><value>12.081628679947181</value></horizontalSlowness><backazimuth><value>206.25309333331276</value></backazimuth><phaseHint>P</phaseHint><evaluationMode>automatic</evaluationMode><comment><text>25.097739191749486</text><id>DFX:rectilinearity</id></comment><comment><text>47.3740879050857</text><id>SNR</id></comment></pick><pick publicID="de.gempa.tb1.Pick/20250414203354.413355.141091"><time><value>2025-04-14T20:33:46.139999Z</value></time><waveformID networkCode="CX" stationCode="PATCX" channelCode="HHZ"/><filterID>ITAPER(4)&gt;&gt;BW(4,4,20)</filterID><methodID>AIC</methodID><horizontalSlowness><value>22.328121058559347</value></horizontalSlowness><backazimuth><value>81.1248647741279</value></backazimuth><phaseHint>P</phaseHint><evaluationMode>automatic</evaluationMode><comment><text>222.83991860971102</text><id>DFX:rectilinearity</id></comment><comment><text>10.074244356014981</text><id>SNR</id></comment></pick><pick publicID="de.gempa.tb1.Pick/20250414203401.572846.141093"><time><value>2025-04-14T20:33:53.848393Z</value></time><waveformID networkCode="CX" stationCode="PB01" channelCode="HHZ"/><filterID>ITAPER(4)&gt;&gt;BW(4,4,20)</filterID><methodID>AIC</methodID><horizontalSlowness><value>22.28883084820071</value></horizontalSlowness><backazimuth><value>22.90721994733326</value></backazimuth><phaseHint>P</phaseHint><evaluationMode>automatic</evaluationMode><comment><text>9.938901711220511</text><id>DFX:rectilinearity</id></comment><comment><text>16.780489577238676</text><id>SNR</id></comment></pick><pick publicID="de.gempa.tb1.Pick/20250414203402.577789.141095"><time><value>2025-04-14T20:33:54.358393Z</value></time><waveformID networkCode="CX" stationCode="PB02" channelCode="HHZ"/><filterID>ITAPER(4)&gt;&gt;BW(4,4,20)</filterID><methodID>AIC</methodID><horizontalSlowness><value>17.352435689421526</value></horizontalSlowness><backazimuth><value>253.36446806024793</value></backazimuth><phaseHint>P</phaseHint><evaluationMode>automatic</evaluationMode><comment><text>12.494558844178627</text><id>DFX:rectilinearity</id></comment><comment><text>12.938187818078854</text><id>SNR</id></comment></pick><pick publicID="de.gempa.tb1.Pick/20250414203403.289035.141097"><time><value>2025-04-14T20:33:54.769999Z</value></time><waveformID networkCode="CX" stationCode="PATCX" channelCode="HHN"/><filterID>ITAPER(2)&gt;&gt;BW(3,3,20)</filterID><methodID>L2-AIC-GRID</methodID><horizontalSlowness><value>17.891009948601312</value></horizontalSlowness><backazimuth><value>177.1772676595266</value></backazimuth><phaseHint>S</phaseHint><evaluationMode>automatic</evaluationMode><comment><text>199.79579336002817</text><id>DFX:rectilinearity</id></comment><comment><text>de.gempa.tb1.Pick/20250414203354.413355.141091</text><id>RefPickID</id></comment><comment><text>8.068047695233853</text><id>SNR</id></comment></pick><pick publicID="de.gempa.tb1.Pick/20250414203406.522934.141100"><time><value>2025-04-14T20:33:56.34Z</value></time><waveformID networkCode="CX" stationCode="PSGCX" channelCode="HHN"/><filterID>ITAPER(2)&gt;&gt;BW(3,3,20)</filterID><methodID>L2-AIC-GRID</methodID><horizontalSlowness><value>22.79897229651401</value></horizontalSlowness><backazimuth><value>290.8990985957994</value></backazimuth><phaseHint>S</phaseHint><evaluationMode>automatic</evaluationMode><comment><text>108.42993967902137</text><id>DFX:rectilinearity</id></comment><comment><text>de.gempa.tb1.Pick/20250414203353.575148.141089</text><id>RefPickID</id></comment><comment><text>6.750488873774089</text><id>SNR</id></comment></pick><pick publicID="de.gempa.tb1.Pick/20250414203408.73365.141101"><time><value>2025-04-14T20:34:00.738393Z</value></time><waveformID networkCode="CX" stationCode="PB07" channelCode="HHZ"/><filterID>ITAPER(4)&gt;&gt;BW(4,4,20)</filterID><methodID>AIC</methodID><horizontalSlowness><value>22.78310108102449</value></horizontalSlowness><backazimuth><value>92.7802358072027</value></backazimuth><phaseHint>P</phaseHint><evaluationMode>automatic</evaluationMode><comment><text>338.2597491812564</text><id>DFX:rectilinearity</id></comment><comment><text>19.825743802934632</text><id>SNR</id></comment></pick><pick publicID="de.gempa.tb1.Pick/20250414203416.731747.141103"><time><value>2025-04-14T20:34:07.688393Z</value></time><waveformID networkCode="CX" stationCode="PB01" channelCode="HHN"/><filterID>ITAPER(2)&gt;&gt;BW(3,3,20)</filterID><methodID>L2-AIC-GRID</methodID><horizontalSlowness><value>18.165617959758151</value></horizontalSlowness><backazimuth><value>75.00070173231366</value></backazimuth><phaseHint>S</phaseHint><evaluationMode>automatic</evaluationMode><comment><text>201.29873760225095</text><id>DFX:rectilinearity</id></comment><comment><text>de.gempa.tb1.Pick/20250414203401.572846.141093</text><id>RefPickID</id></comment><comment><text>10.459358835824975</text><id>SNR</id></comment></pick><pick publicID="de.gempa.tb1.Pick/20250414203418.616734.141105"><time><value>2025-04-14T20:34:09.418393Z</value></time><waveformID networkCode="CX" stationCode="PB02" channelCode="HHN"/><filterID>ITAPER(2)&gt;&gt;BW(3,3,20)</filterID><methodID>L2-AIC-GRID</methodID><horizontalSlowness><value>13.1334126560708</value></horizontalSlowness><backazimuth><value>82.92186624166442</value></backazimuth><phaseHint>S</phaseHint><evaluationMode>automatic</evaluationMode><comment><text>109.1461580086923</text><id>DFX:rectilinearity</id></comment><comment><text>de.gempa.tb1.Pick/20250414203402.577789.141095</text><id>RefPickID</id></comment><comment><text>5.836598655715476</text><id>SNR</id></comment></pick><origin publicID="de.gempa.tb1.Origin/20250414203418.620222.150535"><time><value>2025-04-14T20:33:34.696478Z</value><uncertainty>0.478887528181076</uncertainty></time><latitude><value>-20.237436294555664</value><uncertainty>2.2477445602416992</uncertainty></latitude><longitude><value>-70.17427825927734</value><uncertainty>7.935303211212158</uncertainty></longitude><depth><value>23.86961364746094</value><uncertainty>7.405506134033203</uncertainty></depth><depthType>from location</depthType><methodID>LOCSAT</methodID><earthModelID>iasp91_scanloc</earthModelID><quality><associatedPhaseCount>9</associatedPhaseCount><usedPhaseCount>9</usedPhaseCount><associatedStationCount>5</associatedStationCount><usedStationCount>5</usedStationCount><depthPhaseCount>0</depthPhaseCount><standardError>0.27620113316069317</standardError><azimuthalGap>186.31230545043945</azimuthalGap><maximumDistance>1.5060570240020752</maximumDistance><minimumDistance>0.5806670784950256</minimumDistance><medianDistance>1.027923583984375</medianDistance></quality><uncertainty><minHorizontalUncertainty>4.692021369934082</minHorizontalUncertainty><maxHorizontalUncertainty>17.051568984985352</maxHorizontalUncertainty><azimuthMaxHorizontalUncertainty>86.14249420166016</azimuthMaxHorizontalUncertainty><preferredDescription>horizontal uncertainty</preferredDescription></uncertainty><evaluationMode>automatic</evaluationMode><evaluationStatus>confirmed</evaluationStatus><comment><text>0.06</text><id>mismatchScore</id></comment><comment><text>mismatchScore</text><id>scevalMethod</id></comment><arrival><pickID>de.gempa.tb1.Pick/20250414203353.575148.141089</pickID><phase>P</phase><azimuth>4.336475372314453</azimuth><distance>0.6387879848480225</distance><timeResidual>-0.12475109100341797</timeResidual><timeUsed>true</timeUsed><horizontalSlownessUsed>false</horizontalSlownessUsed><backazimuthUsed>false</backazimuthUsed><weight>1</weight></arrival><arrival><pickID>de.gempa.tb1.Pick/20250414203354.413355.141091</pickID><phase>P</phase><azimuth>178.024169921875</azimuth><distance>0.5806670784950256</distance><timeResidual>-0.08745765686035156</timeResidual><timeUsed>true</timeUsed><horizontalSlownessUsed>false</horizontalSlownessUsed><backazimuthUsed>false</backazimuthUsed><weight>1</weight></arrival><arrival><pickID>de.gempa.tb1.Pick/20250414203401.572846.141093</pickID><phase>P</phase><azimuth>141.37542724609375</azimuth><distance>1.027923583984375</distance><timeResidual>0.27288818359375</timeResidual><timeUsed>true</timeUsed><horizontalSlownessUsed>false</horizontalSlownessUsed><backazimuthUsed>false</backazimuthUsed><weight>1</weight></arrival><arrival><pickID>de.gempa.tb1.Pick/20250414203402.577789.141095</pickID><phase>P</phase><azimuth>166.45623779296875</azimuth><distance>1.1078870296478271</distance><timeResidual>-0.35680198669433594</timeResidual><timeUsed>true</timeUsed><horizontalSlownessUsed>false</horizontalSlownessUsed><backazimuthUsed>false</backazimuthUsed><weight>1</weight></arrival><arrival><pickID>de.gempa.tb1.Pick/20250414203403.289035.141097</pickID><phase>S</phase><azimuth>178.024169921875</azimuth><distance>0.5806670784950256</distance><timeResidual>0.13772964477539062</timeResidual><timeUsed>true</timeUsed><horizontalSlownessUsed>false</horizontalSlownessUsed><backazimuthUsed>false</backazimuthUsed><weight>1</weight></arrival><arrival><pickID>de.gempa.tb1.Pick/20250414203406.522934.141100</pickID><phase>S</phase><azimuth>4.336475372314453</azimuth><distance>0.6387879848480225</distance><timeResidual>0.01392650604248047</timeResidual><timeUsed>true</timeUsed><horizontalSlownessUsed>false</horizontalSlownessUsed><backazimuthUsed>false</backazimuthUsed><weight>1</weight></arrival><arrival><pickID>de.gempa.tb1.Pick/20250414203408.73365.141101</pickID><phase>P</phase><azimuth>169.75323486328125</azimuth><distance>1.5060570240020752</distance><timeResidual>0.544245719909668</timeResidual><timeUsed>true</timeUsed><horizontalSlownessUsed>false</horizontalSlownessUsed><backazimuthUsed>false</backazimuthUsed><weight>1</weight></arrival><arrival><pickID>de.gempa.tb1.Pick/20250414203416.731747.141103</pickID><phase>S</phase><azimuth>141.37542724609375</azimuth><distance>1.027923583984375</distance><timeResidual>-0.01787090301513672</timeResidual><timeUsed>true</timeUsed><horizontalSlownessUsed>false</horizontalSlownessUsed><backazimuthUsed>false</backazimuthUsed><weight>1</weight></arrival><arrival><pickID>de.gempa.tb1.Pick/20250414203418.616734.141105</pickID><phase>S</phase><azimuth>166.45623779296875</azimuth><distance>1.1078870296478271</distance><timeResidual>-0.38198184967041016</timeResidual><timeUsed>true</timeUsed><horizontalSlownessUsed>false</horizontalSlownessUsed><backazimuthUsed>false</backazimuthUsed><weight>1</weight></arrival><magnitude publicID="de.gempa.tb1.Magnitude/20250414203420.93662.538667"><magnitude><value>1.7993471579942988</value></magnitude><type>M</type><methodID>weighted average</methodID><stationCount>5</stationCount></magnitude></origin><event publicID="gempa2025hjvk"><preferredOriginID>de.gempa.tb1.Origin/20250414203418.620222.150535</preferredOriginID><preferredMagnitudeID>de.gempa.tb1.Magnitude/20250414203420.93662.538667</preferredMagnitudeID><description><text>Near Coast of Northern Chile</text><type>region name</type></description><originReference>de.gempa.tb1.Origin/20250414203418.620222.150535</originReference></event></EventParameters></seiscomp>