<?xml version="1.0" encoding="UTF-8"?>
<seiscomp xmlns="http://geofon.gfz-potsdam.de/ns/seiscomp3-schema/0.13" version="0.13"><EventParameters><pick publicID="de.gempa.tb1.Pick/20250414202547.574255.141044"><time><value>2025-04-14T20:25:42.508393Z</value></time><waveformID networkCode="CX" stationCode="PB01" channelCode="HHZ"/><filterID>ITAPER(4)&gt;&gt;BW(4,4,20)</filterID><methodID>AIC</methodID><horizontalSlowness><value>21.684323856719598</value></horizontalSlowness><backazimuth><value>263.88712007599196</value></backazimuth><phaseHint>P</phaseHint><evaluationMode>automatic</evaluationMode><comment><text>11.685423454039855</text><id>DFX:rectilinearity</id></comment><comment><text>24.47321006763497</text><id>SNR</id></comment></pick><pick publicID="de.gempa.tb1.Pick/20250414202550.638224.141046"><time><value>2025-04-14T20:25:45.718393Z</value></time><waveformID networkCode="CX" stationCode="PB02" channelCode="HHZ"/><filterID>ITAPER(4)&gt;&gt;BW(4,4,20)</filterID><methodID>AIC</methodID><horizontalSlowness><value>16.392989786814535</value></horizontalSlowness><backazimuth><value>81.01523311231114</value></backazimuth><phaseHint>P</phaseHint><evaluationMode>automatic</evaluationMode><comment><text>28.047700529676046</text><id>DFX:rectilinearity</id></comment><comment><text>23.58912079678762</text><id>SNR</id></comment></pick><pick publicID="de.gempa.tb1.Pick/20250414202553.539728.141050"><time><value>2025-04-14T20:25:45.478394Z</value></time><waveformID networkCode="CX" stationCode="PB03" channelCode="HHZ"/><filterID>ITAPER(4)&gt;&gt;BW(4,4,20)</filterID><methodID>AIC</methodID><horizontalSlowness><value>3.381117711972454</value></horizontalSlowness><backazimuth><value>74.64849763413812</value></backazimuth><phaseHint>P</phaseHint><evaluationMode>automatic</evaluationMode><comment><text>27.606712222736324</text><id>DFX:rectilinearity</id></comment><comment><text>8.241964633157869</text><id>SNR</id></comment></pick><pick publicID="de.gempa.tb1.Pick/20250414202555.256587.141052"><time><value>2025-04-14T20:25:49.849999Z</value></time><waveformID networkCode="CX" stationCode="PATCX" channelCode="HHZ"/><filterID>ITAPER(4)&gt;&gt;BW(4,4,20)</filterID><methodID>AIC</methodID><horizontalSlowness><value>22.8477941640117</value></horizontalSlowness><backazimuth><value>225.42681029011277</value></backazimuth><phaseHint>P</phaseHint><evaluationMode>automatic</evaluationMode><comment><text>113.09965537064642</text><id>DFX:rectilinearity</id></comment><comment><text>9.047230454040939</text><id>SNR</id></comment></pick><pick publicID="de.gempa.tb1.Pick/20250414202556.057164.141054"><time><value>2025-04-14T20:25:45.688393Z</value></time><waveformID networkCode="CX" stationCode="PB07" channelCode="HHZ"/><filterID>ITAPER(4)&gt;&gt;BW(4,4,20)</filterID><methodID>AIC</methodID><horizontalSlowness><value>22.93397084301144</value></horizontalSlowness><backazimuth><value>259.3216314322111</value></backazimuth><phaseHint>P</phaseHint><evaluationMode>automatic</evaluationMode><comment><text>198.82576401115435</text><id>DFX:rectilinearity</id></comment><comment><text>35.744154017252143</text><id>SNR</id></comment></pick><pick publicID="de.gempa.tb1.Pick/20250414202600.402324.141056"><time><value>2025-04-14T20:25:40.86Z</value></time><waveformID networkCode="CX" stationCode="PB09" channelCode="HHZ"/><filterID>ITAPER(4)&gt;&gt;BW(4,4,20)</filterID><methodID>AIC</methodID><horizontalSlowness><value>9.250646982717438</value></horizontalSlowness><backazimuth><value>279.82124060603667</value></backazimuth><phaseHint>P</phaseHint><evaluationMode>automatic</evaluationMode><comment><text>9.46050916017354</text><id>DFX:rectilinearity</id></comment><comment><text>17.38897574900886</text><id>SNR</id></comment></pick><pick publicID="de.gempa.tb1.Pick/20250414202613.596934.141062"><time><value>2025-04-14T20:26:05.718394Z</value></time><waveformID networkCode="CX" stationCode="PB03" channelCode="HHN"/><filterID>ITAPER(2)&gt;&gt;BW(3,3,20)</filterID><methodID>L2-AIC-GRID</methodID><horizontalSlowness><value>15.715426014031953</value></horizontalSlowness><backazimuth><value>273.662913753121</value></backazimuth><phaseHint>S</phaseHint><evaluationMode>automatic</evaluationMode><comment><text>35.1345912436807</text><id>DFX:rectilinearity</id></comment><comment><text>de.gempa.tb1.Pick/20250414202553.539728.141050</text><id>RefPickID</id></comment><comment><text>15.800311813583226</text><id>SNR</id></comment></pick><pick publicID="de.gempa.tb1.Pick/20250414202649.171841.141065"><time><value>2025-04-14T20:26:06.548393Z</value></time><waveformID networkCode="CX" stationCode="PB07" channelCode="HHN"/><filterID>ITAPER(2)&gt;&gt;BW(3,3,20)</filterID><methodID>L2-AIC-GRID</methodID><horizontalSlowness><value>23.273755165305857</value></horizontalSlowness><backazimuth><value>35.450213957599487</value></backazimuth><phaseHint>S</phaseHint><evaluationMode>automatic</evaluationMode><comment><text>369.78449079776573</text><id>DFX:rectilinearity</id></comment><comment><text>de.gempa.tb1.Pick/20250414202556.057164.141054</text><id>RefPickID</id></comment><comment><text>6.655452858742204</text><id>SNR</id></comment></pick><origin publicID="de.gempa.tb1.Origin/20250414202649.175424.150376"><time><value>2025-04-14T20:25:19.197076Z</value><uncertainty>1.601944923400879</uncertainty></time><latitude><value>-21.48020362854004</value><uncertainty>12.88838291168213</uncertainty></latitude><longitude><value>-68.49105834960938</value><uncertainty>16.261573791503906</uncertainty></longitude><depth><value>134.77528381347656</value><uncertainty>24.63089942932129</uncertainty></depth><depthType>from location</depthType><methodID>LOCSAT</methodID><earthModelID>iasp91_scanloc</earthModelID><quality><associatedPhaseCount>8</associatedPhaseCount><usedPhaseCount>8</usedPhaseCount><associatedStationCount>6</associatedStationCount><usedStationCount>6</usedStationCount><depthPhaseCount>0</depthPhaseCount><standardError>0.19093369709714117</standardError><azimuthalGap>309.13934326171875</azimuthalGap><maximumDistance>1.6842952966690063</maximumDistance><minimumDistance>0.7661641240119934</minimumDistance><medianDistance>1.3189644813537598</medianDistance></quality><uncertainty><minHorizontalUncertainty>27.38911247253418</minHorizontalUncertainty><maxHorizontalUncertainty>35.066741943359375</maxHorizontalUncertainty><azimuthMaxHorizontalUncertainty>80.2759780883789</azimuthMaxHorizontalUncertainty><preferredDescription>horizontal uncertainty</preferredDescription></uncertainty><evaluationMode>automatic</evaluationMode><evaluationStatus>confirmed</evaluationStatus><comment><text>0.08</text><id>mismatchScore</id></comment><comment><text>mismatchScore</text><id>scevalMethod</id></comment><arrival><pickID>de.gempa.tb1.Pick/20250414202547.574255.141044</pickID><phase>P</phase><azimuth>294.8934020996094</azimuth><distance>1.0260207653045654</distance><timeResidual>-0.296905517578125</timeResidual><timeUsed>true</timeUsed><horizontalSlownessUsed>false</horizontalSlownessUsed><backazimuthUsed>false</backazimuthUsed><weight>1</weight></arrival><arrival><pickID>de.gempa.tb1.Pick/20250414202550.638224.141046</pickID><phase>P</phase><azimuth>276.69842529296875</azimuth><distance>1.3189644813537598</distance><timeResidual>0.0128936767578125</timeResidual><timeUsed>true</timeUsed><horizontalSlownessUsed>false</horizontalSlownessUsed><backazimuthUsed>false</backazimuthUsed><weight>1</weight></arrival><arrival><pickID>de.gempa.tb1.Pick/20250414202553.539728.141050</pickID><phase>P</phase><azimuth>244.0327453613281</azimuth><distance>1.3023266792297363</distance><timeResidual>-0.04841041564941406</timeResidual><timeUsed>true</timeUsed><horizontalSlownessUsed>false</horizontalSlownessUsed><backazimuthUsed>false</backazimuthUsed><weight>1</weight></arrival><arrival><pickID>de.gempa.tb1.Pick/20250414202555.256587.141052</pickID><phase>P</phase><azimuth>292.6304016113281</azimuth><distance>1.6842952966690063</distance><timeResidual>0.1161365509033203</timeResidual><timeUsed>true</timeUsed><horizontalSlownessUsed>false</horizontalSlownessUsed><backazimuthUsed>false</backazimuthUsed><weight>1</weight></arrival><arrival><pickID>de.gempa.tb1.Pick/20250414202556.057164.141054</pickID><phase>P</phase><azimuth>259.04754638671875</azimuth><distance>1.3212497234344482</distance><timeResidual>-0.03850746154785156</timeResidual><timeUsed>true</timeUsed><horizontalSlownessUsed>false</horizontalSlownessUsed><backazimuthUsed>false</backazimuthUsed><weight>1</weight></arrival><arrival><pickID>de.gempa.tb1.Pick/20250414202600.402324.141056</pickID><phase>P</phase><azimuth>245.61671447753906</azimuth><distance>0.7661641240119934</distance><timeResidual>0.27232933044433594</timeResidual><timeUsed>true</timeUsed><horizontalSlownessUsed>false</horizontalSlownessUsed><backazimuthUsed>false</backazimuthUsed><weight>1</weight></arrival><arrival><pickID>de.gempa.tb1.Pick/20250414202613.596934.141062</pickID><phase>S</phase><azimuth>244.0327453613281</azimuth><distance>1.3023266792297363</distance><timeResidual>-0.2451496124267578</timeResidual><timeUsed>true</timeUsed><horizontalSlownessUsed>false</horizontalSlownessUsed><backazimuthUsed>false</backazimuthUsed><weight>1</weight></arrival><arrival><pickID>de.gempa.tb1.Pick/20250414202649.171841.141065</pickID><phase>S</phase><azimuth>259.04754638671875</azimuth><distance>1.3212497234344482</distance><timeResidual>0.22748756408691406</timeResidual><timeUsed>true</timeUsed><horizontalSlownessUsed>false</horizontalSlownessUsed><backazimuthUsed>false</backazimuthUsed><weight>1</weight></arrival><magnitude publicID="de.gempa.tb1.Magnitude/20250414202655.93759.538292"><magnitude><value>2.0989037488737514</value></magnitude><type>M</type><methodID>weighted average</methodID><stationCount>5</stationCount></magnitude></origin><event publicID="gempa2025hjvc"><preferredOriginID>de.gempa.tb1.Origin/20250414202649.175424.150376</preferredOriginID><preferredMagnitudeID>de.gempa.tb1.Magnitude/20250414202655.93759.538292</preferredMagnitudeID><description><text>Chile-Bolivia Border Region</text><type>region name</type></description><originReference>de.gempa.tb1.Origin/20250414202649.175424.150376</originReference></event></EventParameters></seiscomp>