<?xml version="1.0" encoding="UTF-8"?>
<seiscomp xmlns="http://geofon.gfz-potsdam.de/ns/seiscomp3-schema/0.13" version="0.13"><EventParameters><pick publicID="de.gempa.tb1.Pick/20250412120455.131108.156771"><time><value>2025-04-12T12:04:45.965Z</value></time><waveformID networkCode="CH" stationCode="LIENZ" channelCode="HHZ"/><filterID>ITAPER(4)&gt;&gt;BW(4,4,20)</filterID><methodID>AIC</methodID><phaseHint>P</phaseHint><evaluationMode>automatic</evaluationMode></pick><pick publicID="de.gempa.tb1.Pick/20250412120500.618898.156777"><time><value>2025-04-12T12:04:57.805Z</value></time><waveformID networkCode="CH" stationCode="SIMPL" channelCode="HHZ"/><filterID>ITAPER(4)&gt;&gt;BW(4,4,20)</filterID><methodID>AIC</methodID><phaseHint>P</phaseHint><evaluationMode>automatic</evaluationMode></pick><pick publicID="de.gempa.tb1.Pick/20250412120501.358704.156781"><time><value>2025-04-12T12:04:58.655Z</value></time><waveformID networkCode="CH" stationCode="HASLI" channelCode="HHZ"/><filterID>ITAPER(4)&gt;&gt;BW(4,4,20)</filterID><methodID>AIC</methodID><phaseHint>P</phaseHint><evaluationMode>automatic</evaluationMode></pick><pick publicID="de.gempa.tb1.Pick/20250412120503.115186.156785"><time><value>2025-04-12T12:04:59.87Z</value></time><waveformID networkCode="CH" stationCode="FIESA" channelCode="HHZ"/><filterID>ITAPER(4)&gt;&gt;BW(4,4,20)</filterID><methodID>AIC</methodID><phaseHint>P</phaseHint><evaluationMode>automatic</evaluationMode></pick><pick publicID="de.gempa.tb1.Pick/20250412120509.384161.156798"><time><value>2025-04-12T12:05:04.7Z</value></time><waveformID networkCode="CH" stationCode="VANNI" channelCode="HHZ"/><filterID>ITAPER(4)&gt;&gt;BW(4,4,20)</filterID><methodID>AIC</methodID><phaseHint>P</phaseHint><evaluationMode>automatic</evaluationMode></pick><origin publicID="de.gempa.tb1.Origin/20250412120509.387139.100719"><time><value>2025-04-12T12:02:03.542484Z</value><uncertainty>1.9567325115203857</uncertainty></time><latitude><value>45.25419235229492</value><uncertainty>45.02801513671875</uncertainty></latitude><longitude><value>25.56821823120117</value><uncertainty>15.835140228271484</uncertainty></longitude><depth><value>0</value></depth><depthType>operator assigned</depthType><methodID>LOCSAT</methodID><earthModelID>iasp91</earthModelID><quality><associatedPhaseCount>5</associatedPhaseCount><usedPhaseCount>5</usedPhaseCount><associatedStationCount>5</associatedStationCount><usedStationCount>5</usedStationCount><depthPhaseCount>0</depthPhaseCount><standardError>1.0813635928373944</standardError><azimuthalGap>354.6326599121094</azimuthalGap><maximumDistance>12.596778869628906</maximumDistance><minimumDistance>11.314446449279785</minimumDistance><medianDistance>12.235187530517578</medianDistance></quality><uncertainty><minHorizontalUncertainty>32.6639289855957</minHorizontalUncertainty><maxHorizontalUncertainty>97.04335021972656</maxHorizontalUncertainty><azimuthMaxHorizontalUncertainty>5.858358860015869</azimuthMaxHorizontalUncertainty><preferredDescription>horizontal uncertainty</preferredDescription></uncertainty><evaluationMode>automatic</evaluationMode><arrival><pickID>de.gempa.tb1.Pick/20250412120455.131108.156771</pickID><phase>P</phase><azimuth>286.1145324707031</azimuth><distance>11.314446449279785</distance><timeResidual>-0.26666259765625</timeResidual><timeUsed>true</timeUsed><horizontalSlownessUsed>false</horizontalSlownessUsed><backazimuthUsed>false</backazimuthUsed><weight>1</weight></arrival><arrival><pickID>de.gempa.tb1.Pick/20250412120500.618898.156777</pickID><phase>P</phase><azimuth>280.8382873535156</azimuth><distance>12.30241870880127</distance><timeResidual>-1.93658447265625</timeResidual><timeUsed>true</timeUsed><horizontalSlownessUsed>false</horizontalSlownessUsed><backazimuthUsed>false</backazimuthUsed><weight>1</weight></arrival><arrival><pickID>de.gempa.tb1.Pick/20250412120501.358704.156781</pickID><phase>P</phase><azimuth>283.2720031738281</azimuth><distance>12.206966400146484</distance><timeResidual>0.2204132080078125</timeResidual><timeUsed>true</timeUsed><horizontalSlownessUsed>false</horizontalSlownessUsed><backazimuthUsed>false</backazimuthUsed><weight>1</weight></arrival><arrival><pickID>de.gempa.tb1.Pick/20250412120503.115186.156785</pickID><phase>P</phase><azimuth>281.7525329589844</azimuth><distance>12.235187530517578</distance><timeResidual>1.0480499267578125</timeResidual><timeUsed>true</timeUsed><horizontalSlownessUsed>false</horizontalSlownessUsed><backazimuthUsed>false</backazimuthUsed><weight>1</weight></arrival><arrival><pickID>de.gempa.tb1.Pick/20250412120509.384161.156798</pickID><phase>P</phase><azimuth>280.7471923828125</azimuth><distance>12.596778869628906</distance><timeResidual>0.937164306640625</timeResidual><timeUsed>true</timeUsed><horizontalSlownessUsed>false</horizontalSlownessUsed><backazimuthUsed>false</backazimuthUsed><weight>1</weight></arrival><magnitude publicID="de.gempa.tb1.Magnitude/20250412120623.125743.222275"><magnitude><value>5.328620063517716</value><uncertainty>0.05480592547636479</uncertainty></magnitude><type>Mwp</type><methodID>mean</methodID><stationCount>2</stationCount></magnitude></origin><event publicID="gempa2025hfmj"><preferredOriginID>de.gempa.tb1.Origin/20250412120509.387139.100719</preferredOriginID><preferredMagnitudeID>de.gempa.tb1.Magnitude/20250412120623.125743.222275</preferredMagnitudeID><typeCertainty>suspected</typeCertainty><description><text>Romania</text><type>region name</type></description><originReference>de.gempa.tb1.Origin/20250412120509.387139.100719</originReference></event></EventParameters></seiscomp>