<?xml version="1.0" encoding="UTF-8"?>
<seiscomp xmlns="http://geofon.gfz-potsdam.de/ns/seiscomp3-schema/0.13" version="0.13"><EventParameters><pick publicID="de.gempa.tb1.Pick/20250411230830.649309.120544"><time><value>2025-04-11T23:08:24.728394Z</value></time><waveformID networkCode="CX" stationCode="PB06" channelCode="HHZ"/><filterID>ITAPER(4)&gt;&gt;BW(4,4,20)</filterID><methodID>AIC</methodID><horizontalSlowness><value>11.14914002448296</value></horizontalSlowness><backazimuth><value>272.6198289344767</value></backazimuth><phaseHint>P</phaseHint><evaluationMode>automatic</evaluationMode><comment><text>32.783960989325806</text><id>DFX:rectilinearity</id></comment><comment><text>23.02451066470424</text><id>SNR</id></comment></pick><pick publicID="de.gempa.tb1.Pick/20250411230827.701292.120542"><time><value>2025-04-11T23:08:23.208393Z</value></time><waveformID networkCode="CX" stationCode="PB15" channelCode="HHZ"/><filterID>ITAPER(4)&gt;&gt;BW(4,4,20)</filterID><methodID>AIC</methodID><horizontalSlowness><value>20.590632477616374</value></horizontalSlowness><backazimuth><value>106.80464333222326</value></backazimuth><phaseHint>P</phaseHint><evaluationMode>automatic</evaluationMode><comment><text>793.5526342123638</text><id>DFX:rectilinearity</id></comment><comment><text>24.051397475291107</text><id>SNR</id></comment></pick><pick publicID="de.gempa.tb1.Pick/20250411230833.472929.120546"><time><value>2025-04-11T23:08:26.860001Z</value></time><waveformID networkCode="CX" stationCode="PB19" channelCode="HHZ"/><filterID>ITAPER(4)&gt;&gt;BW(4,4,20)</filterID><methodID>AIC</methodID><horizontalSlowness><value>16.403530870906046</value></horizontalSlowness><backazimuth><value>143.07886469257224</value></backazimuth><phaseHint>P</phaseHint><evaluationMode>automatic</evaluationMode><comment><text>17.24365959795571</text><id>DFX:rectilinearity</id></comment><comment><text>16.05489416361855</text><id>SNR</id></comment></pick><pick publicID="de.gempa.tb1.Pick/20250411230837.620248.120548"><time><value>2025-04-11T23:08:31.318393Z</value></time><waveformID networkCode="CX" stationCode="PB03" channelCode="HHZ"/><filterID>ITAPER(4)&gt;&gt;BW(4,4,20)</filterID><methodID>AIC</methodID><horizontalSlowness><value>5.636752602809316</value></horizontalSlowness><backazimuth><value>331.4534160013245</value></backazimuth><phaseHint>P</phaseHint><evaluationMode>automatic</evaluationMode><comment><text>7.60112720730007</text><id>DFX:rectilinearity</id></comment><comment><text>19.368038576974023</text><id>SNR</id></comment></pick><pick publicID="de.gempa.tb1.Pick/20250411230847.130446.120552"><time><value>2025-04-11T23:08:32.46Z</value></time><waveformID networkCode="CX" stationCode="PB09" channelCode="HHZ"/><filterID>ITAPER(4)&gt;&gt;BW(4,4,20)</filterID><methodID>AIC</methodID><horizontalSlowness><value>21.358027388480295</value></horizontalSlowness><backazimuth><value>300.3581467956459</value></backazimuth><phaseHint>P</phaseHint><evaluationMode>automatic</evaluationMode><comment><text>12.598573354855851</text><id>DFX:rectilinearity</id></comment><comment><text>26.93759858869648</text><id>SNR</id></comment></pick><pick publicID="de.gempa.tb1.Pick/20250411230840.899175.120550"><time><value>2025-04-11T23:08:35.128393Z</value></time><waveformID networkCode="CX" stationCode="PB15" channelCode="HHN"/><filterID>ITAPER(2)&gt;&gt;BW(3,3,20)</filterID><methodID>L2-AIC-GRID</methodID><horizontalSlowness><value>19.568596200559856</value></horizontalSlowness><backazimuth><value>69.85270908232366</value></backazimuth><phaseHint>S</phaseHint><evaluationMode>automatic</evaluationMode><comment><text>1295.49558883313</text><id>DFX:rectilinearity</id></comment><comment><text>de.gempa.tb1.Pick/20250411230827.701292.120542</text><id>RefPickID</id></comment><comment><text>9.661672886221854</text><id>SNR</id></comment></pick><pick publicID="de.gempa.tb1.Pick/20250411230846.814877.120551"><time><value>2025-04-11T23:08:37.718394Z</value></time><waveformID networkCode="CX" stationCode="PB06" channelCode="HHN"/><filterID>ITAPER(2)&gt;&gt;BW(3,3,20)</filterID><methodID>L2-AIC-GRID</methodID><horizontalSlowness><value>16.438022057653843</value></horizontalSlowness><backazimuth><value>16.000710382306636</value></backazimuth><phaseHint>S</phaseHint><evaluationMode>automatic</evaluationMode><comment><text>207.8975218444182</text><id>DFX:rectilinearity</id></comment><comment><text>de.gempa.tb1.Pick/20250411230830.649309.120544</text><id>RefPickID</id></comment><comment><text>21.14398248529918</text><id>SNR</id></comment></pick><pick publicID="de.gempa.tb1.Pick/20250411230848.498153.120554"><time><value>2025-04-11T23:08:40.308393Z</value></time><waveformID networkCode="CX" stationCode="PB02" channelCode="HHZ"/><filterID>ITAPER(4)&gt;&gt;BW(4,4,20)</filterID><methodID>AIC</methodID><horizontalSlowness><value>21.977775833850561</value></horizontalSlowness><backazimuth><value>81.22693412572299</value></backazimuth><phaseHint>P</phaseHint><evaluationMode>automatic</evaluationMode><comment><text>41.35383580628848</text><id>DFX:rectilinearity</id></comment><comment><text>7.684632015901824</text><id>SNR</id></comment></pick><pick publicID="de.gempa.tb1.Pick/20250411230848.7009.120558"><time><value>2025-04-11T23:08:41.380001Z</value></time><waveformID networkCode="CX" stationCode="PB19" channelCode="HHN"/><filterID>ITAPER(2)&gt;&gt;BW(3,3,20)</filterID><methodID>L2-AIC-GRID</methodID><horizontalSlowness><value>18.12423655541405</value></horizontalSlowness><backazimuth><value>192.47632764337308</value></backazimuth><phaseHint>S</phaseHint><evaluationMode>automatic</evaluationMode><comment><text>122.63954577391529</text><id>DFX:rectilinearity</id></comment><comment><text>de.gempa.tb1.Pick/20250411230833.472929.120546</text><id>RefPickID</id></comment><comment><text>12.133109171787064</text><id>SNR</id></comment></pick><pick publicID="de.gempa.tb1.Pick/20250411230848.609622.120556"><time><value>2025-04-11T23:08:41.718393Z</value></time><waveformID networkCode="CX" stationCode="PB01" channelCode="HHZ"/><filterID>ITAPER(4)&gt;&gt;BW(4,4,20)</filterID><methodID>AIC</methodID><horizontalSlowness><value>22.156394600696167</value></horizontalSlowness><backazimuth><value>186.56439119984944</value></backazimuth><phaseHint>P</phaseHint><evaluationMode>automatic</evaluationMode><comment><text>8.515426013788083</text><id>DFX:rectilinearity</id></comment><comment><text>8.838172852378964</text><id>SNR</id></comment></pick><origin publicID="de.gempa.tb1.Origin/20250411230852.583374.67874"><time><value>2025-04-11T23:08:08.250211Z</value><uncertainty>0.904752254486084</uncertainty></time><latitude><value>-23.10350227355957</value><uncertainty>6.275023460388184</uncertainty></latitude><longitude><value>-69.0770034790039</value><uncertainty>26.31642150878906</uncertainty></longitude><depth><value>101.2348861694336</value><uncertainty>15.069621086120605</uncertainty></depth><depthType>from location</depthType><methodID>LOCSAT</methodID><earthModelID>iasp91_scanloc</earthModelID><quality><associatedPhaseCount>10</associatedPhaseCount><usedPhaseCount>10</usedPhaseCount><associatedStationCount>7</associatedStationCount><usedStationCount>7</usedStationCount><depthPhaseCount>0</depthPhaseCount><standardError>0.18102943847216754</standardError><azimuthalGap>200.492919921875</azimuthalGap><maximumDistance>2.085378646850586</maximumDistance><minimumDistance>0.3772704005241394</minimumDistance><medianDistance>0.8213650584220886</medianDistance></quality><uncertainty><minHorizontalUncertainty>8.757586479187012</minHorizontalUncertainty><maxHorizontalUncertainty>57.34418106079102</maxHorizontalUncertainty><azimuthMaxHorizontalUncertainty>79.61625671386719</azimuthMaxHorizontalUncertainty><preferredDescription>horizontal uncertainty</preferredDescription></uncertainty><evaluationMode>automatic</evaluationMode><evaluationStatus>confirmed</evaluationStatus><comment><text>0.08</text><id>mismatchScore</id></comment><comment><text>mismatchScore</text><id>scevalMethod</id></comment><arrival><pickID>de.gempa.tb1.Pick/20250411230830.649309.120544</pickID><phase>P</phase><azimuth>310.8447265625</azimuth><distance>0.6040798425674438</distance><timeResidual>-0.2281684875488281</timeResidual><timeUsed>true</timeUsed><horizontalSlownessUsed>false</horizontalSlownessUsed><backazimuthUsed>false</backazimuthUsed><weight>1</weight></arrival><arrival><pickID>de.gempa.tb1.Pick/20250411230827.701292.120542</pickID><phase>P</phase><azimuth>253.8666076660156</azimuth><distance>0.3772704005241394</distance><timeResidual>-0.16216373443603516</timeResidual><timeUsed>true</timeUsed><horizontalSlownessUsed>false</horizontalSlownessUsed><backazimuthUsed>false</backazimuthUsed><weight>1</weight></arrival><arrival><pickID>de.gempa.tb1.Pick/20250411230833.472929.120546</pickID><phase>P</phase><azimuth>193.77249145507812</azimuth><distance>0.8213650584220886</distance><timeResidual>-0.05348873138427734</timeResidual><timeUsed>true</timeUsed><horizontalSlownessUsed>false</horizontalSlownessUsed><backazimuthUsed>false</backazimuthUsed><weight>1</weight></arrival><arrival><pickID>de.gempa.tb1.Pick/20250411230837.620248.120548</pickID><phase>P</phase><azimuth>329.1124572753906</azimuth><distance>1.2219072580337524</distance><timeResidual>0.06734752655029297</timeResidual><timeUsed>true</timeUsed><horizontalSlownessUsed>false</horizontalSlownessUsed><backazimuthUsed>false</backazimuthUsed><weight>1</weight></arrival><arrival><pickID>de.gempa.tb1.Pick/20250411230847.130446.120552</pickID><phase>P</phase><azimuth>353.2795715332031</azimuth><distance>1.3098199367523193</distance><timeResidual>0.17830848693847656</timeResidual><timeUsed>true</timeUsed><horizontalSlownessUsed>false</horizontalSlownessUsed><backazimuthUsed>false</backazimuthUsed><weight>1</weight></arrival><arrival><pickID>de.gempa.tb1.Pick/20250411230840.899175.120550</pickID><phase>S</phase><azimuth>253.8666076660156</azimuth><distance>0.3772704005241394</distance><timeResidual>0.1422872543334961</timeResidual><timeUsed>true</timeUsed><horizontalSlownessUsed>false</horizontalSlownessUsed><backazimuthUsed>false</backazimuthUsed><weight>1</weight></arrival><arrival><pickID>de.gempa.tb1.Pick/20250411230846.814877.120551</pickID><phase>S</phase><azimuth>310.8447265625</azimuth><distance>0.6040798425674438</distance><timeResidual>-0.08777236938476562</timeResidual><timeUsed>true</timeUsed><horizontalSlownessUsed>false</horizontalSlownessUsed><backazimuthUsed>false</backazimuthUsed><weight>1</weight></arrival><arrival><pickID>de.gempa.tb1.Pick/20250411230848.498153.120554</pickID><phase>P</phase><azimuth>336.6963806152344</azimuth><distance>1.9306371212005615</distance><timeResidual>0.3223562240600586</timeResidual><timeUsed>true</timeUsed><horizontalSlownessUsed>false</horizontalSlownessUsed><backazimuthUsed>false</backazimuthUsed><weight>1</weight></arrival><arrival><pickID>de.gempa.tb1.Pick/20250411230848.7009.120558</pickID><phase>S</phase><azimuth>193.77249145507812</azimuth><distance>0.8213650584220886</distance><timeResidual>0.08708858489990234</timeResidual><timeUsed>true</timeUsed><horizontalSlownessUsed>false</horizontalSlownessUsed><backazimuthUsed>false</backazimuthUsed><weight>1</weight></arrival><arrival><pickID>de.gempa.tb1.Pick/20250411230848.609622.120556</pickID><phase>P</phase><azimuth>349.40484619140625</azimuth><distance>2.085378646850586</distance><timeResidual>-0.2659330368041992</timeResidual><timeUsed>true</timeUsed><horizontalSlownessUsed>false</horizontalSlownessUsed><backazimuthUsed>false</backazimuthUsed><weight>1</weight></arrival><magnitude publicID="de.gempa.tb1.Magnitude/20250411230855.937548.151902"><magnitude><value>2.375455079422173</value></magnitude><type>M</type><methodID>weighted average</methodID><stationCount>6</stationCount></magnitude></origin><event publicID="gempa2025hemm"><preferredOriginID>de.gempa.tb1.Origin/20250411230852.583374.67874</preferredOriginID><preferredMagnitudeID>de.gempa.tb1.Magnitude/20250411230855.937548.151902</preferredMagnitudeID><description><text>Northern Chile</text><type>region name</type></description><originReference>de.gempa.tb1.Origin/20250411230852.583374.67874</originReference></event></EventParameters></seiscomp>