<?xml version="1.0" encoding="UTF-8"?>
<seiscomp xmlns="http://geofon.gfz-potsdam.de/ns/seiscomp3-schema/0.13" version="0.13"><EventParameters><pick publicID="de.gempa.tb1.Pick/20250414151424.822069.231979"><time><value>2025-04-14T15:14:19.77Z</value></time><waveformID networkCode="CH" stationCode="ROTHE" channelCode="HHZ"/><filterID>ITAPER(4)&gt;&gt;BW(4,4,20)</filterID><methodID>AIC</methodID><phaseHint>P</phaseHint><evaluationMode>automatic</evaluationMode></pick><pick publicID="de.gempa.tb1.Pick/20250414151432.123286.231981"><time><value>2025-04-14T15:14:28.13Z</value></time><waveformID networkCode="CH" stationCode="FIESA" channelCode="HHZ"/><filterID>ITAPER(4)&gt;&gt;BW(4,4,20)</filterID><methodID>AIC</methodID><phaseHint>P</phaseHint><evaluationMode>automatic</evaluationMode></pick><pick publicID="de.gempa.tb1.Pick/20250414151433.725881.231983"><time><value>2025-04-14T15:14:29.615Z</value></time><waveformID networkCode="CH" stationCode="LAUCH" channelCode="HHZ"/><filterID>ITAPER(4)&gt;&gt;BW(4,4,20)</filterID><methodID>AIC</methodID><phaseHint>P</phaseHint><evaluationMode>automatic</evaluationMode></pick><pick publicID="de.gempa.tb1.Pick/20250414151435.505172.231986"><time><value>2025-04-14T15:14:32.43Z</value></time><waveformID networkCode="CH" stationCode="EMBD" channelCode="HHZ"/><filterID>ITAPER(4)&gt;&gt;BW(4,4,20)</filterID><methodID>AIC</methodID><phaseHint>P</phaseHint><evaluationMode>automatic</evaluationMode></pick><pick publicID="de.gempa.tb1.Pick/20250414151437.133122.231988"><time><value>2025-04-14T15:14:34.25Z</value></time><waveformID networkCode="CH" stationCode="DIX" channelCode="HHZ"/><filterID>ITAPER(4)&gt;&gt;BW(4,4,20)</filterID><methodID>AIC</methodID><phaseHint>P</phaseHint><evaluationMode>automatic</evaluationMode></pick><pick publicID="de.gempa.tb1.Pick/20250414151437.62856.231990"><time><value>2025-04-14T15:14:34.545Z</value></time><waveformID networkCode="CH" stationCode="AIGLE" channelCode="HHZ"/><filterID>ITAPER(4)&gt;&gt;BW(4,4,20)</filterID><methodID>AIC</methodID><phaseHint>P</phaseHint><evaluationMode>automatic</evaluationMode></pick><pick publicID="de.gempa.tb1.Pick/20250414151517.053576.232009"><time><value>2025-04-14T15:13:52.939999Z</value></time><waveformID networkCode="GR" stationCode="BSEG" channelCode="BHZ"/><filterID>ITAPER(4)&gt;&gt;BW_HP(4,4)</filterID><methodID>AIC</methodID><phaseHint>P</phaseHint><evaluationMode>automatic</evaluationMode></pick><pick publicID="de.gempa.tb1.Pick/20250414151551.532095.232074"><time><value>2025-04-14T15:13:43.054999Z</value></time><waveformID networkCode="GR" stationCode="GRA1" channelCode="BHZ"/><filterID>ITAPER(4)&gt;&gt;BW_HP(4,4)</filterID><methodID>AIC</methodID><phaseHint>P</phaseHint><evaluationMode>automatic</evaluationMode></pick><pick publicID="de.gempa.tb1.Pick/20250414151551.561846.232080"><time><value>2025-04-14T15:13:45.54Z</value></time><waveformID networkCode="GR" stationCode="GRB4" channelCode="BHZ"/><filterID>ITAPER(4)&gt;&gt;BW_HP(4,4)</filterID><methodID>AIC</methodID><phaseHint>P</phaseHint><evaluationMode>automatic</evaluationMode></pick><origin publicID="de.gempa.tb1.Origin/20250414151551.571652.144289"><time><value>2025-04-14T15:12:59.138587Z</value><uncertainty>4.2371129989624023</uncertainty></time><latitude><value>51.4438591003418</value><uncertainty>6.622243404388428</uncertainty></latitude><longitude><value>13.293381690979004</value><uncertainty>51.32885360717773</uncertainty></longitude><depth><value>257.9972229003906</value><uncertainty>24.02027702331543</uncertainty></depth><depthType>from location</depthType><methodID>LOCSAT</methodID><earthModelID>iasp91</earthModelID><quality><associatedPhaseCount>9</associatedPhaseCount><usedPhaseCount>9</usedPhaseCount><associatedStationCount>9</associatedStationCount><usedStationCount>9</usedStationCount><depthPhaseCount>0</depthPhaseCount><standardError>0.6925562661968859</standardError><azimuthalGap>244.72181701660156</azimuthalGap><maximumDistance>6.627402782440186</maximumDistance><minimumDistance>2.1958448886871338</minimumDistance><medianDistance>6.06370735168457</medianDistance></quality><uncertainty><minHorizontalUncertainty>14.181206703186035</minHorizontalUncertainty><maxHorizontalUncertainty>110.0884780883789</maxHorizontalUncertainty><azimuthMaxHorizontalUncertainty>89.58895874023438</azimuthMaxHorizontalUncertainty><preferredDescription>horizontal uncertainty</preferredDescription></uncertainty><evaluationMode>automatic</evaluationMode><evaluationStatus>confirmed</evaluationStatus><comment><text>0.37</text><id>mismatchScore</id></comment><comment><text>mismatchScore</text><id>scevalMethod</id></comment><arrival><pickID>de.gempa.tb1.Pick/20250414151424.822069.231979</pickID><phase>P</phase><azimuth>223.49551391601562</azimuth><distance>5.294662952423096</distance><timeResidual>1.0645713806152344</timeResidual><timeUsed>true</timeUsed><horizontalSlownessUsed>false</horizontalSlownessUsed><backazimuthUsed>false</backazimuthUsed><weight>1</weight></arrival><arrival><pickID>de.gempa.tb1.Pick/20250414151432.123286.231981</pickID><phase>P</phase><azimuth>216.2594757080078</azimuth><distance>6.06370735168457</distance><timeResidual>-0.031230926513671875</timeResidual><timeUsed>true</timeUsed><horizontalSlownessUsed>false</horizontalSlownessUsed><backazimuthUsed>false</backazimuthUsed><weight>1</weight></arrival><arrival><pickID>de.gempa.tb1.Pick/20250414151433.725881.231983</pickID><phase>P</phase><azimuth>217.9953155517578</azimuth><distance>6.208223342895508</distance><timeResidual>-0.3408470153808594</timeResidual><timeUsed>true</timeUsed><horizontalSlownessUsed>false</horizontalSlownessUsed><backazimuthUsed>false</backazimuthUsed><weight>1</weight></arrival><arrival><pickID>de.gempa.tb1.Pick/20250414151435.505172.231986</pickID><phase>P</phase><azimuth>216.67747497558594</azimuth><distance>6.351810932159424</distance><timeResidual>0.686065673828125</timeResidual><timeUsed>true</timeUsed><horizontalSlownessUsed>false</horizontalSlownessUsed><backazimuthUsed>false</backazimuthUsed><weight>1</weight></arrival><arrival><pickID>de.gempa.tb1.Pick/20250414151437.133122.231988</pickID><phase>P</phase><azimuth>218.2000274658203</azimuth><distance>6.627402782440186</distance><timeResidual>-0.92779541015625</timeResidual><timeUsed>true</timeUsed><horizontalSlownessUsed>false</horizontalSlownessUsed><backazimuthUsed>false</backazimuthUsed><weight>1</weight></arrival><arrival><pickID>de.gempa.tb1.Pick/20250414151437.62856.231990</pickID><phase>P</phase><azimuth>221.75222778320312</azimuth><distance>6.59696102142334</distance><timeResidual>-0.2492332458496094</timeResidual><timeUsed>true</timeUsed><horizontalSlownessUsed>false</horizontalSlownessUsed><backazimuthUsed>false</backazimuthUsed><weight>1</weight></arrival><arrival><pickID>de.gempa.tb1.Pick/20250414151517.053576.232009</pickID><phase>P</phase><azimuth>325.19873046875</azimuth><distance>3.084228277206421</distance><timeResidual>0.02104949951171875</timeResidual><timeUsed>true</timeUsed><horizontalSlownessUsed>false</horizontalSlownessUsed><backazimuthUsed>false</backazimuthUsed><weight>1</weight></arrival><arrival><pickID>de.gempa.tb1.Pick/20250414151551.532095.232074</pickID><phase>P</phase><azimuth>217.7858428955078</azimuth><distance>2.1958448886871338</distance><timeResidual>-1.0189437866210938</timeResidual><timeUsed>true</timeUsed><horizontalSlownessUsed>false</horizontalSlownessUsed><backazimuthUsed>false</backazimuthUsed><weight>1</weight></arrival><arrival><pickID>de.gempa.tb1.Pick/20250414151551.561846.232080</pickID><phase>P</phase><azimuth>209.92054748535156</azimuth><distance>2.2662317752838135</distance><timeResidual>0.7962074279785156</timeResidual><timeUsed>true</timeUsed><horizontalSlownessUsed>false</horizontalSlownessUsed><backazimuthUsed>false</backazimuthUsed><weight>1</weight></arrival><magnitude publicID="de.gempa.tb1.Magnitude/20250414151556.063572.505529"><magnitude><value>3.5248695362572993</value></magnitude><type>M</type><methodID>weighted average</methodID><stationCount>5</stationCount></magnitude></origin><event publicID="gempa2025hjks"><preferredOriginID>de.gempa.tb1.Origin/20250414151551.571652.144289</preferredOriginID><preferredMagnitudeID>de.gempa.tb1.Magnitude/20250414151556.063572.505529</preferredMagnitudeID><description><text>Germany</text><type>region name</type></description><originReference>de.gempa.tb1.Origin/20250414151551.571652.144289</originReference></event></EventParameters></seiscomp>