<?xml version="1.0" encoding="UTF-8"?>
<seiscomp xmlns="http://geofon.gfz-potsdam.de/ns/seiscomp3-schema/0.13" version="0.13"><EventParameters><pick publicID="de.gempa.tb1.Pick/20250414233317.510916.142107"><time><value>2025-04-14T23:33:10.678394Z</value></time><waveformID networkCode="CX" stationCode="PB08" channelCode="HHZ"/><filterID>ITAPER(4)&gt;&gt;BW(4,4,20)</filterID><methodID>AIC</methodID><horizontalSlowness><value>9.209896669983133</value></horizontalSlowness><backazimuth><value>247.17139360548953</value></backazimuth><phaseHint>P</phaseHint><evaluationMode>automatic</evaluationMode><comment><text>38.13389832602846</text><id>DFX:rectilinearity</id></comment><comment><text>68.49591689852454</text><id>SNR</id></comment></pick><pick publicID="de.gempa.tb1.Pick/20250414233321.585787.142109"><time><value>2025-04-14T23:33:15.958393Z</value></time><waveformID networkCode="CX" stationCode="PB01" channelCode="HHZ"/><filterID>ITAPER(4)&gt;&gt;BW(4,4,20)</filterID><methodID>AIC</methodID><horizontalSlowness><value>7.972093426438188</value></horizontalSlowness><backazimuth><value>352.22180101555386</value></backazimuth><phaseHint>P</phaseHint><evaluationMode>automatic</evaluationMode><comment><text>42.342475890810405</text><id>DFX:rectilinearity</id></comment><comment><text>48.07930315014197</text><id>SNR</id></comment></pick><pick publicID="de.gempa.tb1.Pick/20250414233322.568115.142111"><time><value>2025-04-14T23:33:18.06Z</value></time><waveformID networkCode="CX" stationCode="PSGCX" channelCode="HHZ"/><filterID>ITAPER(4)&gt;&gt;BW(4,4,20)</filterID><methodID>AIC</methodID><horizontalSlowness><value>20.322796814301402</value></horizontalSlowness><backazimuth><value>85.49945162375379</value></backazimuth><phaseHint>P</phaseHint><evaluationMode>automatic</evaluationMode><comment><text>26.720969219164626</text><id>DFX:rectilinearity</id></comment><comment><text>113.34874125687398</text><id>SNR</id></comment></pick><pick publicID="de.gempa.tb1.Pick/20250414233326.468503.142113"><time><value>2025-04-14T23:33:18.369999Z</value></time><waveformID networkCode="CX" stationCode="PATCX" channelCode="HHZ"/><filterID>ITAPER(4)&gt;&gt;BW(4,4,20)</filterID><methodID>AIC</methodID><horizontalSlowness><value>16.143408057131598</value></horizontalSlowness><backazimuth><value>84.63533097020925</value></backazimuth><phaseHint>P</phaseHint><evaluationMode>automatic</evaluationMode><comment><text>95.17963228158716</text><id>DFX:rectilinearity</id></comment><comment><text>19.34127835447325</text><id>SNR</id></comment></pick><pick publicID="de.gempa.tb1.Pick/20250414233327.690758.142115"><time><value>2025-04-14T23:33:21.468394Z</value></time><waveformID networkCode="CX" stationCode="PB08" channelCode="HHN"/><filterID>ITAPER(2)&gt;&gt;BW(3,3,20)</filterID><methodID>L2-AIC-GRID</methodID><horizontalSlowness><value>16.997483892781656</value></horizontalSlowness><backazimuth><value>201.95818840770113</value></backazimuth><phaseHint>S</phaseHint><evaluationMode>automatic</evaluationMode><comment><text>1545.3485753958212</text><id>DFX:rectilinearity</id></comment><comment><text>de.gempa.tb1.Pick/20250414233317.510916.142107</text><id>RefPickID</id></comment><comment><text>8.142445948678137</text><id>SNR</id></comment></pick><pick publicID="de.gempa.tb1.Pick/20250414233330.496376.142116"><time><value>2025-04-14T23:33:21.038393Z</value></time><waveformID networkCode="CX" stationCode="PB02" channelCode="HHZ"/><filterID>ITAPER(4)&gt;&gt;BW(4,4,20)</filterID><methodID>AIC</methodID><horizontalSlowness><value>11.063384589111312</value></horizontalSlowness><backazimuth><value>15.844237713050518</value></backazimuth><phaseHint>P</phaseHint><evaluationMode>automatic</evaluationMode><comment><text>40.17568000591964</text><id>DFX:rectilinearity</id></comment><comment><text>18.373877281141056</text><id>SNR</id></comment></pick><pick publicID="de.gempa.tb1.Pick/20250414233335.387695.142118"><time><value>2025-04-14T23:33:24.898396Z</value></time><waveformID networkCode="CX" stationCode="PB07" channelCode="HHZ"/><filterID>ITAPER(4)&gt;&gt;BW(4,4,20)</filterID><methodID>AIC</methodID><horizontalSlowness><value>21.179830809157483</value></horizontalSlowness><backazimuth><value>355.1344573938674</value></backazimuth><phaseHint>P</phaseHint><evaluationMode>automatic</evaluationMode><comment><text>132.24514107537243</text><id>DFX:rectilinearity</id></comment><comment><text>18.542981800313441</text><id>SNR</id></comment></pick><pick publicID="de.gempa.tb1.Pick/20250414233338.598579.142120"><time><value>2025-04-14T23:33:31.018393Z</value></time><waveformID networkCode="CX" stationCode="PB01" channelCode="HHN"/><filterID>ITAPER(2)&gt;&gt;BW(3,3,20)</filterID><methodID>L2-AIC-GRID</methodID><horizontalSlowness><value>21.413958161202586</value></horizontalSlowness><backazimuth><value>264.50405146035786</value></backazimuth><phaseHint>S</phaseHint><evaluationMode>automatic</evaluationMode><comment><text>826.6828109522276</text><id>DFX:rectilinearity</id></comment><comment><text>de.gempa.tb1.Pick/20250414233321.585787.142109</text><id>RefPickID</id></comment><comment><text>8.866833107098772</text><id>SNR</id></comment></pick><pick publicID="de.gempa.tb1.Pick/20250414233339.332015.142121"><time><value>2025-04-14T23:33:24.43Z</value></time><waveformID networkCode="CX" stationCode="PB09" channelCode="HHZ"/><filterID>ITAPER(4)&gt;&gt;BW(4,4,20)</filterID><methodID>AIC</methodID><horizontalSlowness><value>22.77714260488055</value></horizontalSlowness><backazimuth><value>309.54413728119636</value></backazimuth><phaseHint>P</phaseHint><evaluationMode>automatic</evaluationMode><comment><text>18.051275742184377</text><id>DFX:rectilinearity</id></comment><comment><text>13.168120219199096</text><id>SNR</id></comment></pick><pick publicID="de.gempa.tb1.Pick/20250414233344.41936.142123"><time><value>2025-04-14T23:33:35.119999Z</value></time><waveformID networkCode="CX" stationCode="PATCX" channelCode="HHN"/><filterID>ITAPER(2)&gt;&gt;BW(3,3,20)</filterID><methodID>L2-AIC-GRID</methodID><horizontalSlowness><value>20.674520586694765</value></horizontalSlowness><backazimuth><value>283.7660036311389</value></backazimuth><phaseHint>S</phaseHint><evaluationMode>automatic</evaluationMode><comment><text>296.81175218999033</text><id>DFX:rectilinearity</id></comment><comment><text>de.gempa.tb1.Pick/20250414233326.468503.142113</text><id>RefPickID</id></comment><comment><text>12.30606481239175</text><id>SNR</id></comment></pick><pick publicID="de.gempa.tb1.Pick/20250414233345.630914.142124"><time><value>2025-04-14T23:33:34.9Z</value></time><waveformID networkCode="CX" stationCode="PSGCX" channelCode="HHN"/><filterID>ITAPER(2)&gt;&gt;BW(3,3,20)</filterID><methodID>L2-AIC-GRID</methodID><horizontalSlowness><value>9.767378880360887</value></horizontalSlowness><backazimuth><value>107.0779199655325</value></backazimuth><phaseHint>S</phaseHint><evaluationMode>automatic</evaluationMode><comment><text>268.23834036593024</text><id>DFX:rectilinearity</id></comment><comment><text>de.gempa.tb1.Pick/20250414233322.568115.142111</text><id>RefPickID</id></comment><comment><text>8.089657373620229</text><id>SNR</id></comment></pick><pick publicID="de.gempa.tb1.Pick/20250414233348.495852.142126"><time><value>2025-04-14T23:33:39.798393Z</value></time><waveformID networkCode="CX" stationCode="PB02" channelCode="HHN"/><filterID>ITAPER(2)&gt;&gt;BW(3,3,20)</filterID><methodID>L2-AIC-GRID</methodID><horizontalSlowness><value>20.392975901488512</value></horizontalSlowness><backazimuth><value>18.314772988186235</value></backazimuth><phaseHint>S</phaseHint><evaluationMode>automatic</evaluationMode><comment><text>461.2124427706328</text><id>DFX:rectilinearity</id></comment><comment><text>de.gempa.tb1.Pick/20250414233330.496376.142116</text><id>RefPickID</id></comment><comment><text>5.989620803016472</text><id>SNR</id></comment></pick><pick publicID="de.gempa.tb1.Pick/20250414233419.699004.142130"><time><value>2025-04-14T23:33:47.358396Z</value></time><waveformID networkCode="CX" stationCode="PB07" channelCode="HHN"/><filterID>ITAPER(2)&gt;&gt;BW(3,3,20)</filterID><methodID>L2-AIC-GRID</methodID><horizontalSlowness><value>23.191510945128417</value></horizontalSlowness><backazimuth><value>100.90545522979785</value></backazimuth><phaseHint>S</phaseHint><evaluationMode>automatic</evaluationMode><comment><text>1530.6842828130207</text><id>DFX:rectilinearity</id></comment><comment><text>de.gempa.tb1.Pick/20250414233335.387695.142118</text><id>RefPickID</id></comment><comment><text>5.037481670985584</text><id>SNR</id></comment></pick><origin publicID="de.gempa.tb1.Origin/20250414233419.702767.154609"><time><value>2025-04-14T23:32:56.702122Z</value><uncertainty>0.903238296508789</uncertainty></time><latitude><value>-20.191823959350586</value><uncertainty>3.40437650680542</uncertainty></latitude><longitude><value>-69.15728759765625</value><uncertainty>5.649296760559082</uncertainty></longitude><depth><value>101.0146713256836</value><uncertainty>6.237330436706543</uncertainty></depth><depthType>from location</depthType><methodID>LOCSAT</methodID><earthModelID>iasp91_scanloc</earthModelID><quality><associatedPhaseCount>13</associatedPhaseCount><usedPhaseCount>13</usedPhaseCount><associatedStationCount>7</associatedStationCount><usedStationCount>7</usedStationCount><depthPhaseCount>0</depthPhaseCount><standardError>0.20527359984788524</standardError><azimuthalGap>178.67544317245483</azimuthalGap><maximumDistance>1.67222261428833</maximumDistance><minimumDistance>0.05057588592171669</minimumDistance><medianDistance>1.1235989332199097</medianDistance></quality><uncertainty><minHorizontalUncertainty>7.276615142822266</minHorizontalUncertainty><maxHorizontalUncertainty>12.124629020690918</maxHorizontalUncertainty><azimuthMaxHorizontalUncertainty>86.6554946899414</azimuthMaxHorizontalUncertainty><preferredDescription>horizontal uncertainty</preferredDescription></uncertainty><evaluationMode>automatic</evaluationMode><evaluationStatus>confirmed</evaluationStatus><comment><text>0.00</text><id>mismatchScore</id></comment><comment><text>mismatchScore</text><id>scevalMethod</id></comment><arrival><pickID>de.gempa.tb1.Pick/20250414233317.510916.142107</pickID><phase>P</phase><azimuth>4.1453118324279785</azimuth><distance>0.05057588592171669</distance><timeResidual>-0.024107933044433594</timeResidual><timeUsed>true</timeUsed><horizontalSlownessUsed>false</horizontalSlownessUsed><backazimuthUsed>false</backazimuthUsed><weight>1</weight></arrival><arrival><pickID>de.gempa.tb1.Pick/20250414233321.585787.142109</pickID><phase>P</phase><azimuth>199.9961395263672</azimuth><distance>0.9017803072929382</distance><timeResidual>-0.19978809356689453</timeResidual><timeUsed>true</timeUsed><horizontalSlownessUsed>false</horizontalSlownessUsed><backazimuthUsed>false</backazimuthUsed><weight>1</weight></arrival><arrival><pickID>de.gempa.tb1.Pick/20250414233322.568115.142111</pickID><phase>P</phase><azimuth>302.8974609375</azimuth><distance>1.084402084350586</distance><timeResidual>-0.06509590148925781</timeResidual><timeUsed>true</timeUsed><horizontalSlownessUsed>false</horizontalSlownessUsed><backazimuthUsed>false</backazimuthUsed><weight>1</weight></arrival><arrival><pickID>de.gempa.tb1.Pick/20250414233326.468503.142113</pickID><phase>P</phase><azimuth>235.9879608154297</azimuth><distance>1.1235989332199097</distance><timeResidual>-0.18892765045166016</timeResidual><timeUsed>true</timeUsed><horizontalSlownessUsed>false</horizontalSlownessUsed><backazimuthUsed>false</backazimuthUsed><weight>1</weight></arrival><arrival><pickID>de.gempa.tb1.Pick/20250414233327.690758.142115</pickID><phase>S</phase><azimuth>4.1453118324279785</azimuth><distance>0.05057588592171669</distance><timeResidual>0.019815444946289062</timeResidual><timeUsed>true</timeUsed><horizontalSlownessUsed>false</horizontalSlownessUsed><backazimuthUsed>false</backazimuthUsed><weight>1</weight></arrival><arrival><pickID>de.gempa.tb1.Pick/20250414233330.496376.142116</pickID><phase>P</phase><azimuth>211.50650024414062</azimuth><distance>1.318101406097412</distance><timeResidual>0.2284383773803711</timeResidual><timeUsed>true</timeUsed><horizontalSlownessUsed>false</horizontalSlownessUsed><backazimuthUsed>false</backazimuthUsed><weight>1</weight></arrival><arrival><pickID>de.gempa.tb1.Pick/20250414233335.387695.142118</pickID><phase>P</phase><azimuth>203.91200256347656</azimuth><distance>1.67222261428833</distance><timeResidual>-0.2411994934082031</timeResidual><timeUsed>true</timeUsed><horizontalSlownessUsed>false</horizontalSlownessUsed><backazimuthUsed>false</backazimuthUsed><weight>1</weight></arrival><arrival><pickID>de.gempa.tb1.Pick/20250414233338.598579.142120</pickID><phase>S</phase><azimuth>199.9961395263672</azimuth><distance>0.9017803072929382</distance><timeResidual>-0.13891315460205078</timeResidual><timeUsed>true</timeUsed><horizontalSlownessUsed>false</horizontalSlownessUsed><backazimuthUsed>false</backazimuthUsed><weight>1</weight></arrival><arrival><pickID>de.gempa.tb1.Pick/20250414233339.332015.142121</pickID><phase>P</phase><azimuth>182.8207550048828</azimuth><distance>1.5985063314437866</distance><timeResidual>0.2112741470336914</timeResidual><timeUsed>true</timeUsed><horizontalSlownessUsed>false</horizontalSlownessUsed><backazimuthUsed>false</backazimuthUsed><weight>1</weight></arrival><arrival><pickID>de.gempa.tb1.Pick/20250414233344.41936.142123</pickID><phase>S</phase><azimuth>235.9879608154297</azimuth><distance>1.1235989332199097</distance><timeResidual>-0.3208169937133789</timeResidual><timeUsed>true</timeUsed><horizontalSlownessUsed>false</horizontalSlownessUsed><backazimuthUsed>false</backazimuthUsed><weight>1</weight></arrival><arrival><pickID>de.gempa.tb1.Pick/20250414233345.630914.142124</pickID><phase>S</phase><azimuth>302.8974609375</azimuth><distance>1.084402084350586</distance><timeResidual>0.2351503372192383</timeResidual><timeUsed>true</timeUsed><horizontalSlownessUsed>false</horizontalSlownessUsed><backazimuthUsed>false</backazimuthUsed><weight>1</weight></arrival><arrival><pickID>de.gempa.tb1.Pick/20250414233348.495852.142126</pickID><phase>S</phase><azimuth>211.50650024414062</azimuth><distance>1.318101406097412</distance><timeResidual>0.33467769622802734</timeResidual><timeUsed>true</timeUsed><horizontalSlownessUsed>false</horizontalSlownessUsed><backazimuthUsed>false</backazimuthUsed><weight>1</weight></arrival><arrival><pickID>de.gempa.tb1.Pick/20250414233419.699004.142130</pickID><phase>S</phase><azimuth>203.91200256347656</azimuth><distance>1.67222261428833</distance><timeResidual>0.14980220794677734</timeResidual><timeUsed>true</timeUsed><horizontalSlownessUsed>false</horizontalSlownessUsed><backazimuthUsed>false</backazimuthUsed><weight>1</weight></arrival><magnitude publicID="de.gempa.tb1.Magnitude/20250414233430.940174.551758"><magnitude><value>2.1224537084488304</value></magnitude><type>M</type><methodID>weighted average</methodID><stationCount>6</stationCount></magnitude></origin><event publicID="gempa2025hkbj"><preferredOriginID>de.gempa.tb1.Origin/20250414233419.702767.154609</preferredOriginID><preferredMagnitudeID>de.gempa.tb1.Magnitude/20250414233430.940174.551758</preferredMagnitudeID><description><text>Northern Chile</text><type>region name</type></description><originReference>de.gempa.tb1.Origin/20250414233419.702767.154609</originReference></event></EventParameters></seiscomp>