<?xml version="1.0" encoding="UTF-8"?>
<seiscomp xmlns="http://geofon.gfz-potsdam.de/ns/seiscomp3-schema/0.13" version="0.13"><EventParameters><pick publicID="de.gempa.tb1.Pick/20250414152313.574164.138885"><time><value>2025-04-14T15:23:08.418393Z</value></time><waveformID networkCode="CX" stationCode="PB08" channelCode="HHZ"/><filterID>ITAPER(4)&gt;&gt;BW(4,4,20)</filterID><methodID>AIC</methodID><horizontalSlowness><value>16.37808658579381</value></horizontalSlowness><backazimuth><value>84.74653545877413</value></backazimuth><phaseHint>P</phaseHint><evaluationMode>automatic</evaluationMode><comment><text>13.38742149131164</text><id>DFX:rectilinearity</id></comment><comment><text>18.39077567226492</text><id>SNR</id></comment></pick><pick publicID="de.gempa.tb1.Pick/20250414152315.633039.138888"><time><value>2025-04-14T15:23:10.97Z</value></time><waveformID networkCode="CX" stationCode="PSGCX" channelCode="HHZ"/><filterID>ITAPER(4)&gt;&gt;BW(4,4,20)</filterID><methodID>AIC</methodID><horizontalSlowness><value>10.216472989407821</value></horizontalSlowness><backazimuth><value>108.16522040324728</value></backazimuth><phaseHint>P</phaseHint><evaluationMode>automatic</evaluationMode><comment><text>34.377543933296124</text><id>DFX:rectilinearity</id></comment><comment><text>19.677401838076957</text><id>SNR</id></comment></pick><pick publicID="de.gempa.tb1.Pick/20250414152322.274453.138893"><time><value>2025-04-14T15:23:13.149999Z</value></time><waveformID networkCode="CX" stationCode="PATCX" channelCode="HHZ"/><filterID>ITAPER(4)&gt;&gt;BW(4,4,20)</filterID><methodID>AIC</methodID><horizontalSlowness><value>22.73507223201484</value></horizontalSlowness><backazimuth><value>123.9761489865231</value></backazimuth><phaseHint>P</phaseHint><evaluationMode>automatic</evaluationMode><comment><text>163.1445248854174</text><id>DFX:rectilinearity</id></comment><comment><text>7.078985006514437</text><id>SNR</id></comment></pick><pick publicID="de.gempa.tb1.Pick/20250414152327.51424.138896"><time><value>2025-04-14T15:23:19.848393Z</value></time><waveformID networkCode="CX" stationCode="PB16" channelCode="HHZ"/><filterID>ITAPER(4)&gt;&gt;BW(4,4,20)</filterID><methodID>AIC</methodID><horizontalSlowness><value>15.34829913307419</value></horizontalSlowness><backazimuth><value>273.6012902982158</value></backazimuth><phaseHint>P</phaseHint><evaluationMode>automatic</evaluationMode><comment><text>1.8430508857572652</text><id>DFX:rectilinearity</id></comment><comment><text>18.83679489158913</text><id>SNR</id></comment></pick><pick publicID="de.gempa.tb1.Pick/20250414152331.318466.138898"><time><value>2025-04-14T15:23:20.098393Z</value></time><waveformID networkCode="CX" stationCode="PB08" channelCode="HHN"/><filterID>ITAPER(2)&gt;&gt;BW(3,3,20)</filterID><methodID>L2-AIC-GRID</methodID><horizontalSlowness><value>13.374903516587825</value></horizontalSlowness><backazimuth><value>216.9302513991779</value></backazimuth><phaseHint>S</phaseHint><evaluationMode>automatic</evaluationMode><comment><text>213.03723398413413</text><id>DFX:rectilinearity</id></comment><comment><text>de.gempa.tb1.Pick/20250414152313.574164.138885</text><id>RefPickID</id></comment><comment><text>14.26643857038814</text><id>SNR</id></comment></pick><pick publicID="de.gempa.tb1.Pick/20250414152333.593177.138899"><time><value>2025-04-14T15:23:25.15Z</value></time><waveformID networkCode="CX" stationCode="PSGCX" channelCode="HHN"/><filterID>ITAPER(2)&gt;&gt;BW(3,3,20)</filterID><methodID>L2-AIC-GRID</methodID><horizontalSlowness><value>14.572948370383722</value></horizontalSlowness><backazimuth><value>25.045542209177285</value></backazimuth><phaseHint>S</phaseHint><evaluationMode>automatic</evaluationMode><comment><text>60.44598705492857</text><id>DFX:rectilinearity</id></comment><comment><text>de.gempa.tb1.Pick/20250414152315.633039.138888</text><id>RefPickID</id></comment><comment><text>7.606009530280589</text><id>SNR</id></comment></pick><origin publicID="de.gempa.tb1.Origin/20250414152333.596055.141907"><time><value>2025-04-14T15:22:51.447575Z</value><uncertainty>1.0989620685577393</uncertainty></time><latitude><value>-19.986270904541016</value><uncertainty>6.791593074798584</uncertainty></latitude><longitude><value>-69.4632568359375</value><uncertainty>6.903794288635254</uncertainty></longitude><depth><value>113.84962463378906</value><uncertainty>7.861071586608887</uncertainty></depth><depthType>from location</depthType><methodID>LOCSAT</methodID><earthModelID>iasp91_scanloc</earthModelID><quality><associatedPhaseCount>6</associatedPhaseCount><usedPhaseCount>6</usedPhaseCount><associatedStationCount>4</associatedStationCount><usedStationCount>4</usedStationCount><depthPhaseCount>0</depthPhaseCount><standardError>0.40769121614109965</standardError><azimuthalGap>119.39778900146484</azimuthalGap><maximumDistance>1.6430156230926514</maximumDistance><minimumDistance>0.32951393723487854</minimumDistance><medianDistance>0.7320095896720886</medianDistance></quality><uncertainty><minHorizontalUncertainty>12.272915840148926</minHorizontalUncertainty><maxHorizontalUncertainty>16.756134033203125</maxHorizontalUncertainty><azimuthMaxHorizontalUncertainty>46.55661392211914</azimuthMaxHorizontalUncertainty><preferredDescription>horizontal uncertainty</preferredDescription></uncertainty><evaluationMode>automatic</evaluationMode><evaluationStatus>confirmed</evaluationStatus><comment><text>0.11</text><id>mismatchScore</id></comment><comment><text>mismatchScore</text><id>scevalMethod</id></comment><arrival><pickID>de.gempa.tb1.Pick/20250414152313.574164.138885</pickID><phase>P</phase><azimuth>117.92638397216797</azimuth><distance>0.32951393723487854</distance><timeResidual>0.6207828521728516</timeResidual><timeUsed>true</timeUsed><horizontalSlownessUsed>false</horizontalSlownessUsed><backazimuthUsed>false</backazimuthUsed><weight>1</weight></arrival><arrival><pickID>de.gempa.tb1.Pick/20250414152315.633039.138888</pickID><phase>P</phase><azimuth>301.8131103515625</azimuth><distance>0.7320095896720886</distance><timeResidual>0.4757194519042969</timeResidual><timeUsed>true</timeUsed><horizontalSlownessUsed>false</horizontalSlownessUsed><backazimuthUsed>false</backazimuthUsed><weight>1</weight></arrival><arrival><pickID>de.gempa.tb1.Pick/20250414152322.274453.138893</pickID><phase>P</phase><azimuth>217.80630493164062</azimuth><distance>1.0524599552154541</distance><timeResidual>-0.38348960876464844</timeResidual><timeUsed>true</timeUsed><horizontalSlownessUsed>false</horizontalSlownessUsed><backazimuthUsed>false</backazimuthUsed><weight>1</weight></arrival><arrival><pickID>de.gempa.tb1.Pick/20250414152327.51424.138896</pickID><phase>P</phase><azimuth>358.5285949707031</azimuth><distance>1.6430156230926514</distance><timeResidual>-0.3951435089111328</timeResidual><timeUsed>true</timeUsed><horizontalSlownessUsed>false</horizontalSlownessUsed><backazimuthUsed>false</backazimuthUsed><weight>1</weight></arrival><arrival><pickID>de.gempa.tb1.Pick/20250414152331.318466.138898</pickID><phase>S</phase><azimuth>117.92638397216797</azimuth><distance>0.32951393723487854</distance><timeResidual>-0.28516197204589844</timeResidual><timeUsed>true</timeUsed><horizontalSlownessUsed>false</horizontalSlownessUsed><backazimuthUsed>false</backazimuthUsed><weight>1</weight></arrival><arrival><pickID>de.gempa.tb1.Pick/20250414152333.593177.138899</pickID><phase>S</phase><azimuth>301.8131103515625</azimuth><distance>0.7320095896720886</distance><timeResidual>-0.03274726867675781</timeResidual><timeUsed>true</timeUsed><horizontalSlownessUsed>false</horizontalSlownessUsed><backazimuthUsed>false</backazimuthUsed><weight>1</weight></arrival><magnitude publicID="de.gempa.tb1.Magnitude/20250414152424.958513.506947"><magnitude><value>1.5278156557201736</value></magnitude><type>M</type><methodID>weighted average</methodID><stationCount>2</stationCount></magnitude></origin><event publicID="gempa2025hjlb"><preferredOriginID>de.gempa.tb1.Origin/20250414152333.596055.141907</preferredOriginID><preferredMagnitudeID>de.gempa.tb1.Magnitude/20250414152424.958513.506947</preferredMagnitudeID><description><text>Northern Chile</text><type>region name</type></description><originReference>de.gempa.tb1.Origin/20250414152333.596055.141907</originReference></event></EventParameters></seiscomp>