<?xml version="1.0" encoding="UTF-8"?>
<seiscomp xmlns="http://geofon.gfz-potsdam.de/ns/seiscomp3-schema/0.13" version="0.13"><EventParameters><pick publicID="de.gempa.tb1.Pick/20250413095248.56315.130473"><time><value>2025-04-13T09:52:42.138393Z</value></time><waveformID networkCode="CX" stationCode="PB01" channelCode="HHZ"/><filterID>ITAPER(4)&gt;&gt;BW(4,4,20)</filterID><methodID>AIC</methodID><horizontalSlowness><value>7.913225943758922</value></horizontalSlowness><backazimuth><value>177.0268800185976</value></backazimuth><phaseHint>P</phaseHint><evaluationMode>automatic</evaluationMode><comment><text>27.08137562657643</text><id>DFX:rectilinearity</id></comment><comment><text>21.798430989331937</text><id>SNR</id></comment></pick><pick publicID="de.gempa.tb1.Pick/20250413095249.194581.130475"><time><value>2025-04-13T09:52:42.03Z</value></time><waveformID networkCode="CX" stationCode="PB09" channelCode="HHZ"/><filterID>ITAPER(4)&gt;&gt;BW(4,4,20)</filterID><methodID>AIC</methodID><horizontalSlowness><value>17.786651151956725</value></horizontalSlowness><backazimuth><value>82.82719486603978</value></backazimuth><phaseHint>P</phaseHint><evaluationMode>automatic</evaluationMode><comment><text>13.745862578446438</text><id>DFX:rectilinearity</id></comment><comment><text>16.918310080745666</text><id>SNR</id></comment></pick><pick publicID="de.gempa.tb1.Pick/20250413095251.709156.130477"><time><value>2025-04-13T09:52:44.238393Z</value></time><waveformID networkCode="CX" stationCode="PB08" channelCode="HHZ"/><filterID>ITAPER(4)&gt;&gt;BW(4,4,20)</filterID><methodID>AIC</methodID><horizontalSlowness><value>13.848031796007955</value></horizontalSlowness><backazimuth><value>98.4030547429894</value></backazimuth><phaseHint>P</phaseHint><evaluationMode>automatic</evaluationMode><comment><text>10.913320690635787</text><id>DFX:rectilinearity</id></comment><comment><text>6.682539401697397</text><id>SNR</id></comment></pick><pick publicID="de.gempa.tb1.Pick/20250413095254.497412.130479"><time><value>2025-04-13T09:52:46.228393Z</value></time><waveformID networkCode="CX" stationCode="PB02" channelCode="HHZ"/><filterID>ITAPER(4)&gt;&gt;BW(4,4,20)</filterID><methodID>AIC</methodID><horizontalSlowness><value>13.240818215870616</value></horizontalSlowness><backazimuth><value>92.81381217446594</value></backazimuth><phaseHint>P</phaseHint><evaluationMode>automatic</evaluationMode><comment><text>53.40380215107715</text><id>DFX:rectilinearity</id></comment><comment><text>15.512860729108635</text><id>SNR</id></comment></pick><pick publicID="de.gempa.tb1.Pick/20250413095254.553757.130481"><time><value>2025-04-13T09:52:46.618393Z</value></time><waveformID networkCode="CX" stationCode="PB03" channelCode="HHZ"/><filterID>ITAPER(4)&gt;&gt;BW(4,4,20)</filterID><methodID>AIC</methodID><horizontalSlowness><value>3.03314019079977</value></horizontalSlowness><backazimuth><value>55.13145870753165</value></backazimuth><phaseHint>P</phaseHint><evaluationMode>automatic</evaluationMode><comment><text>16.782412956260707</text><id>DFX:rectilinearity</id></comment><comment><text>17.713989488471327</text><id>SNR</id></comment></pick><pick publicID="de.gempa.tb1.Pick/20250413095257.223023.130484"><time><value>2025-04-13T09:52:49.079999Z</value></time><waveformID networkCode="CX" stationCode="PATCX" channelCode="HHZ"/><filterID>ITAPER(4)&gt;&gt;BW(4,4,20)</filterID><methodID>AIC</methodID><horizontalSlowness><value>23.354105734236363</value></horizontalSlowness><backazimuth><value>291.87541466069547</value></backazimuth><phaseHint>P</phaseHint><evaluationMode>automatic</evaluationMode><comment><text>257.25253667008946</text><id>DFX:rectilinearity</id></comment><comment><text>14.72582370797799</text><id>SNR</id></comment></pick><pick publicID="de.gempa.tb1.Pick/20250413095341.722391.130493"><time><value>2025-04-13T09:52:46.508394Z</value></time><waveformID networkCode="CX" stationCode="PB07" channelCode="HHZ"/><filterID>ITAPER(4)&gt;&gt;BW(4,4,20)</filterID><methodID>AIC</methodID><horizontalSlowness><value>19.798510968916467</value></horizontalSlowness><backazimuth><value>81.71033656386356</value></backazimuth><phaseHint>P</phaseHint><evaluationMode>automatic</evaluationMode><comment><text>669.7129851038655</text><id>DFX:rectilinearity</id></comment><comment><text>35.45213133917963</text><id>SNR</id></comment></pick><origin publicID="de.gempa.tb1.Origin/20250413095341.725626.107086"><time><value>2025-04-13T09:52:14.721004Z</value><uncertainty>5.650415420532227</uncertainty></time><latitude><value>-21.218952178955078</value><uncertainty>10.403805732727051</uncertainty></latitude><longitude><value>-68.23954772949219</value><uncertainty>30.519847869873047</uncertainty></longitude><depth><value>165.1422882080078</value><uncertainty>46.69731521606445</uncertainty></depth><depthType>from location</depthType><methodID>LOCSAT</methodID><earthModelID>iasp91_scanloc</earthModelID><quality><associatedPhaseCount>7</associatedPhaseCount><usedPhaseCount>7</usedPhaseCount><associatedStationCount>7</associatedStationCount><usedStationCount>7</usedStationCount><depthPhaseCount>0</depthPhaseCount><standardError>0.21637464632335682</standardError><azimuthalGap>276.9505310058594</azimuthalGap><maximumDistance>1.8309236764907837</maximumDistance><minimumDistance>1.0960853099822998</minimumDistance><medianDistance>1.548249363899231</medianDistance></quality><uncertainty><minHorizontalUncertainty>20.67238426208496</minHorizontalUncertainty><maxHorizontalUncertainty>65.9856948852539</maxHorizontalUncertainty><azimuthMaxHorizontalUncertainty>97.6965560913086</azimuthMaxHorizontalUncertainty><preferredDescription>horizontal uncertainty</preferredDescription></uncertainty><evaluationMode>automatic</evaluationMode><evaluationStatus>confirmed</evaluationStatus><comment><text>0.00</text><id>mismatchScore</id></comment><comment><text>mismatchScore</text><id>scevalMethod</id></comment><arrival><pickID>de.gempa.tb1.Pick/20250413095248.56315.130473</pickID><phase>P</phase><azimuth>278.3119201660156</azimuth><distance>1.177996277809143</distance><timeResidual>-0.3190784454345703</timeResidual><timeUsed>true</timeUsed><horizontalSlownessUsed>false</horizontalSlownessUsed><backazimuthUsed>false</backazimuthUsed><weight>1</weight></arrival><arrival><pickID>de.gempa.tb1.Pick/20250413095249.194581.130475</pickID><phase>P</phase><azimuth>238.202392578125</azimuth><distance>1.0960853099822998</distance><timeResidual>0.28114891052246094</timeResidual><timeUsed>true</timeUsed><horizontalSlownessUsed>false</horizontalSlownessUsed><backazimuthUsed>false</backazimuthUsed><weight>1</weight></arrival><arrival><pickID>de.gempa.tb1.Pick/20250413095251.709156.130477</pickID><phase>P</phase><azimuth>321.2518615722656</azimuth><distance>1.3719321489334106</distance><timeResidual>-0.004995346069335938</timeResidual><timeUsed>true</timeUsed><horizontalSlownessUsed>false</horizontalSlownessUsed><backazimuthUsed>false</backazimuthUsed><weight>1</weight></arrival><arrival><pickID>de.gempa.tb1.Pick/20250413095254.497412.130479</pickID><phase>P</phase><azimuth>265.9879150390625</azimuth><distance>1.548249363899231</distance><timeResidual>0.25771522521972656</timeResidual><timeUsed>true</timeUsed><horizontalSlownessUsed>false</horizontalSlownessUsed><backazimuthUsed>false</backazimuthUsed><weight>1</weight></arrival><arrival><pickID>de.gempa.tb1.Pick/20250413095254.553757.130481</pickID><phase>P</phase><azimuth>239.34642028808594</azimuth><distance>1.6322938203811646</distance><timeResidual>-0.2082386016845703</timeResidual><timeUsed>true</timeUsed><horizontalSlownessUsed>false</horizontalSlownessUsed><backazimuthUsed>false</backazimuthUsed><weight>1</weight></arrival><arrival><pickID>de.gempa.tb1.Pick/20250413095257.223023.130484</pickID><phase>P</phase><azimuth>282.1567077636719</azimuth><distance>1.8309236764907837</distance><timeResidual>0.13285255432128906</timeResidual><timeUsed>true</timeUsed><horizontalSlownessUsed>false</horizontalSlownessUsed><backazimuthUsed>false</backazimuthUsed><weight>1</weight></arrival><arrival><pickID>de.gempa.tb1.Pick/20250413095341.722391.130493</pickID><phase>P</phase><azimuth>251.46910095214844</azimuth><distance>1.6147675514221191</distance><timeResidual>-0.13933753967285156</timeResidual><timeUsed>true</timeUsed><horizontalSlownessUsed>false</horizontalSlownessUsed><backazimuthUsed>false</backazimuthUsed><weight>1</weight></arrival><magnitude publicID="de.gempa.tb1.Magnitude/20250413095417.508852.344783"><magnitude><value>2.815695442135252</value></magnitude><type>M</type><methodID>weighted average</methodID><stationCount>2</stationCount></magnitude></origin><event publicID="gempa2025hhdz"><preferredOriginID>de.gempa.tb1.Origin/20250413095341.725626.107086</preferredOriginID><preferredMagnitudeID>de.gempa.tb1.Magnitude/20250413095417.508852.344783</preferredMagnitudeID><description><text>Chile-Bolivia Border Region</text><type>region name</type></description><originReference>de.gempa.tb1.Origin/20250413095341.725626.107086</originReference></event></EventParameters></seiscomp>