<?xml version="1.0" encoding="UTF-8"?>
<seiscomp xmlns="http://geofon.gfz-potsdam.de/ns/seiscomp3-schema/0.13" version="0.13"><EventParameters><pick publicID="de.gempa.tb1.Pick/20250414035540.527052.135566"><time><value>2025-04-14T03:55:35.320001Z</value></time><waveformID networkCode="CX" stationCode="PB19" channelCode="HHZ"/><filterID>ITAPER(4)&gt;&gt;BW(4,4,20)</filterID><methodID>AIC</methodID><horizontalSlowness><value>12.631225067465977</value></horizontalSlowness><backazimuth><value>249.8682292284121</value></backazimuth><phaseHint>P</phaseHint><evaluationMode>automatic</evaluationMode><comment><text>17.235567153736422</text><id>DFX:rectilinearity</id></comment><comment><text>15.892748793673412</text><id>SNR</id></comment></pick><pick publicID="de.gempa.tb1.Pick/20250414035542.673556.135568"><time><value>2025-04-14T03:55:36.828393Z</value></time><waveformID networkCode="CX" stationCode="PB15" channelCode="HHZ"/><filterID>ITAPER(4)&gt;&gt;BW(4,4,20)</filterID><methodID>AIC</methodID><horizontalSlowness><value>17.972615112989704</value></horizontalSlowness><backazimuth><value>281.42147625787754</value></backazimuth><phaseHint>P</phaseHint><evaluationMode>automatic</evaluationMode><comment><text>179.51166394822488</text><id>DFX:rectilinearity</id></comment><comment><text>14.172966840331938</text><id>SNR</id></comment></pick><pick publicID="de.gempa.tb1.Pick/20250414035544.474237.135570"><time><value>2025-04-14T03:55:38.498393Z</value></time><waveformID networkCode="CX" stationCode="PB06" channelCode="HHZ"/><filterID>ITAPER(4)&gt;&gt;BW(4,4,20)</filterID><methodID>AIC</methodID><horizontalSlowness><value>6.295359146745921</value></horizontalSlowness><backazimuth><value>16.88446881206977</value></backazimuth><phaseHint>P</phaseHint><evaluationMode>automatic</evaluationMode><comment><text>81.39073242924627</text><id>DFX:rectilinearity</id></comment><comment><text>22.2098634872474</text><id>SNR</id></comment></pick><pick publicID="de.gempa.tb1.Pick/20250414035550.557126.135572"><time><value>2025-04-14T03:55:42.618393Z</value></time><waveformID networkCode="CX" stationCode="PB03" channelCode="HHZ"/><filterID>ITAPER(4)&gt;&gt;BW(4,4,20)</filterID><methodID>AIC</methodID><horizontalSlowness><value>7.980427267927454</value></horizontalSlowness><backazimuth><value>99.96756983128903</value></backazimuth><phaseHint>P</phaseHint><evaluationMode>automatic</evaluationMode><comment><text>14.700404040405454</text><id>DFX:rectilinearity</id></comment><comment><text>10.26167706211425</text><id>SNR</id></comment></pick><pick publicID="de.gempa.tb1.Pick/20250414035552.219765.135574"><time><value>2025-04-14T03:55:47.4Z</value></time><waveformID networkCode="CX" stationCode="PB10" channelCode="HHZ"/><filterID>ITAPER(4)&gt;&gt;BW(4,4,20)</filterID><methodID>AIC</methodID><horizontalSlowness><value>0.5489087746552538</value></horizontalSlowness><backazimuth><value>126.93543343844675</value></backazimuth><phaseHint>P</phaseHint><evaluationMode>automatic</evaluationMode><comment><text>64.98480802430652</text><id>DFX:rectilinearity</id></comment><comment><text>19.48785674370765</text><id>SNR</id></comment></pick><pick publicID="de.gempa.tb1.Pick/20250414035554.550782.135576"><time><value>2025-04-14T03:55:47.608393Z</value></time><waveformID networkCode="CX" stationCode="PB01" channelCode="HHZ"/><filterID>ITAPER(4)&gt;&gt;BW(4,4,20)</filterID><methodID>AIC</methodID><horizontalSlowness><value>19.487209477326608</value></horizontalSlowness><backazimuth><value>246.32622472911413</value></backazimuth><phaseHint>P</phaseHint><evaluationMode>automatic</evaluationMode><comment><text>12.848664555462907</text><id>DFX:rectilinearity</id></comment><comment><text>10.430935018964693</text><id>SNR</id></comment></pick><pick publicID="de.gempa.tb1.Pick/20250414035556.023627.135579"><time><value>2025-04-14T03:55:41.12Z</value></time><waveformID networkCode="CX" stationCode="PB09" channelCode="HHZ"/><filterID>ITAPER(4)&gt;&gt;BW(4,4,20)</filterID><methodID>AIC</methodID><horizontalSlowness><value>8.110577693997634</value></horizontalSlowness><backazimuth><value>287.4207780489033</value></backazimuth><phaseHint>P</phaseHint><evaluationMode>automatic</evaluationMode><comment><text>9.478611479474212</text><id>DFX:rectilinearity</id></comment><comment><text>17.15610612631992</text><id>SNR</id></comment></pick><pick publicID="de.gempa.tb1.Pick/20250414035612.334132.135582"><time><value>2025-04-14T03:55:45.568393Z</value></time><waveformID networkCode="CX" stationCode="PB07" channelCode="HHZ"/><filterID>ITAPER(4)&gt;&gt;BW(4,4,20)</filterID><methodID>AIC</methodID><horizontalSlowness><value>21.998086447349042</value></horizontalSlowness><backazimuth><value>227.70822322428376</value></backazimuth><phaseHint>P</phaseHint><evaluationMode>automatic</evaluationMode><comment><text>137.87337704956852</text><id>DFX:rectilinearity</id></comment><comment><text>23.64314071801906</text><id>SNR</id></comment></pick><pick publicID="de.gempa.tb1.Pick/20250414035615.640498.135584"><time><value>2025-04-14T03:56:08.040001Z</value></time><waveformID networkCode="CX" stationCode="PB19" channelCode="HHN"/><filterID>ITAPER(2)&gt;&gt;BW(3,3,20)</filterID><methodID>L2-AIC-GRID</methodID><horizontalSlowness><value>19.92150584678937</value></horizontalSlowness><backazimuth><value>88.4116903194876</value></backazimuth><phaseHint>S</phaseHint><evaluationMode>automatic</evaluationMode><comment><text>66.05412341172588</text><id>DFX:rectilinearity</id></comment><comment><text>de.gempa.tb1.Pick/20250414035540.527052.135566</text><id>RefPickID</id></comment><comment><text>5.734311827444936</text><id>SNR</id></comment></pick><pick publicID="de.gempa.tb1.Pick/20250414035616.73532.135587"><time><value>2025-04-14T03:56:09.788393Z</value></time><waveformID networkCode="CX" stationCode="PB15" channelCode="HHN"/><filterID>ITAPER(2)&gt;&gt;BW(3,3,20)</filterID><methodID>L2-AIC-GRID</methodID><horizontalSlowness><value>20.931044528176479</value></horizontalSlowness><backazimuth><value>52.4518015506946</value></backazimuth><phaseHint>S</phaseHint><evaluationMode>automatic</evaluationMode><comment><text>2005.4794634830052</text><id>DFX:rectilinearity</id></comment><comment><text>de.gempa.tb1.Pick/20250414035542.673556.135568</text><id>RefPickID</id></comment><comment><text>7.662459548707364</text><id>SNR</id></comment></pick><pick publicID="de.gempa.tb1.Pick/20250414035620.635712.135589"><time><value>2025-04-14T03:56:12.518393Z</value></time><waveformID networkCode="CX" stationCode="PB06" channelCode="HHN"/><filterID>ITAPER(2)&gt;&gt;BW(3,3,20)</filterID><methodID>L2-AIC-GRID</methodID><horizontalSlowness><value>20.650488220760103</value></horizontalSlowness><backazimuth><value>311.0919498763417</value></backazimuth><phaseHint>S</phaseHint><evaluationMode>automatic</evaluationMode><comment><text>209.55098800567654</text><id>DFX:rectilinearity</id></comment><comment><text>de.gempa.tb1.Pick/20250414035544.474237.135570</text><id>RefPickID</id></comment><comment><text>14.655661570085158</text><id>SNR</id></comment></pick><pick publicID="de.gempa.tb1.Pick/20250414035626.712676.135590"><time><value>2025-04-14T03:56:19.768393Z</value></time><waveformID networkCode="CX" stationCode="PB03" channelCode="HHN"/><filterID>ITAPER(2)&gt;&gt;BW(3,3,20)</filterID><methodID>L2-AIC-GRID</methodID><horizontalSlowness><value>15.69062081400292</value></horizontalSlowness><backazimuth><value>338.26480071810704</value></backazimuth><phaseHint>S</phaseHint><evaluationMode>automatic</evaluationMode><comment><text>100.347945079696</text><id>DFX:rectilinearity</id></comment><comment><text>de.gempa.tb1.Pick/20250414035550.557126.135572</text><id>RefPickID</id></comment><comment><text>17.757926550238405</text><id>SNR</id></comment></pick><pick publicID="de.gempa.tb1.Pick/20250414035627.457122.135591"><time><value>2025-04-14T03:56:16.51Z</value></time><waveformID networkCode="CX" stationCode="PB09" channelCode="HHN"/><filterID>ITAPER(2)&gt;&gt;BW(3,3,20)</filterID><methodID>L2-AIC-GRID</methodID><horizontalSlowness><value>20.649657196412718</value></horizontalSlowness><backazimuth><value>304.2511323800943</value></backazimuth><phaseHint>S</phaseHint><evaluationMode>automatic</evaluationMode><comment><text>32.388250051107647</text><id>DFX:rectilinearity</id></comment><comment><text>de.gempa.tb1.Pick/20250414035556.023627.135579</text><id>RefPickID</id></comment><comment><text>6.217393350581569</text><id>SNR</id></comment></pick><pick publicID="de.gempa.tb1.Pick/20250414035636.617516.135594"><time><value>2025-04-14T03:56:28.408393Z</value></time><waveformID networkCode="CX" stationCode="PB01" channelCode="HHN"/><filterID>ITAPER(2)&gt;&gt;BW(3,3,20)</filterID><methodID>L2-AIC-GRID</methodID><horizontalSlowness><value>21.493681849598172</value></horizontalSlowness><backazimuth><value>160.48126920811717</value></backazimuth><phaseHint>S</phaseHint><evaluationMode>automatic</evaluationMode><comment><text>19.822175778322055</text><id>DFX:rectilinearity</id></comment><comment><text>de.gempa.tb1.Pick/20250414035554.550782.135576</text><id>RefPickID</id></comment><comment><text>12.6983226276198</text><id>SNR</id></comment></pick><pick publicID="de.gempa.tb1.Pick/20250414035657.090147.135598"><time><value>2025-04-14T03:56:24.798393Z</value></time><waveformID networkCode="CX" stationCode="PB07" channelCode="HHN"/><filterID>ITAPER(2)&gt;&gt;BW(3,3,20)</filterID><methodID>L2-AIC-GRID</methodID><horizontalSlowness><value>22.658920263113316</value></horizontalSlowness><backazimuth><value>268.4712594559114</value></backazimuth><phaseHint>S</phaseHint><evaluationMode>automatic</evaluationMode><comment><text>6141.765844691155</text><id>DFX:rectilinearity</id></comment><comment><text>de.gempa.tb1.Pick/20250414035612.334132.135582</text><id>RefPickID</id></comment><comment><text>10.135187968771978</text><id>SNR</id></comment></pick><origin publicID="de.gempa.tb1.Origin/20250414035657.984068.126866"><time><value>2025-04-14T03:54:55.997819Z</value><uncertainty>0.9245403409004211</uncertainty></time><latitude><value>-23.31911087036133</value><uncertainty>5.201242923736572</uncertainty></latitude><longitude><value>-67.44172668457031</value><uncertainty>19.13938331604004</uncertainty></longitude><depth><value>244.19078063964844</value><uncertainty>16.408681869506836</uncertainty></depth><depthType>from location</depthType><methodID>LOCSAT</methodID><earthModelID>iasp91_scanloc</earthModelID><quality><associatedPhaseCount>15</associatedPhaseCount><usedPhaseCount>15</usedPhaseCount><associatedStationCount>8</associatedStationCount><usedStationCount>8</usedStationCount><depthPhaseCount>0</depthPhaseCount><standardError>0.4351900611529852</standardError><azimuthalGap>290.9853973388672</azimuthalGap><maximumDistance>2.953709125518799</maximumDistance><minimumDistance>1.793331503868103</minimumDistance><medianDistance>2.2507200241088867</medianDistance></quality><uncertainty><minHorizontalUncertainty>10.785932540893555</minHorizontalUncertainty><maxHorizontalUncertainty>41.130638122558594</maxHorizontalUncertainty><azimuthMaxHorizontalUncertainty>85.91136932373047</azimuthMaxHorizontalUncertainty><preferredDescription>horizontal uncertainty</preferredDescription></uncertainty><evaluationMode>automatic</evaluationMode><evaluationStatus>confirmed</evaluationStatus><comment><text>0.00</text><id>mismatchScore</id></comment><comment><text>mismatchScore</text><id>scevalMethod</id></comment><arrival><pickID>de.gempa.tb1.Pick/20250414035540.527052.135566</pickID><phase>P</phase><azimuth>250.6625213623047</azimuth><distance>1.793331503868103</distance><timeResidual>-0.8776397705078125</timeResidual><timeUsed>true</timeUsed><horizontalSlownessUsed>false</horizontalSlownessUsed><backazimuthUsed>false</backazimuthUsed><weight>1</weight></arrival><arrival><pickID>de.gempa.tb1.Pick/20250414035542.673556.135568</pickID><phase>P</phase><azimuth>272.9825744628906</azimuth><distance>1.8693926334381104</distance><timeResidual>-0.04015350341796875</timeResidual><timeUsed>true</timeUsed><horizontalSlownessUsed>false</horizontalSlownessUsed><backazimuthUsed>false</backazimuthUsed><weight>1</weight></arrival><arrival><pickID>de.gempa.tb1.Pick/20250414035544.474237.135570</pickID><phase>P</phase><azimuth>286.8616027832031</azimuth><distance>2.055349349975586</distance><timeResidual>-0.06466293334960938</timeResidual><timeUsed>true</timeUsed><horizontalSlownessUsed>false</horizontalSlownessUsed><backazimuthUsed>false</backazimuthUsed><weight>1</weight></arrival><arrival><pickID>de.gempa.tb1.Pick/20250414035550.557126.135572</pickID><phase>P</phase><azimuth>300.19635009765625</azimuth><distance>2.481107473373413</distance><timeResidual>-0.09315109252929688</timeResidual><timeUsed>true</timeUsed><horizontalSlownessUsed>false</horizontalSlownessUsed><backazimuthUsed>false</backazimuthUsed><weight>1</weight></arrival><arrival><pickID>de.gempa.tb1.Pick/20250414035552.219765.135574</pickID><phase>P</phase><azimuth>265.5154724121094</azimuth><distance>2.865515947341919</distance><timeResidual>0.6804962158203125</timeResidual><timeUsed>true</timeUsed><horizontalSlownessUsed>false</horizontalSlownessUsed><backazimuthUsed>false</backazimuthUsed><weight>1</weight></arrival><arrival><pickID>de.gempa.tb1.Pick/20250414035554.550782.135576</pickID><phase>P</phase><azimuth>319.6771240234375</azimuth><distance>2.953709125518799</distance><timeResidual>-0.0874786376953125</timeResidual><timeUsed>true</timeUsed><horizontalSlownessUsed>false</horizontalSlownessUsed><backazimuthUsed>false</backazimuthUsed><weight>1</weight></arrival><arrival><pickID>de.gempa.tb1.Pick/20250414035556.023627.135579</pickID><phase>P</phase><azimuth>311.9779052734375</azimuth><distance>2.2507200241088867</distance><timeResidual>0.6852989196777344</timeResidual><timeUsed>true</timeUsed><horizontalSlownessUsed>false</horizontalSlownessUsed><backazimuthUsed>false</backazimuthUsed><weight>1</weight></arrival><arrival><pickID>de.gempa.tb1.Pick/20250414035612.334132.135582</pickID><phase>P</phase><azimuth>304.5679626464844</azimuth><distance>2.7604050636291504</distance><timeResidual>-0.05438232421875</timeResidual><timeUsed>true</timeUsed><horizontalSlownessUsed>false</horizontalSlownessUsed><backazimuthUsed>false</backazimuthUsed><weight>1</weight></arrival><arrival><pickID>de.gempa.tb1.Pick/20250414035615.640498.135584</pickID><phase>S</phase><azimuth>250.6625213623047</azimuth><distance>1.793331503868103</distance><timeResidual>-0.1522064208984375</timeResidual><timeUsed>true</timeUsed><horizontalSlownessUsed>false</horizontalSlownessUsed><backazimuthUsed>false</backazimuthUsed><weight>1</weight></arrival><arrival><pickID>de.gempa.tb1.Pick/20250414035616.73532.135587</pickID><phase>S</phase><azimuth>272.9825744628906</azimuth><distance>1.8693926334381104</distance><timeResidual>0.385467529296875</timeResidual><timeUsed>true</timeUsed><horizontalSlownessUsed>false</horizontalSlownessUsed><backazimuthUsed>false</backazimuthUsed><weight>1</weight></arrival><arrival><pickID>de.gempa.tb1.Pick/20250414035620.635712.135589</pickID><phase>S</phase><azimuth>286.8616027832031</azimuth><distance>2.055349349975586</distance><timeResidual>0.05929946899414062</timeResidual><timeUsed>true</timeUsed><horizontalSlownessUsed>false</horizontalSlownessUsed><backazimuthUsed>false</backazimuthUsed><weight>1</weight></arrival><arrival><pickID>de.gempa.tb1.Pick/20250414035626.712676.135590</pickID><phase>S</phase><azimuth>300.19635009765625</azimuth><distance>2.481107473373413</distance><timeResidual>-0.17701339721679688</timeResidual><timeUsed>true</timeUsed><horizontalSlownessUsed>false</horizontalSlownessUsed><backazimuthUsed>false</backazimuthUsed><weight>1</weight></arrival><arrival><pickID>de.gempa.tb1.Pick/20250414035627.457122.135591</pickID><phase>S</phase><azimuth>311.9779052734375</azimuth><distance>2.2507200241088867</distance><timeResidual>0.6759681701660156</timeResidual><timeUsed>true</timeUsed><horizontalSlownessUsed>false</horizontalSlownessUsed><backazimuthUsed>false</backazimuthUsed><weight>1</weight></arrival><arrival><pickID>de.gempa.tb1.Pick/20250414035636.617516.135594</pickID><phase>S</phase><azimuth>319.6771240234375</azimuth><distance>2.953709125518799</distance><timeResidual>-0.5356941223144531</timeResidual><timeUsed>true</timeUsed><horizontalSlownessUsed>false</horizontalSlownessUsed><backazimuthUsed>false</backazimuthUsed><weight>1</weight></arrival><arrival><pickID>de.gempa.tb1.Pick/20250414035657.090147.135598</pickID><phase>S</phase><azimuth>304.5679626464844</azimuth><distance>2.7604050636291504</distance><timeResidual>-0.4028778076171875</timeResidual><timeUsed>true</timeUsed><horizontalSlownessUsed>false</horizontalSlownessUsed><backazimuthUsed>false</backazimuthUsed><weight>1</weight></arrival><magnitude publicID="de.gempa.tb1.Magnitude/20250414035730.699302.426704"><magnitude><value>3.259240069558356</value></magnitude><type>M</type><methodID>weighted average</methodID><stationCount>4</stationCount></magnitude></origin><event publicID="gempa2025hioc"><preferredOriginID>de.gempa.tb1.Origin/20250414035657.984068.126866</preferredOriginID><preferredMagnitudeID>de.gempa.tb1.Magnitude/20250414035730.699302.426704</preferredMagnitudeID><description><text>Chile-Argentina Border Region</text><type>region name</type></description><originReference>de.gempa.tb1.Origin/20250414035657.984068.126866</originReference></event></EventParameters></seiscomp>