<?xml version="1.0" encoding="UTF-8"?>
<seiscomp xmlns="http://geofon.gfz-potsdam.de/ns/seiscomp3-schema/0.13" version="0.13"><EventParameters><pick publicID="de.gempa.tb1.Pick/20250413063110.537526.129479"><time><value>2025-04-13T06:31:06.258394Z</value></time><waveformID networkCode="CX" stationCode="PB06" channelCode="HHZ"/><filterID>ITAPER(4)&gt;&gt;BW(4,4,20)</filterID><methodID>AIC</methodID><horizontalSlowness><value>16.97464385973512</value></horizontalSlowness><backazimuth><value>267.2167757275097</value></backazimuth><phaseHint>P</phaseHint><evaluationMode>automatic</evaluationMode><comment><text>32.717395033009417</text><id>DFX:rectilinearity</id></comment><comment><text>16.13880554666241</text><id>SNR</id></comment></pick><pick publicID="de.gempa.tb1.Pick/20250413063113.128034.129481"><time><value>2025-04-13T06:31:03.45Z</value></time><waveformID networkCode="CX" stationCode="PB09" channelCode="HHZ"/><filterID>ITAPER(4)&gt;&gt;BW(4,4,20)</filterID><methodID>AIC</methodID><horizontalSlowness><value>14.20132416918421</value></horizontalSlowness><backazimuth><value>98.88190132106656</value></backazimuth><phaseHint>P</phaseHint><evaluationMode>automatic</evaluationMode><comment><text>24.55315982913941</text><id>DFX:rectilinearity</id></comment><comment><text>139.34272175641644</text><id>SNR</id></comment></pick><pick publicID="de.gempa.tb1.Pick/20250413063113.521905.129483"><time><value>2025-04-13T06:31:06.988393Z</value></time><waveformID networkCode="CX" stationCode="PB03" channelCode="HHZ"/><filterID>ITAPER(4)&gt;&gt;BW(4,4,20)</filterID><methodID>AIC</methodID><horizontalSlowness><value>5.506624189047576</value></horizontalSlowness><backazimuth><value>119.9030161789863</value></backazimuth><phaseHint>P</phaseHint><evaluationMode>automatic</evaluationMode><comment><text>22.44365580635218</text><id>DFX:rectilinearity</id></comment><comment><text>91.59196182394099</text><id>SNR</id></comment></pick><pick publicID="de.gempa.tb1.Pick/20250413063116.521571.129486"><time><value>2025-04-13T06:31:10.798393Z</value></time><waveformID networkCode="CX" stationCode="PB02" channelCode="HHZ"/><filterID>ITAPER(4)&gt;&gt;BW(4,4,20)</filterID><methodID>AIC</methodID><horizontalSlowness><value>4.0570496741377653</value></horizontalSlowness><backazimuth><value>86.31102096857403</value></backazimuth><phaseHint>P</phaseHint><evaluationMode>automatic</evaluationMode><comment><text>58.43451011858149</text><id>DFX:rectilinearity</id></comment><comment><text>61.25425982887768</text><id>SNR</id></comment></pick><pick publicID="de.gempa.tb1.Pick/20250413063116.552935.129488"><time><value>2025-04-13T06:31:08.638393Z</value></time><waveformID networkCode="CX" stationCode="PB01" channelCode="HHZ"/><filterID>ITAPER(4)&gt;&gt;BW(4,4,20)</filterID><methodID>AIC</methodID><horizontalSlowness><value>2.2194776016498987</value></horizontalSlowness><backazimuth><value>14.156261827206606</value></backazimuth><phaseHint>P</phaseHint><evaluationMode>automatic</evaluationMode><comment><text>38.4426263154861</text><id>DFX:rectilinearity</id></comment><comment><text>67.33412935837613</text><id>SNR</id></comment></pick><pick publicID="de.gempa.tb1.Pick/20250413063120.750714.129490"><time><value>2025-04-13T06:31:14.698393Z</value></time><waveformID networkCode="CX" stationCode="PB08" channelCode="HHZ"/><filterID>ITAPER(4)&gt;&gt;BW(4,4,20)</filterID><methodID>AIC</methodID><horizontalSlowness><value>15.074516065927458</value></horizontalSlowness><backazimuth><value>211.470455877307</value></backazimuth><phaseHint>P</phaseHint><evaluationMode>automatic</evaluationMode><comment><text>28.758913577095495</text><id>DFX:rectilinearity</id></comment><comment><text>8.549356021108272</text><id>SNR</id></comment></pick><pick publicID="de.gempa.tb1.Pick/20250413063121.26538.129492"><time><value>2025-04-13T06:31:15.859998Z</value></time><waveformID networkCode="CX" stationCode="PATCX" channelCode="HHZ"/><filterID>ITAPER(4)&gt;&gt;BW(4,4,20)</filterID><methodID>AIC</methodID><horizontalSlowness><value>2.2192997123679397</value></horizontalSlowness><backazimuth><value>14.3891611648736</value></backazimuth><phaseHint>P</phaseHint><evaluationMode>automatic</evaluationMode><comment><text>134.4752359665246</text><id>DFX:rectilinearity</id></comment><comment><text>9.659242810728356</text><id>SNR</id></comment></pick><pick publicID="de.gempa.tb1.Pick/20250413063129.767178.129494"><time><value>2025-04-13T06:31:24.33Z</value></time><waveformID networkCode="CX" stationCode="PSGCX" channelCode="HHZ"/><filterID>ITAPER(4)&gt;&gt;BW(4,4,20)</filterID><methodID>AIC</methodID><horizontalSlowness><value>19.772104632168674</value></horizontalSlowness><backazimuth><value>123.32754477078234</value></backazimuth><phaseHint>P</phaseHint><evaluationMode>automatic</evaluationMode><comment><text>62.00453647965072</text><id>DFX:rectilinearity</id></comment><comment><text>22.84074082514217</text><id>SNR</id></comment></pick><pick publicID="de.gempa.tb1.Pick/20250413063140.855667.129498"><time><value>2025-04-13T06:31:09.208383Z</value></time><waveformID networkCode="CX" stationCode="PB07" channelCode="HHZ"/><filterID>ITAPER(4)&gt;&gt;BW(4,4,20)</filterID><methodID>AIC</methodID><horizontalSlowness><value>17.865828521205188</value></horizontalSlowness><backazimuth><value>82.00259645367612</value></backazimuth><phaseHint>P</phaseHint><evaluationMode>automatic</evaluationMode><comment><text>550.940422080463</text><id>DFX:rectilinearity</id></comment><comment><text>234.2998068017206</text><id>SNR</id></comment></pick><pick publicID="de.gempa.tb1.Pick/20250413063141.544685.129500"><time><value>2025-04-13T06:31:34.138394Z</value></time><waveformID networkCode="CX" stationCode="PB06" channelCode="HHN"/><filterID>ITAPER(2)&gt;&gt;BW(3,3,20)</filterID><methodID>L2-AIC-GRID</methodID><horizontalSlowness><value>19.396394756060474</value></horizontalSlowness><backazimuth><value>318.17480983612273</value></backazimuth><phaseHint>S</phaseHint><evaluationMode>automatic</evaluationMode><comment><text>102.38625717608147</text><id>DFX:rectilinearity</id></comment><comment><text>de.gempa.tb1.Pick/20250413063110.537526.129479</text><id>RefPickID</id></comment><comment><text>11.872215566112997</text><id>SNR</id></comment></pick><pick publicID="de.gempa.tb1.Pick/20250413063141.571228.129501"><time><value>2025-04-13T06:31:36.178393Z</value></time><waveformID networkCode="CX" stationCode="PB03" channelCode="HHN"/><filterID>ITAPER(2)&gt;&gt;BW(3,3,20)</filterID><methodID>L2-AIC-GRID</methodID><horizontalSlowness><value>20.0823265816626</value></horizontalSlowness><backazimuth><value>198.10269565774212</value></backazimuth><phaseHint>S</phaseHint><evaluationMode>automatic</evaluationMode><comment><text>501.9601648222616</text><id>DFX:rectilinearity</id></comment><comment><text>de.gempa.tb1.Pick/20250413063113.521905.129483</text><id>RefPickID</id></comment><comment><text>11.876247148377807</text><id>SNR</id></comment></pick><pick publicID="de.gempa.tb1.Pick/20250413063153.787026.129504"><time><value>2025-04-13T06:31:39.338383Z</value></time><waveformID networkCode="CX" stationCode="PB07" channelCode="HHN"/><filterID>ITAPER(2)&gt;&gt;BW(3,3,20)</filterID><methodID>L2-AIC-GRID</methodID><horizontalSlowness><value>23.142180047214254</value></horizontalSlowness><backazimuth><value>206.9642188146411</value></backazimuth><phaseHint>S</phaseHint><evaluationMode>automatic</evaluationMode><comment><text>9366.09068431225</text><id>DFX:rectilinearity</id></comment><comment><text>de.gempa.tb1.Pick/20250413063140.855667.129498</text><id>RefPickID</id></comment><comment><text>5.845236904456094</text><id>SNR</id></comment></pick><origin publicID="de.gempa.tb1.Origin/20250413063153.789974.103272"><time><value>2025-04-13T06:30:30.584449Z</value><uncertainty>1.1846482753753662</uncertainty></time><latitude><value>-22.25611686706543</value><uncertainty>9.904814720153809</uncertainty></latitude><longitude><value>-67.93031311035156</value><uncertainty>21.33974838256836</uncertainty></longitude><depth><value>212.23556518554688</value><uncertainty>21.217859268188477</uncertainty></depth><depthType>from location</depthType><methodID>LOCSAT</methodID><earthModelID>iasp91_scanloc</earthModelID><quality><associatedPhaseCount>12</associatedPhaseCount><usedPhaseCount>12</usedPhaseCount><associatedStationCount>9</associatedStationCount><usedStationCount>9</usedStationCount><depthPhaseCount>0</depthPhaseCount><standardError>0.32657774181044863</standardError><azimuthalGap>281.9591827392578</azimuthalGap><maximumDistance>3.346670866012573</maximumDistance><minimumDistance>1.3001680374145508</minimumDistance><medianDistance>1.8901541233062744</medianDistance></quality><uncertainty><minHorizontalUncertainty>20.368406295776367</minHorizontalUncertainty><maxHorizontalUncertainty>46.14688491821289</maxHorizontalUncertainty><azimuthMaxHorizontalUncertainty>81.65460968017578</azimuthMaxHorizontalUncertainty><preferredDescription>horizontal uncertainty</preferredDescription></uncertainty><evaluationMode>automatic</evaluationMode><evaluationStatus>confirmed</evaluationStatus><comment><text>0.08</text><id>mismatchScore</id></comment><comment><text>mismatchScore</text><id>scevalMethod</id></comment><arrival><pickID>de.gempa.tb1.Pick/20250413063110.537526.129479</pickID><phase>P</phase><azimuth>253.2652130126953</azimuth><distance>1.5828717947006226</distance><timeResidual>0.13677215576171875</timeResidual><timeUsed>true</timeUsed><horizontalSlownessUsed>false</horizontalSlownessUsed><backazimuthUsed>false</backazimuthUsed><weight>1</weight></arrival><arrival><pickID>de.gempa.tb1.Pick/20250413063113.128034.129481</pickID><phase>P</phase><azimuth>290.3575439453125</azimuth><distance>1.3001680374145508</distance><timeResidual>-0.330047607421875</timeResidual><timeUsed>true</timeUsed><horizontalSlownessUsed>false</horizontalSlownessUsed><backazimuthUsed>false</backazimuthUsed><weight>1</weight></arrival><arrival><pickID>de.gempa.tb1.Pick/20250413063113.521905.129483</pickID><phase>P</phase><azimuth>276.6297607421875</azimuth><distance>1.7024165391921997</distance><timeResidual>-0.21498489379882812</timeResidual><timeUsed>true</timeUsed><horizontalSlownessUsed>false</horizontalSlownessUsed><backazimuthUsed>false</backazimuthUsed><weight>1</weight></arrival><arrival><pickID>de.gempa.tb1.Pick/20250413063116.521571.129486</pickID><phase>P</phase><azimuth>296.658203125</azimuth><distance>2.0508482456207275</distance><timeResidual>0.22355270385742188</timeResidual><timeUsed>true</timeUsed><horizontalSlownessUsed>false</horizontalSlownessUsed><backazimuthUsed>false</backazimuthUsed><weight>1</weight></arrival><arrival><pickID>de.gempa.tb1.Pick/20250413063116.552935.129488</pickID><phase>P</phase><azimuth>309.5137023925781</azimuth><distance>1.885454773902893</distance><timeResidual>-0.3014183044433594</timeResidual><timeUsed>true</timeUsed><horizontalSlownessUsed>false</horizontalSlownessUsed><backazimuthUsed>false</backazimuthUsed><weight>1</weight></arrival><arrival><pickID>de.gempa.tb1.Pick/20250413063120.750714.129490</pickID><phase>P</phase><azimuth>331.3060302734375</azimuth><distance>2.39402437210083</distance><timeResidual>0.5387191772460938</timeResidual><timeUsed>true</timeUsed><horizontalSlownessUsed>false</horizontalSlownessUsed><backazimuthUsed>false</backazimuthUsed><weight>1</weight></arrival><arrival><pickID>de.gempa.tb1.Pick/20250413063121.26538.129492</pickID><phase>P</phase><azimuth>304.20721435546875</azimuth><distance>2.514267921447754</distance><timeResidual>0.4099617004394531</timeResidual><timeUsed>true</timeUsed><horizontalSlownessUsed>false</horizontalSlownessUsed><backazimuthUsed>false</backazimuthUsed><weight>1</weight></arrival><arrival><pickID>de.gempa.tb1.Pick/20250413063129.767178.129494</pickID><phase>P</phase><azimuth>321.8363342285156</azimuth><distance>3.346670866012573</distance><timeResidual>-0.6701240539550781</timeResidual><timeUsed>true</timeUsed><horizontalSlownessUsed>false</horizontalSlownessUsed><backazimuthUsed>false</backazimuthUsed><weight>1</weight></arrival><arrival><pickID>de.gempa.tb1.Pick/20250413063140.855667.129498</pickID><phase>P</phase><azimuth>285.8200378417969</azimuth><distance>1.8901541233062744</distance><timeResidual>0.2300529479980469</timeResidual><timeUsed>true</timeUsed><horizontalSlownessUsed>false</horizontalSlownessUsed><backazimuthUsed>false</backazimuthUsed><weight>1</weight></arrival><arrival><pickID>de.gempa.tb1.Pick/20250413063141.544685.129500</pickID><phase>S</phase><azimuth>253.2652130126953</azimuth><distance>1.5828717947006226</distance><timeResidual>-0.06040573120117188</timeResidual><timeUsed>true</timeUsed><horizontalSlownessUsed>false</horizontalSlownessUsed><backazimuthUsed>false</backazimuthUsed><weight>1</weight></arrival><arrival><pickID>de.gempa.tb1.Pick/20250413063141.571228.129501</pickID><phase>S</phase><azimuth>276.6297607421875</azimuth><distance>1.7024165391921997</distance><timeResidual>0.034870147705078125</timeResidual><timeUsed>true</timeUsed><horizontalSlownessUsed>false</horizontalSlownessUsed><backazimuthUsed>false</backazimuthUsed><weight>1</weight></arrival><arrival><pickID>de.gempa.tb1.Pick/20250413063153.787026.129504</pickID><phase>S</phase><azimuth>285.8200378417969</azimuth><distance>1.8901541233062744</distance><timeResidual>0.002925872802734375</timeResidual><timeUsed>true</timeUsed><horizontalSlownessUsed>false</horizontalSlownessUsed><backazimuthUsed>false</backazimuthUsed><weight>1</weight></arrival><magnitude publicID="de.gempa.tb1.Magnitude/20250413063200.93809.323850"><magnitude><value>2.651563899045462</value></magnitude><type>M</type><methodID>weighted average</methodID><stationCount>5</stationCount></magnitude></origin><event publicID="gempa2025hgxg"><preferredOriginID>de.gempa.tb1.Origin/20250413063153.789974.103272</preferredOriginID><preferredMagnitudeID>de.gempa.tb1.Magnitude/20250413063200.93809.323850</preferredMagnitudeID><description><text>Chile-Bolivia Border Region</text><type>region name</type></description><originReference>de.gempa.tb1.Origin/20250413063153.789974.103272</originReference></event></EventParameters></seiscomp>