<?xml version="1.0" encoding="UTF-8"?>
<seiscomp xmlns="http://geofon.gfz-potsdam.de/ns/seiscomp3-schema/0.13" version="0.13"><EventParameters><pick publicID="de.gempa.tb1.Pick/20250414120350.521038.137831"><time><value>2025-04-14T12:03:43.428393Z</value></time><waveformID networkCode="CX" stationCode="PB03" channelCode="HHZ"/><filterID>ITAPER(4)&gt;&gt;BW(4,4,20)</filterID><methodID>AIC</methodID><horizontalSlowness><value>21.427054898053061</value></horizontalSlowness><backazimuth><value>144.21193702758598</value></backazimuth><phaseHint>P</phaseHint><evaluationMode>automatic</evaluationMode><comment><text>2.3779026719830405</text><id>DFX:rectilinearity</id></comment><comment><text>13.795902870160862</text><id>SNR</id></comment></pick><pick publicID="de.gempa.tb1.Pick/20250414120350.7953.137833"><time><value>2025-04-14T12:03:41.618393Z</value></time><waveformID networkCode="CX" stationCode="PB15" channelCode="HHZ"/><filterID>ITAPER(4)&gt;&gt;BW(4,4,20)</filterID><methodID>AIC</methodID><horizontalSlowness><value>21.45431542587698</value></horizontalSlowness><backazimuth><value>125.20731898418452</value></backazimuth><phaseHint>P</phaseHint><evaluationMode>automatic</evaluationMode><comment><text>50.73308776141533</text><id>DFX:rectilinearity</id></comment><comment><text>10.423475271119006</text><id>SNR</id></comment></pick><pick publicID="de.gempa.tb1.Pick/20250414120354.353812.137835"><time><value>2025-04-14T12:03:42.65Z</value></time><waveformID networkCode="CX" stationCode="PB09" channelCode="HHZ"/><filterID>ITAPER(4)&gt;&gt;BW(4,4,20)</filterID><methodID>AIC</methodID><horizontalSlowness><value>13.220750222801797</value></horizontalSlowness><backazimuth><value>263.1850423645224</value></backazimuth><phaseHint>P</phaseHint><evaluationMode>automatic</evaluationMode><comment><text>4.283743872289863</text><id>DFX:rectilinearity</id></comment><comment><text>16.999198525507396</text><id>SNR</id></comment></pick><pick publicID="de.gempa.tb1.Pick/20250414120354.780491.137837"><time><value>2025-04-14T12:03:46.758393Z</value></time><waveformID networkCode="CX" stationCode="PB07" channelCode="HHZ"/><filterID>ITAPER(4)&gt;&gt;BW(4,4,20)</filterID><methodID>AIC</methodID><horizontalSlowness><value>19.876435926728654</value></horizontalSlowness><backazimuth><value>292.5018352782406</value></backazimuth><phaseHint>P</phaseHint><evaluationMode>automatic</evaluationMode><comment><text>68.75927538998943</text><id>DFX:rectilinearity</id></comment><comment><text>17.605395285041723</text><id>SNR</id></comment></pick><pick publicID="de.gempa.tb1.Pick/20250414120356.60729.137839"><time><value>2025-04-14T12:03:50.228393Z</value></time><waveformID networkCode="CX" stationCode="PB01" channelCode="HHZ"/><filterID>ITAPER(4)&gt;&gt;BW(4,4,20)</filterID><methodID>AIC</methodID><horizontalSlowness><value>17.886446969531274</value></horizontalSlowness><backazimuth><value>8.70234798171515</value></backazimuth><phaseHint>P</phaseHint><evaluationMode>automatic</evaluationMode><comment><text>2.588260622038282</text><id>DFX:rectilinearity</id></comment><comment><text>19.485554233663692</text><id>SNR</id></comment></pick><pick publicID="de.gempa.tb1.Pick/20250414120405.891429.137841"><time><value>2025-04-14T12:03:58.128393Z</value></time><waveformID networkCode="CX" stationCode="PB15" channelCode="HHN"/><filterID>ITAPER(2)&gt;&gt;BW(3,3,20)</filterID><methodID>L2-AIC-GRID</methodID><horizontalSlowness><value>22.297197789804507</value></horizontalSlowness><backazimuth><value>16.245928512749146</value></backazimuth><phaseHint>S</phaseHint><evaluationMode>automatic</evaluationMode><comment><text>852.098257114569</text><id>DFX:rectilinearity</id></comment><comment><text>de.gempa.tb1.Pick/20250414120350.7953.137833</text><id>RefPickID</id></comment><comment><text>10.5770640499611</text><id>SNR</id></comment></pick><pick publicID="de.gempa.tb1.Pick/20250414120408.571868.137842"><time><value>2025-04-14T12:04:00.558393Z</value></time><waveformID networkCode="CX" stationCode="PB03" channelCode="HHN"/><filterID>ITAPER(2)&gt;&gt;BW(3,3,20)</filterID><methodID>L2-AIC-GRID</methodID><horizontalSlowness><value>22.67675952244995</value></horizontalSlowness><backazimuth><value>210.53245681367429</value></backazimuth><phaseHint>S</phaseHint><evaluationMode>automatic</evaluationMode><comment><text>44.10079069626181</text><id>DFX:rectilinearity</id></comment><comment><text>de.gempa.tb1.Pick/20250414120350.521038.137831</text><id>RefPickID</id></comment><comment><text>11.291950684081344</text><id>SNR</id></comment></pick><pick publicID="de.gempa.tb1.Pick/20250414120415.698194.137846"><time><value>2025-04-14T12:04:06.098393Z</value></time><waveformID networkCode="CX" stationCode="PB07" channelCode="HHN"/><filterID>ITAPER(2)&gt;&gt;BW(3,3,20)</filterID><methodID>L2-AIC-GRID</methodID><horizontalSlowness><value>23.159523366595597</value></horizontalSlowness><backazimuth><value>115.20477924664135</value></backazimuth><phaseHint>S</phaseHint><evaluationMode>automatic</evaluationMode><comment><text>248.90509898175787</text><id>DFX:rectilinearity</id></comment><comment><text>de.gempa.tb1.Pick/20250414120354.780491.137837</text><id>RefPickID</id></comment><comment><text>5.317632249057671</text><id>SNR</id></comment></pick><pick publicID="de.gempa.tb1.Pick/20250414120426.565603.137848"><time><value>2025-04-14T12:04:12.728393Z</value></time><waveformID networkCode="CX" stationCode="PB01" channelCode="HHN"/><filterID>ITAPER(2)&gt;&gt;BW(3,3,20)</filterID><methodID>L2-AIC-GRID</methodID><horizontalSlowness><value>11.443516419656707</value></horizontalSlowness><backazimuth><value>7.368218078419687</value></backazimuth><phaseHint>S</phaseHint><evaluationMode>automatic</evaluationMode><comment><text>4.2507632921639376</text><id>DFX:rectilinearity</id></comment><comment><text>de.gempa.tb1.Pick/20250414120356.60729.137839</text><id>RefPickID</id></comment><comment><text>5.708363286222972</text><id>SNR</id></comment></pick><origin publicID="de.gempa.tb1.Origin/20250414120426.570445.136867"><time><value>2025-04-14T12:03:21.21476Z</value><uncertainty>1.2590676546096802</uncertainty></time><latitude><value>-22.57946014404297</value><uncertainty>4.662628650665283</uncertainty></latitude><longitude><value>-68.81977844238281</value><uncertainty>16.54043197631836</uncertainty></longitude><depth><value>119.90935516357422</value><uncertainty>17.810401916503906</uncertainty></depth><depthType>from location</depthType><methodID>LOCSAT</methodID><earthModelID>iasp91_scanloc</earthModelID><quality><associatedPhaseCount>9</associatedPhaseCount><usedPhaseCount>9</usedPhaseCount><associatedStationCount>5</associatedStationCount><usedStationCount>5</usedStationCount><depthPhaseCount>0</depthPhaseCount><standardError>0.3003300067789562</standardError><azimuthalGap>245.89662170410156</azimuthalGap><maximumDistance>1.649840235710144</maximumDistance><minimumDistance>0.8673670291900635</minimumDistance><medianDistance>1.0130149126052856</medianDistance></quality><uncertainty><minHorizontalUncertainty>8.91590690612793</minHorizontalUncertainty><maxHorizontalUncertainty>35.75570297241211</maxHorizontalUncertainty><azimuthMaxHorizontalUncertainty>82.49177551269531</azimuthMaxHorizontalUncertainty><preferredDescription>horizontal uncertainty</preferredDescription></uncertainty><evaluationMode>automatic</evaluationMode><evaluationStatus>confirmed</evaluationStatus><comment><text>0.47</text><id>mismatchScore</id></comment><comment><text>mismatchScore</text><id>scevalMethod</id></comment><arrival><pickID>de.gempa.tb1.Pick/20250414120350.521038.137831</pickID><phase>P</phase><azimuth>301.2668762207031</azimuth><distance>1.0130149126052856</distance><timeResidual>0.019109725952148438</timeResidual><timeUsed>true</timeUsed><horizontalSlownessUsed>false</horizontalSlownessUsed><backazimuthUsed>false</backazimuthUsed><weight>1</weight></arrival><arrival><pickID>de.gempa.tb1.Pick/20250414120350.7953.137833</pickID><phase>P</phase><azimuth>223.6844024658203</azimuth><distance>0.8673670291900635</distance><timeResidual>-0.40172386169433594</timeResidual><timeUsed>true</timeUsed><horizontalSlownessUsed>false</horizontalSlownessUsed><backazimuthUsed>false</backazimuthUsed><weight>1</weight></arrival><arrival><pickID>de.gempa.tb1.Pick/20250414120354.353812.137835</pickID><phase>P</phase><azimuth>333.2617492675781</azimuth><distance>0.8720203638076782</distance><timeResidual>0.5793170928955078</timeResidual><timeUsed>true</timeUsed><horizontalSlownessUsed>false</horizontalSlownessUsed><backazimuthUsed>false</backazimuthUsed><weight>1</weight></arrival><arrival><pickID>de.gempa.tb1.Pick/20250414120354.780491.137837</pickID><phase>P</phase><azimuth>310.4439697265625</azimuth><distance>1.3029228448867798</distance><timeResidual>0.30588722229003906</timeResidual><timeUsed>true</timeUsed><horizontalSlownessUsed>false</horizontalSlownessUsed><backazimuthUsed>false</backazimuthUsed><weight>1</weight></arrival><arrival><pickID>de.gempa.tb1.Pick/20250414120356.60729.137839</pickID><phase>P</phase><azimuth>337.78778076171875</azimuth><distance>1.649840235710144</distance><timeResidual>-0.21372604370117188</timeResidual><timeUsed>true</timeUsed><horizontalSlownessUsed>false</horizontalSlownessUsed><backazimuthUsed>false</backazimuthUsed><weight>1</weight></arrival><arrival><pickID>de.gempa.tb1.Pick/20250414120405.891429.137841</pickID><phase>S</phase><azimuth>223.6844024658203</azimuth><distance>0.8673670291900635</distance><timeResidual>0.03433036804199219</timeResidual><timeUsed>true</timeUsed><horizontalSlownessUsed>false</horizontalSlownessUsed><backazimuthUsed>false</backazimuthUsed><weight>1</weight></arrival><arrival><pickID>de.gempa.tb1.Pick/20250414120408.571868.137842</pickID><phase>S</phase><azimuth>301.2668762207031</azimuth><distance>1.0130149126052856</distance><timeResidual>-0.012376785278320312</timeResidual><timeUsed>true</timeUsed><horizontalSlownessUsed>false</horizontalSlownessUsed><backazimuthUsed>false</backazimuthUsed><weight>1</weight></arrival><arrival><pickID>de.gempa.tb1.Pick/20250414120415.698194.137846</pickID><phase>S</phase><azimuth>310.4439697265625</azimuth><distance>1.3029228448867798</distance><timeResidual>0.09535598754882812</timeResidual><timeUsed>true</timeUsed><horizontalSlownessUsed>false</horizontalSlownessUsed><backazimuthUsed>false</backazimuthUsed><weight>1</weight></arrival><arrival><pickID>de.gempa.tb1.Pick/20250414120426.565603.137848</pickID><phase>S</phase><azimuth>337.78778076171875</azimuth><distance>1.649840235710144</distance><timeResidual>-0.4059028625488281</timeResidual><timeUsed>true</timeUsed><horizontalSlownessUsed>false</horizontalSlownessUsed><backazimuthUsed>false</backazimuthUsed><weight>1</weight></arrival><magnitude publicID="de.gempa.tb1.Magnitude/20250414120435.93758.484803"><magnitude><value>2.2178118807319205</value></magnitude><type>M</type><methodID>weighted average</methodID><stationCount>3</stationCount></magnitude></origin><event publicID="gempa2025hjej"><preferredOriginID>de.gempa.tb1.Origin/20250414120426.570445.136867</preferredOriginID><preferredMagnitudeID>de.gempa.tb1.Magnitude/20250414120435.93758.484803</preferredMagnitudeID><description><text>Northern Chile</text><type>region name</type></description><originReference>de.gempa.tb1.Origin/20250414120426.570445.136867</originReference></event></EventParameters></seiscomp>