<?xml version="1.0" encoding="UTF-8"?>
<seiscomp xmlns="http://geofon.gfz-potsdam.de/ns/seiscomp3-schema/0.13" version="0.13"><EventParameters><pick publicID="de.gempa.tb1.Pick/20250414210632.481527.141246"><time><value>2025-04-14T21:06:22.548393Z</value></time><waveformID networkCode="CX" stationCode="PB06" channelCode="HHZ"/><filterID>ITAPER(4)&gt;&gt;BW(4,4,20)</filterID><methodID>AIC</methodID><horizontalSlowness><value>16.337824289158888</value></horizontalSlowness><backazimuth><value>343.99111095751084</value></backazimuth><phaseHint>P</phaseHint><evaluationMode>automatic</evaluationMode><comment><text>47.35954322110866</text><id>DFX:rectilinearity</id></comment><comment><text>7.716205940200934</text><id>SNR</id></comment></pick><pick publicID="de.gempa.tb1.Pick/20250414210640.210151.141248"><time><value>2025-04-14T21:06:22.18Z</value></time><waveformID networkCode="CX" stationCode="PB09" channelCode="HHZ"/><filterID>ITAPER(4)&gt;&gt;BW(4,4,20)</filterID><methodID>AIC</methodID><horizontalSlowness><value>19.98044853397563</value></horizontalSlowness><backazimuth><value>316.41501486369935</value></backazimuth><phaseHint>P</phaseHint><evaluationMode>automatic</evaluationMode><comment><text>9.886279675792151</text><id>DFX:rectilinearity</id></comment><comment><text>33.512736239801264</text><id>SNR</id></comment></pick><pick publicID="de.gempa.tb1.Pick/20250414210644.442813.141250"><time><value>2025-04-14T21:06:35.558393Z</value></time><waveformID networkCode="CX" stationCode="PB02" channelCode="HHZ"/><filterID>ITAPER(4)&gt;&gt;BW(4,4,20)</filterID><methodID>AIC</methodID><horizontalSlowness><value>21.487597570270484</value></horizontalSlowness><backazimuth><value>273.4701544016723</value></backazimuth><phaseHint>P</phaseHint><evaluationMode>automatic</evaluationMode><comment><text>10.312968584334735</text><id>DFX:rectilinearity</id></comment><comment><text>10.657307820633314</text><id>SNR</id></comment></pick><pick publicID="de.gempa.tb1.Pick/20250414210646.567032.141252"><time><value>2025-04-14T21:06:36.178393Z</value></time><waveformID networkCode="CX" stationCode="PB01" channelCode="HHZ"/><filterID>ITAPER(4)&gt;&gt;BW(4,4,20)</filterID><methodID>AIC</methodID><horizontalSlowness><value>2.8570989507742826</value></horizontalSlowness><backazimuth><value>163.9950306690987</value></backazimuth><phaseHint>P</phaseHint><evaluationMode>automatic</evaluationMode><comment><text>6.802743450675737</text><id>DFX:rectilinearity</id></comment><comment><text>15.880259275667962</text><id>SNR</id></comment></pick><pick publicID="de.gempa.tb1.Pick/20250414210653.242749.141254"><time><value>2025-04-14T21:06:44.769999Z</value></time><waveformID networkCode="CX" stationCode="PATCX" channelCode="HHZ"/><filterID>ITAPER(4)&gt;&gt;BW(4,4,20)</filterID><methodID>AIC</methodID><horizontalSlowness><value>22.953343620410777</value></horizontalSlowness><backazimuth><value>200.00285796158562</value></backazimuth><phaseHint>P</phaseHint><evaluationMode>automatic</evaluationMode><comment><text>189.57134346962408</text><id>DFX:rectilinearity</id></comment><comment><text>7.379983693907522</text><id>SNR</id></comment></pick><pick publicID="de.gempa.tb1.Pick/20250414210718.51194.141273"><time><value>2025-04-14T21:06:54.658393Z</value></time><waveformID networkCode="CX" stationCode="PB02" channelCode="HHN"/><filterID>ITAPER(2)&gt;&gt;BW(3,3,20)</filterID><methodID>L2-AIC-GRID</methodID><horizontalSlowness><value>8.540014717982986</value></horizontalSlowness><backazimuth><value>346.9618220882735</value></backazimuth><phaseHint>S</phaseHint><evaluationMode>automatic</evaluationMode><comment><text>21.853262454551079</text><id>DFX:rectilinearity</id></comment><comment><text>de.gempa.tb1.Pick/20250414210644.442813.141250</text><id>RefPickID</id></comment><comment><text>5.01054476959325</text><id>SNR</id></comment></pick><pick publicID="de.gempa.tb1.Pick/20250414210727.996596.141280"><time><value>2025-04-14T21:06:29.998393Z</value></time><waveformID networkCode="CX" stationCode="PB07" channelCode="HHZ"/><filterID>ITAPER(4)&gt;&gt;BW(4,4,20)</filterID><methodID>AIC</methodID><horizontalSlowness><value>20.130606159279878</value></horizontalSlowness><backazimuth><value>330.4591126726621</value></backazimuth><phaseHint>P</phaseHint><evaluationMode>automatic</evaluationMode><comment><text>191.98355446752572</text><id>DFX:rectilinearity</id></comment><comment><text>7.649279872597073</text><id>SNR</id></comment></pick><origin publicID="de.gempa.tb1.Origin/20250414210729.730537.151009"><time><value>2025-04-14T21:06:10.412403Z</value><uncertainty>1.1140515804290771</uncertainty></time><latitude><value>-22.357624053955078</value><uncertainty>4.052204132080078</uncertainty></latitude><longitude><value>-68.99500274658203</value><uncertainty>8.306726455688477</uncertainty></longitude><depth><value>0</value></depth><depthType>operator assigned</depthType><methodID>LOCSAT</methodID><earthModelID>iasp91_scanloc</earthModelID><quality><associatedPhaseCount>7</associatedPhaseCount><usedPhaseCount>7</usedPhaseCount><associatedStationCount>6</associatedStationCount><usedStationCount>6</usedStationCount><depthPhaseCount>0</depthPhaseCount><standardError>0.5452868578009872</standardError><azimuthalGap>256.2645721435547</azimuthalGap><maximumDistance>1.8708794116973877</maximumDistance><minimumDistance>0.6036733984947205</minimumDistance><medianDistance>1.329492211341858</medianDistance></quality><uncertainty><minHorizontalUncertainty>8.659399032592773</minHorizontalUncertainty><maxHorizontalUncertainty>17.82948112487793</maxHorizontalUncertainty><azimuthMaxHorizontalUncertainty>92.6919174194336</azimuthMaxHorizontalUncertainty><preferredDescription>horizontal uncertainty</preferredDescription></uncertainty><evaluationMode>automatic</evaluationMode><evaluationStatus>confirmed</evaluationStatus><comment><text>0.43</text><id>mismatchScore</id></comment><comment><text>mismatchScore</text><id>scevalMethod</id></comment><arrival><pickID>de.gempa.tb1.Pick/20250414210632.481527.141246</pickID><phase>P</phase><azimuth>236.87876892089844</azimuth><distance>0.6360440850257874</distance><timeResidual>-0.06333065032958984</timeResidual><timeUsed>true</timeUsed><horizontalSlownessUsed>false</horizontalSlownessUsed><backazimuthUsed>false</backazimuthUsed><weight>1</weight></arrival><arrival><pickID>de.gempa.tb1.Pick/20250414210640.210151.141248</pickID><phase>P</phase><azimuth>337.6576843261719</azimuth><distance>0.6036733984947205</distance><timeResidual>0.1880483627319336</timeResidual><timeUsed>true</timeUsed><horizontalSlownessUsed>false</horizontalSlownessUsed><backazimuthUsed>false</backazimuthUsed><weight>1</weight></arrival><arrival><pickID>de.gempa.tb1.Pick/20250414210644.442813.141250</pickID><phase>P</phase><azimuth>320.807373046875</azimuth><distance>1.329492211341858</distance><timeResidual>-0.3432788848876953</timeResidual><timeUsed>true</timeUsed><horizontalSlownessUsed>false</horizontalSlownessUsed><backazimuthUsed>false</backazimuthUsed><weight>1</weight></arrival><arrival><pickID>de.gempa.tb1.Pick/20250414210646.567032.141252</pickID><phase>P</phase><azimuth>340.61419677734375</azimuth><distance>1.3858169317245483</distance><timeResidual>-0.7648839950561523</timeResidual><timeUsed>true</timeUsed><horizontalSlownessUsed>false</horizontalSlownessUsed><backazimuthUsed>false</backazimuthUsed><weight>1</weight></arrival><arrival><pickID>de.gempa.tb1.Pick/20250414210653.242749.141254</pickID><phase>P</phase><azimuth>324.61767578125</azimuth><distance>1.8708794116973877</distance><timeResidual>1.0865745544433594</timeResidual><timeUsed>true</timeUsed><horizontalSlownessUsed>false</horizontalSlownessUsed><backazimuthUsed>false</backazimuthUsed><weight>1</weight></arrival><arrival><pickID>de.gempa.tb1.Pick/20250414210718.51194.141273</pickID><phase>S</phase><azimuth>320.807373046875</azimuth><distance>1.329492211341858</distance><timeResidual>0.22519683837890625</timeResidual><timeUsed>true</timeUsed><horizontalSlownessUsed>false</horizontalSlownessUsed><backazimuthUsed>false</backazimuthUsed><weight>1</weight></arrival><arrival><pickID>de.gempa.tb1.Pick/20250414210727.996596.141280</pickID><phase>P</phase><azimuth>307.0473327636719</azimuth><distance>1.0382106304168701</distance><timeResidual>-0.3282461166381836</timeResidual><timeUsed>true</timeUsed><horizontalSlownessUsed>false</horizontalSlownessUsed><backazimuthUsed>false</backazimuthUsed><weight>1</weight></arrival><magnitude publicID="de.gempa.tb1.Magnitude/20250414210729.738108.540968"><magnitude><value>2.352815562669835</value></magnitude><type>M</type><methodID>weighted average</methodID><stationCount>6</stationCount></magnitude></origin><event publicID="gempa2025hjwm"><preferredOriginID>de.gempa.tb1.Origin/20250414210729.730537.151009</preferredOriginID><preferredMagnitudeID>de.gempa.tb1.Magnitude/20250414210729.738108.540968</preferredMagnitudeID><description><text>Northern Chile</text><type>region name</type></description><originReference>de.gempa.tb1.Origin/20250414210729.730537.151009</originReference></event></EventParameters></seiscomp>