<?xml version="1.0" encoding="UTF-8"?>
<seiscomp xmlns="http://geofon.gfz-potsdam.de/ns/seiscomp3-schema/0.13" version="0.13"><EventParameters><pick publicID="de.gempa.tb1.Pick/20250412103236.644434.123403"><time><value>2025-04-12T10:32:31.788393Z</value></time><waveformID networkCode="CX" stationCode="PB03" channelCode="HHZ"/><filterID>ITAPER(4)&gt;&gt;BW(4,4,20)</filterID><methodID>AIC</methodID><horizontalSlowness><value>15.52587994431878</value></horizontalSlowness><backazimuth><value>278.4953826638257</value></backazimuth><phaseHint>P</phaseHint><evaluationMode>automatic</evaluationMode><comment><text>284.6743578121621</text><id>DFX:rectilinearity</id></comment><comment><text>78.49971802116116</text><id>SNR</id></comment></pick><pick publicID="de.gempa.tb1.Pick/20250412103240.570297.123405"><time><value>2025-04-12T10:32:33.878393Z</value></time><waveformID networkCode="CX" stationCode="PB02" channelCode="HHZ"/><filterID>ITAPER(4)&gt;&gt;BW(4,4,20)</filterID><methodID>AIC</methodID><horizontalSlowness><value>20.73500620745883</value></horizontalSlowness><backazimuth><value>83.31293448482566</value></backazimuth><phaseHint>P</phaseHint><evaluationMode>automatic</evaluationMode><comment><text>41.013248659152566</text><id>DFX:rectilinearity</id></comment><comment><text>47.56293635198222</text><id>SNR</id></comment></pick><pick publicID="de.gempa.tb1.Pick/20250412103242.501291.123407"><time><value>2025-04-12T10:32:37.658393Z</value></time><waveformID networkCode="CX" stationCode="PB06" channelCode="HHZ"/><filterID>ITAPER(4)&gt;&gt;BW(4,4,20)</filterID><methodID>AIC</methodID><horizontalSlowness><value>9.680070496946824</value></horizontalSlowness><backazimuth><value>333.9934292349496</value></backazimuth><phaseHint>P</phaseHint><evaluationMode>automatic</evaluationMode><comment><text>138.66597946381435</text><id>DFX:rectilinearity</id></comment><comment><text>61.65291360388557</text><id>SNR</id></comment></pick><pick publicID="de.gempa.tb1.Pick/20250412103245.188458.123409"><time><value>2025-04-12T10:32:39.96Z</value></time><waveformID networkCode="CX" stationCode="PB10" channelCode="HHZ"/><filterID>ITAPER(4)&gt;&gt;BW(4,4,20)</filterID><methodID>AIC</methodID><horizontalSlowness><value>15.01410862315822</value></horizontalSlowness><backazimuth><value>10.649413695109416</value></backazimuth><phaseHint>P</phaseHint><evaluationMode>automatic</evaluationMode><comment><text>140.13922650970596</text><id>DFX:rectilinearity</id></comment><comment><text>8.137117878175877</text><id>SNR</id></comment></pick><pick publicID="de.gempa.tb1.Pick/20250412103245.527811.123411"><time><value>2025-04-12T10:32:41.458393Z</value></time><waveformID networkCode="CX" stationCode="PB01" channelCode="HHZ"/><filterID>ITAPER(4)&gt;&gt;BW(4,4,20)</filterID><methodID>AIC</methodID><horizontalSlowness><value>13.80515804345664</value></horizontalSlowness><backazimuth><value>287.0068601883592</value></backazimuth><phaseHint>P</phaseHint><evaluationMode>automatic</evaluationMode><comment><text>6.811656810004632</text><id>DFX:rectilinearity</id></comment><comment><text>16.401956858593895</text><id>SNR</id></comment></pick><pick publicID="de.gempa.tb1.Pick/20250412103248.238716.123413"><time><value>2025-04-12T10:32:39.369999Z</value></time><waveformID networkCode="CX" stationCode="PATCX" channelCode="HHZ"/><filterID>ITAPER(4)&gt;&gt;BW(4,4,20)</filterID><methodID>AIC</methodID><horizontalSlowness><value>20.79346151149678</value></horizontalSlowness><backazimuth><value>189.61344347321653</value></backazimuth><phaseHint>P</phaseHint><evaluationMode>automatic</evaluationMode><comment><text>150.85449145742928</text><id>DFX:rectilinearity</id></comment><comment><text>7.80688506673823</text><id>SNR</id></comment></pick><pick publicID="de.gempa.tb1.Pick/20250412103248.648788.123415"><time><value>2025-04-12T10:32:43.368393Z</value></time><waveformID networkCode="CX" stationCode="PB15" channelCode="HHZ"/><filterID>ITAPER(4)&gt;&gt;BW(4,4,20)</filterID><methodID>AIC</methodID><horizontalSlowness><value>20.679019332337756</value></horizontalSlowness><backazimuth><value>62.3238189436068</value></backazimuth><phaseHint>P</phaseHint><evaluationMode>automatic</evaluationMode><comment><text>181.54659191623176</text><id>DFX:rectilinearity</id></comment><comment><text>10.232557870630556</text><id>SNR</id></comment></pick><pick publicID="de.gempa.tb1.Pick/20250412103250.766265.123417"><time><value>2025-04-12T10:32:43.068393Z</value></time><waveformID networkCode="CX" stationCode="PB03" channelCode="HHN"/><filterID>ITAPER(2)&gt;&gt;BW(3,3,20)</filterID><methodID>L2-AIC-GRID</methodID><horizontalSlowness><value>5.097118726270284</value></horizontalSlowness><backazimuth><value>124.6856880159598</value></backazimuth><phaseHint>S</phaseHint><evaluationMode>automatic</evaluationMode><comment><text>4021.200114205766</text><id>DFX:rectilinearity</id></comment><comment><text>de.gempa.tb1.Pick/20250412103236.644434.123403</text><id>RefPickID</id></comment><comment><text>5.733096553485421</text><id>SNR</id></comment></pick><pick publicID="de.gempa.tb1.Pick/20250412103251.135558.123418"><time><value>2025-04-12T10:32:40.110001Z</value></time><waveformID networkCode="CX" stationCode="PB09" channelCode="HHZ"/><filterID>ITAPER(4)&gt;&gt;BW(4,4,20)</filterID><methodID>AIC</methodID><horizontalSlowness><value>18.8596936490254</value></horizontalSlowness><backazimuth><value>302.2910899884688</value></backazimuth><phaseHint>P</phaseHint><evaluationMode>automatic</evaluationMode><comment><text>13.305547522050944</text><id>DFX:rectilinearity</id></comment><comment><text>100.77849813156728</text><id>SNR</id></comment></pick><origin publicID="de.gempa.tb1.Origin/20250412103251.372096.80764"><time><value>2025-04-12T10:32:13.736965Z</value><uncertainty>1.357219696044922</uncertainty></time><latitude><value>-22.063243865966797</value><uncertainty>4.011918544769287</uncertainty></latitude><longitude><value>-70.72293090820312</value><uncertainty>6.71431827545166</uncertainty></longitude><depth><value>5.316066741943359</value><uncertainty>8.600624084472656</uncertainty></depth><depthType>from location</depthType><methodID>LOCSAT</methodID><earthModelID>iasp91_scanloc</earthModelID><quality><associatedPhaseCount>9</associatedPhaseCount><usedPhaseCount>9</usedPhaseCount><associatedStationCount>8</associatedStationCount><usedStationCount>8</usedStationCount><depthPhaseCount>0</depthPhaseCount><standardError>0.4370890579126794</standardError><azimuthalGap>209.47839736938477</azimuthalGap><maximumDistance>1.6238176822662354</maximumDistance><minimumDistance>0.8998247385025024</minimumDistance><medianDistance>1.3456449508666992</medianDistance></quality><uncertainty><minHorizontalUncertainty>8.601425170898438</minHorizontalUncertainty><maxHorizontalUncertainty>14.399540901184082</maxHorizontalUncertainty><azimuthMaxHorizontalUncertainty>89.10900115966797</azimuthMaxHorizontalUncertainty><preferredDescription>horizontal uncertainty</preferredDescription></uncertainty><evaluationMode>automatic</evaluationMode><evaluationStatus>confirmed</evaluationStatus><comment><text>0.24</text><id>mismatchScore</id></comment><comment><text>mismatchScore</text><id>scevalMethod</id></comment><arrival><pickID>de.gempa.tb1.Pick/20250412103236.644434.123403</pickID><phase>P</phase><azimuth>89.24481964111328</azimuth><distance>0.8998247385025024</distance><timeResidual>0.7733230590820312</timeResidual><timeUsed>true</timeUsed><horizontalSlownessUsed>false</horizontalSlownessUsed><backazimuthUsed>false</backazimuthUsed><weight>1</weight></arrival><arrival><pickID>de.gempa.tb1.Pick/20250412103240.570297.123405</pickID><phase>P</phase><azimuth>46.25995254516602</azimuth><distance>1.0671710968017578</distance><timeResidual>-0.34383201599121094</timeResidual><timeUsed>true</timeUsed><horizontalSlownessUsed>false</horizontalSlownessUsed><backazimuthUsed>false</backazimuthUsed><weight>1</weight></arrival><arrival><pickID>de.gempa.tb1.Pick/20250412103242.501291.123407</pickID><phase>P</phase><azimuth>121.19176483154297</azimuth><distance>1.2425384521484375</distance><timeResidual>0.1310749053955078</timeResidual><timeUsed>true</timeUsed><horizontalSlownessUsed>false</horizontalSlownessUsed><backazimuthUsed>false</backazimuthUsed><weight>1</weight></arrival><arrival><pickID>de.gempa.tb1.Pick/20250412103245.188458.123409</pickID><phase>P</phase><azimuth>173.8704376220703</azimuth><distance>1.4517545700073242</distance><timeResidual>-0.6376819610595703</timeResidual><timeUsed>true</timeUsed><horizontalSlownessUsed>false</horizontalSlownessUsed><backazimuthUsed>false</backazimuthUsed><weight>1</weight></arrival><arrival><pickID>de.gempa.tb1.Pick/20250412103245.527811.123411</pickID><phase>P</phase><azimuth>48.79923629760742</azimuth><distance>1.5339831113815308</distance><timeResidual>-0.2748584747314453</timeResidual><timeUsed>true</timeUsed><horizontalSlownessUsed>false</horizontalSlownessUsed><backazimuthUsed>false</backazimuthUsed><weight>1</weight></arrival><arrival><pickID>de.gempa.tb1.Pick/20250412103248.238716.123413</pickID><phase>P</phase><azimuth>23.34883499145508</azimuth><distance>1.3456449508666992</distance><timeResidual>0.2285270690917969</timeResidual><timeUsed>true</timeUsed><horizontalSlownessUsed>false</horizontalSlownessUsed><backazimuthUsed>false</backazimuthUsed><weight>1</weight></arrival><arrival><pickID>de.gempa.tb1.Pick/20250412103248.648788.123415</pickID><phase>P</phase><azimuth>134.81292724609375</azimuth><distance>1.6238176822662354</distance><timeResidual>0.4021339416503906</timeResidual><timeUsed>true</timeUsed><horizontalSlownessUsed>false</horizontalSlownessUsed><backazimuthUsed>false</backazimuthUsed><weight>1</weight></arrival><arrival><pickID>de.gempa.tb1.Pick/20250412103250.766265.123417</pickID><phase>S</phase><azimuth>89.24481964111328</azimuth><distance>0.8998247385025024</distance><timeResidual>-0.4937610626220703</timeResidual><timeUsed>true</timeUsed><horizontalSlownessUsed>false</horizontalSlownessUsed><backazimuthUsed>false</backazimuthUsed><weight>1</weight></arrival><arrival><pickID>de.gempa.tb1.Pick/20250412103251.135558.123418</pickID><phase>P</phase><azimuth>79.34486389160156</azimuth><distance>1.4005305767059326</distance><timeResidual>0.21463966369628906</timeResidual><timeUsed>true</timeUsed><horizontalSlownessUsed>false</horizontalSlownessUsed><backazimuthUsed>false</backazimuthUsed><weight>1</weight></arrival><magnitude publicID="de.gempa.tb1.Magnitude/20250412103255.937433.211859"><magnitude><value>2.6261776853987713</value></magnitude><type>M</type><methodID>weighted average</methodID><stationCount>7</stationCount></magnitude></origin><event publicID="gempa2025hfjh"><preferredOriginID>de.gempa.tb1.Origin/20250412103251.372096.80764</preferredOriginID><preferredMagnitudeID>de.gempa.tb1.Magnitude/20250412103255.937433.211859</preferredMagnitudeID><description><text>Near Coast of Northern Chile</text><type>region name</type></description><originReference>de.gempa.tb1.Origin/20250412103251.372096.80764</originReference></event></EventParameters></seiscomp>