<?xml version="1.0" encoding="UTF-8"?>
<seiscomp xmlns="http://geofon.gfz-potsdam.de/ns/seiscomp3-schema/0.13" version="0.13"><EventParameters><pick publicID="de.gempa.tb1.Pick/20250414231010.1805.242753"><time><value>2025-04-14T23:10:08.205Z</value></time><waveformID networkCode="CH" stationCode="WILA" channelCode="HHZ"/><filterID>ITAPER(4)&gt;&gt;BW(4,4,20)</filterID><methodID>AIC</methodID><phaseHint>P</phaseHint><evaluationMode>automatic</evaluationMode></pick><pick publicID="de.gempa.tb1.Pick/20250414231012.352857.242761"><time><value>2025-04-14T23:10:08.695Z</value></time><waveformID networkCode="CH" stationCode="WALHA" channelCode="HHZ"/><filterID>ITAPER(4)&gt;&gt;BW(4,4,20)</filterID><methodID>AIC</methodID><phaseHint>P</phaseHint><evaluationMode>automatic</evaluationMode></pick><pick publicID="de.gempa.tb1.Pick/20250414231013.720657.242767"><time><value>2025-04-14T23:10:10.665Z</value></time><waveformID networkCode="CH" stationCode="TORNY" channelCode="HHZ"/><filterID>ITAPER(4)&gt;&gt;BW(4,4,20)</filterID><methodID>AIC</methodID><phaseHint>P</phaseHint><evaluationMode>automatic</evaluationMode></pick><pick publicID="de.gempa.tb1.Pick/20250414231016.684982.242778"><time><value>2025-04-14T23:10:13.01Z</value></time><waveformID networkCode="CH" stationCode="MUO" channelCode="HHZ"/><filterID>ITAPER(4)&gt;&gt;BW(4,4,20)</filterID><methodID>AIC</methodID><phaseHint>P</phaseHint><evaluationMode>automatic</evaluationMode></pick><pick publicID="de.gempa.tb1.Pick/20250414231019.097524.242783"><time><value>2025-04-14T23:10:11.550001Z</value></time><waveformID networkCode="CH" stationCode="BRANT" channelCode="HHZ"/><filterID>ITAPER(4)&gt;&gt;BW(4,4,20)</filterID><methodID>AIC</methodID><phaseHint>P</phaseHint><evaluationMode>automatic</evaluationMode></pick><pick publicID="de.gempa.tb1.Pick/20250414231019.118705.242785"><time><value>2025-04-14T23:10:14.355Z</value></time><waveformID networkCode="CH" stationCode="WIMIS" channelCode="HHZ"/><filterID>ITAPER(4)&gt;&gt;BW(4,4,20)</filterID><methodID>AIC</methodID><phaseHint>P</phaseHint><evaluationMode>automatic</evaluationMode></pick><pick publicID="de.gempa.tb1.Pick/20250414231021.116552.242789"><time><value>2025-04-14T23:10:15.928393Z</value></time><waveformID networkCode="CH" stationCode="GRIMS" channelCode="HHZ"/><filterID>ITAPER(4)&gt;&gt;BW(4,4,20)</filterID><methodID>AIC</methodID><phaseHint>P</phaseHint><evaluationMode>automatic</evaluationMode></pick><pick publicID="de.gempa.tb1.Pick/20250414231025.499414.242793"><time><value>2025-04-14T23:09:57.519538Z</value></time><waveformID networkCode="GR" stationCode="BFO" channelCode="BHZ"/><filterID>ITAPER(4)&gt;&gt;BW_HP(4,4)</filterID><methodID>AIC</methodID><phaseHint>P</phaseHint><evaluationMode>automatic</evaluationMode></pick><origin publicID="de.gempa.tb1.Origin/20250414231030.091573.152230"><time><value>2025-04-14T23:09:45.26598Z</value><uncertainty>1.4209829568862915</uncertainty></time><latitude><value>48.20063781738281</value><uncertainty>10.420384407043457</uncertainty></latitude><longitude><value>7.400649547576904</value><uncertainty>7.744006156921387</uncertainty></longitude><depth><value>0</value></depth><depthType>operator assigned</depthType><methodID>LOCSAT</methodID><earthModelID>iasp91</earthModelID><quality><associatedPhaseCount>8</associatedPhaseCount><usedPhaseCount>8</usedPhaseCount><associatedStationCount>8</associatedStationCount><usedStationCount>8</usedStationCount><depthPhaseCount>0</depthPhaseCount><standardError>0.7347696252858447</standardError><azimuthalGap>231.0039749145508</azimuthalGap><maximumDistance>1.7390897274017334</maximumDistance><minimumDistance>0.6347259283065796</minimumDistance><medianDistance>1.458912968635559</medianDistance></quality><uncertainty><minHorizontalUncertainty>8.345888137817383</minHorizontalUncertainty><maxHorizontalUncertainty>26.564273834228516</maxHorizontalUncertainty><azimuthMaxHorizontalUncertainty>145.29251098632812</azimuthMaxHorizontalUncertainty><preferredDescription>horizontal uncertainty</preferredDescription></uncertainty><evaluationMode>automatic</evaluationMode><evaluationStatus>rejected</evaluationStatus><comment><text>0.75</text><id>mismatchScore</id></comment><comment><text>mismatchScore</text><id>scevalMethod</id></comment><arrival><pickID>de.gempa.tb1.Pick/20250414231010.1805.242753</pickID><phase>P</phase><azimuth>127.19113159179688</azimuth><distance>1.2846262454986572</distance><timeResidual>-0.9050941467285156</timeResidual><timeUsed>true</timeUsed><horizontalSlownessUsed>false</horizontalSlownessUsed><backazimuthUsed>false</backazimuthUsed><weight>1</weight></arrival><arrival><pickID>de.gempa.tb1.Pick/20250414231012.352857.242761</pickID><phase>P</phase><azimuth>110.52790069580078</azimuth><distance>1.2410333156585693</distance><timeResidual>0.29248619079589844</timeResidual><timeUsed>true</timeUsed><horizontalSlownessUsed>false</horizontalSlownessUsed><backazimuthUsed>false</backazimuthUsed><weight>1</weight></arrival><arrival><pickID>de.gempa.tb1.Pick/20250414231013.720657.242767</pickID><phase>P</phase><azimuth>192.0209197998047</azimuth><distance>1.458912968635559</distance><timeResidual>-1.2347726821899414</timeResidual><timeUsed>true</timeUsed><horizontalSlownessUsed>false</horizontalSlownessUsed><backazimuthUsed>false</backazimuthUsed><weight>1</weight></arrival><arrival><pickID>de.gempa.tb1.Pick/20250414231016.684982.242778</pickID><phase>P</phase><azimuth>145.38819885253906</azimuth><distance>1.4908004999160767</distance><timeResidual>0.6069622039794922</timeResidual><timeUsed>true</timeUsed><horizontalSlownessUsed>false</horizontalSlownessUsed><backazimuthUsed>false</backazimuthUsed><weight>1</weight></arrival><arrival><pickID>de.gempa.tb1.Pick/20250414231019.097524.242783</pickID><phase>P</phase><azimuth>206.78038024902344</azimuth><distance>1.4108901023864746</distance><timeResidual>0.41280174255371094</timeResidual><timeUsed>true</timeUsed><horizontalSlownessUsed>false</horizontalSlownessUsed><backazimuthUsed>false</backazimuthUsed><weight>1</weight></arrival><arrival><pickID>de.gempa.tb1.Pick/20250414231019.118705.242785</pickID><phase>P</phase><azimuth>174.2773895263672</azimuth><distance>1.544073462486267</distance><timeResidual>1.1146135330200195</timeResidual><timeUsed>true</timeUsed><horizontalSlownessUsed>false</horizontalSlownessUsed><backazimuthUsed>false</backazimuthUsed><weight>1</weight></arrival><arrival><pickID>de.gempa.tb1.Pick/20250414231021.116552.242789</pickID><phase>P</phase><azimuth>158.6389923095703</azimuth><distance>1.7390897274017334</distance><timeResidual>-0.32697200775146484</timeResidual><timeUsed>true</timeUsed><horizontalSlownessUsed>false</horizontalSlownessUsed><backazimuthUsed>false</backazimuthUsed><weight>1</weight></arrival><arrival><pickID>de.gempa.tb1.Pick/20250414231025.499414.242793</pickID><phase>P</phase><azimuth>77.78435516357422</azimuth><distance>0.6347259283065796</distance><timeResidual>0.04002094268798828</timeResidual><timeUsed>true</timeUsed><horizontalSlownessUsed>false</horizontalSlownessUsed><backazimuthUsed>false</backazimuthUsed><weight>1</weight></arrival><magnitude publicID="de.gempa.tb1.Magnitude/20250414231128.245898.550363"><magnitude><value>2.2602890249160255</value></magnitude><type>M</type><methodID>weighted average</methodID><stationCount>6</stationCount></magnitude></origin><event publicID="gempa2025hkar"><preferredOriginID>de.gempa.tb1.Origin/20250414231030.091573.152230</preferredOriginID><preferredMagnitudeID>de.gempa.tb1.Magnitude/20250414231128.245898.550363</preferredMagnitudeID><type>not existing</type><typeCertainty>suspected</typeCertainty><description><text>France</text><type>region name</type></description><originReference>de.gempa.tb1.Origin/20250414231030.091573.152230</originReference></event></EventParameters></seiscomp>