<?xml version="1.0" encoding="UTF-8"?>
<seiscomp xmlns="http://geofon.gfz-potsdam.de/ns/seiscomp3-schema/0.13" version="0.13"><EventParameters><pick publicID="de.gempa.tb1.Pick/20250413151618.575858.132052"><time><value>2025-04-13T15:16:11.138393Z</value></time><waveformID networkCode="CX" stationCode="PB03" channelCode="HHZ"/><filterID>ITAPER(4)&gt;&gt;BW(4,4,20)</filterID><methodID>AIC</methodID><horizontalSlowness><value>7.33610641596238</value></horizontalSlowness><backazimuth><value>202.66380697446604</value></backazimuth><phaseHint>P</phaseHint><evaluationMode>automatic</evaluationMode><comment><text>5.969000045736654</text><id>DFX:rectilinearity</id></comment><comment><text>8.07060093579692</text><id>SNR</id></comment></pick><pick publicID="de.gempa.tb1.Pick/20250413151620.574779.132054"><time><value>2025-04-13T15:16:12.758394Z</value></time><waveformID networkCode="CX" stationCode="PB07" channelCode="HHZ"/><filterID>ITAPER(4)&gt;&gt;BW(4,4,20)</filterID><methodID>AIC</methodID><horizontalSlowness><value>20.413302110904922</value></horizontalSlowness><backazimuth><value>260.468964497366</value></backazimuth><phaseHint>P</phaseHint><evaluationMode>automatic</evaluationMode><comment><text>201.54653390056959</text><id>DFX:rectilinearity</id></comment><comment><text>24.783679538947176</text><id>SNR</id></comment></pick><pick publicID="de.gempa.tb1.Pick/20250413151621.620667.132056"><time><value>2025-04-13T15:16:12.338394Z</value></time><waveformID networkCode="CX" stationCode="PB01" channelCode="HHZ"/><filterID>ITAPER(4)&gt;&gt;BW(4,4,20)</filterID><methodID>AIC</methodID><horizontalSlowness><value>23.262160324819735</value></horizontalSlowness><backazimuth><value>180.28740115998463</value></backazimuth><phaseHint>P</phaseHint><evaluationMode>automatic</evaluationMode><comment><text>17.393537327651398</text><id>DFX:rectilinearity</id></comment><comment><text>11.671762902890624</text><id>SNR</id></comment></pick><pick publicID="de.gempa.tb1.Pick/20250413151640.554156.132062"><time><value>2025-04-13T15:16:28.568393Z</value></time><waveformID networkCode="CX" stationCode="PB03" channelCode="HHN"/><filterID>ITAPER(2)&gt;&gt;BW(3,3,20)</filterID><methodID>L2-AIC-GRID</methodID><horizontalSlowness><value>13.72951144216637</value></horizontalSlowness><backazimuth><value>256.58496133653517</value></backazimuth><phaseHint>S</phaseHint><evaluationMode>automatic</evaluationMode><comment><text>12.94611972999397</text><id>DFX:rectilinearity</id></comment><comment><text>de.gempa.tb1.Pick/20250413151618.575858.132052</text><id>RefPickID</id></comment><comment><text>14.599746977094993</text><id>SNR</id></comment></pick><pick publicID="de.gempa.tb1.Pick/20250413151640.580851.132063"><time><value>2025-04-13T15:16:30.838394Z</value></time><waveformID networkCode="CX" stationCode="PB01" channelCode="HHN"/><filterID>ITAPER(2)&gt;&gt;BW(3,3,20)</filterID><methodID>L2-AIC-GRID</methodID><horizontalSlowness><value>22.081753329509677</value></horizontalSlowness><backazimuth><value>319.19356938068876</value></backazimuth><phaseHint>S</phaseHint><evaluationMode>automatic</evaluationMode><comment><text>18.188473652977244</text><id>DFX:rectilinearity</id></comment><comment><text>de.gempa.tb1.Pick/20250413151621.620667.132056</text><id>RefPickID</id></comment><comment><text>6.933540867408347</text><id>SNR</id></comment></pick><pick publicID="de.gempa.tb1.Pick/20250413151655.843237.132067"><time><value>2025-04-13T15:16:30.848394Z</value></time><waveformID networkCode="CX" stationCode="PB07" channelCode="HHN"/><filterID>ITAPER(2)&gt;&gt;BW(3,3,20)</filterID><methodID>L2-AIC-GRID</methodID><horizontalSlowness><value>22.697867975959337</value></horizontalSlowness><backazimuth><value>305.1061915371311</value></backazimuth><phaseHint>S</phaseHint><evaluationMode>automatic</evaluationMode><comment><text>264.60468442021153</text><id>DFX:rectilinearity</id></comment><comment><text>de.gempa.tb1.Pick/20250413151620.574779.132054</text><id>RefPickID</id></comment><comment><text>9.212797207480417</text><id>SNR</id></comment></pick><origin publicID="de.gempa.tb1.Origin/20250413151655.846412.113385"><time><value>2025-04-13T15:15:47.611782Z</value><uncertainty>1.5476808547973633</uncertainty></time><latitude><value>-21.911256790161133</value><uncertainty>5.217941284179688</uncertainty></latitude><longitude><value>-68.45771026611328</value><uncertainty>6.567668914794922</uncertainty></longitude><depth><value>0</value></depth><depthType>operator assigned</depthType><methodID>LOCSAT</methodID><earthModelID>iasp91_scanloc</earthModelID><quality><associatedPhaseCount>6</associatedPhaseCount><usedPhaseCount>6</usedPhaseCount><associatedStationCount>3</associatedStationCount><usedStationCount>3</usedStationCount><depthPhaseCount>0</depthPhaseCount><standardError>0.6714643529525989</standardError><azimuthalGap>311.4608154296875</azimuthalGap><maximumDistance>1.3400039672851562</maximumDistance><minimumDistance>1.2100820541381836</minimumDistance><medianDistance>1.2906677722930908</medianDistance></quality><uncertainty><minHorizontalUncertainty>10.391314506530762</minHorizontalUncertainty><maxHorizontalUncertainty>14.68605899810791</maxHorizontalUncertainty><azimuthMaxHorizontalUncertainty>113.60107421875</azimuthMaxHorizontalUncertainty><preferredDescription>horizontal uncertainty</preferredDescription></uncertainty><evaluationMode>automatic</evaluationMode><evaluationStatus>rejected</evaluationStatus><comment><text>0.99</text><id>mismatchScore</id></comment><comment><text>mismatchScore</text><id>scevalMethod</id></comment><arrival><pickID>de.gempa.tb1.Pick/20250413151618.575858.132052</pickID><phase>P</phase><azimuth>263.280029296875</azimuth><distance>1.2100820541381836</distance><timeResidual>0.31642723083496094</timeResidual><timeUsed>true</timeUsed><horizontalSlownessUsed>false</horizontalSlownessUsed><backazimuthUsed>false</backazimuthUsed><weight>1</weight></arrival><arrival><pickID>de.gempa.tb1.Pick/20250413151620.574779.132054</pickID><phase>P</phase><azimuth>277.6146545410156</azimuth><distance>1.3400039672851562</distance><timeResidual>-0.5378856658935547</timeResidual><timeUsed>true</timeUsed><horizontalSlownessUsed>false</horizontalSlownessUsed><backazimuthUsed>false</backazimuthUsed><weight>1</weight></arrival><arrival><pickID>de.gempa.tb1.Pick/20250413151621.620667.132056</pickID><phase>P</phase><azimuth>311.8192138671875</azimuth><distance>1.2906677722930908</distance><timeResidual>-0.03044891357421875</timeResidual><timeUsed>true</timeUsed><horizontalSlownessUsed>false</horizontalSlownessUsed><backazimuthUsed>false</backazimuthUsed><weight>1</weight></arrival><arrival><pickID>de.gempa.tb1.Pick/20250413151640.554156.132062</pickID><phase>S</phase><azimuth>263.280029296875</azimuth><distance>1.2100820541381836</distance><timeResidual>0.8915863037109375</timeResidual><timeUsed>true</timeUsed><horizontalSlownessUsed>false</horizontalSlownessUsed><backazimuthUsed>false</backazimuthUsed><weight>1</weight></arrival><arrival><pickID>de.gempa.tb1.Pick/20250413151640.580851.132063</pickID><phase>S</phase><azimuth>311.8192138671875</azimuth><distance>1.2906677722930908</distance><timeResidual>0.4910621643066406</timeResidual><timeUsed>true</timeUsed><horizontalSlownessUsed>false</horizontalSlownessUsed><backazimuthUsed>false</backazimuthUsed><weight>1</weight></arrival><arrival><pickID>de.gempa.tb1.Pick/20250413151655.843237.132067</pickID><phase>S</phase><azimuth>277.6146545410156</azimuth><distance>1.3400039672851562</distance><timeResidual>-1.1308155059814453</timeResidual><timeUsed>true</timeUsed><horizontalSlownessUsed>false</horizontalSlownessUsed><backazimuthUsed>false</backazimuthUsed><weight>1</weight></arrival><magnitude publicID="de.gempa.tb1.Magnitude/20250413151655.852826.372043"><magnitude><value>2.4149439733206224</value></magnitude><type>M</type><methodID>weighted average</methodID><stationCount>2</stationCount></magnitude></origin><event publicID="gempa2025hhou"><preferredOriginID>de.gempa.tb1.Origin/20250413151655.846412.113385</preferredOriginID><preferredMagnitudeID>de.gempa.tb1.Magnitude/20250413151655.852826.372043</preferredMagnitudeID><type>not existing</type><typeCertainty>suspected</typeCertainty><description><text>Chile-Bolivia Border Region</text><type>region name</type></description><originReference>de.gempa.tb1.Origin/20250413151655.846412.113385</originReference></event></EventParameters></seiscomp>