<?xml version="1.0" encoding="UTF-8"?>
<seiscomp xmlns="http://geofon.gfz-potsdam.de/ns/seiscomp3-schema/0.13" version="0.13"><EventParameters><pick publicID="de.gempa.tb1.Pick/20250413091331.74011.130317"><time><value>2025-04-13T09:13:25.608393Z</value></time><waveformID networkCode="CX" stationCode="PB01" channelCode="HHZ"/><filterID>ITAPER(4)&gt;&gt;BW(4,4,20)</filterID><methodID>AIC</methodID><horizontalSlowness><value>11.776701673774525</value></horizontalSlowness><backazimuth><value>41.705435786592005</value></backazimuth><phaseHint>P</phaseHint><evaluationMode>automatic</evaluationMode><comment><text>19.698278664907743</text><id>DFX:rectilinearity</id></comment><comment><text>25.02586314502039</text><id>SNR</id></comment></pick><pick publicID="de.gempa.tb1.Pick/20250413091332.52474.130319"><time><value>2025-04-13T09:13:27.858393Z</value></time><waveformID networkCode="CX" stationCode="PB03" channelCode="HHZ"/><filterID>ITAPER(4)&gt;&gt;BW(4,4,20)</filterID><methodID>AIC</methodID><horizontalSlowness><value>8.934358729120973</value></horizontalSlowness><backazimuth><value>224.92667954626782</value></backazimuth><phaseHint>P</phaseHint><evaluationMode>automatic</evaluationMode><comment><text>14.933964483864067</text><id>DFX:rectilinearity</id></comment><comment><text>26.091314603600193</text><id>SNR</id></comment></pick><pick publicID="de.gempa.tb1.Pick/20250413091333.516531.130321"><time><value>2025-04-13T09:13:28.558393Z</value></time><waveformID networkCode="CX" stationCode="PB02" channelCode="HHZ"/><filterID>ITAPER(4)&gt;&gt;BW(4,4,20)</filterID><methodID>AIC</methodID><horizontalSlowness><value>8.034381794839584</value></horizontalSlowness><backazimuth><value>18.76017070791653</value></backazimuth><phaseHint>P</phaseHint><evaluationMode>automatic</evaluationMode><comment><text>48.93998283695564</text><id>DFX:rectilinearity</id></comment><comment><text>18.983839236953795</text><id>SNR</id></comment></pick><pick publicID="de.gempa.tb1.Pick/20250413091336.959139.130323"><time><value>2025-04-13T09:13:23.35Z</value></time><waveformID networkCode="CX" stationCode="PB09" channelCode="HHZ"/><filterID>ITAPER(4)&gt;&gt;BW(4,4,20)</filterID><methodID>AIC</methodID><horizontalSlowness><value>16.897604643404687</value></horizontalSlowness><backazimuth><value>85.81304956742505</value></backazimuth><phaseHint>P</phaseHint><evaluationMode>automatic</evaluationMode><comment><text>15.728815739040868</text><id>DFX:rectilinearity</id></comment><comment><text>30.42256345757424</text><id>SNR</id></comment></pick><pick publicID="de.gempa.tb1.Pick/20250413091340.651058.130325"><time><value>2025-04-13T09:13:30.808393Z</value></time><waveformID networkCode="CX" stationCode="PB06" channelCode="HHZ"/><filterID>ITAPER(4)&gt;&gt;BW(4,4,20)</filterID><methodID>AIC</methodID><horizontalSlowness><value>12.926585405490398</value></horizontalSlowness><backazimuth><value>348.22566613807646</value></backazimuth><phaseHint>P</phaseHint><evaluationMode>automatic</evaluationMode><comment><text>47.83831820899388</text><id>DFX:rectilinearity</id></comment><comment><text>10.956835266664097</text><id>SNR</id></comment></pick><pick publicID="de.gempa.tb1.Pick/20250413091343.363693.130327"><time><value>2025-04-13T09:13:28.208393Z</value></time><waveformID networkCode="CX" stationCode="PB07" channelCode="HHZ"/><filterID>ITAPER(4)&gt;&gt;BW(4,4,20)</filterID><methodID>AIC</methodID><horizontalSlowness><value>14.82959230728306</value></horizontalSlowness><backazimuth><value>76.06365990743758</value></backazimuth><phaseHint>P</phaseHint><evaluationMode>automatic</evaluationMode><comment><text>253.63454539023337</text><id>DFX:rectilinearity</id></comment><comment><text>63.10936507522324</text><id>SNR</id></comment></pick><pick publicID="de.gempa.tb1.Pick/20250413091351.592797.130329"><time><value>2025-04-13T09:13:42.69Z</value></time><waveformID networkCode="CX" stationCode="PB19" channelCode="HHZ"/><filterID>ITAPER(4)&gt;&gt;BW(4,4,20)</filterID><methodID>AIC</methodID><horizontalSlowness><value>8.00587527631121</value></horizontalSlowness><backazimuth><value>327.25358309756916</value></backazimuth><phaseHint>P</phaseHint><evaluationMode>automatic</evaluationMode><comment><text>14.880113535852574</text><id>DFX:rectilinearity</id></comment><comment><text>13.259420691561896</text><id>SNR</id></comment></pick><pick publicID="de.gempa.tb1.Pick/20250413091353.74195.130331"><time><value>2025-04-13T09:13:46.988393Z</value></time><waveformID networkCode="CX" stationCode="PB03" channelCode="HHN"/><filterID>ITAPER(2)&gt;&gt;BW(3,3,20)</filterID><methodID>L2-AIC-GRID</methodID><horizontalSlowness><value>11.654044386403076</value></horizontalSlowness><backazimuth><value>232.26878754662835</value></backazimuth><phaseHint>S</phaseHint><evaluationMode>automatic</evaluationMode><comment><text>11.432430411869744</text><id>DFX:rectilinearity</id></comment><comment><text>de.gempa.tb1.Pick/20250413091332.52474.130319</text><id>RefPickID</id></comment><comment><text>7.133909375358832</text><id>SNR</id></comment></pick><pick publicID="de.gempa.tb1.Pick/20250413091354.468608.130332"><time><value>2025-04-13T09:13:48.028393Z</value></time><waveformID networkCode="CX" stationCode="PB02" channelCode="HHN"/><filterID>ITAPER(2)&gt;&gt;BW(3,3,20)</filterID><methodID>L2-AIC-GRID</methodID><horizontalSlowness><value>18.513887524918086</value></horizontalSlowness><backazimuth><value>71.76905655795282</value></backazimuth><phaseHint>S</phaseHint><evaluationMode>automatic</evaluationMode><comment><text>79.51199947554215</text><id>DFX:rectilinearity</id></comment><comment><text>de.gempa.tb1.Pick/20250413091333.516531.130321</text><id>RefPickID</id></comment><comment><text>5.041807595869545</text><id>SNR</id></comment></pick><pick publicID="de.gempa.tb1.Pick/20250413091358.363152.130333"><time><value>2025-04-13T09:13:47.878393Z</value></time><waveformID networkCode="CX" stationCode="PB07" channelCode="HHN"/><filterID>ITAPER(2)&gt;&gt;BW(3,3,20)</filterID><methodID>L2-AIC-GRID</methodID><horizontalSlowness><value>22.192321497614667</value></horizontalSlowness><backazimuth><value>259.62758835762696</value></backazimuth><phaseHint>S</phaseHint><evaluationMode>automatic</evaluationMode><comment><text>947.5048920599606</text><id>DFX:rectilinearity</id></comment><comment><text>de.gempa.tb1.Pick/20250413091343.363693.130327</text><id>RefPickID</id></comment><comment><text>6.455026504419132</text><id>SNR</id></comment></pick><origin publicID="de.gempa.tb1.Origin/20250413091358.366663.106454"><time><value>2025-04-13T09:13:03.154388Z</value><uncertainty>1.142059087753296</uncertainty></time><latitude><value>-21.541887283325195</value><uncertainty>7.125650882720947</uncertainty></latitude><longitude><value>-68.58292388916016</value><uncertainty>16.33436393737793</uncertainty></longitude><depth><value>128.89407348632812</value><uncertainty>22.55270576477051</uncertainty></depth><depthType>from location</depthType><methodID>LOCSAT</methodID><earthModelID>iasp91_scanloc</earthModelID><quality><associatedPhaseCount>10</associatedPhaseCount><usedPhaseCount>10</usedPhaseCount><associatedStationCount>7</associatedStationCount><usedStationCount>7</usedStationCount><depthPhaseCount>0</depthPhaseCount><standardError>0.14259002032530424</standardError><azimuthalGap>255.0901641845703</azimuthalGap><maximumDistance>2.440833568572998</maximumDistance><minimumDistance>0.6632369160652161</minimumDistance><medianDistance>1.2264058589935303</medianDistance></quality><uncertainty><minHorizontalUncertainty>15.165544509887695</minHorizontalUncertainty><maxHorizontalUncertainty>35.072669982910156</maxHorizontalUncertainty><azimuthMaxHorizontalUncertainty>86.63719940185547</azimuthMaxHorizontalUncertainty><preferredDescription>horizontal uncertainty</preferredDescription></uncertainty><evaluationMode>automatic</evaluationMode><evaluationStatus>confirmed</evaluationStatus><comment><text>0.10</text><id>mismatchScore</id></comment><comment><text>mismatchScore</text><id>scevalMethod</id></comment><arrival><pickID>de.gempa.tb1.Pick/20250413091331.74011.130317</pickID><phase>P</phase><azimuth>300.30322265625</azimuth><distance>0.978594183921814</distance><timeResidual>-0.19384193420410156</timeResidual><timeUsed>true</timeUsed><horizontalSlownessUsed>false</horizontalSlownessUsed><backazimuthUsed>false</backazimuthUsed><weight>1</weight></arrival><arrival><pickID>de.gempa.tb1.Pick/20250413091332.52474.130319</pickID><phase>P</phase><azimuth>244.9149627685547</azimuth><distance>1.198679804801941</distance><timeResidual>-0.09476661682128906</timeResidual><timeUsed>true</timeUsed><horizontalSlownessUsed>false</horizontalSlownessUsed><backazimuthUsed>false</backazimuthUsed><weight>1</weight></arrival><arrival><pickID>de.gempa.tb1.Pick/20250413091333.516531.130321</pickID><phase>P</phase><azimuth>280.00360107421875</azimuth><distance>1.2432118654251099</distance><timeResidual>0.1388530731201172</timeResidual><timeUsed>true</timeUsed><horizontalSlownessUsed>false</horizontalSlownessUsed><backazimuthUsed>false</backazimuthUsed><weight>1</weight></arrival><arrival><pickID>de.gempa.tb1.Pick/20250413091336.959139.130323</pickID><phase>P</phase><azimuth>247.43174743652344</azimuth><distance>0.6632369160652161</distance><timeResidual>0.17259979248046875</timeResidual><timeUsed>true</timeUsed><horizontalSlownessUsed>false</horizontalSlownessUsed><backazimuthUsed>false</backazimuthUsed><weight>1</weight></arrival><arrival><pickID>de.gempa.tb1.Pick/20250413091340.651058.130325</pickID><phase>P</phase><azimuth>218.18374633789062</azimuth><distance>1.4773430824279785</distance><timeResidual>-0.1396923065185547</timeResidual><timeUsed>true</timeUsed><horizontalSlownessUsed>false</horizontalSlownessUsed><backazimuthUsed>false</backazimuthUsed><weight>1</weight></arrival><arrival><pickID>de.gempa.tb1.Pick/20250413091343.363693.130327</pickID><phase>P</phase><azimuth>261.1385192871094</azimuth><distance>1.2264058589935303</distance><timeResidual>-0.03353309631347656</timeResidual><timeUsed>true</timeUsed><horizontalSlownessUsed>false</horizontalSlownessUsed><backazimuthUsed>false</backazimuthUsed><weight>1</weight></arrival><arrival><pickID>de.gempa.tb1.Pick/20250413091351.592797.130329</pickID><phase>P</phase><azimuth>195.3933868408203</azimuth><distance>2.440833568572998</distance><timeResidual>0.1278400421142578</timeResidual><timeUsed>true</timeUsed><horizontalSlownessUsed>false</horizontalSlownessUsed><backazimuthUsed>false</backazimuthUsed><weight>1</weight></arrival><arrival><pickID>de.gempa.tb1.Pick/20250413091353.74195.130331</pickID><phase>S</phase><azimuth>244.9149627685547</azimuth><distance>1.198679804801941</distance><timeResidual>-0.1868000030517578</timeResidual><timeUsed>true</timeUsed><horizontalSlownessUsed>false</horizontalSlownessUsed><backazimuthUsed>false</backazimuthUsed><weight>1</weight></arrival><arrival><pickID>de.gempa.tb1.Pick/20250413091354.468608.130332</pickID><phase>S</phase><azimuth>280.00360107421875</azimuth><distance>1.2432118654251099</distance><timeResidual>0.0214385986328125</timeResidual><timeUsed>true</timeUsed><horizontalSlownessUsed>false</horizontalSlownessUsed><backazimuthUsed>false</backazimuthUsed><weight>1</weight></arrival><arrival><pickID>de.gempa.tb1.Pick/20250413091358.363152.130333</pickID><phase>S</phase><azimuth>261.1385192871094</azimuth><distance>1.2264058589935303</distance><timeResidual>0.1880359649658203</timeResidual><timeUsed>true</timeUsed><horizontalSlownessUsed>false</horizontalSlownessUsed><backazimuthUsed>false</backazimuthUsed><weight>1</weight></arrival><magnitude publicID="de.gempa.tb1.Magnitude/20250413091424.62143.335871"><magnitude><value>2.210063420699265</value></magnitude><type>M</type><methodID>weighted average</methodID><stationCount>4</stationCount></magnitude></origin><event publicID="gempa2025hhcr"><preferredOriginID>de.gempa.tb1.Origin/20250413091358.366663.106454</preferredOriginID><preferredMagnitudeID>de.gempa.tb1.Magnitude/20250413091424.62143.335871</preferredMagnitudeID><description><text>Chile-Bolivia Border Region</text><type>region name</type></description><originReference>de.gempa.tb1.Origin/20250413091358.366663.106454</originReference></event></EventParameters></seiscomp>