<?xml version="1.0" encoding="UTF-8"?>
<seiscomp xmlns="http://geofon.gfz-potsdam.de/ns/seiscomp3-schema/0.13" version="0.13"><EventParameters><pick publicID="de.gempa.tb1.Pick/20250413104747.690129.130638"><time><value>2025-04-13T10:47:43.558393Z</value></time><waveformID networkCode="CX" stationCode="PB01" channelCode="HHZ"/><filterID>ITAPER(4)&gt;&gt;BW(4,4,20)</filterID><methodID>AIC</methodID><horizontalSlowness><value>6.274720051731957</value></horizontalSlowness><backazimuth><value>116.20509057846766</value></backazimuth><phaseHint>P</phaseHint><evaluationMode>automatic</evaluationMode><comment><text>147.4841637183763</text><id>DFX:rectilinearity</id></comment><comment><text>238.8051012756325</text><id>SNR</id></comment></pick><pick publicID="de.gempa.tb1.Pick/20250413104751.48177.130640"><time><value>2025-04-13T10:47:47.038393Z</value></time><waveformID networkCode="CX" stationCode="PB02" channelCode="HHZ"/><filterID>ITAPER(4)&gt;&gt;BW(4,4,20)</filterID><methodID>AIC</methodID><horizontalSlowness><value>4.66668894117401</value></horizontalSlowness><backazimuth><value>34.27997934818123</value></backazimuth><phaseHint>P</phaseHint><evaluationMode>automatic</evaluationMode><comment><text>283.32356719228875</text><id>DFX:rectilinearity</id></comment><comment><text>118.52651840156526</text><id>SNR</id></comment></pick><pick publicID="de.gempa.tb1.Pick/20250413104753.550598.130642"><time><value>2025-04-13T10:47:48.948393Z</value></time><waveformID networkCode="CX" stationCode="PB08" channelCode="HHZ"/><filterID>ITAPER(4)&gt;&gt;BW(4,4,20)</filterID><methodID>AIC</methodID><horizontalSlowness><value>15.643893083810012</value></horizontalSlowness><backazimuth><value>205.72699663556705</value></backazimuth><phaseHint>P</phaseHint><evaluationMode>automatic</evaluationMode><comment><text>54.41044832702809</text><id>DFX:rectilinearity</id></comment><comment><text>13.337398328474784</text><id>SNR</id></comment></pick><pick publicID="de.gempa.tb1.Pick/20250413104753.648939.130644"><time><value>2025-04-13T10:47:48.878393Z</value></time><waveformID networkCode="CX" stationCode="PB03" channelCode="HHZ"/><filterID>ITAPER(4)&gt;&gt;BW(4,4,20)</filterID><methodID>AIC</methodID><horizontalSlowness><value>7.978720329474807</value></horizontalSlowness><backazimuth><value>54.18451067716062</value></backazimuth><phaseHint>P</phaseHint><evaluationMode>automatic</evaluationMode><comment><text>260.8159207871037</text><id>DFX:rectilinearity</id></comment><comment><text>123.01562337470938</text><id>SNR</id></comment></pick><pick publicID="de.gempa.tb1.Pick/20250413104758.349118.130646"><time><value>2025-04-13T10:47:50.509999Z</value></time><waveformID networkCode="CX" stationCode="PATCX" channelCode="HHZ"/><filterID>ITAPER(4)&gt;&gt;BW(4,4,20)</filterID><methodID>AIC</methodID><horizontalSlowness><value>20.616874199379112</value></horizontalSlowness><backazimuth><value>63.24610914345682</value></backazimuth><phaseHint>P</phaseHint><evaluationMode>automatic</evaluationMode><comment><text>148.50031278237304</text><id>DFX:rectilinearity</id></comment><comment><text>16.772582549730334</text><id>SNR</id></comment></pick><pick publicID="de.gempa.tb1.Pick/20250413104759.601544.130648"><time><value>2025-04-13T10:47:53.988393Z</value></time><waveformID networkCode="CX" stationCode="PB06" channelCode="HHZ"/><filterID>ITAPER(4)&gt;&gt;BW(4,4,20)</filterID><methodID>AIC</methodID><horizontalSlowness><value>5.068183984638482</value></horizontalSlowness><backazimuth><value>13.151086343531006</value></backazimuth><phaseHint>P</phaseHint><evaluationMode>automatic</evaluationMode><comment><text>133.23057051454836</text><id>DFX:rectilinearity</id></comment><comment><text>49.37682279435548</text><id>SNR</id></comment></pick><pick publicID="de.gempa.tb1.Pick/20250413104759.926973.130650"><time><value>2025-04-13T10:47:44.26Z</value></time><waveformID networkCode="CX" stationCode="PB09" channelCode="HHZ"/><filterID>ITAPER(4)&gt;&gt;BW(4,4,20)</filterID><methodID>AIC</methodID><horizontalSlowness><value>14.818847742797763</value></horizontalSlowness><backazimuth><value>68.05236175444774</value></backazimuth><phaseHint>P</phaseHint><evaluationMode>automatic</evaluationMode><comment><text>428.356970587934</text><id>DFX:rectilinearity</id></comment><comment><text>390.3724218561087</text><id>SNR</id></comment></pick><pick publicID="de.gempa.tb1.Pick/20250413104803.768994.130652"><time><value>2025-04-13T10:47:57.878393Z</value></time><waveformID networkCode="CX" stationCode="PB01" channelCode="HHN"/><filterID>ITAPER(2)&gt;&gt;BW(3,3,20)</filterID><methodID>L2-AIC-GRID</methodID><horizontalSlowness><value>22.525915193536044</value></horizontalSlowness><backazimuth><value>0.7053434901344815</value></backazimuth><phaseHint>S</phaseHint><evaluationMode>automatic</evaluationMode><comment><text>18556.409560771463</text><id>DFX:rectilinearity</id></comment><comment><text>de.gempa.tb1.Pick/20250413104747.690129.130638</text><id>RefPickID</id></comment><comment><text>17.562770637582197</text><id>SNR</id></comment></pick><pick publicID="de.gempa.tb1.Pick/20250413104805.570185.130653"><time><value>2025-04-13T10:47:58.11Z</value></time><waveformID networkCode="CX" stationCode="PSGCX" channelCode="HHZ"/><filterID>ITAPER(4)&gt;&gt;BW(4,4,20)</filterID><methodID>AIC</methodID><horizontalSlowness><value>5.571421114314376</value></horizontalSlowness><backazimuth><value>129.0136174273822</value></backazimuth><phaseHint>P</phaseHint><evaluationMode>automatic</evaluationMode><comment><text>64.15453584831543</text><id>DFX:rectilinearity</id></comment><comment><text>31.40390677371185</text><id>SNR</id></comment></pick><pick publicID="de.gempa.tb1.Pick/20250413104805.73365.130655"><time><value>2025-04-13T10:48:00.008393Z</value></time><waveformID networkCode="CX" stationCode="PB15" channelCode="HHZ"/><filterID>ITAPER(4)&gt;&gt;BW(4,4,20)</filterID><methodID>AIC</methodID><horizontalSlowness><value>22.425811632015922</value></horizontalSlowness><backazimuth><value>135.06271428730125</value></backazimuth><phaseHint>P</phaseHint><evaluationMode>automatic</evaluationMode><comment><text>258.5280457480569</text><id>DFX:rectilinearity</id></comment><comment><text>11.915365591183901</text><id>SNR</id></comment></pick><pick publicID="de.gempa.tb1.Pick/20250413104810.51497.130657"><time><value>2025-04-13T10:48:04.068393Z</value></time><waveformID networkCode="CX" stationCode="PB02" channelCode="HHN"/><filterID>ITAPER(2)&gt;&gt;BW(3,3,20)</filterID><methodID>L2-AIC-GRID</methodID><horizontalSlowness><value>9.365107137420782</value></horizontalSlowness><backazimuth><value>347.1189044663951</value></backazimuth><phaseHint>S</phaseHint><evaluationMode>automatic</evaluationMode><comment><text>12799.566267195956</text><id>DFX:rectilinearity</id></comment><comment><text>de.gempa.tb1.Pick/20250413104751.48177.130640</text><id>RefPickID</id></comment><comment><text>7.458954704467609</text><id>SNR</id></comment></pick><pick publicID="de.gempa.tb1.Pick/20250413104813.166316.130658"><time><value>2025-04-13T10:47:48.088394Z</value></time><waveformID networkCode="CX" stationCode="PB07" channelCode="HHZ"/><filterID>ITAPER(4)&gt;&gt;BW(4,4,20)</filterID><methodID>AIC</methodID><horizontalSlowness><value>13.354608551570966</value></horizontalSlowness><backazimuth><value>101.35224630827027</value></backazimuth><phaseHint>P</phaseHint><evaluationMode>automatic</evaluationMode><comment><text>1448.970268162851</text><id>DFX:rectilinearity</id></comment><comment><text>233.86031966958964</text><id>SNR</id></comment></pick><pick publicID="de.gempa.tb1.Pick/20250413104813.788321.130660"><time><value>2025-04-13T10:48:06.848393Z</value></time><waveformID networkCode="CX" stationCode="PB03" channelCode="HHN"/><filterID>ITAPER(2)&gt;&gt;BW(3,3,20)</filterID><methodID>L2-AIC-GRID</methodID><horizontalSlowness><value>17.805079713719973</value></horizontalSlowness><backazimuth><value>310.7830802413871</value></backazimuth><phaseHint>S</phaseHint><evaluationMode>automatic</evaluationMode><comment><text>1617.2321556725492</text><id>DFX:rectilinearity</id></comment><comment><text>de.gempa.tb1.Pick/20250413104753.648939.130644</text><id>RefPickID</id></comment><comment><text>7.520476634251624</text><id>SNR</id></comment></pick><pick publicID="de.gempa.tb1.Pick/20250413104814.652733.130661"><time><value>2025-04-13T10:48:07.158393Z</value></time><waveformID networkCode="CX" stationCode="PB08" channelCode="HHN"/><filterID>ITAPER(2)&gt;&gt;BW(3,3,20)</filterID><methodID>L2-AIC-GRID</methodID><horizontalSlowness><value>15.20255600122518</value></horizontalSlowness><backazimuth><value>204.23795239548193</value></backazimuth><phaseHint>S</phaseHint><evaluationMode>automatic</evaluationMode><comment><text>456.1806754171447</text><id>DFX:rectilinearity</id></comment><comment><text>de.gempa.tb1.Pick/20250413104753.550598.130642</text><id>RefPickID</id></comment><comment><text>10.183910677636746</text><id>SNR</id></comment></pick><pick publicID="de.gempa.tb1.Pick/20250413104815.524831.130663"><time><value>2025-04-13T10:48:09.969999Z</value></time><waveformID networkCode="CX" stationCode="PATCX" channelCode="HHN"/><filterID>ITAPER(2)&gt;&gt;BW(3,3,20)</filterID><methodID>L2-AIC-GRID</methodID><horizontalSlowness><value>22.766489224291863</value></horizontalSlowness><backazimuth><value>262.4062867817379</value></backazimuth><phaseHint>S</phaseHint><evaluationMode>automatic</evaluationMode><comment><text>5475.585669550721</text><id>DFX:rectilinearity</id></comment><comment><text>de.gempa.tb1.Pick/20250413104758.349118.130646</text><id>RefPickID</id></comment><comment><text>12.800677471487067</text><id>SNR</id></comment></pick><pick publicID="de.gempa.tb1.Pick/20250413104815.536738.130664"><time><value>2025-04-13T10:48:08.15Z</value></time><waveformID networkCode="CX" stationCode="PB19" channelCode="HHZ"/><filterID>ITAPER(4)&gt;&gt;BW(4,4,20)</filterID><methodID>AIC</methodID><horizontalSlowness><value>15.673305854309461</value></horizontalSlowness><backazimuth><value>335.4203852161531</value></backazimuth><phaseHint>P</phaseHint><evaluationMode>automatic</evaluationMode><comment><text>12.996642042704908</text><id>DFX:rectilinearity</id></comment><comment><text>12.613813312527173</text><id>SNR</id></comment></pick><pick publicID="de.gempa.tb1.Pick/20250413104825.597078.130670"><time><value>2025-04-13T10:48:15.968393Z</value></time><waveformID networkCode="CX" stationCode="PB06" channelCode="HHN"/><filterID>ITAPER(2)&gt;&gt;BW(3,3,20)</filterID><methodID>L2-AIC-GRID</methodID><horizontalSlowness><value>23.3412655592519</value></horizontalSlowness><backazimuth><value>304.5645580353165</value></backazimuth><phaseHint>S</phaseHint><evaluationMode>automatic</evaluationMode><comment><text>2553.4572677045585</text><id>DFX:rectilinearity</id></comment><comment><text>de.gempa.tb1.Pick/20250413104759.601544.130648</text><id>RefPickID</id></comment><comment><text>12.824230733911136</text><id>SNR</id></comment></pick><pick publicID="de.gempa.tb1.Pick/20250413104826.313422.130672"><time><value>2025-04-13T10:48:05.888394Z</value></time><waveformID networkCode="CX" stationCode="PB07" channelCode="HHN"/><filterID>ITAPER(2)&gt;&gt;BW(3,3,20)</filterID><methodID>L2-AIC-GRID</methodID><horizontalSlowness><value>22.36453389954382</value></horizontalSlowness><backazimuth><value>283.8838775559502</value></backazimuth><phaseHint>S</phaseHint><evaluationMode>automatic</evaluationMode><comment><text>49653.09810613741</text><id>DFX:rectilinearity</id></comment><comment><text>de.gempa.tb1.Pick/20250413104813.166316.130658</text><id>RefPickID</id></comment><comment><text>7.942491063115359</text><id>SNR</id></comment></pick><pick publicID="de.gempa.tb1.Pick/20250413104830.776473.130674"><time><value>2025-04-13T10:48:24.16Z</value></time><waveformID networkCode="CX" stationCode="PSGCX" channelCode="HHN"/><filterID>ITAPER(2)&gt;&gt;BW(3,3,20)</filterID><methodID>L2-AIC-GRID</methodID><horizontalSlowness><value>19.770414783656282</value></horizontalSlowness><backazimuth><value>149.4493436682093</value></backazimuth><phaseHint>S</phaseHint><evaluationMode>automatic</evaluationMode><comment><text>251.458583979354</text><id>DFX:rectilinearity</id></comment><comment><text>de.gempa.tb1.Pick/20250413104805.570185.130653</text><id>RefPickID</id></comment><comment><text>6.463504828772384</text><id>SNR</id></comment></pick><pick publicID="de.gempa.tb1.Pick/20250413104834.90472.130677"><time><value>2025-04-13T10:48:26.188393Z</value></time><waveformID networkCode="CX" stationCode="PB15" channelCode="HHN"/><filterID>ITAPER(2)&gt;&gt;BW(3,3,20)</filterID><methodID>L2-AIC-GRID</methodID><horizontalSlowness><value>22.171534881422666</value></horizontalSlowness><backazimuth><value>5.480203906166906</value></backazimuth><phaseHint>S</phaseHint><evaluationMode>automatic</evaluationMode><comment><text>24227.125575247046</text><id>DFX:rectilinearity</id></comment><comment><text>de.gempa.tb1.Pick/20250413104805.73365.130655</text><id>RefPickID</id></comment><comment><text>12.553987064122557</text><id>SNR</id></comment></pick><origin publicID="de.gempa.tb1.Origin/20250413104834.90801.107644"><time><value>2025-04-13T10:47:25.435989Z</value><uncertainty>0.6246100664138794</uncertainty></time><latitude><value>-21.224924087524414</value><uncertainty>2.2434310913085938</uncertainty></latitude><longitude><value>-68.88684844970703</value><uncertainty>6.622933387756348</uncertainty></longitude><depth><value>120.25814819335938</value><uncertainty>7.231261730194092</uncertainty></depth><depthType>from location</depthType><methodID>LOCSAT</methodID><earthModelID>iasp91_scanloc</earthModelID><quality><associatedPhaseCount>20</associatedPhaseCount><usedPhaseCount>20</usedPhaseCount><associatedStationCount>11</associatedStationCount><usedStationCount>11</usedStationCount><depthPhaseCount>0</depthPhaseCount><standardError>0.4395469912186568</standardError><azimuthalGap>200.96852111816406</azimuthalGap><maximumDistance>2.6931440830230713</maximumDistance><minimumDistance>0.589069664478302</minimumDistance><medianDistance>1.1494089365005493</medianDistance></quality><uncertainty><minHorizontalUncertainty>4.800763607025146</minHorizontalUncertainty><maxHorizontalUncertainty>14.198880195617676</maxHorizontalUncertainty><azimuthMaxHorizontalUncertainty>88.81092071533203</azimuthMaxHorizontalUncertainty><preferredDescription>horizontal uncertainty</preferredDescription></uncertainty><evaluationMode>automatic</evaluationMode><evaluationStatus>confirmed</evaluationStatus><comment><text>0.00</text><id>mismatchScore</id></comment><comment><text>mismatchScore</text><id>scevalMethod</id></comment><arrival><pickID>de.gempa.tb1.Pick/20250413104747.690129.130638</pickID><phase>P</phase><azimuth>287.7652893066406</azimuth><distance>0.589069664478302</distance><timeResidual>-0.4674816131591797</timeResidual><timeUsed>true</timeUsed><horizontalSlownessUsed>false</horizontalSlownessUsed><backazimuthUsed>false</backazimuthUsed><weight>1</weight></arrival><arrival><pickID>de.gempa.tb1.Pick/20250413104751.48177.130640</pickID><phase>P</phase><azimuth>264.0946960449219</azimuth><distance>0.9459604024887085</distance><timeResidual>0.029354095458984375</timeResidual><timeUsed>true</timeUsed><horizontalSlownessUsed>false</horizontalSlownessUsed><backazimuthUsed>false</backazimuthUsed><weight>1</weight></arrival><arrival><pickID>de.gempa.tb1.Pick/20250413104753.550598.130642</pickID><phase>P</phase><azimuth>346.9216613769531</azimuth><distance>1.1068466901779175</distance><timeResidual>0.33765411376953125</timeResidual><timeUsed>true</timeUsed><horizontalSlownessUsed>false</horizontalSlownessUsed><backazimuthUsed>false</backazimuthUsed><weight>1</weight></arrival><arrival><pickID>de.gempa.tb1.Pick/20250413104753.648939.130644</pickID><phase>P</phase><azimuth>224.36354064941406</azimuth><distance>1.1494089365005493</distance><timeResidual>-0.16350936889648438</timeResidual><timeUsed>true</timeUsed><horizontalSlownessUsed>false</horizontalSlownessUsed><backazimuthUsed>false</backazimuthUsed><weight>1</weight></arrival><arrival><pickID>de.gempa.tb1.Pick/20250413104758.349118.130646</pickID><phase>P</phase><azimuth>288.553955078125</azimuth><distance>1.2492824792861938</distance><timeResidual>0.3973712921142578</timeResidual><timeUsed>true</timeUsed><horizontalSlownessUsed>false</horizontalSlownessUsed><backazimuthUsed>false</backazimuthUsed><weight>1</weight></arrival><arrival><pickID>de.gempa.tb1.Pick/20250413104759.601544.130648</pickID><phase>P</phase><azimuth>203.21324157714844</azimuth><distance>1.6050423383712769</distance><timeResidual>-0.15067481994628906</timeResidual><timeUsed>true</timeUsed><horizontalSlownessUsed>false</horizontalSlownessUsed><backazimuthUsed>false</backazimuthUsed><weight>1</weight></arrival><arrival><pickID>de.gempa.tb1.Pick/20250413104759.926973.130650</pickID><phase>P</phase><azimuth>210.11105346679688</azimuth><distance>0.6577860116958618</distance><timeResidual>-0.2635784149169922</timeResidual><timeUsed>true</timeUsed><horizontalSlownessUsed>false</horizontalSlownessUsed><backazimuthUsed>false</backazimuthUsed><weight>1</weight></arrival><arrival><pickID>de.gempa.tb1.Pick/20250413104803.768994.130652</pickID><phase>S</phase><azimuth>287.7652893066406</azimuth><distance>0.589069664478302</distance><timeResidual>-0.4890346527099609</timeResidual><timeUsed>true</timeUsed><horizontalSlownessUsed>false</horizontalSlownessUsed><backazimuthUsed>false</backazimuthUsed><weight>1</weight></arrival><arrival><pickID>de.gempa.tb1.Pick/20250413104805.570185.130653</pickID><phase>P</phase><azimuth>324.18170166015625</azimuth><distance>1.9917584657669067</distance><timeResidual>-0.7318611145019531</timeResidual><timeUsed>true</timeUsed><horizontalSlownessUsed>false</horizontalSlownessUsed><backazimuthUsed>false</backazimuthUsed><weight>1</weight></arrival><arrival><pickID>de.gempa.tb1.Pick/20250413104805.73365.130655</pickID><phase>P</phase><azimuth>195.22413635253906</azimuth><distance>2.0467453002929688</distance><timeResidual>0.5003719329833984</timeResidual><timeUsed>true</timeUsed><horizontalSlownessUsed>false</horizontalSlownessUsed><backazimuthUsed>false</backazimuthUsed><weight>1</weight></arrival><arrival><pickID>de.gempa.tb1.Pick/20250413104810.51497.130657</pickID><phase>S</phase><azimuth>264.0946960449219</azimuth><distance>0.9459604024887085</distance><timeResidual>0.3839149475097656</timeResidual><timeUsed>true</timeUsed><horizontalSlownessUsed>false</horizontalSlownessUsed><backazimuthUsed>false</backazimuthUsed><weight>1</weight></arrival><arrival><pickID>de.gempa.tb1.Pick/20250413104813.166316.130658</pickID><phase>P</phase><azimuth>241.6092834472656</azimuth><distance>1.0562295913696289</distance><timeResidual>0.001430511474609375</timeResidual><timeUsed>true</timeUsed><horizontalSlownessUsed>false</horizontalSlownessUsed><backazimuthUsed>false</backazimuthUsed><weight>1</weight></arrival><arrival><pickID>de.gempa.tb1.Pick/20250413104813.788321.130660</pickID><phase>S</phase><azimuth>224.36354064941406</azimuth><distance>1.1494089365005493</distance><timeResidual>-0.4643840789794922</timeResidual><timeUsed>true</timeUsed><horizontalSlownessUsed>false</horizontalSlownessUsed><backazimuthUsed>false</backazimuthUsed><weight>1</weight></arrival><arrival><pickID>de.gempa.tb1.Pick/20250413104814.652733.130661</pickID><phase>S</phase><azimuth>346.9216613769531</azimuth><distance>1.1068466901779175</distance><timeResidual>0.6177749633789062</timeResidual><timeUsed>true</timeUsed><horizontalSlownessUsed>false</horizontalSlownessUsed><backazimuthUsed>false</backazimuthUsed><weight>1</weight></arrival><arrival><pickID>de.gempa.tb1.Pick/20250413104815.524831.130663</pickID><phase>S</phase><azimuth>288.553955078125</azimuth><distance>1.2492824792861938</distance><timeResidual>0.746774673461914</timeResidual><timeUsed>true</timeUsed><horizontalSlownessUsed>false</horizontalSlownessUsed><backazimuthUsed>false</backaz