<?xml version="1.0" encoding="UTF-8"?>
<seiscomp xmlns="http://geofon.gfz-potsdam.de/ns/seiscomp3-schema/0.13" version="0.13"><EventParameters><pick publicID="de.gempa.tb1.Pick/20250411180531.772452.119250"><time><value>2025-04-11T18:05:26.248393Z</value></time><waveformID networkCode="CX" stationCode="PB06" channelCode="HHZ"/><filterID>ITAPER(4)&gt;&gt;BW(4,4,20)</filterID><methodID>AIC</methodID><horizontalSlowness><value>11.072131215211664</value></horizontalSlowness><backazimuth><value>78.28221404940322</value></backazimuth><phaseHint>P</phaseHint><evaluationMode>automatic</evaluationMode><comment><text>29.737278585632865</text><id>DFX:rectilinearity</id></comment><comment><text>12.839815356513698</text><id>SNR</id></comment></pick><pick publicID="de.gempa.tb1.Pick/20250411180533.417407.119252"><time><value>2025-04-11T18:05:25.78Z</value></time><waveformID networkCode="CX" stationCode="PB09" channelCode="HHZ"/><filterID>ITAPER(4)&gt;&gt;BW(4,4,20)</filterID><methodID>AIC</methodID><horizontalSlowness><value>20.091254661201248</value></horizontalSlowness><backazimuth><value>141.60122196916586</value></backazimuth><phaseHint>P</phaseHint><evaluationMode>automatic</evaluationMode><comment><text>46.67123676978969</text><id>DFX:rectilinearity</id></comment><comment><text>73.44331752658505</text><id>SNR</id></comment></pick><pick publicID="de.gempa.tb1.Pick/20250411180533.571575.119254"><time><value>2025-04-11T18:05:28.678393Z</value></time><waveformID networkCode="CX" stationCode="PB03" channelCode="HHZ"/><filterID>ITAPER(4)&gt;&gt;BW(4,4,20)</filterID><methodID>AIC</methodID><horizontalSlowness><value>14.679644880372384</value></horizontalSlowness><backazimuth><value>107.78176813406931</value></backazimuth><phaseHint>P</phaseHint><evaluationMode>automatic</evaluationMode><comment><text>19.21129609864391</text><id>DFX:rectilinearity</id></comment><comment><text>20.095800638874163</text><id>SNR</id></comment></pick><pick publicID="de.gempa.tb1.Pick/20250411180537.741132.119256"><time><value>2025-04-11T18:05:33.188396Z</value></time><waveformID networkCode="CX" stationCode="PB07" channelCode="HHZ"/><filterID>ITAPER(4)&gt;&gt;BW(4,4,20)</filterID><methodID>AIC</methodID><horizontalSlowness><value>22.664422467716264</value></horizontalSlowness><backazimuth><value>253.7474650390253</value></backazimuth><phaseHint>P</phaseHint><evaluationMode>automatic</evaluationMode><comment><text>182.9854405205169</text><id>DFX:rectilinearity</id></comment><comment><text>26.17465195686634</text><id>SNR</id></comment></pick><pick publicID="de.gempa.tb1.Pick/20250411180539.683284.119260"><time><value>2025-04-11T18:05:32.428394Z</value></time><waveformID networkCode="CX" stationCode="PB15" channelCode="HHZ"/><filterID>ITAPER(4)&gt;&gt;BW(4,4,20)</filterID><methodID>AIC</methodID><horizontalSlowness><value>22.262920104257866</value></horizontalSlowness><backazimuth><value>53.69778480104429</value></backazimuth><phaseHint>P</phaseHint><evaluationMode>automatic</evaluationMode><comment><text>193.544520754708</text><id>DFX:rectilinearity</id></comment><comment><text>7.019781632084298</text><id>SNR</id></comment></pick><pick publicID="de.gempa.tb1.Pick/20250411180543.471472.119268"><time><value>2025-04-11T18:05:37.638394Z</value></time><waveformID networkCode="CX" stationCode="PB02" channelCode="HHZ"/><filterID>ITAPER(4)&gt;&gt;BW(4,4,20)</filterID><methodID>AIC</methodID><horizontalSlowness><value>11.730407364670446</value></horizontalSlowness><backazimuth><value>53.36727296918279</value></backazimuth><phaseHint>P</phaseHint><evaluationMode>automatic</evaluationMode><comment><text>114.60756129663166</text><id>DFX:rectilinearity</id></comment><comment><text>62.99350866782431</text><id>SNR</id></comment></pick><pick publicID="de.gempa.tb1.Pick/20250411180549.522407.119271"><time><value>2025-04-11T18:05:44.07Z</value></time><waveformID networkCode="CX" stationCode="PB19" channelCode="HHZ"/><filterID>ITAPER(4)&gt;&gt;BW(4,4,20)</filterID><methodID>AIC</methodID><horizontalSlowness><value>19.880193635959888</value></horizontalSlowness><backazimuth><value>359.670690594006</value></backazimuth><phaseHint>P</phaseHint><evaluationMode>automatic</evaluationMode><comment><text>16.77138581254487</text><id>DFX:rectilinearity</id></comment><comment><text>12.17137348847893</text><id>SNR</id></comment></pick><origin publicID="de.gempa.tb1.Origin/20250411180552.531491.62780"><time><value>2025-04-11T18:05:14.500678Z</value><uncertainty>0.8741300106048584</uncertainty></time><latitude><value>-22.3279972076416</value><uncertainty>3.1400251388549805</uncertainty></latitude><longitude><value>-69.05664825439453</value><uncertainty>8.284098625183105</uncertainty></longitude><depth><value>0</value></depth><depthType>operator assigned</depthType><methodID>LOCSAT</methodID><earthModelID>iasp91_scanloc</earthModelID><quality><associatedPhaseCount>7</associatedPhaseCount><usedPhaseCount>7</usedPhaseCount><associatedStationCount>7</associatedStationCount><usedStationCount>7</usedStationCount><depthPhaseCount>0</depthPhaseCount><standardError>0.6128351261248032</standardError><azimuthalGap>205.80201721191406</azimuthalGap><maximumDistance>1.5841710567474365</maximumDistance><minimumDistance>0.5562712550163269</minimumDistance><medianDistance>0.9559931755065918</medianDistance></quality><uncertainty><minHorizontalUncertainty>6.37602472305298</minHorizontalUncertainty><maxHorizontalUncertainty>17.898082733154297</maxHorizontalUncertainty><azimuthMaxHorizontalUncertainty>82.55480194091797</azimuthMaxHorizontalUncertainty><preferredDescription>horizontal uncertainty</preferredDescription></uncertainty><evaluationMode>automatic</evaluationMode><evaluationStatus>confirmed</evaluationStatus><comment><text>0.02</text><id>mismatchScore</id></comment><comment><text>mismatchScore</text><id>scevalMethod</id></comment><arrival><pickID>de.gempa.tb1.Pick/20250411180531.772452.119250</pickID><phase>P</phase><azimuth>231.6201477050781</azimuth><distance>0.606921911239624</distance><timeResidual>0.10698699951171875</timeResidual><timeUsed>true</timeUsed><horizontalSlownessUsed>false</horizontalSlownessUsed><backazimuthUsed>false</backazimuthUsed><weight>1</weight></arrival><arrival><pickID>de.gempa.tb1.Pick/20250411180533.417407.119252</pickID><phase>P</phase><azimuth>341.9685363769531</azimuth><distance>0.5562712550163269</distance><timeResidual>0.6089801788330078</timeResidual><timeUsed>true</timeUsed><horizontalSlownessUsed>false</horizontalSlownessUsed><backazimuthUsed>false</backazimuthUsed><weight>1</weight></arrival><arrival><pickID>de.gempa.tb1.Pick/20250411180533.571575.119254</pickID><phase>P</phase><azimuth>293.1834716796875</azimuth><distance>0.702882170677185</distance><timeResidual>0.6956501007080078</timeResidual><timeUsed>true</timeUsed><horizontalSlownessUsed>false</horizontalSlownessUsed><backazimuthUsed>false</backazimuthUsed><weight>1</weight></arrival><arrival><pickID>de.gempa.tb1.Pick/20250411180537.741132.119256</pickID><phase>P</phase><azimuth>307.70904541015625</azimuth><distance>0.9749574065208435</distance><timeResidual>-0.013294219970703125</timeResidual><timeUsed>true</timeUsed><horizontalSlownessUsed>false</horizontalSlownessUsed><backazimuthUsed>false</backazimuthUsed><weight>1</weight></arrival><arrival><pickID>de.gempa.tb1.Pick/20250411180539.683284.119260</pickID><phase>P</phase><azimuth>203.49693298339844</azimuth><distance>0.9559931755065918</distance><timeResidual>-0.4077644348144531</timeResidual><timeUsed>true</timeUsed><horizontalSlownessUsed>false</horizontalSlownessUsed><backazimuthUsed>false</backazimuthUsed><weight>1</weight></arrival><arrival><pickID>de.gempa.tb1.Pick/20250411180543.471472.119268</pickID><phase>P</phase><azimuth>321.98529052734375</azimuth><distance>1.270837664604187</distance><timeResidual>-1.2388315200805664</timeResidual><timeUsed>true</timeUsed><horizontalSlownessUsed>false</horizontalSlownessUsed><backazimuthUsed>false</backazimuthUsed><weight>1</weight></arrival><arrival><pickID>de.gempa.tb1.Pick/20250411180549.522407.119271</pickID><phase>P</phase><azimuth>187.7705535888672</azimuth><distance>1.5841710567474365</distance><timeResidual>0.24816131591796875</timeResidual><timeUsed>true</timeUsed><horizontalSlownessUsed>false</horizontalSlownessUsed><backazimuthUsed>false</backazimuthUsed><weight>1</weight></arrival><magnitude publicID="de.gempa.tb1.Magnitude/20250411180802.592714.128163"><magnitude><value>2.4221717380287955</value></magnitude><type>M</type><methodID>weighted average</methodID><stationCount>7</stationCount></magnitude></origin><event publicID="gempa2025hecj"><preferredOriginID>de.gempa.tb1.Origin/20250411180552.531491.62780</preferredOriginID><preferredMagnitudeID>de.gempa.tb1.Magnitude/20250411180802.592714.128163</preferredMagnitudeID><description><text>Northern Chile</text><type>region name</type></description><originReference>de.gempa.tb1.Origin/20250411180552.531491.62780</originReference></event></EventParameters></seiscomp>