<?xml version="1.0" encoding="UTF-8"?>
<seiscomp xmlns="http://geofon.gfz-potsdam.de/ns/seiscomp3-schema/0.13" version="0.13"><EventParameters><pick publicID="de.gempa.tb1.Pick/20250414221608.43061.141621"><time><value>2025-04-14T22:16:03.918393Z</value></time><waveformID networkCode="CX" stationCode="PB03" channelCode="HHZ"/><filterID>ITAPER(4)&gt;&gt;BW(4,4,20)</filterID><methodID>AIC</methodID><horizontalSlowness><value>7.07236562012984</value></horizontalSlowness><backazimuth><value>332.87312305796456</value></backazimuth><phaseHint>P</phaseHint><evaluationMode>automatic</evaluationMode><comment><text>8.153329062439346</text><id>DFX:rectilinearity</id></comment><comment><text>9.73244638452019</text><id>SNR</id></comment></pick><pick publicID="de.gempa.tb1.Pick/20250414221610.794779.141623"><time><value>2025-04-14T22:16:05.048393Z</value></time><waveformID networkCode="CX" stationCode="PB07" channelCode="HHZ"/><filterID>ITAPER(4)&gt;&gt;BW(4,4,20)</filterID><methodID>AIC</methodID><horizontalSlowness><value>18.68461086478909</value></horizontalSlowness><backazimuth><value>289.61975780301213</value></backazimuth><phaseHint>P</phaseHint><evaluationMode>automatic</evaluationMode><comment><text>182.9943690459046</text><id>DFX:rectilinearity</id></comment><comment><text>81.13750877531822</text><id>SNR</id></comment></pick><pick publicID="de.gempa.tb1.Pick/20250414221611.643032.141625"><time><value>2025-04-14T22:16:04.098393Z</value></time><waveformID networkCode="CX" stationCode="PB01" channelCode="HHZ"/><filterID>ITAPER(4)&gt;&gt;BW(4,4,20)</filterID><methodID>AIC</methodID><horizontalSlowness><value>15.563097513530812</value></horizontalSlowness><backazimuth><value>225.44817280161107</value></backazimuth><phaseHint>P</phaseHint><evaluationMode>automatic</evaluationMode><comment><text>17.495114893915197</text><id>DFX:rectilinearity</id></comment><comment><text>56.7852362802984</text><id>SNR</id></comment></pick><pick publicID="de.gempa.tb1.Pick/20250414221611.668454.141627"><time><value>2025-04-14T22:16:06.418393Z</value></time><waveformID networkCode="CX" stationCode="PB06" channelCode="HHZ"/><filterID>ITAPER(4)&gt;&gt;BW(4,4,20)</filterID><methodID>AIC</methodID><horizontalSlowness><value>15.248338293776502</value></horizontalSlowness><backazimuth><value>318.71818692725117</value></backazimuth><phaseHint>P</phaseHint><evaluationMode>automatic</evaluationMode><comment><text>51.9477057244755</text><id>DFX:rectilinearity</id></comment><comment><text>7.451072927028926</text><id>SNR</id></comment></pick><pick publicID="de.gempa.tb1.Pick/20250414221611.99798.141629"><time><value>2025-04-14T22:15:59.99Z</value></time><waveformID networkCode="CX" stationCode="PB09" channelCode="HHZ"/><filterID>ITAPER(4)&gt;&gt;BW(4,4,20)</filterID><methodID>AIC</methodID><horizontalSlowness><value>18.534245377536312</value></horizontalSlowness><backazimuth><value>301.3700266132645</value></backazimuth><phaseHint>P</phaseHint><evaluationMode>automatic</evaluationMode><comment><text>14.2918558099974</text><id>DFX:rectilinearity</id></comment><comment><text>41.439635029029915</text><id>SNR</id></comment></pick><pick publicID="de.gempa.tb1.Pick/20250414221614.670526.141632"><time><value>2025-04-14T22:16:06.268393Z</value></time><waveformID networkCode="CX" stationCode="PB02" channelCode="HHZ"/><filterID>ITAPER(4)&gt;&gt;BW(4,4,20)</filterID><methodID>AIC</methodID><horizontalSlowness><value>21.55074566260604</value></horizontalSlowness><backazimuth><value>230.9312139886938</value></backazimuth><phaseHint>P</phaseHint><evaluationMode>automatic</evaluationMode><comment><text>20.77689944598687</text><id>DFX:rectilinearity</id></comment><comment><text>18.19634624310358</text><id>SNR</id></comment></pick><pick publicID="de.gempa.tb1.Pick/20250414221618.873633.141634"><time><value>2025-04-14T22:16:12.388393Z</value></time><waveformID networkCode="CX" stationCode="PB08" channelCode="HHZ"/><filterID>ITAPER(4)&gt;&gt;BW(4,4,20)</filterID><methodID>AIC</methodID><horizontalSlowness><value>14.47172671489441</value></horizontalSlowness><backazimuth><value>207.94585433206663</value></backazimuth><phaseHint>P</phaseHint><evaluationMode>automatic</evaluationMode><comment><text>22.287347529510853</text><id>DFX:rectilinearity</id></comment><comment><text>8.168933222538605</text><id>SNR</id></comment></pick><pick publicID="de.gempa.tb1.Pick/20250414221621.25687.141636"><time><value>2025-04-14T22:16:11.359999Z</value></time><waveformID networkCode="CX" stationCode="PATCX" channelCode="HHZ"/><filterID>ITAPER(4)&gt;&gt;BW(4,4,20)</filterID><methodID>AIC</methodID><horizontalSlowness><value>20.464701070199467</value></horizontalSlowness><backazimuth><value>55.489633079067</value></backazimuth><phaseHint>P</phaseHint><evaluationMode>automatic</evaluationMode><comment><text>128.20954007499952</text><id>DFX:rectilinearity</id></comment><comment><text>10.628697689365627</text><id>SNR</id></comment></pick><pick publicID="de.gempa.tb1.Pick/20250414221625.296023.141638"><time><value>2025-04-14T22:16:14.37Z</value></time><waveformID networkCode="CX" stationCode="PB09" channelCode="HHN"/><filterID>ITAPER(2)&gt;&gt;BW(3,3,20)</filterID><methodID>L2-AIC-GRID</methodID><horizontalSlowness><value>8.79547572416164</value></horizontalSlowness><backazimuth><value>359.2083951879282</value></backazimuth><phaseHint>S</phaseHint><evaluationMode>automatic</evaluationMode><comment><text>108.13830825580818</text><id>DFX:rectilinearity</id></comment><comment><text>de.gempa.tb1.Pick/20250414221611.99798.141629</text><id>RefPickID</id></comment><comment><text>7.80902550774836</text><id>SNR</id></comment></pick><pick publicID="de.gempa.tb1.Pick/20250414221625.525146.141639"><time><value>2025-04-14T22:16:17.88Z</value></time><waveformID networkCode="CX" stationCode="PB19" channelCode="HHZ"/><filterID>ITAPER(4)&gt;&gt;BW(4,4,20)</filterID><methodID>AIC</methodID><horizontalSlowness><value>23.15811754901661</value></horizontalSlowness><backazimuth><value>37.30599948723625</value></backazimuth><phaseHint>P</phaseHint><evaluationMode>automatic</evaluationMode><comment><text>25.206681520081887</text><id>DFX:rectilinearity</id></comment><comment><text>5.887874268420943</text><id>SNR</id></comment></pick><pick publicID="de.gempa.tb1.Pick/20250414221628.668896.141641"><time><value>2025-04-14T22:16:21.218393Z</value></time><waveformID networkCode="CX" stationCode="PB03" channelCode="HHN"/><filterID>ITAPER(2)&gt;&gt;BW(3,3,20)</filterID><methodID>L2-AIC-GRID</methodID><horizontalSlowness><value>19.03224316450244</value></horizontalSlowness><backazimuth><value>231.25767701316366</value></backazimuth><phaseHint>S</phaseHint><evaluationMode>automatic</evaluationMode><comment><text>733.3828831064667</text><id>DFX:rectilinearity</id></comment><comment><text>de.gempa.tb1.Pick/20250414221608.43061.141621</text><id>RefPickID</id></comment><comment><text>13.87606641223254</text><id>SNR</id></comment></pick><pick publicID="de.gempa.tb1.Pick/20250414221629.778161.141642"><time><value>2025-04-14T22:16:23.248393Z</value></time><waveformID networkCode="CX" stationCode="PB07" channelCode="HHN"/><filterID>ITAPER(2)&gt;&gt;BW(3,3,20)</filterID><methodID>L2-AIC-GRID</methodID><horizontalSlowness><value>22.26245849815838</value></horizontalSlowness><backazimuth><value>229.49752305579273</value></backazimuth><phaseHint>S</phaseHint><evaluationMode>automatic</evaluationMode><comment><text>5048.097761235083</text><id>DFX:rectilinearity</id></comment><comment><text>de.gempa.tb1.Pick/20250414221610.794779.141623</text><id>RefPickID</id></comment><comment><text>13.21972067119217</text><id>SNR</id></comment></pick><pick publicID="de.gempa.tb1.Pick/20250414221630.586297.141643"><time><value>2025-04-14T22:16:21.95Z</value></time><waveformID networkCode="CX" stationCode="PSGCX" channelCode="HHZ"/><filterID>ITAPER(4)&gt;&gt;BW(4,4,20)</filterID><methodID>AIC</methodID><horizontalSlowness><value>23.422660081723937</value></horizontalSlowness><backazimuth><value>96.65804959308549</value></backazimuth><phaseHint>P</phaseHint><evaluationMode>automatic</evaluationMode><comment><text>13.347530889336687</text><id>DFX:rectilinearity</id></comment><comment><text>15.031703261126543</text><id>SNR</id></comment></pick><pick publicID="de.gempa.tb1.Pick/20250414221630.635088.141645"><time><value>2025-04-14T22:16:22.228393Z</value></time><waveformID networkCode="CX" stationCode="PB01" channelCode="HHN"/><filterID>ITAPER(2)&gt;&gt;BW(3,3,20)</filterID><methodID>L2-AIC-GRID</methodID><horizontalSlowness><value>22.77144524949343</value></horizontalSlowness><backazimuth><value>344.15322670622305</value></backazimuth><phaseHint>S</phaseHint><evaluationMode>automatic</evaluationMode><comment><text>101.30288298556212</text><id>DFX:rectilinearity</id></comment><comment><text>de.gempa.tb1.Pick/20250414221611.643032.141625</text><id>RefPickID</id></comment><comment><text>7.223058451069895</text><id>SNR</id></comment></pick><pick publicID="de.gempa.tb1.Pick/20250414221632.591739.141648"><time><value>2025-04-14T22:16:24.988393Z</value></time><waveformID networkCode="CX" stationCode="PB02" channelCode="HHN"/><filterID>ITAPER(2)&gt;&gt;BW(3,3,20)</filterID><methodID>L2-AIC-GRID</methodID><horizontalSlowness><value>21.29936633156591</value></horizontalSlowness><backazimuth><value>50.65065120972722</value></backazimuth><phaseHint>S</phaseHint><evaluationMode>automatic</evaluationMode><comment><text>389.73423673897707</text><id>DFX:rectilinearity</id></comment><comment><text>de.gempa.tb1.Pick/20250414221614.670526.141632</text><id>RefPickID</id></comment><comment><text>8.154799663115503</text><id>SNR</id></comment></pick><pick publicID="de.gempa.tb1.Pick/20250414221632.630251.141649"><time><value>2025-04-14T22:16:25.048393Z</value></time><waveformID networkCode="CX" stationCode="PB06" channelCode="HHN"/><filterID>ITAPER(2)&gt;&gt;BW(3,3,20)</filterID><methodID>L2-AIC-GRID</methodID><horizontalSlowness><value>23.27713319664029</value></horizontalSlowness><backazimuth><value>126.41411302859876</value></backazimuth><phaseHint>S</phaseHint><evaluationMode>automatic</evaluationMode><comment><text>185.07480705980797</text><id>DFX:rectilinearity</id></comment><comment><text>de.gempa.tb1.Pick/20250414221611.668454.141627</text><id>RefPickID</id></comment><comment><text>9.715121355723184</text><id>SNR</id></comment></pick><pick publicID="de.gempa.tb1.Pick/20250414221645.362366.141656"><time><value>2025-04-14T22:16:34.419999Z</value></time><waveformID networkCode="CX" stationCode="PATCX" channelCode="HHN"/><filterID>ITAPER(2)&gt;&gt;BW(3,3,20)</filterID><methodID>L2-AIC-GRID</methodID><horizontalSlowness><value>20.487612058426112</value></horizontalSlowness><backazimuth><value>124.8669520555335</value></backazimuth><phaseHint>S</phaseHint><evaluationMode>automatic</evaluationMode><comment><text>174.85864442787255</text><id>DFX:rectilinearity</id></comment><comment><text>de.gempa.tb1.Pick/20250414221621.25687.141636</text><id>RefPickID</id></comment><comment><text>5.256381591432354</text><id>SNR</id></comment></pick><pick publicID="de.gempa.tb1.Pick/20250414221652.625674.141659"><time><value>2025-04-14T22:16:44.94Z</value></time><waveformID networkCode="CX" stationCode="PB19" channelCode="HHN"/><filterID>ITAPER(2)&gt;&gt;BW(3,3,20)</filterID><methodID>L2-AIC-GRID</methodID><horizontalSlowness><value>21.386981368934926</value></horizontalSlowness><backazimuth><value>66.57157563737589</value></backazimuth><phaseHint>S</phaseHint><evaluationMode>automatic</evaluationMode><comment><text>37.01616723525167</text><id>DFX:rectilinearity</id></comment><comment><text>de.gempa.tb1.Pick/20250414221625.525146.141639</text><id>RefPickID</id></comment><comment><text>7.447462265361287</text><id>SNR</id></comment></pick><pick publicID="de.gempa.tb1.Pick/20250414221715.596531.141668"><time><value>2025-04-14T22:16:53.41Z</value></time><waveformID networkCode="CX" stationCode="PSGCX" channelCode="HHN"/><filterID>ITAPER(2)&gt;&gt;BW(3,3,20)</filterID><methodID>L2-AIC-GRID</methodID><horizontalSlowness><value>12.49535094897526</value></horizontalSlowness><backazimuth><value>106.9379626846578</value></backazimuth><phaseHint>S</phaseHint><evaluationMode>automatic</evaluationMode><comment><text>17.884639903058964</text><id>DFX:rectilinearity</id></comment><comment><text>de.gempa.tb1.Pick/20250414221630.586297.141643</text><id>RefPickID</id></comment><comment><text>6.361959984297859</text><id>SNR</id></comment></pick><origin publicID="de.gempa.tb1.Origin/20250414221715.608416.152637"><time><value>2025-04-14T22:15:41.725056Z</value><uncertainty>0.6287112236022949</uncertainty></time><latitude><value>-21.795137405395508</value><uncertainty>2.682111978530884</uncertainty></latitude><longitude><value>-68.73394012451172</value><uncertainty>7.821460723876953</uncertainty></longitude><depth><value>125.4956283569336</value><uncertainty>7.286227226257324</uncertainty></depth><depthType>from location</depthType><methodID>LOCSAT</methodID><earthModelID>iasp91_scanloc</earthModelID><quality><associatedPhaseCount>19</associatedPhaseCount><usedPhaseCount>19</usedPhaseCount><associatedStationCount>10</associatedStationCount><usedStationCount>10</usedStationCount><depthPhaseCount>0</depthPhaseCount><standardError>0.309227706476548</standardError><azimuthalGap>207.10963439941406</azimuthalGap><maximumDistance>2.5443384647369385</maximumDistance><minimumDistance>0.4721023738384247</minimumDistance><medianDistance>1.1806858777999878</medianDistance></quality><uncertainty><minHorizontalUncertainty>5.227333545684814</minHorizontalUncertainty><maxHorizontalUncertainty>16.934160232543945</maxHorizontalUncertainty><azimuthMaxHorizontalUncertainty>81.45841217041016</azimuthMaxHorizontalUncertainty><preferredDescription>horizontal uncertainty</preferredDescription></uncertainty><evaluationMode>automatic</evaluationMode><evaluationStatus>confirmed</evaluationStatus><comment><text>0.03</text><id>mismatchScore</id></comment><comment><text>mismatchScore</text><id>scevalMethod</id></comment><arrival><pickID>de.gempa.tb1.Pick/20250414221608.43061.141621</pickID><phase>P</phase><azimuth>254.89418029785156</azimuth><distance>0.9793488383293152</distance><timeResidual>-0.15590858459472656</timeResidual><timeUsed>true</timeUsed><horizontalSlownessUsed>false</horizontalSlownessUsed><backazimuthUsed>false</backazimuthUsed><weight>1</weight></arrival><arrival><pickID>de.gempa.tb1.Pick/20250414221610.794779.141623</pickID><phase>P</phase><azimuth>273.4272766113281</azimuth><distance>1.0732724666595459</distance><timeResidual>0.06360435485839844</timeResidual><timeUsed>true</timeUsed><horizontalSlownessUsed>false</horizontalSlownessUsed><backazimuthUsed>false</backazimuthUsed><weight>1</weight></arrival><arrival><pickID>de.gempa.tb1.Pick/20250414221611.643032.141625</pickID><phase>P</phase><azimuth>316.6857604980469</azimuth><distance>1.025994062423706</distance><timeResidual>-0.4278392791748047</timeResidual><timeUsed>true</timeUsed><horizontalSlownessUsed>false</horizontalSlownessUsed><backazimuthUsed>false</backazimuthUsed><weight>1</weight></arrival><arrival><pickID>de.gempa.tb1.Pick/20250414221611.668454.141627</pickID><phase>P</phase><azimuth>220.42453002929688</azimuth><distance>1.1933045387268066</distance><timeResidual>0.2203502655029297</timeResidual><timeUsed>true</timeUsed><horizontalSlownessUsed>false</horizontalSlownessUsed><backazimuthUsed>false</backazimuthUsed><weight>1</weight></arrival><arrival><pickID>de.gempa.tb1.Pick/20250414221611.99798.141629</pickID><phase>P</phase><azimuth>269.75628662109375</azimuth><distance>0.4721023738384247</distance><timeResidual>-0.15569305419921875</timeResidual><timeUsed>true</timeUsed><horizontalSlownessUsed>false</horizontalSlownessUsed><backazimuthUsed>false</backazimuthUsed><weight>1</weight></arrival><arrival><pickID>de.gempa.tb1.Pick/20250414221614.670526.141632</pickID><phase>P</phase><azimuth>293.407470703125</azimuth><distance>1.1806858777999878</distance><timeResidual>0.1929607391357422</timeResidual><timeUsed>true</timeUsed><horizontalSlownessUsed>false</horizontalSlownessUsed><backazimuthUsed>false</backazimuthUsed><weight>1</weight></arrival><arrival><pickID>de.gempa.tb1.Pick/20250414221618.873633.141634</pickID><phase>P</phase><azimuth>346.52685546875</azimuth><distance>1.691796898841858</distance><timeResidual>0.6049365997314453</timeResidual><timeUsed>true</timeUsed><horizontalSlownessUsed>false</horizontalSlownessUsed><backazimuthUsed>false</backazimuthUsed><weight>1</weight></arrival><arrival><pickID>de.gempa.tb1.Pick/20250414221621.25687.141636</pickID><phase>P</phase><azimuth>305.9770812988281</azimuth><distance>1.6403319835662842</distance><timeResidual>0.18437957763671875</timeResidual><timeUsed>true</timeUsed><horizontalSlownessUsed>false</horizontalSlownessUsed><backazimuthUsed>false</backazimuthUsed><weight>1</weight></arrival><arrival><pickID>de.gempa.tb1.Pick/20250414221625.296023.141638</pickID><phase>S</phase><azimuth>269.75628662109375</azimuth><distance>0.4721023738384247</distance><timeResidual>0.005071640014648438</timeResidual><timeUsed>true</timeUsed><horizontalSlownessUsed>false</horizontalSlownessUsed><backazimuthUsed>false</backazimuthUsed><weight>1</weight></arrival><arrival><pickID>de.gempa.tb1.Pick/20250414221625.525146.141639</pickID><phase>P</phase><azimuth>193.63648986816406</azimuth><distance>2.1616222858428955</distance><timeResidual>0.40024757385253906</timeResidual><timeUsed>true</timeUsed><horizontalSlownessUsed>false</horizontalSlownessUsed><backazimuthUsed>false</backazimuthUsed><weight>1</weight></arrival><arrival><pickID>de.gempa.tb1.Pick/20250414221628.668896.141641</pickID><phase>S</phase><azimuth>254.89418029785156</azimuth><distance>0.9793488383293152</distance><timeResidual>-0.14873695373535156</timeResidual><timeUsed>true</timeUsed><horizontalSlownessUsed>false</horizontalSlownessUsed><backazimuthUsed>false</backazimuthUsed><weight>1</weight></arrival><arrival><pickID>de.gempa.tb1.Pick/20250414221629.778161.141642</pickID><phase>S</phase><azimuth>273.4272766113281</azimuth><distance>1.0732724666595459</distance><timeResidual>0.2567729949951172</timeResidual><timeUsed>true</timeUsed><horizontalSlownessUsed>false</horizontalSlownessUsed><backazimuthUsed>false</backazimuthUsed><weight>1</weight></arrival><arrival><pickID>de.gempa.tb1.Pick/20250414221630.586297.141643</pickID><phase>P</phase><azimuth>329.01324462890625</azimuth><distance>2.5443384647369385</distance><timeResidual>-0.3875293731689453</timeResidual><timeUsed>true</timeUsed><horizontalSlownessUsed>false</horizontalSlownessUsed><backazimuthUsed>false</backazimuthUsed><weight>1</weight></arrival><arrival><pickID>de.gempa.tb1.Pick/20250414221630.635088.141645</pickID><phase>S</phase><azimuth>316.6857604980469</azimuth><distance>1.025994062423706</distance><timeResidual>0.05631065368652344</timeResidual><timeUsed>true</timeUsed><horizontalSlownessUsed>false</horizontalSlownessUsed><backazimuthUsed>false</backazimuthUsed><weight>1</weight></arrival><arrival><pickID>de.gempa.tb1.Pick/20250414221632.591739.141648</pickID><phase>S</phase><azimuth>293.407470703125</azimuth><distance>1.1806858777999878</distance><timeResidual>0.05034637451171875</timeResidual><timeUsed>true</timeUsed><horizontalSlownessUsed>false</horizontalSlownessUsed><backazimuthUsed>false</backazimuthUsed><weight>1</weight></arrival><arrival><pickID>de.gempa.tb1.Pick/20250414221632.630251.141649</pickID><phase>S</phase><azimuth>220.42453002929688</azimuth><distance>1.1933045387268066</distance><timeResidual>-0.10968017578125</timeResidual><timeUsed>true</timeUsed><horizontalSlownessUsed>false</horizontalSlownessUsed><backazimuthUsed>false</backazimuthUsed><weight>1</weight></arrival><arrival><pickID>de.gempa.tb1.Pick/20250414221645.362366.141656</pickID><phase>S</phase><azimuth>305.9770812988281</azimuth><distance>1.6403319835662842</distance><timeResidual>0.3683795928955078</timeResidual><timeUsed>true</ti