<?xml version="1.0" encoding="UTF-8"?>
<seiscomp xmlns="http://geofon.gfz-potsdam.de/ns/seiscomp3-schema/0.13" version="0.13"><EventParameters><pick publicID="de.gempa.tb1.Pick/20250413153247.507048.132128"><time><value>2025-04-13T15:32:42.308393Z</value></time><waveformID networkCode="CX" stationCode="PB02" channelCode="HHZ"/><filterID>ITAPER(4)&gt;&gt;BW(4,4,20)</filterID><methodID>AIC</methodID><horizontalSlowness><value>6.636391745040888</value></horizontalSlowness><backazimuth><value>236.82517868108377</value></backazimuth><phaseHint>P</phaseHint><evaluationMode>automatic</evaluationMode><comment><text>57970344.99065651</text><id>DFX:rectilinearity</id></comment><comment><text>21019.317012866359</text><id>SNR</id></comment></pick><pick publicID="de.gempa.tb1.Pick/20250413153248.397289.132130"><time><value>2025-04-13T15:32:42.778393Z</value></time><waveformID networkCode="CX" stationCode="PB03" channelCode="HHZ"/><filterID>ITAPER(4)&gt;&gt;BW(4,4,20)</filterID><methodID>AIC</methodID><horizontalSlowness><value>12.262759524692632</value></horizontalSlowness><backazimuth><value>296.52009138638556</value></backazimuth><phaseHint>P</phaseHint><evaluationMode>automatic</evaluationMode><comment><text>15933927.631729987</text><id>DFX:rectilinearity</id></comment><comment><text>14285.859111541318</text><id>SNR</id></comment></pick><pick publicID="de.gempa.tb1.Pick/20250413153250.284298.132132"><time><value>2025-04-13T15:32:40.898394Z</value></time><waveformID networkCode="CX" stationCode="PB07" channelCode="HHZ"/><filterID>ITAPER(4)&gt;&gt;BW(4,4,20)</filterID><methodID>AIC</methodID><horizontalSlowness><value>10.473778919060406</value></horizontalSlowness><backazimuth><value>282.5400526397786</value></backazimuth><phaseHint>P</phaseHint><evaluationMode>automatic</evaluationMode><comment><text>2529582369.6502867</text><id>DFX:rectilinearity</id></comment><comment><text>47081.06300983052</text><id>SNR</id></comment></pick><pick publicID="de.gempa.tb1.Pick/20250413153252.518759.132134"><time><value>2025-04-13T15:32:46.439999Z</value></time><waveformID networkCode="CX" stationCode="PATCX" channelCode="HHZ"/><filterID>ITAPER(4)&gt;&gt;BW(4,4,20)</filterID><methodID>AIC</methodID><horizontalSlowness><value>7.185615038166513</value></horizontalSlowness><backazimuth><value>206.85347910364658</value></backazimuth><phaseHint>P</phaseHint><evaluationMode>automatic</evaluationMode><comment><text>4796842.036963155</text><id>DFX:rectilinearity</id></comment><comment><text>6318.003127006386</text><id>SNR</id></comment></pick><pick publicID="de.gempa.tb1.Pick/20250413153253.69532.132136"><time><value>2025-04-13T15:32:48.27Z</value></time><waveformID networkCode="CX" stationCode="PB09" channelCode="HHZ"/><filterID>ITAPER(4)&gt;&gt;BW(4,4,20)</filterID><methodID>AIC</methodID><horizontalSlowness><value>12.76041779649954</value></horizontalSlowness><backazimuth><value>288.02655606280024</value></backazimuth><phaseHint>P</phaseHint><evaluationMode>automatic</evaluationMode><comment><text>45101272.33384281</text><id>DFX:rectilinearity</id></comment><comment><text>93000.4443599256</text><id>SNR</id></comment></pick><pick publicID="de.gempa.tb1.Pick/20250413153253.896227.132138"><time><value>2025-04-13T15:32:48.188393Z</value></time><waveformID networkCode="CX" stationCode="PB01" channelCode="HHZ"/><filterID>ITAPER(4)&gt;&gt;BW(4,4,20)</filterID><methodID>AIC</methodID><horizontalSlowness><value>14.745022268744092</value></horizontalSlowness><backazimuth><value>229.68581306596514</value></backazimuth><phaseHint>P</phaseHint><evaluationMode>automatic</evaluationMode><comment><text>75799879.83814359</text><id>DFX:rectilinearity</id></comment><comment><text>20067.241643105815</text><id>SNR</id></comment></pick><pick publicID="de.gempa.tb1.Pick/20250413153255.603526.132140"><time><value>2025-04-13T15:32:49.848393Z</value></time><waveformID networkCode="CX" stationCode="PB06" channelCode="HHZ"/><filterID>ITAPER(4)&gt;&gt;BW(4,4,20)</filterID><methodID>AIC</methodID><horizontalSlowness><value>4.790305259508692</value></horizontalSlowness><backazimuth><value>326.7138379635276</value></backazimuth><phaseHint>P</phaseHint><evaluationMode>automatic</evaluationMode><comment><text>1017927.5257390405</text><id>DFX:rectilinearity</id></comment><comment><text>2950.612643715633</text><id>SNR</id></comment></pick><pick publicID="de.gempa.tb1.Pick/20250413153258.091528.132142"><time><value>2025-04-13T15:32:51.578393Z</value></time><waveformID networkCode="CX" stationCode="PB02" channelCode="HHN"/><filterID>ITAPER(2)&gt;&gt;BW(3,3,20)</filterID><methodID>L2-AIC-GRID</methodID><horizontalSlowness><value>13.116570517665416</value></horizontalSlowness><backazimuth><value>45.04335419455523</value></backazimuth><phaseHint>S</phaseHint><evaluationMode>automatic</evaluationMode><comment><text>5849722083.966037</text><id>DFX:rectilinearity</id></comment><comment><text>de.gempa.tb1.Pick/20250413153247.507048.132128</text><id>RefPickID</id></comment><comment><text>10.356142051002086</text><id>SNR</id></comment></pick><pick publicID="de.gempa.tb1.Pick/20250413153259.565743.132143"><time><value>2025-04-13T15:32:52.438393Z</value></time><waveformID networkCode="CX" stationCode="PB03" channelCode="HHN"/><filterID>ITAPER(2)&gt;&gt;BW(3,3,20)</filterID><methodID>L2-AIC-GRID</methodID><horizontalSlowness><value>20.79471691915025</value></horizontalSlowness><backazimuth><value>67.17315048672398</value></backazimuth><phaseHint>S</phaseHint><evaluationMode>automatic</evaluationMode><comment><text>277761258.6701983</text><id>DFX:rectilinearity</id></comment><comment><text>de.gempa.tb1.Pick/20250413153248.397289.132130</text><id>RefPickID</id></comment><comment><text>9.354140449015174</text><id>SNR</id></comment></pick><pick publicID="de.gempa.tb1.Pick/20250413153301.740325.132144"><time><value>2025-04-13T15:32:56.538393Z</value></time><waveformID networkCode="CX" stationCode="PB15" channelCode="HHZ"/><filterID>ITAPER(4)&gt;&gt;BW(4,4,20)</filterID><methodID>AIC</methodID><horizontalSlowness><value>17.598461908641504</value></horizontalSlowness><backazimuth><value>92.04794551138133</value></backazimuth><phaseHint>P</phaseHint><evaluationMode>automatic</evaluationMode><comment><text>4405844.98480961</text><id>DFX:rectilinearity</id></comment><comment><text>401.4915830163827</text><id>SNR</id></comment></pick><pick publicID="de.gempa.tb1.Pick/20250413153302.178559.132146"><time><value>2025-04-13T15:32:57.44Z</value></time><waveformID networkCode="CX" stationCode="PB10" channelCode="HHZ"/><filterID>ITAPER(4)&gt;&gt;BW(4,4,20)</filterID><methodID>AIC</methodID><horizontalSlowness><value>9.971183941381515</value></horizontalSlowness><backazimuth><value>14.243995223588684</value></backazimuth><phaseHint>P</phaseHint><evaluationMode>automatic</evaluationMode><comment><text>217927.34868126627</text><id>DFX:rectilinearity</id></comment><comment><text>929.2586326970251</text><id>SNR</id></comment></pick><pick publicID="de.gempa.tb1.Pick/20250413153304.394979.132148"><time><value>2025-04-13T15:32:59.229999Z</value></time><waveformID networkCode="CX" stationCode="PATCX" channelCode="HHN"/><filterID>ITAPER(2)&gt;&gt;BW(3,3,20)</filterID><methodID>L2-AIC-GRID</methodID><horizontalSlowness><value>23.367240593107777</value></horizontalSlowness><backazimuth><value>74.87212763215706</value></backazimuth><phaseHint>S</phaseHint><evaluationMode>automatic</evaluationMode><comment><text>3160648570.0473757</text><id>DFX:rectilinearity</id></comment><comment><text>de.gempa.tb1.Pick/20250413153252.518759.132134</text><id>RefPickID</id></comment><comment><text>19.433160259474896</text><id>SNR</id></comment></pick><pick publicID="de.gempa.tb1.Pick/20250413153305.636105.132149"><time><value>2025-04-13T15:33:00.978393Z</value></time><waveformID networkCode="CX" stationCode="PB08" channelCode="HHZ"/><filterID>ITAPER(4)&gt;&gt;BW(4,4,20)</filterID><methodID>AIC</methodID><horizontalSlowness><value>15.379313988164958</value></horizontalSlowness><backazimuth><value>207.98704957661974</value></backazimuth><phaseHint>P</phaseHint><evaluationMode>automatic</evaluationMode><comment><text>2732812.0099089756</text><id>DFX:rectilinearity</id></comment><comment><text>1320.0573185917517</text><id>SNR</id></comment></pick><pick publicID="de.gempa.tb1.Pick/20250413153308.782892.132151"><time><value>2025-04-13T15:33:02.38Z</value></time><waveformID networkCode="CX" stationCode="PSGCX" channelCode="HHZ"/><filterID>ITAPER(4)&gt;&gt;BW(4,4,20)</filterID><methodID>AIC</methodID><horizontalSlowness><value>9.915129440354164</value></horizontalSlowness><backazimuth><value>193.65231290070133</value></backazimuth><phaseHint>P</phaseHint><evaluationMode>automatic</evaluationMode><comment><text>1031919.3656523568</text><id>DFX:rectilinearity</id></comment><comment><text>3433.8332923460666</text><id>SNR</id></comment></pick><pick publicID="de.gempa.tb1.Pick/20250413153310.305808.132153"><time><value>2025-04-13T15:33:01.908393Z</value></time><waveformID networkCode="CX" stationCode="PB01" channelCode="HHN"/><filterID>ITAPER(2)&gt;&gt;BW(3,3,20)</filterID><methodID>L2-AIC-GRID</methodID><horizontalSlowness><value>21.041757295428472</value></horizontalSlowness><backazimuth><value>121.63083399468704</value></backazimuth><phaseHint>S</phaseHint><evaluationMode>automatic</evaluationMode><comment><text>3275314284.2707524</text><id>DFX:rectilinearity</id></comment><comment><text>de.gempa.tb1.Pick/20250413153253.896227.132138</text><id>RefPickID</id></comment><comment><text>23.648253631810437</text><id>SNR</id></comment></pick><pick publicID="de.gempa.tb1.Pick/20250413153310.547815.132154"><time><value>2025-04-13T15:33:02.13Z</value></time><waveformID networkCode="CX" stationCode="PB09" channelCode="HHN"/><filterID>ITAPER(2)&gt;&gt;BW(3,3,20)</filterID><methodID>L2-AIC-GRID</methodID><horizontalSlowness><value>15.194614527758985</value></horizontalSlowness><backazimuth><value>319.87203690224953</value></backazimuth><phaseHint>S</phaseHint><evaluationMode>automatic</evaluationMode><comment><text>3543834706.633559</text><id>DFX:rectilinearity</id></comment><comment><text>de.gempa.tb1.Pick/20250413153253.69532.132136</text><id>RefPickID</id></comment><comment><text>5.653606007389993</text><id>SNR</id></comment></pick><pick publicID="de.gempa.tb1.Pick/20250413153311.512176.132155"><time><value>2025-04-13T15:33:05.138393Z</value></time><waveformID networkCode="CX" stationCode="PB06" channelCode="HHN"/><filterID>ITAPER(2)&gt;&gt;BW(3,3,20)</filterID><methodID>L2-AIC-GRID</methodID><horizontalSlowness><value>19.79028996439083</value></horizontalSlowness><backazimuth><value>274.00830886947637</value></backazimuth><phaseHint>S</phaseHint><evaluationMode>automatic</evaluationMode><comment><text>68563825.1010883</text><id>DFX:rectilinearity</id></comment><comment><text>de.gempa.tb1.Pick/20250413153255.603526.132140</text><id>RefPickID</id></comment><comment><text>12.253226415367342</text><id>SNR</id></comment></pick><pick publicID="de.gempa.tb1.Pick/20250413153312.635747.132156"><time><value>2025-04-13T15:33:06.99Z</value></time><waveformID networkCode="CX" stationCode="PB19" channelCode="HHZ"/><filterID>ITAPER(4)&gt;&gt;BW(4,4,20)</filterID><methodID>AIC</methodID><horizontalSlowness><value>7.49479113226015</value></horizontalSlowness><backazimuth><value>17.880617081920605</value></backazimuth><phaseHint>P</phaseHint><evaluationMode>automatic</evaluationMode><comment><text>207076.57653969628</text><id>DFX:rectilinearity</id></comment><comment><text>582.355383104009</text><id>SNR</id></comment></pick><pick publicID="de.gempa.tb1.Pick/20250413153325.253902.132163"><time><value>2025-04-13T15:33:18.84Z</value></time><waveformID networkCode="CX" stationCode="PB10" channelCode="HHN"/><filterID>ITAPER(2)&gt;&gt;BW(3,3,20)</filterID><methodID>L2-AIC-GRID</methodID><horizontalSlowness><value>22.474030282241191</value></horizontalSlowness><backazimuth><value>317.5124338676472</value></backazimuth><phaseHint>S</phaseHint><evaluationMode>automatic</evaluationMode><comment><text>30663691.03791059</text><id>DFX:rectilinearity</id></comment><comment><text>de.gempa.tb1.Pick/20250413153302.178559.132146</text><id>RefPickID</id></comment><comment><text>10.102476715766025</text><id>SNR</id></comment></pick><pick publicID="de.gempa.tb1.Pick/20250413153333.126625.132166"><time><value>2025-04-13T15:33:24.058393Z</value></time><waveformID networkCode="CX" stationCode="PB08" channelCode="HHN"/><filterID>ITAPER(2)&gt;&gt;BW(3,3,20)</filterID><methodID>L2-AIC-GRID</methodID><horizontalSlowness><value>15.23076865433312</value></horizontalSlowness><backazimuth><value>208.64956418107772</value></backazimuth><phaseHint>S</phaseHint><evaluationMode>automatic</evaluationMode><comment><text>18544688.702679887</text><id>DFX:rectilinearity</id></comment><comment><text>de.gempa.tb1.Pick/20250413153305.636105.132149</text><id>RefPickID</id></comment><comment><text>11.898269673607633</text><id>SNR</id></comment></pick><pick publicID="de.gempa.tb1.Pick/20250413153335.732.132169"><time><value>2025-04-13T15:33:26.87Z</value></time><waveformID networkCode="CX" stationCode="PSGCX" channelCode="HHN"/><filterID>ITAPER(2)&gt;&gt;BW(3,3,20)</filterID><methodID>L2-AIC-GRID</methodID><horizontalSlowness><value>22.300032152630529</value></horizontalSlowness><backazimuth><value>206.77360582177636</value></backazimuth><phaseHint>S</phaseHint><evaluationMode>automatic</evaluationMode><comment><text>65139939.32916087</text><id>DFX:rectilinearity</id></comment><comment><text>de.gempa.tb1.Pick/20250413153308.782892.132151</text><id>RefPickID</id></comment><comment><text>11.5207981506458</text><id>SNR</id></comment></pick><pick publicID="de.gempa.tb1.Pick/20250413153347.024186.132174"><time><value>2025-04-13T15:32:48.948394Z</value></time><waveformID networkCode="CX" stationCode="PB07" channelCode="HHN"/><filterID>ITAPER(2)&gt;&gt;BW(3,3,20)</filterID><methodID>L2-AIC-GRID</methodID><horizontalSlowness><value>22.14843221776611</value></horizontalSlowness><backazimuth><value>82.99370902836431</value></backazimuth><phaseHint>S</phaseHint><evaluationMode>automatic</evaluationMode><comment><text>192317987984.75037</text><id>DFX:rectilinearity</id></comment><comment><text>de.gempa.tb1.Pick/20250413153250.284298.132132</text><id>RefPickID</id></comment><comment><text>8.326329030492689</text><id>SNR</id></comment></pick><origin publicID="de.gempa.tb1.Origin/20250413153347.031998.113809"><time><value>2025-04-13T15:32:29.178337Z</value><uncertainty>0.38914236426353455</uncertainty></time><latitude><value>-21.73259735107422</value><uncertainty>1.7072006464004517</uncertainty></latitude><longitude><value>-70.38712310791016</value><uncertainty>4.3915209770202637</uncertainty></longitude><depth><value>53.07000350952148</value><uncertainty>7.700125217437744</uncertainty></depth><depthType>from location</depthType><methodID>LOCSAT</methodID><earthModelID>iasp91_scanloc</earthModelID><quality><associatedPhaseCount>22</associatedPhaseCount><usedPhaseCount>22</usedPhaseCount><associatedStationCount>12</associatedStationCount><usedStationCount>12</usedStationCount><depthPhaseCount>0</depthPhaseCount><standardError>0.5903698496899412</standardError><azimuthalGap>181.74312782287598</azimuthalGap><maximumDistance>2.3869357109069824</maximumDistance><minimumDistance>0.4658127427101135</minimumDistance><medianDistance>1.0833460092544556</medianDistance></quality><uncertainty><minHorizontalUncertainty>3.657994508743286</minHorizontalUncertainty><maxHorizontalUncertainty>9.414679527282715</maxHorizontalUncertainty><azimuthMaxHorizontalUncertainty>90.73633575439453</azimuthMaxHorizontalUncertainty><preferredDescription>horizontal uncertainty</preferredDescription></uncertainty><evaluationMode>automatic</evaluationMode><evaluationStatus>confirmed</evaluationStatus><comment><text>0.00</text><id>mismatchScore</id></comment><comment><text>mismatchScore</text><id>scevalMethod</id></comment><arrival><pickID>de.gempa.tb1.Pick/20250413153247.507048.132128</pickID><phase>P</phase><azimuth>48.15021896362305</azimuth><distance>0.6147108674049377</distance><timeResidual>0.2955026626586914</timeResidual><timeUsed>true</timeUsed><horizontalSlownessUsed>false</horizontalSlownessUsed><backazimuthUsed>false</backazimuthUsed><weight>1</weight></arrival><arrival><pickID>de.gempa.tb1.Pick/20250413153248.397289.132130</pickID><phase>P</phase><azimuth>118.21118927001953</azimuth><distance>0.6675037741661072</distance><timeResidual>0.11454391479492188</timeResidual><timeUsed>true</timeUsed><horizontalSlownessUsed>false</horizontalSlownessUsed><backazimuthUsed>false</backazimuthUsed><weight>1</weight></arrival><arrival><pickID>de.gempa.tb1.Pick/20250413153250.284298.132132</pickID><phase>P</phase><azimuth>89.3665771484375</azimuth><distance>0.4658127427101135</distance><timeResidual>0.6352519989013672</timeResidual><timeUsed>true</timeUsed><horizontalSlownessUsed>false</horizontalSlownessUsed><backazimuthUsed>false</backazimuthUsed><weight>1</weight></arrival><arrival><pickID>de.gempa.tb1.Pick/20250413153252.518759.132134</pickID><phase>P</phase><azimuth>13.579941749572754</azimuth><distance>0.9333075284957886</distance><timeResidual>0.33228588104248047</timeResidual><timeUsed>true</timeUsed><horizontalSlownessUsed>false</horizontalSlownessUsed><backazimuthUsed>false</backazimuthUsed><weight>1</weight></arrival><arrival><pickID>de.gempa.tb1.Pick/20250413153253.69532.132136</pickID><phase>P</phase><azimuth>93.62307739257812</azimuth><distance>1.0664328336715698</distance><timeResidual>0.39606285095214844</timeResidual><timeUsed>true</timeUsed><horizontalSlownessUsed>false</horizontalSlownessUsed><backazimuthUsed>false</backazimuthUsed><weight>1</weight></arrival><arrival><pickID>de.gempa.tb1.Pick/20250413153253.896227.132138</pickID><phase>P</phase><azimuth>50.87786483764648</azimuth><distance>1.0833460092544556</distance><timeResidual>0.08459758758544922</timeResidual><timeUsed>true</timeUsed><horizontalSlownessUsed>false</horizontalSlownessUsed><backazimuthUsed>false</backazimuthUsed><weight>1</weight></arrival><arrival><pickID>de.gempa.tb1.Pick/20250413153255.603526.132140</pickID><phase>P</phase><azimuth>142.19921875</azimuth><distance>1.2282971143722534</distance><timeResidual>-0.1966238021850586</timeResidual><timeUsed>true</timeUsed><horizontalSlownessUsed>false</horizontalSlownessUsed><backazimuthUsed>false</backazimuthUsed><weight>1</weight></arrival><arrival><pickID>de.gempa.tb1.Pick/20250413153258.091528.132142</pickID><phase>S</phase><azimuth>48.15021896362305</azimuth><distance>0.6147108674049377</distance><timeResidual>-0.12786102294921875</timeResidual><timeUsed>true</timeUsed><horizontalSlownessUsed>false</horizontalSlownessUsed><backazimuthUsed>false</backazimuthUsed><weight>1</weight></arrival><arrival><pickID>de.gempa.tb1.Pick/20250413153259.565743.132143</pickID><phase>S</phase><azimuth>118.21118927001953</azimuth><distance>0.6675037741661072</distance><timeResidual>-0.42743968963623047</timeResidual><timeUsed>true</timeUsed><horizontalSlownessUsed>false</horizontalSlownessUsed><backazimuthUsed>false</backazimuthUsed><weight>1</weight></arrival><arrival><pickID>de.gempa.tb1.Pick/20250413153301.740325.132144</pickID><phase>P</phase><azimuth>150.1874237060547</azimuth><distance>1.6956688165664673</distance><timeResidual>0.15087604522705078</timeResidual><timeUsed>true</timeUsed><horizontalSlownessUsed>false</horizontalSlownessUsed><backazimuthUsed>false</backazimuthUsed><weight>1</weight></arrival><arrival><pickID>de.gempa.tb1.Pick/20250413153302.178559.132146</pickID><phase>P</phase><azimuth>184.94241333007812</azimuth><distance>1.7791109085083008</distance><timeResidual>-0.0843515396118164</timeResidual><timeUsed>true</timeUsed><horizontalSlownessUsed>false</horizontalSlownessUsed><backazimuthUsed>false</backazimuthUsed><weight>1</weight></arrival><arrival><pickID>de.gempa.tb1.Pick/20250413153304.394979.132148</pickID><phase>S</phase><azimu