<?xml version="1.0" encoding="UTF-8"?>
<seiscomp xmlns="http://geofon.gfz-potsdam.de/ns/seiscomp3-schema/0.13" version="0.13"><EventParameters><pick publicID="de.gempa.tb1.Pick/20250412052409.508138.122142"><time><value>2025-04-12T05:24:03.8Z</value></time><waveformID networkCode="CX" stationCode="PB19" channelCode="HHZ"/><filterID>ITAPER(4)&gt;&gt;BW(4,4,20)</filterID><methodID>AIC</methodID><horizontalSlowness><value>5.742687527055856</value></horizontalSlowness><backazimuth><value>80.4995484373531</value></backazimuth><phaseHint>P</phaseHint><evaluationMode>automatic</evaluationMode><comment><text>173.45565006298435</text><id>DFX:rectilinearity</id></comment><comment><text>167.64900752716787</text><id>SNR</id></comment></pick><pick publicID="de.gempa.tb1.Pick/20250412052411.648129.122146"><time><value>2025-04-12T05:24:06.148393Z</value></time><waveformID networkCode="CX" stationCode="PB15" channelCode="HHZ"/><filterID>ITAPER(4)&gt;&gt;BW(4,4,20)</filterID><methodID>AIC</methodID><horizontalSlowness><value>21.791094237473274</value></horizontalSlowness><backazimuth><value>83.27426573105549</value></backazimuth><phaseHint>P</phaseHint><evaluationMode>automatic</evaluationMode><comment><text>3851.205474816746</text><id>DFX:rectilinearity</id></comment><comment><text>126.98084300316187</text><id>SNR</id></comment></pick><pick publicID="de.gempa.tb1.Pick/20250412052414.654513.122150"><time><value>2025-04-12T05:24:08.708393Z</value></time><waveformID networkCode="CX" stationCode="PB06" channelCode="HHZ"/><filterID>ITAPER(4)&gt;&gt;BW(4,4,20)</filterID><methodID>AIC</methodID><horizontalSlowness><value>12.579526723402855</value></horizontalSlowness><backazimuth><value>118.49882434853689</value></backazimuth><phaseHint>P</phaseHint><evaluationMode>automatic</evaluationMode><comment><text>451.2250481397327</text><id>DFX:rectilinearity</id></comment><comment><text>117.51784571026234</text><id>SNR</id></comment></pick><pick publicID="de.gempa.tb1.Pick/20250412052420.632741.122152"><time><value>2025-04-12T05:24:13.758393Z</value></time><waveformID networkCode="CX" stationCode="PB03" channelCode="HHZ"/><filterID>ITAPER(4)&gt;&gt;BW(4,4,20)</filterID><methodID>AIC</methodID><horizontalSlowness><value>10.791142649056036</value></horizontalSlowness><backazimuth><value>122.64447582214969</value></backazimuth><phaseHint>P</phaseHint><evaluationMode>automatic</evaluationMode><comment><text>944.7168563646693</text><id>DFX:rectilinearity</id></comment><comment><text>112.88054947857538</text><id>SNR</id></comment></pick><pick publicID="de.gempa.tb1.Pick/20250412052422.184792.122155"><time><value>2025-04-12T05:24:16.530001Z</value></time><waveformID networkCode="CX" stationCode="PB10" channelCode="HHZ"/><filterID>ITAPER(4)&gt;&gt;BW(4,4,20)</filterID><methodID>AIC</methodID><horizontalSlowness><value>22.258807456344453</value></horizontalSlowness><backazimuth><value>128.1896738967246</value></backazimuth><phaseHint>P</phaseHint><evaluationMode>automatic</evaluationMode><comment><text>209.22067881024435</text><id>DFX:rectilinearity</id></comment><comment><text>34.5716532101214</text><id>SNR</id></comment></pick><pick publicID="de.gempa.tb1.Pick/20250412052424.539097.122157"><time><value>2025-04-12T05:24:19.088393Z</value></time><waveformID networkCode="CX" stationCode="PB01" channelCode="HHZ"/><filterID>ITAPER(4)&gt;&gt;BW(4,4,20)</filterID><methodID>AIC</methodID><horizontalSlowness><value>7.618913366404215</value></horizontalSlowness><backazimuth><value>147.2614827658407</value></backazimuth><phaseHint>P</phaseHint><evaluationMode>automatic</evaluationMode><comment><text>20.52300322879179</text><id>DFX:rectilinearity</id></comment><comment><text>50.15859348001015</text><id>SNR</id></comment></pick><pick publicID="de.gempa.tb1.Pick/20250412052426.48571.122160"><time><value>2025-04-12T05:24:20.068394Z</value></time><waveformID networkCode="CX" stationCode="PB02" channelCode="HHZ"/><filterID>ITAPER(4)&gt;&gt;BW(4,4,20)</filterID><methodID>AIC</methodID><horizontalSlowness><value>2.6585865447851575</value></horizontalSlowness><backazimuth><value>322.12810035640086</value></backazimuth><phaseHint>P</phaseHint><evaluationMode>automatic</evaluationMode><comment><text>70.85893417658464</text><id>DFX:rectilinearity</id></comment><comment><text>37.032108753406725</text><id>SNR</id></comment></pick><pick publicID="de.gempa.tb1.Pick/20250412052434.250934.122163"><time><value>2025-04-12T05:24:27.868393Z</value></time><waveformID networkCode="CX" stationCode="PB08" channelCode="HHZ"/><filterID>ITAPER(4)&gt;&gt;BW(4,4,20)</filterID><methodID>AIC</methodID><horizontalSlowness><value>12.663950620996477</value></horizontalSlowness><backazimuth><value>204.8278316972215</value></backazimuth><phaseHint>P</phaseHint><evaluationMode>automatic</evaluationMode><comment><text>16.724112704249233</text><id>DFX:rectilinearity</id></comment><comment><text>6.770756683774469</text><id>SNR</id></comment></pick><pick publicID="de.gempa.tb1.Pick/20250412052444.689446.122170"><time><value>2025-04-12T05:24:36.25Z</value></time><waveformID networkCode="CX" stationCode="PB19" channelCode="HHN"/><filterID>ITAPER(2)&gt;&gt;BW(3,3,20)</filterID><methodID>L2-AIC-GRID</methodID><horizontalSlowness><value>20.866241587419463</value></horizontalSlowness><backazimuth><value>134.54171854288953</value></backazimuth><phaseHint>S</phaseHint><evaluationMode>automatic</evaluationMode><comment><text>1391.0528719878305</text><id>DFX:rectilinearity</id></comment><comment><text>de.gempa.tb1.Pick/20250412052409.508138.122142</text><id>RefPickID</id></comment><comment><text>7.301824053555921</text><id>SNR</id></comment></pick><pick publicID="de.gempa.tb1.Pick/20250412052446.418401.122171"><time><value>2025-04-12T05:24:16.908394Z</value></time><waveformID networkCode="CX" stationCode="PB07" channelCode="HHZ"/><filterID>ITAPER(4)&gt;&gt;BW(4,4,20)</filterID><methodID>AIC</methodID><horizontalSlowness><value>13.2675264545481</value></horizontalSlowness><backazimuth><value>145.56389009949754</value></backazimuth><phaseHint>P</phaseHint><evaluationMode>automatic</evaluationMode><comment><text>1022.767379409402</text><id>DFX:rectilinearity</id></comment><comment><text>68.19852031527925</text><id>SNR</id></comment></pick><pick publicID="de.gempa.tb1.Pick/20250412052446.520902.122173"><time><value>2025-04-12T05:24:36.51Z</value></time><waveformID networkCode="CX" stationCode="PSGCX" channelCode="HHZ"/><filterID>ITAPER(4)&gt;&gt;BW(4,4,20)</filterID><methodID>AIC</methodID><horizontalSlowness><value>16.734373112043574</value></horizontalSlowness><backazimuth><value>233.2476742506225</value></backazimuth><phaseHint>P</phaseHint><evaluationMode>automatic</evaluationMode><comment><text>16.33636375678818</text><id>DFX:rectilinearity</id></comment><comment><text>16.689088653553345</text><id>SNR</id></comment></pick><pick publicID="de.gempa.tb1.Pick/20250412052450.507584.122177"><time><value>2025-04-12T05:24:40.588393Z</value></time><waveformID networkCode="CX" stationCode="PB15" channelCode="HHN"/><filterID>ITAPER(2)&gt;&gt;BW(3,3,20)</filterID><methodID>L2-AIC-GRID</methodID><horizontalSlowness><value>22.215558017914375</value></horizontalSlowness><backazimuth><value>148.8755279585836</value></backazimuth><phaseHint>S</phaseHint><evaluationMode>automatic</evaluationMode><comment><text>84404.72117057697</text><id>DFX:rectilinearity</id></comment><comment><text>de.gempa.tb1.Pick/20250412052411.648129.122146</text><id>RefPickID</id></comment><comment><text>6.160403585620381</text><id>SNR</id></comment></pick><pick publicID="de.gempa.tb1.Pick/20250412052450.959452.122178"><time><value>2025-04-12T05:24:44.298393Z</value></time><waveformID networkCode="CX" stationCode="PB06" channelCode="HHN"/><filterID>ITAPER(2)&gt;&gt;BW(3,3,20)</filterID><methodID>L2-AIC-GRID</methodID><horizontalSlowness><value>22.83424235277807</value></horizontalSlowness><backazimuth><value>111.05109690960606</value></backazimuth><phaseHint>S</phaseHint><evaluationMode>automatic</evaluationMode><comment><text>2594.748441854923</text><id>DFX:rectilinearity</id></comment><comment><text>de.gempa.tb1.Pick/20250412052414.654513.122150</text><id>RefPickID</id></comment><comment><text>17.135972670159848</text><id>SNR</id></comment></pick><pick publicID="de.gempa.tb1.Pick/20250412052458.774457.122179"><time><value>2025-04-12T05:24:52.778393Z</value></time><waveformID networkCode="CX" stationCode="PB03" channelCode="HHN"/><filterID>ITAPER(2)&gt;&gt;BW(3,3,20)</filterID><methodID>L2-AIC-GRID</methodID><horizontalSlowness><value>22.405689403666056</value></horizontalSlowness><backazimuth><value>5.370481524581947</value></backazimuth><phaseHint>S</phaseHint><evaluationMode>automatic</evaluationMode><comment><text>4716.343901128652</text><id>DFX:rectilinearity</id></comment><comment><text>de.gempa.tb1.Pick/20250412052420.632741.122152</text><id>RefPickID</id></comment><comment><text>12.480263103578881</text><id>SNR</id></comment></pick><pick publicID="de.gempa.tb1.Pick/20250412052506.207898.122182"><time><value>2025-04-12T05:24:57.960001Z</value></time><waveformID networkCode="CX" stationCode="PB10" channelCode="HHN"/><filterID>ITAPER(2)&gt;&gt;BW(3,3,20)</filterID><methodID>L2-AIC-GRID</methodID><horizontalSlowness><value>19.59156191317562</value></horizontalSlowness><backazimuth><value>285.4302243344432</value></backazimuth><phaseHint>S</phaseHint><evaluationMode>automatic</evaluationMode><comment><text>1664.8263028026945</text><id>DFX:rectilinearity</id></comment><comment><text>de.gempa.tb1.Pick/20250412052422.184792.122155</text><id>RefPickID</id></comment><comment><text>5.806531266782375</text><id>SNR</id></comment></pick><pick publicID="de.gempa.tb1.Pick/20250412052511.640543.122183"><time><value>2025-04-12T05:25:03.608394Z</value></time><waveformID networkCode="CX" stationCode="PB02" channelCode="HHN"/><filterID>ITAPER(2)&gt;&gt;BW(3,3,20)</filterID><methodID>L2-AIC-GRID</methodID><horizontalSlowness><value>18.33691209074993</value></horizontalSlowness><backazimuth><value>44.33987182607018</value></backazimuth><phaseHint>S</phaseHint><evaluationMode>automatic</evaluationMode><comment><text>2378.40677654851</text><id>DFX:rectilinearity</id></comment><comment><text>de.gempa.tb1.Pick/20250412052426.48571.122160</text><id>RefPickID</id></comment><comment><text>11.667334913930162</text><id>SNR</id></comment></pick><pick publicID="de.gempa.tb1.Pick/20250412052544.779784.122187"><time><value>2025-04-12T05:24:58.548394Z</value></time><waveformID networkCode="CX" stationCode="PB07" channelCode="HHN"/><filterID>ITAPER(2)&gt;&gt;BW(3,3,20)</filterID><methodID>L2-AIC-GRID</methodID><horizontalSlowness><value>22.91836995089845</value></horizontalSlowness><backazimuth><value>243.7860965329702</value></backazimuth><phaseHint>S</phaseHint><evaluationMode>automatic</evaluationMode><comment><text>40756.195152713</text><id>DFX:rectilinearity</id></comment><comment><text>de.gempa.tb1.Pick/20250412052446.418401.122171</text><id>RefPickID</id></comment><comment><text>6.918797058501502</text><id>SNR</id></comment></pick><origin publicID="de.gempa.tb1.Origin/20250412052544.785322.75275"><time><value>2025-04-12T05:23:24.327912Z</value><uncertainty>0.8051498532295227</uncertainty></time><latitude><value>-23.625608444213867</value><uncertainty>5.636401176452637</uncertainty></latitude><longitude><value>-67.26918029785156</value><uncertainty>12.755643844604492</uncertainty></longitude><depth><value>236.6985626220703</value><uncertainty>14.105731010437012</uncertainty></depth><depthType>from location</depthType><methodID>LOCSAT</methodID><earthModelID>iasp91_scanloc</earthModelID><quality><associatedPhaseCount>17</associatedPhaseCount><usedPhaseCount>17</usedPhaseCount><associatedStationCount>10</associatedStationCount><usedStationCount>10</usedStationCount><depthPhaseCount>0</depthPhaseCount><standardError>0.580203313780539</standardError><azimuthalGap>288.19677734375</azimuthalGap><maximumDistance>4.808125972747803</maximumDistance><minimumDistance>1.8727816343307495</minimumDistance><medianDistance>3.016075134277344</medianDistance></quality><uncertainty><minHorizontalUncertainty>11.819661140441895</minHorizontalUncertainty><maxHorizontalUncertainty>27.463687896728516</maxHorizontalUncertainty><azimuthMaxHorizontalUncertainty>84.17483520507812</azimuthMaxHorizontalUncertainty><preferredDescription>horizontal uncertainty</preferredDescription></uncertainty><evaluationMode>automatic</evaluationMode><evaluationStatus>confirmed</evaluationStatus><comment><text>0.11</text><id>mismatchScore</id></comment><comment><text>mismatchScore</text><id>scevalMethod</id></comment><arrival><pickID>de.gempa.tb1.Pick/20250412052409.508138.122142</pickID><phase>P</phase><azimuth>261.06219482421875</azimuth><distance>1.8727816343307495</distance><timeResidual>-0.7869377136230469</timeResidual><timeUsed>true</timeUsed><horizontalSlownessUsed>false</horizontalSlownessUsed><backazimuthUsed>false</backazimuthUsed><weight>1</weight></arrival><arrival><pickID>de.gempa.tb1.Pick/20250412052411.648129.122146</pickID><phase>P</phase><azimuth>281.16864013671875</azimuth><distance>2.0647103786468506</distance><timeResidual>-0.2280082702636719</timeResidual><timeUsed>true</timeUsed><horizontalSlownessUsed>false</horizontalSlownessUsed><backazimuthUsed>false</backazimuthUsed><weight>1</weight></arrival><arrival><pickID>de.gempa.tb1.Pick/20250412052414.654513.122150</pickID><phase>P</phase><azimuth>292.9117736816406</azimuth><distance>2.308479309082031</distance><timeResidual>-0.052825927734375</timeResidual><timeUsed>true</timeUsed><horizontalSlownessUsed>false</horizontalSlownessUsed><backazimuthUsed>false</backazimuthUsed><weight>1</weight></arrival><arrival><pickID>de.gempa.tb1.Pick/20250412052420.632741.122152</pickID><phase>P</phase><azimuth>303.9276123046875</azimuth><distance>2.7774951457977295</distance><timeResidual>0.108489990234375</timeResidual><timeUsed>true</timeUsed><horizontalSlownessUsed>false</horizontalSlownessUsed><backazimuthUsed>false</backazimuthUsed><weight>1</weight></arrival><arrival><pickID>de.gempa.tb1.Pick/20250412052422.184792.122155</pickID><phase>P</phase><azimuth>271.46795654296875</azimuth><distance>3.016075134277344</distance><timeResidual>0.2990303039550781</timeResidual><timeUsed>true</timeUsed><horizontalSlownessUsed>false</horizontalSlownessUsed><backazimuthUsed>false</backazimuthUsed><weight>1</weight></arrival><arrival><pickID>de.gempa.tb1.Pick/20250412052424.539097.122157</pickID><phase>P</phase><azimuth>320.9457702636719</azimuth><distance>3.2896881103515625</distance><timeResidual>-0.2641410827636719</timeResidual><timeUsed>true</timeUsed><horizontalSlownessUsed>false</horizontalSlownessUsed><backazimuthUsed>false</backazimuthUsed><weight>1</weight></arrival><arrival><pickID>de.gempa.tb1.Pick/20250412052426.48571.122160</pickID><phase>P</phase><azimuth>312.8592224121094</azimuth><distance>3.3419952392578125</distance><timeResidual>0.12249755859375</timeResidual><timeUsed>true</timeUsed><horizontalSlownessUsed>false</horizontalSlownessUsed><backazimuthUsed>false</backazimuthUsed><weight>1</weight></arrival><arrival><pickID>de.gempa.tb1.Pick/20250412052434.250934.122163</pickID><phase>P</phase><azimuth>332.86541748046875</azimuth><distance>3.8840136528015137</distance><timeResidual>1.6254234313964844</timeResidual><timeUsed>true</timeUsed><horizontalSlownessUsed>false</horizontalSlownessUsed><backazimuthUsed>false</backazimuthUsed><weight>1</weight></arrival><arrival><pickID>de.gempa.tb1.Pick/20250412052444.689446.122170</pickID><phase>S</phase><azimuth>261.06219482421875</azimuth><distance>1.8727816343307495</distance><timeResidual>-0.336334228515625</timeResidual><timeUsed>true</timeUsed><horizontalSlownessUsed>false</horizontalSlownessUsed><backazimuthUsed>false</backazimuthUsed><weight>1</weight></arrival><arrival><pickID>de.gempa.tb1.Pick/20250412052446.418401.122171</pickID><phase>P</phase><azimuth>307.5147705078125</azimuth><distance>3.068128824234009</distance><timeResidual>0.0718994140625</timeResidual><timeUsed>true</timeUsed><horizontalSlownessUsed>false</horizontalSlownessUsed><backazimuthUsed>false</backazimuthUsed><weight>1</weight></arrival><arrival><pickID>de.gempa.tb1.Pick/20250412052446.520902.122173</pickID><phase>P</phase><azimuth>325.9432067871094</azimuth><distance>4.808125972747803</distance><timeResidual>-0.8975715637207031</timeResidual><timeUsed>true</timeUsed><horizontalSlownessUsed>false</horizontalSlownessUsed><backazimuthUsed>false</backazimuthUsed><weight>1</weight></arrival><arrival><pickID>de.gempa.tb1.Pick/20250412052450.507584.122177</pickID><phase>S</phase><azimuth>281.16864013671875</azimuth><distance>2.0647103786468506</distance><timeResidual>0.7763252258300781</timeResidual><timeUsed>true</timeUsed><horizontalSlownessUsed>false</horizontalSlownessUsed><backazimuthUsed>false</backazimuthUsed><weight>1</weight></arrival><arrival><pickID>de.gempa.tb1.Pick/20250412052450.959452.122178</pickID><phase>S</phase><azimuth>292.9117736816406</azimuth><distance>2.308479309082031</distance><timeResidual>0.18609619140625</timeResidual><timeUsed>true</timeUsed><horizontalSlownessUsed>false</horizontalSlownessUsed><backazimuthUsed>false</backazimuthUsed><weight>1</weight></arrival><arrival><pickID>de.gempa.tb1.Pick/20250412052458.774457.122179</pickID><phase>S</phase><azimuth>303.9276123046875</azimuth><distance>2.7774951457977295</distance><timeResidual>-0.15375137329101562</timeResidual><timeUsed>true</timeUsed><horizontalSlownessUsed>false</horizontalSlownessUsed><backazimuthUsed>false</backazimuthUsed><weight>1</weight></arrival><arrival><pickID>de.gempa.tb1.Pick/20250412052506.207898.122182</pickID><phase>S</phase><azimuth>271.46795654296875</azimuth><distance>3.016075134277344</distance><timeResidual>0.36402130126953125</timeResidual><timeUsed>true</timeUsed><horizontalSlownessUsed>false</horizontalSlownessUsed><backazimuthUsed>false</backazimuthUsed><weight>1</weight></arrival><arrival><pickID>de.gempa.tb1.Pick/20250412052511.640543.122183</pickID><phase>S</phase><azimuth>312.8592224121094</azimuth><distance>3.3419952392578125</distance><timeResidual>-0.6960029602050781</timeResidual><timeUsed>true</timeUsed><horizontalSlownessUsed>false</horizontalSlownessUsed><backazimuthUsed>false</backazimuthUsed><weight>1</weight></arrival><arrival><pickID>de.gempa.tb1.Pick/20250412052544.779784.122187</pickID><phase>S</phase><azimuth>307.5147705078125</azimuth><distance>3.068128824234009</distance><timeResidual>-0.137786865234375</timeResidual><timeUsed>true</timeUsed><horizontalSlownessUsed>false</horizontalSlownessUsed><backazimuthUsed>false</backazimuthUsed><weight>1</weight></arrival><magnitude publicID="de.gempa.tb1.Magnitude/20250412052555.939625.181627"><magnitude><value>3.5618323586051837</value></magnitude><type>M</type><methodID>weighted average</methodID><stationCount>8</stationCount></magnitude></origin><event publicID="gempa2025heyz"><preferredOriginID>de.gempa.tb1.Origin/20250412052544.785322.75275</preferredOriginID><preferredMagnitudeID>de.gempa.tb1.Magnitude/20250412052555.939625.181627</preferredMagnitudeID><description><text>Chile-Argentina Border Region</text><type>region name</type></description><originReference>de.gempa.tb1.Origin/20250412052544.785322.75275</originReference></event></EventParameters></seiscomp>