<?xml version="1.0" encoding="UTF-8"?>
<seiscomp xmlns="http://geofon.gfz-potsdam.de/ns/seiscomp3-schema/0.13" version="0.13"><EventParameters><pick publicID="de.gempa.tb1.Pick/20250412091943.536714.123188"><time><value>2025-04-12T09:19:37.528394Z</value></time><waveformID networkCode="CX" stationCode="PB15" channelCode="HHZ"/><filterID>ITAPER(4)&gt;&gt;BW(4,4,20)</filterID><methodID>AIC</methodID><horizontalSlowness><value>22.9387300922149</value></horizontalSlowness><backazimuth><value>142.040605278911</value></backazimuth><phaseHint>P</phaseHint><evaluationMode>automatic</evaluationMode><comment><text>470.3837671126064</text><id>DFX:rectilinearity</id></comment><comment><text>16.47133907282479</text><id>SNR</id></comment></pick><pick publicID="de.gempa.tb1.Pick/20250412091944.53998.123190"><time><value>2025-04-12T09:19:39.378393Z</value></time><waveformID networkCode="CX" stationCode="PB06" channelCode="HHZ"/><filterID>ITAPER(4)&gt;&gt;BW(4,4,20)</filterID><methodID>AIC</methodID><horizontalSlowness><value>12.561046612516686</value></horizontalSlowness><backazimuth><value>271.47008339600484</value></backazimuth><phaseHint>P</phaseHint><evaluationMode>automatic</evaluationMode><comment><text>139.7453875852522</text><id>DFX:rectilinearity</id></comment><comment><text>9.617250381481265</text><id>SNR</id></comment></pick><pick publicID="de.gempa.tb1.Pick/20250412091944.540368.123192"><time><value>2025-04-12T09:19:39.01Z</value></time><waveformID networkCode="CX" stationCode="PB19" channelCode="HHZ"/><filterID>ITAPER(4)&gt;&gt;BW(4,4,20)</filterID><methodID>AIC</methodID><horizontalSlowness><value>23.42368121186199</value></horizontalSlowness><backazimuth><value>354.4909368659446</value></backazimuth><phaseHint>P</phaseHint><evaluationMode>automatic</evaluationMode><comment><text>44.636008828859623</text><id>DFX:rectilinearity</id></comment><comment><text>10.682740486295099</text><id>SNR</id></comment></pick><pick publicID="de.gempa.tb1.Pick/20250412091956.386447.123194"><time><value>2025-04-12T09:19:45.15Z</value></time><waveformID networkCode="CX" stationCode="PB09" channelCode="HHZ"/><filterID>ITAPER(4)&gt;&gt;BW(4,4,20)</filterID><methodID>AIC</methodID><horizontalSlowness><value>11.909715031059886</value></horizontalSlowness><backazimuth><value>282.8168588035875</value></backazimuth><phaseHint>P</phaseHint><evaluationMode>automatic</evaluationMode><comment><text>12.950096685784938</text><id>DFX:rectilinearity</id></comment><comment><text>7.903724105936962</text><id>SNR</id></comment></pick><pick publicID="de.gempa.tb1.Pick/20250412092000.692358.123196"><time><value>2025-04-12T09:19:53.708394Z</value></time><waveformID networkCode="CX" stationCode="PB15" channelCode="HHN"/><filterID>ITAPER(2)&gt;&gt;BW(3,3,20)</filterID><methodID>L2-AIC-GRID</methodID><horizontalSlowness><value>20.955526001974466</value></horizontalSlowness><backazimuth><value>93.57237568767529</value></backazimuth><phaseHint>S</phaseHint><evaluationMode>automatic</evaluationMode><comment><text>47091.7782533354</text><id>DFX:rectilinearity</id></comment><comment><text>de.gempa.tb1.Pick/20250412091943.536714.123188</text><id>RefPickID</id></comment><comment><text>14.8330153055698</text><id>SNR</id></comment></pick><pick publicID="de.gempa.tb1.Pick/20250412092003.553227.123197"><time><value>2025-04-12T09:19:56.718393Z</value></time><waveformID networkCode="CX" stationCode="PB06" channelCode="HHN"/><filterID>ITAPER(2)&gt;&gt;BW(3,3,20)</filterID><methodID>L2-AIC-GRID</methodID><horizontalSlowness><value>21.903545494645176</value></horizontalSlowness><backazimuth><value>243.72194392366603</value></backazimuth><phaseHint>S</phaseHint><evaluationMode>automatic</evaluationMode><comment><text>288.76649948369027</text><id>DFX:rectilinearity</id></comment><comment><text>de.gempa.tb1.Pick/20250412091944.53998.123190</text><id>RefPickID</id></comment><comment><text>17.648382517119412</text><id>SNR</id></comment></pick><pick publicID="de.gempa.tb1.Pick/20250412092004.570363.123198"><time><value>2025-04-12T09:19:56.35Z</value></time><waveformID networkCode="CX" stationCode="PB19" channelCode="HHN"/><filterID>ITAPER(2)&gt;&gt;BW(3,3,20)</filterID><methodID>L2-AIC-GRID</methodID><horizontalSlowness><value>21.96450227536393</value></horizontalSlowness><backazimuth><value>51.51174819683743</value></backazimuth><phaseHint>S</phaseHint><evaluationMode>automatic</evaluationMode><comment><text>755.4726337182639</text><id>DFX:rectilinearity</id></comment><comment><text>de.gempa.tb1.Pick/20250412091944.540368.123192</text><id>RefPickID</id></comment><comment><text>9.399696655221096</text><id>SNR</id></comment></pick><pick publicID="de.gempa.tb1.Pick/20250412092057.267095.123201"><time><value>2025-04-12T09:19:49.438391Z</value></time><waveformID networkCode="CX" stationCode="PB07" channelCode="HHZ"/><filterID>ITAPER(4)&gt;&gt;BW(4,4,20)</filterID><methodID>AIC</methodID><horizontalSlowness><value>20.428597775191285</value></horizontalSlowness><backazimuth><value>253.61950550498216</value></backazimuth><phaseHint>P</phaseHint><evaluationMode>automatic</evaluationMode><comment><text>301.88147977718876</text><id>DFX:rectilinearity</id></comment><comment><text>6.110509567436349</text><id>SNR</id></comment></pick><origin publicID="de.gempa.tb1.Origin/20250412092057.272489.79846"><time><value>2025-04-12T09:19:15.010648Z</value><uncertainty>1.5489941835403442</uncertainty></time><latitude><value>-23.08546829223633</value><uncertainty>4.463500499725342</uncertainty></latitude><longitude><value>-68.24142456054688</value><uncertainty>6.819190502166748</uncertainty></longitude><depth><value>1.1597851514816284</value><uncertainty>11.816540718078613</uncertainty></depth><depthType>from location</depthType><methodID>LOCSAT</methodID><earthModelID>iasp91_scanloc</earthModelID><quality><associatedPhaseCount>8</associatedPhaseCount><usedPhaseCount>8</usedPhaseCount><associatedStationCount>5</associatedStationCount><usedStationCount>5</usedStationCount><depthPhaseCount>0</depthPhaseCount><standardError>0.7375777490495892</standardError><azimuthalGap>265.54071044921875</azimuthalGap><maximumDistance>2.0359914302825928</maximumDistance><minimumDistance>1.1382707357406616</minimumDistance><medianDistance>1.2837437391281128</medianDistance></quality><uncertainty><minHorizontalUncertainty>9.11957836151123</minHorizontalUncertainty><maxHorizontalUncertainty>14.91317367553711</maxHorizontalUncertainty><azimuthMaxHorizontalUncertainty>75.70928192138672</azimuthMaxHorizontalUncertainty><preferredDescription>horizontal uncertainty</preferredDescription></uncertainty><evaluationMode>automatic</evaluationMode><evaluationStatus>confirmed</evaluationStatus><comment><text>0.09</text><id>mismatchScore</id></comment><comment><text>mismatchScore</text><id>scevalMethod</id></comment><arrival><pickID>de.gempa.tb1.Pick/20250412091943.536714.123188</pickID><phase>P</phase><azimuth>263.5921325683594</azimuth><distance>1.1382707357406616</distance><timeResidual>0.6852378845214844</timeResidual><timeUsed>true</timeUsed><horizontalSlownessUsed>false</horizontalSlownessUsed><backazimuthUsed>false</backazimuthUsed><weight>1</weight></arrival><arrival><pickID>de.gempa.tb1.Pick/20250412091944.53998.123190</pickID><phase>P</phase><azimuth>286.861328125</azimuth><distance>1.2837437391281128</distance><timeResidual>-0.25472450256347656</timeResidual><timeUsed>true</timeUsed><horizontalSlownessUsed>false</horizontalSlownessUsed><backazimuthUsed>false</backazimuthUsed><weight>1</weight></arrival><arrival><pickID>de.gempa.tb1.Pick/20250412091944.540368.123192</pickID><phase>P</phase><azimuth>229.5397033691406</azimuth><distance>1.2621301412582397</distance><timeResidual>-0.20703697204589844</timeResidual><timeUsed>true</timeUsed><horizontalSlownessUsed>false</horizontalSlownessUsed><backazimuthUsed>false</backazimuthUsed><weight>1</weight></arrival><arrival><pickID>de.gempa.tb1.Pick/20250412091956.386447.123194</pickID><phase>P</phase><azimuth>323.9989929199219</azimuth><distance>1.5819956064224243</distance><timeResidual>0.9845199584960938</timeResidual><timeUsed>true</timeUsed><horizontalSlownessUsed>false</horizontalSlownessUsed><backazimuthUsed>false</backazimuthUsed><weight>1</weight></arrival><arrival><pickID>de.gempa.tb1.Pick/20250412092000.692358.123196</pickID><phase>S</phase><azimuth>263.5921325683594</azimuth><distance>1.1382707357406616</distance><timeResidual>1.010345458984375</timeResidual><timeUsed>true</timeUsed><horizontalSlownessUsed>false</horizontalSlownessUsed><backazimuthUsed>false</backazimuthUsed><weight>1</weight></arrival><arrival><pickID>de.gempa.tb1.Pick/20250412092003.553227.123197</pickID><phase>S</phase><azimuth>286.861328125</azimuth><distance>1.2837437391281128</distance><timeResidual>-0.7963600158691406</timeResidual><timeUsed>true</timeUsed><horizontalSlownessUsed>false</horizontalSlownessUsed><backazimuthUsed>false</backazimuthUsed><weight>1</weight></arrival><arrival><pickID>de.gempa.tb1.Pick/20250412092004.570363.123198</pickID><phase>S</phase><azimuth>229.5397033691406</azimuth><distance>1.2621301412582397</distance><timeResidual>-0.4461822509765625</timeResidual><timeUsed>true</timeUsed><horizontalSlownessUsed>false</horizontalSlownessUsed><backazimuthUsed>false</backazimuthUsed><weight>1</weight></arrival><arrival><pickID>de.gempa.tb1.Pick/20250412092057.267095.123201</pickID><phase>P</phase><azimuth>311.3062438964844</azimuth><distance>2.0359914302825928</distance><timeResidual>-0.9754600524902344</timeResidual><timeUsed>true</timeUsed><horizontalSlownessUsed>false</horizontalSlownessUsed><backazimuthUsed>false</backazimuthUsed><weight>1</weight></arrival><magnitude publicID="de.gempa.tb1.Magnitude/20250412092105.940141.202746"><magnitude><value>2.6579253971073347</value></magnitude><type>M</type><methodID>weighted average</methodID><stationCount>4</stationCount></magnitude></origin><event publicID="gempa2025hfgw"><preferredOriginID>de.gempa.tb1.Origin/20250412092057.272489.79846</preferredOriginID><preferredMagnitudeID>de.gempa.tb1.Magnitude/20250412092105.940141.202746</preferredMagnitudeID><description><text>Northern Chile</text><type>region name</type></description><originReference>de.gempa.tb1.Origin/20250412092057.272489.79846</originReference></event></EventParameters></seiscomp>