<?xml version="1.0" encoding="UTF-8"?>
<seiscomp xmlns="http://geofon.gfz-potsdam.de/ns/seiscomp3-schema/0.13" version="0.13"><EventParameters><pick publicID="de.gempa.tb1.Pick/20250412032753.498817.121615"><time><value>2025-04-12T03:27:48.758393Z</value></time><waveformID networkCode="CX" stationCode="PB01" channelCode="HHZ"/><filterID>ITAPER(4)&gt;&gt;BW(4,4,20)</filterID><methodID>AIC</methodID><horizontalSlowness><value>18.877624799472375</value></horizontalSlowness><backazimuth><value>176.11380365599075</value></backazimuth><phaseHint>P</phaseHint><evaluationMode>automatic</evaluationMode><comment><text>7.097418582028846</text><id>DFX:rectilinearity</id></comment><comment><text>17.508956772442843</text><id>SNR</id></comment></pick><pick publicID="de.gempa.tb1.Pick/20250412032756.567048.121619"><time><value>2025-04-12T03:27:52.188394Z</value></time><waveformID networkCode="CX" stationCode="PB02" channelCode="HHZ"/><filterID>ITAPER(4)&gt;&gt;BW(4,4,20)</filterID><methodID>AIC</methodID><horizontalSlowness><value>17.163973537953176</value></horizontalSlowness><backazimuth><value>306.48915758138094</value></backazimuth><phaseHint>P</phaseHint><evaluationMode>automatic</evaluationMode><comment><text>22.9211637806492</text><id>DFX:rectilinearity</id></comment><comment><text>10.249279020041486</text><id>SNR</id></comment></pick><pick publicID="de.gempa.tb1.Pick/20250412032758.561657.121621"><time><value>2025-04-12T03:27:53.898393Z</value></time><waveformID networkCode="CX" stationCode="PB03" channelCode="HHZ"/><filterID>ITAPER(4)&gt;&gt;BW(4,4,20)</filterID><methodID>AIC</methodID><horizontalSlowness><value>12.578795064552045</value></horizontalSlowness><backazimuth><value>150.16664671999393</value></backazimuth><phaseHint>P</phaseHint><evaluationMode>automatic</evaluationMode><comment><text>6.293938076819329</text><id>DFX:rectilinearity</id></comment><comment><text>13.761522197251166</text><id>SNR</id></comment></pick><pick publicID="de.gempa.tb1.Pick/20250412032800.768538.121623"><time><value>2025-04-12T03:27:53.268394Z</value></time><waveformID networkCode="CX" stationCode="PB07" channelCode="HHZ"/><filterID>ITAPER(4)&gt;&gt;BW(4,4,20)</filterID><methodID>AIC</methodID><horizontalSlowness><value>23.584767943131826</value></horizontalSlowness><backazimuth><value>299.7573595089026</value></backazimuth><phaseHint>P</phaseHint><evaluationMode>automatic</evaluationMode><comment><text>224.2882717536858</text><id>DFX:rectilinearity</id></comment><comment><text>13.397260947944476</text><id>SNR</id></comment></pick><pick publicID="de.gempa.tb1.Pick/20250412032808.657173.121625"><time><value>2025-04-12T03:28:03.548393Z</value></time><waveformID networkCode="CX" stationCode="PB01" channelCode="HHN"/><filterID>ITAPER(2)&gt;&gt;BW(3,3,20)</filterID><methodID>L2-AIC-GRID</methodID><horizontalSlowness><value>22.69022350058411</value></horizontalSlowness><backazimuth><value>339.10560610913296</value></backazimuth><phaseHint>S</phaseHint><evaluationMode>automatic</evaluationMode><comment><text>53.90778546087618</text><id>DFX:rectilinearity</id></comment><comment><text>de.gempa.tb1.Pick/20250412032753.498817.121615</text><id>RefPickID</id></comment><comment><text>12.03800307574556</text><id>SNR</id></comment></pick><pick publicID="de.gempa.tb1.Pick/20250412032818.584231.121626"><time><value>2025-04-12T03:28:09.848394Z</value></time><waveformID networkCode="CX" stationCode="PB02" channelCode="HHN"/><filterID>ITAPER(2)&gt;&gt;BW(3,3,20)</filterID><methodID>L2-AIC-GRID</methodID><horizontalSlowness><value>7.697727876123068</value></horizontalSlowness><backazimuth><value>6.25086116027731</value></backazimuth><phaseHint>S</phaseHint><evaluationMode>automatic</evaluationMode><comment><text>97.97424758972736</text><id>DFX:rectilinearity</id></comment><comment><text>de.gempa.tb1.Pick/20250412032756.567048.121619</text><id>RefPickID</id></comment><comment><text>8.490531688769217</text><id>SNR</id></comment></pick><pick publicID="de.gempa.tb1.Pick/20250412032821.567511.121627"><time><value>2025-04-12T03:28:12.758393Z</value></time><waveformID networkCode="CX" stationCode="PB03" channelCode="HHN"/><filterID>ITAPER(2)&gt;&gt;BW(3,3,20)</filterID><methodID>L2-AIC-GRID</methodID><horizontalSlowness><value>18.225864973286683</value></horizontalSlowness><backazimuth><value>186.29472513731318</value></backazimuth><phaseHint>S</phaseHint><evaluationMode>automatic</evaluationMode><comment><text>9.089849052487862</text><id>DFX:rectilinearity</id></comment><comment><text>de.gempa.tb1.Pick/20250412032758.561657.121621</text><id>RefPickID</id></comment><comment><text>5.400052508790136</text><id>SNR</id></comment></pick><pick publicID="de.gempa.tb1.Pick/20250412032822.744338.121628"><time><value>2025-04-12T03:28:11.798394Z</value></time><waveformID networkCode="CX" stationCode="PB07" channelCode="HHN"/><filterID>ITAPER(2)&gt;&gt;BW(3,3,20)</filterID><methodID>L2-AIC-GRID</methodID><horizontalSlowness><value>23.183864046585033</value></horizontalSlowness><backazimuth><value>303.9447034431288</value></backazimuth><phaseHint>S</phaseHint><evaluationMode>automatic</evaluationMode><comment><text>429.20144164431656</text><id>DFX:rectilinearity</id></comment><comment><text>de.gempa.tb1.Pick/20250412032800.768538.121623</text><id>RefPickID</id></comment><comment><text>5.908938478560808</text><id>SNR</id></comment></pick><origin publicID="de.gempa.tb1.Origin/20250412032822.748374.72718"><time><value>2025-04-12T03:27:29.438031Z</value><uncertainty>1.2957019805908203</uncertainty></time><latitude><value>-21.234506607055664</value><uncertainty>9.152482986450195</uncertainty></latitude><longitude><value>-68.68412780761719</value><uncertainty>19.663433074951172</uncertainty></longitude><depth><value>112.38916015625</value><uncertainty>20.805570602416992</uncertainty></depth><depthType>from location</depthType><methodID>LOCSAT</methodID><earthModelID>iasp91_scanloc</earthModelID><quality><associatedPhaseCount>8</associatedPhaseCount><usedPhaseCount>8</usedPhaseCount><associatedStationCount>4</associatedStationCount><usedStationCount>4</usedStationCount><depthPhaseCount>0</depthPhaseCount><standardError>0.07787930188445293</standardError><azimuthalGap>306.5466003417969</azimuthalGap><maximumDistance>1.2826212644577026</maximumDistance><minimumDistance>0.7736422419548035</minimumDistance><medianDistance>1.2219839096069336</medianDistance></quality><uncertainty><minHorizontalUncertainty>15.538935661315918</minHorizontalUncertainty><maxHorizontalUncertainty>43.8367919921875</maxHorizontalUncertainty><azimuthMaxHorizontalUncertainty>107.00640869140625</azimuthMaxHorizontalUncertainty><preferredDescription>horizontal uncertainty</preferredDescription></uncertainty><evaluationMode>automatic</evaluationMode><comment><text>0.59</text><id>mismatchScore</id></comment><arrival><pickID>de.gempa.tb1.Pick/20250412032753.498817.121615</pickID><phase>P</phase><azimuth>284.09747314453125</azimuth><distance>0.7736422419548035</distance><timeResidual>0.05622482299804688</timeResidual><timeUsed>true</timeUsed><horizontalSlownessUsed>false</horizontalSlownessUsed><backazimuthUsed>false</backazimuthUsed><weight>1</weight></arrival><arrival><pickID>de.gempa.tb1.Pick/20250412032756.567048.121619</pickID><phase>P</phase><azimuth>265.4908142089844</azimuth><distance>1.1334586143493652</distance><timeResidual>-0.07738113403320312</timeResidual><timeUsed>true</timeUsed><horizontalSlownessUsed>false</horizontalSlownessUsed><backazimuthUsed>false</backazimuthUsed><weight>1</weight></arrival><arrival><pickID>de.gempa.tb1.Pick/20250412032758.561657.121621</pickID><phase>P</phase><azimuth>230.6440734863281</azimuth><distance>1.2826212644577026</distance><timeResidual>-0.0084991455078125</timeResidual><timeUsed>true</timeUsed><horizontalSlownessUsed>false</horizontalSlownessUsed><backazimuthUsed>false</backazimuthUsed><weight>1</weight></arrival><arrival><pickID>de.gempa.tb1.Pick/20250412032800.768538.121623</pickID><phase>P</phase><azimuth>246.15533447265625</azimuth><distance>1.2219839096069336</distance><timeResidual>0.037639617919921875</timeResidual><timeUsed>true</timeUsed><horizontalSlownessUsed>false</horizontalSlownessUsed><backazimuthUsed>false</backazimuthUsed><weight>1</weight></arrival><arrival><pickID>de.gempa.tb1.Pick/20250412032808.657173.121625</pickID><phase>S</phase><azimuth>284.09747314453125</azimuth><distance>0.7736422419548035</distance><timeResidual>-0.0109100341796875</timeResidual><timeUsed>true</timeUsed><horizontalSlownessUsed>false</horizontalSlownessUsed><backazimuthUsed>false</backazimuthUsed><weight>1</weight></arrival><arrival><pickID>de.gempa.tb1.Pick/20250412032818.584231.121626</pickID><phase>S</phase><azimuth>265.4908142089844</azimuth><distance>1.1334586143493652</distance><timeResidual>-0.067535400390625</timeResidual><timeUsed>true</timeUsed><horizontalSlownessUsed>false</horizontalSlownessUsed><backazimuthUsed>false</backazimuthUsed><weight>1</weight></arrival><arrival><pickID>de.gempa.tb1.Pick/20250412032821.567511.121627</pickID><phase>S</phase><azimuth>230.6440734863281</azimuth><distance>1.2826212644577026</distance><timeResidual>-0.08893203735351562</timeResidual><timeUsed>true</timeUsed><horizontalSlownessUsed>false</horizontalSlownessUsed><backazimuthUsed>false</backazimuthUsed><weight>1</weight></arrival><arrival><pickID>de.gempa.tb1.Pick/20250412032822.744338.121628</pickID><phase>S</phase><azimuth>246.15533447265625</azimuth><distance>1.2219839096069336</distance><timeResidual>0.1590423583984375</timeResidual><timeUsed>true</timeUsed><horizontalSlownessUsed>false</horizontalSlownessUsed><backazimuthUsed>false</backazimuthUsed><weight>1</weight></arrival></origin><event publicID="gempa2025hevd"><preferredOriginID>de.gempa.tb1.Origin/20250412032822.748374.72718</preferredOriginID><typeCertainty>suspected</typeCertainty><description><text>Chile-Bolivia Border Region</text><type>region name</type></description><originReference>de.gempa.tb1.Origin/20250412032822.748374.72718</originReference></event></EventParameters></seiscomp>