<?xml version="1.0" encoding="UTF-8"?>
<seiscomp xmlns="http://geofon.gfz-potsdam.de/ns/seiscomp3-schema/0.13" version="0.13"><EventParameters><pick publicID="de.gempa.tb1.Pick/20250412205253.48179.126675"><time><value>2025-04-12T20:52:44.96Z</value></time><waveformID networkCode="CX" stationCode="PB09" channelCode="HHZ"/><filterID>ITAPER(4)&gt;&gt;BW(4,4,20)</filterID><methodID>AIC</methodID><horizontalSlowness><value>8.294804168875089</value></horizontalSlowness><backazimuth><value>9.917731245723644</value></backazimuth><phaseHint>P</phaseHint><evaluationMode>automatic</evaluationMode><comment><text>16.79955792122508</text><id>DFX:rectilinearity</id></comment><comment><text>19.298015977179315</text><id>SNR</id></comment></pick><pick publicID="de.gempa.tb1.Pick/20250412205254.62184.126677"><time><value>2025-04-12T20:52:46.698393Z</value></time><waveformID networkCode="CX" stationCode="PB01" channelCode="HHZ"/><filterID>ITAPER(4)&gt;&gt;BW(4,4,20)</filterID><methodID>AIC</methodID><horizontalSlowness><value>22.089992312192244</value></horizontalSlowness><backazimuth><value>166.10758747147852</value></backazimuth><phaseHint>P</phaseHint><evaluationMode>automatic</evaluationMode><comment><text>32.954567385464514</text><id>DFX:rectilinearity</id></comment><comment><text>56.12516855519824</text><id>SNR</id></comment></pick><pick publicID="de.gempa.tb1.Pick/20250412205254.665767.126679"><time><value>2025-04-12T20:52:49.928393Z</value></time><waveformID networkCode="CX" stationCode="PB07" channelCode="HHZ"/><filterID>ITAPER(4)&gt;&gt;BW(4,4,20)</filterID><methodID>AIC</methodID><horizontalSlowness><value>23.36391784698308</value></horizontalSlowness><backazimuth><value>129.8802299534746</value></backazimuth><phaseHint>P</phaseHint><evaluationMode>automatic</evaluationMode><comment><text>309.21263695564846</text><id>DFX:rectilinearity</id></comment><comment><text>44.503699233038354</text><id>SNR</id></comment></pick><pick publicID="de.gempa.tb1.Pick/20250412205256.561798.126681"><time><value>2025-04-12T20:52:49.948393Z</value></time><waveformID networkCode="CX" stationCode="PB02" channelCode="HHZ"/><filterID>ITAPER(4)&gt;&gt;BW(4,4,20)</filterID><methodID>AIC</methodID><horizontalSlowness><value>8.847868016870283</value></horizontalSlowness><backazimuth><value>5.568873425722501</value></backazimuth><phaseHint>P</phaseHint><evaluationMode>automatic</evaluationMode><comment><text>39.491279139891617</text><id>DFX:rectilinearity</id></comment><comment><text>52.10735472236272</text><id>SNR</id></comment></pick><pick publicID="de.gempa.tb1.Pick/20250412205259.256538.126683"><time><value>2025-04-12T20:52:51.938394Z</value></time><waveformID networkCode="CX" stationCode="PB08" channelCode="HHZ"/><filterID>ITAPER(4)&gt;&gt;BW(4,4,20)</filterID><methodID>AIC</methodID><horizontalSlowness><value>16.005302374030922</value></horizontalSlowness><backazimuth><value>206.71177815675603</value></backazimuth><phaseHint>P</phaseHint><evaluationMode>automatic</evaluationMode><comment><text>25.65376801955798</text><id>DFX:rectilinearity</id></comment><comment><text>13.341206662173416</text><id>SNR</id></comment></pick><pick publicID="de.gempa.tb1.Pick/20250412205301.22086.126685"><time><value>2025-04-12T20:52:54.159999Z</value></time><waveformID networkCode="CX" stationCode="PATCX" channelCode="HHZ"/><filterID>ITAPER(4)&gt;&gt;BW(4,4,20)</filterID><methodID>AIC</methodID><horizontalSlowness><value>23.201065637591277</value></horizontalSlowness><backazimuth><value>75.34760204797965</value></backazimuth><phaseHint>P</phaseHint><evaluationMode>automatic</evaluationMode><comment><text>395.4940566321494</text><id>DFX:rectilinearity</id></comment><comment><text>8.542723025443664</text><id>SNR</id></comment></pick><pick publicID="de.gempa.tb1.Pick/20250412205301.829483.126687"><time><value>2025-04-12T20:52:52.038394Z</value></time><waveformID networkCode="CX" stationCode="PB06" channelCode="HHZ"/><filterID>ITAPER(4)&gt;&gt;BW(4,4,20)</filterID><methodID>AIC</methodID><horizontalSlowness><value>10.371212537188729</value></horizontalSlowness><backazimuth><value>318.6962984927394</value></backazimuth><phaseHint>P</phaseHint><evaluationMode>automatic</evaluationMode><comment><text>65.43678556665193</text><id>DFX:rectilinearity</id></comment><comment><text>8.161197183907595</text><id>SNR</id></comment></pick><pick publicID="de.gempa.tb1.Pick/20250412205308.595089.126689"><time><value>2025-04-12T20:53:01.35Z</value></time><waveformID networkCode="CX" stationCode="PSGCX" channelCode="HHZ"/><filterID>ITAPER(4)&gt;&gt;BW(4,4,20)</filterID><methodID>AIC</methodID><horizontalSlowness><value>6.304035316506973</value></horizontalSlowness><backazimuth><value>340.19085236102387</value></backazimuth><phaseHint>P</phaseHint><evaluationMode>automatic</evaluationMode><comment><text>20.547133325614556</text><id>DFX:rectilinearity</id></comment><comment><text>16.113983469777086</text><id>SNR</id></comment></pick><pick publicID="de.gempa.tb1.Pick/20250412205314.650003.126691"><time><value>2025-04-12T20:53:06.498393Z</value></time><waveformID networkCode="CX" stationCode="PB01" channelCode="HHN"/><filterID>ITAPER(2)&gt;&gt;BW(3,3,20)</filterID><methodID>L2-AIC-GRID</methodID><horizontalSlowness><value>21.873063285041365</value></horizontalSlowness><backazimuth><value>9.390392492543555</value></backazimuth><phaseHint>S</phaseHint><evaluationMode>automatic</evaluationMode><comment><text>577.6672539209369</text><id>DFX:rectilinearity</id></comment><comment><text>de.gempa.tb1.Pick/20250412205254.62184.126677</text><id>RefPickID</id></comment><comment><text>7.967795279345705</text><id>SNR</id></comment></pick><pick publicID="de.gempa.tb1.Pick/20250412205317.908132.126694"><time><value>2025-04-12T20:53:02.94Z</value></time><waveformID networkCode="CX" stationCode="PB09" channelCode="HHN"/><filterID>ITAPER(2)&gt;&gt;BW(3,3,20)</filterID><methodID>L2-AIC-GRID</methodID><horizontalSlowness><value>20.016892983739815</value></horizontalSlowness><backazimuth><value>304.1822125369563</value></backazimuth><phaseHint>S</phaseHint><evaluationMode>automatic</evaluationMode><comment><text>211.02633739583305</text><id>DFX:rectilinearity</id></comment><comment><text>de.gempa.tb1.Pick/20250412205253.48179.126675</text><id>RefPickID</id></comment><comment><text>5.754861759508684</text><id>SNR</id></comment></pick><pick publicID="de.gempa.tb1.Pick/20250412205320.518415.126695"><time><value>2025-04-12T20:53:11.668393Z</value></time><waveformID networkCode="CX" stationCode="PB02" channelCode="HHN"/><filterID>ITAPER(2)&gt;&gt;BW(3,3,20)</filterID><methodID>L2-AIC-GRID</methodID><horizontalSlowness><value>18.819493747595423</value></horizontalSlowness><backazimuth><value>5.584334398362756</value></backazimuth><phaseHint>S</phaseHint><evaluationMode>automatic</evaluationMode><comment><text>3944.081626793789</text><id>DFX:rectilinearity</id></comment><comment><text>de.gempa.tb1.Pick/20250412205256.561798.126681</text><id>RefPickID</id></comment><comment><text>8.919468079287652</text><id>SNR</id></comment></pick><pick publicID="de.gempa.tb1.Pick/20250412205320.601785.126696"><time><value>2025-04-12T20:53:15.408394Z</value></time><waveformID networkCode="CX" stationCode="PB06" channelCode="HHN"/><filterID>ITAPER(2)&gt;&gt;BW(3,3,20)</filterID><methodID>L2-AIC-GRID</methodID><horizontalSlowness><value>19.306573426605265</value></horizontalSlowness><backazimuth><value>69.8976317397817</value></backazimuth><phaseHint>S</phaseHint><evaluationMode>automatic</evaluationMode><comment><text>56.63106194308132</text><id>DFX:rectilinearity</id></comment><comment><text>de.gempa.tb1.Pick/20250412205301.829483.126687</text><id>RefPickID</id></comment><comment><text>9.611063561801295</text><id>SNR</id></comment></pick><pick publicID="de.gempa.tb1.Pick/20250412205325.276343.126699"><time><value>2025-04-12T20:53:18.999999Z</value></time><waveformID networkCode="CX" stationCode="PATCX" channelCode="HHN"/><filterID>ITAPER(2)&gt;&gt;BW(3,3,20)</filterID><methodID>L2-AIC-GRID</methodID><horizontalSlowness><value>22.992041436057853</value></horizontalSlowness><backazimuth><value>82.43877349672717</value></backazimuth><phaseHint>S</phaseHint><evaluationMode>automatic</evaluationMode><comment><text>525.7397580725294</text><id>DFX:rectilinearity</id></comment><comment><text>de.gempa.tb1.Pick/20250412205301.22086.126685</text><id>RefPickID</id></comment><comment><text>5.644873149494333</text><id>SNR</id></comment></pick><pick publicID="de.gempa.tb1.Pick/20250412205331.971683.126705"><time><value>2025-04-12T20:53:11.708393Z</value></time><waveformID networkCode="CX" stationCode="PB07" channelCode="HHN"/><filterID>ITAPER(2)&gt;&gt;BW(3,3,20)</filterID><methodID>L2-AIC-GRID</methodID><horizontalSlowness><value>22.792329301691385</value></horizontalSlowness><backazimuth><value>192.38500658513829</value></backazimuth><phaseHint>S</phaseHint><evaluationMode>automatic</evaluationMode><comment><text>19219.989346627386</text><id>DFX:rectilinearity</id></comment><comment><text>de.gempa.tb1.Pick/20250412205254.665767.126679</text><id>RefPickID</id></comment><comment><text>12.39106017424727</text><id>SNR</id></comment></pick><origin publicID="de.gempa.tb1.Origin/20250412205331.977429.92097"><time><value>2025-04-12T20:52:21.587358Z</value><uncertainty>0.8378749489784241</uncertainty></time><latitude><value>-21.511123657226562</value><uncertainty>4.615930080413818</uncertainty></latitude><longitude><value>-68.45478057861328</value><uncertainty>9.785810470581055</uncertainty></longitude><depth><value>151.23553466796875</value><uncertainty>9.420100212097168</uncertainty></depth><depthType>from location</depthType><methodID>LOCSAT</methodID><earthModelID>iasp91_scanloc</earthModelID><quality><associatedPhaseCount>14</associatedPhaseCount><usedPhaseCount>14</usedPhaseCount><associatedStationCount>8</associatedStationCount><usedStationCount>8</usedStationCount><depthPhaseCount>0</depthPhaseCount><standardError>0.39237034690169925</standardError><azimuthalGap>246.597412109375</azimuthalGap><maximumDistance>2.4637351036071777</maximumDistance><minimumDistance>0.7853506803512573</minimumDistance><medianDistance>1.35636568069458</medianDistance></quality><uncertainty><minHorizontalUncertainty>9.5827054977417</minHorizontalUncertainty><maxHorizontalUncertainty>21.125329971313477</maxHorizontalUncertainty><azimuthMaxHorizontalUncertainty>82.45652770996094</azimuthMaxHorizontalUncertainty><preferredDescription>horizontal uncertainty</preferredDescription></uncertainty><evaluationMode>automatic</evaluationMode><evaluationStatus>confirmed</evaluationStatus><comment><text>0.14</text><id>mismatchScore</id></comment><comment><text>mismatchScore</text><id>scevalMethod</id></comment><arrival><pickID>de.gempa.tb1.Pick/20250412205253.48179.126675</pickID><phase>P</phase><azimuth>248.6669921875</azimuth><distance>0.7853506803512573</distance><timeResidual>0.16808128356933594</timeResidual><timeUsed>true</timeUsed><horizontalSlownessUsed>false</horizontalSlownessUsed><backazimuthUsed>false</backazimuthUsed><weight>1</weight></arrival><arrival><pickID>de.gempa.tb1.Pick/20250412205254.62184.126677</pickID><phase>P</phase><azimuth>295.61358642578125</azimuth><distance>1.0697039365768433</distance><timeResidual>-0.3713111877441406</timeResidual><timeUsed>true</timeUsed><horizontalSlownessUsed>false</horizontalSlownessUsed><backazimuthUsed>false</backazimuthUsed><weight>1</weight></arrival><arrival><pickID>de.gempa.tb1.Pick/20250412205254.665767.126679</pickID><phase>P</phase><azimuth>260.5899353027344</azimuth><distance>1.3490663766860962</distance><timeResidual>0.2358970642089844</timeResidual><timeUsed>true</timeUsed><horizontalSlownessUsed>false</horizontalSlownessUsed><backazimuthUsed>false</backazimuthUsed><weight>1</weight></arrival><arrival><pickID>de.gempa.tb1.Pick/20250412205256.561798.126681</pickID><phase>P</phase><azimuth>277.80963134765625</azimuth><distance>1.35636568069458</distance><timeResidual>0.18016433715820312</timeResidual><timeUsed>true</timeUsed><horizontalSlownessUsed>false</horizontalSlownessUsed><backazimuthUsed>false</backazimuthUsed><weight>1</weight></arrival><arrival><pickID>de.gempa.tb1.Pick/20250412205259.256538.126683</pickID><phase>P</phase><azimuth>334.2613830566406</azimuth><distance>1.5116839408874512</distance><timeResidual>0.569387435913086</timeResidual><timeUsed>true</timeUsed><horizontalSlownessUsed>false</horizontalSlownessUsed><backazimuthUsed>false</backazimuthUsed><weight>1</weight></arrival><arrival><pickID>de.gempa.tb1.Pick/20250412205301.22086.126685</pickID><phase>P</phase><azimuth>293.12799072265625</azimuth><distance>1.7273848056793213</distance><timeResidual>0.4684314727783203</timeResidual><timeUsed>true</timeUsed><horizontalSlownessUsed>false</horizontalSlownessUsed><backazimuthUsed>false</backazimuthUsed><weight>1</weight></arrival><arrival><pickID>de.gempa.tb1.Pick/20250412205301.829483.126687</pickID><phase>P</phase><azimuth>220.85879516601562</azimuth><distance>1.5769115686416626</distance><timeResidual>-0.0031261444091796875</timeResidual><timeUsed>true</timeUsed><horizontalSlownessUsed>false</horizontalSlownessUsed><backazimuthUsed>false</backazimuthUsed><weight>1</weight></arrival><arrival><pickID>de.gempa.tb1.Pick/20250412205308.595089.126689</pickID><phase>P</phase><azimuth>320.3205871582031</azimuth><distance>2.4637351036071777</distance><timeResidual>-0.9815902709960938</timeResidual><timeUsed>true</timeUsed><horizontalSlownessUsed>false</horizontalSlownessUsed><backazimuthUsed>false</backazimuthUsed><weight>1</weight></arrival><arrival><pickID>de.gempa.tb1.Pick/20250412205314.650003.126691</pickID><phase>S</phase><azimuth>295.61358642578125</azimuth><distance>1.0697039365768433</distance><timeResidual>-0.38927268981933594</timeResidual><timeUsed>true</timeUsed><horizontalSlownessUsed>false</horizontalSlownessUsed><backazimuthUsed>false</backazimuthUsed><weight>1</weight></arrival><arrival><pickID>de.gempa.tb1.Pick/20250412205317.908132.126694</pickID><phase>S</phase><azimuth>248.6669921875</azimuth><distance>0.7853506803512573</distance><timeResidual>0.11844253540039062</timeResidual><timeUsed>true</timeUsed><horizontalSlownessUsed>false</horizontalSlownessUsed><backazimuthUsed>false</backazimuthUsed><weight>1</weight></arrival><arrival><pickID>de.gempa.tb1.Pick/20250412205320.518415.126695</pickID><phase>S</phase><azimuth>277.80963134765625</azimuth><distance>1.35636568069458</distance><timeResidual>-0.039928436279296875</timeResidual><timeUsed>true</timeUsed><horizontalSlownessUsed>false</horizontalSlownessUsed><backazimuthUsed>false</backazimuthUsed><weight>1</weight></arrival><arrival><pickID>de.gempa.tb1.Pick/20250412205320.601785.126696</pickID><phase>S</phase><azimuth>220.85879516601562</azimuth><distance>1.5769115686416626</distance><timeResidual>-0.36486053466796875</timeResidual><timeUsed>true</timeUsed><horizontalSlownessUsed>false</horizontalSlownessUsed><backazimuthUsed>false</backazimuthUsed><weight>1</weight></arrival><arrival><pickID>de.gempa.tb1.Pick/20250412205325.276343.126699</pickID><phase>S</phase><azimuth>293.12799072265625</azimuth><distance>1.7273848056793213</distance><timeResidual>0.2746696472167969</timeResidual><timeUsed>true</timeUsed><horizontalSlownessUsed>false</horizontalSlownessUsed><backazimuthUsed>false</backazimuthUsed><weight>1</weight></arrival><arrival><pickID>de.gempa.tb1.Pick/20250412205331.971683.126705</pickID><phase>S</phase><azimuth>260.5899353027344</azimuth><distance>1.3490663766860962</distance><timeResidual>0.13509559631347656</timeResidual><timeUsed>true</timeUsed><horizontalSlownessUsed>false</horizontalSlownessUsed><backazimuthUsed>false</backazimuthUsed><weight>1</weight></arrival><magnitude publicID="de.gempa.tb1.Magnitude/20250412205335.939582.281704"><magnitude><value>2.467703215874737</value></magnitude><type>M</type><methodID>weighted average</methodID><stationCount>4</stationCount></magnitude></origin><event publicID="gempa2025hgdz"><preferredOriginID>de.gempa.tb1.Origin/20250412205331.977429.92097</preferredOriginID><preferredMagnitudeID>de.gempa.tb1.Magnitude/20250412205335.939582.281704</preferredMagnitudeID><description><text>Chile-Bolivia Border Region</text><type>region name</type></description><originReference>de.gempa.tb1.Origin/20250412205331.977429.92097</originReference></event></EventParameters></seiscomp>