<?xml version="1.0" encoding="UTF-8"?>
<seiscomp xmlns="http://geofon.gfz-potsdam.de/ns/seiscomp3-schema/0.13" version="0.13"><EventParameters><pick publicID="de.gempa.tb1.Pick/20250413154712.56264.132194"><time><value>2025-04-13T15:47:05.088393Z</value></time><waveformID networkCode="CX" stationCode="PB06" channelCode="HHZ"/><filterID>ITAPER(4)&gt;&gt;BW(4,4,20)</filterID><methodID>AIC</methodID><horizontalSlowness><value>20.48874803309763</value></horizontalSlowness><backazimuth><value>138.55368191901061</value></backazimuth><phaseHint>P</phaseHint><evaluationMode>automatic</evaluationMode><comment><text>94.03888516852206</text><id>DFX:rectilinearity</id></comment><comment><text>19.325666555451782</text><id>SNR</id></comment></pick><pick publicID="de.gempa.tb1.Pick/20250413154714.518923.132196"><time><value>2025-04-13T15:47:10.03Z</value></time><waveformID networkCode="CX" stationCode="PB19" channelCode="HHZ"/><filterID>ITAPER(4)&gt;&gt;BW(4,4,20)</filterID><methodID>AIC</methodID><horizontalSlowness><value>20.678973939398055</value></horizontalSlowness><backazimuth><value>3.652986876705768</value></backazimuth><phaseHint>P</phaseHint><evaluationMode>automatic</evaluationMode><comment><text>15.91471791389812</text><id>DFX:rectilinearity</id></comment><comment><text>7.847787593126746</text><id>SNR</id></comment></pick><pick publicID="de.gempa.tb1.Pick/20250413154719.550482.132198"><time><value>2025-04-13T15:47:10.618393Z</value></time><waveformID networkCode="CX" stationCode="PB03" channelCode="HHZ"/><filterID>ITAPER(4)&gt;&gt;BW(4,4,20)</filterID><methodID>AIC</methodID><horizontalSlowness><value>18.18028608183495</value></horizontalSlowness><backazimuth><value>200.41371979197396</value></backazimuth><phaseHint>P</phaseHint><evaluationMode>automatic</evaluationMode><comment><text>15.679554537999477</text><id>DFX:rectilinearity</id></comment><comment><text>11.975626690594709</text><id>SNR</id></comment></pick><pick publicID="de.gempa.tb1.Pick/20250413154720.998951.132200"><time><value>2025-04-13T15:47:14.468394Z</value></time><waveformID networkCode="CX" stationCode="PB07" channelCode="HHZ"/><filterID>ITAPER(4)&gt;&gt;BW(4,4,20)</filterID><methodID>AIC</methodID><horizontalSlowness><value>22.384656042674955</value></horizontalSlowness><backazimuth><value>331.48570309463543</value></backazimuth><phaseHint>P</phaseHint><evaluationMode>automatic</evaluationMode><comment><text>169.85853486289594</text><id>DFX:rectilinearity</id></comment><comment><text>13.843166867855984</text><id>SNR</id></comment></pick><pick publicID="de.gempa.tb1.Pick/20250413154724.225696.132204"><time><value>2025-04-13T15:47:11.89Z</value></time><waveformID networkCode="CX" stationCode="PB09" channelCode="HHZ"/><filterID>ITAPER(4)&gt;&gt;BW(4,4,20)</filterID><methodID>AIC</methodID><horizontalSlowness><value>17.46865254905439</value></horizontalSlowness><backazimuth><value>262.533014545504</value></backazimuth><phaseHint>P</phaseHint><evaluationMode>automatic</evaluationMode><comment><text>16.331886947537214</text><id>DFX:rectilinearity</id></comment><comment><text>18.469708726414218</text><id>SNR</id></comment></pick><pick publicID="de.gempa.tb1.Pick/20250413154725.559367.132208"><time><value>2025-04-13T15:47:17.768393Z</value></time><waveformID networkCode="CX" stationCode="PB06" channelCode="HHN"/><filterID>ITAPER(2)&gt;&gt;BW(3,3,20)</filterID><methodID>L2-AIC-GRID</methodID><horizontalSlowness><value>15.878831654929755</value></horizontalSlowness><backazimuth><value>135.09503359975108</value></backazimuth><phaseHint>S</phaseHint><evaluationMode>automatic</evaluationMode><comment><text>129.00165678042131</text><id>DFX:rectilinearity</id></comment><comment><text>de.gempa.tb1.Pick/20250413154712.56264.132194</text><id>RefPickID</id></comment><comment><text>12.80009761477478</text><id>SNR</id></comment></pick><pick publicID="de.gempa.tb1.Pick/20250413154732.52528.132209"><time><value>2025-04-13T15:47:26.15Z</value></time><waveformID networkCode="CX" stationCode="PB19" channelCode="HHN"/><filterID>ITAPER(2)&gt;&gt;BW(3,3,20)</filterID><methodID>L2-AIC-GRID</methodID><horizontalSlowness><value>22.502946963265686</value></horizontalSlowness><backazimuth><value>271.4894848564852</value></backazimuth><phaseHint>S</phaseHint><evaluationMode>automatic</evaluationMode><comment><text>28.61944367327618</text><id>DFX:rectilinearity</id></comment><comment><text>de.gempa.tb1.Pick/20250413154714.518923.132196</text><id>RefPickID</id></comment><comment><text>6.745873168921946</text><id>SNR</id></comment></pick><origin publicID="de.gempa.tb1.Origin/20250413154734.510605.113957"><time><value>2025-04-13T15:46:49.348708Z</value><uncertainty>1.0583776235580444</uncertainty></time><latitude><value>-22.936256408691406</value><uncertainty>5.995269298553467</uncertainty></latitude><longitude><value>-69.21651458740234</value><uncertainty>24.62562370300293</uncertainty></longitude><depth><value>108.08404541015625</value><uncertainty>12.268574714660645</uncertainty></depth><depthType>from location</depthType><methodID>LOCSAT</methodID><earthModelID>iasp91_scanloc</earthModelID><quality><associatedPhaseCount>7</associatedPhaseCount><usedPhaseCount>7</usedPhaseCount><associatedStationCount>5</associatedStationCount><usedStationCount>5</usedStationCount><depthPhaseCount>0</depthPhaseCount><standardError>0.1301569151079889</standardError><azimuthalGap>185.21827697753906</azimuthalGap><maximumDistance>1.3540971279144287</maximumDistance><minimumDistance>0.40014222264289856</minimumDistance><medianDistance>0.9664739370346069</medianDistance></quality><uncertainty><minHorizontalUncertainty>8.6987886428833</minHorizontalUncertainty><maxHorizontalUncertainty>53.65098571777344</maxHorizontalUncertainty><azimuthMaxHorizontalUncertainty>79.69874572753906</azimuthMaxHorizontalUncertainty><preferredDescription>horizontal uncertainty</preferredDescription></uncertainty><evaluationMode>automatic</evaluationMode><evaluationStatus>confirmed</evaluationStatus><comment><text>0.39</text><id>mismatchScore</id></comment><comment><text>mismatchScore</text><id>scevalMethod</id></comment><arrival><pickID>de.gempa.tb1.Pick/20250413154712.56264.132194</pickID><phase>P</phase><azimuth>304.9073486328125</azimuth><distance>0.40014222264289856</distance><timeResidual>-0.2990303039550781</timeResidual><timeUsed>true</timeUsed><horizontalSlownessUsed>false</horizontalSlownessUsed><backazimuthUsed>false</backazimuthUsed><weight>1</weight></arrival><arrival><pickID>de.gempa.tb1.Pick/20250413154714.518923.132196</pickID><phase>P</phase><azimuth>184.02586364746094</azimuth><distance>0.9664739370346069</distance><timeResidual>-0.03619384765625</timeResidual><timeUsed>true</timeUsed><horizontalSlownessUsed>false</horizontalSlownessUsed><backazimuthUsed>false</backazimuthUsed><weight>1</weight></arrival><arrival><pickID>de.gempa.tb1.Pick/20250413154719.550482.132198</pickID><phase>P</phase><azimuth>330.5771179199219</azimuth><distance>1.0133860111236572</distance><timeResidual>0.05660152435302734</timeResidual><timeUsed>true</timeUsed><horizontalSlownessUsed>false</horizontalSlownessUsed><backazimuthUsed>false</backazimuthUsed><weight>1</weight></arrival><arrival><pickID>de.gempa.tb1.Pick/20250413154720.998951.132200</pickID><phase>P</phase><azimuth>332.6215515136719</azimuth><distance>1.3540971279144287</distance><timeResidual>0.1166362762451172</timeResidual><timeUsed>true</timeUsed><horizontalSlownessUsed>false</horizontalSlownessUsed><backazimuthUsed>false</backazimuthUsed><weight>1</weight></arrival><arrival><pickID>de.gempa.tb1.Pick/20250413154724.225696.132204</pickID><phase>P</phase><azimuth>358.8075866699219</azimuth><distance>1.1346824169158936</distance><timeResidual>0.025403976440429691</timeResidual><timeUsed>true</timeUsed><horizontalSlownessUsed>false</horizontalSlownessUsed><backazimuthUsed>false</backazimuthUsed><weight>1</weight></arrival><arrival><pickID>de.gempa.tb1.Pick/20250413154725.559367.132208</pickID><phase>S</phase><azimuth>304.9073486328125</azimuth><distance>0.40014222264289856</distance><timeResidual>0.04493141174316406</timeResidual><timeUsed>true</timeUsed><horizontalSlownessUsed>false</horizontalSlownessUsed><backazimuthUsed>false</backazimuthUsed><weight>1</weight></arrival><arrival><pickID>de.gempa.tb1.Pick/20250413154732.52528.132209</pickID><phase>S</phase><azimuth>184.02586364746094</azimuth><distance>0.9664739370346069</distance><timeResidual>0.0915679931640625</timeResidual><timeUsed>true</timeUsed><horizontalSlownessUsed>false</horizontalSlownessUsed><backazimuthUsed>false</backazimuthUsed><weight>1</weight></arrival><magnitude publicID="de.gempa.tb1.Magnitude/20250413154752.645301.375370"><magnitude><value>1.8979854671019172</value></magnitude><type>M</type><methodID>weighted average</methodID><stationCount>3</stationCount></magnitude></origin><event publicID="gempa2025hhpu"><preferredOriginID>de.gempa.tb1.Origin/20250413154734.510605.113957</preferredOriginID><preferredMagnitudeID>de.gempa.tb1.Magnitude/20250413154752.645301.375370</preferredMagnitudeID><type>mining explosion</type><description><text>Northern Chile</text><type>region name</type></description><originReference>de.gempa.tb1.Origin/20250413154734.510605.113957</originReference></event></EventParameters></seiscomp>