<?xml version="1.0" encoding="UTF-8"?>
<seiscomp xmlns="http://geofon.gfz-potsdam.de/ns/seiscomp3-schema/0.13" version="0.13"><EventParameters><pick publicID="de.gempa.tb1.Pick/20250411183420.550629.119481"><time><value>2025-04-11T18:34:15.038393Z</value></time><waveformID networkCode="CX" stationCode="PB03" channelCode="HHZ"/><filterID>ITAPER(4)&gt;&gt;BW(4,4,20)</filterID><methodID>AIC</methodID><horizontalSlowness><value>17.127865105890258</value></horizontalSlowness><backazimuth><value>266.61486420984045</value></backazimuth><phaseHint>P</phaseHint><evaluationMode>automatic</evaluationMode><comment><text>15.355068492386739</text><id>DFX:rectilinearity</id></comment><comment><text>27.447717725210985</text><id>SNR</id></comment></pick><pick publicID="de.gempa.tb1.Pick/20250411183424.43229.119483"><time><value>2025-04-11T18:34:16.148393Z</value></time><waveformID networkCode="CX" stationCode="PB02" channelCode="HHZ"/><filterID>ITAPER(4)&gt;&gt;BW(4,4,20)</filterID><methodID>AIC</methodID><horizontalSlowness><value>21.92222322734236</value></horizontalSlowness><backazimuth><value>53.54349679829863</value></backazimuth><phaseHint>P</phaseHint><evaluationMode>automatic</evaluationMode><comment><text>43.96600291133349</text><id>DFX:rectilinearity</id></comment><comment><text>21.148359063806108</text><id>SNR</id></comment></pick><pick publicID="de.gempa.tb1.Pick/20250411183427.48549.119485"><time><value>2025-04-11T18:34:21.578393Z</value></time><waveformID networkCode="CX" stationCode="PB06" channelCode="HHZ"/><filterID>ITAPER(4)&gt;&gt;BW(4,4,20)</filterID><methodID>AIC</methodID><horizontalSlowness><value>5.469992643151314</value></horizontalSlowness><backazimuth><value>291.45460864118235</value></backazimuth><phaseHint>P</phaseHint><evaluationMode>automatic</evaluationMode><comment><text>67.58287890125784</text><id>DFX:rectilinearity</id></comment><comment><text>7.734454448571504</text><id>SNR</id></comment></pick><pick publicID="de.gempa.tb1.Pick/20250411183428.504072.119487"><time><value>2025-04-11T18:34:23.608393Z</value></time><waveformID networkCode="CX" stationCode="PB01" channelCode="HHZ"/><filterID>ITAPER(4)&gt;&gt;BW(4,4,20)</filterID><methodID>AIC</methodID><horizontalSlowness><value>21.469167803972145</value></horizontalSlowness><backazimuth><value>17.071045485130725</value></backazimuth><phaseHint>P</phaseHint><evaluationMode>automatic</evaluationMode><comment><text>20.06193356811487</text><id>DFX:rectilinearity</id></comment><comment><text>13.46548943142849</text><id>SNR</id></comment></pick><pick publicID="de.gempa.tb1.Pick/20250411183432.379924.119489"><time><value>2025-04-11T18:34:23.29Z</value></time><waveformID networkCode="CX" stationCode="PB09" channelCode="HHZ"/><filterID>ITAPER(4)&gt;&gt;BW(4,4,20)</filterID><methodID>AIC</methodID><horizontalSlowness><value>13.779406997562</value></horizontalSlowness><backazimuth><value>307.204859866016</value></backazimuth><phaseHint>P</phaseHint><evaluationMode>automatic</evaluationMode><comment><text>19.358713018125894</text><id>DFX:rectilinearity</id></comment><comment><text>30.63350637488904</text><id>SNR</id></comment></pick><pick publicID="de.gempa.tb1.Pick/20250411183446.581967.119491"><time><value>2025-04-11T18:34:38.908393Z</value></time><waveformID networkCode="CX" stationCode="PB06" channelCode="HHN"/><filterID>ITAPER(2)&gt;&gt;BW(3,3,20)</filterID><methodID>L2-AIC-GRID</methodID><horizontalSlowness><value>20.64494780603986</value></horizontalSlowness><backazimuth><value>349.3723298757314</value></backazimuth><phaseHint>S</phaseHint><evaluationMode>automatic</evaluationMode><comment><text>123.01380010406643</text><id>DFX:rectilinearity</id></comment><comment><text>de.gempa.tb1.Pick/20250411183427.48549.119485</text><id>RefPickID</id></comment><comment><text>8.860607400158</text><id>SNR</id></comment></pick><pick publicID="de.gempa.tb1.Pick/20250411183450.775673.119494"><time><value>2025-04-11T18:34:13.158396Z</value></time><waveformID networkCode="CX" stationCode="PB07" channelCode="HHZ"/><filterID>ITAPER(4)&gt;&gt;BW(4,4,20)</filterID><methodID>AIC</methodID><horizontalSlowness><value>14.374811911583343</value></horizontalSlowness><backazimuth><value>269.5965783896727</value></backazimuth><phaseHint>P</phaseHint><evaluationMode>automatic</evaluationMode><comment><text>1842.9978935917493</text><id>DFX:rectilinearity</id></comment><comment><text>118.8315749494678</text><id>SNR</id></comment></pick><origin publicID="de.gempa.tb1.Origin/20250411183451.39322.63483"><time><value>2025-04-11T18:33:58.552809Z</value><uncertainty>2.5335237979888916</uncertainty></time><latitude><value>-21.940013885498047</value><uncertainty>7.460146427154541</uncertainty></latitude><longitude><value>-70.6576919555664</value><uncertainty>15.73399257659912</uncertainty></longitude><depth><value>14.392394065856934</value><uncertainty>7.591037273406982</uncertainty></depth><depthType>from location</depthType><methodID>LOCSAT</methodID><earthModelID>iasp91_scanloc</earthModelID><quality><associatedPhaseCount>7</associatedPhaseCount><usedPhaseCount>7</usedPhaseCount><associatedStationCount>6</associatedStationCount><usedStationCount>6</usedStationCount><depthPhaseCount>0</depthPhaseCount><standardError>0.34263866380045066</standardError><azimuthalGap>281.71750259399414</azimuthalGap><maximumDistance>1.4086118936538696</maximumDistance><minimumDistance>0.7476136684417725</minimumDistance><medianDistance>1.2616097927093506</medianDistance></quality><uncertainty><minHorizontalUncertainty>10.94072151184082</minHorizontalUncertainty><maxHorizontalUncertainty>35.70444107055664</maxHorizontalUncertainty><azimuthMaxHorizontalUncertainty>69.91246032714844</azimuthMaxHorizontalUncertainty><preferredDescription>horizontal uncertainty</preferredDescription></uncertainty><evaluationMode>automatic</evaluationMode><evaluationStatus>confirmed</evaluationStatus><comment><text>0.06</text><id>mismatchScore</id></comment><comment><text>mismatchScore</text><id>scevalMethod</id></comment><arrival><pickID>de.gempa.tb1.Pick/20250411183420.550629.119481</pickID><phase>P</phase><azimuth>97.49400329589844</azimuth><distance>0.8464534282684326</distance><timeResidual>0.1145763397216797</timeResidual><timeUsed>true</timeUsed><horizontalSlownessUsed>false</horizontalSlownessUsed><backazimuthUsed>false</backazimuthUsed><weight>1</weight></arrival><arrival><pickID>de.gempa.tb1.Pick/20250411183424.43229.119483</pickID><phase>P</phase><azimuth>49.08453750610352</azimuth><distance>0.9397922158241272</distance><timeResidual>-0.42278194427490234</timeResidual><timeUsed>true</timeUsed><horizontalSlownessUsed>false</horizontalSlownessUsed><backazimuthUsed>false</backazimuthUsed><weight>1</weight></arrival><arrival><pickID>de.gempa.tb1.Pick/20250411183427.48549.119485</pickID><phase>P</phase><azimuth>127.36703491210938</azimuth><distance>1.2616097927093506</distance><timeResidual>-0.13088703155517578</timeResidual><timeUsed>true</timeUsed><horizontalSlownessUsed>false</horizontalSlownessUsed><backazimuthUsed>false</backazimuthUsed><weight>1</weight></arrival><arrival><pickID>de.gempa.tb1.Pick/20250411183428.504072.119487</pickID><phase>P</phase><azimuth>50.90484619140625</azimuth><distance>1.4086118936538696</distance><timeResidual>-0.12788009643554688</timeResidual><timeUsed>true</timeUsed><horizontalSlownessUsed>false</horizontalSlownessUsed><backazimuthUsed>false</backazimuthUsed><weight>1</weight></arrival><arrival><pickID>de.gempa.tb1.Pick/20250411183432.379924.119489</pickID><phase>P</phase><azimuth>84.05943298339844</azimuth><distance>1.3228548765182495</distance><timeResidual>0.7355985641479492</timeResidual><timeUsed>true</timeUsed><horizontalSlownessUsed>false</horizontalSlownessUsed><backazimuthUsed>false</backazimuthUsed><weight>1</weight></arrival><arrival><pickID>de.gempa.tb1.Pick/20250411183446.581967.119491</pickID><phase>S</phase><azimuth>127.36703491210938</azimuth><distance>1.2616097927093506</distance><timeResidual>-0.2277946472167969</timeResidual><timeUsed>true</timeUsed><horizontalSlownessUsed>false</horizontalSlownessUsed><backazimuthUsed>false</backazimuthUsed><weight>1</weight></arrival><arrival><pickID>de.gempa.tb1.Pick/20250411183450.775673.119494</pickID><phase>P</phase><azimuth>73.64495849609375</azimuth><distance>0.7476136684417725</distance><timeResidual>0.05878829956054688</timeResidual><timeUsed>true</timeUsed><horizontalSlownessUsed>false</horizontalSlownessUsed><backazimuthUsed>false</backazimuthUsed><weight>1</weight></arrival><magnitude publicID="de.gempa.tb1.Magnitude/20250411183451.398228.131651"><magnitude><value>2.242635002159597</value></magnitude><type>M</type><methodID>weighted average</methodID><stationCount>6</stationCount></magnitude></origin><event publicID="gempa2025hedi"><preferredOriginID>de.gempa.tb1.Origin/20250411183451.39322.63483</preferredOriginID><preferredMagnitudeID>de.gempa.tb1.Magnitude/20250411183451.398228.131651</preferredMagnitudeID><description><text>Near Coast of Northern Chile</text><type>region name</type></description><originReference>de.gempa.tb1.Origin/20250411183451.39322.63483</originReference></event></EventParameters></seiscomp>