<?xml version="1.0" encoding="UTF-8"?>
<seiscomp xmlns="http://geofon.gfz-potsdam.de/ns/seiscomp3-schema/0.13" version="0.13"><EventParameters><pick publicID="de.gempa.tb1.Pick/20250411160055.19394.118621"><time><value>2025-04-11T16:00:48.9Z</value></time><waveformID networkCode="CX" stationCode="PB10" channelCode="HHZ"/><filterID>ITAPER(4)&gt;&gt;BW(4,4,20)</filterID><methodID>AIC</methodID><horizontalSlowness><value>21.061332736989844</value></horizontalSlowness><backazimuth><value>6.870679964879173</value></backazimuth><phaseHint>P</phaseHint><evaluationMode>automatic</evaluationMode><comment><text>38.234689579782483</text><id>DFX:rectilinearity</id></comment><comment><text>17.437293546012324</text><id>SNR</id></comment></pick><pick publicID="de.gempa.tb1.Pick/20250411160101.505029.118623"><time><value>2025-04-11T16:00:55.978394Z</value></time><waveformID networkCode="CX" stationCode="PB15" channelCode="HHZ"/><filterID>ITAPER(4)&gt;&gt;BW(4,4,20)</filterID><methodID>AIC</methodID><horizontalSlowness><value>21.063974441015212</value></horizontalSlowness><backazimuth><value>111.37850401568038</value></backazimuth><phaseHint>P</phaseHint><evaluationMode>automatic</evaluationMode><comment><text>590.2725812327014</text><id>DFX:rectilinearity</id></comment><comment><text>35.186724021549416</text><id>SNR</id></comment></pick><pick publicID="de.gempa.tb1.Pick/20250411160102.544243.118625"><time><value>2025-04-11T16:00:54.648393Z</value></time><waveformID networkCode="CX" stationCode="PB06" channelCode="HHZ"/><filterID>ITAPER(4)&gt;&gt;BW(4,4,20)</filterID><methodID>AIC</methodID><horizontalSlowness><value>9.399246850825207</value></horizontalSlowness><backazimuth><value>185.01866258385058</value></backazimuth><phaseHint>P</phaseHint><evaluationMode>automatic</evaluationMode><comment><text>89.11133875952198</text><id>DFX:rectilinearity</id></comment><comment><text>45.6484040561955</text><id>SNR</id></comment></pick><pick publicID="de.gempa.tb1.Pick/20250411160102.602733.118627"><time><value>2025-04-11T16:00:58.678393Z</value></time><waveformID networkCode="CX" stationCode="PB03" channelCode="HHZ"/><filterID>ITAPER(4)&gt;&gt;BW(4,4,20)</filterID><methodID>AIC</methodID><horizontalSlowness><value>12.380513854243715</value></horizontalSlowness><backazimuth><value>243.65250557473604</value></backazimuth><phaseHint>P</phaseHint><evaluationMode>automatic</evaluationMode><comment><text>54.67073708124587</text><id>DFX:rectilinearity</id></comment><comment><text>53.03297377631802</text><id>SNR</id></comment></pick><pick publicID="de.gempa.tb1.Pick/20250411160106.199874.118629"><time><value>2025-04-11T16:00:56.43Z</value></time><waveformID networkCode="CX" stationCode="PB10" channelCode="HHN"/><filterID>ITAPER(2)&gt;&gt;BW(3,3,20)</filterID><methodID>L2-AIC-GRID</methodID><horizontalSlowness><value>20.939562769234943</value></horizontalSlowness><backazimuth><value>128.74654999954652</value></backazimuth><phaseHint>S</phaseHint><evaluationMode>automatic</evaluationMode><comment><text>2862.587637825729</text><id>DFX:rectilinearity</id></comment><comment><text>de.gempa.tb1.Pick/20250411160055.19394.118621</text><id>RefPickID</id></comment><comment><text>5.650418924253049</text><id>SNR</id></comment></pick><pick publicID="de.gempa.tb1.Pick/20250411160111.565438.118630"><time><value>2025-04-11T16:01:04.47Z</value></time><waveformID networkCode="CX" stationCode="PB19" channelCode="HHZ"/><filterID>ITAPER(4)&gt;&gt;BW(4,4,20)</filterID><methodID>AIC</methodID><horizontalSlowness><value>22.1201053797825</value></horizontalSlowness><backazimuth><value>15.460897242297477</value></backazimuth><phaseHint>P</phaseHint><evaluationMode>automatic</evaluationMode><comment><text>39.893606653035953</text><id>DFX:rectilinearity</id></comment><comment><text>15.752454157034405</text><id>SNR</id></comment></pick><pick publicID="de.gempa.tb1.Pick/20250411160115.61414.118632"><time><value>2025-04-11T16:01:07.578394Z</value></time><waveformID networkCode="CX" stationCode="PB02" channelCode="HHZ"/><filterID>ITAPER(4)&gt;&gt;BW(4,4,20)</filterID><methodID>AIC</methodID><horizontalSlowness><value>23.413812692281837</value></horizontalSlowness><backazimuth><value>282.22629620484167</value></backazimuth><phaseHint>P</phaseHint><evaluationMode>automatic</evaluationMode><comment><text>34.73003481691129</text><id>DFX:rectilinearity</id></comment><comment><text>21.239502027894034</text><id>SNR</id></comment></pick><pick publicID="de.gempa.tb1.Pick/20250411160118.124863.118634"><time><value>2025-04-11T16:01:01.938393Z</value></time><waveformID networkCode="CX" stationCode="PB07" channelCode="HHZ"/><filterID>ITAPER(4)&gt;&gt;BW(4,4,20)</filterID><methodID>AIC</methodID><horizontalSlowness><value>17.738335190058837</value></horizontalSlowness><backazimuth><value>220.32317711846036</value></backazimuth><phaseHint>P</phaseHint><evaluationMode>automatic</evaluationMode><comment><text>324.6657241945958</text><id>DFX:rectilinearity</id></comment><comment><text>89.68893633309315</text><id>SNR</id></comment></pick><pick publicID="de.gempa.tb1.Pick/20250411160118.463569.118636"><time><value>2025-04-11T16:01:08.968394Z</value></time><waveformID networkCode="CX" stationCode="PB15" channelCode="HHN"/><filterID>ITAPER(2)&gt;&gt;BW(3,3,20)</filterID><methodID>L2-AIC-GRID</methodID><horizontalSlowness><value>21.567327953888984</value></horizontalSlowness><backazimuth><value>132.15008008512385</value></backazimuth><phaseHint>S</phaseHint><evaluationMode>automatic</evaluationMode><comment><text>41532.04632001764</text><id>DFX:rectilinearity</id></comment><comment><text>de.gempa.tb1.Pick/20250411160101.505029.118623</text><id>RefPickID</id></comment><comment><text>12.060698037463563</text><id>SNR</id></comment></pick><pick publicID="de.gempa.tb1.Pick/20250411160118.550017.118637"><time><value>2025-04-11T16:01:07.27Z</value></time><waveformID networkCode="CX" stationCode="PB09" channelCode="HHZ"/><filterID>ITAPER(4)&gt;&gt;BW(4,4,20)</filterID><methodID>AIC</methodID><horizontalSlowness><value>20.079933710275277</value></horizontalSlowness><backazimuth><value>149.69896816363033</value></backazimuth><phaseHint>P</phaseHint><evaluationMode>automatic</evaluationMode><comment><text>17.00004087259358</text><id>DFX:rectilinearity</id></comment><comment><text>43.27827318355491</text><id>SNR</id></comment></pick><origin publicID="de.gempa.tb1.Origin/20250411160119.006863.60062"><time><value>2025-04-11T16:00:37.56027Z</value><uncertainty>0.6266955137252808</uncertainty></time><latitude><value>-22.941064834594727</value><uncertainty>3.0143275260925293</uncertainty></latitude><longitude><value>-70.47128295898438</value><uncertainty>3.8833167552948</uncertainty></longitude><depth><value>5.71265983581543</value><uncertainty>6.124223232269287</uncertainty></depth><depthType>from location</depthType><methodID>LOCSAT</methodID><earthModelID>iasp91_scanloc</earthModelID><quality><associatedPhaseCount>10</associatedPhaseCount><usedPhaseCount>10</usedPhaseCount><associatedStationCount>8</associatedStationCount><usedStationCount>8</usedStationCount><depthPhaseCount>0</depthPhaseCount><standardError>0.40265175551378884</standardError><azimuthalGap>190.80237007141113</azimuthalGap><maximumDistance>1.6994023323059082</maximumDistance><minimumDistance>0.5747838616371155</minimumDistance><medianDistance>1.1091935634613037</medianDistance></quality><uncertainty><minHorizontalUncertainty>5.388030052185059</minHorizontalUncertainty><maxHorizontalUncertainty>9.06025505065918</maxHorizontalUncertainty><azimuthMaxHorizontalUncertainty>119.35215759277344</azimuthMaxHorizontalUncertainty><preferredDescription>horizontal uncertainty</preferredDescription></uncertainty><evaluationMode>automatic</evaluationMode><evaluationStatus>confirmed</evaluationStatus><comment><text>0.00</text><id>mismatchScore</id></comment><comment><text>mismatchScore</text><id>scevalMethod</id></comment><arrival><pickID>de.gempa.tb1.Pick/20250411160055.19394.118621</pickID><phase>P</phase><azimuth>187.59825134277344</azimuth><distance>0.5747838616371155</distance><timeResidual>0.27578163146972656</timeResidual><timeUsed>true</timeUsed><horizontalSlownessUsed>false</horizontalSlownessUsed><backazimuthUsed>false</backazimuthUsed><weight>1</weight></arrival><arrival><pickID>de.gempa.tb1.Pick/20250411160101.505029.118623</pickID><phase>P</phase><azimuth>106.30109405517578</azimuth><distance>0.9589133262634277</distance><timeResidual>0.006474494934082031</timeResidual><timeUsed>true</timeUsed><horizontalSlownessUsed>false</horizontalSlownessUsed><backazimuthUsed>false</backazimuthUsed><weight>1</weight></arrival><arrival><pickID>de.gempa.tb1.Pick/20250411160102.544243.118625</pickID><phase>P</phase><azimuth>74.4156265258789</azimuth><distance>0.862223744392395</distance><timeResidual>0.5265464782714844</timeResidual><timeUsed>true</timeUsed><horizontalSlownessUsed>false</horizontalSlownessUsed><backazimuthUsed>false</backazimuthUsed><weight>1</weight></arrival><arrival><pickID>de.gempa.tb1.Pick/20250411160102.602733.118627</pickID><phase>P</phase><azimuth>36.92137145996094</azimuth><distance>1.1091935634613037</distance><timeResidual>-0.17420291900634766</timeResidual><timeUsed>true</timeUsed><horizontalSlownessUsed>false</horizontalSlownessUsed><backazimuthUsed>false</backazimuthUsed><weight>1</weight></arrival><arrival><pickID>de.gempa.tb1.Pick/20250411160106.199874.118629</pickID><phase>S</phase><azimuth>187.59825134277344</azimuth><distance>0.5747838616371155</distance><timeResidual>-0.2305183410644531</timeResidual><timeUsed>true</timeUsed><horizontalSlownessUsed>false</horizontalSlownessUsed><backazimuthUsed>false</backazimuthUsed><weight>1</weight></arrival><arrival><pickID>de.gempa.tb1.Pick/20250411160111.565438.118630</pickID><phase>P</phase><azimuth>131.7264404296875</azimuth><distance>1.4478586912155151</distance><timeResidual>0.1503896713256836</timeResidual><timeUsed>true</timeUsed><horizontalSlownessUsed>false</horizontalSlownessUsed><backazimuthUsed>false</backazimuthUsed><weight>1</weight></arrival><arrival><pickID>de.gempa.tb1.Pick/20250411160115.61414.118632</pickID><phase>P</phase><azimuth>18.40062141418457</azimuth><distance>1.6994023323059082</distance><timeResidual>-0.20731639862060547</timeResidual><timeUsed>true</timeUsed><horizontalSlownessUsed>false</horizontalSlownessUsed><backazimuthUsed>false</backazimuthUsed><weight>1</weight></arrival><arrival><pickID>de.gempa.tb1.Pick/20250411160118.124863.118634</pickID><phase>P</phase><azimuth>24.25478744506836</azimuth><distance>1.3244484663009644</distance><timeResidual>-0.6863336563110352</timeResidual><timeUsed>true</timeUsed><horizontalSlownessUsed>false</horizontalSlownessUsed><backazimuthUsed>false</backazimuthUsed><weight>1</weight></arrival><arrival><pickID>de.gempa.tb1.Pick/20250411160118.463569.118636</pickID><phase>S</phase><azimuth>106.30109405517578</azimuth><distance>0.9589133262634277</distance><timeResidual>-0.3736543655395508</timeResidual><timeUsed>true</timeUsed><horizontalSlownessUsed>false</horizontalSlownessUsed><backazimuthUsed>false</backazimuthUsed><weight>1</weight></arrival><arrival><pickID>de.gempa.tb1.Pick/20250411160118.550017.118637</pickID><phase>P</phase><azimuth>45.20229721069336</azimuth><distance>1.6101893186569214</distance><timeResidual>0.7128686904907227</timeResidual><timeUsed>true</timeUsed><horizontalSlownessUsed>false</horizontalSlownessUsed><backazimuthUsed>false</backazimuthUsed><weight>1</weight></arrival><magnitude publicID="de.gempa.tb1.Magnitude/20250411160119.011542.117144"><magnitude><value>2.6478758428567155</value></magnitude><type>M</type><methodID>weighted average</methodID><stationCount>7</stationCount></magnitude></origin><event publicID="gempa2025hdyf"><preferredOriginID>de.gempa.tb1.Origin/20250411160119.006863.60062</preferredOriginID><preferredMagnitudeID>de.gempa.tb1.Magnitude/20250411160119.011542.117144</preferredMagnitudeID><description><text>Near Coast of Northern Chile</text><type>region name</type></description><originReference>de.gempa.tb1.Origin/20250411160119.006863.60062</originReference></event></EventParameters></seiscomp>