<?xml version="1.0" encoding="UTF-8"?>
<seiscomp xmlns="http://geofon.gfz-potsdam.de/ns/seiscomp3-schema/0.13" version="0.13"><EventParameters><pick publicID="de.gempa.tb1.Pick/20250414142835.002668.230168"><time><value>2025-04-14T14:28:32.215Z</value></time><waveformID networkCode="CH" stationCode="GRYON" channelCode="HHZ"/><filterID>ITAPER(4)&gt;&gt;BW(4,4,20)</filterID><methodID>AIC</methodID><phaseHint>P</phaseHint><evaluationMode>automatic</evaluationMode></pick><pick publicID="de.gempa.tb1.Pick/20250414142836.133561.230171"><time><value>2025-04-14T14:28:33.915Z</value></time><waveformID networkCode="CH" stationCode="SENIN" channelCode="HHZ"/><filterID>ITAPER(4)&gt;&gt;BW(4,4,20)</filterID><methodID>AIC</methodID><phaseHint>P</phaseHint><evaluationMode>automatic</evaluationMode></pick><pick publicID="de.gempa.tb1.Pick/20250414142841.17294.230176"><time><value>2025-04-14T14:28:33.515Z</value></time><waveformID networkCode="CH" stationCode="SALAN" channelCode="HHZ"/><filterID>ITAPER(4)&gt;&gt;BW(4,4,20)</filterID><methodID>AIC</methodID><phaseHint>P</phaseHint><evaluationMode>automatic</evaluationMode></pick><pick publicID="de.gempa.tb1.Pick/20250414142842.134764.230178"><time><value>2025-04-14T14:28:37.865Z</value></time><waveformID networkCode="CH" stationCode="FIESA" channelCode="HHZ"/><filterID>ITAPER(4)&gt;&gt;BW(4,4,20)</filterID><methodID>AIC</methodID><phaseHint>P</phaseHint><evaluationMode>automatic</evaluationMode></pick><pick publicID="de.gempa.tb1.Pick/20250414142847.097683.230188"><time><value>2025-04-14T14:28:44.64Z</value></time><waveformID networkCode="CH" stationCode="BRANT" channelCode="HHZ"/><filterID>ITAPER(4)&gt;&gt;BW(4,4,20)</filterID><methodID>AIC</methodID><phaseHint>P</phaseHint><evaluationMode>automatic</evaluationMode></pick><origin publicID="de.gempa.tb1.Origin/20250414142847.100501.143109"><time><value>2025-04-14T14:28:24.843968Z</value><uncertainty>1.665603756904602</uncertainty></time><latitude><value>46.04383087158203</value><uncertainty>16.389726638793945</uncertainty></latitude><longitude><value>7.39082670211792</value><uncertainty>5.945371627807617</uncertainty></longitude><depth><value>23.09908866882324</value><uncertainty>7.15843677520752</uncertainty></depth><depthType>from location</depthType><methodID>LOCSAT</methodID><earthModelID>iasp91</earthModelID><quality><associatedPhaseCount>5</associatedPhaseCount><usedPhaseCount>5</usedPhaseCount><associatedStationCount>5</associatedStationCount><usedStationCount>5</usedStationCount><depthPhaseCount>0</depthPhaseCount><standardError>0.37977562558374256</standardError><azimuthalGap>237.5339469909668</azimuthalGap><maximumDistance>1.096436858177185</maximumDistance><minimumDistance>0.2838590443134308</minimumDistance><medianDistance>0.3258621096611023</medianDistance></quality><uncertainty><minHorizontalUncertainty>12.458063125610352</minHorizontalUncertainty><maxHorizontalUncertainty>35.25699996948242</maxHorizontalUncertainty><azimuthMaxHorizontalUncertainty>175.27088928222656</azimuthMaxHorizontalUncertainty><preferredDescription>horizontal uncertainty</preferredDescription></uncertainty><evaluationMode>automatic</evaluationMode><arrival><pickID>de.gempa.tb1.Pick/20250414142835.002668.230168</pickID><phase>P</phase><azimuth>316.8490905761719</azimuth><distance>0.2838590443134308</distance><timeResidual>-0.6556615829467773</timeResidual><timeUsed>true</timeUsed><horizontalSlownessUsed>false</horizontalSlownessUsed><backazimuthUsed>false</backazimuthUsed><weight>1</weight></arrival><arrival><pickID>de.gempa.tb1.Pick/20250414142836.133561.230171</pickID><phase>P</phase><azimuth>348.7839660644531</azimuth><distance>0.3258621096611023</distance><timeResidual>0.4378223419189453</timeResidual><timeUsed>true</timeUsed><horizontalSlownessUsed>false</horizontalSlownessUsed><backazimuthUsed>false</backazimuthUsed><weight>1</weight></arrival><arrival><pickID>de.gempa.tb1.Pick/20250414142841.17294.230176</pickID><phase>P</phase><azimuth>289.1808166503906</azimuth><distance>0.3075728416442871</distance><timeResidual>0.301234245300293</timeResidual><timeUsed>true</timeUsed><horizontalSlownessUsed>false</horizontalSlownessUsed><backazimuthUsed>false</backazimuthUsed><weight>1</weight></arrival><arrival><pickID>de.gempa.tb1.Pick/20250414142842.134764.230178</pickID><phase>P</phase><azimuth>51.64686965942383</azimuth><distance>0.6346266269683838</distance><timeResidual>-0.09340906143188477</timeResidual><timeUsed>true</timeUsed><horizontalSlownessUsed>false</horizontalSlownessUsed><backazimuthUsed>false</backazimuthUsed><weight>1</weight></arrival><arrival><pickID>de.gempa.tb1.Pick/20250414142847.097683.230188</pickID><phase>P</phase><azimuth>324.99609375</azimuth><distance>1.096436858177185</distance><timeResidual>0.009988784790039062</timeResidual><timeUsed>true</timeUsed><horizontalSlownessUsed>false</horizontalSlownessUsed><backazimuthUsed>false</backazimuthUsed><weight>1</weight></arrival><magnitude publicID="de.gempa.tb1.Magnitude/20250414142917.131172.500281"><magnitude><value>1.9573240757570844</value></magnitude><type>M</type><methodID>weighted average</methodID><stationCount>2</stationCount></magnitude></origin><event publicID="gempa2025hjjf"><preferredOriginID>de.gempa.tb1.Origin/20250414142847.100501.143109</preferredOriginID><preferredMagnitudeID>de.gempa.tb1.Magnitude/20250414142917.131172.500281</preferredMagnitudeID><description><text>Switzerland</text><type>region name</type></description><originReference>de.gempa.tb1.Origin/20250414142847.100501.143109</originReference></event></EventParameters></seiscomp>