<?xml version="1.0" encoding="UTF-8"?>
<seiscomp xmlns="http://geofon.gfz-potsdam.de/ns/seiscomp3-schema/0.13" version="0.13"><EventParameters><pick publicID="de.gempa.tb1.Pick/20250411150632.115436.118315"><time><value>2025-04-11T15:06:25.738393Z</value></time><waveformID networkCode="CX" stationCode="PB08" channelCode="HHZ"/><filterID>ITAPER(4)&gt;&gt;BW(4,4,20)</filterID><methodID>AIC</methodID><horizontalSlowness><value>20.679994487345265</value></horizontalSlowness><backazimuth><value>217.54326980381697</value></backazimuth><phaseHint>P</phaseHint><evaluationMode>automatic</evaluationMode><comment><text>27.08919790279983</text><id>DFX:rectilinearity</id></comment><comment><text>26.39124357661468</text><id>SNR</id></comment></pick><pick publicID="de.gempa.tb1.Pick/20250411150632.594733.118317"><time><value>2025-04-11T15:06:27.138394Z</value></time><waveformID networkCode="CX" stationCode="PB01" channelCode="HHZ"/><filterID>ITAPER(4)&gt;&gt;BW(4,4,20)</filterID><methodID>AIC</methodID><horizontalSlowness><value>11.191410879308947</value></horizontalSlowness><backazimuth><value>48.03955702592106</value></backazimuth><phaseHint>P</phaseHint><evaluationMode>automatic</evaluationMode><comment><text>17.868601365535753</text><id>DFX:rectilinearity</id></comment><comment><text>16.02212397678613</text><id>SNR</id></comment></pick><pick publicID="de.gempa.tb1.Pick/20250411150638.252873.118321"><time><value>2025-04-11T15:06:33.379999Z</value></time><waveformID networkCode="CX" stationCode="PATCX" channelCode="HHZ"/><filterID>ITAPER(4)&gt;&gt;BW(4,4,20)</filterID><methodID>AIC</methodID><horizontalSlowness><value>22.288479775948453</value></horizontalSlowness><backazimuth><value>65.59815166336078</value></backazimuth><phaseHint>P</phaseHint><evaluationMode>automatic</evaluationMode><comment><text>359.7648666176711</text><id>DFX:rectilinearity</id></comment><comment><text>20.122539622604613</text><id>SNR</id></comment></pick><pick publicID="de.gempa.tb1.Pick/20250411150638.515163.118323"><time><value>2025-04-11T15:06:32.358393Z</value></time><waveformID networkCode="CX" stationCode="PB02" channelCode="HHZ"/><filterID>ITAPER(4)&gt;&gt;BW(4,4,20)</filterID><methodID>AIC</methodID><horizontalSlowness><value>5.291098258006944</value></horizontalSlowness><backazimuth><value>33.81268315681879</value></backazimuth><phaseHint>P</phaseHint><evaluationMode>automatic</evaluationMode><comment><text>71.42565444125795</text><id>DFX:rectilinearity</id></comment><comment><text>14.549907521666952</text><id>SNR</id></comment></pick><pick publicID="de.gempa.tb1.Pick/20250411150638.603397.118325"><time><value>2025-04-11T15:06:33.998393Z</value></time><waveformID networkCode="CX" stationCode="PB03" channelCode="HHZ"/><filterID>ITAPER(4)&gt;&gt;BW(4,4,20)</filterID><methodID>AIC</methodID><horizontalSlowness><value>1.7012299858302256</value></horizontalSlowness><backazimuth><value>76.9109367832056</value></backazimuth><phaseHint>P</phaseHint><evaluationMode>automatic</evaluationMode><comment><text>8.257439533689414</text><id>DFX:rectilinearity</id></comment><comment><text>11.31501837907086</text><id>SNR</id></comment></pick><pick publicID="de.gempa.tb1.Pick/20250411150640.689463.118328"><time><value>2025-04-11T15:06:35.27Z</value></time><waveformID networkCode="CX" stationCode="PSGCX" channelCode="HHZ"/><filterID>ITAPER(4)&gt;&gt;BW(4,4,20)</filterID><methodID>AIC</methodID><horizontalSlowness><value>14.77900184900209</value></horizontalSlowness><backazimuth><value>81.54070090513136</value></backazimuth><phaseHint>P</phaseHint><evaluationMode>automatic</evaluationMode><comment><text>374.6695185797255</text><id>DFX:rectilinearity</id></comment><comment><text>28.18893581426356</text><id>SNR</id></comment></pick><pick publicID="de.gempa.tb1.Pick/20250411150653.503253.118332"><time><value>2025-04-11T15:06:47.72Z</value></time><waveformID networkCode="CX" stationCode="PB19" channelCode="HHZ"/><filterID>ITAPER(4)&gt;&gt;BW(4,4,20)</filterID><methodID>AIC</methodID><horizontalSlowness><value>20.533252319154538</value></horizontalSlowness><backazimuth><value>186.27040797371038</value></backazimuth><phaseHint>P</phaseHint><evaluationMode>automatic</evaluationMode><comment><text>24.37902536322512</text><id>DFX:rectilinearity</id></comment><comment><text>7.204581059554124</text><id>SNR</id></comment></pick><pick publicID="de.gempa.tb1.Pick/20250411150657.338603.118334"><time><value>2025-04-11T15:06:33.608393Z</value></time><waveformID networkCode="CX" stationCode="PB07" channelCode="HHZ"/><filterID>ITAPER(4)&gt;&gt;BW(4,4,20)</filterID><methodID>AIC</methodID><horizontalSlowness><value>20.09740236384999</value></horizontalSlowness><backazimuth><value>70.29631706367444</value></backazimuth><phaseHint>P</phaseHint><evaluationMode>automatic</evaluationMode><comment><text>153.01768849945563</text><id>DFX:rectilinearity</id></comment><comment><text>25.77991221676911</text><id>SNR</id></comment></pick><pick publicID="de.gempa.tb1.Pick/20250411150702.801372.118337"><time><value>2025-04-11T15:06:55.298394Z</value></time><waveformID networkCode="CX" stationCode="PB01" channelCode="HHN"/><filterID>ITAPER(2)&gt;&gt;BW(3,3,20)</filterID><methodID>L2-AIC-GRID</methodID><horizontalSlowness><value>21.810521941617594</value></horizontalSlowness><backazimuth><value>342.65086338849937</value></backazimuth><phaseHint>S</phaseHint><evaluationMode>automatic</evaluationMode><comment><text>622.3224504878433</text><id>DFX:rectilinearity</id></comment><comment><text>de.gempa.tb1.Pick/20250411150632.594733.118317</text><id>RefPickID</id></comment><comment><text>7.899487089858306</text><id>SNR</id></comment></pick><pick publicID="de.gempa.tb1.Pick/20250411150710.614441.118339"><time><value>2025-04-11T15:07:02.728393Z</value></time><waveformID networkCode="CX" stationCode="PB02" channelCode="HHN"/><filterID>ITAPER(2)&gt;&gt;BW(3,3,20)</filterID><methodID>L2-AIC-GRID</methodID><horizontalSlowness><value>11.227039902265865</value></horizontalSlowness><backazimuth><value>288.12566318514456</value></backazimuth><phaseHint>S</phaseHint><evaluationMode>automatic</evaluationMode><comment><text>4403.926483727493</text><id>DFX:rectilinearity</id></comment><comment><text>de.gempa.tb1.Pick/20250411150638.515163.118323</text><id>RefPickID</id></comment><comment><text>9.346256576235991</text><id>SNR</id></comment></pick><pick publicID="de.gempa.tb1.Pick/20250411150716.430542.118343"><time><value>2025-04-11T15:07:05.749999Z</value></time><waveformID networkCode="CX" stationCode="PATCX" channelCode="HHN"/><filterID>ITAPER(2)&gt;&gt;BW(3,3,20)</filterID><methodID>L2-AIC-GRID</methodID><horizontalSlowness><value>23.10260515251601</value></horizontalSlowness><backazimuth><value>199.12551792057914</value></backazimuth><phaseHint>S</phaseHint><evaluationMode>automatic</evaluationMode><comment><text>838.6782915543045</text><id>DFX:rectilinearity</id></comment><comment><text>de.gempa.tb1.Pick/20250411150638.252873.118321</text><id>RefPickID</id></comment><comment><text>10.578110640425002</text><id>SNR</id></comment></pick><pick publicID="de.gempa.tb1.Pick/20250411150717.773542.118344"><time><value>2025-04-11T15:07:06.038393Z</value></time><waveformID networkCode="CX" stationCode="PB03" channelCode="HHN"/><filterID>ITAPER(2)&gt;&gt;BW(3,3,20)</filterID><methodID>L2-AIC-GRID</methodID><horizontalSlowness><value>20.757051527414653</value></horizontalSlowness><backazimuth><value>300.7622256319927</value></backazimuth><phaseHint>S</phaseHint><evaluationMode>automatic</evaluationMode><comment><text>2279.184180131356</text><id>DFX:rectilinearity</id></comment><comment><text>de.gempa.tb1.Pick/20250411150638.603397.118325</text><id>RefPickID</id></comment><comment><text>20.717775551782857</text><id>SNR</id></comment></pick><pick publicID="de.gempa.tb1.Pick/20250411150727.443137.118349"><time><value>2025-04-11T15:07:05.128393Z</value></time><waveformID networkCode="CX" stationCode="PB07" channelCode="HHN"/><filterID>ITAPER(2)&gt;&gt;BW(3,3,20)</filterID><methodID>L2-AIC-GRID</methodID><horizontalSlowness><value>21.907599482190555</value></horizontalSlowness><backazimuth><value>237.48344253406864</value></backazimuth><phaseHint>S</phaseHint><evaluationMode>automatic</evaluationMode><comment><text>40626.889977520324</text><id>DFX:rectilinearity</id></comment><comment><text>de.gempa.tb1.Pick/20250411150657.338603.118334</text><id>RefPickID</id></comment><comment><text>15.900310554063822</text><id>SNR</id></comment></pick><pick publicID="de.gempa.tb1.Pick/20250411150737.863949.118354"><time><value>2025-04-11T15:07:30.63Z</value></time><waveformID networkCode="CX" stationCode="PB19" channelCode="HHN"/><filterID>ITAPER(2)&gt;&gt;BW(3,3,20)</filterID><methodID>L2-AIC-GRID</methodID><horizontalSlowness><value>20.08120986589665</value></horizontalSlowness><backazimuth><value>45.66782458191167</value></backazimuth><phaseHint>S</phaseHint><evaluationMode>automatic</evaluationMode><comment><text>90.63681883876686</text><id>DFX:rectilinearity</id></comment><comment><text>de.gempa.tb1.Pick/20250411150653.503253.118332</text><id>RefPickID</id></comment><comment><text>7.223706154507487</text><id>SNR</id></comment></pick><origin publicID="de.gempa.tb1.Origin/20250411150737.868268.58735"><time><value>2025-04-11T15:05:52.48293Z</value><uncertainty>0.8328662514686584</uncertainty></time><latitude><value>-20.74230194091797</value><uncertainty>4.774714946746826</uncertainty></latitude><longitude><value>-67.80496215820312</value><uncertainty>15.855871200561523</uncertainty></longitude><depth><value>204.119873046875</value><uncertainty>17.767271041870117</uncertainty></depth><depthType>from location</depthType><methodID>LOCSAT</methodID><earthModelID>iasp91_scanloc</earthModelID><quality><associatedPhaseCount>14</associatedPhaseCount><usedPhaseCount>14</usedPhaseCount><associatedStationCount>8</associatedStationCount><usedStationCount>8</usedStationCount><depthPhaseCount>0</depthPhaseCount><standardError>0.39247528443604734</standardError><azimuthalGap>266.116455078125</azimuthalGap><maximumDistance>3.434775114059448</maximumDistance><minimumDistance>1.3988629579544067</minimumDistance><medianDistance>2.1983723640441895</medianDistance></quality><uncertainty><minHorizontalUncertainty>9.904589653015137</minHorizontalUncertainty><maxHorizontalUncertainty>34.09239196777344</maxHorizontalUncertainty><azimuthMaxHorizontalUncertainty>85.45246887207031</azimuthMaxHorizontalUncertainty><preferredDescription>horizontal uncertainty</preferredDescription></uncertainty><evaluationMode>automatic</evaluationMode><evaluationStatus>confirmed</evaluationStatus><comment><text>0.28</text><id>mismatchScore</id></comment><comment><text>mismatchScore</text><id>scevalMethod</id></comment><arrival><pickID>de.gempa.tb1.Pick/20250411150632.115436.118315</pickID><phase>P</phase><azimuth>295.078857421875</azimuth><distance>1.3988629579544067</distance><timeResidual>0.041286468505859375</timeResidual><timeUsed>true</timeUsed><horizontalSlownessUsed>false</horizontalSlownessUsed><backazimuthUsed>false</backazimuthUsed><weight>1</weight></arrival><arrival><pickID>de.gempa.tb1.Pick/20250411150632.594733.118317</pickID><phase>P</phase><azimuth>258.9261474609375</azimuth><distance>1.6013805866241455</distance><timeResidual>-0.3225135803222656</timeResidual><timeUsed>true</timeUsed><horizontalSlownessUsed>false</horizontalSlownessUsed><backazimuthUsed>false</backazimuthUsed><weight>1</weight></arrival><arrival><pickID>de.gempa.tb1.Pick/20250411150638.252873.118321</pickID><phase>P</phase><azimuth>267.552490234375</azimuth><distance>2.1983723640441895</distance><timeResidual>-0.00173187255859375</timeResidual><timeUsed>true</timeUsed><horizontalSlownessUsed>false</horizontalSlownessUsed><backazimuthUsed>false</backazimuthUsed><weight>1</weight></arrival><arrival><pickID>de.gempa.tb1.Pick/20250411150638.515163.118323</pickID><phase>P</phase><azimuth>253.239013671875</azimuth><distance>2.0361669063568115</distance><timeResidual>0.6773796081542969</timeResidual><timeUsed>true</timeUsed><horizontalSlownessUsed>false</horizontalSlownessUsed><backazimuthUsed>false</backazimuthUsed><weight>1</weight></arrival><arrival><pickID>de.gempa.tb1.Pick/20250411150638.603397.118325</pickID><phase>P</phase><azimuth>234.05055236816406</azimuth><distance>2.232726812362671</distance><timeResidual>0.263702392578125</timeResidual><timeUsed>true</timeUsed><horizontalSlownessUsed>false</horizontalSlownessUsed><backazimuthUsed>false</backazimuthUsed><weight>1</weight></arrival><arrival><pickID>de.gempa.tb1.Pick/20250411150640.689463.118328</pickID><phase>P</phase><azimuth>297.2160339355469</azimuth><distance>2.457608222961426</distance><timeResidual>-0.9158172607421875</timeResidual><timeUsed>true</timeUsed><horizontalSlownessUsed>false</horizontalSlownessUsed><backazimuthUsed>false</backazimuthUsed><weight>1</weight></arrival><arrival><pickID>de.gempa.tb1.Pick/20250411150653.503253.118332</pickID><phase>P</phase><azimuth>203.33248901367188</azimuth><distance>3.434775114059448</distance><timeResidual>0.21398162841796875</timeResidual><timeUsed>true</timeUsed><horizontalSlownessUsed>false</horizontalSlownessUsed><backazimuthUsed>false</backazimuthUsed><weight>1</weight></arrival><arrival><pickID>de.gempa.tb1.Pick/20250411150657.338603.118334</pickID><phase>P</phase><azimuth>242.8583221435547</azimuth><distance>2.1746444702148438</distance><timeResidual>0.4856109619140625</timeResidual><timeUsed>true</timeUsed><horizontalSlownessUsed>false</horizontalSlownessUsed><backazimuthUsed>false</backazimuthUsed><weight>1</weight></arrival><arrival><pickID>de.gempa.tb1.Pick/20250411150702.801372.118337</pickID><phase>S</phase><azimuth>258.9261474609375</azimuth><distance>1.6013805866241455</distance><timeResidual>0.2542991638183594</timeResidual><timeUsed>true</timeUsed><horizontalSlownessUsed>false</horizontalSlownessUsed><backazimuthUsed>false</backazimuthUsed><weight>1</weight></arrival><arrival><pickID>de.gempa.tb1.Pick/20250411150710.614441.118339</pickID><phase>S</phase><azimuth>253.239013671875</azimuth><distance>2.0361669063568115</distance><timeResidual>0.10002517700195312</timeResidual><timeUsed>true</timeUsed><horizontalSlownessUsed>false</horizontalSlownessUsed><backazimuthUsed>false</backazimuthUsed><weight>1</weight></arrival><arrival><pickID>de.gempa.tb1.Pick/20250411150716.430542.118343</pickID><phase>S</phase><azimuth>267.552490234375</azimuth><distance>2.1983723640441895</distance><timeResidual>0.0630340576171875</timeResidual><timeUsed>true</timeUsed><horizontalSlownessUsed>false</horizontalSlownessUsed><backazimuthUsed>false</backazimuthUsed><weight>1</weight></arrival><arrival><pickID>de.gempa.tb1.Pick/20250411150717.773542.118344</pickID><phase>S</phase><azimuth>234.05055236816406</azimuth><distance>2.232726812362671</distance><timeResidual>-0.2815895080566406</timeResidual><timeUsed>true</timeUsed><horizontalSlownessUsed>false</horizontalSlownessUsed><backazimuthUsed>false</backazimuthUsed><weight>1</weight></arrival><arrival><pickID>de.gempa.tb1.Pick/20250411150727.443137.118349</pickID><phase>S</phase><azimuth>242.8583221435547</azimuth><distance>2.1746444702148438</distance><timeResidual>-0.09185791015625</timeResidual><timeUsed>true</timeUsed><horizontalSlownessUsed>false</horizontalSlownessUsed><backazimuthUsed>false</backazimuthUsed><weight>1</weight></arrival><arrival><pickID>de.gempa.tb1.Pick/20250411150737.863949.118354</pickID><phase>S</phase><azimuth>203.33248901367188</azimuth><distance>3.434775114059448</distance><timeResidual>-0.4854965209960938</timeResidual><timeUsed>true</timeUsed><horizontalSlownessUsed>false</horizontalSlownessUsed><backazimuthUsed>false</backazimuthUsed><weight>1</weight></arrival><magnitude publicID="de.gempa.tb1.Magnitude/20250411150745.938394.111876"><magnitude><value>2.751704187838277</value></magnitude><type>M</type><methodID>weighted average</methodID><stationCount>6</stationCount></magnitude></origin><event publicID="gempa2025hdwk"><preferredOriginID>de.gempa.tb1.Origin/20250411150737.868268.58735</preferredOriginID><preferredMagnitudeID>de.gempa.tb1.Magnitude/20250411150745.938394.111876</preferredMagnitudeID><description><text>Southern Bolivia</text><type>region name</type></description><originReference>de.gempa.tb1.Origin/20250411150737.868268.58735</originReference></event></EventParameters></seiscomp>