<?xml version="1.0" encoding="UTF-8"?>
<seiscomp xmlns="http://geofon.gfz-potsdam.de/ns/seiscomp3-schema/0.13" version="0.13"><EventParameters><pick publicID="de.gempa.tb1.Pick/20250412060826.521092.122359"><time><value>2025-04-12T06:08:22.358393Z</value></time><waveformID networkCode="CX" stationCode="PB03" channelCode="HHZ"/><filterID>ITAPER(4)&gt;&gt;BW(4,4,20)</filterID><methodID>AIC</methodID><horizontalSlowness><value>6.707601153358331</value></horizontalSlowness><backazimuth><value>61.05024507810596</value></backazimuth><phaseHint>P</phaseHint><evaluationMode>automatic</evaluationMode><comment><text>320.2394338972538</text><id>DFX:rectilinearity</id></comment><comment><text>40.274340315085936</text><id>SNR</id></comment></pick><pick publicID="de.gempa.tb1.Pick/20250412060827.590006.122361"><time><value>2025-04-12T06:08:19.468393Z</value></time><waveformID networkCode="CX" stationCode="PB01" channelCode="HHZ"/><filterID>ITAPER(4)&gt;&gt;BW(4,4,20)</filterID><methodID>AIC</methodID><horizontalSlowness><value>16.250003108857012</value></horizontalSlowness><backazimuth><value>298.75243807293043</value></backazimuth><phaseHint>P</phaseHint><evaluationMode>automatic</evaluationMode><comment><text>22.6057178390123</text><id>DFX:rectilinearity</id></comment><comment><text>53.37783182604437</text><id>SNR</id></comment></pick><pick publicID="de.gempa.tb1.Pick/20250412060828.169821.122363"><time><value>2025-04-12T06:08:17.69Z</value></time><waveformID networkCode="CX" stationCode="PB09" channelCode="HHZ"/><filterID>ITAPER(4)&gt;&gt;BW(4,4,20)</filterID><methodID>AIC</methodID><horizontalSlowness><value>14.170274557365921</value></horizontalSlowness><backazimuth><value>72.65871990423271</value></backazimuth><phaseHint>P</phaseHint><evaluationMode>automatic</evaluationMode><comment><text>141.37053134367696</text><id>DFX:rectilinearity</id></comment><comment><text>48.77967938465092</text><id>SNR</id></comment></pick><pick publicID="de.gempa.tb1.Pick/20250412060828.675672.122365"><time><value>2025-04-12T06:08:22.248393Z</value></time><waveformID networkCode="CX" stationCode="PB02" channelCode="HHZ"/><filterID>ITAPER(4)&gt;&gt;BW(4,4,20)</filterID><methodID>AIC</methodID><horizontalSlowness><value>6.106175848410153</value></horizontalSlowness><backazimuth><value>52.7112747403438</value></backazimuth><phaseHint>P</phaseHint><evaluationMode>automatic</evaluationMode><comment><text>196.05093328256453</text><id>DFX:rectilinearity</id></comment><comment><text>35.319754093371593</text><id>SNR</id></comment></pick><pick publicID="de.gempa.tb1.Pick/20250412060833.534662.122367"><time><value>2025-04-12T06:08:26.308393Z</value></time><waveformID networkCode="CX" stationCode="PB06" channelCode="HHZ"/><filterID>ITAPER(4)&gt;&gt;BW(4,4,20)</filterID><methodID>AIC</methodID><horizontalSlowness><value>14.631013301620616</value></horizontalSlowness><backazimuth><value>128.1193875523415</value></backazimuth><phaseHint>P</phaseHint><evaluationMode>automatic</evaluationMode><comment><text>41.47682728039851</text><id>DFX:rectilinearity</id></comment><comment><text>15.444215661445883</text><id>SNR</id></comment></pick><pick publicID="de.gempa.tb1.Pick/20250412060835.269946.122369"><time><value>2025-04-12T06:08:27.130001Z</value></time><waveformID networkCode="CX" stationCode="PATCX" channelCode="HHZ"/><filterID>ITAPER(4)&gt;&gt;BW(4,4,20)</filterID><methodID>AIC</methodID><horizontalSlowness><value>22.128027615013973</value></horizontalSlowness><backazimuth><value>42.17107919809493</value></backazimuth><phaseHint>P</phaseHint><evaluationMode>automatic</evaluationMode><comment><text>360.40184970835185</text><id>DFX:rectilinearity</id></comment><comment><text>15.084846683302203</text><id>SNR</id></comment></pick><pick publicID="de.gempa.tb1.Pick/20250412060842.779353.122371"><time><value>2025-04-12T06:08:34.308393Z</value></time><waveformID networkCode="CX" stationCode="PB01" channelCode="HHN"/><filterID>ITAPER(2)&gt;&gt;BW(3,3,20)</filterID><methodID>L2-AIC-GRID</methodID><horizontalSlowness><value>22.732645731869983</value></horizontalSlowness><backazimuth><value>28.53795763349254</value></backazimuth><phaseHint>S</phaseHint><evaluationMode>automatic</evaluationMode><comment><text>638.5425255006678</text><id>DFX:rectilinearity</id></comment><comment><text>de.gempa.tb1.Pick/20250412060827.590006.122361</text><id>RefPickID</id></comment><comment><text>10.552450831326857</text><id>SNR</id></comment></pick><pick publicID="de.gempa.tb1.Pick/20250412060844.770371.122372"><time><value>2025-04-12T06:08:36.269998Z</value></time><waveformID networkCode="CX" stationCode="PSGCX" channelCode="HHZ"/><filterID>ITAPER(4)&gt;&gt;BW(4,4,20)</filterID><methodID>AIC</methodID><horizontalSlowness><value>12.219862269880144</value></horizontalSlowness><backazimuth><value>97.18582496955834</value></backazimuth><phaseHint>P</phaseHint><evaluationMode>automatic</evaluationMode><comment><text>28.2391746407398</text><id>DFX:rectilinearity</id></comment><comment><text>14.548297181704179</text><id>SNR</id></comment></pick><pick publicID="de.gempa.tb1.Pick/20250412060846.58383.122374"><time><value>2025-04-12T06:08:39.188393Z</value></time><waveformID networkCode="CX" stationCode="PB03" channelCode="HHN"/><filterID>ITAPER(2)&gt;&gt;BW(3,3,20)</filterID><methodID>L2-AIC-GRID</methodID><horizontalSlowness><value>17.54309060125838</value></horizontalSlowness><backazimuth><value>283.73395024721356</value></backazimuth><phaseHint>S</phaseHint><evaluationMode>automatic</evaluationMode><comment><text>2453.869112817096</text><id>DFX:rectilinearity</id></comment><comment><text>de.gempa.tb1.Pick/20250412060826.521092.122359</text><id>RefPickID</id></comment><comment><text>12.99643793601359</text><id>SNR</id></comment></pick><pick publicID="de.gempa.tb1.Pick/20250412060847.545304.122375"><time><value>2025-04-12T06:08:39.188393Z</value></time><waveformID networkCode="CX" stationCode="PB02" channelCode="HHN"/><filterID>ITAPER(2)&gt;&gt;BW(3,3,20)</filterID><methodID>L2-AIC-GRID</methodID><horizontalSlowness><value>19.583397806172517</value></horizontalSlowness><backazimuth><value>278.8387360234733</value></backazimuth><phaseHint>S</phaseHint><evaluationMode>automatic</evaluationMode><comment><text>2922.2814000854514</text><id>DFX:rectilinearity</id></comment><comment><text>de.gempa.tb1.Pick/20250412060828.675672.122365</text><id>RefPickID</id></comment><comment><text>6.771611051624326</text><id>SNR</id></comment></pick><pick publicID="de.gempa.tb1.Pick/20250412060855.633977.122379"><time><value>2025-04-12T06:08:46.308393Z</value></time><waveformID networkCode="CX" stationCode="PB06" channelCode="HHN"/><filterID>ITAPER(2)&gt;&gt;BW(3,3,20)</filterID><methodID>L2-AIC-GRID</methodID><horizontalSlowness><value>20.533966234928883</value></horizontalSlowness><backazimuth><value>280.32310627928666</value></backazimuth><phaseHint>S</phaseHint><evaluationMode>automatic</evaluationMode><comment><text>116.8961415618837</text><id>DFX:rectilinearity</id></comment><comment><text>de.gempa.tb1.Pick/20250412060833.534662.122367</text><id>RefPickID</id></comment><comment><text>11.380779696611505</text><id>SNR</id></comment></pick><pick publicID="de.gempa.tb1.Pick/20250412060913.659128.122383"><time><value>2025-04-12T06:09:04.629998Z</value></time><waveformID networkCode="CX" stationCode="PSGCX" channelCode="HHN"/><filterID>ITAPER(2)&gt;&gt;BW(3,3,20)</filterID><methodID>L2-AIC-GRID</methodID><horizontalSlowness><value>18.293215013288965</value></horizontalSlowness><backazimuth><value>86.43758492958204</value></backazimuth><phaseHint>S</phaseHint><evaluationMode>automatic</evaluationMode><comment><text>47.34169190291374</text><id>DFX:rectilinearity</id></comment><comment><text>de.gempa.tb1.Pick/20250412060844.770371.122372</text><id>RefPickID</id></comment><comment><text>5.173592790285706</text><id>SNR</id></comment></pick><pick publicID="de.gempa.tb1.Pick/20250412060915.373558.122384"><time><value>2025-04-12T06:08:22.328394Z</value></time><waveformID networkCode="CX" stationCode="PB07" channelCode="HHZ"/><filterID>ITAPER(4)&gt;&gt;BW(4,4,20)</filterID><methodID>AIC</methodID><horizontalSlowness><value>12.455569634360655</value></horizontalSlowness><backazimuth><value>88.60579725723986</value></backazimuth><phaseHint>P</phaseHint><evaluationMode>automatic</evaluationMode><comment><text>1359.5299355443606</text><id>DFX:rectilinearity</id></comment><comment><text>115.31830935446442</text><id>SNR</id></comment></pick><pick publicID="de.gempa.tb1.Pick/20250412060922.032292.122386"><time><value>2025-04-12T06:08:39.208394Z</value></time><waveformID networkCode="CX" stationCode="PB07" channelCode="HHN"/><filterID>ITAPER(2)&gt;&gt;BW(3,3,20)</filterID><methodID>L2-AIC-GRID</methodID><horizontalSlowness><value>22.626448509424787</value></horizontalSlowness><backazimuth><value>238.50855512546133</value></backazimuth><phaseHint>S</phaseHint><evaluationMode>automatic</evaluationMode><comment><text>19977.541775205318</text><id>DFX:rectilinearity</id></comment><comment><text>de.gempa.tb1.Pick/20250412060915.373558.122384</text><id>RefPickID</id></comment><comment><text>6.794607753591792</text><id>SNR</id></comment></pick><origin publicID="de.gempa.tb1.Origin/20250412060922.035366.76046"><time><value>2025-04-12T06:08:00.322988Z</value><uncertainty>0.841252326965332</uncertainty></time><latitude><value>-21.473554611206055</value><uncertainty>3.3651201725006104</uncertainty></latitude><longitude><value>-68.77091217041016</value><uncertainty>10.489659309387207</uncertainty></longitude><depth><value>109.86373138427734</value><uncertainty>10.941658020019531</uncertainty></depth><depthType>from location</depthType><methodID>LOCSAT</methodID><earthModelID>iasp91_scanloc</earthModelID><quality><associatedPhaseCount>14</associatedPhaseCount><usedPhaseCount>14</usedPhaseCount><associatedStationCount>8</associatedStationCount><usedStationCount>8</usedStationCount><depthPhaseCount>0</depthPhaseCount><standardError>0.2340546873823366</standardError><azimuthalGap>245.4647979736328</azimuthalGap><maximumDistance>2.2563252449035645</maximumDistance><minimumDistance>0.5433586239814758</minimumDistance><medianDistance>1.0774638652801514</medianDistance></quality><uncertainty><minHorizontalUncertainty>6.852283000946045</minHorizontalUncertainty><maxHorizontalUncertainty>22.600595474243164</maxHorizontalUncertainty><azimuthMaxHorizontalUncertainty>83.9869155883789</azimuthMaxHorizontalUncertainty><preferredDescription>horizontal uncertainty</preferredDescription></uncertainty><evaluationMode>automatic</evaluationMode><evaluationStatus>confirmed</evaluationStatus><comment><text>0.06</text><id>mismatchScore</id></comment><comment><text>mismatchScore</text><id>scevalMethod</id></comment><arrival><pickID>de.gempa.tb1.Pick/20250412060826.521092.122359</pickID><phase>P</phase><azimuth>237.74798583984375</azimuth><distance>1.0774638652801514</distance><timeResidual>0.007709503173828125</timeResidual><timeUsed>true</timeUsed><horizontalSlownessUsed>false</horizontalSlownessUsed><backazimuthUsed>false</backazimuthUsed><weight>1</weight></arrival><arrival><pickID>de.gempa.tb1.Pick/20250412060827.590006.122361</pickID><phase>P</phase><azimuth>302.5184020996094</azimuth><distance>0.7937222123146057</distance><timeResidual>-0.06082725524902344</timeResidual><timeUsed>true</timeUsed><horizontalSlownessUsed>false</horizontalSlownessUsed><backazimuthUsed>false</backazimuthUsed><weight>1</weight></arrival><arrival><pickID>de.gempa.tb1.Pick/20250412060828.169821.122363</pickID><phase>P</phase><azimuth>233.6700897216797</azimuth><distance>0.5433586239814758</distance><timeResidual>0.2143077850341797</timeResidual><timeUsed>true</timeUsed><horizontalSlownessUsed>false</horizontalSlownessUsed><backazimuthUsed>false</backazimuthUsed><weight>1</weight></arrival><arrival><pickID>de.gempa.tb1.Pick/20250412060828.675672.122365</pickID><phase>P</phase><azimuth>278.10137939453125</azimuth><distance>1.0596110820770264</distance><timeResidual>0.08344650268554688</timeResidual><timeUsed>true</timeUsed><horizontalSlownessUsed>false</horizontalSlownessUsed><backazimuthUsed>false</backazimuthUsed><weight>1</weight></arrival><arrival><pickID>de.gempa.tb1.Pick/20250412060833.534662.122367</pickID><phase>P</phase><azimuth>211.05772399902344</azimuth><distance>1.4337579011917114</distance><timeResidual>-0.05609703063964844</timeResidual><timeUsed>true</timeUsed><horizontalSlownessUsed>false</horizontalSlownessUsed><backazimuthUsed>false</backazimuthUsed><weight>1</weight></arrival><arrival><pickID>de.gempa.tb1.Pick/20250412060835.269946.122369</pickID><phase>P</phase><azimuth>296.4789123535156</azimuth><distance>1.4443342685699463</distance><timeResidual>0.6310482025146484</timeResidual><timeUsed>true</timeUsed><horizontalSlownessUsed>false</horizontalSlownessUsed><backazimuthUsed>false</backazimuthUsed><weight>1</weight></arrival><arrival><pickID>de.gempa.tb1.Pick/20250412060842.779353.122371</pickID><phase>S</phase><azimuth>302.5184020996094</azimuth><distance>0.7937222123146057</distance><timeResidual>-0.0296173095703125</timeResidual><timeUsed>true</timeUsed><horizontalSlownessUsed>false</horizontalSlownessUsed><backazimuthUsed>false</backazimuthUsed><weight>1</weight></arrival><arrival><pickID>de.gempa.tb1.Pick/20250412060844.770371.122372</pickID><phase>P</phase><azimuth>325.5929260253906</azimuth><distance>2.2563252449035645</distance><timeResidual>-0.3481559753417969</timeResidual><timeUsed>true</timeUsed><horizontalSlownessUsed>false</horizontalSlownessUsed><backazimuthUsed>false</backazimuthUsed><weight>1</weight></arrival><arrival><pickID>de.gempa.tb1.Pick/20250412060846.58383.122374</pickID><phase>S</phase><azimuth>237.74798583984375</azimuth><distance>1.0774638652801514</distance><timeResidual>-0.18278121948242188</timeResidual><timeUsed>true</timeUsed><horizontalSlownessUsed>false</horizontalSlownessUsed><backazimuthUsed>false</backazimuthUsed><weight>1</weight></arrival><arrival><pickID>de.gempa.tb1.Pick/20250412060847.545304.122375</pickID><phase>S</phase><azimuth>278.10137939453125</azimuth><distance>1.0596110820770264</distance><timeResidual>0.14950180053710938</timeResidual><timeUsed>true</timeUsed><horizontalSlownessUsed>false</horizontalSlownessUsed><backazimuthUsed>false</backazimuthUsed><weight>1</weight></arrival><arrival><pickID>de.gempa.tb1.Pick/20250412060855.633977.122379</pickID><phase>S</phase><azimuth>211.05772399902344</azimuth><distance>1.4337579011917114</distance><timeResidual>-0.23406219482421875</timeResidual><timeUsed>true</timeUsed><horizontalSlownessUsed>false</horizontalSlownessUsed><backazimuthUsed>false</backazimuthUsed><weight>1</weight></arrival><arrival><pickID>de.gempa.tb1.Pick/20250412060913.659128.122383</pickID><phase>S</phase><azimuth>325.5929260253906</azimuth><distance>2.2563252449035645</distance><timeResidual>-0.2650032043457031</timeResidual><timeUsed>true</timeUsed><horizontalSlownessUsed>false</horizontalSlownessUsed><backazimuthUsed>false</backazimuthUsed><weight>1</weight></arrival><arrival><pickID>de.gempa.tb1.Pick/20250412060915.373558.122384</pickID><phase>P</phase><azimuth>256.1553955078125</azimuth><distance>1.0680073499679565</distance><timeResidual>0.07658767700195312</timeResidual><timeUsed>true</timeUsed><horizontalSlownessUsed>false</horizontalSlownessUsed><backazimuthUsed>false</backazimuthUsed><weight>1</weight></arrival><arrival><pickID>de.gempa.tb1.Pick/20250412060922.032292.122386</pickID><phase>S</phase><azimuth>256.1553955078125</azimuth><distance>1.0680073499679565</distance><timeResidual>0.014003753662109375</timeResidual><timeUsed>true</timeUsed><horizontalSlownessUsed>false</horizontalSlownessUsed><backazimuthUsed>false</backazimuthUsed><weight>1</weight></arrival><magnitude publicID="de.gempa.tb1.Magnitude/20250412060930.941276.186174"><magnitude><value>2.4986647382299307</value></magnitude><type>M</type><methodID>weighted average</methodID><stationCount>4</stationCount></magnitude></origin><event publicID="gempa2025hfam"><preferredOriginID>de.gempa.tb1.Origin/20250412060922.035366.76046</preferredOriginID><preferredMagnitudeID>de.gempa.tb1.Magnitude/20250412060930.941276.186174</preferredMagnitudeID><description><text>Chile-Bolivia Border Region</text><type>region name</type></description><originReference>de.gempa.tb1.Origin/20250412060922.035366.76046</originReference></event></EventParameters></seiscomp>