<?xml version="1.0" encoding="UTF-8"?>
<seiscomp xmlns="http://geofon.gfz-potsdam.de/ns/seiscomp3-schema/0.13" version="0.13"><EventParameters><pick publicID="de.gempa.tb1.Pick/20250413035113.89862.121598"><time><value>2025-04-13T03:49:05.194536Z</value></time><waveformID networkCode="GE" stationCode="PMG" locationCode="00" channelCode="BHZ"/><filterID>BW(4,0.7,2)</filterID><methodID>AIC</methodID><horizontalSlowness><value>8.50562846713837</value></horizontalSlowness><backazimuth><value>19.161976987251506</value></backazimuth><phaseHint>P</phaseHint><evaluationMode>automatic</evaluationMode><comment><text>7553442.078912157</text><id>DFX:rectilinearity</id></comment></pick><pick publicID="de.gempa.tb1.Pick/20250413035222.278023.121604"><time><value>2025-04-13T03:52:01.819539Z</value></time><waveformID networkCode="GE" stationCode="FAKI" channelCode="BHZ"/><filterID>BW(4,0.7,2)</filterID><methodID>AIC</methodID><horizontalSlowness><value>5.173138774183917</value></horizontalSlowness><backazimuth><value>83.59982598722083</value></backazimuth><phaseHint>P</phaseHint><evaluationMode>automatic</evaluationMode><comment><text>22935.74817062116</text><id>DFX:rectilinearity</id></comment></pick><pick publicID="de.gempa.tb1.Pick/20250413035242.192156.121608"><time><value>2025-04-13T03:52:27.269538Z</value></time><waveformID networkCode="GE" stationCode="BNDI" channelCode="BHZ"/><filterID>BW(4,0.7,2)</filterID><methodID>AIC</methodID><horizontalSlowness><value>10.465611316678865</value></horizontalSlowness><backazimuth><value>149.605775860952</value></backazimuth><phaseHint>P</phaseHint><evaluationMode>automatic</evaluationMode><comment><text>78458.23459758914</text><id>DFX:rectilinearity</id></comment></pick><pick publicID="de.gempa.tb1.Pick/20250413035340.566767.121611"><time><value>2025-04-13T03:53:11.269536Z</value></time><waveformID networkCode="GE" stationCode="SANI" channelCode="BHZ"/><filterID>BW(4,0.7,2)</filterID><methodID>AIC</methodID><horizontalSlowness><value>5.280709621512517</value></horizontalSlowness><backazimuth><value>30.845160229100856</value></backazimuth><phaseHint>P</phaseHint><evaluationMode>automatic</evaluationMode><comment><text>6930.37423453552</text><id>DFX:rectilinearity</id></comment></pick><pick publicID="de.gempa.tb1.Pick/20250413035349.375109.121613"><time><value>2025-04-13T03:53:25.67186Z</value></time><waveformID networkCode="GE" stationCode="SOEI" channelCode="BHZ"/><filterID>BW(4,0.7,2)</filterID><methodID>AIC</methodID><horizontalSlowness><value>23.014092981233944</value></horizontalSlowness><backazimuth><value>94.34156159158182</value></backazimuth><phaseHint>P</phaseHint><evaluationMode>automatic</evaluationMode><comment><text>2130.2907233001874</text><id>DFX:rectilinearity</id></comment></pick><pick publicID="de.gempa.tb1.Pick/20250413035358.201048.121616"><time><value>2025-04-13T03:53:42.769538Z</value></time><waveformID networkCode="GE" stationCode="MMRI" channelCode="BHZ"/><filterID>BW(4,0.7,2)</filterID><methodID>AIC</methodID><horizontalSlowness><value>3.5645662481230866</value></horizontalSlowness><backazimuth><value>330.7203556078475</value></backazimuth><phaseHint>P</phaseHint><evaluationMode>automatic</evaluationMode><comment><text>39233.95895013874</text><id>DFX:rectilinearity</id></comment></pick><pick publicID="de.gempa.tb1.Pick/20250413035403.481566.121619"><time><value>2025-04-13T03:53:45.719539Z</value></time><waveformID networkCode="GE" stationCode="LUWI" channelCode="BHZ"/><filterID>BW(4,0.7,2)</filterID><methodID>AIC</methodID><horizontalSlowness><value>3.3782397839523854</value></horizontalSlowness><backazimuth><value>135.0446125149299</value></backazimuth><phaseHint>P</phaseHint><evaluationMode>automatic</evaluationMode><comment><text>189584.18524374993</text><id>DFX:rectilinearity</id></comment></pick><pick publicID="de.gempa.tb1.Pick/20250413035519.186209.121623"><time><value>2025-04-13T03:54:51.369538Z</value></time><waveformID networkCode="GE" stationCode="JAGI" channelCode="BHZ"/><filterID>BW(4,0.7,2)</filterID><methodID>AIC</methodID><horizontalSlowness><value>0.5534547654704585</value></horizontalSlowness><backazimuth><value>357.83654955999816</value></backazimuth><phaseHint>P</phaseHint><evaluationMode>automatic</evaluationMode><comment><text>7137.101230861613</text><id>DFX:rectilinearity</id></comment></pick><pick publicID="de.gempa.tb1.Pick/20250413035540.369828.121626"><time><value>2025-04-13T03:55:26.02186Z</value></time><waveformID networkCode="GE" stationCode="SMRI" channelCode="BHZ"/><filterID>BW(4,0.7,2)</filterID><methodID>AIC</methodID><horizontalSlowness><value>3.717509153575722</value></horizontalSlowness><backazimuth><value>111.43702998606332</value></backazimuth><phaseHint>P</phaseHint><evaluationMode>automatic</evaluationMode><comment><text>11019.559514783776</text><id>DFX:rectilinearity</id></comment></pick><pick publicID="de.gempa.tb1.Pick/20250413035616.320217.121629"><time><value>2025-04-13T03:56:03.88Z</value></time><waveformID networkCode="NZ" stationCode="TRVZ" locationCode="10" channelCode="HHZ"/><filterID>BW(4,0.7,2)</filterID><methodID>AIC</methodID><horizontalSlowness><value>5.246559870323258</value></horizontalSlowness><backazimuth><value>99.42292922217646</value></backazimuth><phaseHint>P</phaseHint><evaluationMode>automatic</evaluationMode><comment><text>26.908506893872467</text><id>DFX:rectilinearity</id></comment></pick><pick publicID="de.gempa.tb1.Pick/20250413035620.827256.121633"><time><value>2025-04-13T03:56:03.33Z</value></time><waveformID networkCode="NZ" stationCode="OTVZ" locationCode="10" channelCode="HHZ"/><filterID>BW(4,0.7,2)</filterID><methodID>AIC</methodID><horizontalSlowness><value>16.23719054674967</value></horizontalSlowness><backazimuth><value>124.02366618266606</value></backazimuth><phaseHint>P</phaseHint><evaluationMode>automatic</evaluationMode><comment><text>146.98983152096238</text><id>DFX:rectilinearity</id></comment></pick><pick publicID="de.gempa.tb1.Pick/20250413035803.192086.121637"><time><value>2025-04-13T03:57:26.769538Z</value></time><waveformID networkCode="GE" stationCode="LHMI" channelCode="BHZ"/><filterID>BW(4,0.7,2)</filterID><methodID>AIC</methodID><horizontalSlowness><value>3.435450582840606</value></horizontalSlowness><backazimuth><value>83.18424312025212</value></backazimuth><phaseHint>P</phaseHint><evaluationMode>automatic</evaluationMode><comment><text>11012.835392049519</text><id>DFX:rectilinearity</id></comment></pick><pick publicID="de.gempa.tb1.Pick/20250413040729.471939.121674"><time><value>2025-04-13T04:07:12.77Z</value></time><waveformID networkCode="CZ" stationCode="KHC" channelCode="HHZ"/><filterID>BW(4,0.7,2)</filterID><methodID>AIC</methodID><horizontalSlowness><value>4.28932300999233</value></horizontalSlowness><backazimuth><value>41.156042161565523</value></backazimuth><phaseHint>P</phaseHint><evaluationMode>automatic</evaluationMode><comment><text>6.797758607906894</text><id>DFX:rectilinearity</id></comment></pick><origin publicID="de.gempa.tb1.Origin/20250413040745.474677.134018"><time><value>2025-04-13T03:48:11.919302Z</value><uncertainty>2.2378759384155273</uncertainty></time><latitude><value>-6.223491191864014</value><uncertainty>13.294434547424316</uncertainty></latitude><longitude><value>148.20474243164062</value><uncertainty>26.109434127807617</uncertainty></longitude><depth><value>10</value><uncertainty>0</uncertainty></depth><methodID>LOCSAT</methodID><earthModelID>iasp91</earthModelID><quality><associatedPhaseCount>13</associatedPhaseCount><usedPhaseCount>10</usedPhaseCount><associatedStationCount>13</associatedStationCount><usedStationCount>10</usedStationCount><standardError>1.5988835094864178</standardError><azimuthalGap>276.5190887451172</azimuthalGap><maximumDistance>52.43476867675781</maximumDistance><minimumDistance>3.3514609336853027</minimumDistance><medianDistance>24.90784740447998</medianDistance></quality><evaluationMode>automatic</evaluationMode><evaluationStatus>confirmed</evaluationStatus><comment><text>0.02</text><id>mismatchScore</id></comment><comment><text>mismatchScore</text><id>scevalMethod</id></comment><arrival><pickID>de.gempa.tb1.Pick/20250413035113.89862.121598</pickID><phase>P</phase><azimuth>198.0283966064453</azimuth><distance>3.3514609336853027</distance><timeResidual>1.0762557983398438</timeResidual><timeUsed>true</timeUsed><horizontalSlownessUsed>true</horizontalSlownessUsed><backazimuthUsed>true</backazimuthUsed><weight>1</weight></arrival><arrival><pickID>de.gempa.tb1.Pick/20250413035222.278023.121604</pickID><phase>P</phase><azimuth>281.02044677734375</azimuth><distance>16.242168426513672</distance><timeResidual>1.475780487060547</timeResidual><timeUsed>true</timeUsed><horizontalSlownessUsed>true</horizontalSlownessUsed><backazimuthUsed>true</backazimuthUsed><weight>1</weight></arrival><arrival><pickID>de.gempa.tb1.Pick/20250413035242.192156.121608</pickID><phase>P</phase><azimuth>274.4244079589844</azimuth><distance>18.297706604003906</distance><timeResidual>1.3223533630371094</timeResidual><timeUsed>true</timeUsed><horizontalSlownessUsed>true</horizontalSlownessUsed><backazimuthUsed>true</backazimuthUsed><weight>1</weight></arrival><arrival><pickID>de.gempa.tb1.Pick/20250413035340.566767.121611</pickID><phase>P</phase><azimuth>279.7221984863281</azimuth><distance>22.54281997680664</distance><timeResidual>-1.0180854797363281</timeResidual><timeUsed>true</timeUsed><horizontalSlownessUsed>true</horizontalSlownessUsed><backazimuthUsed>true</backazimuthUsed><weight>1</weight></arrival><arrival><pickID>de.gempa.tb1.Pick/20250413035349.375109.121613</pickID><phase>P</phase><azimuth>259.9606018066406</azimuth><distance>23.959558486938477</distance><timeResidual>-1.0112953186035156</timeResidual><timeUsed>true</timeUsed><horizontalSlownessUsed>true</horizontalSlownessUsed><backazimuthUsed>true</backazimuthUsed><weight>1</weight></arrival><arrival><pickID>de.gempa.tb1.Pick/20250413035358.201048.121616</pickID><phase>P</phase><azimuth>263.03179931640625</azimuth><distance>25.856136322021484</distance><timeResidual>-1.2350807189941406</timeResidual><timeUsed>true</timeUsed><horizontalSlownessUsed>true</horizontalSlownessUsed><backazimuthUsed>true</backazimuthUsed><weight>1</weight></arrival><arrival><pickID>de.gempa.tb1.Pick/20250413035403.481566.121619</pickID><phase>P</phase><azimuth>280.5294494628906</azimuth><distance>25.89601516723633</distance><timeResidual>1.4121055603027344</timeResidual><timeUsed>true</timeUsed><horizontalSlownessUsed>true</horizontalSlownessUsed><backazimuthUsed>true</backazimuthUsed><weight>1</weight></arrival><arrival><pickID>de.gempa.tb1.Pick/20250413035519.186209.121623</pickID><phase>P</phase><azimuth>264.063720703125</azimuth><distance>33.837039947509766</distance><timeResidual>-3.4372596740722656</timeResidual><timeUsed>true</timeUsed><horizontalSlownessUsed>true</horizontalSlownessUsed><backazimuthUsed>true</backazimuthUsed><weight>1</weight></arrival><arrival><pickID>de.gempa.tb1.Pick/20250413035540.369828.121626</pickID><phase>P</phase><azimuth>266.52142333984375</azimuth><distance>37.51031494140625</distance><timeResidual>-0.3135719299316406</timeResidual><timeUsed>true</timeUsed><horizontalSlownessUsed>true</horizontalSlownessUsed><backazimuthUsed>true</backazimuthUsed><weight>1</weight></arrival><arrival><pickID>de.gempa.tb1.Pick/20250413035616.320217.121629</pickID><phase>P</phase><azimuth>147.3682098388672</azimuth><distance>41.235870361328125</distance><timeResidual>7.67788314819336</timeResidual><timeUsed>false</timeUsed><horizontalSlownessUsed>false</horizontalSlownessUsed><backazimuthUsed>false</backazimuthUsed><weight>0</weight></arrival><arrival><pickID>de.gempa.tb1.Pick/20250413035620.827256.121633</pickID><phase>P</phase><azimuth>147.1260223388672</azimuth><distance>41.201271057128906</distance><timeResidual>7.405147552490234</timeResidual><timeUsed>false</timeUsed><horizontalSlownessUsed>false</horizontalSlownessUsed><backazimuthUsed>false</backazimuthUsed><weight>0</weight></arrival><arrival><pickID>de.gempa.tb1.Pick/20250413035803.192086.121637</pickID><phase>P</phase><azimuth>281.5093078613281</azimuth><distance>52.43476867675781</distance><timeResidual>1.7284812927246094</timeResidual><timeUsed>true</timeUsed><horizontalSlownessUsed>true</horizontalSlownessUsed><backazimuthUsed>true</backazimuthUsed><weight>1</weight></arrival><arrival><pickID>de.gempa.tb1.Pick/20250413040729.471939.121674</pickID><phase>PKP</phase><azimuth>326.43768310546875</azimuth><distance>122.61061096191406</distance><timeResidual>4.932962894439697</timeResidual><timeUsed>false</timeUsed><horizontalSlownessUsed>false</horizontalSlownessUsed><backazimuthUsed>false</backazimuthUsed><weight>0</weight></arrival><magnitude publicID="de.gempa.tb1.Magnitude/20250413040745.484889.309448"><magnitude><value>5.89198714199373</value></magnitude><type>M</type><methodID>weighted average</methodID><stationCount>7</stationCount></magnitude></origin><event publicID="gempa2025hgrv"><preferredOriginID>de.gempa.tb1.Origin/20250413040745.474677.134018</preferredOriginID><preferredMagnitudeID>de.gempa.tb1.Magnitude/20250413040745.484889.309448</preferredMagnitudeID><preferredFocalMechanismID>de.gempa.tb1.FocalMechanism/20250413043553.798797.201200</preferredFocalMechanismID><type>not locatable</type><description><text>New Britain Region, Papua New Guinea</text><type>region name</type></description><originReference>de.gempa.tb1.Origin/20250413040745.474677.134018</originReference></event></EventParameters></seiscomp>