<?xml version="1.0" encoding="UTF-8"?>
<seiscomp xmlns="http://geofon.gfz-potsdam.de/ns/seiscomp3-schema/0.13" version="0.13"><EventParameters><pick publicID="de.gempa.tb1.Pick/20250415080615.517483.118175"><time><value>2025-04-15T08:06:09.138393Z</value></time><waveformID networkCode="CX" stationCode="PB02" channelCode="HHZ"/><filterID>ITAPER(4)&gt;&gt;BW(4,4,20)</filterID><methodID>AIC</methodID><horizontalSlowness><value>23.46040454153677</value></horizontalSlowness><backazimuth><value>264.6851918091163</value></backazimuth><phaseHint>P</phaseHint><evaluationMode>automatic</evaluationMode><comment><text>35.1781235429056</text><id>DFX:rectilinearity</id></comment><comment><text>59.49924630538555</text><id>SNR</id></comment></pick><pick publicID="de.gempa.tb1.Pick/20250415080619.422673.118177"><time><value>2025-04-15T08:06:12.629999Z</value></time><waveformID networkCode="CX" stationCode="PATCX" channelCode="HHZ"/><filterID>ITAPER(4)&gt;&gt;BW(4,4,20)</filterID><methodID>AIC</methodID><horizontalSlowness><value>23.258930381959487</value></horizontalSlowness><backazimuth><value>142.38066373047928</value></backazimuth><phaseHint>P</phaseHint><evaluationMode>automatic</evaluationMode><comment><text>146.11915689090927</text><id>DFX:rectilinearity</id></comment><comment><text>9.224057914710981</text><id>SNR</id></comment></pick><pick publicID="de.gempa.tb1.Pick/20250415080621.794348.118179"><time><value>2025-04-15T08:06:13.888393Z</value></time><waveformID networkCode="CX" stationCode="PB02" channelCode="HHN"/><filterID>ITAPER(2)&gt;&gt;BW(3,3,20)</filterID><methodID>L2-AIC-GRID</methodID><horizontalSlowness><value>15.965372045456455</value></horizontalSlowness><backazimuth><value>37.46753910245596</value></backazimuth><phaseHint>S</phaseHint><evaluationMode>automatic</evaluationMode><comment><text>64.82449277852886</text><id>DFX:rectilinearity</id></comment><comment><text>de.gempa.tb1.Pick/20250415080615.517483.118175</text><id>RefPickID</id></comment><comment><text>5.696747432974002</text><id>SNR</id></comment></pick><pick publicID="de.gempa.tb1.Pick/20250415080624.979201.118180"><time><value>2025-04-15T08:06:12.898396Z</value></time><waveformID networkCode="CX" stationCode="PB07" channelCode="HHZ"/><filterID>ITAPER(4)&gt;&gt;BW(4,4,20)</filterID><methodID>AIC</methodID><horizontalSlowness><value>23.49186336617103</value></horizontalSlowness><backazimuth><value>231.98804553792644</value></backazimuth><phaseHint>P</phaseHint><evaluationMode>automatic</evaluationMode><comment><text>258.67956502758614</text><id>DFX:rectilinearity</id></comment><comment><text>18.9414025501151</text><id>SNR</id></comment></pick><pick publicID="de.gempa.tb1.Pick/20250415080626.467284.118184"><time><value>2025-04-15T08:06:20.189999Z</value></time><waveformID networkCode="CX" stationCode="PATCX" channelCode="HHN"/><filterID>ITAPER(2)&gt;&gt;BW(3,3,20)</filterID><methodID>L2-AIC-GRID</methodID><horizontalSlowness><value>21.40516516906204</value></horizontalSlowness><backazimuth><value>217.0132227512346</value></backazimuth><phaseHint>S</phaseHint><evaluationMode>automatic</evaluationMode><comment><text>198.63108428818484</text><id>DFX:rectilinearity</id></comment><comment><text>de.gempa.tb1.Pick/20250415080619.422673.118177</text><id>RefPickID</id></comment><comment><text>14.439503543987136</text><id>SNR</id></comment></pick><pick publicID="de.gempa.tb1.Pick/20250415080626.594134.118185"><time><value>2025-04-15T08:06:17.498393Z</value></time><waveformID networkCode="CX" stationCode="PB03" channelCode="HHZ"/><filterID>ITAPER(4)&gt;&gt;BW(4,4,20)</filterID><methodID>AIC</methodID><horizontalSlowness><value>15.963359791044327</value></horizontalSlowness><backazimuth><value>135.57033335121056</value></backazimuth><phaseHint>P</phaseHint><evaluationMode>automatic</evaluationMode><comment><text>19.875349761886728</text><id>DFX:rectilinearity</id></comment><comment><text>10.501066959146149</text><id>SNR</id></comment></pick><pick publicID="de.gempa.tb1.Pick/20250415080629.632807.118189"><time><value>2025-04-15T08:06:20.198396Z</value></time><waveformID networkCode="CX" stationCode="PB07" channelCode="HHN"/><filterID>ITAPER(2)&gt;&gt;BW(3,3,20)</filterID><methodID>L2-AIC-GRID</methodID><horizontalSlowness><value>22.95370606576592</value></horizontalSlowness><backazimuth><value>112.20191168627554</value></backazimuth><phaseHint>S</phaseHint><evaluationMode>automatic</evaluationMode><comment><text>327.870243474386</text><id>DFX:rectilinearity</id></comment><comment><text>de.gempa.tb1.Pick/20250415080624.979201.118180</text><id>RefPickID</id></comment><comment><text>9.791675935892124</text><id>SNR</id></comment></pick><pick publicID="de.gempa.tb1.Pick/20250415080633.322583.118190"><time><value>2025-04-15T08:06:18.89Z</value></time><waveformID networkCode="CX" stationCode="PB09" channelCode="HHZ"/><filterID>ITAPER(4)&gt;&gt;BW(4,4,20)</filterID><methodID>AIC</methodID><horizontalSlowness><value>12.529286745024475</value></horizontalSlowness><backazimuth><value>264.80365667804705</value></backazimuth><phaseHint>P</phaseHint><evaluationMode>automatic</evaluationMode><comment><text>20.948636907548693</text><id>DFX:rectilinearity</id></comment><comment><text>10.543623265737246</text><id>SNR</id></comment></pick><pick publicID="de.gempa.tb1.Pick/20250415080640.622585.118194"><time><value>2025-04-15T08:06:28.228393Z</value></time><waveformID networkCode="CX" stationCode="PB03" channelCode="HHN"/><filterID>ITAPER(2)&gt;&gt;BW(3,3,20)</filterID><methodID>L2-AIC-GRID</methodID><horizontalSlowness><value>6.456648243454611</value></horizontalSlowness><backazimuth><value>251.425399258344</value></backazimuth><phaseHint>S</phaseHint><evaluationMode>automatic</evaluationMode><comment><text>14.439084701797977</text><id>DFX:rectilinearity</id></comment><comment><text>de.gempa.tb1.Pick/20250415080626.594134.118185</text><id>RefPickID</id></comment><comment><text>5.701456716516643</text><id>SNR</id></comment></pick><origin publicID="de.gempa.tb1.Origin/20250415080640.626445.58294"><time><value>2025-04-15T08:06:02.362348Z</value><uncertainty>0.50794917345047</uncertainty></time><latitude><value>-21.28453254699707</value><uncertainty>4.529995918273926</uncertainty></latitude><longitude><value>-70.05123138427734</value><uncertainty>11.50273036956787</uncertainty></longitude><depth><value>38.45560073852539</value><uncertainty>5.026637077331543</uncertainty></depth><depthType>from location</depthType><methodID>LOCSAT</methodID><earthModelID>iasp91_scanloc</earthModelID><quality><associatedPhaseCount>9</associatedPhaseCount><usedPhaseCount>9</usedPhaseCount><associatedStationCount>5</associatedStationCount><usedStationCount>5</usedStationCount><depthPhaseCount>0</depthPhaseCount><standardError>0.20590796869909037</standardError><azimuthalGap>187.58375549316406</azimuthalGap><maximumDistance>0.9094651341438293</maximumDistance><minimumDistance>0.14890596270561218</minimumDistance><medianDistance>0.4711776673793793</medianDistance></quality><uncertainty><minHorizontalUncertainty>5.490993976593018</minHorizontalUncertainty><maxHorizontalUncertainty>25.9340763092041</maxHorizontalUncertainty><azimuthMaxHorizontalUncertainty>71.57083129882812</azimuthMaxHorizontalUncertainty><preferredDescription>horizontal uncertainty</preferredDescription></uncertainty><evaluationMode>automatic</evaluationMode><evaluationStatus>confirmed</evaluationStatus><comment><text>0.13</text><id>mismatchScore</id></comment><comment><text>mismatchScore</text><id>scevalMethod</id></comment><arrival><pickID>de.gempa.tb1.Pick/20250415080615.517483.118175</pickID><phase>P</phase><azimuth>103.6320571899414</azimuth><distance>0.14890596270561218</distance><timeResidual>0.0562443733215332</timeResidual><timeUsed>true</timeUsed><horizontalSlownessUsed>false</horizontalSlownessUsed><backazimuthUsed>false</backazimuthUsed><weight>1</weight></arrival><arrival><pickID>de.gempa.tb1.Pick/20250415080619.422673.118177</pickID><phase>P</phase><azimuth>348.35699462890625</azimuth><distance>0.4711776673793793</distance><timeResidual>-0.036674976348876953</timeResidual><timeUsed>true</timeUsed><horizontalSlownessUsed>false</horizontalSlownessUsed><backazimuthUsed>false</backazimuthUsed><weight>1</weight></arrival><arrival><pickID>de.gempa.tb1.Pick/20250415080621.794348.118179</pickID><phase>S</phase><azimuth>103.6320571899414</azimuth><distance>0.14890596270561218</distance><timeResidual>-0.13059282302856445</timeResidual><timeUsed>true</timeUsed><horizontalSlownessUsed>false</horizontalSlownessUsed><backazimuthUsed>false</backazimuthUsed><weight>1</weight></arrival><arrival><pickID>de.gempa.tb1.Pick/20250415080624.979201.118180</pickID><phase>P</phase><azimuth>160.7732391357422</azimuth><distance>0.466040700674057</distance><timeResidual>0.3044161796569824</timeResidual><timeUsed>true</timeUsed><horizontalSlownessUsed>false</horizontalSlownessUsed><backazimuthUsed>false</backazimuthUsed><weight>1</weight></arrival><arrival><pickID>de.gempa.tb1.Pick/20250415080626.467284.118184</pickID><phase>S</phase><azimuth>348.35699462890625</azimuth><distance>0.4711776673793793</distance><timeResidual>-0.10257196426391602</timeResidual><timeUsed>true</timeUsed><horizontalSlownessUsed>false</horizontalSlownessUsed><backazimuthUsed>false</backazimuthUsed><weight>1</weight></arrival><arrival><pickID>de.gempa.tb1.Pick/20250415080626.594134.118185</pickID><phase>P</phase><azimuth>160.01260375976562</azimuth><distance>0.8092087507247925</distance><timeResidual>0.14118242263793945</timeResidual><timeUsed>true</timeUsed><horizontalSlownessUsed>false</horizontalSlownessUsed><backazimuthUsed>false</backazimuthUsed><weight>1</weight></arrival><arrival><pickID>de.gempa.tb1.Pick/20250415080629.632807.118189</pickID><phase>S</phase><azimuth>160.7732391357422</azimuth><distance>0.466040700674057</distance><timeResidual>0.033693790435791016</timeResidual><timeUsed>true</timeUsed><horizontalSlownessUsed>false</horizontalSlownessUsed><backazimuthUsed>false</backazimuthUsed><weight>1</weight></arrival><arrival><pickID>de.gempa.tb1.Pick/20250415080633.322583.118190</pickID><phase>P</phase><azimuth>124.2055435180664</azimuth><distance>0.9094651341438293</distance><timeResidual>0.18366193771362305</timeResidual><timeUsed>true</timeUsed><horizontalSlownessUsed>false</horizontalSlownessUsed><backazimuthUsed>false</backazimuthUsed><weight>1</weight></arrival><arrival><pickID>de.gempa.tb1.Pick/20250415080640.622585.118194</pickID><phase>S</phase><azimuth>160.01260375976562</azimuth><distance>0.8092087507247925</distance><timeResidual>-0.4494776725769043</timeResidual><timeUsed>true</timeUsed><horizontalSlownessUsed>false</horizontalSlownessUsed><backazimuthUsed>false</backazimuthUsed><weight>1</weight></arrival><magnitude publicID="de.gempa.tb1.Magnitude/20250415080653.536602.108222"><magnitude><value>1.5872348725212586</value></magnitude><type>M</type><methodID>weighted average</methodID><stationCount>5</stationCount></magnitude></origin><event publicID="gempa2025hksm"><preferredOriginID>de.gempa.tb1.Origin/20250415080640.626445.58294</preferredOriginID><preferredMagnitudeID>de.gempa.tb1.Magnitude/20250415080653.536602.108222</preferredMagnitudeID><description><text>Near Coast of Northern Chile</text><type>region name</type></description><originReference>de.gempa.tb1.Origin/20250415080640.626445.58294</originReference></event></EventParameters></seiscomp>