<?xml version="1.0" encoding="UTF-8"?>
<seiscomp xmlns="http://geofon.gfz-potsdam.de/ns/seiscomp3-schema/0.13" version="0.13"><EventParameters><pick publicID="de.gempa.tb1.Pick/20250413045214.572222.128901"><time><value>2025-04-13T04:52:09.93Z</value></time><waveformID networkCode="CX" stationCode="PSGCX" channelCode="HHZ"/><filterID>ITAPER(4)&gt;&gt;BW(4,4,20)</filterID><methodID>AIC</methodID><horizontalSlowness><value>19.884024494547823</value></horizontalSlowness><backazimuth><value>84.47676569147039</value></backazimuth><phaseHint>P</phaseHint><evaluationMode>automatic</evaluationMode><comment><text>41.42436009354335</text><id>DFX:rectilinearity</id></comment><comment><text>107.69376380251018</text><id>SNR</id></comment></pick><pick publicID="de.gempa.tb1.Pick/20250413045217.228217.128903"><time><value>2025-04-13T04:52:09.298393Z</value></time><waveformID networkCode="CX" stationCode="PB08" channelCode="HHZ"/><filterID>ITAPER(4)&gt;&gt;BW(4,4,20)</filterID><methodID>AIC</methodID><horizontalSlowness><value>14.114071539677898</value></horizontalSlowness><backazimuth><value>91.46787561659144</value></backazimuth><phaseHint>P</phaseHint><evaluationMode>automatic</evaluationMode><comment><text>13.415964562326868</text><id>DFX:rectilinearity</id></comment><comment><text>10.102693746499579</text><id>SNR</id></comment></pick><pick publicID="de.gempa.tb1.Pick/20250413045225.563989.128905"><time><value>2025-04-13T04:52:18.448393Z</value></time><waveformID networkCode="CX" stationCode="PB01" channelCode="HHZ"/><filterID>ITAPER(4)&gt;&gt;BW(4,4,20)</filterID><methodID>AIC</methodID><horizontalSlowness><value>17.725975615371912</value></horizontalSlowness><backazimuth><value>285.8444238271361</value></backazimuth><phaseHint>P</phaseHint><evaluationMode>automatic</evaluationMode><comment><text>9.350228682887931</text><id>DFX:rectilinearity</id></comment><comment><text>8.855418428999355</text><id>SNR</id></comment></pick><pick publicID="de.gempa.tb1.Pick/20250413045225.569259.128907"><time><value>2025-04-13T04:52:17.468393Z</value></time><waveformID networkCode="CX" stationCode="PB16" channelCode="HHZ"/><filterID>ITAPER(4)&gt;&gt;BW(4,4,20)</filterID><methodID>AIC</methodID><horizontalSlowness><value>6.657343314852306</value></horizontalSlowness><backazimuth><value>115.65275774676702</value></backazimuth><phaseHint>P</phaseHint><evaluationMode>automatic</evaluationMode><comment><text>4.4580291303012416</text><id>DFX:rectilinearity</id></comment><comment><text>38.375055354281457</text><id>SNR</id></comment></pick><pick publicID="de.gempa.tb1.Pick/20250413045230.782956.128909"><time><value>2025-04-13T04:52:23.6Z</value></time><waveformID networkCode="CX" stationCode="PSGCX" channelCode="HHN"/><filterID>ITAPER(2)&gt;&gt;BW(3,3,20)</filterID><methodID>L2-AIC-GRID</methodID><horizontalSlowness><value>16.74477825391095</value></horizontalSlowness><backazimuth><value>89.35957363974042</value></backazimuth><phaseHint>S</phaseHint><evaluationMode>automatic</evaluationMode><comment><text>60.48860628941313</text><id>DFX:rectilinearity</id></comment><comment><text>de.gempa.tb1.Pick/20250413045214.572222.128901</text><id>RefPickID</id></comment><comment><text>5.839431414623554</text><id>SNR</id></comment></pick><pick publicID="de.gempa.tb1.Pick/20250413045232.255161.128910"><time><value>2025-04-13T04:52:21.858393Z</value></time><waveformID networkCode="CX" stationCode="PB08" channelCode="HHN"/><filterID>ITAPER(2)&gt;&gt;BW(3,3,20)</filterID><methodID>L2-AIC-GRID</methodID><horizontalSlowness><value>13.51479150220987</value></horizontalSlowness><backazimuth><value>194.5721978952987</value></backazimuth><phaseHint>S</phaseHint><evaluationMode>automatic</evaluationMode><comment><text>70.7667675349523</text><id>DFX:rectilinearity</id></comment><comment><text>de.gempa.tb1.Pick/20250413045217.228217.128903</text><id>RefPickID</id></comment><comment><text>16.171664341171255</text><id>SNR</id></comment></pick><pick publicID="de.gempa.tb1.Pick/20250413045244.492207.128911"><time><value>2025-04-13T04:52:36.318393Z</value></time><waveformID networkCode="CX" stationCode="PB16" channelCode="HHN"/><filterID>ITAPER(2)&gt;&gt;BW(3,3,20)</filterID><methodID>L2-AIC-GRID</methodID><horizontalSlowness><value>17.452932564035098</value></horizontalSlowness><backazimuth><value>304.6255496502265</value></backazimuth><phaseHint>S</phaseHint><evaluationMode>automatic</evaluationMode><comment><text>16.23937582410347</text><id>DFX:rectilinearity</id></comment><comment><text>de.gempa.tb1.Pick/20250413045225.569259.128907</text><id>RefPickID</id></comment><comment><text>6.828284113989665</text><id>SNR</id></comment></pick><pick publicID="de.gempa.tb1.Pick/20250413045245.577877.128913"><time><value>2025-04-13T04:52:37.818393Z</value></time><waveformID networkCode="CX" stationCode="PB01" channelCode="HHN"/><filterID>ITAPER(2)&gt;&gt;BW(3,3,20)</filterID><methodID>L2-AIC-GRID</methodID><horizontalSlowness><value>21.044111050572372</value></horizontalSlowness><backazimuth><value>132.1297110094867</value></backazimuth><phaseHint>S</phaseHint><evaluationMode>automatic</evaluationMode><comment><text>132.06749650675803</text><id>DFX:rectilinearity</id></comment><comment><text>de.gempa.tb1.Pick/20250413045225.563989.128905</text><id>RefPickID</id></comment><comment><text>10.220806632920551</text><id>SNR</id></comment></pick><origin publicID="de.gempa.tb1.Origin/20250413045246.587621.100964"><time><value>2025-04-13T04:51:53.521267Z</value><uncertainty>0.9652011394500732</uncertainty></time><latitude><value>-19.654314041137695</value><uncertainty>3.122279167175293</uncertainty></latitude><longitude><value>-69.43236541748047</value><uncertainty>6.288777828216553</uncertainty></longitude><depth><value>99.22869873046875</value><uncertainty>8.531829833984375</uncertainty></depth><depthType>from location</depthType><methodID>LOCSAT</methodID><earthModelID>iasp91_scanloc</earthModelID><quality><associatedPhaseCount>8</associatedPhaseCount><usedPhaseCount>8</usedPhaseCount><associatedStationCount>4</associatedStationCount><usedStationCount>4</usedStationCount><depthPhaseCount>0</depthPhaseCount><standardError>0.2782809480440465</standardError><azimuthalGap>154.7069854736328</azimuthalGap><maximumDistance>1.382812738418579</maximumDistance><minimumDistance>0.5508703589439392</minimumDistance><medianDistance>1.3141709566116333</medianDistance></quality><uncertainty><minHorizontalUncertainty>6.333510398864746</minHorizontalUncertainty><maxHorizontalUncertainty>13.659550666809082</maxHorizontalUncertainty><azimuthMaxHorizontalUncertainty>79.66272735595703</azimuthMaxHorizontalUncertainty><preferredDescription>horizontal uncertainty</preferredDescription></uncertainty><evaluationMode>automatic</evaluationMode><evaluationStatus>confirmed</evaluationStatus><comment><text>0.00</text><id>mismatchScore</id></comment><comment><text>mismatchScore</text><id>scevalMethod</id></comment><arrival><pickID>de.gempa.tb1.Pick/20250413045214.572222.128901</pickID><phase>P</phase><azimuth>274.8748474121094</azimuth><distance>0.6535243391990662</distance><timeResidual>-0.518218994140625</timeResidual><timeUsed>true</timeUsed><horizontalSlownessUsed>false</horizontalSlownessUsed><backazimuthUsed>false</backazimuthUsed><weight>1</weight></arrival><arrival><pickID>de.gempa.tb1.Pick/20250413045217.228217.128903</pickID><phase>P</phase><azimuth>151.5867156982422</azimuth><distance>0.5508703589439392</distance><timeResidual>-0.30072021484375</timeResidual><timeUsed>true</timeUsed><horizontalSlownessUsed>false</horizontalSlownessUsed><backazimuthUsed>false</backazimuthUsed><weight>1</weight></arrival><arrival><pickID>de.gempa.tb1.Pick/20250413045225.563989.128905</pickID><phase>P</phase><azimuth>182.13063049316406</azimuth><distance>1.382812738418579</distance><timeResidual>0.15323257446289062</timeResidual><timeUsed>true</timeUsed><horizontalSlownessUsed>false</horizontalSlownessUsed><backazimuthUsed>false</backazimuthUsed><weight>1</weight></arrival><arrival><pickID>de.gempa.tb1.Pick/20250413045225.569259.128907</pickID><phase>P</phase><azimuth>356.8797302246094</azimuth><distance>1.3141709566116333</distance><timeResidual>-0.014245986938476562</timeResidual><timeUsed>true</timeUsed><horizontalSlownessUsed>false</horizontalSlownessUsed><backazimuthUsed>false</backazimuthUsed><weight>1</weight></arrival><arrival><pickID>de.gempa.tb1.Pick/20250413045230.782956.128909</pickID><phase>S</phase><azimuth>274.8748474121094</azimuth><distance>0.6535243391990662</distance><timeResidual>0.13263702392578125</timeResidual><timeUsed>true</timeUsed><horizontalSlownessUsed>false</horizontalSlownessUsed><backazimuthUsed>false</backazimuthUsed><weight>1</weight></arrival><arrival><pickID>de.gempa.tb1.Pick/20250413045232.255161.128910</pickID><phase>S</phase><azimuth>151.5867156982422</azimuth><distance>0.5508703589439392</distance><timeResidual>-0.09865379333496094</timeResidual><timeUsed>true</timeUsed><horizontalSlownessUsed>false</horizontalSlownessUsed><backazimuthUsed>false</backazimuthUsed><weight>1</weight></arrival><arrival><pickID>de.gempa.tb1.Pick/20250413045244.492207.128911</pickID><phase>S</phase><azimuth>356.8797302246094</azimuth><distance>1.3141709566116333</distance><timeResidual>0.3012504577636719</timeResidual><timeUsed>true</timeUsed><horizontalSlownessUsed>false</horizontalSlownessUsed><backazimuthUsed>false</backazimuthUsed><weight>1</weight></arrival><arrival><pickID>de.gempa.tb1.Pick/20250413045245.577877.128913</pickID><phase>S</phase><azimuth>182.13063049316406</azimuth><distance>1.382812738418579</distance><timeResidual>0.34464263916015625</timeResidual><timeUsed>true</timeUsed><horizontalSlownessUsed>false</horizontalSlownessUsed><backazimuthUsed>false</backazimuthUsed><weight>1</weight></arrival><magnitude publicID="de.gempa.tb1.Magnitude/20250413045250.936499.317058"><magnitude><value>1.6867237376565507</value></magnitude><type>M</type><methodID>weighted average</methodID><stationCount>2</stationCount></magnitude></origin><event publicID="gempa2025hgtz"><preferredOriginID>de.gempa.tb1.Origin/20250413045246.587621.100964</preferredOriginID><preferredMagnitudeID>de.gempa.tb1.Magnitude/20250413045250.936499.317058</preferredMagnitudeID><description><text>Northern Chile</text><type>region name</type></description><originReference>de.gempa.tb1.Origin/20250413045246.587621.100964</originReference></event></EventParameters></seiscomp>