<?xml version="1.0" encoding="UTF-8"?>
<seiscomp xmlns="http://geofon.gfz-potsdam.de/ns/seiscomp3-schema/0.13" version="0.13"><EventParameters><pick publicID="de.gempa.tb1.Pick/20250414034943.533606.135489"><time><value>2025-04-14T03:49:38.108393Z</value></time><waveformID networkCode="CX" stationCode="PB01" channelCode="HHZ"/><filterID>ITAPER(4)&gt;&gt;BW(4,4,20)</filterID><methodID>AIC</methodID><horizontalSlowness><value>16.873654764262884</value></horizontalSlowness><backazimuth><value>188.62408185589206</value></backazimuth><phaseHint>P</phaseHint><evaluationMode>automatic</evaluationMode><comment><text>14.037734473631682</text><id>DFX:rectilinearity</id></comment><comment><text>33.57014641139426</text><id>SNR</id></comment></pick><pick publicID="de.gempa.tb1.Pick/20250414034946.551591.135491"><time><value>2025-04-14T03:49:41.558393Z</value></time><waveformID networkCode="CX" stationCode="PB02" channelCode="HHZ"/><filterID>ITAPER(4)&gt;&gt;BW(4,4,20)</filterID><methodID>AIC</methodID><horizontalSlowness><value>10.224760494720808</value></horizontalSlowness><backazimuth><value>64.01275381881909</value></backazimuth><phaseHint>P</phaseHint><evaluationMode>automatic</evaluationMode><comment><text>38.950276109952263</text><id>DFX:rectilinearity</id></comment><comment><text>39.24524798676993</text><id>SNR</id></comment></pick><pick publicID="de.gempa.tb1.Pick/20250414034949.590035.135493"><time><value>2025-04-14T03:49:42.828393Z</value></time><waveformID networkCode="CX" stationCode="PB07" channelCode="HHZ"/><filterID>ITAPER(4)&gt;&gt;BW(4,4,20)</filterID><methodID>AIC</methodID><horizontalSlowness><value>21.573930586282003</value></horizontalSlowness><backazimuth><value>156.07613180072082</value></backazimuth><phaseHint>P</phaseHint><evaluationMode>automatic</evaluationMode><comment><text>156.60951270300262</text><id>DFX:rectilinearity</id></comment><comment><text>32.458807237248053</text><id>SNR</id></comment></pick><pick publicID="de.gempa.tb1.Pick/20250414034951.253469.135496"><time><value>2025-04-14T03:49:44.569999Z</value></time><waveformID networkCode="CX" stationCode="PATCX" channelCode="HHZ"/><filterID>ITAPER(4)&gt;&gt;BW(4,4,20)</filterID><methodID>AIC</methodID><horizontalSlowness><value>18.18376210293977</value></horizontalSlowness><backazimuth><value>89.5522284857836</value></backazimuth><phaseHint>P</phaseHint><evaluationMode>automatic</evaluationMode><comment><text>475.1232243440887</text><id>DFX:rectilinearity</id></comment><comment><text>14.35072934124943</text><id>SNR</id></comment></pick><pick publicID="de.gempa.tb1.Pick/20250414034951.576621.135498"><time><value>2025-04-14T03:49:43.858393Z</value></time><waveformID networkCode="CX" stationCode="PB03" channelCode="HHZ"/><filterID>ITAPER(4)&gt;&gt;BW(4,4,20)</filterID><methodID>AIC</methodID><horizontalSlowness><value>19.848725850763579</value></horizontalSlowness><backazimuth><value>88.73577702380896</value></backazimuth><phaseHint>P</phaseHint><evaluationMode>automatic</evaluationMode><comment><text>8.85044595979269</text><id>DFX:rectilinearity</id></comment><comment><text>10.108251136352052</text><id>SNR</id></comment></pick><pick publicID="de.gempa.tb1.Pick/20250414034953.789028.135500"><time><value>2025-04-14T03:49:39.57Z</value></time><waveformID networkCode="CX" stationCode="PB09" channelCode="HHZ"/><filterID>ITAPER(4)&gt;&gt;BW(4,4,20)</filterID><methodID>AIC</methodID><horizontalSlowness><value>15.498393418977647</value></horizontalSlowness><backazimuth><value>317.98443575473243</value></backazimuth><phaseHint>P</phaseHint><evaluationMode>automatic</evaluationMode><comment><text>13.398664251108507</text><id>DFX:rectilinearity</id></comment><comment><text>13.403515560342056</text><id>SNR</id></comment></pick><pick publicID="de.gempa.tb1.Pick/20250414034958.558945.135502"><time><value>2025-04-14T03:49:49.368393Z</value></time><waveformID networkCode="CX" stationCode="PB06" channelCode="HHZ"/><filterID>ITAPER(4)&gt;&gt;BW(4,4,20)</filterID><methodID>AIC</methodID><horizontalSlowness><value>6.38211930072458</value></horizontalSlowness><backazimuth><value>193.394489840671</value></backazimuth><phaseHint>P</phaseHint><evaluationMode>automatic</evaluationMode><comment><text>73.64735124941669</text><id>DFX:rectilinearity</id></comment><comment><text>8.005990922171824</text><id>SNR</id></comment></pick><pick publicID="de.gempa.tb1.Pick/20250414035001.759319.135504"><time><value>2025-04-14T03:49:52.348393Z</value></time><waveformID networkCode="CX" stationCode="PB01" channelCode="HHN"/><filterID>ITAPER(2)&gt;&gt;BW(3,3,20)</filterID><methodID>L2-AIC-GRID</methodID><horizontalSlowness><value>21.594335043216656</value></horizontalSlowness><backazimuth><value>283.607210769897</value></backazimuth><phaseHint>S</phaseHint><evaluationMode>automatic</evaluationMode><comment><text>147.99928781777132</text><id>DFX:rectilinearity</id></comment><comment><text>de.gempa.tb1.Pick/20250414034943.533606.135489</text><id>RefPickID</id></comment><comment><text>16.281895893722332</text><id>SNR</id></comment></pick><pick publicID="de.gempa.tb1.Pick/20250414035006.110956.135505"><time><value>2025-04-14T03:49:54.53Z</value></time><waveformID networkCode="CX" stationCode="PB09" channelCode="HHN"/><filterID>ITAPER(2)&gt;&gt;BW(3,3,20)</filterID><methodID>L2-AIC-GRID</methodID><horizontalSlowness><value>23.08608739055182</value></horizontalSlowness><backazimuth><value>158.8908145504385</value></backazimuth><phaseHint>S</phaseHint><evaluationMode>automatic</evaluationMode><comment><text>149.16943738097532</text><id>DFX:rectilinearity</id></comment><comment><text>de.gempa.tb1.Pick/20250414034953.789028.135500</text><id>RefPickID</id></comment><comment><text>5.61264236154429</text><id>SNR</id></comment></pick><pick publicID="de.gempa.tb1.Pick/20250414035006.786274.135506"><time><value>2025-04-14T03:50:00.698393Z</value></time><waveformID networkCode="CX" stationCode="PB07" channelCode="HHN"/><filterID>ITAPER(2)&gt;&gt;BW(3,3,20)</filterID><methodID>L2-AIC-GRID</methodID><horizontalSlowness><value>21.999991269191042</value></horizontalSlowness><backazimuth><value>279.8347916964003</value></backazimuth><phaseHint>S</phaseHint><evaluationMode>automatic</evaluationMode><comment><text>1318.8444721491185</text><id>DFX:rectilinearity</id></comment><comment><text>de.gempa.tb1.Pick/20250414034949.590035.135493</text><id>RefPickID</id></comment><comment><text>7.107832778668516</text><id>SNR</id></comment></pick><pick publicID="de.gempa.tb1.Pick/20250414035009.607154.135508"><time><value>2025-04-14T03:49:58.568393Z</value></time><waveformID networkCode="CX" stationCode="PB02" channelCode="HHN"/><filterID>ITAPER(2)&gt;&gt;BW(3,3,20)</filterID><methodID>L2-AIC-GRID</methodID><horizontalSlowness><value>12.534092377040013</value></horizontalSlowness><backazimuth><value>80.42959704286379</value></backazimuth><phaseHint>S</phaseHint><evaluationMode>automatic</evaluationMode><comment><text>225.38724255990363</text><id>DFX:rectilinearity</id></comment><comment><text>de.gempa.tb1.Pick/20250414034946.551591.135491</text><id>RefPickID</id></comment><comment><text>6.395814480518582</text><id>SNR</id></comment></pick><pick publicID="de.gempa.tb1.Pick/20250414035010.464943.135512"><time><value>2025-04-14T03:50:03.659999Z</value></time><waveformID networkCode="CX" stationCode="PATCX" channelCode="HHN"/><filterID>ITAPER(2)&gt;&gt;BW(3,3,20)</filterID><methodID>L2-AIC-GRID</methodID><horizontalSlowness><value>22.182554477754493</value></horizontalSlowness><backazimuth><value>344.08124182576825</value></backazimuth><phaseHint>S</phaseHint><evaluationMode>automatic</evaluationMode><comment><text>204.84739576789377</text><id>DFX:rectilinearity</id></comment><comment><text>de.gempa.tb1.Pick/20250414034951.253469.135496</text><id>RefPickID</id></comment><comment><text>11.23539625111488</text><id>SNR</id></comment></pick><origin publicID="de.gempa.tb1.Origin/20250414035010.467778.126163"><time><value>2025-04-14T03:49:19.789616Z</value><uncertainty>1.000342845916748</uncertainty></time><latitude><value>-21.151060104370117</value><uncertainty>6.443005561828613</uncertainty></latitude><longitude><value>-68.85353088378906</value><uncertainty>9.103721618652344</uncertainty></longitude><depth><value>118.41885375976562</value><uncertainty>8.175032615661621</uncertainty></depth><depthType>from location</depthType><methodID>LOCSAT</methodID><earthModelID>iasp91_scanloc</earthModelID><quality><associatedPhaseCount>12</associatedPhaseCount><usedPhaseCount>12</usedPhaseCount><associatedStationCount>7</associatedStationCount><usedStationCount>7</usedStationCount><depthPhaseCount>0</depthPhaseCount><standardError>0.15120089536529813</standardError><azimuthalGap>278.27235412597656</azimuthalGap><maximumDistance>1.684845209121704</maximumDistance><minimumDistance>0.6015357971191406</minimumDistance><medianDistance>1.1196452379226685</medianDistance></quality><uncertainty><minHorizontalUncertainty>10.914717674255371</minHorizontalUncertainty><maxHorizontalUncertainty>21.27522850036621</maxHorizontalUncertainty><azimuthMaxHorizontalUncertainty>62.37942504882812</azimuthMaxHorizontalUncertainty><preferredDescription>horizontal uncertainty</preferredDescription></uncertainty><evaluationMode>automatic</evaluationMode><evaluationStatus>confirmed</evaluationStatus><comment><text>0.05</text><id>mismatchScore</id></comment><comment><text>mismatchScore</text><id>scevalMethod</id></comment><arrival><pickID>de.gempa.tb1.Pick/20250414034943.533606.135489</pickID><phase>P</phase><azimuth>280.16107177734375</azimuth><distance>0.6015357971191406</distance><timeResidual>-0.16412734985351562</timeResidual><timeUsed>true</timeUsed><horizontalSlownessUsed>false</horizontalSlownessUsed><backazimuthUsed>false</backazimuthUsed><weight>1</weight></arrival><arrival><pickID>de.gempa.tb1.Pick/20250414034946.551591.135491</pickID><phase>P</phase><azimuth>260.0214538574219</azimuth><distance>0.9869353771209717</distance><timeResidual>-0.03955268859863281</timeResidual><timeUsed>true</timeUsed><horizontalSlownessUsed>false</horizontalSlownessUsed><backazimuthUsed>false</backazimuthUsed><weight>1</weight></arrival><arrival><pickID>de.gempa.tb1.Pick/20250414034949.590035.135493</pickID><phase>P</phase><azimuth>239.0448913574219</azimuth><distance>1.1196452379226685</distance><timeResidual>-0.11224937438964844</timeResidual><timeUsed>true</timeUsed><horizontalSlownessUsed>false</horizontalSlownessUsed><backazimuthUsed>false</backazimuthUsed><weight>1</weight></arrival><arrival><pickID>de.gempa.tb1.Pick/20250414034951.253469.135496</pickID><phase>P</phase><azimuth>284.9158020019531</azimuth><distance>1.257899284362793</distance><timeResidual>0.14614295959472656</timeResidual><timeUsed>true</timeUsed><horizontalSlownessUsed>false</horizontalSlownessUsed><backazimuthUsed>false</backazimuthUsed><weight>1</weight></arrival><arrival><pickID>de.gempa.tb1.Pick/20250414034951.576621.135498</pickID><phase>P</phase><azimuth>222.9869842529297</azimuth><distance>1.2240439653396606</distance><timeResidual>-0.19026947021484375</timeResidual><timeUsed>true</timeUsed><horizontalSlownessUsed>false</horizontalSlownessUsed><backazimuthUsed>false</backazimuthUsed><weight>1</weight></arrival><arrival><pickID>de.gempa.tb1.Pick/20250414034953.789028.135500</pickID><phase>P</phase><azimuth>209.32424926757812</azimuth><distance>0.7370322346687317</distance><timeResidual>0.2489948272705078</timeResidual><timeUsed>true</timeUsed><horizontalSlownessUsed>false</horizontalSlownessUsed><backazimuthUsed>false</backazimuthUsed><weight>1</weight></arrival><arrival><pickID>de.gempa.tb1.Pick/20250414034958.558945.135502</pickID><phase>P</phase><azimuth>203.1881561279297</azimuth><distance>1.684845209121704</distance><timeResidual>0.03568840026855469</timeResidual><timeUsed>true</timeUsed><horizontalSlownessUsed>false</horizontalSlownessUsed><backazimuthUsed>false</backazimuthUsed><weight>1</weight></arrival><arrival><pickID>de.gempa.tb1.Pick/20250414035001.759319.135504</pickID><phase>S</phase><azimuth>280.16107177734375</azimuth><distance>0.6015357971191406</distance><timeResidual>-0.17926406860351562</timeResidual><timeUsed>true</timeUsed><horizontalSlownessUsed>false</horizontalSlownessUsed><backazimuthUsed>false</backazimuthUsed><weight>1</weight></arrival><arrival><pickID>de.gempa.tb1.Pick/20250414035006.110956.135505</pickID><phase>S</phase><azimuth>209.32424926757812</azimuth><distance>0.7370322346687317</distance><timeResidual>0.1342029571533203</timeResidual><timeUsed>true</timeUsed><horizontalSlownessUsed>false</horizontalSlownessUsed><backazimuthUsed>false</backazimuthUsed><weight>1</weight></arrival><arrival><pickID>de.gempa.tb1.Pick/20250414035006.786274.135506</pickID><phase>S</phase><azimuth>239.0448913574219</azimuth><distance>1.1196452379226685</distance><timeResidual>-0.15334510803222656</timeResidual><timeUsed>true</timeUsed><horizontalSlownessUsed>false</horizontalSlownessUsed><backazimuthUsed>false</backazimuthUsed><weight>1</weight></arrival><arrival><pickID>de.gempa.tb1.Pick/20250414035009.607154.135508</pickID><phase>S</phase><azimuth>260.0214538574219</azimuth><distance>0.9869353771209717</distance><timeResidual>0.1130962371826172</timeResidual><timeUsed>true</timeUsed><horizontalSlownessUsed>false</horizontalSlownessUsed><backazimuthUsed>false</backazimuthUsed><weight>1</weight></arrival><arrival><pickID>de.gempa.tb1.Pick/20250414035010.464943.135512</pickID><phase>S</phase><azimuth>284.9158020019531</azimuth><distance>1.257899284362793</distance><timeResidual>0.1611042022705078</timeResidual><timeUsed>true</timeUsed><horizontalSlownessUsed>false</horizontalSlownessUsed><backazimuthUsed>false</backazimuthUsed><weight>1</weight></arrival><magnitude publicID="de.gempa.tb1.Magnitude/20250414035010.475183.425689"><magnitude><value>2.2384609304904974</value></magnitude><type>M</type><methodID>weighted average</methodID><stationCount>5</stationCount></magnitude></origin><event publicID="gempa2025hinx"><preferredOriginID>de.gempa.tb1.Origin/20250414035010.467778.126163</preferredOriginID><preferredMagnitudeID>de.gempa.tb1.Magnitude/20250414035010.475183.425689</preferredMagnitudeID><description><text>Chile-Bolivia Border Region</text><type>region name</type></description><originReference>de.gempa.tb1.Origin/20250414035010.467778.126163</originReference></event></EventParameters></seiscomp>