<?xml version="1.0" encoding="UTF-8"?>
<seiscomp xmlns="http://geofon.gfz-potsdam.de/ns/seiscomp3-schema/0.13" version="0.13"><EventParameters><pick publicID="de.gempa.tb1.Pick/20250413060114.78367.129285"><time><value>2025-04-13T06:01:09.91Z</value></time><waveformID networkCode="CX" stationCode="PSGCX" channelCode="HHZ"/><filterID>ITAPER(4)&gt;&gt;BW(4,4,20)</filterID><methodID>AIC</methodID><horizontalSlowness><value>9.630556684860991</value></horizontalSlowness><backazimuth><value>67.22434929893917</value></backazimuth><phaseHint>P</phaseHint><evaluationMode>automatic</evaluationMode><comment><text>71865.82667703407</text><id>DFX:rectilinearity</id></comment><comment><text>2229.3453985484139</text><id>SNR</id></comment></pick><pick publicID="de.gempa.tb1.Pick/20250413060116.549552.129287"><time><value>2025-04-13T06:01:11.408393Z</value></time><waveformID networkCode="CX" stationCode="PB08" channelCode="HHZ"/><filterID>ITAPER(4)&gt;&gt;BW(4,4,20)</filterID><methodID>AIC</methodID><horizontalSlowness><value>12.833931607064713</value></horizontalSlowness><backazimuth><value>318.4538454115002</value></backazimuth><phaseHint>P</phaseHint><evaluationMode>automatic</evaluationMode><comment><text>30821.358097227443</text><id>DFX:rectilinearity</id></comment><comment><text>329.71972708078073</text><id>SNR</id></comment></pick><pick publicID="de.gempa.tb1.Pick/20250413060127.44243.129289"><time><value>2025-04-13T06:01:20.539999Z</value></time><waveformID networkCode="CX" stationCode="PATCX" channelCode="HHZ"/><filterID>ITAPER(4)&gt;&gt;BW(4,4,20)</filterID><methodID>AIC</methodID><horizontalSlowness><value>8.798771726809004</value></horizontalSlowness><backazimuth><value>13.63351317958805</value></backazimuth><phaseHint>P</phaseHint><evaluationMode>automatic</evaluationMode><comment><text>6353.255123706766</text><id>DFX:rectilinearity</id></comment><comment><text>75.5983919303948</text><id>SNR</id></comment></pick><pick publicID="de.gempa.tb1.Pick/20250413060127.598604.129291"><time><value>2025-04-13T06:01:21.218393Z</value></time><waveformID networkCode="CX" stationCode="PB01" channelCode="HHZ"/><filterID>ITAPER(4)&gt;&gt;BW(4,4,20)</filterID><methodID>AIC</methodID><horizontalSlowness><value>13.13811645375368</value></horizontalSlowness><backazimuth><value>355.6985744311644</value></backazimuth><phaseHint>P</phaseHint><evaluationMode>automatic</evaluationMode><comment><text>56059.27854483319</text><id>DFX:rectilinearity</id></comment><comment><text>601.787657624459</text><id>SNR</id></comment></pick><pick publicID="de.gempa.tb1.Pick/20250413060130.480203.129293"><time><value>2025-04-13T06:01:25.178393Z</value></time><waveformID networkCode="CX" stationCode="PB02" channelCode="HHZ"/><filterID>ITAPER(4)&gt;&gt;BW(4,4,20)</filterID><methodID>AIC</methodID><horizontalSlowness><value>10.135337820452497</value></horizontalSlowness><backazimuth><value>29.973506290360916</value></backazimuth><phaseHint>P</phaseHint><evaluationMode>automatic</evaluationMode><comment><text>16196.163835795185</text><id>DFX:rectilinearity</id></comment><comment><text>175.6321422116803</text><id>SNR</id></comment></pick><pick publicID="de.gempa.tb1.Pick/20250413060132.774305.129295"><time><value>2025-04-13T06:01:25.68Z</value></time><waveformID networkCode="CX" stationCode="PSGCX" channelCode="HHN"/><filterID>ITAPER(2)&gt;&gt;BW(3,3,20)</filterID><methodID>L2-AIC-GRID</methodID><horizontalSlowness><value>22.682039608075474</value></horizontalSlowness><backazimuth><value>171.84795225544212</value></backazimuth><phaseHint>S</phaseHint><evaluationMode>automatic</evaluationMode><comment><text>2503720.181732776</text><id>DFX:rectilinearity</id></comment><comment><text>de.gempa.tb1.Pick/20250413060114.78367.129285</text><id>RefPickID</id></comment><comment><text>10.531440363559961</text><id>SNR</id></comment></pick><pick publicID="de.gempa.tb1.Pick/20250413060138.642044.129296"><time><value>2025-04-13T06:01:34.018393Z</value></time><waveformID networkCode="CX" stationCode="PB03" channelCode="HHZ"/><filterID>ITAPER(4)&gt;&gt;BW(4,4,20)</filterID><methodID>AIC</methodID><horizontalSlowness><value>6.797831383616316</value></horizontalSlowness><backazimuth><value>5.925999486880812</value></backazimuth><phaseHint>P</phaseHint><evaluationMode>automatic</evaluationMode><comment><text>1251.3289151609458</text><id>DFX:rectilinearity</id></comment><comment><text>143.21196727293054</text><id>SNR</id></comment></pick><pick publicID="de.gempa.tb1.Pick/20250413060138.680696.129298"><time><value>2025-04-13T06:01:28.268393Z</value></time><waveformID networkCode="CX" stationCode="PB08" channelCode="HHN"/><filterID>ITAPER(2)&gt;&gt;BW(3,3,20)</filterID><methodID>L2-AIC-GRID</methodID><horizontalSlowness><value>17.252557977512257</value></horizontalSlowness><backazimuth><value>200.53672293093197</value></backazimuth><phaseHint>S</phaseHint><evaluationMode>automatic</evaluationMode><comment><text>822945.1499185099</text><id>DFX:rectilinearity</id></comment><comment><text>de.gempa.tb1.Pick/20250413060116.549552.129287</text><id>RefPickID</id></comment><comment><text>17.859932079033154</text><id>SNR</id></comment></pick><pick publicID="de.gempa.tb1.Pick/20250413060142.188118.129300"><time><value>2025-04-13T06:01:30.890001Z</value></time><waveformID networkCode="CX" stationCode="PB09" channelCode="HHZ"/><filterID>ITAPER(4)&gt;&gt;BW(4,4,20)</filterID><methodID>AIC</methodID><horizontalSlowness><value>19.551655903190134</value></horizontalSlowness><backazimuth><value>74.98449537868143</value></backazimuth><phaseHint>P</phaseHint><evaluationMode>automatic</evaluationMode><comment><text>4976.624780582104</text><id>DFX:rectilinearity</id></comment><comment><text>291.07166049916174</text><id>SNR</id></comment></pick><pick publicID="de.gempa.tb1.Pick/20250413060143.256981.129302"><time><value>2025-04-13T06:01:30.798394Z</value></time><waveformID networkCode="CX" stationCode="PB07" channelCode="HHZ"/><filterID>ITAPER(4)&gt;&gt;BW(4,4,20)</filterID><methodID>AIC</methodID><horizontalSlowness><value>13.283979372234938</value></horizontalSlowness><backazimuth><value>347.7933886092163</value></backazimuth><phaseHint>P</phaseHint><evaluationMode>automatic</evaluationMode><comment><text>91168.4761091665</text><id>DFX:rectilinearity</id></comment><comment><text>302.638411755916</text><id>SNR</id></comment></pick><pick publicID="de.gempa.tb1.Pick/20250413060147.638735.129305"><time><value>2025-04-13T06:01:42.308391Z</value></time><waveformID networkCode="CX" stationCode="PB06" channelCode="HHZ"/><filterID>ITAPER(4)&gt;&gt;BW(4,4,20)</filterID><methodID>AIC</methodID><horizontalSlowness><value>7.037743009948849</value></horizontalSlowness><backazimuth><value>324.74000470832937</value></backazimuth><phaseHint>P</phaseHint><evaluationMode>automatic</evaluationMode><comment><text>1717.6564849377012</text><id>DFX:rectilinearity</id></comment><comment><text>58.35722051470992</text><id>SNR</id></comment></pick><pick publicID="de.gempa.tb1.Pick/20250413060153.288826.129307"><time><value>2025-04-13T06:01:44.049999Z</value></time><waveformID networkCode="CX" stationCode="PATCX" channelCode="HHN"/><filterID>ITAPER(2)&gt;&gt;BW(3,3,20)</filterID><methodID>L2-AIC-GRID</methodID><horizontalSlowness><value>11.135925734078988</value></horizontalSlowness><backazimuth><value>43.32198428099173</value></backazimuth><phaseHint>S</phaseHint><evaluationMode>automatic</evaluationMode><comment><text>167373.38208959467</text><id>DFX:rectilinearity</id></comment><comment><text>de.gempa.tb1.Pick/20250413060127.44243.129289</text><id>RefPickID</id></comment><comment><text>10.762019242459674</text><id>SNR</id></comment></pick><pick publicID="de.gempa.tb1.Pick/20250413060153.703883.129310"><time><value>2025-04-13T06:01:45.788393Z</value></time><waveformID networkCode="CX" stationCode="PB01" channelCode="HHN"/><filterID>ITAPER(2)&gt;&gt;BW(3,3,20)</filterID><methodID>L2-AIC-GRID</methodID><horizontalSlowness><value>23.583471558617276</value></horizontalSlowness><backazimuth><value>163.14608573436206</value></backazimuth><phaseHint>S</phaseHint><evaluationMode>automatic</evaluationMode><comment><text>411860.1804569571</text><id>DFX:rectilinearity</id></comment><comment><text>de.gempa.tb1.Pick/20250413060127.598604.129291</text><id>RefPickID</id></comment><comment><text>8.593396405037538</text><id>SNR</id></comment></pick><pick publicID="de.gempa.tb1.Pick/20250413060159.184125.129312"><time><value>2025-04-13T06:01:53.980001Z</value></time><waveformID networkCode="CX" stationCode="PB10" channelCode="HHZ"/><filterID>ITAPER(4)&gt;&gt;BW(4,4,20)</filterID><methodID>AIC</methodID><horizontalSlowness><value>13.502747740777844</value></horizontalSlowness><backazimuth><value>23.75958430393203</value></backazimuth><phaseHint>P</phaseHint><evaluationMode>automatic</evaluationMode><comment><text>1692.8646834539686</text><id>DFX:rectilinearity</id></comment><comment><text>17.41941799041144</text><id>SNR</id></comment></pick><pick publicID="de.gempa.tb1.Pick/20250413060200.542848.129314"><time><value>2025-04-13T06:01:53.388393Z</value></time><waveformID networkCode="CX" stationCode="PB02" channelCode="HHN"/><filterID>ITAPER(2)&gt;&gt;BW(3,3,20)</filterID><methodID>L2-AIC-GRID</methodID><horizontalSlowness><value>10.05173050510289</value></horizontalSlowness><backazimuth><value>229.3361073583623</value></backazimuth><phaseHint>S</phaseHint><evaluationMode>automatic</evaluationMode><comment><text>329311.3961169592</text><id>DFX:rectilinearity</id></comment><comment><text>de.gempa.tb1.Pick/20250413060130.480203.129293</text><id>RefPickID</id></comment><comment><text>6.616125388812963</text><id>SNR</id></comment></pick><pick publicID="de.gempa.tb1.Pick/20250413060205.605437.129315"><time><value>2025-04-13T06:01:57.98Z</value></time><waveformID networkCode="CX" stationCode="PB19" channelCode="HHZ"/><filterID>ITAPER(4)&gt;&gt;BW(4,4,20)</filterID><methodID>AIC</methodID><horizontalSlowness><value>9.889160739770796</value></horizontalSlowness><backazimuth><value>30.08779820924775</value></backazimuth><phaseHint>P</phaseHint><evaluationMode>automatic</evaluationMode><comment><text>187.85461522342445</text><id>DFX:rectilinearity</id></comment><comment><text>77.3667741735417</text><id>SNR</id></comment></pick><pick publicID="de.gempa.tb1.Pick/20250413060220.584371.129320"><time><value>2025-04-13T06:02:01.770001Z</value></time><waveformID networkCode="CX" stationCode="PB09" channelCode="HHN"/><filterID>ITAPER(2)&gt;&gt;BW(3,3,20)</filterID><methodID>L2-AIC-GRID</methodID><horizontalSlowness><value>14.542829460329308</value></horizontalSlowness><backazimuth><value>44.269078437808645</value></backazimuth><phaseHint>S</phaseHint><evaluationMode>automatic</evaluationMode><comment><text>18482.78964553035</text><id>DFX:rectilinearity</id></comment><comment><text>de.gempa.tb1.Pick/20250413060142.188118.129300</text><id>RefPickID</id></comment><comment><text>5.242244280220586</text><id>SNR</id></comment></pick><pick publicID="de.gempa.tb1.Pick/20250413060232.584218.129322"><time><value>2025-04-13T06:02:21.808391Z</value></time><waveformID networkCode="CX" stationCode="PB06" channelCode="HHN"/><filterID>ITAPER(2)&gt;&gt;BW(3,3,20)</filterID><methodID>L2-AIC-GRID</methodID><horizontalSlowness><value>10.327673291888619</value></horizontalSlowness><backazimuth><value>4.673015382894903</value></backazimuth><phaseHint>S</phaseHint><evaluationMode>automatic</evaluationMode><comment><text>1957.9560549780786</text><id>DFX:rectilinearity</id></comment><comment><text>de.gempa.tb1.Pick/20250413060147.638735.129305</text><id>RefPickID</id></comment><comment><text>5.72768161740603</text><id>SNR</id></comment></pick><origin publicID="de.gempa.tb1.Origin/20250413060232.587669.102334"><time><value>2025-04-13T06:00:49.894877Z</value><uncertainty>0.8137573003768921</uncertainty></time><latitude><value>-19.241544723510742</value><uncertainty>4.970984935760498</uncertainty></latitude><longitude><value>-69.39202117919922</value><uncertainty>7.05440092086792</uncertainty></longitude><depth><value>123.8950958251953</value><uncertainty>5.676667213439941</uncertainty></depth><depthType>from location</depthType><methodID>LOCSAT</methodID><earthModelID>iasp91_scanloc</earthModelID><quality><associatedPhaseCount>18</associatedPhaseCount><usedPhaseCount>18</usedPhaseCount><associatedStationCount>11</associatedStationCount><usedStationCount>11</usedStationCount><depthPhaseCount>0</depthPhaseCount><standardError>0.5247947337616815</standardError><azimuthalGap>283.2031707763672</azimuthalGap><maximumDistance>4.641371726989746</maximumDistance><minimumDistance>0.7753545045852661</minimumDistance><medianDistance>2.1210274696350098</medianDistance></quality><uncertainty><minHorizontalUncertainty>9.853146553039551</minHorizontalUncertainty><maxHorizontalUncertainty>15.65888214111328</maxHorizontalUncertainty><azimuthMaxHorizontalUncertainty>70.51190948486328</azimuthMaxHorizontalUncertainty><preferredDescription>horizontal uncertainty</preferredDescription></uncertainty><evaluationMode>automatic</evaluationMode><evaluationStatus>confirmed</evaluationStatus><comment><text>0.00</text><id>mismatchScore</id></comment><comment><text>mismatchScore</text><id>scevalMethod</id></comment><arrival><pickID>de.gempa.tb1.Pick/20250413060114.78367.129285</pickID><phase>P</phase><azimuth>242.73333740234375</azimuth><distance>0.7753545045852661</distance><timeResidual>-0.3753070831298828</timeResidual><timeUsed>true</timeUsed><horizontalSlownessUsed>false</horizontalSlownessUsed><backazimuthUsed>false</backazimuthUsed><weight>1</weight></arrival><arrival><pickID>de.gempa.tb1.Pick/20250413060116.549552.129287</pickID><phase>P</phase><azimuth>165.93650817871094</azimuth><distance>0.9227219223976135</distance><timeResidual>-0.1654376983642578</timeResidual><timeUsed>true</timeUsed><horizontalSlownessUsed>false</horizontalSlownessUsed><backazimuthUsed>false</backazimuthUsed><weight>1</weight></arrival><arrival><pickID>de.gempa.tb1.Pick/20250413060127.44243.129289</pickID><phase>P</phase><azimuth>204.35391235351562</azimuth><distance>1.7262520790100098</distance><timeResidual>0.28693199157714844</timeResidual><timeUsed>true</timeUsed><horizontalSlownessUsed>false</horizontalSlownessUsed><backazimuthUsed>false</backazimuthUsed><weight>1</weight></arrival><arrival><pickID>de.gempa.tb1.Pick/20250413060127.598604.129291</pickID><phase>P</phase><azimuth>182.8458709716797</azimuth><distance>1.7947001457214355</distance><timeResidual>0.14798355102539062</timeResidual><timeUsed>true</timeUsed><horizontalSlownessUsed>false</horizontalSlownessUsed><backazimuthUsed>false</backazimuthUsed><weight>1</weight></arrival><arrival><pickID>de.gempa.tb1.Pick/20250413060130.480203.129293</pickID><phase>P</phase><azimuth>192.80331420898438</azimuth><distance>2.1210274696350098</distance><timeResidual>0.10507583618164062</timeResidual><timeUsed>true</timeUsed><horizontalSlownessUsed>false</horizontalSlownessUsed><backazimuthUsed>false</backazimuthUsed><weight>1</weight></arrival><arrival><pickID>de.gempa.tb1.Pick/20250413060132.774305.129295</pickID><phase>S</phase><azimuth>242.73333740234375</azimuth><distance>0.7753545045852661</distance><timeResidual>-0.3607349395751953</timeResidual><timeUsed>true</timeUsed><horizontalSlownessUsed>false</horizontalSlownessUsed><backazimuthUsed>false</backazimuthUsed><weight>1</weight></arrival><arrival><pickID>de.gempa.tb1.Pick/20250413060138.642044.129296</pickID><phase>P</phase><azimuth>186.84158325195312</azimuth><distance>2.8131659030914307</distance><timeResidual>0.12577438354492188</timeResidual><timeUsed>true</timeUsed><horizontalSlownessUsed>false</horizontalSlownessUsed><backazimuthUsed>false</backazimuthUsed><weight>1</weight></arrival><arrival><pickID>de.gempa.tb1.Pick/20250413060138.680696.129298</pickID><phase>S</phase><azimuth>165.93650817871094</azimuth><distance>0.9227219223976135</distance><timeResidual>-0.0697174072265625</timeResidual><timeUsed>true</timeUsed><horizontalSlownessUsed>false</horizontalSlownessUsed><backazimuthUsed>false</backazimuthUsed><weight>1</weight></arrival><arrival><pickID>de.gempa.tb1.Pick/20250413060142.188118.129300</pickID><phase>P</phase><azimuth>176.8578338623047</azimuth><distance>2.5457923412323</distance><timeResidual>0.4483528137207031</timeResidual><timeUsed>true</timeUsed><horizontalSlownessUsed>false</horizontalSlownessUsed><backazimuthUsed>false</backazimuthUsed><weight>1</weight></arrival><arrival><pickID>de.gempa.tb1.Pick/20250413060143.256981.129302</pickID><phase>P</phase><azimuth>190.52757263183594</azimuth><distance>2.515552520751953</distance><timeResidual>0.745229721069336</timeResidual><timeUsed>true</timeUsed><horizontalSlownessUsed>false</horizontalSlownessUsed><backazimuthUsed>false</backazimuthUsed><weight>1</weight></arrival><arrival><pickID>de.gempa.tb1.Pick/20250413060147.638735.129305</pickID><phase>P</phase><azimuth>182.7600860595703</azimuth><distance>3.4510602951049805</distance><timeResidual>0.05761909484863281</timeResidual><timeUsed>true</timeUsed><horizontalSlownessUsed>false</horizontalSlownessUsed><backazimuthUsed>false</backazimuthUsed><weight>1</weight></arrival><arrival><pickID>de.gempa.tb1.Pick/20250413060153.288826.129307</pickID><phase>S</phase><azimuth>204.35391235351562</azimuth><distance>1.7262520790100098</distance><timeResidual>0.2052631378173828</timeResidual><timeUsed>true</timeUsed><horizontalSlownessUsed>false</horizontalSlownessUsed><backazimuthUsed>false</backazimuthUsed><weight>1</weight></arrival><arrival><pickID>de.gempa.tb1.Pick/20250413060153.703883.129310</pickID><phase>S</phase><azimuth>182.8458709716797</azimuth><distance>1.7947001457214355</distance><timeResidual>0.4812831878662109</timeResidual><timeUsed>true</timeUsed><horizontalSlownessUsed>false</horizontalSlownessUsed><backazimuthUsed>false</backazimuthUsed><weight>1</weight></arrival><arrival><pickID>de.gempa.tb1.Pick/20250413060159.184125.129312</pickID><phase>P</phase><azimuth>194.0870361328125</azimuth><distance>4.38655948638916</distance><timeResidual>-0.6944408416748047</timeResidual><timeUsed>true</timeUsed><horizontalSlownessUsed>false</horizontalSlownessUsed><backazimuthUsed>false</backazimuthUsed><weight>1</weight></arrival><arrival><pickID>de.gempa.tb1.Pick/20250413060200.542848.129314</pickID><phase>S</phase><azimuth>192.80331420898438</azimuth><distance>2.1210274696350098</distance><timeResidual>0.915475845336914</timeResidual><timeUsed>true</timeUsed><horizontalSlownessUsed>false</horizontalSlownessUsed><backazimuthUsed>false</backazimuthUsed><weight>1</weight></arrival><arrival><pickID>de.gempa.tb1.Pick/20250413060205.605437.129315</pickID><phase>P</phase><azimuth>178.85336303710938</azimuth><distance>4.641371726989746</distance><timeResidual>-0.10188102722167969</timeResidual><timeUsed>true</timeUsed><horizontalSlownessUsed>false</horizontalSlownessUsed><backazimuthUsed>false</backazimuthUsed><weight>1</weight></arrival><arrival><pickID>de.gempa.tb1.Pick/20250413060220.584371.129320</pickID><phase>S</phase><azimuth>176.8578338623047</azimuth><distance>2.5457923412323</distance><timeResidual>-0.3164806365966797</timeResidual><timeUsed>true</timeUsed><horizontalSlownessUsed>false</horizontalSlownessUsed><backazimuthUsed>false</backazimuthUsed><weight>1</weight></arrival><arrival><pickID>de.gempa.tb1.Pick/20250413060232.584218.129322</pickID><phase>S</phase><azimuth>182.7600860595703</azimuth><distance>3.4510602951049805</distance><timeResidual>-1.4348201751708984</timeResidual><timeUsed>true</timeUsed><horizontalSlownessUsed>false</horizontalSlownessUsed><backazimuthUsed>false</backazimuthUsed><weight>1</weight></arrival><magnitude publicID="de.gempa.tb1.Magnitude/20250413060245.942065.321028"><magnitude><value>3.7134278398170615</value></magnitude><type>M</type><methodID>weighted average</methodID><stationCount>9</stationCount></magnitude></origin><event publicID="gempa2025hgwg"><preferredOriginID>de.gempa.tb1.Origin/2025