<?xml version="1.0" encoding="UTF-8"?>
<seiscomp xmlns="http://geofon.gfz-potsdam.de/ns/seiscomp3-schema/0.13" version="0.13"><EventParameters><pick publicID="de.gempa.tb2.Pick/20250414202740.138594.186438"><time><value>2025-04-14T20:27:37.130001Z</value></time><waveformID networkCode="CH" stationCode="FIESA" channelCode="HHZ"/><filterID>ITAPER(4)&gt;&gt;BW(4,4,20)</filterID><methodID>AIC</methodID><phaseHint>P</phaseHint><evaluationMode>automatic</evaluationMode></pick><pick publicID="de.gempa.tb2.Pick/20250414202742.306208.186440"><time><value>2025-04-14T20:27:39.265Z</value></time><waveformID networkCode="CH" stationCode="VANNI" channelCode="HHZ"/><filterID>ITAPER(4)&gt;&gt;BW(4,4,20)</filterID><methodID>AIC</methodID><phaseHint>P</phaseHint><evaluationMode>automatic</evaluationMode></pick><pick publicID="de.gempa.tb2.Pick/20250414202744.4704.186442"><time><value>2025-04-14T20:27:41.235Z</value></time><waveformID networkCode="CH" stationCode="EMBD" channelCode="HHZ"/><filterID>ITAPER(4)&gt;&gt;BW(4,4,20)</filterID><methodID>AIC</methodID><phaseHint>P</phaseHint><evaluationMode>automatic</evaluationMode></pick><pick publicID="de.gempa.tb2.Pick/20250414202746.129697.186444"><time><value>2025-04-14T20:27:42.555Z</value></time><waveformID networkCode="CH" stationCode="MMK" channelCode="HHZ"/><filterID>ITAPER(4)&gt;&gt;BW(4,4,20)</filterID><methodID>AIC</methodID><phaseHint>P</phaseHint><evaluationMode>automatic</evaluationMode></pick><pick publicID="de.gempa.tb2.Pick/20250414202751.15429.186451"><time><value>2025-04-14T20:27:40.47Z</value></time><waveformID networkCode="CH" stationCode="SENIN" channelCode="HHZ"/><filterID>ITAPER(4)&gt;&gt;BW(4,4,20)</filterID><methodID>AIC</methodID><phaseHint>P</phaseHint><evaluationMode>automatic</evaluationMode></pick><pick publicID="de.gempa.tb2.Pick/20250414202946.647863.186490"><time><value>2025-04-14T20:28:28.42Z</value></time><waveformID networkCode="GR" stationCode="WET" channelCode="BHZ"/><filterID>BW(4,4,8)</filterID><methodID>AIC</methodID><phaseHint>P</phaseHint><evaluationMode>automatic</evaluationMode></pick><origin publicID="de.gempa.tb2.Origin/20250414202946.661449.76134"><time><value>2025-04-14T20:27:27.411779Z</value><uncertainty>1.1413776874542236</uncertainty></time><latitude><value>46.81897354125977</value><uncertainty>11.901845932006836</uncertainty></latitude><longitude><value>7.875250339508057</value><uncertainty>8.775215148925781</uncertainty></longitude><depth><value>23.234182357788086</value><uncertainty>15.59876823425293</uncertainty></depth><depthType>from location</depthType><methodID>LOCSAT</methodID><earthModelID>iasp91</earthModelID><quality><associatedPhaseCount>6</associatedPhaseCount><usedPhaseCount>6</usedPhaseCount><associatedStationCount>6</associatedStationCount><usedStationCount>6</usedStationCount><depthPhaseCount>0</depthPhaseCount><standardError>0.7414093853049826</standardError><azimuthalGap>192.19619750976562</azimuthalGap><maximumDistance>4.0881175994873047</maximumDistance><minimumDistance>0.41665923595428467</minimumDistance><medianDistance>0.638752281665802</medianDistance></quality><uncertainty><minHorizontalUncertainty>15.717036247253418</minHorizontalUncertainty><maxHorizontalUncertainty>27.5491886138916</maxHorizontalUncertainty><azimuthMaxHorizontalUncertainty>152.76051330566406</azimuthMaxHorizontalUncertainty><preferredDescription>horizontal uncertainty</preferredDescription></uncertainty><evaluationMode>automatic</evaluationMode><arrival><pickID>de.gempa.tb2.Pick/20250414202740.138594.186438</pickID><phase>P</phase><azimuth>157.02247619628906</azimuth><distance>0.41665923595428467</distance><timeResidual>-0.23802947998046875</timeResidual><timeUsed>true</timeUsed><horizontalSlownessUsed>false</horizontalSlownessUsed><backazimuthUsed>false</backazimuthUsed><weight>1</weight></arrival><arrival><pickID>de.gempa.tb2.Pick/20250414202742.306208.186440</pickID><phase>P</phase><azimuth>197.62290954589844</azimuth><distance>0.638752281665802</distance><timeResidual>-1.326436996459961</timeResidual><timeUsed>true</timeUsed><horizontalSlownessUsed>false</horizontalSlownessUsed><backazimuthUsed>false</backazimuthUsed><weight>1</weight></arrival><arrival><pickID>de.gempa.tb2.Pick/20250414202744.4704.186442</pickID><phase>P</phase><azimuth>182.8376922607422</azimuth><distance>0.6033876538276672</distance><timeResidual>1.1572189331054688</timeResidual><timeUsed>true</timeUsed><horizontalSlownessUsed>false</horizontalSlownessUsed><backazimuthUsed>false</backazimuthUsed><weight>1</weight></arrival><arrival><pickID>de.gempa.tb2.Pick/20250414202746.129697.186444</pickID><phase>P</phase><azimuth>175.40301513671875</azimuth><distance>0.7711312174797058</distance><timeResidual>0.040268898010253906</timeResidual><timeUsed>true</timeUsed><horizontalSlownessUsed>false</horizontalSlownessUsed><backazimuthUsed>false</backazimuthUsed><weight>1</weight></arrival><arrival><pickID>de.gempa.tb2.Pick/20250414202751.15429.186451</pickID><phase>P</phase><azimuth>221.27947998046875</azimuth><distance>0.6045634746551514</distance><timeResidual>0.37573814392089844</timeResidual><timeUsed>true</timeUsed><horizontalSlownessUsed>false</horizontalSlownessUsed><backazimuthUsed>false</backazimuthUsed><weight>1</weight></arrival><arrival><pickID>de.gempa.tb2.Pick/20250414202946.647863.186490</pickID><phase>P</phase><azimuth>53.47567749023438</azimuth><distance>4.0881175994873047</distance><timeResidual>-0.008817672729492188</timeResidual><timeUsed>true</timeUsed><horizontalSlownessUsed>false</horizontalSlownessUsed><backazimuthUsed>false</backazimuthUsed><weight>1</weight></arrival><magnitude publicID="de.gempa.tb2.Magnitude/20250414202946.892361.37037"><magnitude><value>1.7945188640201355</value></magnitude><type>M</type><methodID>weighted average</methodID><stationCount>5</stationCount></magnitude></origin><event publicID="gempa2025hjve"><preferredOriginID>de.gempa.tb2.Origin/20250414202946.661449.76134</preferredOriginID><preferredMagnitudeID>de.gempa.tb2.Magnitude/20250414202946.892361.37037</preferredMagnitudeID><description><text>Switzerland</text><type>region name</type></description><originReference>de.gempa.tb2.Origin/20250414202946.661449.76134</originReference></event></EventParameters></seiscomp>