<?xml version="1.0" encoding="UTF-8"?>
<seiscomp xmlns="http://geofon.gfz-potsdam.de/ns/seiscomp3-schema/0.13" version="0.13"><EventParameters><pick publicID="de.gempa.tb1.Pick/20250414174652.075279.139816"><time><value>2025-04-14T17:46:46.398393Z</value></time><waveformID networkCode="CX" stationCode="PB08" channelCode="HHZ"/><filterID>ITAPER(4)&gt;&gt;BW(4,4,20)</filterID><methodID>AIC</methodID><horizontalSlowness><value>10.216817080548857</value></horizontalSlowness><backazimuth><value>256.197539612395</value></backazimuth><phaseHint>P</phaseHint><evaluationMode>automatic</evaluationMode><comment><text>249.98538779559706</text><id>DFX:rectilinearity</id></comment><comment><text>200.0346294659852</text><id>SNR</id></comment></pick><pick publicID="de.gempa.tb1.Pick/20250414174657.590646.139819"><time><value>2025-04-14T17:46:53.588394Z</value></time><waveformID networkCode="CX" stationCode="PB01" channelCode="HHZ"/><filterID>ITAPER(4)&gt;&gt;BW(4,4,20)</filterID><methodID>AIC</methodID><horizontalSlowness><value>12.70980351095419</value></horizontalSlowness><backazimuth><value>354.8152895395799</value></backazimuth><phaseHint>P</phaseHint><evaluationMode>automatic</evaluationMode><comment><text>127.27657192446965</text><id>DFX:rectilinearity</id></comment><comment><text>32.69284770109369</text><id>SNR</id></comment></pick><pick publicID="de.gempa.tb1.Pick/20250414174659.224513.139821"><time><value>2025-04-14T17:46:53.109999Z</value></time><waveformID networkCode="CX" stationCode="PATCX" channelCode="HHZ"/><filterID>ITAPER(4)&gt;&gt;BW(4,4,20)</filterID><methodID>AIC</methodID><horizontalSlowness><value>18.98186831018024</value></horizontalSlowness><backazimuth><value>68.09881294960894</value></backazimuth><phaseHint>P</phaseHint><evaluationMode>automatic</evaluationMode><comment><text>85.08701202103433</text><id>DFX:rectilinearity</id></comment><comment><text>22.020048507022889</text><id>SNR</id></comment></pick><pick publicID="de.gempa.tb1.Pick/20250414174704.557291.139823"><time><value>2025-04-14T17:46:56.358393Z</value></time><waveformID networkCode="CX" stationCode="PB16" channelCode="HHZ"/><filterID>ITAPER(4)&gt;&gt;BW(4,4,20)</filterID><methodID>AIC</methodID><horizontalSlowness><value>7.328740265130214</value></horizontalSlowness><backazimuth><value>207.30968702826692</value></backazimuth><phaseHint>P</phaseHint><evaluationMode>automatic</evaluationMode><comment><text>7.931891364360834</text><id>DFX:rectilinearity</id></comment><comment><text>11.509819420035583</text><id>SNR</id></comment></pick><pick publicID="de.gempa.tb1.Pick/20250414174706.520559.139825"><time><value>2025-04-14T17:47:00.188393Z</value></time><waveformID networkCode="CX" stationCode="PB08" channelCode="HHN"/><filterID>ITAPER(2)&gt;&gt;BW(3,3,20)</filterID><methodID>L2-AIC-GRID</methodID><horizontalSlowness><value>16.457154842362819</value></horizontalSlowness><backazimuth><value>203.34238646184724</value></backazimuth><phaseHint>S</phaseHint><evaluationMode>automatic</evaluationMode><comment><text>44284.72237730932</text><id>DFX:rectilinearity</id></comment><comment><text>de.gempa.tb1.Pick/20250414174652.075279.139816</text><id>RefPickID</id></comment><comment><text>8.56086684057926</text><id>SNR</id></comment></pick><pick publicID="de.gempa.tb1.Pick/20250414174722.503958.139830"><time><value>2025-04-14T17:47:14.198393Z</value></time><waveformID networkCode="CX" stationCode="PB06" channelCode="HHZ"/><filterID>ITAPER(4)&gt;&gt;BW(4,4,20)</filterID><methodID>AIC</methodID><horizontalSlowness><value>23.42111153787085</value></horizontalSlowness><backazimuth><value>151.922543840406</value></backazimuth><phaseHint>P</phaseHint><evaluationMode>automatic</evaluationMode><comment><text>43.511775064858625</text><id>DFX:rectilinearity</id></comment><comment><text>20.131115805705829</text><id>SNR</id></comment></pick><origin publicID="de.gempa.tb1.Origin/20250414174722.507241.145554"><time><value>2025-04-14T17:46:29.3912Z</value><uncertainty>1.0881040096282959</uncertainty></time><latitude><value>-19.808713912963867</value><uncertainty>5.504447937011719</uncertainty></latitude><longitude><value>-69.47728729248047</value><uncertainty>17.293882369995117</uncertainty></longitude><depth><value>116.8133544921875</value><uncertainty>11.581276893615723</uncertainty></depth><depthType>from location</depthType><methodID>LOCSAT</methodID><earthModelID>iasp91_scanloc</earthModelID><quality><associatedPhaseCount>6</associatedPhaseCount><usedPhaseCount>6</usedPhaseCount><associatedStationCount>5</associatedStationCount><usedStationCount>5</usedStationCount><depthPhaseCount>0</depthPhaseCount><standardError>0.15247936525211647</standardError><azimuthalGap>146.7864990234375</azimuthalGap><maximumDistance>2.8841025829315186</maximumDistance><minimumDistance>0.4496304392814636</minimumDistance><medianDistance>1.2282849550247192</medianDistance></quality><uncertainty><minHorizontalUncertainty>11.72076416015625</minHorizontalUncertainty><maxHorizontalUncertainty>37.11487579345703</maxHorizontalUncertainty><azimuthMaxHorizontalUncertainty>92.287841796875</azimuthMaxHorizontalUncertainty><preferredDescription>horizontal uncertainty</preferredDescription></uncertainty><evaluationMode>automatic</evaluationMode><evaluationStatus>confirmed</evaluationStatus><comment><text>0.46</text><id>mismatchScore</id></comment><comment><text>mismatchScore</text><id>scevalMethod</id></comment><arrival><pickID>de.gempa.tb1.Pick/20250414174652.075279.139816</pickID><phase>P</phase><azimuth>137.403076171875</azimuth><distance>0.4496304392814636</distance><timeResidual>-0.3077735900878906</timeResidual><timeUsed>true</timeUsed><horizontalSlownessUsed>false</horizontalSlownessUsed><backazimuthUsed>false</backazimuthUsed><weight>1</weight></arrival><arrival><pickID>de.gempa.tb1.Pick/20250414174657.590646.139819</pickID><phase>P</phase><azimuth>180.44052124023438</azimuth><distance>1.2282849550247192</distance><timeResidual>0.011091232299804688</timeResidual><timeUsed>true</timeUsed><horizontalSlownessUsed>false</horizontalSlownessUsed><backazimuthUsed>false</backazimuthUsed><weight>1</weight></arrival><arrival><pickID>de.gempa.tb1.Pick/20250414174659.224513.139821</pickID><phase>P</phase><azimuth>212.0855712890625</azimuth><distance>1.189860463142395</distance><timeResidual>-0.05166435241699219</timeResidual><timeUsed>true</timeUsed><horizontalSlownessUsed>false</horizontalSlownessUsed><backazimuthUsed>false</backazimuthUsed><weight>1</weight></arrival><arrival><pickID>de.gempa.tb1.Pick/20250414174704.557291.139823</pickID><phase>P</phase><azimuth>358.8720703125</azimuth><distance>1.466119408607483</distance><timeResidual>0.08593177795410156</timeResidual><timeUsed>true</timeUsed><horizontalSlownessUsed>false</horizontalSlownessUsed><backazimuthUsed>false</backazimuthUsed><weight>1</weight></arrival><arrival><pickID>de.gempa.tb1.Pick/20250414174706.520559.139825</pickID><phase>S</phase><azimuth>137.403076171875</azimuth><distance>0.4496304392814636</distance><timeResidual>0.14043235778808594</timeResidual><timeUsed>true</timeUsed><horizontalSlownessUsed>false</horizontalSlownessUsed><backazimuthUsed>false</backazimuthUsed><weight>1</weight></arrival><arrival><pickID>de.gempa.tb1.Pick/20250414174722.503958.139830</pickID><phase>P</phase><azimuth>181.7362060546875</azimuth><distance>2.8841025829315186</distance><timeResidual>0.12197303771972656</timeResidual><timeUsed>true</timeUsed><horizontalSlownessUsed>false</horizontalSlownessUsed><backazimuthUsed>false</backazimuthUsed><weight>1</weight></arrival><magnitude publicID="de.gempa.tb1.Magnitude/20250414174815.442976.522215"><magnitude><value>2.787227252776297</value></magnitude><type>M</type><methodID>weighted average</methodID><stationCount>4</stationCount></magnitude></origin><event publicID="gempa2025hjpv"><preferredOriginID>de.gempa.tb1.Origin/20250414174722.507241.145554</preferredOriginID><preferredMagnitudeID>de.gempa.tb1.Magnitude/20250414174815.442976.522215</preferredMagnitudeID><description><text>Northern Chile</text><type>region name</type></description><originReference>de.gempa.tb1.Origin/20250414174722.507241.145554</originReference></event></EventParameters></seiscomp>