<?xml version="1.0" encoding="UTF-8"?>
<seiscomp xmlns="http://geofon.gfz-potsdam.de/ns/seiscomp3-schema/0.13" version="0.13"><EventParameters><pick publicID="de.gempa.tb1.Pick/20250414151634.579741.138783"><time><value>2025-04-14T15:16:27.488393Z</value></time><waveformID networkCode="CX" stationCode="PB01" channelCode="HHZ"/><filterID>ITAPER(4)&gt;&gt;BW(4,4,20)</filterID><methodID>AIC</methodID><horizontalSlowness><value>17.615422602792016</value></horizontalSlowness><backazimuth><value>332.4267000452519</value></backazimuth><phaseHint>P</phaseHint><evaluationMode>automatic</evaluationMode><comment><text>13.173454260287627</text><id>DFX:rectilinearity</id></comment><comment><text>10.99206242398674</text><id>SNR</id></comment></pick><pick publicID="de.gempa.tb1.Pick/20250414151637.455372.138785"><time><value>2025-04-14T15:16:30.198394Z</value></time><waveformID networkCode="CX" stationCode="PB02" channelCode="HHZ"/><filterID>ITAPER(4)&gt;&gt;BW(4,4,20)</filterID><methodID>AIC</methodID><horizontalSlowness><value>15.153200607508612</value></horizontalSlowness><backazimuth><value>22.46028848395332</value></backazimuth><phaseHint>P</phaseHint><evaluationMode>automatic</evaluationMode><comment><text>14.49128367626063</text><id>DFX:rectilinearity</id></comment><comment><text>16.421293105320068</text><id>SNR</id></comment></pick><pick publicID="de.gempa.tb1.Pick/20250414151640.472616.138787"><time><value>2025-04-14T15:16:34.879999Z</value></time><waveformID networkCode="CX" stationCode="PATCX" channelCode="HHZ"/><filterID>ITAPER(4)&gt;&gt;BW(4,4,20)</filterID><methodID>AIC</methodID><horizontalSlowness><value>23.028285879584974</value></horizontalSlowness><backazimuth><value>282.52563736858195</value></backazimuth><phaseHint>P</phaseHint><evaluationMode>automatic</evaluationMode><comment><text>118.13779854958472</text><id>DFX:rectilinearity</id></comment><comment><text>8.331532615223395</text><id>SNR</id></comment></pick><pick publicID="de.gempa.tb1.Pick/20250414151642.111889.138789"><time><value>2025-04-14T15:16:24.860001Z</value></time><waveformID networkCode="CX" stationCode="PB09" channelCode="HHZ"/><filterID>ITAPER(4)&gt;&gt;BW(4,4,20)</filterID><methodID>AIC</methodID><horizontalSlowness><value>15.627673728898252</value></horizontalSlowness><backazimuth><value>277.73669947329654</value></backazimuth><phaseHint>P</phaseHint><evaluationMode>automatic</evaluationMode><comment><text>13.217850698767082</text><id>DFX:rectilinearity</id></comment><comment><text>10.03024996972039</text><id>SNR</id></comment></pick><pick publicID="de.gempa.tb1.Pick/20250414151652.523188.138793"><time><value>2025-04-14T15:16:41.588393Z</value></time><waveformID networkCode="CX" stationCode="PB01" channelCode="HHN"/><filterID>ITAPER(2)&gt;&gt;BW(3,3,20)</filterID><methodID>L2-AIC-GRID</methodID><horizontalSlowness><value>19.888769620902131</value></horizontalSlowness><backazimuth><value>41.249656246385427</value></backazimuth><phaseHint>S</phaseHint><evaluationMode>automatic</evaluationMode><comment><text>8.063512271250856</text><id>DFX:rectilinearity</id></comment><comment><text>de.gempa.tb1.Pick/20250414151634.579741.138783</text><id>RefPickID</id></comment><comment><text>5.182743407348282</text><id>SNR</id></comment></pick><pick publicID="de.gempa.tb1.Pick/20250414151653.43574.138794"><time><value>2025-04-14T15:16:29.938396Z</value></time><waveformID networkCode="CX" stationCode="PB07" channelCode="HHZ"/><filterID>ITAPER(4)&gt;&gt;BW(4,4,20)</filterID><methodID>AIC</methodID><horizontalSlowness><value>21.920733137950219</value></horizontalSlowness><backazimuth><value>68.47848153952062</value></backazimuth><phaseHint>P</phaseHint><evaluationMode>automatic</evaluationMode><comment><text>140.1712323892495</text><id>DFX:rectilinearity</id></comment><comment><text>31.62340393162516</text><id>SNR</id></comment></pick><pick publicID="de.gempa.tb1.Pick/20250414151653.490633.138796"><time><value>2025-04-14T15:16:43.658394Z</value></time><waveformID networkCode="CX" stationCode="PB02" channelCode="HHN"/><filterID>ITAPER(2)&gt;&gt;BW(3,3,20)</filterID><methodID>L2-AIC-GRID</methodID><horizontalSlowness><value>11.579960230016374</value></horizontalSlowness><backazimuth><value>26.55868980224028</value></backazimuth><phaseHint>S</phaseHint><evaluationMode>automatic</evaluationMode><comment><text>11.365740589108173</text><id>DFX:rectilinearity</id></comment><comment><text>de.gempa.tb1.Pick/20250414151637.455372.138785</text><id>RefPickID</id></comment><comment><text>6.081534283970427</text><id>SNR</id></comment></pick><pick publicID="de.gempa.tb1.Pick/20250414151656.05476.138797"><time><value>2025-04-14T15:16:36.790001Z</value></time><waveformID networkCode="CX" stationCode="PB09" channelCode="HHN"/><filterID>ITAPER(2)&gt;&gt;BW(3,3,20)</filterID><methodID>L2-AIC-GRID</methodID><horizontalSlowness><value>19.97474960883606</value></horizontalSlowness><backazimuth><value>93.36343962092</value></backazimuth><phaseHint>S</phaseHint><evaluationMode>automatic</evaluationMode><comment><text>15.812929657051656</text><id>DFX:rectilinearity</id></comment><comment><text>de.gempa.tb1.Pick/20250414151642.111889.138789</text><id>RefPickID</id></comment><comment><text>10.329602430441684</text><id>SNR</id></comment></pick><pick publicID="de.gempa.tb1.Pick/20250414151657.30583.138798"><time><value>2025-04-14T15:16:42.198396Z</value></time><waveformID networkCode="CX" stationCode="PB07" channelCode="HHN"/><filterID>ITAPER(2)&gt;&gt;BW(3,3,20)</filterID><methodID>L2-AIC-GRID</methodID><horizontalSlowness><value>21.239272671206656</value></horizontalSlowness><backazimuth><value>223.4255266317717</value></backazimuth><phaseHint>S</phaseHint><evaluationMode>automatic</evaluationMode><comment><text>121.21116575460785</text><id>DFX:rectilinearity</id></comment><comment><text>de.gempa.tb1.Pick/20250414151653.43574.138794</text><id>RefPickID</id></comment><comment><text>7.95324779897182</text><id>SNR</id></comment></pick><origin publicID="de.gempa.tb1.Origin/20250414151722.422469.141475"><time><value>2025-04-14T15:16:11.414831Z</value><uncertainty>1.155869722366333</uncertainty></time><latitude><value>-21.595680236816406</value><uncertainty>6.486476421356201</uncertainty></latitude><longitude><value>-69.07780456542969</value><uncertainty>7.889720439910889</uncertainty></longitude><depth><value>97.5867691040039</value><uncertainty>7.511170387268066</uncertainty></depth><depthType>from location</depthType><methodID>LOCSAT</methodID><earthModelID>iasp91_scanloc</earthModelID><quality><associatedPhaseCount>9</associatedPhaseCount><usedPhaseCount>9</usedPhaseCount><associatedStationCount>5</associatedStationCount><usedStationCount>5</usedStationCount><depthPhaseCount>0</depthPhaseCount><standardError>0.5540590988573133</standardError><azimuthalGap>252.2200469970703</azimuthalGap><maximumDistance>1.2652664184570312</maximumDistance><minimumDistance>0.2513630986213684</minimumDistance><medianDistance>0.7631843686103821</medianDistance></quality><uncertainty><minHorizontalUncertainty>13.240859985351562</minHorizontalUncertainty><maxHorizontalUncertainty>17.448936462402344</maxHorizontalUncertainty><azimuthMaxHorizontalUncertainty>67.96156311035156</azimuthMaxHorizontalUncertainty><preferredDescription>horizontal uncertainty</preferredDescription></uncertainty><evaluationMode>automatic</evaluationMode><evaluationStatus>confirmed</evaluationStatus><comment><text>0.05</text><id>mismatchScore</id></comment><comment><text>mismatchScore</text><id>scevalMethod</id></comment><arrival><pickID>de.gempa.tb1.Pick/20250414151634.579741.138783</pickID><phase>P</phase><azimuth>325.1374816894531</azimuth><distance>0.6693572402000427</distance><timeResidual>-0.8409671783447266</timeResidual><timeUsed>true</timeUsed><horizontalSlownessUsed>false</horizontalSlownessUsed><backazimuthUsed>false</backazimuthUsed><weight>1</weight></arrival><arrival><pickID>de.gempa.tb1.Pick/20250414151637.455372.138785</pickID><phase>P</phase><azimuth>289.663330078125</azimuth><distance>0.8101431727409363</distance><timeResidual>0.5368099212646484</timeResidual><timeUsed>true</timeUsed><horizontalSlownessUsed>false</horizontalSlownessUsed><backazimuthUsed>false</backazimuthUsed><weight>1</weight></arrival><arrival><pickID>de.gempa.tb1.Pick/20250414151640.472616.138787</pickID><phase>P</phase><azimuth>307.35577392578125</azimuth><distance>1.2652664184570312</distance><timeResidual>0.18688106536865234</timeResidual><timeUsed>true</timeUsed><horizontalSlownessUsed>false</horizontalSlownessUsed><backazimuthUsed>false</backazimuthUsed><weight>1</weight></arrival><arrival><pickID>de.gempa.tb1.Pick/20250414151642.111889.138789</pickID><phase>P</phase><azimuth>217.35752868652344</azimuth><distance>0.2513630986213684</distance><timeResidual>-0.6339387893676758</timeResidual><timeUsed>true</timeUsed><horizontalSlownessUsed>false</horizontalSlownessUsed><backazimuthUsed>false</backazimuthUsed><weight>1</weight></arrival><arrival><pickID>de.gempa.tb1.Pick/20250414151652.523188.138793</pickID><phase>S</phase><azimuth>325.1374816894531</azimuth><distance>0.6693572402000427</distance><timeResidual>0.25345325469970703</timeResidual><timeUsed>true</timeUsed><horizontalSlownessUsed>false</horizontalSlownessUsed><backazimuthUsed>false</backazimuthUsed><weight>1</weight></arrival><arrival><pickID>de.gempa.tb1.Pick/20250414151653.43574.138794</pickID><phase>P</phase><azimuth>260.0177307128906</azimuth><distance>0.7631843686103821</distance><timeResidual>0.7389335632324219</timeResidual><timeUsed>true</timeUsed><horizontalSlownessUsed>false</horizontalSlownessUsed><backazimuthUsed>false</backazimuthUsed><weight>1</weight></arrival><arrival><pickID>de.gempa.tb1.Pick/20250414151653.490633.138796</pickID><phase>S</phase><azimuth>289.663330078125</azimuth><distance>0.8101431727409363</distance><timeResidual>-0.04988574981689453</timeResidual><timeUsed>true</timeUsed><horizontalSlownessUsed>false</horizontalSlownessUsed><backazimuthUsed>false</backazimuthUsed><weight>1</weight></arrival><arrival><pickID>de.gempa.tb1.Pick/20250414151656.05476.138797</pickID><phase>S</phase><azimuth>217.35752868652344</azimuth><distance>0.2513630986213684</distance><timeResidual>0.4957780838012695</timeResidual><timeUsed>true</timeUsed><horizontalSlownessUsed>false</horizontalSlownessUsed><backazimuthUsed>false</backazimuthUsed><weight>1</weight></arrival><arrival><pickID>de.gempa.tb1.Pick/20250414151657.30583.138798</pickID><phase>S</phase><azimuth>260.0177307128906</azimuth><distance>0.7631843686103821</distance><timeResidual>-0.6870908737182617</timeResidual><timeUsed>true</timeUsed><horizontalSlownessUsed>false</horizontalSlownessUsed><backazimuthUsed>false</backazimuthUsed><weight>1</weight></arrival><magnitude publicID="de.gempa.tb1.Magnitude/20250414151724.798665.505717"><magnitude><value>1.9721234485227717</value></magnitude><type>M</type><methodID>weighted average</methodID><stationCount>3</stationCount></magnitude></origin><event publicID="gempa2025hjku"><preferredOriginID>de.gempa.tb1.Origin/20250414151722.422469.141475</preferredOriginID><preferredMagnitudeID>de.gempa.tb1.Magnitude/20250414151724.798665.505717</preferredMagnitudeID><description><text>Northern Chile</text><type>region name</type></description><originReference>de.gempa.tb1.Origin/20250414151722.422469.141475</originReference></event></EventParameters></seiscomp>