<?xml version="1.0" encoding="UTF-8"?>
<seiscomp xmlns="http://geofon.gfz-potsdam.de/ns/seiscomp3-schema/0.13" version="0.13"><EventParameters><pick publicID="de.gempa.tb1.Pick/20250411190307.835988.119627"><time><value>2025-04-11T19:03:02.368391Z</value></time><waveformID networkCode="CX" stationCode="PB06" channelCode="HHZ"/><filterID>ITAPER(4)&gt;&gt;BW(4,4,20)</filterID><methodID>AIC</methodID><horizontalSlowness><value>16.13796229686323</value></horizontalSlowness><backazimuth><value>69.45084501107995</value></backazimuth><phaseHint>P</phaseHint><evaluationMode>automatic</evaluationMode><comment><text>39.58773374926222</text><id>DFX:rectilinearity</id></comment><comment><text>13.296956061599316</text><id>SNR</id></comment></pick><pick publicID="de.gempa.tb1.Pick/20250411190310.16963.119629"><time><value>2025-04-11T19:02:58.2Z</value></time><waveformID networkCode="CX" stationCode="PB09" channelCode="HHZ"/><filterID>ITAPER(4)&gt;&gt;BW(4,4,20)</filterID><methodID>AIC</methodID><horizontalSlowness><value>21.492812826520666</value></horizontalSlowness><backazimuth><value>141.62995251294845</value></backazimuth><phaseHint>P</phaseHint><evaluationMode>automatic</evaluationMode><comment><text>1573.157454982159</text><id>DFX:rectilinearity</id></comment><comment><text>105.87845579516087</text><id>SNR</id></comment></pick><pick publicID="de.gempa.tb1.Pick/20250411190315.681271.119631"><time><value>2025-04-11T19:03:09.068393Z</value></time><waveformID networkCode="CX" stationCode="PB15" channelCode="HHZ"/><filterID>ITAPER(4)&gt;&gt;BW(4,4,20)</filterID><methodID>AIC</methodID><horizontalSlowness><value>22.94914371010985</value></horizontalSlowness><backazimuth><value>276.30394195544426</value></backazimuth><phaseHint>P</phaseHint><evaluationMode>automatic</evaluationMode><comment><text>422.56083372208224</text><id>DFX:rectilinearity</id></comment><comment><text>14.65633123018567</text><id>SNR</id></comment></pick><pick publicID="de.gempa.tb1.Pick/20250411190317.632746.119633"><time><value>2025-04-11T19:03:12.008393Z</value></time><waveformID networkCode="CX" stationCode="PB02" channelCode="HHZ"/><filterID>ITAPER(4)&gt;&gt;BW(4,4,20)</filterID><methodID>AIC</methodID><horizontalSlowness><value>15.042990646561643</value></horizontalSlowness><backazimuth><value>122.00127350765038</value></backazimuth><phaseHint>P</phaseHint><evaluationMode>automatic</evaluationMode><comment><text>255.43163677025623</text><id>DFX:rectilinearity</id></comment><comment><text>20.307844067102568</text><id>SNR</id></comment></pick><pick publicID="de.gempa.tb1.Pick/20250411190318.538728.119635"><time><value>2025-04-11T19:03:11.858393Z</value></time><waveformID networkCode="CX" stationCode="PB01" channelCode="HHZ"/><filterID>ITAPER(4)&gt;&gt;BW(4,4,20)</filterID><methodID>AIC</methodID><horizontalSlowness><value>12.55513473461214</value></horizontalSlowness><backazimuth><value>155.297695397809</value></backazimuth><phaseHint>P</phaseHint><evaluationMode>automatic</evaluationMode><comment><text>209.35835974828464</text><id>DFX:rectilinearity</id></comment><comment><text>26.575285689393443</text><id>SNR</id></comment></pick><pick publicID="de.gempa.tb1.Pick/20250411190325.543749.119637"><time><value>2025-04-11T19:03:20.17Z</value></time><waveformID networkCode="CX" stationCode="PB19" channelCode="HHZ"/><filterID>ITAPER(4)&gt;&gt;BW(4,4,20)</filterID><methodID>AIC</methodID><horizontalSlowness><value>23.382458541513657</value></horizontalSlowness><backazimuth><value>66.22713901488778</value></backazimuth><phaseHint>P</phaseHint><evaluationMode>automatic</evaluationMode><comment><text>22.270730404929019</text><id>DFX:rectilinearity</id></comment><comment><text>37.19979397481999</text><id>SNR</id></comment></pick><pick publicID="de.gempa.tb1.Pick/20250411190327.226032.119639"><time><value>2025-04-11T19:03:20.929999Z</value></time><waveformID networkCode="CX" stationCode="PATCX" channelCode="HHZ"/><filterID>ITAPER(4)&gt;&gt;BW(4,4,20)</filterID><methodID>AIC</methodID><horizontalSlowness><value>22.88046656143897</value></horizontalSlowness><backazimuth><value>217.82568349899097</value></backazimuth><phaseHint>P</phaseHint><evaluationMode>automatic</evaluationMode><comment><text>194.7959628986883</text><id>DFX:rectilinearity</id></comment><comment><text>14.428656122213026</text><id>SNR</id></comment></pick><pick publicID="de.gempa.tb1.Pick/20250411190334.171041.119643"><time><value>2025-04-11T19:03:07.058396Z</value></time><waveformID networkCode="CX" stationCode="PB07" channelCode="HHZ"/><filterID>ITAPER(4)&gt;&gt;BW(4,4,20)</filterID><methodID>AIC</methodID><horizontalSlowness><value>22.12948924132377</value></horizontalSlowness><backazimuth><value>122.43560721639827</value></backazimuth><phaseHint>P</phaseHint><evaluationMode>automatic</evaluationMode><comment><text>5276.202969445458</text><id>DFX:rectilinearity</id></comment><comment><text>82.75068169804332</text><id>SNR</id></comment></pick><pick publicID="de.gempa.tb1.Pick/20250411190335.658344.119645"><time><value>2025-04-11T19:03:14.298391Z</value></time><waveformID networkCode="CX" stationCode="PB06" channelCode="HHN"/><filterID>ITAPER(2)&gt;&gt;BW(3,3,20)</filterID><methodID>L2-AIC-GRID</methodID><horizontalSlowness><value>13.67654322626634</value></horizontalSlowness><backazimuth><value>199.1472214068595</value></backazimuth><phaseHint>S</phaseHint><evaluationMode>automatic</evaluationMode><comment><text>571.2568300122653</text><id>DFX:rectilinearity</id></comment><comment><text>de.gempa.tb1.Pick/20250411190307.835988.119627</text><id>RefPickID</id></comment><comment><text>6.032889255099344</text><id>SNR</id></comment></pick><origin publicID="de.gempa.tb1.Origin/20250411190338.560656.63961"><time><value>2025-04-11T19:02:48.302206Z</value><uncertainty>0.75308758020401</uncertainty></time><latitude><value>-22.200145721435547</value><uncertainty>2.522254467010498</uncertainty></latitude><longitude><value>-68.94384002685547</value><uncertainty>6.235726833343506</uncertainty></longitude><depth><value>0</value></depth><depthType>operator assigned</depthType><methodID>LOCSAT</methodID><earthModelID>iasp91_scanloc</earthModelID><quality><associatedPhaseCount>9</associatedPhaseCount><usedPhaseCount>9</usedPhaseCount><associatedStationCount>8</associatedStationCount><usedStationCount>8</usedStationCount><depthPhaseCount>0</depthPhaseCount><standardError>0.5455774134084161</standardError><azimuthalGap>214.41220092773438</azimuthalGap><maximumDistance>1.775282859802246</maximumDistance><minimumDistance>0.487836092710495</minimumDistance><medianDistance>1.1152433156967163</medianDistance></quality><uncertainty><minHorizontalUncertainty>5.252540588378906</minHorizontalUncertainty><maxHorizontalUncertainty>13.434232711791992</maxHorizontalUncertainty><azimuthMaxHorizontalUncertainty>95.99177551269531</azimuthMaxHorizontalUncertainty><preferredDescription>horizontal uncertainty</preferredDescription></uncertainty><evaluationMode>automatic</evaluationMode><evaluationStatus>confirmed</evaluationStatus><comment><text>0.14</text><id>mismatchScore</id></comment><comment><text>mismatchScore</text><id>scevalMethod</id></comment><arrival><pickID>de.gempa.tb1.Pick/20250411190307.835988.119627</pickID><phase>P</phase><azimuth>228.98248291015625</azimuth><distance>0.7686399221420288</distance><timeResidual>-0.676309585571289</timeResidual><timeUsed>true</timeUsed><horizontalSlownessUsed>false</horizontalSlownessUsed><backazimuthUsed>false</backazimuthUsed><weight>1</weight></arrival><arrival><pickID>de.gempa.tb1.Pick/20250411190310.16963.119629</pickID><phase>P</phase><azimuth>325.3981628417969</azimuth><distance>0.487836092710495</distance><timeResidual>0.5401687622070312</timeResidual><timeUsed>true</timeUsed><horizontalSlownessUsed>false</horizontalSlownessUsed><backazimuthUsed>false</backazimuthUsed><weight>1</weight></arrival><arrival><pickID>de.gempa.tb1.Pick/20250411190315.681271.119631</pickID><phase>P</phase><azimuth>205.77503967285156</azimuth><distance>1.1152433156967163</distance><timeResidual>-0.6236867904663086</timeResidual><timeUsed>true</timeUsed><horizontalSlownessUsed>false</horizontalSlownessUsed><backazimuthUsed>false</backazimuthUsed><weight>1</weight></arrival><arrival><pickID>de.gempa.tb1.Pick/20250411190317.632746.119633</pickID><phase>P</phase><azimuth>314.5300598144531</azimuth><distance>1.2454184293746948</distance><timeResidual>-0.18275737762451172</timeResidual><timeUsed>true</timeUsed><horizontalSlownessUsed>false</horizontalSlownessUsed><backazimuthUsed>false</backazimuthUsed><weight>1</weight></arrival><arrival><pickID>de.gempa.tb1.Pick/20250411190318.538728.119635</pickID><phase>P</phase><azimuth>336.1831359863281</azimuth><distance>1.2574502229690552</distance><timeResidual>-0.5638675689697266</timeResidual><timeUsed>true</timeUsed><horizontalSlownessUsed>false</horizontalSlownessUsed><backazimuthUsed>false</backazimuthUsed><weight>1</weight></arrival><arrival><pickID>de.gempa.tb1.Pick/20250411190325.543749.119637</pickID><phase>P</phase><azimuth>190.5953369140625</azimuth><distance>1.7265007495880127</distance><timeResidual>0.5876188278198242</timeResidual><timeUsed>true</timeUsed><horizontalSlownessUsed>false</horizontalSlownessUsed><backazimuthUsed>false</backazimuthUsed><weight>1</weight></arrival><arrival><pickID>de.gempa.tb1.Pick/20250411190327.226032.119639</pickID><phase>P</phase><azimuth>320.4197998046875</azimuth><distance>1.775282859802246</distance><timeResidual>0.6725034713745117</timeResidual><timeUsed>true</timeUsed><horizontalSlownessUsed>false</horizontalSlownessUsed><backazimuthUsed>false</backazimuthUsed><weight>1</weight></arrival><arrival><pickID>de.gempa.tb1.Pick/20250411190334.171041.119643</pickID><phase>P</phase><azimuth>298.1330871582031</azimuth><distance>0.9935873746871948</distance><timeResidual>-0.30207157135009766</timeResidual><timeUsed>true</timeUsed><horizontalSlownessUsed>false</horizontalSlownessUsed><backazimuthUsed>false</backazimuthUsed><weight>1</weight></arrival><arrival><pickID>de.gempa.tb1.Pick/20250411190335.658344.119645</pickID><phase>S</phase><azimuth>228.98248291015625</azimuth><distance>0.7686399221420288</distance><timeResidual>0.5482511520385742</timeResidual><timeUsed>true</timeUsed><horizontalSlownessUsed>false</horizontalSlownessUsed><backazimuthUsed>false</backazimuthUsed><weight>1</weight></arrival><magnitude publicID="de.gempa.tb1.Magnitude/20250411190338.56635.133943"><magnitude><value>2.75578529306036</value></magnitude><type>M</type><methodID>weighted average</methodID><stationCount>6</stationCount></magnitude></origin><event publicID="gempa2025heeh"><preferredOriginID>de.gempa.tb1.Origin/20250411190338.560656.63961</preferredOriginID><preferredMagnitudeID>de.gempa.tb1.Magnitude/20250411190338.56635.133943</preferredMagnitudeID><description><text>Northern Chile</text><type>region name</type></description><originReference>de.gempa.tb1.Origin/20250411190338.560656.63961</originReference></event></EventParameters></seiscomp>