<?xml version="1.0" encoding="UTF-8"?>
<seiscomp xmlns="http://geofon.gfz-potsdam.de/ns/seiscomp3-schema/0.13" version="0.13"><EventParameters><pick publicID="de.gempa.tb1.Pick/20250415020705.18399.142814"><time><value>2025-04-15T02:07:01.15Z</value></time><waveformID networkCode="CX" stationCode="PB10" channelCode="HHZ"/><filterID>ITAPER(4)&gt;&gt;BW(4,4,20)</filterID><methodID>AIC</methodID><horizontalSlowness><value>12.055105832780098</value></horizontalSlowness><backazimuth><value>178.13752912011984</value></backazimuth><phaseHint>P</phaseHint><evaluationMode>automatic</evaluationMode><comment><text>1801.2230708523186</text><id>DFX:rectilinearity</id></comment><comment><text>393.11397712612336</text><id>SNR</id></comment></pick><pick publicID="de.gempa.tb1.Pick/20250415020715.620902.142817"><time><value>2025-04-15T02:07:11.098393Z</value></time><waveformID networkCode="CX" stationCode="PB15" channelCode="HHZ"/><filterID>ITAPER(4)&gt;&gt;BW(4,4,20)</filterID><methodID>AIC</methodID><horizontalSlowness><value>21.310546493503264</value></horizontalSlowness><backazimuth><value>93.73903596654782</value></backazimuth><phaseHint>P</phaseHint><evaluationMode>automatic</evaluationMode><comment><text>2546.0763508556583</text><id>DFX:rectilinearity</id></comment><comment><text>36.102441056424794</text><id>SNR</id></comment></pick><pick publicID="de.gempa.tb1.Pick/20250415020721.599748.142820"><time><value>2025-04-15T02:07:15.968394Z</value></time><waveformID networkCode="CX" stationCode="PB06" channelCode="HHZ"/><filterID>ITAPER(4)&gt;&gt;BW(4,4,20)</filterID><methodID>AIC</methodID><horizontalSlowness><value>13.829442234178599</value></horizontalSlowness><backazimuth><value>183.51529347077988</value></backazimuth><phaseHint>P</phaseHint><evaluationMode>automatic</evaluationMode><comment><text>72.91710106973999</text><id>DFX:rectilinearity</id></comment><comment><text>46.03254972533669</text><id>SNR</id></comment></pick><pick publicID="de.gempa.tb1.Pick/20250415020726.696231.142823"><time><value>2025-04-15T02:07:22.158393Z</value></time><waveformID networkCode="CX" stationCode="PB03" channelCode="HHZ"/><filterID>ITAPER(4)&gt;&gt;BW(4,4,20)</filterID><methodID>AIC</methodID><horizontalSlowness><value>8.495374264931298</value></horizontalSlowness><backazimuth><value>252.3258719111592</value></backazimuth><phaseHint>P</phaseHint><evaluationMode>automatic</evaluationMode><comment><text>20.6739533510428</text><id>DFX:rectilinearity</id></comment><comment><text>31.720031584682154</text><id>SNR</id></comment></pick><pick publicID="de.gempa.tb1.Pick/20250415020736.493041.142828"><time><value>2025-04-15T02:07:31.118394Z</value></time><waveformID networkCode="CX" stationCode="PB02" channelCode="HHZ"/><filterID>ITAPER(4)&gt;&gt;BW(4,4,20)</filterID><methodID>AIC</methodID><horizontalSlowness><value>16.671673049014117</value></horizontalSlowness><backazimuth><value>291.0947557975252</value></backazimuth><phaseHint>P</phaseHint><evaluationMode>automatic</evaluationMode><comment><text>36.225060147973167</text><id>DFX:rectilinearity</id></comment><comment><text>24.1020364606765</text><id>SNR</id></comment></pick><pick publicID="de.gempa.tb1.Pick/20250415020738.354591.142830"><time><value>2025-04-15T02:07:29.140001Z</value></time><waveformID networkCode="CX" stationCode="PB09" channelCode="HHZ"/><filterID>ITAPER(4)&gt;&gt;BW(4,4,20)</filterID><methodID>AIC</methodID><horizontalSlowness><value>20.13228465273836</value></horizontalSlowness><backazimuth><value>293.3439613429461</value></backazimuth><phaseHint>P</phaseHint><evaluationMode>automatic</evaluationMode><comment><text>11.176442778241531</text><id>DFX:rectilinearity</id></comment><comment><text>16.945010225642907</text><id>SNR</id></comment></pick><pick publicID="de.gempa.tb1.Pick/20250415020739.676706.142832"><time><value>2025-04-15T02:07:26.038393Z</value></time><waveformID networkCode="CX" stationCode="PB07" channelCode="HHZ"/><filterID>ITAPER(4)&gt;&gt;BW(4,4,20)</filterID><methodID>AIC</methodID><horizontalSlowness><value>22.269687706877097</value></horizontalSlowness><backazimuth><value>309.4155684868821</value></backazimuth><phaseHint>P</phaseHint><evaluationMode>automatic</evaluationMode><comment><text>362.48643955415383</text><id>DFX:rectilinearity</id></comment><comment><text>25.65940603400039</text><id>SNR</id></comment></pick><pick publicID="de.gempa.tb1.Pick/20250415020744.345034.142835"><time><value>2025-04-15T02:07:36.669999Z</value></time><waveformID networkCode="CX" stationCode="PATCX" channelCode="HHZ"/><filterID>ITAPER(4)&gt;&gt;BW(4,4,20)</filterID><methodID>AIC</methodID><horizontalSlowness><value>23.25503375169833</value></horizontalSlowness><backazimuth><value>79.55536990371526</value></backazimuth><phaseHint>P</phaseHint><evaluationMode>automatic</evaluationMode><comment><text>181.47176643136046</text><id>DFX:rectilinearity</id></comment><comment><text>10.020452666428872</text><id>SNR</id></comment></pick><pick publicID="de.gempa.tb1.Pick/20250415020744.563346.142837"><time><value>2025-04-15T02:07:36.318393Z</value></time><waveformID networkCode="CX" stationCode="PB01" channelCode="HHZ"/><filterID>ITAPER(4)&gt;&gt;BW(4,4,20)</filterID><methodID>AIC</methodID><horizontalSlowness><value>21.09122432849507</value></horizontalSlowness><backazimuth><value>243.53952875056103</value></backazimuth><phaseHint>P</phaseHint><evaluationMode>automatic</evaluationMode><comment><text>9.222608774648679</text><id>DFX:rectilinearity</id></comment><comment><text>14.855208127808563</text><id>SNR</id></comment></pick><pick publicID="de.gempa.tb1.Pick/20250415020802.580704.142842"><time><value>2025-04-15T02:07:52.869998Z</value></time><waveformID networkCode="CX" stationCode="PSGCX" channelCode="HHZ"/><filterID>ITAPER(4)&gt;&gt;BW(4,4,20)</filterID><methodID>AIC</methodID><horizontalSlowness><value>14.09799934846213</value></horizontalSlowness><backazimuth><value>126.38178409852017</value></backazimuth><phaseHint>P</phaseHint><evaluationMode>automatic</evaluationMode><comment><text>9.995069205136314</text><id>DFX:rectilinearity</id></comment><comment><text>34.3858235710436</text><id>SNR</id></comment></pick><origin publicID="de.gempa.tb1.Origin/20250415020803.585926.157927"><time><value>2025-04-15T02:06:27.080599Z</value><uncertainty>8.722455978393555</uncertainty></time><latitude><value>-25.453927993774414</value><uncertainty>63.67239379882812</uncertainty></latitude><longitude><value>-71.45343017578125</value><uncertainty>36.421085357666016</uncertainty></longitude><depth><value>102.13099670410156</value><uncertainty>39.30858612060547</uncertainty></depth><depthType>from location</depthType><methodID>LOCSAT</methodID><earthModelID>iasp91_scanloc</earthModelID><quality><associatedPhaseCount>10</associatedPhaseCount><usedPhaseCount>10</usedPhaseCount><associatedStationCount>10</associatedStationCount><usedStationCount>10</usedStationCount><depthPhaseCount>0</depthPhaseCount><standardError>0.25514664848293483</standardError><azimuthalGap>332.79402446746826</azimuthalGap><maximumDistance>5.957225322723389</maximumDistance><minimumDistance>2.098506212234497</minimumDistance><medianDistance>4.1674747467041016</medianDistance></quality><uncertainty><minHorizontalUncertainty>44.799957275390625</minHorizontalUncertainty><maxHorizontalUncertainty>150.76939392089844</maxHorizontalUncertainty><azimuthMaxHorizontalUncertainty>26.380943298339844</azimuthMaxHorizontalUncertainty><preferredDescription>horizontal uncertainty</preferredDescription></uncertainty><evaluationMode>automatic</evaluationMode><evaluationStatus>confirmed</evaluationStatus><comment><text>0.14</text><id>mismatchScore</id></comment><comment><text>mismatchScore</text><id>scevalMethod</id></comment><arrival><pickID>de.gempa.tb1.Pick/20250415020705.18399.142814</pickID><phase>P</phase><azimuth>23.170745849609375</azimuth><distance>2.098506212234497</distance><timeResidual>0.13277816772460938</timeResidual><timeUsed>true</timeUsed><horizontalSlownessUsed>false</horizontalSlownessUsed><backazimuthUsed>false</backazimuthUsed><weight>1</weight></arrival><arrival><pickID>de.gempa.tb1.Pick/20250415020715.620902.142817</pickID><phase>P</phase><azimuth>39.38139343261719</azimuth><distance>2.875391721725464</distance><timeResidual>-0.12978744506835938</timeResidual><timeUsed>true</timeUsed><horizontalSlownessUsed>false</horizontalSlownessUsed><backazimuthUsed>false</backazimuthUsed><weight>1</weight></arrival><arrival><pickID>de.gempa.tb1.Pick/20250415020721.599748.142820</pickID><phase>P</phase><azimuth>32.53997802734375</azimuth><distance>3.231283664703369</distance><timeResidual>-0.013088226318359375</timeResidual><timeUsed>true</timeUsed><horizontalSlownessUsed>false</horizontalSlownessUsed><backazimuthUsed>false</backazimuthUsed><weight>1</weight></arrival><arrival><pickID>de.gempa.tb1.Pick/20250415020726.696231.142823</pickID><phase>P</phase><azimuth>25.028337478637695</azimuth><distance>3.7307355403900146</distance><timeResidual>-0.5267791748046875</timeResidual><timeUsed>true</timeUsed><horizontalSlownessUsed>false</horizontalSlownessUsed><backazimuthUsed>false</backazimuthUsed><weight>1</weight></arrival><arrival><pickID>de.gempa.tb1.Pick/20250415020736.493041.142828</pickID><phase>P</phase><azimuth>19.48636817932129</azimuth><distance>4.3567233085632324</distance><timeResidual>-0.006946563720703125</timeResidual><timeUsed>true</timeUsed><horizontalSlownessUsed>false</horizontalSlownessUsed><backazimuthUsed>false</backazimuthUsed><weight>1</weight></arrival><arrival><pickID>de.gempa.tb1.Pick/20250415020738.354591.142830</pickID><phase>P</phase><azimuth>29.570138931274414</azimuth><distance>4.1674747467041016</distance><timeResidual>0.5721969604492188</timeResidual><timeUsed>true</timeUsed><horizontalSlownessUsed>false</horizontalSlownessUsed><backazimuthUsed>false</backazimuthUsed><weight>1</weight></arrival><arrival><pickID>de.gempa.tb1.Pick/20250415020739.676706.142832</pickID><phase>P</phase><azimuth>21.499176025390625</azimuth><distance>3.97895622253418</distance><timeResidual>0.01210784912109375</timeResidual><timeUsed>true</timeUsed><horizontalSlownessUsed>false</horizontalSlownessUsed><backazimuthUsed>false</backazimuthUsed><weight>1</weight></arrival><arrival><pickID>de.gempa.tb1.Pick/20250415020744.345034.142835</pickID><phase>P</phase><azimuth>14.811036109924316</azimuth><distance>4.764456272125244</distance><timeResidual>0.02773284912109375</timeResidual><timeUsed>true</timeUsed><horizontalSlownessUsed>false</horizontalSlownessUsed><backazimuthUsed>false</backazimuthUsed><weight>1</weight></arrival><arrival><pickID>de.gempa.tb1.Pick/20250415020744.563346.142837</pickID><phase>P</phase><azimuth>22.778675079345703</azimuth><distance>4.74786376953125</distance><timeResidual>-0.09796905517578125</timeResidual><timeUsed>true</timeUsed><horizontalSlownessUsed>false</horizontalSlownessUsed><backazimuthUsed>false</backazimuthUsed><weight>1</weight></arrival><arrival><pickID>de.gempa.tb1.Pick/20250415020802.580704.142842</pickID><phase>P</phase><azimuth>12.17541790008545</azimuth><distance>5.957225322723389</distance><timeResidual>0.0297393798828125</timeResidual><timeUsed>true</timeUsed><horizontalSlownessUsed>false</horizontalSlownessUsed><backazimuthUsed>false</backazimuthUsed><weight>1</weight></arrival><magnitude publicID="de.gempa.tb1.Magnitude/20250415020803.591291.561117"><magnitude><value>3.683932565117991</value></magnitude><type>M</type><methodID>weighted average</methodID><stationCount>7</stationCount></magnitude></origin><event publicID="gempa2025hkgm"><preferredOriginID>de.gempa.tb1.Origin/20250415020803.585926.157927</preferredOriginID><preferredMagnitudeID>de.gempa.tb1.Magnitude/20250415020803.591291.561117</preferredMagnitudeID><description><text>Off Coast of Northern Chile</text><type>region name</type></description><originReference>de.gempa.tb1.Origin/20250415020803.585926.157927</originReference></event></EventParameters></seiscomp>