<?xml version="1.0" encoding="UTF-8"?>
<seiscomp xmlns="http://geofon.gfz-potsdam.de/ns/seiscomp3-schema/0.13" version="0.13"><EventParameters><pick publicID="de.gempa.tb1.Pick/20250414103256.161685.221997"><time><value>2025-04-14T10:32:53.695Z</value></time><waveformID networkCode="CH" stationCode="SLE" channelCode="HHZ"/><filterID>ITAPER(4)&gt;&gt;BW(4,4,20)</filterID><methodID>AIC</methodID><phaseHint>P</phaseHint><evaluationMode>automatic</evaluationMode></pick><pick publicID="de.gempa.tb1.Pick/20250414103256.504874.221999"><time><value>2025-04-14T10:32:48.845Z</value></time><waveformID networkCode="CH" stationCode="EMING" channelCode="HHZ"/><filterID>ITAPER(4)&gt;&gt;BW(4,4,20)</filterID><methodID>AIC</methodID><phaseHint>P</phaseHint><evaluationMode>automatic</evaluationMode></pick><pick publicID="de.gempa.tb1.Pick/20250414103257.015935.222001"><time><value>2025-04-14T10:32:53.895Z</value></time><waveformID networkCode="CH" stationCode="TRULL" channelCode="HHZ"/><filterID>ITAPER(4)&gt;&gt;BW(4,4,20)</filterID><methodID>AIC</methodID><phaseHint>P</phaseHint><evaluationMode>automatic</evaluationMode></pick><pick publicID="de.gempa.tb1.Pick/20250414103257.620306.222003"><time><value>2025-04-14T10:32:55.465Z</value></time><waveformID networkCode="CH" stationCode="WILA" channelCode="HHZ"/><filterID>ITAPER(4)&gt;&gt;BW(4,4,20)</filterID><methodID>AIC</methodID><phaseHint>P</phaseHint><evaluationMode>automatic</evaluationMode></pick><pick publicID="de.gempa.tb1.Pick/20250414103258.470555.222005"><time><value>2025-04-14T10:32:55.645Z</value></time><waveformID networkCode="CH" stationCode="METMA" channelCode="HHZ"/><filterID>ITAPER(4)&gt;&gt;BW(4,4,20)</filterID><methodID>AIC</methodID><phaseHint>P</phaseHint><evaluationMode>automatic</evaluationMode></pick><pick publicID="de.gempa.tb1.Pick/20250414103259.143207.222007"><time><value>2025-04-14T10:32:55.985Z</value></time><waveformID networkCode="CH" stationCode="BERGE" channelCode="HHZ"/><filterID>ITAPER(4)&gt;&gt;BW(4,4,20)</filterID><methodID>AIC</methodID><phaseHint>P</phaseHint><evaluationMode>automatic</evaluationMode></pick><pick publicID="de.gempa.tb1.Pick/20250414103259.149566.222009"><time><value>2025-04-14T10:32:55.91Z</value></time><waveformID networkCode="CH" stationCode="LIENZ" channelCode="HHZ"/><filterID>ITAPER(4)&gt;&gt;BW(4,4,20)</filterID><methodID>AIC</methodID><phaseHint>P</phaseHint><evaluationMode>automatic</evaluationMode></pick><pick publicID="de.gempa.tb1.Pick/20250414103309.045926.222012"><time><value>2025-04-14T10:33:04.38Z</value></time><waveformID networkCode="CH" stationCode="DAVOX" channelCode="HHZ"/><filterID>ITAPER(4)&gt;&gt;BW(4,4,20)</filterID><methodID>AIC</methodID><phaseHint>P</phaseHint><evaluationMode>automatic</evaluationMode></pick><pick publicID="de.gempa.tb1.Pick/20250414103311.163451.222014"><time><value>2025-04-14T10:33:06.64Z</value></time><waveformID networkCode="CH" stationCode="BNALP" channelCode="HHZ"/><filterID>ITAPER(4)&gt;&gt;BW(4,4,20)</filterID><methodID>AIC</methodID><phaseHint>P</phaseHint><evaluationMode>automatic</evaluationMode></pick><pick publicID="de.gempa.tb1.Pick/20250414103314.235139.222018"><time><value>2025-04-14T10:33:07.635Z</value></time><waveformID networkCode="CH" stationCode="SLE" channelCode="HHN"/><filterID>RMHP(1)&gt;&gt;ITAPER(2)&gt;&gt;BW(4,3,20)</filterID><methodID>L2-AIC-GRID</methodID><phaseHint>S</phaseHint><evaluationMode>automatic</evaluationMode><comment><text>de.gempa.tb1.Pick/20250414103256.161685.221997</text><id>RefPickID</id></comment></pick><pick publicID="de.gempa.tb1.Pick/20250414103315.387435.222023"><time><value>2025-04-14T10:33:11.845Z</value></time><waveformID networkCode="CH" stationCode="BERNI" channelCode="HHZ"/><filterID>ITAPER(4)&gt;&gt;BW_HP(4,4)</filterID><methodID>AIC</methodID><phaseHint>P</phaseHint><evaluationMode>automatic</evaluationMode></pick><pick publicID="de.gempa.tb1.Pick/20250414103317.092932.222025"><time><value>2025-04-14T10:32:53.069538Z</value></time><waveformID networkCode="GR" stationCode="BFO" channelCode="BHZ"/><filterID>ITAPER(4)&gt;&gt;BW_HP(4,4)</filterID><methodID>AIC</methodID><phaseHint>P</phaseHint><evaluationMode>automatic</evaluationMode></pick><pick publicID="de.gempa.tb1.Pick/20250414103317.224207.222027"><time><value>2025-04-14T10:33:11.77Z</value></time><waveformID networkCode="CH" stationCode="METMA" channelCode="HHN"/><filterID>RMHP(1)&gt;&gt;ITAPER(2)&gt;&gt;BW(4,3,20)</filterID><methodID>L2-AIC-GRID</methodID><phaseHint>S</phaseHint><evaluationMode>automatic</evaluationMode><comment><text>de.gempa.tb1.Pick/20250414103258.470555.222005</text><id>RefPickID</id></comment></pick><pick publicID="de.gempa.tb1.Pick/20250414103327.995499.222043"><time><value>2025-04-14T10:33:10.425Z</value></time><waveformID networkCode="CH" stationCode="BERGE" channelCode="HHN"/><filterID>RMHP(1)&gt;&gt;ITAPER(2)&gt;&gt;BW(4,3,20)</filterID><methodID>L2-AIC-GRID</methodID><phaseHint>S</phaseHint><evaluationMode>automatic</evaluationMode><comment><text>de.gempa.tb1.Pick/20250414103259.143207.222007</text><id>RefPickID</id></comment></pick><origin publicID="de.gempa.tb1.Origin/20250414103327.99745.138820"><time><value>2025-04-14T10:32:35.80859Z</value><uncertainty>0.9050447344779968</uncertainty></time><latitude><value>48.36939239501953</value><uncertainty>6.412688732147217</uncertainty></latitude><longitude><value>9.601503372192383</value><uncertainty>3.2139670848846436</uncertainty></longitude><depth><value>0</value></depth><depthType>operator assigned</depthType><methodID>LOCSAT</methodID><earthModelID>iasp91</earthModelID><quality><associatedPhaseCount>14</associatedPhaseCount><usedPhaseCount>14</usedPhaseCount><associatedStationCount>11</associatedStationCount><usedStationCount>11</usedStationCount><depthPhaseCount>0</depthPhaseCount><standardError>0.6882764332980463</standardError><azimuthalGap>263.63063049316406</azimuthalGap><maximumDistance>1.9776544570922852</maximumDistance><minimumDistance>0.6934038400650024</minimumDistance><medianDistance>1.0760478973388672</medianDistance></quality><uncertainty><minHorizontalUncertainty>6.872575283050537</minHorizontalUncertainty><maxHorizontalUncertainty>13.76045322418213</maxHorizontalUncertainty><azimuthMaxHorizontalUncertainty>2.471203565597534</azimuthMaxHorizontalUncertainty><preferredDescription>horizontal uncertainty</preferredDescription></uncertainty><evaluationMode>automatic</evaluationMode><evaluationStatus>confirmed</evaluationStatus><comment><text>0.52</text><id>mismatchScore</id></comment><comment><text>extendedGap</text><id>scevalMethod</id></comment><arrival><pickID>de.gempa.tb1.Pick/20250414103256.161685.221997</pickID><phase>P</phase><azimuth>231.2788848876953</azimuth><distance>0.9590790867805481</distance><timeResidual>-0.494511604309082</timeResidual><timeUsed>true</timeUsed><horizontalSlownessUsed>false</horizontalSlownessUsed><backazimuthUsed>false</backazimuthUsed><weight>1</weight></arrival><arrival><pickID>de.gempa.tb1.Pick/20250414103256.504874.221999</pickID><phase>P</phase><azimuth>227.0958251953125</azimuth><distance>0.6934038400650024</distance><timeResidual>-0.29358577728271484</timeResidual><timeUsed>true</timeUsed><horizontalSlownessUsed>false</horizontalSlownessUsed><backazimuthUsed>false</backazimuthUsed><weight>1</weight></arrival><arrival><pickID>de.gempa.tb1.Pick/20250414103257.015935.222001</pickID><phase>P</phase><azimuth>220.92205810546875</azimuth><distance>0.9495433568954468</distance><timeResidual>-0.1134319305419922</timeResidual><timeUsed>true</timeUsed><horizontalSlownessUsed>false</horizontalSlownessUsed><backazimuthUsed>false</backazimuthUsed><weight>1</weight></arrival><arrival><pickID>de.gempa.tb1.Pick/20250414103257.620306.222003</pickID><phase>P</phase><azimuth>206.3096923828125</azimuth><distance>1.0634078979492188</distance><timeResidual>-0.5607566833496094</timeResidual><timeUsed>true</timeUsed><horizontalSlownessUsed>false</horizontalSlownessUsed><backazimuthUsed>false</backazimuthUsed><weight>1</weight></arrival><arrival><pickID>de.gempa.tb1.Pick/20250414103258.470555.222005</pickID><phase>P</phase><azimuth>234.5013885498047</azimuth><distance>1.118875503540039</distance><timeResidual>-1.298877716064453</timeResidual><timeUsed>true</timeUsed><horizontalSlownessUsed>false</horizontalSlownessUsed><backazimuthUsed>false</backazimuthUsed><weight>1</weight></arrival><arrival><pickID>de.gempa.tb1.Pick/20250414103259.143207.222007</pickID><phase>P</phase><azimuth>242.95391845703125</azimuth><distance>1.0760478973388672</distance><timeResidual>-0.24984264373779297</timeResidual><timeUsed>true</timeUsed><horizontalSlownessUsed>false</horizontalSlownessUsed><backazimuthUsed>false</backazimuthUsed><weight>1</weight></arrival><arrival><pickID>de.gempa.tb1.Pick/20250414103259.149566.222009</pickID><phase>P</phase><azimuth>183.93978881835938</azimuth><distance>1.0779750347137451</distance><timeResidual>-0.3578224182128906</timeResidual><timeUsed>true</timeUsed><horizontalSlownessUsed>false</horizontalSlownessUsed><backazimuthUsed>false</backazimuthUsed><weight>1</weight></arrival><arrival><pickID>de.gempa.tb1.Pick/20250414103309.045926.222012</pickID><phase>P</phase><azimuth>173.14479064941406</azimuth><distance>1.6009188890457153</distance><timeResidual>-0.289494514465332</timeResidual><timeUsed>true</timeUsed><horizontalSlownessUsed>false</horizontalSlownessUsed><backazimuthUsed>false</backazimuthUsed><weight>1</weight></arrival><arrival><pickID>de.gempa.tb1.Pick/20250414103311.163451.222014</pickID><phase>P</phase><azimuth>208.38868713378906</azimuth><distance>1.697836995124817</distance><timeResidual>0.473902702331543</timeResidual><timeUsed>true</timeUsed><horizontalSlownessUsed>false</horizontalSlownessUsed><backazimuthUsed>false</backazimuthUsed><weight>1</weight></arrival><arrival><pickID>de.gempa.tb1.Pick/20250414103314.235139.222018</pickID><phase>S</phase><azimuth>231.2788848876953</azimuth><distance>0.9590790867805481</distance><timeResidual>0.831233024597168</timeResidual><timeUsed>true</timeUsed><horizontalSlownessUsed>false</horizontalSlownessUsed><backazimuthUsed>false</backazimuthUsed><weight>1</weight></arrival><arrival><pickID>de.gempa.tb1.Pick/20250414103315.387435.222023</pickID><phase>P</phase><azimuth>171.5167694091797</azimuth><distance>1.9776544570922852</distance><timeResidual>1.4622831344604492</timeResidual><timeUsed>true</timeUsed><horizontalSlownessUsed>false</horizontalSlownessUsed><backazimuthUsed>false</backazimuthUsed><weight>1</weight></arrival><arrival><pickID>de.gempa.tb1.Pick/20250414103317.092932.222025</pickID><phase>P</phase><azimuth>267.8861389160156</azimuth><distance>0.8488307595252991</distance><timeResidual>0.9769153594970703</timeResidual><timeUsed>true</timeUsed><horizontalSlownessUsed>false</horizontalSlownessUsed><backazimuthUsed>false</backazimuthUsed><weight>1</weight></arrival><arrival><pickID>de.gempa.tb1.Pick/20250414103317.224207.222027</pickID><phase>S</phase><azimuth>234.5013885498047</azimuth><distance>1.118875503540039</distance><timeResidual>-0.022530555725097656</timeResidual><timeUsed>true</timeUsed><horizontalSlownessUsed>false</horizontalSlownessUsed><backazimuthUsed>false</backazimuthUsed><weight>1</weight></arrival><arrival><pickID>de.gempa.tb1.Pick/20250414103327.995499.222043</pickID><phase>S</phase><azimuth>242.95391845703125</azimuth><distance>1.0760478973388672</distance><timeResidual>-0.06378841400146484</timeResidual><timeUsed>true</timeUsed><horizontalSlownessUsed>false</horizontalSlownessUsed><backazimuthUsed>false</backazimuthUsed><weight>1</weight></arrival><magnitude publicID="de.gempa.tb1.Magnitude/20250414103328.013877.473972"><magnitude><value>2.1276430264758228</value></magnitude><type>M</type><methodID>weighted average</methodID><stationCount>7</stationCount></magnitude></origin><event publicID="gempa2025hjbj"><preferredOriginID>de.gempa.tb1.Origin/20250414103327.99745.138820</preferredOriginID><preferredMagnitudeID>de.gempa.tb1.Magnitude/20250414103328.013877.473972</preferredMagnitudeID><typeCertainty>suspected</typeCertainty><description><text>Germany</text><type>region name</type></description><originReference>de.gempa.tb1.Origin/20250414103327.99745.138820</originReference></event></EventParameters></seiscomp>