<?xml version="1.0" encoding="UTF-8"?>
<seiscomp xmlns="http://geofon.gfz-potsdam.de/ns/seiscomp3-schema/0.13" version="0.13"><EventParameters><pick publicID="de.gempa.tb1.Pick/20250414230943.91579.242645"><time><value>2025-04-14T23:09:39.845Z</value></time><waveformID networkCode="CH" stationCode="BERGE" channelCode="HHZ"/><filterID>ITAPER(4)&gt;&gt;BW(4,4,20)</filterID><methodID>AIC</methodID><phaseHint>P</phaseHint><evaluationMode>automatic</evaluationMode></pick><pick publicID="de.gempa.tb1.Pick/20250414230944.288638.242647"><time><value>2025-04-14T23:09:41.68Z</value></time><waveformID networkCode="CH" stationCode="SULZ" channelCode="HHZ"/><filterID>ITAPER(4)&gt;&gt;BW(4,4,20)</filterID><methodID>AIC</methodID><phaseHint>P</phaseHint><evaluationMode>automatic</evaluationMode></pick><pick publicID="de.gempa.tb1.Pick/20250414230945.126622.242649"><time><value>2025-04-14T23:09:42.63Z</value></time><waveformID networkCode="CH" stationCode="BOURR" channelCode="HHZ"/><filterID>ITAPER(4)&gt;&gt;BW(4,4,20)</filterID><methodID>AIC</methodID><phaseHint>P</phaseHint><evaluationMode>automatic</evaluationMode></pick><pick publicID="de.gempa.tb1.Pick/20250414230945.214754.242651"><time><value>2025-04-14T23:09:42.48Z</value></time><waveformID networkCode="CH" stationCode="BALST" channelCode="HHZ"/><filterID>ITAPER(4)&gt;&gt;BW(4,4,20)</filterID><methodID>AIC</methodID><phaseHint>P</phaseHint><evaluationMode>automatic</evaluationMode></pick><pick publicID="de.gempa.tb1.Pick/20250414230945.332832.242653"><time><value>2025-04-14T23:09:42.545Z</value></time><waveformID networkCode="CH" stationCode="ACB" channelCode="HHZ"/><filterID>ITAPER(4)&gt;&gt;BW(4,4,20)</filterID><methodID>AIC</methodID><phaseHint>P</phaseHint><evaluationMode>automatic</evaluationMode></pick><pick publicID="de.gempa.tb1.Pick/20250414230945.716817.242655"><time><value>2025-04-14T23:09:41.115Z</value></time><waveformID networkCode="CH" stationCode="METMA" channelCode="HHZ"/><filterID>ITAPER(4)&gt;&gt;BW(4,4,20)</filterID><methodID>AIC</methodID><phaseHint>P</phaseHint><evaluationMode>automatic</evaluationMode></pick><pick publicID="de.gempa.tb1.Pick/20250414230946.086156.242657"><time><value>2025-04-14T23:09:40.43Z</value></time><waveformID networkCode="CH" stationCode="ROTHE" channelCode="HHZ"/><filterID>ITAPER(4)&gt;&gt;BW(4,4,20)</filterID><methodID>AIC</methodID><phaseHint>P</phaseHint><evaluationMode>automatic</evaluationMode></pick><pick publicID="de.gempa.tb1.Pick/20250414230946.193684.242659"><time><value>2025-04-14T23:09:43.86Z</value></time><waveformID networkCode="CH" stationCode="SLE" channelCode="HHZ"/><filterID>ITAPER(4)&gt;&gt;BW(4,4,20)</filterID><methodID>AIC</methodID><phaseHint>P</phaseHint><evaluationMode>automatic</evaluationMode></pick><pick publicID="de.gempa.tb1.Pick/20250414230946.81999.242661"><time><value>2025-04-14T23:09:42.645Z</value></time><waveformID networkCode="CH" stationCode="EMMET" channelCode="HHZ"/><filterID>ITAPER(4)&gt;&gt;BW(4,4,20)</filterID><methodID>AIC</methodID><phaseHint>P</phaseHint><evaluationMode>automatic</evaluationMode></pick><pick publicID="de.gempa.tb1.Pick/20250414230949.633355.242669"><time><value>2025-04-14T23:09:46.885Z</value></time><waveformID networkCode="CH" stationCode="TRULL" channelCode="HHZ"/><filterID>ITAPER(4)&gt;&gt;BW(4,4,20)</filterID><methodID>AIC</methodID><phaseHint>P</phaseHint><evaluationMode>automatic</evaluationMode></pick><pick publicID="de.gempa.tb1.Pick/20250414230950.060007.242671"><time><value>2025-04-14T23:09:44.565Z</value></time><waveformID networkCode="CH" stationCode="METMA" channelCode="HHN"/><filterID>RMHP(1)&gt;&gt;ITAPER(2)&gt;&gt;BW(4,3,20)</filterID><methodID>L2-AIC-GRID</methodID><phaseHint>S</phaseHint><evaluationMode>automatic</evaluationMode><comment><text>de.gempa.tb1.Pick/20250414230945.716817.242655</text><id>RefPickID</id></comment></pick><pick publicID="de.gempa.tb1.Pick/20250414230950.375306.242674"><time><value>2025-04-14T23:09:43.295Z</value></time><waveformID networkCode="CH" stationCode="BERGE" channelCode="HHN"/><filterID>RMHP(1)&gt;&gt;ITAPER(2)&gt;&gt;BW(4,3,20)</filterID><methodID>L2-AIC-GRID</methodID><phaseHint>S</phaseHint><evaluationMode>automatic</evaluationMode><comment><text>de.gempa.tb1.Pick/20250414230943.91579.242645</text><id>RefPickID</id></comment></pick><pick publicID="de.gempa.tb1.Pick/20250414230950.669681.242675"><time><value>2025-04-14T23:09:45.92Z</value></time><waveformID networkCode="CH" stationCode="DAGMA" channelCode="HHZ"/><filterID>ITAPER(4)&gt;&gt;BW(4,4,20)</filterID><methodID>AIC</methodID><phaseHint>P</phaseHint><evaluationMode>automatic</evaluationMode></pick><pick publicID="de.gempa.tb1.Pick/20250414230952.677198.242678"><time><value>2025-04-14T23:09:48.585Z</value></time><waveformID networkCode="CH" stationCode="EMING" channelCode="HHZ"/><filterID>ITAPER(4)&gt;&gt;BW(4,4,20)</filterID><methodID>AIC</methodID><phaseHint>P</phaseHint><evaluationMode>automatic</evaluationMode></pick><pick publicID="de.gempa.tb1.Pick/20250414230952.858968.242682"><time><value>2025-04-14T23:09:45.93Z</value></time><waveformID networkCode="CH" stationCode="BALST" channelCode="HHN"/><filterID>RMHP(1)&gt;&gt;ITAPER(2)&gt;&gt;BW(4,3,20)</filterID><methodID>L2-AIC-GRID</methodID><phaseHint>S</phaseHint><evaluationMode>automatic</evaluationMode><comment><text>de.gempa.tb1.Pick/20250414230945.214754.242651</text><id>RefPickID</id></comment></pick><pick publicID="de.gempa.tb1.Pick/20250414230953.306828.242685"><time><value>2025-04-14T23:09:46.11Z</value></time><waveformID networkCode="CH" stationCode="EMMET" channelCode="HHN"/><filterID>RMHP(1)&gt;&gt;ITAPER(2)&gt;&gt;BW(4,3,20)</filterID><methodID>L2-AIC-GRID</methodID><phaseHint>S</phaseHint><evaluationMode>automatic</evaluationMode><comment><text>de.gempa.tb1.Pick/20250414230946.81999.242661</text><id>RefPickID</id></comment></pick><pick publicID="de.gempa.tb1.Pick/20250414230954.275689.242692"><time><value>2025-04-14T23:09:45.43Z</value></time><waveformID networkCode="CH" stationCode="SULZ" channelCode="HHN"/><filterID>RMHP(1)&gt;&gt;ITAPER(2)&gt;&gt;BW(4,3,20)</filterID><methodID>L2-AIC-GRID</methodID><phaseHint>S</phaseHint><evaluationMode>automatic</evaluationMode><comment><text>de.gempa.tb1.Pick/20250414230944.288638.242647</text><id>RefPickID</id></comment></pick><pick publicID="de.gempa.tb1.Pick/20250414230954.346585.242693"><time><value>2025-04-14T23:09:51.125Z</value></time><waveformID networkCode="CH" stationCode="WILA" channelCode="HHZ"/><filterID>ITAPER(4)&gt;&gt;BW(4,4,20)</filterID><methodID>AIC</methodID><phaseHint>P</phaseHint><evaluationMode>automatic</evaluationMode></pick><pick publicID="de.gempa.tb1.Pick/20250414230954.672793.242695"><time><value>2025-04-14T23:09:45.16Z</value></time><waveformID networkCode="CH" stationCode="ROTHE" channelCode="HHN"/><filterID>RMHP(1)&gt;&gt;ITAPER(2)&gt;&gt;BW(4,3,20)</filterID><methodID>L2-AIC-GRID</methodID><phaseHint>S</phaseHint><evaluationMode>automatic</evaluationMode><comment><text>de.gempa.tb1.Pick/20250414230946.086156.242657</text><id>RefPickID</id></comment></pick><pick publicID="de.gempa.tb1.Pick/20250414230956.151443.242701"><time><value>2025-04-14T23:09:53.735Z</value></time><waveformID networkCode="CH" stationCode="BNALP" channelCode="HHZ"/><filterID>ITAPER(4)&gt;&gt;BW(4,4,20)</filterID><methodID>AIC</methodID><phaseHint>P</phaseHint><evaluationMode>automatic</evaluationMode></pick><pick publicID="de.gempa.tb1.Pick/20250414230957.320801.242707"><time><value>2025-04-14T23:09:50.3Z</value></time><waveformID networkCode="CH" stationCode="WALHA" channelCode="HHZ"/><filterID>ITAPER(4)&gt;&gt;BW(4,4,20)</filterID><methodID>AIC</methodID><phaseHint>P</phaseHint><evaluationMode>automatic</evaluationMode></pick><pick publicID="de.gempa.tb1.Pick/20250414230958.105973.242713"><time><value>2025-04-14T23:09:55.22Z</value></time><waveformID networkCode="CH" stationCode="BRANT" channelCode="HHZ"/><filterID>ITAPER(4)&gt;&gt;BW(4,4,20)</filterID><methodID>AIC</methodID><phaseHint>P</phaseHint><evaluationMode>automatic</evaluationMode></pick><origin publicID="de.gempa.tb1.Origin/20250414230958.110559.151358"><time><value>2025-04-14T23:09:33.304Z</value><uncertainty>0.5087183713912964</uncertainty></time><latitude><value>47.79629898071289</value><uncertainty>2.462587356567383</uncertainty></latitude><longitude><value>7.68708086013794</value><uncertainty>2.375607490539551</uncertainty></longitude><depth><value>0</value></depth><depthType>operator assigned</depthType><methodID>LOCSAT</methodID><earthModelID>iasp91</earthModelID><quality><associatedPhaseCount>22</associatedPhaseCount><usedPhaseCount>22</usedPhaseCount><associatedStationCount>16</associatedStationCount><usedStationCount>16</usedStationCount><depthPhaseCount>0</depthPhaseCount><standardError>0.7529614870906897</standardError><azimuthalGap>212.6747589111328</azimuthalGap><maximumDistance>1.1909997463226318</maximumDistance><minimumDistance>0.3392219841480255</minimumDistance><medianDistance>0.4608153998851776</medianDistance></quality><uncertainty><minHorizontalUncertainty>3.8512556552886963</minHorizontalUncertainty><maxHorizontalUncertainty>6.244208335876465</maxHorizontalUncertainty><azimuthMaxHorizontalUncertainty>137.29660034179688</azimuthMaxHorizontalUncertainty><preferredDescription>horizontal uncertainty</preferredDescription></uncertainty><evaluationMode>automatic</evaluationMode><evaluationStatus>confirmed</evaluationStatus><comment><text>0.09</text><id>mismatchScore</id></comment><comment><text>mismatchScore</text><id>scevalMethod</id></comment><arrival><pickID>de.gempa.tb1.Pick/20250414230943.91579.242645</pickID><phase>P</phase><azimuth>76.9833984375</azimuth><distance>0.3392219841480255</distance><timeResidual>-0.05494213104248047</timeResidual><timeUsed>true</timeUsed><horizontalSlownessUsed>false</horizontalSlownessUsed><backazimuthUsed>false</backazimuthUsed><weight>1</weight></arrival><arrival><pickID>de.gempa.tb1.Pick/20250414230944.288638.242647</pickID><phase>P</phase><azimuth>132.99534606933594</azimuth><distance>0.3932811915874481</distance><timeResidual>0.7517242431640625</timeResidual><timeUsed>true</timeUsed><horizontalSlownessUsed>false</horizontalSlownessUsed><backazimuthUsed>false</backazimuthUsed><weight>1</weight></arrival><arrival><pickID>de.gempa.tb1.Pick/20250414230945.126622.242649</pickID><phase>P</phase><azimuth>217.6855926513672</azimuth><distance>0.5077908635139465</distance><timeResidual>-0.4754915237426758</timeResidual><timeUsed>true</timeUsed><horizontalSlownessUsed>false</horizontalSlownessUsed><backazimuthUsed>false</backazimuthUsed><weight>1</weight></arrival><arrival><pickID>de.gempa.tb1.Pick/20250414230945.214754.242651</pickID><phase>P</phase><azimuth>179.3319549560547</azimuth><distance>0.4608153998851776</distance><timeResidual>0.2674741744995117</timeResidual><timeUsed>true</timeUsed><horizontalSlownessUsed>false</horizontalSlownessUsed><backazimuthUsed>false</backazimuthUsed><weight>1</weight></arrival><arrival><pickID>de.gempa.tb1.Pick/20250414230945.332832.242653</pickID><phase>P</phase><azimuth>118.38255310058594</azimuth><distance>0.4364568889141083</distance><timeResidual>0.7959985733032227</timeResidual><timeUsed>true</timeUsed><horizontalSlownessUsed>false</horizontalSlownessUsed><backazimuthUsed>false</backazimuthUsed><weight>1</weight></arrival><arrival><pickID>de.gempa.tb1.Pick/20250414230945.716817.242655</pickID><phase>P</phase><azimuth>102.23100280761719</azimuth><distance>0.3907901644706726</distance><timeResidual>0.2344017028808594</timeResidual><timeUsed>true</timeUsed><horizontalSlownessUsed>false</horizontalSlownessUsed><backazimuthUsed>false</backazimuthUsed><weight>1</weight></arrival><arrival><pickID>de.gempa.tb1.Pick/20250414230946.086156.242657</pickID><phase>P</phase><azimuth>153.64019775390625</azimuth><distance>0.357279509305954</distance><timeResidual>0.18607616424560547</timeResidual><timeUsed>true</timeUsed><horizontalSlownessUsed>false</horizontalSlownessUsed><backazimuthUsed>false</backazimuthUsed><weight>1</weight></arrival><arrival><pickID>de.gempa.tb1.Pick/20250414230946.193684.242659</pickID><phase>P</phase><azimuth>93.05558776855469</azimuth><distance>0.5440466403961182</distance><timeResidual>0.06587934494018555</timeResidual><timeUsed>true</timeUsed><horizontalSlownessUsed>false</horizontalSlownessUsed><backazimuthUsed>false</backazimuthUsed><weight>1</weight></arrival><arrival><pickID>de.gempa.tb1.Pick/20250414230946.81999.242661</pickID><phase>P</phase><azimuth>148.27145385742188</azimuth><distance>0.4214649498462677</distance><timeResidual>1.1807565689086914</timeResidual><timeUsed>true</timeUsed><horizontalSlownessUsed>false</horizontalSlownessUsed><backazimuthUsed>false</backazimuthUsed><weight>1</weight></arrival><arrival><pickID>de.gempa.tb1.Pick/20250414230949.633355.242669</pickID><phase>P</phase><azimuth>102.03699493408203</azimuth><distance>0.6875431537628174</distance><timeResidual>0.36261653900146484</timeResidual><timeUsed>true</timeUsed><horizontalSlownessUsed>false</horizontalSlownessUsed><backazimuthUsed>false</backazimuthUsed><weight>1</weight></arrival><arrival><pickID>de.gempa.tb1.Pick/20250414230950.060007.242671</pickID><phase>S</phase><azimuth>102.23100280761719</azimuth><distance>0.3907901644706726</distance><timeResidual>-0.9439682960510254</timeResidual><timeUsed>true</timeUsed><horizontalSlownessUsed>false</horizontalSlownessUsed><backazimuthUsed>false</backazimuthUsed><weight>1</weight></arrival><arrival><pickID>de.gempa.tb1.Pick/20250414230950.375306.242674</pickID><phase>S</phase><azimuth>76.9833984375</azimuth><distance>0.3392219841480255</distance><timeResidual>-0.5084228515625</timeResidual><timeUsed>true</timeUsed><horizontalSlownessUsed>false</horizontalSlownessUsed><backazimuthUsed>false</backazimuthUsed><weight>1</weight></arrival><arrival><pickID>de.gempa.tb1.Pick/20250414230950.669681.242675</pickID><phase>P</phase><azimuth>158.57962036132812</azimuth><distance>0.6072136759757996</distance><timeResidual>0.924062728881836</timeResidual><timeUsed>true</timeUsed><horizontalSlownessUsed>false</horizontalSlownessUsed><backazimuthUsed>false</backazimuthUsed><weight>1</weight></arrival><arrival><pickID>de.gempa.tb1.Pick/20250414230952.677198.242678</pickID><phase>P</phase><azimuth>82.35205078125</azimuth><distance>0.7873989343643188</distance><timeResidual>0.16464900970458984</timeResidual><timeUsed>true</timeUsed><horizontalSlownessUsed>false</horizontalSlownessUsed><backazimuthUsed>false</backazimuthUsed><weight>1</weight></arrival><arrival><pickID>de.gempa.tb1.Pick/20250414230952.858968.242682</pickID><phase>S</phase><azimuth>179.3319549560547</azimuth><distance>0.4608153998851776</distance><timeResidual>-1.8955135345458984</timeResidual><timeUsed>true</timeUsed><horizontalSlownessUsed>false</horizontalSlownessUsed><backazimuthUsed>false</backazimuthUsed><weight>1</weight></arrival><arrival><pickID>de.gempa.tb1.Pick/20250414230953.306828.242685</pickID><phase>S</phase><azimuth>148.27145385742188</azimuth><distance>0.4214649498462677</distance><timeResidual>-0.41411828994750977</timeResidual><timeUsed>true</timeUsed><horizontalSlownessUsed>false</horizontalSlownessUsed><backazimuthUsed>false</backazimuthUsed><weight>1</weight></arrival><arrival><pickID>de.gempa.tb1.Pick/20250414230954.275689.242692</pickID><phase>S</phase><azimuth>132.99534606933594</azimuth><distance>0.3932811915874481</distance><timeResidual>-0.16196823120117188</timeResidual><timeUsed>true</timeUsed><horizontalSlownessUsed>false</horizontalSlownessUsed><backazimuthUsed>false</backazimuthUsed><weight>1</weight></arrival><arrival><pickID>de.gempa.tb1.Pick/20250414230954.346585.242693</pickID><phase>P</phase><azimuth>114.36498260498047</azimuth><distance>0.9098755717277527</distance><timeResidual>0.37537288665771484</timeResidual><timeUsed>true</timeUsed><horizontalSlownessUsed>false</horizontalSlownessUsed><backazimuthUsed>false</backazimuthUsed><weight>1</weight></arrival><arrival><pickID>de.gempa.tb1.Pick/20250414230954.672793.242695</pickID><phase>S</phase><azimuth>153.64019775390625</azimuth><distance>0.357279509305954</distance><timeResidual>0.7581748962402344</timeResidual><timeUsed>true</timeUsed><horizontalSlownessUsed>false</horizontalSlownessUsed><backazimuthUsed>false</backazimuthUsed><weight>1</weight></arrival><arrival><pickID>de.gempa.tb1.Pick/20250414230956.151443.242701</pickID><phase>P</phase><azimuth>151.27662658691406</azimuth><distance>1.0535343885421753</distance><timeResidual>0.3774833679199219</timeResidual><timeUsed>true</timeUsed><horizontalSlownessUsed>false</horizontalSlownessUsed><backazimuthUsed>false</backazimuthUsed><weight>1</weight></arrival><arrival><pickID>de.gempa.tb1.Pick/20250414230957.320801.242707</pickID><phase>P</phase><azimuth>92.04269409179688</azimuth><distance>0.9695901870727539</distance><timeResidual>-1.5842971801757812</timeResidual><timeUsed>true</timeUsed><horizontalSlownessUsed>false</horizontalSlownessUsed><backazimuthUsed>false</backazimuthUsed><weight>1</weight></arrival><arrival><pickID>de.gempa.tb1.Pick/20250414230958.105973.242713</pickID><phase>P</phase><azimuth>224.3086395263672</azimuth><distance>1.1909997463226318</distance><timeResidual>-0.4055671691894531</timeResidual><timeUsed>true</timeUsed><horizontalSlownessUsed>false</horizontalSlownessUsed><backazimuthUsed>false</backazimuthUsed><weight>1</weight></arrival><magnitude publicID="de.gempa.tb1.Magnitude/20250414231028.51784.549898"><magnitude><value>1.8214456313582623</value></magnitude><type>M</type><methodID>weighted average</methodID><stationCount>12</stationCount></magnitude></origin><event publicID="gempa2025hkap"><preferredOriginID>de.gempa.tb1.Origin/20250414230958.110559.151358</preferredOriginID><preferredMagnitudeID>de.gempa.tb1.Magnitude/20250414231028.51784.549898</preferredMagnitudeID><description><text>Switzerland</text><type>region name</type></description><originReference>de.gempa.tb1.Origin/20250414230958.110559.151358</originReference></event></EventParameters></seiscomp>