<?xml version="1.0" encoding="UTF-8"?>
<seiscomp xmlns="http://geofon.gfz-potsdam.de/ns/seiscomp3-schema/0.13" version="0.13"><EventParameters><pick publicID="de.gempa.tb1.Pick/20250411131025.578896.117785"><time><value>2025-04-11T13:10:21.788393Z</value></time><waveformID networkCode="CX" stationCode="PB01" channelCode="HHZ"/><filterID>ITAPER(4)&gt;&gt;BW(4,4,20)</filterID><methodID>AIC</methodID><horizontalSlowness><value>7.430610370083486</value></horizontalSlowness><backazimuth><value>108.23320156429074</value></backazimuth><phaseHint>P</phaseHint><evaluationMode>automatic</evaluationMode><comment><text>5248527.244611883</text><id>DFX:rectilinearity</id></comment><comment><text>11035.316865920193</text><id>SNR</id></comment></pick><pick publicID="de.gempa.tb1.Pick/20250411131029.493049.117787"><time><value>2025-04-11T13:10:25.338393Z</value></time><waveformID networkCode="CX" stationCode="PB02" channelCode="HHZ"/><filterID>ITAPER(4)&gt;&gt;BW(4,4,20)</filterID><methodID>AIC</methodID><horizontalSlowness><value>10.490944010142906</value></horizontalSlowness><backazimuth><value>46.89383725120635</value></backazimuth><phaseHint>P</phaseHint><evaluationMode>automatic</evaluationMode><comment><text>2010249.363059156</text><id>DFX:rectilinearity</id></comment><comment><text>4955.975369123615</text><id>SNR</id></comment></pick><pick publicID="de.gempa.tb1.Pick/20250411131033.661997.117789"><time><value>2025-04-11T13:10:28.578393Z</value></time><waveformID networkCode="CX" stationCode="PB08" channelCode="HHZ"/><filterID>ITAPER(4)&gt;&gt;BW(4,4,20)</filterID><methodID>AIC</methodID><horizontalSlowness><value>15.160821170326523</value></horizontalSlowness><backazimuth><value>208.97600099910312</value></backazimuth><phaseHint>P</phaseHint><evaluationMode>automatic</evaluationMode><comment><text>102338.8043693056</text><id>DFX:rectilinearity</id></comment><comment><text>413.4474933934534</text><id>SNR</id></comment></pick><pick publicID="de.gempa.tb1.Pick/20250411131033.764954.117791"><time><value>2025-04-11T13:10:27.908393Z</value></time><waveformID networkCode="CX" stationCode="PB03" channelCode="HHZ"/><filterID>ITAPER(4)&gt;&gt;BW(4,4,20)</filterID><methodID>AIC</methodID><horizontalSlowness><value>9.034558445647967</value></horizontalSlowness><backazimuth><value>57.42298341306734</value></backazimuth><phaseHint>P</phaseHint><evaluationMode>automatic</evaluationMode><comment><text>560525.1317259927</text><id>DFX:rectilinearity</id></comment><comment><text>3384.9694517314774</text><id>SNR</id></comment></pick><pick publicID="de.gempa.tb1.Pick/20250411131034.638538.117793"><time><value>2025-04-11T13:10:23.05Z</value></time><waveformID networkCode="CX" stationCode="PB09" channelCode="HHZ"/><filterID>ITAPER(4)&gt;&gt;BW(4,4,20)</filterID><methodID>AIC</methodID><horizontalSlowness><value>15.523606564708707</value></horizontalSlowness><backazimuth><value>74.05624729504135</value></backazimuth><phaseHint>P</phaseHint><evaluationMode>automatic</evaluationMode><comment><text>792342.8436729285</text><id>DFX:rectilinearity</id></comment><comment><text>4258.669703015448</text><id>SNR</id></comment></pick><pick publicID="de.gempa.tb1.Pick/20250411131035.558635.117795"><time><value>2025-04-11T13:10:29.149999Z</value></time><waveformID networkCode="CX" stationCode="PATCX" channelCode="HHZ"/><filterID>ITAPER(4)&gt;&gt;BW(4,4,20)</filterID><methodID>AIC</methodID><horizontalSlowness><value>2.958835967622081</value></horizontalSlowness><backazimuth><value>132.86566884809355</value></backazimuth><phaseHint>P</phaseHint><evaluationMode>automatic</evaluationMode><comment><text>4500413.7078177705</text><id>DFX:rectilinearity</id></comment><comment><text>644.2743251442841</text><id>SNR</id></comment></pick><pick publicID="de.gempa.tb1.Pick/20250411131038.621923.117797"><time><value>2025-04-11T13:10:33.988391Z</value></time><waveformID networkCode="CX" stationCode="PB06" channelCode="HHZ"/><filterID>ITAPER(4)&gt;&gt;BW(4,4,20)</filterID><methodID>AIC</methodID><horizontalSlowness><value>6.272836726998043</value></horizontalSlowness><backazimuth><value>11.08597472640767</value></backazimuth><phaseHint>P</phaseHint><evaluationMode>automatic</evaluationMode><comment><text>274819.46610806696</text><id>DFX:rectilinearity</id></comment><comment><text>1143.3283662758286</text><id>SNR</id></comment></pick><pick publicID="de.gempa.tb1.Pick/20250411131039.644607.117799"><time><value>2025-04-11T13:10:34.178393Z</value></time><waveformID networkCode="CX" stationCode="PB01" channelCode="HHN"/><filterID>ITAPER(2)&gt;&gt;BW(3,3,20)</filterID><methodID>L2-AIC-GRID</methodID><horizontalSlowness><value>17.607480102639038</value></horizontalSlowness><backazimuth><value>285.26885366211127</value></backazimuth><phaseHint>S</phaseHint><evaluationMode>automatic</evaluationMode><comment><text>110618949.76756223</text><id>DFX:rectilinearity</id></comment><comment><text>de.gempa.tb1.Pick/20250411131025.578896.117785</text><id>RefPickID</id></comment><comment><text>19.563271952861193</text><id>SNR</id></comment></pick><pick publicID="de.gempa.tb1.Pick/20250411131042.596843.117800"><time><value>2025-04-11T13:10:37.79Z</value></time><waveformID networkCode="CX" stationCode="PSGCX" channelCode="HHZ"/><filterID>ITAPER(4)&gt;&gt;BW(4,4,20)</filterID><methodID>AIC</methodID><horizontalSlowness><value>8.694657478983022</value></horizontalSlowness><backazimuth><value>148.5000694547577</value></backazimuth><phaseHint>P</phaseHint><evaluationMode>automatic</evaluationMode><comment><text>318983.69351650175</text><id>DFX:rectilinearity</id></comment><comment><text>1909.2371424706655</text><id>SNR</id></comment></pick><pick publicID="de.gempa.tb1.Pick/20250411131045.831661.117802"><time><value>2025-04-11T13:10:40.228393Z</value></time><waveformID networkCode="CX" stationCode="PB15" channelCode="HHZ"/><filterID>ITAPER(4)&gt;&gt;BW(4,4,20)</filterID><methodID>AIC</methodID><horizontalSlowness><value>21.03155842022872</value></horizontalSlowness><backazimuth><value>92.17191424334018</value></backazimuth><phaseHint>P</phaseHint><evaluationMode>automatic</evaluationMode><comment><text>459661.596884721</text><id>DFX:rectilinearity</id></comment><comment><text>144.91924900680075</text><id>SNR</id></comment></pick><pick publicID="de.gempa.tb1.Pick/20250411131051.075263.117805"><time><value>2025-04-11T13:10:45.298393Z</value></time><waveformID networkCode="CX" stationCode="PB08" channelCode="HHN"/><filterID>ITAPER(2)&gt;&gt;BW(3,3,20)</filterID><methodID>L2-AIC-GRID</methodID><horizontalSlowness><value>14.403550425209962</value></horizontalSlowness><backazimuth><value>212.52686234308726</value></backazimuth><phaseHint>S</phaseHint><evaluationMode>automatic</evaluationMode><comment><text>3059964.724845503</text><id>DFX:rectilinearity</id></comment><comment><text>de.gempa.tb1.Pick/20250411131033.661997.117789</text><id>RefPickID</id></comment><comment><text>10.123588719841029</text><id>SNR</id></comment></pick><pick publicID="de.gempa.tb1.Pick/20250411131051.396854.117806"><time><value>2025-04-11T13:10:44.568393Z</value></time><waveformID networkCode="CX" stationCode="PB03" channelCode="HHN"/><filterID>ITAPER(2)&gt;&gt;BW(3,3,20)</filterID><methodID>L2-AIC-GRID</methodID><horizontalSlowness><value>10.820561149230137</value></horizontalSlowness><backazimuth><value>240.8070127145233</value></backazimuth><phaseHint>S</phaseHint><evaluationMode>automatic</evaluationMode><comment><text>13131070.33932836</text><id>DFX:rectilinearity</id></comment><comment><text>de.gempa.tb1.Pick/20250411131033.764954.117791</text><id>RefPickID</id></comment><comment><text>9.628166256187455</text><id>SNR</id></comment></pick><pick publicID="de.gempa.tb1.Pick/20250411131051.601402.117807"><time><value>2025-04-11T13:10:40.138393Z</value></time><waveformID networkCode="CX" stationCode="PB02" channelCode="HHN"/><filterID>ITAPER(2)&gt;&gt;BW(3,3,20)</filterID><methodID>L2-AIC-GRID</methodID><horizontalSlowness><value>9.730469175336836</value></horizontalSlowness><backazimuth><value>346.22204690473973</value></backazimuth><phaseHint>S</phaseHint><evaluationMode>automatic</evaluationMode><comment><text>273039616.56076485</text><id>DFX:rectilinearity</id></comment><comment><text>de.gempa.tb1.Pick/20250411131029.493049.117787</text><id>RefPickID</id></comment><comment><text>7.820362968264183</text><id>SNR</id></comment></pick><pick publicID="de.gempa.tb1.Pick/20250411131053.3294.117808"><time><value>2025-04-11T13:10:46.629999Z</value></time><waveformID networkCode="CX" stationCode="PATCX" channelCode="HHN"/><filterID>ITAPER(2)&gt;&gt;BW(3,3,20)</filterID><methodID>L2-AIC-GRID</methodID><horizontalSlowness><value>21.86302338924057</value></horizontalSlowness><backazimuth><value>278.29111056031047</value></backazimuth><phaseHint>S</phaseHint><evaluationMode>automatic</evaluationMode><comment><text>189466992.26753482</text><id>DFX:rectilinearity</id></comment><comment><text>de.gempa.tb1.Pick/20250411131035.558635.117795</text><id>RefPickID</id></comment><comment><text>14.46911155058765</text><id>SNR</id></comment></pick><pick publicID="de.gempa.tb1.Pick/20250411131053.659256.117809"><time><value>2025-04-11T13:10:48.4Z</value></time><waveformID networkCode="CX" stationCode="PB19" channelCode="HHZ"/><filterID>ITAPER(4)&gt;&gt;BW(4,4,20)</filterID><methodID>AIC</methodID><horizontalSlowness><value>5.290663925595737</value></horizontalSlowness><backazimuth><value>35.52083604421881</value></backazimuth><phaseHint>P</phaseHint><evaluationMode>automatic</evaluationMode><comment><text>3625.811258376377</text><id>DFX:rectilinearity</id></comment><comment><text>116.59193297221043</text><id>SNR</id></comment></pick><pick publicID="de.gempa.tb1.Pick/20250411131056.215754.117812"><time><value>2025-04-11T13:10:49.19Z</value></time><waveformID networkCode="CX" stationCode="PB10" channelCode="HHZ"/><filterID>ITAPER(4)&gt;&gt;BW(4,4,20)</filterID><methodID>AIC</methodID><horizontalSlowness><value>10.21914638983098</value></horizontalSlowness><backazimuth><value>41.91538381552624</value></backazimuth><phaseHint>P</phaseHint><evaluationMode>automatic</evaluationMode><comment><text>9575.608065547065</text><id>DFX:rectilinearity</id></comment><comment><text>53.59314191534201</text><id>SNR</id></comment></pick><pick publicID="de.gempa.tb1.Pick/20250411131102.740768.117820"><time><value>2025-04-11T13:10:55.558391Z</value></time><waveformID networkCode="CX" stationCode="PB06" channelCode="HHN"/><filterID>ITAPER(2)&gt;&gt;BW(3,3,20)</filterID><methodID>L2-AIC-GRID</methodID><horizontalSlowness><value>11.492290520167504</value></horizontalSlowness><backazimuth><value>337.09186480935205</value></backazimuth><phaseHint>S</phaseHint><evaluationMode>automatic</evaluationMode><comment><text>4780477.660506588</text><id>DFX:rectilinearity</id></comment><comment><text>de.gempa.tb1.Pick/20250411131038.621923.117797</text><id>RefPickID</id></comment><comment><text>14.52646037397943</text><id>SNR</id></comment></pick><origin publicID="de.gempa.tb1.Origin/20250411131102.745115.56551"><time><value>2025-04-11T13:10:06.98829Z</value><uncertainty>0.5808660387992859</uncertainty></time><latitude><value>-21.220170974731445</value><uncertainty>2.5794153213500977</uncertainty></latitude><longitude><value>-68.98442840576172</value><uncertainty>6.29515790939331</uncertainty></longitude><depth><value>97.57640075683594</value><uncertainty>7.327696800231934</uncertainty></depth><depthType>from location</depthType><methodID>LOCSAT</methodID><earthModelID>iasp91_scanloc</earthModelID><quality><associatedPhaseCount>17</associatedPhaseCount><usedPhaseCount>17</usedPhaseCount><associatedStationCount>11</associatedStationCount><usedStationCount>11</usedStationCount><depthPhaseCount>0</depthPhaseCount><standardError>0.4519563674871051</standardError><azimuthalGap>194.40232849121094</azimuthalGap><maximumDistance>2.705483913421631</maximumDistance><minimumDistance>0.501474916934967</minimumDistance><medianDistance>1.0912560224533081</medianDistance></quality><uncertainty><minHorizontalUncertainty>5.476353645324707</minHorizontalUncertainty><maxHorizontalUncertainty>13.517066955566406</maxHorizontalUncertainty><azimuthMaxHorizontalUncertainty>93.5536117553711</azimuthMaxHorizontalUncertainty><preferredDescription>horizontal uncertainty</preferredDescription></uncertainty><evaluationMode>automatic</evaluationMode><evaluationStatus>confirmed</evaluationStatus><comment><text>0.13</text><id>mismatchScore</id></comment><comment><text>mismatchScore</text><id>scevalMethod</id></comment><arrival><pickID>de.gempa.tb1.Pick/20250411131025.578896.117785</pickID><phase>P</phase><azimuth>290.4635925292969</azimuth><distance>0.501474916934967</distance><timeResidual>-0.7364654541015625</timeResidual><timeUsed>true</timeUsed><horizontalSlownessUsed>false</horizontalSlownessUsed><backazimuthUsed>false</backazimuthUsed><weight>1</weight></arrival><arrival><pickID>de.gempa.tb1.Pick/20250411131029.493049.117787</pickID><phase>P</phase><azimuth>263.1898498535156</azimuth><distance>0.8559991717338562</distance><timeResidual>-0.35800743103027344</timeResidual><timeUsed>true</timeUsed><horizontalSlownessUsed>false</horizontalSlownessUsed><backazimuthUsed>false</backazimuthUsed><weight>1</weight></arrival><arrival><pickID>de.gempa.tb1.Pick/20250411131033.661997.117789</pickID><phase>P</phase><azimuth>351.5871887207031</azimuth><distance>1.0852078199386597</distance><timeResidual>0.39960479736328125</timeResidual><timeUsed>true</timeUsed><horizontalSlownessUsed>false</horizontalSlownessUsed><backazimuthUsed>false</backazimuthUsed><weight>1</weight></arrival><arrival><pickID>de.gempa.tb1.Pick/20250411131033.764954.117791</pickID><phase>P</phase><azimuth>220.80673217773438</azimuth><distance>1.0912560224533081</distance><timeResidual>-0.3298912048339844</timeResidual><timeUsed>true</timeUsed><horizontalSlownessUsed>false</horizontalSlownessUsed><backazimuthUsed>false</backazimuthUsed><weight>1</weight></arrival><arrival><pickID>de.gempa.tb1.Pick/20250411131034.638538.117793</pickID><phase>P</phase><azimuth>202.64697265625</azimuth><distance>0.6214948296546936</distance><timeResidual>-0.42844390869140625</timeResidual><timeUsed>true</timeUsed><horizontalSlownessUsed>false</horizontalSlownessUsed><backazimuthUsed>false</backazimuthUsed><weight>1</weight></arrival><arrival><pickID>de.gempa.tb1.Pick/20250411131035.558635.117795</pickID><phase>P</phase><azimuth>289.79791259765625</azimuth><distance>1.1617337465286255</distance><timeResidual>0.09875297546386719</timeResidual><timeUsed>true</timeUsed><horizontalSlownessUsed>false</horizontalSlownessUsed><backazimuthUsed>false</backazimuthUsed><weight>1</weight></arrival><arrival><pickID>de.gempa.tb1.Pick/20250411131038.621923.117797</pickID><phase>P</phase><azimuth>200.137939453125</azimuth><distance>1.5758002996444702</distance><timeResidual>-0.05936431884765625</timeResidual><timeUsed>true</timeUsed><horizontalSlownessUsed>false</horizontalSlownessUsed><backazimuthUsed>false</backazimuthUsed><weight>1</weight></arrival><arrival><pickID>de.gempa.tb1.Pick/20250411131039.644607.117799</pickID><phase>S</phase><azimuth>290.4635925292969</azimuth><distance>0.501474916934967</distance><timeResidual>-0.2787332534790039</timeResidual><timeUsed>true</timeUsed><horizontalSlownessUsed>false</horizontalSlownessUsed><backazimuthUsed>false</backazimuthUsed><weight>1</weight></arrival><arrival><pickID>de.gempa.tb1.Pick/20250411131042.596843.117800</pickID><phase>P</phase><azimuth>326.3199157714844</azimuth><distance>1.935970425605774</distance><timeResidual>-0.8543996810913086</timeResidual><timeUsed>true</timeUsed><horizontalSlownessUsed>false</horizontalSlownessUsed><backazimuthUsed>false</backazimuthUsed><weight>1</weight></arrival><arrival><pickID>de.gempa.tb1.Pick/20250411131045.831661.117802</pickID><phase>P</phase><azimuth>192.74435424804688</azimuth><distance>2.029329776763916</distance><timeResidual>0.3910245895385742</timeResidual><timeUsed>true</timeUsed><horizontalSlownessUsed>false</horizontalSlownessUsed><backazimuthUsed>false</backazimuthUsed><weight>1</weight></arrival><arrival><pickID>de.gempa.tb1.Pick/20250411131051.075263.117805</pickID><phase>S</phase><azimuth>351.5871887207031</azimuth><distance>1.0852078199386597</distance><timeResidual>0.7669744491577148</timeResidual><timeUsed>true</timeUsed><horizontalSlownessUsed>false</horizontalSlownessUsed><backazimuthUsed>false</backazimuthUsed><weight>1</weight></arrival><arrival><pickID>de.gempa.tb1.Pick/20250411131051.396854.117806</pickID><phase>S</phase><azimuth>220.80673217773438</azimuth><distance>1.0912560224533081</distance><timeResidual>-0.0716562271118164</timeResidual><timeUsed>true</timeUsed><horizontalSlownessUsed>false</horizontalSlownessUsed><backazimuthUsed>false</backazimuthUsed><weight>1</weight></arrival><arrival><pickID>de.gempa.tb1.Pick/20250411131051.601402.117807</pickID><phase>S</phase><azimuth>263.1898498535156</azimuth><distance>0.8559991717338562</distance><timeResidual>0.03418254852294922</timeResidual><timeUsed>true</timeUsed><horizontalSlownessUsed>false</horizontalSlownessUsed><backazimuthUsed>false</backazimuthUsed><weight>1</weight></arrival><arrival><pickID>de.gempa.tb1.Pick/20250411131053.3294.117808</pickID><phase>S</phase><azimuth>289.79791259765625</azimuth><distance>1.1617337465286255</distance><timeResidual>0.5398797988891602</timeResidual><timeUsed>true</timeUsed><horizontalSlownessUsed>false</horizontalSlownessUsed><backazimuthUsed>false</backazimuthUsed><weight>1</weight></arrival><arrival><pickID>de.gempa.tb1.Pick/20250411131053.659256.117809</pickID><phase>P</phase><azimuth>185.98951721191406</azimuth><distance>2.686837673187256</distance><timeResidual>-0.09141063690185547</timeResidual><timeUsed>true</timeUsed><horizontalSlownessUsed>false</horizontalSlownessUsed><backazimuthUsed>false</backazimuthUsed><weight>1</weight></arrival><arrival><pickID>de.gempa.tb1.Pick/20250411131056.215754.117812</pickID><phase>P</phase><azimuth>212.1878204345703</azimuth><distance>2.705483913421631</distance><timeResidual>0.44873905181884766</timeResidual><timeUsed>true</timeUsed><horizontalSlownessUsed>false</horizontalSlownessUsed><backazimuthUsed>false</backazimuthUsed><weight>1</weight></arrival><arrival><pickID>de.gempa.tb1.Pick/20250411131102.740768.117820</pickID><phase>S</phase><azimuth>200.137939453125</azimuth><distance>1.5758002996444702</distance><timeResidual>0.529393196105957</timeResidual><timeUsed>true</timeUsed><horizontalSlownessUsed>false</horizontalSlownessUsed><backazimuthUsed>false</backazimuthUsed><weight>1</weight></arrival><magnitude publicID="de.gempa.tb1.Magnitude/20250411131105.943919.101646"><magnitude><value>4.2123213952579937</value></magnitude><type>M</type><methodID>weighted average</methodID><stationCount>9</stationCount></magnitude></origin><event publicID="gempa2025hdsn"><preferredOriginID>de.gempa.tb1.Origin/20250411131102.745115.56551</preferredOriginID><preferredMagnitudeID>de.gempa.tb1.Magnitude/20250411131105.943919.101646</preferredMagnitudeID><description><text>Chile-Bolivia Border Region</text><type>region name</type></description><originReference>de.gempa.tb1.Origin/20250411131102.745115.56551</originReference></event></EventParameters></seiscomp>