<?xml version="1.0" encoding="UTF-8"?>
<seiscomp xmlns="http://geofon.gfz-potsdam.de/ns/seiscomp3-schema/0.13" version="0.13"><EventParameters><pick publicID="de.gempa.tb1.Pick/20250413090415.59836.130291"><time><value>2025-04-13T09:04:08.99Z</value></time><waveformID networkCode="CX" stationCode="PB09" channelCode="HHZ"/><filterID>ITAPER(4)&gt;&gt;BW(4,4,20)</filterID><methodID>AIC</methodID><horizontalSlowness><value>23.376381669001663</value></horizontalSlowness><backazimuth><value>290.86931136139174</value></backazimuth><phaseHint>P</phaseHint><evaluationMode>automatic</evaluationMode><comment><text>18.906553483903515</text><id>DFX:rectilinearity</id></comment><comment><text>19.71753155640529</text><id>SNR</id></comment></pick><pick publicID="de.gempa.tb1.Pick/20250413090417.569192.130293"><time><value>2025-04-13T09:04:11.188393Z</value></time><waveformID networkCode="CX" stationCode="PB03" channelCode="HHZ"/><filterID>ITAPER(4)&gt;&gt;BW(4,4,20)</filterID><methodID>AIC</methodID><horizontalSlowness><value>15.18080743248882</value></horizontalSlowness><backazimuth><value>228.5453960191024</value></backazimuth><phaseHint>P</phaseHint><evaluationMode>automatic</evaluationMode><comment><text>4.731023308019557</text><id>DFX:rectilinearity</id></comment><comment><text>10.064426354694495</text><id>SNR</id></comment></pick><pick publicID="de.gempa.tb1.Pick/20250413090417.620158.130295"><time><value>2025-04-13T09:04:11.048393Z</value></time><waveformID networkCode="CX" stationCode="PB06" channelCode="HHZ"/><filterID>ITAPER(4)&gt;&gt;BW(4,4,20)</filterID><methodID>AIC</methodID><horizontalSlowness><value>6.714675722736993</value></horizontalSlowness><backazimuth><value>105.2015280952417</value></backazimuth><phaseHint>P</phaseHint><evaluationMode>automatic</evaluationMode><comment><text>96.67840217680383</text><id>DFX:rectilinearity</id></comment><comment><text>10.758559174753039</text><id>SNR</id></comment></pick><pick publicID="de.gempa.tb1.Pick/20250413090421.544156.130297"><time><value>2025-04-13T09:04:16.238393Z</value></time><waveformID networkCode="CX" stationCode="PB01" channelCode="HHZ"/><filterID>ITAPER(4)&gt;&gt;BW(4,4,20)</filterID><methodID>AIC</methodID><horizontalSlowness><value>20.217719307487116</value></horizontalSlowness><backazimuth><value>339.4254089525782</value></backazimuth><phaseHint>P</phaseHint><evaluationMode>automatic</evaluationMode><comment><text>20.750743262626923</text><id>DFX:rectilinearity</id></comment><comment><text>18.43643268980718</text><id>SNR</id></comment></pick><pick publicID="de.gempa.tb1.Pick/20250413090431.787766.130299"><time><value>2025-04-13T09:04:25.198393Z</value></time><waveformID networkCode="CX" stationCode="PB03" channelCode="HHN"/><filterID>ITAPER(2)&gt;&gt;BW(3,3,20)</filterID><methodID>L2-AIC-GRID</methodID><horizontalSlowness><value>15.608916467306114</value></horizontalSlowness><backazimuth><value>262.0892040919098</value></backazimuth><phaseHint>S</phaseHint><evaluationMode>automatic</evaluationMode><comment><text>62.55567704601627</text><id>DFX:rectilinearity</id></comment><comment><text>de.gempa.tb1.Pick/20250413090417.569192.130293</text><id>RefPickID</id></comment><comment><text>10.993243929585622</text><id>SNR</id></comment></pick><pick publicID="de.gempa.tb1.Pick/20250413090433.517119.130300"><time><value>2025-04-13T09:04:24.988393Z</value></time><waveformID networkCode="CX" stationCode="PB06" channelCode="HHN"/><filterID>ITAPER(2)&gt;&gt;BW(3,3,20)</filterID><methodID>L2-AIC-GRID</methodID><horizontalSlowness><value>20.910586669562225</value></horizontalSlowness><backazimuth><value>323.0521571601604</value></backazimuth><phaseHint>S</phaseHint><evaluationMode>automatic</evaluationMode><comment><text>340.6520248924342</text><id>DFX:rectilinearity</id></comment><comment><text>de.gempa.tb1.Pick/20250413090417.620158.130295</text><id>RefPickID</id></comment><comment><text>13.556182505777493</text><id>SNR</id></comment></pick><pick publicID="de.gempa.tb1.Pick/20250413090442.689424.130303"><time><value>2025-04-13T09:04:34.988393Z</value></time><waveformID networkCode="CX" stationCode="PB01" channelCode="HHN"/><filterID>ITAPER(2)&gt;&gt;BW(3,3,20)</filterID><methodID>L2-AIC-GRID</methodID><horizontalSlowness><value>21.186012049060164</value></horizontalSlowness><backazimuth><value>335.12269544507654</value></backazimuth><phaseHint>S</phaseHint><evaluationMode>automatic</evaluationMode><comment><text>46.99593819248352</text><id>DFX:rectilinearity</id></comment><comment><text>de.gempa.tb1.Pick/20250413090421.544156.130297</text><id>RefPickID</id></comment><comment><text>5.7436452263728</text><id>SNR</id></comment></pick><pick publicID="de.gempa.tb1.Pick/20250413090456.764659.130305"><time><value>2025-04-13T09:04:13.658393Z</value></time><waveformID networkCode="CX" stationCode="PB07" channelCode="HHZ"/><filterID>ITAPER(4)&gt;&gt;BW(4,4,20)</filterID><methodID>AIC</methodID><horizontalSlowness><value>22.794302355573443</value></horizontalSlowness><backazimuth><value>245.90542238800046</value></backazimuth><phaseHint>P</phaseHint><evaluationMode>automatic</evaluationMode><comment><text>285.8423521319565</text><id>DFX:rectilinearity</id></comment><comment><text>24.598530884729147</text><id>SNR</id></comment></pick><pick publicID="de.gempa.tb1.Pick/20250413090502.658031.130307"><time><value>2025-04-13T09:04:29.938393Z</value></time><waveformID networkCode="CX" stationCode="PB07" channelCode="HHN"/><filterID>ITAPER(2)&gt;&gt;BW(3,3,20)</filterID><methodID>L2-AIC-GRID</methodID><horizontalSlowness><value>23.28675201198476</value></horizontalSlowness><backazimuth><value>47.81622529324724</value></backazimuth><phaseHint>S</phaseHint><evaluationMode>automatic</evaluationMode><comment><text>6430.811571675922</text><id>DFX:rectilinearity</id></comment><comment><text>de.gempa.tb1.Pick/20250413090456.764659.130305</text><id>RefPickID</id></comment><comment><text>7.409703236254843</text><id>SNR</id></comment></pick><origin publicID="de.gempa.tb1.Origin/20250413090503.300565.106354"><time><value>2025-04-13T09:03:52.692654Z</value><uncertainty>1.2851471900939941</uncertainty></time><latitude><value>-22.22372055053711</value><uncertainty>4.603809356689453</uncertainty></latitude><longitude><value>-68.90825653076172</value><uncertainty>13.433880805969238</uncertainty></longitude><depth><value>101.39644622802734</value><uncertainty>16.268917083740234</uncertainty></depth><depthType>from location</depthType><methodID>LOCSAT</methodID><earthModelID>iasp91_scanloc</earthModelID><quality><associatedPhaseCount>9</associatedPhaseCount><usedPhaseCount>9</usedPhaseCount><associatedStationCount>5</associatedStationCount><usedStationCount>5</usedStationCount><depthPhaseCount>0</depthPhaseCount><standardError>0.16499676766464813</standardError><azimuthalGap>256.6107940673828</azimuthalGap><maximumDistance>1.2923974990844727</maximumDistance><minimumDistance>0.5260560512542725</minimumDistance><medianDistance>0.802491545677185</medianDistance></quality><uncertainty><minHorizontalUncertainty>9.823253631591797</minHorizontalUncertainty><maxHorizontalUncertainty>28.82257080078125</maxHorizontalUncertainty><azimuthMaxHorizontalUncertainty>87.9310531616211</azimuthMaxHorizontalUncertainty><preferredDescription>horizontal uncertainty</preferredDescription></uncertainty><evaluationMode>automatic</evaluationMode><evaluationStatus>confirmed</evaluationStatus><comment><text>0.08</text><id>mismatchScore</id></comment><comment><text>mismatchScore</text><id>scevalMethod</id></comment><arrival><pickID>de.gempa.tb1.Pick/20250413090415.59836.130291</pickID><phase>P</phase><azimuth>323.8800964355469</azimuth><distance>0.5260560512542725</distance><timeResidual>0.17870330810546875</timeResidual><timeUsed>true</timeUsed><horizontalSlownessUsed>false</horizontalSlownessUsed><backazimuthUsed>false</backazimuthUsed><weight>1</weight></arrival><arrival><pickID>de.gempa.tb1.Pick/20250413090417.569192.130293</pickID><phase>P</phase><azimuth>282.3939514160156</azimuth><distance>0.802491545677185</distance><timeResidual>-0.0038890838623046875</timeResidual><timeUsed>true</timeUsed><horizontalSlownessUsed>false</horizontalSlownessUsed><backazimuthUsed>false</backazimuthUsed><weight>1</weight></arrival><arrival><pickID>de.gempa.tb1.Pick/20250413090417.620158.130295</pickID><phase>P</phase><azimuth>231.86351013183594</azimuth><distance>0.7791110873222351</distance><timeResidual>0.08357620239257812</timeResidual><timeUsed>true</timeUsed><horizontalSlownessUsed>false</horizontalSlownessUsed><backazimuthUsed>false</backazimuthUsed><weight>1</weight></arrival><arrival><pickID>de.gempa.tb1.Pick/20250413090421.544156.130297</pickID><phase>P</phase><azimuth>335.2527160644531</azimuth><distance>1.2923974990844727</distance><timeResidual>-0.29122352600097656</timeResidual><timeUsed>true</timeUsed><horizontalSlownessUsed>false</horizontalSlownessUsed><backazimuthUsed>false</backazimuthUsed><weight>1</weight></arrival><arrival><pickID>de.gempa.tb1.Pick/20250413090431.787766.130299</pickID><phase>S</phase><azimuth>282.3939514160156</azimuth><distance>0.802491545677185</distance><timeResidual>-0.2440814971923828</timeResidual><timeUsed>true</timeUsed><horizontalSlownessUsed>false</horizontalSlownessUsed><backazimuthUsed>false</backazimuthUsed><weight>1</weight></arrival><arrival><pickID>de.gempa.tb1.Pick/20250413090433.517119.130300</pickID><phase>S</phase><azimuth>231.86351013183594</azimuth><distance>0.7791110873222351</distance><timeResidual>-0.04968070983886719</timeResidual><timeUsed>true</timeUsed><horizontalSlownessUsed>false</horizontalSlownessUsed><backazimuthUsed>false</backazimuthUsed><weight>1</weight></arrival><arrival><pickID>de.gempa.tb1.Pick/20250413090442.689424.130303</pickID><phase>S</phase><azimuth>335.2527160644531</azimuth><distance>1.2923974990844727</distance><timeResidual>0.021396636962890625</timeResidual><timeUsed>true</timeUsed><horizontalSlownessUsed>false</horizontalSlownessUsed><backazimuthUsed>false</backazimuthUsed><weight>1</weight></arrival><arrival><pickID>de.gempa.tb1.Pick/20250413090456.764659.130305</pickID><phase>P</phase><azimuth>298.4049377441406</azimuth><distance>1.0337408781051636</distance><timeResidual>0.07414054870605469</timeResidual><timeUsed>true</timeUsed><horizontalSlownessUsed>false</horizontalSlownessUsed><backazimuthUsed>false</backazimuthUsed><weight>1</weight></arrival><arrival><pickID>de.gempa.tb1.Pick/20250413090502.658031.130307</pickID><phase>S</phase><azimuth>298.4049377441406</azimuth><distance>1.0337408781051636</distance><timeResidual>0.230804443359375</timeResidual><timeUsed>true</timeUsed><horizontalSlownessUsed>false</horizontalSlownessUsed><backazimuthUsed>false</backazimuthUsed><weight>1</weight></arrival><magnitude publicID="de.gempa.tb1.Magnitude/20250413090529.020524.335149"><magnitude><value>2.2472927561051148</value></magnitude><type>M</type><methodID>weighted average</methodID><stationCount>4</stationCount></magnitude></origin><event publicID="gempa2025hhcj"><preferredOriginID>de.gempa.tb1.Origin/20250413090503.300565.106354</preferredOriginID><preferredMagnitudeID>de.gempa.tb1.Magnitude/20250413090529.020524.335149</preferredMagnitudeID><description><text>Northern Chile</text><type>region name</type></description><originReference>de.gempa.tb1.Origin/20250413090503.300565.106354</originReference></event></EventParameters></seiscomp>