<?xml version="1.0" encoding="UTF-8"?>
<seiscomp xmlns="http://geofon.gfz-potsdam.de/ns/seiscomp3-schema/0.13" version="0.13"><EventParameters><pick publicID="de.gempa.tb1.Pick/20250414231217.525166.142033"><time><value>2025-04-14T23:12:10.93Z</value></time><waveformID networkCode="CX" stationCode="PB09" channelCode="HHZ"/><filterID>ITAPER(4)&gt;&gt;BW(4,4,20)</filterID><methodID>AIC</methodID><horizontalSlowness><value>15.669612179607405</value></horizontalSlowness><backazimuth><value>75.62996124167161</value></backazimuth><phaseHint>P</phaseHint><evaluationMode>automatic</evaluationMode><comment><text>35540.02016206956</text><id>DFX:rectilinearity</id></comment><comment><text>1673.5024144889935</text><id>SNR</id></comment></pick><pick publicID="de.gempa.tb1.Pick/20250414231217.581194.142035"><time><value>2025-04-14T23:12:12.108393Z</value></time><waveformID networkCode="CX" stationCode="PB01" channelCode="HHZ"/><filterID>ITAPER(4)&gt;&gt;BW(4,4,20)</filterID><methodID>AIC</methodID><horizontalSlowness><value>5.322411305609758</value></horizontalSlowness><backazimuth><value>88.08280263029965</value></backazimuth><phaseHint>P</phaseHint><evaluationMode>automatic</evaluationMode><comment><text>1064.08259479347</text><id>DFX:rectilinearity</id></comment><comment><text>863.0490295572288</text><id>SNR</id></comment></pick><pick publicID="de.gempa.tb1.Pick/20250414231220.522406.142037"><time><value>2025-04-14T23:12:15.748393Z</value></time><waveformID networkCode="CX" stationCode="PB02" channelCode="HHZ"/><filterID>ITAPER(4)&gt;&gt;BW(4,4,20)</filterID><methodID>AIC</methodID><horizontalSlowness><value>4.779057674442765</value></horizontalSlowness><backazimuth><value>76.09365498581133</value></backazimuth><phaseHint>P</phaseHint><evaluationMode>automatic</evaluationMode><comment><text>32918.80153911995</text><id>DFX:rectilinearity</id></comment><comment><text>384.9118590630933</text><id>SNR</id></comment></pick><pick publicID="de.gempa.tb1.Pick/20250414231221.57238.142039"><time><value>2025-04-14T23:12:15.888393Z</value></time><waveformID networkCode="CX" stationCode="PB03" channelCode="HHZ"/><filterID>ITAPER(4)&gt;&gt;BW(4,4,20)</filterID><methodID>AIC</methodID><horizontalSlowness><value>5.931207847576205</value></horizontalSlowness><backazimuth><value>61.71460432437463</value></backazimuth><phaseHint>P</phaseHint><evaluationMode>automatic</evaluationMode><comment><text>5588.029729669275</text><id>DFX:rectilinearity</id></comment><comment><text>309.40910196736326</text><id>SNR</id></comment></pick><pick publicID="de.gempa.tb1.Pick/20250414231223.517702.142041"><time><value>2025-04-14T23:12:17.168393Z</value></time><waveformID networkCode="CX" stationCode="PB08" channelCode="HHZ"/><filterID>ITAPER(4)&gt;&gt;BW(4,4,20)</filterID><methodID>AIC</methodID><horizontalSlowness><value>11.817907326044528</value></horizontalSlowness><backazimuth><value>221.5409864684871</value></backazimuth><phaseHint>P</phaseHint><evaluationMode>automatic</evaluationMode><comment><text>192.19715463675917</text><id>DFX:rectilinearity</id></comment><comment><text>34.632023002705864</text><id>SNR</id></comment></pick><pick publicID="de.gempa.tb1.Pick/20250414231224.643547.142043"><time><value>2025-04-14T23:12:19.298393Z</value></time><waveformID networkCode="CX" stationCode="PB06" channelCode="HHZ"/><filterID>ITAPER(4)&gt;&gt;BW(4,4,20)</filterID><methodID>AIC</methodID><horizontalSlowness><value>4.413725006996283</value></horizontalSlowness><backazimuth><value>54.7911566965798</value></backazimuth><phaseHint>P</phaseHint><evaluationMode>automatic</evaluationMode><comment><text>557.1865409999664</text><id>DFX:rectilinearity</id></comment><comment><text>171.53440133136144</text><id>SNR</id></comment></pick><pick publicID="de.gempa.tb1.Pick/20250414231225.451949.142045"><time><value>2025-04-14T23:12:19.789999Z</value></time><waveformID networkCode="CX" stationCode="PATCX" channelCode="HHZ"/><filterID>ITAPER(4)&gt;&gt;BW(4,4,20)</filterID><methodID>AIC</methodID><horizontalSlowness><value>5.587757943789271</value></horizontalSlowness><backazimuth><value>175.31476199614522</value></backazimuth><phaseHint>P</phaseHint><evaluationMode>automatic</evaluationMode><comment><text>55040.14503017272</text><id>DFX:rectilinearity</id></comment><comment><text>2183.3186997975608</text><id>SNR</id></comment></pick><pick publicID="de.gempa.tb1.Pick/20250414231228.762961.142047"><time><value>2025-04-14T23:12:23.828393Z</value></time><waveformID networkCode="CX" stationCode="PB15" channelCode="HHZ"/><filterID>ITAPER(4)&gt;&gt;BW(4,4,20)</filterID><methodID>AIC</methodID><horizontalSlowness><value>20.963033464430268</value></horizontalSlowness><backazimuth><value>67.74713722483008</value></backazimuth><phaseHint>P</phaseHint><evaluationMode>automatic</evaluationMode><comment><text>7186.138295926872</text><id>DFX:rectilinearity</id></comment><comment><text>45.40837731042845</text><id>SNR</id></comment></pick><pick publicID="de.gempa.tb1.Pick/20250414231229.792965.142049"><time><value>2025-04-14T23:12:16.038396Z</value></time><waveformID networkCode="CX" stationCode="PB07" channelCode="HHZ"/><filterID>ITAPER(4)&gt;&gt;BW(4,4,20)</filterID><methodID>AIC</methodID><horizontalSlowness><value>15.134839330265528</value></horizontalSlowness><backazimuth><value>97.48242032323451</value></backazimuth><phaseHint>P</phaseHint><evaluationMode>automatic</evaluationMode><comment><text>65006.23779892947</text><id>DFX:rectilinearity</id></comment><comment><text>1296.5262444506145</text><id>SNR</id></comment></pick><pick publicID="de.gempa.tb1.Pick/20250414231231.584048.142051"><time><value>2025-04-14T23:12:27.07Z</value></time><waveformID networkCode="CX" stationCode="PSGCX" channelCode="HHZ"/><filterID>ITAPER(4)&gt;&gt;BW(4,4,20)</filterID><methodID>AIC</methodID><horizontalSlowness><value>10.461781153502498</value></horizontalSlowness><backazimuth><value>150.93776516194217</value></backazimuth><phaseHint>P</phaseHint><evaluationMode>automatic</evaluationMode><comment><text>102.92291103194101</text><id>DFX:rectilinearity</id></comment><comment><text>128.65975706248543</text><id>SNR</id></comment></pick><pick publicID="de.gempa.tb1.Pick/20250414231237.577208.142053"><time><value>2025-04-14T23:12:31.41Z</value></time><waveformID networkCode="CX" stationCode="PB19" channelCode="HHZ"/><filterID>ITAPER(4)&gt;&gt;BW(4,4,20)</filterID><methodID>AIC</methodID><horizontalSlowness><value>8.402943584841466</value></horizontalSlowness><backazimuth><value>61.79224214118427</value></backazimuth><phaseHint>P</phaseHint><evaluationMode>automatic</evaluationMode><comment><text>69.67537094112407</text><id>DFX:rectilinearity</id></comment><comment><text>37.681437160980934</text><id>SNR</id></comment></pick><pick publicID="de.gempa.tb1.Pick/20250414231237.750359.142055"><time><value>2025-04-14T23:12:30.988393Z</value></time><waveformID networkCode="CX" stationCode="PB01" channelCode="HHN"/><filterID>ITAPER(2)&gt;&gt;BW(3,3,20)</filterID><methodID>L2-AIC-GRID</methodID><horizontalSlowness><value>19.733817158762584</value></horizontalSlowness><backazimuth><value>328.3234978525644</value></backazimuth><phaseHint>S</phaseHint><evaluationMode>automatic</evaluationMode><comment><text>45999.07971135945</text><id>DFX:rectilinearity</id></comment><comment><text>de.gempa.tb1.Pick/20250414231217.581194.142035</text><id>RefPickID</id></comment><comment><text>5.519359621007889</text><id>SNR</id></comment></pick><pick publicID="de.gempa.tb1.Pick/20250414231238.227698.142056"><time><value>2025-04-14T23:12:33.7Z</value></time><waveformID networkCode="CX" stationCode="PB10" channelCode="HHZ"/><filterID>ITAPER(4)&gt;&gt;BW(4,4,20)</filterID><methodID>AIC</methodID><horizontalSlowness><value>18.71438325750169</value></horizontalSlowness><backazimuth><value>185.41056362436717</value></backazimuth><phaseHint>P</phaseHint><evaluationMode>automatic</evaluationMode><comment><text>119.34202592267599</text><id>DFX:rectilinearity</id></comment><comment><text>26.101656546242317</text><id>SNR</id></comment></pick><pick publicID="de.gempa.tb1.Pick/20250414231242.687763.142058"><time><value>2025-04-14T23:12:36.898393Z</value></time><waveformID networkCode="CX" stationCode="PB03" channelCode="HHN"/><filterID>ITAPER(2)&gt;&gt;BW(3,3,20)</filterID><methodID>L2-AIC-GRID</methodID><horizontalSlowness><value>17.018929083020168</value></horizontalSlowness><backazimuth><value>287.3518332833004</value></backazimuth><phaseHint>S</phaseHint><evaluationMode>automatic</evaluationMode><comment><text>7545.610266066278</text><id>DFX:rectilinearity</id></comment><comment><text>de.gempa.tb1.Pick/20250414231221.57238.142039</text><id>RefPickID</id></comment><comment><text>5.945091535767692</text><id>SNR</id></comment></pick><pick publicID="de.gempa.tb1.Pick/20250414231244.686534.142059"><time><value>2025-04-14T23:12:38.898393Z</value></time><waveformID networkCode="CX" stationCode="PB08" channelCode="HHN"/><filterID>ITAPER(2)&gt;&gt;BW(3,3,20)</filterID><methodID>L2-AIC-GRID</methodID><horizontalSlowness><value>16.213399109238406</value></horizontalSlowness><backazimuth><value>204.20783991850965</value></backazimuth><phaseHint>S</phaseHint><evaluationMode>automatic</evaluationMode><comment><text>10716.997233476559</text><id>DFX:rectilinearity</id></comment><comment><text>de.gempa.tb1.Pick/20250414231223.517702.142041</text><id>RefPickID</id></comment><comment><text>5.916657581620919</text><id>SNR</id></comment></pick><pick publicID="de.gempa.tb1.Pick/20250414231248.648632.142063"><time><value>2025-04-14T23:12:42.998393Z</value></time><waveformID networkCode="CX" stationCode="PB06" channelCode="HHN"/><filterID>ITAPER(2)&gt;&gt;BW(3,3,20)</filterID><methodID>L2-AIC-GRID</methodID><horizontalSlowness><value>20.35561675858749</value></horizontalSlowness><backazimuth><value>291.9124955812425</value></backazimuth><phaseHint>S</phaseHint><evaluationMode>automatic</evaluationMode><comment><text>14909.329287675193</text><id>DFX:rectilinearity</id></comment><comment><text>de.gempa.tb1.Pick/20250414231224.643547.142043</text><id>RefPickID</id></comment><comment><text>10.135596344928882</text><id>SNR</id></comment></pick><pick publicID="de.gempa.tb1.Pick/20250414231300.828565.142070"><time><value>2025-04-14T23:12:51.768393Z</value></time><waveformID networkCode="CX" stationCode="PB15" channelCode="HHN"/><filterID>ITAPER(2)&gt;&gt;BW(3,3,20)</filterID><methodID>L2-AIC-GRID</methodID><horizontalSlowness><value>20.697332043196418</value></horizontalSlowness><backazimuth><value>65.49106082492261</value></backazimuth><phaseHint>S</phaseHint><evaluationMode>automatic</evaluationMode><comment><text>298966.25421392557</text><id>DFX:rectilinearity</id></comment><comment><text>de.gempa.tb1.Pick/20250414231228.762961.142047</text><id>RefPickID</id></comment><comment><text>9.570566145637375</text><id>SNR</id></comment></pick><pick publicID="de.gempa.tb1.Pick/20250414231307.610318.142072"><time><value>2025-04-14T23:12:57.13Z</value></time><waveformID networkCode="CX" stationCode="PSGCX" channelCode="HHN"/><filterID>ITAPER(2)&gt;&gt;BW(3,3,20)</filterID><methodID>L2-AIC-GRID</methodID><horizontalSlowness><value>21.578934339934758</value></horizontalSlowness><backazimuth><value>234.5590599258247</value></backazimuth><phaseHint>S</phaseHint><evaluationMode>automatic</evaluationMode><comment><text>2098.6263523060888</text><id>DFX:rectilinearity</id></comment><comment><text>de.gempa.tb1.Pick/20250414231231.584048.142051</text><id>RefPickID</id></comment><comment><text>8.954557575821262</text><id>SNR</id></comment></pick><pick publicID="de.gempa.tb1.Pick/20250414231310.723569.142073"><time><value>2025-04-14T23:13:04.04Z</value></time><waveformID networkCode="CX" stationCode="PB19" channelCode="HHN"/><filterID>ITAPER(2)&gt;&gt;BW(3,3,20)</filterID><methodID>L2-AIC-GRID</methodID><horizontalSlowness><value>22.180071126113962</value></horizontalSlowness><backazimuth><value>358.5609334689462</value></backazimuth><phaseHint>S</phaseHint><evaluationMode>automatic</evaluationMode><comment><text>2004.0328009776797</text><id>DFX:rectilinearity</id></comment><comment><text>de.gempa.tb1.Pick/20250414231237.577208.142053</text><id>RefPickID</id></comment><comment><text>10.539644736045625</text><id>SNR</id></comment></pick><origin publicID="de.gempa.tb1.Origin/20250414231310.730514.154291"><time><value>2025-04-14T23:11:49.154205Z</value><uncertainty>0.7371904253959656</uncertainty></time><latitude><value>-21.38286018371582</value><uncertainty>2.3251070976257324</uncertainty></latitude><longitude><value>-68.60465240478516</value><uncertainty>9.932135581970215</uncertainty></longitude><depth><value>147.52540588378906</value><uncertainty>8.068166732788086</uncertainty></depth><depthType>from location</depthType><methodID>LOCSAT</methodID><earthModelID>iasp91_scanloc</earthModelID><quality><associatedPhaseCount>19</associatedPhaseCount><usedPhaseCount>19</usedPhaseCount><associatedStationCount>12</associatedStationCount><usedStationCount>12</usedStationCount><depthPhaseCount>0</depthPhaseCount><standardError>0.3662565701981876</standardError><azimuthalGap>216.70787048339844</azimuthalGap><maximumDistance>2.783543348312378</maximumDistance><minimumDistance>0.7218633890151978</minimumDistance><medianDistance>1.5500833988189697</medianDistance></quality><uncertainty><minHorizontalUncertainty>4.931488037109375</minHorizontalUncertainty><maxHorizontalUncertainty>21.301233291625977</maxHorizontalUncertainty><azimuthMaxHorizontalUncertainty>88.00912475585938</azimuthMaxHorizontalUncertainty><preferredDescription>horizontal uncertainty</preferredDescription></uncertainty><evaluationMode>automatic</evaluationMode><evaluationStatus>confirmed</evaluationStatus><comment><text>0.00</text><id>mismatchScore</id></comment><comment><text>mismatchScore</text><id>scevalMethod</id></comment><arrival><pickID>de.gempa.tb1.Pick/20250414231217.525166.142033</pickID><phase>P</phase><azimuth>235.1305694580078</azimuth><distance>0.7218633890151978</distance><timeResidual>-0.5974788665771484</timeResidual><timeUsed>true</timeUsed><horizontalSlownessUsed>false</horizontalSlownessUsed><backazimuthUsed>false</backazimuthUsed><weight>1</weight></arrival><arrival><pickID>de.gempa.tb1.Pick/20250414231217.581194.142035</pickID><phase>P</phase><azimuth>292.1493225097656</azimuth><distance>0.8902826309204102</distance><timeResidual>-0.6701526641845703</timeResidual><timeUsed>true</timeUsed><horizontalSlownessUsed>false</horizontalSlownessUsed><backazimuthUsed>false</backazimuthUsed><weight>1</weight></arrival><arrival><pickID>de.gempa.tb1.Pick/20250414231220.522406.142037</pickID><phase>P</phase><azimuth>272.7532958984375</azimuth><distance>1.2054412364959717</distance><timeResidual>0.20067977905273438</timeResidual><timeUsed>true</timeUsed><horizontalSlownessUsed>false</horizontalSlownessUsed><backazimuthUsed>false</backazimuthUsed><weight>1</weight></arrival><arrival><pickID>de.gempa.tb1.Pick/20250414231221.57238.142039</pickID><phase>P</phase><azimuth>237.98097229003906</azimuth><distance>1.2566421031951904</distance><timeResidual>-0.14894485473632812</timeResidual><timeUsed>true</timeUsed><horizontalSlownessUsed>false</horizontalSlownessUsed><backazimuthUsed>false</backazimuthUsed><weight>1</weight></arrival><arrival><pickID>de.gempa.tb1.Pick/20250414231223.517702.142041</pickID><phase>P</phase><azimuth>337.33233642578125</azimuth><distance>1.3379706144332886</distance><timeResidual>0.3114814758300781</timeResidual><timeUsed>true</timeUsed><horizontalSlownessUsed>false</horizontalSlownessUsed><backazimuthUsed>false</backazimuthUsed><weight>1</weight></arrival><arrival><pickID>de.gempa.tb1.Pick/20250414231224.643547.142043</pickID><phase>P</phase><azimuth>214.0988311767578</azimuth><distance>1.5932732820510864</distance><timeResidual>-0.21550941467285156</timeResidual><timeUsed>true</timeUsed><horizontalSlownessUsed>false</horizontalSlownessUsed><backazimuthUsed>false</backazimuthUsed><weight>1</weight></arrival><arrival><pickID>de.gempa.tb1.Pick/20250414231225.451949.142045</pickID><phase>P</phase><azimuth>290.8741760253906</azimuth><distance>1.5500833988189697</distance><timeResidual>0.729013442993164</timeResidual><timeUsed>true</timeUsed><horizontalSlownessUsed>false</horizontalSlownessUsed><backazimuthUsed>false</backazimuthUsed><weight>1</weight></arrival><arrival><pickID>de.gempa.tb1.Pick/20250414231228.762961.142047</pickID><phase>P</phase><azimuth>203.6640625</azimuth><distance>1.985981583595276</distance><timeResidual>-0.11923789978027344</timeResidual><timeUsed>true</timeUsed><horizontalSlownessUsed>false</horizontalSlownessUsed><backazimuthUsed>false</backazimuthUsed><weight>1</weight></arrival><arrival><pickID>de.gempa.tb1.Pick/20250414231229.792965.142049</pickID><phase>P</phase><azimuth>253.76470947265625</azimuth><distance>1.2410608530044556</distance><timeResidual>0.15041160583496094</timeResidual><timeUsed>true</timeUsed><horizontalSlownessUsed>false</horizontalSlownessUsed><backazimuthUsed>false</backazimuthUsed><weight>1</weight></arrival><arrival><pickID>de.gempa.tb1.Pick/20250414231231.584048.142051</pickID><phase>P</phase><azimuth>321.0303649902344</azimuth><distance>2.2765214443206787</distance><timeResidual>-0.36717987060546875</timeResidual><timeUsed>true</timeUsed><horizontalSlownessUsed>false</horizontalSlownessUsed><backazimuthUsed>false</backazimuthUsed><weight>1</weight></arrival><arrival><pickID>de.gempa.tb1.Pick/20250414231237.577208.142053</pickID><phase>P</phase><azimuth>194.0402069091797</azimuth><distance>2.5887558460235596</distance><timeResidual>0.17554473876953125</timeResidual><timeUsed>true</timeUsed><horizontalSlownessUsed>false</horizontalSlownessUsed><backazimuthUsed>false</backazimuthUsed><weight>1</weight></arrival><arrival><pickID>de.gempa.tb1.Pick/20250414231237.750359.142055</pickID><phase>S</phase><azimuth>292.1493225097656</azimuth><distance>0.8902826309204102</distance><timeResidual>-0.13609886169433594</timeResidual><timeUsed>true</timeUsed><horizontalSlownessUsed>false</horizontalSlownessUsed><backazimuthUsed>false</backazimuthUsed><weight>1</weight></arrival><arrival><pickID>de.gempa.tb1.Pick/20250414231238.227698.142056</pickID><phase>P</phase><azimuth>220.015869140625</azimuth><distance>2.783543348312378</distance><timeResidual>0.0260162353515625</timeResidual><timeUsed>true</timeUsed><horizontalSlownessUsed>false</horizontalSlownessUsed><backazimuthUsed>false</backazimuthUsed><weight>1</weight></arrival><arrival><pickID>de.gempa.tb1.Pick/20250414231242.687763.142058</pickID><phase>S</phase><azimuth>237.98097229003906</azimuth><distance>1.2566421031951904</distance><timeResidual>-0.04529762268066406</timeResidual><timeUsed>true</timeUsed><horizontalSlownessUsed>false</horizontalSlownessUsed><backazimuthUsed>false</backazimuthUsed><weight>1</weight></arrival><arrival><pickID>de.gempa.tb1.Pick/20250414231244.686534.142059</pickID><phase>S</phase><azimuth>337.33233642578125</azimuth><distance>1.3379706144332886</distance><timeResidual>0.4936084747314453</timeResidual><timeUsed>true</timeUsed><horizontalSlownessUsed>false</horizontalSlownessUsed><backazimuthUsed>false</backazimuthUsed><weight>1</weight></arrival><arrival><pickID>de.gempa.tb1.Pick/20250414231248.648632.142063</pickID><phase>S</phase><azimuth>214.0988311767578</azimuth><distance>1.5932732820510864</distance><timeResidual>-0.15909576416015625</timeResidual><timeUsed>true</timeUsed><horizontalSlownessUsed>false</horizontalSlownessUsed><backazimuthUsed>false</backazimuthUsed><weight>1</weight></arrival><arrival><pickID>de.gempa.tb1.Pick/20250414231300.828565.142070</pickID><phase>S</phase><azimuth>203.6640625</azimuth><distance>1.985981583595276</distance><timeResidual>0.6782073974609375</timeResidual><timeUsed>true</timeUsed><horizontalSlownessUsed>false</horizontalSlownessUsed><backazimuthUsed>false</backazimuthUsed><weight>1</weight></arrival><arrival><pickID>de.gempa.tb1.Pick/20250414231307.610318.142072</pickID