<?xml version="1.0" encoding="UTF-8"?>
<seiscomp xmlns="http://geofon.gfz-potsdam.de/ns/seiscomp3-schema/0.13" version="0.13"><EventParameters><pick publicID="de.gempa.tb1.Pick/20250414225354.256346.242408"><time><value>2025-04-14T22:53:52.169998Z</value></time><waveformID networkCode="CH" stationCode="FIESA" channelCode="HHZ"/><filterID>ITAPER(4)&gt;&gt;BW(4,4,20)</filterID><methodID>AIC</methodID><phaseHint>P</phaseHint><evaluationMode>automatic</evaluationMode></pick><pick publicID="de.gempa.tb1.Pick/20250414225356.143586.242412"><time><value>2025-04-14T22:53:54.47Z</value></time><waveformID networkCode="CH" stationCode="SIMPL" channelCode="HHZ"/><filterID>ITAPER(4)&gt;&gt;BW(4,4,20)</filterID><methodID>AIC</methodID><phaseHint>P</phaseHint><evaluationMode>automatic</evaluationMode></pick><pick publicID="de.gempa.tb1.Pick/20250414225358.118537.242414"><time><value>2025-04-14T22:53:52.64Z</value></time><waveformID networkCode="CH" stationCode="WIMIS" channelCode="HHZ"/><filterID>ITAPER(4)&gt;&gt;BW(4,4,20)</filterID><methodID>AIC</methodID><phaseHint>P</phaseHint><evaluationMode>automatic</evaluationMode></pick><pick publicID="de.gempa.tb1.Pick/20250414225358.213459.242416"><time><value>2025-04-14T22:53:54.308393Z</value></time><waveformID networkCode="CH" stationCode="GRIMS" channelCode="HHZ"/><filterID>ITAPER(4)&gt;&gt;BW(4,4,20)</filterID><methodID>AIC</methodID><phaseHint>P</phaseHint><evaluationMode>automatic</evaluationMode></pick><pick publicID="de.gempa.tb1.Pick/20250414225401.137107.242422"><time><value>2025-04-14T22:53:55.505Z</value></time><waveformID networkCode="CH" stationCode="WIMIS" channelCode="HHN"/><filterID>RMHP(1)&gt;&gt;ITAPER(2)&gt;&gt;BW(4,3,20)</filterID><methodID>L2-AIC-GRID</methodID><phaseHint>S</phaseHint><evaluationMode>automatic</evaluationMode><comment><text>de.gempa.tb1.Pick/20250414225358.118537.242414</text><id>RefPickID</id></comment></pick><pick publicID="de.gempa.tb1.Pick/20250414225401.280972.242423"><time><value>2025-04-14T22:53:55.104998Z</value></time><waveformID networkCode="CH" stationCode="FIESA" channelCode="HHN"/><filterID>RMHP(1)&gt;&gt;ITAPER(2)&gt;&gt;BW(4,3,20)</filterID><methodID>L2-AIC-GRID</methodID><phaseHint>S</phaseHint><evaluationMode>automatic</evaluationMode><comment><text>de.gempa.tb1.Pick/20250414225354.256346.242408</text><id>RefPickID</id></comment></pick><pick publicID="de.gempa.tb1.Pick/20250414225401.460635.242424"><time><value>2025-04-14T22:53:57.69Z</value></time><waveformID networkCode="CH" stationCode="MMK" channelCode="HHZ"/><filterID>ITAPER(4)&gt;&gt;BW(4,4,20)</filterID><methodID>AIC</methodID><phaseHint>P</phaseHint><evaluationMode>automatic</evaluationMode></pick><pick publicID="de.gempa.tb1.Pick/20250414225406.123406.242436"><time><value>2025-04-14T22:53:58.448393Z</value></time><waveformID networkCode="CH" stationCode="GRIMS" channelCode="HHN"/><filterID>RMHP(1)&gt;&gt;ITAPER(2)&gt;&gt;BW(4,3,20)</filterID><methodID>L2-AIC-GRID</methodID><phaseHint>S</phaseHint><evaluationMode>automatic</evaluationMode><comment><text>de.gempa.tb1.Pick/20250414225358.213459.242416</text><id>RefPickID</id></comment></pick><pick publicID="de.gempa.tb1.Pick/20250414225407.897644.242437"><time><value>2025-04-14T22:54:06.075Z</value></time><waveformID networkCode="CH" stationCode="BALST" channelCode="HHZ"/><filterID>ITAPER(4)&gt;&gt;BW(4,4,20)</filterID><methodID>AIC</methodID><phaseHint>P</phaseHint><evaluationMode>automatic</evaluationMode></pick><pick publicID="de.gempa.tb1.Pick/20250414225409.149777.242445"><time><value>2025-04-14T22:54:07.11Z</value></time><waveformID networkCode="CH" stationCode="BOURR" channelCode="HHZ"/><filterID>ITAPER(4)&gt;&gt;BW(4,4,20)</filterID><methodID>AIC</methodID><phaseHint>P</phaseHint><evaluationMode>automatic</evaluationMode></pick><pick publicID="de.gempa.tb1.Pick/20250414225409.154156.242447"><time><value>2025-04-14T22:53:50.875Z</value></time><waveformID networkCode="CH" stationCode="LAUCH" channelCode="HHZ"/><filterID>ITAPER(4)&gt;&gt;BW(4,4,20)</filterID><methodID>AIC</methodID><phaseHint>P</phaseHint><evaluationMode>automatic</evaluationMode></pick><pick publicID="de.gempa.tb1.Pick/20250414225412.103594.242451"><time><value>2025-04-14T22:54:04.155Z</value></time><waveformID networkCode="CH" stationCode="MMK" channelCode="HHN"/><filterID>RMHP(1)&gt;&gt;ITAPER(2)&gt;&gt;BW(4,3,20)</filterID><methodID>L2-AIC-GRID</methodID><phaseHint>S</phaseHint><evaluationMode>automatic</evaluationMode><comment><text>de.gempa.tb1.Pick/20250414225401.460635.242424</text><id>RefPickID</id></comment></pick><origin publicID="de.gempa.tb1.Origin/20250414225412.106088.150050"><time><value>2025-04-14T22:53:48.59023Z</value><uncertainty>0.4745998084545135</uncertainty></time><latitude><value>46.51623153686523</value><uncertainty>2.0170800685882568</uncertainty></latitude><longitude><value>7.864084720611572</value><uncertainty>2.1239819526672363</uncertainty></longitude><depth><value>1.1039350032806396</value><uncertainty>2.265059232711792</uncertainty></depth><depthType>from location</depthType><methodID>LOCSAT</methodID><earthModelID>iasp91</earthModelID><quality><associatedPhaseCount>12</associatedPhaseCount><usedPhaseCount>12</usedPhaseCount><associatedStationCount>8</associatedStationCount><usedStationCount>8</usedStationCount><depthPhaseCount>0</depthPhaseCount><standardError>0.569890107913701</standardError><azimuthalGap>99.61647033691406</azimuthalGap><maximumDistance>0.9794313311576843</maximumDistance><minimumDistance>0.1192764937877655</minimumDistance><medianDistance>0.3199352025985718</medianDistance></quality><uncertainty><minHorizontalUncertainty>3.6125481128692627</minHorizontalUncertainty><maxHorizontalUncertainty>5.1382737159729</maxHorizontalUncertainty><azimuthMaxHorizontalUncertainty>49.38481903076172</azimuthMaxHorizontalUncertainty><preferredDescription>horizontal uncertainty</preferredDescription></uncertainty><evaluationMode>automatic</evaluationMode><evaluationStatus>confirmed</evaluationStatus><comment><text>0.41</text><id>mismatchScore</id></comment><comment><text>mismatchScore</text><id>scevalMethod</id></comment><arrival><pickID>de.gempa.tb1.Pick/20250414225354.256346.242408</pickID><phase>P</phase><azimuth>115.3521957397461</azimuth><distance>0.1885288655757904</distance><timeResidual>-0.2802727222442627</timeResidual><timeUsed>true</timeUsed><horizontalSlownessUsed>false</horizontalSlownessUsed><backazimuthUsed>false</backazimuthUsed><weight>1</weight></arrival><arrival><pickID>de.gempa.tb1.Pick/20250414225356.143586.242412</pickID><phase>P</phase><azimuth>158.6844482421875</azimuth><distance>0.296898752450943</distance><timeResidual>-0.02423238754272461</timeResidual><timeUsed>true</timeUsed><horizontalSlownessUsed>false</horizontalSlownessUsed><backazimuthUsed>false</backazimuthUsed><weight>1</weight></arrival><arrival><pickID>de.gempa.tb1.Pick/20250414225358.118537.242414</pickID><phase>P</phase><azimuth>312.0350036621094</azimuth><distance>0.22245101630687714</distance><timeResidual>-0.449540376663208</timeResidual><timeUsed>true</timeUsed><horizontalSlownessUsed>false</horizontalSlownessUsed><backazimuthUsed>false</backazimuthUsed><weight>1</weight></arrival><arrival><pickID>de.gempa.tb1.Pick/20250414225358.213459.242416</pickID><phase>P</phase><azimuth>78.6729507446289</azimuth><distance>0.3199352025985718</distance><timeResidual>-0.6196291446685791</timeResidual><timeUsed>true</timeUsed><horizontalSlownessUsed>false</horizontalSlownessUsed><backazimuthUsed>false</backazimuthUsed><weight>1</weight></arrival><arrival><pickID>de.gempa.tb1.Pick/20250414225401.137107.242422</pickID><phase>S</phase><azimuth>312.0350036621094</azimuth><distance>0.22245101630687714</distance><timeResidual>-0.13884329795837402</timeResidual><timeUsed>true</timeUsed><horizontalSlownessUsed>false</horizontalSlownessUsed><backazimuthUsed>false</backazimuthUsed><weight>1</weight></arrival><arrival><pickID>de.gempa.tb1.Pick/20250414225401.280972.242423</pickID><phase>S</phase><azimuth>115.3521957397461</azimuth><distance>0.1885288655757904</distance><timeResidual>0.5710499286651611</timeResidual><timeUsed>true</timeUsed><horizontalSlownessUsed>false</horizontalSlownessUsed><backazimuthUsed>false</backazimuthUsed><weight>1</weight></arrival><arrival><pickID>de.gempa.tb1.Pick/20250414225401.460635.242424</pickID><phase>P</phase><azimuth>171.5040740966797</azimuth><distance>0.4709559977054596</distance><timeResidual>-0.08689236640930176</timeResidual><timeUsed>true</timeUsed><horizontalSlownessUsed>false</horizontalSlownessUsed><backazimuthUsed>false</backazimuthUsed><weight>1</weight></arrival><arrival><pickID>de.gempa.tb1.Pick/20250414225406.123406.242436</pickID><phase>S</phase><azimuth>78.6729507446289</azimuth><distance>0.3199352025985718</distance><timeResidual>-0.38773083686828613</timeResidual><timeUsed>true</timeUsed><horizontalSlownessUsed>false</horizontalSlownessUsed><backazimuthUsed>false</backazimuthUsed><weight>1</weight></arrival><arrival><pickID>de.gempa.tb1.Pick/20250414225407.897644.242437</pickID><phase>P</phase><azimuth>352.0154113769531</azimuth><distance>0.8280519247055054</distance><timeResidual>1.5664823055267334</timeResidual><timeUsed>true</timeUsed><horizontalSlownessUsed>false</horizontalSlownessUsed><backazimuthUsed>false</backazimuthUsed><weight>1</weight></arrival><arrival><pickID>de.gempa.tb1.Pick/20250414225409.149777.242445</pickID><phase>P</phase><azimuth>333.9125671386719</azimuth><distance>0.9794313311576843</distance><timeResidual>-0.253068208694458</timeResidual><timeUsed>true</timeUsed><horizontalSlownessUsed>false</horizontalSlownessUsed><backazimuthUsed>false</backazimuthUsed><weight>1</weight></arrival><arrival><pickID>de.gempa.tb1.Pick/20250414225409.154156.242447</pickID><phase>P</phase><azimuth>212.4185333251953</azimuth><distance>0.1192764937877655</distance><timeResidual>-0.26937007904052734</timeResidual><timeUsed>true</timeUsed><horizontalSlownessUsed>false</horizontalSlownessUsed><backazimuthUsed>false</backazimuthUsed><weight>1</weight></arrival><arrival><pickID>de.gempa.tb1.Pick/20250414225412.103594.242451</pickID><phase>S</phase><azimuth>171.5040740966797</azimuth><distance>0.4709559977054596</distance><timeResidual>0.37201952934265137</timeResidual><timeUsed>true</timeUsed><horizontalSlownessUsed>false</horizontalSlownessUsed><backazimuthUsed>false</backazimuthUsed><weight>1</weight></arrival><magnitude publicID="de.gempa.tb1.Magnitude/20250414225432.138579.548789"><magnitude><value>1.2468667566745615</value></magnitude><type>M</type><methodID>weighted average</methodID><stationCount>7</stationCount></magnitude></origin><event publicID="gempa2025hkab"><preferredOriginID>de.gempa.tb1.Origin/20250414225412.106088.150050</preferredOriginID><preferredMagnitudeID>de.gempa.tb1.Magnitude/20250414225432.138579.548789</preferredMagnitudeID><description><text>Switzerland</text><type>region name</type></description><originReference>de.gempa.tb1.Origin/20250414225412.106088.150050</originReference></event></EventParameters></seiscomp>