<?xml version="1.0" encoding="UTF-8"?>
<seiscomp xmlns="http://geofon.gfz-potsdam.de/ns/seiscomp3-schema/0.13" version="0.13"><EventParameters><pick publicID="de.gempa.tb1.Pick/20250413160059.726031.132276"><time><value>2025-04-13T16:00:55.418393Z</value></time><waveformID networkCode="CX" stationCode="PB08" channelCode="HHZ"/><filterID>ITAPER(4)&gt;&gt;BW(4,4,20)</filterID><methodID>AIC</methodID><horizontalSlowness><value>14.036870362912104</value></horizontalSlowness><backazimuth><value>98.73124483593114</value></backazimuth><phaseHint>P</phaseHint><evaluationMode>automatic</evaluationMode><comment><text>11.839048483812856</text><id>DFX:rectilinearity</id></comment><comment><text>7.058409620007036</text><id>SNR</id></comment></pick><pick publicID="de.gempa.tb1.Pick/20250413160107.574885.132278"><time><value>2025-04-13T16:01:00.57Z</value></time><waveformID networkCode="CX" stationCode="PSGCX" channelCode="HHZ"/><filterID>ITAPER(4)&gt;&gt;BW(4,4,20)</filterID><methodID>AIC</methodID><horizontalSlowness><value>14.362231230806094</value></horizontalSlowness><backazimuth><value>178.2083695813443</value></backazimuth><phaseHint>P</phaseHint><evaluationMode>automatic</evaluationMode><comment><text>21.051401099083979</text><id>DFX:rectilinearity</id></comment><comment><text>29.67954251319676</text><id>SNR</id></comment></pick><pick publicID="de.gempa.tb1.Pick/20250413160109.603078.132280"><time><value>2025-04-13T16:01:02.088394Z</value></time><waveformID networkCode="CX" stationCode="PB01" channelCode="HHZ"/><filterID>ITAPER(4)&gt;&gt;BW(4,4,20)</filterID><methodID>AIC</methodID><horizontalSlowness><value>22.636348548805334</value></horizontalSlowness><backazimuth><value>9.225208992596237</value></backazimuth><phaseHint>P</phaseHint><evaluationMode>automatic</evaluationMode><comment><text>11.570943621905323</text><id>DFX:rectilinearity</id></comment><comment><text>6.41751430308698</text><id>SNR</id></comment></pick><pick publicID="de.gempa.tb1.Pick/20250413160113.054601.132284"><time><value>2025-04-13T16:01:06.268393Z</value></time><waveformID networkCode="CX" stationCode="PB08" channelCode="HHN"/><filterID>ITAPER(2)&gt;&gt;BW(3,3,20)</filterID><methodID>L2-AIC-GRID</methodID><horizontalSlowness><value>11.835211464529497</value></horizontalSlowness><backazimuth><value>207.64721026257277</value></backazimuth><phaseHint>S</phaseHint><evaluationMode>automatic</evaluationMode><comment><text>30.205411117288545</text><id>DFX:rectilinearity</id></comment><comment><text>de.gempa.tb1.Pick/20250413160059.726031.132276</text><id>RefPickID</id></comment><comment><text>10.371865014176306</text><id>SNR</id></comment></pick><pick publicID="de.gempa.tb1.Pick/20250413160125.637932.132287"><time><value>2025-04-13T16:01:15.8Z</value></time><waveformID networkCode="CX" stationCode="PSGCX" channelCode="HHN"/><filterID>ITAPER(2)&gt;&gt;BW(3,3,20)</filterID><methodID>L2-AIC-GRID</methodID><horizontalSlowness><value>21.846046209123788</value></horizontalSlowness><backazimuth><value>119.75911885163357</value></backazimuth><phaseHint>S</phaseHint><evaluationMode>automatic</evaluationMode><comment><text>49.14787162427159</text><id>DFX:rectilinearity</id></comment><comment><text>de.gempa.tb1.Pick/20250413160107.574885.132278</text><id>RefPickID</id></comment><comment><text>9.705465737661203</text><id>SNR</id></comment></pick><pick publicID="de.gempa.tb1.Pick/20250413160126.618073.132290"><time><value>2025-04-13T16:01:18.468394Z</value></time><waveformID networkCode="CX" stationCode="PB01" channelCode="HHN"/><filterID>ITAPER(2)&gt;&gt;BW(3,3,20)</filterID><methodID>L2-AIC-GRID</methodID><horizontalSlowness><value>19.994612077245577</value></horizontalSlowness><backazimuth><value>173.6029998243786</value></backazimuth><phaseHint>S</phaseHint><evaluationMode>automatic</evaluationMode><comment><text>51.06141769798992</text><id>DFX:rectilinearity</id></comment><comment><text>de.gempa.tb1.Pick/20250413160109.603078.132280</text><id>RefPickID</id></comment><comment><text>8.451437514940158</text><id>SNR</id></comment></pick><origin publicID="de.gempa.tb1.Origin/20250413160126.634815.114345"><time><value>2025-04-13T16:00:40.991747Z</value><uncertainty>1.50055193901062</uncertainty></time><latitude><value>-20.008024215698242</value><uncertainty>5.955404281616211</uncertainty></latitude><longitude><value>-69.25942993164062</value><uncertainty>8.465890884399414</uncertainty></longitude><depth><value>102.04430389404297</value><uncertainty>9.128496170043945</uncertainty></depth><depthType>from location</depthType><methodID>LOCSAT</methodID><earthModelID>iasp91_scanloc</earthModelID><quality><associatedPhaseCount>6</associatedPhaseCount><usedPhaseCount>6</usedPhaseCount><associatedStationCount>3</associatedStationCount><usedStationCount>3</usedStationCount><depthPhaseCount>0</depthPhaseCount><standardError>0.05647973594350193</standardError><azimuthalGap>206.50885009765625</azimuthalGap><maximumDistance>1.0518944263458252</maximumDistance><minimumDistance>0.165733203291893</minimumDistance><medianDistance>0.9101102352142334</medianDistance></quality><uncertainty><minHorizontalUncertainty>9.50893497467041</minHorizontalUncertainty><maxHorizontalUncertainty>20.058162689208984</maxHorizontalUncertainty><azimuthMaxHorizontalUncertainty>61.13280487060547</azimuthMaxHorizontalUncertainty><preferredDescription>horizontal uncertainty</preferredDescription></uncertainty><evaluationMode>automatic</evaluationMode><evaluationStatus>confirmed</evaluationStatus><comment><text>0.05</text><id>mismatchScore</id></comment><comment><text>mismatchScore</text><id>scevalMethod</id></comment><arrival><pickID>de.gempa.tb1.Pick/20250413160059.726031.132276</pickID><phase>P</phase><azimuth>143.04876708984375</azimuth><distance>0.165733203291893</distance><timeResidual>0.09790515899658203</timeResidual><timeUsed>true</timeUsed><horizontalSlownessUsed>false</horizontalSlownessUsed><backazimuthUsed>false</backazimuthUsed><weight>1</weight></arrival><arrival><pickID>de.gempa.tb1.Pick/20250413160107.574885.132278</pickID><phase>P</phase><azimuth>296.5399169921875</azimuth><distance>0.9101102352142334</distance><timeResidual>-0.0580892562866211</timeResidual><timeUsed>true</timeUsed><horizontalSlownessUsed>false</horizontalSlownessUsed><backazimuthUsed>false</backazimuthUsed><weight>1</weight></arrival><arrival><pickID>de.gempa.tb1.Pick/20250413160109.603078.132280</pickID><phase>P</phase><azimuth>191.68035888671875</azimuth><distance>1.0518944263458252</distance><timeResidual>-0.040111541748046875</timeResidual><timeUsed>true</timeUsed><horizontalSlownessUsed>false</horizontalSlownessUsed><backazimuthUsed>false</backazimuthUsed><weight>1</weight></arrival><arrival><pickID>de.gempa.tb1.Pick/20250413160113.054601.132284</pickID><phase>S</phase><azimuth>143.04876708984375</azimuth><distance>0.165733203291893</distance><timeResidual>-0.05477428436279297</timeResidual><timeUsed>true</timeUsed><horizontalSlownessUsed>false</horizontalSlownessUsed><backazimuthUsed>false</backazimuthUsed><weight>1</weight></arrival><arrival><pickID>de.gempa.tb1.Pick/20250413160125.637932.132287</pickID><phase>S</phase><azimuth>296.5399169921875</azimuth><distance>0.9101102352142334</distance><timeResidual>0.03265666961669922</timeResidual><timeUsed>true</timeUsed><horizontalSlownessUsed>false</horizontalSlownessUsed><backazimuthUsed>false</backazimuthUsed><weight>1</weight></arrival><arrival><pickID>de.gempa.tb1.Pick/20250413160126.618073.132290</pickID><phase>S</phase><azimuth>191.68035888671875</azimuth><distance>1.0518944263458252</distance><timeResidual>0.02245807647705078</timeResidual><timeUsed>true</timeUsed><horizontalSlownessUsed>false</horizontalSlownessUsed><backazimuthUsed>false</backazimuthUsed><weight>1</weight></arrival><magnitude publicID="de.gempa.tb1.Magnitude/20250413160215.775153.376423"><magnitude><value>2.1383766795945167</value></magnitude><type>M</type><methodID>weighted average</methodID><stationCount>3</stationCount></magnitude></origin><event publicID="gempa2025hhqg"><preferredOriginID>de.gempa.tb1.Origin/20250413160126.634815.114345</preferredOriginID><preferredMagnitudeID>de.gempa.tb1.Magnitude/20250413160215.775153.376423</preferredMagnitudeID><description><text>Northern Chile</text><type>region name</type></description><originReference>de.gempa.tb1.Origin/20250413160126.634815.114345</originReference></event></EventParameters></seiscomp>