<?xml version="1.0" encoding="UTF-8"?>
<seiscomp xmlns="http://geofon.gfz-potsdam.de/ns/seiscomp3-schema/0.13" version="0.13"><EventParameters><pick publicID="de.gempa.tb1.Pick/20250411174339.555604.119060"><time><value>2025-04-11T17:43:33.46Z</value></time><waveformID networkCode="CX" stationCode="PB19" channelCode="HHZ"/><filterID>ITAPER(4)&gt;&gt;BW(4,4,20)</filterID><methodID>AIC</methodID><horizontalSlowness><value>15.848326900169395</value></horizontalSlowness><backazimuth><value>123.88538598199236</value></backazimuth><phaseHint>P</phaseHint><evaluationMode>automatic</evaluationMode><comment><text>145.47234689142692</text><id>DFX:rectilinearity</id></comment><comment><text>79.10129206378551</text><id>SNR</id></comment></pick><pick publicID="de.gempa.tb1.Pick/20250411174341.815545.119062"><time><value>2025-04-11T17:43:36.758393Z</value></time><waveformID networkCode="CX" stationCode="PB15" channelCode="HHZ"/><filterID>ITAPER(4)&gt;&gt;BW(4,4,20)</filterID><methodID>AIC</methodID><horizontalSlowness><value>20.18962040491271</value></horizontalSlowness><backazimuth><value>106.11872507187604</value></backazimuth><phaseHint>P</phaseHint><evaluationMode>automatic</evaluationMode><comment><text>448.1401245597454</text><id>DFX:rectilinearity</id></comment><comment><text>15.26551100996436</text><id>SNR</id></comment></pick><pick publicID="de.gempa.tb1.Pick/20250411174349.571185.119064"><time><value>2025-04-11T17:43:40.798393Z</value></time><waveformID networkCode="CX" stationCode="PB06" channelCode="HHZ"/><filterID>ITAPER(4)&gt;&gt;BW(4,4,20)</filterID><methodID>AIC</methodID><horizontalSlowness><value>4.122537304000348</value></horizontalSlowness><backazimuth><value>59.92367577956064</value></backazimuth><phaseHint>P</phaseHint><evaluationMode>automatic</evaluationMode><comment><text>43.43220871724415</text><id>DFX:rectilinearity</id></comment><comment><text>8.543577869830543</text><id>SNR</id></comment></pick><pick publicID="de.gempa.tb1.Pick/20250411174351.764116.119066"><time><value>2025-04-11T17:43:45.8Z</value></time><waveformID networkCode="CX" stationCode="PB19" channelCode="HHN"/><filterID>ITAPER(2)&gt;&gt;BW(3,3,20)</filterID><methodID>L2-AIC-GRID</methodID><horizontalSlowness><value>21.010253937133637</value></horizontalSlowness><backazimuth><value>347.91856121454674</value></backazimuth><phaseHint>S</phaseHint><evaluationMode>automatic</evaluationMode><comment><text>775.01780681808</text><id>DFX:rectilinearity</id></comment><comment><text>de.gempa.tb1.Pick/20250411174339.555604.119060</text><id>RefPickID</id></comment><comment><text>5.756573834801658</text><id>SNR</id></comment></pick><pick publicID="de.gempa.tb1.Pick/20250411174356.552446.119067"><time><value>2025-04-11T17:43:49.578394Z</value></time><waveformID networkCode="CX" stationCode="PB03" channelCode="HHZ"/><filterID>ITAPER(4)&gt;&gt;BW(4,4,20)</filterID><methodID>AIC</methodID><horizontalSlowness><value>22.99324526320864</value></horizontalSlowness><backazimuth><value>73.04923660411545</value></backazimuth><phaseHint>P</phaseHint><evaluationMode>automatic</evaluationMode><comment><text>6.257221561203591</text><id>DFX:rectilinearity</id></comment><comment><text>9.273408738606419</text><id>SNR</id></comment></pick><pick publicID="de.gempa.tb1.Pick/20250411174358.058522.119069"><time><value>2025-04-11T17:43:51.538393Z</value></time><waveformID networkCode="CX" stationCode="PB15" channelCode="HHN"/><filterID>ITAPER(2)&gt;&gt;BW(3,3,20)</filterID><methodID>L2-AIC-GRID</methodID><horizontalSlowness><value>20.046321663844907</value></horizontalSlowness><backazimuth><value>136.05305899763556</value></backazimuth><phaseHint>S</phaseHint><evaluationMode>automatic</evaluationMode><comment><text>7287.660793836997</text><id>DFX:rectilinearity</id></comment><comment><text>de.gempa.tb1.Pick/20250411174341.815545.119062</text><id>RefPickID</id></comment><comment><text>11.09949046687083</text><id>SNR</id></comment></pick><pick publicID="de.gempa.tb1.Pick/20250411174407.265347.119073"><time><value>2025-04-11T17:43:51.49Z</value></time><waveformID networkCode="CX" stationCode="PB09" channelCode="HHZ"/><filterID>ITAPER(4)&gt;&gt;BW(4,4,20)</filterID><methodID>AIC</methodID><horizontalSlowness><value>22.821627865161993</value></horizontalSlowness><backazimuth><value>258.6067031576923</value></backazimuth><phaseHint>P</phaseHint><evaluationMode>automatic</evaluationMode><comment><text>7.452857928920578</text><id>DFX:rectilinearity</id></comment><comment><text>11.80654304272195</text><id>SNR</id></comment></pick><pick publicID="de.gempa.tb1.Pick/20250411174407.683498.119075"><time><value>2025-04-11T17:43:59.848393Z</value></time><waveformID networkCode="CX" stationCode="PB06" channelCode="HHN"/><filterID>ITAPER(2)&gt;&gt;BW(3,3,20)</filterID><methodID>L2-AIC-GRID</methodID><horizontalSlowness><value>21.908869653936943</value></horizontalSlowness><backazimuth><value>51.39548319222573</value></backazimuth><phaseHint>S</phaseHint><evaluationMode>automatic</evaluationMode><comment><text>344.06111440303476</text><id>DFX:rectilinearity</id></comment><comment><text>de.gempa.tb1.Pick/20250411174349.571185.119064</text><id>RefPickID</id></comment><comment><text>17.725255270845846</text><id>SNR</id></comment></pick><pick publicID="de.gempa.tb1.Pick/20250411174419.57478.119078"><time><value>2025-04-11T17:44:11.598393Z</value></time><waveformID networkCode="CX" stationCode="PB08" channelCode="HHZ"/><filterID>ITAPER(4)&gt;&gt;BW(4,4,20)</filterID><methodID>AIC</methodID><horizontalSlowness><value>17.190780160704893</value></horizontalSlowness><backazimuth><value>84.58952393424036</value></backazimuth><phaseHint>P</phaseHint><evaluationMode>automatic</evaluationMode><comment><text>12.45022831350857</text><id>DFX:rectilinearity</id></comment><comment><text>17.499475161761229</text><id>SNR</id></comment></pick><pick publicID="de.gempa.tb1.Pick/20250411174420.804099.119082"><time><value>2025-04-11T17:44:14.258394Z</value></time><waveformID networkCode="CX" stationCode="PB03" channelCode="HHN"/><filterID>ITAPER(2)&gt;&gt;BW(3,3,20)</filterID><methodID>L2-AIC-GRID</methodID><horizontalSlowness><value>12.648122227108347</value></horizontalSlowness><backazimuth><value>280.2922990851685</value></backazimuth><phaseHint>S</phaseHint><evaluationMode>automatic</evaluationMode><comment><text>41.7686754320564</text><id>DFX:rectilinearity</id></comment><comment><text>de.gempa.tb1.Pick/20250411174356.552446.119067</text><id>RefPickID</id></comment><comment><text>8.822325539924021</text><id>SNR</id></comment></pick><pick publicID="de.gempa.tb1.Pick/20250411174423.100864.119083"><time><value>2025-04-11T17:43:53.698396Z</value></time><waveformID networkCode="CX" stationCode="PB07" channelCode="HHZ"/><filterID>ITAPER(4)&gt;&gt;BW(4,4,20)</filterID><methodID>AIC</methodID><horizontalSlowness><value>23.55333879292765</value></horizontalSlowness><backazimuth><value>251.1206506838487</value></backazimuth><phaseHint>P</phaseHint><evaluationMode>automatic</evaluationMode><comment><text>160.81167902055464</text><id>DFX:rectilinearity</id></comment><comment><text>10.306768720619569</text><id>SNR</id></comment></pick><pick publicID="de.gempa.tb1.Pick/20250411174425.95885.119088"><time><value>2025-04-11T17:44:18.65Z</value></time><waveformID networkCode="CX" stationCode="PB09" channelCode="HHN"/><filterID>ITAPER(2)&gt;&gt;BW(3,3,20)</filterID><methodID>L2-AIC-GRID</methodID><horizontalSlowness><value>23.527680047338485</value></horizontalSlowness><backazimuth><value>88.36198998458282</value></backazimuth><phaseHint>S</phaseHint><evaluationMode>automatic</evaluationMode><comment><text>16.26798330421013</text><id>DFX:rectilinearity</id></comment><comment><text>de.gempa.tb1.Pick/20250411174407.265347.119073</text><id>RefPickID</id></comment><comment><text>5.585229120723129</text><id>SNR</id></comment></pick><pick publicID="de.gempa.tb1.Pick/20250411174428.547533.119089"><time><value>2025-04-11T17:44:21.590001Z</value></time><waveformID networkCode="CX" stationCode="PSGCX" channelCode="HHZ"/><filterID>ITAPER(4)&gt;&gt;BW(4,4,20)</filterID><methodID>AIC</methodID><horizontalSlowness><value>15.112286825030017</value></horizontalSlowness><backazimuth><value>68.24930224644109</value></backazimuth><phaseHint>P</phaseHint><evaluationMode>automatic</evaluationMode><comment><text>12.800293161399836</text><id>DFX:rectilinearity</id></comment><comment><text>11.32438783033062</text><id>SNR</id></comment></pick><pick publicID="de.gempa.tb1.Pick/20250411174431.982496.119092"><time><value>2025-04-11T17:44:22.368396Z</value></time><waveformID networkCode="CX" stationCode="PB07" channelCode="HHN"/><filterID>ITAPER(2)&gt;&gt;BW(3,3,20)</filterID><methodID>L2-AIC-GRID</methodID><horizontalSlowness><value>23.429971352863237</value></horizontalSlowness><backazimuth><value>274.44812310248767</value></backazimuth><phaseHint>S</phaseHint><evaluationMode>automatic</evaluationMode><comment><text>240.91578629500307</text><id>DFX:rectilinearity</id></comment><comment><text>de.gempa.tb1.Pick/20250411174423.100864.119083</text><id>RefPickID</id></comment><comment><text>5.999322208480309</text><id>SNR</id></comment></pick><origin publicID="de.gempa.tb1.Origin/20250411174439.198784.62079"><time><value>2025-04-11T17:43:16.845632Z</value><uncertainty>0.8760089874267578</uncertainty></time><latitude><value>-23.88136863708496</value><uncertainty>5.543134689331055</uncertainty></latitude><longitude><value>-69.11932373046875</value><uncertainty>17.5303955078125</uncertainty></longitude><depth><value>118.87594604492188</value><uncertainty>6.539201736450195</uncertainty></depth><depthType>from location</depthType><methodID>LOCSAT</methodID><earthModelID>iasp91_scanloc</earthModelID><quality><associatedPhaseCount>14</associatedPhaseCount><usedPhaseCount>14</usedPhaseCount><associatedStationCount>8</associatedStationCount><usedStationCount>8</usedStationCount><depthPhaseCount>0</depthPhaseCount><standardError>0.43026638496659686</standardError><azimuthalGap>262.0054931640625</azimuthalGap><maximumDistance>4.364210605621338</maximumDistance><minimumDistance>0.1585375815629959</minimumDistance><medianDistance>1.9155608415603638</medianDistance></quality><uncertainty><minHorizontalUncertainty>9.692754745483398</minHorizontalUncertainty><maxHorizontalUncertainty>38.208980560302734</maxHorizontalUncertainty><azimuthMaxHorizontalUncertainty>79.2767562866211</azimuthMaxHorizontalUncertainty><preferredDescription>horizontal uncertainty</preferredDescription></uncertainty><evaluationMode>automatic</evaluationMode><evaluationStatus>confirmed</evaluationStatus><comment><text>0.25</text><id>mismatchScore</id></comment><comment><text>mismatchScore</text><id>scevalMethod</id></comment><arrival><pickID>de.gempa.tb1.Pick/20250411174339.555604.119060</pickID><phase>P</phase><azimuth>261.5123596191406</azimuth><distance>0.1585375815629959</distance><timeResidual>0.24627113342285156</timeResidual><timeUsed>true</timeUsed><horizontalSlownessUsed>false</horizontalSlownessUsed><backazimuthUsed>false</backazimuthUsed><weight>1</weight></arrival><arrival><pickID>de.gempa.tb1.Pick/20250411174341.815545.119062</pickID><phase>P</phase><azimuth>334.21337890625</azimuth><distance>0.7436056733131409</distance><timeResidual>0.27789306640625</timeResidual><timeUsed>true</timeUsed><horizontalSlownessUsed>false</horizontalSlownessUsed><backazimuthUsed>false</backazimuthUsed><weight>1</weight></arrival><arrival><pickID>de.gempa.tb1.Pick/20250411174349.571185.119064</pickID><phase>P</phase><azimuth>340.3353271484375</azimuth><distance>1.241918444633484</distance><timeResidual>-0.5419921875</timeResidual><timeUsed>true</timeUsed><horizontalSlownessUsed>false</horizontalSlownessUsed><backazimuthUsed>false</backazimuthUsed><weight>1</weight></arrival><arrival><pickID>de.gempa.tb1.Pick/20250411174351.764116.119066</pickID><phase>S</phase><azimuth>261.5123596191406</azimuth><distance>0.1585375815629959</distance><timeResidual>-0.03420448303222656</timeResidual><timeUsed>true</timeUsed><horizontalSlownessUsed>false</horizontalSlownessUsed><backazimuthUsed>false</backazimuthUsed><weight>1</weight></arrival><arrival><pickID>de.gempa.tb1.Pick/20250411174356.552446.119067</pickID><phase>P</phase><azimuth>342.1215515136719</azimuth><distance>1.9155608415603638</distance><timeResidual>0.34168243408203125</timeResidual><timeUsed>true</timeUsed><horizontalSlownessUsed>false</horizontalSlownessUsed><backazimuthUsed>false</backazimuthUsed><weight>1</weight></arrival><arrival><pickID>de.gempa.tb1.Pick/20250411174358.058522.119069</pickID><phase>S</phase><azimuth>334.21337890625</azimuth><distance>0.7436056733131409</distance><timeResidual>-0.09726715087890625</timeResidual><timeUsed>true</timeUsed><horizontalSlownessUsed>false</horizontalSlownessUsed><backazimuthUsed>false</backazimuthUsed><weight>1</weight></arrival><arrival><pickID>de.gempa.tb1.Pick/20250411174407.265347.119073</pickID><phase>P</phase><azimuth>356.85662841796875</azimuth><distance>2.078284740447998</distance><timeResidual>0.22405052185058594</timeResidual><timeUsed>true</timeUsed><horizontalSlownessUsed>false</horizontalSlownessUsed><backazimuthUsed>false</backazimuthUsed><weight>1</weight></arrival><arrival><pickID>de.gempa.tb1.Pick/20250411174407.683498.119075</pickID><phase>S</phase><azimuth>340.3353271484375</azimuth><distance>1.241918444633484</distance><timeResidual>-0.4566383361816406</timeResidual><timeUsed>true</timeUsed><horizontalSlownessUsed>false</horizontalSlownessUsed><backazimuthUsed>false</backazimuthUsed><weight>1</weight></arrival><arrival><pickID>de.gempa.tb1.Pick/20250411174419.57478.119078</pickID><phase>P</phase><azimuth>359.5068664550781</azimuth><distance>3.72233247756958</distance><timeResidual>-1.1011505126953125</timeResidual><timeUsed>true</timeUsed><horizontalSlownessUsed>false</horizontalSlownessUsed><backazimuthUsed>false</backazimuthUsed><weight>1</weight></arrival><arrival><pickID>de.gempa.tb1.Pick/20250411174420.804099.119082</pickID><phase>S</phase><azimuth>342.1215515136719</azimuth><distance>1.9155608415603638</distance><timeResidual>-0.16685867309570312</timeResidual><timeUsed>true</timeUsed><horizontalSlownessUsed>false</horizontalSlownessUsed><backazimuthUsed>false</backazimuthUsed><weight>1</weight></arrival><arrival><pickID>de.gempa.tb1.Pick/20250411174423.100864.119083</pickID><phase>P</phase><azimuth>341.5901794433594</azimuth><distance>2.2582836151123047</distance><timeResidual>0.15932083129882812</timeResidual><timeUsed>true</timeUsed><horizontalSlownessUsed>false</horizontalSlownessUsed><backazimuthUsed>false</backazimuthUsed><weight>1</weight></arrival><arrival><pickID>de.gempa.tb1.Pick/20250411174425.95885.119088</pickID><phase>S</phase><azimuth>356.85662841796875</azimuth><distance>2.078284740447998</distance><timeResidual>0.5916786193847656</timeResidual><timeUsed>true</timeUsed><horizontalSlownessUsed>false</horizontalSlownessUsed><backazimuthUsed>false</backazimuthUsed><weight>1</weight></arrival><arrival><pickID>de.gempa.tb1.Pick/20250411174428.547533.119089</pickID><phase>P</phase><azimuth>347.4654235839844</azimuth><distance>4.364210605621338</distance><timeResidual>0.3180694580078125</timeResidual><timeUsed>true</timeUsed><horizontalSlownessUsed>false</horizontalSlownessUsed><backazimuthUsed>false</backazimuthUsed><weight>1</weight></arrival><arrival><pickID>de.gempa.tb1.Pick/20250411174431.982496.119092</pickID><phase>S</phase><azimuth>341.5901794433594</azimuth><distance>2.2582836151123047</distance><timeResidual>0.2389030456542969</timeResidual><timeUsed>true</timeUsed><horizontalSlownessUsed>false</horizontalSlownessUsed><backazimuthUsed>false</backazimuthUsed><weight>1</weight></arrival><magnitude publicID="de.gempa.tb1.Magnitude/20250411174450.940326.125454"><magnitude><value>2.9001367990498026</value></magnitude><type>M</type><methodID>weighted average</methodID><stationCount>4</stationCount></magnitude></origin><event publicID="gempa2025hebq"><preferredOriginID>de.gempa.tb1.Origin/20250411174439.198784.62079</preferredOriginID><preferredMagnitudeID>de.gempa.tb1.Magnitude/20250411174450.940326.125454</preferredMagnitudeID><description><text>Northern Chile</text><type>region name</type></description><originReference>de.gempa.tb1.Origin/20250411174439.198784.62079</originReference></event></EventParameters></seiscomp>