<?xml version="1.0" encoding="UTF-8"?>
<seiscomp xmlns="http://geofon.gfz-potsdam.de/ns/seiscomp3-schema/0.13" version="0.13"><EventParameters><pick publicID="de.gempa.tb1.Pick/20250411215723.843783.120312"><time><value>2025-04-11T21:57:16.898393Z</value></time><waveformID networkCode="CX" stationCode="PB15" channelCode="HHZ"/><filterID>ITAPER(4)&gt;&gt;BW(4,4,20)</filterID><methodID>AIC</methodID><horizontalSlowness><value>22.238877858478947</value></horizontalSlowness><backazimuth><value>312.4329619501567</value></backazimuth><phaseHint>P</phaseHint><evaluationMode>automatic</evaluationMode><comment><text>336123.286953352</text><id>DFX:rectilinearity</id></comment><comment><text>109.50124850216903</text><id>SNR</id></comment></pick><pick publicID="de.gempa.tb1.Pick/20250411215727.512363.120314"><time><value>2025-04-11T21:57:21.148393Z</value></time><waveformID networkCode="CX" stationCode="PB06" channelCode="HHZ"/><filterID>ITAPER(4)&gt;&gt;BW(4,4,20)</filterID><methodID>AIC</methodID><horizontalSlowness><value>11.841164313206315</value></horizontalSlowness><backazimuth><value>195.89283927882184</value></backazimuth><phaseHint>P</phaseHint><evaluationMode>automatic</evaluationMode><comment><text>1273.5735374502572</text><id>DFX:rectilinearity</id></comment><comment><text>36.87428896692313</text><id>SNR</id></comment></pick><pick publicID="de.gempa.tb1.Pick/20250411215736.525682.120316"><time><value>2025-04-11T21:57:29.48Z</value></time><waveformID networkCode="CX" stationCode="PB19" channelCode="HHZ"/><filterID>ITAPER(4)&gt;&gt;BW(4,4,20)</filterID><methodID>AIC</methodID><horizontalSlowness><value>12.082076080218926</value></horizontalSlowness><backazimuth><value>13.589060755510928</value></backazimuth><phaseHint>P</phaseHint><evaluationMode>automatic</evaluationMode><comment><text>68.35396563403249</text><id>DFX:rectilinearity</id></comment><comment><text>19.332358676009044</text><id>SNR</id></comment></pick><pick publicID="de.gempa.tb1.Pick/20250411215738.179377.120318"><time><value>2025-04-11T21:57:30.38Z</value></time><waveformID networkCode="CX" stationCode="PB10" channelCode="HHZ"/><filterID>ITAPER(4)&gt;&gt;BW(4,4,20)</filterID><methodID>AIC</methodID><horizontalSlowness><value>16.069220500328605</value></horizontalSlowness><backazimuth><value>88.83432965938073</value></backazimuth><phaseHint>P</phaseHint><evaluationMode>automatic</evaluationMode><comment><text>408.8157148268351</text><id>DFX:rectilinearity</id></comment><comment><text>22.1349077372528</text><id>SNR</id></comment></pick><pick publicID="de.gempa.tb1.Pick/20250411215739.469362.120320"><time><value>2025-04-11T21:57:32.398393Z</value></time><waveformID networkCode="CX" stationCode="PB03" channelCode="HHZ"/><filterID>ITAPER(4)&gt;&gt;BW(4,4,20)</filterID><methodID>AIC</methodID><horizontalSlowness><value>13.968678662011998</value></horizontalSlowness><backazimuth><value>172.84955769214</value></backazimuth><phaseHint>P</phaseHint><evaluationMode>automatic</evaluationMode><comment><text>389.20090078422083</text><id>DFX:rectilinearity</id></comment><comment><text>23.067408270323256</text><id>SNR</id></comment></pick><pick publicID="de.gempa.tb1.Pick/20250411215747.494358.120324"><time><value>2025-04-11T21:57:42.928393Z</value></time><waveformID networkCode="CX" stationCode="PB02" channelCode="HHZ"/><filterID>ITAPER(4)&gt;&gt;BW(4,4,20)</filterID><methodID>AIC</methodID><horizontalSlowness><value>8.752330975649983</value></horizontalSlowness><backazimuth><value>161.5371182204105</value></backazimuth><phaseHint>P</phaseHint><evaluationMode>automatic</evaluationMode><comment><text>150.95541259388386</text><id>DFX:rectilinearity</id></comment><comment><text>16.282345009566924</text><id>SNR</id></comment></pick><pick publicID="de.gempa.tb1.Pick/20250411215753.513773.120327"><time><value>2025-04-11T21:57:38.71Z</value></time><waveformID networkCode="CX" stationCode="PB09" channelCode="HHZ"/><filterID>ITAPER(4)&gt;&gt;BW(4,4,20)</filterID><methodID>AIC</methodID><horizontalSlowness><value>23.51897350780118</value></horizontalSlowness><backazimuth><value>152.71420143085456</value></backazimuth><phaseHint>P</phaseHint><evaluationMode>automatic</evaluationMode><comment><text>82.80701740008031</text><id>DFX:rectilinearity</id></comment><comment><text>21.841799278126373</text><id>SNR</id></comment></pick><pick publicID="de.gempa.tb1.Pick/20250411215827.394511.120338"><time><value>2025-04-11T21:57:38.418389Z</value></time><waveformID networkCode="CX" stationCode="PB07" channelCode="HHZ"/><filterID>ITAPER(4)&gt;&gt;BW(4,4,20)</filterID><methodID>AIC</methodID><horizontalSlowness><value>18.40245262605692</value></horizontalSlowness><backazimuth><value>166.52903462896552</value></backazimuth><phaseHint>P</phaseHint><evaluationMode>automatic</evaluationMode><comment><text>1484.2199113195406</text><id>DFX:rectilinearity</id></comment><comment><text>74.36122425162158</text><id>SNR</id></comment></pick><origin publicID="de.gempa.tb1.Origin/20250411215827.763949.67013"><time><value>2025-04-11T21:57:12.721973Z</value><uncertainty>0.40014293789863586</uncertainty></time><latitude><value>-23.1021785736084</value><uncertainty>3.319374084472656</uncertainty></latitude><longitude><value>-69.6743392944336</value><uncertainty>4.550947666168213</uncertainty></longitude><depth><value>8.426020622253418</value><uncertainty>5.787782192230225</uncertainty></depth><depthType>from location</depthType><methodID>LOCSAT</methodID><earthModelID>iasp91_scanloc</earthModelID><quality><associatedPhaseCount>8</associatedPhaseCount><usedPhaseCount>8</usedPhaseCount><associatedStationCount>8</associatedStationCount><usedStationCount>8</usedStationCount><depthPhaseCount>0</depthPhaseCount><standardError>0.5011492405390719</standardError><azimuthalGap>108.82864379882812</azimuthalGap><maximumDistance>1.785753607749939</maximumDistance><minimumDistance>0.2149873524904251</minimumDistance><medianDistance>1.0512410402297974</medianDistance></quality><uncertainty><minHorizontalUncertainty>7.116714954376221</minHorizontalUncertainty><maxHorizontalUncertainty>9.761246681213379</maxHorizontalUncertainty><azimuthMaxHorizontalUncertainty>88.57960510253906</azimuthMaxHorizontalUncertainty><preferredDescription>horizontal uncertainty</preferredDescription></uncertainty><evaluationMode>automatic</evaluationMode><evaluationStatus>confirmed</evaluationStatus><comment><text>0.00</text><id>mismatchScore</id></comment><comment><text>mismatchScore</text><id>scevalMethod</id></comment><arrival><pickID>de.gempa.tb1.Pick/20250411215723.843783.120312</pickID><phase>P</phase><azimuth>119.47845458984375</azimuth><distance>0.2149873524904251</distance><timeResidual>-0.1953730583190918</timeResidual><timeUsed>true</timeUsed><horizontalSlownessUsed>false</horizontalSlownessUsed><backazimuthUsed>false</backazimuthUsed><weight>1</weight></arrival><arrival><pickID>de.gempa.tb1.Pick/20250411215727.512363.120314</pickID><phase>P</phase><azimuth>13.487346649169922</azimuth><distance>0.40567851066589355</distance><timeResidual>0.5106759071350098</timeResidual><timeUsed>true</timeUsed><horizontalSlownessUsed>false</horizontalSlownessUsed><backazimuthUsed>false</backazimuthUsed><weight>1</weight></arrival><arrival><pickID>de.gempa.tb1.Pick/20250411215736.525682.120316</pickID><phase>P</phase><azimuth>156.28399658203125</azimuth><distance>0.8731222748756409</distance><timeResidual>-0.04218578338623047</timeResidual><timeUsed>true</timeUsed><horizontalSlownessUsed>false</horizontalSlownessUsed><backazimuthUsed>false</backazimuthUsed><weight>1</weight></arrival><arrival><pickID>de.gempa.tb1.Pick/20250411215738.179377.120318</pickID><phase>P</phase><azimuth>242.9820861816406</azimuth><distance>0.9064793586730957</distance><timeResidual>0.22017478942871094</timeResidual><timeUsed>true</timeUsed><horizontalSlownessUsed>false</horizontalSlownessUsed><backazimuthUsed>false</backazimuthUsed><weight>1</weight></arrival><arrival><pickID>de.gempa.tb1.Pick/20250411215739.469362.120320</pickID><phase>P</phase><azimuth>356.0141906738281</azimuth><distance>1.0512410402297974</distance><timeResidual>-0.5256767272949219</timeResidual><timeUsed>true</timeUsed><horizontalSlownessUsed>false</horizontalSlownessUsed><backazimuthUsed>false</backazimuthUsed><weight>1</weight></arrival><arrival><pickID>de.gempa.tb1.Pick/20250411215747.494358.120324</pickID><phase>P</phase><azimuth>353.35211181640625</azimuth><distance>1.785753607749939</distance><timeResidual>-0.8825035095214844</timeResidual><timeUsed>true</timeUsed><horizontalSlownessUsed>false</horizontalSlownessUsed><backazimuthUsed>false</backazimuthUsed><weight>1</weight></arrival><arrival><pickID>de.gempa.tb1.Pick/20250411215753.513773.120327</pickID><phase>P</phase><azimuth>17.19191551208496</azimuth><distance>1.3597599267959595</distance><timeResidual>0.762674331665039</timeResidual><timeUsed>true</timeUsed><horizontalSlownessUsed>false</horizontalSlownessUsed><backazimuthUsed>false</backazimuthUsed><weight>1</weight></arrival><arrival><pickID>de.gempa.tb1.Pick/20250411215827.394511.120338</pickID><phase>P</phase><azimuth>351.81072998046875</azimuth><distance>1.3829197883605957</distance><timeResidual>0.1522064208984375</timeResidual><timeUsed>true</timeUsed><horizontalSlownessUsed>false</horizontalSlownessUsed><backazimuthUsed>false</backazimuthUsed><weight>1</weight></arrival><magnitude publicID="de.gempa.tb1.Magnitude/20250411215827.77087.146577"><magnitude><value>2.45688852664941</value></magnitude><type>M</type><methodID>weighted average</methodID><stationCount>7</stationCount></magnitude></origin><event publicID="gempa2025hekc"><preferredOriginID>de.gempa.tb1.Origin/20250411215827.763949.67013</preferredOriginID><preferredMagnitudeID>de.gempa.tb1.Magnitude/20250411215827.77087.146577</preferredMagnitudeID><description><text>Northern Chile</text><type>region name</type></description><originReference>de.gempa.tb1.Origin/20250411215827.763949.67013</originReference></event></EventParameters></seiscomp>