<?xml version="1.0" encoding="UTF-8"?>
<seiscomp xmlns="http://geofon.gfz-potsdam.de/ns/seiscomp3-schema/0.13" version="0.13"><EventParameters><pick publicID="de.gempa.tb1.Pick/20250414095050.521665.137196"><time><value>2025-04-14T09:50:44.078394Z</value></time><waveformID networkCode="CX" stationCode="PB06" channelCode="HHZ"/><filterID>ITAPER(4)&gt;&gt;BW(4,4,20)</filterID><methodID>AIC</methodID><horizontalSlowness><value>10.986216875674103</value></horizontalSlowness><backazimuth><value>320.8170939724374</value></backazimuth><phaseHint>P</phaseHint><evaluationMode>automatic</evaluationMode><comment><text>159.41023252154423</text><id>DFX:rectilinearity</id></comment><comment><text>14.147692783292884</text><id>SNR</id></comment></pick><pick publicID="de.gempa.tb1.Pick/20250414095052.776761.137198"><time><value>2025-04-14T09:50:45.538391Z</value></time><waveformID networkCode="CX" stationCode="PB03" channelCode="HHZ"/><filterID>ITAPER(4)&gt;&gt;BW(4,4,20)</filterID><methodID>AIC</methodID><horizontalSlowness><value>11.255746530119522</value></horizontalSlowness><backazimuth><value>111.98011581071519</value></backazimuth><phaseHint>P</phaseHint><evaluationMode>automatic</evaluationMode><comment><text>10.962922756684543</text><id>DFX:rectilinearity</id></comment><comment><text>31.688853853025545</text><id>SNR</id></comment></pick><pick publicID="de.gempa.tb1.Pick/20250414095055.815274.137201"><time><value>2025-04-14T09:50:48.098393Z</value></time><waveformID networkCode="CX" stationCode="PB15" channelCode="HHZ"/><filterID>ITAPER(4)&gt;&gt;BW(4,4,20)</filterID><methodID>AIC</methodID><horizontalSlowness><value>23.14552689709249</value></horizontalSlowness><backazimuth><value>116.47479327241487</value></backazimuth><phaseHint>P</phaseHint><evaluationMode>automatic</evaluationMode><comment><text>162.62920769968227</text><id>DFX:rectilinearity</id></comment><comment><text>9.580841767616446</text><id>SNR</id></comment></pick><pick publicID="de.gempa.tb1.Pick/20250414095056.065668.137203"><time><value>2025-04-14T09:50:45.08Z</value></time><waveformID networkCode="CX" stationCode="PB09" channelCode="HHZ"/><filterID>ITAPER(4)&gt;&gt;BW(4,4,20)</filterID><methodID>AIC</methodID><horizontalSlowness><value>13.545775741865926</value></horizontalSlowness><backazimuth><value>104.71380278285531</value></backazimuth><phaseHint>P</phaseHint><evaluationMode>automatic</evaluationMode><comment><text>21.343257976939398</text><id>DFX:rectilinearity</id></comment><comment><text>69.96318095895539</text><id>SNR</id></comment></pick><pick publicID="de.gempa.tb1.Pick/20250414095057.583025.137205"><time><value>2025-04-14T09:50:52.848393Z</value></time><waveformID networkCode="CX" stationCode="PB02" channelCode="HHZ"/><filterID>ITAPER(4)&gt;&gt;BW(4,4,20)</filterID><methodID>AIC</methodID><horizontalSlowness><value>2.448476908464734</value></horizontalSlowness><backazimuth><value>153.27344783052578</value></backazimuth><phaseHint>P</phaseHint><evaluationMode>automatic</evaluationMode><comment><text>40.99282481600244</text><id>DFX:rectilinearity</id></comment><comment><text>13.365976510619836</text><id>SNR</id></comment></pick><pick publicID="de.gempa.tb1.Pick/20250414095101.563911.137207"><time><value>2025-04-14T09:50:53.768394Z</value></time><waveformID networkCode="CX" stationCode="PB01" channelCode="HHZ"/><filterID>ITAPER(4)&gt;&gt;BW(4,4,20)</filterID><methodID>AIC</methodID><horizontalSlowness><value>9.30572921324973</value></horizontalSlowness><backazimuth><value>167.40559115356498</value></backazimuth><phaseHint>P</phaseHint><evaluationMode>automatic</evaluationMode><comment><text>34.055493329582923</text><id>DFX:rectilinearity</id></comment><comment><text>21.860584978657265</text><id>SNR</id></comment></pick><pick publicID="de.gempa.tb1.Pick/20250414095102.570527.137209"><time><value>2025-04-14T09:50:55.61Z</value></time><waveformID networkCode="CX" stationCode="PB19" channelCode="HHZ"/><filterID>ITAPER(4)&gt;&gt;BW(4,4,20)</filterID><methodID>AIC</methodID><horizontalSlowness><value>18.830289098193973</value></horizontalSlowness><backazimuth><value>140.05087653310875</value></backazimuth><phaseHint>P</phaseHint><evaluationMode>automatic</evaluationMode><comment><text>29.994797569961896</text><id>DFX:rectilinearity</id></comment><comment><text>10.951784533333747</text><id>SNR</id></comment></pick><pick publicID="de.gempa.tb1.Pick/20250414095102.570911.137211"><time><value>2025-04-14T09:50:55.928394Z</value></time><waveformID networkCode="CX" stationCode="PB06" channelCode="HHN"/><filterID>ITAPER(2)&gt;&gt;BW(3,3,20)</filterID><methodID>L2-AIC-GRID</methodID><horizontalSlowness><value>21.07069461527684</value></horizontalSlowness><backazimuth><value>196.477937001905</value></backazimuth><phaseHint>S</phaseHint><evaluationMode>automatic</evaluationMode><comment><text>101.15755631406772</text><id>DFX:rectilinearity</id></comment><comment><text>de.gempa.tb1.Pick/20250414095050.521665.137196</text><id>RefPickID</id></comment><comment><text>16.793182776673834</text><id>SNR</id></comment></pick><pick publicID="de.gempa.tb1.Pick/20250414095106.732902.137212"><time><value>2025-04-14T09:50:58.568391Z</value></time><waveformID networkCode="CX" stationCode="PB03" channelCode="HHN"/><filterID>ITAPER(2)&gt;&gt;BW(3,3,20)</filterID><methodID>L2-AIC-GRID</methodID><horizontalSlowness><value>15.958033465835626</value></horizontalSlowness><backazimuth><value>343.63701709965267</value></backazimuth><phaseHint>S</phaseHint><evaluationMode>automatic</evaluationMode><comment><text>591.6626975384988</text><id>DFX:rectilinearity</id></comment><comment><text>de.gempa.tb1.Pick/20250414095052.776761.137198</text><id>RefPickID</id></comment><comment><text>18.03189440203516</text><id>SNR</id></comment></pick><pick publicID="de.gempa.tb1.Pick/20250414095109.744127.137216"><time><value>2025-04-14T09:51:03.038393Z</value></time><waveformID networkCode="CX" stationCode="PB15" channelCode="HHN"/><filterID>ITAPER(2)&gt;&gt;BW(3,3,20)</filterID><methodID>L2-AIC-GRID</methodID><horizontalSlowness><value>22.97457540323373</value></horizontalSlowness><backazimuth><value>137.03053625849947</value></backazimuth><phaseHint>S</phaseHint><evaluationMode>automatic</evaluationMode><comment><text>1507.5280401621485</text><id>DFX:rectilinearity</id></comment><comment><text>de.gempa.tb1.Pick/20250414095055.815274.137201</text><id>RefPickID</id></comment><comment><text>7.204319155408493</text><id>SNR</id></comment></pick><pick publicID="de.gempa.tb1.Pick/20250414095116.617432.137217"><time><value>2025-04-14T09:50:48.988393Z</value></time><waveformID networkCode="CX" stationCode="PB07" channelCode="HHZ"/><filterID>ITAPER(4)&gt;&gt;BW(4,4,20)</filterID><methodID>AIC</methodID><horizontalSlowness><value>23.24487284838312</value></horizontalSlowness><backazimuth><value>120.3756030495633</value></backazimuth><phaseHint>P</phaseHint><evaluationMode>automatic</evaluationMode><comment><text>101.24108135954211</text><id>DFX:rectilinearity</id></comment><comment><text>23.65624014142741</text><id>SNR</id></comment></pick><pick publicID="de.gempa.tb1.Pick/20250414095118.642682.137221"><time><value>2025-04-14T09:51:11.128393Z</value></time><waveformID networkCode="CX" stationCode="PB02" channelCode="HHN"/><filterID>ITAPER(2)&gt;&gt;BW(3,3,20)</filterID><methodID>L2-AIC-GRID</methodID><horizontalSlowness><value>4.695380903154277</value></horizontalSlowness><backazimuth><value>345.41584414801605</value></backazimuth><phaseHint>S</phaseHint><evaluationMode>automatic</evaluationMode><comment><text>299.83311943296627</text><id>DFX:rectilinearity</id></comment><comment><text>de.gempa.tb1.Pick/20250414095057.583025.137205</text><id>RefPickID</id></comment><comment><text>7.478666487354285</text><id>SNR</id></comment></pick><pick publicID="de.gempa.tb1.Pick/20250414095118.735712.137222"><time><value>2025-04-14T09:51:13.048394Z</value></time><waveformID networkCode="CX" stationCode="PB01" channelCode="HHN"/><filterID>ITAPER(2)&gt;&gt;BW(3,3,20)</filterID><methodID>L2-AIC-GRID</methodID><horizontalSlowness><value>20.273313496274039</value></horizontalSlowness><backazimuth><value>336.59706718972404</value></backazimuth><phaseHint>S</phaseHint><evaluationMode>automatic</evaluationMode><comment><text>424.594906563012</text><id>DFX:rectilinearity</id></comment><comment><text>de.gempa.tb1.Pick/20250414095101.563911.137207</text><id>RefPickID</id></comment><comment><text>10.652714962366767</text><id>SNR</id></comment></pick><pick publicID="de.gempa.tb1.Pick/20250414095127.733233.137226"><time><value>2025-04-14T09:51:04.528393Z</value></time><waveformID networkCode="CX" stationCode="PB07" channelCode="HHN"/><filterID>ITAPER(2)&gt;&gt;BW(3,3,20)</filterID><methodID>L2-AIC-GRID</methodID><horizontalSlowness><value>23.313834277798836</value></horizontalSlowness><backazimuth><value>141.1148360855485</value></backazimuth><phaseHint>S</phaseHint><evaluationMode>automatic</evaluationMode><comment><text>2301.184803782572</text><id>DFX:rectilinearity</id></comment><comment><text>de.gempa.tb1.Pick/20250414095116.617432.137217</text><id>RefPickID</id></comment><comment><text>6.157271624578303</text><id>SNR</id></comment></pick><pick publicID="de.gempa.tb1.Pick/20250414095129.72196.137227"><time><value>2025-04-14T09:51:16.41Z</value></time><waveformID networkCode="CX" stationCode="PB19" channelCode="HHN"/><filterID>ITAPER(2)&gt;&gt;BW(3,3,20)</filterID><methodID>L2-AIC-GRID</methodID><horizontalSlowness><value>21.83289033823564</value></horizontalSlowness><backazimuth><value>340.19099706983343</value></backazimuth><phaseHint>S</phaseHint><evaluationMode>automatic</evaluationMode><comment><text>112.30346933290427</text><id>DFX:rectilinearity</id></comment><comment><text>de.gempa.tb1.Pick/20250414095102.570527.137209</text><id>RefPickID</id></comment><comment><text>9.59209872534484</text><id>SNR</id></comment></pick><origin publicID="de.gempa.tb1.Origin/20250414095129.726338.134300"><time><value>2025-04-14T09:50:29.627986Z</value><uncertainty>0.7320705652236938</uncertainty></time><latitude><value>-22.380342483520508</value><uncertainty>2.714895725250244</uncertainty></latitude><longitude><value>-69.08686065673828</value><uncertainty>11.278093338012695</uncertainty></longitude><depth><value>89.44097137451172</value><uncertainty>11.610610008239746</uncertainty></depth><depthType>from location</depthType><methodID>LOCSAT</methodID><earthModelID>iasp91_scanloc</earthModelID><quality><associatedPhaseCount>15</associatedPhaseCount><usedPhaseCount>15</usedPhaseCount><associatedStationCount>8</associatedStationCount><usedStationCount>8</usedStationCount><depthPhaseCount>0</depthPhaseCount><standardError>0.38053449901461456</standardError><azimuthalGap>200.93637084960938</azimuthalGap><maximumDistance>1.5289099216461182</maximumDistance><minimumDistance>0.5531529188156128</minimumDistance><medianDistance>0.9864258170127869</medianDistance></quality><uncertainty><minHorizontalUncertainty>4.614641189575195</minHorizontalUncertainty><maxHorizontalUncertainty>24.43722343444824</maxHorizontalUncertainty><azimuthMaxHorizontalUncertainty>81.5002212524414</azimuthMaxHorizontalUncertainty><preferredDescription>horizontal uncertainty</preferredDescription></uncertainty><evaluationMode>automatic</evaluationMode><evaluationStatus>confirmed</evaluationStatus><comment><text>0.00</text><id>mismatchScore</id></comment><comment><text>mismatchScore</text><id>scevalMethod</id></comment><arrival><pickID>de.gempa.tb1.Pick/20250414095050.521665.137196</pickID><phase>P</phase><azimuth>234.0641174316406</azimuth><distance>0.5531529188156128</distance><timeResidual>-0.6786184310913086</timeResidual><timeUsed>true</timeUsed><horizontalSlownessUsed>false</horizontalSlownessUsed><backazimuthUsed>false</backazimuthUsed><weight>1</weight></arrival><arrival><pickID>de.gempa.tb1.Pick/20250414095052.776761.137198</pickID><phase>P</phase><azimuth>298.0202331542969</azimuth><distance>0.7001680135726929</distance><timeResidual>-0.5640115737915039</timeResidual><timeUsed>true</timeUsed><horizontalSlownessUsed>false</horizontalSlownessUsed><backazimuthUsed>false</backazimuthUsed><weight>1</weight></arrival><arrival><pickID>de.gempa.tb1.Pick/20250414095055.815274.137201</pickID><phase>P</phase><azimuth>203.19712829589844</azimuth><distance>0.8970789313316345</distance><timeResidual>-0.04348468780517578</timeResidual><timeUsed>true</timeUsed><horizontalSlownessUsed>false</horizontalSlownessUsed><backazimuthUsed>false</backazimuthUsed><weight>1</weight></arrival><arrival><pickID>de.gempa.tb1.Pick/20250414095056.065668.137203</pickID><phase>P</phase><azimuth>346.0714416503906</azimuth><distance>0.5986806750297546</distance><timeResidual>-0.07597827911376953</timeResidual><timeUsed>true</timeUsed><horizontalSlownessUsed>false</horizontalSlownessUsed><backazimuthUsed>false</backazimuthUsed><weight>1</weight></arrival><arrival><pickID>de.gempa.tb1.Pick/20250414095057.583025.137205</pickID><phase>P</phase><azimuth>324.3898620605469</azimuth><distance>1.2957918643951416</distance><timeResidual>0.03210735321044922</timeResidual><timeUsed>true</timeUsed><horizontalSlownessUsed>false</horizontalSlownessUsed><backazimuthUsed>false</backazimuthUsed><weight>1</weight></arrival><arrival><pickID>de.gempa.tb1.Pick/20250414095101.563911.137207</pickID><phase>P</phase><azimuth>344.28790283203125</azimuth><distance>1.3817349672317505</distance><timeResidual>-0.11204242706298828</timeResidual><timeUsed>true</timeUsed><horizontalSlownessUsed>false</horizontalSlownessUsed><backazimuthUsed>false</backazimuthUsed><weight>1</weight></arrival><arrival><pickID>de.gempa.tb1.Pick/20250414095102.570527.137209</pickID><phase>P</phase><azimuth>187.0078125</azimuth><distance>1.5289099216461182</distance><timeResidual>-0.10595893859863281</timeResidual><timeUsed>true</timeUsed><horizontalSlownessUsed>false</horizontalSlownessUsed><backazimuthUsed>false</backazimuthUsed><weight>1</weight></arrival><arrival><pickID>de.gempa.tb1.Pick/20250414095102.570911.137211</pickID><phase>S</phase><azimuth>234.0641174316406</azimuth><distance>0.5531529188156128</distance><timeResidual>-0.4260587692260742</timeResidual><timeUsed>true</timeUsed><horizontalSlownessUsed>false</horizontalSlownessUsed><backazimuthUsed>false</backazimuthUsed><weight>1</weight></arrival><arrival><pickID>de.gempa.tb1.Pick/20250414095106.732902.137212</pickID><phase>S</phase><azimuth>298.0202331542969</azimuth><distance>0.7001680135726929</distance><timeResidual>-0.17896652221679688</timeResidual><timeUsed>true</timeUsed><horizontalSlownessUsed>false</horizontalSlownessUsed><backazimuthUsed>false</backazimuthUsed><weight>1</weight></arrival><arrival><pickID>de.gempa.tb1.Pick/20250414095109.744127.137216</pickID><phase>S</phase><azimuth>203.19712829589844</azimuth><distance>0.8970789313316345</distance><timeResidual>0.6554937362670898</timeResidual><timeUsed>true</timeUsed><horizontalSlownessUsed>false</horizontalSlownessUsed><backazimuthUsed>false</backazimuthUsed><weight>1</weight></arrival><arrival><pickID>de.gempa.tb1.Pick/20250414095116.617432.137217</pickID><phase>P</phase><azimuth>311.109619140625</azimuth><distance>0.9864258170127869</distance><timeResidual>-0.15697288513183594</timeResidual><timeUsed>true</timeUsed><horizontalSlownessUsed>false</horizontalSlownessUsed><backazimuthUsed>false</backazimuthUsed><weight>1</weight></arrival><arrival><pickID>de.gempa.tb1.Pick/20250414095118.642682.137221</pickID><phase>S</phase><azimuth>324.3898620605469</azimuth><distance>1.2957918643951416</distance><timeResidual>0.39762401580810547</timeResidual><timeUsed>true</timeUsed><horizontalSlownessUsed>false</horizontalSlownessUsed><backazimuthUsed>false</backazimuthUsed><weight>1</weight></arrival><arrival><pickID>de.gempa.tb1.Pick/20250414095118.735712.137222</pickID><phase>S</phase><azimuth>344.28790283203125</azimuth><distance>1.3817349672317505</distance><timeResidual>0.4141092300415039</timeResidual><timeUsed>true</timeUsed><horizontalSlownessUsed>false</horizontalSlownessUsed><backazimuthUsed>false</backazimuthUsed><weight>1</weight></arrival><arrival><pickID>de.gempa.tb1.Pick/20250414095127.733233.137226</pickID><phase>S</phase><azimuth>311.109619140625</azimuth><distance>0.9864258170127869</distance><timeResidual>0.3562593460083008</timeResidual><timeUsed>true</timeUsed><horizontalSlownessUsed>false</horizontalSlownessUsed><backazimuthUsed>false</backazimuthUsed><weight>1</weight></arrival><arrival><pickID>de.gempa.tb1.Pick/20250414095129.72196.137227</pickID><phase>S</phase><azimuth>187.0078125</azimuth><distance>1.5289099216461182</distance><timeResidual>0.4864263534545898</timeResidual><timeUsed>true</timeUsed><horizontalSlownessUsed>false</horizontalSlownessUsed><backazimuthUsed>false</backazimuthUsed><weight>1</weight></arrival><magnitude publicID="de.gempa.tb1.Magnitude/20250414095135.93943.467089"><magnitude><value>2.3928338658526167</value></magnitude><type>M</type><methodID>weighted average</methodID><stationCount>7</stationCount></magnitude></origin><event publicID="gempa2025hizy"><preferredOriginID>de.gempa.tb1.Origin/20250414095129.726338.134300</preferredOriginID><preferredMagnitudeID>de.gempa.tb1.Magnitude/20250414095135.93943.467089</preferredMagnitudeID><description><text>Northern Chile</text><type>region name</type></description><originReference>de.gempa.tb1.Origin/20250414095129.726338.134300</originReference></event></EventParameters></seiscomp>