<?xml version="1.0" encoding="UTF-8"?>
<seiscomp xmlns="http://geofon.gfz-potsdam.de/ns/seiscomp3-schema/0.13" version="0.13"><EventParameters><pick publicID="de.gempa.tb1.Pick/20250412153353.558808.124964"><time><value>2025-04-12T15:33:47.998393Z</value></time><waveformID networkCode="CX" stationCode="PB03" channelCode="HHZ"/><filterID>ITAPER(4)&gt;&gt;BW(4,4,20)</filterID><methodID>AIC</methodID><horizontalSlowness><value>20.707357531005368</value></horizontalSlowness><backazimuth><value>320.22019185559833</value></backazimuth><phaseHint>P</phaseHint><evaluationMode>automatic</evaluationMode><comment><text>6.480806746422724</text><id>DFX:rectilinearity</id></comment><comment><text>12.08219656651735</text><id>SNR</id></comment></pick><pick publicID="de.gempa.tb1.Pick/20250412153353.645241.124966"><time><value>2025-04-12T15:33:46.888393Z</value></time><waveformID networkCode="CX" stationCode="PB06" channelCode="HHZ"/><filterID>ITAPER(4)&gt;&gt;BW(4,4,20)</filterID><methodID>AIC</methodID><horizontalSlowness><value>23.502021125476567</value></horizontalSlowness><backazimuth><value>293.2128035199656</value></backazimuth><phaseHint>P</phaseHint><evaluationMode>automatic</evaluationMode><comment><text>119.87522452145508</text><id>DFX:rectilinearity</id></comment><comment><text>7.939675596319275</text><id>SNR</id></comment></pick><pick publicID="de.gempa.tb1.Pick/20250412153358.907143.124968"><time><value>2025-04-12T15:33:50.938391Z</value></time><waveformID networkCode="CX" stationCode="PB07" channelCode="HHZ"/><filterID>ITAPER(4)&gt;&gt;BW(4,4,20)</filterID><methodID>AIC</methodID><horizontalSlowness><value>21.504322247363739</value></horizontalSlowness><backazimuth><value>282.3422756796797</value></backazimuth><phaseHint>P</phaseHint><evaluationMode>automatic</evaluationMode><comment><text>140.47957682932952</text><id>DFX:rectilinearity</id></comment><comment><text>27.476969528915717</text><id>SNR</id></comment></pick><pick publicID="de.gempa.tb1.Pick/20250412153406.535811.124970"><time><value>2025-04-12T15:33:46.03Z</value></time><waveformID networkCode="CX" stationCode="PB09" channelCode="HHZ"/><filterID>ITAPER(4)&gt;&gt;BW(4,4,20)</filterID><methodID>AIC</methodID><horizontalSlowness><value>20.238529116354133</value></horizontalSlowness><backazimuth><value>280.98393273033315</value></backazimuth><phaseHint>P</phaseHint><evaluationMode>automatic</evaluationMode><comment><text>22.441003533503945</text><id>DFX:rectilinearity</id></comment><comment><text>22.460390433280427</text><id>SNR</id></comment></pick><pick publicID="de.gempa.tb1.Pick/20250412153410.58727.124972"><time><value>2025-04-12T15:34:03.748393Z</value></time><waveformID networkCode="CX" stationCode="PB03" channelCode="HHN"/><filterID>ITAPER(2)&gt;&gt;BW(3,3,20)</filterID><methodID>L2-AIC-GRID</methodID><horizontalSlowness><value>21.43148835841281</value></horizontalSlowness><backazimuth><value>11.348989768870524</value></backazimuth><phaseHint>S</phaseHint><evaluationMode>automatic</evaluationMode><comment><text>11.98599433326165</text><id>DFX:rectilinearity</id></comment><comment><text>de.gempa.tb1.Pick/20250412153353.558808.124964</text><id>RefPickID</id></comment><comment><text>6.836028063891813</text><id>SNR</id></comment></pick><pick publicID="de.gempa.tb1.Pick/20250412153446.966558.124976"><time><value>2025-04-12T15:34:08.778391Z</value></time><waveformID networkCode="CX" stationCode="PB07" channelCode="HHN"/><filterID>ITAPER(2)&gt;&gt;BW(3,3,20)</filterID><methodID>L2-AIC-GRID</methodID><horizontalSlowness><value>23.372194844728856</value></horizontalSlowness><backazimuth><value>112.67465702183695</value></backazimuth><phaseHint>S</phaseHint><evaluationMode>automatic</evaluationMode><comment><text>508.8035694208993</text><id>DFX:rectilinearity</id></comment><comment><text>de.gempa.tb1.Pick/20250412153358.907143.124968</text><id>RefPickID</id></comment><comment><text>5.33480445362035</text><id>SNR</id></comment></pick><origin publicID="de.gempa.tb1.Origin/20250412153446.970819.85883"><time><value>2025-04-12T15:33:27.918897Z</value><uncertainty>1.6651078462600708</uncertainty></time><latitude><value>-22.36397933959961</value><uncertainty>11.093099594116211</uncertainty></latitude><longitude><value>-68.81599426269531</value><uncertainty>17.155851364135742</uncertainty></longitude><depth><value>107.88938903808594</value><uncertainty>24.25514602661133</uncertainty></depth><depthType>from location</depthType><methodID>LOCSAT</methodID><earthModelID>iasp91_scanloc</earthModelID><quality><associatedPhaseCount>6</associatedPhaseCount><usedPhaseCount>6</usedPhaseCount><associatedStationCount>4</associatedStationCount><usedStationCount>4</usedStationCount><depthPhaseCount>0</depthPhaseCount><standardError>0.10829104091946173</standardError><azimuthalGap>278.9480895996094</azimuthalGap><maximumDistance>1.1781476736068726</maximumDistance><minimumDistance>0.6893070340156555</minimumDistance><medianDistance>0.9234457015991211</medianDistance></quality><uncertainty><minHorizontalUncertainty>22.611083984375</minHorizontalUncertainty><maxHorizontalUncertainty>37.52816390991211</maxHorizontalUncertainty><azimuthMaxHorizontalUncertainty>75.7034683227539</azimuthMaxHorizontalUncertainty><preferredDescription>horizontal uncertainty</preferredDescription></uncertainty><evaluationMode>automatic</evaluationMode><evaluationStatus>confirmed</evaluationStatus><comment><text>0.09</text><id>mismatchScore</id></comment><comment><text>mismatchScore</text><id>scevalMethod</id></comment><arrival><pickID>de.gempa.tb1.Pick/20250412153353.558808.124964</pickID><phase>P</phase><azimuth>289.7019348144531</azimuth><distance>0.9234457015991211</distance><timeResidual>-0.19290924072265625</timeResidual><timeUsed>true</timeUsed><horizontalSlownessUsed>false</horizontalSlownessUsed><backazimuthUsed>false</backazimuthUsed><weight>1</weight></arrival><arrival><pickID>de.gempa.tb1.Pick/20250412153353.645241.124966</pickID><phase>P</phase><azimuth>243.8997497558594</azimuth><distance>0.7772562503814697</distance><timeResidual>0.10485649108886719</timeResidual><timeUsed>true</timeUsed><horizontalSlownessUsed>false</horizontalSlownessUsed><backazimuthUsed>false</backazimuthUsed><weight>1</weight></arrival><arrival><pickID>de.gempa.tb1.Pick/20250412153358.907143.124968</pickID><phase>P</phase><azimuth>302.3694152832031</azimuth><distance>1.1781476736068726</distance><timeResidual>0.03974151611328125</timeResidual><timeUsed>true</timeUsed><horizontalSlownessUsed>false</horizontalSlownessUsed><backazimuthUsed>false</backazimuthUsed><weight>1</weight></arrival><arrival><pickID>de.gempa.tb1.Pick/20250412153406.535811.124970</pickID><phase>P</phase><azimuth>324.95166015625</azimuth><distance>0.6893070340156555</distance><timeResidual>0.018285751342773438</timeResidual><timeUsed>true</timeUsed><horizontalSlownessUsed>false</horizontalSlownessUsed><backazimuthUsed>false</backazimuthUsed><weight>1</weight></arrival><arrival><pickID>de.gempa.tb1.Pick/20250412153410.58727.124972</pickID><phase>S</phase><azimuth>289.7019348144531</azimuth><distance>0.9234457015991211</distance><timeResidual>-0.08452796936035156</timeResidual><timeUsed>true</timeUsed><horizontalSlownessUsed>false</horizontalSlownessUsed><backazimuthUsed>false</backazimuthUsed><weight>1</weight></arrival><arrival><pickID>de.gempa.tb1.Pick/20250412153446.966558.124976</pickID><phase>S</phase><azimuth>302.3694152832031</azimuth><distance>1.1781476736068726</distance><timeResidual>0.11442947387695312</timeResidual><timeUsed>true</timeUsed><horizontalSlownessUsed>false</horizontalSlownessUsed><backazimuthUsed>false</backazimuthUsed><weight>1</weight></arrival><magnitude publicID="de.gempa.tb1.Magnitude/20250412153504.513423.246971"><magnitude><value>2.6347038017415807</value></magnitude><type>M</type><methodID>weighted average</methodID><stationCount>3</stationCount></magnitude></origin><event publicID="gempa2025hfti"><preferredOriginID>de.gempa.tb1.Origin/20250412153446.970819.85883</preferredOriginID><preferredMagnitudeID>de.gempa.tb1.Magnitude/20250412153504.513423.246971</preferredMagnitudeID><type>mining explosion</type><description><text>Northern Chile</text><type>region name</type></description><originReference>de.gempa.tb1.Origin/20250412153446.970819.85883</originReference></event></EventParameters></seiscomp>