<?xml version="1.0" encoding="UTF-8"?>
<seiscomp xmlns="http://geofon.gfz-potsdam.de/ns/seiscomp3-schema/0.13" version="0.13"><EventParameters><pick publicID="de.gempa.tb1.Pick/20250415035539.628594.143304"><time><value>2025-04-15T03:55:33.918393Z</value></time><waveformID networkCode="CX" stationCode="PB01" channelCode="HHZ"/><filterID>ITAPER(4)&gt;&gt;BW(4,4,20)</filterID><methodID>AIC</methodID><horizontalSlowness><value>9.078262288457271</value></horizontalSlowness><backazimuth><value>21.197284815354266</value></backazimuth><phaseHint>P</phaseHint><evaluationMode>automatic</evaluationMode><comment><text>158.58270707632153</text><id>DFX:rectilinearity</id></comment><comment><text>136.77892151006975</text><id>SNR</id></comment></pick><pick publicID="de.gempa.tb1.Pick/20250415035542.062201.143306"><time><value>2025-04-15T03:55:36.748393Z</value></time><waveformID networkCode="CX" stationCode="PB08" channelCode="HHZ"/><filterID>ITAPER(4)&gt;&gt;BW(4,4,20)</filterID><methodID>AIC</methodID><horizontalSlowness><value>13.458644211843138</value></horizontalSlowness><backazimuth><value>100.55016057823377</value></backazimuth><phaseHint>P</phaseHint><evaluationMode>automatic</evaluationMode><comment><text>10.581992837757332</text><id>DFX:rectilinearity</id></comment><comment><text>18.088083921991082</text><id>SNR</id></comment></pick><pick publicID="de.gempa.tb1.Pick/20250415035543.264964.143308"><time><value>2025-04-15T03:55:38.189999Z</value></time><waveformID networkCode="CX" stationCode="PATCX" channelCode="HHZ"/><filterID>ITAPER(4)&gt;&gt;BW(4,4,20)</filterID><methodID>AIC</methodID><horizontalSlowness><value>18.34174964776087</value></horizontalSlowness><backazimuth><value>86.13889874906971</value></backazimuth><phaseHint>P</phaseHint><evaluationMode>automatic</evaluationMode><comment><text>165.13228307765576</text><id>DFX:rectilinearity</id></comment><comment><text>47.39947635955193</text><id>SNR</id></comment></pick><pick publicID="de.gempa.tb1.Pick/20250415035544.528661.143310"><time><value>2025-04-15T03:55:37.808393Z</value></time><waveformID networkCode="CX" stationCode="PB02" channelCode="HHZ"/><filterID>ITAPER(4)&gt;&gt;BW(4,4,20)</filterID><methodID>AIC</methodID><horizontalSlowness><value>6.556474885577924</value></horizontalSlowness><backazimuth><value>337.8351911246841</value></backazimuth><phaseHint>P</phaseHint><evaluationMode>automatic</evaluationMode><comment><text>113.81561491065791</text><id>DFX:rectilinearity</id></comment><comment><text>125.74332328611153</text><id>SNR</id></comment></pick><pick publicID="de.gempa.tb1.Pick/20250415035549.599823.143312"><time><value>2025-04-15T03:55:43.528393Z</value></time><waveformID networkCode="CX" stationCode="PB03" channelCode="HHZ"/><filterID>ITAPER(4)&gt;&gt;BW(4,4,20)</filterID><methodID>AIC</methodID><horizontalSlowness><value>13.051546384571253</value></horizontalSlowness><backazimuth><value>315.49673893085583</value></backazimuth><phaseHint>P</phaseHint><evaluationMode>automatic</evaluationMode><comment><text>12.467860029938347</text><id>DFX:rectilinearity</id></comment><comment><text>12.884392872267306</text><id>SNR</id></comment></pick><pick publicID="de.gempa.tb1.Pick/20250415035550.525143.143314"><time><value>2025-04-15T03:55:44.02Z</value></time><waveformID networkCode="CX" stationCode="PSGCX" channelCode="HHZ"/><filterID>ITAPER(4)&gt;&gt;BW(4,4,20)</filterID><methodID>AIC</methodID><horizontalSlowness><value>10.840473503990076</value></horizontalSlowness><backazimuth><value>240.97059266727177</value></backazimuth><phaseHint>P</phaseHint><evaluationMode>automatic</evaluationMode><comment><text>13.53515900806902</text><id>DFX:rectilinearity</id></comment><comment><text>49.64863435300087</text><id>SNR</id></comment></pick><pick publicID="de.gempa.tb1.Pick/20250415035550.686256.143316"><time><value>2025-04-15T03:55:45.448393Z</value></time><waveformID networkCode="CX" stationCode="PB01" channelCode="HHN"/><filterID>ITAPER(2)&gt;&gt;BW(3,3,20)</filterID><methodID>L2-AIC-GRID</methodID><horizontalSlowness><value>20.474188300148072</value></horizontalSlowness><backazimuth><value>250.0379382999137</value></backazimuth><phaseHint>S</phaseHint><evaluationMode>automatic</evaluationMode><comment><text>18001.347591781621</text><id>DFX:rectilinearity</id></comment><comment><text>de.gempa.tb1.Pick/20250415035539.628594.143304</text><id>RefPickID</id></comment><comment><text>44.24186192011827</text><id>SNR</id></comment></pick><pick publicID="de.gempa.tb1.Pick/20250415035554.87799.143317"><time><value>2025-04-15T03:55:40.19Z</value></time><waveformID networkCode="CX" stationCode="PB09" channelCode="HHZ"/><filterID>ITAPER(4)&gt;&gt;BW(4,4,20)</filterID><methodID>AIC</methodID><horizontalSlowness><value>17.22647563815348</value></horizontalSlowness><backazimuth><value>282.6334976696943</value></backazimuth><phaseHint>P</phaseHint><evaluationMode>automatic</evaluationMode><comment><text>19.429258405116517</text><id>DFX:rectilinearity</id></comment><comment><text>40.25615774777657</text><id>SNR</id></comment></pick><pick publicID="de.gempa.tb1.Pick/20250415035558.06314.143319"><time><value>2025-04-15T03:55:49.998393Z</value></time><waveformID networkCode="CX" stationCode="PB08" channelCode="HHN"/><filterID>ITAPER(2)&gt;&gt;BW(3,3,20)</filterID><methodID>L2-AIC-GRID</methodID><horizontalSlowness><value>18.3086911621132</value></horizontalSlowness><backazimuth><value>186.88474465005535</value></backazimuth><phaseHint>S</phaseHint><evaluationMode>automatic</evaluationMode><comment><text>65.83844468000056</text><id>DFX:rectilinearity</id></comment><comment><text>de.gempa.tb1.Pick/20250415035542.062201.143306</text><id>RefPickID</id></comment><comment><text>7.865876953073852</text><id>SNR</id></comment></pick><pick publicID="de.gempa.tb1.Pick/20250415035559.435493.143320"><time><value>2025-04-15T03:55:53.649999Z</value></time><waveformID networkCode="CX" stationCode="PATCX" channelCode="HHN"/><filterID>ITAPER(2)&gt;&gt;BW(3,3,20)</filterID><methodID>L2-AIC-GRID</methodID><horizontalSlowness><value>22.510933161311105</value></horizontalSlowness><backazimuth><value>359.5771097695408</value></backazimuth><phaseHint>S</phaseHint><evaluationMode>automatic</evaluationMode><comment><text>483.6481918145269</text><id>DFX:rectilinearity</id></comment><comment><text>de.gempa.tb1.Pick/20250415035543.264964.143308</text><id>RefPickID</id></comment><comment><text>6.4877506032296</text><id>SNR</id></comment></pick><pick publicID="de.gempa.tb1.Pick/20250415035559.574766.143321"><time><value>2025-04-15T03:55:52.488393Z</value></time><waveformID networkCode="CX" stationCode="PB02" channelCode="HHN"/><filterID>ITAPER(2)&gt;&gt;BW(3,3,20)</filterID><methodID>L2-AIC-GRID</methodID><horizontalSlowness><value>9.398727328700577</value></horizontalSlowness><backazimuth><value>162.21994561575724</value></backazimuth><phaseHint>S</phaseHint><evaluationMode>automatic</evaluationMode><comment><text>1154.8302656949384</text><id>DFX:rectilinearity</id></comment><comment><text>de.gempa.tb1.Pick/20250415035544.528661.143310</text><id>RefPickID</id></comment><comment><text>8.226131778780331</text><id>SNR</id></comment></pick><pick publicID="de.gempa.tb1.Pick/20250415035608.305973.143323"><time><value>2025-04-15T03:55:56.61Z</value></time><waveformID networkCode="CX" stationCode="PB09" channelCode="HHN"/><filterID>ITAPER(2)&gt;&gt;BW(3,3,20)</filterID><methodID>L2-AIC-GRID</methodID><horizontalSlowness><value>14.777411096929827</value></horizontalSlowness><backazimuth><value>308.19969920303043</value></backazimuth><phaseHint>S</phaseHint><evaluationMode>automatic</evaluationMode><comment><text>355.8869009929164</text><id>DFX:rectilinearity</id></comment><comment><text>de.gempa.tb1.Pick/20250415035554.87799.143317</text><id>RefPickID</id></comment><comment><text>5.702542193976855</text><id>SNR</id></comment></pick><pick publicID="de.gempa.tb1.Pick/20250415035609.715747.143324"><time><value>2025-04-15T03:56:02.018393Z</value></time><waveformID networkCode="CX" stationCode="PB03" channelCode="HHN"/><filterID>ITAPER(2)&gt;&gt;BW(3,3,20)</filterID><methodID>L2-AIC-GRID</methodID><horizontalSlowness><value>14.829724111619216</value></horizontalSlowness><backazimuth><value>117.02172242256626</value></backazimuth><phaseHint>S</phaseHint><evaluationMode>automatic</evaluationMode><comment><text>47.42180702488553</text><id>DFX:rectilinearity</id></comment><comment><text>de.gempa.tb1.Pick/20250415035549.599823.143312</text><id>RefPickID</id></comment><comment><text>10.255047629749823</text><id>SNR</id></comment></pick><pick publicID="de.gempa.tb1.Pick/20250415035611.325656.143325"><time><value>2025-04-15T03:55:40.798393Z</value></time><waveformID networkCode="CX" stationCode="PB07" channelCode="HHZ"/><filterID>ITAPER(4)&gt;&gt;BW(4,4,20)</filterID><methodID>AIC</methodID><horizontalSlowness><value>22.71310721031247</value></horizontalSlowness><backazimuth><value>98.45857810546418</value></backazimuth><phaseHint>P</phaseHint><evaluationMode>automatic</evaluationMode><comment><text>884.583177246052</text><id>DFX:rectilinearity</id></comment><comment><text>37.92879759198968</text><id>SNR</id></comment></pick><pick publicID="de.gempa.tb1.Pick/20250415035613.536093.143328"><time><value>2025-04-15T03:56:03.52Z</value></time><waveformID networkCode="CX" stationCode="PSGCX" channelCode="HHN"/><filterID>ITAPER(2)&gt;&gt;BW(3,3,20)</filterID><methodID>L2-AIC-GRID</methodID><horizontalSlowness><value>20.0612934019276</value></horizontalSlowness><backazimuth><value>75.6549704837957</value></backazimuth><phaseHint>S</phaseHint><evaluationMode>automatic</evaluationMode><comment><text>80.85178094169292</text><id>DFX:rectilinearity</id></comment><comment><text>de.gempa.tb1.Pick/20250415035550.525143.143314</text><id>RefPickID</id></comment><comment><text>6.893299004612499</text><id>SNR</id></comment></pick><pick publicID="de.gempa.tb1.Pick/20250415035617.011823.143329"><time><value>2025-04-15T03:55:57.338393Z</value></time><waveformID networkCode="CX" stationCode="PB07" channelCode="HHN"/><filterID>ITAPER(2)&gt;&gt;BW(3,3,20)</filterID><methodID>L2-AIC-GRID</methodID><horizontalSlowness><value>20.925269215900457</value></horizontalSlowness><backazimuth><value>176.11568793164005</value></backazimuth><phaseHint>S</phaseHint><evaluationMode>automatic</evaluationMode><comment><text>3508.1078345201486</text><id>DFX:rectilinearity</id></comment><comment><text>de.gempa.tb1.Pick/20250415035611.325656.143325</text><id>RefPickID</id></comment><comment><text>7.373316127163082</text><id>SNR</id></comment></pick><origin publicID="de.gempa.tb1.Origin/20250415035617.19976.160206"><time><value>2025-04-15T03:55:18.749949Z</value><uncertainty>0.7855101823806763</uncertainty></time><latitude><value>-20.774730682373047</value><uncertainty>2.459031343460083</uncertainty></latitude><longitude><value>-69.2803955078125</value><uncertainty>5.171933174133301</uncertainty></longitude><depth><value>106.61304473876953</value><uncertainty>5.95795202255249</uncertainty></depth><depthType>from location</depthType><methodID>LOCSAT</methodID><earthModelID>iasp91_scanloc</earthModelID><quality><associatedPhaseCount>16</associatedPhaseCount><usedPhaseCount>16</usedPhaseCount><associatedStationCount>8</associatedStationCount><usedStationCount>8</usedStationCount><depthPhaseCount>0</depthPhaseCount><standardError>0.4783542798445188</standardError><azimuthalGap>167.26581859588623</azimuthalGap><maximumDistance>1.4138532876968384</maximumDistance><minimumDistance>0.32989028096199036</minimumDistance><medianDistance>1.0172299146652222</medianDistance></quality><uncertainty><minHorizontalUncertainty>5.271095752716064</minHorizontalUncertainty><maxHorizontalUncertainty>11.088457107543945</maxHorizontalUncertainty><azimuthMaxHorizontalUncertainty>90.54122161865234</azimuthMaxHorizontalUncertainty><preferredDescription>horizontal uncertainty</preferredDescription></uncertainty><evaluationMode>automatic</evaluationMode><evaluationStatus>confirmed</evaluationStatus><comment><text>0.00</text><id>mismatchScore</id></comment><comment><text>mismatchScore</text><id>scevalMethod</id></comment><arrival><pickID>de.gempa.tb1.Pick/20250415035539.628594.143304</pickID><phase>P</phase><azimuth>215.88377380371094</azimuth><distance>0.32989028096199036</distance><timeResidual>-0.3308858871459961</timeResidual><timeUsed>true</timeUsed><horizontalSlownessUsed>false</horizontalSlownessUsed><backazimuthUsed>false</backazimuthUsed><weight>1</weight></arrival><arrival><pickID>de.gempa.tb1.Pick/20250415035542.062201.143306</pickID><phase>P</phase><azimuth>10.719624519348145</azimuth><distance>0.6415451169013977</distance><timeResidual>0.4297962188720703</timeResidual><timeUsed>true</timeUsed><horizontalSlownessUsed>false</horizontalSlownessUsed><backazimuthUsed>false</backazimuthUsed><weight>1</weight></arrival><arrival><pickID>de.gempa.tb1.Pick/20250415035543.264964.143308</pickID><phase>P</phase><azimuth>266.63848876953125</azimuth><distance>0.8175980448722839</distance><timeResidual>0.3150005340576172</timeResidual><timeUsed>true</timeUsed><horizontalSlownessUsed>false</horizontalSlownessUsed><backazimuthUsed>false</backazimuthUsed><weight>1</weight></arrival><arrival><pickID>de.gempa.tb1.Pick/20250415035544.528661.143310</pickID><phase>P</phase><azimuth>226.5703582763672</azimuth><distance>0.7904152274131775</distance><timeResidual>0.19150066375732422</timeResidual><timeUsed>true</timeUsed><horizontalSlownessUsed>false</horizontalSlownessUsed><backazimuthUsed>false</backazimuthUsed><weight>1</weight></arrival><arrival><pickID>de.gempa.tb1.Pick/20250415035549.599823.143312</pickID><phase>P</phase><azimuth>199.07798767089844</azimuth><distance>1.3418166637420654</distance><timeResidual>0.025310516357421875</timeResidual><timeUsed>true</timeUsed><horizontalSlownessUsed>false</horizontalSlownessUsed><backazimuthUsed>false</backazimuthUsed><weight>1</weight></arrival><arrival><pickID>de.gempa.tb1.Pick/20250415035550.525143.143314</pickID><phase>P</phase><azimuth>325.8105163574219</azimuth><distance>1.4138532876968384</distance><timeResidual>-0.3432760238647461</timeResidual><timeUsed>true</timeUsed><horizontalSlownessUsed>false</horizontalSlownessUsed><backazimuthUsed>false</backazimuthUsed><weight>1</weight></arrival><arrival><pickID>de.gempa.tb1.Pick/20250415035550.686256.143316</pickID><phase>S</phase><azimuth>215.88377380371094</azimuth><distance>0.32989028096199036</distance><timeResidual>-0.716120719909668</timeResidual><timeUsed>true</timeUsed><horizontalSlownessUsed>false</horizontalSlownessUsed><backazimuthUsed>false</backazimuthUsed><weight>1</weight></arrival><arrival><pickID>de.gempa.tb1.Pick/20250415035554.87799.143317</pickID><phase>P</phase><azimuth>177.98544311523438</azimuth><distance>1.0172299146652222</distance><timeResidual>0.3131828308105469</timeResidual><timeUsed>true</timeUsed><horizontalSlownessUsed>false</horizontalSlownessUsed><backazimuthUsed>false</backazimuthUsed><weight>1</weight></arrival><arrival><pickID>de.gempa.tb1.Pick/20250415035558.06314.143319</pickID><phase>S</phase><azimuth>10.719624519348145</azimuth><distance>0.6415451169013977</distance><timeResidual>0.15398597717285156</timeResidual><timeUsed>true</timeUsed><horizontalSlownessUsed>false</horizontalSlownessUsed><backazimuthUsed>false</backazimuthUsed><weight>1</weight></arrival><arrival><pickID>de.gempa.tb1.Pick/20250415035559.435493.143320</pickID><phase>S</phase><azimuth>266.63848876953125</azimuth><distance>0.8175980448722839</distance><timeResidual>1.0322132110595703</timeResidual><timeUsed>true</timeUsed><horizontalSlownessUsed>false</horizontalSlownessUsed><backazimuthUsed>false</backazimuthUsed><weight>1</weight></arrival><arrival><pickID>de.gempa.tb1.Pick/20250415035559.574766.143321</pickID><phase>S</phase><azimuth>226.5703582763672</azimuth><distance>0.7904152274131775</distance><timeResidual>0.32991981506347656</timeResidual><timeUsed>true</timeUsed><horizontalSlownessUsed>false</horizontalSlownessUsed><backazimuthUsed>false</backazimuthUsed><weight>1</weight></arrival><arrival><pickID>de.gempa.tb1.Pick/20250415035608.305973.143323</pickID><phase>S</phase><azimuth>177.98544311523438</azimuth><distance>1.0172299146652222</distance><timeResidual>0.4212760925292969</timeResidual><timeUsed>true</timeUsed><horizontalSlownessUsed>false</horizontalSlownessUsed><backazimuthUsed>false</backazimuthUsed><weight>1</weight></arrival><arrival><pickID>de.gempa.tb1.Pick/20250415035609.715747.143324</pickID><phase>S</phase><azimuth>199.07798767089844</azimuth><distance>1.3418166637420654</distance><timeResidual>-0.6469802856445312</timeResidual><timeUsed>true</timeUsed><horizontalSlownessUsed>false</horizontalSlownessUsed><backazimuthUsed>false</backazimuthUsed><weight>1</weight></arrival><arrival><pickID>de.gempa.tb1.Pick/20250415035611.325656.143325</pickID><phase>P</phase><azimuth>210.71035766601562</azimuth><distance>1.1029729843139648</distance><timeResidual>-1.621246337890625e-05</timeResidual><timeUsed>true</timeUsed><horizontalSlownessUsed>false</horizontalSlownessUsed><backazimuthUsed>false</backazimuthUsed><weight>1</weight></arrival><arrival><pickID>de.gempa.tb1.Pick/20250415035613.536093.143328</pickID><phase>S</phase><azimuth>325.8105163574219</azimuth><distance>1.4138532876968384</distance><timeResidual>-0.6802215576171875</timeResidual><timeUsed>true</timeUsed><horizontalSlownessUsed>false</horizontalSlownessUsed><backazimuthUsed>false</backazimuthUsed><weight>1</weight></arrival><arrival><pickID>de.gempa.tb1.Pick/20250415035617.011823.143329</pickID><phase>S</phase><azimuth>210.71035766601562</azimuth><distance>1.1029729843139648</distance><timeResidual>-0.4948577880859375</timeResidual><timeUsed>true</timeUsed><horizontalSlownessUsed>false</horizontalSlownessUsed><backazimuthUsed>false</backazimuthUsed><weight>1</weight></arrival><magnitude publicID="de.gempa.tb1.Magnitude/20250415035625.93899.568921"><magnitude><value>2.238258079343424</value></magnitude><type>M</type><methodID>weighted average</methodID><stationCount>7</stationCount></magnitude></origin><event publicID="gempa2025hkkd"><preferredOriginID>de.gempa.tb1.Origin/20250415035617.19976.160206</preferredOriginID><preferredMagnitudeID>de.gempa.tb1.Magnitude/20250415035625.93899.568921</preferredMagnitudeID><description><text>Northern Chile</text><type>region name</type></description><originReference>de.gempa.tb1.Origin/20250415035617.19976.160206</originReference></event></EventParameters></seiscomp>