<?xml version="1.0" encoding="UTF-8"?>
<seiscomp xmlns="http://geofon.gfz-potsdam.de/ns/seiscomp3-schema/0.13" version="0.13"><EventParameters><pick publicID="de.gempa.tb1.Pick/20250413182929.509424.133107"><time><value>2025-04-13T18:29:24.128391Z</value></time><waveformID networkCode="CX" stationCode="PB06" channelCode="HHZ"/><filterID>ITAPER(4)&gt;&gt;BW(4,4,20)</filterID><methodID>AIC</methodID><horizontalSlowness><value>7.869921270381236</value></horizontalSlowness><backazimuth><value>231.78583014438286</value></backazimuth><phaseHint>P</phaseHint><evaluationMode>automatic</evaluationMode><comment><text>4213.7874117565625</text><id>DFX:rectilinearity</id></comment><comment><text>106.01704851701187</text><id>SNR</id></comment></pick><pick publicID="de.gempa.tb1.Pick/20250413182931.684597.133109"><time><value>2025-04-13T18:29:24.948393Z</value></time><waveformID networkCode="CX" stationCode="PB15" channelCode="HHZ"/><filterID>ITAPER(4)&gt;&gt;BW(4,4,20)</filterID><methodID>AIC</methodID><horizontalSlowness><value>23.424013987157565</value></horizontalSlowness><backazimuth><value>97.99845064789449</value></backazimuth><phaseHint>P</phaseHint><evaluationMode>automatic</evaluationMode><comment><text>16869.49976738697</text><id>DFX:rectilinearity</id></comment><comment><text>10.537387885227698</text><id>SNR</id></comment></pick><pick publicID="de.gempa.tb1.Pick/20250413182938.175487.133113"><time><value>2025-04-13T18:29:33.35Z</value></time><waveformID networkCode="CX" stationCode="PB10" channelCode="HHZ"/><filterID>ITAPER(4)&gt;&gt;BW(4,4,20)</filterID><methodID>AIC</methodID><horizontalSlowness><value>13.040890517607027</value></horizontalSlowness><backazimuth><value>71.94039230085745</value></backazimuth><phaseHint>P</phaseHint><evaluationMode>automatic</evaluationMode><comment><text>2366.1121459539445</text><id>DFX:rectilinearity</id></comment><comment><text>30.00966240605896</text><id>SNR</id></comment></pick><pick publicID="de.gempa.tb1.Pick/20250413182938.516503.133115"><time><value>2025-04-13T18:29:33.938394Z</value></time><waveformID networkCode="CX" stationCode="PB03" channelCode="HHZ"/><filterID>ITAPER(4)&gt;&gt;BW(4,4,20)</filterID><methodID>AIC</methodID><horizontalSlowness><value>14.916456415208556</value></horizontalSlowness><backazimuth><value>179.55344559107544</value></backazimuth><phaseHint>P</phaseHint><evaluationMode>automatic</evaluationMode><comment><text>2763.369291831747</text><id>DFX:rectilinearity</id></comment><comment><text>73.042694476443</text><id>SNR</id></comment></pick><pick publicID="de.gempa.tb1.Pick/20250413182939.831102.133117"><time><value>2025-04-13T18:29:30.878393Z</value></time><waveformID networkCode="CX" stationCode="PB15" channelCode="HHN"/><filterID>ITAPER(2)&gt;&gt;BW(3,3,20)</filterID><methodID>L2-AIC-GRID</methodID><horizontalSlowness><value>22.411957253928495</value></horizontalSlowness><backazimuth><value>275.89299915051276</value></backazimuth><phaseHint>S</phaseHint><evaluationMode>automatic</evaluationMode><comment><text>56630.18651951241</text><id>DFX:rectilinearity</id></comment><comment><text>de.gempa.tb1.Pick/20250413182931.684597.133109</text><id>RefPickID</id></comment><comment><text>6.933746109082112</text><id>SNR</id></comment></pick><pick publicID="de.gempa.tb1.Pick/20250413182943.509312.133120"><time><value>2025-04-13T18:29:37.04Z</value></time><waveformID networkCode="CX" stationCode="PB19" channelCode="HHZ"/><filterID>ITAPER(4)&gt;&gt;BW(4,4,20)</filterID><methodID>AIC</methodID><horizontalSlowness><value>1.295751768537182</value></horizontalSlowness><backazimuth><value>233.0260285293779</value></backazimuth><phaseHint>P</phaseHint><evaluationMode>automatic</evaluationMode><comment><text>123.36862821087624</text><id>DFX:rectilinearity</id></comment><comment><text>10.957412209548737</text><id>SNR</id></comment></pick><pick publicID="de.gempa.tb1.Pick/20250413182953.211306.133129"><time><value>2025-04-13T18:29:46.6Z</value></time><waveformID networkCode="CX" stationCode="PB10" channelCode="HHN"/><filterID>ITAPER(2)&gt;&gt;BW(3,3,20)</filterID><methodID>L2-AIC-GRID</methodID><horizontalSlowness><value>18.850615779167715</value></horizontalSlowness><backazimuth><value>218.11887128412107</value></backazimuth><phaseHint>S</phaseHint><evaluationMode>automatic</evaluationMode><comment><text>37640.46947861954</text><id>DFX:rectilinearity</id></comment><comment><text>de.gempa.tb1.Pick/20250413182938.175487.133113</text><id>RefPickID</id></comment><comment><text>5.95667867849109</text><id>SNR</id></comment></pick><pick publicID="de.gempa.tb1.Pick/20250413182954.446716.133130"><time><value>2025-04-13T18:29:41.08Z</value></time><waveformID networkCode="CX" stationCode="PB09" channelCode="HHZ"/><filterID>ITAPER(4)&gt;&gt;BW(4,4,20)</filterID><methodID>AIC</methodID><horizontalSlowness><value>22.178729582132839</value></horizontalSlowness><backazimuth><value>155.5946840816237</value></backazimuth><phaseHint>P</phaseHint><evaluationMode>automatic</evaluationMode><comment><text>851.4289456290339</text><id>DFX:rectilinearity</id></comment><comment><text>27.044796634233016</text><id>SNR</id></comment></pick><pick publicID="de.gempa.tb1.Pick/20250413183009.947066.133139"><time><value>2025-04-13T18:29:52.78Z</value></time><waveformID networkCode="CX" stationCode="PB19" channelCode="HHN"/><filterID>ITAPER(2)&gt;&gt;BW(3,3,20)</filterID><methodID>L2-AIC-GRID</methodID><horizontalSlowness><value>16.77389925177994</value></horizontalSlowness><backazimuth><value>153.05875219483727</value></backazimuth><phaseHint>S</phaseHint><evaluationMode>automatic</evaluationMode><comment><text>7065.79951647451</text><id>DFX:rectilinearity</id></comment><comment><text>de.gempa.tb1.Pick/20250413182943.509312.133120</text><id>RefPickID</id></comment><comment><text>5.566879364664825</text><id>SNR</id></comment></pick><pick publicID="de.gempa.tb1.Pick/20250413183013.814188.133141"><time><value>2025-04-13T18:29:39.898391Z</value></time><waveformID networkCode="CX" stationCode="PB07" channelCode="HHZ"/><filterID>ITAPER(4)&gt;&gt;BW(4,4,20)</filterID><methodID>AIC</methodID><horizontalSlowness><value>17.156722497913396</value></horizontalSlowness><backazimuth><value>197.84610017720442</value></backazimuth><phaseHint>P</phaseHint><evaluationMode>automatic</evaluationMode><comment><text>21775.442789609646</text><id>DFX:rectilinearity</id></comment><comment><text>55.60686749684938</text><id>SNR</id></comment></pick><origin publicID="de.gempa.tb1.Origin/20250413183015.12971.117296"><time><value>2025-04-13T18:29:16.960173Z</value><uncertainty>0.35239678621292114</uncertainty></time><latitude><value>-22.948991775512695</value><uncertainty>2.4144439697265625</uncertainty></latitude><longitude><value>-69.82263946533203</value><uncertainty>2.523038625717163</uncertainty></longitude><depth><value>9.65577507019043</value><uncertainty>6.892828464508057</uncertainty></depth><depthType>from location</depthType><methodID>LOCSAT</methodID><earthModelID>iasp91_scanloc</earthModelID><quality><associatedPhaseCount>10</associatedPhaseCount><usedPhaseCount>10</usedPhaseCount><associatedStationCount>7</associatedStationCount><usedStationCount>7</usedStationCount><depthPhaseCount>0</depthPhaseCount><standardError>0.3689131401639235</standardError><azimuthalGap>127.2248077392578</azimuthalGap><maximumDistance>1.266803741455078</maximumDistance><minimumDistance>0.33483371138572693</minimumDistance><medianDistance>0.898549497127533</medianDistance></quality><uncertainty><minHorizontalUncertainty>5.050408363342285</minHorizontalUncertainty><maxHorizontalUncertainty>5.528737545013428</maxHorizontalUncertainty><azimuthMaxHorizontalUncertainty>120.42179107666016</azimuthMaxHorizontalUncertainty><preferredDescription>horizontal uncertainty</preferredDescription></uncertainty><evaluationMode>automatic</evaluationMode><evaluationStatus>confirmed</evaluationStatus><comment><text>0.00</text><id>mismatchScore</id></comment><comment><text>mismatchScore</text><id>scevalMethod</id></comment><arrival><pickID>de.gempa.tb1.Pick/20250413182929.509424.133107</pickID><phase>P</phase><azimuth>43.75416564941406</azimuth><distance>0.33483371138572693</distance><timeResidual>0.5352339744567871</timeResidual><timeUsed>true</timeUsed><horizontalSlownessUsed>false</horizontalSlownessUsed><backazimuthUsed>false</backazimuthUsed><weight>1</weight></arrival><arrival><pickID>de.gempa.tb1.Pick/20250413182931.684597.133109</pickID><phase>P</phase><azimuth>128.62158203125</azimuth><distance>0.4141852557659149</distance><timeResidual>-0.12606239318847656</timeResidual><timeUsed>true</timeUsed><horizontalSlownessUsed>false</horizontalSlownessUsed><backazimuthUsed>false</backazimuthUsed><weight>1</weight></arrival><arrival><pickID>de.gempa.tb1.Pick/20250413182938.175487.133113</pickID><phase>P</phase><azimuth>229.99461364746094</azimuth><distance>0.8765525817871094</distance><timeResidual>-0.4941310882568359</timeResidual><timeUsed>true</timeUsed><horizontalSlownessUsed>false</horizontalSlownessUsed><backazimuthUsed>false</backazimuthUsed><weight>1</weight></arrival><arrival><pickID>de.gempa.tb1.Pick/20250413182938.516503.133115</pickID><phase>P</phase><azimuth>4.117607593536377</azimuth><distance>0.898549497127533</distance><timeResidual>-0.32787513732910156</timeResidual><timeUsed>true</timeUsed><horizontalSlownessUsed>false</horizontalSlownessUsed><backazimuthUsed>false</backazimuthUsed><weight>1</weight></arrival><arrival><pickID>de.gempa.tb1.Pick/20250413182939.831102.133117</pickID><phase>S</phase><azimuth>128.62158203125</azimuth><distance>0.4141852557659149</distance><timeResidual>-0.08618927001953125</timeResidual><timeUsed>true</timeUsed><horizontalSlownessUsed>false</horizontalSlownessUsed><backazimuthUsed>false</backazimuthUsed><weight>1</weight></arrival><arrival><pickID>de.gempa.tb1.Pick/20250413182943.509312.133120</pickID><phase>P</phase><azimuth>152.9189453125</azimuth><distance>1.0695452690124512</distance><timeResidual>-0.4685068130493164</timeResidual><timeUsed>true</timeUsed><horizontalSlownessUsed>false</horizontalSlownessUsed><backazimuthUsed>false</backazimuthUsed><weight>1</weight></arrival><arrival><pickID>de.gempa.tb1.Pick/20250413182953.211306.133129</pickID><phase>S</phase><azimuth>229.99461364746094</azimuth><distance>0.8765525817871094</distance><timeResidual>0.4935722351074219</timeResidual><timeUsed>true</timeUsed><horizontalSlownessUsed>false</horizontalSlownessUsed><backazimuthUsed>false</backazimuthUsed><weight>1</weight></arrival><arrival><pickID>de.gempa.tb1.Pick/20250413182954.446716.133130</pickID><phase>P</phase><azimuth>25.217775344848633</azimuth><distance>1.266803741455078</distance><timeResidual>0.32642364501953125</timeResidual><timeUsed>true</timeUsed><horizontalSlownessUsed>false</horizontalSlownessUsed><backazimuthUsed>false</backazimuthUsed><weight>1</weight></arrival><arrival><pickID>de.gempa.tb1.Pick/20250413183009.947066.133139</pickID><phase>S</phase><azimuth>152.9189453125</azimuth><distance>1.0695452690124512</distance><timeResidual>0.3176918029785156</timeResidual><timeUsed>true</timeUsed><horizontalSlownessUsed>false</horizontalSlownessUsed><backazimuthUsed>false</backazimuthUsed><weight>1</weight></arrival><arrival><pickID>de.gempa.tb1.Pick/20250413183013.814188.133141</pickID><phase>P</phase><azimuth>357.21942138671875</azimuth><distance>1.217906355857849</distance><timeResidual>-0.17003822326660156</timeResidual><timeUsed>true</timeUsed><horizontalSlownessUsed>false</horizontalSlownessUsed><backazimuthUsed>false</backazimuthUsed><weight>1</weight></arrival><magnitude publicID="de.gempa.tb1.Magnitude/20250413183015.137663.389358"><magnitude><value>2.509574594370265</value></magnitude><type>M</type><methodID>weighted average</methodID><stationCount>7</stationCount></magnitude></origin><event publicID="gempa2025hhvf"><preferredOriginID>de.gempa.tb1.Origin/20250413183015.12971.117296</preferredOriginID><preferredMagnitudeID>de.gempa.tb1.Magnitude/20250413183015.137663.389358</preferredMagnitudeID><description><text>Northern Chile</text><type>region name</type></description><originReference>de.gempa.tb1.Origin/20250413183015.12971.117296</originReference></event></EventParameters></seiscomp>