<?xml version="1.0" encoding="UTF-8"?>
<seiscomp xmlns="http://geofon.gfz-potsdam.de/ns/seiscomp3-schema/0.13" version="0.13"><EventParameters><pick publicID="de.gempa.tb1.Pick/20250414030942.679908.135264"><time><value>2025-04-14T03:09:35.628393Z</value></time><waveformID networkCode="CX" stationCode="PB06" channelCode="HHZ"/><filterID>ITAPER(4)&gt;&gt;BW(4,4,20)</filterID><methodID>AIC</methodID><horizontalSlowness><value>14.362210856817152</value></horizontalSlowness><backazimuth><value>152.97204185872897</value></backazimuth><phaseHint>P</phaseHint><evaluationMode>automatic</evaluationMode><comment><text>58.87474663887085</text><id>DFX:rectilinearity</id></comment><comment><text>13.648275056151595</text><id>SNR</id></comment></pick><pick publicID="de.gempa.tb1.Pick/20250414030944.632403.135266"><time><value>2025-04-14T03:09:39.39Z</value></time><waveformID networkCode="CX" stationCode="PB19" channelCode="HHZ"/><filterID>ITAPER(4)&gt;&gt;BW(4,4,20)</filterID><methodID>AIC</methodID><horizontalSlowness><value>23.174547302037215</value></horizontalSlowness><backazimuth><value>44.906244475845227</value></backazimuth><phaseHint>P</phaseHint><evaluationMode>automatic</evaluationMode><comment><text>24.35225613404138</text><id>DFX:rectilinearity</id></comment><comment><text>11.739195317526113</text><id>SNR</id></comment></pick><pick publicID="de.gempa.tb1.Pick/20250414031003.535467.135272"><time><value>2025-04-14T03:09:54.478393Z</value></time><waveformID networkCode="CX" stationCode="PB06" channelCode="HHN"/><filterID>ITAPER(2)&gt;&gt;BW(3,3,20)</filterID><methodID>L2-AIC-GRID</methodID><horizontalSlowness><value>13.544866866278548</value></horizontalSlowness><backazimuth><value>270.0188382869331</value></backazimuth><phaseHint>S</phaseHint><evaluationMode>automatic</evaluationMode><comment><text>135.56784516387705</text><id>DFX:rectilinearity</id></comment><comment><text>de.gempa.tb1.Pick/20250414030942.679908.135264</text><id>RefPickID</id></comment><comment><text>9.05228107535064</text><id>SNR</id></comment></pick><pick publicID="de.gempa.tb1.Pick/20250414031008.515151.135280"><time><value>2025-04-14T03:10:00.66Z</value></time><waveformID networkCode="CX" stationCode="PB19" channelCode="HHN"/><filterID>ITAPER(2)&gt;&gt;BW(3,3,20)</filterID><methodID>L2-AIC-GRID</methodID><horizontalSlowness><value>19.5185499847864</value></horizontalSlowness><backazimuth><value>50.67835343306052</value></backazimuth><phaseHint>S</phaseHint><evaluationMode>automatic</evaluationMode><comment><text>158.170815532347</text><id>DFX:rectilinearity</id></comment><comment><text>de.gempa.tb1.Pick/20250414030944.632403.135266</text><id>RefPickID</id></comment><comment><text>7.512706176864145</text><id>SNR</id></comment></pick><origin publicID="de.gempa.tb1.Origin/20250414031008.52456.125127"><time><value>2025-04-14T03:09:10.464905Z</value><uncertainty>1.843353509902954</uncertainty></time><latitude><value>-22.783905029296875</value><uncertainty>8.52625560760498</uncertainty></latitude><longitude><value>-68.13883209228516</value><uncertainty>8.192094802856445</uncertainty></longitude><depth><value>0</value></depth><depthType>operator assigned</depthType><methodID>LOCSAT</methodID><earthModelID>iasp91_scanloc</earthModelID><quality><associatedPhaseCount>4</associatedPhaseCount><usedPhaseCount>4</usedPhaseCount><associatedStationCount>2</associatedStationCount><usedStationCount>2</usedStationCount><depthPhaseCount>0</depthPhaseCount><standardError>0.1958952946757849</standardError><azimuthalGap>310.18365478515625</azimuthalGap><maximumDistance>1.5380057096481323</maximumDistance><minimumDistance>1.3252016305923462</minimumDistance><medianDistance>1.5380057096481323</medianDistance></quality><uncertainty><minHorizontalUncertainty>11.220086097717285</minHorizontalUncertainty><maxHorizontalUncertainty>22.741703033447266</maxHorizontalUncertainty><azimuthMaxHorizontalUncertainty>43.1172981262207</azimuthMaxHorizontalUncertainty><preferredDescription>horizontal uncertainty</preferredDescription></uncertainty><evaluationMode>automatic</evaluationMode><arrival><pickID>de.gempa.tb1.Pick/20250414030942.679908.135264</pickID><phase>P</phase><azimuth>273.08734130859375</azimuth><distance>1.3252016305923462</distance><timeResidual>-0.2440776824951172</timeResidual><timeUsed>true</timeUsed><horizontalSlownessUsed>false</horizontalSlownessUsed><backazimuthUsed>false</backazimuthUsed><weight>1</weight></arrival><arrival><pickID>de.gempa.tb1.Pick/20250414030944.632403.135266</pickID><phase>P</phase><azimuth>223.27099609375</azimuth><distance>1.5380057096481323</distance><timeResidual>0.2392597198486328</timeResidual><timeUsed>true</timeUsed><horizontalSlownessUsed>false</horizontalSlownessUsed><backazimuthUsed>false</backazimuthUsed><weight>1</weight></arrival><arrival><pickID>de.gempa.tb1.Pick/20250414031003.535467.135272</pickID><phase>S</phase><azimuth>273.08734130859375</azimuth><distance>1.3252016305923462</distance><timeResidual>0.1377410888671875</timeResidual><timeUsed>true</timeUsed><horizontalSlownessUsed>false</horizontalSlownessUsed><backazimuthUsed>false</backazimuthUsed><weight>1</weight></arrival><arrival><pickID>de.gempa.tb1.Pick/20250414031008.515151.135280</pickID><phase>S</phase><azimuth>223.27099609375</azimuth><distance>1.5380057096481323</distance><timeResidual>-0.1330718994140625</timeResidual><timeUsed>true</timeUsed><horizontalSlownessUsed>false</horizontalSlownessUsed><backazimuthUsed>false</backazimuthUsed><weight>1</weight></arrival><magnitude publicID="de.gempa.tb1.Magnitude/20250414031058.596219.422811"><magnitude><value>2.4267553625744744</value></magnitude><type>M</type><methodID>weighted average</methodID><stationCount>2</stationCount></magnitude></origin><event publicID="gempa2025himo"><preferredOriginID>de.gempa.tb1.Origin/20250414031008.52456.125127</preferredOriginID><preferredMagnitudeID>de.gempa.tb1.Magnitude/20250414031058.596219.422811</preferredMagnitudeID><typeCertainty>suspected</typeCertainty><description><text>Northern Chile</text><type>region name</type></description><originReference>de.gempa.tb1.Origin/20250414031008.52456.125127</originReference></event></EventParameters></seiscomp>