<?xml version="1.0" encoding="UTF-8"?>
<seiscomp xmlns="http://geofon.gfz-potsdam.de/ns/seiscomp3-schema/0.13" version="0.13"><EventParameters><pick publicID="de.gempa.tb1.Pick/20250413012046.527963.127974"><time><value>2025-04-13T01:20:41.438393Z</value></time><waveformID networkCode="CX" stationCode="PB01" channelCode="HHZ"/><filterID>ITAPER(4)&gt;&gt;BW(4,4,20)</filterID><methodID>AIC</methodID><horizontalSlowness><value>18.90416014411215</value></horizontalSlowness><backazimuth><value>258.12000071672446</value></backazimuth><phaseHint>P</phaseHint><evaluationMode>automatic</evaluationMode><comment><text>31.936808042483026</text><id>DFX:rectilinearity</id></comment><comment><text>9.647659936632868</text><id>SNR</id></comment></pick><pick publicID="de.gempa.tb1.Pick/20250413012050.534546.127976"><time><value>2025-04-13T01:20:45.438393Z</value></time><waveformID networkCode="CX" stationCode="PB02" channelCode="HHZ"/><filterID>ITAPER(4)&gt;&gt;BW(4,4,20)</filterID><methodID>AIC</methodID><horizontalSlowness><value>2.99539883222011</value></horizontalSlowness><backazimuth><value>341.5351253219576</value></backazimuth><phaseHint>P</phaseHint><evaluationMode>automatic</evaluationMode><comment><text>86.689990730841</text><id>DFX:rectilinearity</id></comment><comment><text>11.635459627846252</text><id>SNR</id></comment></pick><pick publicID="de.gempa.tb1.Pick/20250413012054.179751.127978"><time><value>2025-04-13T01:20:46.378394Z</value></time><waveformID networkCode="CX" stationCode="PB07" channelCode="HHZ"/><filterID>ITAPER(4)&gt;&gt;BW(4,4,20)</filterID><methodID>AIC</methodID><horizontalSlowness><value>22.9256615409887</value></horizontalSlowness><backazimuth><value>304.9136047333471</value></backazimuth><phaseHint>P</phaseHint><evaluationMode>automatic</evaluationMode><comment><text>207.91022736567007</text><id>DFX:rectilinearity</id></comment><comment><text>25.234679106321344</text><id>SNR</id></comment></pick><pick publicID="de.gempa.tb1.Pick/20250413012054.850562.127980"><time><value>2025-04-13T01:20:46.918393Z</value></time><waveformID networkCode="CX" stationCode="PB03" channelCode="HHZ"/><filterID>ITAPER(4)&gt;&gt;BW(4,4,20)</filterID><methodID>AIC</methodID><horizontalSlowness><value>14.3577555173968</value></horizontalSlowness><backazimuth><value>356.5480588994973</value></backazimuth><phaseHint>P</phaseHint><evaluationMode>automatic</evaluationMode><comment><text>11.459815542962854</text><id>DFX:rectilinearity</id></comment><comment><text>16.5224896590502</text><id>SNR</id></comment></pick><pick publicID="de.gempa.tb1.Pick/20250413012059.305542.127982"><time><value>2025-04-13T01:20:42.21Z</value></time><waveformID networkCode="CX" stationCode="PB09" channelCode="HHZ"/><filterID>ITAPER(4)&gt;&gt;BW(4,4,20)</filterID><methodID>AIC</methodID><horizontalSlowness><value>13.704944423661823</value></horizontalSlowness><backazimuth><value>62.22240285889804</value></backazimuth><phaseHint>P</phaseHint><evaluationMode>automatic</evaluationMode><comment><text>61.01097819940019</text><id>DFX:rectilinearity</id></comment><comment><text>42.34926406792799</text><id>SNR</id></comment></pick><origin publicID="de.gempa.tb1.Origin/20250413012100.070502.97142"><time><value>2025-04-13T01:20:34.104316Z</value><uncertainty>0.8119227886199951</uncertainty></time><latitude><value>-21.418073654174805</value><uncertainty>3.8820197582244873</uncertainty></latitude><longitude><value>-69.3138427734375</value><uncertainty>6.714940547943115</uncertainty></longitude><depth><value>0</value></depth><depthType>operator assigned</depthType><methodID>LOCSAT</methodID><earthModelID>iasp91_scanloc</earthModelID><quality><associatedPhaseCount>5</associatedPhaseCount><usedPhaseCount>5</usedPhaseCount><associatedStationCount>5</associatedStationCount><usedStationCount>5</usedStationCount><depthPhaseCount>0</depthPhaseCount><standardError>0.894298841444786</standardError><azimuthalGap>193.4292755126953</azimuthalGap><maximumDistance>0.7485499978065491</maximumDistance><minimumDistance>0.38235732913017273</minimumDistance><medianDistance>0.5513944625854492</medianDistance></quality><uncertainty><minHorizontalUncertainty>7.695245742797852</minHorizontalUncertainty><maxHorizontalUncertainty>14.750712394714355</maxHorizontalUncertainty><azimuthMaxHorizontalUncertainty>75.35658264160156</azimuthMaxHorizontalUncertainty><preferredDescription>horizontal uncertainty</preferredDescription></uncertainty><evaluationMode>automatic</evaluationMode><evaluationStatus>confirmed</evaluationStatus><comment><text>0.00</text><id>mismatchScore</id></comment><comment><text>mismatchScore</text><id>scevalMethod</id></comment><arrival><pickID>de.gempa.tb1.Pick/20250413012046.527963.127974</pickID><phase>P</phase><azimuth>336.5027160644531</azimuth><distance>0.4066151976585388</distance><timeResidual>-0.4658670425415039</timeResidual><timeUsed>true</timeUsed><horizontalSlownessUsed>false</horizontalSlownessUsed><backazimuthUsed>false</backazimuthUsed><weight>1</weight></arrival><arrival><pickID>de.gempa.tb1.Pick/20250413012050.534546.127976</pickID><phase>P</phase><azimuth>280.1170959472656</azimuth><distance>0.5513944625854492</distance><timeResidual>0.757476806640625</timeResidual><timeUsed>true</timeUsed><horizontalSlownessUsed>false</horizontalSlownessUsed><backazimuthUsed>false</backazimuthUsed><weight>1</weight></arrival><arrival><pickID>de.gempa.tb1.Pick/20250413012054.179751.127978</pickID><phase>P</phase><azimuth>239.9347839355469</azimuth><distance>0.6148945093154907</distance><timeResidual>0.479973316192627</timeResidual><timeUsed>true</timeUsed><horizontalSlownessUsed>false</horizontalSlownessUsed><backazimuthUsed>false</backazimuthUsed><weight>1</weight></arrival><arrival><pickID>de.gempa.tb1.Pick/20250413012054.850562.127980</pickID><phase>P</phase><azimuth>212.9846649169922</azimuth><distance>0.7485499978065491</distance><timeResidual>-1.543318748474121</timeResidual><timeUsed>true</timeUsed><horizontalSlownessUsed>false</horizontalSlownessUsed><backazimuthUsed>false</backazimuthUsed><weight>1</weight></arrival><arrival><pickID>de.gempa.tb1.Pick/20250413012059.305542.127982</pickID><phase>P</phase><azimuth>169.93199157714844</azimuth><distance>0.38235732913017273</distance><timeResidual>0.7719078063964844</timeResidual><timeUsed>true</timeUsed><horizontalSlownessUsed>false</horizontalSlownessUsed><backazimuthUsed>false</backazimuthUsed><weight>1</weight></arrival><magnitude publicID="de.gempa.tb1.Magnitude/20250413012140.636939.298467"><magnitude><value>2.1553975319098542</value></magnitude><type>M</type><methodID>weighted average</methodID><stationCount>5</stationCount></magnitude></origin><event publicID="gempa2025hgmx"><preferredOriginID>de.gempa.tb1.Origin/20250413012100.070502.97142</preferredOriginID><preferredMagnitudeID>de.gempa.tb1.Magnitude/20250413012140.636939.298467</preferredMagnitudeID><typeCertainty>suspected</typeCertainty><description><text>Northern Chile</text><type>region name</type></description><originReference>de.gempa.tb1.Origin/20250413012100.070502.97142</originReference></event></EventParameters></seiscomp>