<?xml version="1.0" encoding="UTF-8"?>
<seiscomp xmlns="http://geofon.gfz-potsdam.de/ns/seiscomp3-schema/0.13" version="0.13"><EventParameters><pick publicID="de.gempa.tb1.Pick/20250411095526.714935.122385"><time><value>2025-04-11T09:55:25.015Z</value></time><waveformID networkCode="CH" stationCode="VDL" channelCode="HHZ"/><filterID>ITAPER(4)&gt;&gt;BW(4,4,20)</filterID><methodID>AIC</methodID><phaseHint>P</phaseHint><evaluationMode>automatic</evaluationMode></pick><pick publicID="de.gempa.tb1.Pick/20250411095532.06889.122393"><time><value>2025-04-11T09:55:29.539998Z</value></time><waveformID networkCode="CH" stationCode="DAVOX" channelCode="HHZ"/><filterID>ITAPER(4)&gt;&gt;BW(4,4,20)</filterID><methodID>AIC</methodID><phaseHint>P</phaseHint><evaluationMode>automatic</evaluationMode></pick><pick publicID="de.gempa.tb1.Pick/20250411095533.351544.122396"><time><value>2025-04-11T09:55:29.89Z</value></time><waveformID networkCode="CH" stationCode="BERNI" channelCode="HHZ"/><filterID>ITAPER(4)&gt;&gt;BW_HP(4,4)</filterID><methodID>AIC</methodID><phaseHint>P</phaseHint><evaluationMode>automatic</evaluationMode></pick><pick publicID="de.gempa.tb1.Pick/20250411095534.305634.122398"><time><value>2025-04-11T09:55:30.91Z</value></time><waveformID networkCode="CH" stationCode="PANIX" channelCode="HHZ"/><filterID>ITAPER(4)&gt;&gt;BW(4,4,20)</filterID><methodID>AIC</methodID><phaseHint>P</phaseHint><evaluationMode>automatic</evaluationMode></pick><pick publicID="de.gempa.tb1.Pick/20250411095534.623219.122400"><time><value>2025-04-11T09:55:32.695Z</value></time><waveformID networkCode="CH" stationCode="FUORN" channelCode="HHZ"/><filterID>ITAPER(4)&gt;&gt;BW(4,4,20)</filterID><methodID>AIC</methodID><phaseHint>P</phaseHint><evaluationMode>automatic</evaluationMode></pick><pick publicID="de.gempa.tb1.Pick/20250411095536.399637.122406"><time><value>2025-04-11T09:55:33.585Z</value></time><waveformID networkCode="CH" stationCode="NALPS" channelCode="HHZ"/><filterID>ITAPER(4)&gt;&gt;BW(4,4,20)</filterID><methodID>AIC</methodID><phaseHint>P</phaseHint><evaluationMode>automatic</evaluationMode></pick><pick publicID="de.gempa.tb1.Pick/20250411095540.583331.122413"><time><value>2025-04-11T09:55:34.72Z</value></time><waveformID networkCode="CH" stationCode="BERNI" channelCode="HHN"/><filterID>RMHP(1)&gt;&gt;ITAPER(2)&gt;&gt;BW(2,3,9.0)</filterID><methodID>L2-AIC-GRID</methodID><phaseHint>S</phaseHint><evaluationMode>automatic</evaluationMode><comment><text>de.gempa.tb1.Pick/20250411095533.351544.122396</text><id>RefPickID</id></comment></pick><pick publicID="de.gempa.tb1.Pick/20250411095545.198777.122418"><time><value>2025-04-11T09:55:39.388393Z</value></time><waveformID networkCode="CH" stationCode="GRIMS" channelCode="HHZ"/><filterID>ITAPER(4)&gt;&gt;BW(4,4,20)</filterID><methodID>AIC</methodID><phaseHint>P</phaseHint><evaluationMode>automatic</evaluationMode></pick><pick publicID="de.gempa.tb1.Pick/20250411095545.457638.122422"><time><value>2025-04-11T09:55:39.88Z</value></time><waveformID networkCode="CH" stationCode="FUORN" channelCode="HHN"/><filterID>RMHP(1)&gt;&gt;ITAPER(2)&gt;&gt;BW(4,3,20)</filterID><methodID>L2-AIC-GRID</methodID><phaseHint>S</phaseHint><evaluationMode>automatic</evaluationMode><comment><text>de.gempa.tb1.Pick/20250411095534.623219.122400</text><id>RefPickID</id></comment></pick><pick publicID="de.gempa.tb1.Pick/20250411095546.455891.122423"><time><value>2025-04-11T09:55:41.165Z</value></time><waveformID networkCode="CH" stationCode="NALPS" channelCode="HHN"/><filterID>RMHP(1)&gt;&gt;ITAPER(2)&gt;&gt;BW(4,3,20)</filterID><methodID>L2-AIC-GRID</methodID><phaseHint>S</phaseHint><evaluationMode>automatic</evaluationMode><comment><text>de.gempa.tb1.Pick/20250411095536.399637.122406</text><id>RefPickID</id></comment></pick><pick publicID="de.gempa.tb1.Pick/20250411095557.141312.122432"><time><value>2025-04-11T09:55:49.53Z</value></time><waveformID networkCode="CH" stationCode="SENIN" channelCode="HHZ"/><filterID>ITAPER(4)&gt;&gt;BW(4,4,20)</filterID><methodID>AIC</methodID><phaseHint>P</phaseHint><evaluationMode>automatic</evaluationMode></pick><pick publicID="de.gempa.tb1.Pick/20250411095602.134649.122439"><time><value>2025-04-11T09:55:55.02Z</value></time><waveformID networkCode="CH" stationCode="BOURR" channelCode="HHZ"/><filterID>ITAPER(4)&gt;&gt;BW(4,4,20)</filterID><methodID>AIC</methodID><phaseHint>P</phaseHint><evaluationMode>automatic</evaluationMode></pick><pick publicID="de.gempa.tb1.Pick/20250411095605.490333.122447"><time><value>2025-04-11T09:56:01.515Z</value></time><waveformID networkCode="CH" stationCode="GIMEL" channelCode="HHZ"/><filterID>ITAPER(4)&gt;&gt;BW(4,4,20)</filterID><methodID>AIC</methodID><phaseHint>P</phaseHint><evaluationMode>automatic</evaluationMode></pick><origin publicID="de.gempa.tb1.Origin/20250411095605.492696.59412"><time><value>2025-04-11T09:55:22.763501Z</value><uncertainty>0.3764028251171112</uncertainty></time><latitude><value>46.52930450439453</value><uncertainty>4.2529468536376953</uncertainty></latitude><longitude><value>9.542213439941406</value><uncertainty>1.707497477531433</uncertainty></longitude><depth><value>3.1814205646514893</value><uncertainty>2.330855369567871</uncertainty></depth><depthType>from location</depthType><methodID>LOCSAT</methodID><earthModelID>iasp91</earthModelID><quality><associatedPhaseCount>13</associatedPhaseCount><usedPhaseCount>13</usedPhaseCount><associatedStationCount>10</associatedStationCount><usedStationCount>10</usedStationCount><depthPhaseCount>0</depthPhaseCount><standardError>0.43193025694145754</standardError><azimuthalGap>125.22227478027344</azimuthalGap><maximumDistance>2.262076139450073</maximumDistance><minimumDistance>0.07889412343502045</minimumDistance><medianDistance>0.5058273077011108</medianDistance></quality><uncertainty><minHorizontalUncertainty>3.658421516418457</minHorizontalUncertainty><maxHorizontalUncertainty>9.119709014892578</maxHorizontalUncertainty><azimuthMaxHorizontalUncertainty>0.9450215697288513</azimuthMaxHorizontalUncertainty><preferredDescription>horizontal uncertainty</preferredDescription></uncertainty><evaluationMode>automatic</evaluationMode><evaluationStatus>confirmed</evaluationStatus><comment><text>0.54</text><id>mismatchScore</id></comment><comment><text>extendedGap</text><id>scevalMethod</id></comment><arrival><pickID>de.gempa.tb1.Pick/20250411095526.714935.122385</pickID><phase>P</phase><azimuth>234.2433319091797</azimuth><distance>0.07889412343502045</distance><timeResidual>0.18523240089416504</timeResidual><timeUsed>true</timeUsed><horizontalSlownessUsed>false</horizontalSlownessUsed><backazimuthUsed>false</backazimuthUsed><weight>1</weight></arrival><arrival><pickID>de.gempa.tb1.Pick/20250411095532.06889.122393</pickID><phase>P</phase><azimuth>42.635169982910156</azimuth><distance>0.3422406315803528</distance><timeResidual>-0.17847871780395508</timeResidual><timeUsed>true</timeUsed><horizontalSlownessUsed>false</horizontalSlownessUsed><backazimuthUsed>false</backazimuthUsed><weight>1</weight></arrival><arrival><pickID>de.gempa.tb1.Pick/20250411095533.351544.122396</pickID><phase>P</phase><azimuth>109.02105712890625</azimuth><distance>0.3519228398799896</distance><timeResidual>-0.00898599624633789</timeResidual><timeUsed>true</timeUsed><horizontalSlownessUsed>false</horizontalSlownessUsed><backazimuthUsed>false</backazimuthUsed><weight>1</weight></arrival><arrival><pickID>de.gempa.tb1.Pick/20250411095534.305634.122398</pickID><phase>P</phase><azimuth>315.1684875488281</azimuth><distance>0.41929200291633606</distance><timeResidual>-0.2389259338378906</timeResidual><timeUsed>true</timeUsed><horizontalSlownessUsed>false</horizontalSlownessUsed><backazimuthUsed>false</backazimuthUsed><weight>1</weight></arrival><arrival><pickID>de.gempa.tb1.Pick/20250411095534.623219.122400</pickID><phase>P</phase><azimuth>79.38102722167969</azimuth><distance>0.5058273077011108</distance><timeResidual>-0.06096696853637695</timeResidual><timeUsed>true</timeUsed><horizontalSlownessUsed>false</horizontalSlownessUsed><backazimuthUsed>false</backazimuthUsed><weight>1</weight></arrival><arrival><pickID>de.gempa.tb1.Pick/20250411095536.399637.122406</pickID><phase>P</phase><azimuth>277.14031982421875</azimuth><distance>0.5517526268959045</distance><timeResidual>-0.023671627044677734</timeResidual><timeUsed>true</timeUsed><horizontalSlownessUsed>false</horizontalSlownessUsed><backazimuthUsed>false</backazimuthUsed><weight>1</weight></arrival><arrival><pickID>de.gempa.tb1.Pick/20250411095540.583331.122413</pickID><phase>S</phase><azimuth>109.02105712890625</azimuth><distance>0.3519228398799896</distance><timeResidual>-0.0397028923034668</timeResidual><timeUsed>true</timeUsed><horizontalSlownessUsed>false</horizontalSlownessUsed><backazimuthUsed>false</backazimuthUsed><weight>1</weight></arrival><arrival><pickID>de.gempa.tb1.Pick/20250411095545.198777.122418</pickID><phase>P</phase><azimuth>273.75482177734375</azimuth><distance>0.8456443548202515</distance><timeResidual>0.3232712745666504</timeResidual><timeUsed>true</timeUsed><horizontalSlownessUsed>false</horizontalSlownessUsed><backazimuthUsed>false</backazimuthUsed><weight>1</weight></arrival><arrival><pickID>de.gempa.tb1.Pick/20250411095545.457638.122422</pickID><phase>S</phase><azimuth>79.38102722167969</azimuth><distance>0.5058273077011108</distance><timeResidual>0.1748976707458496</timeResidual><timeUsed>true</timeUsed><horizontalSlownessUsed>false</horizontalSlownessUsed><backazimuthUsed>false</backazimuthUsed><weight>1</weight></arrival><arrival><pickID>de.gempa.tb1.Pick/20250411095546.455891.122423</pickID><phase>S</phase><azimuth>277.14031982421875</azimuth><distance>0.5517526268959045</distance><timeResidual>-0.01615762710571289</timeResidual><timeUsed>true</timeUsed><horizontalSlownessUsed>false</horizontalSlownessUsed><backazimuthUsed>false</backazimuthUsed><weight>1</weight></arrival><arrival><pickID>de.gempa.tb1.Pick/20250411095557.141312.122432</pickID><phase>P</phase><azimuth>264.7012939453125</azimuth><distance>1.5596932172775269</distance><timeResidual>-1.2378029823303223</timeResidual><timeUsed>true</timeUsed><horizontalSlownessUsed>false</horizontalSlownessUsed><backazimuthUsed>false</backazimuthUsed><weight>1</weight></arrival><arrival><pickID>de.gempa.tb1.Pick/20250411095602.134649.122439</pickID><phase>P</phase><azimuth>299.4789733886719</azimuth><distance>1.804251790046692</distance><timeResidual>0.5580763816833496</timeResidual><timeUsed>true</timeUsed><horizontalSlownessUsed>false</horizontalSlownessUsed><backazimuthUsed>false</backazimuthUsed><weight>1</weight></arrival><arrival><pickID>de.gempa.tb1.Pick/20250411095605.490333.122447</pickID><phase>P</phase><azimuth>271.2952880859375</azimuth><distance>2.262076139450073</distance><timeResidual>0.5631899833679199</timeResidual><timeUsed>true</timeUsed><horizontalSlownessUsed>false</horizontalSlownessUsed><backazimuthUsed>false</backazimuthUsed><weight>1</weight></arrival><magnitude publicID="de.gempa.tb1.Magnitude/20250411095615.243175.114379"><magnitude><value>1.595103022237149</value></magnitude><type>M</type><methodID>weighted average</methodID><stationCount>8</stationCount></magnitude></origin><event publicID="gempa2025hdmb"><preferredOriginID>de.gempa.tb1.Origin/20250411095605.492696.59412</preferredOriginID><preferredMagnitudeID>de.gempa.tb1.Magnitude/20250411095615.243175.114379</preferredMagnitudeID><description><text>Switzerland</text><type>region name</type></description><originReference>de.gempa.tb1.Origin/20250411095605.492696.59412</originReference></event></EventParameters></seiscomp>