<?xml version="1.0" encoding="UTF-8"?>
<seiscomp xmlns="http://geofon.gfz-potsdam.de/ns/seiscomp3-schema/0.13" version="0.13"><EventParameters><pick publicID="de.gempa.tb1.Pick/20250413065821.567212.129633"><time><value>2025-04-13T06:58:16.058393Z</value></time><waveformID networkCode="CX" stationCode="PB02" channelCode="HHZ"/><filterID>ITAPER(4)&gt;&gt;BW(4,4,20)</filterID><methodID>AIC</methodID><horizontalSlowness><value>11.064042917799798</value></horizontalSlowness><backazimuth><value>272.5921527231481</value></backazimuth><phaseHint>P</phaseHint><evaluationMode>automatic</evaluationMode><comment><text>27.839313818683674</text><id>DFX:rectilinearity</id></comment><comment><text>12.84841829875921</text><id>SNR</id></comment></pick><pick publicID="de.gempa.tb1.Pick/20250413065824.537414.129635"><time><value>2025-04-13T06:58:13.428393Z</value></time><waveformID networkCode="CX" stationCode="PB01" channelCode="HHZ"/><filterID>ITAPER(4)&gt;&gt;BW(4,4,20)</filterID><methodID>AIC</methodID><horizontalSlowness><value>14.160371505503944</value></horizontalSlowness><backazimuth><value>318.4220881600382</value></backazimuth><phaseHint>P</phaseHint><evaluationMode>automatic</evaluationMode><comment><text>9.48903510270732</text><id>DFX:rectilinearity</id></comment><comment><text>10.443806685426857</text><id>SNR</id></comment></pick><pick publicID="de.gempa.tb1.Pick/20250413065825.418245.129637"><time><value>2025-04-13T06:58:15.488393Z</value></time><waveformID networkCode="CX" stationCode="PB07" channelCode="HHZ"/><filterID>ITAPER(4)&gt;&gt;BW(4,4,20)</filterID><methodID>AIC</methodID><horizontalSlowness><value>20.510325713431623</value></horizontalSlowness><backazimuth><value>117.01156992830437</value></backazimuth><phaseHint>P</phaseHint><evaluationMode>automatic</evaluationMode><comment><text>199.61778377097255</text><id>DFX:rectilinearity</id></comment><comment><text>27.04364741286594</text><id>SNR</id></comment></pick><pick publicID="de.gempa.tb1.Pick/20250413065837.567418.129639"><time><value>2025-04-13T06:58:31.228393Z</value></time><waveformID networkCode="CX" stationCode="PB01" channelCode="HHN"/><filterID>ITAPER(2)&gt;&gt;BW(3,3,20)</filterID><methodID>L2-AIC-GRID</methodID><horizontalSlowness><value>21.738278241275882</value></horizontalSlowness><backazimuth><value>120.82667705011484</value></backazimuth><phaseHint>S</phaseHint><evaluationMode>automatic</evaluationMode><comment><text>27.12046315396647</text><id>DFX:rectilinearity</id></comment><comment><text>de.gempa.tb1.Pick/20250413065824.537414.129635</text><id>RefPickID</id></comment><comment><text>6.580099923186305</text><id>SNR</id></comment></pick><origin publicID="de.gempa.tb1.Origin/20250413065843.549558.103614"><time><value>2025-04-13T06:57:50.413863Z</value><uncertainty>2.2702081203460693</uncertainty></time><latitude><value>-21.654834747314453</value><uncertainty>32.65793991088867</uncertainty></latitude><longitude><value>-68.48210906982422</value><uncertainty>49.15352249145508</uncertainty></longitude><depth><value>116.91748809814453</value><uncertainty>61.62005615234375</uncertainty></depth><depthType>from location</depthType><methodID>LOCSAT</methodID><earthModelID>iasp91_scanloc</earthModelID><quality><associatedPhaseCount>4</associatedPhaseCount><usedPhaseCount>4</usedPhaseCount><associatedStationCount>3</associatedStationCount><usedStationCount>3</usedStationCount><depthPhaseCount>0</depthPhaseCount><standardError>0.000414607098478297</standardError><azimuthalGap>323.79132080078125</azimuthalGap><maximumDistance>1.3583855628967285</maximumDistance><minimumDistance>1.1173995733261108</minimumDistance><medianDistance>1.3077903985977173</medianDistance></quality><uncertainty><minHorizontalUncertainty>48.67941665649414</minHorizontalUncertainty><maxHorizontalUncertainty>116.83623504638672</maxHorizontalUncertainty><azimuthMaxHorizontalUncertainty>118.3061065673828</azimuthMaxHorizontalUncertainty><preferredDescription>horizontal uncertainty</preferredDescription></uncertainty><evaluationMode>automatic</evaluationMode><arrival><pickID>de.gempa.tb1.Pick/20250413065821.567212.129633</pickID><phase>P</phase><azimuth>283.9519958496094</azimuth><distance>1.3583855628967285</distance><timeResidual>-0.00069427490234375</timeResidual><timeUsed>true</timeUsed><horizontalSlownessUsed>false</horizontalSlownessUsed><backazimuthUsed>false</backazimuthUsed><weight>1</weight></arrival><arrival><pickID>de.gempa.tb1.Pick/20250413065824.537414.129635</pickID><phase>P</phase><azimuth>302.8175048828125</azimuth><distance>1.1173995733261108</distance><timeResidual>0.00034332275390625</timeResidual><timeUsed>true</timeUsed><horizontalSlownessUsed>false</horizontalSlownessUsed><backazimuthUsed>false</backazimuthUsed><weight>1</weight></arrival><arrival><pickID>de.gempa.tb1.Pick/20250413065825.418245.129637</pickID><phase>P</phase><azimuth>266.60882568359375</azimuth><distance>1.3077903985977173</distance><timeResidual>0.0002803802490234375</timeResidual><timeUsed>true</timeUsed><horizontalSlownessUsed>false</horizontalSlownessUsed><backazimuthUsed>false</backazimuthUsed><weight>1</weight></arrival><arrival><pickID>de.gempa.tb1.Pick/20250413065837.567418.129639</pickID><phase>S</phase><azimuth>302.8175048828125</azimuth><distance>1.1173995733261108</distance><timeResidual>-9.5367431640625e-05</timeResidual><timeUsed>true</timeUsed><horizontalSlownessUsed>false</horizontalSlownessUsed><backazimuthUsed>false</backazimuthUsed><weight>1</weight></arrival></origin><event publicID="gempa2025hgye"><preferredOriginID>de.gempa.tb1.Origin/20250413065843.549558.103614</preferredOriginID><typeCertainty>suspected</typeCertainty><description><text>Chile-Bolivia Border Region</text><type>region name</type></description><originReference>de.gempa.tb1.Origin/20250413065843.549558.103614</originReference></event></EventParameters></seiscomp>