<?xml version="1.0" encoding="UTF-8"?>
<seiscomp xmlns="http://geofon.gfz-potsdam.de/ns/seiscomp3-schema/0.13" version="0.13"><EventParameters><pick publicID="de.gempa.tb1.Pick/20250411222705.75822.118642"><time><value>2025-04-11T22:25:45.894536Z</value></time><waveformID networkCode="GE" stationCode="PMG" locationCode="00" channelCode="BHZ"/><filterID>BW(4,0.7,2)</filterID><methodID>AIC</methodID><horizontalSlowness><value>17.376106903015472</value></horizontalSlowness><backazimuth><value>359.2586499466981</value></backazimuth><phaseHint>P</phaseHint><evaluationMode>automatic</evaluationMode><comment><text>506828.6644380059</text><id>DFX:rectilinearity</id></comment></pick><pick publicID="de.gempa.tb1.Pick/20250411222915.466107.118647"><time><value>2025-04-11T22:28:35.969538Z</value></time><waveformID networkCode="GE" stationCode="BNDI" channelCode="BHZ"/><filterID>BW(4,0.7,2)</filterID><methodID>AIC</methodID><horizontalSlowness><value>11.868015368231003</value></horizontalSlowness><backazimuth><value>358.05482080540355</value></backazimuth><phaseHint>P</phaseHint><evaluationMode>automatic</evaluationMode><comment><text>8844.560650739486</text><id>DFX:rectilinearity</id></comment></pick><pick publicID="de.gempa.tb1.Pick/20250411223006.539916.118650"><time><value>2025-04-11T22:29:40.22186Z</value></time><waveformID networkCode="GE" stationCode="SOEI" channelCode="BHZ"/><filterID>BW(4,0.7,2)</filterID><methodID>AIC</methodID><horizontalSlowness><value>10.371249141087118</value></horizontalSlowness><backazimuth><value>269.58967752619714</value></backazimuth><phaseHint>P</phaseHint><evaluationMode>automatic</evaluationMode><comment><text>8853.982518990908</text><id>DFX:rectilinearity</id></comment></pick><pick publicID="de.gempa.tb1.Pick/20250411223008.626914.118652"><time><value>2025-04-11T22:29:54.969538Z</value></time><waveformID networkCode="GE" stationCode="MMRI" channelCode="BHZ"/><filterID>BW(4,0.7,2)</filterID><methodID>AIC</methodID><horizontalSlowness><value>3.904347195625599</value></horizontalSlowness><backazimuth><value>326.6045805320688</value></backazimuth><phaseHint>P</phaseHint><evaluationMode>automatic</evaluationMode><comment><text>14819.417020348825</text><id>DFX:rectilinearity</id></comment></pick><pick publicID="de.gempa.tb1.Pick/20250411223022.448324.118655"><time><value>2025-04-11T22:29:55.119539Z</value></time><waveformID networkCode="GE" stationCode="LUWI" channelCode="BHZ"/><filterID>BW(4,0.7,2)</filterID><methodID>AIC</methodID><horizontalSlowness><value>3.76304360039451</value></horizontalSlowness><backazimuth><value>61.9020320729557</value></backazimuth><phaseHint>P</phaseHint><evaluationMode>automatic</evaluationMode><comment><text>871.818101907678</text><id>DFX:rectilinearity</id></comment></pick><pick publicID="de.gempa.tb1.Pick/20250411223248.268192.118664"><time><value>2025-04-11T22:32:35.973131Z</value></time><waveformID networkCode="NZ" stationCode="TMVZ" locationCode="10" channelCode="HHZ"/><filterID>BW(4,0.7,2)</filterID><methodID>AIC</methodID><horizontalSlowness><value>13.669927350287434</value></horizontalSlowness><backazimuth><value>180.58084972984753</value></backazimuth><phaseHint>P</phaseHint><evaluationMode>automatic</evaluationMode><comment><text>4815.2264758985</text><id>DFX:rectilinearity</id></comment></pick><pick publicID="de.gempa.tb1.Pick/20250411223249.269858.118666"><time><value>2025-04-11T22:32:36.59Z</value></time><waveformID networkCode="NZ" stationCode="TRVZ" locationCode="10" channelCode="HHZ"/><filterID>BW(4,0.7,2)</filterID><methodID>AIC</methodID><horizontalSlowness><value>6.073406406711785</value></horizontalSlowness><backazimuth><value>333.95514186608477</value></backazimuth><phaseHint>P</phaseHint><evaluationMode>automatic</evaluationMode><comment><text>277.06983819611287</text><id>DFX:rectilinearity</id></comment></pick><pick publicID="de.gempa.tb1.Pick/20250411223249.77032.118668"><time><value>2025-04-11T22:32:36.14Z</value></time><waveformID networkCode="NZ" stationCode="OTVZ" locationCode="10" channelCode="HHZ"/><filterID>BW(4,0.7,2)</filterID><methodID>AIC</methodID><horizontalSlowness><value>18.607901817922013</value></horizontalSlowness><backazimuth><value>202.97551447412556</value></backazimuth><phaseHint>P</phaseHint><evaluationMode>automatic</evaluationMode><comment><text>3126.5696081317683</text><id>DFX:rectilinearity</id></comment></pick><pick publicID="de.gempa.tb1.Pick/20250411223249.771851.118670"><time><value>2025-04-11T22:32:36.05Z</value></time><waveformID networkCode="NZ" stationCode="FWVZ" locationCode="10" channelCode="HHZ"/><filterID>BW(4,0.7,2)</filterID><methodID>AIC</methodID><horizontalSlowness><value>1.306243556044417</value></horizontalSlowness><backazimuth><value>329.96969312249195</value></backazimuth><phaseHint>P</phaseHint><evaluationMode>automatic</evaluationMode><comment><text>250.15614338964616</text><id>DFX:rectilinearity</id></comment></pick><origin publicID="de.gempa.tb1.Origin/20250411223311.340049.73109"><time><value>2025-04-11T22:24:50.832635Z</value><uncertainty>3.306713819503784</uncertainty></time><latitude><value>-5.759505748748779</value><uncertainty>34.59244155883789</uncertainty></latitude><longitude><value>146.3239288330078</value><uncertainty>19.00038719177246</uncertainty></longitude><depth><value>103.71004486083984</value><uncertainty>20.452381134033203</uncertainty></depth><depthType>from location</depthType><methodID>LOCSAT</methodID><earthModelID>iasp91</earthModelID><quality><associatedPhaseCount>9</associatedPhaseCount><usedPhaseCount>9</usedPhaseCount><associatedStationCount>9</associatedStationCount><usedStationCount>9</usedStationCount><depthPhaseCount>0</depthPhaseCount><standardError>0.8468041750732086</standardError><azimuthalGap>225.2007293701172</azimuthalGap><maximumDistance>42.5504150390625</maximumDistance><minimumDistance>3.7182676792144775</minimumDistance><medianDistance>24.063915252685547</medianDistance></quality><uncertainty><minHorizontalUncertainty>9.617639541625977</minHorizontalUncertainty><maxHorizontalUncertainty>84.10655212402344</maxHorizontalUncertainty><azimuthMaxHorizontalUncertainty>28.293216705322266</azimuthMaxHorizontalUncertainty><preferredDescription>horizontal uncertainty</preferredDescription></uncertainty><evaluationMode>automatic</evaluationMode><comment><text>225.20</text><id>maxGap</id></comment><arrival><pickID>de.gempa.tb1.Pick/20250411222705.75822.118642</pickID><phase>P</phase><azimuth>167.26760864257812</azimuth><distance>3.7182676792144775</distance><timeResidual>-0.41654205322265625</timeResidual><timeUsed>true</timeUsed><horizontalSlownessUsed>false</horizontalSlownessUsed><backazimuthUsed>false</backazimuthUsed><weight>1</weight></arrival><arrival><pickID>de.gempa.tb1.Pick/20250411222915.466107.118647</pickID><phase>P</phase><azimuth>273.5322570800781</azimuth><distance>16.399602890014648</distance><timeResidual>0.9620628356933594</timeResidual><timeUsed>true</timeUsed><horizontalSlownessUsed>false</horizontalSlownessUsed><backazimuthUsed>false</backazimuthUsed><weight>1</weight></arrival><arrival><pickID>de.gempa.tb1.Pick/20250411223006.539916.118650</pickID><phase>P</phase><azimuth>258.3343200683594</azimuth><distance>22.208171844482422</distance><timeResidual>1.243663787841797</timeResidual><timeUsed>true</timeUsed><horizontalSlownessUsed>false</horizontalSlownessUsed><backazimuthUsed>false</backazimuthUsed><weight>1</weight></arrival><arrival><pickID>de.gempa.tb1.Pick/20250411223008.626914.118652</pickID><phase>P</phase><azimuth>261.76055908203125</azimuth><distance>24.063915252685547</distance><timeResidual>-1.7569007873535156</timeResidual><timeUsed>true</timeUsed><horizontalSlownessUsed>false</horizontalSlownessUsed><backazimuthUsed>false</backazimuthUsed><weight>1</weight></arrival><arrival><pickID>de.gempa.tb1.Pick/20250411223022.448324.118655</pickID><phase>P</phase><azimuth>280.4101257324219</azimuth><distance>23.966726303100586</distance><timeResidual>-0.7314338684082031</timeResidual><timeUsed>true</timeUsed><horizontalSlownessUsed>false</horizontalSlownessUsed><backazimuthUsed>false</backazimuthUsed><weight>1</weight></arrival><arrival><pickID>de.gempa.tb1.Pick/20250411223248.268192.118664</pickID><phase>P</phase><azimuth>145.61085510253906</azimuth><distance>42.5109748840332</distance><timeResidual>0.08387374877929688</timeResidual><timeUsed>true</timeUsed><horizontalSlownessUsed>false</horizontalSlownessUsed><backazimuthUsed>false</backazimuthUsed><weight>1</weight></arrival><arrival><pickID>de.gempa.tb1.Pick/20250411223249.269858.118666</pickID><phase>P</phase><azimuth>145.93038940429688</azimuth><distance>42.5504150390625</distance><timeResidual>0.3847465515136719</timeResidual><timeUsed>true</timeUsed><horizontalSlownessUsed>false</horizontalSlownessUsed><backazimuthUsed>false</backazimuthUsed><weight>1</weight></arrival><arrival><pickID>de.gempa.tb1.Pick/20250411223249.77032.118668</pickID><phase>P</phase><azimuth>145.6925811767578</azimuth><distance>42.521907806396484</distance><timeResidual>0.16309738159179688</timeResidual><timeUsed>true</timeUsed><horizontalSlownessUsed>false</horizontalSlownessUsed><backazimuthUsed>false</backazimuthUsed><weight>1</weight></arrival><arrival><pickID>de.gempa.tb1.Pick/20250411223249.771851.118670</pickID><phase>P</phase><azimuth>145.8797149658203</azimuth><distance>42.522804260253906</distance><timeResidual>0.06754684448242188</timeResidual><timeUsed>true</timeUsed><horizontalSlownessUsed>false</horizontalSlownessUsed><backazimuthUsed>false</backazimuthUsed><weight>1</weight></arrival><magnitude publicID="de.gempa.tb1.Magnitude/20250411223311.346836.148705"><magnitude><value>5.088899810919594</value></magnitude><type>M</type><methodID>weighted average</methodID><stationCount>6</stationCount></magnitude></origin><event publicID="gempa2025hela"><preferredOriginID>de.gempa.tb1.Origin/20250411223311.340049.73109</preferredOriginID><preferredMagnitudeID>de.gempa.tb1.Magnitude/20250411223311.346836.148705</preferredMagnitudeID><type>not locatable</type><description><text>Papua New Guinea Region</text><type>region name</type></description><originReference>de.gempa.tb1.Origin/20250411223311.340049.73109</originReference></event></EventParameters></seiscomp>