<?xml version="1.0" encoding="UTF-8"?>
<seiscomp xmlns="http://geofon.gfz-potsdam.de/ns/seiscomp3-schema/0.13" version="0.13"><EventParameters><pick publicID="de.gempa.tb1.Pick/20250415011840.650602.142628"><time><value>2025-04-15T01:18:34.938393Z</value></time><waveformID networkCode="CX" stationCode="PB03" channelCode="HHZ"/><filterID>ITAPER(4)&gt;&gt;BW(4,4,20)</filterID><methodID>AIC</methodID><horizontalSlowness><value>3.0384804748405356</value></horizontalSlowness><backazimuth><value>208.85167641248532</value></backazimuth><phaseHint>P</phaseHint><evaluationMode>automatic</evaluationMode><comment><text>11.605893907310962</text><id>DFX:rectilinearity</id></comment><comment><text>7.69963880564536</text><id>SNR</id></comment></pick><pick publicID="de.gempa.tb1.Pick/20250415011848.752743.142632"><time><value>2025-04-15T01:18:44.498394Z</value></time><waveformID networkCode="CX" stationCode="PB15" channelCode="HHZ"/><filterID>ITAPER(4)&gt;&gt;BW(4,4,20)</filterID><methodID>AIC</methodID><horizontalSlowness><value>22.53865256440069</value></horizontalSlowness><backazimuth><value>38.71466432202564</value></backazimuth><phaseHint>P</phaseHint><evaluationMode>automatic</evaluationMode><comment><text>4357.83866142885</text><id>DFX:rectilinearity</id></comment><comment><text>18.227558991848635</text><id>SNR</id></comment></pick><pick publicID="de.gempa.tb1.Pick/20250415011854.60569.142634"><time><value>2025-04-15T01:18:43.248393Z</value></time><waveformID networkCode="CX" stationCode="PB06" channelCode="HHN"/><filterID>ITAPER(2)&gt;&gt;BW(3,3,20)</filterID><methodID>L2-AIC-GRID</methodID><horizontalSlowness><value>22.08879059029583</value></horizontalSlowness><backazimuth><value>292.33389903114676</value></backazimuth><phaseHint>S</phaseHint><evaluationMode>automatic</evaluationMode><comment><text>76.90625365966619</text><id>DFX:rectilinearity</id></comment><comment><text>de.gempa.tb1.Pick/20250415011838.578909.142626</text><id>RefPickID</id></comment><comment><text>26.101701579215696</text><id>SNR</id></comment></pick><pick publicID="de.gempa.tb1.Pick/20250415011857.773516.142635"><time><value>2025-04-15T01:18:35.1Z</value></time><waveformID networkCode="CX" stationCode="PB09" channelCode="HHZ"/><filterID>ITAPER(4)&gt;&gt;BW(4,4,20)</filterID><methodID>AIC</methodID><horizontalSlowness><value>14.207336799191836</value></horizontalSlowness><backazimuth><value>271.47469074495405</value></backazimuth><phaseHint>P</phaseHint><evaluationMode>automatic</evaluationMode><comment><text>20.594643102519804</text><id>DFX:rectilinearity</id></comment><comment><text>15.796569026064297</text><id>SNR</id></comment></pick><pick publicID="de.gempa.tb1.Pick/20250415011901.571078.142638"><time><value>2025-04-15T01:18:54.43Z</value></time><waveformID networkCode="CX" stationCode="PB19" channelCode="HHZ"/><filterID>ITAPER(4)&gt;&gt;BW(4,4,20)</filterID><methodID>AIC</methodID><horizontalSlowness><value>22.99797347171255</value></horizontalSlowness><backazimuth><value>32.46471265456597</value></backazimuth><phaseHint>P</phaseHint><evaluationMode>automatic</evaluationMode><comment><text>44.013683818309246</text><id>DFX:rectilinearity</id></comment><comment><text>9.677412343881327</text><id>SNR</id></comment></pick><pick publicID="de.gempa.tb1.Pick/20250415011939.572785.142641"><time><value>2025-04-15T01:18:39.038393Z</value></time><waveformID networkCode="CX" stationCode="PB07" channelCode="HHZ"/><filterID>ITAPER(4)&gt;&gt;BW(4,4,20)</filterID><methodID>AIC</methodID><horizontalSlowness><value>22.161456367883464</value></horizontalSlowness><backazimuth><value>327.9820134852846</value></backazimuth><phaseHint>P</phaseHint><evaluationMode>automatic</evaluationMode><comment><text>233.53395469700834</text><id>DFX:rectilinearity</id></comment><comment><text>27.447109928985245</text><id>SNR</id></comment></pick><origin publicID="de.gempa.tb1.Origin/20250415011940.561266.157209"><time><value>2025-04-15T01:18:26.013565Z</value><uncertainty>0.5656079649925232</uncertainty></time><latitude><value>-22.234376907348633</value><uncertainty>2.8117849826812744</uncertainty></latitude><longitude><value>-69.36624145507812</value><uncertainty>6.771230697631836</uncertainty></longitude><depth><value>18.010540008544922</value><uncertainty>6.651834011077881</uncertainty></depth><depthType>from location</depthType><methodID>LOCSAT</methodID><earthModelID>iasp91_scanloc</earthModelID><quality><associatedPhaseCount>6</associatedPhaseCount><usedPhaseCount>6</usedPhaseCount><associatedStationCount>6</associatedStationCount><usedStationCount>6</usedStationCount><depthPhaseCount>0</depthPhaseCount><standardError>0.3540946973372576</standardError><azimuthalGap>162.76928901672363</azimuthalGap><maximumDistance>1.6640844345092773</maximumDistance><minimumDistance>0.4035746455192566</minimumDistance><medianDistance>0.6986950635910034</medianDistance></quality><uncertainty><minHorizontalUncertainty>5.94826078414917</minHorizontalUncertainty><maxHorizontalUncertainty>14.55573844909668</maxHorizontalUncertainty><azimuthMaxHorizontalUncertainty>94.27949523925781</azimuthMaxHorizontalUncertainty><preferredDescription>horizontal uncertainty</preferredDescription></uncertainty><evaluationMode>automatic</evaluationMode><evaluationStatus>confirmed</evaluationStatus><comment><text>0.12</text><id>mismatchScore</id></comment><comment><text>mismatchScore</text><id>scevalMethod</id></comment><arrival><pickID>de.gempa.tb1.Pick/20250415011840.650602.142628</pickID><phase>P</phase><azimuth>297.21368408203125</azimuth><distance>0.4035746455192566</distance><timeResidual>0.5883903503417969</timeResidual><timeUsed>true</timeUsed><horizontalSlownessUsed>false</horizontalSlownessUsed><backazimuthUsed>false</backazimuthUsed><weight>1</weight></arrival><arrival><pickID>de.gempa.tb1.Pick/20250415011848.752743.142632</pickID><phase>P</phase><azimuth>185.6736602783203</azimuth><distance>0.9741747379302979</distance><timeResidual>0.14185523986816406</timeResidual><timeUsed>true</timeUsed><horizontalSlownessUsed>false</horizontalSlownessUsed><backazimuthUsed>false</backazimuthUsed><weight>1</weight></arrival><arrival><pickID>de.gempa.tb1.Pick/20250415011854.60569.142634</pickID><phase>S</phase><azimuth>202.02891540527344</azimuth><distance>0.5062703490257263</distance><timeResidual>-0.2810382843017578</timeResidual><timeUsed>true</timeUsed><horizontalSlownessUsed>false</horizontalSlownessUsed><backazimuthUsed>false</backazimuthUsed><weight>1</weight></arrival><arrival><pickID>de.gempa.tb1.Pick/20250415011857.773516.142635</pickID><phase>P</phase><azimuth>14.847639083862305</azimuth><distance>0.4508910477161407</distance><timeResidual>-0.0805673599243164</timeResidual><timeUsed>true</timeUsed><horizontalSlownessUsed>false</horizontalSlownessUsed><backazimuthUsed>false</backazimuthUsed><weight>1</weight></arrival><arrival><pickID>de.gempa.tb1.Pick/20250415011901.571078.142638</pickID><phase>P</phase><azimuth>177.61692810058594</azimuth><distance>1.6640844345092773</distance><timeResidual>0.15662193298339844</timeResidual><timeUsed>true</timeUsed><horizontalSlownessUsed>false</horizontalSlownessUsed><backazimuthUsed>false</backazimuthUsed><weight>1</weight></arrival><arrival><pickID>de.gempa.tb1.Pick/20250415011939.572785.142641</pickID><phase>P</phase><azimuth>316.217041015625</azimuth><distance>0.6986950635910034</distance><timeResidual>-0.5253267288208008</timeResidual><timeUsed>true</timeUsed><horizontalSlownessUsed>false</horizontalSlownessUsed><backazimuthUsed>false</backazimuthUsed><weight>1</weight></arrival><magnitude publicID="de.gempa.tb1.Magnitude/20250415011940.565341.558231"><magnitude><value>2.2163100436588277</value></magnitude><type>M</type><methodID>weighted average</methodID><stationCount>5</stationCount></magnitude></origin><event publicID="gempa2025hkex"><preferredOriginID>de.gempa.tb1.Origin/20250415011940.561266.157209</preferredOriginID><preferredMagnitudeID>de.gempa.tb1.Magnitude/20250415011940.565341.558231</preferredMagnitudeID><description><text>Northern Chile</text><type>region name</type></description><originReference>de.gempa.tb1.Origin/20250415011940.561266.157209</originReference></event></EventParameters></seiscomp>