<?xml version="1.0" encoding="UTF-8"?>
<seiscomp xmlns="http://geofon.gfz-potsdam.de/ns/seiscomp3-schema/0.13" version="0.13"><EventParameters><pick publicID="de.gempa.tb1.Pick/20250415084645.877343.118371"><time><value>2025-04-15T08:46:39.718393Z</value></time><waveformID networkCode="CX" stationCode="PB01" channelCode="HHZ"/><filterID>ITAPER(4)&gt;&gt;BW(4,4,20)</filterID><methodID>AIC</methodID><horizontalSlowness><value>18.588481464827947</value></horizontalSlowness><backazimuth><value>339.46486281429225</value></backazimuth><phaseHint>P</phaseHint><evaluationMode>automatic</evaluationMode><comment><text>32.38583703971593</text><id>DFX:rectilinearity</id></comment><comment><text>9.571412758282131</text><id>SNR</id></comment></pick><pick publicID="de.gempa.tb1.Pick/20250415084647.588999.118373"><time><value>2025-04-15T08:46:41.858391Z</value></time><waveformID networkCode="CX" stationCode="PB03" channelCode="HHZ"/><filterID>ITAPER(4)&gt;&gt;BW(4,4,20)</filterID><methodID>AIC</methodID><horizontalSlowness><value>6.729588153699552</value></horizontalSlowness><backazimuth><value>245.89273774822453</value></backazimuth><phaseHint>P</phaseHint><evaluationMode>automatic</evaluationMode><comment><text>8.948458587120877</text><id>DFX:rectilinearity</id></comment><comment><text>13.360102521516467</text><id>SNR</id></comment></pick><pick publicID="de.gempa.tb1.Pick/20250415084653.099873.118375"><time><value>2025-04-15T08:46:37.21Z</value></time><waveformID networkCode="CX" stationCode="PB09" channelCode="HHZ"/><filterID>ITAPER(4)&gt;&gt;BW(4,4,20)</filterID><methodID>AIC</methodID><horizontalSlowness><value>8.71476108676268</value></horizontalSlowness><backazimuth><value>286.1560694859872</value></backazimuth><phaseHint>P</phaseHint><evaluationMode>automatic</evaluationMode><comment><text>17.38476452950249</text><id>DFX:rectilinearity</id></comment><comment><text>19.879846519150256</text><id>SNR</id></comment></pick><pick publicID="de.gempa.tb1.Pick/20250415084701.542704.118377"><time><value>2025-04-15T08:46:54.41Z</value></time><waveformID networkCode="CX" stationCode="PSGCX" channelCode="HHZ"/><filterID>ITAPER(4)&gt;&gt;BW(4,4,20)</filterID><methodID>AIC</methodID><horizontalSlowness><value>18.67744431750884</value></horizontalSlowness><backazimuth><value>256.1528798050422</value></backazimuth><phaseHint>P</phaseHint><evaluationMode>automatic</evaluationMode><comment><text>8.477404925978425</text><id>DFX:rectilinearity</id></comment><comment><text>7.640507538274655</text><id>SNR</id></comment></pick><pick publicID="de.gempa.tb1.Pick/20250415084708.557875.118384"><time><value>2025-04-15T08:46:59.188393Z</value></time><waveformID networkCode="CX" stationCode="PB01" channelCode="HHN"/><filterID>ITAPER(2)&gt;&gt;BW(3,3,20)</filterID><methodID>L2-AIC-GRID</methodID><horizontalSlowness><value>21.832349316499062</value></horizontalSlowness><backazimuth><value>268.86493147320277</value></backazimuth><phaseHint>S</phaseHint><evaluationMode>automatic</evaluationMode><comment><text>139.31848968622322</text><id>DFX:rectilinearity</id></comment><comment><text>de.gempa.tb1.Pick/20250415084645.877343.118371</text><id>RefPickID</id></comment><comment><text>17.01450242657345</text><id>SNR</id></comment></pick><pick publicID="de.gempa.tb1.Pick/20250415084708.68226.118385"><time><value>2025-04-15T08:46:42.328396Z</value></time><waveformID networkCode="CX" stationCode="PB07" channelCode="HHZ"/><filterID>ITAPER(4)&gt;&gt;BW(4,4,20)</filterID><methodID>AIC</methodID><horizontalSlowness><value>22.163741509645082</value></horizontalSlowness><backazimuth><value>30.18183438778547</value></backazimuth><phaseHint>P</phaseHint><evaluationMode>automatic</evaluationMode><comment><text>258.4523464790642</text><id>DFX:rectilinearity</id></comment><comment><text>32.79312380369413</text><id>SNR</id></comment></pick><pick publicID="de.gempa.tb1.Pick/20250415084716.311735.118390"><time><value>2025-04-15T08:47:03.908396Z</value></time><waveformID networkCode="CX" stationCode="PB07" channelCode="HHN"/><filterID>ITAPER(2)&gt;&gt;BW(3,3,20)</filterID><methodID>L2-AIC-GRID</methodID><horizontalSlowness><value>23.29048331173903</value></horizontalSlowness><backazimuth><value>9.80601632623771</value></backazimuth><phaseHint>S</phaseHint><evaluationMode>automatic</evaluationMode><comment><text>1318.2675682025733</text><id>DFX:rectilinearity</id></comment><comment><text>de.gempa.tb1.Pick/20250415084708.68226.118385</text><id>RefPickID</id></comment><comment><text>12.100534046396728</text><id>SNR</id></comment></pick><pick publicID="de.gempa.tb1.Pick/20250415084736.599753.118394"><time><value>2025-04-15T08:47:26.67Z</value></time><waveformID networkCode="CX" stationCode="PSGCX" channelCode="HHN"/><filterID>ITAPER(2)&gt;&gt;BW(3,3,20)</filterID><methodID>L2-AIC-GRID</methodID><horizontalSlowness><value>15.958139609292884</value></horizontalSlowness><backazimuth><value>265.16951460420995</value></backazimuth><phaseHint>S</phaseHint><evaluationMode>automatic</evaluationMode><comment><text>5.991682027985107</text><id>DFX:rectilinearity</id></comment><comment><text>de.gempa.tb1.Pick/20250415084701.542704.118377</text><id>RefPickID</id></comment><comment><text>5.867629375622717</text><id>SNR</id></comment></pick><origin publicID="de.gempa.tb1.Origin/20250415084736.602596.59074"><time><value>2025-04-15T08:46:14.074319Z</value><uncertainty>1.171316146850586</uncertainty></time><latitude><value>-21.505233764648438</value><uncertainty>6.066870212554932</uncertainty></latitude><longitude><value>-68.45991516113281</value><uncertainty>16.68105697631836</uncertainty></longitude><depth><value>151.25747680664062</value><uncertainty>14.833288192749023</uncertainty></depth><depthType>from location</depthType><methodID>LOCSAT</methodID><earthModelID>iasp91_scanloc</earthModelID><quality><associatedPhaseCount>8</associatedPhaseCount><usedPhaseCount>8</usedPhaseCount><associatedStationCount>5</associatedStationCount><usedStationCount>5</usedStationCount><depthPhaseCount>0</depthPhaseCount><standardError>0.16739168112669547</standardError><azimuthalGap>285.22596740722656</azimuthalGap><maximumDistance>2.45617151260376</maximumDistance><minimumDistance>0.7830621004104614</minimumDistance><medianDistance>1.3453235626220703</medianDistance></quality><uncertainty><minHorizontalUncertainty>11.848713874816895</minHorizontalUncertainty><maxHorizontalUncertainty>36.171714782714844</maxHorizontalUncertainty><azimuthMaxHorizontalUncertainty>80.95613861083984</azimuthMaxHorizontalUncertainty><preferredDescription>horizontal uncertainty</preferredDescription></uncertainty><evaluationMode>automatic</evaluationMode><evaluationStatus>confirmed</evaluationStatus><comment><text>0.23</text><id>mismatchScore</id></comment><comment><text>mismatchScore</text><id>scevalMethod</id></comment><arrival><pickID>de.gempa.tb1.Pick/20250415084645.877343.118371</pickID><phase>P</phase><azimuth>295.4420166015625</azimuth><distance>1.0628635883331299</distance><timeResidual>0.21955108642578125</timeResidual><timeUsed>true</timeUsed><horizontalSlownessUsed>false</horizontalSlownessUsed><backazimuthUsed>false</backazimuthUsed><weight>1</weight></arrival><arrival><pickID>de.gempa.tb1.Pick/20250415084647.588999.118373</pickID><phase>P</phase><azimuth>245.5469512939453</azimuth><distance>1.3179601430892944</distance><timeResidual>-0.0122528076171875</timeResidual><timeUsed>true</timeUsed><horizontalSlownessUsed>false</horizontalSlownessUsed><backazimuthUsed>false</backazimuthUsed><weight>1</weight></arrival><arrival><pickID>de.gempa.tb1.Pick/20250415084653.099873.118375</pickID><phase>P</phase><azimuth>248.14215087890625</azimuth><distance>0.7830621004104614</distance><timeResidual>-0.05492210388183594</timeResidual><timeUsed>true</timeUsed><horizontalSlownessUsed>false</horizontalSlownessUsed><backazimuthUsed>false</backazimuthUsed><weight>1</weight></arrival><arrival><pickID>de.gempa.tb1.Pick/20250415084701.542704.118377</pickID><phase>P</phase><azimuth>320.32098388671875</azimuth><distance>2.45617151260376</distance><timeResidual>-0.31755828857421875</timeResidual><timeUsed>true</timeUsed><horizontalSlownessUsed>false</horizontalSlownessUsed><backazimuthUsed>false</backazimuthUsed><weight>1</weight></arrival><arrival><pickID>de.gempa.tb1.Pick/20250415084708.557875.118384</pickID><phase>S</phase><azimuth>295.4420166015625</azimuth><distance>1.0628635883331299</distance><timeResidual>-0.08304214477539062</timeResidual><timeUsed>true</timeUsed><horizontalSlownessUsed>false</horizontalSlownessUsed><backazimuthUsed>false</backazimuthUsed><weight>1</weight></arrival><arrival><pickID>de.gempa.tb1.Pick/20250415084708.68226.118385</pickID><phase>P</phase><azimuth>260.31231689453125</azimuth><distance>1.3453235626220703</distance><timeResidual>0.18438720703125</timeResidual><timeUsed>true</timeUsed><horizontalSlownessUsed>false</horizontalSlownessUsed><backazimuthUsed>false</backazimuthUsed><weight>1</weight></arrival><arrival><pickID>de.gempa.tb1.Pick/20250415084716.311735.118390</pickID><phase>S</phase><azimuth>260.31231689453125</azimuth><distance>1.3453235626220703</distance><timeResidual>-0.08860588073730469</timeResidual><timeUsed>true</timeUsed><horizontalSlownessUsed>false</horizontalSlownessUsed><backazimuthUsed>false</backazimuthUsed><weight>1</weight></arrival><arrival><pickID>de.gempa.tb1.Pick/20250415084736.599753.118394</pickID><phase>S</phase><azimuth>320.32098388671875</azimuth><distance>2.45617151260376</distance><timeResidual>0.15232086181640625</timeResidual><timeUsed>true</timeUsed><horizontalSlownessUsed>false</horizontalSlownessUsed><backazimuthUsed>false</backazimuthUsed><weight>1</weight></arrival><magnitude publicID="de.gempa.tb1.Magnitude/20250415084736.60781.112592"><magnitude><value>1.9430538158939872</value></magnitude><type>M</type><methodID>weighted average</methodID><stationCount>2</stationCount></magnitude></origin><event publicID="gempa2025hktv"><preferredOriginID>de.gempa.tb1.Origin/20250415084736.602596.59074</preferredOriginID><preferredMagnitudeID>de.gempa.tb1.Magnitude/20250415084736.60781.112592</preferredMagnitudeID><description><text>Chile-Bolivia Border Region</text><type>region name</type></description><originReference>de.gempa.tb1.Origin/20250415084736.602596.59074</originReference></event></EventParameters></seiscomp>