<?xml version="1.0" encoding="UTF-8"?>
<seiscomp xmlns="http://geofon.gfz-potsdam.de/ns/seiscomp3-schema/0.13" version="0.13"><EventParameters><pick publicID="de.gempa.tb1.Pick/20250414074440.666647.136592"><time><value>2025-04-14T07:44:33.82Z</value></time><waveformID networkCode="CX" stationCode="PB19" channelCode="HHZ"/><filterID>ITAPER(4)&gt;&gt;BW(4,4,20)</filterID><methodID>AIC</methodID><horizontalSlowness><value>23.16075540255144</value></horizontalSlowness><backazimuth><value>31.79860173681078</value></backazimuth><phaseHint>P</phaseHint><evaluationMode>automatic</evaluationMode><comment><text>19.53133657275594</text><id>DFX:rectilinearity</id></comment><comment><text>17.69702561579668</text><id>SNR</id></comment></pick><pick publicID="de.gempa.tb1.Pick/20250414074448.574844.136594"><time><value>2025-04-14T07:44:39.768393Z</value></time><waveformID networkCode="CX" stationCode="PB06" channelCode="HHZ"/><filterID>ITAPER(4)&gt;&gt;BW(4,4,20)</filterID><methodID>AIC</methodID><horizontalSlowness><value>21.914333683356578</value></horizontalSlowness><backazimuth><value>286.37944658492853</value></backazimuth><phaseHint>P</phaseHint><evaluationMode>automatic</evaluationMode><comment><text>100.98389910263319</text><id>DFX:rectilinearity</id></comment><comment><text>7.191122253621657</text><id>SNR</id></comment></pick><pick publicID="de.gempa.tb1.Pick/20250414074456.222159.136596"><time><value>2025-04-14T07:44:46.44Z</value></time><waveformID networkCode="CX" stationCode="PB10" channelCode="HHZ"/><filterID>ITAPER(4)&gt;&gt;BW(4,4,20)</filterID><methodID>AIC</methodID><horizontalSlowness><value>13.846919253131963</value></horizontalSlowness><backazimuth><value>139.10580176871701</value></backazimuth><phaseHint>P</phaseHint><evaluationMode>automatic</evaluationMode><comment><text>50.8519992213473</text><id>DFX:rectilinearity</id></comment><comment><text>6.96616172453574</text><id>SNR</id></comment></pick><pick publicID="de.gempa.tb1.Pick/20250414074502.793289.136600"><time><value>2025-04-14T07:44:48.648394Z</value></time><waveformID networkCode="CX" stationCode="PB07" channelCode="HHZ"/><filterID>ITAPER(4)&gt;&gt;BW(4,4,20)</filterID><methodID>AIC</methodID><horizontalSlowness><value>23.53568967742466</value></horizontalSlowness><backazimuth><value>263.2221245391418</value></backazimuth><phaseHint>P</phaseHint><evaluationMode>automatic</evaluationMode><comment><text>174.7794592554491</text><id>DFX:rectilinearity</id></comment><comment><text>8.048766202218662</text><id>SNR</id></comment></pick><pick publicID="de.gempa.tb1.Pick/20250414074512.787215.136602"><time><value>2025-04-14T07:45:03.21Z</value></time><waveformID networkCode="CX" stationCode="PB19" channelCode="HHN"/><filterID>ITAPER(2)&gt;&gt;BW(3,3,20)</filterID><methodID>L2-AIC-GRID</methodID><horizontalSlowness><value>20.826133716302632</value></horizontalSlowness><backazimuth><value>108.14842559023879</value></backazimuth><phaseHint>S</phaseHint><evaluationMode>automatic</evaluationMode><comment><text>43.011144791380183</text><id>DFX:rectilinearity</id></comment><comment><text>de.gempa.tb1.Pick/20250414074440.666647.136592</text><id>RefPickID</id></comment><comment><text>6.525448190470559</text><id>SNR</id></comment></pick><pick publicID="de.gempa.tb1.Pick/20250414074525.547554.136608"><time><value>2025-04-14T07:45:13.118393Z</value></time><waveformID networkCode="CX" stationCode="PB06" channelCode="HHN"/><filterID>ITAPER(2)&gt;&gt;BW(3,3,20)</filterID><methodID>L2-AIC-GRID</methodID><horizontalSlowness><value>9.24796481696101</value></horizontalSlowness><backazimuth><value>304.9877029637803</value></backazimuth><phaseHint>S</phaseHint><evaluationMode>automatic</evaluationMode><comment><text>62.32718875659769</text><id>DFX:rectilinearity</id></comment><comment><text>de.gempa.tb1.Pick/20250414074448.574844.136594</text><id>RefPickID</id></comment><comment><text>10.580310439048992</text><id>SNR</id></comment></pick><origin publicID="de.gempa.tb1.Origin/20250414074525.55042.131782"><time><value>2025-04-14T07:43:57.062149Z</value><uncertainty>1.7117058038711548</uncertainty></time><latitude><value>-23.830467224121094</value><uncertainty>11.945982933044434</uncertainty></latitude><longitude><value>-67.38116455078125</value><uncertainty>32.38667297363281</uncertainty></longitude><depth><value>210.655517578125</value><uncertainty>26.06824493408203</uncertainty></depth><depthType>from location</depthType><methodID>LOCSAT</methodID><earthModelID>iasp91_scanloc</earthModelID><quality><associatedPhaseCount>6</associatedPhaseCount><usedPhaseCount>6</usedPhaseCount><associatedStationCount>4</associatedStationCount><usedStationCount>4</usedStationCount><depthPhaseCount>0</depthPhaseCount><standardError>0.11465430351696744</standardError><azimuthalGap>315.51458740234375</azimuthalGap><maximumDistance>3.1190598011016846</maximumDistance><minimumDistance>1.749652862548828</minimumDistance><medianDistance>2.3047077655792236</medianDistance></quality><uncertainty><minHorizontalUncertainty>24.025062561035156</minHorizontalUncertainty><maxHorizontalUncertainty>70.02320861816406</maxHorizontalUncertainty><azimuthMaxHorizontalUncertainty>82.22684478759766</azimuthMaxHorizontalUncertainty><preferredDescription>horizontal uncertainty</preferredDescription></uncertainty><evaluationMode>automatic</evaluationMode><evaluationStatus>confirmed</evaluationStatus><comment><text>0.33</text><id>mismatchScore</id></comment><comment><text>mismatchScore</text><id>scevalMethod</id></comment><arrival><pickID>de.gempa.tb1.Pick/20250414074440.666647.136592</pickID><phase>P</phase><azimuth>267.1928405761719</azimuth><distance>1.749652862548828</distance><timeResidual>-0.15565872192382812</timeResidual><timeUsed>true</timeUsed><horizontalSlownessUsed>false</horizontalSlownessUsed><backazimuthUsed>false</backazimuthUsed><weight>1</weight></arrival><arrival><pickID>de.gempa.tb1.Pick/20250414074448.574844.136594</pickID><phase>P</phase><azimuth>298.6259460449219</azimuth><distance>2.3047077655792236</distance><timeResidual>0.2050018310546875</timeResidual><timeUsed>true</timeUsed><horizontalSlownessUsed>false</horizontalSlownessUsed><backazimuthUsed>false</backazimuthUsed><weight>1</weight></arrival><arrival><pickID>de.gempa.tb1.Pick/20250414074456.222159.136596</pickID><phase>P</phase><azimuth>275.5564880371094</azimuth><distance>2.9260759353637695</distance><timeResidual>0.005237579345703125</timeResidual><timeUsed>true</timeUsed><horizontalSlownessUsed>false</horizontalSlownessUsed><backazimuthUsed>false</backazimuthUsed><weight>1</weight></arrival><arrival><pickID>de.gempa.tb1.Pick/20250414074502.793289.136600</pickID><phase>P</phase><azimuth>311.6782531738281</azimuth><distance>3.1190598011016846</distance><timeResidual>-0.05005645751953125</timeResidual><timeUsed>true</timeUsed><horizontalSlownessUsed>false</horizontalSlownessUsed><backazimuthUsed>false</backazimuthUsed><weight>1</weight></arrival><arrival><pickID>de.gempa.tb1.Pick/20250414074512.787215.136602</pickID><phase>S</phase><azimuth>267.1928405761719</azimuth><distance>1.749652862548828</distance><timeResidual>0.06874847412109375</timeResidual><timeUsed>true</timeUsed><horizontalSlownessUsed>false</horizontalSlownessUsed><backazimuthUsed>false</backazimuthUsed><weight>1</weight></arrival><arrival><pickID>de.gempa.tb1.Pick/20250414074525.547554.136608</pickID><phase>S</phase><azimuth>298.6259460449219</azimuth><distance>2.3047077655792236</distance><timeResidual>-0.07320404052734375</timeResidual><timeUsed>true</timeUsed><horizontalSlownessUsed>false</horizontalSlownessUsed><backazimuthUsed>false</backazimuthUsed><weight>1</weight></arrival></origin><event publicID="gempa2025hivs"><preferredOriginID>de.gempa.tb1.Origin/20250414074525.55042.131782</preferredOriginID><description><text>Chile-Argentina Border Region</text><type>region name</type></description><originReference>de.gempa.tb1.Origin/20250414074525.55042.131782</originReference></event></EventParameters></seiscomp>