<?xml version="1.0" encoding="UTF-8"?>
<seiscomp xmlns="http://geofon.gfz-potsdam.de/ns/seiscomp3-schema/0.13" version="0.13"><EventParameters><pick publicID="de.gempa.tb1.Pick/20250413005914.524273.127867"><time><value>2025-04-13T00:59:08.66Z</value></time><waveformID networkCode="CX" stationCode="PB19" channelCode="HHZ"/><filterID>ITAPER(4)&gt;&gt;BW(4,4,20)</filterID><methodID>AIC</methodID><horizontalSlowness><value>21.391711386325966</value></horizontalSlowness><backazimuth><value>216.93045957201451</value></backazimuth><phaseHint>P</phaseHint><evaluationMode>automatic</evaluationMode><comment><text>19.630338962447748</text><id>DFX:rectilinearity</id></comment><comment><text>10.959821713234904</text><id>SNR</id></comment></pick><pick publicID="de.gempa.tb1.Pick/20250413005922.553897.127869"><time><value>2025-04-13T00:59:16.088393Z</value></time><waveformID networkCode="CX" stationCode="PB06" channelCode="HHZ"/><filterID>ITAPER(4)&gt;&gt;BW(4,4,20)</filterID><methodID>AIC</methodID><horizontalSlowness><value>11.689344606554805</value></horizontalSlowness><backazimuth><value>244.81157135147447</value></backazimuth><phaseHint>P</phaseHint><evaluationMode>automatic</evaluationMode><comment><text>80.35932275055528</text><id>DFX:rectilinearity</id></comment><comment><text>6.226050409565071</text><id>SNR</id></comment></pick><pick publicID="de.gempa.tb1.Pick/20250413005928.550408.127872"><time><value>2025-04-13T00:59:22.398393Z</value></time><waveformID networkCode="CX" stationCode="PB03" channelCode="HHZ"/><filterID>ITAPER(4)&gt;&gt;BW(4,4,20)</filterID><methodID>AIC</methodID><horizontalSlowness><value>11.355893435366841</value></horizontalSlowness><backazimuth><value>106.0892906864682</value></backazimuth><phaseHint>P</phaseHint><evaluationMode>automatic</evaluationMode><comment><text>12.335686286465299</text><id>DFX:rectilinearity</id></comment><comment><text>13.155732975791635</text><id>SNR</id></comment></pick><pick publicID="de.gempa.tb1.Pick/20250413005933.06425.127874"><time><value>2025-04-13T00:59:25.928394Z</value></time><waveformID networkCode="CX" stationCode="PB07" channelCode="HHZ"/><filterID>ITAPER(4)&gt;&gt;BW(4,4,20)</filterID><methodID>AIC</methodID><horizontalSlowness><value>21.087724869015027</value></horizontalSlowness><backazimuth><value>153.06723001332827</value></backazimuth><phaseHint>P</phaseHint><evaluationMode>automatic</evaluationMode><comment><text>279.9040922434233</text><id>DFX:rectilinearity</id></comment><comment><text>17.547130267341824</text><id>SNR</id></comment></pick><pick publicID="de.gempa.tb1.Pick/20250413005943.207487.127878"><time><value>2025-04-13T00:59:21.51Z</value></time><waveformID networkCode="CX" stationCode="PB09" channelCode="HHZ"/><filterID>ITAPER(4)&gt;&gt;BW(4,4,20)</filterID><methodID>AIC</methodID><horizontalSlowness><value>23.577153504708207</value></horizontalSlowness><backazimuth><value>315.83937402116396</value></backazimuth><phaseHint>P</phaseHint><evaluationMode>automatic</evaluationMode><comment><text>14.448796693695742</text><id>DFX:rectilinearity</id></comment><comment><text>14.923802337427444</text><id>SNR</id></comment></pick><pick publicID="de.gempa.tb1.Pick/20250413005946.540553.127882"><time><value>2025-04-13T00:59:37.11Z</value></time><waveformID networkCode="CX" stationCode="PB19" channelCode="HHN"/><filterID>ITAPER(2)&gt;&gt;BW(3,3,20)</filterID><methodID>L2-AIC-GRID</methodID><horizontalSlowness><value>22.052916947587576</value></horizontalSlowness><backazimuth><value>179.30975913133116</value></backazimuth><phaseHint>S</phaseHint><evaluationMode>automatic</evaluationMode><comment><text>143.8916945967317</text><id>DFX:rectilinearity</id></comment><comment><text>de.gempa.tb1.Pick/20250413005914.524273.127867</text><id>RefPickID</id></comment><comment><text>15.556736758119428</text><id>SNR</id></comment></pick><pick publicID="de.gempa.tb1.Pick/20250413005958.670085.127891"><time><value>2025-04-13T00:59:49.778393Z</value></time><waveformID networkCode="CX" stationCode="PB06" channelCode="HHN"/><filterID>ITAPER(2)&gt;&gt;BW(3,3,20)</filterID><methodID>L2-AIC-GRID</methodID><horizontalSlowness><value>16.240263359518774</value></horizontalSlowness><backazimuth><value>312.9736287358951</value></backazimuth><phaseHint>S</phaseHint><evaluationMode>automatic</evaluationMode><comment><text>94.0060732623902</text><id>DFX:rectilinearity</id></comment><comment><text>de.gempa.tb1.Pick/20250413005922.553897.127869</text><id>RefPickID</id></comment><comment><text>16.998586538881373</text><id>SNR</id></comment></pick><pick publicID="de.gempa.tb1.Pick/20250413010009.775457.127895"><time><value>2025-04-13T01:00:00.718393Z</value></time><waveformID networkCode="CX" stationCode="PB03" channelCode="HHN"/><filterID>ITAPER(2)&gt;&gt;BW(3,3,20)</filterID><methodID>L2-AIC-GRID</methodID><horizontalSlowness><value>14.807592815195445</value></horizontalSlowness><backazimuth><value>296.24358506141073</value></backazimuth><phaseHint>S</phaseHint><evaluationMode>automatic</evaluationMode><comment><text>17.866777259720564</text><id>DFX:rectilinearity</id></comment><comment><text>de.gempa.tb1.Pick/20250413005928.550408.127872</text><id>RefPickID</id></comment><comment><text>10.521764963583841</text><id>SNR</id></comment></pick><origin publicID="de.gempa.tb1.Origin/20250413010009.784169.96737"><time><value>2025-04-13T00:58:33.578152Z</value><uncertainty>1.1229016780853271</uncertainty></time><latitude><value>-24.157257080078125</value><uncertainty>13.04902172088623</uncertainty></latitude><longitude><value>-67.78168487548828</value><uncertainty>39.88797378540039</uncertainty></longitude><depth><value>226.4156036376953</value><uncertainty>28.569345474243164</uncertainty></depth><depthType>from location</depthType><methodID>LOCSAT</methodID><earthModelID>iasp91_scanloc</earthModelID><quality><associatedPhaseCount>8</associatedPhaseCount><usedPhaseCount>8</usedPhaseCount><associatedStationCount>5</associatedStationCount><usedStationCount>5</usedStationCount><depthPhaseCount>0</depthPhaseCount><standardError>0.14392033494753287</standardError><azimuthalGap>310.1044616699219</azimuthalGap><maximumDistance>3.1008551120758057</maximumDistance><minimumDistance>1.4024015665054321</minimumDistance><medianDistance>2.7078516483306885</medianDistance></quality><uncertainty><minHorizontalUncertainty>17.860124588012695</minHorizontalUncertainty><maxHorizontalUncertainty>88.20550537109375</maxHorizontalUncertainty><azimuthMaxHorizontalUncertainty>75.55929565429688</azimuthMaxHorizontalUncertainty><preferredDescription>horizontal uncertainty</preferredDescription></uncertainty><evaluationMode>automatic</evaluationMode><evaluationStatus>confirmed</evaluationStatus><comment><text>0.34</text><id>mismatchScore</id></comment><comment><text>mismatchScore</text><id>scevalMethod</id></comment><arrival><pickID>de.gempa.tb1.Pick/20250413005914.524273.127867</pickID><phase>P</phase><azimuth>280.0183410644531</azimuth><distance>1.4024015665054321</distance><timeResidual>-0.28133392333984375</timeResidual><timeUsed>true</timeUsed><horizontalSlownessUsed>false</horizontalSlownessUsed><backazimuthUsed>false</backazimuthUsed><weight>1</weight></arrival><arrival><pickID>de.gempa.tb1.Pick/20250413005922.553897.127869</pickID><phase>P</phase><azimuth>310.9476318359375</azimuth><distance>2.1888091564178467</distance><timeResidual>0.038341522216796875</timeResidual><timeUsed>true</timeUsed><horizontalSlownessUsed>false</horizontalSlownessUsed><backazimuthUsed>false</backazimuthUsed><weight>1</weight></arrival><arrival><pickID>de.gempa.tb1.Pick/20250413005928.550408.127872</pickID><phase>P</phase><azimuth>318.7581481933594</azimuth><distance>2.774883031845093</distance><timeResidual>0.17325592041015625</timeResidual><timeUsed>true</timeUsed><horizontalSlownessUsed>false</horizontalSlownessUsed><backazimuthUsed>false</backazimuthUsed><weight>1</weight></arrival><arrival><pickID>de.gempa.tb1.Pick/20250413005933.06425.127874</pickID><phase>P</phase><azimuth>320.8604431152344</azimuth><distance>3.1008551120758057</distance><timeResidual>0.05428314208984375</timeResidual><timeUsed>true</timeUsed><horizontalSlownessUsed>false</horizontalSlownessUsed><backazimuthUsed>false</backazimuthUsed><weight>1</weight></arrival><arrival><pickID>de.gempa.tb1.Pick/20250413005943.207487.127878</pickID><phase>P</phase><azimuth>329.91387939453125</azimuth><distance>2.7078516483306885</distance><timeResidual>0.01410675048828125</timeResidual><timeUsed>true</timeUsed><horizontalSlownessUsed>false</horizontalSlownessUsed><backazimuthUsed>false</backazimuthUsed><weight>1</weight></arrival><arrival><pickID>de.gempa.tb1.Pick/20250413005946.540553.127882</pickID><phase>S</phase><azimuth>280.0183410644531</azimuth><distance>1.4024015665054321</distance><timeResidual>0.15006637573242188</timeResidual><timeUsed>true</timeUsed><horizontalSlownessUsed>false</horizontalSlownessUsed><backazimuthUsed>false</backazimuthUsed><weight>1</weight></arrival><arrival><pickID>de.gempa.tb1.Pick/20250413005958.670085.127891</pickID><phase>S</phase><azimuth>310.9476318359375</azimuth><distance>2.1888091564178467</distance><timeResidual>0.02027130126953125</timeResidual><timeUsed>true</timeUsed><horizontalSlownessUsed>false</horizontalSlownessUsed><backazimuthUsed>false</backazimuthUsed><weight>1</weight></arrival><arrival><pickID>de.gempa.tb1.Pick/20250413010009.775457.127895</pickID><phase>S</phase><azimuth>318.7581481933594</azimuth><distance>2.774883031845093</distance><timeResidual>-0.17026901245117188</timeResidual><timeUsed>true</timeUsed><horizontalSlownessUsed>false</horizontalSlownessUsed><backazimuthUsed>false</backazimuthUsed><weight>1</weight></arrival><magnitude publicID="de.gempa.tb1.Magnitude/20250413010015.937104.297202"><magnitude><value>3.219723337043903</value></magnitude><type>M</type><methodID>weighted average</methodID><stationCount>3</stationCount></magnitude></origin><event publicID="gempa2025hgme"><preferredOriginID>de.gempa.tb1.Origin/20250413010009.784169.96737</preferredOriginID><preferredMagnitudeID>de.gempa.tb1.Magnitude/20250413010015.937104.297202</preferredMagnitudeID><description><text>Chile-Argentina Border Region</text><type>region name</type></description><originReference>de.gempa.tb1.Origin/20250413010009.784169.96737</originReference></event></EventParameters></seiscomp>