<?xml version="1.0" encoding="UTF-8"?>
<seiscomp xmlns="http://geofon.gfz-potsdam.de/ns/seiscomp3-schema/0.13" version="0.13"><EventParameters><pick publicID="de.gempa.tb1.Pick/20250414144535.069185.266791"><time><value>2025-04-14T14:45:28.57Z</value></time><waveformID networkCode="SX" stationCode="GUNZ" channelCode="HHZ"/><filterID>ITAPER(2)&gt;&gt;BW(3,3,20)</filterID><methodID>AIC</methodID><horizontalSlowness><value>19.735817561830316</value></horizontalSlowness><backazimuth><value>227.14795964584386</value></backazimuth><phaseHint>P</phaseHint><evaluationMode>automatic</evaluationMode><comment><text>4.080907003902861</text><id>DFX:rectilinearity</id></comment></pick><pick publicID="de.gempa.tb1.Pick/20250414144535.485969.266793"><time><value>2025-04-14T14:45:27.6375Z</value></time><waveformID networkCode="SX" stationCode="WERN" channelCode="HHZ"/><filterID>ITAPER(2)&gt;&gt;BW(3,3,20)</filterID><methodID>AIC</methodID><horizontalSlowness><value>18.912788852558553</value></horizontalSlowness><backazimuth><value>315.10453552941294</value></backazimuth><phaseHint>P</phaseHint><evaluationMode>automatic</evaluationMode><comment><text>10.662011646764945</text><id>DFX:rectilinearity</id></comment></pick><pick publicID="de.gempa.tb1.Pick/20250414144536.326136.266795"><time><value>2025-04-14T14:45:29.5Z</value></time><waveformID networkCode="SX" stationCode="ROHR" channelCode="HHZ"/><filterID>ITAPER(2)&gt;&gt;BW(3,3,20)</filterID><methodID>AIC</methodID><horizontalSlowness><value>21.929079457507957</value></horizontalSlowness><backazimuth><value>81.07483344058144</value></backazimuth><phaseHint>P</phaseHint><evaluationMode>automatic</evaluationMode><comment><text>15.993512107534613</text><id>DFX:rectilinearity</id></comment></pick><pick publicID="de.gempa.tb1.Pick/20250414144536.849055.266797"><time><value>2025-04-14T14:45:27.44Z</value></time><waveformID networkCode="SX" stationCode="TANN" channelCode="HHZ"/><filterID>ITAPER(2)&gt;&gt;BW(3,3,20)</filterID><methodID>AIC</methodID><horizontalSlowness><value>12.356373681810608</value></horizontalSlowness><backazimuth><value>46.02607291473967</value></backazimuth><phaseHint>P</phaseHint><evaluationMode>automatic</evaluationMode><comment><text>1.8956702792380926</text><id>DFX:rectilinearity</id></comment></pick><pick publicID="de.gempa.tb1.Pick/20250414144540.425615.266801"><time><value>2025-04-14T14:45:29.89Z</value></time><waveformID networkCode="SX" stationCode="TRIB" channelCode="HHZ"/><filterID>ITAPER(2)&gt;&gt;BW(3,3,20)</filterID><methodID>AIC</methodID><horizontalSlowness><value>18.4640987980754</value></horizontalSlowness><backazimuth><value>141.58679474125307</value></backazimuth><phaseHint>P</phaseHint><evaluationMode>automatic</evaluationMode><comment><text>2.9332224571730015</text><id>DFX:rectilinearity</id></comment></pick><pick publicID="de.gempa.tb1.Pick/20250414144540.852575.266804"><time><value>2025-04-14T14:45:31.25Z</value></time><waveformID networkCode="SX" stationCode="TANN" channelCode="HHN"/><filterID>ITAPER(3)&gt;&gt;BW(4,3,10)</filterID><methodID>L2-AIC-GRID</methodID><horizontalSlowness><value>15.514143888165298</value></horizontalSlowness><backazimuth><value>329.6755857107702</value></backazimuth><phaseHint>S</phaseHint><evaluationMode>automatic</evaluationMode><comment><text>2.979531164970667</text><id>DFX:rectilinearity</id></comment><comment><text>de.gempa.tb1.Pick/20250414144536.849055.266797</text><id>RefPickID</id></comment></pick><pick publicID="de.gempa.tb1.Pick/20250414144543.861788.266807"><time><value>2025-04-14T14:45:30.62Z</value></time><waveformID networkCode="SX" stationCode="GUNZ" channelCode="HHN"/><filterID>ITAPER(3)&gt;&gt;BW(4,3,10)</filterID><methodID>L2-AIC-GRID</methodID><horizontalSlowness><value>20.025807265993922</value></horizontalSlowness><backazimuth><value>227.51309532034006</value></backazimuth><phaseHint>S</phaseHint><evaluationMode>automatic</evaluationMode><comment><text>3.947178875311228</text><id>DFX:rectilinearity</id></comment><comment><text>de.gempa.tb1.Pick/20250414144535.069185.266791</text><id>RefPickID</id></comment></pick><origin publicID="de.gempa.tb1.Origin/20250414144544.850502.237174"><time><value>2025-04-14T14:45:24.00634Z</value><uncertainty>1.5158326625823975</uncertainty></time><latitude><value>50.3468017578125</value><uncertainty>4.918939113616943</uncertainty></latitude><longitude><value>12.4375</value><uncertainty>4.908178806304932</uncertainty></longitude><depth><value>16.766950607299805</value><uncertainty>9.626501083374023</uncertainty></depth><depthType>from location</depthType><methodID>LOCSAT</methodID><earthModelID>iasp91</earthModelID><quality><associatedPhaseCount>7</associatedPhaseCount><usedPhaseCount>7</usedPhaseCount><associatedStationCount>5</associatedStationCount><usedStationCount>5</usedStationCount><depthPhaseCount>0</depthPhaseCount><standardError>0.4097411009070705</standardError><azimuthalGap>201.1045217514038</azimuthalGap><maximumDistance>0.19258347153663635</maximumDistance><minimumDistance>0.06986537575721741</minimumDistance><medianDistance>0.06992116570472717</medianDistance></quality><uncertainty><minHorizontalUncertainty>6.699596881866455</minHorizontalUncertainty><maxHorizontalUncertainty>13.311525344848633</maxHorizontalUncertainty><azimuthMaxHorizontalUncertainty>135.1053009033203</azimuthMaxHorizontalUncertainty><preferredDescription>horizontal uncertainty</preferredDescription></uncertainty><evaluationMode>automatic</evaluationMode><evaluationStatus>confirmed</evaluationStatus><comment><text>0.00</text><id>mismatchScore</id></comment><comment><text>mismatchScore</text><id>scevalMethod</id></comment><arrival><pickID>de.gempa.tb1.Pick/20250414144535.069185.266791</pickID><phase>P</phase><azimuth>283.8847351074219</azimuth><distance>0.06986537575721741</distance><timeResidual>0.5662944316864014</timeResidual><timeUsed>true</timeUsed><horizontalSlownessUsed>false</horizontalSlownessUsed><backazimuthUsed>false</backazimuthUsed><weight>1</weight></arrival><arrival><pickID>de.gempa.tb1.Pick/20250414144535.485969.266793</pickID><phase>P</phase><azimuth>213.5214385986328</azimuth><distance>0.07132077217102051</distance><timeResidual>-0.38980770111083984</timeResidual><timeUsed>true</timeUsed><horizontalSlownessUsed>false</horizontalSlownessUsed><backazimuthUsed>false</backazimuthUsed><weight>1</weight></arrival><arrival><pickID>de.gempa.tb1.Pick/20250414144536.326136.266795</pickID><phase>P</phase><azimuth>214.43338012695312</azimuth><distance>0.13685385882854462</distance><timeResidual>0.42424678802490234</timeResidual><timeUsed>true</timeUsed><horizontalSlownessUsed>false</horizontalSlownessUsed><backazimuthUsed>false</backazimuthUsed><weight>1</weight></arrival><arrival><pickID>de.gempa.tb1.Pick/20250414144536.849055.266797</pickID><phase>P</phase><azimuth>12.416916847229004</azimuth><distance>0.06992116570472717</distance><timeResidual>-0.5644292831420898</timeResidual><timeUsed>true</timeUsed><horizontalSlownessUsed>false</horizontalSlownessUsed><backazimuthUsed>false</backazimuthUsed><weight>1</weight></arrival><arrival><pickID>de.gempa.tb1.Pick/20250414144540.425615.266801</pickID><phase>P</phase><azimuth>271.6643371582031</azimuth><distance>0.19258347153663635</distance><timeResidual>-0.074859619140625</timeResidual><timeUsed>true</timeUsed><horizontalSlownessUsed>false</horizontalSlownessUsed><backazimuthUsed>false</backazimuthUsed><weight>1</weight></arrival><arrival><pickID>de.gempa.tb1.Pick/20250414144540.852575.266804</pickID><phase>S</phase><azimuth>12.416916847229004</azimuth><distance>0.06992116570472717</distance><timeResidual>0.3336296081542969</timeResidual><timeUsed>true</timeUsed><horizontalSlownessUsed>false</horizontalSlownessUsed><backazimuthUsed>false</backazimuthUsed><weight>1</weight></arrival><arrival><pickID>de.gempa.tb1.Pick/20250414144543.861788.266807</pickID><phase>S</phase><azimuth>283.8847351074219</azimuth><distance>0.06986537575721741</distance><timeResidual>-0.2951211929321289</timeResidual><timeUsed>true</timeUsed><horizontalSlownessUsed>false</horizontalSlownessUsed><backazimuthUsed>false</backazimuthUsed><weight>1</weight></arrival><magnitude publicID="de.gempa.tb1.Magnitude/20250414144608.479039.502348"><magnitude><value>0.2567493511276099</value></magnitude><type>M</type><methodID>weighted average</methodID><stationCount>5</stationCount></magnitude></origin><event publicID="gempa2025hjju"><preferredOriginID>de.gempa.tb1.Origin/20250414144544.850502.237174</preferredOriginID><preferredMagnitudeID>de.gempa.tb1.Magnitude/20250414144608.479039.502348</preferredMagnitudeID><description><text>Germany</text><type>region name</type></description><originReference>de.gempa.tb1.Origin/20250414144544.850502.237174</originReference></event></EventParameters></seiscomp>