<?xml version="1.0" encoding="UTF-8"?>
<seiscomp xmlns="http://geofon.gfz-potsdam.de/ns/seiscomp3-schema/0.13" version="0.13"><EventParameters><pick publicID="de.gempa.tb1.Pick/20250412180249.656993.125783"><time><value>2025-04-12T18:02:44.198393Z</value></time><waveformID networkCode="CX" stationCode="PB15" channelCode="HHZ"/><filterID>ITAPER(4)&gt;&gt;BW(4,4,20)</filterID><methodID>AIC</methodID><horizontalSlowness><value>22.040763948857553</value></horizontalSlowness><backazimuth><value>106.4304509986207</value></backazimuth><phaseHint>P</phaseHint><evaluationMode>automatic</evaluationMode><comment><text>192.45459074283283</text><id>DFX:rectilinearity</id></comment><comment><text>23.73096818846435</text><id>SNR</id></comment></pick><pick publicID="de.gempa.tb1.Pick/20250412180250.508724.125785"><time><value>2025-04-12T18:02:43.13Z</value></time><waveformID networkCode="CX" stationCode="PB19" channelCode="HHZ"/><filterID>ITAPER(4)&gt;&gt;BW(4,4,20)</filterID><methodID>AIC</methodID><horizontalSlowness><value>11.107691789952842</value></horizontalSlowness><backazimuth><value>109.85977518728792</value></backazimuth><phaseHint>P</phaseHint><evaluationMode>automatic</evaluationMode><comment><text>74.25891625499058</text><id>DFX:rectilinearity</id></comment><comment><text>66.77779623004176</text><id>SNR</id></comment></pick><pick publicID="de.gempa.tb1.Pick/20250412180254.555373.125787"><time><value>2025-04-12T18:02:47.708393Z</value></time><waveformID networkCode="CX" stationCode="PB06" channelCode="HHZ"/><filterID>ITAPER(4)&gt;&gt;BW(4,4,20)</filterID><methodID>AIC</methodID><horizontalSlowness><value>19.02411406451883</value></horizontalSlowness><backazimuth><value>109.8191473335759</value></backazimuth><phaseHint>P</phaseHint><evaluationMode>automatic</evaluationMode><comment><text>54.76072002065133</text><id>DFX:rectilinearity</id></comment><comment><text>9.412630491707239</text><id>SNR</id></comment></pick><pick publicID="de.gempa.tb1.Pick/20250412180303.301351.125791"><time><value>2025-04-12T18:02:53.490001Z</value></time><waveformID networkCode="CX" stationCode="PB09" channelCode="HHZ"/><filterID>ITAPER(4)&gt;&gt;BW(4,4,20)</filterID><methodID>AIC</methodID><horizontalSlowness><value>20.91780888515306</value></horizontalSlowness><backazimuth><value>82.99433411700153</value></backazimuth><phaseHint>P</phaseHint><evaluationMode>automatic</evaluationMode><comment><text>13.581641577929327</text><id>DFX:rectilinearity</id></comment><comment><text>16.627310722754142</text><id>SNR</id></comment></pick><pick publicID="de.gempa.tb1.Pick/20250412180308.864586.125793"><time><value>2025-04-12T18:03:02.838393Z</value></time><waveformID networkCode="CX" stationCode="PB15" channelCode="HHN"/><filterID>ITAPER(2)&gt;&gt;BW(3,3,20)</filterID><methodID>L2-AIC-GRID</methodID><horizontalSlowness><value>21.98218895228175</value></horizontalSlowness><backazimuth><value>162.80268210623765</value></backazimuth><phaseHint>S</phaseHint><evaluationMode>automatic</evaluationMode><comment><text>7393.51206409507</text><id>DFX:rectilinearity</id></comment><comment><text>de.gempa.tb1.Pick/20250412180249.656993.125783</text><id>RefPickID</id></comment><comment><text>11.462168354222964</text><id>SNR</id></comment></pick><pick publicID="de.gempa.tb1.Pick/20250412180309.577478.125794"><time><value>2025-04-12T18:03:02.218393Z</value></time><waveformID networkCode="CX" stationCode="PB01" channelCode="HHZ"/><filterID>ITAPER(4)&gt;&gt;BW(4,4,20)</filterID><methodID>AIC</methodID><horizontalSlowness><value>20.855012793747868</value></horizontalSlowness><backazimuth><value>356.62597577841723</value></backazimuth><phaseHint>P</phaseHint><evaluationMode>automatic</evaluationMode><comment><text>3.859332288897086</text><id>DFX:rectilinearity</id></comment><comment><text>9.436162297230718</text><id>SNR</id></comment></pick><pick publicID="de.gempa.tb1.Pick/20250412180311.77782.125797"><time><value>2025-04-12T18:02:57.458393Z</value></time><waveformID networkCode="CX" stationCode="PB07" channelCode="HHZ"/><filterID>ITAPER(4)&gt;&gt;BW(4,4,20)</filterID><methodID>AIC</methodID><horizontalSlowness><value>22.23161014692025</value></horizontalSlowness><backazimuth><value>241.76980154678984</value></backazimuth><phaseHint>P</phaseHint><evaluationMode>automatic</evaluationMode><comment><text>214.48292621933118</text><id>DFX:rectilinearity</id></comment><comment><text>17.409995955554464</text><id>SNR</id></comment></pick><pick publicID="de.gempa.tb1.Pick/20250412180314.502935.125799"><time><value>2025-04-12T18:03:07.538393Z</value></time><waveformID networkCode="CX" stationCode="PB06" channelCode="HHN"/><filterID>ITAPER(2)&gt;&gt;BW(3,3,20)</filterID><methodID>L2-AIC-GRID</methodID><horizontalSlowness><value>21.679240512646405</value></horizontalSlowness><backazimuth><value>171.0149269967365</value></backazimuth><phaseHint>S</phaseHint><evaluationMode>automatic</evaluationMode><comment><text>313.18920692680416</text><id>DFX:rectilinearity</id></comment><comment><text>de.gempa.tb1.Pick/20250412180254.555373.125787</text><id>RefPickID</id></comment><comment><text>19.910371906286393</text><id>SNR</id></comment></pick><pick publicID="de.gempa.tb1.Pick/20250412180325.785738.125803"><time><value>2025-04-12T18:03:18.598394Z</value></time><waveformID networkCode="CX" stationCode="PB03" channelCode="HHN"/><filterID>ITAPER(2)&gt;&gt;BW(3,3,20)</filterID><methodID>L2-AIC-GRID</methodID><horizontalSlowness><value>16.69843251118681</value></horizontalSlowness><backazimuth><value>18.08787763500726</value></backazimuth><phaseHint>S</phaseHint><evaluationMode>automatic</evaluationMode><comment><text>54.97189179230114</text><id>DFX:rectilinearity</id></comment><comment><text>de.gempa.tb1.Pick/20250412180259.569031.125789</text><id>RefPickID</id></comment><comment><text>11.35886247426514</text><id>SNR</id></comment></pick><pick publicID="de.gempa.tb1.Pick/20250412180343.704559.125804"><time><value>2025-04-12T18:03:34.818393Z</value></time><waveformID networkCode="CX" stationCode="PB01" channelCode="HHN"/><filterID>ITAPER(2)&gt;&gt;BW(3,3,20)</filterID><methodID>L2-AIC-GRID</methodID><horizontalSlowness><value>18.022053733611</value></horizontalSlowness><backazimuth><value>22.66884953521159</value></backazimuth><phaseHint>S</phaseHint><evaluationMode>automatic</evaluationMode><comment><text>27.637161932536383</text><id>DFX:rectilinearity</id></comment><comment><text>de.gempa.tb1.Pick/20250412180309.577478.125794</text><id>RefPickID</id></comment><comment><text>6.83106168992669</text><id>SNR</id></comment></pick><pick publicID="de.gempa.tb1.Pick/20250412180352.041515.125805"><time><value>2025-04-12T18:03:25.418393Z</value></time><waveformID networkCode="CX" stationCode="PB07" channelCode="HHN"/><filterID>ITAPER(2)&gt;&gt;BW(3,3,20)</filterID><methodID>L2-AIC-GRID</methodID><horizontalSlowness><value>22.411971667416722</value></horizontalSlowness><backazimuth><value>66.06759159839775</value></backazimuth><phaseHint>S</phaseHint><evaluationMode>automatic</evaluationMode><comment><text>1159.6808186741102</text><id>DFX:rectilinearity</id></comment><comment><text>de.gempa.tb1.Pick/20250412180311.77782.125797</text><id>RefPickID</id></comment><comment><text>5.202833876368785</text><id>SNR</id></comment></pick><origin publicID="de.gempa.tb1.Origin/20250412180352.053326.89075"><time><value>2025-04-12T18:02:21.586842Z</value><uncertainty>1.451535940170288</uncertainty></time><latitude><value>-23.324005126953125</value><uncertainty>7.708208560943604</uncertainty></latitude><longitude><value>-68.0201644897461</value><uncertainty>14.415396690368652</uncertainty></longitude><depth><value>28.4223518371582</value><uncertainty>29.70313262939453</uncertainty></depth><depthType>from location</depthType><methodID>LOCSAT</methodID><earthModelID>iasp91_scanloc</earthModelID><quality><associatedPhaseCount>11</associatedPhaseCount><usedPhaseCount>11</usedPhaseCount><associatedStationCount>7</associatedStationCount><usedStationCount>7</usedStationCount><depthPhaseCount>0</depthPhaseCount><standardError>0.8098400787406596</standardError><azimuthalGap>274.5676574707031</azimuthalGap><maximumDistance>2.645962715148926</maximumDistance><minimumDistance>1.3008577823638916</minimumDistance><medianDistance>1.8939212560653687</medianDistance></quality><uncertainty><minHorizontalUncertainty>9.811532020568848</minHorizontalUncertainty><maxHorizontalUncertainty>33.66010284423828</maxHorizontalUncertainty><azimuthMaxHorizontalUncertainty>114.41010284423828</azimuthMaxHorizontalUncertainty><preferredDescription>horizontal uncertainty</preferredDescription></uncertainty><evaluationMode>automatic</evaluationMode><evaluationStatus>confirmed</evaluationStatus><comment><text>0.04</text><id>mismatchScore</id></comment><comment><text>mismatchScore</text><id>scevalMethod</id></comment><arrival><pickID>de.gempa.tb1.Pick/20250412180249.656993.125783</pickID><phase>P</phase><azimuth>274.6470642089844</azimuth><distance>1.3391191959381104</distance><timeResidual>-0.17679786682128906</timeResidual><timeUsed>true</timeUsed><horizontalSlownessUsed>false</horizontalSlownessUsed><backazimuthUsed>false</backazimuthUsed><weight>1</weight></arrival><arrival><pickID>de.gempa.tb1.Pick/20250412180250.508724.125785</pickID><phase>P</phase><azimuth>243.36212158203125</azimuth><distance>1.3008577823638916</distance><timeResidual>-0.716400146484375</timeResidual><timeUsed>true</timeUsed><horizontalSlownessUsed>false</horizontalSlownessUsed><backazimuthUsed>false</backazimuthUsed><weight>1</weight></arrival><arrival><pickID>de.gempa.tb1.Pick/20250412180254.555373.125787</pickID><phase>P</phase><azimuth>292.98394775390625</azimuth><distance>1.5564379692077637</distance><timeResidual>0.34107398986816406</timeResidual><timeUsed>true</timeUsed><horizontalSlownessUsed>false</horizontalSlownessUsed><backazimuthUsed>false</backazimuthUsed><weight>1</weight></arrival><arrival><pickID>de.gempa.tb1.Pick/20250412180303.301351.125791</pickID><phase>P</phase><azimuth>323.159423828125</azimuth><distance>1.8939212560653687</distance><timeResidual>1.4755287170410156</timeResidual><timeUsed>true</timeUsed><horizontalSlownessUsed>false</horizontalSlownessUsed><backazimuthUsed>false</backazimuthUsed><weight>1</weight></arrival><arrival><pickID>de.gempa.tb1.Pick/20250412180308.864586.125793</pickID><phase>S</phase><azimuth>274.6470642089844</azimuth><distance>1.3391191959381104</distance><timeResidual>1.0142536163330078</timeResidual><timeUsed>true</timeUsed><horizontalSlownessUsed>false</horizontalSlownessUsed><backazimuthUsed>false</backazimuthUsed><weight>1</weight></arrival><arrival><pickID>de.gempa.tb1.Pick/20250412180309.577478.125794</pickID><phase>P</phase><azimuth>328.7944641113281</azimuth><distance>2.645962715148926</distance><timeResidual>-0.14715194702148438</timeResidual><timeUsed>true</timeUsed><horizontalSlownessUsed>false</horizontalSlownessUsed><backazimuthUsed>false</backazimuthUsed><weight>1</weight></arrival><arrival><pickID>de.gempa.tb1.Pick/20250412180311.77782.125797</pickID><phase>P</phase><azimuth>312.29901123046875</azimuth><distance>2.3460209369659424</distance><timeResidual>-0.7776012420654297</timeResidual><timeUsed>true</timeUsed><horizontalSlownessUsed>false</horizontalSlownessUsed><backazimuthUsed>false</backazimuthUsed><weight>1</weight></arrival><arrival><pickID>de.gempa.tb1.Pick/20250412180314.502935.125799</pickID><phase>S</phase><azimuth>292.98394775390625</azimuth><distance>1.5564379692077637</distance><timeResidual>0.3326549530029297</timeResidual><timeUsed>true</timeUsed><horizontalSlownessUsed>false</horizontalSlownessUsed><backazimuthUsed>false</backazimuthUsed><weight>1</weight></arrival><arrival><pickID>de.gempa.tb1.Pick/20250412180325.785738.125803</pickID><phase>S</phase><azimuth>308.0873718261719</azimuth><distance>2.0427711009979248</distance><timeResidual>-0.6481151580810547</timeResidual><timeUsed>true</timeUsed><horizontalSlownessUsed>false</horizontalSlownessUsed><backazimuthUsed>false</backazimuthUsed><weight>1</weight></arrival><arrival><pickID>de.gempa.tb1.Pick/20250412180343.704559.125804</pickID><phase>S</phase><azimuth>328.7944641113281</azimuth><distance>2.645962715148926</distance><timeResidual>0.6384410858154297</timeResidual><timeUsed>true</timeUsed><horizontalSlownessUsed>false</horizontalSlownessUsed><backazimuthUsed>false</backazimuthUsed><weight>1</weight></arrival><arrival><pickID>de.gempa.tb1.Pick/20250412180352.041515.125805</pickID><phase>S</phase><azimuth>312.29901123046875</azimuth><distance>2.3460209369659424</distance><timeResidual>-1.3352527618408203</timeResidual><timeUsed>true</timeUsed><horizontalSlownessUsed>false</horizontalSlownessUsed><backazimuthUsed>false</backazimuthUsed><weight>1</weight></arrival><magnitude publicID="de.gempa.tb1.Magnitude/20250412180516.872625.261899"><magnitude><value>2.7798397799018417</value></magnitude><type>M</type><methodID>weighted average</methodID><stationCount>6</stationCount></magnitude></origin><event publicID="gempa2025hfyh"><preferredOriginID>de.gempa.tb1.Origin/20250412180352.053326.89075</preferredOriginID><preferredMagnitudeID>de.gempa.tb1.Magnitude/20250412180516.872625.261899</preferredMagnitudeID><description><text>Northern Chile</text><type>region name</type></description><originReference>de.gempa.tb1.Origin/20250412180352.053326.89075</originReference></event></EventParameters></seiscomp>