<?xml version="1.0" encoding="UTF-8"?>
<seiscomp xmlns="http://geofon.gfz-potsdam.de/ns/seiscomp3-schema/0.13" version="0.13"><EventParameters><pick publicID="de.gempa.tb1.Pick/20250412230205.540588.127359"><time><value>2025-04-12T23:01:58.368393Z</value></time><waveformID networkCode="CX" stationCode="PB08" channelCode="HHZ"/><filterID>ITAPER(4)&gt;&gt;BW(4,4,20)</filterID><methodID>AIC</methodID><horizontalSlowness><value>15.44985692060943</value></horizontalSlowness><backazimuth><value>83.174146104472</value></backazimuth><phaseHint>P</phaseHint><evaluationMode>automatic</evaluationMode><comment><text>6.318333175844868</text><id>DFX:rectilinearity</id></comment><comment><text>6.920713014554571</text><id>SNR</id></comment></pick><pick publicID="de.gempa.tb1.Pick/20250412230210.768739.127361"><time><value>2025-04-12T23:02:03.12Z</value></time><waveformID networkCode="CX" stationCode="PSGCX" channelCode="HHZ"/><filterID>ITAPER(4)&gt;&gt;BW(4,4,20)</filterID><methodID>AIC</methodID><horizontalSlowness><value>17.815459858841308</value></horizontalSlowness><backazimuth><value>94.40204639099063</value></backazimuth><phaseHint>P</phaseHint><evaluationMode>automatic</evaluationMode><comment><text>25.093226159505154</text><id>DFX:rectilinearity</id></comment><comment><text>12.6126823077449</text><id>SNR</id></comment></pick><pick publicID="de.gempa.tb1.Pick/20250412230217.574659.127365"><time><value>2025-04-12T23:02:06.398393Z</value></time><waveformID networkCode="CX" stationCode="PB01" channelCode="HHZ"/><filterID>ITAPER(4)&gt;&gt;BW(4,4,20)</filterID><methodID>AIC</methodID><horizontalSlowness><value>17.000022124189321</value></horizontalSlowness><backazimuth><value>218.35720346277353</value></backazimuth><phaseHint>P</phaseHint><evaluationMode>automatic</evaluationMode><comment><text>6.770054044986047</text><id>DFX:rectilinearity</id></comment><comment><text>9.961933164874367</text><id>SNR</id></comment></pick><pick publicID="de.gempa.tb1.Pick/20250412230219.26713.127367"><time><value>2025-04-12T23:02:10.228393Z</value></time><waveformID networkCode="CX" stationCode="PB08" channelCode="HHN"/><filterID>ITAPER(2)&gt;&gt;BW(3,3,20)</filterID><methodID>L2-AIC-GRID</methodID><horizontalSlowness><value>16.64577757948863</value></horizontalSlowness><backazimuth><value>207.600255877037</value></backazimuth><phaseHint>S</phaseHint><evaluationMode>automatic</evaluationMode><comment><text>43.62902352039338</text><id>DFX:rectilinearity</id></comment><comment><text>de.gempa.tb1.Pick/20250412230205.540588.127359</text><id>RefPickID</id></comment><comment><text>5.867593530993729</text><id>SNR</id></comment></pick><pick publicID="de.gempa.tb1.Pick/20250412230229.784265.127371"><time><value>2025-04-12T23:02:18.88Z</value></time><waveformID networkCode="CX" stationCode="PSGCX" channelCode="HHN"/><filterID>ITAPER(2)&gt;&gt;BW(3,3,20)</filterID><methodID>L2-AIC-GRID</methodID><horizontalSlowness><value>19.359162813973892</value></horizontalSlowness><backazimuth><value>44.53751876484961</value></backazimuth><phaseHint>S</phaseHint><evaluationMode>automatic</evaluationMode><comment><text>30.084438240204623</text><id>DFX:rectilinearity</id></comment><comment><text>de.gempa.tb1.Pick/20250412230210.768739.127361</text><id>RefPickID</id></comment><comment><text>13.292332812477884</text><id>SNR</id></comment></pick><pick publicID="de.gempa.tb1.Pick/20250412230232.733462.127376"><time><value>2025-04-12T23:02:24.608393Z</value></time><waveformID networkCode="CX" stationCode="PB01" channelCode="HHN"/><filterID>ITAPER(2)&gt;&gt;BW(3,3,20)</filterID><methodID>L2-AIC-GRID</methodID><horizontalSlowness><value>12.205974735630654</value></horizontalSlowness><backazimuth><value>334.1503173163221</value></backazimuth><phaseHint>S</phaseHint><evaluationMode>automatic</evaluationMode><comment><text>16.83811387832393</text><id>DFX:rectilinearity</id></comment><comment><text>de.gempa.tb1.Pick/20250412230217.574659.127365</text><id>RefPickID</id></comment><comment><text>5.834881852955319</text><id>SNR</id></comment></pick><origin publicID="de.gempa.tb1.Origin/20250412230232.747788.94571"><time><value>2025-04-12T23:01:42.830757Z</value><uncertainty>1.5007750988006592</uncertainty></time><latitude><value>-19.843130111694336</value><uncertainty>6.843428611755371</uncertainty></latitude><longitude><value>-69.1714859008789</value><uncertainty>9.037699699401855</uncertainty></longitude><depth><value>107.8988265991211</value><uncertainty>8.902501106262207</uncertainty></depth><depthType>from location</depthType><methodID>LOCSAT</methodID><earthModelID>iasp91_scanloc</earthModelID><quality><associatedPhaseCount>6</associatedPhaseCount><usedPhaseCount>6</usedPhaseCount><associatedStationCount>3</associatedStationCount><usedStationCount>3</usedStationCount><depthPhaseCount>0</depthPhaseCount><standardError>0.027478431382687057</standardError><azimuthalGap>251.61143493652344</azimuthalGap><maximumDistance>1.2302124500274658</maximumDistance><minimumDistance>0.29694604873657227</minimumDistance><medianDistance>0.9292270541191101</medianDistance></quality><uncertainty><minHorizontalUncertainty>10.244522094726562</minHorizontalUncertainty><maxHorizontalUncertainty>22.047761917114258</maxHorizontalUncertainty><azimuthMaxHorizontalUncertainty>57.43269348144531</azimuthMaxHorizontalUncertainty><preferredDescription>horizontal uncertainty</preferredDescription></uncertainty><evaluationMode>automatic</evaluationMode><evaluationStatus>confirmed</evaluationStatus><comment><text>0.00</text><id>mismatchScore</id></comment><comment><text>mismatchScore</text><id>scevalMethod</id></comment><arrival><pickID>de.gempa.tb1.Pick/20250412230205.540588.127359</pickID><phase>P</phase><azimuth>176.7187042236328</azimuth><distance>0.29694604873657227</distance><timeResidual>0.03687572479248047</timeResidual><timeUsed>true</timeUsed><horizontalSlownessUsed>false</horizontalSlownessUsed><backazimuthUsed>false</backazimuthUsed><weight>1</weight></arrival><arrival><pickID>de.gempa.tb1.Pick/20250412230210.768739.127361</pickID><phase>P</phase><azimuth>285.1072692871094</azimuth><distance>0.9292270541191101</distance><timeResidual>-0.04493236541748047</timeResidual><timeUsed>true</timeUsed><horizontalSlownessUsed>false</horizontalSlownessUsed><backazimuthUsed>false</backazimuthUsed><weight>1</weight></arrival><arrival><pickID>de.gempa.tb1.Pick/20250412230217.574659.127365</pickID><phase>P</phase><azimuth>193.880126953125</azimuth><distance>1.2302124500274658</distance><timeResidual>0.008160591125488281</timeResidual><timeUsed>true</timeUsed><horizontalSlownessUsed>false</horizontalSlownessUsed><backazimuthUsed>false</backazimuthUsed><weight>1</weight></arrival><arrival><pickID>de.gempa.tb1.Pick/20250412230219.26713.127367</pickID><phase>S</phase><azimuth>176.7187042236328</azimuth><distance>0.29694604873657227</distance><timeResidual>-0.020697593688964844</timeResidual><timeUsed>true</timeUsed><horizontalSlownessUsed>false</horizontalSlownessUsed><backazimuthUsed>false</backazimuthUsed><weight>1</weight></arrival><arrival><pickID>de.gempa.tb1.Pick/20250412230229.784265.127371</pickID><phase>S</phase><azimuth>285.1072692871094</azimuth><distance>0.9292270541191101</distance><timeResidual>0.025217056274414059</timeResidual><timeUsed>true</timeUsed><horizontalSlownessUsed>false</horizontalSlownessUsed><backazimuthUsed>false</backazimuthUsed><weight>1</weight></arrival><arrival><pickID>de.gempa.tb1.Pick/20250412230232.733462.127376</pickID><phase>S</phase><azimuth>193.880126953125</azimuth><distance>1.2302124500274658</distance><timeResidual>-0.004556655883789062</timeResidual><timeUsed>true</timeUsed><horizontalSlownessUsed>false</horizontalSlownessUsed><backazimuthUsed>false</backazimuthUsed><weight>1</weight></arrival></origin><event publicID="gempa2025hgih"><preferredOriginID>de.gempa.tb1.Origin/20250412230232.747788.94571</preferredOriginID><description><text>Northern Chile</text><type>region name</type></description><originReference>de.gempa.tb1.Origin/20250412230232.747788.94571</originReference></event></EventParameters></seiscomp>