<?xml version="1.0" encoding="UTF-8"?>
<seiscomp xmlns="http://geofon.gfz-potsdam.de/ns/seiscomp3-schema/0.13" version="0.13"><EventParameters><pick publicID="de.gempa.tb1.Pick/20250415061919.530577.143925"><time><value>2025-04-15T06:19:13.61Z</value></time><waveformID networkCode="CX" stationCode="PB19" channelCode="HHZ"/><filterID>ITAPER(4)&gt;&gt;BW(4,4,20)</filterID><methodID>AIC</methodID><horizontalSlowness><value>18.234523978449406</value></horizontalSlowness><backazimuth><value>266.4833927113723</value></backazimuth><phaseHint>P</phaseHint><evaluationMode>automatic</evaluationMode><comment><text>11.259743524237514</text><id>DFX:rectilinearity</id></comment><comment><text>8.976932616173162</text><id>SNR</id></comment></pick><pick publicID="de.gempa.tb1.Pick/20250415061924.606066.143927"><time><value>2025-04-15T06:19:18.758393Z</value></time><waveformID networkCode="CX" stationCode="PB06" channelCode="HHZ"/><filterID>ITAPER(4)&gt;&gt;BW(4,4,20)</filterID><methodID>AIC</methodID><horizontalSlowness><value>14.35220489566104</value></horizontalSlowness><backazimuth><value>310.26705884707087</value></backazimuth><phaseHint>P</phaseHint><evaluationMode>automatic</evaluationMode><comment><text>72.98200357452608</text><id>DFX:rectilinearity</id></comment><comment><text>11.717096908150507</text><id>SNR</id></comment></pick><pick publicID="de.gempa.tb1.Pick/20250415061924.615228.143929"><time><value>2025-04-15T06:19:16.298393Z</value></time><waveformID networkCode="CX" stationCode="PB15" channelCode="HHZ"/><filterID>ITAPER(4)&gt;&gt;BW(4,4,20)</filterID><methodID>AIC</methodID><horizontalSlowness><value>23.470228170618636</value></horizontalSlowness><backazimuth><value>223.66411167702458</value></backazimuth><phaseHint>P</phaseHint><evaluationMode>automatic</evaluationMode><comment><text>137.51897800607182</text><id>DFX:rectilinearity</id></comment><comment><text>10.503778306564604</text><id>SNR</id></comment></pick><pick publicID="de.gempa.tb1.Pick/20250415061928.47235.143931"><time><value>2025-04-15T06:19:22.06Z</value></time><waveformID networkCode="CX" stationCode="PB09" channelCode="HHZ"/><filterID>ITAPER(4)&gt;&gt;BW(4,4,20)</filterID><methodID>AIC</methodID><horizontalSlowness><value>11.517609133809277</value></horizontalSlowness><backazimuth><value>93.8270674965698</value></backazimuth><phaseHint>P</phaseHint><evaluationMode>automatic</evaluationMode><comment><text>11.859983194068468</text><id>DFX:rectilinearity</id></comment><comment><text>28.068597206950987</text><id>SNR</id></comment></pick><pick publicID="de.gempa.tb1.Pick/20250415061930.63977.143933"><time><value>2025-04-15T06:19:23.728393Z</value></time><waveformID networkCode="CX" stationCode="PB03" channelCode="HHZ"/><filterID>ITAPER(4)&gt;&gt;BW(4,4,20)</filterID><methodID>AIC</methodID><horizontalSlowness><value>23.516740839070504</value></horizontalSlowness><backazimuth><value>288.6124033573101</value></backazimuth><phaseHint>P</phaseHint><evaluationMode>automatic</evaluationMode><comment><text>11.583565548625373</text><id>DFX:rectilinearity</id></comment><comment><text>18.428923418884413</text><id>SNR</id></comment></pick><pick publicID="de.gempa.tb1.Pick/20250415061934.186448.143935"><time><value>2025-04-15T06:19:25.83Z</value></time><waveformID networkCode="CX" stationCode="PB10" channelCode="HHZ"/><filterID>ITAPER(4)&gt;&gt;BW(4,4,20)</filterID><methodID>AIC</methodID><horizontalSlowness><value>17.45514110721652</value></horizontalSlowness><backazimuth><value>3.075607929675016</value></backazimuth><phaseHint>P</phaseHint><evaluationMode>automatic</evaluationMode><comment><text>67.2136288020944</text><id>DFX:rectilinearity</id></comment><comment><text>7.555846878525463</text><id>SNR</id></comment></pick><pick publicID="de.gempa.tb1.Pick/20250415061937.524904.143937"><time><value>2025-04-15T06:19:29.878393Z</value></time><waveformID networkCode="CX" stationCode="PB02" channelCode="HHZ"/><filterID>ITAPER(4)&gt;&gt;BW(4,4,20)</filterID><methodID>AIC</methodID><horizontalSlowness><value>13.625270234128775</value></horizontalSlowness><backazimuth><value>352.80267589122747</value></backazimuth><phaseHint>P</phaseHint><evaluationMode>automatic</evaluationMode><comment><text>22.257312852092582</text><id>DFX:rectilinearity</id></comment><comment><text>11.260786166928323</text><id>SNR</id></comment></pick><pick publicID="de.gempa.tb1.Pick/20250415061939.553031.143939"><time><value>2025-04-15T06:19:29.278394Z</value></time><waveformID networkCode="CX" stationCode="PB01" channelCode="HHZ"/><filterID>ITAPER(4)&gt;&gt;BW(4,4,20)</filterID><methodID>AIC</methodID><horizontalSlowness><value>22.179109144331683</value></horizontalSlowness><backazimuth><value>189.01329362640413</value></backazimuth><phaseHint>P</phaseHint><evaluationMode>automatic</evaluationMode><comment><text>26.569712421136884</text><id>DFX:rectilinearity</id></comment><comment><text>9.862571487377654</text><id>SNR</id></comment></pick><pick publicID="de.gempa.tb1.Pick/20250415061953.586223.143943"><time><value>2025-04-15T06:19:45.49Z</value></time><waveformID networkCode="CX" stationCode="PB19" channelCode="HHN"/><filterID>ITAPER(2)&gt;&gt;BW(3,3,20)</filterID><methodID>L2-AIC-GRID</methodID><horizontalSlowness><value>17.057380284353947</value></horizontalSlowness><backazimuth><value>159.32729595773426</value></backazimuth><phaseHint>S</phaseHint><evaluationMode>automatic</evaluationMode><comment><text>18.403829316460627</text><id>DFX:rectilinearity</id></comment><comment><text>de.gempa.tb1.Pick/20250415061919.530577.143925</text><id>RefPickID</id></comment><comment><text>8.821883590290312</text><id>SNR</id></comment></pick><pick publicID="de.gempa.tb1.Pick/20250415062011.737452.143955"><time><value>2025-04-15T06:20:03.868393Z</value></time><waveformID networkCode="CX" stationCode="PB03" channelCode="HHN"/><filterID>ITAPER(2)&gt;&gt;BW(3,3,20)</filterID><methodID>L2-AIC-GRID</methodID><horizontalSlowness><value>6.51730348396454</value></horizontalSlowness><backazimuth><value>226.21891565852405</value></backazimuth><phaseHint>S</phaseHint><evaluationMode>automatic</evaluationMode><comment><text>20.603037425848136</text><id>DFX:rectilinearity</id></comment><comment><text>de.gempa.tb1.Pick/20250415061930.63977.143933</text><id>RefPickID</id></comment><comment><text>6.517568521064575</text><id>SNR</id></comment></pick><pick publicID="de.gempa.tb1.Pick/20250415062016.472794.143958"><time><value>2025-04-15T06:19:26.908393Z</value></time><waveformID networkCode="CX" stationCode="PB07" channelCode="HHZ"/><filterID>ITAPER(4)&gt;&gt;BW(4,4,20)</filterID><methodID>AIC</methodID><horizontalSlowness><value>21.498560922601666</value></horizontalSlowness><backazimuth><value>289.3066536897684</value></backazimuth><phaseHint>P</phaseHint><evaluationMode>automatic</evaluationMode><comment><text>173.89426834913542</text><id>DFX:rectilinearity</id></comment><comment><text>24.925901109197596</text><id>SNR</id></comment></pick><origin publicID="de.gempa.tb1.Origin/20250415062016.613908.162920"><time><value>2025-04-15T06:18:33.454284Z</value><uncertainty>1.2227061986923218</uncertainty></time><latitude><value>-23.74362373352051</value><uncertainty>8.72525405883789</uncertainty></latitude><longitude><value>-67.22026824951172</value><uncertainty>24.07944869995117</uncertainty></longitude><depth><value>233.680419921875</value><uncertainty>22.939165115356445</uncertainty></depth><depthType>from location</depthType><methodID>LOCSAT</methodID><earthModelID>iasp91_scanloc</earthModelID><quality><associatedPhaseCount>11</associatedPhaseCount><usedPhaseCount>11</usedPhaseCount><associatedStationCount>9</associatedStationCount><usedStationCount>9</usedStationCount><depthPhaseCount>0</depthPhaseCount><standardError>0.258579429346507</standardError><azimuthalGap>303.16375732421875</azimuthalGap><maximumDistance>3.4552109241485596</maximumDistance><minimumDistance>1.9027847051620483</minimumDistance><medianDistance>2.881169557571411</medianDistance></quality><uncertainty><minHorizontalUncertainty>18.085758209228516</minHorizontalUncertainty><maxHorizontalUncertainty>51.85034942626953</maxHorizontalUncertainty><azimuthMaxHorizontalUncertainty>84.3493881225586</azimuthMaxHorizontalUncertainty><preferredDescription>horizontal uncertainty</preferredDescription></uncertainty><evaluationMode>automatic</evaluationMode><evaluationStatus>confirmed</evaluationStatus><comment><text>0.00</text><id>mismatchScore</id></comment><comment><text>mismatchScore</text><id>scevalMethod</id></comment><arrival><pickID>de.gempa.tb1.Pick/20250415061919.530577.143925</pickID><phase>P</phase><azimuth>264.7483215332031</azimuth><distance>1.9027847051620483</distance><timeResidual>-0.12311172485351562</timeResidual><timeUsed>true</timeUsed><horizontalSlownessUsed>false</horizontalSlownessUsed><backazimuthUsed>false</backazimuthUsed><weight>1</weight></arrival><arrival><pickID>de.gempa.tb1.Pick/20250415061924.606066.143927</pickID><phase>P</phase><azimuth>295.06097412109375</azimuth><distance>2.3972206115722656</distance><timeResidual>0.19575119018554688</timeResidual><timeUsed>true</timeUsed><horizontalSlownessUsed>false</horizontalSlownessUsed><backazimuthUsed>false</backazimuthUsed><weight>1</weight></arrival><arrival><pickID>de.gempa.tb1.Pick/20250415061924.615228.143929</pickID><phase>P</phase><azimuth>284.01043701171875</azimuth><distance>2.1341006755828857</distance><timeResidual>0.36328887939453125</timeResidual><timeUsed>true</timeUsed><horizontalSlownessUsed>false</horizontalSlownessUsed><backazimuthUsed>false</backazimuthUsed><weight>1</weight></arrival><arrival><pickID>de.gempa.tb1.Pick/20250415061928.47235.143931</pickID><phase>P</phase><azimuth>315.6927490234375</azimuth><distance>2.690246343612671</distance><timeResidual>0.41130828857421875</timeResidual><timeUsed>true</timeUsed><horizontalSlownessUsed>false</horizontalSlownessUsed><backazimuthUsed>false</backazimuthUsed><weight>1</weight></arrival><arrival><pickID>de.gempa.tb1.Pick/20250415061930.63977.143933</pickID><phase>P</phase><azimuth>305.3481750488281</azimuth><distance>2.881169557571411</distance><timeResidual>0.01726531982421875</timeResidual><timeUsed>true</timeUsed><horizontalSlownessUsed>false</horizontalSlownessUsed><backazimuthUsed>false</backazimuthUsed><weight>1</weight></arrival><arrival><pickID>de.gempa.tb1.Pick/20250415061934.186448.143935</pickID><phase>P</phase><azimuth>273.62017822265625</azimuth><distance>3.0660951137542725</distance><timeResidual>0.08497238159179688</timeResidual><timeUsed>true</timeUsed><horizontalSlownessUsed>false</horizontalSlownessUsed><backazimuthUsed>false</backazimuthUsed><weight>1</weight></arrival><arrival><pickID>de.gempa.tb1.Pick/20250415061937.524904.143937</pickID><phase>P</phase><azimuth>313.7611999511719</azimuth><distance>3.4552109241485596</distance><timeResidual>-0.33768463134765625</timeResidual><timeUsed>true</timeUsed><horizontalSlownessUsed>false</horizontalSlownessUsed><backazimuthUsed>false</backazimuthUsed><weight>1</weight></arrival><arrival><pickID>de.gempa.tb1.Pick/20250415061939.553031.143939</pickID><phase>P</phase><azimuth>321.5845642089844</azimuth><distance>3.409386396408081</distance><timeResidual>-0.41251373291015625</timeResidual><timeUsed>true</timeUsed><horizontalSlownessUsed>false</horizontalSlownessUsed><backazimuthUsed>false</backazimuthUsed><weight>1</weight></arrival><arrival><pickID>de.gempa.tb1.Pick/20250415061953.586223.143943</pickID><phase>S</phase><azimuth>264.7483215332031</azimuth><distance>1.9027847051620483</distance><timeResidual>-0.2406044006347656</timeResidual><timeUsed>true</timeUsed><horizontalSlownessUsed>false</horizontalSlownessUsed><backazimuthUsed>false</backazimuthUsed><weight>1</weight></arrival><arrival><pickID>de.gempa.tb1.Pick/20250415062011.737452.143955</pickID><phase>S</phase><azimuth>305.3481750488281</azimuth><distance>2.881169557571411</distance><timeResidual>0.14409637451171875</timeResidual><timeUsed>true</timeUsed><horizontalSlownessUsed>false</horizontalSlownessUsed><backazimuthUsed>false</backazimuthUsed><weight>1</weight></arrival><arrival><pickID>de.gempa.tb1.Pick/20250415062016.472794.143958</pickID><phase>P</phase><azimuth>308.6829528808594</azimuth><distance>3.175908088684082</distance><timeResidual>-0.10245513916015625</timeResidual><timeUsed>true</timeUsed><horizontalSlownessUsed>false</horizontalSlownessUsed><backazimuthUsed>false</backazimuthUsed><weight>1</weight></arrival><magnitude publicID="de.gempa.tb1.Magnitude/20250415062148.188137.581487"><magnitude><value>3.166854575194138</value></magnitude><type>M</type><methodID>weighted average</methodID><stationCount>7</stationCount></magnitude></origin><event publicID="gempa2025hkox"><preferredOriginID>de.gempa.tb1.Origin/20250415062016.613908.162920</preferredOriginID><preferredMagnitudeID>de.gempa.tb1.Magnitude/20250415062148.188137.581487</preferredMagnitudeID><description><text>Chile-Argentina Border Region</text><type>region name</type></description><originReference>de.gempa.tb1.Origin/20250415062016.613908.162920</originReference></event></EventParameters></seiscomp>