<?xml version="1.0" encoding="UTF-8"?>
<seiscomp xmlns="http://geofon.gfz-potsdam.de/ns/seiscomp3-schema/0.13" version="0.13"><EventParameters><pick publicID="de.gempa.tb1.Pick/20250412221932.570813.127174"><time><value>2025-04-12T22:19:27.688393Z</value></time><waveformID networkCode="CX" stationCode="PB03" channelCode="HHZ"/><filterID>ITAPER(4)&gt;&gt;BW(4,4,20)</filterID><methodID>AIC</methodID><horizontalSlowness><value>3.3163024363536167</value></horizontalSlowness><backazimuth><value>278.90740526131515</value></backazimuth><phaseHint>P</phaseHint><evaluationMode>automatic</evaluationMode><comment><text>14.836454102038045</text><id>DFX:rectilinearity</id></comment><comment><text>10.231960997063874</text><id>SNR</id></comment></pick><pick publicID="de.gempa.tb1.Pick/20250412221936.374789.127178"><time><value>2025-04-12T22:19:24.47Z</value></time><waveformID networkCode="CX" stationCode="PB09" channelCode="HHN"/><filterID>ITAPER(2)&gt;&gt;BW(3,3,20)</filterID><methodID>L2-AIC-GRID</methodID><horizontalSlowness><value>23.02808530691288</value></horizontalSlowness><backazimuth><value>305.24019169132265</value></backazimuth><phaseHint>S</phaseHint><evaluationMode>automatic</evaluationMode><comment><text>228.0606615754968</text><id>DFX:rectilinearity</id></comment><comment><text>de.gempa.tb1.Pick/20250412221934.974594.127176</text><id>RefPickID</id></comment><comment><text>7.941237695303721</text><id>SNR</id></comment></pick><pick publicID="de.gempa.tb1.Pick/20250412221939.571449.127179"><time><value>2025-04-12T22:19:33.098393Z</value></time><waveformID networkCode="CX" stationCode="PB02" channelCode="HHZ"/><filterID>ITAPER(4)&gt;&gt;BW(4,4,20)</filterID><methodID>AIC</methodID><horizontalSlowness><value>12.657283541825334</value></horizontalSlowness><backazimuth><value>315.1743612028557</value></backazimuth><phaseHint>P</phaseHint><evaluationMode>automatic</evaluationMode><comment><text>54.19349874967308</text><id>DFX:rectilinearity</id></comment><comment><text>10.322941217690786</text><id>SNR</id></comment></pick><pick publicID="de.gempa.tb1.Pick/20250412221939.60835.127181"><time><value>2025-04-12T22:19:35.748393Z</value></time><waveformID networkCode="CX" stationCode="PB06" channelCode="HHZ"/><filterID>ITAPER(4)&gt;&gt;BW(4,4,20)</filterID><methodID>AIC</methodID><horizontalSlowness><value>20.668945607074935</value></horizontalSlowness><backazimuth><value>267.93921221952996</value></backazimuth><phaseHint>P</phaseHint><evaluationMode>automatic</evaluationMode><comment><text>82.56393141823908</text><id>DFX:rectilinearity</id></comment><comment><text>12.241728014603984</text><id>SNR</id></comment></pick><pick publicID="de.gempa.tb1.Pick/20250412221941.571877.127183"><time><value>2025-04-12T22:19:32.698393Z</value></time><waveformID networkCode="CX" stationCode="PB03" channelCode="HHN"/><filterID>ITAPER(2)&gt;&gt;BW(3,3,20)</filterID><methodID>L2-AIC-GRID</methodID><horizontalSlowness><value>16.690512003157163</value></horizontalSlowness><backazimuth><value>96.12324014838964</value></backazimuth><phaseHint>S</phaseHint><evaluationMode>automatic</evaluationMode><comment><text>61.37946731709193</text><id>DFX:rectilinearity</id></comment><comment><text>de.gempa.tb1.Pick/20250412221932.570813.127174</text><id>RefPickID</id></comment><comment><text>13.34625920806467</text><id>SNR</id></comment></pick><pick publicID="de.gempa.tb1.Pick/20250412221944.572595.127184"><time><value>2025-04-12T22:19:36.638394Z</value></time><waveformID networkCode="CX" stationCode="PB01" channelCode="HHZ"/><filterID>ITAPER(4)&gt;&gt;BW(4,4,20)</filterID><methodID>AIC</methodID><horizontalSlowness><value>17.639481901073584</value></horizontalSlowness><backazimuth><value>302.8947149385881</value></backazimuth><phaseHint>P</phaseHint><evaluationMode>automatic</evaluationMode><comment><text>13.128027358460233</text><id>DFX:rectilinearity</id></comment><comment><text>7.210758597819116</text><id>SNR</id></comment></pick><pick publicID="de.gempa.tb1.Pick/20250412221951.652558.127187"><time><value>2025-04-12T22:19:43.688391Z</value></time><waveformID networkCode="CX" stationCode="PB15" channelCode="HHZ"/><filterID>ITAPER(4)&gt;&gt;BW(4,4,20)</filterID><methodID>AIC</methodID><horizontalSlowness><value>21.860831395095818</value></horizontalSlowness><backazimuth><value>114.92686482147109</value></backazimuth><phaseHint>P</phaseHint><evaluationMode>automatic</evaluationMode><comment><text>267.150506637944</text><id>DFX:rectilinearity</id></comment><comment><text>10.748112840597686</text><id>SNR</id></comment></pick><pick publicID="de.gempa.tb1.Pick/20250412221957.510906.127191"><time><value>2025-04-12T22:19:50.369998Z</value></time><waveformID networkCode="CX" stationCode="PB19" channelCode="HHZ"/><filterID>ITAPER(4)&gt;&gt;BW(4,4,20)</filterID><methodID>AIC</methodID><horizontalSlowness><value>14.332761320198985</value></horizontalSlowness><backazimuth><value>15.73577703683216</value></backazimuth><phaseHint>P</phaseHint><evaluationMode>automatic</evaluationMode><comment><text>19.041123252493087</text><id>DFX:rectilinearity</id></comment><comment><text>9.380423396799634</text><id>SNR</id></comment></pick><pick publicID="de.gempa.tb1.Pick/20250412221958.37033.127193"><time><value>2025-04-12T22:19:30.078393Z</value></time><waveformID networkCode="CX" stationCode="PB07" channelCode="HHZ"/><filterID>ITAPER(4)&gt;&gt;BW(4,4,20)</filterID><methodID>AIC</methodID><horizontalSlowness><value>21.675004658101589</value></horizontalSlowness><backazimuth><value>299.8086990883021</value></backazimuth><phaseHint>P</phaseHint><evaluationMode>automatic</evaluationMode><comment><text>401.5351808996716</text><id>DFX:rectilinearity</id></comment><comment><text>15.4263869235839</text><id>SNR</id></comment></pick><pick publicID="de.gempa.tb1.Pick/20250412222000.173084.127195"><time><value>2025-04-12T22:19:35.208393Z</value></time><waveformID networkCode="CX" stationCode="PB07" channelCode="HHN"/><filterID>ITAPER(2)&gt;&gt;BW(3,3,20)</filterID><methodID>L2-AIC-GRID</methodID><horizontalSlowness><value>23.162586415647393</value></horizontalSlowness><backazimuth><value>105.48236135460594</value></backazimuth><phaseHint>S</phaseHint><evaluationMode>automatic</evaluationMode><comment><text>798.299389271054</text><id>DFX:rectilinearity</id></comment><comment><text>de.gempa.tb1.Pick/20250412221958.37033.127193</text><id>RefPickID</id></comment><comment><text>7.2826068082724</text><id>SNR</id></comment></pick><pick publicID="de.gempa.tb1.Pick/20250412222005.586566.127197"><time><value>2025-04-12T22:19:56.15Z</value></time><waveformID networkCode="CX" stationCode="PSGCX" channelCode="HHZ"/><filterID>ITAPER(4)&gt;&gt;BW(4,4,20)</filterID><methodID>AIC</methodID><horizontalSlowness><value>10.466416578900626</value></horizontalSlowness><backazimuth><value>144.68727846840466</value></backazimuth><phaseHint>P</phaseHint><evaluationMode>automatic</evaluationMode><comment><text>17.079867933434066</text><id>DFX:rectilinearity</id></comment><comment><text>17.131086303380428</text><id>SNR</id></comment></pick><origin publicID="de.gempa.tb1.Origin/20250412222007.676648.93899"><time><value>2025-04-12T22:19:18.722846Z</value><uncertainty>0.36679548025131226</uncertainty></time><latitude><value>-21.877874374389648</value><uncertainty>2.71053409576416</uncertainty></latitude><longitude><value>-69.3541488647461</value><uncertainty>2.523817777633667</uncertainty></longitude><depth><value>14.615775108337402</value><uncertainty>3.3247430324554443</uncertainty></depth><depthType>from location</depthType><methodID>LOCSAT</methodID><earthModelID>iasp91_scanloc</earthModelID><quality><associatedPhaseCount>11</associatedPhaseCount><usedPhaseCount>11</usedPhaseCount><associatedStationCount>9</associatedStationCount><usedStationCount>9</usedStationCount><depthPhaseCount>0</depthPhaseCount><standardError>1.056368847033901</standardError><azimuthalGap>126.20354080200195</azimuthalGap><maximumDistance>2.3806049823760986</maximumDistance><minimumDistance>0.13209736347198486</minimumDistance><medianDistance>0.7501882910728455</medianDistance></quality><uncertainty><minHorizontalUncertainty>5.111865043640137</minHorizontalUncertainty><maxHorizontalUncertainty>6.082767486572266</maxHorizontalUncertainty><azimuthMaxHorizontalUncertainty>147.22384643554688</azimuthMaxHorizontalUncertainty><preferredDescription>horizontal uncertainty</preferredDescription></uncertainty><evaluationMode>automatic</evaluationMode><evaluationStatus>confirmed</evaluationStatus><comment><text>0.10</text><id>mismatchScore</id></comment><comment><text>mismatchScore</text><id>scevalMethod</id></comment><arrival><pickID>de.gempa.tb1.Pick/20250412221932.570813.127174</pickID><phase>P</phase><azimuth>245.29844665527344</azimuth><distance>0.4073987603187561</distance><timeResidual>0.7605009078979492</timeResidual><timeUsed>true</timeUsed><horizontalSlownessUsed>false</horizontalSlownessUsed><backazimuthUsed>false</backazimuthUsed><weight>1</weight></arrival><arrival><pickID>de.gempa.tb1.Pick/20250412221936.374789.127178</pickID><phase>S</phase><azimuth>52.14605331420898</azimuth><distance>0.13209736347198486</distance><timeResidual>-0.4293642044067383</timeResidual><timeUsed>true</timeUsed><horizontalSlownessUsed>false</horizontalSlownessUsed><backazimuthUsed>false</backazimuthUsed><weight>1</weight></arrival><arrival><pickID>de.gempa.tb1.Pick/20250412221939.571449.127179</pickID><phase>P</phase><azimuth>317.66265869140625</azimuth><distance>0.7501882910728455</distance><timeResidual>-0.22638463973999023</timeResidual><timeUsed>true</timeUsed><horizontalSlownessUsed>false</horizontalSlownessUsed><backazimuthUsed>false</backazimuthUsed><weight>1</weight></arrival><arrival><pickID>de.gempa.tb1.Pick/20250412221939.60835.127181</pickID><phase>P</phase><azimuth>193.71080017089844</azimuth><distance>0.8482797741889954</distance><timeResidual>0.621213436126709</timeResidual><timeUsed>true</timeUsed><horizontalSlownessUsed>false</horizontalSlownessUsed><backazimuthUsed>false</backazimuthUsed><weight>1</weight></arrival><arrival><pickID>de.gempa.tb1.Pick/20250412221941.571877.127183</pickID><phase>S</phase><azimuth>245.29844665527344</azimuth><distance>0.4073987603187561</distance><timeResidual>-0.1878037452697754</timeResidual><timeUsed>true</timeUsed><horizontalSlownessUsed>false</horizontalSlownessUsed><backazimuthUsed>false</backazimuthUsed><weight>1</weight></arrival><arrival><pickID>de.gempa.tb1.Pick/20250412221944.572595.127184</pickID><phase>P</phase><azimuth>351.47601318359375</azimuth><distance>0.8397635221481323</distance><timeResidual>1.6594271659851074</timeResidual><timeUsed>true</timeUsed><horizontalSlownessUsed>false</horizontalSlownessUsed><backazimuthUsed>false</backazimuthUsed><weight>1</weight></arrival><arrival><pickID>de.gempa.tb1.Pick/20250412221951.652558.127187</pickID><phase>P</phase><azimuth>184.63858032226562</azimuth><distance>1.328545093536377</distance><timeResidual>0.9155440330505371</timeResidual><timeUsed>true</timeUsed><horizontalSlownessUsed>false</horizontalSlownessUsed><backazimuthUsed>false</backazimuthUsed><weight>1</weight></arrival><arrival><pickID>de.gempa.tb1.Pick/20250412221957.510906.127191</pickID><phase>P</phase><azimuth>178.34959411621094</azimuth><distance>2.0182607173919678</distance><timeResidual>-1.89365816116333</timeResidual><timeUsed>true</timeUsed><horizontalSlownessUsed>false</horizontalSlownessUsed><backazimuthUsed>false</backazimuthUsed><weight>1</weight></arrival><arrival><pickID>de.gempa.tb1.Pick/20250412221958.37033.127193</pickID><phase>P</phase><azimuth>286.8282775878906</azimuth><distance>0.516817033290863</distance><timeResidual>1.1313576698303223</timeResidual><timeUsed>true</timeUsed><horizontalSlownessUsed>false</horizontalSlownessUsed><backazimuthUsed>false</backazimuthUsed><weight>1</weight></arrival><arrival><pickID>de.gempa.tb1.Pick/20250412222000.173084.127195</pickID><phase>S</phase><azimuth>286.8282775878906</azimuth><distance>0.516817033290863</distance><timeResidual>-1.1619715690612793</timeResidual><timeUsed>true</timeUsed><horizontalSlownessUsed>false</horizontalSlownessUsed><backazimuthUsed>false</backazimuthUsed><weight>1</weight></arrival><arrival><pickID>de.gempa.tb1.Pick/20250412222005.586566.127197</pickID><phase>P</phase><azimuth>342.2669677734375</azimuth><distance>2.3806049823760986</distance><timeResidual>-1.109917163848877</timeResidual><timeUsed>true</timeUsed><horizontalSlownessUsed>false</horizontalSlownessUsed><backazimuthUsed>false</backazimuthUsed><weight>1</weight></arrival><magnitude publicID="de.gempa.tb1.Magnitude/20250412222007.682098.288760"><magnitude><value>2.307483632373392</value></magnitude><type>M</type><methodID>weighted average</methodID><stationCount>7</stationCount></magnitude></origin><event publicID="gempa2025hggw"><preferredOriginID>de.gempa.tb1.Origin/20250412222007.676648.93899</preferredOriginID><preferredMagnitudeID>de.gempa.tb1.Magnitude/20250412222007.682098.288760</preferredMagnitudeID><description><text>Northern Chile</text><type>region name</type></description><originReference>de.gempa.tb1.Origin/20250412222007.676648.93899</originReference></event></EventParameters></seiscomp>