<?xml version="1.0" encoding="UTF-8"?>
<seiscomp xmlns="http://geofon.gfz-potsdam.de/ns/seiscomp3-schema/0.13" version="0.13"><EventParameters><pick publicID="de.gempa.tb1.Pick/20250413044000.642939.128833"><time><value>2025-04-13T04:39:54.158393Z</value></time><waveformID networkCode="CX" stationCode="PB06" channelCode="HHZ"/><filterID>ITAPER(4)&gt;&gt;BW(4,4,20)</filterID><methodID>AIC</methodID><horizontalSlowness><value>18.055689163685312</value></horizontalSlowness><backazimuth><value>124.82355954050246</value></backazimuth><phaseHint>P</phaseHint><evaluationMode>automatic</evaluationMode><comment><text>45.019879096436796</text><id>DFX:rectilinearity</id></comment><comment><text>26.823158564000813</text><id>SNR</id></comment></pick><pick publicID="de.gempa.tb1.Pick/20250413044003.630878.128835"><time><value>2025-04-13T04:39:57.798393Z</value></time><waveformID networkCode="CX" stationCode="PB03" channelCode="HHZ"/><filterID>ITAPER(4)&gt;&gt;BW(4,4,20)</filterID><methodID>AIC</methodID><horizontalSlowness><value>10.478059855928173</value></horizontalSlowness><backazimuth><value>116.65925558879846</value></backazimuth><phaseHint>P</phaseHint><evaluationMode>automatic</evaluationMode><comment><text>26.20244627647604</text><id>DFX:rectilinearity</id></comment><comment><text>78.52591920098322</text><id>SNR</id></comment></pick><pick publicID="de.gempa.tb1.Pick/20250413044007.924338.128837"><time><value>2025-04-13T04:40:01.658394Z</value></time><waveformID networkCode="CX" stationCode="PB07" channelCode="HHZ"/><filterID>ITAPER(4)&gt;&gt;BW(4,4,20)</filterID><methodID>AIC</methodID><horizontalSlowness><value>16.584842265400205</value></horizontalSlowness><backazimuth><value>160.7371666532785</value></backazimuth><phaseHint>P</phaseHint><evaluationMode>automatic</evaluationMode><comment><text>1281.5156903624777</text><id>DFX:rectilinearity</id></comment><comment><text>272.11217061082897</text><id>SNR</id></comment></pick><pick publicID="de.gempa.tb1.Pick/20250413044010.617917.128839"><time><value>2025-04-13T04:40:03.57Z</value></time><waveformID networkCode="CX" stationCode="PB19" channelCode="HHZ"/><filterID>ITAPER(4)&gt;&gt;BW(4,4,20)</filterID><methodID>AIC</methodID><horizontalSlowness><value>7.749137262735236</value></horizontalSlowness><backazimuth><value>23.602751792335937</value></backazimuth><phaseHint>P</phaseHint><evaluationMode>automatic</evaluationMode><comment><text>245.4377612837054</text><id>DFX:rectilinearity</id></comment><comment><text>66.67071596322114</text><id>SNR</id></comment></pick><pick publicID="de.gempa.tb1.Pick/20250413044011.146997.128841"><time><value>2025-04-13T04:39:58.580001Z</value></time><waveformID networkCode="CX" stationCode="PB09" channelCode="HHZ"/><filterID>ITAPER(4)&gt;&gt;BW(4,4,20)</filterID><methodID>AIC</methodID><horizontalSlowness><value>19.944695279684012</value></horizontalSlowness><backazimuth><value>145.37251204478565</value></backazimuth><phaseHint>P</phaseHint><evaluationMode>automatic</evaluationMode><comment><text>132.03247267691003</text><id>DFX:rectilinearity</id></comment><comment><text>170.6344980687381</text><id>SNR</id></comment></pick><pick publicID="de.gempa.tb1.Pick/20250413044011.622059.128843"><time><value>2025-04-13T04:40:05.058393Z</value></time><waveformID networkCode="CX" stationCode="PB06" channelCode="HHN"/><filterID>ITAPER(2)&gt;&gt;BW(3,3,20)</filterID><methodID>L2-AIC-GRID</methodID><horizontalSlowness><value>23.23407753655376</value></horizontalSlowness><backazimuth><value>198.4400185229029</value></backazimuth><phaseHint>S</phaseHint><evaluationMode>automatic</evaluationMode><comment><text>379.769003566468</text><id>DFX:rectilinearity</id></comment><comment><text>de.gempa.tb1.Pick/20250413044000.642939.128833</text><id>RefPickID</id></comment><comment><text>11.369641991570289</text><id>SNR</id></comment></pick><pick publicID="de.gempa.tb1.Pick/20250413044012.544226.128844"><time><value>2025-04-13T04:40:05.928391Z</value></time><waveformID networkCode="CX" stationCode="PB02" channelCode="HHZ"/><filterID>ITAPER(4)&gt;&gt;BW(4,4,20)</filterID><methodID>AIC</methodID><horizontalSlowness><value>16.621771025739491</value></horizontalSlowness><backazimuth><value>247.2534695705997</value></backazimuth><phaseHint>P</phaseHint><evaluationMode>automatic</evaluationMode><comment><text>65.34185638576059</text><id>DFX:rectilinearity</id></comment><comment><text>39.652543501611603</text><id>SNR</id></comment></pick><pick publicID="de.gempa.tb1.Pick/20250413044014.516436.128846"><time><value>2025-04-13T04:40:07.558393Z</value></time><waveformID networkCode="CX" stationCode="PB01" channelCode="HHZ"/><filterID>ITAPER(4)&gt;&gt;BW(4,4,20)</filterID><methodID>AIC</methodID><horizontalSlowness><value>8.966106299672342</value></horizontalSlowness><backazimuth><value>170.84795156447257</value></backazimuth><phaseHint>P</phaseHint><evaluationMode>automatic</evaluationMode><comment><text>61.46817512902047</text><id>DFX:rectilinearity</id></comment><comment><text>61.30557287056438</text><id>SNR</id></comment></pick><pick publicID="de.gempa.tb1.Pick/20250413044018.725223.128848"><time><value>2025-04-13T04:40:11.528393Z</value></time><waveformID networkCode="CX" stationCode="PB03" channelCode="HHN"/><filterID>ITAPER(2)&gt;&gt;BW(3,3,20)</filterID><methodID>L2-AIC-GRID</methodID><horizontalSlowness><value>14.924083563009946</value></horizontalSlowness><backazimuth><value>270.6506051111496</value></backazimuth><phaseHint>S</phaseHint><evaluationMode>automatic</evaluationMode><comment><text>538.563358083331</text><id>DFX:rectilinearity</id></comment><comment><text>de.gempa.tb1.Pick/20250413044003.630878.128835</text><id>RefPickID</id></comment><comment><text>15.61461205582703</text><id>SNR</id></comment></pick><pick publicID="de.gempa.tb1.Pick/20250413044024.514965.128849"><time><value>2025-04-13T04:40:12.650001Z</value></time><waveformID networkCode="CX" stationCode="PB09" channelCode="HHN"/><filterID>ITAPER(2)&gt;&gt;BW(3,3,20)</filterID><methodID>L2-AIC-GRID</methodID><horizontalSlowness><value>12.940613745057833</value></horizontalSlowness><backazimuth><value>327.90420069057325</value></backazimuth><phaseHint>S</phaseHint><evaluationMode>automatic</evaluationMode><comment><text>6033.201024755775</text><id>DFX:rectilinearity</id></comment><comment><text>de.gempa.tb1.Pick/20250413044011.146997.128841</text><id>RefPickID</id></comment><comment><text>5.765449066304293</text><id>SNR</id></comment></pick><pick publicID="de.gempa.tb1.Pick/20250413044027.549604.128851"><time><value>2025-04-13T04:40:21.73Z</value></time><waveformID networkCode="CX" stationCode="PB19" channelCode="HHN"/><filterID>ITAPER(2)&gt;&gt;BW(3,3,20)</filterID><methodID>L2-AIC-GRID</methodID><horizontalSlowness><value>19.017626063801874</value></horizontalSlowness><backazimuth><value>142.46045148728314</value></backazimuth><phaseHint>S</phaseHint><evaluationMode>automatic</evaluationMode><comment><text>462.8538395293544</text><id>DFX:rectilinearity</id></comment><comment><text>de.gempa.tb1.Pick/20250413044010.617917.128839</text><id>RefPickID</id></comment><comment><text>6.858327477218519</text><id>SNR</id></comment></pick><pick publicID="de.gempa.tb1.Pick/20250413044032.594051.128853"><time><value>2025-04-13T04:40:25.778391Z</value></time><waveformID networkCode="CX" stationCode="PB02" channelCode="HHN"/><filterID>ITAPER(2)&gt;&gt;BW(3,3,20)</filterID><methodID>L2-AIC-GRID</methodID><horizontalSlowness><value>21.411257715472537</value></horizontalSlowness><backazimuth><value>255.63870420415785</value></backazimuth><phaseHint>S</phaseHint><evaluationMode>automatic</evaluationMode><comment><text>1138.5902016337725</text><id>DFX:rectilinearity</id></comment><comment><text>de.gempa.tb1.Pick/20250413044012.544226.128844</text><id>RefPickID</id></comment><comment><text>5.919731022442294</text><id>SNR</id></comment></pick><pick publicID="de.gempa.tb1.Pick/20250413044037.59368.128856"><time><value>2025-04-13T04:40:28.998393Z</value></time><waveformID networkCode="CX" stationCode="PB01" channelCode="HHN"/><filterID>ITAPER(2)&gt;&gt;BW(3,3,20)</filterID><methodID>L2-AIC-GRID</methodID><horizontalSlowness><value>22.594179499536683</value></horizontalSlowness><backazimuth><value>295.2198218576563</value></backazimuth><phaseHint>S</phaseHint><evaluationMode>automatic</evaluationMode><comment><text>184.27924928768687</text><id>DFX:rectilinearity</id></comment><comment><text>de.gempa.tb1.Pick/20250413044014.516436.128846</text><id>RefPickID</id></comment><comment><text>6.740484696530802</text><id>SNR</id></comment></pick><pick publicID="de.gempa.tb1.Pick/20250413044054.698608.128858"><time><value>2025-04-13T04:40:18.338394Z</value></time><waveformID networkCode="CX" stationCode="PB07" channelCode="HHN"/><filterID>ITAPER(2)&gt;&gt;BW(3,3,20)</filterID><methodID>L2-AIC-GRID</methodID><horizontalSlowness><value>21.462297116942803</value></horizontalSlowness><backazimuth><value>60.0227803865002</value></backazimuth><phaseHint>S</phaseHint><evaluationMode>automatic</evaluationMode><comment><text>18684.023005171526</text><id>DFX:rectilinearity</id></comment><comment><text>de.gempa.tb1.Pick/20250413044007.924338.128837</text><id>RefPickID</id></comment><comment><text>5.175303268654164</text><id>SNR</id></comment></pick><origin publicID="de.gempa.tb1.Origin/20250413044054.7181.100677"><time><value>2025-04-13T04:39:40.565251Z</value><uncertainty>0.7025097012519836</uncertainty></time><latitude><value>-22.63443946838379</value><uncertainty>2.6066768169403076</uncertainty></latitude><longitude><value>-69.19075775146484</value><uncertainty>8.880387306213379</uncertainty></longitude><depth><value>92.10393524169922</value><uncertainty>7.444026947021484</uncertainty></depth><depthType>from location</depthType><methodID>LOCSAT</methodID><earthModelID>iasp91_scanloc</earthModelID><quality><associatedPhaseCount>14</associatedPhaseCount><usedPhaseCount>14</usedPhaseCount><associatedStationCount>7</associatedStationCount><usedStationCount>7</usedStationCount><depthPhaseCount>0</depthPhaseCount><standardError>0.22685224371487997</standardError><azimuthalGap>187.398681640625</azimuthalGap><maximumDistance>1.6072852611541748</maximumDistance><minimumDistance>0.3591153621673584</minimumDistance><medianDistance>1.1097792387008667</medianDistance></quality><uncertainty><minHorizontalUncertainty>5.135674953460693</minHorizontalUncertainty><maxHorizontalUncertainty>19.164730072021484</maxHorizontalUncertainty><azimuthMaxHorizontalUncertainty>83.14793395996094</azimuthMaxHorizontalUncertainty><preferredDescription>horizontal uncertainty</preferredDescription></uncertainty><evaluationMode>automatic</evaluationMode><evaluationStatus>confirmed</evaluationStatus><comment><text>0.00</text><id>mismatchScore</id></comment><comment><text>mismatchScore</text><id>scevalMethod</id></comment><arrival><pickID>de.gempa.tb1.Pick/20250413044000.642939.128833</pickID><phase>P</phase><azimuth>258.5203552246094</azimuth><distance>0.3591153621673584</distance><timeResidual>-0.400385856628418</timeResidual><timeUsed>true</timeUsed><horizontalSlownessUsed>false</horizontalSlownessUsed><backazimuthUsed>false</backazimuthUsed><weight>1</weight></arrival><arrival><pickID>de.gempa.tb1.Pick/20250413044003.630878.128835</pickID><phase>P</phase><azimuth>318.1363220214844</azimuth><distance>0.7817549705505371</distance><timeResidual>-0.2774057388305664</timeResidual><timeUsed>true</timeUsed><horizontalSlownessUsed>false</horizontalSlownessUsed><backazimuthUsed>false</backazimuthUsed><weight>1</weight></arrival><arrival><pickID>de.gempa.tb1.Pick/20250413044007.924338.128837</pickID><phase>P</phase><azimuth>324.361572265625</azimuth><distance>1.1097792387008667</distance><timeResidual>-0.01958942413330078</timeResidual><timeUsed>true</timeUsed><horizontalSlownessUsed>false</horizontalSlownessUsed><backazimuthUsed>false</backazimuthUsed><weight>1</weight></arrival><arrival><pickID>de.gempa.tb1.Pick/20250413044010.617917.128839</pickID><phase>P</phase><azimuth>184.1356201171875</azimuth><distance>1.2678017616271973</distance><timeResidual>0.023566246032714844</timeResidual><timeUsed>true</timeUsed><horizontalSlownessUsed>false</horizontalSlownessUsed><backazimuthUsed>false</backazimuthUsed><weight>1</weight></arrival><arrival><pickID>de.gempa.tb1.Pick/20250413044011.146997.128841</pickID><phase>P</phase><azimuth>356.7369384765625</azimuth><distance>0.8353874683380127</distance><timeResidual>-0.04939460754394531</timeResidual><timeUsed>true</timeUsed><horizontalSlownessUsed>false</horizontalSlownessUsed><backazimuthUsed>false</backazimuthUsed><weight>1</weight></arrival><arrival><pickID>de.gempa.tb1.Pick/20250413044011.622059.128843</pickID><phase>S</phase><azimuth>258.5203552246094</azimuth><distance>0.3591153621673584</distance><timeResidual>-0.22180557250976562</timeResidual><timeUsed>true</timeUsed><horizontalSlownessUsed>false</horizontalSlownessUsed><backazimuthUsed>false</backazimuthUsed><weight>1</weight></arrival><arrival><pickID>de.gempa.tb1.Pick/20250413044012.544226.128844</pickID><phase>P</phase><azimuth>333.2870178222656</azimuth><distance>1.4629769325256348</distance><timeResidual>-0.033199310302734375</timeResidual><timeUsed>true</timeUsed><horizontalSlownessUsed>false</horizontalSlownessUsed><backazimuthUsed>false</backazimuthUsed><weight>1</weight></arrival><arrival><pickID>de.gempa.tb1.Pick/20250413044014.516436.128846</pickID><phase>P</phase><azimuth>350.0714111328125</azimuth><distance>1.6072852611541748</distance><timeResidual>-0.22312355041503906</timeResidual><timeUsed>true</timeUsed><horizontalSlownessUsed>false</horizontalSlownessUsed><backazimuthUsed>false</backazimuthUsed><weight>1</weight></arrival><arrival><pickID>de.gempa.tb1.Pick/20250413044018.725223.128848</pickID><phase>S</phase><azimuth>318.1363220214844</azimuth><distance>0.7817549705505371</distance><timeResidual>-0.007175445556640625</timeResidual><timeUsed>true</timeUsed><horizontalSlownessUsed>false</horizontalSlownessUsed><backazimuthUsed>false</backazimuthUsed><weight>1</weight></arrival><arrival><pickID>de.gempa.tb1.Pick/20250413044024.514965.128849</pickID><phase>S</phase><azimuth>356.7369384765625</azimuth><distance>0.8353874683380127</distance><timeResidual>0.12836074829101562</timeResidual><timeUsed>true</timeUsed><horizontalSlownessUsed>false</horizontalSlownessUsed><backazimuthUsed>false</backazimuthUsed><weight>1</weight></arrival><arrival><pickID>de.gempa.tb1.Pick/20250413044027.549604.128851</pickID><phase>S</phase><azimuth>184.1356201171875</azimuth><distance>1.2678017616271973</distance><timeResidual>0.4266166687011719</timeResidual><timeUsed>true</timeUsed><horizontalSlownessUsed>false</horizontalSlownessUsed><backazimuthUsed>false</backazimuthUsed><weight>1</weight></arrival><arrival><pickID>de.gempa.tb1.Pick/20250413044032.594051.128853</pickID><phase>S</phase><azimuth>333.2870178222656</azimuth><distance>1.4629769325256348</distance><timeResidual>0.15741920471191406</timeResidual><timeUsed>true</timeUsed><horizontalSlownessUsed>false</horizontalSlownessUsed><backazimuthUsed>false</backazimuthUsed><weight>1</weight></arrival><arrival><pickID>de.gempa.tb1.Pick/20250413044037.59368.128856</pickID><phase>S</phase><azimuth>350.0714111328125</azimuth><distance>1.6072852611541748</distance><timeResidual>0.11922645568847656</timeResidual><timeUsed>true</timeUsed><horizontalSlownessUsed>false</horizontalSlownessUsed><backazimuthUsed>false</backazimuthUsed><weight>1</weight></arrival><arrival><pickID>de.gempa.tb1.Pick/20250413044054.698608.128858</pickID><phase>S</phase><azimuth>324.361572265625</azimuth><distance>1.1097792387008667</distance><timeResidual>0.37711524963378906</timeResidual><timeUsed>true</timeUsed><horizontalSlownessUsed>false</horizontalSlownessUsed><backazimuthUsed>false</backazimuthUsed><weight>1</weight></arrival><magnitude publicID="de.gempa.tb1.Magnitude/20250413044054.728972.315857"><magnitude><value>2.894691857442812</value></magnitude><type>M</type><methodID>weighted average</methodID><stationCount>5</stationCount></magnitude></origin><event publicID="gempa2025hgto"><preferredOriginID>de.gempa.tb1.Origin/20250413044054.7181.100677</preferredOriginID><preferredMagnitudeID>de.gempa.tb1.Magnitude/20250413044054.728972.315857</preferredMagnitudeID><description><text>Northern Chile</text><type>region name</type></description><originReference>de.gempa.tb1.Origin/20250413044054.7181.100677</originReference></event></EventParameters></seiscomp>