<?xml version="1.0" encoding="UTF-8"?>
<seiscomp xmlns="http://geofon.gfz-potsdam.de/ns/seiscomp3-schema/0.13" version="0.13"><EventParameters><pick publicID="de.gempa.tb1.Pick/20250411231825.787809.120596"><time><value>2025-04-11T23:18:21.608393Z</value></time><waveformID networkCode="CX" stationCode="PB03" channelCode="HHZ"/><filterID>ITAPER(4)&gt;&gt;BW(4,4,20)</filterID><methodID>AIC</methodID><horizontalSlowness><value>7.693292246812179</value></horizontalSlowness><backazimuth><value>112.87644123192835</value></backazimuth><phaseHint>P</phaseHint><evaluationMode>automatic</evaluationMode><comment><text>209.48887141670679</text><id>DFX:rectilinearity</id></comment><comment><text>235.6132951007249</text><id>SNR</id></comment></pick><pick publicID="de.gempa.tb1.Pick/20250411231826.606645.120598"><time><value>2025-04-11T23:18:22.778393Z</value></time><waveformID networkCode="CX" stationCode="PB06" channelCode="HHZ"/><filterID>ITAPER(4)&gt;&gt;BW(4,4,20)</filterID><methodID>AIC</methodID><horizontalSlowness><value>7.512973438354391</value></horizontalSlowness><backazimuth><value>94.89670749502947</value></backazimuth><phaseHint>P</phaseHint><evaluationMode>automatic</evaluationMode><comment><text>506.1009057040897</text><id>DFX:rectilinearity</id></comment><comment><text>53.85517293243313</text><id>SNR</id></comment></pick><pick publicID="de.gempa.tb1.Pick/20250411231829.66547.120600"><time><value>2025-04-11T23:18:25.468393Z</value></time><waveformID networkCode="CX" stationCode="PB02" channelCode="HHZ"/><filterID>ITAPER(4)&gt;&gt;BW(4,4,20)</filterID><methodID>AIC</methodID><horizontalSlowness><value>4.863921622119887</value></horizontalSlowness><backazimuth><value>113.71947510019446</value></backazimuth><phaseHint>P</phaseHint><evaluationMode>automatic</evaluationMode><comment><text>60.42408566327976</text><id>DFX:rectilinearity</id></comment><comment><text>105.39800998679439</text><id>SNR</id></comment></pick><pick publicID="de.gempa.tb1.Pick/20250411231831.737093.120602"><time><value>2025-04-11T23:18:26.768393Z</value></time><waveformID networkCode="CX" stationCode="PB15" channelCode="HHZ"/><filterID>ITAPER(4)&gt;&gt;BW(4,4,20)</filterID><methodID>AIC</methodID><horizontalSlowness><value>20.537223286697184</value></horizontalSlowness><backazimuth><value>67.25515739944096</value></backazimuth><phaseHint>P</phaseHint><evaluationMode>automatic</evaluationMode><comment><text>318.97892163141165</text><id>DFX:rectilinearity</id></comment><comment><text>22.17185512694746</text><id>SNR</id></comment></pick><pick publicID="de.gempa.tb1.Pick/20250411231831.780791.120604"><time><value>2025-04-11T23:18:24.348393Z</value></time><waveformID networkCode="CX" stationCode="PB01" channelCode="HHZ"/><filterID>ITAPER(4)&gt;&gt;BW(4,4,20)</filterID><methodID>AIC</methodID><horizontalSlowness><value>23.04928291188393</value></horizontalSlowness><backazimuth><value>180.11983140243913</value></backazimuth><phaseHint>P</phaseHint><evaluationMode>automatic</evaluationMode><comment><text>20.6947020065532</text><id>DFX:rectilinearity</id></comment><comment><text>80.90262830159861</text><id>SNR</id></comment></pick><pick publicID="de.gempa.tb1.Pick/20250411231833.461105.120606"><time><value>2025-04-11T23:18:18.36Z</value></time><waveformID networkCode="CX" stationCode="PB09" channelCode="HHZ"/><filterID>ITAPER(4)&gt;&gt;BW(4,4,20)</filterID><methodID>AIC</methodID><horizontalSlowness><value>15.695927988406032</value></horizontalSlowness><backazimuth><value>104.13961219352932</value></backazimuth><phaseHint>P</phaseHint><evaluationMode>automatic</evaluationMode><comment><text>70.2807713480305</text><id>DFX:rectilinearity</id></comment><comment><text>333.7995486014732</text><id>SNR</id></comment></pick><pick publicID="de.gempa.tb1.Pick/20250411231840.532811.120608"><time><value>2025-04-11T23:18:33.880001Z</value></time><waveformID networkCode="CX" stationCode="PB19" channelCode="HHZ"/><filterID>ITAPER(4)&gt;&gt;BW(4,4,20)</filterID><methodID>AIC</methodID><horizontalSlowness><value>22.143345228415384</value></horizontalSlowness><backazimuth><value>333.3148376369348</value></backazimuth><phaseHint>P</phaseHint><evaluationMode>automatic</evaluationMode><comment><text>31.57114876531252</text><id>DFX:rectilinearity</id></comment><comment><text>12.782160524474804</text><id>SNR</id></comment></pick><pick publicID="de.gempa.tb1.Pick/20250411231843.76371.120610"><time><value>2025-04-11T23:18:37.728393Z</value></time><waveformID networkCode="CX" stationCode="PB03" channelCode="HHN"/><filterID>ITAPER(2)&gt;&gt;BW(3,3,20)</filterID><methodID>L2-AIC-GRID</methodID><horizontalSlowness><value>22.487441345260422</value></horizontalSlowness><backazimuth><value>165.56693082934615</value></backazimuth><phaseHint>S</phaseHint><evaluationMode>automatic</evaluationMode><comment><text>628.3163582452746</text><id>DFX:rectilinearity</id></comment><comment><text>de.gempa.tb1.Pick/20250411231825.787809.120596</text><id>RefPickID</id></comment><comment><text>10.993424088048746</text><id>SNR</id></comment></pick><pick publicID="de.gempa.tb1.Pick/20250411231843.764498.120611"><time><value>2025-04-11T23:18:23.478393Z</value></time><waveformID networkCode="CX" stationCode="PB07" channelCode="HHZ"/><filterID>ITAPER(4)&gt;&gt;BW(4,4,20)</filterID><methodID>AIC</methodID><horizontalSlowness><value>23.07696658326161</value></horizontalSlowness><backazimuth><value>220.40296436381803</value></backazimuth><phaseHint>P</phaseHint><evaluationMode>automatic</evaluationMode><comment><text>588.8650825151922</text><id>DFX:rectilinearity</id></comment><comment><text>441.9255407475482</text><id>SNR</id></comment></pick><pick publicID="de.gempa.tb1.Pick/20250411231845.831077.120613"><time><value>2025-04-11T23:18:32.06Z</value></time><waveformID networkCode="CX" stationCode="PB09" channelCode="HHN"/><filterID>ITAPER(2)&gt;&gt;BW(3,3,20)</filterID><methodID>L2-AIC-GRID</methodID><horizontalSlowness><value>19.952066678705673</value></horizontalSlowness><backazimuth><value>162.05644831306262</value></backazimuth><phaseHint>S</phaseHint><evaluationMode>automatic</evaluationMode><comment><text>7967.135092275546</text><id>DFX:rectilinearity</id></comment><comment><text>de.gempa.tb1.Pick/20250411231833.461105.120606</text><id>RefPickID</id></comment><comment><text>5.970114665122989</text><id>SNR</id></comment></pick><pick publicID="de.gempa.tb1.Pick/20250411231849.64031.120614"><time><value>2025-04-11T23:18:42.468393Z</value></time><waveformID networkCode="CX" stationCode="PB01" channelCode="HHN"/><filterID>ITAPER(2)&gt;&gt;BW(3,3,20)</filterID><methodID>L2-AIC-GRID</methodID><horizontalSlowness><value>20.001175577981648</value></horizontalSlowness><backazimuth><value>297.6506448841414</value></backazimuth><phaseHint>S</phaseHint><evaluationMode>automatic</evaluationMode><comment><text>1972.3892420468612</text><id>DFX:rectilinearity</id></comment><comment><text>de.gempa.tb1.Pick/20250411231831.780791.120604</text><id>RefPickID</id></comment><comment><text>14.302142682016393</text><id>SNR</id></comment></pick><pick publicID="de.gempa.tb1.Pick/20250411231850.690875.120615"><time><value>2025-04-11T23:18:39.578393Z</value></time><waveformID networkCode="CX" stationCode="PB06" channelCode="HHN"/><filterID>ITAPER(2)&gt;&gt;BW(3,3,20)</filterID><methodID>L2-AIC-GRID</methodID><horizontalSlowness><value>23.004983383546364</value></horizontalSlowness><backazimuth><value>164.84511445880582</value></backazimuth><phaseHint>S</phaseHint><evaluationMode>automatic</evaluationMode><comment><text>2063.141876564005</text><id>DFX:rectilinearity</id></comment><comment><text>de.gempa.tb1.Pick/20250411231826.606645.120598</text><id>RefPickID</id></comment><comment><text>7.34663728642313</text><id>SNR</id></comment></pick><pick publicID="de.gempa.tb1.Pick/20250411231851.495152.120616"><time><value>2025-04-11T23:18:44.178393Z</value></time><waveformID networkCode="CX" stationCode="PB02" channelCode="HHN"/><filterID>ITAPER(2)&gt;&gt;BW(3,3,20)</filterID><methodID>L2-AIC-GRID</methodID><horizontalSlowness><value>22.375005498417327</value></horizontalSlowness><backazimuth><value>235.4589425642212</value></backazimuth><phaseHint>S</phaseHint><evaluationMode>automatic</evaluationMode><comment><text>4539.240919330784</text><id>DFX:rectilinearity</id></comment><comment><text>de.gempa.tb1.Pick/20250411231829.66547.120600</text><id>RefPickID</id></comment><comment><text>9.599169374425285</text><id>SNR</id></comment></pick><pick publicID="de.gempa.tb1.Pick/20250411231853.575616.120617"><time><value>2025-04-11T23:18:43.78Z</value></time><waveformID networkCode="CX" stationCode="PSGCX" channelCode="HHZ"/><filterID>ITAPER(4)&gt;&gt;BW(4,4,20)</filterID><methodID>AIC</methodID><horizontalSlowness><value>21.53754266867904</value></horizontalSlowness><backazimuth><value>106.32386324650632</value></backazimuth><phaseHint>P</phaseHint><evaluationMode>automatic</evaluationMode><comment><text>22.46026388789799</text><id>DFX:rectilinearity</id></comment><comment><text>16.408259998334728</text><id>SNR</id></comment></pick><pick publicID="de.gempa.tb1.Pick/20250411231853.805505.120619"><time><value>2025-04-11T23:18:47.288393Z</value></time><waveformID networkCode="CX" stationCode="PB15" channelCode="HHN"/><filterID>ITAPER(2)&gt;&gt;BW(3,3,20)</filterID><methodID>L2-AIC-GRID</methodID><horizontalSlowness><value>20.20259814823715</value></horizontalSlowness><backazimuth><value>112.46329954096144</value></backazimuth><phaseHint>S</phaseHint><evaluationMode>automatic</evaluationMode><comment><text>52704.69872309551</text><id>DFX:rectilinearity</id></comment><comment><text>de.gempa.tb1.Pick/20250411231831.737093.120602</text><id>RefPickID</id></comment><comment><text>6.907619558904937</text><id>SNR</id></comment></pick><pick publicID="de.gempa.tb1.Pick/20250411231854.776303.120621"><time><value>2025-04-11T23:18:40.858393Z</value></time><waveformID networkCode="CX" stationCode="PB07" channelCode="HHN"/><filterID>ITAPER(2)&gt;&gt;BW(3,3,20)</filterID><methodID>L2-AIC-GRID</methodID><horizontalSlowness><value>23.562662116157846</value></horizontalSlowness><backazimuth><value>80.93478071925144</value></backazimuth><phaseHint>S</phaseHint><evaluationMode>automatic</evaluationMode><comment><text>90936.36229532484</text><id>DFX:rectilinearity</id></comment><comment><text>de.gempa.tb1.Pick/20250411231843.764498.120611</text><id>RefPickID</id></comment><comment><text>7.572059472097975</text><id>SNR</id></comment></pick><pick publicID="de.gempa.tb1.Pick/20250411231906.691081.120627"><time><value>2025-04-11T23:18:59.030001Z</value></time><waveformID networkCode="CX" stationCode="PB19" channelCode="HHN"/><filterID>ITAPER(2)&gt;&gt;BW(3,3,20)</filterID><methodID>L2-AIC-GRID</methodID><horizontalSlowness><value>19.580569753732476</value></horizontalSlowness><backazimuth><value>147.31179505929447</value></backazimuth><phaseHint>S</phaseHint><evaluationMode>automatic</evaluationMode><comment><text>139.48470520956928</text><id>DFX:rectilinearity</id></comment><comment><text>de.gempa.tb1.Pick/20250411231840.532811.120608</text><id>RefPickID</id></comment><comment><text>8.985400761010103</text><id>SNR</id></comment></pick><origin publicID="de.gempa.tb1.Origin/20250411231906.69695.68221"><time><value>2025-04-11T23:18:01.17748Z</value><uncertainty>0.6897582411766052</uncertainty></time><latitude><value>-22.0006103515625</value><uncertainty>2.662329912185669</uncertainty></latitude><longitude><value>-68.78482818603516</value><uncertainty>9.042709350585938</uncertainty></longitude><depth><value>115.7775115966797</value><uncertainty>7.897253513336182</uncertainty></depth><depthType>from location</depthType><methodID>LOCSAT</methodID><earthModelID>iasp91_scanloc</earthModelID><quality><associatedPhaseCount>17</associatedPhaseCount><usedPhaseCount>17</usedPhaseCount><associatedStationCount>9</associatedStationCount><usedStationCount>9</usedStationCount><depthPhaseCount>0</depthPhaseCount><standardError>0.2555996644402383</standardError><azimuthalGap>221.59767150878906</azimuthalGap><maximumDistance>2.6992621421813965</maximumDistance><minimumDistance>0.4706500470638275</minimumDistance><medianDistance>1.15565025806427</medianDistance></quality><uncertainty><minHorizontalUncertainty>5.37070369720459</minHorizontalUncertainty><maxHorizontalUncertainty>19.478948593139648</maxHorizontalUncertainty><azimuthMaxHorizontalUncertainty>84.08561706542969</azimuthMaxHorizontalUncertainty><preferredDescription>horizontal uncertainty</preferredDescription></uncertainty><evaluationMode>automatic</evaluationMode><evaluationStatus>confirmed</evaluationStatus><comment><text>0.09</text><id>mismatchScore</id></comment><comment><text>mismatchScore</text><id>scevalMethod</id></comment><arrival><pickID>de.gempa.tb1.Pick/20250411231825.787809.120596</pickID><phase>P</phase><azimuth>266.7850646972656</azimuth><distance>0.8997116684913635</distance><timeResidual>-0.30289649963378906</timeResidual><timeUsed>true</timeUsed><horizontalSlownessUsed>false</horizontalSlownessUsed><backazimuthUsed>false</backazimuthUsed><weight>1</weight></arrival><arrival><pickID>de.gempa.tb1.Pick/20250411231826.606645.120598</pickID><phase>P</phase><azimuth>225.9246826171875</azimuth><distance>1.0116407871246338</distance><timeResidual>-0.2247142791748047</timeResidual><timeUsed>true</timeUsed><horizontalSlownessUsed>false</horizontalSlownessUsed><backazimuthUsed>false</backazimuthUsed><weight>1</weight></arrival><arrival><pickID>de.gempa.tb1.Pick/20250411231829.66547.120600</pickID><phase>P</phase><azimuth>303.0391540527344</azimuth><distance>1.2359375953674316</distance><timeResidual>0.09067344665527344</timeResidual><timeUsed>true</timeUsed><horizontalSlownessUsed>false</horizontalSlownessUsed><backazimuthUsed>false</backazimuthUsed><weight>1</weight></arrival><arrival><pickID>de.gempa.tb1.Pick/20250411231831.737093.120602</pickID><phase>P</phase><azimuth>207.67930603027344</azimuth><distance>1.3589602708816528</distance><timeResidual>0.026414871215820309</timeResidual><timeUsed>true</timeUsed><horizontalSlownessUsed>false</horizontalSlownessUsed><backazimuthUsed>false</backazimuthUsed><weight>1</weight></arrival><arrival><pickID>de.gempa.tb1.Pick/20250411231831.780791.120604</pickID><phase>P</phase><azimuth>325.39532470703125</azimuth><distance>1.15565025806427</distance><timeResidual>-0.1607494354248047</timeResidual><timeUsed>true</timeUsed><horizontalSlownessUsed>false</horizontalSlownessUsed><backazimuthUsed>false</backazimuthUsed><weight>1</weight></arrival><arrival><pickID>de.gempa.tb1.Pick/20250411231833.461105.120606</pickID><phase>P</phase><azimuth>295.4989013671875</azimuth><distance>0.4706500470638275</distance><timeResidual>-0.14142227172851562</timeResidual><timeUsed>true</timeUsed><horizontalSlownessUsed>false</horizontalSlownessUsed><backazimuthUsed>false</backazimuthUsed><weight>1</weight></arrival><arrival><pickID>de.gempa.tb1.Pick/20250411231840.532811.120608</pickID><phase>P</phase><azimuth>193.72325134277344</azimuth><distance>1.9517688751220703</distance><timeResidual>0.03553199768066406</timeResidual><timeUsed>true</timeUsed><horizontalSlownessUsed>false</horizontalSlownessUsed><backazimuthUsed>false</backazimuthUsed><weight>1</weight></arrival><arrival><pickID>de.gempa.tb1.Pick/20250411231843.76371.120610</pickID><phase>S</phase><azimuth>266.7850646972656</azimuth><distance>0.8997116684913635</distance><timeResidual>-0.19446754455566406</timeResidual><timeUsed>true</timeUsed><horizontalSlownessUsed>false</horizontalSlownessUsed><backazimuthUsed>false</backazimuthUsed><weight>1</weight></arrival><arrival><pickID>de.gempa.tb1.Pick/20250411231843.764498.120611</pickID><phase>P</phase><azimuth>284.71612548828125</azimuth><distance>1.0587730407714844</distance><timeResidual>-0.010236740112304688</timeResidual><timeUsed>true</timeUsed><horizontalSlownessUsed>false</horizontalSlownessUsed><backazimuthUsed>false</backazimuthUsed><weight>1</weight></arrival><arrival><pickID>de.gempa.tb1.Pick/20250411231845.831077.120613</pickID><phase>S</phase><azimuth>295.4989013671875</azimuth><distance>0.4706500470638275</distance><timeResidual>0.2115955352783203</timeResidual><timeUsed>true</timeUsed><horizontalSlownessUsed>false</horizontalSlownessUsed><backazimuthUsed>false</backazimuthUsed><weight>1</weight></arrival><arrival><pickID>de.gempa.tb1.Pick/20250411231849.64031.120614</pickID><phase>S</phase><azimuth>325.39532470703125</azimuth><distance>1.15565025806427</distance><timeResidual>-0.08855438232421875</timeResidual><timeUsed>true</timeUsed><horizontalSlownessUsed>false</horizontalSlownessUsed><backazimuthUsed>false</backazimuthUsed><weight>1</weight></arrival><arrival><pickID>de.gempa.tb1.Pick/20250411231850.690875.120615</pickID><phase>S</phase><azimuth>225.9246826171875</azimuth><distance>1.0116407871246338</distance><timeResidual>-0.292755126953125</timeResidual><timeUsed>true</timeUsed><horizontalSlownessUsed>false</horizontalSlownessUsed><backazimuthUsed>false</backazimuthUsed><weight>1</weight></arrival><arrival><pickID>de.gempa.tb1.Pick/20250411231851.495152.120616</pickID><phase>S</phase><azimuth>303.0391540527344</azimuth><distance>1.2359375953674316</distance><timeResidual>0.07011604309082031</timeResidual><timeUsed>true</timeUsed><horizontalSlownessUsed>false</horizontalSlownessUsed><backazimuthUsed>false</backazimuthUsed><weight>1</weight></arrival><arrival><pickID>de.gempa.tb1.Pick/20250411231853.575616.120617</pickID><phase>P</phase><azimuth>332.1255798339844</azimuth><distance>2.6992621421813965</distance><timeResidual>0.34285736083984375</timeResidual><timeUsed>true</timeUsed><horizontalSlownessUsed>false</horizontalSlownessUsed><backazimuthUsed>false</backazimuthUsed><weight>1</weight></arrival><arrival><pickID>de.gempa.tb1.Pick/20250411231853.805505.120619</pickID><phase>S</phase><azimuth>207.67930603027344</azimuth><distance>1.3589602708816528</distance><timeResidual>0.7406349182128906</timeResidual><timeUsed>true</timeUsed><horizontalSlownessUsed>false</horizontalSlownessUsed><backazimuthUsed>false</backazimuthUsed><weight>1</weight></arrival><arrival><pickID>de.gempa.tb1.Pick/20250411231854.776303.120621</pickID><phase>S</phase><azimuth>284.71612548828125</azimuth><distance>1.0587730407714844</distance><timeResidual>0.1219005584716797</timeResidual><timeUsed>true</timeUsed><horizontalSlownessUsed>false</horizontalSlownessUsed><backazimuthUsed>false</backazimuthUsed><weight>1</weight></arrival><arrival><pickID>de.gempa.tb1.Pick/20250411231906.691081.120627</pickID><phase>S</phase><azimuth>193.72325134277344</azimuth><distance>1.9517688751220703</distance><timeResidual>-0.22417640686035156</timeResidual><timeUsed>true</timeUsed><horizontalSlownessUsed>false</horizontalSlownessUsed><backazimuthUsed>false</backazimuthUsed><weight>1</weight></arrival><magnitude publicID="de.gempa.tb1.Magnitude/20250411231910.940373.152889"><magnitude><value>2.718247981613372</value></magnitude><type>M</type><methodID>weighted average</methodID><stationCount>6</stationCount></magnitude></origin><event publicID="gempa2025hemv"><preferredOriginID>de.gempa.tb1.Origin/20250411231906.69695.68221</preferredOriginID><preferredMagnitudeID>de.gempa.tb1.Magnitude/20250411231910.940373.152889</preferredMagnitudeID><description><text>Northern Chile</text><type>region name</type></description><originReference>de.gempa.tb1.Origin/20250411231906.69695.68221</originReference></event></EventParameters></seiscomp>