<?xml version="1.0" encoding="UTF-8"?>
<seiscomp xmlns="http://geofon.gfz-potsdam.de/ns/seiscomp3-schema/0.13" version="0.13"><EventParameters><pick publicID="de.gempa.tb1.Pick/20250412211317.30701.190798"><time><value>2025-04-12T21:13:11.51Z</value></time><waveformID networkCode="SX" stationCode="MULD" channelCode="HHZ"/><filterID>ITAPER(2)&gt;&gt;BW(3,3,20)</filterID><methodID>AIC</methodID><horizontalSlowness><value>23.521590350152056</value></horizontalSlowness><backazimuth><value>354.27888338027793</value></backazimuth><phaseHint>P</phaseHint><evaluationMode>automatic</evaluationMode><comment><text>1.8418399373505316</text><id>DFX:rectilinearity</id></comment></pick><pick publicID="de.gempa.tb1.Pick/20250412211317.456757.190800"><time><value>2025-04-12T21:13:10.2175Z</value></time><waveformID networkCode="SX" stationCode="WERN" channelCode="HHZ"/><filterID>ITAPER(2)&gt;&gt;BW(3,3,20)</filterID><methodID>AIC</methodID><horizontalSlowness><value>22.624672775266394</value></horizontalSlowness><backazimuth><value>250.9846342634945</value></backazimuth><phaseHint>P</phaseHint><evaluationMode>automatic</evaluationMode><comment><text>11.06393542615138</text><id>DFX:rectilinearity</id></comment></pick><pick publicID="de.gempa.tb1.Pick/20250412211318.86435.190802"><time><value>2025-04-12T21:13:11.49Z</value></time><waveformID networkCode="SX" stationCode="TANN" channelCode="HHZ"/><filterID>ITAPER(2)&gt;&gt;BW(3,3,20)</filterID><methodID>AIC</methodID><horizontalSlowness><value>23.163602618670105</value></horizontalSlowness><backazimuth><value>16.985588507354123</value></backazimuth><phaseHint>P</phaseHint><evaluationMode>automatic</evaluationMode><comment><text>1.3668850056874065</text><id>DFX:rectilinearity</id></comment></pick><pick publicID="de.gempa.tb1.Pick/20250412211323.544749.190804"><time><value>2025-04-12T21:13:12.51Z</value></time><waveformID networkCode="SX" stationCode="TRIB" channelCode="HHZ"/><filterID>ITAPER(2)&gt;&gt;BW(3,3,20)</filterID><methodID>AIC</methodID><horizontalSlowness><value>17.734720493082438</value></horizontalSlowness><backazimuth><value>330.5041123875833</value></backazimuth><phaseHint>P</phaseHint><evaluationMode>automatic</evaluationMode><comment><text>2.358858830627135</text><id>DFX:rectilinearity</id></comment></pick><pick publicID="de.gempa.tb1.Pick/20250412211323.848392.190806"><time><value>2025-04-12T21:13:13.86Z</value></time><waveformID networkCode="SX" stationCode="TANN" channelCode="HHN"/><filterID>ITAPER(3)&gt;&gt;BW(4,3,10)</filterID><methodID>L2-AIC-GRID</methodID><horizontalSlowness><value>9.913315918441462</value><uncertainty>2.295846178322758</uncertainty></horizontalSlowness><backazimuth><value>359.7103002825794</value><uncertainty>13.29908728925558</uncertainty></backazimuth><phaseHint>S</phaseHint><evaluationMode>automatic</evaluationMode><comment><text>1.0947401766655769</text><id>DFX:rectilinearity</id></comment><comment><text>de.gempa.tb1.Pick/20250412211318.86435.190802</text><id>RefPickID</id></comment></pick><pick publicID="de.gempa.tb1.Pick/20250412211325.493181.190807"><time><value>2025-04-12T21:13:12.96Z</value></time><waveformID networkCode="SX" stationCode="GUNZ" channelCode="HHZ"/><filterID>ITAPER(2)&gt;&gt;BW(3,3,20)</filterID><methodID>AIC</methodID><horizontalSlowness><value>21.02356056677349</value></horizontalSlowness><backazimuth><value>269.07813197475093</value></backazimuth><phaseHint>P</phaseHint><evaluationMode>automatic</evaluationMode><comment><text>5.58849831107988</text><id>DFX:rectilinearity</id></comment></pick><pick publicID="de.gempa.tb1.Pick/20250412211326.115326.190809"><time><value>2025-04-12T21:13:13.72Z</value></time><waveformID networkCode="SX" stationCode="MULD" channelCode="HHN"/><filterID>ITAPER(3)&gt;&gt;BW(4,3,10)</filterID><methodID>L2-AIC-GRID</methodID><horizontalSlowness><value>22.799180796079753</value></horizontalSlowness><backazimuth><value>334.0726041088991</value></backazimuth><phaseHint>S</phaseHint><evaluationMode>automatic</evaluationMode><comment><text>2.278184792874628</text><id>DFX:rectilinearity</id></comment><comment><text>de.gempa.tb1.Pick/20250412211317.30701.190798</text><id>RefPickID</id></comment></pick><pick publicID="de.gempa.tb1.Pick/20250412211328.664606.190810"><time><value>2025-04-12T21:13:15.46Z</value></time><waveformID networkCode="SX" stationCode="TRIB" channelCode="HHN"/><filterID>ITAPER(3)&gt;&gt;BW(4,3,10)</filterID><methodID>L2-AIC-GRID</methodID><horizontalSlowness><value>11.501936652975829</value></horizontalSlowness><backazimuth><value>292.42114960291815</value></backazimuth><phaseHint>S</phaseHint><evaluationMode>automatic</evaluationMode><comment><text>2.357159259507541</text><id>DFX:rectilinearity</id></comment><comment><text>de.gempa.tb1.Pick/20250412211323.544749.190804</text><id>RefPickID</id></comment></pick><pick publicID="de.gempa.tb1.Pick/20250412211423.635278.190824"><time><value>2025-04-12T21:14:17.34Z</value></time><waveformID networkCode="PL" stationCode="GKP" channelCode="HHZ"/><filterID>ITAPER(2)&gt;&gt;BW(3,3,20)</filterID><methodID>AIC</methodID><horizontalSlowness><value>6.18695746762101</value></horizontalSlowness><backazimuth><value>324.9656214458273</value></backazimuth><phaseHint>P</phaseHint><evaluationMode>automatic</evaluationMode><comment><text>22.698618716975826</text><id>DFX:rectilinearity</id></comment></pick><origin publicID="de.gempa.tb1.Origin/20250412211427.635759.189209"><time><value>2025-04-12T21:13:10.111472Z</value><uncertainty>0.6625358462333679</uncertainty></time><latitude><value>50.29008865356445</value><uncertainty>3.6554718017578125</uncertainty></latitude><longitude><value>12.382241249084473</value><uncertainty>3.238471746444702</uncertainty></longitude><depth><value>0</value></depth><depthType>operator assigned</depthType><methodID>LOCSAT</methodID><earthModelID>iasp91</earthModelID><quality><associatedPhaseCount>9</associatedPhaseCount><usedPhaseCount>9</usedPhaseCount><associatedStationCount>6</associatedStationCount><usedStationCount>6</usedStationCount><depthPhaseCount>0</depthPhaseCount><standardError>0.9414910241040765</standardError><azimuthalGap>192.2320785522461</azimuthalGap><maximumDistance>4.240939140319824</maximumDistance><minimumDistance>0.004771869629621506</minimumDistance><medianDistance>0.13485880196094513</medianDistance></quality><uncertainty><minHorizontalUncertainty>4.852762222290039</minHorizontalUncertainty><maxHorizontalUncertainty>9.283635139465332</maxHorizontalUncertainty><azimuthMaxHorizontalUncertainty>141.09542846679688</azimuthMaxHorizontalUncertainty><preferredDescription>horizontal uncertainty</preferredDescription></uncertainty><evaluationMode>automatic</evaluationMode><evaluationStatus>confirmed</evaluationStatus><comment><text>0.50</text><id>mismatchScore</id></comment><comment><text>mismatchScore</text><id>scevalMethod</id></comment><arrival><pickID>de.gempa.tb1.Pick/20250412211317.30701.190798</pickID><phase>P</phase><azimuth>6.487448692321777</azimuth><distance>0.12264835834503174</distance><timeResidual>-1.0796921253204346</timeResidual><timeUsed>true</timeUsed><horizontalSlownessUsed>false</horizontalSlownessUsed><backazimuthUsed>false</backazimuthUsed><weight>1</weight></arrival><arrival><pickID>de.gempa.tb1.Pick/20250412211317.456757.190800</pickID><phase>P</phase><azimuth>235.65077209472656</azimuth><distance>0.004771869629621506</distance><timeResidual>-0.13168475031852722</timeResidual><timeUsed>true</timeUsed><horizontalSlownessUsed>false</horizontalSlownessUsed><backazimuthUsed>false</backazimuthUsed><weight>1</weight></arrival><arrival><pickID>de.gempa.tb1.Pick/20250412211318.86435.190802</pickID><phase>P</phase><azimuth>21.939626693725586</azimuth><distance>0.13485880196094513</distance><timeResidual>-1.3317954540252686</timeResidual><timeUsed>true</timeUsed><horizontalSlownessUsed>false</horizontalSlownessUsed><backazimuthUsed>false</backazimuthUsed><weight>1</weight></arrival><arrival><pickID>de.gempa.tb1.Pick/20250412211323.544749.190804</pickID><phase>P</phase><azimuth>291.614013671875</azimuth><distance>0.1689852476119995</distance><timeResidual>-0.9606135487556458</timeResidual><timeUsed>true</timeUsed><horizontalSlownessUsed>false</horizontalSlownessUsed><backazimuthUsed>false</backazimuthUsed><weight>1</weight></arrival><arrival><pickID>de.gempa.tb1.Pick/20250412211323.848392.190806</pickID><phase>S</phase><azimuth>21.939626693725586</azimuth><distance>0.13485880196094513</distance><timeResidual>0.006662555038928986</timeResidual><timeUsed>true</timeUsed><horizontalSlownessUsed>false</horizontalSlownessUsed><backazimuthUsed>false</backazimuthUsed><weight>1</weight></arrival><arrival><pickID>de.gempa.tb1.Pick/20250412211325.493181.190807</pickID><phase>P</phase><azimuth>336.19268798828125</azimuth><distance>0.08034757524728775</distance><timeResidual>1.1743232011795044</timeResidual><timeUsed>true</timeUsed><horizontalSlownessUsed>false</horizontalSlownessUsed><backazimuthUsed>false</backazimuthUsed><weight>1</weight></arrival><arrival><pickID>de.gempa.tb1.Pick/20250412211326.115326.190809</pickID><phase>S</phase><azimuth>6.487448692321777</azimuth><distance>0.12264835834503174</distance><timeResidual>0.27031606435775757</timeResidual><timeUsed>true</timeUsed><horizontalSlownessUsed>false</horizontalSlownessUsed><backazimuthUsed>false</backazimuthUsed><weight>1</weight></arrival><arrival><pickID>de.gempa.tb1.Pick/20250412211328.664606.190810</pickID><phase>S</phase><azimuth>291.614013671875</azimuth><distance>0.1689852476119995</distance><timeResidual>0.478263795375824</timeResidual><timeUsed>true</timeUsed><horizontalSlownessUsed>false</horizontalSlownessUsed><backazimuthUsed>false</backazimuthUsed><weight>1</weight></arrival><arrival><pickID>de.gempa.tb1.Pick/20250412211423.635278.190824</pickID><phase>P</phase><azimuth>43.41869354248047</azimuth><distance>4.240939140319824</distance><timeResidual>1.554743766784668</timeResidual><timeUsed>true</timeUsed><horizontalSlownessUsed>false</horizontalSlownessUsed><backazimuthUsed>false</backazimuthUsed><weight>1</weight></arrival><magnitude publicID="de.gempa.tb1.Magnitude/20250412211427.643396.284099"><magnitude><value>0.13663902841252262</value></magnitude><type>M</type><methodID>weighted average</methodID><stationCount>5</stationCount></magnitude></origin><event publicID="gempa2025hger"><preferredOriginID>de.gempa.tb1.Origin/20250412211427.635759.189209</preferredOriginID><preferredMagnitudeID>de.gempa.tb1.Magnitude/20250412211427.643396.284099</preferredMagnitudeID><description><text>Germany</text><type>region name</type></description><originReference>de.gempa.tb1.Origin/20250412211427.635759.189209</originReference></event></EventParameters></seiscomp>