<?xml version="1.0" encoding="UTF-8"?>
<seiscomp xmlns="http://geofon.gfz-potsdam.de/ns/seiscomp3-schema/0.13" version="0.13"><EventParameters><pick publicID="de.gempa.tb1.Pick/20250413144022.523641.131856"><time><value>2025-04-13T14:40:17.528393Z</value></time><waveformID networkCode="CX" stationCode="PB02" channelCode="HHZ"/><filterID>ITAPER(4)&gt;&gt;BW(4,4,20)</filterID><methodID>AIC</methodID><horizontalSlowness><value>9.7445031608085</value></horizontalSlowness><backazimuth><value>285.18729990110415</value></backazimuth><phaseHint>P</phaseHint><evaluationMode>automatic</evaluationMode><comment><text>63.64791736280513</text><id>DFX:rectilinearity</id></comment><comment><text>55.74692506793198</text><id>SNR</id></comment></pick><pick publicID="de.gempa.tb1.Pick/20250413144029.544072.131858"><time><value>2025-04-13T14:40:22.698393Z</value></time><waveformID networkCode="CX" stationCode="PB02" channelCode="HHN"/><filterID>ITAPER(2)&gt;&gt;BW(3,3,20)</filterID><methodID>L2-AIC-GRID</methodID><horizontalSlowness><value>17.936597475172302</value></horizontalSlowness><backazimuth><value>78.27893520767206</value></backazimuth><phaseHint>S</phaseHint><evaluationMode>automatic</evaluationMode><comment><text>171.317732111913</text><id>DFX:rectilinearity</id></comment><comment><text>de.gempa.tb1.Pick/20250413144022.523641.131856</text><id>RefPickID</id></comment><comment><text>5.691916313068476</text><id>SNR</id></comment></pick><pick publicID="de.gempa.tb1.Pick/20250413144030.51303.131859"><time><value>2025-04-13T14:40:22.768393Z</value></time><waveformID networkCode="CX" stationCode="PB01" channelCode="HHZ"/><filterID>ITAPER(4)&gt;&gt;BW(4,4,20)</filterID><methodID>AIC</methodID><horizontalSlowness><value>20.369734226518261</value></horizontalSlowness><backazimuth><value>129.20892157706757</value></backazimuth><phaseHint>P</phaseHint><evaluationMode>automatic</evaluationMode><comment><text>10.562375743476023</text><id>DFX:rectilinearity</id></comment><comment><text>50.05141110590738</text><id>SNR</id></comment></pick><pick publicID="de.gempa.tb1.Pick/20250413144034.257671.131861"><time><value>2025-04-13T14:40:24.799999Z</value></time><waveformID networkCode="CX" stationCode="PATCX" channelCode="HHZ"/><filterID>ITAPER(4)&gt;&gt;BW(4,4,20)</filterID><methodID>AIC</methodID><horizontalSlowness><value>19.54977850871017</value></horizontalSlowness><backazimuth><value>102.9676632018689</value></backazimuth><phaseHint>P</phaseHint><evaluationMode>automatic</evaluationMode><comment><text>155.2470481812524</text><id>DFX:rectilinearity</id></comment><comment><text>7.980057746035468</text><id>SNR</id></comment></pick><pick publicID="de.gempa.tb1.Pick/20250413144038.528216.131863"><time><value>2025-04-13T14:40:29.220001Z</value></time><waveformID networkCode="CX" stationCode="PB09" channelCode="HHZ"/><filterID>ITAPER(4)&gt;&gt;BW(4,4,20)</filterID><methodID>AIC</methodID><horizontalSlowness><value>18.67546842758603</value></horizontalSlowness><backazimuth><value>289.09179858262195</value></backazimuth><phaseHint>P</phaseHint><evaluationMode>automatic</evaluationMode><comment><text>24.563299447990975</text><id>DFX:rectilinearity</id></comment><comment><text>13.396162873257722</text><id>SNR</id></comment></pick><pick publicID="de.gempa.tb1.Pick/20250413144039.60101.131865"><time><value>2025-04-13T14:40:31.628393Z</value></time><waveformID networkCode="CX" stationCode="PB01" channelCode="HHN"/><filterID>ITAPER(2)&gt;&gt;BW(3,3,20)</filterID><methodID>L2-AIC-GRID</methodID><horizontalSlowness><value>10.600533794507754</value></horizontalSlowness><backazimuth><value>353.16648403536874</value></backazimuth><phaseHint>S</phaseHint><evaluationMode>automatic</evaluationMode><comment><text>110.64209262477009</text><id>DFX:rectilinearity</id></comment><comment><text>de.gempa.tb1.Pick/20250413144030.51303.131859</text><id>RefPickID</id></comment><comment><text>22.344616337083597</text><id>SNR</id></comment></pick><pick publicID="de.gempa.tb1.Pick/20250413144051.783559.131866"><time><value>2025-04-13T14:40:21.398394Z</value></time><waveformID networkCode="CX" stationCode="PB07" channelCode="HHZ"/><filterID>ITAPER(4)&gt;&gt;BW(4,4,20)</filterID><methodID>AIC</methodID><horizontalSlowness><value>23.150144534493737</value></horizontalSlowness><backazimuth><value>38.807211006327066</value></backazimuth><phaseHint>P</phaseHint><evaluationMode>automatic</evaluationMode><comment><text>194.80073133799587</text><id>DFX:rectilinearity</id></comment><comment><text>28.623907254260413</text><id>SNR</id></comment></pick><pick publicID="de.gempa.tb1.Pick/20250413144055.403727.131868"><time><value>2025-04-13T14:40:29.338394Z</value></time><waveformID networkCode="CX" stationCode="PB07" channelCode="HHN"/><filterID>ITAPER(2)&gt;&gt;BW(3,3,20)</filterID><methodID>L2-AIC-GRID</methodID><horizontalSlowness><value>22.693413216240586</value></horizontalSlowness><backazimuth><value>280.29350041622604</value></backazimuth><phaseHint>S</phaseHint><evaluationMode>automatic</evaluationMode><comment><text>352.84187872610084</text><id>DFX:rectilinearity</id></comment><comment><text>de.gempa.tb1.Pick/20250413144051.783559.131866</text><id>RefPickID</id></comment><comment><text>7.679727322401696</text><id>SNR</id></comment></pick><origin publicID="de.gempa.tb1.Origin/20250413144055.406759.112685"><time><value>2025-04-13T14:40:13.243448Z</value><uncertainty>0.606602132320404</uncertainty></time><latitude><value>-21.318405151367188</value><uncertainty>2.9944701194763184</uncertainty></latitude><longitude><value>-69.935546875</value><uncertainty>4.975523471832275</uncertainty></longitude><depth><value>30.50971221923828</value><uncertainty>4.3506035804748535</uncertainty></depth><depthType>from location</depthType><methodID>LOCSAT</methodID><earthModelID>iasp91_scanloc</earthModelID><quality><associatedPhaseCount>8</associatedPhaseCount><usedPhaseCount>8</usedPhaseCount><associatedStationCount>5</associatedStationCount><usedStationCount>5</usedStationCount><depthPhaseCount>0</depthPhaseCount><standardError>0.6944157276905036</standardError><azimuthalGap>164.1203155517578</azimuthalGap><maximumDistance>0.8019570708274841</maximumDistance><minimumDistance>0.0368720144033432</minimumDistance><medianDistance>0.4998961091041565</medianDistance></quality><uncertainty><minHorizontalUncertainty>6.116803169250488</minHorizontalUncertainty><maxHorizontalUncertainty>10.84945297241211</maxHorizontalUncertainty><azimuthMaxHorizontalUncertainty>102.61955261230469</azimuthMaxHorizontalUncertainty><preferredDescription>horizontal uncertainty</preferredDescription></uncertainty><evaluationMode>automatic</evaluationMode><evaluationStatus>confirmed</evaluationStatus><comment><text>0.00</text><id>mismatchScore</id></comment><comment><text>mismatchScore</text><id>scevalMethod</id></comment><arrival><pickID>de.gempa.tb1.Pick/20250413144022.523641.131856</pickID><phase>P</phase><azimuth>92.05728149414062</azimuth><distance>0.0368720144033432</distance><timeResidual>-0.842902660369873</timeResidual><timeUsed>true</timeUsed><horizontalSlownessUsed>false</horizontalSlownessUsed><backazimuthUsed>false</backazimuthUsed><weight>1</weight></arrival><arrival><pickID>de.gempa.tb1.Pick/20250413144029.544072.131858</pickID><phase>S</phase><azimuth>92.05728149414062</azimuth><distance>0.0368720144033432</distance><timeResidual>0.5916543006896973</timeResidual><timeUsed>true</timeUsed><horizontalSlownessUsed>false</horizontalSlownessUsed><backazimuthUsed>false</backazimuthUsed><weight>1</weight></arrival><arrival><pickID>de.gempa.tb1.Pick/20250413144030.51303.131859</pickID><phase>P</phase><azimuth>56.86902236938477</azimuth><distance>0.4998961091041565</distance><timeResidual>-0.9227681159973145</timeResidual><timeUsed>true</timeUsed><horizontalSlownessUsed>false</horizontalSlownessUsed><backazimuthUsed>false</backazimuthUsed><weight>1</weight></arrival><arrival><pickID>de.gempa.tb1.Pick/20250413144034.257671.131861</pickID><phase>P</phase><azimuth>337.6737060546875</azimuth><distance>0.5352009534835815</distance><timeResidual>0.5470676422119141</timeResidual><timeUsed>true</timeUsed><horizontalSlownessUsed>false</horizontalSlownessUsed><backazimuthUsed>false</backazimuthUsed><weight>1</weight></arrival><arrival><pickID>de.gempa.tb1.Pick/20250413144038.528216.131863</pickID><phase>P</phase><azimuth>126.5025863647461</azimuth><distance>0.8019570708274841</distance><timeResidual>0.744936466217041</timeResidual><timeUsed>true</timeUsed><horizontalSlownessUsed>false</horizontalSlownessUsed><backazimuthUsed>false</backazimuthUsed><weight>1</weight></arrival><arrival><pickID>de.gempa.tb1.Pick/20250413144039.60101.131865</pickID><phase>S</phase><azimuth>56.86902236938477</azimuth><distance>0.4998961091041565</distance><timeResidual>0.31275033950805664</timeResidual><timeUsed>true</timeUsed><horizontalSlownessUsed>false</horizontalSlownessUsed><backazimuthUsed>false</backazimuthUsed><weight>1</weight></arrival><arrival><pickID>de.gempa.tb1.Pick/20250413144051.783559.131866</pickID><phase>P</phase><azimuth>173.5533905029297</azimuth><distance>0.40885311365127563</distance><timeResidual>-0.886568546295166</timeResidual><timeUsed>true</timeUsed><horizontalSlownessUsed>false</horizontalSlownessUsed><backazimuthUsed>false</backazimuthUsed><weight>1</weight></arrival><arrival><pickID>de.gempa.tb1.Pick/20250413144055.403727.131868</pickID><phase>S</phase><azimuth>173.5533905029297</azimuth><distance>0.40885311365127563</distance><timeResidual>0.4556698799133301</timeResidual><timeUsed>true</timeUsed><horizontalSlownessUsed>false</horizontalSlownessUsed><backazimuthUsed>false</backazimuthUsed><weight>1</weight></arrival><magnitude publicID="de.gempa.tb1.Magnitude/20250413144100.938241.368667"><magnitude><value>1.8381924059314776</value></magnitude><type>M</type><methodID>weighted average</methodID><stationCount>5</stationCount></magnitude></origin><event publicID="gempa2025hhnp"><preferredOriginID>de.gempa.tb1.Origin/20250413144055.406759.112685</preferredOriginID><preferredMagnitudeID>de.gempa.tb1.Magnitude/20250413144100.938241.368667</preferredMagnitudeID><description><text>Northern Chile</text><type>region name</type></description><originReference>de.gempa.tb1.Origin/20250413144055.406759.112685</originReference></event></EventParameters></seiscomp>