<?xml version="1.0" encoding="UTF-8"?>
<seiscomp xmlns="http://geofon.gfz-potsdam.de/ns/seiscomp3-schema/0.13" version="0.13"><EventParameters><pick publicID="de.gempa.tb1.Pick/20250414030540.86539.135237"><time><value>2025-04-14T03:05:34.888393Z</value></time><waveformID networkCode="CX" stationCode="PB08" channelCode="HHZ"/><filterID>ITAPER(4)&gt;&gt;BW(4,4,20)</filterID><methodID>AIC</methodID><horizontalSlowness><value>12.982807555571839</value></horizontalSlowness><backazimuth><value>94.39862913877819</value></backazimuth><phaseHint>P</phaseHint><evaluationMode>automatic</evaluationMode><comment><text>6.157270598288395</text><id>DFX:rectilinearity</id></comment><comment><text>9.592609255030943</text><id>SNR</id></comment></pick><pick publicID="de.gempa.tb1.Pick/20250414030543.535239.135239"><time><value>2025-04-14T03:05:37.998391Z</value></time><waveformID networkCode="CX" stationCode="PB01" channelCode="HHZ"/><filterID>ITAPER(4)&gt;&gt;BW(4,4,20)</filterID><methodID>AIC</methodID><horizontalSlowness><value>18.496040458183302</value></horizontalSlowness><backazimuth><value>324.7678519148668</value></backazimuth><phaseHint>P</phaseHint><evaluationMode>automatic</evaluationMode><comment><text>10.461657401119433</text><id>DFX:rectilinearity</id></comment><comment><text>17.538610353876042</text><id>SNR</id></comment></pick><pick publicID="de.gempa.tb1.Pick/20250414030546.542166.135241"><time><value>2025-04-14T03:05:41.45Z</value></time><waveformID networkCode="CX" stationCode="PSGCX" channelCode="HHZ"/><filterID>ITAPER(4)&gt;&gt;BW(4,4,20)</filterID><methodID>AIC</methodID><horizontalSlowness><value>12.898936585517797</value></horizontalSlowness><backazimuth><value>249.41385988277915</value></backazimuth><phaseHint>P</phaseHint><evaluationMode>automatic</evaluationMode><comment><text>14.6217193834876</text><id>DFX:rectilinearity</id></comment><comment><text>9.344002445588927</text><id>SNR</id></comment></pick><pick publicID="de.gempa.tb1.Pick/20250414030552.674261.135245"><time><value>2025-04-14T03:05:46.558393Z</value></time><waveformID networkCode="CX" stationCode="PB08" channelCode="HHN"/><filterID>ITAPER(2)&gt;&gt;BW(3,3,20)</filterID><methodID>L2-AIC-GRID</methodID><horizontalSlowness><value>10.533787610557765</value></horizontalSlowness><backazimuth><value>215.37363339703955</value></backazimuth><phaseHint>S</phaseHint><evaluationMode>automatic</evaluationMode><comment><text>58.62372045020091</text><id>DFX:rectilinearity</id></comment><comment><text>de.gempa.tb1.Pick/20250414030540.86539.135237</text><id>RefPickID</id></comment><comment><text>15.786060911059296</text><id>SNR</id></comment></pick><pick publicID="de.gempa.tb1.Pick/20250414030555.702629.135246"><time><value>2025-04-14T03:05:46.648394Z</value></time><waveformID networkCode="CX" stationCode="PB07" channelCode="HHZ"/><filterID>ITAPER(4)&gt;&gt;BW(4,4,20)</filterID><methodID>AIC</methodID><horizontalSlowness><value>18.640783160588946</value></horizontalSlowness><backazimuth><value>324.03206750434435</value></backazimuth><phaseHint>P</phaseHint><evaluationMode>automatic</evaluationMode><comment><text>149.9905837006666</text><id>DFX:rectilinearity</id></comment><comment><text>8.837559533041592</text><id>SNR</id></comment></pick><pick publicID="de.gempa.tb1.Pick/20250414030559.586247.135248"><time><value>2025-04-14T03:05:52.528391Z</value></time><waveformID networkCode="CX" stationCode="PB01" channelCode="HHN"/><filterID>ITAPER(2)&gt;&gt;BW(3,3,20)</filterID><methodID>L2-AIC-GRID</methodID><horizontalSlowness><value>22.681692412349406</value></horizontalSlowness><backazimuth><value>346.5029587886088</value></backazimuth><phaseHint>S</phaseHint><evaluationMode>automatic</evaluationMode><comment><text>35.658031487643626</text><id>DFX:rectilinearity</id></comment><comment><text>de.gempa.tb1.Pick/20250414030543.535239.135239</text><id>RefPickID</id></comment><comment><text>9.299050823109264</text><id>SNR</id></comment></pick><pick publicID="de.gempa.tb1.Pick/20250414030611.576769.135254"><time><value>2025-04-14T03:05:58.91Z</value></time><waveformID networkCode="CX" stationCode="PSGCX" channelCode="HHN"/><filterID>ITAPER(2)&gt;&gt;BW(3,3,20)</filterID><methodID>L2-AIC-GRID</methodID><horizontalSlowness><value>20.348786149641143</value></horizontalSlowness><backazimuth><value>134.61635978675449</value></backazimuth><phaseHint>S</phaseHint><evaluationMode>automatic</evaluationMode><comment><text>23.18747375477138</text><id>DFX:rectilinearity</id></comment><comment><text>de.gempa.tb1.Pick/20250414030546.542166.135241</text><id>RefPickID</id></comment><comment><text>9.274992161657277</text><id>SNR</id></comment></pick><pick publicID="de.gempa.tb1.Pick/20250414030615.775836.135255"><time><value>2025-04-14T03:06:06.168394Z</value></time><waveformID networkCode="CX" stationCode="PB07" channelCode="HHN"/><filterID>ITAPER(2)&gt;&gt;BW(3,3,20)</filterID><methodID>L2-AIC-GRID</methodID><horizontalSlowness><value>22.66205519308513</value></horizontalSlowness><backazimuth><value>21.783493046991538</value></backazimuth><phaseHint>S</phaseHint><evaluationMode>automatic</evaluationMode><comment><text>301.5917784751415</text><id>DFX:rectilinearity</id></comment><comment><text>de.gempa.tb1.Pick/20250414030555.702629.135246</text><id>RefPickID</id></comment><comment><text>5.495034424326757</text><id>SNR</id></comment></pick><origin publicID="de.gempa.tb1.Origin/20250414030615.779016.125042"><time><value>2025-04-14T03:05:19.646723Z</value><uncertainty>1.260402798652649</uncertainty></time><latitude><value>-20.349130630493164</value><uncertainty>3.5814781188964844</uncertainty></latitude><longitude><value>-69.27728271484375</value><uncertainty>8.032824516296387</uncertainty></longitude><depth><value>108.11453247070312</value><uncertainty>8.127058029174805</uncertainty></depth><depthType>from location</depthType><methodID>LOCSAT</methodID><earthModelID>iasp91_scanloc</earthModelID><quality><associatedPhaseCount>8</associatedPhaseCount><usedPhaseCount>8</usedPhaseCount><associatedStationCount>4</associatedStationCount><usedStationCount>4</usedStationCount><depthPhaseCount>0</depthPhaseCount><standardError>0.31711173405514276</standardError><azimuthalGap>166.50110054016113</azimuthalGap><maximumDistance>1.4839998483657837</maximumDistance><minimumDistance>0.23740054666996</minimumDistance><medianDistance>1.0920021533966064</medianDistance></quality><uncertainty><minHorizontalUncertainty>7.544601440429688</minHorizontalUncertainty><maxHorizontalUncertainty>17.28580093383789</maxHorizontalUncertainty><azimuthMaxHorizontalUncertainty>84.6975326538086</azimuthMaxHorizontalUncertainty><preferredDescription>horizontal uncertainty</preferredDescription></uncertainty><evaluationMode>automatic</evaluationMode><evaluationStatus>confirmed</evaluationStatus><comment><text>0.16</text><id>mismatchScore</id></comment><comment><text>mismatchScore</text><id>scevalMethod</id></comment><arrival><pickID>de.gempa.tb1.Pick/20250414030540.86539.135237</pickID><phase>P</phase><azimuth>29.361692428588867</azimuth><distance>0.23740054666996</distance><timeResidual>-0.05085468292236328</timeResidual><timeUsed>true</timeUsed><horizontalSlownessUsed>false</horizontalSlownessUsed><backazimuthUsed>false</backazimuthUsed><weight>1</weight></arrival><arrival><pickID>de.gempa.tb1.Pick/20250414030543.535239.135239</pickID><phase>P</phase><azimuth>195.86279296875</azimuth><distance>0.71807461977005</distance><timeResidual>-0.007276535034179688</timeResidual><timeUsed>true</timeUsed><horizontalSlownessUsed>false</horizontalSlownessUsed><backazimuthUsed>false</backazimuthUsed><weight>1</weight></arrival><arrival><pickID>de.gempa.tb1.Pick/20250414030546.542166.135241</pickID><phase>P</phase><azimuth>313.0960388183594</azimuth><distance>1.0920021533966064</distance><timeResidual>-0.25114917755126953</timeResidual><timeUsed>true</timeUsed><horizontalSlownessUsed>false</horizontalSlownessUsed><backazimuthUsed>false</backazimuthUsed><weight>1</weight></arrival><arrival><pickID>de.gempa.tb1.Pick/20250414030552.674261.135245</pickID><phase>S</phase><azimuth>29.361692428588867</azimuth><distance>0.23740054666996</distance><timeResidual>-0.13803386688232422</timeResidual><timeUsed>true</timeUsed><horizontalSlownessUsed>false</horizontalSlownessUsed><backazimuthUsed>false</backazimuthUsed><weight>1</weight></arrival><arrival><pickID>de.gempa.tb1.Pick/20250414030555.702629.135246</pickID><phase>P</phase><azimuth>202.4292755126953</azimuth><distance>1.4839998483657837</distance><timeResidual>0.4713039398193359</timeResidual><timeUsed>true</timeUsed><horizontalSlownessUsed>false</horizontalSlownessUsed><backazimuthUsed>false</backazimuthUsed><weight>1</weight></arrival><arrival><pickID>de.gempa.tb1.Pick/20250414030559.586247.135248</pickID><phase>S</phase><azimuth>195.86279296875</azimuth><distance>0.71807461977005</distance><timeResidual>0.3769063949584961</timeResidual><timeUsed>true</timeUsed><horizontalSlownessUsed>false</horizontalSlownessUsed><backazimuthUsed>false</backazimuthUsed><weight>1</weight></arrival><arrival><pickID>de.gempa.tb1.Pick/20250414030611.576769.135254</pickID><phase>S</phase><azimuth>313.0960388183594</azimuth><distance>1.0920021533966064</distance><timeResidual>0.1704721450805664</timeResidual><timeUsed>true</timeUsed><horizontalSlownessUsed>false</horizontalSlownessUsed><backazimuthUsed>false</backazimuthUsed><weight>1</weight></arrival><arrival><pickID>de.gempa.tb1.Pick/20250414030615.775836.135255</pickID><phase>S</phase><azimuth>202.4292755126953</azimuth><distance>1.4839998483657837</distance><timeResidual>-0.5713701248168945</timeResidual><timeUsed>true</timeUsed><horizontalSlownessUsed>false</horizontalSlownessUsed><backazimuthUsed>false</backazimuthUsed><weight>1</weight></arrival><magnitude publicID="de.gempa.tb1.Magnitude/20250414030615.848173.422573"><magnitude><value>1.4281653237759473</value></magnitude><type>M</type><methodID>weighted average</methodID><stationCount>2</stationCount></magnitude></origin><event publicID="gempa2025himl"><preferredOriginID>de.gempa.tb1.Origin/20250414030615.779016.125042</preferredOriginID><preferredMagnitudeID>de.gempa.tb1.Magnitude/20250414030615.848173.422573</preferredMagnitudeID><description><text>Northern Chile</text><type>region name</type></description><originReference>de.gempa.tb1.Origin/20250414030615.779016.125042</originReference></event></EventParameters></seiscomp>