<?xml version="1.0" encoding="UTF-8"?>
<seiscomp xmlns="http://geofon.gfz-potsdam.de/ns/seiscomp3-schema/0.13" version="0.13"><EventParameters><pick publicID="de.gempa.tb1.Pick/20250411100715.550303.118244"><time><value>2025-04-11T10:07:10.068393Z</value></time><waveformID networkCode="CX" stationCode="PB03" channelCode="HHZ"/><filterID>ITAPER(4)&gt;&gt;BW(4,4,20)</filterID><methodID>AIC</methodID><horizontalSlowness><value>13.11117318965794</value></horizontalSlowness><backazimuth><value>148.11390773986705</value></backazimuth><phaseHint>P</phaseHint><evaluationMode>automatic</evaluationMode><comment><text>15.035923689364258</text><id>DFX:rectilinearity</id></comment><comment><text>7.839358528002425</text><id>SNR</id></comment></pick><pick publicID="de.gempa.tb1.Pick/20250411100717.493237.118246"><time><value>2025-04-11T10:07:07.64Z</value></time><waveformID networkCode="CX" stationCode="PB09" channelCode="HHZ"/><filterID>ITAPER(4)&gt;&gt;BW(4,4,20)</filterID><methodID>AIC</methodID><horizontalSlowness><value>15.967829932868767</value></horizontalSlowness><backazimuth><value>118.41220134960608</value></backazimuth><phaseHint>P</phaseHint><evaluationMode>automatic</evaluationMode><comment><text>9.016042607054551</text><id>DFX:rectilinearity</id></comment><comment><text>17.681176357254774</text><id>SNR</id></comment></pick><pick publicID="de.gempa.tb1.Pick/20250411100717.672566.118248"><time><value>2025-04-11T10:07:12.968393Z</value></time><waveformID networkCode="CX" stationCode="PB06" channelCode="HHZ"/><filterID>ITAPER(4)&gt;&gt;BW(4,4,20)</filterID><methodID>AIC</methodID><horizontalSlowness><value>18.540044115988348</value></horizontalSlowness><backazimuth><value>319.75838976263213</value></backazimuth><phaseHint>P</phaseHint><evaluationMode>automatic</evaluationMode><comment><text>59.64666571938631</text><id>DFX:rectilinearity</id></comment><comment><text>11.157026139342133</text><id>SNR</id></comment></pick><pick publicID="de.gempa.tb1.Pick/20250411100718.546759.118250"><time><value>2025-04-11T10:07:12.188393Z</value></time><waveformID networkCode="CX" stationCode="PB01" channelCode="HHZ"/><filterID>ITAPER(4)&gt;&gt;BW(4,4,20)</filterID><methodID>AIC</methodID><horizontalSlowness><value>13.92507872609542</value></horizontalSlowness><backazimuth><value>268.06683145112805</value></backazimuth><phaseHint>P</phaseHint><evaluationMode>automatic</evaluationMode><comment><text>13.03526874806304</text><id>DFX:rectilinearity</id></comment><comment><text>21.773099187037374</text><id>SNR</id></comment></pick><pick publicID="de.gempa.tb1.Pick/20250411100720.531117.118252"><time><value>2025-04-11T10:07:13.018393Z</value></time><waveformID networkCode="CX" stationCode="PB02" channelCode="HHZ"/><filterID>ITAPER(4)&gt;&gt;BW(4,4,20)</filterID><methodID>AIC</methodID><horizontalSlowness><value>10.344738601291686</value></horizontalSlowness><backazimuth><value>35.55437579884591</value></backazimuth><phaseHint>P</phaseHint><evaluationMode>automatic</evaluationMode><comment><text>36.87573723333329</text><id>DFX:rectilinearity</id></comment><comment><text>9.923999579601739</text><id>SNR</id></comment></pick><pick publicID="de.gempa.tb1.Pick/20250411100731.628983.118254"><time><value>2025-04-11T10:07:23.018393Z</value></time><waveformID networkCode="CX" stationCode="PB03" channelCode="HHN"/><filterID>ITAPER(2)&gt;&gt;BW(3,3,20)</filterID><methodID>L2-AIC-GRID</methodID><horizontalSlowness><value>15.362285103580723</value></horizontalSlowness><backazimuth><value>291.2587212105167</value></backazimuth><phaseHint>S</phaseHint><evaluationMode>automatic</evaluationMode><comment><text>53.38851052877256</text><id>DFX:rectilinearity</id></comment><comment><text>de.gempa.tb1.Pick/20250411100715.550303.118244</text><id>RefPickID</id></comment><comment><text>23.372778245401573</text><id>SNR</id></comment></pick><pick publicID="de.gempa.tb1.Pick/20250411100732.348431.118255"><time><value>2025-04-11T10:07:18.56Z</value></time><waveformID networkCode="CX" stationCode="PB09" channelCode="HHN"/><filterID>ITAPER(2)&gt;&gt;BW(3,3,20)</filterID><methodID>L2-AIC-GRID</methodID><horizontalSlowness><value>14.214134800272962</value></horizontalSlowness><backazimuth><value>19.061674224990753</value></backazimuth><phaseHint>S</phaseHint><evaluationMode>automatic</evaluationMode><comment><text>15.275420739519564</text><id>DFX:rectilinearity</id></comment><comment><text>de.gempa.tb1.Pick/20250411100717.493237.118246</text><id>RefPickID</id></comment><comment><text>5.585681007827073</text><id>SNR</id></comment></pick><pick publicID="de.gempa.tb1.Pick/20250411100734.500447.118258"><time><value>2025-04-11T10:07:28.378393Z</value></time><waveformID networkCode="CX" stationCode="PB06" channelCode="HHN"/><filterID>ITAPER(2)&gt;&gt;BW(3,3,20)</filterID><methodID>L2-AIC-GRID</methodID><horizontalSlowness><value>22.99814189692057</value></horizontalSlowness><backazimuth><value>116.8928663170181</value></backazimuth><phaseHint>S</phaseHint><evaluationMode>automatic</evaluationMode><comment><text>59.275460894085</text><id>DFX:rectilinearity</id></comment><comment><text>de.gempa.tb1.Pick/20250411100717.672566.118248</text><id>RefPickID</id></comment><comment><text>8.281709350267645</text><id>SNR</id></comment></pick><pick publicID="de.gempa.tb1.Pick/20250411100736.495019.118259"><time><value>2025-04-11T10:07:28.088393Z</value></time><waveformID networkCode="CX" stationCode="PB02" channelCode="HHN"/><filterID>ITAPER(2)&gt;&gt;BW(3,3,20)</filterID><methodID>L2-AIC-GRID</methodID><horizontalSlowness><value>15.509919566370238</value></horizontalSlowness><backazimuth><value>301.4757667377978</value></backazimuth><phaseHint>S</phaseHint><evaluationMode>automatic</evaluationMode><comment><text>39.1224919772158</text><id>DFX:rectilinearity</id></comment><comment><text>de.gempa.tb1.Pick/20250411100720.531117.118252</text><id>RefPickID</id></comment><comment><text>5.869350664106058</text><id>SNR</id></comment></pick><pick publicID="de.gempa.tb1.Pick/20250411100736.552828.118260"><time><value>2025-04-11T10:07:27.728393Z</value></time><waveformID networkCode="CX" stationCode="PB01" channelCode="HHN"/><filterID>ITAPER(2)&gt;&gt;BW(3,3,20)</filterID><methodID>L2-AIC-GRID</methodID><horizontalSlowness><value>20.196919027522263</value></horizontalSlowness><backazimuth><value>316.74969934790306</value></backazimuth><phaseHint>S</phaseHint><evaluationMode>automatic</evaluationMode><comment><text>27.15140103539044</text><id>DFX:rectilinearity</id></comment><comment><text>de.gempa.tb1.Pick/20250411100718.546759.118250</text><id>RefPickID</id></comment><comment><text>6.117243371604764</text><id>SNR</id></comment></pick><pick publicID="de.gempa.tb1.Pick/20250411100739.058291.118263"><time><value>2025-04-11T10:07:11.268396Z</value></time><waveformID networkCode="CX" stationCode="PB07" channelCode="HHZ"/><filterID>ITAPER(4)&gt;&gt;BW(4,4,20)</filterID><methodID>AIC</methodID><horizontalSlowness><value>22.44672891148679</value></horizontalSlowness><backazimuth><value>89.82511767177913</value></backazimuth><phaseHint>P</phaseHint><evaluationMode>automatic</evaluationMode><comment><text>295.3800530110766</text><id>DFX:rectilinearity</id></comment><comment><text>12.575284749114527</text><id>SNR</id></comment></pick><pick publicID="de.gempa.tb1.Pick/20250411100752.66893.118266"><time><value>2025-04-11T10:07:25.098396Z</value></time><waveformID networkCode="CX" stationCode="PB07" channelCode="HHN"/><filterID>ITAPER(2)&gt;&gt;BW(3,3,20)</filterID><methodID>L2-AIC-GRID</methodID><horizontalSlowness><value>22.88759524847119</value></horizontalSlowness><backazimuth><value>62.84886144778582</value></backazimuth><phaseHint>S</phaseHint><evaluationMode>automatic</evaluationMode><comment><text>775.6629346714666</text><id>DFX:rectilinearity</id></comment><comment><text>de.gempa.tb1.Pick/20250411100739.058291.118263</text><id>RefPickID</id></comment><comment><text>9.491116297301176</text><id>SNR</id></comment></pick><origin publicID="de.gempa.tb1.Origin/20250411100752.671899.57975"><time><value>2025-04-11T10:06:53.011222Z</value><uncertainty>0.993752658367157</uncertainty></time><latitude><value>-21.871593475341797</value><uncertainty>3.6896469593048096</uncertainty></latitude><longitude><value>-69.10657501220703</value><uncertainty>7.635725498199463</uncertainty></longitude><depth><value>103.1981430053711</value><uncertainty>7.125706672668457</uncertainty></depth><depthType>from location</depthType><methodID>LOCSAT</methodID><earthModelID>iasp91_scanloc</earthModelID><quality><associatedPhaseCount>12</associatedPhaseCount><usedPhaseCount>12</usedPhaseCount><associatedStationCount>6</associatedStationCount><usedStationCount>6</usedStationCount><depthPhaseCount>0</depthPhaseCount><standardError>0.1748093804321593</standardError><azimuthalGap>230.70037841796875</azimuthalGap><maximumDistance>0.9353980422019958</maximumDistance><minimumDistance>0.14634238183498383</minimumDistance><medianDistance>0.8973814845085144</medianDistance></quality><uncertainty><minHorizontalUncertainty>7.89632511138916</minHorizontalUncertainty><maxHorizontalUncertainty>16.377593994140625</maxHorizontalUncertainty><azimuthMaxHorizontalUncertainty>88.11029815673828</azimuthMaxHorizontalUncertainty><preferredDescription>horizontal uncertainty</preferredDescription></uncertainty><evaluationMode>automatic</evaluationMode><evaluationStatus>confirmed</evaluationStatus><comment><text>0.00</text><id>mismatchScore</id></comment><comment><text>mismatchScore</text><id>scevalMethod</id></comment><arrival><pickID>de.gempa.tb1.Pick/20250411100715.550303.118244</pickID><phase>P</phase><azimuth>253.5345001220703</azimuth><distance>0.625452995300293</distance><timeResidual>-0.02531719207763672</timeResidual><timeUsed>true</timeUsed><horizontalSlownessUsed>false</horizontalSlownessUsed><backazimuthUsed>false</backazimuthUsed><weight>1</weight></arrival><arrival><pickID>de.gempa.tb1.Pick/20250411100717.493237.118246</pickID><phase>P</phase><azimuth>300.7364196777344</azimuth><distance>0.14634238183498383</distance><timeResidual>0.20797252655029297</timeResidual><timeUsed>true</timeUsed><horizontalSlownessUsed>false</horizontalSlownessUsed><backazimuthUsed>false</backazimuthUsed><weight>1</weight></arrival><arrival><pickID>de.gempa.tb1.Pick/20250411100717.672566.118248</pickID><phase>P</phase><azimuth>207.34564208984375</azimuth><distance>0.9353980422019958</distance><timeResidual>-0.03027057647705078</timeResidual><timeUsed>true</timeUsed><horizontalSlownessUsed>false</horizontalSlownessUsed><backazimuthUsed>false</backazimuthUsed><weight>1</weight></arrival><arrival><pickID>de.gempa.tb1.Pick/20250411100718.546759.118250</pickID><phase>P</phase><azimuth>336.645263671875</azimuth><distance>0.8973814845085144</distance><timeResidual>-0.4285163879394531</timeResidual><timeUsed>true</timeUsed><horizontalSlownessUsed>false</horizontalSlownessUsed><backazimuthUsed>false</backazimuthUsed><weight>1</weight></arrival><arrival><pickID>de.gempa.tb1.Pick/20250411100720.531117.118252</pickID><phase>P</phase><azimuth>306.63177490234375</azimuth><distance>0.9172537922859192</distance><timeResidual>0.1999073028564453</timeResidual><timeUsed>true</timeUsed><horizontalSlownessUsed>false</horizontalSlownessUsed><backazimuthUsed>false</backazimuthUsed><weight>1</weight></arrival><arrival><pickID>de.gempa.tb1.Pick/20250411100731.628983.118254</pickID><phase>S</phase><azimuth>253.5345001220703</azimuth><distance>0.625452995300293</distance><timeResidual>-0.22021865844726562</timeResidual><timeUsed>true</timeUsed><horizontalSlownessUsed>false</horizontalSlownessUsed><backazimuthUsed>false</backazimuthUsed><weight>1</weight></arrival><arrival><pickID>de.gempa.tb1.Pick/20250411100732.348431.118255</pickID><phase>S</phase><azimuth>300.7364196777344</azimuth><distance>0.14634238183498383</distance><timeResidual>0.05116653442382812</timeResidual><timeUsed>true</timeUsed><horizontalSlownessUsed>false</horizontalSlownessUsed><backazimuthUsed>false</backazimuthUsed><weight>1</weight></arrival><arrival><pickID>de.gempa.tb1.Pick/20250411100734.500447.118258</pickID><phase>S</phase><azimuth>207.34564208984375</azimuth><distance>0.9353980422019958</distance><timeResidual>-0.037067413330078125</timeResidual><timeUsed>true</timeUsed><horizontalSlownessUsed>false</horizontalSlownessUsed><backazimuthUsed>false</backazimuthUsed><weight>1</weight></arrival><arrival><pickID>de.gempa.tb1.Pick/20250411100736.495019.118259</pickID><phase>S</phase><azimuth>306.63177490234375</azimuth><distance>0.9172537922859192</distance><timeResidual>-0.00384521484375</timeResidual><timeUsed>true</timeUsed><horizontalSlownessUsed>false</horizontalSlownessUsed><backazimuthUsed>false</backazimuthUsed><weight>1</weight></arrival><arrival><pickID>de.gempa.tb1.Pick/20250411100736.552828.118260</pickID><phase>S</phase><azimuth>336.645263671875</azimuth><distance>0.8973814845085144</distance><timeResidual>-0.003871917724609375</timeResidual><timeUsed>true</timeUsed><horizontalSlownessUsed>false</horizontalSlownessUsed><backazimuthUsed>false</backazimuthUsed><weight>1</weight></arrival><arrival><pickID>de.gempa.tb1.Pick/20250411100739.058291.118263</pickID><phase>P</phase><azimuth>281.11376953125</azimuth><distance>0.7387341260910034</distance><timeResidual>0.1877145767211914</timeResidual><timeUsed>true</timeUsed><horizontalSlownessUsed>false</horizontalSlownessUsed><backazimuthUsed>false</backazimuthUsed><weight>1</weight></arrival><arrival><pickID>de.gempa.tb1.Pick/20250411100752.66893.118266</pickID><phase>S</phase><azimuth>281.11376953125</azimuth><distance>0.7387341260910034</distance><timeResidual>0.10269355773925781</timeResidual><timeUsed>true</timeUsed><horizontalSlownessUsed>false</horizontalSlownessUsed><backazimuthUsed>false</backazimuthUsed><weight>1</weight></arrival><magnitude publicID="de.gempa.tb1.Magnitude/20250411100820.498136.116210"><magnitude><value>2.1227368023911355</value></magnitude><type>M</type><methodID>weighted average</methodID><stationCount>2</stationCount></magnitude></origin><event publicID="gempa2025hdml"><preferredOriginID>de.gempa.tb1.Origin/20250411100752.671899.57975</preferredOriginID><preferredMagnitudeID>de.gempa.tb1.Magnitude/20250411100820.498136.116210</preferredMagnitudeID><description><text>Northern Chile</text><type>region name</type></description><originReference>de.gempa.tb1.Origin/20250411100752.671899.57975</originReference></event></EventParameters></seiscomp>