<?xml version="1.0" encoding="UTF-8"?>
<seiscomp xmlns="http://geofon.gfz-potsdam.de/ns/seiscomp3-schema/0.13" version="0.13"><EventParameters><pick publicID="de.gempa.tb1.Pick/20250413051106.802065.200653"><time><value>2025-04-13T05:11:03.85Z</value></time><waveformID networkCode="BW" stationCode="MANZ" channelCode="HHZ"/><filterID>ITAPER(2)&gt;&gt;BW(3,3,20)</filterID><methodID>AIC</methodID><horizontalSlowness><value>20.940826584509214</value><uncertainty>1.8457967236688475</uncertainty></horizontalSlowness><backazimuth><value>126.46994183734867</value><uncertainty>5.051884032978903</uncertainty></backazimuth><phaseHint>P</phaseHint><evaluationMode>automatic</evaluationMode><comment><text>1.1248904841062837</text><id>DFX:rectilinearity</id></comment></pick><pick publicID="de.gempa.tb1.Pick/20250413051106.8083.200655"><time><value>2025-04-13T05:11:00.24Z</value></time><waveformID networkCode="SX" stationCode="MULD" channelCode="HHZ"/><filterID>ITAPER(2)&gt;&gt;BW(3,3,20)</filterID><methodID>AIC</methodID><horizontalSlowness><value>21.468708969662224</value></horizontalSlowness><backazimuth><value>154.1211622987805</value></backazimuth><phaseHint>P</phaseHint><evaluationMode>automatic</evaluationMode><comment><text>24.733082635736185</text><id>DFX:rectilinearity</id></comment></pick><pick publicID="de.gempa.tb1.Pick/20250413051106.856119.200657"><time><value>2025-04-13T05:11:00.22Z</value></time><waveformID networkCode="SX" stationCode="TANN" channelCode="HHZ"/><filterID>ITAPER(2)&gt;&gt;BW(3,3,20)</filterID><methodID>AIC</methodID><horizontalSlowness><value>19.69690963012566</value></horizontalSlowness><backazimuth><value>321.0312913676028</value></backazimuth><phaseHint>P</phaseHint><evaluationMode>automatic</evaluationMode><comment><text>12.821824874617905</text><id>DFX:rectilinearity</id></comment></pick><pick publicID="de.gempa.tb1.Pick/20250413051107.036761.200659"><time><value>2025-04-13T05:10:59.92Z</value></time><waveformID networkCode="SX" stationCode="GUNZ" channelCode="HHZ"/><filterID>ITAPER(2)&gt;&gt;BW(3,3,20)</filterID><methodID>AIC</methodID><horizontalSlowness><value>22.82724664337748</value></horizontalSlowness><backazimuth><value>285.66436861630507</value></backazimuth><phaseHint>P</phaseHint><evaluationMode>automatic</evaluationMode><comment><text>108.73317908225918</text><id>DFX:rectilinearity</id></comment></pick><pick publicID="de.gempa.tb1.Pick/20250413051107.212175.200661"><time><value>2025-04-13T05:10:59.21Z</value></time><waveformID networkCode="SX" stationCode="ROHR" channelCode="HHZ"/><filterID>ITAPER(2)&gt;&gt;BW(3,3,20)</filterID><methodID>AIC</methodID><horizontalSlowness><value>21.33992376730697</value></horizontalSlowness><backazimuth><value>81.5471485819681</value></backazimuth><phaseHint>P</phaseHint><evaluationMode>automatic</evaluationMode><comment><text>45.28673947496585</text><id>DFX:rectilinearity</id></comment></pick><pick publicID="de.gempa.tb1.Pick/20250413051107.21945.200663"><time><value>2025-04-13T05:11:00.84Z</value></time><waveformID networkCode="SX" stationCode="ROHR" channelCode="HHN"/><filterID>ITAPER(3)&gt;&gt;BW(4,3,10)</filterID><methodID>L2-AIC-GRID</methodID><horizontalSlowness><value>21.101103082969217</value></horizontalSlowness><backazimuth><value>82.05249761801066</value></backazimuth><phaseHint>S</phaseHint><evaluationMode>automatic</evaluationMode><comment><text>43.280147629756783</text><id>DFX:rectilinearity</id></comment><comment><text>de.gempa.tb1.Pick/20250413051107.212175.200661</text><id>RefPickID</id></comment></pick><pick publicID="de.gempa.tb1.Pick/20250413051107.521217.200664"><time><value>2025-04-13T05:10:58.9675Z</value></time><waveformID networkCode="SX" stationCode="WERN" channelCode="HHZ"/><filterID>ITAPER(2)&gt;&gt;BW(3,3,20)</filterID><methodID>AIC</methodID><horizontalSlowness><value>23.429648447398225</value></horizontalSlowness><backazimuth><value>242.6159979109204</value></backazimuth><phaseHint>P</phaseHint><evaluationMode>automatic</evaluationMode><comment><text>387.0205018365451</text><id>DFX:rectilinearity</id></comment></pick><pick publicID="de.gempa.tb1.Pick/20250413051108.704872.200667"><time><value>2025-04-13T05:11:01.14Z</value></time><waveformID networkCode="SX" stationCode="WERD" channelCode="HHZ"/><filterID>ITAPER(2)&gt;&gt;BW(3,3,20)</filterID><methodID>AIC</methodID><horizontalSlowness><value>22.172842185586784</value></horizontalSlowness><backazimuth><value>234.28764891590313</value></backazimuth><phaseHint>P</phaseHint><evaluationMode>automatic</evaluationMode><comment><text>45.11277316062907</text><id>DFX:rectilinearity</id></comment></pick><pick publicID="de.gempa.tb1.Pick/20250413051109.677218.200670"><time><value>2025-04-13T05:11:06.59Z</value></time><waveformID networkCode="BW" stationCode="ROTZ" channelCode="HHZ"/><filterID>ITAPER(2)&gt;&gt;BW(3,3,20)</filterID><methodID>AIC</methodID><horizontalSlowness><value>8.096490872958146</value><uncertainty>7.138353198263984</uncertainty></horizontalSlowness><backazimuth><value>161.44375853135324</value><uncertainty>52.31370911296174</uncertainty></backazimuth><phaseHint>P</phaseHint><evaluationMode>automatic</evaluationMode><comment><text>0.3557576602299508</text><id>DFX:rectilinearity</id></comment></pick><pick publicID="de.gempa.tb1.Pick/20250413051110.28871.200675"><time><value>2025-04-13T05:11:05.564999Z</value></time><waveformID networkCode="TH" stationCode="GRZ1" channelCode="HHZ"/><filterID>ITAPER(2)&gt;&gt;BW(3,3,20)</filterID><methodID>AIC</methodID><horizontalSlowness><value>20.733127610062585</value></horizontalSlowness><backazimuth><value>350.92731776217477</value></backazimuth><phaseHint>P</phaseHint><evaluationMode>automatic</evaluationMode><comment><text>4.616027800640222</text><id>DFX:rectilinearity</id></comment></pick><pick publicID="de.gempa.tb1.Pick/20250413051110.60671.200677"><time><value>2025-04-13T05:11:03.92Z</value></time><waveformID networkCode="SX" stationCode="WERD" channelCode="HHN"/><filterID>ITAPER(3)&gt;&gt;BW(4,3,10)</filterID><methodID>L2-AIC-GRID</methodID><horizontalSlowness><value>21.774735795841131</value></horizontalSlowness><backazimuth><value>234.071733562672</value></backazimuth><phaseHint>S</phaseHint><evaluationMode>automatic</evaluationMode><comment><text>45.67728536776021</text><id>DFX:rectilinearity</id></comment><comment><text>de.gempa.tb1.Pick/20250413051108.704872.200667</text><id>RefPickID</id></comment></pick><pick publicID="de.gempa.tb1.Pick/20250413051110.69567.200678"><time><value>2025-04-13T05:11:08.125Z</value></time><waveformID networkCode="BW" stationCode="MANZ" channelCode="HHN"/><filterID>ITAPER(3)&gt;&gt;BW(4,3,10)</filterID><methodID>L2-AIC-GRID</methodID><horizontalSlowness><value>21.822161655956943</value></horizontalSlowness><backazimuth><value>117.89417958690366</value></backazimuth><phaseHint>S</phaseHint><evaluationMode>automatic</evaluationMode><comment><text>13.36730919406573</text><id>DFX:rectilinearity</id></comment><comment><text>de.gempa.tb1.Pick/20250413051055.003976.200641</text><id>RefPickID</id></comment></pick><pick publicID="de.gempa.tb1.Pick/20250413051111.004451.200680"><time><value>2025-04-13T05:11:03.65Z</value></time><waveformID networkCode="SX" stationCode="LEUT" channelCode="HHZ"/><filterID>ITAPER(2)&gt;&gt;BW(3,3,20)</filterID><methodID>AIC</methodID><horizontalSlowness><value>10.866684917081745</value></horizontalSlowness><backazimuth><value>126.94176674055998</value></backazimuth><phaseHint>P</phaseHint><evaluationMode>automatic</evaluationMode><comment><text>2.775667345963653</text><id>DFX:rectilinearity</id></comment></pick><pick publicID="de.gempa.tb1.Pick/20250413051111.908369.200683"><time><value>2025-04-13T05:11:04.89Z</value></time><waveformID networkCode="SX" stationCode="SCHF" channelCode="HHZ"/><filterID>ITAPER(2)&gt;&gt;BW(3,3,20)</filterID><methodID>AIC</methodID><horizontalSlowness><value>23.120795271722294</value></horizontalSlowness><backazimuth><value>269.25570694323005</value></backazimuth><phaseHint>P</phaseHint><evaluationMode>automatic</evaluationMode><comment><text>6.998578644631768</text><id>DFX:rectilinearity</id></comment></pick><pick publicID="de.gempa.tb1.Pick/20250413051112.133146.200685"><time><value>2025-04-13T05:11:01.239999Z</value></time><waveformID networkCode="SX" stationCode="TRIB" channelCode="HHZ"/><filterID>ITAPER(2)&gt;&gt;BW(3,3,20)</filterID><methodID>AIC</methodID><horizontalSlowness><value>19.785197460456132</value></horizontalSlowness><backazimuth><value>45.4415523770096</value></backazimuth><phaseHint>P</phaseHint><evaluationMode>automatic</evaluationMode><comment><text>8.608739699201895</text><id>DFX:rectilinearity</id></comment></pick><pick publicID="de.gempa.tb1.Pick/20250413051112.147034.200687"><time><value>2025-04-13T05:11:04.259999Z</value></time><waveformID networkCode="SX" stationCode="TRIB" channelCode="HHN"/><filterID>ITAPER(3)&gt;&gt;BW(4,3,10)</filterID><methodID>L2-AIC-GRID</methodID><horizontalSlowness><value>19.97656079171017</value></horizontalSlowness><backazimuth><value>46.79912650888198</value></backazimuth><phaseHint>S</phaseHint><evaluationMode>automatic</evaluationMode><comment><text>8.711529671242754</text><id>DFX:rectilinearity</id></comment><comment><text>de.gempa.tb1.Pick/20250413051112.133146.200685</text><id>RefPickID</id></comment></pick><pick publicID="de.gempa.tb1.Pick/20250413051112.840937.200688"><time><value>2025-04-13T05:11:02.61Z</value></time><waveformID networkCode="SX" stationCode="TANN" channelCode="HHN"/><filterID>ITAPER(3)&gt;&gt;BW(4,3,10)</filterID><methodID>L2-AIC-GRID</methodID><horizontalSlowness><value>19.980267809810616</value></horizontalSlowness><backazimuth><value>319.34055059466283</value></backazimuth><phaseHint>S</phaseHint><evaluationMode>automatic</evaluationMode><comment><text>12.873332424551773</text><id>DFX:rectilinearity</id></comment><comment><text>de.gempa.tb1.Pick/20250413051106.856119.200657</text><id>RefPickID</id></comment></pick><pick publicID="de.gempa.tb1.Pick/20250413051113.080366.200689"><time><value>2025-04-13T05:11:07.330598Z</value></time><waveformID networkCode="SX" stationCode="MEINS" channelCode="HHZ"/><filterID>ITAPER(2)&gt;&gt;BW(3,3,20)</filterID><methodID>AIC</methodID><horizontalSlowness><value>23.214741203117217</value></horizontalSlowness><backazimuth><value>127.93847311754314</value></backazimuth><phaseHint>P</phaseHint><evaluationMode>automatic</evaluationMode><comment><text>2.2770865166734104</text><id>DFX:rectilinearity</id></comment></pick><pick publicID="de.gempa.tb1.Pick/20250413051113.919129.200691"><time><value>2025-04-13T05:11:01.95Z</value></time><waveformID networkCode="SX" stationCode="GUNZ" channelCode="HHN"/><filterID>ITAPER(3)&gt;&gt;BW(4,3,10)</filterID><methodID>L2-AIC-GRID</methodID><horizontalSlowness><value>22.82524504382266</value></horizontalSlowness><backazimuth><value>285.62219400170756</value></backazimuth><phaseHint>S</phaseHint><evaluationMode>automatic</evaluationMode><comment><text>108.70235900796595</text><id>DFX:rectilinearity</id></comment><comment><text>de.gempa.tb1.Pick/20250413051107.036761.200659</text><id>RefPickID</id></comment></pick><pick publicID="de.gempa.tb1.Pick/20250413051114.356971.200692"><time><value>2025-04-13T05:11:02.53Z</value></time><waveformID networkCode="SX" stationCode="MULD" channelCode="HHN"/><filterID>ITAPER(3)&gt;&gt;BW(4,3,10)</filterID><methodID>L2-AIC-GRID</methodID><horizontalSlowness><value>22.215185620074042</value></horizontalSlowness><backazimuth><value>147.04795165255928</value></backazimuth><phaseHint>S</phaseHint><evaluationMode>automatic</evaluationMode><comment><text>27.57629077463412</text><id>DFX:rectilinearity</id></comment><comment><text>de.gempa.tb1.Pick/20250413051106.8083.200655</text><id>RefPickID</id></comment></pick><pick publicID="de.gempa.tb1.Pick/20250413051117.166488.200695"><time><value>2025-04-13T05:11:13.46Z</value></time><waveformID networkCode="BW" stationCode="ROTZ" channelCode="HHN"/><filterID>ITAPER(3)&gt;&gt;BW(4,3,10)</filterID><methodID>L2-AIC-GRID</methodID><horizontalSlowness><value>20.241031148612961</value></horizontalSlowness><backazimuth><value>78.46779004399987</value></backazimuth><phaseHint>S</phaseHint><evaluationMode>automatic</evaluationMode><comment><text>1.2683211292695882</text><id>DFX:rectilinearity</id></comment><comment><text>de.gempa.tb1.Pick/20250413051109.677218.200670</text><id>RefPickID</id></comment></pick><pick publicID="de.gempa.tb1.Pick/20250413051122.31056.200699"><time><value>2025-04-13T05:11:14.400598Z</value></time><waveformID networkCode="SX" stationCode="MEINS" channelCode="HHN"/><filterID>ITAPER(3)&gt;&gt;BW(4,3,10)</filterID><methodID>L2-AIC-GRID</methodID><horizontalSlowness><value>6.737909504537432</value></horizontalSlowness><backazimuth><value>225.2757136007739</value></backazimuth><phaseHint>S</phaseHint><evaluationMode>automatic</evaluationMode><comment><text>2.475064003402742</text><id>DFX:rectilinearity</id></comment><comment><text>de.gempa.tb1.Pick/20250413051113.080366.200689</text><id>RefPickID</id></comment></pick><origin publicID="de.gempa.tb1.Origin/20250413051124.163283.196061"><time><value>2025-04-13T05:10:56.495134Z</value><uncertainty>0.4217693507671356</uncertainty></time><latitude><value>50.24920272827148</value><uncertainty>1.5559446811676025</uncertainty></latitude><longitude><value>12.483182907104492</value><uncertainty>2.729435920715332</uncertainty></longitude><depth><value>2.530254125595093</value><uncertainty>1.9199235439300537</uncertainty></depth><depthType>from location</depthType><methodID>LOCSAT</methodID><earthModelID>iasp91</earthModelID><quality><associatedPhaseCount>22</associatedPhaseCount><usedPhaseCount>22</usedPhaseCount><associatedStationCount>13</associatedStationCount><usedStationCount>13</usedStationCount><depthPhaseCount>0</depthPhaseCount><standardError>0.2636820851532248</standardError><azimuthalGap>172.79854011535645</azimuthalGap><maximumDistance>0.5465907454490662</maximumDistance><minimumDistance>0.07864321023225784</minimumDistance><medianDistance>0.2447035610675812</medianDistance></quality><uncertainty><minHorizontalUncertainty>2.7935590744018555</minHorizontalUncertainty><maxHorizontalUncertainty>6.126015663146973</maxHorizontalUncertainty><azimuthMaxHorizontalUncertainty>109.5072021484375</azimuthMaxHorizontalUncertainty><preferredDescription>horizontal uncertainty</preferredDescription></uncertainty><evaluationMode>automatic</evaluationMode><evaluationStatus>confirmed</evaluationStatus><comment><text>0.00</text><id>mismatchScore</id></comment><comment><text>mismatchScore</text><id>scevalMethod</id></comment><arrival><pickID>de.gempa.tb1.Pick/20250413051106.802065.200653</pickID><phase>P</phase><azimuth>222.64923095703125</azimuth><distance>0.3571733832359314</distance><timeResidual>0.18335342407226562</timeResidual><timeUsed>true</timeUsed><horizontalSlownessUsed>false</horizontalSlownessUsed><backazimuthUsed>false</backazimuthUsed><weight>1</weight></arrival><arrival><pickID>de.gempa.tb1.Pick/20250413051106.8083.200655</pickID><phase>P</phase><azimuth>342.6961975097656</azimuth><distance>0.17054174840450287</distance><timeResidual>0.0556204319000244</timeResidual><timeUsed>true</timeUsed><horizontalSlownessUsed>false</horizontalSlownessUsed><backazimuthUsed>false</backazimuthUsed><weight>1</weight></arrival><arrival><pickID>de.gempa.tb1.Pick/20250413051106.856119.200657</pickID><phase>P</phase><azimuth>355.1136779785156</azimuth><distance>0.16660840809345245</distance><timeResidual>0.10899949073791504</timeResidual><timeUsed>true</timeUsed><horizontalSlownessUsed>false</horizontalSlownessUsed><backazimuthUsed>false</backazimuthUsed><weight>1</weight></arrival><arrival><pickID>de.gempa.tb1.Pick/20250413051107.036761.200659</pickID><phase>P</phase><azimuth>319.7144470214844</azimuth><distance>0.15014253556728363</distance><timeResidual>0.11605405807495117</timeResidual><timeUsed>true</timeUsed><horizontalSlownessUsed>false</horizontalSlownessUsed><backazimuthUsed>false</backazimuthUsed><weight>1</weight></arrival><arrival><pickID>de.gempa.tb1.Pick/20250413051107.212175.200661</pickID><phase>P</phase><azimuth>261.9460144042969</azimuth><distance>0.10778383910655975</distance><timeResidual>0.19596314430236816</timeResidual><timeUsed>true</timeUsed><horizontalSlownessUsed>false</horizontalSlownessUsed><backazimuthUsed>false</backazimuthUsed><weight>1</weight></arrival><arrival><pickID>de.gempa.tb1.Pick/20250413051107.21945.200663</pickID><phase>S</phase><azimuth>261.9460144042969</azimuth><distance>0.10778383910655975</distance><timeResidual>0.4625232219696045</timeResidual><timeUsed>true</timeUsed><horizontalSlownessUsed>false</horizontalSlownessUsed><backazimuthUsed>false</backazimuthUsed><weight>1</weight></arrival><arrival><pickID>de.gempa.tb1.Pick/20250413051107.521217.200664</pickID><phase>P</phase><azimuth>299.137451171875</azimuth><distance>0.07864321023225784</distance><timeResidual>0.4971582889556885</timeResidual><timeUsed>true</timeUsed><horizontalSlownessUsed>false</horizontalSlownessUsed><backazimuthUsed>false</backazimuthUsed><weight>1</weight></arrival><arrival><pickID>de.gempa.tb1.Pick/20250413051108.704872.200667</pickID><phase>P</phase><azimuth>330.5111389160156</azimuth><distance>0.2288189083337784</distance><timeResidual>-0.13141417503356934</timeResidual><timeUsed>true</timeUsed><horizontalSlownessUsed>false</horizontalSlownessUsed><backazimuthUsed>false</backazimuthUsed><weight>1</weight></arrival><arrival><pickID>de.gempa.tb1.Pick/20250413051109.677218.200670</pickID><phase>P</phase><azimuth>200.36199951171875</azimuth><distance>0.5146880149841309</distance><timeResidual>-0.01536083221435547</timeResidual><timeUsed>true</timeUsed><horizontalSlownessUsed>false</horizontalSlownessUsed><backazimuthUsed>false</backazimuthUsed><weight>1</weight></arrival><arrival><pickID>de.gempa.tb1.Pick/20250413051110.28871.200675</pickID><phase>P</phase><azimuth>339.25</azimuth><distance>0.4731368124485016</distance><timeResidual>-0.2634615898132324</timeResidual><timeUsed>true</timeUsed><horizontalSlownessUsed>false</horizontalSlownessUsed><backazimuthUsed>false</backazimuthUsed><weight>1</weight></arrival><arrival><pickID>de.gempa.tb1.Pick/20250413051110.60671.200677</pickID><phase>S</phase><azimuth>330.5111389160156</azimuth><distance>0.2288189083337784</distance><timeResidual>-0.3687624931335449</timeResidual><timeUsed>true</timeUsed><horizontalSlownessUsed>false</horizontalSlownessUsed><backazimuthUsed>false</backazimuthUsed><weight>1</weight></arrival><arrival><pickID>de.gempa.tb1.Pick/20250413051110.69567.200678</pickID><phase>S</phase><azimuth>222.64923095703125</azimuth><distance>0.3571733832359314</distance><timeResidual>-0.3141770362854004</timeResidual><timeUsed>true</timeUsed><horizontalSlownessUsed>false</horizontalSlownessUsed><backazimuthUsed>false</backazimuthUsed><weight>1</weight></arrival><arrival><pickID>de.gempa.tb1.Pick/20250413051111.004451.200680</pickID><phase>P</phase><azimuth>4.0577406883239746</azimuth><distance>0.35935088992118835</distance><timeResidual>-0.05605506896972656</timeResidual><timeUsed>true</timeUsed><horizontalSlownessUsed>false</horizontalSlownessUsed><backazimuthUsed>false</backazimuthUsed><weight>1</weight></arrival><arrival><pickID>de.gempa.tb1.Pick/20250413051111.908369.200683</pickID><phase>P</phase><azimuth>353.2198791503906</azimuth><distance>0.4315791130065918</distance><timeResidual>-0.1632676124572754</timeResidual><timeUsed>true</timeUsed><horizontalSlownessUsed>false</horizontalSlownessUsed><backazimuthUsed>false</backazimuthUsed><weight>1</weight></arrival><arrival><pickID>de.gempa.tb1.Pick/20250413051112.133146.200685</pickID><phase>P</phase><azimuth>295.00543212890625</azimuth><distance>0.2447035610675812</distance><timeResidual>-0.3279149532318115</timeResidual><timeUsed>true</timeUsed><horizontalSlownessUsed>false</horizontalSlownessUsed><backazimuthUsed>false</backazimuthUsed><weight>1</weight></