<?xml version="1.0" encoding="UTF-8"?>
<seiscomp xmlns="http://geofon.gfz-potsdam.de/ns/seiscomp3-schema/0.13" version="0.13"><EventParameters><pick publicID="de.gempa.tb1.Pick/20250412210503.521371.126776"><time><value>2025-04-12T21:04:59.128393Z</value></time><waveformID networkCode="CX" stationCode="PB02" channelCode="HHZ"/><filterID>ITAPER(4)&gt;&gt;BW(4,4,20)</filterID><methodID>AIC</methodID><horizontalSlowness><value>14.010640653350006</value></horizontalSlowness><backazimuth><value>67.21114030681069</value></backazimuth><phaseHint>P</phaseHint><evaluationMode>automatic</evaluationMode><comment><text>191.01175102976495</text><id>DFX:rectilinearity</id></comment><comment><text>21.306180595733245</text><id>SNR</id></comment></pick><pick publicID="de.gempa.tb1.Pick/20250412210504.567054.126778"><time><value>2025-04-12T21:04:57.1Z</value></time><waveformID networkCode="CX" stationCode="PB09" channelCode="HHZ"/><filterID>ITAPER(4)&gt;&gt;BW(4,4,20)</filterID><methodID>AIC</methodID><horizontalSlowness><value>8.638271914635716</value></horizontalSlowness><backazimuth><value>337.64750456648176</value></backazimuth><phaseHint>P</phaseHint><evaluationMode>automatic</evaluationMode><comment><text>20.844987010770364</text><id>DFX:rectilinearity</id></comment><comment><text>13.06618501779625</text><id>SNR</id></comment></pick><pick publicID="de.gempa.tb1.Pick/20250412210508.225169.126780"><time><value>2025-04-12T21:05:02.649999Z</value></time><waveformID networkCode="CX" stationCode="PATCX" channelCode="HHZ"/><filterID>ITAPER(4)&gt;&gt;BW(4,4,20)</filterID><methodID>AIC</methodID><horizontalSlowness><value>22.994383872156384</value></horizontalSlowness><backazimuth><value>164.92460801431417</value></backazimuth><phaseHint>P</phaseHint><evaluationMode>automatic</evaluationMode><comment><text>495.4784996504401</text><id>DFX:rectilinearity</id></comment><comment><text>12.080414299335802</text><id>SNR</id></comment></pick><pick publicID="de.gempa.tb1.Pick/20250412210513.637795.126782"><time><value>2025-04-12T21:05:02.298393Z</value></time><waveformID networkCode="CX" stationCode="PB07" channelCode="HHZ"/><filterID>ITAPER(4)&gt;&gt;BW(4,4,20)</filterID><methodID>AIC</methodID><horizontalSlowness><value>20.956021480951097</value></horizontalSlowness><backazimuth><value>53.05718088486299</value></backazimuth><phaseHint>P</phaseHint><evaluationMode>automatic</evaluationMode><comment><text>699.8838472177315</text><id>DFX:rectilinearity</id></comment><comment><text>6.858132753241907</text><id>SNR</id></comment></pick><pick publicID="de.gempa.tb1.Pick/20250412210516.589664.126784"><time><value>2025-04-12T21:05:05.578393Z</value></time><waveformID networkCode="CX" stationCode="PB03" channelCode="HHZ"/><filterID>ITAPER(4)&gt;&gt;BW(4,4,20)</filterID><methodID>AIC</methodID><horizontalSlowness><value>17.666006249111117</value></horizontalSlowness><backazimuth><value>48.15197533779104</value></backazimuth><phaseHint>P</phaseHint><evaluationMode>automatic</evaluationMode><comment><text>17.050158965649693</text><id>DFX:rectilinearity</id></comment><comment><text>9.693925583826246</text><id>SNR</id></comment></pick><pick publicID="de.gempa.tb1.Pick/20250412210518.668084.126786"><time><value>2025-04-12T21:05:12.74Z</value></time><waveformID networkCode="CX" stationCode="PSGCX" channelCode="HHZ"/><filterID>ITAPER(4)&gt;&gt;BW(4,4,20)</filterID><methodID>AIC</methodID><horizontalSlowness><value>12.756533399137245</value></horizontalSlowness><backazimuth><value>120.40546083249421</value></backazimuth><phaseHint>P</phaseHint><evaluationMode>automatic</evaluationMode><comment><text>25.7145651864674</text><id>DFX:rectilinearity</id></comment><comment><text>17.229193405922594</text><id>SNR</id></comment></pick><origin publicID="de.gempa.tb1.Origin/20250412210524.561146.92379"><time><value>2025-04-12T21:04:41.095714Z</value><uncertainty>3.844921350479126</uncertainty></time><latitude><value>-21.00302505493164</value><uncertainty>13.840739250183105</uncertainty></latitude><longitude><value>-68.96340942382812</value><uncertainty>21.930782318115234</uncertainty></longitude><depth><value>2.2067434787750244</value><uncertainty>30.54063034057617</uncertainty></depth><depthType>from location</depthType><methodID>LOCSAT</methodID><earthModelID>iasp91_scanloc</earthModelID><quality><associatedPhaseCount>6</associatedPhaseCount><usedPhaseCount>6</usedPhaseCount><associatedStationCount>6</associatedStationCount><usedStationCount>6</usedStationCount><depthPhaseCount>0</depthPhaseCount><standardError>0.17454045279993083</standardError><azimuthalGap>236.2408905029297</azimuthalGap><maximumDistance>1.772300124168396</maximumDistance><minimumDistance>0.8310137987136841</minimumDistance><medianDistance>1.1267597675323486</medianDistance></quality><uncertainty><minHorizontalUncertainty>12.228833198547363</minHorizontalUncertainty><maxHorizontalUncertainty>54.25481033325195</maxHorizontalUncertainty><azimuthMaxHorizontalUncertainty>59.22431564331055</azimuthMaxHorizontalUncertainty><preferredDescription>horizontal uncertainty</preferredDescription></uncertainty><evaluationMode>automatic</evaluationMode><comment><text>0.51</text><id>mismatchScore</id></comment><arrival><pickID>de.gempa.tb1.Pick/20250412210503.521371.126776</pickID><phase>P</phase><azimuth>249.93177795410156</azimuth><distance>0.925769567489624</distance><timeResidual>0.2722969055175781</timeResidual><timeUsed>true</timeUsed><horizontalSlownessUsed>false</horizontalSlownessUsed><backazimuthUsed>false</backazimuthUsed><weight>1</weight></arrival><arrival><pickID>de.gempa.tb1.Pick/20250412210504.567054.126778</pickID><phase>P</phase><azimuth>198.1486053466797</azimuth><distance>0.8310137987136841</distance><timeResidual>0.06135177612304688</timeResidual><timeUsed>true</timeUsed><horizontalSlownessUsed>false</horizontalSlownessUsed><backazimuthUsed>false</backazimuthUsed><weight>1</weight></arrival><arrival><pickID>de.gempa.tb1.Pick/20250412210508.225169.126780</pickID><phase>P</phase><azimuth>279.0533142089844</azimuth><distance>1.1267597675323486</distance><timeResidual>-0.0601654052734375</timeResidual><timeUsed>true</timeUsed><horizontalSlownessUsed>false</horizontalSlownessUsed><backazimuthUsed>false</backazimuthUsed><weight>1</weight></arrival><arrival><pickID>de.gempa.tb1.Pick/20250412210513.637795.126782</pickID><phase>P</phase><azimuth>229.89817810058594</azimuth><distance>1.1217362880706787</distance><timeResidual>-0.31434059143066406</timeResidual><timeUsed>true</timeUsed><horizontalSlownessUsed>false</horizontalSlownessUsed><backazimuthUsed>false</backazimuthUsed><weight>1</weight></arrival><arrival><pickID>de.gempa.tb1.Pick/20250412210516.589664.126784</pickID><phase>P</phase><azimuth>215.10853576660156</azimuth><distance>1.2739131450653076</distance><timeResidual>0.04903221130371094</timeResidual><timeUsed>true</timeUsed><horizontalSlownessUsed>false</horizontalSlownessUsed><backazimuthUsed>false</backazimuthUsed><weight>1</weight></arrival><arrival><pickID>de.gempa.tb1.Pick/20250412210518.668084.126786</pickID><phase>P</phase><azimuth>321.90771484375</azimuth><distance>1.772300124168396</distance><timeResidual>-0.006521224975585938</timeResidual><timeUsed>true</timeUsed><horizontalSlownessUsed>false</horizontalSlownessUsed><backazimuthUsed>false</backazimuthUsed><weight>1</weight></arrival><magnitude publicID="de.gempa.tb1.Magnitude/20250412210627.006982.283366"><magnitude><value>2.469732081156544</value></magnitude><type>M</type><methodID>weighted average</methodID><stationCount>4</stationCount></magnitude></origin><event publicID="gempa2025hgek"><preferredOriginID>de.gempa.tb1.Origin/20250412210524.561146.92379</preferredOriginID><preferredMagnitudeID>de.gempa.tb1.Magnitude/20250412210627.006982.283366</preferredMagnitudeID><description><text>Chile-Bolivia Border Region</text><type>region name</type></description><originReference>de.gempa.tb1.Origin/20250412210524.561146.92379</originReference></event></EventParameters></seiscomp>