<?xml version="1.0" encoding="UTF-8"?>
<seiscomp xmlns="http://geofon.gfz-potsdam.de/ns/seiscomp3-schema/0.13" version="0.13"><EventParameters><pick publicID="de.gempa.tb1.Pick/20250412220019.884025.127098"><time><value>2025-04-12T22:00:11.928393Z</value></time><waveformID networkCode="CX" stationCode="PB01" channelCode="HHZ"/><filterID>ITAPER(4)&gt;&gt;BW(4,4,20)</filterID><methodID>AIC</methodID><horizontalSlowness><value>23.306972301843285</value></horizontalSlowness><backazimuth><value>211.02354901851857</value></backazimuth><phaseHint>P</phaseHint><evaluationMode>automatic</evaluationMode><comment><text>25.42151916646616</text><id>DFX:rectilinearity</id></comment><comment><text>24.41518719529403</text><id>SNR</id></comment></pick><pick publicID="de.gempa.tb1.Pick/20250412220026.436862.127100"><time><value>2025-04-12T22:00:17.058393Z</value></time><waveformID networkCode="CX" stationCode="PB02" channelCode="HHZ"/><filterID>ITAPER(4)&gt;&gt;BW(4,4,20)</filterID><methodID>AIC</methodID><horizontalSlowness><value>6.516784764827763</value></horizontalSlowness><backazimuth><value>27.71909763243761</value></backazimuth><phaseHint>P</phaseHint><evaluationMode>automatic</evaluationMode><comment><text>38.872666959226706</text><id>DFX:rectilinearity</id></comment><comment><text>11.283545103203764</text><id>SNR</id></comment></pick><pick publicID="de.gempa.tb1.Pick/20250412220027.619695.127102"><time><value>2025-04-12T22:00:21.55Z</value></time><waveformID networkCode="CX" stationCode="PSGCX" channelCode="HHZ"/><filterID>ITAPER(4)&gt;&gt;BW(4,4,20)</filterID><methodID>AIC</methodID><horizontalSlowness><value>12.93310575404247</value></horizontalSlowness><backazimuth><value>297.87184320586925</value></backazimuth><phaseHint>P</phaseHint><evaluationMode>automatic</evaluationMode><comment><text>16.48014348930138</text><id>DFX:rectilinearity</id></comment><comment><text>10.288204709831136</text><id>SNR</id></comment></pick><pick publicID="de.gempa.tb1.Pick/20250412220031.435354.127106"><time><value>2025-04-12T22:00:18.46Z</value></time><waveformID networkCode="CX" stationCode="PB09" channelCode="HHZ"/><filterID>ITAPER(4)&gt;&gt;BW(4,4,20)</filterID><methodID>AIC</methodID><horizontalSlowness><value>17.25858264299321</value></horizontalSlowness><backazimuth><value>244.12039364051034</value></backazimuth><phaseHint>P</phaseHint><evaluationMode>automatic</evaluationMode><comment><text>12.779143460749806</text><id>DFX:rectilinearity</id></comment><comment><text>9.350617835921275</text><id>SNR</id></comment></pick><pick publicID="de.gempa.tb1.Pick/20250412220034.709893.127112"><time><value>2025-04-12T22:00:25.628393Z</value></time><waveformID networkCode="CX" stationCode="PB01" channelCode="HHN"/><filterID>ITAPER(2)&gt;&gt;BW(3,3,20)</filterID><methodID>L2-AIC-GRID</methodID><horizontalSlowness><value>20.585414422537607</value></horizontalSlowness><backazimuth><value>265.46742248750576</value></backazimuth><phaseHint>S</phaseHint><evaluationMode>automatic</evaluationMode><comment><text>127.2137895033611</text><id>DFX:rectilinearity</id></comment><comment><text>de.gempa.tb1.Pick/20250412220019.884025.127098</text><id>RefPickID</id></comment><comment><text>8.560844147944229</text><id>SNR</id></comment></pick><pick publicID="de.gempa.tb1.Pick/20250412220045.486573.127115"><time><value>2025-04-12T22:00:35.228393Z</value></time><waveformID networkCode="CX" stationCode="PB02" channelCode="HHN"/><filterID>ITAPER(2)&gt;&gt;BW(3,3,20)</filterID><methodID>L2-AIC-GRID</methodID><horizontalSlowness><value>16.185097235701036</value></horizontalSlowness><backazimuth><value>239.28082957634197</value></backazimuth><phaseHint>S</phaseHint><evaluationMode>automatic</evaluationMode><comment><text>92.38881922169344</text><id>DFX:rectilinearity</id></comment><comment><text>de.gempa.tb1.Pick/20250412220026.436862.127100</text><id>RefPickID</id></comment><comment><text>6.274856324513699</text><id>SNR</id></comment></pick><pick publicID="de.gempa.tb1.Pick/20250412220053.648718.127119"><time><value>2025-04-12T22:00:42.35Z</value></time><waveformID networkCode="CX" stationCode="PSGCX" channelCode="HHN"/><filterID>ITAPER(2)&gt;&gt;BW(3,3,20)</filterID><methodID>L2-AIC-GRID</methodID><horizontalSlowness><value>15.12163731039711</value></horizontalSlowness><backazimuth><value>196.42729249933828</value></backazimuth><phaseHint>S</phaseHint><evaluationMode>automatic</evaluationMode><comment><text>25.479162240655324</text><id>DFX:rectilinearity</id></comment><comment><text>de.gempa.tb1.Pick/20250412220027.619695.127102</text><id>RefPickID</id></comment><comment><text>5.429092541229617</text><id>SNR</id></comment></pick><origin publicID="de.gempa.tb1.Origin/20250412220053.653884.93617"><time><value>2025-04-12T21:59:54.914815Z</value><uncertainty>1.1210415363311768</uncertainty></time><latitude><value>-20.580652236938477</value><uncertainty>5.921901226043701</uncertainty></latitude><longitude><value>-68.82903289794922</value><uncertainty>13.67089080810547</uncertainty></longitude><depth><value>92.1369400024414</value><uncertainty>18.405385971069336</uncertainty></depth><depthType>from location</depthType><methodID>LOCSAT</methodID><earthModelID>iasp91_scanloc</earthModelID><quality><associatedPhaseCount>7</associatedPhaseCount><usedPhaseCount>7</usedPhaseCount><associatedStationCount>4</associatedStationCount><usedStationCount>4</usedStationCount><depthPhaseCount>0</depthPhaseCount><standardError>0.3241385386300659</standardError><azimuthalGap>249.00047302246094</azimuthalGap><maximumDistance>1.560940980911255</maximumDistance><minimumDistance>0.7688930034637451</minimumDistance><medianDistance>1.2391088008880615</medianDistance></quality><uncertainty><minHorizontalUncertainty>9.38062572479248</minHorizontalUncertainty><maxHorizontalUncertainty>30.542158126831055</maxHorizontalUncertainty><azimuthMaxHorizontalUncertainty>72.87049102783203</azimuthMaxHorizontalUncertainty><preferredDescription>horizontal uncertainty</preferredDescription></uncertainty><evaluationMode>automatic</evaluationMode><comment><text>0.51</text><id>mismatchScore</id></comment><arrival><pickID>de.gempa.tb1.Pick/20250412220019.884025.127098</pickID><phase>P</phase><azimuth>233.1147918701172</azimuth><distance>0.7688930034637451</distance><timeResidual>-0.3676624298095703</timeResidual><timeUsed>true</timeUsed><horizontalSlownessUsed>false</horizontalSlownessUsed><backazimuthUsed>false</backazimuthUsed><weight>1</weight></arrival><arrival><pickID>de.gempa.tb1.Pick/20250412220026.436862.127100</pickID><phase>P</phase><azimuth>233.4073486328125</azimuth><distance>1.2391088008880615</distance><timeResidual>-0.4990825653076172</timeResidual><timeUsed>true</timeUsed><horizontalSlownessUsed>false</horizontalSlownessUsed><backazimuthUsed>false</backazimuthUsed><weight>1</weight></arrival><arrival><pickID>de.gempa.tb1.Pick/20250412220027.619695.127102</pickID><phase>P</phase><azimuth>308.5933532714844</azimuth><distance>1.560940980911255</distance><timeResidual>0.005035400390625</timeResidual><timeUsed>true</timeUsed><horizontalSlownessUsed>false</horizontalSlownessUsed><backazimuthUsed>false</backazimuthUsed><weight>1</weight></arrival><arrival><pickID>de.gempa.tb1.Pick/20250412220031.435354.127106</pickID><phase>P</phase><azimuth>197.5938262939453</azimuth><distance>1.2695763111114502</distance><timeResidual>0.5371246337890625</timeResidual><timeUsed>true</timeUsed><horizontalSlownessUsed>false</horizontalSlownessUsed><backazimuthUsed>false</backazimuthUsed><weight>1</weight></arrival><arrival><pickID>de.gempa.tb1.Pick/20250412220034.709893.127112</pickID><phase>S</phase><azimuth>233.1147918701172</azimuth><distance>0.7688930034637451</distance><timeResidual>-0.027368545532226559</timeResidual><timeUsed>true</timeUsed><horizontalSlownessUsed>false</horizontalSlownessUsed><backazimuthUsed>false</backazimuthUsed><weight>1</weight></arrival><arrival><pickID>de.gempa.tb1.Pick/20250412220045.486573.127115</pickID><phase>S</phase><azimuth>233.4073486328125</azimuth><distance>1.2391088008880615</distance><timeResidual>0.18176841735839844</timeResidual><timeUsed>true</timeUsed><horizontalSlownessUsed>false</horizontalSlownessUsed><backazimuthUsed>false</backazimuthUsed><weight>1</weight></arrival><arrival><pickID>de.gempa.tb1.Pick/20250412220053.648718.127119</pickID><phase>S</phase><azimuth>308.5933532714844</azimuth><distance>1.560940980911255</distance><timeResidual>0.1699542999267578</timeResidual><timeUsed>true</timeUsed><horizontalSlownessUsed>false</horizontalSlownessUsed><backazimuthUsed>false</backazimuthUsed><weight>1</weight></arrival><magnitude publicID="de.gempa.tb1.Magnitude/20250412220100.936483.287706"><magnitude><value>2.5199784890738393</value></magnitude><type>M</type><methodID>weighted average</methodID><stationCount>3</stationCount></magnitude></origin><event publicID="gempa2025hggf"><preferredOriginID>de.gempa.tb1.Origin/20250412220053.653884.93617</preferredOriginID><preferredMagnitudeID>de.gempa.tb1.Magnitude/20250412220100.936483.287706</preferredMagnitudeID><typeCertainty>suspected</typeCertainty><description><text>Chile-Bolivia Border Region</text><type>region name</type></description><originReference>de.gempa.tb1.Origin/20250412220053.653884.93617</originReference></event></EventParameters></seiscomp>