<?xml version="1.0" encoding="UTF-8"?>
<seiscomp xmlns="http://geofon.gfz-potsdam.de/ns/seiscomp3-schema/0.13" version="0.13"><EventParameters><pick publicID="de.gempa.tb1.Pick/20250412084017.785764.148076"><time><value>2025-04-12T08:40:14.25Z</value></time><waveformID networkCode="CH" stationCode="BALST" channelCode="HHZ"/><filterID>ITAPER(4)&gt;&gt;BW(4,4,20)</filterID><methodID>AIC</methodID><phaseHint>P</phaseHint><evaluationMode>automatic</evaluationMode></pick><pick publicID="de.gempa.tb1.Pick/20250412084019.191083.148079"><time><value>2025-04-12T08:40:15.46Z</value></time><waveformID networkCode="CH" stationCode="WIMIS" channelCode="HHZ"/><filterID>ITAPER(4)&gt;&gt;BW(4,4,20)</filterID><methodID>AIC</methodID><phaseHint>P</phaseHint><evaluationMode>automatic</evaluationMode></pick><pick publicID="de.gempa.tb1.Pick/20250412084024.145119.148084"><time><value>2025-04-12T08:40:19.245Z</value></time><waveformID networkCode="CH" stationCode="BNALP" channelCode="HHZ"/><filterID>ITAPER(4)&gt;&gt;BW(4,4,20)</filterID><methodID>AIC</methodID><phaseHint>P</phaseHint><evaluationMode>automatic</evaluationMode></pick><pick publicID="de.gempa.tb1.Pick/20250412084025.136601.148086"><time><value>2025-04-12T08:40:20.678394Z</value></time><waveformID networkCode="CH" stationCode="GRIMS" channelCode="HHZ"/><filterID>ITAPER(4)&gt;&gt;BW(4,4,20)</filterID><methodID>AIC</methodID><phaseHint>P</phaseHint><evaluationMode>automatic</evaluationMode></pick><pick publicID="de.gempa.tb1.Pick/20250412084026.14152.148088"><time><value>2025-04-12T08:40:22.760001Z</value></time><waveformID networkCode="CH" stationCode="SLE" channelCode="HHZ"/><filterID>ITAPER(4)&gt;&gt;BW(4,4,20)</filterID><methodID>AIC</methodID><phaseHint>P</phaseHint><evaluationMode>automatic</evaluationMode></pick><pick publicID="de.gempa.tb1.Pick/20250412084028.490485.148090"><time><value>2025-04-12T08:40:24.97Z</value></time><waveformID networkCode="CH" stationCode="SIMPL" channelCode="HHZ"/><filterID>ITAPER(4)&gt;&gt;BW(4,4,20)</filterID><methodID>AIC</methodID><phaseHint>P</phaseHint><evaluationMode>automatic</evaluationMode></pick><pick publicID="de.gempa.tb1.Pick/20250412084031.35343.148093"><time><value>2025-04-12T08:40:27.73Z</value></time><waveformID networkCode="CH" stationCode="WILA" channelCode="HHZ"/><filterID>ITAPER(4)&gt;&gt;BW(4,4,20)</filterID><methodID>AIC</methodID><phaseHint>P</phaseHint><evaluationMode>automatic</evaluationMode></pick><pick publicID="de.gempa.tb1.Pick/20250412084038.112275.148102"><time><value>2025-04-12T08:40:32.72Z</value></time><waveformID networkCode="CH" stationCode="SIMPL" channelCode="HHN"/><filterID>RMHP(1)&gt;&gt;ITAPER(2)&gt;&gt;BW(4,3,20)</filterID><methodID>L2-AIC-GRID</methodID><phaseHint>S</phaseHint><evaluationMode>automatic</evaluationMode><comment><text>de.gempa.tb1.Pick/20250412084028.490485.148090</text><id>RefPickID</id></comment></pick><pick publicID="de.gempa.tb1.Pick/20250412084048.471262.148114"><time><value>2025-04-12T08:40:37.465Z</value></time><waveformID networkCode="CH" stationCode="WILA" channelCode="HHN"/><filterID>RMHP(1)&gt;&gt;ITAPER(2)&gt;&gt;BW(4,3,20)</filterID><methodID>L2-AIC-GRID</methodID><phaseHint>S</phaseHint><evaluationMode>automatic</evaluationMode><comment><text>de.gempa.tb1.Pick/20250412084031.35343.148093</text><id>RefPickID</id></comment></pick><origin publicID="de.gempa.tb1.Origin/20250412084048.473264.95983"><time><value>2025-04-12T08:40:07.949157Z</value><uncertainty>0.5859078168869019</uncertainty></time><latitude><value>47.03337860107422</value><uncertainty>2.2919039726257324</uncertainty></latitude><longitude><value>7.670036792755127</value><uncertainty>4.316403388977051</uncertainty></longitude><depth><value>0</value></depth><depthType>operator assigned</depthType><methodID>LOCSAT</methodID><earthModelID>iasp91</earthModelID><quality><associatedPhaseCount>9</associatedPhaseCount><usedPhaseCount>9</usedPhaseCount><associatedStationCount>7</associatedStationCount><usedStationCount>7</usedStationCount><depthPhaseCount>0</depthPhaseCount><standardError>1.434084654041386</standardError><azimuthalGap>178.31284976005554</azimuthalGap><maximumDistance>0.9256955981254578</maximumDistance><minimumDistance>0.30302849411964417</minimumDistance><medianDistance>0.8297679424285889</medianDistance></quality><uncertainty><minHorizontalUncertainty>4.55371618270874</minHorizontalUncertainty><maxHorizontalUncertainty>9.448326110839844</maxHorizontalUncertainty><azimuthMaxHorizontalUncertainty>102.97978973388672</azimuthMaxHorizontalUncertainty><preferredDescription>horizontal uncertainty</preferredDescription></uncertainty><evaluationMode>automatic</evaluationMode><comment><text>0.62</text><id>mismatchScore</id></comment><arrival><pickID>de.gempa.tb1.Pick/20250412084017.785764.148076</pickID><phase>P</phase><azimuth>3.2094714641571045</azimuth><distance>0.30302849411964417</distance><timeResidual>0.393162727355957</timeResidual><timeUsed>true</timeUsed><horizontalSlownessUsed>false</horizontalSlownessUsed><backazimuthUsed>false</backazimuthUsed><weight>1</weight></arrival><arrival><pickID>de.gempa.tb1.Pick/20250412084019.191083.148079</pickID><phase>P</phase><azimuth>184.89662170410156</azimuth><distance>0.36999231576919556</distance><timeResidual>0.32888078689575195</timeResidual><timeUsed>true</timeUsed><horizontalSlownessUsed>false</horizontalSlownessUsed><backazimuthUsed>false</backazimuthUsed><weight>1</weight></arrival><arrival><pickID>de.gempa.tb1.Pick/20250412084024.145119.148084</pickID><phase>P</phase><azimuth>107.21304321289062</azimuth><distance>0.542268693447113</distance><timeResidual>0.8389081954956055</timeResidual><timeUsed>true</timeUsed><horizontalSlownessUsed>false</horizontalSlownessUsed><backazimuthUsed>false</backazimuthUsed><weight>1</weight></arrival><arrival><pickID>de.gempa.tb1.Pick/20250412084025.136601.148086</pickID><phase>P</phase><azimuth>135.38217163085938</azimuth><distance>0.6372076272964478</distance><timeResidual>0.4668078422546387</timeResidual><timeUsed>true</timeUsed><horizontalSlownessUsed>false</horizontalSlownessUsed><backazimuthUsed>false</backazimuthUsed><weight>1</weight></arrival><arrival><pickID>de.gempa.tb1.Pick/20250412084026.14152.148088</pickID><phase>P</phase><azimuth>37.06725311279297</azimuth><distance>0.9204224348068237</distance><timeResidual>-2.834037780761719</timeResidual><timeUsed>true</timeUsed><horizontalSlownessUsed>false</horizontalSlownessUsed><backazimuthUsed>false</backazimuthUsed><weight>1</weight></arrival><arrival><pickID>de.gempa.tb1.Pick/20250412084028.490485.148090</pickID><phase>P</phase><azimuth>162.99917602539062</azimuth><distance>0.8297679424285889</distance><timeResidual>1.0968542098999023</timeResidual><timeUsed>true</timeUsed><horizontalSlownessUsed>false</horizontalSlownessUsed><backazimuthUsed>false</backazimuthUsed><weight>1</weight></arrival><arrival><pickID>de.gempa.tb1.Pick/20250412084031.35343.148093</pickID><phase>P</phase><azimuth>65.21288299560547</azimuth><distance>0.9256955981254578</distance><timeResidual>2.035109519958496</timeResidual><timeUsed>true</timeUsed><horizontalSlownessUsed>false</horizontalSlownessUsed><backazimuthUsed>false</backazimuthUsed><weight>1</weight></arrival><arrival><pickID>de.gempa.tb1.Pick/20250412084038.112275.148102</pickID><phase>S</phase><azimuth>162.99917602539062</azimuth><distance>0.8297679424285889</distance><timeResidual>-1.9515161514282227</timeResidual><timeUsed>true</timeUsed><horizontalSlownessUsed>false</horizontalSlownessUsed><backazimuthUsed>false</backazimuthUsed><weight>1</weight></arrival><arrival><pickID>de.gempa.tb1.Pick/20250412084048.471262.148114</pickID><phase>S</phase><azimuth>65.21288299560547</azimuth><distance>0.9256955981254578</distance><timeResidual>-0.3742036819458008</timeResidual><timeUsed>true</timeUsed><horizontalSlownessUsed>false</horizontalSlownessUsed><backazimuthUsed>false</backazimuthUsed><weight>1</weight></arrival><magnitude publicID="de.gempa.tb1.Magnitude/20250412084048.47814.199611"><magnitude><value>1.5728828306632774</value></magnitude><type>M</type><methodID>weighted average</methodID><stationCount>7</stationCount></magnitude></origin><event publicID="gempa2025hffo"><preferredOriginID>de.gempa.tb1.Origin/20250412084048.473264.95983</preferredOriginID><preferredMagnitudeID>de.gempa.tb1.Magnitude/20250412084048.47814.199611</preferredMagnitudeID><description><text>Switzerland</text><type>region name</type></description><originReference>de.gempa.tb1.Origin/20250412084048.473264.95983</originReference></event></EventParameters></seiscomp>