<?xml version="1.0" encoding="UTF-8"?>
<seiscomp xmlns="http://geofon.gfz-potsdam.de/ns/seiscomp3-schema/0.13" version="0.13"><EventParameters><pick publicID="de.gempa.tb1.Pick/20250412210210.487906.190332"><time><value>2025-04-12T21:02:03.4275Z</value></time><waveformID networkCode="SX" stationCode="WERN" channelCode="HHZ"/><filterID>ITAPER(2)&gt;&gt;BW(3,3,20)</filterID><methodID>AIC</methodID><horizontalSlowness><value>23.152827662904336</value></horizontalSlowness><backazimuth><value>56.04291674228119</value></backazimuth><phaseHint>P</phaseHint><evaluationMode>automatic</evaluationMode><comment><text>147.94101386900212</text><id>DFX:rectilinearity</id></comment></pick><pick publicID="de.gempa.tb1.Pick/20250412210211.660448.190336"><time><value>2025-04-12T21:02:05.71Z</value></time><waveformID networkCode="SX" stationCode="TRIB" channelCode="HHZ"/><filterID>ITAPER(2)&gt;&gt;BW(3,3,20)</filterID><methodID>AIC</methodID><horizontalSlowness><value>21.041429803164007</value></horizontalSlowness><backazimuth><value>7.81919330049476</value></backazimuth><phaseHint>P</phaseHint><evaluationMode>automatic</evaluationMode><comment><text>2.7400309686014626</text><id>DFX:rectilinearity</id></comment></pick><pick publicID="de.gempa.tb1.Pick/20250412210211.664434.190338"><time><value>2025-04-12T21:02:03.67Z</value></time><waveformID networkCode="SX" stationCode="ROHR" channelCode="HHZ"/><filterID>ITAPER(2)&gt;&gt;BW(3,3,20)</filterID><methodID>AIC</methodID><horizontalSlowness><value>12.536487346659126</value></horizontalSlowness><backazimuth><value>90.57333447368185</value></backazimuth><phaseHint>P</phaseHint><evaluationMode>automatic</evaluationMode><comment><text>17.889384463369357</text><id>DFX:rectilinearity</id></comment></pick><pick publicID="de.gempa.tb1.Pick/20250412210211.718406.190340"><time><value>2025-04-12T21:02:05.33Z</value></time><waveformID networkCode="SX" stationCode="ROHR" channelCode="HHN"/><filterID>ITAPER(3)&gt;&gt;BW(4,3,10)</filterID><methodID>L2-AIC-GRID</methodID><horizontalSlowness><value>12.654908513873837</value></horizontalSlowness><backazimuth><value>88.61819195930921</value></backazimuth><phaseHint>S</phaseHint><evaluationMode>automatic</evaluationMode><comment><text>16.929093280380837</text><id>DFX:rectilinearity</id></comment><comment><text>de.gempa.tb1.Pick/20250412210211.664434.190338</text><id>RefPickID</id></comment></pick><pick publicID="de.gempa.tb1.Pick/20250412210213.849727.190346"><time><value>2025-04-12T21:02:04.69Z</value></time><waveformID networkCode="SX" stationCode="TANN" channelCode="HHZ"/><filterID>ITAPER(2)&gt;&gt;BW(3,3,20)</filterID><methodID>AIC</methodID><horizontalSlowness><value>19.89685797677064</value></horizontalSlowness><backazimuth><value>290.6911512999755</value></backazimuth><phaseHint>P</phaseHint><evaluationMode>automatic</evaluationMode><comment><text>6.647063435123225</text><id>DFX:rectilinearity</id></comment></pick><pick publicID="de.gempa.tb1.Pick/20250412210215.004755.190350"><time><value>2025-04-12T21:02:08.12Z</value></time><waveformID networkCode="SX" stationCode="LEUT" channelCode="HHZ"/><filterID>ITAPER(2)&gt;&gt;BW(3,3,20)</filterID><methodID>AIC</methodID><horizontalSlowness><value>19.023567092910628</value></horizontalSlowness><backazimuth><value>307.10569566007575</value></backazimuth><phaseHint>P</phaseHint><evaluationMode>automatic</evaluationMode><comment><text>2.02648842505638</text><id>DFX:rectilinearity</id></comment></pick><pick publicID="de.gempa.tb1.Pick/20250412210215.330548.190354"><time><value>2025-04-12T21:02:04.71Z</value></time><waveformID networkCode="SX" stationCode="MULD" channelCode="HHZ"/><filterID>ITAPER(2)&gt;&gt;BW(3,3,20)</filterID><methodID>AIC</methodID><horizontalSlowness><value>21.96280348763563</value></horizontalSlowness><backazimuth><value>306.28103773321993</value></backazimuth><phaseHint>P</phaseHint><evaluationMode>automatic</evaluationMode><comment><text>10.45067939220343</text><id>DFX:rectilinearity</id></comment></pick><pick publicID="de.gempa.tb1.Pick/20250412210217.681741.190362"><time><value>2025-04-12T21:02:08.76Z</value></time><waveformID networkCode="SX" stationCode="TRIB" channelCode="HHN"/><filterID>ITAPER(3)&gt;&gt;BW(4,3,10)</filterID><methodID>L2-AIC-GRID</methodID><horizontalSlowness><value>20.084642534184376</value></horizontalSlowness><backazimuth><value>55.97700820063923</value></backazimuth><phaseHint>S</phaseHint><evaluationMode>automatic</evaluationMode><comment><text>2.8197691916687395</text><id>DFX:rectilinearity</id></comment><comment><text>de.gempa.tb1.Pick/20250412210211.660448.190336</text><id>RefPickID</id></comment></pick><pick publicID="de.gempa.tb1.Pick/20250412210217.851976.190363"><time><value>2025-04-12T21:02:06.56Z</value></time><waveformID networkCode="SX" stationCode="TANN" channelCode="HHN"/><filterID>ITAPER(3)&gt;&gt;BW(4,3,10)</filterID><methodID>L2-AIC-GRID</methodID><horizontalSlowness><value>19.059877649469918</value></horizontalSlowness><backazimuth><value>296.6891730155993</value></backazimuth><phaseHint>S</phaseHint><evaluationMode>automatic</evaluationMode><comment><text>8.258616824366394</text><id>DFX:rectilinearity</id></comment><comment><text>de.gempa.tb1.Pick/20250412210213.849727.190346</text><id>RefPickID</id></comment></pick><pick publicID="de.gempa.tb1.Pick/20250412210217.87459.190364"><time><value>2025-04-12T21:02:09.35Z</value></time><waveformID networkCode="SX" stationCode="SCHF" channelCode="HHZ"/><filterID>ITAPER(2)&gt;&gt;BW(3,3,20)</filterID><methodID>AIC</methodID><horizontalSlowness><value>20.070579603664903</value></horizontalSlowness><backazimuth><value>214.4617970182533</value></backazimuth><phaseHint>P</phaseHint><evaluationMode>automatic</evaluationMode><comment><text>2.593233389369045</text><id>DFX:rectilinearity</id></comment></pick><pick publicID="de.gempa.tb1.Pick/20250412210314.745556.190424"><time><value>2025-04-12T21:03:07.43Z</value></time><waveformID networkCode="PL" stationCode="GKP" channelCode="HHZ"/><filterID>ITAPER(2)&gt;&gt;BW(3,3,20)</filterID><methodID>AIC</methodID><horizontalSlowness><value>3.1383165082104734</value></horizontalSlowness><backazimuth><value>359.32501246343156</value></backazimuth><phaseHint>P</phaseHint><evaluationMode>automatic</evaluationMode><comment><text>23.75789274708971</text><id>DFX:rectilinearity</id></comment></pick><origin publicID="de.gempa.tb1.Origin/20250412210316.661903.176955"><time><value>2025-04-12T21:02:01.848493Z</value><uncertainty>0.5604163408279419</uncertainty></time><latitude><value>50.29180526733398</value><uncertainty>3.36664080619812</uncertainty></latitude><longitude><value>12.422223091125488</value><uncertainty>4.356232166290283</uncertainty></longitude><depth><value>2.907304525375366</value><uncertainty>2.496297597885132</uncertainty></depth><depthType>from location</depthType><methodID>LOCSAT</methodID><earthModelID>iasp91</earthModelID><quality><associatedPhaseCount>11</associatedPhaseCount><usedPhaseCount>11</usedPhaseCount><associatedStationCount>8</associatedStationCount><usedStationCount>8</usedStationCount><depthPhaseCount>0</depthPhaseCount><standardError>0.275489599154313</standardError><azimuthalGap>186.23131561279297</azimuthalGap><maximumDistance>4.222095012664795</maximumDistance><minimumDistance>0.029912764206528664</minimumDistance><medianDistance>0.12582318484783173</medianDistance></quality><uncertainty><minHorizontalUncertainty>4.184722900390625</minHorizontalUncertainty><maxHorizontalUncertainty>11.037947654724121</maxHorizontalUncertainty><azimuthMaxHorizontalUncertainty>125.15951538085938</azimuthMaxHorizontalUncertainty><preferredDescription>horizontal uncertainty</preferredDescription></uncertainty><evaluationMode>automatic</evaluationMode><evaluationStatus>confirmed</evaluationStatus><comment><text>0.82</text><id>mismatchScore</id></comment><comment><text>extendedGap</text><id>scevalMethod</id></comment><arrival><pickID>de.gempa.tb1.Pick/20250412210210.487906.190332</pickID><phase>P</phase><azimuth>261.5372009277344</azimuth><distance>0.029912764206528664</distance><timeResidual>0.4604871273040771</timeResidual><timeUsed>true</timeUsed><horizontalSlownessUsed>false</horizontalSlownessUsed><backazimuthUsed>false</backazimuthUsed><weight>1</weight></arrival><arrival><pickID>de.gempa.tb1.Pick/20250412210211.660448.190336</pickID><phase>P</phase><azimuth>288.35394287109375</azimuth><distance>0.19250884652137756</distance><timeResidual>-0.2813519239425659</timeResidual><timeUsed>true</timeUsed><horizontalSlownessUsed>false</horizontalSlownessUsed><backazimuthUsed>false</backazimuthUsed><weight>1</weight></arrival><arrival><pickID>de.gempa.tb1.Pick/20250412210211.664434.190338</pickID><phase>P</phase><azimuth>229.4444274902344</azimuth><distance>0.08893807232379913</distance><timeResidual>-0.3950556516647339</timeResidual><timeUsed>true</timeUsed><horizontalSlownessUsed>false</horizontalSlownessUsed><backazimuthUsed>false</backazimuthUsed><weight>1</weight></arrival><arrival><pickID>de.gempa.tb1.Pick/20250412210211.718406.190340</pickID><phase>S</phase><azimuth>229.4444274902344</azimuth><distance>0.08893807232379913</distance><timeResidual>0.05183064937591553</timeResidual><timeUsed>true</timeUsed><horizontalSlownessUsed>false</horizontalSlownessUsed><backazimuthUsed>false</backazimuthUsed><weight>1</weight></arrival><arrival><pickID>de.gempa.tb1.Pick/20250412210213.849727.190346</pickID><phase>P</phase><azimuth>11.371405601501465</azimuth><distance>0.12582318484783173</distance><timeResidual>-0.06079995632171631</timeResidual><timeUsed>true</timeUsed><horizontalSlownessUsed>false</horizontalSlownessUsed><backazimuthUsed>false</backazimuthUsed><weight>1</weight></arrival><arrival><pickID>de.gempa.tb1.Pick/20250412210215.004755.190350</pickID><phase>P</phase><azimuth>11.502397537231445</azimuth><distance>0.3223058581352234</distance><timeResidual>-0.28521406650543213</timeResidual><timeUsed>true</timeUsed><horizontalSlownessUsed>false</horizontalSlownessUsed><backazimuthUsed>false</backazimuthUsed><weight>1</weight></arrival><arrival><pickID>de.gempa.tb1.Pick/20250412210215.330548.190354</pickID><phase>P</phase><azimuth>354.42694091796875</azimuth><distance>0.12071432173252106</distance><timeResidual>0.05422461032867432</timeResidual><timeUsed>true</timeUsed><horizontalSlownessUsed>false</horizontalSlownessUsed><backazimuthUsed>false</backazimuthUsed><weight>1</weight></arrival><arrival><pickID>de.gempa.tb1.Pick/20250412210217.681741.190362</pickID><phase>S</phase><azimuth>288.35394287109375</azimuth><distance>0.19250884652137756</distance><timeResidual>0.14605319499969482</timeResidual><timeUsed>true</timeUsed><horizontalSlownessUsed>false</horizontalSlownessUsed><backazimuthUsed>false</backazimuthUsed><weight>1</weight></arrival><arrival><pickID>de.gempa.tb1.Pick/20250412210217.851976.190363</pickID><phase>S</phase><azimuth>11.371405601501465</azimuth><distance>0.12582318484783173</distance><timeResidual>0.09437811374664307</timeResidual><timeUsed>true</timeUsed><horizontalSlownessUsed>false</horizontalSlownessUsed><backazimuthUsed>false</backazimuthUsed><weight>1</weight></arrival><arrival><pickID>de.gempa.tb1.Pick/20250412210217.87459.190364</pickID><phase>P</phase><azimuth>358.1940612792969</azimuth><distance>0.38607287406921387</distance><timeResidual>-0.24121296405792236</timeResidual><timeUsed>true</timeUsed><horizontalSlownessUsed>false</horizontalSlownessUsed><backazimuthUsed>false</backazimuthUsed><weight>1</weight></arrival><arrival><pickID>de.gempa.tb1.Pick/20250412210314.745556.190424</pickID><phase>P</phase><azimuth>43.213111877441406</azimuth><distance>4.222095012664795</distance><timeResidual>0.4565857648849487</timeResidual><timeUsed>true</timeUsed><horizontalSlownessUsed>false</horizontalSlownessUsed><backazimuthUsed>false</backazimuthUsed><weight>1</weight></arrival><magnitude publicID="de.gempa.tb1.Magnitude/20250412210316.672255.282936"><magnitude><value>0.20147128518708737</value></magnitude><type>M</type><methodID>weighted average</methodID><stationCount>7</stationCount></magnitude></origin><event publicID="gempa2025hgeh"><preferredOriginID>de.gempa.tb1.Origin/20250412210316.661903.176955</preferredOriginID><preferredMagnitudeID>de.gempa.tb1.Magnitude/20250412210316.672255.282936</preferredMagnitudeID><description><text>Germany</text><type>region name</type></description><originReference>de.gempa.tb1.Origin/20250412210316.661903.176955</originReference></event></EventParameters></seiscomp>