<?xml version="1.0" encoding="UTF-8"?>
<seiscomp xmlns="http://geofon.gfz-potsdam.de/ns/seiscomp3-schema/0.13" version="0.13"><EventParameters><pick publicID="de.gempa.tb1.Pick/20250414175143.583883.139851"><time><value>2025-04-14T17:51:37.958393Z</value></time><waveformID networkCode="CX" stationCode="PB02" channelCode="HHZ"/><filterID>ITAPER(4)&gt;&gt;BW(4,4,20)</filterID><methodID>AIC</methodID><horizontalSlowness><value>14.192075204489697</value></horizontalSlowness><backazimuth><value>57.88858109820133</value></backazimuth><phaseHint>P</phaseHint><evaluationMode>automatic</evaluationMode><comment><text>50.95938675902711</text><id>DFX:rectilinearity</id></comment><comment><text>298.201102101521</text><id>SNR</id></comment></pick><pick publicID="de.gempa.tb1.Pick/20250414175144.907236.139853"><time><value>2025-04-14T17:51:36.058393Z</value></time><waveformID networkCode="CX" stationCode="PB01" channelCode="HHZ"/><filterID>ITAPER(4)&gt;&gt;BW(4,4,20)</filterID><methodID>AIC</methodID><horizontalSlowness><value>22.57346513626201</value></horizontalSlowness><backazimuth><value>5.411023160404994</value></backazimuth><phaseHint>P</phaseHint><evaluationMode>automatic</evaluationMode><comment><text>16.561918380236857</text><id>DFX:rectilinearity</id></comment><comment><text>135.3762949211947</text><id>SNR</id></comment></pick><pick publicID="de.gempa.tb1.Pick/20250414175146.439011.139855"><time><value>2025-04-14T17:51:40.389999Z</value></time><waveformID networkCode="CX" stationCode="PATCX" channelCode="HHZ"/><filterID>ITAPER(4)&gt;&gt;BW(4,4,20)</filterID><methodID>AIC</methodID><horizontalSlowness><value>22.285424642862516</value></horizontalSlowness><backazimuth><value>39.5776563718143</value></backazimuth><phaseHint>P</phaseHint><evaluationMode>automatic</evaluationMode><comment><text>97.19014160153387</text><id>DFX:rectilinearity</id></comment><comment><text>15.119060285303878</text><id>SNR</id></comment></pick><pick publicID="de.gempa.tb1.Pick/20250414175147.62177.139857"><time><value>2025-04-14T17:51:39.588393Z</value></time><waveformID networkCode="CX" stationCode="PB01" channelCode="HHN"/><filterID>ITAPER(2)&gt;&gt;BW(3,3,20)</filterID><methodID>L2-AIC-GRID</methodID><horizontalSlowness><value>18.828137244424468</value></horizontalSlowness><backazimuth><value>148.17421796470808</value></backazimuth><phaseHint>S</phaseHint><evaluationMode>automatic</evaluationMode><comment><text>46.87727876628706</text><id>DFX:rectilinearity</id></comment><comment><text>de.gempa.tb1.Pick/20250414175144.907236.139853</text><id>RefPickID</id></comment><comment><text>5.952944816171952</text><id>SNR</id></comment></pick><pick publicID="de.gempa.tb1.Pick/20250414175156.613361.139860"><time><value>2025-04-14T17:51:50.258393Z</value></time><waveformID networkCode="CX" stationCode="PB03" channelCode="HHZ"/><filterID>ITAPER(4)&gt;&gt;BW(4,4,20)</filterID><methodID>AIC</methodID><horizontalSlowness><value>6.839588333036927</value></horizontalSlowness><backazimuth><value>235.6996440624606</value></backazimuth><phaseHint>P</phaseHint><evaluationMode>automatic</evaluationMode><comment><text>5.031792548261297</text><id>DFX:rectilinearity</id></comment><comment><text>37.684460810899637</text><id>SNR</id></comment></pick><pick publicID="de.gempa.tb1.Pick/20250414175157.488019.139862"><time><value>2025-04-14T17:51:47.339999Z</value></time><waveformID networkCode="CX" stationCode="PATCX" channelCode="HHN"/><filterID>ITAPER(2)&gt;&gt;BW(3,3,20)</filterID><methodID>L2-AIC-GRID</methodID><horizontalSlowness><value>23.38904889748713</value></horizontalSlowness><backazimuth><value>242.518153835795</value></backazimuth><phaseHint>S</phaseHint><evaluationMode>automatic</evaluationMode><comment><text>51.04635560364976</text><id>DFX:rectilinearity</id></comment><comment><text>de.gempa.tb1.Pick/20250414175146.439011.139855</text><id>RefPickID</id></comment><comment><text>6.02882794197597</text><id>SNR</id></comment></pick><pick publicID="de.gempa.tb1.Pick/20250414175158.09608.139863"><time><value>2025-04-14T17:51:48.83Z</value></time><waveformID networkCode="CX" stationCode="PB09" channelCode="HHZ"/><filterID>ITAPER(4)&gt;&gt;BW(4,4,20)</filterID><methodID>AIC</methodID><horizontalSlowness><value>22.133063702684005</value></horizontalSlowness><backazimuth><value>271.94265080634545</value></backazimuth><phaseHint>P</phaseHint><evaluationMode>automatic</evaluationMode><comment><text>4.743924984662274</text><id>DFX:rectilinearity</id></comment><comment><text>25.70844909080264</text><id>SNR</id></comment></pick><pick publicID="de.gempa.tb1.Pick/20250414175158.226135.139865"><time><value>2025-04-14T17:51:51.318393Z</value></time><waveformID networkCode="CX" stationCode="PB08" channelCode="HHZ"/><filterID>ITAPER(4)&gt;&gt;BW(4,4,20)</filterID><methodID>AIC</methodID><horizontalSlowness><value>15.420763602287572</value></horizontalSlowness><backazimuth><value>85.19143089652903</value></backazimuth><phaseHint>P</phaseHint><evaluationMode>automatic</evaluationMode><comment><text>6.445402622110643</text><id>DFX:rectilinearity</id></comment><comment><text>6.720693088103341</text><id>SNR</id></comment></pick><pick publicID="de.gempa.tb1.Pick/20250414175203.630751.139867"><time><value>2025-04-14T17:51:58.37Z</value></time><waveformID networkCode="CX" stationCode="PSGCX" channelCode="HHZ"/><filterID>ITAPER(4)&gt;&gt;BW(4,4,20)</filterID><methodID>AIC</methodID><horizontalSlowness><value>22.7289759215593</value></horizontalSlowness><backazimuth><value>160.9992130584344</value></backazimuth><phaseHint>P</phaseHint><evaluationMode>automatic</evaluationMode><comment><text>8.233829332778798</text><id>DFX:rectilinearity</id></comment><comment><text>95.3741259651312</text><id>SNR</id></comment></pick><pick publicID="de.gempa.tb1.Pick/20250414175209.523358.139869"><time><value>2025-04-14T17:52:01.968393Z</value></time><waveformID networkCode="CX" stationCode="PB06" channelCode="HHZ"/><filterID>ITAPER(4)&gt;&gt;BW(4,4,20)</filterID><methodID>AIC</methodID><horizontalSlowness><value>21.131330719882236</value></horizontalSlowness><backazimuth><value>331.3911643432915</value></backazimuth><phaseHint>P</phaseHint><evaluationMode>automatic</evaluationMode><comment><text>73.69968839762784</text><id>DFX:rectilinearity</id></comment><comment><text>6.250386121227374</text><id>SNR</id></comment></pick><pick publicID="de.gempa.tb1.Pick/20250414175253.615415.139873"><time><value>2025-04-14T17:51:44.878393Z</value></time><waveformID networkCode="CX" stationCode="PB07" channelCode="HHZ"/><filterID>ITAPER(4)&gt;&gt;BW(4,4,20)</filterID><methodID>AIC</methodID><horizontalSlowness><value>23.02150693715726</value></horizontalSlowness><backazimuth><value>136.22328752304517</value></backazimuth><phaseHint>P</phaseHint><evaluationMode>automatic</evaluationMode><comment><text>70.89916750162477</text><id>DFX:rectilinearity</id></comment><comment><text>34.766643931746636</text><id>SNR</id></comment></pick><origin publicID="de.gempa.tb1.Origin/20250414175254.644554.145684"><time><value>2025-04-14T17:51:31.657397Z</value><uncertainty>0.30771467089653015</uncertainty></time><latitude><value>-21.038572311401367</value><uncertainty>2.450517416000366</uncertainty></latitude><longitude><value>-69.72496032714844</value><uncertainty>2.177154779434204</uncertainty></longitude><depth><value>6.682314395904541</value><uncertainty>5.080828666687012</uncertainty></depth><depthType>from location</depthType><methodID>LOCSAT</methodID><earthModelID>iasp91_scanloc</earthModelID><quality><associatedPhaseCount>11</associatedPhaseCount><usedPhaseCount>11</usedPhaseCount><associatedStationCount>9</associatedStationCount><usedStationCount>9</usedStationCount><depthPhaseCount>0</depthPhaseCount><standardError>0.39784413629140436</standardError><azimuthalGap>88.69609069824219</azimuthalGap><maximumDistance>1.6652209758758545</maximumDistance><minimumDistance>0.22196365892887115</minimumDistance><medianDistance>0.7009969353675842</medianDistance></quality><uncertainty><minHorizontalUncertainty>4.412400722503662</minHorizontalUncertainty><maxHorizontalUncertainty>5.471116065979004</maxHorizontalUncertainty><azimuthMaxHorizontalUncertainty>28.11564064025879</azimuthMaxHorizontalUncertainty><preferredDescription>horizontal uncertainty</preferredDescription></uncertainty><evaluationMode>automatic</evaluationMode><evaluationStatus>confirmed</evaluationStatus><comment><text>0.00</text><id>mismatchScore</id></comment><comment><text>mismatchScore</text><id>scevalMethod</id></comment><arrival><pickID>de.gempa.tb1.Pick/20250414175143.583883.139851</pickID><phase>P</phase><azimuth>209.68113708496094</azimuth><distance>0.3221116364002228</distance><timeResidual>0.016906261444091797</timeResidual><timeUsed>true</timeUsed><horizontalSlownessUsed>false</horizontalSlownessUsed><backazimuthUsed>false</backazimuthUsed><weight>1</weight></arrival><arrival><pickID>de.gempa.tb1.Pick/20250414175144.907236.139853</pickID><phase>P</phase><azimuth>91.23880004882812</azimuth><distance>0.22196365892887115</distance><timeResidual>-0.009820938110351562</timeResidual><timeUsed>true</timeUsed><horizontalSlownessUsed>false</horizontalSlownessUsed><backazimuthUsed>false</backazimuthUsed><weight>1</weight></arrival><arrival><pickID>de.gempa.tb1.Pick/20250414175146.439011.139855</pickID><phase>P</phase><azimuth>298.3772277832031</azimuth><distance>0.45498326420784</distance><timeResidual>-0.07026529312133789</timeResidual><timeUsed>true</timeUsed><horizontalSlownessUsed>false</horizontalSlownessUsed><backazimuthUsed>false</backazimuthUsed><weight>1</weight></arrival><arrival><pickID>de.gempa.tb1.Pick/20250414175147.62177.139857</pickID><phase>S</phase><azimuth>91.23880004882812</azimuth><distance>0.22196365892887115</distance><timeResidual>0.31755590438842773</timeResidual><timeUsed>true</timeUsed><horizontalSlownessUsed>false</horizontalSlownessUsed><backazimuthUsed>false</backazimuthUsed><weight>1</weight></arrival><arrival><pickID>de.gempa.tb1.Pick/20250414175156.613361.139860</pickID><phase>P</phase><azimuth>181.48802185058594</azimuth><distance>1.0052863359451294</distance><timeResidual>-0.706667423248291</timeResidual><timeUsed>true</timeUsed><horizontalSlownessUsed>false</horizontalSlownessUsed><backazimuthUsed>false</backazimuthUsed><weight>1</weight></arrival><arrival><pickID>de.gempa.tb1.Pick/20250414175157.488019.139862</pickID><phase>S</phase><azimuth>298.3772277832031</azimuth><distance>0.45498326420784</distance><timeResidual>0.4910244941711426</timeResidual><timeUsed>true</timeUsed><horizontalSlownessUsed>false</horizontalSlownessUsed><backazimuthUsed>false</backazimuthUsed><weight>1</weight></arrival><arrival><pickID>de.gempa.tb1.Pick/20250414175158.09608.139863</pickID><phase>P</phase><azimuth>149.25570678710938</azimuth><distance>0.87818044424057</distance><timeResidual>0.29677820205688477</timeResidual><timeUsed>true</timeUsed><horizontalSlownessUsed>false</horizontalSlownessUsed><backazimuthUsed>false</backazimuthUsed><weight>1</weight></arrival><arrival><pickID>de.gempa.tb1.Pick/20250414175158.226135.139865</pickID><phase>P</phase><azimuth>31.05210494995117</azimuth><distance>1.0411761999130249</distance><timeResidual>-0.33765363693237305</timeResidual><timeUsed>true</timeUsed><horizontalSlownessUsed>false</horizontalSlownessUsed><backazimuthUsed>false</backazimuthUsed><weight>1</weight></arrival><arrival><pickID>de.gempa.tb1.Pick/20250414175203.630751.139867</pickID><phase>P</phase><azimuth>345.328125</azimuth><distance>1.4819282293319702</distance><timeResidual>-0.4051051139831543</timeResidual><timeUsed>true</timeUsed><horizontalSlownessUsed>false</horizontalSlownessUsed><backazimuthUsed>false</backazimuthUsed><weight>1</weight></arrival><arrival><pickID>de.gempa.tb1.Pick/20250414175209.523358.139869</pickID><phase>P</phase><azimuth>175.129638671875</azimuth><distance>1.6652209758758545</distance><timeResidual>0.6754860877990723</timeResidual><timeUsed>true</timeUsed><horizontalSlownessUsed>false</horizontalSlownessUsed><backazimuthUsed>false</backazimuthUsed><weight>1</weight></arrival><arrival><pickID>de.gempa.tb1.Pick/20250414175253.615415.139873</pickID><phase>P</phase><azimuth>192.34776306152344</azimuth><distance>0.7009969353675842</distance><timeResidual>-0.26824522018432617</timeResidual><timeUsed>true</timeUsed><horizontalSlownessUsed>false</horizontalSlownessUsed><backazimuthUsed>false</backazimuthUsed><weight>1</weight></arrival><magnitude publicID="de.gempa.tb1.Magnitude/20250414175254.652583.523260"><magnitude><value>1.7433401187937876</value></magnitude><type>M</type><methodID>weighted average</methodID><stationCount>7</stationCount></magnitude></origin><event publicID="gempa2025hjpz"><preferredOriginID>de.gempa.tb1.Origin/20250414175254.644554.145684</preferredOriginID><preferredMagnitudeID>de.gempa.tb1.Magnitude/20250414175254.652583.523260</preferredMagnitudeID><description><text>Northern Chile</text><type>region name</type></description><originReference>de.gempa.tb1.Origin/20250414175254.644554.145684</originReference></event></EventParameters></seiscomp>