<?xml version="1.0" encoding="UTF-8"?>
<seiscomp xmlns="http://geofon.gfz-potsdam.de/ns/seiscomp3-schema/0.13" version="0.13"><EventParameters><pick publicID="de.gempa.tb1.Pick/20250415083403.735092.118299"><time><value>2025-04-15T08:33:58.678393Z</value></time><waveformID networkCode="CX" stationCode="PB01" channelCode="HHZ"/><filterID>ITAPER(4)&gt;&gt;BW(4,4,20)</filterID><methodID>AIC</methodID><horizontalSlowness><value>12.026477445255038</value></horizontalSlowness><backazimuth><value>101.66275454416856</value></backazimuth><phaseHint>P</phaseHint><evaluationMode>automatic</evaluationMode><comment><text>53.27935156327872</text><id>DFX:rectilinearity</id></comment><comment><text>114.9117536471775</text><id>SNR</id></comment></pick><pick publicID="de.gempa.tb1.Pick/20250415083403.736767.118301"><time><value>2025-04-15T08:33:57.828393Z</value></time><waveformID networkCode="CX" stationCode="PB03" channelCode="HHZ"/><filterID>ITAPER(4)&gt;&gt;BW(4,4,20)</filterID><methodID>AIC</methodID><horizontalSlowness><value>6.489233161621059</value></horizontalSlowness><backazimuth><value>117.78003698134526</value></backazimuth><phaseHint>P</phaseHint><evaluationMode>automatic</evaluationMode><comment><text>50.93441316764704</text><id>DFX:rectilinearity</id></comment><comment><text>173.74324621825596</text><id>SNR</id></comment></pick><pick publicID="de.gempa.tb1.Pick/20250415083403.626302.118297"><time><value>2025-04-15T08:33:56.798393Z</value></time><waveformID networkCode="CX" stationCode="PB06" channelCode="HHZ"/><filterID>ITAPER(4)&gt;&gt;BW(4,4,20)</filterID><methodID>AIC</methodID><horizontalSlowness><value>16.9449795949295</value></horizontalSlowness><backazimuth><value>253.1028888872284</value></backazimuth><phaseHint>P</phaseHint><evaluationMode>automatic</evaluationMode><comment><text>78.81761718152171</text><id>DFX:rectilinearity</id></comment><comment><text>55.81089701453538</text><id>SNR</id></comment></pick><pick publicID="de.gempa.tb1.Pick/20250415083403.786668.118303"><time><value>2025-04-15T08:33:58.928394Z</value></time><waveformID networkCode="CX" stationCode="PB15" channelCode="HHZ"/><filterID>ITAPER(4)&gt;&gt;BW(4,4,20)</filterID><methodID>AIC</methodID><horizontalSlowness><value>22.151213830086427</value></horizontalSlowness><backazimuth><value>94.80156256459739</value></backazimuth><phaseHint>P</phaseHint><evaluationMode>automatic</evaluationMode><comment><text>237.61362318413975</text><id>DFX:rectilinearity</id></comment><comment><text>15.699363853611565</text><id>SNR</id></comment></pick><pick publicID="de.gempa.tb1.Pick/20250415083408.67189.118307"><time><value>2025-04-15T08:34:00.918394Z</value></time><waveformID networkCode="CX" stationCode="PB02" channelCode="HHZ"/><filterID>ITAPER(4)&gt;&gt;BW(4,4,20)</filterID><methodID>AIC</methodID><horizontalSlowness><value>5.560178220349273</value></horizontalSlowness><backazimuth><value>313.3792988270326</value></backazimuth><phaseHint>P</phaseHint><evaluationMode>automatic</evaluationMode><comment><text>79.33589254939207</text><id>DFX:rectilinearity</id></comment><comment><text>68.94481133630893</text><id>SNR</id></comment></pick><pick publicID="de.gempa.tb1.Pick/20250415083410.650413.118309"><time><value>2025-04-15T08:34:01.88Z</value></time><waveformID networkCode="CX" stationCode="PB19" channelCode="HHZ"/><filterID>ITAPER(4)&gt;&gt;BW(4,4,20)</filterID><methodID>AIC</methodID><horizontalSlowness><value>21.34814856037129</value></horizontalSlowness><backazimuth><value>254.5201245849764</value></backazimuth><phaseHint>P</phaseHint><evaluationMode>automatic</evaluationMode><comment><text>40.145723459770636</text><id>DFX:rectilinearity</id></comment><comment><text>7.384918260432819</text><id>SNR</id></comment></pick><pick publicID="de.gempa.tb1.Pick/20250415083413.825247.118313"><time><value>2025-04-15T08:34:03.958393Z</value></time><waveformID networkCode="CX" stationCode="PB08" channelCode="HHZ"/><filterID>ITAPER(4)&gt;&gt;BW(4,4,20)</filterID><methodID>AIC</methodID><horizontalSlowness><value>18.584527988625343</value></horizontalSlowness><backazimuth><value>220.9831447956588</value></backazimuth><phaseHint>P</phaseHint><evaluationMode>automatic</evaluationMode><comment><text>73.35959763397064</text><id>DFX:rectilinearity</id></comment><comment><text>11.089189357751712</text><id>SNR</id></comment></pick><pick publicID="de.gempa.tb1.Pick/20250415083413.466174.118311"><time><value>2025-04-15T08:33:59.768396Z</value></time><waveformID networkCode="CX" stationCode="PB07" channelCode="HHZ"/><filterID>ITAPER(4)&gt;&gt;BW(4,4,20)</filterID><methodID>AIC</methodID><horizontalSlowness><value>11.412233240975075</value></horizontalSlowness><backazimuth><value>101.19033336246423</value></backazimuth><phaseHint>P</phaseHint><evaluationMode>automatic</evaluationMode><comment><text>322.6633952635385</text><id>DFX:rectilinearity</id></comment><comment><text>325.6691045896667</text><id>SNR</id></comment></pick><pick publicID="de.gempa.tb1.Pick/20250415083414.367586.118315"><time><value>2025-04-15T08:34:05.839999Z</value></time><waveformID networkCode="CX" stationCode="PATCX" channelCode="HHZ"/><filterID>ITAPER(4)&gt;&gt;BW(4,4,20)</filterID><methodID>AIC</methodID><horizontalSlowness><value>16.004413292654483</value></horizontalSlowness><backazimuth><value>189.51446237932842</value></backazimuth><phaseHint>P</phaseHint><evaluationMode>automatic</evaluationMode><comment><text>163.37835908309208</text><id>DFX:rectilinearity</id></comment><comment><text>66.95230563795278</text><id>SNR</id></comment></pick><pick publicID="de.gempa.tb1.Pick/20250415083417.276529.118317"><time><value>2025-04-15T08:34:09.09Z</value></time><waveformID networkCode="CX" stationCode="PB10" channelCode="HHZ"/><filterID>ITAPER(4)&gt;&gt;BW(4,4,20)</filterID><methodID>AIC</methodID><horizontalSlowness><value>19.081646653667477</value></horizontalSlowness><backazimuth><value>342.42381727845816</value></backazimuth><phaseHint>P</phaseHint><evaluationMode>automatic</evaluationMode><comment><text>86.95731357062893</text><id>DFX:rectilinearity</id></comment><comment><text>10.446914588072518</text><id>SNR</id></comment></pick><pick publicID="de.gempa.tb1.Pick/20250415083406.967729.118305"><time><value>2025-04-15T08:33:54.11Z</value></time><waveformID networkCode="CX" stationCode="PB09" channelCode="HHZ"/><filterID>ITAPER(4)&gt;&gt;BW(4,4,20)</filterID><methodID>AIC</methodID><horizontalSlowness><value>7.814295867792667</value></horizontalSlowness><backazimuth><value>288.3573130231448</value></backazimuth><phaseHint>P</phaseHint><evaluationMode>automatic</evaluationMode><comment><text>20.09164826483239</text><id>DFX:rectilinearity</id></comment><comment><text>133.23514769669174</text><id>SNR</id></comment></pick><pick publicID="de.gempa.tb1.Pick/20250415083418.654781.118319"><time><value>2025-04-15T08:34:13.41Z</value></time><waveformID networkCode="CX" stationCode="PSGCX" channelCode="HHZ"/><filterID>ITAPER(4)&gt;&gt;BW(4,4,20)</filterID><methodID>AIC</methodID><horizontalSlowness><value>17.816380032659126</value></horizontalSlowness><backazimuth><value>93.17191202284748</value></backazimuth><phaseHint>P</phaseHint><evaluationMode>automatic</evaluationMode><comment><text>4.74861275103842</text><id>DFX:rectilinearity</id></comment><comment><text>30.165553863730704</text><id>SNR</id></comment></pick><pick publicID="de.gempa.tb1.Pick/20250415083436.021614.118325"><time><value>2025-04-15T08:34:27.828394Z</value></time><waveformID networkCode="CX" stationCode="PB15" channelCode="HHN"/><filterID>ITAPER(2)&gt;&gt;BW(3,3,20)</filterID><methodID>L2-AIC-GRID</methodID><horizontalSlowness><value>22.208968368676189</value></horizontalSlowness><backazimuth><value>143.59336605864053</value></backazimuth><phaseHint>S</phaseHint><evaluationMode>automatic</evaluationMode><comment><text>9282.722563980817</text><id>DFX:rectilinearity</id></comment><comment><text>de.gempa.tb1.Pick/20250415083403.786668.118303</text><id>RefPickID</id></comment><comment><text>15.64229929639503</text><id>SNR</id></comment></pick><pick publicID="de.gempa.tb1.Pick/20250415083432.558529.118322"><time><value>2025-04-15T08:34:26.218393Z</value></time><waveformID networkCode="CX" stationCode="PB06" channelCode="HHN"/><filterID>ITAPER(2)&gt;&gt;BW(3,3,20)</filterID><methodID>L2-AIC-GRID</methodID><horizontalSlowness><value>20.754815482800797</value></horizontalSlowness><backazimuth><value>350.1866956535971</value></backazimuth><phaseHint>S</phaseHint><evaluationMode>automatic</evaluationMode><comment><text>96.27615699656462</text><id>DFX:rectilinearity</id></comment><comment><text>de.gempa.tb1.Pick/20250415083403.626302.118297</text><id>RefPickID</id></comment><comment><text>11.776542201037914</text><id>SNR</id></comment></pick><pick publicID="de.gempa.tb1.Pick/20250415083454.191686.118330"><time><value>2025-04-15T08:34:46.53Z</value></time><waveformID networkCode="CX" stationCode="PB10" channelCode="HHN"/><filterID>ITAPER(2)&gt;&gt;BW(3,3,20)</filterID><methodID>L2-AIC-GRID</methodID><horizontalSlowness><value>17.519251346635592</value></horizontalSlowness><backazimuth><value>12.119554908313518</value></backazimuth><phaseHint>S</phaseHint><evaluationMode>automatic</evaluationMode><comment><text>105.42079087601249</text><id>DFX:rectilinearity</id></comment><comment><text>de.gempa.tb1.Pick/20250415083417.276529.118317</text><id>RefPickID</id></comment><comment><text>6.781864190254435</text><id>SNR</id></comment></pick><pick publicID="de.gempa.tb1.Pick/20250415083436.726923.118326"><time><value>2025-04-15T08:34:27.248393Z</value></time><waveformID networkCode="CX" stationCode="PB03" channelCode="HHN"/><filterID>ITAPER(2)&gt;&gt;BW(3,3,20)</filterID><methodID>L2-AIC-GRID</methodID><horizontalSlowness><value>18.63858736971056</value></horizontalSlowness><backazimuth><value>323.71705482463307</value></backazimuth><phaseHint>S</phaseHint><evaluationMode>automatic</evaluationMode><comment><text>241.60919804209615</text><id>DFX:rectilinearity</id></comment><comment><text>de.gempa.tb1.Pick/20250415083403.736767.118301</text><id>RefPickID</id></comment><comment><text>6.52307711883002</text><id>SNR</id></comment></pick><pick publicID="de.gempa.tb1.Pick/20250415083439.674524.118328"><time><value>2025-04-15T08:34:33.12Z</value></time><waveformID networkCode="CX" stationCode="PB19" channelCode="HHN"/><filterID>ITAPER(2)&gt;&gt;BW(3,3,20)</filterID><methodID>L2-AIC-GRID</methodID><horizontalSlowness><value>21.350384880435225</value></horizontalSlowness><backazimuth><value>11.424360794198492</value></backazimuth><phaseHint>S</phaseHint><evaluationMode>automatic</evaluationMode><comment><text>93.6672705676271</text><id>DFX:rectilinearity</id></comment><comment><text>de.gempa.tb1.Pick/20250415083410.650413.118309</text><id>RefPickID</id></comment><comment><text>9.405520127550462</text><id>SNR</id></comment></pick><origin publicID="de.gempa.tb1.Origin/20250415083454.195804.58849"><time><value>2025-04-15T08:33:20.489417Z</value><uncertainty>0.8642551302909851</uncertainty></time><latitude><value>-22.184282302856445</value><uncertainty>4.554172039031982</uncertainty></latitude><longitude><value>-67.88101959228516</value><uncertainty>11.851428985595703</uncertainty></longitude><depth><value>215.02703857421875</value><uncertainty>11.493022918701172</uncertainty></depth><depthType>from location</depthType><methodID>LOCSAT</methodID><earthModelID>iasp91_scanloc</earthModelID><quality><associatedPhaseCount>17</associatedPhaseCount><usedPhaseCount>17</usedPhaseCount><associatedStationCount>12</associatedStationCount><usedStationCount>12</usedStationCount><depthPhaseCount>0</depthPhaseCount><standardError>0.5325260400587788</standardError><azimuthalGap>247.4211120605469</azimuthalGap><maximumDistance>3.319664001464844</maximumDistance><minimumDistance>1.32073974609375</minimumDistance><medianDistance>1.9163459539413452</medianDistance></quality><uncertainty><minHorizontalUncertainty>9.742148399353027</minHorizontalUncertainty><maxHorizontalUncertainty>25.416690826416016</maxHorizontalUncertainty><azimuthMaxHorizontalUncertainty>91.58406829833984</azimuthMaxHorizontalUncertainty><preferredDescription>horizontal uncertainty</preferredDescription></uncertainty><evaluationMode>automatic</evaluationMode><evaluationStatus>confirmed</evaluationStatus><comment><text>0.00</text><id>mismatchScore</id></comment><comment><text>mismatchScore</text><id>scevalMethod</id></comment><arrival><pickID>de.gempa.tb1.Pick/20250415083403.735092.118299</pickID><phase>P</phase><azimuth>306.9246826171875</azimuth><distance>1.8771095275878906</distance><timeResidual>-0.3158149719238281</timeResidual><timeUsed>true</timeUsed><horizontalSlownessUsed>false</horizontalSlownessUsed><backazimuthUsed>false</backazimuthUsed><weight>1</weight></arrival><arrival><pickID>de.gempa.tb1.Pick/20250415083403.736767.118301</pickID><phase>P</phase><azimuth>274.10113525390625</azimuth><distance>1.7412172555923462</distance><timeResidual>0.12157821655273438</timeResidual><timeUsed>true</timeUsed><horizontalSlownessUsed>false</horizontalSlownessUsed><backazimuthUsed>false</backazimuthUsed><weight>1</weight></arrival><arrival><pickID>de.gempa.tb1.Pick/20250415083403.626302.118297</pickID><phase>P</phase><azimuth>251.3243865966797</azimuth><distance>1.6481354236602783</distance><timeResidual>-0.05689239501953125</timeResidual><timeUsed>true</timeUsed><horizontalSlownessUsed>false</horizontalSlownessUsed><backazimuthUsed>false</backazimuthUsed><weight>1</weight></arrival><arrival><pickID>de.gempa.tb1.Pick/20250415083403.786668.118303</pickID><phase>P</phase><azimuth>234.929443359375</azimuth><distance>1.787298321723938</distance><timeResidual>0.805938720703125</timeResidual><timeUsed>true</timeUsed><horizontalSlownessUsed>false</horizontalSlownessUsed><backazimuthUsed>false</backazimuthUsed><weight>1</weight></arrival><arrival><pickID>de.gempa.tb1.Pick/20250415083408.67189.118307</pickID><phase>P</phase><azimuth>294.2945556640625</azimuth><distance>2.0613346099853516</distance><timeResidual>0.11555099487304688</timeResidual><timeUsed>true</timeUsed><horizontalSlownessUsed>false</horizontalSlownessUsed><backazimuthUsed>false</backazimuthUsed><weight>1</weight></arrival><arrival><pickID>de.gempa.tb1.Pick/20250415083410.650413.118309</pickID><phase>P</phase><azimuth>216.89886474609375</azimuth><distance>2.1490495204925537</distance><timeResidual>0.2124481201171875</timeResidual><timeUsed>true</timeUsed><horizontalSlownessUsed>false</horizontalSlownessUsed><backazimuthUsed>false</backazimuthUsed><weight>1</weight></arrival><arrival><pickID>de.gempa.tb1.Pick/20250415083413.825247.118313</pickID><phase>P</phase><azimuth>329.4777526855469</azimuth><distance>2.35443115234375</distance><timeResidual>0.11892318725585938</timeResidual><timeUsed>true</timeUsed><horizontalSlownessUsed>false</horizontalSlownessUsed><backazimuthUsed>false</backazimuthUsed><weight>1</weight></arrival><arrival><pickID>de.gempa.tb1.Pick/20250415083413.466174.118311</pickID><phase>P</phase><azimuth>283.37298583984375</azimuth><distance>1.9163459539413452</distance><timeResidual>0.4032745361328125</timeResidual><timeUsed>true</timeUsed><horizontalSlownessUsed>false</horizontalSlownessUsed><backazimuthUsed>false</backazimuthUsed><weight>1</weight></arrival><arrival><pickID>de.gempa.tb1.Pick/20250415083414.367586.118315</pickID><phase>P</phase><azimuth>302.2563171386719</azimuth><distance>2.513295888900757</distance><timeResidual>0.3097114562988281</timeResidual><timeUsed>true</timeUsed><horizontalSlownessUsed>false</horizontalSlownessUsed><backazimuthUsed>false</backazimuthUsed><weight>1</weight></arrival><arrival><pickID>de.gempa.tb1.Pick/20250415083417.276529.118317</pickID><phase>P</phase><azimuth>241.27488708496094</azimuth><distance>2.798149347305298</distance><timeResidual>0.43045806884765625</timeResidual><timeUsed>true</timeUsed><horizontalSlownessUsed>false</horizontalSlownessUsed><backazimuthUsed>false</backazimuthUsed><weight>1</weight></arrival><arrival><pickID>de.gempa.tb1.Pick/20250415083406.967729.118305</pickID><phase>P</phase><azimuth>286.74041748046875</azimuth><distance>1.32073974609375</distance><timeResidual>-0.00836181640625</timeResidual><timeUsed>true</timeUsed><horizontalSlownessUsed>false</horizontalSlownessUsed><backazimuthUsed>false</backazimuthUsed><weight>1</weight></arrival><arrival><pickID>de.gempa.tb1.Pick/20250415083418.654781.118319</pickID><phase>P</phase><azimuth>320.4368896484375</azimuth><distance>3.319664001464844</distance><timeResidual>-1.3157196044921875</timeResidual><timeUsed>true</timeUsed><horizontalSlownessUsed>false</horizontalSlownessUsed><backazimuthUsed>false</backazimuthUsed><weight>1</weight></arrival><arrival><pickID>de.gempa.tb1.Pick/20250415083436.021614.118325</pickID><phase>S</phase><azimuth>234.929443359375</azimuth><distance>1.787298321723938</distance><timeResidual>-0.05952835083007812</timeResidual><timeUsed>true</timeUsed><horizontalSlownessUsed>false</horizontalSlownessUsed><backazimuthUsed>false</backazimuthUsed><weight>1</weight></arrival><arrival><pickID>de.gempa.tb1.Pick/20250415083432.558529.118322</pickID><phase>S</phase><azimuth>251.3243865966797</azimuth><distance>1.6481354236602783</distance><timeResidual>0.6082725524902344</timeResidual><timeUsed>true</timeUsed><horizontalSlownessUsed>false</horizontalSlownessUsed><backazimuthUsed>false</backazimuthUsed><weight>1</weight></arrival><arrival><pickID>de.gempa.tb1.Pick/20250415083454.191686.118330</pickID><phase>S</phase><azimuth>241.27488708496094</azimuth><distance>2.798149347305298</distance><timeResidual>-0.33072662353515625</timeResidual><timeUsed>true</timeUsed><horizontalSlownessUsed>false</horizontalSlownessUsed><backazimuthUsed>false</backazimuthUsed><weight>1</weight></arrival><arrival><pickID>de.gempa.tb1.Pick/20250415083436.726923.118326</pickID><phase>S</phase><azimuth>274.10113525390625</azimuth><distance>1.7412172555923462</distance><timeResidual>0.10675430297851562</timeResidual><timeUsed>true</timeUsed><horizontalSlownessUsed>false</horizontalSlownessUsed><backazimuthUsed>false</backazimuthUsed><weight>1</weight></arrival><arrival><pickID>de.gempa.tb1.Pick/20250415083439.674524.118328</pickID><phase>S</phase><azimuth>216.89886474609375</azimuth><distance>2.1490495204925537</distance><timeResidual>-1.145275115966797</timeResidual><timeUsed>true</timeUsed><horizontalSlownessUsed>false</horizontalSlownessUsed><backazimuthUsed>false</backazimuthUsed><weight>1</weight></arrival><magnitude publicID="de.gempa.tb1.Magnitude/20250415083501.552757.111303"><magnitude><value>2.956675527110126</value></magnitude><type>M</type><methodID>weighted average</methodID><stationCount>9</stationCount></magnitude></origin><event publicID="gempa2025hktk"><preferredOriginID>de.gempa.tb1.Origin/20250415083454.195804.58849</preferredOriginID><preferredMagnitudeID>de.gempa.tb1.Magnitude/20250415083501.552757.111303</preferredMagnitudeID><description><text>Chile-Bolivia Border Region</text><type>region name</type></description><originReference>de.gempa.tb1.Origin/20250415083454.195804.58849</originReference></event></EventParameters></seiscomp>