<?xml version="1.0" encoding="UTF-8"?>
<seiscomp xmlns="http://geofon.gfz-potsdam.de/ns/seiscomp3-schema/0.13" version="0.13"><EventParameters><pick publicID="de.gempa.tb1.Pick/20250415064739.703738.117725"><time><value>2025-04-15T06:47:35.458393Z</value></time><waveformID networkCode="CX" stationCode="PB01" channelCode="HHZ"/><filterID>ITAPER(4)&gt;&gt;BW(4,4,20)</filterID><methodID>AIC</methodID><horizontalSlowness><value>5.735813324786733</value></horizontalSlowness><backazimuth><value>94.49591957079637</value></backazimuth><phaseHint>P</phaseHint><evaluationMode>automatic</evaluationMode><comment><text>470180.914523639</text><id>DFX:rectilinearity</id></comment><comment><text>8645.385642228959</text><id>SNR</id></comment></pick><pick publicID="de.gempa.tb1.Pick/20250415064743.520553.117727"><time><value>2025-04-15T06:47:39.348393Z</value></time><waveformID networkCode="CX" stationCode="PB02" channelCode="HHZ"/><filterID>ITAPER(4)&gt;&gt;BW(4,4,20)</filterID><methodID>AIC</methodID><horizontalSlowness><value>8.928585954861017</value></horizontalSlowness><backazimuth><value>65.30956608985858</value></backazimuth><phaseHint>P</phaseHint><evaluationMode>automatic</evaluationMode><comment><text>944266.6420837905</text><id>DFX:rectilinearity</id></comment><comment><text>8520.10575434714</text><id>SNR</id></comment></pick><pick publicID="de.gempa.tb1.Pick/20250415064746.011177.117729"><time><value>2025-04-15T06:47:37.08Z</value></time><waveformID networkCode="CX" stationCode="PB09" channelCode="HHZ"/><filterID>ITAPER(4)&gt;&gt;BW(4,4,20)</filterID><methodID>AIC</methodID><horizontalSlowness><value>16.503552326748355</value></horizontalSlowness><backazimuth><value>69.38199096678132</value></backazimuth><phaseHint>P</phaseHint><evaluationMode>automatic</evaluationMode><comment><text>54183.07939581119</text><id>DFX:rectilinearity</id></comment><comment><text>2609.3164095571724</text><id>SNR</id></comment></pick><pick publicID="de.gempa.tb1.Pick/20250415064746.056004.117731"><time><value>2025-04-15T06:47:39.648393Z</value></time><waveformID networkCode="CX" stationCode="PB08" channelCode="HHZ"/><filterID>ITAPER(4)&gt;&gt;BW(4,4,20)</filterID><methodID>AIC</methodID><horizontalSlowness><value>15.725946529905194</value></horizontalSlowness><backazimuth><value>206.34873498321917</value></backazimuth><phaseHint>P</phaseHint><evaluationMode>automatic</evaluationMode><comment><text>106115.42374692527</text><id>DFX:rectilinearity</id></comment><comment><text>677.9471558570584</text><id>SNR</id></comment></pick><pick publicID="de.gempa.tb1.Pick/20250415064747.630232.117733"><time><value>2025-04-15T06:47:41.758393Z</value></time><waveformID networkCode="CX" stationCode="PB03" channelCode="HHZ"/><filterID>ITAPER(4)&gt;&gt;BW(4,4,20)</filterID><methodID>AIC</methodID><horizontalSlowness><value>5.732351746966948</value></horizontalSlowness><backazimuth><value>46.21080041755138</value></backazimuth><phaseHint>P</phaseHint><evaluationMode>automatic</evaluationMode><comment><text>25852.44250354063</text><id>DFX:rectilinearity</id></comment><comment><text>1231.385278342225</text><id>SNR</id></comment></pick><pick publicID="de.gempa.tb1.Pick/20250415064748.458234.117735"><time><value>2025-04-15T06:47:42.039998Z</value></time><waveformID networkCode="CX" stationCode="PATCX" channelCode="HHZ"/><filterID>ITAPER(4)&gt;&gt;BW(4,4,20)</filterID><methodID>AIC</methodID><horizontalSlowness><value>6.251501595885236</value></horizontalSlowness><backazimuth><value>153.7911723118934</value></backazimuth><phaseHint>P</phaseHint><evaluationMode>automatic</evaluationMode><comment><text>318652.96916303283</text><id>DFX:rectilinearity</id></comment><comment><text>4155.216810815228</text><id>SNR</id></comment></pick><pick publicID="de.gempa.tb1.Pick/20250415064752.651121.117737"><time><value>2025-04-15T06:47:47.098393Z</value></time><waveformID networkCode="CX" stationCode="PB06" channelCode="HHZ"/><filterID>ITAPER(4)&gt;&gt;BW(4,4,20)</filterID><methodID>AIC</methodID><horizontalSlowness><value>6.589991786953968</value></horizontalSlowness><backazimuth><value>41.38952110369189</value></backazimuth><phaseHint>P</phaseHint><evaluationMode>automatic</evaluationMode><comment><text>14742.33138484019</text><id>DFX:rectilinearity</id></comment><comment><text>691.7215210376311</text><id>SNR</id></comment></pick><pick publicID="de.gempa.tb1.Pick/20250415064754.695552.117739"><time><value>2025-04-15T06:47:48.73Z</value></time><waveformID networkCode="CX" stationCode="PSGCX" channelCode="HHZ"/><filterID>ITAPER(4)&gt;&gt;BW(4,4,20)</filterID><methodID>AIC</methodID><horizontalSlowness><value>7.730293652537524</value></horizontalSlowness><backazimuth><value>132.10719938134315</value></backazimuth><phaseHint>P</phaseHint><evaluationMode>automatic</evaluationMode><comment><text>21833.76778864833</text><id>DFX:rectilinearity</id></comment><comment><text>2734.033418359773</text><id>SNR</id></comment></pick><pick publicID="de.gempa.tb1.Pick/20250415064757.692839.117741"><time><value>2025-04-15T06:47:52.878393Z</value></time><waveformID networkCode="CX" stationCode="PB15" channelCode="HHZ"/><filterID>ITAPER(4)&gt;&gt;BW(4,4,20)</filterID><methodID>AIC</methodID><horizontalSlowness><value>21.482637606609465</value></horizontalSlowness><backazimuth><value>92.75346789641729</value></backazimuth><phaseHint>P</phaseHint><evaluationMode>automatic</evaluationMode><comment><text>57317.74152213032</text><id>DFX:rectilinearity</id></comment><comment><text>216.57558513554847</text><id>SNR</id></comment></pick><pick publicID="de.gempa.tb1.Pick/20250415064801.609986.117743"><time><value>2025-04-15T06:47:50.318393Z</value></time><waveformID networkCode="CX" stationCode="PB01" channelCode="HHN"/><filterID>ITAPER(2)&gt;&gt;BW(3,3,20)</filterID><methodID>L2-AIC-GRID</methodID><horizontalSlowness><value>22.575214080292955</value></horizontalSlowness><backazimuth><value>216.9592325033739</value></backazimuth><phaseHint>S</phaseHint><evaluationMode>automatic</evaluationMode><comment><text>2880880.031017876</text><id>DFX:rectilinearity</id></comment><comment><text>de.gempa.tb1.Pick/20250415064739.703738.117725</text><id>RefPickID</id></comment><comment><text>6.098026725770787</text><id>SNR</id></comment></pick><pick publicID="de.gempa.tb1.Pick/20250415064802.782874.117744"><time><value>2025-04-15T06:47:40.698396Z</value></time><waveformID networkCode="CX" stationCode="PB07" channelCode="HHZ"/><filterID>ITAPER(4)&gt;&gt;BW(4,4,20)</filterID><methodID>AIC</methodID><horizontalSlowness><value>14.537617074046905</value></horizontalSlowness><backazimuth><value>77.00282776909519</value></backazimuth><phaseHint>P</phaseHint><evaluationMode>automatic</evaluationMode><comment><text>1588668.445099314</text><id>DFX:rectilinearity</id></comment><comment><text>4029.4474537260553</text><id>SNR</id></comment></pick><pick publicID="de.gempa.tb1.Pick/20250415064804.044184.117747"><time><value>2025-04-15T06:47:57.538393Z</value></time><waveformID networkCode="CX" stationCode="PB08" channelCode="HHN"/><filterID>ITAPER(2)&gt;&gt;BW(3,3,20)</filterID><methodID>L2-AIC-GRID</methodID><horizontalSlowness><value>19.00081660837877</value></horizontalSlowness><backazimuth><value>194.48341218357365</value></backazimuth><phaseHint>S</phaseHint><evaluationMode>automatic</evaluationMode><comment><text>246722.3605640978</text><id>DFX:rectilinearity</id></comment><comment><text>de.gempa.tb1.Pick/20250415064746.056004.117731</text><id>RefPickID</id></comment><comment><text>5.126908270601694</text><id>SNR</id></comment></pick><pick publicID="de.gempa.tb1.Pick/20250415064805.439.117748"><time><value>2025-04-15T06:47:53.46Z</value></time><waveformID networkCode="CX" stationCode="PB09" channelCode="HHN"/><filterID>ITAPER(2)&gt;&gt;BW(3,3,20)</filterID><methodID>L2-AIC-GRID</methodID><horizontalSlowness><value>20.879777889791004</value></horizontalSlowness><backazimuth><value>155.78760131548606</value></backazimuth><phaseHint>S</phaseHint><evaluationMode>automatic</evaluationMode><comment><text>12570556.308001328</text><id>DFX:rectilinearity</id></comment><comment><text>de.gempa.tb1.Pick/20250415064746.011177.117729</text><id>RefPickID</id></comment><comment><text>5.79367996007726</text><id>SNR</id></comment></pick><pick publicID="de.gempa.tb1.Pick/20250415064806.178162.117749"><time><value>2025-04-15T06:48:00.61Z</value></time><waveformID networkCode="CX" stationCode="PB10" channelCode="HHZ"/><filterID>ITAPER(4)&gt;&gt;BW(4,4,20)</filterID><methodID>AIC</methodID><horizontalSlowness><value>9.496134297445451</value></horizontalSlowness><backazimuth><value>32.58431515934228</value></backazimuth><phaseHint>P</phaseHint><evaluationMode>automatic</evaluationMode><comment><text>583.8804615313674</text><id>DFX:rectilinearity</id></comment><comment><text>134.0166707636144</text><id>SNR</id></comment></pick><pick publicID="de.gempa.tb1.Pick/20250415064806.464953.117751"><time><value>2025-04-15T06:48:00.74Z</value></time><waveformID networkCode="CX" stationCode="PB19" channelCode="HHZ"/><filterID>ITAPER(4)&gt;&gt;BW(4,4,20)</filterID><methodID>AIC</methodID><horizontalSlowness><value>7.717851842224806</value></horizontalSlowness><backazimuth><value>26.853207487032364</value></backazimuth><phaseHint>P</phaseHint><evaluationMode>automatic</evaluationMode><comment><text>3251.5504050349355</text><id>DFX:rectilinearity</id></comment><comment><text>356.56703542334634</text><id>SNR</id></comment></pick><pick publicID="de.gempa.tb1.Pick/20250415064807.67373.117754"><time><value>2025-04-15T06:48:00.888393Z</value></time><waveformID networkCode="CX" stationCode="PB03" channelCode="HHN"/><filterID>ITAPER(2)&gt;&gt;BW(3,3,20)</filterID><methodID>L2-AIC-GRID</methodID><horizontalSlowness><value>22.59266924112781</value></horizontalSlowness><backazimuth><value>141.4087511772915</value></backazimuth><phaseHint>S</phaseHint><evaluationMode>automatic</evaluationMode><comment><text>6500507.480954576</text><id>DFX:rectilinearity</id></comment><comment><text>de.gempa.tb1.Pick/20250415064747.630232.117733</text><id>RefPickID</id></comment><comment><text>14.82595899163048</text><id>SNR</id></comment></pick><pick publicID="de.gempa.tb1.Pick/20250415064809.467622.117755"><time><value>2025-04-15T06:48:02.179998Z</value></time><waveformID networkCode="CX" stationCode="PATCX" channelCode="HHN"/><filterID>ITAPER(2)&gt;&gt;BW(3,3,20)</filterID><methodID>L2-AIC-GRID</methodID><horizontalSlowness><value>22.392890417859292</value></horizontalSlowness><backazimuth><value>218.01040129394525</value></backazimuth><phaseHint>S</phaseHint><evaluationMode>automatic</evaluationMode><comment><text>3754832.2179341186</text><id>DFX:rectilinearity</id></comment><comment><text>de.gempa.tb1.Pick/20250415064748.458234.117735</text><id>RefPickID</id></comment><comment><text>5.228642832608693</text><id>SNR</id></comment></pick><origin publicID="de.gempa.tb1.Origin/20250415064809.470366.56004"><time><value>2025-04-15T06:47:16.535494Z</value><uncertainty>0.6489954590797424</uncertainty></time><latitude><value>-21.121013641357422</value><uncertainty>3.068197011947632</uncertainty></latitude><longitude><value>-68.85758209228516</value><uncertainty>7.360802173614502</uncertainty></longitude><depth><value>128.07797241210938</value><uncertainty>5.963206768035889</uncertainty></depth><depthType>from location</depthType><methodID>LOCSAT</methodID><earthModelID>iasp91_scanloc</earthModelID><quality><associatedPhaseCount>17</associatedPhaseCount><usedPhaseCount>17</usedPhaseCount><associatedStationCount>12</associatedStationCount><usedStationCount>12</usedStationCount><depthPhaseCount>0</depthPhaseCount><standardError>0.4437626138748128</standardError><azimuthalGap>204.05972290039062</azimuthalGap><maximumDistance>2.8524296283721924</maximumDistance><minimumDistance>0.5932360291481018</minimumDistance><medianDistance>1.2435506582260132</medianDistance></quality><uncertainty><minHorizontalUncertainty>6.575024127960205</minHorizontalUncertainty><maxHorizontalUncertainty>15.78075408935547</maxHorizontalUncertainty><azimuthMaxHorizontalUncertainty>89.28563690185547</azimuthMaxHorizontalUncertainty><preferredDescription>horizontal uncertainty</preferredDescription></uncertainty><evaluationMode>automatic</evaluationMode><evaluationStatus>confirmed</evaluationStatus><comment><text>0.00</text><id>mismatchScore</id></comment><comment><text>mismatchScore</text><id>scevalMethod</id></comment><arrival><pickID>de.gempa.tb1.Pick/20250415064739.703738.117725</pickID><phase>P</phase><azimuth>277.3837585449219</azimuth><distance>0.5932360291481018</distance><timeResidual>-0.5303630828857422</timeResidual><timeUsed>true</timeUsed><horizontalSlownessUsed>false</horizontalSlownessUsed><backazimuthUsed>false</backazimuthUsed><weight>1</weight></arrival><arrival><pickID>de.gempa.tb1.Pick/20250415064743.520553.117727</pickID><phase>P</phase><azimuth>258.27874755859375</azimuth><distance>0.9888490438461304</distance><timeResidual>0.14548873901367188</timeResidual><timeUsed>true</timeUsed><horizontalSlownessUsed>false</horizontalSlownessUsed><backazimuthUsed>false</backazimuthUsed><weight>1</weight></arrival><arrival><pickID>de.gempa.tb1.Pick/20250415064746.011177.117729</pickID><phase>P</phase><azimuth>207.9757843017578</azimuth><distance>0.7614573836326599</distance><timeResidual>-0.14020347595214844</timeResidual><timeUsed>true</timeUsed><horizontalSlownessUsed>false</horizontalSlownessUsed><backazimuthUsed>false</backazimuthUsed><weight>1</weight></arrival><arrival><pickID>de.gempa.tb1.Pick/20250415064746.056004.117731</pickID><phase>P</phase><azimuth>344.0832214355469</azimuth><distance>1.0135536193847656</distance><timeResidual>0.20541954040527344</timeResidual><timeUsed>true</timeUsed><horizontalSlownessUsed>false</horizontalSlownessUsed><backazimuthUsed>false</backazimuthUsed><weight>1</weight></arrival><arrival><pickID>de.gempa.tb1.Pick/20250415064747.630232.117733</pickID><phase>P</phase><azimuth>221.9218292236328</azimuth><distance>1.2435506582260132</distance><timeResidual>0.02330970764160156</timeResidual><timeUsed>true</timeUsed><horizontalSlownessUsed>false</horizontalSlownessUsed><backazimuthUsed>false</backazimuthUsed><weight>1</weight></arrival><arrival><pickID>de.gempa.tb1.Pick/20250415064748.458234.117735</pickID><phase>P</phase><azimuth>283.634521484375</azimuth><distance>1.2468613386154175</distance><timeResidual>0.2629070281982422</timeResidual><timeUsed>true</timeUsed><horizontalSlownessUsed>false</horizontalSlownessUsed><backazimuthUsed>false</backazimuthUsed><weight>1</weight></arrival><arrival><pickID>de.gempa.tb1.Pick/20250415064752.651121.117737</pickID><phase>P</phase><azimuth>202.67909240722656</azimuth><distance>1.7109057903289795</distance><timeResidual>0.1429576873779297</timeResidual><timeUsed>true</timeUsed><horizontalSlownessUsed>false</horizontalSlownessUsed><backazimuthUsed>false</backazimuthUsed><weight>1</weight></arrival><arrival><pickID>de.gempa.tb1.Pick/20250415064754.695552.117739</pickID><phase>P</phase><azimuth>321.7119140625</azimuth><distance>1.9256848096847534</distance><timeResidual>-0.8065776824951172</timeResidual><timeUsed>true</timeUsed><horizontalSlownessUsed>false</horizontalSlownessUsed><backazimuthUsed>false</backazimuthUsed><weight>1</weight></arrival><arrival><pickID>de.gempa.tb1.Pick/20250415064757.692839.117741</pickID><phase>P</phase><azimuth>195.1927490234375</azimuth><distance>2.153684377670288</distance><timeResidual>0.561981201171875</timeResidual><timeUsed>true</timeUsed><horizontalSlownessUsed>false</horizontalSlownessUsed><backazimuthUsed>false</backazimuthUsed><weight>1</weight></arrival><arrival><pickID>de.gempa.tb1.Pick/20250415064801.609986.117743</pickID><phase>S</phase><azimuth>277.3837585449219</azimuth><distance>0.5932360291481018</distance><timeResidual>-0.7009525299072266</timeResidual><timeUsed>true</timeUsed><horizontalSlownessUsed>false</horizontalSlownessUsed><backazimuthUsed>false</backazimuthUsed><weight>1</weight></arrival><arrival><pickID>de.gempa.tb1.Pick/20250415064802.782874.117744</pickID><phase>P</phase><azimuth>237.6503448486328</azimuth><distance>1.1321157217025757</distance><timeResidual>0.10579490661621094</timeResidual><timeUsed>true</timeUsed><horizontalSlownessUsed>false</horizontalSlownessUsed><backazimuthUsed>false</backazimuthUsed><weight>1</weight></arrival><arrival><pickID>de.gempa.tb1.Pick/20250415064804.044184.117747</pickID><phase>S</phase><azimuth>344.0832214355469</azimuth><distance>1.0135536193847656</distance><timeResidual>0.36200714111328125</timeResidual><timeUsed>true</timeUsed><horizontalSlownessUsed>false</horizontalSlownessUsed><backazimuthUsed>false</backazimuthUsed><weight>1</weight></arrival><arrival><pickID>de.gempa.tb1.Pick/20250415064805.439.117748</pickID><phase>S</phase><azimuth>207.9757843017578</azimuth><distance>0.7614573836326599</distance><timeResidual>0.2459754943847656</timeResidual><timeUsed>true</timeUsed><horizontalSlownessUsed>false</horizontalSlownessUsed><backazimuthUsed>false</backazimuthUsed><weight>1</weight></arrival><arrival><pickID>de.gempa.tb1.Pick/20250415064806.178162.117749</pickID><phase>P</phase><azimuth>213.09957885742188</azimuth><distance>2.8524296283721924</distance><timeResidual>-0.5742740631103516</timeResidual><timeUsed>true</timeUsed><horizontalSlownessUsed>false</horizontalSlownessUsed><backazimuthUsed>false</backazimuthUsed><weight>1</weight></arrival><arrival><pickID>de.gempa.tb1.Pick/20250415064806.464953.117751</pickID><phase>P</phase><azimuth>188.1429443359375</azimuth><distance>2.799338102340698</distance><timeResidual>0.24285125732421875</timeResidual><timeUsed>true</timeUsed><horizontalSlownessUsed>false</horizontalSlownessUsed><backazimuthUsed>false</backazimuthUsed><weight>1</weight></arrival><arrival><pickID>de.gempa.tb1.Pick/20250415064807.67373.117754</pickID><phase>S</phase><azimuth>221.9218292236328</azimuth><distance>1.2435506582260132</distance><timeResidual>-0.38165855407714844</timeResidual><timeUsed>true</timeUsed><horizontalSlownessUsed>false</horizontalSlownessUsed><backazimuthUsed>false</backazimuthUsed><weight>1</weight></arrival><arrival><pickID>de.gempa.tb1.Pick/20250415064809.467622.117755</pickID><phase>S</phase><azimuth>283.634521484375</azimuth><distance>1.2468613386154175</distance><timeResidual>0.8357162475585938</timeResidual><timeUsed>true</timeUsed><horizontalSlownessUsed>false</horizontalSlownessUsed><backazimuthUsed>false</backazimuthUsed><weight>1</weight></arrival><magnitude publicID="de.gempa.tb1.Magnitude/20250415064811.553176.99137"><magnitude><value>3.9271962765086124</value></magnitude><type>M</type><methodID>weighted average</methodID><stationCount>10</stationCount></magnitude></origin><event publicID="gempa2025hkpw"><preferredOriginID>de.gempa.tb1.Origin/20250415064809.470366.56004</preferredOriginID><preferredMagnitudeID>de.gempa.tb1.Magnitude/20250415064811.553176.99137</preferredMagnitudeID><description><text>Chile-Bolivia Border Region</text><type>region name</type></description><originReference>de.gempa.tb1.Origin/20250415064809.470366.56004</originReference></event></EventParameters></seiscomp>