<?xml version="1.0" encoding="UTF-8"?>
<seiscomp xmlns="http://geofon.gfz-potsdam.de/ns/seiscomp3-schema/0.13" version="0.13"><EventParameters><pick publicID="de.gempa.tb1.Pick/20250413121310.608966.131055"><time><value>2025-04-13T12:13:06.118394Z</value></time><waveformID networkCode="CX" stationCode="PB01" channelCode="HHZ"/><filterID>ITAPER(4)&gt;&gt;BW(4,4,20)</filterID><methodID>AIC</methodID><horizontalSlowness><value>6.570033902130566</value></horizontalSlowness><backazimuth><value>134.0629778892974</value></backazimuth><phaseHint>P</phaseHint><evaluationMode>automatic</evaluationMode><comment><text>291.9744777277777</text><id>DFX:rectilinearity</id></comment><comment><text>571.4935381078933</text><id>SNR</id></comment></pick><pick publicID="de.gempa.tb1.Pick/20250413121314.48477.131059"><time><value>2025-04-13T12:13:08.418393Z</value></time><waveformID networkCode="CX" stationCode="PB02" channelCode="HHZ"/><filterID>ITAPER(4)&gt;&gt;BW(4,4,20)</filterID><methodID>AIC</methodID><horizontalSlowness><value>5.107182989476025</value></horizontalSlowness><backazimuth><value>70.26180956071296</value></backazimuth><phaseHint>P</phaseHint><evaluationMode>automatic</evaluationMode><comment><text>652.9982537446058</text><id>DFX:rectilinearity</id></comment><comment><text>646.8656494347908</text><id>SNR</id></comment></pick><pick publicID="de.gempa.tb1.Pick/20250413121308.788216.131053"><time><value>2025-04-13T12:13:02.68Z</value></time><waveformID networkCode="CX" stationCode="PB09" channelCode="HHZ"/><filterID>ITAPER(4)&gt;&gt;BW(4,4,20)</filterID><methodID>AIC</methodID><horizontalSlowness><value>18.951264518013573</value></horizontalSlowness><backazimuth><value>84.01035272307303</value></backazimuth><phaseHint>P</phaseHint><evaluationMode>automatic</evaluationMode><comment><text>230.34864558158355</text><id>DFX:rectilinearity</id></comment><comment><text>454.2771842699071</text><id>SNR</id></comment></pick><pick publicID="de.gempa.tb1.Pick/20250413121311.57605.131057"><time><value>2025-04-13T12:13:06.938393Z</value></time><waveformID networkCode="CX" stationCode="PB03" channelCode="HHZ"/><filterID>ITAPER(4)&gt;&gt;BW(4,4,20)</filterID><methodID>AIC</methodID><horizontalSlowness><value>8.239740553508632</value></horizontalSlowness><backazimuth><value>83.24174549009423</value></backazimuth><phaseHint>P</phaseHint><evaluationMode>automatic</evaluationMode><comment><text>196.38673858467976</text><id>DFX:rectilinearity</id></comment><comment><text>227.58540409982456</text><id>SNR</id></comment></pick><pick publicID="de.gempa.tb1.Pick/20250413121314.541682.131061"><time><value>2025-04-13T12:13:09.288393Z</value></time><waveformID networkCode="CX" stationCode="PB06" channelCode="HHZ"/><filterID>ITAPER(4)&gt;&gt;BW(4,4,20)</filterID><methodID>AIC</methodID><horizontalSlowness><value>7.475610422320348</value></horizontalSlowness><backazimuth><value>87.36080380242166</value></backazimuth><phaseHint>P</phaseHint><evaluationMode>automatic</evaluationMode><comment><text>124.70633851714607</text><id>DFX:rectilinearity</id></comment><comment><text>35.831262611759406</text><id>SNR</id></comment></pick><pick publicID="de.gempa.tb1.Pick/20250413121319.700613.131065"><time><value>2025-04-13T12:13:13.898393Z</value></time><waveformID networkCode="CX" stationCode="PB15" channelCode="HHZ"/><filterID>ITAPER(4)&gt;&gt;BW(4,4,20)</filterID><methodID>AIC</methodID><horizontalSlowness><value>16.901604461466867</value></horizontalSlowness><backazimuth><value>69.23594171857482</value></backazimuth><phaseHint>P</phaseHint><evaluationMode>automatic</evaluationMode><comment><text>380.6701578961188</text><id>DFX:rectilinearity</id></comment><comment><text>44.80617187355382</text><id>SNR</id></comment></pick><pick publicID="de.gempa.tb1.Pick/20250413121318.461493.131063"><time><value>2025-04-13T12:13:13.389999Z</value></time><waveformID networkCode="CX" stationCode="PATCX" channelCode="HHZ"/><filterID>ITAPER(4)&gt;&gt;BW(4,4,20)</filterID><methodID>AIC</methodID><horizontalSlowness><value>21.128347834262442</value></horizontalSlowness><backazimuth><value>63.0520608989803</value></backazimuth><phaseHint>P</phaseHint><evaluationMode>automatic</evaluationMode><comment><text>302.40420343703227</text><id>DFX:rectilinearity</id></comment><comment><text>30.35618152467734</text><id>SNR</id></comment></pick><pick publicID="de.gempa.tb1.Pick/20250413121321.246912.131067"><time><value>2025-04-13T12:13:13.758393Z</value></time><waveformID networkCode="CX" stationCode="PB08" channelCode="HHZ"/><filterID>ITAPER(4)&gt;&gt;BW(4,4,20)</filterID><methodID>AIC</methodID><horizontalSlowness><value>15.097533908758576</value></horizontalSlowness><backazimuth><value>204.64694492526405</value></backazimuth><phaseHint>P</phaseHint><evaluationMode>automatic</evaluationMode><comment><text>53.58159818854025</text><id>DFX:rectilinearity</id></comment><comment><text>18.939035264294478</text><id>SNR</id></comment></pick><pick publicID="de.gempa.tb1.Pick/20250413121326.506463.131069"><time><value>2025-04-13T12:13:20.68Z</value></time><waveformID networkCode="CX" stationCode="PB19" channelCode="HHZ"/><filterID>ITAPER(4)&gt;&gt;BW(4,4,20)</filterID><methodID>AIC</methodID><horizontalSlowness><value>6.115277595217643</value></horizontalSlowness><backazimuth><value>10.641080931350274</value></backazimuth><phaseHint>P</phaseHint><evaluationMode>automatic</evaluationMode><comment><text>130.83469922424425</text><id>DFX:rectilinearity</id></comment><comment><text>177.26036098107755</text><id>SNR</id></comment></pick><pick publicID="de.gempa.tb1.Pick/20250413121328.560602.131071"><time><value>2025-04-13T12:13:22.25Z</value></time><waveformID networkCode="CX" stationCode="PSGCX" channelCode="HHZ"/><filterID>ITAPER(4)&gt;&gt;BW(4,4,20)</filterID><methodID>AIC</methodID><horizontalSlowness><value>12.165062527582023</value></horizontalSlowness><backazimuth><value>179.40385235914877</value></backazimuth><phaseHint>P</phaseHint><evaluationMode>automatic</evaluationMode><comment><text>16.632012262816815</text><id>DFX:rectilinearity</id></comment><comment><text>33.50372610844463</text><id>SNR</id></comment></pick><pick publicID="de.gempa.tb1.Pick/20250413121351.487917.131084"><time><value>2025-04-13T12:13:07.758394Z</value></time><waveformID networkCode="CX" stationCode="PB07" channelCode="HHZ"/><filterID>ITAPER(4)&gt;&gt;BW(4,4,20)</filterID><methodID>AIC</methodID><horizontalSlowness><value>12.672485017392264</value></horizontalSlowness><backazimuth><value>86.24597305285029</value></backazimuth><phaseHint>P</phaseHint><evaluationMode>automatic</evaluationMode><comment><text>4145.5278266971545</text><id>DFX:rectilinearity</id></comment><comment><text>1556.367028445939</text><id>SNR</id></comment></pick><pick publicID="de.gempa.tb1.Pick/20250413121331.623203.131073"><time><value>2025-04-13T12:13:24.978393Z</value></time><waveformID networkCode="CX" stationCode="PB03" channelCode="HHN"/><filterID>ITAPER(2)&gt;&gt;BW(3,3,20)</filterID><methodID>L2-AIC-GRID</methodID><horizontalSlowness><value>15.388721081781293</value></horizontalSlowness><backazimuth><value>307.070442532793</value></backazimuth><phaseHint>S</phaseHint><evaluationMode>automatic</evaluationMode><comment><text>14701.326115185511</text><id>DFX:rectilinearity</id></comment><comment><text>de.gempa.tb1.Pick/20250413121311.57605.131057</text><id>RefPickID</id></comment><comment><text>18.449030097888294</text><id>SNR</id></comment></pick><pick publicID="de.gempa.tb1.Pick/20250413121335.648651.131074"><time><value>2025-04-13T12:13:29.348393Z</value></time><waveformID networkCode="CX" stationCode="PB06" channelCode="HHN"/><filterID>ITAPER(2)&gt;&gt;BW(3,3,20)</filterID><methodID>L2-AIC-GRID</methodID><horizontalSlowness><value>21.733423139435267</value></horizontalSlowness><backazimuth><value>300.58829605027984</value></backazimuth><phaseHint>S</phaseHint><evaluationMode>automatic</evaluationMode><comment><text>5223.135659591248</text><id>DFX:rectilinearity</id></comment><comment><text>de.gempa.tb1.Pick/20250413121314.541682.131061</text><id>RefPickID</id></comment><comment><text>14.745001748902638</text><id>SNR</id></comment></pick><pick publicID="de.gempa.tb1.Pick/20250413121344.894827.131080"><time><value>2025-04-13T12:13:37.658393Z</value></time><waveformID networkCode="CX" stationCode="PB15" channelCode="HHN"/><filterID>ITAPER(2)&gt;&gt;BW(3,3,20)</filterID><methodID>L2-AIC-GRID</methodID><horizontalSlowness><value>20.634383653680661</value></horizontalSlowness><backazimuth><value>76.23043134638998</value></backazimuth><phaseHint>S</phaseHint><evaluationMode>automatic</evaluationMode><comment><text>50653.85715012115</text><id>DFX:rectilinearity</id></comment><comment><text>de.gempa.tb1.Pick/20250413121319.700613.131065</text><id>RefPickID</id></comment><comment><text>7.116470804273964</text><id>SNR</id></comment></pick><pick publicID="de.gempa.tb1.Pick/20250413121345.100618.131081"><time><value>2025-04-13T12:13:37.368393Z</value></time><waveformID networkCode="CX" stationCode="PB08" channelCode="HHN"/><filterID>ITAPER(2)&gt;&gt;BW(3,3,20)</filterID><methodID>L2-AIC-GRID</methodID><horizontalSlowness><value>14.77612503054939</value></horizontalSlowness><backazimuth><value>208.84234188742957</value></backazimuth><phaseHint>S</phaseHint><evaluationMode>automatic</evaluationMode><comment><text>778.5269597281876</text><id>DFX:rectilinearity</id></comment><comment><text>de.gempa.tb1.Pick/20250413121321.246912.131067</text><id>RefPickID</id></comment><comment><text>8.745302660440201</text><id>SNR</id></comment></pick><pick publicID="de.gempa.tb1.Pick/20250413121442.95438.131090"><time><value>2025-04-13T12:13:26.658394Z</value></time><waveformID networkCode="CX" stationCode="PB07" channelCode="HHN"/><filterID>ITAPER(2)&gt;&gt;BW(3,3,20)</filterID><methodID>L2-AIC-GRID</methodID><horizontalSlowness><value>22.812581954293456</value></horizontalSlowness><backazimuth><value>234.4421830034575</value></backazimuth><phaseHint>S</phaseHint><evaluationMode>automatic</evaluationMode><comment><text>409996.5801539761</text><id>DFX:rectilinearity</id></comment><comment><text>de.gempa.tb1.Pick/20250413121351.487917.131084</text><id>RefPickID</id></comment><comment><text>6.802194863473029</text><id>SNR</id></comment></pick><pick publicID="de.gempa.tb1.Pick/20250413121402.791009.131087"><time><value>2025-04-13T12:13:54.27Z</value></time><waveformID networkCode="CX" stationCode="PSGCX" channelCode="HHN"/><filterID>ITAPER(2)&gt;&gt;BW(3,3,20)</filterID><methodID>L2-AIC-GRID</methodID><horizontalSlowness><value>19.532154791534492</value></horizontalSlowness><backazimuth><value>29.654173590217255</value></backazimuth><phaseHint>S</phaseHint><evaluationMode>automatic</evaluationMode><comment><text>609.4022009264395</text><id>DFX:rectilinearity</id></comment><comment><text>de.gempa.tb1.Pick/20250413121328.560602.131071</text><id>RefPickID</id></comment><comment><text>9.263672476896099</text><id>SNR</id></comment></pick><origin publicID="de.gempa.tb1.Origin/20250413121442.957624.109227"><time><value>2025-04-13T12:12:43.154331Z</value><uncertainty>0.7323825359344482</uncertainty></time><latitude><value>-21.708776473999023</value><uncertainty>2.5687525272369385</uncertainty></latitude><longitude><value>-68.8099594116211</value><uncertainty>9.715124130249023</uncertainty></longitude><depth><value>144.68133544921875</value><uncertainty>9.213870048522949</uncertainty></depth><depthType>from location</depthType><methodID>LOCSAT</methodID><earthModelID>iasp91_scanloc</earthModelID><quality><associatedPhaseCount>17</associatedPhaseCount><usedPhaseCount>17</usedPhaseCount><associatedStationCount>11</associatedStationCount><usedStationCount>11</usedStationCount><depthPhaseCount>0</depthPhaseCount><standardError>0.4880313738109943</standardError><azimuthalGap>203.07186889648438</azimuthalGap><maximumDistance>2.434337615966797</maximumDistance><minimumDistance>0.4109238088130951</minimumDistance><medianDistance>1.2178093194961548</medianDistance></quality><uncertainty><minHorizontalUncertainty>5.448891162872314</minHorizontalUncertainty><maxHorizontalUncertainty>20.842823028564453</maxHorizontalUncertainty><azimuthMaxHorizontalUncertainty>87.72772979736328</azimuthMaxHorizontalUncertainty><preferredDescription>horizontal uncertainty</preferredDescription></uncertainty><evaluationMode>automatic</evaluationMode><evaluationStatus>confirmed</evaluationStatus><comment><text>0.00</text><id>mismatchScore</id></comment><comment><text>mismatchScore</text><id>scevalMethod</id></comment><arrival><pickID>de.gempa.tb1.Pick/20250413121310.608966.131055</pickID><phase>P</phase><azimuth>316.2437438964844</azimuth><distance>0.9150122404098511</distance><timeResidual>-0.5873241424560547</timeResidual><timeUsed>true</timeUsed><horizontalSlownessUsed>false</horizontalSlownessUsed><backazimuthUsed>false</backazimuthUsed><weight>1</weight></arrival><arrival><pickID>de.gempa.tb1.Pick/20250413121314.48477.131059</pickID><phase>P</phase><azimuth>290.7486572265625</azimuth><distance>1.0828675031661987</distance><timeResidual>0.2588386535644531</timeResidual><timeUsed>true</timeUsed><horizontalSlownessUsed>false</horizontalSlownessUsed><backazimuthUsed>false</backazimuthUsed><weight>1</weight></arrival><arrival><pickID>de.gempa.tb1.Pick/20250413121308.788216.131053</pickID><phase>P</phase><azimuth>257.6723327636719</azimuth><distance>0.4109238088130951</distance><timeResidual>-0.7819499969482422</timeResidual><timeUsed>true</timeUsed><horizontalSlownessUsed>false</horizontalSlownessUsed><backazimuthUsed>false</backazimuthUsed><weight>1</weight></arrival><arrival><pickID>de.gempa.tb1.Pick/20250413121311.57605.131057</pickID><phase>P</phase><azimuth>248.7247772216797</azimuth><distance>0.9389790892601013</distance><timeResidual>0.04099273681640625</timeResidual><timeUsed>true</timeUsed><horizontalSlownessUsed>false</horizontalSlownessUsed><backazimuthUsed>false</backazimuthUsed><weight>1</weight></arrival><arrival><pickID>de.gempa.tb1.Pick/20250413121314.541682.131061</pickID><phase>P</phase><azimuth>215.2930450439453</azimuth><distance>1.2178093194961548</distance><timeResidual>-0.1325817108154297</timeResidual><timeUsed>true</timeUsed><horizontalSlownessUsed>false</horizontalSlownessUsed><backazimuthUsed>false</backazimuthUsed><weight>1</weight></arrival><arrival><pickID>de.gempa.tb1.Pick/20250413121319.700613.131065</pickID><phase>P</phase><azimuth>202.1533660888672</azimuth><distance>1.612807035446167</distance><timeResidual>0.3710155487060547</timeResidual><timeUsed>true</timeUsed><horizontalSlownessUsed>false</horizontalSlownessUsed><backazimuthUsed>false</backazimuthUsed><weight>1</weight></arrival><arrival><pickID>de.gempa.tb1.Pick/20250413121318.461493.131063</pickID><phase>P</phase><azimuth>304.95855712890625</azimuth><distance>1.5329034328460693</distance><timeResidual>0.7161235809326172</timeResidual><timeUsed>true</timeUsed><horizontalSlownessUsed>false</horizontalSlownessUsed><backazimuthUsed>false</backazimuthUsed><weight>1</weight></arrival><arrival><pickID>de.gempa.tb1.Pick/20250413121321.246912.131067</pickID><phase>P</phase><azimuth>348.3077697753906</azimuth><distance>1.5925134420394897</distance><timeResidual>0.4325370788574219</timeResidual><timeUsed>true</timeUsed><horizontalSlownessUsed>false</horizontalSlownessUsed><backazimuthUsed>false</backazimuthUsed><weight>1</weight></arrival><arrival><pickID>de.gempa.tb1.Pick/20250413121326.506463.131069</pickID><phase>P</phase><azimuth>191.379638671875</azimuth><distance>2.2302305698394775</distance><timeResidual>-0.0222015380859375</timeResidual><timeUsed>true</timeUsed><horizontalSlownessUsed>false</horizontalSlownessUsed><backazimuthUsed>false</backazimuthUsed><weight>1</weight></arrival><arrival><pickID>de.gempa.tb1.Pick/20250413121328.560602.131071</pickID><phase>P</phase><azimuth>329.4262390136719</azimuth><distance>2.434337615966797</distance><timeResidual>-0.9701347351074219</timeResidual><timeUsed>true</timeUsed><horizontalSlownessUsed>false</horizontalSlownessUsed><backazimuthUsed>false</backazimuthUsed><weight>1</weight></arrival><arrival><pickID>de.gempa.tb1.Pick/20250413121351.487917.131084</pickID><phase>P</phase><azimuth>268.7827453613281</azimuth><distance>1.0008968114852905</distance><timeResidual>0.3315258026123047</timeResidual><timeUsed>true</timeUsed><horizontalSlownessUsed>false</horizontalSlownessUsed><backazimuthUsed>false</backazimuthUsed><weight>1</weight></arrival><arrival><pickID>de.gempa.tb1.Pick/20250413121331.623203.131073</pickID><phase>S</phase><azimuth>248.7247772216797</azimuth><distance>0.9389790892601013</distance><timeResidual>-0.35027313232421875</timeResidual><timeUsed>true</timeUsed><horizontalSlownessUsed>false</horizontalSlownessUsed><backazimuthUsed>false</backazimuthUsed><weight>1</weight></arrival><arrival><pickID>de.gempa.tb1.Pick/20250413121335.648651.131074</pickID><phase>S</phase><azimuth>215.2930450439453</azimuth><distance>1.2178093194961548</distance><timeResidual>-0.48583984375</timeResidual><timeUsed>true</timeUsed><horizontalSlownessUsed>false</horizontalSlownessUsed><backazimuthUsed>false</backazimuthUsed><weight>1</weight></arrival><arrival><pickID>de.gempa.tb1.Pick/20250413121344.894827.131080</pickID><phase>S</phase><azimuth>202.1533660888672</azimuth><distance>1.612807035446167</distance><timeResidual>0.4853019714355469</timeResidual><timeUsed>true</timeUsed><horizontalSlownessUsed>false</horizontalSlownessUsed><backazimuthUsed>false</backazimuthUsed><weight>1</weight></arrival><arrival><pickID>de.gempa.tb1.Pick/20250413121345.100618.131081</pickID><phase>S</phase><azimuth>348.3077697753906</azimuth><distance>1.5925134420394897</distance><timeResidual>0.5589141845703125</timeResidual><timeUsed>true</timeUsed><horizontalSlownessUsed>false</horizontalSlownessUsed><backazimuthUsed>false</backazimuthUsed><weight>1</weight></arrival><arrival><pickID>de.gempa.tb1.Pick/20250413121442.95438.131090</pickID><phase>S</phase><azimuth>268.7827453613281</azimuth><distance>1.0008968114852905</distance><timeResidual>0.3847465515136719</timeResidual><timeUsed>true</timeUsed><horizontalSlownessUsed>false</horizontalSlownessUsed><backazimuthUsed>false</backazimuthUsed><weight>1</weight></arrival><arrival><pickID>de.gempa.tb1.Pick/20250413121402.791009.131087</pickID><phase>S</phase><azimuth>329.4262390136719</azimuth><distance>2.434337615966797</distance><timeResidual>-0.250030517578125</timeResidual><timeUsed>true</timeUsed><horizontalSlownessUsed>false</horizontalSlownessUsed><backazimuthUsed>false</backazimuthUsed><weight>1</weight></arrival><magnitude publicID="de.gempa.tb1.Magnitude/20250413121442.967848.355426"><magnitude><value>2.7637131522056406</value></magnitude><type>M</type><methodID>weighted average</methodID><stationCount>8</stationCount></magnitude></origin><event publicID="gempa2025hhir"><preferredOriginID>de.gempa.tb1.Origin/20250413121442.957624.109227</preferredOriginID><preferredMagnitudeID>de.gempa.tb1.Magnitude/20250413121442.967848.355426</preferredMagnitudeID><description><text>Chile-Bolivia Border Region</text><type>region name</type></description><originReference>de.gempa.tb1.Origin/20250413121442.957624.109227</originReference></event></EventParameters></seiscomp>