<?xml version="1.0" encoding="UTF-8"?>
<seiscomp xmlns="http://geofon.gfz-potsdam.de/ns/seiscomp3-schema/0.13" version="0.13"><EventParameters><pick publicID="de.gempa.tb1.Pick/20250414183050.637496.140202"><time><value>2025-04-14T18:30:46.318393Z</value></time><waveformID networkCode="CX" stationCode="PB06" channelCode="HHZ"/><filterID>ITAPER(4)&gt;&gt;BW(4,4,20)</filterID><methodID>AIC</methodID><horizontalSlowness><value>10.532978178382045</value></horizontalSlowness><backazimuth><value>242.14978448638016</value></backazimuth><phaseHint>P</phaseHint><evaluationMode>automatic</evaluationMode><comment><text>8495.599887846976</text><id>DFX:rectilinearity</id></comment><comment><text>303.51455560812394</text><id>SNR</id></comment></pick><pick publicID="de.gempa.tb1.Pick/20250414183051.667111.140204"><time><value>2025-04-14T18:30:47.148393Z</value></time><waveformID networkCode="CX" stationCode="PB15" channelCode="HHZ"/><filterID>ITAPER(4)&gt;&gt;BW(4,4,20)</filterID><methodID>AIC</methodID><horizontalSlowness><value>22.77777001349597</value></horizontalSlowness><backazimuth><value>87.57368679472985</value></backazimuth><phaseHint>P</phaseHint><evaluationMode>automatic</evaluationMode><comment><text>12034.830804738833</text><id>DFX:rectilinearity</id></comment><comment><text>44.893881913549706</text><id>SNR</id></comment></pick><pick publicID="de.gempa.tb1.Pick/20250414183100.372178.140206"><time><value>2025-04-14T18:30:55.5Z</value></time><waveformID networkCode="CX" stationCode="PB10" channelCode="HHZ"/><filterID>ITAPER(4)&gt;&gt;BW(4,4,20)</filterID><methodID>AIC</methodID><horizontalSlowness><value>18.397978936228427</value></horizontalSlowness><backazimuth><value>48.37688841755323</value></backazimuth><phaseHint>P</phaseHint><evaluationMode>automatic</evaluationMode><comment><text>5610.655471766791</text><id>DFX:rectilinearity</id></comment><comment><text>146.0930445395694</text><id>SNR</id></comment></pick><pick publicID="de.gempa.tb1.Pick/20250414183102.556767.140208"><time><value>2025-04-14T18:30:56.158393Z</value></time><waveformID networkCode="CX" stationCode="PB03" channelCode="HHZ"/><filterID>ITAPER(4)&gt;&gt;BW(4,4,20)</filterID><methodID>AIC</methodID><horizontalSlowness><value>14.852752855754877</value></horizontalSlowness><backazimuth><value>180.62809795974727</value></backazimuth><phaseHint>P</phaseHint><evaluationMode>automatic</evaluationMode><comment><text>5823.939893161664</text><id>DFX:rectilinearity</id></comment><comment><text>101.20418905963172</text><id>SNR</id></comment></pick><pick publicID="de.gempa.tb1.Pick/20250414183104.532545.140210"><time><value>2025-04-14T18:30:59.28Z</value></time><waveformID networkCode="CX" stationCode="PB19" channelCode="HHZ"/><filterID>ITAPER(4)&gt;&gt;BW(4,4,20)</filterID><methodID>AIC</methodID><horizontalSlowness><value>4.281127659234479</value></horizontalSlowness><backazimuth><value>14.72564696062824</value></backazimuth><phaseHint>P</phaseHint><evaluationMode>automatic</evaluationMode><comment><text>185.12967810749163</text><id>DFX:rectilinearity</id></comment><comment><text>50.85211642239985</text><id>SNR</id></comment></pick><pick publicID="de.gempa.tb1.Pick/20250414183111.782595.140212"><time><value>2025-04-14T18:30:52.398393Z</value></time><waveformID networkCode="CX" stationCode="PB15" channelCode="HHN"/><filterID>ITAPER(2)&gt;&gt;BW(3,3,20)</filterID><methodID>L2-AIC-GRID</methodID><horizontalSlowness><value>21.117191230251134</value></horizontalSlowness><backazimuth><value>314.5726129840506</value></backazimuth><phaseHint>S</phaseHint><evaluationMode>automatic</evaluationMode><comment><text>151020.60080337615</text><id>DFX:rectilinearity</id></comment><comment><text>de.gempa.tb1.Pick/20250414183051.667111.140204</text><id>RefPickID</id></comment><comment><text>5.116155761430622</text><id>SNR</id></comment></pick><pick publicID="de.gempa.tb1.Pick/20250414183114.522744.140213"><time><value>2025-04-14T18:31:08.548393Z</value></time><waveformID networkCode="CX" stationCode="PB02" channelCode="HHZ"/><filterID>ITAPER(4)&gt;&gt;BW(4,4,20)</filterID><methodID>AIC</methodID><horizontalSlowness><value>7.956114405313126</value></horizontalSlowness><backazimuth><value>147.91191702668715</value></backazimuth><phaseHint>P</phaseHint><evaluationMode>automatic</evaluationMode><comment><text>2794.5025895337467</text><id>DFX:rectilinearity</id></comment><comment><text>41.864137839792846</text><id>SNR</id></comment></pick><pick publicID="de.gempa.tb1.Pick/20250414183117.746045.140216"><time><value>2025-04-14T18:31:03.26Z</value></time><waveformID networkCode="CX" stationCode="PB09" channelCode="HHZ"/><filterID>ITAPER(4)&gt;&gt;BW(4,4,20)</filterID><methodID>AIC</methodID><horizontalSlowness><value>21.42222031990288</value></horizontalSlowness><backazimuth><value>157.72238586263268</value></backazimuth><phaseHint>P</phaseHint><evaluationMode>automatic</evaluationMode><comment><text>1751.254218867385</text><id>DFX:rectilinearity</id></comment><comment><text>63.522847460355</text><id>SNR</id></comment></pick><pick publicID="de.gempa.tb1.Pick/20250414183118.58503.140218"><time><value>2025-04-14T18:31:13.688393Z</value></time><waveformID networkCode="CX" stationCode="PB01" channelCode="HHZ"/><filterID>ITAPER(4)&gt;&gt;BW(4,4,20)</filterID><methodID>AIC</methodID><horizontalSlowness><value>23.559330375598535</value></horizontalSlowness><backazimuth><value>176.15067500294941</value></backazimuth><phaseHint>P</phaseHint><evaluationMode>automatic</evaluationMode><comment><text>320.1256873374363</text><id>DFX:rectilinearity</id></comment><comment><text>47.256899030351</text><id>SNR</id></comment></pick><pick publicID="de.gempa.tb1.Pick/20250414183128.275865.140224"><time><value>2025-04-14T18:31:16.799999Z</value></time><waveformID networkCode="CX" stationCode="PATCX" channelCode="HHZ"/><filterID>ITAPER(4)&gt;&gt;BW(4,4,20)</filterID><methodID>AIC</methodID><horizontalSlowness><value>3.771932660428453</value></horizontalSlowness><backazimuth><value>68.95078551187407</value></backazimuth><phaseHint>P</phaseHint><evaluationMode>automatic</evaluationMode><comment><text>241.3301091150423</text><id>DFX:rectilinearity</id></comment><comment><text>9.316289978403168</text><id>SNR</id></comment></pick><pick publicID="de.gempa.tb1.Pick/20250414183131.591676.140229"><time><value>2025-04-14T18:31:02.068393Z</value></time><waveformID networkCode="CX" stationCode="PB07" channelCode="HHZ"/><filterID>ITAPER(4)&gt;&gt;BW(4,4,20)</filterID><methodID>AIC</methodID><horizontalSlowness><value>17.460055287334551</value></horizontalSlowness><backazimuth><value>195.51258285751524</value></backazimuth><phaseHint>P</phaseHint><evaluationMode>automatic</evaluationMode><comment><text>51051.46434620469</text><id>DFX:rectilinearity</id></comment><comment><text>99.33397422391303</text><id>SNR</id></comment></pick><origin publicID="de.gempa.tb1.Origin/20250414183132.471535.147234"><time><value>2025-04-14T18:30:38.984877Z</value><uncertainty>0.3719276189804077</uncertainty></time><latitude><value>-22.962488174438477</value><uncertainty>2.367776393890381</uncertainty></latitude><longitude><value>-69.83335876464844</value><uncertainty>3.434931516647339</uncertainty></longitude><depth><value>0</value></depth><depthType>operator assigned</depthType><methodID>LOCSAT</methodID><earthModelID>iasp91_scanloc</earthModelID><quality><associatedPhaseCount>11</associatedPhaseCount><usedPhaseCount>11</usedPhaseCount><associatedStationCount>10</associatedStationCount><usedStationCount>10</usedStationCount><depthPhaseCount>0</depthPhaseCount><standardError>0.4211760991734932</standardError><azimuthalGap>121.7529296875</azimuthalGap><maximumDistance>2.1519529819488525</maximumDistance><minimumDistance>0.3513762652873993</minimumDistance><medianDistance>1.0621869564056396</medianDistance></quality><uncertainty><minHorizontalUncertainty>4.558576107025146</minHorizontalUncertainty><maxHorizontalUncertainty>7.696523666381836</maxHorizontalUncertainty><azimuthMaxHorizontalUncertainty>68.87803649902344</azimuthMaxHorizontalUncertainty><preferredDescription>horizontal uncertainty</preferredDescription></uncertainty><evaluationMode>automatic</evaluationMode><evaluationStatus>confirmed</evaluationStatus><comment><text>0.00</text><id>mismatchScore</id></comment><comment><text>mismatchScore</text><id>scevalMethod</id></comment><arrival><pickID>de.gempa.tb1.Pick/20250414183050.637496.140202</pickID><phase>P</phase><azimuth>43.4071159362793</azimuth><distance>0.3513762652873993</distance><timeResidual>0.5935788154602051</timeResidual><timeUsed>true</timeUsed><horizontalSlownessUsed>false</horizontalSlownessUsed><backazimuthUsed>false</backazimuthUsed><weight>1</weight></arrival><arrival><pickID>de.gempa.tb1.Pick/20250414183051.667111.140204</pickID><phase>P</phase><azimuth>126.318359375</azimuth><distance>0.4138549268245697</distance><timeResidual>0.2258739471435547</timeResidual><timeUsed>true</timeUsed><horizontalSlownessUsed>false</horizontalSlownessUsed><backazimuthUsed>false</backazimuthUsed><weight>1</weight></arrival><arrival><pickID>de.gempa.tb1.Pick/20250414183100.372178.140206</pickID><phase>P</phase><azimuth>230.26104736328125</azimuth><distance>0.8603577017784119</distance><timeResidual>0.013935089111328125</timeResidual><timeUsed>true</timeUsed><horizontalSlownessUsed>false</horizontalSlownessUsed><backazimuthUsed>false</backazimuthUsed><weight>1</weight></arrival><arrival><pickID>de.gempa.tb1.Pick/20250414183102.556767.140208</pickID><phase>P</phase><azimuth>4.679797172546387</azimuth><distance>0.9127011895179749</distance><timeResidual>-0.33342647552490234</timeResidual><timeUsed>true</timeUsed><horizontalSlownessUsed>false</horizontalSlownessUsed><backazimuthUsed>false</backazimuthUsed><weight>1</weight></arrival><arrival><pickID>de.gempa.tb1.Pick/20250414183104.532545.140210</pickID><phase>P</phase><azimuth>152.1187744140625</azimuth><distance>1.0621869564056396</distance><timeResidual>-0.07662296295166016</timeResidual><timeUsed>true</timeUsed><horizontalSlownessUsed>false</horizontalSlownessUsed><backazimuthUsed>false</backazimuthUsed><weight>1</weight></arrival><arrival><pickID>de.gempa.tb1.Pick/20250414183111.782595.140212</pickID><phase>S</phase><azimuth>126.318359375</azimuth><distance>0.4138549268245697</distance><timeResidual>-0.287933349609375</timeResidual><timeUsed>true</timeUsed><horizontalSlownessUsed>false</horizontalSlownessUsed><backazimuthUsed>false</backazimuthUsed><weight>1</weight></arrival><arrival><pickID>de.gempa.tb1.Pick/20250414183114.522744.140213</pickID><phase>P</phase><azimuth>357.9527893066406</azimuth><distance>1.6358919143676758</distance><timeResidual>-0.4727773666381836</timeResidual><timeUsed>true</timeUsed><horizontalSlownessUsed>false</horizontalSlownessUsed><backazimuthUsed>false</backazimuthUsed><weight>1</weight></arrival><arrival><pickID>de.gempa.tb1.Pick/20250414183117.746045.140216</pickID><phase>P</phase><azimuth>25.365455627441406</azimuth><distance>1.2831707000732422</distance><timeResidual>-0.33765506744384766</timeResidual><timeUsed>true</timeUsed><horizontalSlownessUsed>false</horizontalSlownessUsed><backazimuthUsed>false</backazimuthUsed><weight>1</weight></arrival><arrival><pickID>de.gempa.tb1.Pick/20250414183118.58503.140218</pickID><phase>P</phase><azimuth>9.606995582580566</azimuth><distance>1.9367823600769043</distance><timeResidual>0.5257272720336914</timeResidual><timeUsed>true</timeUsed><horizontalSlownessUsed>false</horizontalSlownessUsed><backazimuthUsed>false</backazimuthUsed><weight>1</weight></arrival><arrival><pickID>de.gempa.tb1.Pick/20250414183128.275865.140224</pickID><phase>P</phase><azimuth>352.01397705078125</azimuth><distance>2.1519529819488525</distance><timeResidual>0.6756792068481445</timeResidual><timeUsed>true</timeUsed><horizontalSlownessUsed>false</horizontalSlownessUsed><backazimuthUsed>false</backazimuthUsed><weight>1</weight></arrival><arrival><pickID>de.gempa.tb1.Pick/20250414183131.591676.140229</pickID><phase>P</phase><azimuth>357.71319580078125</azimuth><distance>1.230889916419983</distance><timeResidual>-0.5266141891479492</timeResidual><timeUsed>true</timeUsed><horizontalSlownessUsed>false</horizontalSlownessUsed><backazimuthUsed>false</backazimuthUsed><weight>1</weight></arrival><magnitude publicID="de.gempa.tb1.Magnitude/20250414183140.947176.528317"><magnitude><value>2.692698284482914</value></magnitude><type>M</type><methodID>weighted average</methodID><stationCount>8</stationCount></magnitude></origin><event publicID="gempa2025hjrh"><preferredOriginID>de.gempa.tb1.Origin/20250414183132.471535.147234</preferredOriginID><preferredMagnitudeID>de.gempa.tb1.Magnitude/20250414183140.947176.528317</preferredMagnitudeID><description><text>Northern Chile</text><type>region name</type></description><originReference>de.gempa.tb1.Origin/20250414183132.471535.147234</originReference></event></EventParameters></seiscomp>