<?xml version="1.0" encoding="UTF-8"?>
<seiscomp xmlns="http://geofon.gfz-potsdam.de/ns/seiscomp3-schema/0.13" version="0.13"><EventParameters><pick publicID="de.gempa.tb1.Pick/20250414230704.578051.141992"><time><value>2025-04-14T23:06:57.620001Z</value></time><waveformID networkCode="CX" stationCode="PSGCX" channelCode="HHZ"/><filterID>ITAPER(4)&gt;&gt;BW(4,4,20)</filterID><methodID>AIC</methodID><horizontalSlowness><value>15.235343628950305</value></horizontalSlowness><backazimuth><value>158.17944344442304</value></backazimuth><phaseHint>P</phaseHint><evaluationMode>automatic</evaluationMode><comment><text>13.683457740261675</text><id>DFX:rectilinearity</id></comment><comment><text>66.00439122408937</text><id>SNR</id></comment></pick><pick publicID="de.gempa.tb1.Pick/20250414230717.568719.141994"><time><value>2025-04-14T23:07:10.400001Z</value></time><waveformID networkCode="CX" stationCode="PSGCX" channelCode="HHN"/><filterID>ITAPER(2)&gt;&gt;BW(3,3,20)</filterID><methodID>L2-AIC-GRID</methodID><horizontalSlowness><value>23.36313679005122</value></horizontalSlowness><backazimuth><value>174.49362868193018</value></backazimuth><phaseHint>S</phaseHint><evaluationMode>automatic</evaluationMode><comment><text>449.13063671882077</text><id>DFX:rectilinearity</id></comment><comment><text>de.gempa.tb1.Pick/20250414230704.578051.141992</text><id>RefPickID</id></comment><comment><text>18.76129590183243</text><id>SNR</id></comment></pick><pick publicID="de.gempa.tb1.Pick/20250414230723.458687.141999"><time><value>2025-04-14T23:07:13.679999Z</value></time><waveformID networkCode="CX" stationCode="PATCX" channelCode="HHZ"/><filterID>ITAPER(4)&gt;&gt;BW(4,4,20)</filterID><methodID>AIC</methodID><horizontalSlowness><value>21.776363793999586</value></horizontalSlowness><backazimuth><value>234.4840736833115</value></backazimuth><phaseHint>P</phaseHint><evaluationMode>automatic</evaluationMode><comment><text>203.30226529242881</text><id>DFX:rectilinearity</id></comment><comment><text>15.43734985778521</text><id>SNR</id></comment></pick><pick publicID="de.gempa.tb1.Pick/20250414230728.49771.142001"><time><value>2025-04-14T23:07:20.058393Z</value></time><waveformID networkCode="CX" stationCode="PB02" channelCode="HHZ"/><filterID>ITAPER(4)&gt;&gt;BW(4,4,20)</filterID><methodID>AIC</methodID><horizontalSlowness><value>18.103907425062818</value></horizontalSlowness><backazimuth><value>258.21310769736363</value></backazimuth><phaseHint>P</phaseHint><evaluationMode>automatic</evaluationMode><comment><text>28.996913172760923</text><id>DFX:rectilinearity</id></comment><comment><text>10.44746180786522</text><id>SNR</id></comment></pick><pick publicID="de.gempa.tb1.Pick/20250414230733.767679.142003"><time><value>2025-04-14T23:07:26.168396Z</value></time><waveformID networkCode="CX" stationCode="PB07" channelCode="HHZ"/><filterID>ITAPER(4)&gt;&gt;BW(4,4,20)</filterID><methodID>AIC</methodID><horizontalSlowness><value>20.541219560336724</value></horizontalSlowness><backazimuth><value>75.17034866832299</value></backazimuth><phaseHint>P</phaseHint><evaluationMode>automatic</evaluationMode><comment><text>384.69577325106815</text><id>DFX:rectilinearity</id></comment><comment><text>13.62752752199273</text><id>SNR</id></comment></pick><pick publicID="de.gempa.tb1.Pick/20250414230737.454144.142005"><time><value>2025-04-14T23:07:27.61Z</value></time><waveformID networkCode="CX" stationCode="PB09" channelCode="HHZ"/><filterID>ITAPER(4)&gt;&gt;BW(4,4,20)</filterID><methodID>AIC</methodID><horizontalSlowness><value>18.81687155561436</value></horizontalSlowness><backazimuth><value>247.3119481644677</value></backazimuth><phaseHint>P</phaseHint><evaluationMode>automatic</evaluationMode><comment><text>13.904407982200697</text><id>DFX:rectilinearity</id></comment><comment><text>12.006578839006284</text><id>SNR</id></comment></pick><pick publicID="de.gempa.tb1.Pick/20250414230746.510341.142012"><time><value>2025-04-14T23:07:39.229999Z</value></time><waveformID networkCode="CX" stationCode="PATCX" channelCode="HHN"/><filterID>ITAPER(2)&gt;&gt;BW(3,3,20)</filterID><methodID>L2-AIC-GRID</methodID><horizontalSlowness><value>22.772397495968825</value></horizontalSlowness><backazimuth><value>108.43499932394914</value></backazimuth><phaseHint>S</phaseHint><evaluationMode>automatic</evaluationMode><comment><text>256.07341985214185</text><id>DFX:rectilinearity</id></comment><comment><text>de.gempa.tb1.Pick/20250414230723.458687.141999</text><id>RefPickID</id></comment><comment><text>12.394147017305588</text><id>SNR</id></comment></pick><pick publicID="de.gempa.tb1.Pick/20250414230807.773972.142018"><time><value>2025-04-14T23:08:00.688396Z</value></time><waveformID networkCode="CX" stationCode="PB07" channelCode="HHN"/><filterID>ITAPER(2)&gt;&gt;BW(3,3,20)</filterID><methodID>L2-AIC-GRID</methodID><horizontalSlowness><value>22.020499475128368</value></horizontalSlowness><backazimuth><value>268.56270870848294</value></backazimuth><phaseHint>S</phaseHint><evaluationMode>automatic</evaluationMode><comment><text>1585.6693873847476</text><id>DFX:rectilinearity</id></comment><comment><text>de.gempa.tb1.Pick/20250414230733.767679.142003</text><id>RefPickID</id></comment><comment><text>6.742519016116281</text><id>SNR</id></comment></pick><pick publicID="de.gempa.tb1.Pick/20250414230813.866721.142021"><time><value>2025-04-14T23:08:03.24Z</value></time><waveformID networkCode="CX" stationCode="PB09" channelCode="HHN"/><filterID>ITAPER(2)&gt;&gt;BW(3,3,20)</filterID><methodID>L2-AIC-GRID</methodID><horizontalSlowness><value>12.07954931633053</value></horizontalSlowness><backazimuth><value>302.935694652758</value></backazimuth><phaseHint>S</phaseHint><evaluationMode>automatic</evaluationMode><comment><text>60.84437325213275</text><id>DFX:rectilinearity</id></comment><comment><text>de.gempa.tb1.Pick/20250414230737.454144.142005</text><id>RefPickID</id></comment><comment><text>10.978679212984765</text><id>SNR</id></comment></pick><origin publicID="de.gempa.tb1.Origin/20250414230813.872273.154068"><time><value>2025-04-14T23:06:41.36174Z</value><uncertainty>1.1948882341384888</uncertainty></time><latitude><value>-18.75567626953125</value><uncertainty>7.183520317077637</uncertainty></latitude><longitude><value>-69.78692626953125</value><uncertainty>19.879743576049805</uncertainty></longitude><depth><value>53.11661911010742</value><uncertainty>30.757503509521484</uncertainty></depth><depthType>from location</depthType><methodID>LOCSAT</methodID><earthModelID>iasp91_scanloc</earthModelID><quality><associatedPhaseCount>9</associatedPhaseCount><usedPhaseCount>9</usedPhaseCount><associatedStationCount>5</associatedStationCount><usedStationCount>5</usedStationCount><depthPhaseCount>0</depthPhaseCount><standardError>0.1931570299975571</standardError><azimuthalGap>329.7642822265625</azimuthalGap><maximumDistance>3.0681493282318115</maximumDistance><minimumDistance>0.895326018333435</minimumDistance><medianDistance>2.5529510974884033</medianDistance></quality><uncertainty><minHorizontalUncertainty>15.167804718017578</minHorizontalUncertainty><maxHorizontalUncertainty>42.71231460571289</maxHorizontalUncertainty><azimuthMaxHorizontalUncertainty>86.14497375488281</azimuthMaxHorizontalUncertainty><preferredDescription>horizontal uncertainty</preferredDescription></uncertainty><evaluationMode>automatic</evaluationMode><evaluationStatus>confirmed</evaluationStatus><comment><text>0.41</text><id>mismatchScore</id></comment><comment><text>mismatchScore</text><id>scevalMethod</id></comment><arrival><pickID>de.gempa.tb1.Pick/20250414230704.578051.141992</pickID><phase>P</phase><azimuth>200.72903442382812</azimuth><distance>0.895326018333435</distance><timeResidual>-0.16645050048828125</timeResidual><timeUsed>true</timeUsed><horizontalSlownessUsed>false</horizontalSlownessUsed><backazimuthUsed>false</backazimuthUsed><weight>1</weight></arrival><arrival><pickID>de.gempa.tb1.Pick/20250414230717.568719.141994</pickID><phase>S</phase><azimuth>200.72903442382812</azimuth><distance>0.895326018333435</distance><timeResidual>0.09951591491699219</timeResidual><timeUsed>true</timeUsed><horizontalSlownessUsed>false</horizontalSlownessUsed><backazimuthUsed>false</backazimuthUsed><weight>1</weight></arrival><arrival><pickID>de.gempa.tb1.Pick/20250414230723.458687.141999</pickID><phase>P</phase><azimuth>189.46131896972656</azimuth><distance>2.0830507278442383</distance><timeResidual>-0.1855602264404297</timeResidual><timeUsed>true</timeUsed><horizontalSlownessUsed>false</horizontalSlownessUsed><backazimuthUsed>false</backazimuthUsed><weight>1</weight></arrival><arrival><pickID>de.gempa.tb1.Pick/20250414230728.49771.142001</pickID><phase>P</phase><azimuth>182.2843475341797</azimuth><distance>2.5529510974884033</distance><timeResidual>-0.23621177673339844</timeResidual><timeUsed>true</timeUsed><horizontalSlownessUsed>false</horizontalSlownessUsed><backazimuthUsed>false</backazimuthUsed><weight>1</weight></arrival><arrival><pickID>de.gempa.tb1.Pick/20250414230733.767679.142003</pickID><phase>P</phase><azimuth>181.78903198242188</azimuth><distance>2.9572999477386475</distance><timeResidual>0.3331336975097656</timeResidual><timeUsed>true</timeUsed><horizontalSlownessUsed>false</horizontalSlownessUsed><backazimuthUsed>false</backazimuthUsed><weight>1</weight></arrival><arrival><pickID>de.gempa.tb1.Pick/20250414230737.454144.142005</pickID><phase>P</phase><azimuth>170.49331665039062</azimuth><distance>3.0681493282318115</distance><timeResidual>0.25531768798828125</timeResidual><timeUsed>true</timeUsed><horizontalSlownessUsed>false</horizontalSlownessUsed><backazimuthUsed>false</backazimuthUsed><weight>1</weight></arrival><arrival><pickID>de.gempa.tb1.Pick/20250414230746.510341.142012</pickID><phase>S</phase><azimuth>189.46131896972656</azimuth><distance>2.0830507278442383</distance><timeResidual>0.05815315246582031</timeResidual><timeUsed>true</timeUsed><horizontalSlownessUsed>false</horizontalSlownessUsed><backazimuthUsed>false</backazimuthUsed><weight>1</weight></arrival><arrival><pickID>de.gempa.tb1.Pick/20250414230807.773972.142018</pickID><phase>S</phase><azimuth>181.78903198242188</azimuth><distance>2.9572999477386475</distance><timeResidual>0.010408401489257812</timeResidual><timeUsed>true</timeUsed><horizontalSlownessUsed>false</horizontalSlownessUsed><backazimuthUsed>false</backazimuthUsed><weight>1</weight></arrival><arrival><pickID>de.gempa.tb1.Pick/20250414230813.866721.142021</pickID><phase>S</phase><azimuth>170.49331665039062</azimuth><distance>3.0681493282318115</distance><timeResidual>-0.16820716857910156</timeResidual><timeUsed>true</timeUsed><horizontalSlownessUsed>false</horizontalSlownessUsed><backazimuthUsed>false</backazimuthUsed><weight>1</weight></arrival><magnitude publicID="de.gempa.tb1.Magnitude/20250414230813.878214.549530"><magnitude><value>2.919477506696387</value></magnitude><type>M</type><methodID>weighted average</methodID><stationCount>5</stationCount></magnitude></origin><event publicID="gempa2025hkam"><preferredOriginID>de.gempa.tb1.Origin/20250414230813.872273.154068</preferredOriginID><preferredMagnitudeID>de.gempa.tb1.Magnitude/20250414230813.878214.549530</preferredMagnitudeID><description><text>Northern Chile</text><type>region name</type></description><originReference>de.gempa.tb1.Origin/20250414230813.872273.154068</originReference></event></EventParameters></seiscomp>