<?xml version="1.0" encoding="UTF-8"?>
<seiscomp xmlns="http://geofon.gfz-potsdam.de/ns/seiscomp3-schema/0.13" version="0.13"><EventParameters><pick publicID="de.gempa.tb1.Pick/20250411232258.698652.120636"><time><value>2025-04-11T23:22:53.558393Z</value></time><waveformID networkCode="CX" stationCode="PB08" channelCode="HHZ"/><filterID>ITAPER(4)&gt;&gt;BW(4,4,20)</filterID><methodID>AIC</methodID><horizontalSlowness><value>15.736403011264816</value></horizontalSlowness><backazimuth><value>220.8745355195828</value></backazimuth><phaseHint>P</phaseHint><evaluationMode>automatic</evaluationMode><comment><text>10.754376639540553</text><id>DFX:rectilinearity</id></comment><comment><text>108.6752404884361</text><id>SNR</id></comment></pick><pick publicID="de.gempa.tb1.Pick/20250411232304.518574.120640"><time><value>2025-04-11T23:23:00.018393Z</value></time><waveformID networkCode="CX" stationCode="PB01" channelCode="HHZ"/><filterID>ITAPER(4)&gt;&gt;BW(4,4,20)</filterID><methodID>AIC</methodID><horizontalSlowness><value>13.68208346053471</value></horizontalSlowness><backazimuth><value>349.0106999862796</value></backazimuth><phaseHint>P</phaseHint><evaluationMode>automatic</evaluationMode><comment><text>59.40463108181543</text><id>DFX:rectilinearity</id></comment><comment><text>34.16666745441192</text><id>SNR</id></comment></pick><pick publicID="de.gempa.tb1.Pick/20250411232306.548891.120642"><time><value>2025-04-11T23:22:59.34Z</value></time><waveformID networkCode="CX" stationCode="PSGCX" channelCode="HHZ"/><filterID>ITAPER(4)&gt;&gt;BW(4,4,20)</filterID><methodID>AIC</methodID><horizontalSlowness><value>18.111878379300812</value></horizontalSlowness><backazimuth><value>303.83327977685713</value></backazimuth><phaseHint>P</phaseHint><evaluationMode>automatic</evaluationMode><comment><text>17.63008123478193</text><id>DFX:rectilinearity</id></comment><comment><text>57.14976517860036</text><id>SNR</id></comment></pick><pick publicID="de.gempa.tb1.Pick/20250411232311.644899.120644"><time><value>2025-04-11T23:23:05.108393Z</value></time><waveformID networkCode="CX" stationCode="PB02" channelCode="HHZ"/><filterID>ITAPER(4)&gt;&gt;BW(4,4,20)</filterID><methodID>AIC</methodID><horizontalSlowness><value>19.882947318579443</value></horizontalSlowness><backazimuth><value>279.20544551746866</value></backazimuth><phaseHint>P</phaseHint><evaluationMode>automatic</evaluationMode><comment><text>47.76212528648723</text><id>DFX:rectilinearity</id></comment><comment><text>12.116708311012507</text><id>SNR</id></comment></pick><pick publicID="de.gempa.tb1.Pick/20250411232312.374072.120646"><time><value>2025-04-11T23:23:04.418393Z</value></time><waveformID networkCode="CX" stationCode="PB08" channelCode="HHN"/><filterID>ITAPER(2)&gt;&gt;BW(3,3,20)</filterID><methodID>L2-AIC-GRID</methodID><horizontalSlowness><value>19.820440699443338</value></horizontalSlowness><backazimuth><value>198.69737082908145</value></backazimuth><phaseHint>S</phaseHint><evaluationMode>automatic</evaluationMode><comment><text>166.15373563175754</text><id>DFX:rectilinearity</id></comment><comment><text>de.gempa.tb1.Pick/20250411232258.698652.120636</text><id>RefPickID</id></comment><comment><text>9.133568079196467</text><id>SNR</id></comment></pick><pick publicID="de.gempa.tb1.Pick/20250411232317.866258.120648"><time><value>2025-04-11T23:23:09.998393Z</value></time><waveformID networkCode="CX" stationCode="PB07" channelCode="HHZ"/><filterID>ITAPER(4)&gt;&gt;BW(4,4,20)</filterID><methodID>AIC</methodID><horizontalSlowness><value>19.412422291540626</value></horizontalSlowness><backazimuth><value>334.7866896013103</value></backazimuth><phaseHint>P</phaseHint><evaluationMode>automatic</evaluationMode><comment><text>186.33853897230915</text><id>DFX:rectilinearity</id></comment><comment><text>7.334236985149426</text><id>SNR</id></comment></pick><pick publicID="de.gempa.tb1.Pick/20250411232321.587649.120650"><time><value>2025-04-11T23:23:14.77Z</value></time><waveformID networkCode="CX" stationCode="PSGCX" channelCode="HHN"/><filterID>ITAPER(2)&gt;&gt;BW(3,3,20)</filterID><methodID>L2-AIC-GRID</methodID><horizontalSlowness><value>12.87261182612933</value></horizontalSlowness><backazimuth><value>92.82364346164078</value></backazimuth><phaseHint>S</phaseHint><evaluationMode>automatic</evaluationMode><comment><text>99.62046669541053</text><id>DFX:rectilinearity</id></comment><comment><text>de.gempa.tb1.Pick/20250411232306.548891.120642</text><id>RefPickID</id></comment><comment><text>7.295882973643364</text><id>SNR</id></comment></pick><pick publicID="de.gempa.tb1.Pick/20250411232324.675797.120652"><time><value>2025-04-11T23:23:16.038393Z</value></time><waveformID networkCode="CX" stationCode="PB01" channelCode="HHN"/><filterID>ITAPER(2)&gt;&gt;BW(3,3,20)</filterID><methodID>L2-AIC-GRID</methodID><horizontalSlowness><value>19.830035744015948</value></horizontalSlowness><backazimuth><value>171.50265146172146</value></backazimuth><phaseHint>S</phaseHint><evaluationMode>automatic</evaluationMode><comment><text>327.5932891999847</text><id>DFX:rectilinearity</id></comment><comment><text>de.gempa.tb1.Pick/20250411232304.518574.120640</text><id>RefPickID</id></comment><comment><text>11.346533101250298</text><id>SNR</id></comment></pick><pick publicID="de.gempa.tb1.Pick/20250411232335.704106.120655"><time><value>2025-04-11T23:23:24.638393Z</value></time><waveformID networkCode="CX" stationCode="PB02" channelCode="HHN"/><filterID>ITAPER(2)&gt;&gt;BW(3,3,20)</filterID><methodID>L2-AIC-GRID</methodID><horizontalSlowness><value>16.090123207383112</value></horizontalSlowness><backazimuth><value>49.14100595345508</value></backazimuth><phaseHint>S</phaseHint><evaluationMode>automatic</evaluationMode><comment><text>51.2987866600868</text><id>DFX:rectilinearity</id></comment><comment><text>de.gempa.tb1.Pick/20250411232311.644899.120644</text><id>RefPickID</id></comment><comment><text>6.88027490349957</text><id>SNR</id></comment></pick><origin publicID="de.gempa.tb1.Origin/20250411232335.707451.68401"><time><value>2025-04-11T23:22:39.755392Z</value><uncertainty>1.154914379119873</uncertainty></time><latitude><value>-20.03591537475586</value><uncertainty>4.3724374771118164</uncertainty></latitude><longitude><value>-69.23120880126953</value><uncertainty>7.380823135375977</uncertainty></longitude><depth><value>98.83872985839844</value><uncertainty>7.210902214050293</uncertainty></depth><depthType>from location</depthType><methodID>LOCSAT</methodID><earthModelID>iasp91_scanloc</earthModelID><quality><associatedPhaseCount>9</associatedPhaseCount><usedPhaseCount>9</usedPhaseCount><associatedStationCount>5</associatedStationCount><usedStationCount>5</usedStationCount><depthPhaseCount>0</depthPhaseCount><standardError>0.2452736364933024</standardError><azimuthalGap>207.7536163330078</azimuthalGap><maximumDistance>1.7903000116348267</maximumDistance><minimumDistance>0.12768647074699402</minimumDistance><medianDistance>1.0305755138397217</medianDistance></quality><uncertainty><minHorizontalUncertainty>8.351862907409668</minHorizontalUncertainty><maxHorizontalUncertainty>16.390228271484375</maxHorizontalUncertainty><azimuthMaxHorizontalUncertainty>72.415283203125</azimuthMaxHorizontalUncertainty><preferredDescription>horizontal uncertainty</preferredDescription></uncertainty><evaluationMode>automatic</evaluationMode><evaluationStatus>confirmed</evaluationStatus><comment><text>0.13</text><id>mismatchScore</id></comment><comment><text>mismatchScore</text><id>scevalMethod</id></comment><arrival><pickID>de.gempa.tb1.Pick/20250411232258.698652.120636</pickID><phase>P</phase><azimuth>145.0691375732422</azimuth><distance>0.12768647074699402</distance><timeResidual>-0.04207134246826172</timeResidual><timeUsed>true</timeUsed><horizontalSlownessUsed>false</horizontalSlownessUsed><backazimuthUsed>false</backazimuthUsed><weight>1</weight></arrival><arrival><pickID>de.gempa.tb1.Pick/20250411232304.518574.120640</pickID><phase>P</phase><azimuth>193.4278106689453</azimuth><distance>1.0305755138397217</distance><timeResidual>-0.3969869613647461</timeResidual><timeUsed>true</timeUsed><horizontalSlownessUsed>false</horizontalSlownessUsed><backazimuthUsed>false</backazimuthUsed><weight>1</weight></arrival><arrival><pickID>de.gempa.tb1.Pick/20250411232306.548891.120642</pickID><phase>P</phase><azimuth>297.3155212402344</azimuth><distance>0.9463362693786621</distance><timeResidual>-0.16881752014160156</timeResidual><timeUsed>true</timeUsed><horizontalSlownessUsed>false</horizontalSlownessUsed><backazimuthUsed>false</backazimuthUsed><weight>1</weight></arrival><arrival><pickID>de.gempa.tb1.Pick/20250411232311.644899.120644</pickID><phase>P</phase><azimuth>205.8660888671875</azimuth><distance>1.420953392982483</distance><timeResidual>0.13773441314697266</timeResidual><timeUsed>true</timeUsed><horizontalSlownessUsed>false</horizontalSlownessUsed><backazimuthUsed>false</backazimuthUsed><weight>1</weight></arrival><arrival><pickID>de.gempa.tb1.Pick/20250411232312.374072.120646</pickID><phase>S</phase><azimuth>145.0691375732422</azimuth><distance>0.12768647074699402</distance><timeResidual>0.19679927825927734</timeResidual><timeUsed>true</timeUsed><horizontalSlownessUsed>false</horizontalSlownessUsed><backazimuthUsed>false</backazimuthUsed><weight>1</weight></arrival><arrival><pickID>de.gempa.tb1.Pick/20250411232317.866258.120648</pickID><phase>P</phase><azimuth>199.8898162841797</azimuth><distance>1.7903000116348267</distance><timeResidual>0.4166412353515625</timeResidual><timeUsed>true</timeUsed><horizontalSlownessUsed>false</horizontalSlownessUsed><backazimuthUsed>false</backazimuthUsed><weight>1</weight></arrival><arrival><pickID>de.gempa.tb1.Pick/20250411232321.587649.120650</pickID><phase>S</phase><azimuth>297.3155212402344</azimuth><distance>0.9463362693786621</distance><timeResidual>0.03288078308105469</timeResidual><timeUsed>true</timeUsed><horizontalSlownessUsed>false</horizontalSlownessUsed><backazimuthUsed>false</backazimuthUsed><weight>1</weight></arrival><arrival><pickID>de.gempa.tb1.Pick/20250411232324.675797.120652</pickID><phase>S</phase><azimuth>193.4278106689453</azimuth><distance>1.0305755138397217</distance><timeResidual>-0.3179435729980469</timeResidual><timeUsed>true</timeUsed><horizontalSlownessUsed>false</horizontalSlownessUsed><backazimuthUsed>false</backazimuthUsed><weight>1</weight></arrival><arrival><pickID>de.gempa.tb1.Pick/20250411232335.704106.120655</pickID><phase>S</phase><azimuth>205.8660888671875</azimuth><distance>1.420953392982483</distance><timeResidual>0.14179039001464844</timeResidual><timeUsed>true</timeUsed><horizontalSlownessUsed>false</horizontalSlownessUsed><backazimuthUsed>false</backazimuthUsed><weight>1</weight></arrival><magnitude publicID="de.gempa.tb1.Magnitude/20250411232356.852289.153385"><magnitude><value>0.811334798762821</value></magnitude><type>M</type><methodID>weighted average</methodID><stationCount>1</stationCount></magnitude></origin><event publicID="gempa2025hemz"><preferredOriginID>de.gempa.tb1.Origin/20250411232335.707451.68401</preferredOriginID><preferredMagnitudeID>de.gempa.tb1.Magnitude/20250411232356.852289.153385</preferredMagnitudeID><description><text>Northern Chile</text><type>region name</type></description><originReference>de.gempa.tb1.Origin/20250411232335.707451.68401</originReference></event></EventParameters></seiscomp>