<?xml version="1.0" encoding="UTF-8"?>
<seiscomp xmlns="http://geofon.gfz-potsdam.de/ns/seiscomp3-schema/0.13" version="0.13"><EventParameters><pick publicID="de.gempa.tb1.Pick/20250411204231.720109.120005"><time><value>2025-04-11T20:42:24.428393Z</value></time><waveformID networkCode="CX" stationCode="PB03" channelCode="HHZ"/><filterID>ITAPER(4)&gt;&gt;BW(4,4,20)</filterID><methodID>AIC</methodID><horizontalSlowness><value>13.971570014513034</value></horizontalSlowness><backazimuth><value>96.12263864590457</value></backazimuth><phaseHint>P</phaseHint><evaluationMode>automatic</evaluationMode><comment><text>7.460510010384525</text><id>DFX:rectilinearity</id></comment><comment><text>23.522097889631727</text><id>SNR</id></comment></pick><pick publicID="de.gempa.tb1.Pick/20250411204239.574307.120009"><time><value>2025-04-11T20:42:32.478393Z</value></time><waveformID networkCode="CX" stationCode="PB03" channelCode="HHN"/><filterID>ITAPER(2)&gt;&gt;BW(3,3,20)</filterID><methodID>L2-AIC-GRID</methodID><horizontalSlowness><value>20.237802848452027</value></horizontalSlowness><backazimuth><value>290.15231148318617</value></backazimuth><phaseHint>S</phaseHint><evaluationMode>automatic</evaluationMode><comment><text>16.924849364559336</text><id>DFX:rectilinearity</id></comment><comment><text>de.gempa.tb1.Pick/20250411204231.720109.120005</text><id>RefPickID</id></comment><comment><text>9.191987949714626</text><id>SNR</id></comment></pick><pick publicID="de.gempa.tb1.Pick/20250411204240.175678.120010"><time><value>2025-04-11T20:42:28.37Z</value></time><waveformID networkCode="CX" stationCode="PB09" channelCode="HHZ"/><filterID>ITAPER(4)&gt;&gt;BW(4,4,20)</filterID><methodID>AIC</methodID><horizontalSlowness><value>14.958337476436435</value></horizontalSlowness><backazimuth><value>346.45280706284</value></backazimuth><phaseHint>P</phaseHint><evaluationMode>automatic</evaluationMode><comment><text>11.201873291534021</text><id>DFX:rectilinearity</id></comment><comment><text>33.70503031220303</text><id>SNR</id></comment></pick><pick publicID="de.gempa.tb1.Pick/20250411204240.525141.120012"><time><value>2025-04-11T20:42:32.668393Z</value></time><waveformID networkCode="CX" stationCode="PB01" channelCode="HHZ"/><filterID>ITAPER(4)&gt;&gt;BW(4,4,20)</filterID><methodID>AIC</methodID><horizontalSlowness><value>21.260771622700393</value></horizontalSlowness><backazimuth><value>351.4059767219075</value></backazimuth><phaseHint>P</phaseHint><evaluationMode>automatic</evaluationMode><comment><text>18.06096937137315</text><id>DFX:rectilinearity</id></comment><comment><text>25.418041422013605</text><id>SNR</id></comment></pick><pick publicID="de.gempa.tb1.Pick/20250411204244.797584.120014"><time><value>2025-04-11T20:42:36.498393Z</value></time><waveformID networkCode="CX" stationCode="PB06" channelCode="HHZ"/><filterID>ITAPER(4)&gt;&gt;BW(4,4,20)</filterID><methodID>AIC</methodID><horizontalSlowness><value>20.13807053912429</value></horizontalSlowness><backazimuth><value>330.4860926111004</value></backazimuth><phaseHint>P</phaseHint><evaluationMode>automatic</evaluationMode><comment><text>74.47336144845471</text><id>DFX:rectilinearity</id></comment><comment><text>8.857302639571724</text><id>SNR</id></comment></pick><pick publicID="de.gempa.tb1.Pick/20250411204255.709486.120018"><time><value>2025-04-11T20:42:44.548393Z</value></time><waveformID networkCode="CX" stationCode="PB01" channelCode="HHN"/><filterID>ITAPER(2)&gt;&gt;BW(3,3,20)</filterID><methodID>L2-AIC-GRID</methodID><horizontalSlowness><value>21.331845891501324</value></horizontalSlowness><backazimuth><value>301.294880123851</value></backazimuth><phaseHint>S</phaseHint><evaluationMode>automatic</evaluationMode><comment><text>33.543550229504973</text><id>DFX:rectilinearity</id></comment><comment><text>de.gempa.tb1.Pick/20250411204240.525141.120012</text><id>RefPickID</id></comment><comment><text>12.77585913472118</text><id>SNR</id></comment></pick><origin publicID="de.gempa.tb1.Origin/20250411204255.712677.65617"><time><value>2025-04-11T20:42:18.631852Z</value><uncertainty>0.7014294862747192</uncertainty></time><latitude><value>-21.755990982055664</value><uncertainty>3.185471773147583</uncertainty></latitude><longitude><value>-69.7552719116211</value><uncertainty>9.758556365966797</uncertainty></longitude><depth><value>29.959842681884766</value><uncertainty>5.834697246551514</uncertainty></depth><depthType>from location</depthType><methodID>LOCSAT</methodID><earthModelID>iasp91_scanloc</earthModelID><quality><associatedPhaseCount>6</associatedPhaseCount><usedPhaseCount>6</usedPhaseCount><associatedStationCount>4</associatedStationCount><usedStationCount>4</usedStationCount><depthPhaseCount>0</depthPhaseCount><standardError>0.8951679501396168</standardError><azimuthalGap>199.83602142333984</azimuthalGap><maximumDistance>0.9604068398475647</maximumDistance><minimumDistance>0.29106801748275757</minimumDistance><medianDistance>0.7518966197967529</medianDistance></quality><uncertainty><minHorizontalUncertainty>5.614511013031006</minHorizontalUncertainty><maxHorizontalUncertainty>21.29219627380371</maxHorizontalUncertainty><azimuthMaxHorizontalUncertainty>100.93110656738281</azimuthMaxHorizontalUncertainty><preferredDescription>horizontal uncertainty</preferredDescription></uncertainty><evaluationMode>automatic</evaluationMode><evaluationStatus>confirmed</evaluationStatus><comment><text>0.46</text><id>mismatchScore</id></comment><comment><text>mismatchScore</text><id>scevalMethod</id></comment><arrival><pickID>de.gempa.tb1.Pick/20250411204231.720109.120005</pickID><phase>P</phase><azimuth>179.6029052734375</azimuth><distance>0.29106801748275757</distance><timeResidual>-1.520042896270752</timeResidual><timeUsed>true</timeUsed><horizontalSlownessUsed>false</horizontalSlownessUsed><backazimuthUsed>false</backazimuthUsed><weight>1</weight></arrival><arrival><pickID>de.gempa.tb1.Pick/20250411204239.574307.120009</pickID><phase>S</phase><azimuth>179.6029052734375</azimuth><distance>0.29106801748275757</distance><timeResidual>1.2000699043273926</timeResidual><timeUsed>true</timeUsed><horizontalSlownessUsed>false</horizontalSlownessUsed><backazimuthUsed>false</backazimuthUsed><weight>1</weight></arrival><arrival><pickID>de.gempa.tb1.Pick/20250411204240.175678.120010</pickID><phase>P</phase><azimuth>94.90937042236328</azimuth><distance>0.4788465797901154</distance><timeResidual>-0.35796451568603516</timeResidual><timeUsed>true</timeUsed><horizontalSlownessUsed>false</horizontalSlownessUsed><backazimuthUsed>false</backazimuthUsed><weight>1</weight></arrival><arrival><pickID>de.gempa.tb1.Pick/20250411204240.525141.120012</pickID><phase>P</phase><azimuth>19.438926696777344</azimuth><distance>0.7518966197967529</distance><timeResidual>-0.470421314239502</timeResidual><timeUsed>true</timeUsed><horizontalSlownessUsed>false</horizontalSlownessUsed><backazimuthUsed>false</backazimuthUsed><weight>1</weight></arrival><arrival><pickID>de.gempa.tb1.Pick/20250411204244.797584.120014</pickID><phase>P</phase><azimuth>169.84335327148438</azimuth><distance>0.9604068398475647</distance><timeResidual>0.43134450912475586</timeResidual><timeUsed>true</timeUsed><horizontalSlownessUsed>false</horizontalSlownessUsed><backazimuthUsed>false</backazimuthUsed><weight>1</weight></arrival><arrival><pickID>de.gempa.tb1.Pick/20250411204255.709486.120018</pickID><phase>S</phase><azimuth>19.438926696777344</azimuth><distance>0.7518966197967529</distance><timeResidual>0.7223315238952637</timeResidual><timeUsed>true</timeUsed><horizontalSlownessUsed>false</horizontalSlownessUsed><backazimuthUsed>false</backazimuthUsed><weight>1</weight></arrival><magnitude publicID="de.gempa.tb1.Magnitude/20250411204303.521488.141299"><magnitude><value>1.9356857855490808</value></magnitude><type>M</type><methodID>weighted average</methodID><stationCount>4</stationCount></magnitude></origin><event publicID="gempa2025hehp"><preferredOriginID>de.gempa.tb1.Origin/20250411204255.712677.65617</preferredOriginID><preferredMagnitudeID>de.gempa.tb1.Magnitude/20250411204303.521488.141299</preferredMagnitudeID><description><text>Northern Chile</text><type>region name</type></description><originReference>de.gempa.tb1.Origin/20250411204255.712677.65617</originReference></event></EventParameters></seiscomp>