<?xml version="1.0" encoding="UTF-8"?>
<seiscomp xmlns="http://geofon.gfz-potsdam.de/ns/seiscomp3-schema/0.13" version="0.13"><EventParameters><pick publicID="de.gempa.tb1.Pick/20250413200639.156228.124648"><time><value>2025-04-13T20:06:27.633131Z</value></time><waveformID networkCode="NZ" stationCode="TMVZ" locationCode="10" channelCode="HHZ"/><filterID>BW(4,0.7,2)</filterID><methodID>AIC</methodID><horizontalSlowness><value>3.244829647936126</value></horizontalSlowness><backazimuth><value>290.24783319227845</value></backazimuth><phaseHint>P</phaseHint><evaluationMode>automatic</evaluationMode><comment><text>120204.62739321444</text><id>DFX:rectilinearity</id></comment></pick><pick publicID="de.gempa.tb1.Pick/20250413200640.158791.124650"><time><value>2025-04-13T20:06:27.23Z</value></time><waveformID networkCode="NZ" stationCode="OTVZ" locationCode="10" channelCode="HHZ"/><filterID>BW(4,0.7,2)</filterID><methodID>AIC</methodID><horizontalSlowness><value>2.933426845365972</value></horizontalSlowness><backazimuth><value>67.1750380574523</value></backazimuth><phaseHint>P</phaseHint><evaluationMode>automatic</evaluationMode><comment><text>302180.44164886855</text><id>DFX:rectilinearity</id></comment></pick><pick publicID="de.gempa.tb1.Pick/20250413200644.166922.124652"><time><value>2025-04-13T20:06:29.41Z</value></time><waveformID networkCode="NZ" stationCode="FWVZ" locationCode="10" channelCode="HHZ"/><filterID>BW(4,0.7,2)</filterID><methodID>AIC</methodID><horizontalSlowness><value>9.656530831646116</value></horizontalSlowness><backazimuth><value>125.15092354565897</value></backazimuth><phaseHint>P</phaseHint><evaluationMode>automatic</evaluationMode><comment><text>8802.715682589804</text><id>DFX:rectilinearity</id></comment></pick><pick publicID="de.gempa.tb1.Pick/20250413200644.16872.124654"><time><value>2025-04-13T20:06:29.76Z</value></time><waveformID networkCode="NZ" stationCode="TRVZ" locationCode="10" channelCode="HHZ"/><filterID>BW(4,0.7,2)</filterID><methodID>AIC</methodID><horizontalSlowness><value>13.12950463414175</value></horizontalSlowness><backazimuth><value>48.054896657358</value></backazimuth><phaseHint>P</phaseHint><evaluationMode>automatic</evaluationMode><comment><text>9074.731824753322</text><id>DFX:rectilinearity</id></comment></pick><pick publicID="de.gempa.tb1.Pick/20250413201120.525108.124675"><time><value>2025-04-13T20:10:05.344536Z</value></time><waveformID networkCode="GE" stationCode="PMG" locationCode="00" channelCode="BHZ"/><filterID>BW(4,0.7,2)</filterID><methodID>AIC</methodID><horizontalSlowness><value>4.777830585924349</value></horizontalSlowness><backazimuth><value>127.29305701379747</value></backazimuth><phaseHint>P</phaseHint><evaluationMode>automatic</evaluationMode><comment><text>90026.945067193</text><id>DFX:rectilinearity</id></comment></pick><pick publicID="de.gempa.tb1.Pick/20250413201233.4648.124678"><time><value>2025-04-13T20:12:10.419538Z</value></time><waveformID networkCode="GE" stationCode="FAKI" channelCode="BHZ"/><filterID>BW(4,0.7,2)</filterID><methodID>AIC</methodID><horizontalSlowness><value>2.809671636853354</value></horizontalSlowness><backazimuth><value>94.5152461585147</value></backazimuth><phaseHint>P</phaseHint><evaluationMode>automatic</evaluationMode><comment><text>16218.028482115593</text><id>DFX:rectilinearity</id></comment></pick><pick publicID="de.gempa.tb1.Pick/20250413201238.443889.124680"><time><value>2025-04-13T20:12:18.469538Z</value></time><waveformID networkCode="GE" stationCode="BNDI" channelCode="BHZ"/><filterID>BW(4,0.7,2)</filterID><methodID>AIC</methodID><horizontalSlowness><value>3.286133797793281</value></horizontalSlowness><backazimuth><value>189.57620309614163</value></backazimuth><phaseHint>P</phaseHint><evaluationMode>automatic</evaluationMode><comment><text>60594.1014866178</text><id>DFX:rectilinearity</id></comment></pick><pick publicID="de.gempa.tb1.Pick/20250413201257.49428.124683"><time><value>2025-04-13T20:12:39.57186Z</value></time><waveformID networkCode="GE" stationCode="SOEI" channelCode="BHZ"/><filterID>BW(4,0.7,2)</filterID><methodID>AIC</methodID><horizontalSlowness><value>1.4585477678680578</value></horizontalSlowness><backazimuth><value>121.06040065049385</value></backazimuth><phaseHint>P</phaseHint><evaluationMode>automatic</evaluationMode><comment><text>81697.83646306142</text><id>DFX:rectilinearity</id></comment></pick><origin publicID="de.gempa.tb1.Origin/20250413201315.318656.156904"><time><value>2025-04-13T20:02:46.061253Z</value><uncertainty>10.650912284851074</uncertainty></time><latitude><value>-25.047048568725586</value><uncertainty>35.16604232788086</uncertainty></latitude><longitude><value>-174.62265014648438</value><uncertainty>101.7870864868164</uncertainty></longitude><depth><value>118.23545837402344</value><uncertainty>62.48471069335938</uncertainty></depth><depthType>from location</depthType><methodID>LOCSAT</methodID><earthModelID>iasp91</earthModelID><quality><associatedPhaseCount>8</associatedPhaseCount><usedPhaseCount>8</usedPhaseCount><associatedStationCount>8</associatedStationCount><usedStationCount>8</usedStationCount><depthPhaseCount>0</depthPhaseCount><standardError>0.4659659691335762</standardError><azimuthalGap>281.537353515625</azimuthalGap><maximumDistance>59.8118782043457</maximumDistance><minimumDistance>16.230222702026367</minimumDistance><medianDistance>39.511180877685547</medianDistance></quality><uncertainty><minHorizontalUncertainty>52.93268966674805</minHorizontalUncertainty><maxHorizontalUncertainty>224.7993621826172</maxHorizontalUncertainty><azimuthMaxHorizontalUncertainty>75.76669311523438</azimuthMaxHorizontalUncertainty><preferredDescription>horizontal uncertainty</preferredDescription></uncertainty><evaluationMode>automatic</evaluationMode><comment><text>281.54</text><id>maxGap</id></comment><arrival><pickID>de.gempa.tb1.Pick/20250413200639.156228.124648</pickID><phase>P</phase><azimuth>207.88429260253906</azimuth><distance>16.230222702026367</distance><timeResidual>0.51263427734375</timeResidual><timeUsed>true</timeUsed><horizontalSlownessUsed>false</horizontalSlownessUsed><backazimuthUsed>false</backazimuthUsed><weight>1</weight></arrival><arrival><pickID>de.gempa.tb1.Pick/20250413200640.158791.124650</pickID><phase>P</phase><azimuth>207.88265991210938</azimuth><distance>16.286527633666992</distance><timeResidual>-0.5768280029296875</timeResidual><timeUsed>true</timeUsed><horizontalSlownessUsed>false</horizontalSlownessUsed><backazimuthUsed>false</backazimuthUsed><weight>1</weight></arrival><arrival><pickID>de.gempa.tb1.Pick/20250413200644.166922.124652</pickID><phase>P</phase><azimuth>207.9636688232422</azimuth><distance>16.410938262939453</distance><timeResidual>0.0896759033203125</timeResidual><timeUsed>true</timeUsed><horizontalSlownessUsed>false</horizontalSlownessUsed><backazimuthUsed>false</backazimuthUsed><weight>1</weight></arrival><arrival><pickID>de.gempa.tb1.Pick/20250413200644.16872.124654</pickID><phase>P</phase><azimuth>207.89065551757812</azimuth><distance>16.449785232543945</distance><timeResidual>-0.030364990234375</timeResidual><timeUsed>true</timeUsed><horizontalSlownessUsed>false</horizontalSlownessUsed><backazimuthUsed>false</backazimuthUsed><weight>1</weight></arrival><arrival><pickID>de.gempa.tb1.Pick/20250413201120.525108.124675</pickID><phase>P</phase><azimuth>286.3453063964844</azimuth><distance>39.511180877685547</distance><timeResidual>0.0016632080078125</timeResidual><timeUsed>true</timeUsed><horizontalSlownessUsed>false</horizontalSlownessUsed><backazimuthUsed>false</backazimuthUsed><weight>1</weight></arrival><arrival><pickID>de.gempa.tb1.Pick/20250413201233.4648.124678</pickID><phase>P</phase><azimuth>284.4862060546875</azimuth><distance>55.60807418823242</distance><timeResidual>0.5788726806640625</timeResidual><timeUsed>true</timeUsed><horizontalSlownessUsed>false</horizontalSlownessUsed><backazimuthUsed>false</backazimuthUsed><weight>1</weight></arrival><arrival><pickID>de.gempa.tb1.Pick/20250413201238.443889.124680</pickID><phase>P</phase><azimuth>281.4840393066406</azimuth><distance>56.94060516357422</distance><timeResidual>-0.8496551513671875</timeResidual><timeUsed>true</timeUsed><horizontalSlownessUsed>false</horizontalSlownessUsed><backazimuthUsed>false</backazimuthUsed><weight>1</weight></arrival><arrival><pickID>de.gempa.tb1.Pick/20250413201257.49428.124683</pickID><phase>P</phase><azimuth>273.1712951660156</azimuth><distance>59.8118782043457</distance><timeResidual>0.2747650146484375</timeResidual><timeUsed>true</timeUsed><horizontalSlownessUsed>false</horizontalSlownessUsed><backazimuthUsed>false</backazimuthUsed><weight>1</weight></arrival><magnitude publicID="de.gempa.tb1.Magnitude/20250413201315.333835.397353"><magnitude><value>6.156952251454254</value></magnitude><type>M</type><methodID>weighted average</methodID><stationCount>7</stationCount></magnitude></origin><event publicID="gempa2025hhyi"><preferredOriginID>de.gempa.tb1.Origin/20250413201315.318656.156904</preferredOriginID><preferredMagnitudeID>de.gempa.tb1.Magnitude/20250413201315.333835.397353</preferredMagnitudeID><type>not locatable</type><description><text>South of Tonga Islands</text><type>region name</type></description><originReference>de.gempa.tb1.Origin/20250413201315.318656.156904</originReference></event></EventParameters></seiscomp>