<?xml version="1.0" encoding="UTF-8"?>
<seiscomp xmlns="http://geofon.gfz-potsdam.de/ns/seiscomp3-schema/0.13" version="0.13"><EventParameters><pick publicID="de.gempa.tb1.Pick/20250411175541.722094.119176"><time><value>2025-04-11T17:55:36.518393Z</value></time><waveformID networkCode="CX" stationCode="PB15" channelCode="HHZ"/><filterID>ITAPER(4)&gt;&gt;BW(4,4,20)</filterID><methodID>AIC</methodID><horizontalSlowness><value>15.820285203429535</value></horizontalSlowness><backazimuth><value>110.9010632953018</value></backazimuth><phaseHint>P</phaseHint><evaluationMode>automatic</evaluationMode><comment><text>876.4356972889506</text><id>DFX:rectilinearity</id></comment><comment><text>44.162926103111836</text><id>SNR</id></comment></pick><pick publicID="de.gempa.tb1.Pick/20250411175542.600344.119178"><time><value>2025-04-11T17:55:36.72Z</value></time><waveformID networkCode="CX" stationCode="PB19" channelCode="HHZ"/><filterID>ITAPER(4)&gt;&gt;BW(4,4,20)</filterID><methodID>AIC</methodID><horizontalSlowness><value>11.54856697056686</value></horizontalSlowness><backazimuth><value>54.86337503423779</value></backazimuth><phaseHint>P</phaseHint><evaluationMode>automatic</evaluationMode><comment><text>122.25492694974892</text><id>DFX:rectilinearity</id></comment><comment><text>79.96796513399403</text><id>SNR</id></comment></pick><pick publicID="de.gempa.tb1.Pick/20250411175548.645964.119180"><time><value>2025-04-11T17:55:42.228391Z</value></time><waveformID networkCode="CX" stationCode="PB06" channelCode="HHZ"/><filterID>ITAPER(4)&gt;&gt;BW(4,4,20)</filterID><methodID>AIC</methodID><horizontalSlowness><value>14.210936643154996</value></horizontalSlowness><backazimuth><value>99.01420079822734</value></backazimuth><phaseHint>P</phaseHint><evaluationMode>automatic</evaluationMode><comment><text>75.53002757506509</text><id>DFX:rectilinearity</id></comment><comment><text>27.27827602830215</text><id>SNR</id></comment></pick><pick publicID="de.gempa.tb1.Pick/20250411175600.795786.119182"><time><value>2025-04-11T17:55:53.188394Z</value></time><waveformID networkCode="CX" stationCode="PB03" channelCode="HHZ"/><filterID>ITAPER(4)&gt;&gt;BW(4,4,20)</filterID><methodID>AIC</methodID><horizontalSlowness><value>12.7894982243709</value></horizontalSlowness><backazimuth><value>157.1601029622635</value></backazimuth><phaseHint>P</phaseHint><evaluationMode>automatic</evaluationMode><comment><text>19.984923503911553</text><id>DFX:rectilinearity</id></comment><comment><text>76.03418317243192</text><id>SNR</id></comment></pick><pick publicID="de.gempa.tb1.Pick/20250411175605.472865.119184"><time><value>2025-04-11T17:55:55.560001Z</value></time><waveformID networkCode="CX" stationCode="PB09" channelCode="HHZ"/><filterID>ITAPER(4)&gt;&gt;BW(4,4,20)</filterID><methodID>AIC</methodID><horizontalSlowness><value>12.612731119456848</value></horizontalSlowness><backazimuth><value>310.03587379597485</value></backazimuth><phaseHint>P</phaseHint><evaluationMode>automatic</evaluationMode><comment><text>6.096780996116631</text><id>DFX:rectilinearity</id></comment><comment><text>32.23732949914642</text><id>SNR</id></comment></pick><pick publicID="de.gempa.tb1.Pick/20250411175606.985935.119186"><time><value>2025-04-11T17:55:53.11Z</value></time><waveformID networkCode="CX" stationCode="PB10" channelCode="HHZ"/><filterID>ITAPER(4)&gt;&gt;BW(4,4,20)</filterID><methodID>AIC</methodID><horizontalSlowness><value>9.474852900293483</value></horizontalSlowness><backazimuth><value>70.89187754848989</value></backazimuth><phaseHint>P</phaseHint><evaluationMode>automatic</evaluationMode><comment><text>103.57177473931753</text><id>DFX:rectilinearity</id></comment><comment><text>19.436158909236067</text><id>SNR</id></comment></pick><pick publicID="de.gempa.tb1.Pick/20250411175610.066831.119191"><time><value>2025-04-11T17:55:59.118396Z</value></time><waveformID networkCode="CX" stationCode="PB07" channelCode="HHZ"/><filterID>ITAPER(4)&gt;&gt;BW(4,4,20)</filterID><methodID>AIC</methodID><horizontalSlowness><value>18.413046214265218</value></horizontalSlowness><backazimuth><value>166.95956079116965</value></backazimuth><phaseHint>P</phaseHint><evaluationMode>automatic</evaluationMode><comment><text>415.2632583466074</text><id>DFX:rectilinearity</id></comment><comment><text>102.93321133609014</text><id>SNR</id></comment></pick><pick publicID="de.gempa.tb1.Pick/20250411175611.518512.119193"><time><value>2025-04-11T17:56:05.358393Z</value></time><waveformID networkCode="CX" stationCode="PB02" channelCode="HHZ"/><filterID>ITAPER(4)&gt;&gt;BW(4,4,20)</filterID><methodID>AIC</methodID><horizontalSlowness><value>10.650635074123572</value></horizontalSlowness><backazimuth><value>157.460238655052</value></backazimuth><phaseHint>P</phaseHint><evaluationMode>automatic</evaluationMode><comment><text>113.62509867097924</text><id>DFX:rectilinearity</id></comment><comment><text>58.88022540378258</text><id>SNR</id></comment></pick><pick publicID="de.gempa.tb1.Pick/20250411175614.586979.119195"><time><value>2025-04-11T17:56:08.828393Z</value></time><waveformID networkCode="CX" stationCode="PB01" channelCode="HHZ"/><filterID>ITAPER(4)&gt;&gt;BW(4,4,20)</filterID><methodID>AIC</methodID><horizontalSlowness><value>6.38620998552164</value></horizontalSlowness><backazimuth><value>186.50672707622581</value></backazimuth><phaseHint>P</phaseHint><evaluationMode>automatic</evaluationMode><comment><text>82.99946717880589</text><id>DFX:rectilinearity</id></comment><comment><text>69.92801609549215</text><id>SNR</id></comment></pick><pick publicID="de.gempa.tb1.Pick/20250411175626.493945.119198"><time><value>2025-04-11T17:56:14.389999Z</value></time><waveformID networkCode="CX" stationCode="PATCX" channelCode="HHZ"/><filterID>ITAPER(4)&gt;&gt;BW(4,4,20)</filterID><methodID>AIC</methodID><horizontalSlowness><value>18.90495973673286</value></horizontalSlowness><backazimuth><value>69.26053279182291</value></backazimuth><phaseHint>P</phaseHint><evaluationMode>automatic</evaluationMode><comment><text>251.3921794420364</text><id>DFX:rectilinearity</id></comment><comment><text>7.904897593880394</text><id>SNR</id></comment></pick><origin publicID="de.gempa.tb1.Origin/20250411175626.497183.62546"><time><value>2025-04-11T17:55:26.502205Z</value><uncertainty>0.7773253321647644</uncertainty></time><latitude><value>-23.426578521728516</value><uncertainty>3.9117026329040527</uncertainty></latitude><longitude><value>-69.02226257324219</value><uncertainty>8.00538444519043</uncertainty></longitude><depth><value>0</value></depth><depthType>operator assigned</depthType><methodID>LOCSAT</methodID><earthModelID>iasp91_scanloc</earthModelID><quality><associatedPhaseCount>10</associatedPhaseCount><usedPhaseCount>10</usedPhaseCount><associatedStationCount>10</associatedStationCount><usedStationCount>10</usedStationCount><depthPhaseCount>0</depthPhaseCount><standardError>1.1687852056205614</standardError><azimuthalGap>214.4562530517578</azimuthalGap><maximumDistance>2.797173023223877</maximumDistance><minimumDistance>0.4661538600921631</minimumDistance><medianDistance>1.6351330280303955</medianDistance></quality><uncertainty><minHorizontalUncertainty>7.777427673339844</minHorizontalUncertainty><maxHorizontalUncertainty>17.462718963623047</maxHorizontalUncertainty><azimuthMaxHorizontalUncertainty>101.63724517822266</azimuthMaxHorizontalUncertainty><preferredDescription>horizontal uncertainty</preferredDescription></uncertainty><evaluationMode>automatic</evaluationMode><evaluationStatus>confirmed</evaluationStatus><comment><text>0.00</text><id>mismatchScore</id></comment><comment><text>mismatchScore</text><id>scevalMethod</id></comment><arrival><pickID>de.gempa.tb1.Pick/20250411175541.722094.119176</pickID><phase>P</phase><azimuth>297.6876220703125</azimuth><distance>0.4661538600921631</distance><timeResidual>1.0750341415405273</timeResidual><timeUsed>true</timeUsed><horizontalSlownessUsed>false</horizontalSlownessUsed><backazimuthUsed>false</backazimuthUsed><weight>1</weight></arrival><arrival><pickID>de.gempa.tb1.Pick/20250411175542.600344.119178</pickID><phase>P</phase><azimuth>207.28334045410156</azimuth><distance>0.5358668565750122</distance><timeResidual>-0.05954265594482422</timeResidual><timeUsed>true</timeUsed><horizontalSlownessUsed>false</horizontalSlownessUsed><backazimuthUsed>false</backazimuthUsed><weight>1</weight></arrival><arrival><pickID>de.gempa.tb1.Pick/20250411175548.645964.119180</pickID><phase>P</phase><azimuth>324.6869201660156</azimuth><distance>0.8780218362808228</distance><timeResidual>-1.1151084899902344</timeResidual><timeUsed>true</timeUsed><horizontalSlownessUsed>false</horizontalSlownessUsed><backazimuthUsed>false</backazimuthUsed><weight>1</weight></arrival><arrival><pickID>de.gempa.tb1.Pick/20250411175600.795786.119182</pickID><phase>P</phase><azimuth>333.6657409667969</azimuth><distance>1.5285735130310059</distance><timeResidual>-1.8722810745239258</timeResidual><timeUsed>true</timeUsed><horizontalSlownessUsed>false</horizontalSlownessUsed><backazimuthUsed>false</backazimuthUsed><weight>1</weight></arrival><arrival><pickID>de.gempa.tb1.Pick/20250411175605.472865.119184</pickID><phase>P</phase><azimuth>352.82708740234375</azimuth><distance>1.6351330280303955</distance><timeResidual>-0.9675493240356445</timeResidual><timeUsed>true</timeUsed><horizontalSlownessUsed>false</horizontalSlownessUsed><backazimuthUsed>false</backazimuthUsed><weight>1</weight></arrival><arrival><pickID>de.gempa.tb1.Pick/20250411175606.985935.119186</pickID><phase>P</phase><azimuth>266.1797180175781</azimuth><distance>1.4092224836349487</distance><timeResidual>-0.3062620162963867</timeResidual><timeUsed>true</timeUsed><horizontalSlownessUsed>false</horizontalSlownessUsed><backazimuthUsed>false</backazimuthUsed><weight>1</weight></arrival><arrival><pickID>de.gempa.tb1.Pick/20250411175610.066831.119191</pickID><phase>P</phase><azimuth>334.5682678222656</azimuth><distance>1.8708035945892334</distance><timeResidual>-0.6527109146118164</timeResidual><timeUsed>true</timeUsed><horizontalSlownessUsed>false</horizontalSlownessUsed><backazimuthUsed>false</backazimuthUsed><weight>1</weight></arrival><arrival><pickID>de.gempa.tb1.Pick/20250411175611.518512.119193</pickID><phase>P</phase><azimuth>338.74066162109375</azimuth><distance>2.247347354888916</distance><timeResidual>0.40455150604248047</timeResidual><timeUsed>true</timeUsed><horizontalSlownessUsed>false</horizontalSlownessUsed><backazimuthUsed>false</backazimuthUsed><weight>1</weight></arrival><arrival><pickID>de.gempa.tb1.Pick/20250411175614.586979.119195</pickID><phase>P</phase><azimuth>349.6139221191406</azimuth><distance>2.410753011703491</distance><timeResidual>1.6253080368041992</timeResidual><timeUsed>true</timeUsed><horizontalSlownessUsed>false</horizontalSlownessUsed><backazimuthUsed>false</backazimuthUsed><weight>1</weight></arrival><arrival><pickID>de.gempa.tb1.Pick/20250411175626.493945.119198</pickID><phase>P</phase><azimuth>337.7747802734375</azimuth><distance>2.797173023223877</distance><timeResidual>1.8684682846069336</timeResidual><timeUsed>true</timeUsed><horizontalSlownessUsed>false</horizontalSlownessUsed><backazimuthUsed>false</backazimuthUsed><weight>1</weight></arrival><magnitude publicID="de.gempa.tb1.Magnitude/20250411175626.502224.126787"><magnitude><value>2.7319943499112824</value></magnitude><type>M</type><methodID>weighted average</methodID><stationCount>7</stationCount></magnitude></origin><event publicID="gempa2025hecb"><preferredOriginID>de.gempa.tb1.Origin/20250411175626.497183.62546</preferredOriginID><preferredMagnitudeID>de.gempa.tb1.Magnitude/20250411175626.502224.126787</preferredMagnitudeID><description><text>Northern Chile</text><type>region name</type></description><originReference>de.gempa.tb1.Origin/20250411175626.497183.62546</originReference></event></EventParameters></seiscomp>