<?xml version="1.0" encoding="UTF-8"?>
<seiscomp xmlns="http://geofon.gfz-potsdam.de/ns/seiscomp3-schema/0.13" version="0.13"><EventParameters><pick publicID="de.gempa.tb1.Pick/20250413175315.546976.132882"><time><value>2025-04-13T17:53:11.358393Z</value></time><waveformID networkCode="CX" stationCode="PB01" channelCode="HHZ"/><filterID>ITAPER(4)&gt;&gt;BW(4,4,20)</filterID><methodID>AIC</methodID><horizontalSlowness><value>3.873744831170867</value></horizontalSlowness><backazimuth><value>227.7932838717058</value></backazimuth><phaseHint>P</phaseHint><evaluationMode>automatic</evaluationMode><comment><text>8.62357707268033</text><id>DFX:rectilinearity</id></comment><comment><text>115.02748437484793</text><id>SNR</id></comment></pick><pick publicID="de.gempa.tb1.Pick/20250413175322.240779.132884"><time><value>2025-04-13T17:53:13.110001Z</value></time><waveformID networkCode="CX" stationCode="PB09" channelCode="HHZ"/><filterID>ITAPER(4)&gt;&gt;BW(4,4,20)</filterID><methodID>AIC</methodID><horizontalSlowness><value>19.097969288161256</value></horizontalSlowness><backazimuth><value>252.6817265384109</value></backazimuth><phaseHint>P</phaseHint><evaluationMode>automatic</evaluationMode><comment><text>14.421764700211243</text><id>DFX:rectilinearity</id></comment><comment><text>37.70934491548946</text><id>SNR</id></comment></pick><pick publicID="de.gempa.tb1.Pick/20250413175322.508618.132886"><time><value>2025-04-13T17:53:15.298393Z</value></time><waveformID networkCode="CX" stationCode="PB02" channelCode="HHZ"/><filterID>ITAPER(4)&gt;&gt;BW(4,4,20)</filterID><methodID>AIC</methodID><horizontalSlowness><value>15.315714678931835</value></horizontalSlowness><backazimuth><value>57.89872494503669</value></backazimuth><phaseHint>P</phaseHint><evaluationMode>automatic</evaluationMode><comment><text>55.16422096143174</text><id>DFX:rectilinearity</id></comment><comment><text>80.7885058910825</text><id>SNR</id></comment></pick><pick publicID="de.gempa.tb1.Pick/20250413175322.589123.132888"><time><value>2025-04-13T17:53:16.618391Z</value></time><waveformID networkCode="CX" stationCode="PB07" channelCode="HHZ"/><filterID>ITAPER(4)&gt;&gt;BW(4,4,20)</filterID><methodID>AIC</methodID><horizontalSlowness><value>18.416364063815283</value></horizontalSlowness><backazimuth><value>78.45559160361003</value></backazimuth><phaseHint>P</phaseHint><evaluationMode>automatic</evaluationMode><comment><text>151.2277716242516</text><id>DFX:rectilinearity</id></comment><comment><text>33.033943240296047</text><id>SNR</id></comment></pick><pick publicID="de.gempa.tb1.Pick/20250413175325.34729.132890"><time><value>2025-04-13T17:53:18.389999Z</value></time><waveformID networkCode="CX" stationCode="PATCX" channelCode="HHZ"/><filterID>ITAPER(4)&gt;&gt;BW(4,4,20)</filterID><methodID>AIC</methodID><horizontalSlowness><value>22.48645454827632</value></horizontalSlowness><backazimuth><value>247.6176858958297</value></backazimuth><phaseHint>P</phaseHint><evaluationMode>automatic</evaluationMode><comment><text>336.2308585903504</text><id>DFX:rectilinearity</id></comment><comment><text>34.139430830323917</text><id>SNR</id></comment></pick><pick publicID="de.gempa.tb1.Pick/20250413175325.555006.132892"><time><value>2025-04-13T17:53:17.788394Z</value></time><waveformID networkCode="CX" stationCode="PB03" channelCode="HHZ"/><filterID>ITAPER(4)&gt;&gt;BW(4,4,20)</filterID><methodID>AIC</methodID><horizontalSlowness><value>12.248721818586274</value></horizontalSlowness><backazimuth><value>187.11737502095264</value></backazimuth><phaseHint>P</phaseHint><evaluationMode>automatic</evaluationMode><comment><text>23.84789896253765</text><id>DFX:rectilinearity</id></comment><comment><text>16.884471742211847</text><id>SNR</id></comment></pick><pick publicID="de.gempa.tb1.Pick/20250413175333.497655.132894"><time><value>2025-04-13T17:53:25.19Z</value></time><waveformID networkCode="CX" stationCode="PSGCX" channelCode="HHZ"/><filterID>ITAPER(4)&gt;&gt;BW(4,4,20)</filterID><methodID>AIC</methodID><horizontalSlowness><value>12.7033191585119</value></horizontalSlowness><backazimuth><value>101.61682314544261</value></backazimuth><phaseHint>P</phaseHint><evaluationMode>automatic</evaluationMode><comment><text>28.63066940226622</text><id>DFX:rectilinearity</id></comment><comment><text>7.018755296164374</text><id>SNR</id></comment></pick><pick publicID="de.gempa.tb1.Pick/20250413175338.672422.132896"><time><value>2025-04-13T17:53:25.978393Z</value></time><waveformID networkCode="CX" stationCode="PB01" channelCode="HHN"/><filterID>ITAPER(2)&gt;&gt;BW(3,3,20)</filterID><methodID>L2-AIC-GRID</methodID><horizontalSlowness><value>20.33311227002216</value></horizontalSlowness><backazimuth><value>253.34214854421197</value></backazimuth><phaseHint>S</phaseHint><evaluationMode>automatic</evaluationMode><comment><text>390.83223790618933</text><id>DFX:rectilinearity</id></comment><comment><text>de.gempa.tb1.Pick/20250413175315.546976.132882</text><id>RefPickID</id></comment><comment><text>11.32681496341718</text><id>SNR</id></comment></pick><pick publicID="de.gempa.tb1.Pick/20250413175340.487445.132897"><time><value>2025-04-13T17:53:32.948393Z</value></time><waveformID networkCode="CX" stationCode="PB02" channelCode="HHN"/><filterID>ITAPER(2)&gt;&gt;BW(3,3,20)</filterID><methodID>L2-AIC-GRID</methodID><horizontalSlowness><value>23.15511066865872</value></horizontalSlowness><backazimuth><value>253.16829622263035</value></backazimuth><phaseHint>S</phaseHint><evaluationMode>automatic</evaluationMode><comment><text>2967.746110862312</text><id>DFX:rectilinearity</id></comment><comment><text>de.gempa.tb1.Pick/20250413175322.508618.132886</text><id>RefPickID</id></comment><comment><text>9.023030062985123</text><id>SNR</id></comment></pick><pick publicID="de.gempa.tb1.Pick/20250413175344.771576.132898"><time><value>2025-04-13T17:53:36.748394Z</value></time><waveformID networkCode="CX" stationCode="PB03" channelCode="HHN"/><filterID>ITAPER(2)&gt;&gt;BW(3,3,20)</filterID><methodID>L2-AIC-GRID</methodID><horizontalSlowness><value>12.7691123110013</value></horizontalSlowness><backazimuth><value>184.36881356709156</value></backazimuth><phaseHint>S</phaseHint><evaluationMode>automatic</evaluationMode><comment><text>360.11444234756084</text><id>DFX:rectilinearity</id></comment><comment><text>de.gempa.tb1.Pick/20250413175325.555006.132892</text><id>RefPickID</id></comment><comment><text>12.7209355266448</text><id>SNR</id></comment></pick><pick publicID="de.gempa.tb1.Pick/20250413175345.974611.132899"><time><value>2025-04-13T17:53:28.980001Z</value></time><waveformID networkCode="CX" stationCode="PB09" channelCode="HHN"/><filterID>ITAPER(2)&gt;&gt;BW(3,3,20)</filterID><methodID>L2-AIC-GRID</methodID><horizontalSlowness><value>21.548141201436447</value></horizontalSlowness><backazimuth><value>153.57714262018416</value></backazimuth><phaseHint>S</phaseHint><evaluationMode>automatic</evaluationMode><comment><text>862.3066180572955</text><id>DFX:rectilinearity</id></comment><comment><text>de.gempa.tb1.Pick/20250413175322.240779.132884</text><id>RefPickID</id></comment><comment><text>5.603446660999349</text><id>SNR</id></comment></pick><pick publicID="de.gempa.tb1.Pick/20250413175346.455164.132900"><time><value>2025-04-13T17:53:37.789999Z</value></time><waveformID networkCode="CX" stationCode="PATCX" channelCode="HHN"/><filterID>ITAPER(2)&gt;&gt;BW(3,3,20)</filterID><methodID>L2-AIC-GRID</methodID><horizontalSlowness><value>21.938109109227497</value></horizontalSlowness><backazimuth><value>234.99547176202236</value></backazimuth><phaseHint>S</phaseHint><evaluationMode>automatic</evaluationMode><comment><text>839.2370346219566</text><id>DFX:rectilinearity</id></comment><comment><text>de.gempa.tb1.Pick/20250413175325.34729.132890</text><id>RefPickID</id></comment><comment><text>10.186248911326597</text><id>SNR</id></comment></pick><pick publicID="de.gempa.tb1.Pick/20250413175400.6127.132909"><time><value>2025-04-13T17:53:50.38Z</value></time><waveformID networkCode="CX" stationCode="PSGCX" channelCode="HHN"/><filterID>ITAPER(2)&gt;&gt;BW(3,3,20)</filterID><methodID>L2-AIC-GRID</methodID><horizontalSlowness><value>20.51067212987348</value></horizontalSlowness><backazimuth><value>282.0909542274159</value></backazimuth><phaseHint>S</phaseHint><evaluationMode>automatic</evaluationMode><comment><text>24.39041443308197</text><id>DFX:rectilinearity</id></comment><comment><text>de.gempa.tb1.Pick/20250413175333.497655.132894</text><id>RefPickID</id></comment><comment><text>10.212072344719942</text><id>SNR</id></comment></pick><pick publicID="de.gempa.tb1.Pick/20250413175400.614985.132910"><time><value>2025-04-13T17:53:35.138391Z</value></time><waveformID networkCode="CX" stationCode="PB07" channelCode="HHN"/><filterID>ITAPER(2)&gt;&gt;BW(3,3,20)</filterID><methodID>L2-AIC-GRID</methodID><horizontalSlowness><value>21.822049444663055</value></horizontalSlowness><backazimuth><value>320.5331195339759</value></backazimuth><phaseHint>S</phaseHint><evaluationMode>automatic</evaluationMode><comment><text>7766.388697891784</text><id>DFX:rectilinearity</id></comment><comment><text>de.gempa.tb1.Pick/20250413175322.589123.132888</text><id>RefPickID</id></comment><comment><text>10.9565782675203</text><id>SNR</id></comment></pick><origin publicID="de.gempa.tb1.Origin/20250413175402.393993.116714"><time><value>2025-04-13T17:52:52.579995Z</value><uncertainty>0.9027894139289856</uncertainty></time><latitude><value>-21.08951187133789</value><uncertainty>4.0878305435180664</uncertainty></latitude><longitude><value>-68.78791046142578</value><uncertainty>8.618366241455078</uncertainty></longitude><depth><value>119.34363555908203</value><uncertainty>9.069671630859375</uncertainty></depth><depthType>from location</depthType><methodID>LOCSAT</methodID><earthModelID>iasp91_scanloc</earthModelID><quality><associatedPhaseCount>14</associatedPhaseCount><usedPhaseCount>14</usedPhaseCount><associatedStationCount>7</associatedStationCount><usedStationCount>7</usedStationCount><depthPhaseCount>0</depthPhaseCount><standardError>0.34623841802000466</standardError><azimuthalGap>251.32847595214844</azimuthalGap><maximumDistance>1.942684292793274</maximumDistance><minimumDistance>0.6549193859100342</minimumDistance><medianDistance>1.2038730382919312</medianDistance></quality><uncertainty><minHorizontalUncertainty>7.763220310211182</minHorizontalUncertainty><maxHorizontalUncertainty>18.919113159179688</maxHorizontalUncertainty><azimuthMaxHorizontalUncertainty>76.36653900146484</azimuthMaxHorizontalUncertainty><preferredDescription>horizontal uncertainty</preferredDescription></uncertainty><evaluationMode>automatic</evaluationMode><evaluationStatus>confirmed</evaluationStatus><comment><text>0.10</text><id>mismatchScore</id></comment><comment><text>mismatchScore</text><id>scevalMethod</id></comment><arrival><pickID>de.gempa.tb1.Pick/20250413175315.546976.132882</pickID><phase>P</phase><azimuth>273.9071044921875</azimuth><distance>0.6549193859100342</distance><timeResidual>-0.19684219360351562</timeResidual><timeUsed>true</timeUsed><horizontalSlownessUsed>false</horizontalSlownessUsed><backazimuthUsed>false</backazimuthUsed><weight>1</weight></arrival><arrival><pickID>de.gempa.tb1.Pick/20250413175322.240779.132884</pickID><phase>P</phase><azimuth>210.9370880126953</azimuth><distance>0.8207618594169617</distance><timeResidual>0.19288253784179688</timeResidual><timeUsed>true</timeUsed><horizontalSlownessUsed>false</horizontalSlownessUsed><backazimuthUsed>false</backazimuthUsed><weight>1</weight></arrival><arrival><pickID>de.gempa.tb1.Pick/20250413175322.508618.132886</pickID><phase>P</phase><azimuth>257.3092346191406</azimuth><distance>1.0590623617172241</distance><timeResidual>0.11285400390625</timeResidual><timeUsed>true</timeUsed><horizontalSlownessUsed>false</horizontalSlownessUsed><backazimuthUsed>false</backazimuthUsed><weight>1</weight></arrival><arrival><pickID>de.gempa.tb1.Pick/20250413175322.589123.132888</pickID><phase>P</phase><azimuth>238.02252197265625</azimuth><distance>1.2038730382919312</distance><timeResidual>-0.07448196411132812</timeResidual><timeUsed>true</timeUsed><horizontalSlownessUsed>false</horizontalSlownessUsed><backazimuthUsed>false</backazimuthUsed><weight>1</weight></arrival><arrival><pickID>de.gempa.tb1.Pick/20250413175325.34729.132890</pickID><phase>P</phase><azimuth>281.5970458984375</azimuth><distance>1.303507685661316</distance><timeResidual>0.6076221466064453</timeResidual><timeUsed>true</timeUsed><horizontalSlownessUsed>false</horizontalSlownessUsed><backazimuthUsed>false</backazimuthUsed><weight>1</weight></arrival><arrival><pickID>de.gempa.tb1.Pick/20250413175325.555006.132892</pickID><phase>P</phase><azimuth>223.0979766845703</azimuth><distance>1.3106191158294678</distance><timeResidual>-0.06595039367675781</timeResidual><timeUsed>true</timeUsed><horizontalSlownessUsed>false</horizontalSlownessUsed><backazimuthUsed>false</backazimuthUsed><weight>1</weight></arrival><arrival><pickID>de.gempa.tb1.Pick/20250413175333.497655.132894</pickID><phase>P</phase><azimuth>319.6086120605469</azimuth><distance>1.942684292793274</distance><timeResidual>-0.1422290802001953</timeResidual><timeUsed>true</timeUsed><horizontalSlownessUsed>false</horizontalSlownessUsed><backazimuthUsed>false</backazimuthUsed><weight>1</weight></arrival><arrival><pickID>de.gempa.tb1.Pick/20250413175338.672422.132896</pickID><phase>S</phase><azimuth>273.9071044921875</azimuth><distance>0.6549193859100342</distance><timeResidual>-0.21790122985839844</timeResidual><timeUsed>true</timeUsed><horizontalSlownessUsed>false</horizontalSlownessUsed><backazimuthUsed>false</backazimuthUsed><weight>1</weight></arrival><arrival><pickID>de.gempa.tb1.Pick/20250413175340.487445.132897</pickID><phase>S</phase><azimuth>257.3092346191406</azimuth><distance>1.0590623617172241</distance><timeResidual>0.27890968322753906</timeResidual><timeUsed>true</timeUsed><horizontalSlownessUsed>false</horizontalSlownessUsed><backazimuthUsed>false</backazimuthUsed><weight>1</weight></arrival><arrival><pickID>de.gempa.tb1.Pick/20250413175344.771576.132898</pickID><phase>S</phase><azimuth>223.0979766845703</azimuth><distance>1.3106191158294678</distance><timeResidual>-0.686492919921875</timeResidual><timeUsed>true</timeUsed><horizontalSlownessUsed>false</horizontalSlownessUsed><backazimuthUsed>false</backazimuthUsed><weight>1</weight></arrival><arrival><pickID>de.gempa.tb1.Pick/20250413175345.974611.132899</pickID><phase>S</phase><azimuth>210.9370880126953</azimuth><distance>0.8207618594169617</distance><timeResidual>0.35643959045410156</timeResidual><timeUsed>true</timeUsed><horizontalSlownessUsed>false</horizontalSlownessUsed><backazimuthUsed>false</backazimuthUsed><weight>1</weight></arrival><arrival><pickID>de.gempa.tb1.Pick/20250413175346.455164.132900</pickID><phase>S</phase><azimuth>281.5970458984375</azimuth><distance>1.303507685661316</distance><timeResidual>0.4847354888916016</timeResidual><timeUsed>true</timeUsed><horizontalSlownessUsed>false</horizontalSlownessUsed><backazimuthUsed>false</backazimuthUsed><weight>1</weight></arrival><arrival><pickID>de.gempa.tb1.Pick/20250413175400.6127.132909</pickID><phase>S</phase><azimuth>319.6086120605469</azimuth><distance>1.942684292793274</distance><timeResidual>-0.42707252502441406</timeResidual><timeUsed>true</timeUsed><horizontalSlownessUsed>false</horizontalSlownessUsed><backazimuthUsed>false</backazimuthUsed><weight>1</weight></arrival><arrival><pickID>de.gempa.tb1.Pick/20250413175400.614985.132910</pickID><phase>S</phase><azimuth>238.02252197265625</azimuth><distance>1.2038730382919312</distance><timeResidual>-0.2221813201904297</timeResidual><timeUsed>true</timeUsed><horizontalSlownessUsed>false</horizontalSlownessUsed><backazimuthUsed>false</backazimuthUsed><weight>1</weight></arrival><magnitude publicID="de.gempa.tb1.Magnitude/20250413175410.942023.385421"><magnitude><value>2.573508752440001</value></magnitude><type>M</type><methodID>weighted average</methodID><stationCount>5</stationCount></magnitude></origin><event publicID="gempa2025hhua"><preferredOriginID>de.gempa.tb1.Origin/20250413175402.393993.116714</preferredOriginID><preferredMagnitudeID>de.gempa.tb1.Magnitude/20250413175410.942023.385421</preferredMagnitudeID><description><text>Chile-Bolivia Border Region</text><type>region name</type></description><originReference>de.gempa.tb1.Origin/20250413175402.393993.116714</originReference></event></EventParameters></seiscomp>