<?xml version="1.0" encoding="UTF-8"?>
<seiscomp xmlns="http://geofon.gfz-potsdam.de/ns/seiscomp3-schema/0.13" version="0.13"><EventParameters><pick publicID="de.gempa.tb1.Pick/20250414092104.638203.137062"><time><value>2025-04-14T09:20:57.668393Z</value></time><waveformID networkCode="CX" stationCode="PB03" channelCode="HHZ"/><filterID>ITAPER(4)&gt;&gt;BW(4,4,20)</filterID><methodID>AIC</methodID><horizontalSlowness><value>12.66017689061328</value></horizontalSlowness><backazimuth><value>87.078085170864</value></backazimuth><phaseHint>P</phaseHint><evaluationMode>automatic</evaluationMode><comment><text>12.903633835409977</text><id>DFX:rectilinearity</id></comment><comment><text>66.31596519262675</text><id>SNR</id></comment></pick><pick publicID="de.gempa.tb1.Pick/20250414092105.166281.137064"><time><value>2025-04-14T09:20:53.63Z</value></time><waveformID networkCode="CX" stationCode="PB09" channelCode="HHZ"/><filterID>ITAPER(4)&gt;&gt;BW(4,4,20)</filterID><methodID>AIC</methodID><horizontalSlowness><value>17.100009743799664</value></horizontalSlowness><backazimuth><value>94.16676367646154</value></backazimuth><phaseHint>P</phaseHint><evaluationMode>automatic</evaluationMode><comment><text>8.048362402600532</text><id>DFX:rectilinearity</id></comment><comment><text>151.0625380876676</text><id>SNR</id></comment></pick><pick publicID="de.gempa.tb1.Pick/20250414092106.528461.137066"><time><value>2025-04-14T09:20:58.908393Z</value></time><waveformID networkCode="CX" stationCode="PB01" channelCode="HHZ"/><filterID>ITAPER(4)&gt;&gt;BW(4,4,20)</filterID><methodID>AIC</methodID><horizontalSlowness><value>20.58079428821821</value></horizontalSlowness><backazimuth><value>132.98995819607768</value></backazimuth><phaseHint>P</phaseHint><evaluationMode>automatic</evaluationMode><comment><text>8.2893623413388</text><id>DFX:rectilinearity</id></comment><comment><text>28.8698714702353</text><id>SNR</id></comment></pick><pick publicID="de.gempa.tb1.Pick/20250414092106.655892.137068"><time><value>2025-04-14T09:20:59.988393Z</value></time><waveformID networkCode="CX" stationCode="PB06" channelCode="HHZ"/><filterID>ITAPER(4)&gt;&gt;BW(4,4,20)</filterID><methodID>AIC</methodID><horizontalSlowness><value>11.063648095346016</value></horizontalSlowness><backazimuth><value>278.68420029749956</value></backazimuth><phaseHint>P</phaseHint><evaluationMode>automatic</evaluationMode><comment><text>65.34110077979622</text><id>DFX:rectilinearity</id></comment><comment><text>20.05187108821519</text><id>SNR</id></comment></pick><pick publicID="de.gempa.tb1.Pick/20250414092106.930416.137070"><time><value>2025-04-14T09:20:59.028394Z</value></time><waveformID networkCode="CX" stationCode="PB07" channelCode="HHZ"/><filterID>ITAPER(4)&gt;&gt;BW(4,4,20)</filterID><methodID>AIC</methodID><horizontalSlowness><value>23.5686462547197</value></horizontalSlowness><backazimuth><value>40.036737260755245</value></backazimuth><phaseHint>P</phaseHint><evaluationMode>automatic</evaluationMode><comment><text>83.02664004793414</text><id>DFX:rectilinearity</id></comment><comment><text>135.48724848214604</text><id>SNR</id></comment></pick><pick publicID="de.gempa.tb1.Pick/20250414092108.497904.137072"><time><value>2025-04-14T09:21:00.248393Z</value></time><waveformID networkCode="CX" stationCode="PB02" channelCode="HHZ"/><filterID>ITAPER(4)&gt;&gt;BW(4,4,20)</filterID><methodID>AIC</methodID><horizontalSlowness><value>14.79732910211722</value></horizontalSlowness><backazimuth><value>112.1529223420899</value></backazimuth><phaseHint>P</phaseHint><evaluationMode>automatic</evaluationMode><comment><text>14.559259013333385</text><id>DFX:rectilinearity</id></comment><comment><text>33.607683919161865</text><id>SNR</id></comment></pick><pick publicID="de.gempa.tb1.Pick/20250414092112.409051.137074"><time><value>2025-04-14T09:21:04.479999Z</value></time><waveformID networkCode="CX" stationCode="PATCX" channelCode="HHZ"/><filterID>ITAPER(4)&gt;&gt;BW(4,4,20)</filterID><methodID>AIC</methodID><horizontalSlowness><value>19.17796049582008</value></horizontalSlowness><backazimuth><value>2.6771480870903304</value></backazimuth><phaseHint>P</phaseHint><evaluationMode>automatic</evaluationMode><comment><text>131.1061485668383</text><id>DFX:rectilinearity</id></comment><comment><text>19.258223423047497</text><id>SNR</id></comment></pick><pick publicID="de.gempa.tb1.Pick/20250414092120.793882.137079"><time><value>2025-04-14T09:21:12.958393Z</value></time><waveformID networkCode="CX" stationCode="PB03" channelCode="HHN"/><filterID>ITAPER(2)&gt;&gt;BW(3,3,20)</filterID><methodID>L2-AIC-GRID</methodID><horizontalSlowness><value>14.094029330860286</value></horizontalSlowness><backazimuth><value>243.3614994839366</value></backazimuth><phaseHint>S</phaseHint><evaluationMode>automatic</evaluationMode><comment><text>86.76957461782743</text><id>DFX:rectilinearity</id></comment><comment><text>de.gempa.tb1.Pick/20250414092104.638203.137062</text><id>RefPickID</id></comment><comment><text>11.660983125550905</text><id>SNR</id></comment></pick><pick publicID="de.gempa.tb1.Pick/20250414092124.660205.137082"><time><value>2025-04-14T09:21:15.038393Z</value></time><waveformID networkCode="CX" stationCode="PB01" channelCode="HHN"/><filterID>ITAPER(2)&gt;&gt;BW(3,3,20)</filterID><methodID>L2-AIC-GRID</methodID><horizontalSlowness><value>18.829804439744834</value></horizontalSlowness><backazimuth><value>316.00022108962446</value></backazimuth><phaseHint>S</phaseHint><evaluationMode>automatic</evaluationMode><comment><text>227.0775530268484</text><id>DFX:rectilinearity</id></comment><comment><text>de.gempa.tb1.Pick/20250414092106.528461.137066</text><id>RefPickID</id></comment><comment><text>7.694241500473022</text><id>SNR</id></comment></pick><pick publicID="de.gempa.tb1.Pick/20250414092126.577471.137083"><time><value>2025-04-14T09:21:17.148393Z</value></time><waveformID networkCode="CX" stationCode="PB06" channelCode="HHN"/><filterID>ITAPER(2)&gt;&gt;BW(3,3,20)</filterID><methodID>L2-AIC-GRID</methodID><horizontalSlowness><value>5.248672264922902</value></horizontalSlowness><backazimuth><value>25.933504054142986</value></backazimuth><phaseHint>S</phaseHint><evaluationMode>automatic</evaluationMode><comment><text>79.08892818263219</text><id>DFX:rectilinearity</id></comment><comment><text>de.gempa.tb1.Pick/20250414092106.655892.137068</text><id>RefPickID</id></comment><comment><text>8.072764432962046</text><id>SNR</id></comment></pick><pick publicID="de.gempa.tb1.Pick/20250414092128.537774.137084"><time><value>2025-04-14T09:21:17.318393Z</value></time><waveformID networkCode="CX" stationCode="PB02" channelCode="HHN"/><filterID>ITAPER(2)&gt;&gt;BW(3,3,20)</filterID><methodID>L2-AIC-GRID</methodID><horizontalSlowness><value>17.917745153583471</value></horizontalSlowness><backazimuth><value>56.84027659739887</value></backazimuth><phaseHint>S</phaseHint><evaluationMode>automatic</evaluationMode><comment><text>75.97909638962163</text><id>DFX:rectilinearity</id></comment><comment><text>de.gempa.tb1.Pick/20250414092108.497904.137072</text><id>RefPickID</id></comment><comment><text>5.028782752694839</text><id>SNR</id></comment></pick><origin publicID="de.gempa.tb1.Origin/20250414092128.543739.133788"><time><value>2025-04-14T09:20:37.469392Z</value><uncertainty>1.0499440431594849</uncertainty></time><latitude><value>-21.8268985748291</value><uncertainty>4.083220958709717</uncertainty></latitude><longitude><value>-68.85466003417969</value><uncertainty>12.163515090942383</uncertainty></longitude><depth><value>112.58798217773438</value><uncertainty>11.84145736694336</uncertainty></depth><depthType>from location</depthType><methodID>LOCSAT</methodID><earthModelID>iasp91_scanloc</earthModelID><quality><associatedPhaseCount>11</associatedPhaseCount><usedPhaseCount>11</usedPhaseCount><associatedStationCount>7</associatedStationCount><usedStationCount>7</usedStationCount><depthPhaseCount>0</depthPhaseCount><standardError>0.332054784235249</standardError><azimuthalGap>254.2867736816406</azimuthalGap><maximumDistance>1.5708192586898804</maximumDistance><minimumDistance>0.3611474633216858</minimumDistance><medianDistance>0.9775505661964417</medianDistance></quality><uncertainty><minHorizontalUncertainty>8.680859565734863</minHorizontalUncertainty><maxHorizontalUncertainty>26.105409622192383</maxHorizontalUncertainty><azimuthMaxHorizontalUncertainty>87.3511734008789</azimuthMaxHorizontalUncertainty><preferredDescription>horizontal uncertainty</preferredDescription></uncertainty><evaluationMode>automatic</evaluationMode><evaluationStatus>confirmed</evaluationStatus><comment><text>0.00</text><id>mismatchScore</id></comment><comment><text>mismatchScore</text><id>scevalMethod</id></comment><arrival><pickID>de.gempa.tb1.Pick/20250414092104.638203.137062</pickID><phase>P</phase><azimuth>255.0267639160156</azimuth><distance>0.8628084063529968</distance><timeResidual>0.10228347778320312</timeResidual><timeUsed>true</timeUsed><horizontalSlownessUsed>false</horizontalSlownessUsed><backazimuthUsed>false</backazimuthUsed><weight>1</weight></arrival><arrival><pickID>de.gempa.tb1.Pick/20250414092105.166281.137064</pickID><phase>P</phase><azimuth>274.75250244140625</azimuth><distance>0.3611474633216858</distance><timeResidual>-0.19139480590820312</timeResidual><timeUsed>true</timeUsed><horizontalSlownessUsed>false</horizontalSlownessUsed><backazimuthUsed>false</backazimuthUsed><weight>1</weight></arrival><arrival><pickID>de.gempa.tb1.Pick/20250414092106.528461.137066</pickID><phase>P</phase><azimuth>322.7972106933594</azimuth><distance>0.9775505661964417</distance><timeResidual>0.217376708984375</timeResidual><timeUsed>true</timeUsed><horizontalSlownessUsed>false</horizontalSlownessUsed><backazimuthUsed>false</backazimuthUsed><weight>1</weight></arrival><arrival><pickID>de.gempa.tb1.Pick/20250414092106.655892.137068</pickID><phase>P</phase><azimuth>217.083984375</azimuth><distance>1.0983915328979492</distance><timeResidual>0.0560150146484375</timeResidual><timeUsed>true</timeUsed><horizontalSlownessUsed>false</horizontalSlownessUsed><backazimuthUsed>false</backazimuthUsed><weight>1</weight></arrival><arrival><pickID>de.gempa.tb1.Pick/20250414092106.930416.137070</pickID><phase>P</phase><azimuth>275.7486572265625</azimuth><distance>0.9639570713043213</distance><timeResidual>0.4772510528564453</timeResidual><timeUsed>true</timeUsed><horizontalSlownessUsed>false</horizontalSlownessUsed><backazimuthUsed>false</backazimuthUsed><weight>1</weight></arrival><arrival><pickID>de.gempa.tb1.Pick/20250414092108.497904.137072</pickID><phase>P</phase><azimuth>297.31365966796875</azimuth><distance>1.0928030014038086</distance><timeResidual>0.3677864074707031</timeResidual><timeUsed>true</timeUsed><horizontalSlownessUsed>false</horizontalSlownessUsed><backazimuthUsed>false</backazimuthUsed><weight>1</weight></arrival><arrival><pickID>de.gempa.tb1.Pick/20250414092112.409051.137074</pickID><phase>P</phase><azimuth>309.3604431152344</azimuth><distance>1.5708192586898804</distance><timeResidual>-0.8376007080078125</timeResidual><timeUsed>true</timeUsed><horizontalSlownessUsed>false</horizontalSlownessUsed><backazimuthUsed>false</backazimuthUsed><weight>1</weight></arrival><arrival><pickID>de.gempa.tb1.Pick/20250414092120.793882.137079</pickID><phase>S</phase><azimuth>255.0267639160156</azimuth><distance>0.8628084063529968</distance><timeResidual>-0.1167926788330078</timeResidual><timeUsed>true</timeUsed><horizontalSlownessUsed>false</horizontalSlownessUsed><backazimuthUsed>false</backazimuthUsed><weight>1</weight></arrival><arrival><pickID>de.gempa.tb1.Pick/20250414092124.660205.137082</pickID><phase>S</phase><azimuth>322.7972106933594</azimuth><distance>0.9775505661964417</distance><timeResidual>-0.04170036315917969</timeResidual><timeUsed>true</timeUsed><horizontalSlownessUsed>false</horizontalSlownessUsed><backazimuthUsed>false</backazimuthUsed><weight>1</weight></arrival><arrival><pickID>de.gempa.tb1.Pick/20250414092126.577471.137083</pickID><phase>S</phase><azimuth>217.083984375</azimuth><distance>1.0983915328979492</distance><timeResidual>-0.14872360229492188</timeResidual><timeUsed>true</timeUsed><horizontalSlownessUsed>false</horizontalSlownessUsed><backazimuthUsed>false</backazimuthUsed><weight>1</weight></arrival><arrival><pickID>de.gempa.tb1.Pick/20250414092128.537774.137084</pickID><phase>S</phase><azimuth>297.31365966796875</azimuth><distance>1.0928030014038086</distance><timeResidual>0.1152019500732422</timeResidual><timeUsed>true</timeUsed><horizontalSlownessUsed>false</horizontalSlownessUsed><backazimuthUsed>false</backazimuthUsed><weight>1</weight></arrival><magnitude publicID="de.gempa.tb1.Magnitude/20250414092130.93775.462941"><magnitude><value>2.557189851708415</value></magnitude><type>M</type><methodID>weighted average</methodID><stationCount>7</stationCount></magnitude></origin><event publicID="gempa2025hiyy"><preferredOriginID>de.gempa.tb1.Origin/20250414092128.543739.133788</preferredOriginID><preferredMagnitudeID>de.gempa.tb1.Magnitude/20250414092130.93775.462941</preferredMagnitudeID><description><text>Chile-Bolivia Border Region</text><type>region name</type></description><originReference>de.gempa.tb1.Origin/20250414092128.543739.133788</originReference></event></EventParameters></seiscomp>