<?xml version="1.0" encoding="UTF-8"?>
<seiscomp xmlns="http://geofon.gfz-potsdam.de/ns/seiscomp3-schema/0.13" version="0.13"><EventParameters><pick publicID="de.gempa.tb1.Pick/20250413174431.593451.132788"><time><value>2025-04-13T17:44:26.288393Z</value></time><waveformID networkCode="CX" stationCode="PB01" channelCode="HHZ"/><filterID>ITAPER(4)&gt;&gt;BW(4,4,20)</filterID><methodID>AIC</methodID><horizontalSlowness><value>19.3211726356944</value></horizontalSlowness><backazimuth><value>84.01447185155132</value></backazimuth><phaseHint>P</phaseHint><evaluationMode>automatic</evaluationMode><comment><text>1563.5154987043493</text><id>DFX:rectilinearity</id></comment><comment><text>16.72122747496767</text><id>SNR</id></comment></pick><pick publicID="de.gempa.tb1.Pick/20250413174439.499935.132795"><time><value>2025-04-13T17:44:33.988393Z</value></time><waveformID networkCode="CX" stationCode="PB02" channelCode="HHZ"/><filterID>ITAPER(4)&gt;&gt;BW(4,4,20)</filterID><methodID>AIC</methodID><horizontalSlowness><value>9.538530272752471</value></horizontalSlowness><backazimuth><value>43.02006107115537</value></backazimuth><phaseHint>P</phaseHint><evaluationMode>automatic</evaluationMode><comment><text>35771.28859584527</text><id>DFX:rectilinearity</id></comment><comment><text>35.278657757676427</text><id>SNR</id></comment></pick><pick publicID="de.gempa.tb1.Pick/20250413174442.214928.132798"><time><value>2025-04-13T17:44:30.47Z</value></time><waveformID networkCode="CX" stationCode="PB09" channelCode="HHZ"/><filterID>ITAPER(4)&gt;&gt;BW(4,4,20)</filterID><methodID>AIC</methodID><horizontalSlowness><value>14.882353117375388</value></horizontalSlowness><backazimuth><value>12.514997093028342</value></backazimuth><phaseHint>P</phaseHint><evaluationMode>automatic</evaluationMode><comment><text>831.208442120946</text><id>DFX:rectilinearity</id></comment><comment><text>17.375019487361381</text><id>SNR</id></comment></pick><pick publicID="de.gempa.tb1.Pick/20250413174444.456192.132800"><time><value>2025-04-13T17:44:37.529999Z</value></time><waveformID networkCode="CX" stationCode="PATCX" channelCode="HHZ"/><filterID>ITAPER(4)&gt;&gt;BW(4,4,20)</filterID><methodID>AIC</methodID><horizontalSlowness><value>16.503571134375019</value></horizontalSlowness><backazimuth><value>136.12497758186134</value></backazimuth><phaseHint>P</phaseHint><evaluationMode>automatic</evaluationMode><comment><text>1013.8708531709757</text><id>DFX:rectilinearity</id></comment><comment><text>18.982749277228741</text><id>SNR</id></comment></pick><pick publicID="de.gempa.tb1.Pick/20250413174446.580126.132802"><time><value>2025-04-13T17:44:39.408393Z</value></time><waveformID networkCode="CX" stationCode="PB03" channelCode="HHZ"/><filterID>ITAPER(4)&gt;&gt;BW(4,4,20)</filterID><methodID>AIC</methodID><horizontalSlowness><value>14.06355175300357</value></horizontalSlowness><backazimuth><value>52.58625972743059</value></backazimuth><phaseHint>P</phaseHint><evaluationMode>automatic</evaluationMode><comment><text>515.910647305887</text><id>DFX:rectilinearity</id></comment><comment><text>32.649104693051363</text><id>SNR</id></comment></pick><pick publicID="de.gempa.tb1.Pick/20250413174450.988736.132804"><time><value>2025-04-13T17:44:37.178391Z</value></time><waveformID networkCode="CX" stationCode="PB07" channelCode="HHZ"/><filterID>ITAPER(4)&gt;&gt;BW(4,4,20)</filterID><methodID>AIC</methodID><horizontalSlowness><value>19.707237678597764</value></horizontalSlowness><backazimuth><value>62.18586313267841</value></backazimuth><phaseHint>P</phaseHint><evaluationMode>automatic</evaluationMode><comment><text>18928.42658128882</text><id>DFX:rectilinearity</id></comment><comment><text>21.1727630343047</text><id>SNR</id></comment></pick><pick publicID="de.gempa.tb1.Pick/20250413174454.56482.132807"><time><value>2025-04-13T17:44:46.82Z</value></time><waveformID networkCode="CX" stationCode="PSGCX" channelCode="HHZ"/><filterID>ITAPER(4)&gt;&gt;BW(4,4,20)</filterID><methodID>AIC</methodID><horizontalSlowness><value>12.865396985157444</value></horizontalSlowness><backazimuth><value>145.45380616825076</value></backazimuth><phaseHint>P</phaseHint><evaluationMode>automatic</evaluationMode><comment><text>2747.93115554844</text><id>DFX:rectilinearity</id></comment><comment><text>56.30400840606193</text><id>SNR</id></comment></pick><pick publicID="de.gempa.tb1.Pick/20250413174456.526374.132809"><time><value>2025-04-13T17:44:48.658391Z</value></time><waveformID networkCode="CX" stationCode="PB06" channelCode="HHZ"/><filterID>ITAPER(4)&gt;&gt;BW(4,4,20)</filterID><methodID>AIC</methodID><horizontalSlowness><value>8.517392463977938</value></horizontalSlowness><backazimuth><value>38.800243380309723</value></backazimuth><phaseHint>P</phaseHint><evaluationMode>automatic</evaluationMode><comment><text>699.0861054182891</text><id>DFX:rectilinearity</id></comment><comment><text>16.351904805874092</text><id>SNR</id></comment></pick><pick publicID="de.gempa.tb1.Pick/20250413174501.639877.132814"><time><value>2025-04-13T17:44:55.658393Z</value></time><waveformID networkCode="CX" stationCode="PB15" channelCode="HHZ"/><filterID>ITAPER(4)&gt;&gt;BW(4,4,20)</filterID><methodID>AIC</methodID><horizontalSlowness><value>18.558367278906498</value></horizontalSlowness><backazimuth><value>87.30962876184361</value></backazimuth><phaseHint>P</phaseHint><evaluationMode>automatic</evaluationMode><comment><text>44310.81435510303</text><id>DFX:rectilinearity</id></comment><comment><text>14.379493921622895</text><id>SNR</id></comment></pick><origin publicID="de.gempa.tb1.Origin/20250413174508.560147.116230"><time><value>2025-04-13T17:44:15.700628Z</value><uncertainty>0.9375602602958679</uncertainty></time><latitude><value>-20.998828887939453</value><uncertainty>4.496483325958252</uncertainty></latitude><longitude><value>-68.94998168945312</value><uncertainty>6.788177013397217</uncertainty></longitude><depth><value>0</value></depth><depthType>operator assigned</depthType><methodID>LOCSAT</methodID><earthModelID>iasp91_scanloc</earthModelID><quality><associatedPhaseCount>9</associatedPhaseCount><usedPhaseCount>9</usedPhaseCount><associatedStationCount>9</associatedStationCount><usedStationCount>9</usedStationCount><depthPhaseCount>0</depthPhaseCount><standardError>0.8827976462836419</standardError><azimuthalGap>230.79310607910156</azimuthalGap><maximumDistance>2.2513082027435303</maximumDistance><minimumDistance>0.5040199756622314</minimumDistance><medianDistance>1.1385096311569214</medianDistance></quality><uncertainty><minHorizontalUncertainty>8.27794075012207</minHorizontalUncertainty><maxHorizontalUncertainty>15.378018379211426</maxHorizontalUncertainty><azimuthMaxHorizontalUncertainty>67.5508041381836</azimuthMaxHorizontalUncertainty><preferredDescription>horizontal uncertainty</preferredDescription></uncertainty><evaluationMode>automatic</evaluationMode><evaluationStatus>confirmed</evaluationStatus><comment><text>0.17</text><id>mismatchScore</id></comment><comment><text>mismatchScore</text><id>scevalMethod</id></comment><arrival><pickID>de.gempa.tb1.Pick/20250413174431.593451.132788</pickID><phase>P</phase><azimuth>264.8755187988281</azimuth><distance>0.5040199756622314</distance><timeResidual>0.9198760986328125</timeResidual><timeUsed>true</timeUsed><horizontalSlownessUsed>false</horizontalSlownessUsed><backazimuthUsed>false</backazimuthUsed><weight>1</weight></arrival><arrival><pickID>de.gempa.tb1.Pick/20250413174439.499935.132795</pickID><phase>P</phase><azimuth>249.95042419433594</azimuth><distance>0.938987135887146</distance><timeResidual>0.2769632339477539</timeResidual><timeUsed>true</timeUsed><horizontalSlownessUsed>false</horizontalSlownessUsed><backazimuthUsed>false</backazimuthUsed><weight>1</weight></arrival><arrival><pickID>de.gempa.tb1.Pick/20250413174442.214928.132798</pickID><phase>P</phase><azimuth>198.8692169189453</azimuth><distance>0.8389561176300049</distance><timeResidual>-1.3221807479858398</timeResidual><timeUsed>true</timeUsed><horizontalSlownessUsed>false</horizontalSlownessUsed><backazimuthUsed>false</backazimuthUsed><weight>1</weight></arrival><arrival><pickID>de.gempa.tb1.Pick/20250413174444.456192.132800</pickID><phase>P</phase><azimuth>278.7417297363281</azimuth><distance>1.1385096311569214</distance><timeResidual>-0.009057998657226562</timeResidual><timeUsed>true</timeUsed><horizontalSlownessUsed>false</horizontalSlownessUsed><backazimuthUsed>false</backazimuthUsed><weight>1</weight></arrival><arrival><pickID>de.gempa.tb1.Pick/20250413174446.580126.132802</pickID><phase>P</phase><azimuth>215.45440673828125</azimuth><distance>1.2845683097839355</distance><timeResidual>-0.9308137893676758</timeResidual><timeUsed>true</timeUsed><horizontalSlownessUsed>false</horizontalSlownessUsed><backazimuthUsed>false</backazimuthUsed><weight>1</weight></arrival><arrival><pickID>de.gempa.tb1.Pick/20250413174450.988736.132804</pickID><phase>P</phase><azimuth>230.1403503417969</azimuth><distance>1.134032964706421</distance><timeResidual>-0.2737560272216797</timeResidual><timeUsed>true</timeUsed><horizontalSlownessUsed>false</horizontalSlownessUsed><backazimuthUsed>false</backazimuthUsed><weight>1</weight></arrival><arrival><pickID>de.gempa.tb1.Pick/20250413174454.56482.132807</pickID><phase>P</phase><azimuth>321.5015869140625</azimuth><distance>1.7767986059188843</distance><timeResidual>-0.8581123352050781</timeResidual><timeUsed>true</timeUsed><horizontalSlownessUsed>false</horizontalSlownessUsed><backazimuthUsed>false</backazimuthUsed><weight>1</weight></arrival><arrival><pickID>de.gempa.tb1.Pick/20250413174456.526374.132809</pickID><phase>P</phase><azimuth>198.66952514648438</azimuth><distance>1.7942352294921875</distance><timeResidual>0.7438621520996094</timeResidual><timeUsed>true</timeUsed><horizontalSlownessUsed>false</horizontalSlownessUsed><backazimuthUsed>false</backazimuthUsed><weight>1</weight></arrival><arrival><pickID>de.gempa.tb1.Pick/20250413174501.639877.132814</pickID><phase>P</phase><azimuth>192.29469299316406</azimuth><distance>2.2513082027435303</distance><timeResidual>1.4532089233398438</timeResidual><timeUsed>true</timeUsed><horizontalSlownessUsed>false</horizontalSlownessUsed><backazimuthUsed>false</backazimuthUsed><weight>1</weight></arrival><magnitude publicID="de.gempa.tb1.Magnitude/20250413174537.874439.384633"><magnitude><value>2.6419960827204556</value></magnitude><type>M</type><methodID>weighted average</methodID><stationCount>7</stationCount></magnitude></origin><event publicID="gempa2025hhts"><preferredOriginID>de.gempa.tb1.Origin/20250413174508.560147.116230</preferredOriginID><preferredMagnitudeID>de.gempa.tb1.Magnitude/20250413174537.874439.384633</preferredMagnitudeID><description><text>Chile-Bolivia Border Region</text><type>region name</type></description><originReference>de.gempa.tb1.Origin/20250413174508.560147.116230</originReference></event></EventParameters></seiscomp>