<?xml version="1.0" encoding="UTF-8"?>
<seiscomp xmlns="http://geofon.gfz-potsdam.de/ns/seiscomp3-schema/0.13" version="0.13"><EventParameters><pick publicID="de.gempa.tb1.Pick/20250412205308.595089.126689"><time><value>2025-04-12T20:53:01.35Z</value></time><waveformID networkCode="CX" stationCode="PSGCX" channelCode="HHZ"/><filterID>ITAPER(4)&gt;&gt;BW(4,4,20)</filterID><methodID>AIC</methodID><horizontalSlowness><value>6.304035316506973</value></horizontalSlowness><backazimuth><value>340.19085236102387</value></backazimuth><phaseHint>P</phaseHint><evaluationMode>automatic</evaluationMode><comment><text>20.547133325614556</text><id>DFX:rectilinearity</id></comment><comment><text>16.113983469777086</text><id>SNR</id></comment></pick><pick publicID="de.gempa.tb1.Pick/20250412205315.592842.126692"><time><value>2025-04-12T20:53:10.788393Z</value></time><waveformID networkCode="CX" stationCode="PB03" channelCode="HHZ"/><filterID>ITAPER(4)&gt;&gt;BW(4,4,20)</filterID><methodID>AIC</methodID><horizontalSlowness><value>13.45981275298415</value></horizontalSlowness><backazimuth><value>245.49378614664155</value></backazimuth><phaseHint>P</phaseHint><evaluationMode>automatic</evaluationMode><comment><text>126.38516862066093</text><id>DFX:rectilinearity</id></comment><comment><text>13.603364777729295</text><id>SNR</id></comment></pick><pick publicID="de.gempa.tb1.Pick/20250412205325.276343.126699"><time><value>2025-04-12T20:53:18.999999Z</value></time><waveformID networkCode="CX" stationCode="PATCX" channelCode="HHN"/><filterID>ITAPER(2)&gt;&gt;BW(3,3,20)</filterID><methodID>L2-AIC-GRID</methodID><horizontalSlowness><value>22.992041436057853</value></horizontalSlowness><backazimuth><value>82.43877349672717</value></backazimuth><phaseHint>S</phaseHint><evaluationMode>automatic</evaluationMode><comment><text>525.7397580725294</text><id>DFX:rectilinearity</id></comment><comment><text>de.gempa.tb1.Pick/20250412205301.22086.126685</text><id>RefPickID</id></comment><comment><text>5.644873149494333</text><id>SNR</id></comment></pick><pick publicID="de.gempa.tb1.Pick/20250412205325.527313.126700"><time><value>2025-04-12T20:53:15.728393Z</value></time><waveformID networkCode="CX" stationCode="PB06" channelCode="HHZ"/><filterID>ITAPER(4)&gt;&gt;BW(4,4,20)</filterID><methodID>AIC</methodID><horizontalSlowness><value>20.194304875718792</value></horizontalSlowness><backazimuth><value>81.36291898726346</value></backazimuth><phaseHint>P</phaseHint><evaluationMode>automatic</evaluationMode><comment><text>57.91166602452808</text><id>DFX:rectilinearity</id></comment><comment><text>6.948061653191095</text><id>SNR</id></comment></pick><pick publicID="de.gempa.tb1.Pick/20250412205329.668379.126703"><time><value>2025-04-12T20:53:23.228393Z</value></time><waveformID networkCode="CX" stationCode="PB15" channelCode="HHZ"/><filterID>ITAPER(4)&gt;&gt;BW(4,4,20)</filterID><methodID>AIC</methodID><horizontalSlowness><value>22.260410386302958</value></horizontalSlowness><backazimuth><value>123.99048975125737</value></backazimuth><phaseHint>P</phaseHint><evaluationMode>automatic</evaluationMode><comment><text>1593.453990429193</text><id>DFX:rectilinearity</id></comment><comment><text>6.571433586560988</text><id>SNR</id></comment></pick><origin publicID="de.gempa.tb1.Origin/20250412205331.470647.92067"><time><value>2025-04-12T20:52:28.914034Z</value><uncertainty>1.248992681503296</uncertainty></time><latitude><value>-20.55799674987793</value><uncertainty>7.704283237457275</uncertainty></latitude><longitude><value>-71.76544189453125</value><uncertainty>8.806790351867676</uncertainty></longitude><depth><value>0</value></depth><depthType>operator assigned</depthType><methodID>LOCSAT</methodID><earthModelID>iasp91_scanloc</earthModelID><quality><associatedPhaseCount>5</associatedPhaseCount><usedPhaseCount>5</usedPhaseCount><associatedStationCount>5</associatedStationCount><usedStationCount>5</usedStationCount><depthPhaseCount>0</depthPhaseCount><standardError>0.8936455071264578</standardError><azimuthalGap>277.0372657775879</azimuthalGap><maximumDistance>3.3907177448272705</maximumDistance><minimumDistance>1.5322788953781128</minimumDistance><medianDistance>2.391758680343628</medianDistance></quality><uncertainty><minHorizontalUncertainty>15.256699562072754</minHorizontalUncertainty><maxHorizontalUncertainty>19.929510116577148</maxHorizontalUncertainty><azimuthMaxHorizontalUncertainty>119.68798065185547</azimuthMaxHorizontalUncertainty><preferredDescription>horizontal uncertainty</preferredDescription></uncertainty><evaluationMode>automatic</evaluationMode><evaluationStatus>confirmed</evaluationStatus><comment><text>0.35</text><id>mismatchScore</id></comment><comment><text>mismatchScore</text><id>scevalMethod</id></comment><arrival><pickID>de.gempa.tb1.Pick/20250412205308.595089.126689</pickID><phase>P</phase><azimuth>58.51712417602539</azimuth><distance>1.8157531023025513</distance><timeResidual>-0.07765579223632812</timeResidual><timeUsed>true</timeUsed><horizontalSlownessUsed>false</horizontalSlownessUsed><backazimuthUsed>false</backazimuthUsed><weight>1</weight></arrival><arrival><pickID>de.gempa.tb1.Pick/20250412205315.592842.126692</pickID><phase>P</phase><azimuth>128.68128967285156</azimuth><distance>2.391758680343628</distance><timeResidual>1.435100555419922</timeResidual><timeUsed>true</timeUsed><horizontalSlownessUsed>false</horizontalSlownessUsed><backazimuthUsed>false</backazimuthUsed><weight>1</weight></arrival><arrival><pickID>de.gempa.tb1.Pick/20250412205325.276343.126699</pickID><phase>S</phase><azimuth>100.10454559326172</azimuth><distance>1.5322788953781128</distance><timeResidual>-0.1063995361328125</timeResidual><timeUsed>true</timeUsed><horizontalSlownessUsed>false</horizontalSlownessUsed><backazimuthUsed>false</backazimuthUsed><weight>1</weight></arrival><arrival><pickID>de.gempa.tb1.Pick/20250412205325.527313.126700</pickID><phase>P</phase><azimuth>136.7183074951172</azimuth><distance>2.9551076889038086</distance><timeResidual>-1.378387451171875</timeResidual><timeUsed>true</timeUsed><horizontalSlownessUsed>false</horizontalSlownessUsed><backazimuthUsed>false</backazimuthUsed><weight>1</weight></arrival><arrival><pickID>de.gempa.tb1.Pick/20250412205329.668379.126703</pickID><phase>P</phase><azimuth>141.4798583984375</azimuth><distance>3.3907177448272705</distance><timeResidual>0.12725830078125</timeResidual><timeUsed>true</timeUsed><horizontalSlownessUsed>false</horizontalSlownessUsed><backazimuthUsed>false</backazimuthUsed><weight>1</weight></arrival><magnitude publicID="de.gempa.tb1.Magnitude/20250412205506.169913.281955"><magnitude><value>3.0219948735731617</value></magnitude><type>M</type><methodID>weighted average</methodID><stationCount>4</stationCount></magnitude></origin><event publicID="gempa2025hgea"><preferredOriginID>de.gempa.tb1.Origin/20250412205331.470647.92067</preferredOriginID><preferredMagnitudeID>de.gempa.tb1.Magnitude/20250412205506.169913.281955</preferredMagnitudeID><typeCertainty>suspected</typeCertainty><description><text>Off Coast of Northern Chile</text><type>region name</type></description><originReference>de.gempa.tb1.Origin/20250412205331.470647.92067</originReference></event></EventParameters></seiscomp>