<?xml version="1.0" encoding="UTF-8"?>
<seiscomp xmlns="http://geofon.gfz-potsdam.de/ns/seiscomp3-schema/0.13" version="0.13"><EventParameters><pick publicID="de.gempa.tb1.Pick/20250413202312.089708.227801"><time><value>2025-04-13T20:23:10.235Z</value></time><waveformID networkCode="BW" stationCode="ROTZ" channelCode="HHZ"/><filterID>ITAPER(2)&gt;&gt;BW(3,3,20)</filterID><methodID>AIC</methodID><horizontalSlowness><value>3.4946808698675906</value></horizontalSlowness><backazimuth><value>319.4421968914554</value></backazimuth><phaseHint>P</phaseHint><evaluationMode>automatic</evaluationMode><comment><text>1552.6624562988743</text><id>DFX:rectilinearity</id></comment></pick><pick publicID="de.gempa.tb1.Pick/20250413202313.469069.227813"><time><value>2025-04-13T20:23:06.8775Z</value></time><waveformID networkCode="SX" stationCode="WERN" channelCode="HHZ"/><filterID>ITAPER(2)&gt;&gt;BW(3,3,20)</filterID><methodID>AIC</methodID><horizontalSlowness><value>2.296801652205246</value></horizontalSlowness><backazimuth><value>359.35421675116504</value></backazimuth><phaseHint>P</phaseHint><evaluationMode>automatic</evaluationMode><comment><text>16779.687052555852</text><id>DFX:rectilinearity</id></comment></pick><pick publicID="de.gempa.tb1.Pick/20250413202313.679189.227815"><time><value>2025-04-13T20:23:10.78Z</value></time><waveformID networkCode="TH" stationCode="MLFH" channelCode="HHZ"/><filterID>ITAPER(2)&gt;&gt;BW(3,3,20)</filterID><methodID>AIC</methodID><horizontalSlowness><value>3.8506012120028905</value></horizontalSlowness><backazimuth><value>1.8444838546055848</value></backazimuth><phaseHint>P</phaseHint><evaluationMode>automatic</evaluationMode><comment><text>206.92856575344177</text><id>DFX:rectilinearity</id></comment></pick><pick publicID="de.gempa.tb1.Pick/20250413202313.873269.227817"><time><value>2025-04-13T20:23:06.07Z</value></time><waveformID networkCode="SX" stationCode="GUNZ" channelCode="HHZ"/><filterID>ITAPER(2)&gt;&gt;BW(3,3,20)</filterID><methodID>AIC</methodID><horizontalSlowness><value>4.173202389387554</value></horizontalSlowness><backazimuth><value>5.807419135924874</value></backazimuth><phaseHint>P</phaseHint><evaluationMode>automatic</evaluationMode><comment><text>11770.286064870357</text><id>DFX:rectilinearity</id></comment></pick><pick publicID="de.gempa.tb1.Pick/20250413202314.521143.227819"><time><value>2025-04-13T20:23:12.61Z</value></time><waveformID networkCode="TH" stationCode="MORAS" channelCode="HHZ"/><filterID>ITAPER(2)&gt;&gt;BW(3,3,20)</filterID><methodID>AIC</methodID><horizontalSlowness><value>5.349191542658196</value></horizontalSlowness><backazimuth><value>10.894541465076657</value></backazimuth><phaseHint>P</phaseHint><evaluationMode>automatic</evaluationMode><comment><text>1034.9771183689379</text><id>DFX:rectilinearity</id></comment></pick><pick publicID="de.gempa.tb1.Pick/20250413202316.965279.227824"><time><value>2025-04-13T20:23:06.59Z</value></time><waveformID networkCode="SX" stationCode="TRIB" channelCode="HHZ"/><filterID>ITAPER(2)&gt;&gt;BW(3,3,20)</filterID><methodID>AIC</methodID><horizontalSlowness><value>4.255557951975888</value></horizontalSlowness><backazimuth><value>349.40137832361307</value></backazimuth><phaseHint>P</phaseHint><evaluationMode>automatic</evaluationMode><comment><text>13375.981259831</text><id>DFX:rectilinearity</id></comment></pick><pick publicID="de.gempa.tb1.Pick/20250413202321.136028.227837"><time><value>2025-04-13T20:23:12.51Z</value></time><waveformID networkCode="TH" stationCode="LEIB1" channelCode="HHZ"/><filterID>ITAPER(2)&gt;&gt;BW(3,3,20)</filterID><methodID>AIC</methodID><horizontalSlowness><value>1.7157144192611324</value></horizontalSlowness><backazimuth><value>23.683559140762156</value></backazimuth><phaseHint>P</phaseHint><evaluationMode>automatic</evaluationMode><comment><text>4973.613557994685</text><id>DFX:rectilinearity</id></comment></pick><pick publicID="de.gempa.tb1.Pick/20250413202323.887683.227852"><time><value>2025-04-13T20:23:11.2Z</value></time><waveformID networkCode="SX" stationCode="SCHF" channelCode="HHZ"/><filterID>ITAPER(2)&gt;&gt;BW(3,3,20)</filterID><methodID>AIC</methodID><horizontalSlowness><value>1.9532516506279094</value></horizontalSlowness><backazimuth><value>12.946533518058203</value></backazimuth><phaseHint>P</phaseHint><evaluationMode>automatic</evaluationMode><comment><text>4830.599789232343</text><id>DFX:rectilinearity</id></comment></pick><origin publicID="de.gempa.tb1.Origin/20250413202323.908283.209236"><time><value>2025-04-13T20:22:58.752493Z</value><uncertainty>1.0124441385269165</uncertainty></time><latitude><value>50.2296142578125</value><uncertainty>5.662543773651123</uncertainty></latitude><longitude><value>12.135244369506836</value><uncertainty>9.184065818786621</uncertainty></longitude><depth><value>37.63001251220703</value><uncertainty>15.650731086730957</uncertainty></depth><depthType>from location</depthType><methodID>LOCSAT</methodID><earthModelID>iasp91</earthModelID><quality><associatedPhaseCount>8</associatedPhaseCount><usedPhaseCount>8</usedPhaseCount><associatedStationCount>8</associatedStationCount><usedStationCount>8</usedStationCount><depthPhaseCount>0</depthPhaseCount><standardError>0.5026807102778467</standardError><azimuthalGap>123.8467254638672</azimuthalGap><maximumDistance>0.6929587125778198</maximumDistance><minimumDistance>0.12254048883914948</minimumDistance><medianDistance>0.4797414243221283</medianDistance></quality><uncertainty><minHorizontalUncertainty>11.863367080688477</minHorizontalUncertainty><maxHorizontalUncertainty>19.866058349609375</maxHorizontalUncertainty><azimuthMaxHorizontalUncertainty>80.629638671875</azimuthMaxHorizontalUncertainty><preferredDescription>horizontal uncertainty</preferredDescription></uncertainty><evaluationMode>automatic</evaluationMode><comment><text>0.66</text><id>mismatchScore</id></comment><arrival><pickID>de.gempa.tb1.Pick/20250413202312.089708.227801</pickID><phase>P</phase><azimuth>174.26414489746094</azimuth><distance>0.465553492307663</distance><timeResidual>0.05141925811767578</timeResidual><timeUsed>true</timeUsed><horizontalSlownessUsed>false</horizontalSlownessUsed><backazimuthUsed>false</backazimuthUsed><weight>1</weight></arrival><arrival><pickID>de.gempa.tb1.Pick/20250413202313.469069.227813</pickID><phase>P</phase><azimuth>69.3902359008789</azimuth><distance>0.1650666445493698</distance><timeResidual>0.17235803604125977</timeResidual><timeUsed>true</timeUsed><horizontalSlownessUsed>false</horizontalSlownessUsed><backazimuthUsed>false</backazimuthUsed><weight>1</weight></arrival><arrival><pickID>de.gempa.tb1.Pick/20250413202313.679189.227815</pickID><phase>P</phase><azimuth>356.4817199707031</azimuth><distance>0.5619866251945496</distance><timeResidual>-0.5110845565795898</timeResidual><timeUsed>true</timeUsed><horizontalSlownessUsed>false</horizontalSlownessUsed><backazimuthUsed>false</backazimuthUsed><weight>1</weight></arrival><arrival><pickID>de.gempa.tb1.Pick/20250413202313.873269.227817</pickID><phase>P</phase><azimuth>43.137142181396484</azimuth><distance>0.18392308056354523</distance><timeResidual>-0.8517370223999023</timeResidual><timeUsed>true</timeUsed><horizontalSlownessUsed>false</horizontalSlownessUsed><backazimuthUsed>false</backazimuthUsed><weight>1</weight></arrival><arrival><pickID>de.gempa.tb1.Pick/20250413202314.521143.227819</pickID><phase>P</phase><azimuth>298.1108703613281</azimuth><distance>0.6587458848953247</distance><timeResidual>0.20075130462646484</timeResidual><timeUsed>true</timeUsed><horizontalSlownessUsed>false</horizontalSlownessUsed><backazimuthUsed>false</backazimuthUsed><weight>1</weight></arrival><arrival><pickID>de.gempa.tb1.Pick/20250413202316.965279.227824</pickID><phase>P</phase><azimuth>0.5258911848068237</azimuth><distance>0.12254048883914948</distance><timeResidual>0.37461328506469727</timeResidual><timeUsed>true</timeUsed><horizontalSlownessUsed>false</horizontalSlownessUsed><backazimuthUsed>false</backazimuthUsed><weight>1</weight></arrival><arrival><pickID>de.gempa.tb1.Pick/20250413202321.136028.227837</pickID><phase>P</phase><azimuth>300.3978271484375</azimuth><distance>0.6929587125778198</distance><timeResidual>-0.29392004013061523</timeResidual><timeUsed>true</timeUsed><horizontalSlownessUsed>false</horizontalSlownessUsed><backazimuthUsed>false</backazimuthUsed><weight>1</weight></arrival><arrival><pickID>de.gempa.tb1.Pick/20250413202323.887683.227852</pickID><phase>P</phase><azimuth>20.80776596069336</azimuth><distance>0.4797414243221283</distance><timeResidual>0.8575916290283203</timeResidual><timeUsed>true</timeUsed><horizontalSlownessUsed>false</horizontalSlownessUsed><backazimuthUsed>false</backazimuthUsed><weight>1</weight></arrival><magnitude publicID="de.gempa.tb1.Magnitude/20250413202347.490796.399375"><magnitude><value>1.946612974324344</value></magnitude><type>M</type><methodID>weighted average</methodID><stationCount>6</stationCount></magnitude></origin><event publicID="gempa2025hhza"><preferredOriginID>de.gempa.tb1.Origin/20250413202323.908283.209236</preferredOriginID><preferredMagnitudeID>de.gempa.tb1.Magnitude/20250413202347.490796.399375</preferredMagnitudeID><description><text>Germany</text><type>region name</type></description><originReference>de.gempa.tb1.Origin/20250413202323.908283.209236</originReference></event></EventParameters></seiscomp>