<?xml version="1.0" encoding="UTF-8"?>
<seiscomp xmlns="http://geofon.gfz-potsdam.de/ns/seiscomp3-schema/0.13" version="0.13"><EventParameters><pick publicID="de.gempa.tb1.Pick/20250412124407.227298.124002"><time><value>2025-04-12T12:43:58.690001Z</value></time><waveformID networkCode="CX" stationCode="PATCX" channelCode="HHZ"/><filterID>ITAPER(4)&gt;&gt;BW(4,4,20)</filterID><methodID>AIC</methodID><horizontalSlowness><value>18.870481677836157</value></horizontalSlowness><backazimuth><value>74.92526570361608</value></backazimuth><phaseHint>P</phaseHint><evaluationMode>automatic</evaluationMode><comment><text>256.0854638477485</text><id>DFX:rectilinearity</id></comment><comment><text>8.555694594424367</text><id>SNR</id></comment></pick><pick publicID="de.gempa.tb1.Pick/20250412124408.881632.124004"><time><value>2025-04-12T12:43:53.63Z</value></time><waveformID networkCode="CX" stationCode="PB09" channelCode="HHZ"/><filterID>ITAPER(4)&gt;&gt;BW(4,4,20)</filterID><methodID>AIC</methodID><horizontalSlowness><value>5.372845931914217</value></horizontalSlowness><backazimuth><value>326.821066109488</value></backazimuth><phaseHint>P</phaseHint><evaluationMode>automatic</evaluationMode><comment><text>6.49591546481804</text><id>DFX:rectilinearity</id></comment><comment><text>38.16923127311268</text><id>SNR</id></comment></pick><pick publicID="de.gempa.tb1.Pick/20250412124420.648668.124007"><time><value>2025-04-12T12:44:11.168393Z</value></time><waveformID networkCode="CX" stationCode="PB03" channelCode="HHN"/><filterID>ITAPER(2)&gt;&gt;BW(3,3,20)</filterID><methodID>L2-AIC-GRID</methodID><horizontalSlowness><value>14.37278619618433</value></horizontalSlowness><backazimuth><value>272.3282396814053</value></backazimuth><phaseHint>S</phaseHint><evaluationMode>automatic</evaluationMode><comment><text>58.22098388508082</text><id>DFX:rectilinearity</id></comment><comment><text>de.gempa.tb1.Pick/20250412124400.798728.124000</text><id>RefPickID</id></comment><comment><text>12.546635244568842</text><id>SNR</id></comment></pick><pick publicID="de.gempa.tb1.Pick/20250412124424.450696.124008"><time><value>2025-04-12T12:44:13.788391Z</value></time><waveformID networkCode="CX" stationCode="PB15" channelCode="HHZ"/><filterID>ITAPER(4)&gt;&gt;BW(4,4,20)</filterID><methodID>AIC</methodID><horizontalSlowness><value>23.264488780315393</value></horizontalSlowness><backazimuth><value>130.47845609999675</value></backazimuth><phaseHint>P</phaseHint><evaluationMode>automatic</evaluationMode><comment><text>1959.2554429352163</text><id>DFX:rectilinearity</id></comment><comment><text>12.649316146360187</text><id>SNR</id></comment></pick><pick publicID="de.gempa.tb1.Pick/20250412124431.665897.124012"><time><value>2025-04-12T12:44:24.79Z</value></time><waveformID networkCode="CX" stationCode="PB19" channelCode="HHZ"/><filterID>ITAPER(4)&gt;&gt;BW(4,4,20)</filterID><methodID>AIC</methodID><horizontalSlowness><value>22.705439321145423</value></horizontalSlowness><backazimuth><value>48.5280597840034</value></backazimuth><phaseHint>P</phaseHint><evaluationMode>automatic</evaluationMode><comment><text>55.84319583484002</text><id>DFX:rectilinearity</id></comment><comment><text>7.716800706885603</text><id>SNR</id></comment></pick><pick publicID="de.gempa.tb1.Pick/20250412124452.876555.124018"><time><value>2025-04-12T12:43:58.038397Z</value></time><waveformID networkCode="CX" stationCode="PB07" channelCode="HHZ"/><filterID>ITAPER(4)&gt;&gt;BW(4,4,20)</filterID><methodID>AIC</methodID><horizontalSlowness><value>20.258069925162147</value></horizontalSlowness><backazimuth><value>77.93747858548414</value></backazimuth><phaseHint>P</phaseHint><evaluationMode>automatic</evaluationMode><comment><text>131.10609213437482</text><id>DFX:rectilinearity</id></comment><comment><text>42.16442467241653</text><id>SNR</id></comment></pick><origin publicID="de.gempa.tb1.Origin/20250412124453.924363.82622"><time><value>2025-04-12T12:43:42.724956Z</value><uncertainty>1.0354728698730469</uncertainty></time><latitude><value>-21.24162483215332</value><uncertainty>4.686564445495605</uncertainty></latitude><longitude><value>-69.32502746582031</value><uncertainty>8.209959030151367</uncertainty></longitude><depth><value>23.470232009887695</value><uncertainty>10.394696235656738</uncertainty></depth><depthType>from location</depthType><methodID>LOCSAT</methodID><earthModelID>iasp91_scanloc</earthModelID><quality><associatedPhaseCount>6</associatedPhaseCount><usedPhaseCount>6</usedPhaseCount><associatedStationCount>6</associatedStationCount><usedStationCount>6</usedStationCount><depthPhaseCount>0</depthPhaseCount><standardError>0.8849190444925719</standardError><azimuthalGap>233.7458038330078</azimuthalGap><maximumDistance>2.6507327556610107</maximumDistance><minimumDistance>0.5574289560317993</minimumDistance><medianDistance>0.8962404727935791</medianDistance></quality><uncertainty><minHorizontalUncertainty>9.182008743286133</minHorizontalUncertainty><maxHorizontalUncertainty>18.080411911010742</maxHorizontalUncertainty><azimuthMaxHorizontalUncertainty>74.76374816894531</azimuthMaxHorizontalUncertainty><preferredDescription>horizontal uncertainty</preferredDescription></uncertainty><evaluationMode>automatic</evaluationMode><comment><text>0.60</text><id>mismatchScore</id></comment><arrival><pickID>de.gempa.tb1.Pick/20250412124407.227298.124002</pickID><phase>P</phase><azimuth>298.28961181640625</azimuth><distance>0.8794893026351929</distance><timeResidual>-0.6328268051147461</timeResidual><timeUsed>true</timeUsed><horizontalSlownessUsed>false</horizontalSlownessUsed><backazimuthUsed>false</backazimuthUsed><weight>1</weight></arrival><arrival><pickID>de.gempa.tb1.Pick/20250412124408.881632.124004</pickID><phase>P</phase><azimuth>172.03541564941406</azimuth><distance>0.5574289560317993</distance><timeResidual>-0.22985363006591797</timeResidual><timeUsed>true</timeUsed><horizontalSlownessUsed>false</horizontalSlownessUsed><backazimuthUsed>false</backazimuthUsed><weight>1</weight></arrival><arrival><pickID>de.gempa.tb1.Pick/20250412124420.648668.124007</pickID><phase>S</phase><azimuth>206.30368041992188</azimuth><distance>0.8962404727935791</distance><timeResidual>-0.7599992752075195</timeResidual><timeUsed>true</timeUsed><horizontalSlownessUsed>false</horizontalSlownessUsed><backazimuthUsed>false</backazimuthUsed><weight>1</weight></arrival><arrival><pickID>de.gempa.tb1.Pick/20250412124424.450696.124008</pickID><phase>P</phase><azimuth>183.92361450195312</azimuth><distance>1.9619452953338623</distance><timeResidual>-0.7421960830688477</timeResidual><timeUsed>true</timeUsed><horizontalSlownessUsed>false</horizontalSlownessUsed><backazimuthUsed>false</backazimuthUsed><weight>1</weight></arrival><arrival><pickID>de.gempa.tb1.Pick/20250412124431.665897.124012</pickID><phase>P</phase><azimuth>179.3196563720703</azimuth><distance>2.6507327556610107</distance><timeResidual>0.7820653915405273</timeResidual><timeUsed>true</timeUsed><horizontalSlownessUsed>false</horizontalSlownessUsed><backazimuthUsed>false</backazimuthUsed><weight>1</weight></arrival><arrival><pickID>de.gempa.tb1.Pick/20250412124452.876555.124018</pickID><phase>P</phase><azimuth>227.1748352050781</azimuth><distance>0.7114067673683167</distance><timeResidual>1.5827531814575195</timeResidual><timeUsed>true</timeUsed><horizontalSlownessUsed>false</horizontalSlownessUsed><backazimuthUsed>false</backazimuthUsed><weight>1</weight></arrival><magnitude publicID="de.gempa.tb1.Magnitude/20250412124457.790869.226370"><magnitude><value>2.434695607278565</value></magnitude><type>M</type><methodID>weighted average</methodID><stationCount>4</stationCount></magnitude></origin><event publicID="gempa2025hfnr"><preferredOriginID>de.gempa.tb1.Origin/20250412124453.924363.82622</preferredOriginID><preferredMagnitudeID>de.gempa.tb1.Magnitude/20250412124457.790869.226370</preferredMagnitudeID><description><text>Northern Chile</text><type>region name</type></description><originReference>de.gempa.tb1.Origin/20250412124453.924363.82622</originReference></event></EventParameters></seiscomp>