<?xml version="1.0" encoding="UTF-8"?>
<seiscomp xmlns="http://geofon.gfz-potsdam.de/ns/seiscomp3-schema/0.13" version="0.13"><EventParameters><pick publicID="de.gempa.tb1.Pick/20250415022651.740735.142919"><time><value>2025-04-15T02:26:46.568393Z</value></time><waveformID networkCode="CX" stationCode="PB03" channelCode="HHZ"/><filterID>ITAPER(4)&gt;&gt;BW(4,4,20)</filterID><methodID>AIC</methodID><horizontalSlowness><value>13.785486188507644</value></horizontalSlowness><backazimuth><value>146.4741223671518</value></backazimuth><phaseHint>P</phaseHint><evaluationMode>automatic</evaluationMode><comment><text>8.234729878999056</text><id>DFX:rectilinearity</id></comment><comment><text>57.42395267343145</text><id>SNR</id></comment></pick><pick publicID="de.gempa.tb1.Pick/20250415022653.538757.142921"><time><value>2025-04-15T02:26:47.37Z</value></time><waveformID networkCode="CX" stationCode="PB19" channelCode="HHZ"/><filterID>ITAPER(4)&gt;&gt;BW(4,4,20)</filterID><methodID>AIC</methodID><horizontalSlowness><value>9.561426388557068</value></horizontalSlowness><backazimuth><value>57.17184173008981</value></backazimuth><phaseHint>P</phaseHint><evaluationMode>automatic</evaluationMode><comment><text>33.49433274588136</text><id>DFX:rectilinearity</id></comment><comment><text>13.562458755014914</text><id>SNR</id></comment></pick><pick publicID="de.gempa.tb1.Pick/20250415022655.233978.142923"><time><value>2025-04-15T02:26:43.79Z</value></time><waveformID networkCode="CX" stationCode="PB09" channelCode="HHZ"/><filterID>ITAPER(4)&gt;&gt;BW(4,4,20)</filterID><methodID>AIC</methodID><horizontalSlowness><value>16.81108651400623</value></horizontalSlowness><backazimuth><value>283.2906709464391</value></backazimuth><phaseHint>P</phaseHint><evaluationMode>automatic</evaluationMode><comment><text>18.77240076882977</text><id>DFX:rectilinearity</id></comment><comment><text>38.312315039573555</text><id>SNR</id></comment></pick><pick publicID="de.gempa.tb1.Pick/20250415022656.572994.142925"><time><value>2025-04-15T02:26:50.158393Z</value></time><waveformID networkCode="CX" stationCode="PB01" channelCode="HHZ"/><filterID>ITAPER(4)&gt;&gt;BW(4,4,20)</filterID><methodID>AIC</methodID><horizontalSlowness><value>19.433568291154533</value></horizontalSlowness><backazimuth><value>341.99151458141256</value></backazimuth><phaseHint>P</phaseHint><evaluationMode>automatic</evaluationMode><comment><text>31.970489222461</text><id>DFX:rectilinearity</id></comment><comment><text>9.357749307536329</text><id>SNR</id></comment></pick><pick publicID="de.gempa.tb1.Pick/20250415022656.645246.142927"><time><value>2025-04-15T02:26:49.168393Z</value></time><waveformID networkCode="CX" stationCode="PB07" channelCode="HHZ"/><filterID>ITAPER(4)&gt;&gt;BW(4,4,20)</filterID><methodID>AIC</methodID><horizontalSlowness><value>22.78471367169683</value></horizontalSlowness><backazimuth><value>117.94006300565542</value></backazimuth><phaseHint>P</phaseHint><evaluationMode>automatic</evaluationMode><comment><text>267.93686606240294</text><id>DFX:rectilinearity</id></comment><comment><text>67.76605254685558</text><id>SNR</id></comment></pick><pick publicID="de.gempa.tb1.Pick/20250415022701.490207.142929"><time><value>2025-04-15T02:26:51.868393Z</value></time><waveformID networkCode="CX" stationCode="PB02" channelCode="HHZ"/><filterID>ITAPER(4)&gt;&gt;BW(4,4,20)</filterID><methodID>AIC</methodID><horizontalSlowness><value>6.559522484167585</value></horizontalSlowness><backazimuth><value>325.3436481770026</value></backazimuth><phaseHint>P</phaseHint><evaluationMode>automatic</evaluationMode><comment><text>56.15113659616205</text><id>DFX:rectilinearity</id></comment><comment><text>9.588672273793557</text><id>SNR</id></comment></pick><pick publicID="de.gempa.tb1.Pick/20250415022718.632615.142935"><time><value>2025-04-15T02:27:13.338393Z</value></time><waveformID networkCode="CX" stationCode="PB03" channelCode="HHN"/><filterID>ITAPER(2)&gt;&gt;BW(3,3,20)</filterID><methodID>L2-AIC-GRID</methodID><horizontalSlowness><value>7.911380283048526</value></horizontalSlowness><backazimuth><value>259.71669417465796</value></backazimuth><phaseHint>S</phaseHint><evaluationMode>automatic</evaluationMode><comment><text>72.89289134416198</text><id>DFX:rectilinearity</id></comment><comment><text>de.gempa.tb1.Pick/20250415022651.740735.142919</text><id>RefPickID</id></comment><comment><text>13.608921685500793</text><id>SNR</id></comment></pick><pick publicID="de.gempa.tb1.Pick/20250415022722.597685.142938"><time><value>2025-04-15T02:27:14.54Z</value></time><waveformID networkCode="CX" stationCode="PB19" channelCode="HHN"/><filterID>ITAPER(2)&gt;&gt;BW(3,3,20)</filterID><methodID>L2-AIC-GRID</methodID><horizontalSlowness><value>19.085963580293487</value></horizontalSlowness><backazimuth><value>71.31772550514775</value></backazimuth><phaseHint>S</phaseHint><evaluationMode>automatic</evaluationMode><comment><text>446.47699774835553</text><id>DFX:rectilinearity</id></comment><comment><text>de.gempa.tb1.Pick/20250415022653.538757.142921</text><id>RefPickID</id></comment><comment><text>11.199241984739979</text><id>SNR</id></comment></pick><pick publicID="de.gempa.tb1.Pick/20250415022726.565866.142941"><time><value>2025-04-15T02:27:19.008393Z</value></time><waveformID networkCode="CX" stationCode="PB01" channelCode="HHN"/><filterID>ITAPER(2)&gt;&gt;BW(3,3,20)</filterID><methodID>L2-AIC-GRID</methodID><horizontalSlowness><value>19.25630749720366</value></horizontalSlowness><backazimuth><value>13.323503538112533</value></backazimuth><phaseHint>S</phaseHint><evaluationMode>automatic</evaluationMode><comment><text>126.92558928629889</text><id>DFX:rectilinearity</id></comment><comment><text>de.gempa.tb1.Pick/20250415022656.572994.142925</text><id>RefPickID</id></comment><comment><text>16.814714107657394</text><id>SNR</id></comment></pick><pick publicID="de.gempa.tb1.Pick/20250415022727.502351.142942"><time><value>2025-04-15T02:27:21.348393Z</value></time><waveformID networkCode="CX" stationCode="PB02" channelCode="HHN"/><filterID>ITAPER(2)&gt;&gt;BW(3,3,20)</filterID><methodID>L2-AIC-GRID</methodID><horizontalSlowness><value>21.468526830210394</value></horizontalSlowness><backazimuth><value>28.18230035935133</value></backazimuth><phaseHint>S</phaseHint><evaluationMode>automatic</evaluationMode><comment><text>241.9321585076557</text><id>DFX:rectilinearity</id></comment><comment><text>de.gempa.tb1.Pick/20250415022701.490207.142929</text><id>RefPickID</id></comment><comment><text>10.272711268914522</text><id>SNR</id></comment></pick><pick publicID="de.gempa.tb1.Pick/20250415022753.386313.142944"><time><value>2025-04-15T02:27:17.438393Z</value></time><waveformID networkCode="CX" stationCode="PB07" channelCode="HHN"/><filterID>ITAPER(2)&gt;&gt;BW(3,3,20)</filterID><methodID>L2-AIC-GRID</methodID><horizontalSlowness><value>23.40381363079582</value></horizontalSlowness><backazimuth><value>35.35378153217246</value></backazimuth><phaseHint>S</phaseHint><evaluationMode>automatic</evaluationMode><comment><text>2752.3993804196225</text><id>DFX:rectilinearity</id></comment><comment><text>de.gempa.tb1.Pick/20250415022656.645246.142927</text><id>RefPickID</id></comment><comment><text>7.931524694554101</text><id>SNR</id></comment></pick><origin publicID="de.gempa.tb1.Origin/20250415022753.801957.158377"><time><value>2025-04-15T02:26:13.359309Z</value><uncertainty>1.331331968307495</uncertainty></time><latitude><value>-22.49211311340332</value><uncertainty>4.1346750259399414</uncertainty></latitude><longitude><value>-67.66766357421875</value><uncertainty>19.770679473876953</uncertainty></longitude><depth><value>10.515470504760742</value><uncertainty>22.454843521118164</uncertainty></depth><depthType>from location</depthType><methodID>LOCSAT</methodID><earthModelID>iasp91_scanloc</earthModelID><quality><associatedPhaseCount>11</associatedPhaseCount><usedPhaseCount>11</usedPhaseCount><associatedStationCount>6</associatedStationCount><usedStationCount>6</usedStationCount><depthPhaseCount>0</depthPhaseCount><standardError>0.7790789103811445</standardError><azimuthalGap>276.30206298828125</azimuthalGap><maximumDistance>2.3755595684051514</maximumDistance><minimumDistance>1.6154087781906128</minimumDistance><medianDistance>2.1937856674194336</medianDistance></quality><uncertainty><minHorizontalUncertainty>7.989555835723877</minHorizontalUncertainty><maxHorizontalUncertainty>42.57743835449219</maxHorizontalUncertainty><azimuthMaxHorizontalUncertainty>84.72091674804688</azimuthMaxHorizontalUncertainty><preferredDescription>horizontal uncertainty</preferredDescription></uncertainty><evaluationMode>automatic</evaluationMode><evaluationStatus>confirmed</evaluationStatus><comment><text>0.36</text><id>mismatchScore</id></comment><comment><text>mismatchScore</text><id>scevalMethod</id></comment><arrival><pickID>de.gempa.tb1.Pick/20250415022651.740735.142919</pickID><phase>P</phase><azimuth>282.48016357421875</azimuth><distance>1.981519103050232</distance><timeResidual>-0.3218421936035156</timeResidual><timeUsed>true</timeUsed><horizontalSlownessUsed>false</horizontalSlownessUsed><backazimuthUsed>false</backazimuthUsed><weight>1</weight></arrival><arrival><pickID>de.gempa.tb1.Pick/20250415022653.538757.142921</pickID><phase>P</phase><azimuth>226.4071044921875</azimuth><distance>2.0510847568511963</distance><timeResidual>-0.4740200042724609</timeResidual><timeUsed>true</timeUsed><horizontalSlownessUsed>false</horizontalSlownessUsed><backazimuthUsed>false</backazimuthUsed><weight>1</weight></arrival><arrival><pickID>de.gempa.tb1.Pick/20250415022655.233978.142923</pickID><phase>P</phase><azimuth>295.0828857421875</azimuth><distance>1.6154087781906128</distance><timeResidual>1.9378337860107422</timeResidual><timeUsed>true</timeUsed><horizontalSlownessUsed>false</horizontalSlownessUsed><backazimuthUsed>false</backazimuthUsed><weight>1</weight></arrival><arrival><pickID>de.gempa.tb1.Pick/20250415022656.572994.142925</pickID><phase>P</phase><azimuth>310.10504150390625</azimuth><distance>2.2225866317749023</distance><timeResidual>-0.05151748657226562</timeResidual><timeUsed>true</timeUsed><horizontalSlownessUsed>false</horizontalSlownessUsed><backazimuthUsed>false</backazimuthUsed><weight>1</weight></arrival><arrival><pickID>de.gempa.tb1.Pick/20250415022656.645246.142927</pickID><phase>P</phase><azimuth>289.90032958984375</azimuth><distance>2.1937856674194336</distance><timeResidual>-0.6438007354736328</timeResidual><timeUsed>true</timeUsed><horizontalSlownessUsed>false</horizontalSlownessUsed><backazimuthUsed>false</backazimuthUsed><weight>1</weight></arrival><arrival><pickID>de.gempa.tb1.Pick/20250415022701.490207.142929</pickID><phase>P</phase><azimuth>298.9969787597656</azimuth><distance>2.3755595684051514</distance><timeResidual>-0.44628143310546875</timeResidual><timeUsed>true</timeUsed><horizontalSlownessUsed>false</horizontalSlownessUsed><backazimuthUsed>false</backazimuthUsed><weight>1</weight></arrival><arrival><pickID>de.gempa.tb1.Pick/20250415022718.632615.142935</pickID><phase>S</phase><azimuth>282.48016357421875</azimuth><distance>1.981519103050232</distance><timeResidual>0.7433090209960938</timeResidual><timeUsed>true</timeUsed><horizontalSlownessUsed>false</horizontalSlownessUsed><backazimuthUsed>false</backazimuthUsed><weight>1</weight></arrival><arrival><pickID>de.gempa.tb1.Pick/20250415022722.597685.142938</pickID><phase>S</phase><azimuth>226.4071044921875</azimuth><distance>2.0510847568511963</distance><timeResidual>0.2294731140136719</timeResidual><timeUsed>true</timeUsed><horizontalSlownessUsed>false</horizontalSlownessUsed><backazimuthUsed>false</backazimuthUsed><weight>1</weight></arrival><arrival><pickID>de.gempa.tb1.Pick/20250415022726.565866.142941</pickID><phase>S</phase><azimuth>310.10504150390625</azimuth><distance>2.2225866317749023</distance><timeResidual>0.4425392150878906</timeResidual><timeUsed>true</timeUsed><horizontalSlownessUsed>false</horizontalSlownessUsed><backazimuthUsed>false</backazimuthUsed><weight>1</weight></arrival><arrival><pickID>de.gempa.tb1.Pick/20250415022727.502351.142942</pickID><phase>S</phase><azimuth>298.9969787597656</azimuth><distance>2.3755595684051514</distance><timeResidual>-1.0029830932617188</timeResidual><timeUsed>true</timeUsed><horizontalSlownessUsed>false</horizontalSlownessUsed><backazimuthUsed>false</backazimuthUsed><weight>1</weight></arrival><arrival><pickID>de.gempa.tb1.Pick/20250415022753.386313.142944</pickID><phase>S</phase><azimuth>289.90032958984375</azimuth><distance>2.1937856674194336</distance><timeResidual>-0.4121208190917969</timeResidual><timeUsed>true</timeUsed><horizontalSlownessUsed>false</horizontalSlownessUsed><backazimuthUsed>false</backazimuthUsed><weight>1</weight></arrival><magnitude publicID="de.gempa.tb1.Magnitude/20250415022800.941088.562699"><magnitude><value>2.797604081622563</value></magnitude><type>M</type><methodID>weighted average</methodID><stationCount>6</stationCount></magnitude></origin><event publicID="gempa2025hkhd"><preferredOriginID>de.gempa.tb1.Origin/20250415022753.801957.158377</preferredOriginID><preferredMagnitudeID>de.gempa.tb1.Magnitude/20250415022800.941088.562699</preferredMagnitudeID><description><text>Chile-Bolivia Border Region</text><type>region name</type></description><originReference>de.gempa.tb1.Origin/20250415022753.801957.158377</originReference></event></EventParameters></seiscomp>