<?xml version="1.0" encoding="UTF-8"?>
<seiscomp xmlns="http://geofon.gfz-potsdam.de/ns/seiscomp3-schema/0.13" version="0.13"><EventParameters><pick publicID="de.gempa.tb1.Pick/20250412041331.53975.121840"><time><value>2025-04-12T04:13:26.238393Z</value></time><waveformID networkCode="CX" stationCode="PB01" channelCode="HHZ"/><filterID>ITAPER(4)&gt;&gt;BW(4,4,20)</filterID><methodID>AIC</methodID><horizontalSlowness><value>4.513213613110615</value></horizontalSlowness><backazimuth><value>181.91200080651763</value></backazimuth><phaseHint>P</phaseHint><evaluationMode>automatic</evaluationMode><comment><text>35.00832346607386</text><id>DFX:rectilinearity</id></comment><comment><text>66.77138605857591</text><id>SNR</id></comment></pick><pick publicID="de.gempa.tb1.Pick/20250412041331.653096.121842"><time><value>2025-04-12T04:13:25.788393Z</value></time><waveformID networkCode="CX" stationCode="PB03" channelCode="HHZ"/><filterID>ITAPER(4)&gt;&gt;BW(4,4,20)</filterID><methodID>AIC</methodID><horizontalSlowness><value>3.5641322414075924</value></horizontalSlowness><backazimuth><value>196.5070355558828</value></backazimuth><phaseHint>P</phaseHint><evaluationMode>automatic</evaluationMode><comment><text>6.067539138834928</text><id>DFX:rectilinearity</id></comment><comment><text>14.955986934061904</text><id>SNR</id></comment></pick><pick publicID="de.gempa.tb1.Pick/20250412041334.625271.121845"><time><value>2025-04-12T04:13:27.858394Z</value></time><waveformID networkCode="CX" stationCode="PB02" channelCode="HHZ"/><filterID>ITAPER(4)&gt;&gt;BW(4,4,20)</filterID><methodID>AIC</methodID><horizontalSlowness><value>11.488095831825676</value></horizontalSlowness><backazimuth><value>157.78339737224053</value></backazimuth><phaseHint>P</phaseHint><evaluationMode>automatic</evaluationMode><comment><text>30.92982234394689</text><id>DFX:rectilinearity</id></comment><comment><text>17.157737238046572</text><id>SNR</id></comment></pick><pick publicID="de.gempa.tb1.Pick/20250412041335.622377.121847"><time><value>2025-04-12T04:13:28.318394Z</value></time><waveformID networkCode="CX" stationCode="PB06" channelCode="HHZ"/><filterID>ITAPER(4)&gt;&gt;BW(4,4,20)</filterID><methodID>AIC</methodID><horizontalSlowness><value>21.315700687190418</value></horizontalSlowness><backazimuth><value>148.40971851188752</value></backazimuth><phaseHint>P</phaseHint><evaluationMode>automatic</evaluationMode><comment><text>50.66165110277788</text><id>DFX:rectilinearity</id></comment><comment><text>10.09637320228402</text><id>SNR</id></comment></pick><pick publicID="de.gempa.tb1.Pick/20250412041335.738835.121850"><time><value>2025-04-12T04:13:29.338393Z</value></time><waveformID networkCode="CX" stationCode="PB15" channelCode="HHZ"/><filterID>ITAPER(4)&gt;&gt;BW(4,4,20)</filterID><methodID>AIC</methodID><horizontalSlowness><value>21.583606193482648</value></horizontalSlowness><backazimuth><value>136.17751405016281</value></backazimuth><phaseHint>P</phaseHint><evaluationMode>automatic</evaluationMode><comment><text>297.2640447614449</text><id>DFX:rectilinearity</id></comment><comment><text>8.21133493715322</text><id>SNR</id></comment></pick><pick publicID="de.gempa.tb1.Pick/20250412041338.607865.121852"><time><value>2025-04-12T04:13:32.52Z</value></time><waveformID networkCode="CX" stationCode="PB19" channelCode="HHZ"/><filterID>ITAPER(4)&gt;&gt;BW(4,4,20)</filterID><methodID>AIC</methodID><horizontalSlowness><value>22.941648143565914</value></horizontalSlowness><backazimuth><value>319.46682492507864</value></backazimuth><phaseHint>P</phaseHint><evaluationMode>automatic</evaluationMode><comment><text>40.35348123309929</text><id>DFX:rectilinearity</id></comment><comment><text>12.127145658722766</text><id>SNR</id></comment></pick><pick publicID="de.gempa.tb1.Pick/20250412041343.36692.121854"><time><value>2025-04-12T04:13:33.569999Z</value></time><waveformID networkCode="CX" stationCode="PATCX" channelCode="HHZ"/><filterID>ITAPER(4)&gt;&gt;BW(4,4,20)</filterID><methodID>AIC</methodID><horizontalSlowness><value>22.250050613000507</value></horizontalSlowness><backazimuth><value>258.0898285712331</value></backazimuth><phaseHint>P</phaseHint><evaluationMode>automatic</evaluationMode><comment><text>621.4727828560557</text><id>DFX:rectilinearity</id></comment><comment><text>8.918780748654413</text><id>SNR</id></comment></pick><pick publicID="de.gempa.tb1.Pick/20250412041352.568562.121859"><time><value>2025-04-12T04:13:26.888394Z</value></time><waveformID networkCode="CX" stationCode="PB07" channelCode="HHZ"/><filterID>ITAPER(4)&gt;&gt;BW(4,4,20)</filterID><methodID>AIC</methodID><horizontalSlowness><value>18.57100810798578</value></horizontalSlowness><backazimuth><value>183.0208666686743</value></backazimuth><phaseHint>P</phaseHint><evaluationMode>automatic</evaluationMode><comment><text>138.45142872036232</text><id>DFX:rectilinearity</id></comment><comment><text>26.06696677624361</text><id>SNR</id></comment></pick><origin publicID="de.gempa.tb1.Origin/20250412041401.033704.73751"><time><value>2025-04-12T04:12:46.977396Z</value><uncertainty>4.950450420379639</uncertainty></time><latitude><value>-21.771547317504883</value><uncertainty>12.159062385559082</uncertainty></latitude><longitude><value>-67.26588439941406</value><uncertainty>42.63724136352539</uncertainty></longitude><depth><value>0</value></depth><depthType>operator assigned</depthType><methodID>LOCSAT</methodID><earthModelID>iasp91_scanloc</earthModelID><quality><associatedPhaseCount>8</associatedPhaseCount><usedPhaseCount>8</usedPhaseCount><associatedStationCount>8</associatedStationCount><usedStationCount>8</usedStationCount><depthPhaseCount>0</depthPhaseCount><standardError>1.077667072129663</standardError><azimuthalGap>292.0640869140625</azimuthalGap><maximumDistance>2.8535640239715576</maximumDistance><minimumDistance>2.1932494640350342</minimumDistance><medianDistance>2.489464282989502</medianDistance></quality><uncertainty><minHorizontalUncertainty>15.486580848693848</minHorizontalUncertainty><maxHorizontalUncertainty>93.84475708007812</maxHorizontalUncertainty><azimuthMaxHorizontalUncertainty>76.89308166503906</azimuthMaxHorizontalUncertainty><preferredDescription>horizontal uncertainty</preferredDescription></uncertainty><evaluationMode>automatic</evaluationMode><evaluationStatus>confirmed</evaluationStatus><comment><text>0.48</text><id>mismatchScore</id></comment><comment><text>mismatchScore</text><id>scevalMethod</id></comment><arrival><pickID>de.gempa.tb1.Pick/20250412041331.53975.121840</pickID><phase>P</phase><azimuth>288.8894958496094</azimuth><distance>2.1932494640350342</distance><timeResidual>1.553264617919922</timeResidual><timeUsed>true</timeUsed><horizontalSlownessUsed>false</horizontalSlownessUsed><backazimuthUsed>false</backazimuthUsed><weight>1</weight></arrival><arrival><pickID>de.gempa.tb1.Pick/20250412041331.653096.121842</pickID><phase>P</phase><azimuth>262.7356262207031</azimuth><distance>2.3260653018951416</distance><timeResidual>-0.7235832214355469</timeResidual><timeUsed>true</timeUsed><horizontalSlownessUsed>false</horizontalSlownessUsed><backazimuthUsed>false</backazimuthUsed><weight>1</weight></arrival><arrival><pickID>de.gempa.tb1.Pick/20250412041334.625271.121845</pickID><phase>P</phase><azimuth>279.922607421875</azimuth><distance>2.489464282989502</distance><timeResidual>-0.9034309387207031</timeResidual><timeUsed>true</timeUsed><horizontalSlownessUsed>false</horizontalSlownessUsed><backazimuthUsed>false</backazimuthUsed><weight>1</weight></arrival><arrival><pickID>de.gempa.tb1.Pick/20250412041335.622377.121847</pickID><phase>P</phase><azimuth>246.0511779785156</azimuth><distance>2.329998731613159</distance><timeResidual>1.7530593872070312</timeResidual><timeUsed>true</timeUsed><horizontalSlownessUsed>false</horizontalSlownessUsed><backazimuthUsed>false</backazimuthUsed><weight>1</weight></arrival><arrival><pickID>de.gempa.tb1.Pick/20250412041335.738835.121850</pickID><phase>P</phase><azimuth>234.54669189453125</azimuth><distance>2.4906294345855713</distance><timeResidual>0.5627670288085938</timeResidual><timeUsed>true</timeUsed><horizontalSlownessUsed>false</horizontalSlownessUsed><backazimuthUsed>false</backazimuthUsed><weight>1</weight></arrival><arrival><pickID>de.gempa.tb1.Pick/20250412041338.607865.121852</pickID><phase>P</phase><azimuth>220.95358276367188</azimuth><distance>2.827807664871216</distance><timeResidual>-0.8956451416015625</timeResidual><timeUsed>true</timeUsed><horizontalSlownessUsed>false</horizontalSlownessUsed><backazimuthUsed>false</backazimuthUsed><weight>1</weight></arrival><arrival><pickID>de.gempa.tb1.Pick/20250412041343.36692.121854</pickID><phase>P</phase><azimuth>288.8378601074219</azimuth><distance>2.8535640239715576</distance><timeResidual>-0.20380020141601562</timeResidual><timeUsed>true</timeUsed><horizontalSlownessUsed>false</horizontalSlownessUsed><backazimuthUsed>false</backazimuthUsed><weight>1</weight></arrival><arrival><pickID>de.gempa.tb1.Pick/20250412041352.568562.121859</pickID><phase>P</phase><azimuth>270.5673828125</azimuth><distance>2.4363811016082764</distance><timeResidual>-1.142322540283203</timeResidual><timeUsed>true</timeUsed><horizontalSlownessUsed>false</horizontalSlownessUsed><backazimuthUsed>false</backazimuthUsed><weight>1</weight></arrival><magnitude publicID="de.gempa.tb1.Magnitude/20250412041401.038245.174773"><magnitude><value>3.079183140258881</value></magnitude><type>M</type><methodID>weighted average</methodID><stationCount>6</stationCount></magnitude></origin><event publicID="gempa2025hewq"><preferredOriginID>de.gempa.tb1.Origin/20250412041401.033704.73751</preferredOriginID><preferredMagnitudeID>de.gempa.tb1.Magnitude/20250412041401.038245.174773</preferredMagnitudeID><description><text>Chile-Bolivia Border Region</text><type>region name</type></description><originReference>de.gempa.tb1.Origin/20250412041401.033704.73751</originReference></event></EventParameters></seiscomp>