<?xml version="1.0" encoding="UTF-8"?>
<seiscomp xmlns="http://geofon.gfz-potsdam.de/ns/seiscomp3-schema/0.13" version="0.13"><EventParameters><pick publicID="de.gempa.tb1.Pick/20250412062329.535448.122469"><time><value>2025-04-12T06:23:21.808393Z</value></time><waveformID networkCode="CX" stationCode="PB01" channelCode="HHZ"/><filterID>ITAPER(4)&gt;&gt;BW(4,4,20)</filterID><methodID>AIC</methodID><horizontalSlowness><value>18.745195929489018</value></horizontalSlowness><backazimuth><value>259.6829583097355</value></backazimuth><phaseHint>P</phaseHint><evaluationMode>automatic</evaluationMode><comment><text>5.688049736175309</text><id>DFX:rectilinearity</id></comment><comment><text>28.64722497909202</text><id>SNR</id></comment></pick><pick publicID="de.gempa.tb1.Pick/20250412062331.612242.122471"><time><value>2025-04-12T06:23:26.108393Z</value></time><waveformID networkCode="CX" stationCode="PB02" channelCode="HHZ"/><filterID>ITAPER(4)&gt;&gt;BW(4,4,20)</filterID><methodID>AIC</methodID><horizontalSlowness><value>4.3020321096761593</value></horizontalSlowness><backazimuth><value>154.77152442986608</value></backazimuth><phaseHint>P</phaseHint><evaluationMode>automatic</evaluationMode><comment><text>44.319059283827087</text><id>DFX:rectilinearity</id></comment><comment><text>13.94334440454481</text><id>SNR</id></comment></pick><pick publicID="de.gempa.tb1.Pick/20250412062331.66.122473"><time><value>2025-04-12T06:23:25.07Z</value></time><waveformID networkCode="CX" stationCode="PB09" channelCode="HHZ"/><filterID>ITAPER(4)&gt;&gt;BW(4,4,20)</filterID><methodID>AIC</methodID><horizontalSlowness><value>13.923407004274713</value></horizontalSlowness><backazimuth><value>274.45257354117763</value></backazimuth><phaseHint>P</phaseHint><evaluationMode>automatic</evaluationMode><comment><text>8.46395434211072</text><id>DFX:rectilinearity</id></comment><comment><text>9.714092903073588</text><id>SNR</id></comment></pick><pick publicID="de.gempa.tb1.Pick/20250412062333.046267.122475"><time><value>2025-04-12T06:23:26.828393Z</value></time><waveformID networkCode="CX" stationCode="PB08" channelCode="HHZ"/><filterID>ITAPER(4)&gt;&gt;BW(4,4,20)</filterID><methodID>AIC</methodID><horizontalSlowness><value>13.970647638580875</value></horizontalSlowness><backazimuth><value>90.76669506577898</value></backazimuth><phaseHint>P</phaseHint><evaluationMode>automatic</evaluationMode><comment><text>9.871515731163813</text><id>DFX:rectilinearity</id></comment><comment><text>9.261919938503322</text><id>SNR</id></comment></pick><pick publicID="de.gempa.tb1.Pick/20250412062341.564423.122477"><time><value>2025-04-12T06:23:36.65Z</value></time><waveformID networkCode="CX" stationCode="PSGCX" channelCode="HHZ"/><filterID>ITAPER(4)&gt;&gt;BW(4,4,20)</filterID><methodID>AIC</methodID><horizontalSlowness><value>9.699032485219643</value></horizontalSlowness><backazimuth><value>82.05362954623705</value></backazimuth><phaseHint>P</phaseHint><evaluationMode>automatic</evaluationMode><comment><text>25.072165799458514</text><id>DFX:rectilinearity</id></comment><comment><text>17.901087266625787</text><id>SNR</id></comment></pick><pick publicID="de.gempa.tb1.Pick/20250412062342.574272.122479"><time><value>2025-04-12T06:23:34.608393Z</value></time><waveformID networkCode="CX" stationCode="PB01" channelCode="HHN"/><filterID>ITAPER(2)&gt;&gt;BW(3,3,20)</filterID><methodID>L2-AIC-GRID</methodID><horizontalSlowness><value>18.802887315466464</value></horizontalSlowness><backazimuth><value>321.59793914132047</value></backazimuth><phaseHint>S</phaseHint><evaluationMode>automatic</evaluationMode><comment><text>82.89666562995417</text><id>DFX:rectilinearity</id></comment><comment><text>de.gempa.tb1.Pick/20250412062329.535448.122469</text><id>RefPickID</id></comment><comment><text>10.277594099848361</text><id>SNR</id></comment></pick><pick publicID="de.gempa.tb1.Pick/20250412062347.500847.122480"><time><value>2025-04-12T06:23:39.84Z</value></time><waveformID networkCode="CX" stationCode="PB09" channelCode="HHN"/><filterID>ITAPER(2)&gt;&gt;BW(3,3,20)</filterID><methodID>L2-AIC-GRID</methodID><horizontalSlowness><value>19.02569092886334</value></horizontalSlowness><backazimuth><value>317.1855017718539</value></backazimuth><phaseHint>S</phaseHint><evaluationMode>automatic</evaluationMode><comment><text>19.387474268647576</text><id>DFX:rectilinearity</id></comment><comment><text>de.gempa.tb1.Pick/20250412062331.66.122473</text><id>RefPickID</id></comment><comment><text>5.021576908961157</text><id>SNR</id></comment></pick><pick publicID="de.gempa.tb1.Pick/20250412062350.542939.122481"><time><value>2025-04-12T06:23:41.948393Z</value></time><waveformID networkCode="CX" stationCode="PB02" channelCode="HHN"/><filterID>ITAPER(2)&gt;&gt;BW(3,3,20)</filterID><methodID>L2-AIC-GRID</methodID><horizontalSlowness><value>5.53233135788985</value></horizontalSlowness><backazimuth><value>129.36294330086437</value></backazimuth><phaseHint>S</phaseHint><evaluationMode>automatic</evaluationMode><comment><text>271.5806700882327</text><id>DFX:rectilinearity</id></comment><comment><text>de.gempa.tb1.Pick/20250412062331.612242.122471</text><id>RefPickID</id></comment><comment><text>10.405043276968383</text><id>SNR</id></comment></pick><pick publicID="de.gempa.tb1.Pick/20250412062351.181313.122482"><time><value>2025-04-12T06:23:43.918393Z</value></time><waveformID networkCode="CX" stationCode="PB08" channelCode="HHN"/><filterID>ITAPER(2)&gt;&gt;BW(3,3,20)</filterID><methodID>L2-AIC-GRID</methodID><horizontalSlowness><value>11.364192046647837</value></horizontalSlowness><backazimuth><value>193.8888553914588</value></backazimuth><phaseHint>S</phaseHint><evaluationMode>automatic</evaluationMode><comment><text>17.908696456288357</text><id>DFX:rectilinearity</id></comment><comment><text>de.gempa.tb1.Pick/20250412062333.046267.122475</text><id>RefPickID</id></comment><comment><text>5.424536814014501</text><id>SNR</id></comment></pick><pick publicID="de.gempa.tb1.Pick/20250412062409.764881.122485"><time><value>2025-04-12T06:24:00.72Z</value></time><waveformID networkCode="CX" stationCode="PSGCX" channelCode="HHN"/><filterID>ITAPER(2)&gt;&gt;BW(3,3,20)</filterID><methodID>L2-AIC-GRID</methodID><horizontalSlowness><value>15.85625822276276</value></horizontalSlowness><backazimuth><value>104.84444867220851</value></backazimuth><phaseHint>S</phaseHint><evaluationMode>automatic</evaluationMode><comment><text>95.55705431341974</text><id>DFX:rectilinearity</id></comment><comment><text>de.gempa.tb1.Pick/20250412062341.564423.122477</text><id>RefPickID</id></comment><comment><text>8.038711926555525</text><id>SNR</id></comment></pick><origin publicID="de.gempa.tb1.Origin/20250412062409.768853.76842"><time><value>2025-04-12T06:23:06.018397Z</value><uncertainty>1.0366652011871338</uncertainty></time><latitude><value>-21.09114646911621</value><uncertainty>3.573833227157593</uncertainty></latitude><longitude><value>-69.02490234375</value><uncertainty>7.658114910125732</uncertainty></longitude><depth><value>112.41671752929688</value><uncertainty>7.592551231384277</uncertainty></depth><depthType>from location</depthType><methodID>LOCSAT</methodID><earthModelID>iasp91_scanloc</earthModelID><quality><associatedPhaseCount>10</associatedPhaseCount><usedPhaseCount>10</usedPhaseCount><associatedStationCount>5</associatedStationCount><usedStationCount>5</usedStationCount><depthPhaseCount>0</depthPhaseCount><standardError>0.5639892148453443</standardError><azimuthalGap>203.31173706054688</azimuthalGap><maximumDistance>1.808617115020752</maximumDistance><minimumDistance>0.43457630276679993</minimumDistance><medianDistance>0.844071090221405</medianDistance></quality><uncertainty><minHorizontalUncertainty>7.636438369750977</minHorizontalUncertainty><maxHorizontalUncertainty>16.435558319091797</maxHorizontalUncertainty><azimuthMaxHorizontalUncertainty>87.44117736816406</azimuthMaxHorizontalUncertainty><preferredDescription>horizontal uncertainty</preferredDescription></uncertainty><evaluationMode>automatic</evaluationMode><evaluationStatus>confirmed</evaluationStatus><comment><text>0.23</text><id>mismatchScore</id></comment><comment><text>mismatchScore</text><id>scevalMethod</id></comment><arrival><pickID>de.gempa.tb1.Pick/20250412062329.535448.122469</pickID><phase>P</phase><azimuth>276.2159729003906</azimuth><distance>0.43457630276679993</distance><timeResidual>-0.9410848617553711</timeResidual><timeUsed>true</timeUsed><horizontalSlownessUsed>false</horizontalSlownessUsed><backazimuthUsed>false</backazimuthUsed><weight>1</weight></arrival><arrival><pickID>de.gempa.tb1.Pick/20250412062331.612242.122471</pickID><phase>P</phase><azimuth>254.2110137939453</azimuth><distance>0.844071090221405</distance><timeResidual>0.1836872100830078</timeResidual><timeUsed>true</timeUsed><horizontalSlownessUsed>false</horizontalSlownessUsed><backazimuthUsed>false</backazimuthUsed><weight>1</weight></arrival><arrival><pickID>de.gempa.tb1.Pick/20250412062331.66.122473</pickID><phase>P</phase><azimuth>196.03219604492188</azimuth><distance>0.7303052544593811</distance><timeResidual>0.16690444946289062</timeResidual><timeUsed>true</timeUsed><horizontalSlownessUsed>false</horizontalSlownessUsed><backazimuthUsed>false</backazimuthUsed><weight>1</weight></arrival><arrival><pickID>de.gempa.tb1.Pick/20250412062333.046267.122475</pickID><phase>P</phase><azimuth>352.720458984375</azimuth><distance>0.9528621435165405</distance><timeResidual>-0.15194225311279297</timeResidual><timeUsed>true</timeUsed><horizontalSlownessUsed>false</horizontalSlownessUsed><backazimuthUsed>false</backazimuthUsed><weight>1</weight></arrival><arrival><pickID>de.gempa.tb1.Pick/20250412062341.564423.122477</pickID><phase>P</phase><azimuth>325.0758056640625</azimuth><distance>1.808617115020752</distance><timeResidual>-0.10820770263671875</timeResidual><timeUsed>true</timeUsed><horizontalSlownessUsed>false</horizontalSlownessUsed><backazimuthUsed>false</backazimuthUsed><weight>1</weight></arrival><arrival><pickID>de.gempa.tb1.Pick/20250412062342.574272.122479</pickID><phase>S</phase><azimuth>276.2159729003906</azimuth><distance>0.43457630276679993</distance><timeResidual>-1.0214967727661133</timeResidual><timeUsed>true</timeUsed><horizontalSlownessUsed>false</horizontalSlownessUsed><backazimuthUsed>false</backazimuthUsed><weight>1</weight></arrival><arrival><pickID>de.gempa.tb1.Pick/20250412062347.500847.122480</pickID><phase>S</phase><azimuth>196.03219604492188</azimuth><distance>0.7303052544593811</distance><timeResidual>0.37559986114501953</timeResidual><timeUsed>true</timeUsed><horizontalSlownessUsed>false</horizontalSlownessUsed><backazimuthUsed>false</backazimuthUsed><weight>1</weight></arrival><arrival><pickID>de.gempa.tb1.Pick/20250412062350.542939.122481</pickID><phase>S</phase><azimuth>254.2110137939453</azimuth><distance>0.844071090221405</distance><timeResidual>0.6638784408569336</timeResidual><timeUsed>true</timeUsed><horizontalSlownessUsed>false</horizontalSlownessUsed><backazimuthUsed>false</backazimuthUsed><weight>1</weight></arrival><arrival><pickID>de.gempa.tb1.Pick/20250412062351.181313.122482</pickID><phase>S</phase><azimuth>352.720458984375</azimuth><distance>0.9528621435165405</distance><timeResidual>0.7531309127807617</timeResidual><timeUsed>true</timeUsed><horizontalSlownessUsed>false</horizontalSlownessUsed><backazimuthUsed>false</backazimuthUsed><weight>1</weight></arrival><arrival><pickID>de.gempa.tb1.Pick/20250412062409.764881.122485</pickID><phase>S</phase><azimuth>325.0758056640625</azimuth><distance>1.808617115020752</distance><timeResidual>0.07957744598388672</timeResidual><timeUsed>true</timeUsed><horizontalSlownessUsed>false</horizontalSlownessUsed><backazimuthUsed>false</backazimuthUsed><weight>1</weight></arrival><magnitude publicID="de.gempa.tb1.Magnitude/20250412062415.937719.187537"><magnitude><value>2.0432811956927766</value></magnitude><type>M</type><methodID>weighted average</methodID><stationCount>3</stationCount></magnitude></origin><event publicID="gempa2025hfaz"><preferredOriginID>de.gempa.tb1.Origin/20250412062409.768853.76842</preferredOriginID><preferredMagnitudeID>de.gempa.tb1.Magnitude/20250412062415.937719.187537</preferredMagnitudeID><description><text>Northern Chile</text><type>region name</type></description><originReference>de.gempa.tb1.Origin/20250412062409.768853.76842</originReference></event></EventParameters></seiscomp>