<?xml version="1.0" encoding="UTF-8"?>
<seiscomp xmlns="http://geofon.gfz-potsdam.de/ns/seiscomp3-schema/0.13" version="0.13"><EventParameters><pick publicID="de.gempa.tb2.Pick/20250411200316.113614.62674"><time><value>2025-04-11T20:03:11.850001Z</value></time><waveformID networkCode="CH" stationCode="FIESA" channelCode="HHZ"/><filterID>ITAPER(4)&gt;&gt;BW(4,4,20)</filterID><methodID>AIC</methodID><phaseHint>P</phaseHint><evaluationMode>automatic</evaluationMode></pick><pick publicID="de.gempa.tb2.Pick/20250411200318.201384.62676"><time><value>2025-04-11T20:03:08.99Z</value></time><waveformID networkCode="CH" stationCode="SIMPL" channelCode="HHZ"/><filterID>ITAPER(4)&gt;&gt;BW(4,4,20)</filterID><methodID>AIC</methodID><phaseHint>P</phaseHint><evaluationMode>automatic</evaluationMode></pick><pick publicID="de.gempa.tb2.Pick/20250411200320.212688.62678"><time><value>2025-04-11T20:03:15.09Z</value></time><waveformID networkCode="CH" stationCode="MMK" channelCode="HHZ"/><filterID>ITAPER(4)&gt;&gt;BW(4,4,20)</filterID><methodID>AIC</methodID><phaseHint>P</phaseHint><evaluationMode>automatic</evaluationMode></pick><pick publicID="de.gempa.tb2.Pick/20250411200326.150405.62680"><time><value>2025-04-11T20:03:14.015Z</value></time><waveformID networkCode="CH" stationCode="VANNI" channelCode="HHZ"/><filterID>ITAPER(4)&gt;&gt;BW(4,4,20)</filterID><methodID>AIC</methodID><phaseHint>P</phaseHint><evaluationMode>automatic</evaluationMode></pick><pick publicID="de.gempa.tb2.Pick/20250411200328.151988.62682"><time><value>2025-04-11T20:03:20.52Z</value></time><waveformID networkCode="CH" stationCode="VANNI" channelCode="HHN"/><filterID>RMHP(1)&gt;&gt;ITAPER(2)&gt;&gt;BW(4,3,20)</filterID><methodID>L2-AIC-GRID</methodID><phaseHint>S</phaseHint><evaluationMode>automatic</evaluationMode><comment><text>de.gempa.tb2.Pick/20250411200326.150405.62680</text><id>RefPickID</id></comment></pick><pick publicID="de.gempa.tb2.Pick/20250411200337.986645.62683"><time><value>2025-04-11T20:03:27.845Z</value></time><waveformID networkCode="CH" stationCode="GIMEL" channelCode="HHZ"/><filterID>ITAPER(4)&gt;&gt;BW(4,4,20)</filterID><methodID>AIC</methodID><phaseHint>P</phaseHint><evaluationMode>automatic</evaluationMode></pick><origin publicID="de.gempa.tb2.Origin/20250411200337.998127.37312"><time><value>2025-04-11T20:03:06.077646Z</value><uncertainty>0.7420231103897095</uncertainty></time><latitude><value>46.30635833740234</value><uncertainty>4.851099491119385</uncertainty></latitude><longitude><value>8.026044845581055</value><uncertainty>4.573529720306396</uncertainty></longitude><depth><value>20.113222122192383</value><uncertainty>5.40644645690918</uncertainty></depth><depthType>from location</depthType><methodID>LOCSAT</methodID><earthModelID>iasp91</earthModelID><quality><associatedPhaseCount>6</associatedPhaseCount><usedPhaseCount>6</usedPhaseCount><associatedStationCount>5</associatedStationCount><usedStationCount>5</usedStationCount><depthPhaseCount>0</depthPhaseCount><standardError>0.9365483331404351</standardError><azimuthalGap>159.49960327148438</azimuthalGap><maximumDistance>1.238977551460266</maximumDistance><minimumDistance>0.06690698862075806</minimumDistance><medianDistance>0.31302550435066223</medianDistance></quality><uncertainty><minHorizontalUncertainty>8.455788612365723</minHorizontalUncertainty><maxHorizontalUncertainty>11.534420013427734</maxHorizontalUncertainty><azimuthMaxHorizontalUncertainty>140.63992309570312</azimuthMaxHorizontalUncertainty><preferredDescription>horizontal uncertainty</preferredDescription></uncertainty><evaluationMode>automatic</evaluationMode><arrival><pickID>de.gempa.tb2.Pick/20250411200316.113614.62674</pickID><phase>P</phase><azimuth>24.34580993652344</azimuth><distance>0.14156872034072876</distance><timeResidual>0.18511533737182617</timeResidual><timeUsed>true</timeUsed><horizontalSlownessUsed>false</horizontalSlownessUsed><backazimuthUsed>false</backazimuthUsed><weight>1</weight></arrival><arrival><pickID>de.gempa.tb2.Pick/20250411200318.201384.62676</pickID><phase>P</phase><azimuth>183.8454132080078</azimuth><distance>0.06690698862075806</distance><timeResidual>-1.539090871810913</timeResidual><timeUsed>true</timeUsed><horizontalSlownessUsed>false</horizontalSlownessUsed><backazimuthUsed>false</backazimuthUsed><weight>1</weight></arrival><arrival><pickID>de.gempa.tb2.Pick/20250411200320.212688.62678</pickID><phase>P</phase><azimuth>189.58670043945312</azimuth><distance>0.2595009207725525</distance><timeResidual>1.6375391483306885</timeResidual><timeUsed>true</timeUsed><horizontalSlownessUsed>false</horizontalSlownessUsed><backazimuthUsed>false</backazimuthUsed><weight>1</weight></arrival><arrival><pickID>de.gempa.tb2.Pick/20250411200326.150405.62680</pickID><phase>P</phase><azimuth>252.2327423095703</azimuth><distance>0.31302550435066223</distance><timeResidual>-0.24752211570739746</timeResidual><timeUsed>true</timeUsed><horizontalSlownessUsed>false</horizontalSlownessUsed><backazimuthUsed>false</backazimuthUsed><weight>1</weight></arrival><arrival><pickID>de.gempa.tb2.Pick/20250411200328.151988.62682</pickID><phase>S</phase><azimuth>252.2327423095703</azimuth><distance>0.31302550435066223</distance><timeResidual>0.2230532169342041</timeResidual><timeUsed>true</timeUsed><horizontalSlownessUsed>false</horizontalSlownessUsed><backazimuthUsed>false</backazimuthUsed><weight>1</weight></arrival><arrival><pickID>de.gempa.tb2.Pick/20250411200337.986645.62683</pickID><phase>P</phase><azimuth>281.2084045410156</azimuth><distance>1.238977551460266</distance><timeResidual>-0.2590634822845459</timeResidual><timeUsed>true</timeUsed><horizontalSlownessUsed>false</horizontalSlownessUsed><backazimuthUsed>false</backazimuthUsed><weight>1</weight></arrival><magnitude publicID="de.gempa.tb2.Magnitude/20250411200351.143395.30588"><magnitude><value>0.8111620980620008</value></magnitude><type>M</type><methodID>weighted average</methodID><stationCount>5</stationCount></magnitude></origin><event publicID="gempa2025hegh"><preferredOriginID>de.gempa.tb2.Origin/20250411200337.998127.37312</preferredOriginID><preferredMagnitudeID>de.gempa.tb2.Magnitude/20250411200351.143395.30588</preferredMagnitudeID><description><text>Switzerland</text><type>region name</type></description><originReference>de.gempa.tb2.Origin/20250411200337.998127.37312</originReference></event></EventParameters></seiscomp>