<?xml version="1.0" encoding="UTF-8"?>
<seiscomp xmlns="http://geofon.gfz-potsdam.de/ns/seiscomp3-schema/0.13" version="0.13"><EventParameters><pick publicID="de.gempa.tb1.Pick/20250414195349.638002.140816"><time><value>2025-04-14T19:53:41.998393Z</value></time><waveformID networkCode="CX" stationCode="PB01" channelCode="HHZ"/><filterID>ITAPER(4)&gt;&gt;BW(4,4,20)</filterID><methodID>AIC</methodID><horizontalSlowness><value>17.277343617628397</value></horizontalSlowness><backazimuth><value>78.10143851370358</value></backazimuth><phaseHint>P</phaseHint><evaluationMode>automatic</evaluationMode><comment><text>94.00949277632421</text><id>DFX:rectilinearity</id></comment><comment><text>24.90618783198647</text><id>SNR</id></comment></pick><pick publicID="de.gempa.tb1.Pick/20250414195353.641061.140818"><time><value>2025-04-14T19:53:46.64Z</value></time><waveformID networkCode="CX" stationCode="PB09" channelCode="HHZ"/><filterID>ITAPER(4)&gt;&gt;BW(4,4,20)</filterID><methodID>AIC</methodID><horizontalSlowness><value>13.611143419694898</value></horizontalSlowness><backazimuth><value>51.66086040919112</value></backazimuth><phaseHint>P</phaseHint><evaluationMode>automatic</evaluationMode><comment><text>14.63807284814263</text><id>DFX:rectilinearity</id></comment><comment><text>12.904084898344703</text><id>SNR</id></comment></pick><pick publicID="de.gempa.tb1.Pick/20250414195354.565399.140820"><time><value>2025-04-14T19:53:49.788394Z</value></time><waveformID networkCode="CX" stationCode="PB02" channelCode="HHZ"/><filterID>ITAPER(4)&gt;&gt;BW(4,4,20)</filterID><methodID>AIC</methodID><horizontalSlowness><value>13.477211153367247</value></horizontalSlowness><backazimuth><value>54.90579371353675</value></backazimuth><phaseHint>P</phaseHint><evaluationMode>automatic</evaluationMode><comment><text>254.8033851424506</text><id>DFX:rectilinearity</id></comment><comment><text>64.36431270008636</text><id>SNR</id></comment></pick><pick publicID="de.gempa.tb1.Pick/20250414195400.426442.140822"><time><value>2025-04-14T19:53:53.269999Z</value></time><waveformID networkCode="CX" stationCode="PATCX" channelCode="HHZ"/><filterID>ITAPER(4)&gt;&gt;BW(4,4,20)</filterID><methodID>AIC</methodID><horizontalSlowness><value>23.56023985461621</value></horizontalSlowness><backazimuth><value>152.90689776204718</value></backazimuth><phaseHint>P</phaseHint><evaluationMode>automatic</evaluationMode><comment><text>118.6434116558805</text><id>DFX:rectilinearity</id></comment><comment><text>13.278396966429074</text><id>SNR</id></comment></pick><pick publicID="de.gempa.tb1.Pick/20250414195403.696114.140824"><time><value>2025-04-14T19:53:55.638394Z</value></time><waveformID networkCode="CX" stationCode="PB03" channelCode="HHZ"/><filterID>ITAPER(4)&gt;&gt;BW(4,4,20)</filterID><methodID>AIC</methodID><horizontalSlowness><value>10.29297147861017</value></horizontalSlowness><backazimuth><value>39.146653902055874</value></backazimuth><phaseHint>P</phaseHint><evaluationMode>automatic</evaluationMode><comment><text>24.48784297965715</text><id>DFX:rectilinearity</id></comment><comment><text>26.109151268233983</text><id>SNR</id></comment></pick><pick publicID="de.gempa.tb1.Pick/20250414195405.153987.140826"><time><value>2025-04-14T19:53:53.928393Z</value></time><waveformID networkCode="CX" stationCode="PB07" channelCode="HHZ"/><filterID>ITAPER(4)&gt;&gt;BW(4,4,20)</filterID><methodID>AIC</methodID><horizontalSlowness><value>18.346524233693454</value></horizontalSlowness><backazimuth><value>85.22889259371381</value></backazimuth><phaseHint>P</phaseHint><evaluationMode>automatic</evaluationMode><comment><text>1877.9285520433632</text><id>DFX:rectilinearity</id></comment><comment><text>13.966222736453272</text><id>SNR</id></comment></pick><pick publicID="de.gempa.tb1.Pick/20250414195411.575698.140829"><time><value>2025-04-14T19:54:02.72Z</value></time><waveformID networkCode="CX" stationCode="PSGCX" channelCode="HHZ"/><filterID>ITAPER(4)&gt;&gt;BW(4,4,20)</filterID><methodID>AIC</methodID><horizontalSlowness><value>15.89362233638066</value></horizontalSlowness><backazimuth><value>119.12994149878242</value></backazimuth><phaseHint>P</phaseHint><evaluationMode>automatic</evaluationMode><comment><text>24.65952630324484</text><id>DFX:rectilinearity</id></comment><comment><text>32.891840751238554</text><id>SNR</id></comment></pick><pick publicID="de.gempa.tb1.Pick/20250414195412.523869.140831"><time><value>2025-04-14T19:54:04.188393Z</value></time><waveformID networkCode="CX" stationCode="PB06" channelCode="HHZ"/><filterID>ITAPER(4)&gt;&gt;BW(4,4,20)</filterID><methodID>AIC</methodID><horizontalSlowness><value>12.044691370209184</value></horizontalSlowness><backazimuth><value>96.43622654554041</value></backazimuth><phaseHint>P</phaseHint><evaluationMode>automatic</evaluationMode><comment><text>109.2772039049685</text><id>DFX:rectilinearity</id></comment><comment><text>10.499081072852972</text><id>SNR</id></comment></pick><pick publicID="de.gempa.tb1.Pick/20250414195419.657501.140834"><time><value>2025-04-14T19:54:12.128394Z</value></time><waveformID networkCode="CX" stationCode="PB15" channelCode="HHZ"/><filterID>ITAPER(4)&gt;&gt;BW(4,4,20)</filterID><methodID>AIC</methodID><horizontalSlowness><value>15.658817194606307</value></horizontalSlowness><backazimuth><value>85.89843699480555</value></backazimuth><phaseHint>P</phaseHint><evaluationMode>automatic</evaluationMode><comment><text>1268.8751782314848</text><id>DFX:rectilinearity</id></comment><comment><text>7.309927047872701</text><id>SNR</id></comment></pick><origin publicID="de.gempa.tb1.Origin/20250414195419.660916.149363"><time><value>2025-04-14T19:53:31.610395Z</value><uncertainty>0.936992883682251</uncertainty></time><latitude><value>-20.979970932006836</value><uncertainty>4.518641471862793</uncertainty></latitude><longitude><value>-68.9516830444336</value><uncertainty>6.772450923919678</uncertainty></longitude><depth><value>0</value></depth><depthType>operator assigned</depthType><methodID>LOCSAT</methodID><earthModelID>iasp91_scanloc</earthModelID><quality><associatedPhaseCount>9</associatedPhaseCount><usedPhaseCount>9</usedPhaseCount><associatedStationCount>9</associatedStationCount><usedStationCount>9</usedStationCount><depthPhaseCount>0</depthPhaseCount><standardError>0.8778602275355574</standardError><azimuthalGap>230.99249267578125</azimuthalGap><maximumDistance>2.2693097591400146</maximumDistance><minimumDistance>0.5044639706611633</minimumDistance><medianDistance>1.144942283630371</medianDistance></quality><uncertainty><minHorizontalUncertainty>8.34398078918457</minHorizontalUncertainty><maxHorizontalUncertainty>15.34018325805664</maxHorizontalUncertainty><azimuthMaxHorizontalUncertainty>67.47736358642578</azimuthMaxHorizontalUncertainty><preferredDescription>horizontal uncertainty</preferredDescription></uncertainty><evaluationMode>automatic</evaluationMode><evaluationStatus>confirmed</evaluationStatus><comment><text>0.14</text><id>mismatchScore</id></comment><comment><text>mismatchScore</text><id>scevalMethod</id></comment><arrival><pickID>de.gempa.tb1.Pick/20250414195349.638002.140816</pickID><phase>P</phase><azimuth>262.7369079589844</azimuth><distance>0.5044639706611633</distance><timeResidual>0.71160888671875</timeResidual><timeUsed>true</timeUsed><horizontalSlownessUsed>false</horizontalSlownessUsed><backazimuthUsed>false</backazimuthUsed><weight>1</weight></arrival><arrival><pickID>de.gempa.tb1.Pick/20250414195353.641061.140818</pickID><phase>P</phase><azimuth>198.3631134033203</azimuth><distance>0.8562308549880981</distance><timeResidual>-1.393284797668457</timeResidual><timeUsed>true</timeUsed><horizontalSlownessUsed>false</horizontalSlownessUsed><backazimuthUsed>false</backazimuthUsed><weight>1</weight></arrival><arrival><pickID>de.gempa.tb1.Pick/20250414195354.565399.140820</pickID><phase>P</phase><azimuth>248.84825134277344</azimuth><distance>0.9441012740135193</distance><timeResidual>0.06911373138427734</timeResidual><timeUsed>true</timeUsed><horizontalSlownessUsed>false</horizontalSlownessUsed><backazimuthUsed>false</backazimuthUsed><weight>1</weight></arrival><arrival><pickID>de.gempa.tb1.Pick/20250414195400.426442.140822</pickID><phase>P</phase><azimuth>277.8177795410156</azimuth><distance>1.134234070777893</distance><timeResidual>-0.09680652618408203</timeResidual><timeUsed>true</timeUsed><horizontalSlownessUsed>false</horizontalSlownessUsed><backazimuthUsed>false</backazimuthUsed><weight>1</weight></arrival><arrival><pickID>de.gempa.tb1.Pick/20250414195403.696114.140824</pickID><phase>P</phase><azimuth>214.9178924560547</azimuth><distance>1.2989877462387085</distance><timeResidual>-0.8871545791625977</timeResidual><timeUsed>true</timeUsed><horizontalSlownessUsed>false</horizontalSlownessUsed><backazimuthUsed>false</backazimuthUsed><weight>1</weight></arrival><arrival><pickID>de.gempa.tb1.Pick/20250414195405.153987.140826</pickID><phase>P</phase><azimuth>229.3692626953125</azimuth><distance>1.144942283630371</distance><timeResidual>0.357234001159668</timeResidual><timeUsed>true</timeUsed><horizontalSlownessUsed>false</horizontalSlownessUsed><backazimuthUsed>false</backazimuthUsed><weight>1</weight></arrival><arrival><pickID>de.gempa.tb1.Pick/20250414195411.575698.140829</pickID><phase>P</phase><azimuth>321.16278076171875</azimuth><distance>1.7611547708511353</distance><timeResidual>-0.652552604675293</timeResidual><timeUsed>true</timeUsed><horizontalSlownessUsed>false</horizontalSlownessUsed><backazimuthUsed>false</backazimuthUsed><weight>1</weight></arrival><arrival><pickID>de.gempa.tb1.Pick/20250414195412.523869.140831</pickID><phase>P</phase><azimuth>198.43258666992188</azimuth><distance>1.8115183115005493</distance><timeResidual>0.12620830535888672</timeResidual><timeUsed>true</timeUsed><horizontalSlownessUsed>false</horizontalSlownessUsed><backazimuthUsed>false</backazimuthUsed><weight>1</weight></arrival><arrival><pickID>de.gempa.tb1.Pick/20250414195419.657501.140834</pickID><phase>P</phase><azimuth>192.1552734375</azimuth><distance>2.2693097591400146</distance><timeResidual>1.765660285949707</timeResidual><timeUsed>true</timeUsed><horizontalSlownessUsed>false</horizontalSlownessUsed><backazimuthUsed>false</backazimuthUsed><weight>1</weight></arrival><magnitude publicID="de.gempa.tb1.Magnitude/20250414195420.937459.535375"><magnitude><value>2.443345093850627</value></magnitude><type>M</type><methodID>weighted average</methodID><stationCount>7</stationCount></magnitude></origin><event publicID="gempa2025hjub"><preferredOriginID>de.gempa.tb1.Origin/20250414195419.660916.149363</preferredOriginID><preferredMagnitudeID>de.gempa.tb1.Magnitude/20250414195420.937459.535375</preferredMagnitudeID><description><text>Chile-Bolivia Border Region</text><type>region name</type></description><originReference>de.gempa.tb1.Origin/20250414195419.660916.149363</originReference></event></EventParameters></seiscomp>