<?xml version="1.0" encoding="UTF-8"?>
<seiscomp xmlns="http://geofon.gfz-potsdam.de/ns/seiscomp3-schema/0.13" version="0.13"><EventParameters><pick publicID="de.gempa.tb1.Pick/20250411110131.684298.118432"><time><value>2025-04-11T11:01:25.568393Z</value></time><waveformID networkCode="CX" stationCode="PB08" channelCode="HHZ"/><filterID>ITAPER(4)&gt;&gt;BW(4,4,20)</filterID><methodID>AIC</methodID><horizontalSlowness><value>14.071803328372892</value></horizontalSlowness><backazimuth><value>221.10518214207332</value></backazimuth><phaseHint>P</phaseHint><evaluationMode>automatic</evaluationMode><comment><text>135.5335065662688</text><id>DFX:rectilinearity</id></comment><comment><text>33.93754682525801</text><id>SNR</id></comment></pick><pick publicID="de.gempa.tb1.Pick/20250411110140.279096.118436"><time><value>2025-04-11T11:01:32.639999Z</value></time><waveformID networkCode="CX" stationCode="PATCX" channelCode="HHZ"/><filterID>ITAPER(4)&gt;&gt;BW(4,4,20)</filterID><methodID>AIC</methodID><horizontalSlowness><value>11.921406710474752</value></horizontalSlowness><backazimuth><value>59.90741676297971</value></backazimuth><phaseHint>P</phaseHint><evaluationMode>automatic</evaluationMode><comment><text>276.11877800204644</text><id>DFX:rectilinearity</id></comment><comment><text>7.106409384305556</text><id>SNR</id></comment></pick><pick publicID="de.gempa.tb1.Pick/20250411110141.597942.118438"><time><value>2025-04-11T11:01:37.128393Z</value></time><waveformID networkCode="CX" stationCode="PB02" channelCode="HHZ"/><filterID>ITAPER(4)&gt;&gt;BW(4,4,20)</filterID><methodID>AIC</methodID><horizontalSlowness><value>7.161002480453925</value></horizontalSlowness><backazimuth><value>7.482611651981415</value></backazimuth><phaseHint>P</phaseHint><evaluationMode>automatic</evaluationMode><comment><text>570.5920975186668</text><id>DFX:rectilinearity</id></comment><comment><text>40.915318014874984</text><id>SNR</id></comment></pick><pick publicID="de.gempa.tb1.Pick/20250411110142.620694.118440"><time><value>2025-04-11T11:01:34.958393Z</value></time><waveformID networkCode="CX" stationCode="PB01" channelCode="HHN"/><filterID>ITAPER(2)&gt;&gt;BW(3,3,20)</filterID><methodID>L2-AIC-GRID</methodID><horizontalSlowness><value>12.584343116589165</value></horizontalSlowness><backazimuth><value>1.6941170347832326</value></backazimuth><phaseHint>S</phaseHint><evaluationMode>automatic</evaluationMode><comment><text>652.8077178951527</text><id>DFX:rectilinearity</id></comment><comment><text>de.gempa.tb1.Pick/20250411110137.595948.118434</text><id>RefPickID</id></comment><comment><text>12.318580464850593</text><id>SNR</id></comment></pick><pick publicID="de.gempa.tb1.Pick/20250411110148.682746.118444"><time><value>2025-04-11T11:01:43.938396Z</value></time><waveformID networkCode="CX" stationCode="PB07" channelCode="HHZ"/><filterID>ITAPER(4)&gt;&gt;BW(4,4,20)</filterID><methodID>AIC</methodID><horizontalSlowness><value>17.22282209330836</value></horizontalSlowness><backazimuth><value>49.33833550996377</value></backazimuth><phaseHint>P</phaseHint><evaluationMode>automatic</evaluationMode><comment><text>953.9632561425507</text><id>DFX:rectilinearity</id></comment><comment><text>32.35260878622993</text><id>SNR</id></comment></pick><pick publicID="de.gempa.tb1.Pick/20250411110153.683493.118448"><time><value>2025-04-11T11:01:47.888393Z</value></time><waveformID networkCode="CX" stationCode="PB03" channelCode="HHZ"/><filterID>ITAPER(4)&gt;&gt;BW(4,4,20)</filterID><methodID>AIC</methodID><horizontalSlowness><value>9.559177988770529</value></horizontalSlowness><backazimuth><value>359.6389582223517</value></backazimuth><phaseHint>P</phaseHint><evaluationMode>automatic</evaluationMode><comment><text>138.23387338165116</text><id>DFX:rectilinearity</id></comment><comment><text>29.72798674135195</text><id>SNR</id></comment></pick><pick publicID="de.gempa.tb1.Pick/20250411110201.565428.118452"><time><value>2025-04-11T11:01:56.078393Z</value></time><waveformID networkCode="CX" stationCode="PB06" channelCode="HHZ"/><filterID>ITAPER(4)&gt;&gt;BW(4,4,20)</filterID><methodID>AIC</methodID><horizontalSlowness><value>3.0526278243555427</value></horizontalSlowness><backazimuth><value>14.045114464869982</value></backazimuth><phaseHint>P</phaseHint><evaluationMode>automatic</evaluationMode><comment><text>94.07643613389261</text><id>DFX:rectilinearity</id></comment><comment><text>14.391827130995235</text><id>SNR</id></comment></pick><pick publicID="de.gempa.tb1.Pick/20250411110208.713805.118456"><time><value>2025-04-11T11:02:02.978391Z</value></time><waveformID networkCode="CX" stationCode="PB15" channelCode="HHZ"/><filterID>ITAPER(4)&gt;&gt;BW(4,4,20)</filterID><methodID>AIC</methodID><horizontalSlowness><value>20.221272525560572</value></horizontalSlowness><backazimuth><value>80.41854629754893</value></backazimuth><phaseHint>P</phaseHint><evaluationMode>automatic</evaluationMode><comment><text>45407.48010646123</text><id>DFX:rectilinearity</id></comment><comment><text>16.475810531877706</text><id>SNR</id></comment></pick><pick publicID="de.gempa.tb1.Pick/20250411110218.579406.118463"><time><value>2025-04-11T11:02:12.05Z</value></time><waveformID networkCode="CX" stationCode="PB19" channelCode="HHZ"/><filterID>ITAPER(4)&gt;&gt;BW(4,4,20)</filterID><methodID>AIC</methodID><horizontalSlowness><value>7.12319102447076</value></horizontalSlowness><backazimuth><value>35.04837215882918</value></backazimuth><phaseHint>P</phaseHint><evaluationMode>automatic</evaluationMode><comment><text>85.6827562741164</text><id>DFX:rectilinearity</id></comment><comment><text>21.994993810216307</text><id>SNR</id></comment></pick><origin publicID="de.gempa.tb1.Origin/20250411110218.583844.58587"><time><value>2025-04-11T11:01:18.091608Z</value><uncertainty>0.4788058400154114</uncertainty></time><latitude><value>-20.502521514892578</value><uncertainty>3.581885814666748</uncertainty></latitude><longitude><value>-69.37483215332031</value><uncertainty>6.076781272888184</uncertainty></longitude><depth><value>0</value></depth><depthType>operator assigned</depthType><methodID>LOCSAT</methodID><earthModelID>iasp91_scanloc</earthModelID><quality><associatedPhaseCount>9</associatedPhaseCount><usedPhaseCount>9</usedPhaseCount><associatedStationCount>9</associatedStationCount><usedStationCount>9</usedStationCount><depthPhaseCount>0</depthPhaseCount><standardError>0.6766243387563945</standardError><azimuthalGap>148.63018989562988</azimuthalGap><maximumDistance>3.3868417739868164</maximumDistance><minimumDistance>0.41529780626297</minimumDistance><medianDistance>1.3082815408706665</medianDistance></quality><uncertainty><minHorizontalUncertainty>6.214367389678955</minHorizontalUncertainty><maxHorizontalUncertainty>13.79228687286377</maxHorizontalUncertainty><azimuthMaxHorizontalUncertainty>111.51383209228516</azimuthMaxHorizontalUncertainty><preferredDescription>horizontal uncertainty</preferredDescription></uncertainty><evaluationMode>automatic</evaluationMode><evaluationStatus>confirmed</evaluationStatus><comment><text>0.16</text><id>mismatchScore</id></comment><comment><text>mismatchScore</text><id>scevalMethod</id></comment><arrival><pickID>de.gempa.tb1.Pick/20250411110131.684298.118432</pickID><phase>P</phase><azimuth>30.065534591674805</azimuth><distance>0.41529780626297</distance><timeResidual>-0.4899063110351562</timeResidual><timeUsed>true</timeUsed><horizontalSlownessUsed>false</horizontalSlownessUsed><backazimuthUsed>false</backazimuthUsed><weight>1</weight></arrival><arrival><pickID>de.gempa.tb1.Pick/20250411110140.279096.118436</pickID><phase>P</phase><azimuth>246.3787078857422</azimuth><distance>0.7944126725196838</distance><timeResidual>-0.6895699501037598</timeResidual><timeUsed>true</timeUsed><horizontalSlownessUsed>false</horizontalSlownessUsed><backazimuthUsed>false</backazimuthUsed><weight>1</weight></arrival><arrival><pickID>de.gempa.tb1.Pick/20250411110141.597942.118438</pickID><phase>P</phase><azimuth>210.8409881591797</azimuth><distance>0.9479460716247559</distance><timeResidual>0.854398250579834</timeResidual><timeUsed>true</timeUsed><horizontalSlownessUsed>false</horizontalSlownessUsed><backazimuthUsed>false</backazimuthUsed><weight>1</weight></arrival><arrival><pickID>de.gempa.tb1.Pick/20250411110142.620694.118440</pickID><phase>S</phase><azimuth>191.0581817626953</azimuth><distance>0.5482066869735718</distance><timeResidual>-1.2837395668029785</timeResidual><timeUsed>true</timeUsed><horizontalSlownessUsed>false</horizontalSlownessUsed><backazimuthUsed>false</backazimuthUsed><weight>1</weight></arrival><arrival><pickID>de.gempa.tb1.Pick/20250411110148.682746.118444</pickID><phase>P</phase><azimuth>201.31195068359375</azimuth><distance>1.3082815408706665</distance><timeResidual>0.756019115447998</timeResidual><timeUsed>true</timeUsed><horizontalSlownessUsed>false</horizontalSlownessUsed><backazimuthUsed>false</backazimuthUsed><weight>1</weight></arrival><arrival><pickID>de.gempa.tb1.Pick/20250411110153.683493.118448</pickID><phase>P</phase><azimuth>192.84906005859375</azimuth><distance>1.5782355070114136</distance><timeResidual>0.5553088188171387</timeResidual><timeUsed>true</timeUsed><horizontalSlownessUsed>false</horizontalSlownessUsed><backazimuthUsed>false</backazimuthUsed><weight>1</weight></arrival><arrival><pickID>de.gempa.tb1.Pick/20250411110201.565428.118452</pickID><phase>P</phase><azimuth>184.74497985839844</azimuth><distance>2.2001497745513916</distance><timeResidual>0.18564558029174805</timeResidual><timeUsed>true</timeUsed><horizontalSlownessUsed>false</horizontalSlownessUsed><backazimuthUsed>false</backazimuthUsed><weight>1</weight></arrival><arrival><pickID>de.gempa.tb1.Pick/20250411110208.713805.118456</pickID><phase>P</phase><azimuth>181.88101196289062</azimuth><distance>2.6941633224487305</distance><timeResidual>0.28632497787475586</timeResidual><timeUsed>true</timeUsed><horizontalSlownessUsed>false</horizontalSlownessUsed><backazimuthUsed>false</backazimuthUsed><weight>1</weight></arrival><arrival><pickID>de.gempa.tb1.Pick/20250411110218.579406.118463</pickID><phase>P</phase><azimuth>178.6957244873047</azimuth><distance>3.3868417739868164</distance><timeResidual>-0.17466211318969727</timeResidual><timeUsed>true</timeUsed><horizontalSlownessUsed>false</horizontalSlownessUsed><backazimuthUsed>false</backazimuthUsed><weight>1</weight></arrival><magnitude publicID="de.gempa.tb1.Magnitude/20250411110228.223154.121934"><magnitude><value>2.835488997133205</value></magnitude><type>M</type><methodID>weighted average</methodID><stationCount>7</stationCount></magnitude></origin><event publicID="gempa2025hdog"><preferredOriginID>de.gempa.tb1.Origin/20250411110218.583844.58587</preferredOriginID><preferredMagnitudeID>de.gempa.tb1.Magnitude/20250411110228.223154.121934</preferredMagnitudeID><description><text>Northern Chile</text><type>region name</type></description><originReference>de.gempa.tb1.Origin/20250411110218.583844.58587</originReference></event></EventParameters></seiscomp>