<?xml version="1.0" encoding="UTF-8"?>
<seiscomp xmlns="http://geofon.gfz-potsdam.de/ns/seiscomp3-schema/0.13" version="0.13"><EventParameters><pick publicID="de.gempa.tb1.Pick/20250412011513.704621.121169"><time><value>2025-04-12T01:15:05.73Z</value></time><waveformID networkCode="CX" stationCode="PB19" channelCode="HHZ"/><filterID>ITAPER(4)&gt;&gt;BW(4,4,20)</filterID><methodID>AIC</methodID><horizontalSlowness><value>15.75600549321232</value></horizontalSlowness><backazimuth><value>107.91636349749122</value></backazimuth><phaseHint>P</phaseHint><evaluationMode>automatic</evaluationMode><comment><text>19.276613123010478</text><id>DFX:rectilinearity</id></comment><comment><text>8.235259343604911</text><id>SNR</id></comment></pick><pick publicID="de.gempa.tb1.Pick/20250412011517.40757.121171"><time><value>2025-04-12T01:15:09.268393Z</value></time><waveformID networkCode="CX" stationCode="PB15" channelCode="HHZ"/><filterID>ITAPER(4)&gt;&gt;BW(4,4,20)</filterID><methodID>AIC</methodID><horizontalSlowness><value>21.847720310711278</value></horizontalSlowness><backazimuth><value>137.253912361751</value></backazimuth><phaseHint>P</phaseHint><evaluationMode>automatic</evaluationMode><comment><text>195.50876041573</text><id>DFX:rectilinearity</id></comment><comment><text>9.843461817585931</text><id>SNR</id></comment></pick><pick publicID="de.gempa.tb1.Pick/20250412011517.609727.121173"><time><value>2025-04-12T01:15:12.868394Z</value></time><waveformID networkCode="CX" stationCode="PB06" channelCode="HHZ"/><filterID>ITAPER(4)&gt;&gt;BW(4,4,20)</filterID><methodID>AIC</methodID><horizontalSlowness><value>13.848520214719375</value></horizontalSlowness><backazimuth><value>288.9251289353458</value></backazimuth><phaseHint>P</phaseHint><evaluationMode>automatic</evaluationMode><comment><text>60.59720240804925</text><id>DFX:rectilinearity</id></comment><comment><text>5.524144415645611</text><id>SNR</id></comment></pick><pick publicID="de.gempa.tb1.Pick/20250412011524.838003.121175"><time><value>2025-04-12T01:15:18.598393Z</value></time><waveformID networkCode="CX" stationCode="PB03" channelCode="HHZ"/><filterID>ITAPER(4)&gt;&gt;BW(4,4,20)</filterID><methodID>AIC</methodID><horizontalSlowness><value>12.98265087232404</value></horizontalSlowness><backazimuth><value>183.15124786637762</value></backazimuth><phaseHint>P</phaseHint><evaluationMode>automatic</evaluationMode><comment><text>10.503379854669635</text><id>DFX:rectilinearity</id></comment><comment><text>22.90236809038395</text><id>SNR</id></comment></pick><pick publicID="de.gempa.tb1.Pick/20250412011530.428795.121177"><time><value>2025-04-12T01:15:26.388393Z</value></time><waveformID networkCode="CX" stationCode="PB02" channelCode="HHZ"/><filterID>ITAPER(4)&gt;&gt;BW(4,4,20)</filterID><methodID>AIC</methodID><horizontalSlowness><value>11.472745379430277</value></horizontalSlowness><backazimuth><value>41.67835594935602</value></backazimuth><phaseHint>P</phaseHint><evaluationMode>automatic</evaluationMode><comment><text>23.85049050285374</text><id>DFX:rectilinearity</id></comment><comment><text>11.865603848841555</text><id>SNR</id></comment></pick><pick publicID="de.gempa.tb1.Pick/20250412011534.777816.121179"><time><value>2025-04-12T01:15:25.568393Z</value></time><waveformID networkCode="CX" stationCode="PB01" channelCode="HHZ"/><filterID>ITAPER(4)&gt;&gt;BW(4,4,20)</filterID><methodID>AIC</methodID><horizontalSlowness><value>19.583673040437</value></horizontalSlowness><backazimuth><value>214.21161104677384</value></backazimuth><phaseHint>P</phaseHint><evaluationMode>automatic</evaluationMode><comment><text>19.386138179335028</text><id>DFX:rectilinearity</id></comment><comment><text>9.830676513031131</text><id>SNR</id></comment></pick><pick publicID="de.gempa.tb1.Pick/20250412011539.513951.121182"><time><value>2025-04-12T01:15:17.73Z</value></time><waveformID networkCode="CX" stationCode="PB09" channelCode="HHZ"/><filterID>ITAPER(4)&gt;&gt;BW(4,4,20)</filterID><methodID>AIC</methodID><horizontalSlowness><value>23.52085587469672</value></horizontalSlowness><backazimuth><value>98.2319861332175</value></backazimuth><phaseHint>P</phaseHint><evaluationMode>automatic</evaluationMode><comment><text>7.335501034617661</text><id>DFX:rectilinearity</id></comment><comment><text>24.49440827878814</text><id>SNR</id></comment></pick><pick publicID="de.gempa.tb1.Pick/20250412011545.100399.121186"><time><value>2025-04-12T01:15:22.398394Z</value></time><waveformID networkCode="CX" stationCode="PB07" channelCode="HHZ"/><filterID>ITAPER(4)&gt;&gt;BW(4,4,20)</filterID><methodID>AIC</methodID><horizontalSlowness><value>23.37764401850917</value></horizontalSlowness><backazimuth><value>98.34811662402873</value></backazimuth><phaseHint>P</phaseHint><evaluationMode>automatic</evaluationMode><comment><text>283.39794381538513</text><id>DFX:rectilinearity</id></comment><comment><text>42.913588118241307</text><id>SNR</id></comment></pick><pick publicID="de.gempa.tb1.Pick/20250412011547.853305.121190"><time><value>2025-04-12T01:15:40.088393Z</value></time><waveformID networkCode="CX" stationCode="PB15" channelCode="HHN"/><filterID>ITAPER(2)&gt;&gt;BW(3,3,20)</filterID><methodID>L2-AIC-GRID</methodID><horizontalSlowness><value>23.22983274894042</value></horizontalSlowness><backazimuth><value>76.05420380774437</value></backazimuth><phaseHint>S</phaseHint><evaluationMode>automatic</evaluationMode><comment><text>2460.4221893845256</text><id>DFX:rectilinearity</id></comment><comment><text>de.gempa.tb1.Pick/20250412011517.40757.121171</text><id>RefPickID</id></comment><comment><text>8.705353308593795</text><id>SNR</id></comment></pick><pick publicID="de.gempa.tb1.Pick/20250412011554.629848.121193"><time><value>2025-04-12T01:15:46.248394Z</value></time><waveformID networkCode="CX" stationCode="PB06" channelCode="HHN"/><filterID>ITAPER(2)&gt;&gt;BW(3,3,20)</filterID><methodID>L2-AIC-GRID</methodID><horizontalSlowness><value>11.645454083823198</value></horizontalSlowness><backazimuth><value>314.8076185502641</value></backazimuth><phaseHint>S</phaseHint><evaluationMode>automatic</evaluationMode><comment><text>181.05720201756097</text><id>DFX:rectilinearity</id></comment><comment><text>de.gempa.tb1.Pick/20250412011517.609727.121173</text><id>RefPickID</id></comment><comment><text>9.493844488591915</text><id>SNR</id></comment></pick><pick publicID="de.gempa.tb1.Pick/20250412011606.975121.121198"><time><value>2025-04-12T01:15:57.198393Z</value></time><waveformID networkCode="CX" stationCode="PB03" channelCode="HHN"/><filterID>ITAPER(2)&gt;&gt;BW(3,3,20)</filterID><methodID>L2-AIC-GRID</methodID><horizontalSlowness><value>8.765515563109847</value></horizontalSlowness><backazimuth><value>236.76271352995064</value></backazimuth><phaseHint>S</phaseHint><evaluationMode>automatic</evaluationMode><comment><text>12.444907304543976</text><id>DFX:rectilinearity</id></comment><comment><text>de.gempa.tb1.Pick/20250412011524.838003.121175</text><id>RefPickID</id></comment><comment><text>5.371825913736391</text><id>SNR</id></comment></pick><origin publicID="de.gempa.tb1.Origin/20250412011606.982034.70807"><time><value>2025-04-12T01:14:29.359086Z</value><uncertainty>1.7703313827514648</uncertainty></time><latitude><value>-23.772165298461914</value><uncertainty>15.910640716552734</uncertainty></latitude><longitude><value>-66.93679809570312</value><uncertainty>32.607154846191406</uncertainty></longitude><depth><value>5.220875263214111</value><uncertainty>46.43349075317383</uncertainty></depth><depthType>from location</depthType><methodID>LOCSAT</methodID><earthModelID>iasp91_scanloc</earthModelID><quality><associatedPhaseCount>11</associatedPhaseCount><usedPhaseCount>11</usedPhaseCount><associatedStationCount>8</associatedStationCount><usedStationCount>8</usedStationCount><depthPhaseCount>0</depthPhaseCount><standardError>0.5836924853600595</standardError><azimuthalGap>307.50592041015625</azimuthalGap><maximumDistance>3.666045665740967</maximumDistance><minimumDistance>2.159404993057251</minimumDistance><medianDistance>2.8969106674194336</medianDistance></quality><uncertainty><minHorizontalUncertainty>18.33316993713379</minHorizontalUncertainty><maxHorizontalUncertainty>75.61347961425781</maxHorizontalUncertainty><azimuthMaxHorizontalUncertainty>113.0954818725586</azimuthMaxHorizontalUncertainty><preferredDescription>horizontal uncertainty</preferredDescription></uncertainty><evaluationMode>automatic</evaluationMode><evaluationStatus>confirmed</evaluationStatus><comment><text>0.00</text><id>mismatchScore</id></comment><comment><text>mismatchScore</text><id>scevalMethod</id></comment><arrival><pickID>de.gempa.tb1.Pick/20250412011513.704621.121169</pickID><phase>P</phase><azimuth>266.0225524902344</azimuth><distance>2.159404993057251</distance><timeResidual>-0.2402801513671875</timeResidual><timeUsed>true</timeUsed><horizontalSlownessUsed>false</horizontalSlownessUsed><backazimuthUsed>false</backazimuthUsed><weight>1</weight></arrival><arrival><pickID>de.gempa.tb1.Pick/20250412011517.40757.121171</pickID><phase>P</phase><azimuth>283.0580139160156</azimuth><distance>2.393273115158081</distance><timeResidual>0.07844161987304688</timeResidual><timeUsed>true</timeUsed><horizontalSlownessUsed>false</horizontalSlownessUsed><backazimuthUsed>false</backazimuthUsed><weight>1</weight></arrival><arrival><pickID>de.gempa.tb1.Pick/20250412011517.609727.121173</pickID><phase>P</phase><azimuth>293.1285400390625</azimuth><distance>2.6459503173828125</distance><timeResidual>0.20027923583984375</timeResidual><timeUsed>true</timeUsed><horizontalSlownessUsed>false</horizontalSlownessUsed><backazimuthUsed>false</backazimuthUsed><weight>1</weight></arrival><arrival><pickID>de.gempa.tb1.Pick/20250412011524.838003.121175</pickID><phase>P</phase><azimuth>302.9004211425781</azimuth><distance>3.112166166305542</distance><timeResidual>-0.4864616394042969</timeResidual><timeUsed>true</timeUsed><horizontalSlownessUsed>false</horizontalSlownessUsed><backazimuthUsed>false</backazimuthUsed><weight>1</weight></arrival><arrival><pickID>de.gempa.tb1.Pick/20250412011530.428795.121177</pickID><phase>P</phase><azimuth>311.1662902832031</azimuth><distance>3.666045665740967</distance><timeResidual>-0.31807708740234375</timeResidual><timeUsed>true</timeUsed><horizontalSlownessUsed>false</horizontalSlownessUsed><backazimuthUsed>false</backazimuthUsed><weight>1</weight></arrival><arrival><pickID>de.gempa.tb1.Pick/20250412011534.777816.121179</pickID><phase>P</phase><azimuth>318.5166320800781</azimuth><distance>3.5980050563812256</distance><timeResidual>-0.20249557495117188</timeResidual><timeUsed>true</timeUsed><horizontalSlownessUsed>false</horizontalSlownessUsed><backazimuthUsed>false</backazimuthUsed><weight>1</weight></arrival><arrival><pickID>de.gempa.tb1.Pick/20250412011539.513951.121182</pickID><phase>P</phase><azimuth>312.3003234863281</azimuth><distance>2.8969106674194336</distance><timeResidual>1.606739044189453</timeResidual><timeUsed>true</timeUsed><horizontalSlownessUsed>false</horizontalSlownessUsed><backazimuthUsed>false</backazimuthUsed><weight>1</weight></arrival><arrival><pickID>de.gempa.tb1.Pick/20250412011545.100399.121186</pickID><phase>P</phase><azimuth>306.2126770019531</azimuth><distance>3.3994319438934326</distance><timeResidual>-0.6394157409667969</timeResidual><timeUsed>true</timeUsed><horizontalSlownessUsed>false</horizontalSlownessUsed><backazimuthUsed>false</backazimuthUsed><weight>1</weight></arrival><arrival><pickID>de.gempa.tb1.Pick/20250412011547.853305.121190</pickID><phase>S</phase><azimuth>283.0580139160156</azimuth><distance>2.393273115158081</distance><timeResidual>0.25994873046875</timeResidual><timeUsed>true</timeUsed><horizontalSlownessUsed>false</horizontalSlownessUsed><backazimuthUsed>false</backazimuthUsed><weight>1</weight></arrival><arrival><pickID>de.gempa.tb1.Pick/20250412011554.629848.121193</pickID><phase>S</phase><azimuth>293.1285400390625</azimuth><distance>2.6459503173828125</distance><timeResidual>0.16463088989257812</timeResidual><timeUsed>true</timeUsed><horizontalSlownessUsed>false</horizontalSlownessUsed><backazimuthUsed>false</backazimuthUsed><weight>1</weight></arrival><arrival><pickID>de.gempa.tb1.Pick/20250412011606.975121.121198</pickID><phase>S</phase><azimuth>302.9004211425781</azimuth><distance>3.112166166305542</distance><timeResidual>-0.4239158630371094</timeResidual><timeUsed>true</timeUsed><horizontalSlownessUsed>false</horizontalSlownessUsed><backazimuthUsed>false</backazimuthUsed><weight>1</weight></arrival><magnitude publicID="de.gempa.tb1.Magnitude/20250412011741.542622.160294"><magnitude><value>3.3691252103662395</value></magnitude><type>M</type><methodID>weighted average</methodID><stationCount>6</stationCount></magnitude></origin><event publicID="gempa2025heqr"><preferredOriginID>de.gempa.tb1.Origin/20250412011606.982034.70807</preferredOriginID><preferredMagnitudeID>de.gempa.tb1.Magnitude/20250412011741.542622.160294</preferredMagnitudeID><description><text>Jujuy Province, Argentina</text><type>region name</type></description><originReference>de.gempa.tb1.Origin/20250412011606.982034.70807</originReference></event></EventParameters></seiscomp>