<?xml version="1.0" encoding="UTF-8"?>
<seiscomp xmlns="http://geofon.gfz-potsdam.de/ns/seiscomp3-schema/0.13" version="0.13"><EventParameters><pick publicID="de.gempa.tb1.Pick/20250414210346.56619.141207"><time><value>2025-04-14T21:03:40.518393Z</value></time><waveformID networkCode="CX" stationCode="PB06" channelCode="HHZ"/><filterID>ITAPER(4)&gt;&gt;BW(4,4,20)</filterID><methodID>AIC</methodID><horizontalSlowness><value>9.061819681100298</value></horizontalSlowness><backazimuth><value>290.95501992599623</value></backazimuth><phaseHint>P</phaseHint><evaluationMode>automatic</evaluationMode><comment><text>437.98821727640944</text><id>DFX:rectilinearity</id></comment><comment><text>53.37975521844873</text><id>SNR</id></comment></pick><pick publicID="de.gempa.tb1.Pick/20250414210352.608086.141209"><time><value>2025-04-14T21:03:45.898394Z</value></time><waveformID networkCode="CX" stationCode="PB03" channelCode="HHZ"/><filterID>ITAPER(4)&gt;&gt;BW(4,4,20)</filterID><methodID>AIC</methodID><horizontalSlowness><value>12.053911969211581</value></horizontalSlowness><backazimuth><value>197.00968742776973</value></backazimuth><phaseHint>P</phaseHint><evaluationMode>automatic</evaluationMode><comment><text>411.730299225379</text><id>DFX:rectilinearity</id></comment><comment><text>26.52234155240258</text><id>SNR</id></comment></pick><pick publicID="de.gempa.tb1.Pick/20250414210354.701864.141211"><time><value>2025-04-14T21:03:48.158393Z</value></time><waveformID networkCode="CX" stationCode="PB15" channelCode="HHZ"/><filterID>ITAPER(4)&gt;&gt;BW(4,4,20)</filterID><methodID>AIC</methodID><horizontalSlowness><value>19.23091222855647</value></horizontalSlowness><backazimuth><value>86.02879611563021</value></backazimuth><phaseHint>P</phaseHint><evaluationMode>automatic</evaluationMode><comment><text>5408.177463355798</text><id>DFX:rectilinearity</id></comment><comment><text>41.458755658628625</text><id>SNR</id></comment></pick><pick publicID="de.gempa.tb1.Pick/20250414210355.66323.141213"><time><value>2025-04-14T21:03:44.958393Z</value></time><waveformID networkCode="CX" stationCode="PB06" channelCode="HHN"/><filterID>ITAPER(2)&gt;&gt;BW(3,3,20)</filterID><methodID>L2-AIC-GRID</methodID><horizontalSlowness><value>23.502419368767317</value></horizontalSlowness><backazimuth><value>20.62559473795278</value></backazimuth><phaseHint>S</phaseHint><evaluationMode>automatic</evaluationMode><comment><text>4357.6807250980573</text><id>DFX:rectilinearity</id></comment><comment><text>de.gempa.tb1.Pick/20250414210346.56619.141207</text><id>RefPickID</id></comment><comment><text>5.757183268187946</text><id>SNR</id></comment></pick><pick publicID="de.gempa.tb1.Pick/20250414210358.496322.141214"><time><value>2025-04-14T21:03:51.388393Z</value></time><waveformID networkCode="CX" stationCode="PB07" channelCode="HHZ"/><filterID>ITAPER(4)&gt;&gt;BW(4,4,20)</filterID><methodID>AIC</methodID><horizontalSlowness><value>18.076580054440008</value></horizontalSlowness><backazimuth><value>172.64991001191385</value></backazimuth><phaseHint>P</phaseHint><evaluationMode>automatic</evaluationMode><comment><text>1254.9678804418913</text><id>DFX:rectilinearity</id></comment><comment><text>88.54178552010936</text><id>SNR</id></comment></pick><pick publicID="de.gempa.tb1.Pick/20250414210359.174635.141216"><time><value>2025-04-14T21:03:53.63Z</value></time><waveformID networkCode="CX" stationCode="PB10" channelCode="HHZ"/><filterID>ITAPER(4)&gt;&gt;BW(4,4,20)</filterID><methodID>AIC</methodID><horizontalSlowness><value>9.300103149890528</value></horizontalSlowness><backazimuth><value>87.00272270877144</value></backazimuth><phaseHint>P</phaseHint><evaluationMode>automatic</evaluationMode><comment><text>97.10592656392853</text><id>DFX:rectilinearity</id></comment><comment><text>37.16653359320881</text><id>SNR</id></comment></pick><pick publicID="de.gempa.tb1.Pick/20250414210401.498069.141218"><time><value>2025-04-14T21:03:54.17Z</value></time><waveformID networkCode="CX" stationCode="PB09" channelCode="HHZ"/><filterID>ITAPER(4)&gt;&gt;BW(4,4,20)</filterID><methodID>AIC</methodID><horizontalSlowness><value>22.787284780692126</value></horizontalSlowness><backazimuth><value>143.6772483503816</value></backazimuth><phaseHint>P</phaseHint><evaluationMode>automatic</evaluationMode><comment><text>128.14369062536434</text><id>DFX:rectilinearity</id></comment><comment><text>109.16703611821477</text><id>SNR</id></comment></pick><pick publicID="de.gempa.tb1.Pick/20250414210403.470028.141220"><time><value>2025-04-14T21:03:58.668393Z</value></time><waveformID networkCode="CX" stationCode="PB02" channelCode="HHZ"/><filterID>ITAPER(4)&gt;&gt;BW(4,4,20)</filterID><methodID>AIC</methodID><horizontalSlowness><value>10.553994774766862</value></horizontalSlowness><backazimuth><value>151.4634204320636</value></backazimuth><phaseHint>P</phaseHint><evaluationMode>automatic</evaluationMode><comment><text>71.65748259307105</text><id>DFX:rectilinearity</id></comment><comment><text>58.520526370792</text><id>SNR</id></comment></pick><pick publicID="de.gempa.tb1.Pick/20250414210406.520022.141222"><time><value>2025-04-14T21:04:00.47Z</value></time><waveformID networkCode="CX" stationCode="PB19" channelCode="HHZ"/><filterID>ITAPER(4)&gt;&gt;BW(4,4,20)</filterID><methodID>AIC</methodID><horizontalSlowness><value>6.519542360850937</value></horizontalSlowness><backazimuth><value>217.9297290921945</value></backazimuth><phaseHint>P</phaseHint><evaluationMode>automatic</evaluationMode><comment><text>32.23072391486574</text><id>DFX:rectilinearity</id></comment><comment><text>26.44419397882898</text><id>SNR</id></comment></pick><pick publicID="de.gempa.tb1.Pick/20250414210408.561177.141224"><time><value>2025-04-14T21:04:03.508393Z</value></time><waveformID networkCode="CX" stationCode="PB01" channelCode="HHZ"/><filterID>ITAPER(4)&gt;&gt;BW(4,4,20)</filterID><methodID>AIC</methodID><horizontalSlowness><value>17.770834402171676</value></horizontalSlowness><backazimuth><value>205.75082605665068</value></backazimuth><phaseHint>P</phaseHint><evaluationMode>automatic</evaluationMode><comment><text>50.192754731327</text><id>DFX:rectilinearity</id></comment><comment><text>35.373731902547206</text><id>SNR</id></comment></pick><pick publicID="de.gempa.tb1.Pick/20250414210522.786335.141243"><time><value>2025-04-14T21:04:07.570001Z</value></time><waveformID networkCode="CX" stationCode="PATCX" channelCode="HHZ"/><filterID>ITAPER(4)&gt;&gt;BW(4,4,20)</filterID><methodID>AIC</methodID><horizontalSlowness><value>23.31107374161518</value></horizontalSlowness><backazimuth><value>69.35061209283859</value></backazimuth><phaseHint>P</phaseHint><evaluationMode>automatic</evaluationMode><comment><text>134.62002036325646</text><id>DFX:rectilinearity</id></comment><comment><text>18.88353139601513</text><id>SNR</id></comment></pick><origin publicID="de.gempa.tb1.Origin/20250414210522.7959.150854"><time><value>2025-04-14T21:03:33.987307Z</value><uncertainty>0.3830323815345764</uncertainty></time><latitude><value>-22.63861656188965</value><uncertainty>2.3614795207977295</uncertainty></latitude><longitude><value>-69.93077087402344</value><uncertainty>3.160029649734497</uncertainty></longitude><depth><value>0</value></depth><depthType>operator assigned</depthType><methodID>LOCSAT</methodID><earthModelID>iasp91_scanloc</earthModelID><quality><associatedPhaseCount>11</associatedPhaseCount><usedPhaseCount>11</usedPhaseCount><associatedStationCount>10</associatedStationCount><usedStationCount>10</usedStationCount><depthPhaseCount>0</depthPhaseCount><standardError>0.44496010239063566</standardError><azimuthalGap>140.17315673828125</azimuthalGap><maximumDistance>1.8207954168319702</maximumDistance><minimumDistance>0.3381660580635071</minimumDistance><medianDistance>1.0429197549819946</medianDistance></quality><uncertainty><minHorizontalUncertainty>4.803502559661865</minHorizontalUncertainty><maxHorizontalUncertainty>6.962281227111816</maxHorizontalUncertainty><azimuthMaxHorizontalUncertainty>71.47358703613281</azimuthMaxHorizontalUncertainty><preferredDescription>horizontal uncertainty</preferredDescription></uncertainty><evaluationMode>automatic</evaluationMode><evaluationStatus>confirmed</evaluationStatus><comment><text>0.00</text><id>mismatchScore</id></comment><comment><text>mismatchScore</text><id>scevalMethod</id></comment><arrival><pickID>de.gempa.tb1.Pick/20250414210346.56619.141207</pickID><phase>P</phase><azimuth>101.47294616699219</azimuth><distance>0.3381660580635071</distance><timeResidual>0.04484415054321289</timeResidual><timeUsed>true</timeUsed><horizontalSlownessUsed>false</horizontalSlownessUsed><backazimuthUsed>false</backazimuthUsed><weight>1</weight></arrival><arrival><pickID>de.gempa.tb1.Pick/20250414210352.608086.141209</pickID><phase>P</phase><azimuth>15.679555892944336</azimuth><distance>0.6099284887313843</distance><timeResidual>0.21163654327392578</timeResidual><timeUsed>true</timeUsed><horizontalSlownessUsed>false</horizontalSlownessUsed><backazimuthUsed>false</backazimuthUsed><weight>1</weight></arrival><arrival><pickID>de.gempa.tb1.Pick/20250414210354.701864.141211</pickID><phase>P</phase><azimuth>143.30455017089844</azimuth><distance>0.7080219388008118</distance><timeResidual>0.591616153717041</timeResidual><timeUsed>true</timeUsed><horizontalSlownessUsed>false</horizontalSlownessUsed><backazimuthUsed>false</backazimuthUsed><weight>1</weight></arrival><arrival><pickID>de.gempa.tb1.Pick/20250414210355.66323.141213</pickID><phase>S</phase><azimuth>101.47294616699219</azimuth><distance>0.3381660580635071</distance><timeResidual>-0.22498703002929688</timeResidual><timeUsed>true</timeUsed><horizontalSlownessUsed>false</horizontalSlownessUsed><backazimuthUsed>false</backazimuthUsed><weight>1</weight></arrival><arrival><pickID>de.gempa.tb1.Pick/20250414210358.496322.141214</pickID><phase>P</phase><azimuth>2.615962028503418</azimuth><distance>0.9085094332695007</distance><timeResidual>-0.025641441345214844</timeResidual><timeUsed>true</timeUsed><horizontalSlownessUsed>false</horizontalSlownessUsed><backazimuthUsed>false</backazimuthUsed><weight>1</weight></arrival><arrival><pickID>de.gempa.tb1.Pick/20250414210359.174635.141216</pickID><phase>P</phase><azimuth>213.27322387695312</azimuth><distance>1.0429197549819946</distance><timeResidual>-0.3598346710205078</timeResidual><timeUsed>true</timeUsed><horizontalSlownessUsed>false</horizontalSlownessUsed><backazimuthUsed>false</backazimuthUsed><weight>1</weight></arrival><arrival><pickID>de.gempa.tb1.Pick/20250414210401.498069.141218</pickID><phase>P</phase><azimuth>37.42054748535156</azimuth><distance>1.0535712242126465</distance><timeResidual>-0.02623271942138672</timeResidual><timeUsed>true</timeUsed><horizontalSlownessUsed>false</horizontalSlownessUsed><backazimuthUsed>false</backazimuthUsed><weight>1</weight></arrival><arrival><pickID>de.gempa.tb1.Pick/20250414210403.470028.141220</pickID><phase>P</phase><azimuth>1.4140052795410156</azimuth><distance>1.3129065036773682</distance><timeResidual>-0.4977855682373047</timeResidual><timeUsed>true</timeUsed><horizontalSlownessUsed>false</horizontalSlownessUsed><backazimuthUsed>false</backazimuthUsed><weight>1</weight></arrival><arrival><pickID>de.gempa.tb1.Pick/20250414210406.520022.141222</pickID><phase>P</phase><azimuth>155.0891571044922</azimuth><distance>1.390999674797058</distance><timeResidual>-0.13956069946289062</timeResidual><timeUsed>true</timeUsed><horizontalSlownessUsed>false</horizontalSlownessUsed><backazimuthUsed>false</backazimuthUsed><weight>1</weight></arrival><arrival><pickID>de.gempa.tb1.Pick/20250414210408.561177.141224</pickID><phase>P</phase><azimuth>14.627782821655273</azimuth><distance>1.6402039527893066</distance><timeResidual>-0.5748329162597656</timeResidual><timeUsed>true</timeUsed><horizontalSlownessUsed>false</horizontalSlownessUsed><backazimuthUsed>false</backazimuthUsed><weight>1</weight></arrival><arrival><pickID>de.gempa.tb1.Pick/20250414210522.786335.141243</pickID><phase>P</phase><azimuth>353.4463806152344</azimuth><distance>1.8207954168319702</distance><timeResidual>1.0009632110595703</timeResidual><timeUsed>true</timeUsed><horizontalSlownessUsed>false</horizontalSlownessUsed><backazimuthUsed>false</backazimuthUsed><weight>1</weight></arrival><magnitude publicID="de.gempa.tb1.Magnitude/20250414210522.80645.540610"><magnitude><value>2.494995405361845</value></magnitude><type>M</type><methodID>weighted average</methodID><stationCount>8</stationCount></magnitude></origin><event publicID="gempa2025hjwk"><preferredOriginID>de.gempa.tb1.Origin/20250414210522.7959.150854</preferredOriginID><preferredMagnitudeID>de.gempa.tb1.Magnitude/20250414210522.80645.540610</preferredMagnitudeID><description><text>Northern Chile</text><type>region name</type></description><originReference>de.gempa.tb1.Origin/20250414210522.7959.150854</originReference></event></EventParameters></seiscomp>