<?xml version="1.0" encoding="UTF-8"?>
<seiscomp xmlns="http://geofon.gfz-potsdam.de/ns/seiscomp3-schema/0.13" version="0.13"><EventParameters><pick publicID="de.gempa.tb1.Pick/20250412061941.566966.122443"><time><value>2025-04-12T06:19:36.338393Z</value></time><waveformID networkCode="CX" stationCode="PB01" channelCode="HHZ"/><filterID>ITAPER(4)&gt;&gt;BW(4,4,20)</filterID><methodID>AIC</methodID><horizontalSlowness><value>22.191890412129247</value></horizontalSlowness><backazimuth><value>168.14073947680217</value></backazimuth><phaseHint>P</phaseHint><evaluationMode>automatic</evaluationMode><comment><text>11.9974746612933</text><id>DFX:rectilinearity</id></comment><comment><text>15.51699206380985</text><id>SNR</id></comment></pick><pick publicID="de.gempa.tb1.Pick/20250412061944.468154.122445"><time><value>2025-04-12T06:19:39.668394Z</value></time><waveformID networkCode="CX" stationCode="PB02" channelCode="HHZ"/><filterID>ITAPER(4)&gt;&gt;BW(4,4,20)</filterID><methodID>AIC</methodID><horizontalSlowness><value>23.40080816345145</value></horizontalSlowness><backazimuth><value>77.12910113800885</value></backazimuth><phaseHint>P</phaseHint><evaluationMode>automatic</evaluationMode><comment><text>22.54872856740621</text><id>DFX:rectilinearity</id></comment><comment><text>17.362874676215977</text><id>SNR</id></comment></pick><pick publicID="de.gempa.tb1.Pick/20250412061954.232866.122447"><time><value>2025-04-12T06:19:37.29Z</value></time><waveformID networkCode="CX" stationCode="PB09" channelCode="HHZ"/><filterID>ITAPER(4)&gt;&gt;BW(4,4,20)</filterID><methodID>AIC</methodID><horizontalSlowness><value>15.078390691834983</value></horizontalSlowness><backazimuth><value>241.0154717552733</value></backazimuth><phaseHint>P</phaseHint><evaluationMode>automatic</evaluationMode><comment><text>16.621059290132084</text><id>DFX:rectilinearity</id></comment><comment><text>10.440188660901981</text><id>SNR</id></comment></pick><pick publicID="de.gempa.tb1.Pick/20250412061956.62244.122451"><time><value>2025-04-12T06:19:50.148393Z</value></time><waveformID networkCode="CX" stationCode="PB01" channelCode="HHN"/><filterID>ITAPER(2)&gt;&gt;BW(3,3,20)</filterID><methodID>L2-AIC-GRID</methodID><horizontalSlowness><value>19.544520219670574</value></horizontalSlowness><backazimuth><value>257.58111032517957</value></backazimuth><phaseHint>S</phaseHint><evaluationMode>automatic</evaluationMode><comment><text>21.826163990795187</text><id>DFX:rectilinearity</id></comment><comment><text>de.gempa.tb1.Pick/20250412061941.566966.122443</text><id>RefPickID</id></comment><comment><text>11.470315582675896</text><id>SNR</id></comment></pick><pick publicID="de.gempa.tb1.Pick/20250412062009.17646.122457"><time><value>2025-04-12T06:19:40.668394Z</value></time><waveformID networkCode="CX" stationCode="PB07" channelCode="HHZ"/><filterID>ITAPER(4)&gt;&gt;BW(4,4,20)</filterID><methodID>AIC</methodID><horizontalSlowness><value>22.96850053313382</value></horizontalSlowness><backazimuth><value>275.6137935578102</value></backazimuth><phaseHint>P</phaseHint><evaluationMode>automatic</evaluationMode><comment><text>549.9374288864124</text><id>DFX:rectilinearity</id></comment><comment><text>19.293890181063556</text><id>SNR</id></comment></pick><pick publicID="de.gempa.tb1.Pick/20250412062012.135633.122459"><time><value>2025-04-12T06:19:51.66Z</value></time><waveformID networkCode="CX" stationCode="PB09" channelCode="HHN"/><filterID>ITAPER(2)&gt;&gt;BW(3,3,20)</filterID><methodID>L2-AIC-GRID</methodID><horizontalSlowness><value>16.904019012236233</value></horizontalSlowness><backazimuth><value>275.2637895777022</value></backazimuth><phaseHint>S</phaseHint><evaluationMode>automatic</evaluationMode><comment><text>24.294428984610594</text><id>DFX:rectilinearity</id></comment><comment><text>de.gempa.tb1.Pick/20250412061954.232866.122447</text><id>RefPickID</id></comment><comment><text>5.300389411943238</text><id>SNR</id></comment></pick><pick publicID="de.gempa.tb1.Pick/20250412062013.497088.122462"><time><value>2025-04-12T06:19:57.448394Z</value></time><waveformID networkCode="CX" stationCode="PB07" channelCode="HHN"/><filterID>ITAPER(2)&gt;&gt;BW(3,3,20)</filterID><methodID>L2-AIC-GRID</methodID><horizontalSlowness><value>21.55769838197473</value></horizontalSlowness><backazimuth><value>140.39572087756892</value></backazimuth><phaseHint>S</phaseHint><evaluationMode>automatic</evaluationMode><comment><text>245.3030194321902</text><id>DFX:rectilinearity</id></comment><comment><text>de.gempa.tb1.Pick/20250412062009.17646.122457</text><id>RefPickID</id></comment><comment><text>5.291194881759658</text><id>SNR</id></comment></pick><origin publicID="de.gempa.tb1.Origin/20250412062013.53287.76737"><time><value>2025-04-12T06:19:18.832087Z</value><uncertainty>1.3677433729171753</uncertainty></time><latitude><value>-21.208213806152344</value><uncertainty>7.590684413909912</uncertainty></latitude><longitude><value>-68.94685363769531</value><uncertainty>11.6845064163208</uncertainty></longitude><depth><value>115.39849090576172</value><uncertainty>9.434288024902344</uncertainty></depth><depthType>from location</depthType><methodID>LOCSAT</methodID><earthModelID>iasp91_scanloc</earthModelID><quality><associatedPhaseCount>7</associatedPhaseCount><usedPhaseCount>7</usedPhaseCount><associatedStationCount>4</associatedStationCount><usedStationCount>4</usedStationCount><depthPhaseCount>0</depthPhaseCount><standardError>0.11001834450890929</standardError><azimuthalGap>277.1728057861328</azimuthalGap><maximumDistance>1.0157121419906616</maximumDistance><minimumDistance>0.5306808948516846</minimumDistance><medianDistance>0.6465685963630676</medianDistance></quality><uncertainty><minHorizontalUncertainty>16.056636810302734</minHorizontalUncertainty><maxHorizontalUncertainty>25.199567794799805</maxHorizontalUncertainty><azimuthMaxHorizontalUncertainty>82.0816650390625</azimuthMaxHorizontalUncertainty><preferredDescription>horizontal uncertainty</preferredDescription></uncertainty><evaluationMode>automatic</evaluationMode><evaluationStatus>confirmed</evaluationStatus><comment><text>0.00</text><id>mismatchScore</id></comment><comment><text>mismatchScore</text><id>scevalMethod</id></comment><arrival><pickID>de.gempa.tb1.Pick/20250412061941.566966.122443</pickID><phase>P</phase><azimuth>287.9228210449219</azimuth><distance>0.5306808948516846</distance><timeResidual>-0.16071319580078125</timeResidual><timeUsed>true</timeUsed><horizontalSlownessUsed>false</horizontalSlownessUsed><backazimuthUsed>false</backazimuthUsed><weight>1</weight></arrival><arrival><pickID>de.gempa.tb1.Pick/20250412061944.468154.122445</pickID><phase>P</phase><azimuth>262.68499755859375</azimuth><distance>0.8922554850578308</distance><timeResidual>0.2062835693359375</timeResidual><timeUsed>true</timeUsed><horizontalSlownessUsed>false</horizontalSlownessUsed><backazimuthUsed>false</backazimuthUsed><weight>1</weight></arrival><arrival><pickID>de.gempa.tb1.Pick/20250412061954.232866.122447</pickID><phase>P</phase><azimuth>205.0956268310547</azimuth><distance>0.6465685963630676</distance><timeResidual>-0.043544769287109375</timeResidual><timeUsed>true</timeUsed><horizontalSlownessUsed>false</horizontalSlownessUsed><backazimuthUsed>false</backazimuthUsed><weight>1</weight></arrival><arrival><pickID>de.gempa.tb1.Pick/20250412061956.62244.122451</pickID><phase>S</phase><azimuth>287.9228210449219</azimuth><distance>0.5306808948516846</distance><timeResidual>0.035400390625</timeResidual><timeUsed>true</timeUsed><horizontalSlownessUsed>false</horizontalSlownessUsed><backazimuthUsed>false</backazimuthUsed><weight>1</weight></arrival><arrival><pickID>de.gempa.tb1.Pick/20250412062009.17646.122457</pickID><phase>P</phase><azimuth>239.3041229248047</azimuth><distance>1.0157121419906616</distance><timeResidual>-0.00095367431640625</timeResidual><timeUsed>true</timeUsed><horizontalSlownessUsed>false</horizontalSlownessUsed><backazimuthUsed>false</backazimuthUsed><weight>1</weight></arrival><arrival><pickID>de.gempa.tb1.Pick/20250412062012.135633.122459</pickID><phase>S</phase><azimuth>205.0956268310547</azimuth><distance>0.6465685963630676</distance><timeResidual>0.06084442138671875</timeResidual><timeUsed>true</timeUsed><horizontalSlownessUsed>false</horizontalSlownessUsed><backazimuthUsed>false</backazimuthUsed><weight>1</weight></arrival><arrival><pickID>de.gempa.tb1.Pick/20250412062013.497088.122462</pickID><phase>S</phase><azimuth>239.3041229248047</azimuth><distance>1.0157121419906616</distance><timeResidual>-0.09743881225585938</timeResidual><timeUsed>true</timeUsed><horizontalSlownessUsed>false</horizontalSlownessUsed><backazimuthUsed>false</backazimuthUsed><weight>1</weight></arrival><magnitude publicID="de.gempa.tb1.Magnitude/20250412062048.181366.187380"><magnitude><value>1.948041997623565</value></magnitude><type>M</type><methodID>weighted average</methodID><stationCount>1</stationCount></magnitude></origin><event publicID="gempa2025hfaw"><preferredOriginID>de.gempa.tb1.Origin/20250412062013.53287.76737</preferredOriginID><preferredMagnitudeID>de.gempa.tb1.Magnitude/20250412062048.181366.187380</preferredMagnitudeID><description><text>Chile-Bolivia Border Region</text><type>region name</type></description><originReference>de.gempa.tb1.Origin/20250412062013.53287.76737</originReference></event></EventParameters></seiscomp>