<?xml version="1.0" encoding="UTF-8"?>
<seiscomp xmlns="http://geofon.gfz-potsdam.de/ns/seiscomp3-schema/0.13" version="0.13"><EventParameters><pick publicID="de.gempa.tb1.Pick/20250414224004.557877.141854"><time><value>2025-04-14T22:39:58.128393Z</value></time><waveformID networkCode="CX" stationCode="PB02" channelCode="HHZ"/><filterID>ITAPER(4)&gt;&gt;BW(4,4,20)</filterID><methodID>AIC</methodID><horizontalSlowness><value>16.607033017356297</value></horizontalSlowness><backazimuth><value>337.7971908976149</value></backazimuth><phaseHint>P</phaseHint><evaluationMode>automatic</evaluationMode><comment><text>19.686937426924395</text><id>DFX:rectilinearity</id></comment><comment><text>9.213217026220988</text><id>SNR</id></comment></pick><pick publicID="de.gempa.tb1.Pick/20250414224005.557992.141856"><time><value>2025-04-14T22:40:01.468393Z</value></time><waveformID networkCode="CX" stationCode="PB01" channelCode="HHZ"/><filterID>ITAPER(4)&gt;&gt;BW(4,4,20)</filterID><methodID>AIC</methodID><horizontalSlowness><value>17.570711677351106</value></horizontalSlowness><backazimuth><value>291.37893639146557</value></backazimuth><phaseHint>P</phaseHint><evaluationMode>automatic</evaluationMode><comment><text>7.919633679419733</text><id>DFX:rectilinearity</id></comment><comment><text>6.351737830645608</text><id>SNR</id></comment></pick><pick publicID="de.gempa.tb1.Pick/20250414224009.509852.141858"><time><value>2025-04-14T22:40:01.888393Z</value></time><waveformID networkCode="CX" stationCode="PB03" channelCode="HHZ"/><filterID>ITAPER(4)&gt;&gt;BW(4,4,20)</filterID><methodID>AIC</methodID><horizontalSlowness><value>11.83769200991097</value></horizontalSlowness><backazimuth><value>257.70372775567984</value></backazimuth><phaseHint>P</phaseHint><evaluationMode>automatic</evaluationMode><comment><text>9.215382300640529</text><id>DFX:rectilinearity</id></comment><comment><text>7.712612411639768</text><id>SNR</id></comment></pick><pick publicID="de.gempa.tb1.Pick/20250414224009.690706.141860"><time><value>2025-04-14T22:40:03.588393Z</value></time><waveformID networkCode="CX" stationCode="PB02" channelCode="HHN"/><filterID>ITAPER(2)&gt;&gt;BW(3,3,20)</filterID><methodID>L2-AIC-GRID</methodID><horizontalSlowness><value>10.514057343849247</value></horizontalSlowness><backazimuth><value>330.88889895286587</value></backazimuth><phaseHint>S</phaseHint><evaluationMode>automatic</evaluationMode><comment><text>34.056652198621443</text><id>DFX:rectilinearity</id></comment><comment><text>de.gempa.tb1.Pick/20250414224004.557877.141854</text><id>RefPickID</id></comment><comment><text>8.629762262566082</text><id>SNR</id></comment></pick><pick publicID="de.gempa.tb1.Pick/20250414224015.61545.141863"><time><value>2025-04-14T22:40:09.288393Z</value></time><waveformID networkCode="CX" stationCode="PB01" channelCode="HHN"/><filterID>ITAPER(2)&gt;&gt;BW(3,3,20)</filterID><methodID>L2-AIC-GRID</methodID><horizontalSlowness><value>23.47476717735608</value></horizontalSlowness><backazimuth><value>287.25374704719394</value></backazimuth><phaseHint>S</phaseHint><evaluationMode>automatic</evaluationMode><comment><text>13.13222088318951</text><id>DFX:rectilinearity</id></comment><comment><text>de.gempa.tb1.Pick/20250414224005.557992.141856</text><id>RefPickID</id></comment><comment><text>25.83303043592776</text><id>SNR</id></comment></pick><pick publicID="de.gempa.tb1.Pick/20250414224019.927238.141867"><time><value>2025-04-14T22:40:02.44Z</value></time><waveformID networkCode="CX" stationCode="PB09" channelCode="HHZ"/><filterID>ITAPER(4)&gt;&gt;BW(4,4,20)</filterID><methodID>AIC</methodID><horizontalSlowness><value>21.638551682408867</value></horizontalSlowness><backazimuth><value>140.31168322440737</value></backazimuth><phaseHint>P</phaseHint><evaluationMode>automatic</evaluationMode><comment><text>8.873652867119095</text><id>DFX:rectilinearity</id></comment><comment><text>12.995048656893744</text><id>SNR</id></comment></pick><pick publicID="de.gempa.tb1.Pick/20250414224020.931137.141869"><time><value>2025-04-14T22:39:58.518396Z</value></time><waveformID networkCode="CX" stationCode="PB07" channelCode="HHZ"/><filterID>ITAPER(4)&gt;&gt;BW(4,4,20)</filterID><methodID>AIC</methodID><horizontalSlowness><value>21.12591036798798</value></horizontalSlowness><backazimuth><value>0.31698063845752245</value></backazimuth><phaseHint>P</phaseHint><evaluationMode>automatic</evaluationMode><comment><text>291.9644377946051</text><id>DFX:rectilinearity</id></comment><comment><text>7.272649688573055</text><id>SNR</id></comment></pick><pick publicID="de.gempa.tb1.Pick/20250414224024.173884.141871"><time><value>2025-04-14T22:40:04.318396Z</value></time><waveformID networkCode="CX" stationCode="PB07" channelCode="HHN"/><filterID>ITAPER(2)&gt;&gt;BW(3,3,20)</filterID><methodID>L2-AIC-GRID</methodID><horizontalSlowness><value>20.31170367150141</value></horizontalSlowness><backazimuth><value>270.06884660623717</value></backazimuth><phaseHint>S</phaseHint><evaluationMode>automatic</evaluationMode><comment><text>145.63515966257404</text><id>DFX:rectilinearity</id></comment><comment><text>de.gempa.tb1.Pick/20250414224020.931137.141869</text><id>RefPickID</id></comment><comment><text>11.382814722155217</text><id>SNR</id></comment></pick><origin publicID="de.gempa.tb1.Origin/20250414224024.177156.153612"><time><value>2025-04-14T22:39:50.573139Z</value><uncertainty>1.1223758459091187</uncertainty></time><latitude><value>-21.488487243652344</value><uncertainty>3.6951863765716553</uncertainty></latitude><longitude><value>-69.75205993652344</value><uncertainty>9.109638214111328</uncertainty></longitude><depth><value>40.29914855957031</value><uncertainty>11.636765480041504</uncertainty></depth><depthType>from location</depthType><methodID>LOCSAT</methodID><earthModelID>iasp91_scanloc</earthModelID><quality><associatedPhaseCount>8</associatedPhaseCount><usedPhaseCount>8</usedPhaseCount><associatedStationCount>5</associatedStationCount><usedStationCount>5</usedStationCount><depthPhaseCount>0</depthPhaseCount><standardError>0.14496064356417862</standardError><azimuthalGap>113.60691833496094</azimuthalGap><maximumDistance>0.5649106502532959</maximumDistance><minimumDistance>0.21493443846702576</minimumDistance><medianDistance>0.5071842074394226</medianDistance></quality><uncertainty><minHorizontalUncertainty>6.378280639648438</minHorizontalUncertainty><maxHorizontalUncertainty>20.09232521057129</maxHorizontalUncertainty><azimuthMaxHorizontalUncertainty>104.28614044189453</azimuthMaxHorizontalUncertainty><preferredDescription>horizontal uncertainty</preferredDescription></uncertainty><evaluationMode>automatic</evaluationMode><evaluationStatus>confirmed</evaluationStatus><comment><text>0.00</text><id>mismatchScore</id></comment><comment><text>mismatchScore</text><id>scevalMethod</id></comment><arrival><pickID>de.gempa.tb1.Pick/20250414224004.557877.141854</pickID><phase>P</phase><azimuth>321.3522644042969</azimuth><distance>0.21493443846702576</distance><timeResidual>0.10709953308105469</timeResidual><timeUsed>true</timeUsed><horizontalSlownessUsed>false</horizontalSlownessUsed><backazimuthUsed>false</backazimuthUsed><weight>1</weight></arrival><arrival><pickID>de.gempa.tb1.Pick/20250414224005.557992.141856</pickID><phase>P</phase><azimuth>29.17329406738281</azimuth><distance>0.5071842074394226</distance><timeResidual>0.044631004333496094</timeResidual><timeUsed>true</timeUsed><horizontalSlownessUsed>false</horizontalSlownessUsed><backazimuthUsed>false</backazimuthUsed><weight>1</weight></arrival><arrival><pickID>de.gempa.tb1.Pick/20250414224009.509852.141858</pickID><phase>P</phase><azimuth>180.09896850585938</azimuth><distance>0.5572571158409119</distance><timeResidual>-0.19901371002197266</timeResidual><timeUsed>true</timeUsed><horizontalSlownessUsed>false</horizontalSlownessUsed><backazimuthUsed>false</backazimuthUsed><weight>1</weight></arrival><arrival><pickID>de.gempa.tb1.Pick/20250414224009.690706.141860</pickID><phase>S</phase><azimuth>321.3522644042969</azimuth><distance>0.21493443846702576</distance><timeResidual>0.07904815673828125</timeResidual><timeUsed>true</timeUsed><horizontalSlownessUsed>false</horizontalSlownessUsed><backazimuthUsed>false</backazimuthUsed><weight>1</weight></arrival><arrival><pickID>de.gempa.tb1.Pick/20250414224015.61545.141863</pickID><phase>S</phase><azimuth>29.17329406738281</azimuth><distance>0.5071842074394226</distance><timeResidual>-0.20445823669433594</timeResidual><timeUsed>true</timeUsed><horizontalSlownessUsed>false</horizontalSlownessUsed><backazimuthUsed>false</backazimuthUsed><weight>1</weight></arrival><arrival><pickID>de.gempa.tb1.Pick/20250414224019.927238.141867</pickID><phase>P</phase><azimuth>122.93792724609375</azimuth><distance>0.5649106502532959</distance><timeResidual>0.2491297721862793</timeResidual><timeUsed>true</timeUsed><horizontalSlownessUsed>false</horizontalSlownessUsed><backazimuthUsed>false</backazimuthUsed><weight>1</weight></arrival><arrival><pickID>de.gempa.tb1.Pick/20250414224020.931137.141869</pickID><phase>P</phase><azimuth>207.74534606933594</azimuth><distance>0.267867773771286</distance><timeResidual>-0.006575584411621094</timeResidual><timeUsed>true</timeUsed><horizontalSlownessUsed>false</horizontalSlownessUsed><backazimuthUsed>false</backazimuthUsed><weight>1</weight></arrival><arrival><pickID>de.gempa.tb1.Pick/20250414224024.173884.141871</pickID><phase>S</phase><azimuth>207.74534606933594</azimuth><distance>0.267867773771286</distance><timeResidual>-0.06985235214233398</timeResidual><timeUsed>true</timeUsed><horizontalSlownessUsed>false</horizontalSlownessUsed><backazimuthUsed>false</backazimuthUsed><weight>1</weight></arrival><magnitude publicID="de.gempa.tb1.Magnitude/20250414224024.182199.547935"><magnitude><value>1.5996893251808821</value></magnitude><type>M</type><methodID>weighted average</methodID><stationCount>5</stationCount></magnitude></origin><event publicID="gempa2025hjzp"><preferredOriginID>de.gempa.tb1.Origin/20250414224024.177156.153612</preferredOriginID><preferredMagnitudeID>de.gempa.tb1.Magnitude/20250414224024.182199.547935</preferredMagnitudeID><description><text>Northern Chile</text><type>region name</type></description><originReference>de.gempa.tb1.Origin/20250414224024.177156.153612</originReference></event></EventParameters></seiscomp>