<?xml version="1.0" encoding="UTF-8"?>
<seiscomp xmlns="http://geofon.gfz-potsdam.de/ns/seiscomp3-schema/0.13" version="0.13"><EventParameters><pick publicID="de.gempa.tb1.Pick/20250414053703.360814.136006"><time><value>2025-04-14T05:36:54.55Z</value></time><waveformID networkCode="CX" stationCode="PB09" channelCode="HHZ"/><filterID>ITAPER(4)&gt;&gt;BW(4,4,20)</filterID><methodID>AIC</methodID><horizontalSlowness><value>16.630696444931974</value></horizontalSlowness><backazimuth><value>91.24199051792375</value></backazimuth><phaseHint>P</phaseHint><evaluationMode>automatic</evaluationMode><comment><text>5337.957822057523</text><id>DFX:rectilinearity</id></comment><comment><text>4162.600369408836</text><id>SNR</id></comment></pick><pick publicID="de.gempa.tb1.Pick/20250414053703.665063.136008"><time><value>2025-04-14T05:36:58.248394Z</value></time><waveformID networkCode="CX" stationCode="PB03" channelCode="HHZ"/><filterID>ITAPER(4)&gt;&gt;BW(4,4,20)</filterID><methodID>AIC</methodID><horizontalSlowness><value>6.426954978723461</value></horizontalSlowness><backazimuth><value>99.33326241190217</value></backazimuth><phaseHint>P</phaseHint><evaluationMode>automatic</evaluationMode><comment><text>1465.3503184094457</text><id>DFX:rectilinearity</id></comment><comment><text>1219.8196385666006</text><id>SNR</id></comment></pick><pick publicID="de.gempa.tb1.Pick/20250414053705.530537.136010"><time><value>2025-04-14T05:37:01.008393Z</value></time><waveformID networkCode="CX" stationCode="PB02" channelCode="HHZ"/><filterID>ITAPER(4)&gt;&gt;BW(4,4,20)</filterID><methodID>AIC</methodID><horizontalSlowness><value>8.933660593285309</value></horizontalSlowness><backazimuth><value>94.74706560194248</value></backazimuth><phaseHint>P</phaseHint><evaluationMode>automatic</evaluationMode><comment><text>2569.38887822537</text><id>DFX:rectilinearity</id></comment><comment><text>427.29564991070845</text><id>SNR</id></comment></pick><pick publicID="de.gempa.tb1.Pick/20250414053705.638956.136012"><time><value>2025-04-14T05:36:59.438393Z</value></time><waveformID networkCode="CX" stationCode="PB01" channelCode="HHZ"/><filterID>ITAPER(4)&gt;&gt;BW(4,4,20)</filterID><methodID>AIC</methodID><horizontalSlowness><value>7.453632787183122</value></horizontalSlowness><backazimuth><value>134.78319228642647</value></backazimuth><phaseHint>P</phaseHint><evaluationMode>automatic</evaluationMode><comment><text>491.6664684921038</text><id>DFX:rectilinearity</id></comment><comment><text>493.9998389265941</text><id>SNR</id></comment></pick><pick publicID="de.gempa.tb1.Pick/20250414053705.664343.136014"><time><value>2025-04-14T05:36:59.848391Z</value></time><waveformID networkCode="CX" stationCode="PB06" channelCode="HHZ"/><filterID>ITAPER(4)&gt;&gt;BW(4,4,20)</filterID><methodID>AIC</methodID><horizontalSlowness><value>7.547913724668842</value></horizontalSlowness><backazimuth><value>81.98855449849273</value></backazimuth><phaseHint>P</phaseHint><evaluationMode>automatic</evaluationMode><comment><text>2175.4751196041266</text><id>DFX:rectilinearity</id></comment><comment><text>419.1892335759867</text><id>SNR</id></comment></pick><pick publicID="de.gempa.tb1.Pick/20250414053709.036026.136016"><time><value>2025-04-14T05:36:59.728393Z</value></time><waveformID networkCode="CX" stationCode="PB07" channelCode="HHZ"/><filterID>ITAPER(4)&gt;&gt;BW(4,4,20)</filterID><methodID>AIC</methodID><horizontalSlowness><value>15.641465584758675</value></horizontalSlowness><backazimuth><value>115.2396868651051</value></backazimuth><phaseHint>P</phaseHint><evaluationMode>automatic</evaluationMode><comment><text>22800.575088496287</text><id>DFX:rectilinearity</id></comment><comment><text>3359.17239378133</text><id>SNR</id></comment></pick><pick publicID="de.gempa.tb1.Pick/20250414053709.702652.136018"><time><value>2025-04-14T05:37:04.148394Z</value></time><waveformID networkCode="CX" stationCode="PB15" channelCode="HHZ"/><filterID>ITAPER(4)&gt;&gt;BW(4,4,20)</filterID><methodID>AIC</methodID><horizontalSlowness><value>20.081740967050187</value></horizontalSlowness><backazimuth><value>102.76606651532337</value></backazimuth><phaseHint>P</phaseHint><evaluationMode>automatic</evaluationMode><comment><text>657.1611370406821</text><id>DFX:rectilinearity</id></comment><comment><text>43.883233104768777</text><id>SNR</id></comment></pick><pick publicID="de.gempa.tb1.Pick/20250414053711.223572.136020"><time><value>2025-04-14T05:37:06.449999Z</value></time><waveformID networkCode="CX" stationCode="PATCX" channelCode="HHZ"/><filterID>ITAPER(4)&gt;&gt;BW(4,4,20)</filterID><methodID>AIC</methodID><horizontalSlowness><value>9.852003494817728</value></horizontalSlowness><backazimuth><value>94.21415750358375</value></backazimuth><phaseHint>P</phaseHint><evaluationMode>automatic</evaluationMode><comment><text>208.37472770601894</text><id>DFX:rectilinearity</id></comment><comment><text>60.52732460872789</text><id>SNR</id></comment></pick><pick publicID="de.gempa.tb1.Pick/20250414053715.696199.136022"><time><value>2025-04-14T05:37:08.548393Z</value></time><waveformID networkCode="CX" stationCode="PB08" channelCode="HHZ"/><filterID>ITAPER(4)&gt;&gt;BW(4,4,20)</filterID><methodID>AIC</methodID><horizontalSlowness><value>14.86407333440385</value></horizontalSlowness><backazimuth><value>203.02276918231613</value></backazimuth><phaseHint>P</phaseHint><evaluationMode>automatic</evaluationMode><comment><text>26.742690577866547</text><id>DFX:rectilinearity</id></comment><comment><text>19.611974248914986</text><id>SNR</id></comment></pick><pick publicID="de.gempa.tb1.Pick/20250414053716.517085.136024"><time><value>2025-04-14T05:37:11.07Z</value></time><waveformID networkCode="CX" stationCode="PB19" channelCode="HHZ"/><filterID>ITAPER(4)&gt;&gt;BW(4,4,20)</filterID><methodID>AIC</methodID><horizontalSlowness><value>11.697239124646744</value></horizontalSlowness><backazimuth><value>58.88789236736504</value></backazimuth><phaseHint>P</phaseHint><evaluationMode>automatic</evaluationMode><comment><text>18.7674595104534</text><id>DFX:rectilinearity</id></comment><comment><text>28.987378128625544</text><id>SNR</id></comment></pick><pick publicID="de.gempa.tb1.Pick/20250414053719.179567.136026"><time><value>2025-04-14T05:37:13.68Z</value></time><waveformID networkCode="CX" stationCode="PB10" channelCode="HHZ"/><filterID>ITAPER(4)&gt;&gt;BW(4,4,20)</filterID><methodID>AIC</methodID><horizontalSlowness><value>16.118955001460012</value></horizontalSlowness><backazimuth><value>206.4726373317168</value></backazimuth><phaseHint>P</phaseHint><evaluationMode>automatic</evaluationMode><comment><text>39.568560916556876</text><id>DFX:rectilinearity</id></comment><comment><text>8.393263303963989</text><id>SNR</id></comment></pick><pick publicID="de.gempa.tb1.Pick/20250414053722.558903.136028"><time><value>2025-04-14T05:37:16.48Z</value></time><waveformID networkCode="CX" stationCode="PSGCX" channelCode="HHZ"/><filterID>ITAPER(4)&gt;&gt;BW(4,4,20)</filterID><methodID>AIC</methodID><horizontalSlowness><value>7.089639485401832</value></horizontalSlowness><backazimuth><value>61.83663406764352</value></backazimuth><phaseHint>P</phaseHint><evaluationMode>automatic</evaluationMode><comment><text>18.199941481701053</text><id>DFX:rectilinearity</id></comment><comment><text>44.17263831415842</text><id>SNR</id></comment></pick><pick publicID="de.gempa.tb1.Pick/20250414053723.574344.136030"><time><value>2025-04-14T05:37:15.568394Z</value></time><waveformID networkCode="CX" stationCode="PB03" channelCode="HHN"/><filterID>ITAPER(2)&gt;&gt;BW(3,3,20)</filterID><methodID>L2-AIC-GRID</methodID><horizontalSlowness><value>13.001363502856897</value></horizontalSlowness><backazimuth><value>211.48121839540673</value></backazimuth><phaseHint>S</phaseHint><evaluationMode>automatic</evaluationMode><comment><text>12035.329493988897</text><id>DFX:rectilinearity</id></comment><comment><text>de.gempa.tb1.Pick/20250414053703.665063.136008</text><id>RefPickID</id></comment><comment><text>10.808595857258247</text><id>SNR</id></comment></pick><pick publicID="de.gempa.tb1.Pick/20250414053723.832483.136031"><time><value>2025-04-14T05:37:18.338391Z</value></time><waveformID networkCode="CX" stationCode="PB06" channelCode="HHN"/><filterID>ITAPER(2)&gt;&gt;BW(3,3,20)</filterID><methodID>L2-AIC-GRID</methodID><horizontalSlowness><value>21.720788002807137</value></horizontalSlowness><backazimuth><value>319.37752912461775</value></backazimuth><phaseHint>S</phaseHint><evaluationMode>automatic</evaluationMode><comment><text>41058.96402742005</text><id>DFX:rectilinearity</id></comment><comment><text>de.gempa.tb1.Pick/20250414053705.664343.136014</text><id>RefPickID</id></comment><comment><text>11.73571178392452</text><id>SNR</id></comment></pick><pick publicID="de.gempa.tb1.Pick/20250414053724.73107.136032"><time><value>2025-04-14T05:37:17.608393Z</value></time><waveformID networkCode="CX" stationCode="PB01" channelCode="HHN"/><filterID>ITAPER(2)&gt;&gt;BW(3,3,20)</filterID><methodID>L2-AIC-GRID</methodID><horizontalSlowness><value>20.314070588917865</value></horizontalSlowness><backazimuth><value>66.58662600804247</value></backazimuth><phaseHint>S</phaseHint><evaluationMode>automatic</evaluationMode><comment><text>46218.57240012856</text><id>DFX:rectilinearity</id></comment><comment><text>de.gempa.tb1.Pick/20250414053705.638956.136012</text><id>RefPickID</id></comment><comment><text>12.200705556422443</text><id>SNR</id></comment></pick><pick publicID="de.gempa.tb1.Pick/20250414053726.580262.136033"><time><value>2025-04-14T05:37:20.358393Z</value></time><waveformID networkCode="CX" stationCode="PB02" channelCode="HHN"/><filterID>ITAPER(2)&gt;&gt;BW(3,3,20)</filterID><methodID>L2-AIC-GRID</methodID><horizontalSlowness><value>8.75544951180475</value></horizontalSlowness><backazimuth><value>260.9136602923732</value></backazimuth><phaseHint>S</phaseHint><evaluationMode>automatic</evaluationMode><comment><text>169131.6737153785</text><id>DFX:rectilinearity</id></comment><comment><text>de.gempa.tb1.Pick/20250414053705.530537.136010</text><id>RefPickID</id></comment><comment><text>6.975870187019062</text><id>SNR</id></comment></pick><pick publicID="de.gempa.tb1.Pick/20250414053733.967171.136039"><time><value>2025-04-14T05:37:25.758394Z</value></time><waveformID networkCode="CX" stationCode="PB15" channelCode="HHN"/><filterID>ITAPER(2)&gt;&gt;BW(3,3,20)</filterID><methodID>L2-AIC-GRID</methodID><horizontalSlowness><value>20.770852607588594</value></horizontalSlowness><backazimuth><value>116.13694405480663</value></backazimuth><phaseHint>S</phaseHint><evaluationMode>automatic</evaluationMode><comment><text>804666.3963004327</text><id>DFX:rectilinearity</id></comment><comment><text>de.gempa.tb1.Pick/20250414053709.702652.136018</text><id>RefPickID</id></comment><comment><text>14.500289480503794</text><id>SNR</id></comment></pick><pick publicID="de.gempa.tb1.Pick/20250414053738.313254.136042"><time><value>2025-04-14T05:37:29.999999Z</value></time><waveformID networkCode="CX" stationCode="PATCX" channelCode="HHN"/><filterID>ITAPER(2)&gt;&gt;BW(3,3,20)</filterID><methodID>L2-AIC-GRID</methodID><horizontalSlowness><value>21.354078688381382</value></horizontalSlowness><backazimuth><value>62.66275792586363</value></backazimuth><phaseHint>S</phaseHint><evaluationMode>automatic</evaluationMode><comment><text>15466.081658377623</text><id>DFX:rectilinearity</id></comment><comment><text>de.gempa.tb1.Pick/20250414053711.223572.136020</text><id>RefPickID</id></comment><comment><text>10.927318245249293</text><id>SNR</id></comment></pick><pick publicID="de.gempa.tb1.Pick/20250414053740.706223.136044"><time><value>2025-04-14T05:37:33.328393Z</value></time><waveformID networkCode="CX" stationCode="PB08" channelCode="HHN"/><filterID>ITAPER(2)&gt;&gt;BW(3,3,20)</filterID><methodID>L2-AIC-GRID</methodID><horizontalSlowness><value>16.825918068203006</value></horizontalSlowness><backazimuth><value>201.62481836223358</value></backazimuth><phaseHint>S</phaseHint><evaluationMode>automatic</evaluationMode><comment><text>1301.1831999707533</text><id>DFX:rectilinearity</id></comment><comment><text>de.gempa.tb1.Pick/20250414053715.696199.136022</text><id>RefPickID</id></comment><comment><text>6.664269201236173</text><id>SNR</id></comment></pick><pick publicID="de.gempa.tb1.Pick/20250414053743.665819.136047"><time><value>2025-04-14T05:37:37.47Z</value></time><waveformID networkCode="CX" stationCode="PB19" channelCode="HHN"/><filterID>ITAPER(2)&gt;&gt;BW(3,3,20)</filterID><methodID>L2-AIC-GRID</methodID><horizontalSlowness><value>22.200582335686317</value></horizontalSlowness><backazimuth><value>139.98683016273137</value></backazimuth><phaseHint>S</phaseHint><evaluationMode>automatic</evaluationMode><comment><text>3000.9963098708013</text><id>DFX:rectilinearity</id></comment><comment><text>de.gempa.tb1.Pick/20250414053716.517085.136024</text><id>RefPickID</id></comment><comment><text>11.484755213089224</text><id>SNR</id></comment></pick><pick publicID="de.gempa.tb1.Pick/20250414053748.260102.136049"><time><value>2025-04-14T05:37:41.08Z</value></time><waveformID networkCode="CX" stationCode="PB10" channelCode="HHN"/><filterID>ITAPER(2)&gt;&gt;BW(3,3,20)</filterID><methodID>L2-AIC-GRID</methodID><horizontalSlowness><value>16.069911675087774</value></horizontalSlowness><backazimuth><value>56.00248160599439</value></backazimuth><phaseHint>S</phaseHint><evaluationMode>automatic</evaluationMode><comment><text>108.04916324075666</text><id>DFX:rectilinearity</id></comment><comment><text>de.gempa.tb1.Pick/20250414053719.179567.136026</text><id>RefPickID</id></comment><comment><text>5.701967369026934</text><id>SNR</id></comment></pick><pick publicID="de.gempa.tb1.Pick/20250414053753.682141.136050"><time><value>2025-04-14T05:37:18.328393Z</value></time><waveformID networkCode="CX" stationCode="PB07" channelCode="HHN"/><filterID>ITAPER(2)&gt;&gt;BW(3,3,20)</filterID><methodID>L2-AIC-GRID</methodID><horizontalSlowness><value>23.079056812280335</value></horizontalSlowness><backazimuth><value>121.15525711897152</value></backazimuth><phaseHint>S</phaseHint><evaluationMode>automatic</evaluationMode><comment><text>310998.3028470581</text><id>DFX:rectilinearity</id></comment><comment><text>de.gempa.tb1.Pick/20250414053709.036026.136016</text><id>RefPickID</id></comment><comment><text>5.674222352374128</text><id>SNR</id></comment></pick><origin publicID="de.gempa.tb1.Origin/20250414053753.700565.129551"><time><value>2025-04-14T05:36:35.997239Z</value><uncertainty>0.6116045117378235</uncertainty></time><latitude><value>-21.914175033569336</value><uncertainty>2.0588793754577637</uncertainty></latitude><longitude><value>-68.86604309082031</value><uncertainty>6.74064302444458</uncertainty></longitude><depth><value>138.51919555664062</value><uncertainty>6.719903945922852</uncertainty></depth><depthType>from location</depthType><methodID>LOCSAT</methodID><earthModelID>iasp91_scanloc</earthModelID><quality><associatedPhaseCount>22</associatedPhaseCount><usedPhaseCount>22</usedPhaseCount><associatedStationCount>12</associatedStationCount><usedStationCount>12</usedStationCount><depthPhaseCount>0</depthPhaseCount><standardError>0.6144086847757703</standardError><azimuthalGap>199.79981994628906</azimuthalGap><maximumDistance>2.588117837905884</maximumDistance><minimumDistance>0.36833617091178894</minimumDistance><medianDistance>1.4041451215744019</medianDistance></quality><uncertainty><minHorizontalUncertainty>4.4134602546691895</minHorizontalUncertainty><maxHorizontalUncertainty>14.450324058532715</maxHorizontalUncertainty><azimuthMaxHorizontalUncertainty>90.19937896728516</azimuthMaxHorizontalUncertainty><preferredDescription>horizontal uncertainty</preferredDescription></uncertainty><evaluationMode>automatic</evaluationMode><evaluationStatus>confirmed</evaluationStatus><comment><text>0.00</text><id>mismatchScore</id></comment><comment><text>mismatchScore</text><id>scevalMethod</id></comment><arrival><pickID>de.gempa.tb1.Pick/20250414053703.360814.136006</pickID><phase>P</phase><azimuth>288.4876708984375</azimuth><distance>0.36833617091178894</distance><timeResidual>-0.8585338592529297</timeResidual><timeUsed>true</timeUsed><horizontalSlownessUsed>false</horizontalSlownessUsed><backazimuthUsed>false</backazimuthUsed><weight>1</weight></arrival><arrival><pickID>de.gempa.tb1.Pick/20250414053703.665063.136008</pickID><phase>P</phase><azimuth>260.615234375</azimuth><distance>0.8341156244277954</distance><timeResidual>-0.04350471496582031</timeResidual><timeUsed>true</timeUsed><horizontalSlownessUsed>false</horizontalSlownessUsed><backazimuthUsed>false</backazimuthUsed><weight>1</weight></arrival><arrival><pickID>de.gempa.tb1.Pick/20250414053705.530537.136010</pickID><phase>P</phase><azimuth>301.4936828613281</azimuth><distance>1.1262550354003906</distance><timeResidual>0.13463401794433594</timeResidual><timeUsed>true</timeUsed><horizontalSlownessUsed>false</horizontalSlownessUsed><backazimuthUsed>false</backazimuthUsed><weight>1</weight></arrival><arrival><pickID>de.gempa.tb1.Pick/20250414053705.638956.136012</pickID><phase>P</phase><azimuth>326.1531677246094</azimuth><distance>1.0421208143234253</distance><timeResidual>-0.6488876342773438</timeResidual><timeUsed>true</timeUsed><horizontalSlownessUsed>false</horizontalSlownessUsed><backazimuthUsed>false</backazimuthUsed><weight>1</weight></arrival><arrival><pickID>de.gempa.tb1.Pick/20250414053705.664343.136014</pickID><phase>P</phase><azimuth>219.54794311523438</azimuth><distance>1.0236735343933105</distance><timeResidual>-0.05956268310546875</timeResidual><timeUsed>true</timeUsed><horizontalSlownessUsed>false</horizontalSlownessUsed><backazimuthUsed>false</backazimuthUsed><weight>1</weight></arrival><arrival><pickID>de.gempa.tb1.Pick/20250414053709.036026.136016</pickID><phase>P</phase><azimuth>280.9472961425781</azimuth><distance>0.966107428073883</distance><timeResidual>0.32764434814453125</timeResidual><timeUsed>true</timeUsed><horizontalSlownessUsed>false</horizontalSlownessUsed><backazimuthUsed>false</backazimuthUsed><weight>1</weight></arrival><arrival><pickID>de.gempa.tb1.Pick/20250414053709.702652.136018</pickID><phase>P</phase><azimuth>203.35089111328125</azimuth><distance>1.4041451215744019</distance><timeResidual>0.4733142852783203</timeResidual><timeUsed>true</timeUsed><horizontalSlownessUsed>false</horizontalSlownessUsed><backazimuthUsed>false</backazimuthUsed><weight>1</weight></arrival><arrival><pickID>de.gempa.tb1.Pick/20250414053711.223572.136020</pickID><phase>P</phase><azimuth>311.97796630859375</azimuth><distance>1.6194132566452026</distance><timeResidual>0.4066963195800781</timeResidual><timeUsed>true</timeUsed><horizontalSlownessUsed>false</horizontalSlownessUsed><backazimuthUsed>false</backazimuthUsed><weight>1</weight></arrival><arrival><pickID>de.gempa.tb1.Pick/20250414053715.696199.136022</pickID><phase>P</phase><azimuth>351.29644775390625</azimuth><distance>1.7845215797424316</distance><timeResidual>0.6190032958984375</timeResidual><timeUsed>true</timeUsed><horizontalSlownessUsed>false</horizontalSlownessUsed><backazimuthUsed>false</backazimuthUsed><weight>1</weight></arrival><arrival><pickID>de.gempa.tb1.Pick/20250414053716.517085.136024</pickID><phase>P</phase><azimuth>191.0962677001953</azimuth><distance>2.01959228515625</distance><timeResidual>0.3949546813964844</timeResidual><timeUsed>true</timeUsed><horizontalSlownessUsed>false</horizontalSlownessUsed><backazimuthUsed>false</backazimuthUsed><weight>1</weight></arrival><arrival><pickID>de.gempa.tb1.Pick/20250414053719.179567.136026</pickID><phase>P</phase><azimuth>224.07791137695312</azimuth><distance>2.227722406387329</distance><timeResidual>0.4758625030517578</timeResidual><timeUsed>true</timeUsed><horizontalSlownessUsed>false</horizontalSlownessUsed><backazimuthUsed>false</backazimuthUsed><weight>1</weight></arrival><arrival><pickID>de.gempa.tb1.Pick/20250414053722.558903.136028</pickID><phase>P</phase>