<?xml version="1.0" encoding="UTF-8"?>
<seiscomp xmlns="http://geofon.gfz-potsdam.de/ns/seiscomp3-schema/0.13" version="0.13"><EventParameters><pick publicID="de.gempa.tb1.Pick/20250412012942.640106.121279"><time><value>2025-04-12T01:29:36.418393Z</value></time><waveformID networkCode="CX" stationCode="PB06" channelCode="HHZ"/><filterID>ITAPER(4)&gt;&gt;BW(4,4,20)</filterID><methodID>AIC</methodID><horizontalSlowness><value>4.3853722973536637</value></horizontalSlowness><backazimuth><value>247.7789136562951</value></backazimuth><phaseHint>P</phaseHint><evaluationMode>automatic</evaluationMode><comment><text>121.16395185986158</text><id>DFX:rectilinearity</id></comment><comment><text>8.935069231840114</text><id>SNR</id></comment></pick><pick publicID="de.gempa.tb1.Pick/20250412012943.624294.121281"><time><value>2025-04-12T01:29:36.928393Z</value></time><waveformID networkCode="CX" stationCode="PB03" channelCode="HHZ"/><filterID>ITAPER(4)&gt;&gt;BW(4,4,20)</filterID><methodID>AIC</methodID><horizontalSlowness><value>13.46349840617501</value></horizontalSlowness><backazimuth><value>123.16277967579734</value></backazimuth><phaseHint>P</phaseHint><evaluationMode>automatic</evaluationMode><comment><text>8.378462671027602</text><id>DFX:rectilinearity</id></comment><comment><text>13.264153306398208</text><id>SNR</id></comment></pick><pick publicID="de.gempa.tb1.Pick/20250412012944.40188.121283"><time><value>2025-04-12T01:29:33.84Z</value></time><waveformID networkCode="CX" stationCode="PB09" channelCode="HHZ"/><filterID>ITAPER(4)&gt;&gt;BW(4,4,20)</filterID><methodID>AIC</methodID><horizontalSlowness><value>18.507521576188715</value></horizontalSlowness><backazimuth><value>96.06373300609478</value></backazimuth><phaseHint>P</phaseHint><evaluationMode>automatic</evaluationMode><comment><text>27.486980579461104</text><id>DFX:rectilinearity</id></comment><comment><text>60.31373962011229</text><id>SNR</id></comment></pick><pick publicID="de.gempa.tb1.Pick/20250412012947.496488.121285"><time><value>2025-04-12T01:29:41.838393Z</value></time><waveformID networkCode="CX" stationCode="PB02" channelCode="HHZ"/><filterID>ITAPER(4)&gt;&gt;BW(4,4,20)</filterID><methodID>AIC</methodID><horizontalSlowness><value>22.017287067621634</value></horizontalSlowness><backazimuth><value>45.41920308366329</value></backazimuth><phaseHint>P</phaseHint><evaluationMode>automatic</evaluationMode><comment><text>20.989852625144039</text><id>DFX:rectilinearity</id></comment><comment><text>6.238966348273713</text><id>SNR</id></comment></pick><pick publicID="de.gempa.tb1.Pick/20250412012950.567963.121287"><time><value>2025-04-12T01:29:40.948391Z</value></time><waveformID networkCode="CX" stationCode="PB01" channelCode="HHZ"/><filterID>ITAPER(4)&gt;&gt;BW(4,4,20)</filterID><methodID>AIC</methodID><horizontalSlowness><value>22.4075651682104</value></horizontalSlowness><backazimuth><value>197.11860767973639</value></backazimuth><phaseHint>P</phaseHint><evaluationMode>automatic</evaluationMode><comment><text>23.07343880942077</text><id>DFX:rectilinearity</id></comment><comment><text>8.024898472971671</text><id>SNR</id></comment></pick><pick publicID="de.gempa.tb1.Pick/20250412012959.747414.121289"><time><value>2025-04-12T01:29:53.238393Z</value></time><waveformID networkCode="CX" stationCode="PB03" channelCode="HHN"/><filterID>ITAPER(2)&gt;&gt;BW(3,3,20)</filterID><methodID>L2-AIC-GRID</methodID><horizontalSlowness><value>13.184175673876</value></horizontalSlowness><backazimuth><value>223.81606341671824</value></backazimuth><phaseHint>S</phaseHint><evaluationMode>automatic</evaluationMode><comment><text>225.19231098115026</text><id>DFX:rectilinearity</id></comment><comment><text>de.gempa.tb1.Pick/20250412012943.624294.121281</text><id>RefPickID</id></comment><comment><text>16.219498560177488</text><id>SNR</id></comment></pick><pick publicID="de.gempa.tb1.Pick/20250412013001.594426.121292"><time><value>2025-04-12T01:29:52.648393Z</value></time><waveformID networkCode="CX" stationCode="PB06" channelCode="HHN"/><filterID>ITAPER(2)&gt;&gt;BW(3,3,20)</filterID><methodID>L2-AIC-GRID</methodID><horizontalSlowness><value>19.275090441286366</value></horizontalSlowness><backazimuth><value>249.7637633936457</value></backazimuth><phaseHint>S</phaseHint><evaluationMode>automatic</evaluationMode><comment><text>203.75220505571863</text><id>DFX:rectilinearity</id></comment><comment><text>de.gempa.tb1.Pick/20250412012942.640106.121279</text><id>RefPickID</id></comment><comment><text>9.42561074313028</text><id>SNR</id></comment></pick><pick publicID="de.gempa.tb1.Pick/20250412013018.310467.121297"><time><value>2025-04-12T01:29:39.198394Z</value></time><waveformID networkCode="CX" stationCode="PB07" channelCode="HHZ"/><filterID>ITAPER(4)&gt;&gt;BW(4,4,20)</filterID><methodID>AIC</methodID><horizontalSlowness><value>21.804009076473744</value></horizontalSlowness><backazimuth><value>289.5165064261621</value></backazimuth><phaseHint>P</phaseHint><evaluationMode>automatic</evaluationMode><comment><text>152.86067884818448</text><id>DFX:rectilinearity</id></comment><comment><text>19.745169320902914</text><id>SNR</id></comment></pick><pick publicID="de.gempa.tb1.Pick/20250412013037.489175.121302"><time><value>2025-04-12T01:29:57.278394Z</value></time><waveformID networkCode="CX" stationCode="PB07" channelCode="HHN"/><filterID>ITAPER(2)&gt;&gt;BW(3,3,20)</filterID><methodID>L2-AIC-GRID</methodID><horizontalSlowness><value>23.557079486099873</value></horizontalSlowness><backazimuth><value>291.76201032151175</value></backazimuth><phaseHint>S</phaseHint><evaluationMode>automatic</evaluationMode><comment><text>549.1341972620367</text><id>DFX:rectilinearity</id></comment><comment><text>de.gempa.tb1.Pick/20250412013018.310467.121297</text><id>RefPickID</id></comment><comment><text>5.962229314811387</text><id>SNR</id></comment></pick><origin publicID="de.gempa.tb1.Origin/20250412013037.591052.71678"><time><value>2025-04-12T01:29:15.74748Z</value><uncertainty>1.2739980220794678</uncertainty></time><latitude><value>-22.202444076538086</value><uncertainty>7.286412715911865</uncertainty></latitude><longitude><value>-68.69774627685547</value><uncertainty>15.511773109436035</uncertainty></longitude><depth><value>110.65525817871094</value><uncertainty>20.555238723754883</uncertainty></depth><depthType>from location</depthType><methodID>LOCSAT</methodID><earthModelID>iasp91_scanloc</earthModelID><quality><associatedPhaseCount>9</associatedPhaseCount><usedPhaseCount>9</usedPhaseCount><associatedStationCount>6</associatedStationCount><usedStationCount>6</usedStationCount><depthPhaseCount>0</depthPhaseCount><standardError>0.08944029139251077</standardError><azimuthalGap>270.6967010498047</azimuthalGap><maximumDistance>1.418579339981079</maximumDistance><minimumDistance>0.6467978954315186</minimumDistance><medianDistance>0.9904857277870178</medianDistance></quality><uncertainty><minHorizontalUncertainty>14.473958015441895</minHorizontalUncertainty><maxHorizontalUncertainty>33.777557373046875</maxHorizontalUncertainty><azimuthMaxHorizontalUncertainty>78.88545989990234</azimuthMaxHorizontalUncertainty><preferredDescription>horizontal uncertainty</preferredDescription></uncertainty><evaluationMode>automatic</evaluationMode><evaluationStatus>confirmed</evaluationStatus><comment><text>0.05</text><id>mismatchScore</id></comment><comment><text>mismatchScore</text><id>scevalMethod</id></comment><arrival><pickID>de.gempa.tb1.Pick/20250412012942.640106.121279</pickID><phase>P</phase><azimuth>238.05616760253906</azimuth><distance>0.9512422680854797</distance><timeResidual>-0.11437416076660156</timeResidual><timeUsed>true</timeUsed><horizontalSlownessUsed>false</horizontalSlownessUsed><backazimuthUsed>false</backazimuthUsed><weight>1</weight></arrival><arrival><pickID>de.gempa.tb1.Pick/20250412012943.624294.121281</pickID><phase>P</phase><azimuth>278.70184326171875</azimuth><distance>0.9904857277870178</distance><timeResidual>-0.004995346069335938</timeResidual><timeUsed>true</timeUsed><horizontalSlownessUsed>false</horizontalSlownessUsed><backazimuthUsed>false</backazimuthUsed><weight>1</weight></arrival><arrival><pickID>de.gempa.tb1.Pick/20250412012944.40188.121283</pickID><phase>P</phase><azimuth>308.5639953613281</azimuth><distance>0.6467978954315186</distance><timeResidual>0.07155609130859375</timeResidual><timeUsed>true</timeUsed><horizontalSlownessUsed>false</horizontalSlownessUsed><backazimuthUsed>false</backazimuthUsed><weight>1</weight></arrival><arrival><pickID>de.gempa.tb1.Pick/20250412012947.496488.121285</pickID><phase>P</phase><azimuth>308.0367126464844</azimuth><distance>1.418579339981079</distance><timeResidual>0.16730690002441406</timeResidual><timeUsed>true</timeUsed><horizontalSlownessUsed>false</horizontalSlownessUsed><backazimuthUsed>false</backazimuthUsed><weight>1</weight></arrival><arrival><pickID>de.gempa.tb1.Pick/20250412012950.567963.121287</pickID><phase>P</phase><azimuth>327.3594665527344</azimuth><distance>1.3676588535308838</distance><timeResidual>-0.13084793090820312</timeResidual><timeUsed>true</timeUsed><horizontalSlownessUsed>false</horizontalSlownessUsed><backazimuthUsed>false</backazimuthUsed><weight>1</weight></arrival><arrival><pickID>de.gempa.tb1.Pick/20250412012959.747414.121289</pickID><phase>S</phase><azimuth>278.70184326171875</azimuth><distance>0.9904857277870178</distance><timeResidual>-0.05525970458984375</timeResidual><timeUsed>true</timeUsed><horizontalSlownessUsed>false</horizontalSlownessUsed><backazimuthUsed>false</backazimuthUsed><weight>1</weight></arrival><arrival><pickID>de.gempa.tb1.Pick/20250412013001.594426.121292</pickID><phase>S</phase><azimuth>238.05616760253906</azimuth><distance>0.9512422680854797</distance><timeResidual>0.0687103271484375</timeResidual><timeUsed>true</timeUsed><horizontalSlownessUsed>false</horizontalSlownessUsed><backazimuthUsed>false</backazimuthUsed><weight>1</weight></arrival><arrival><pickID>de.gempa.tb1.Pick/20250412013018.310467.121297</pickID><phase>P</phase><azimuth>293.0063781738281</azimuth><distance>1.2005038261413574</distance><timeResidual>0.019918441772460938</timeResidual><timeUsed>true</timeUsed><horizontalSlownessUsed>false</horizontalSlownessUsed><backazimuthUsed>false</backazimuthUsed><weight>1</weight></arrival><arrival><pickID>de.gempa.tb1.Pick/20250412013037.489175.121302</pickID><phase>S</phase><azimuth>293.0063781738281</azimuth><distance>1.2005038261413574</distance><timeResidual>-0.02202606201171875</timeResidual><timeUsed>true</timeUsed><horizontalSlownessUsed>false</horizontalSlownessUsed><backazimuthUsed>false</backazimuthUsed><weight>1</weight></arrival><magnitude publicID="de.gempa.tb1.Magnitude/20250412013037.597087.161098"><magnitude><value>2.1280542261661957</value></magnitude><type>M</type><methodID>weighted average</methodID><stationCount>3</stationCount></magnitude></origin><event publicID="gempa2025here"><preferredOriginID>de.gempa.tb1.Origin/20250412013037.591052.71678</preferredOriginID><preferredMagnitudeID>de.gempa.tb1.Magnitude/20250412013037.597087.161098</preferredMagnitudeID><description><text>Northern Chile</text><type>region name</type></description><originReference>de.gempa.tb1.Origin/20250412013037.591052.71678</originReference></event></EventParameters></seiscomp>