<?xml version="1.0" encoding="UTF-8"?>
<seiscomp xmlns="http://geofon.gfz-potsdam.de/ns/seiscomp3-schema/0.13" version="0.13"><EventParameters><pick publicID="de.gempa.tb1.Pick/20250412164223.669262.125298"><time><value>2025-04-12T16:42:18.06Z</value></time><waveformID networkCode="CX" stationCode="PB19" channelCode="HHZ"/><filterID>ITAPER(4)&gt;&gt;BW(4,4,20)</filterID><methodID>AIC</methodID><horizontalSlowness><value>20.446728982219383</value></horizontalSlowness><backazimuth><value>169.48691575585917</value></backazimuth><phaseHint>P</phaseHint><evaluationMode>automatic</evaluationMode><comment><text>22.22433905307086</text><id>DFX:rectilinearity</id></comment><comment><text>29.313723762394407</text><id>SNR</id></comment></pick><pick publicID="de.gempa.tb1.Pick/20250412164227.705682.125300"><time><value>2025-04-12T16:42:22.018394Z</value></time><waveformID networkCode="CX" stationCode="PB15" channelCode="HHZ"/><filterID>ITAPER(4)&gt;&gt;BW(4,4,20)</filterID><methodID>AIC</methodID><horizontalSlowness><value>19.835786248712822</value></horizontalSlowness><backazimuth><value>100.77717492822531</value></backazimuth><phaseHint>P</phaseHint><evaluationMode>automatic</evaluationMode><comment><text>212.58785563510054</text><id>DFX:rectilinearity</id></comment><comment><text>12.71887237790046</text><id>SNR</id></comment></pick><pick publicID="de.gempa.tb1.Pick/20250412164233.504237.125302"><time><value>2025-04-12T16:42:25.618393Z</value></time><waveformID networkCode="CX" stationCode="PB06" channelCode="HHZ"/><filterID>ITAPER(4)&gt;&gt;BW(4,4,20)</filterID><methodID>AIC</methodID><horizontalSlowness><value>15.871531233722527</value></horizontalSlowness><backazimuth><value>309.10245656778676</value></backazimuth><phaseHint>P</phaseHint><evaluationMode>automatic</evaluationMode><comment><text>178.02851724684768</text><id>DFX:rectilinearity</id></comment><comment><text>14.28248874761352</text><id>SNR</id></comment></pick><pick publicID="de.gempa.tb1.Pick/20250412164240.551456.125304"><time><value>2025-04-12T16:42:32.038394Z</value></time><waveformID networkCode="CX" stationCode="PB03" channelCode="HHZ"/><filterID>ITAPER(4)&gt;&gt;BW(4,4,20)</filterID><methodID>AIC</methodID><horizontalSlowness><value>17.811590889609697</value></horizontalSlowness><backazimuth><value>106.64106566065306</value></backazimuth><phaseHint>P</phaseHint><evaluationMode>automatic</evaluationMode><comment><text>10.299287332565088</text><id>DFX:rectilinearity</id></comment><comment><text>10.951159364360702</text><id>SNR</id></comment></pick><pick publicID="de.gempa.tb1.Pick/20250412164242.260253.125306"><time><value>2025-04-12T16:42:31.17Z</value></time><waveformID networkCode="CX" stationCode="PB09" channelCode="HHZ"/><filterID>ITAPER(4)&gt;&gt;BW(4,4,20)</filterID><methodID>AIC</methodID><horizontalSlowness><value>21.50725414029018</value></horizontalSlowness><backazimuth><value>296.87631457344406</value></backazimuth><phaseHint>P</phaseHint><evaluationMode>automatic</evaluationMode><comment><text>8.717350613953496</text><id>DFX:rectilinearity</id></comment><comment><text>18.849108528927907</text><id>SNR</id></comment></pick><pick publicID="de.gempa.tb1.Pick/20250412164247.534308.125308"><time><value>2025-04-12T16:42:39.538394Z</value></time><waveformID networkCode="CX" stationCode="PB02" channelCode="HHZ"/><filterID>ITAPER(4)&gt;&gt;BW(4,4,20)</filterID><methodID>AIC</methodID><horizontalSlowness><value>17.376077361491877</value></horizontalSlowness><backazimuth><value>351.3867968385447</value></backazimuth><phaseHint>P</phaseHint><evaluationMode>automatic</evaluationMode><comment><text>31.545759911773246</text><id>DFX:rectilinearity</id></comment><comment><text>11.607001119624865</text><id>SNR</id></comment></pick><pick publicID="de.gempa.tb1.Pick/20250412164250.592881.125310"><time><value>2025-04-12T16:42:39.188394Z</value></time><waveformID networkCode="CX" stationCode="PB01" channelCode="HHZ"/><filterID>ITAPER(4)&gt;&gt;BW(4,4,20)</filterID><methodID>AIC</methodID><horizontalSlowness><value>17.023517275518714</value></horizontalSlowness><backazimuth><value>276.472640161759</value></backazimuth><phaseHint>P</phaseHint><evaluationMode>automatic</evaluationMode><comment><text>10.99063830706439</text><id>DFX:rectilinearity</id></comment><comment><text>8.68160285794656</text><id>SNR</id></comment></pick><pick publicID="de.gempa.tb1.Pick/20250412164253.717503.125312"><time><value>2025-04-12T16:42:45.96Z</value></time><waveformID networkCode="CX" stationCode="PB19" channelCode="HHN"/><filterID>ITAPER(2)&gt;&gt;BW(3,3,20)</filterID><methodID>L2-AIC-GRID</methodID><horizontalSlowness><value>19.010052403331311</value></horizontalSlowness><backazimuth><value>111.79296205032276</value></backazimuth><phaseHint>S</phaseHint><evaluationMode>automatic</evaluationMode><comment><text>150.9809019603977</text><id>DFX:rectilinearity</id></comment><comment><text>de.gempa.tb1.Pick/20250412164223.669262.125298</text><id>RefPickID</id></comment><comment><text>12.443304179498343</text><id>SNR</id></comment></pick><pick publicID="de.gempa.tb1.Pick/20250412164300.876553.125314"><time><value>2025-04-12T16:42:52.838394Z</value></time><waveformID networkCode="CX" stationCode="PB15" channelCode="HHN"/><filterID>ITAPER(2)&gt;&gt;BW(3,3,20)</filterID><methodID>L2-AIC-GRID</methodID><horizontalSlowness><value>19.869576874411376</value></horizontalSlowness><backazimuth><value>102.62624311871298</value></backazimuth><phaseHint>S</phaseHint><evaluationMode>automatic</evaluationMode><comment><text>1482.673797792802</text><id>DFX:rectilinearity</id></comment><comment><text>de.gempa.tb1.Pick/20250412164227.705682.125300</text><id>RefPickID</id></comment><comment><text>10.856619211565562</text><id>SNR</id></comment></pick><pick publicID="de.gempa.tb1.Pick/20250412164307.584048.125317"><time><value>2025-04-12T16:42:58.838393Z</value></time><waveformID networkCode="CX" stationCode="PB06" channelCode="HHN"/><filterID>ITAPER(2)&gt;&gt;BW(3,3,20)</filterID><methodID>L2-AIC-GRID</methodID><horizontalSlowness><value>21.444518160371214</value></horizontalSlowness><backazimuth><value>75.12201245303915</value></backazimuth><phaseHint>S</phaseHint><evaluationMode>automatic</evaluationMode><comment><text>131.66567934590216</text><id>DFX:rectilinearity</id></comment><comment><text>de.gempa.tb1.Pick/20250412164233.504237.125302</text><id>RefPickID</id></comment><comment><text>14.50862945898575</text><id>SNR</id></comment></pick><pick publicID="de.gempa.tb1.Pick/20250412164317.856096.125320"><time><value>2025-04-12T16:43:08.63Z</value></time><waveformID networkCode="CX" stationCode="PB09" channelCode="HHN"/><filterID>ITAPER(2)&gt;&gt;BW(3,3,20)</filterID><methodID>L2-AIC-GRID</methodID><horizontalSlowness><value>14.321978039922465</value></horizontalSlowness><backazimuth><value>317.223933147828</value></backazimuth><phaseHint>S</phaseHint><evaluationMode>automatic</evaluationMode><comment><text>10.283649811842842</text><id>DFX:rectilinearity</id></comment><comment><text>de.gempa.tb1.Pick/20250412164242.260253.125306</text><id>RefPickID</id></comment><comment><text>5.236687463243353</text><id>SNR</id></comment></pick><pick publicID="de.gempa.tb1.Pick/20250412164318.779638.125321"><time><value>2025-04-12T16:43:09.828394Z</value></time><waveformID networkCode="CX" stationCode="PB03" channelCode="HHN"/><filterID>ITAPER(2)&gt;&gt;BW(3,3,20)</filterID><methodID>L2-AIC-GRID</methodID><horizontalSlowness><value>14.817738343745049</value></horizontalSlowness><backazimuth><value>342.2885462959126</value></backazimuth><phaseHint>S</phaseHint><evaluationMode>automatic</evaluationMode><comment><text>26.492350801445703</text><id>DFX:rectilinearity</id></comment><comment><text>de.gempa.tb1.Pick/20250412164240.551456.125304</text><id>RefPickID</id></comment><comment><text>9.572705105787922</text><id>SNR</id></comment></pick><pick publicID="de.gempa.tb1.Pick/20250412164330.17988.125324"><time><value>2025-04-12T16:42:35.538393Z</value></time><waveformID networkCode="CX" stationCode="PB07" channelCode="HHZ"/><filterID>ITAPER(4)&gt;&gt;BW(4,4,20)</filterID><methodID>AIC</methodID><horizontalSlowness><value>23.368301373108437</value></horizontalSlowness><backazimuth><value>106.06698382091024</value></backazimuth><phaseHint>P</phaseHint><evaluationMode>automatic</evaluationMode><comment><text>215.7780611127964</text><id>DFX:rectilinearity</id></comment><comment><text>32.251156884498563</text><id>SNR</id></comment></pick><origin publicID="de.gempa.tb1.Origin/20250412164330.399097.87283"><time><value>2025-04-12T16:41:41.653296Z</value><uncertainty>0.9697801470756531</uncertainty></time><latitude><value>-23.90849304199219</value><uncertainty>6.375272274017334</uncertainty></latitude><longitude><value>-67.0068130493164</value><uncertainty>5.638247966766357</uncertainty></longitude><depth><value>0</value></depth><depthType>operator assigned</depthType><methodID>LOCSAT</methodID><earthModelID>iasp91_scanloc</earthModelID><quality><associatedPhaseCount>13</associatedPhaseCount><usedPhaseCount>13</usedPhaseCount><associatedStationCount>8</associatedStationCount><usedStationCount>8</usedStationCount><depthPhaseCount>0</depthPhaseCount><standardError>0.8967019877516128</standardError><azimuthalGap>308.939697265625</azimuthalGap><maximumDistance>3.7099549770355225</maximumDistance><minimumDistance>2.0901715755462646</minimumDistance><medianDistance>2.9443602561950684</medianDistance></quality><uncertainty><minHorizontalUncertainty>11.97187042236328</minHorizontalUncertainty><maxHorizontalUncertainty>13.780187606811523</maxHorizontalUncertainty><azimuthMaxHorizontalUncertainty>165.5040740966797</azimuthMaxHorizontalUncertainty><preferredDescription>horizontal uncertainty</preferredDescription></uncertainty><evaluationMode>automatic</evaluationMode><evaluationStatus>confirmed</evaluationStatus><comment><text>0.05</text><id>mismatchScore</id></comment><comment><text>mismatchScore</text><id>scevalMethod</id></comment><arrival><pickID>de.gempa.tb1.Pick/20250412164223.669262.125298</pickID><phase>P</phase><azimuth>269.64111328125</azimuth><distance>2.0901715755462646</distance><timeResidual>0.12158966064453125</timeResidual><timeUsed>true</timeUsed><horizontalSlownessUsed>false</horizontalSlownessUsed><backazimuthUsed>false</backazimuthUsed><weight>1</weight></arrival><arrival><pickID>de.gempa.tb1.Pick/20250412164227.705682.125300</pickID><phase>P</phase><azimuth>286.638671875</azimuth><distance>2.366067409515381</distance><timeResidual>0.28212738037109375</timeResidual><timeUsed>true</timeUsed><horizontalSlownessUsed>false</horizontalSlownessUsed><backazimuthUsed>false</backazimuthUsed><weight>1</weight></arrival><arrival><pickID>de.gempa.tb1.Pick/20250412164233.504237.125302</pickID><phase>P</phase><azimuth>296.4056396484375</azimuth><distance>2.644589424133301</distance><timeResidual>0.048370361328125</timeResidual><timeUsed>true</timeUsed><horizontalSlownessUsed>false</horizontalSlownessUsed><backazimuthUsed>false</backazimuthUsed><weight>1</weight></arrival><arrival><pickID>de.gempa.tb1.Pick/20250412164240.551456.125304</pickID><phase>P</phase><azimuth>305.6451721191406</azimuth><distance>3.1356170177459717</distance><timeResidual>-0.28985595703125</timeResidual><timeUsed>true</timeUsed><horizontalSlownessUsed>false</horizontalSlownessUsed><backazimuthUsed>false</backazimuthUsed><weight>1</weight></arrival><arrival><pickID>de.gempa.tb1.Pick/20250412164242.260253.125306</pickID><phase>P</phase><azimuth>315.1198425292969</azimuth><distance>2.9443602561950684</distance><timeResidual>1.4732704162597656</timeResidual><timeUsed>true</timeUsed><horizontalSlownessUsed>false</horizontalSlownessUsed><backazimuthUsed>false</backazimuthUsed><weight>1</weight></arrival><arrival><pickID>de.gempa.tb1.Pick/20250412164247.534308.125308</pickID><phase>P</phase><azimuth>313.4212951660156</azimuth><distance>3.7099549770355225</distance><timeResidual>-0.6929054260253906</timeResidual><timeUsed>true</timeUsed><horizontalSlownessUsed>false</horizontalSlownessUsed><backazimuthUsed>false</backazimuthUsed><weight>1</weight></arrival><arrival><pickID>de.gempa.tb1.Pick/20250412164250.592881.125310</pickID><phase>P</phase><azimuth>320.701416015625</azimuth><distance>3.65983510017395</distance><timeResidual>-0.3537406921386719</timeResidual><timeUsed>true</timeUsed><horizontalSlownessUsed>false</horizontalSlownessUsed><backazimuthUsed>false</backazimuthUsed><weight>1</weight></arrival><arrival><pickID>de.gempa.tb1.Pick/20250412164253.717503.125312</pickID><phase>S</phase><azimuth>269.64111328125</azimuth><distance>2.0901715755462646</distance><timeResidual>0.3104133605957031</timeResidual><timeUsed>true</timeUsed><horizontalSlownessUsed>false</horizontalSlownessUsed><backazimuthUsed>false</backazimuthUsed><weight>1</weight></arrival><arrival><pickID>de.gempa.tb1.Pick/20250412164300.876553.125314</pickID><phase>S</phase><azimuth>286.638671875</azimuth><distance>2.366067409515381</distance><timeResidual>0.3580169677734375</timeResidual><timeUsed>true</timeUsed><horizontalSlownessUsed>false</horizontalSlownessUsed><backazimuthUsed>false</backazimuthUsed><weight>1</weight></arrival><arrival><pickID>de.gempa.tb1.Pick/20250412164307.584048.125317</pickID><phase>S</phase><azimuth>296.4056396484375</azimuth><distance>2.644589424133301</distance><timeResidual>-0.5368118286132812</timeResidual><timeUsed>true</timeUsed><horizontalSlownessUsed>false</horizontalSlownessUsed><backazimuthUsed>false</backazimuthUsed><weight>1</weight></arrival><arrival><pickID>de.gempa.tb1.Pick/20250412164317.856096.125320</pickID><phase>S</phase><azimuth>315.1198425292969</azimuth><distance>2.9443602561950684</distance><timeResidual>1.8339195251464844</timeResidual><timeUsed>true</timeUsed><horizontalSlownessUsed>false</horizontalSlownessUsed><backazimuthUsed>false</backazimuthUsed><weight>1</weight></arrival><arrival><pickID>de.gempa.tb1.Pick/20250412164318.779638.125321</pickID><phase>S</phase><azimuth>305.6451721191406</azimuth><distance>3.1356170177459717</distance><timeResidual>-1.699535369873047</timeResidual><timeUsed>true</timeUsed><horizontalSlownessUsed>false</horizontalSlownessUsed><backazimuthUsed>false</backazimuthUsed><weight>1</weight></arrival><arrival><pickID>de.gempa.tb1.Pick/20250412164330.17988.125324</pickID><phase>P</phase><azimuth>308.69952392578125</azimuth><distance>3.431079864501953</distance><timeResidual>-0.8556137084960938</timeResidual><timeUsed>true</timeUsed><horizontalSlownessUsed>false</horizontalSlownessUsed><backazimuthUsed>false</backazimuthUsed><weight>1</weight></arrival><magnitude publicID="de.gempa.tb1.Magnitude/20250412164335.939694.253745"><magnitude><value>3.414775269491486</value></magnitude><type>M</type><methodID>weighted average</methodID><stationCount>6</stationCount></magnitude></origin><event publicID="gempa2025hfvp"><preferredOriginID>de.gempa.tb1.Origin/20250412164330.399097.87283</preferredOriginID><preferredMagnitudeID>de.gempa.tb1.Magnitude/20250412164335.939694.253745</preferredMagnitudeID><description><text>Chile-Argentina Border Region</text><type>region name</type></description><originReference>de.gempa.tb1.Origin/20250412164330.399097.87283</originReference></event></EventParameters></seiscomp>