<?xml version="1.0" encoding="UTF-8"?>
<seiscomp xmlns="http://geofon.gfz-potsdam.de/ns/seiscomp3-schema/0.13" version="0.13"><EventParameters><pick publicID="de.gempa.tb1.Pick/20250414052330.580134.135906"><time><value>2025-04-14T05:23:25.768393Z</value></time><waveformID networkCode="CX" stationCode="PB01" channelCode="HHZ"/><filterID>ITAPER(4)&gt;&gt;BW(4,4,20)</filterID><methodID>AIC</methodID><horizontalSlowness><value>13.204031696774706</value></horizontalSlowness><backazimuth><value>100.97173357080266</value></backazimuth><phaseHint>P</phaseHint><evaluationMode>automatic</evaluationMode><comment><text>6.469760838320242</text><id>DFX:rectilinearity</id></comment><comment><text>24.129879238987446</text><id>SNR</id></comment></pick><pick publicID="de.gempa.tb1.Pick/20250414052334.496377.135908"><time><value>2025-04-14T05:23:28.828391Z</value></time><waveformID networkCode="CX" stationCode="PB02" channelCode="HHZ"/><filterID>ITAPER(4)&gt;&gt;BW(4,4,20)</filterID><methodID>AIC</methodID><horizontalSlowness><value>13.62098907524618</value></horizontalSlowness><backazimuth><value>46.04958376350112</value></backazimuth><phaseHint>P</phaseHint><evaluationMode>automatic</evaluationMode><comment><text>21.806607993391175</text><id>DFX:rectilinearity</id></comment><comment><text>16.475188264841282</text><id>SNR</id></comment></pick><pick publicID="de.gempa.tb1.Pick/20250414052336.592675.135910"><time><value>2025-04-14T05:23:30.798393Z</value></time><waveformID networkCode="CX" stationCode="PB03" channelCode="HHZ"/><filterID>ITAPER(4)&gt;&gt;BW(4,4,20)</filterID><methodID>AIC</methodID><horizontalSlowness><value>6.131145893974729</value></horizontalSlowness><backazimuth><value>226.9268612987983</value></backazimuth><phaseHint>P</phaseHint><evaluationMode>automatic</evaluationMode><comment><text>7.37593135986771</text><id>DFX:rectilinearity</id></comment><comment><text>17.69998405533137</text><id>SNR</id></comment></pick><pick publicID="de.gempa.tb1.Pick/20250414052340.083539.135912"><time><value>2025-04-14T05:23:26.810001Z</value></time><waveformID networkCode="CX" stationCode="PB09" channelCode="HHZ"/><filterID>ITAPER(4)&gt;&gt;BW(4,4,20)</filterID><methodID>AIC</methodID><horizontalSlowness><value>23.40620746771128</value></horizontalSlowness><backazimuth><value>171.71623019649073</value></backazimuth><phaseHint>P</phaseHint><evaluationMode>automatic</evaluationMode><comment><text>6.437582286531276</text><id>DFX:rectilinearity</id></comment><comment><text>13.97789604874269</text><id>SNR</id></comment></pick><pick publicID="de.gempa.tb1.Pick/20250414052343.795837.135914"><time><value>2025-04-14T05:23:29.928393Z</value></time><waveformID networkCode="CX" stationCode="PB07" channelCode="HHZ"/><filterID>ITAPER(4)&gt;&gt;BW(4,4,20)</filterID><methodID>AIC</methodID><horizontalSlowness><value>20.552467631273974</value></horizontalSlowness><backazimuth><value>83.94483448729061</value></backazimuth><phaseHint>P</phaseHint><evaluationMode>automatic</evaluationMode><comment><text>150.06195833160515</text><id>DFX:rectilinearity</id></comment><comment><text>14.858068093036598</text><id>SNR</id></comment></pick><pick publicID="de.gempa.tb1.Pick/20250414052347.699037.135918"><time><value>2025-04-14T05:23:39.128393Z</value></time><waveformID networkCode="CX" stationCode="PB01" channelCode="HHN"/><filterID>ITAPER(2)&gt;&gt;BW(3,3,20)</filterID><methodID>L2-AIC-GRID</methodID><horizontalSlowness><value>23.554269072645393</value></horizontalSlowness><backazimuth><value>22.565050847100395</value></backazimuth><phaseHint>S</phaseHint><evaluationMode>automatic</evaluationMode><comment><text>62.39166939464408</text><id>DFX:rectilinearity</id></comment><comment><text>de.gempa.tb1.Pick/20250414052330.580134.135906</text><id>RefPickID</id></comment><comment><text>12.706374605286614</text><id>SNR</id></comment></pick><pick publicID="de.gempa.tb1.Pick/20250414052352.49702.135921"><time><value>2025-04-14T05:23:45.098391Z</value></time><waveformID networkCode="CX" stationCode="PB02" channelCode="HHN"/><filterID>ITAPER(2)&gt;&gt;BW(3,3,20)</filterID><methodID>L2-AIC-GRID</methodID><horizontalSlowness><value>7.501545684504344</value></horizontalSlowness><backazimuth><value>19.630631348602918</value></backazimuth><phaseHint>S</phaseHint><evaluationMode>automatic</evaluationMode><comment><text>22.987094958237655</text><id>DFX:rectilinearity</id></comment><comment><text>de.gempa.tb1.Pick/20250414052334.496377.135908</text><id>RefPickID</id></comment><comment><text>5.583800494346142</text><id>SNR</id></comment></pick><pick publicID="de.gempa.tb1.Pick/20250414052357.605708.135924"><time><value>2025-04-14T05:23:48.078393Z</value></time><waveformID networkCode="CX" stationCode="PB03" channelCode="HHN"/><filterID>ITAPER(2)&gt;&gt;BW(3,3,20)</filterID><methodID>L2-AIC-GRID</methodID><horizontalSlowness><value>13.81010260205741</value></horizontalSlowness><backazimuth><value>5.787343791340902</value></backazimuth><phaseHint>S</phaseHint><evaluationMode>automatic</evaluationMode><comment><text>9.826173912551482</text><id>DFX:rectilinearity</id></comment><comment><text>de.gempa.tb1.Pick/20250414052336.592675.135910</text><id>RefPickID</id></comment><comment><text>6.22156330082313</text><id>SNR</id></comment></pick><pick publicID="de.gempa.tb1.Pick/20250414052401.77589.135925"><time><value>2025-04-14T05:23:46.958393Z</value></time><waveformID networkCode="CX" stationCode="PB07" channelCode="HHN"/><filterID>ITAPER(2)&gt;&gt;BW(3,3,20)</filterID><methodID>L2-AIC-GRID</methodID><horizontalSlowness><value>23.154905732660477</value></horizontalSlowness><backazimuth><value>320.56217283918375</value></backazimuth><phaseHint>S</phaseHint><evaluationMode>automatic</evaluationMode><comment><text>131.8555559570494</text><id>DFX:rectilinearity</id></comment><comment><text>de.gempa.tb1.Pick/20250414052343.795837.135914</text><id>RefPickID</id></comment><comment><text>7.327373795047163</text><id>SNR</id></comment></pick><origin publicID="de.gempa.tb1.Origin/20250414052401.779467.128401"><time><value>2025-04-14T05:23:08.342135Z</value><uncertainty>1.2599713802337646</uncertainty></time><latitude><value>-21.239459991455078</value><uncertainty>7.275125503540039</uncertainty></latitude><longitude><value>-68.91126251220703</value><uncertainty>12.367177963256836</uncertainty></longitude><depth><value>111.3903579711914</value><uncertainty>13.400918006896973</uncertainty></depth><depthType>from location</depthType><methodID>LOCSAT</methodID><earthModelID>iasp91_scanloc</earthModelID><quality><associatedPhaseCount>9</associatedPhaseCount><usedPhaseCount>9</usedPhaseCount><associatedStationCount>5</associatedStationCount><usedStationCount>5</usedStationCount><depthPhaseCount>0</depthPhaseCount><standardError>0.27126982918782155</standardError><azimuthalGap>279.14524841308594</azimuthalGap><maximumDistance>1.1231591701507568</maximumDistance><minimumDistance>0.5721692442893982</minimumDistance><medianDistance>0.921895980834961</medianDistance></quality><uncertainty><minHorizontalUncertainty>14.23959732055664</minHorizontalUncertainty><maxHorizontalUncertainty>27.273962020874023</maxHorizontalUncertainty><azimuthMaxHorizontalUncertainty>105.8977279663086</azimuthMaxHorizontalUncertainty><preferredDescription>horizontal uncertainty</preferredDescription></uncertainty><evaluationMode>automatic</evaluationMode><evaluationStatus>confirmed</evaluationStatus><comment><text>0.01</text><id>mismatchScore</id></comment><comment><text>mismatchScore</text><id>scevalMethod</id></comment><arrival><pickID>de.gempa.tb1.Pick/20250414052330.580134.135906</pickID><phase>P</phase><azimuth>289.8498229980469</azimuth><distance>0.5721692442893982</distance><timeResidual>-0.0998992919921875</timeResidual><timeUsed>true</timeUsed><horizontalSlownessUsed>false</horizontalSlownessUsed><backazimuthUsed>false</backazimuthUsed><weight>1</weight></arrival><arrival><pickID>de.gempa.tb1.Pick/20250414052334.496377.135908</pickID><phase>P</phase><azimuth>264.8520812988281</azimuth><distance>0.921895980834961</distance><timeResidual>-0.07470321655273438</timeResidual><timeUsed>true</timeUsed><horizontalSlownessUsed>false</horizontalSlownessUsed><backazimuthUsed>false</backazimuthUsed><weight>1</weight></arrival><arrival><pickID>de.gempa.tb1.Pick/20250414052336.592675.135910</pickID><phase>P</phase><azimuth>224.05770874023438</azimuth><distance>1.1231591701507568</distance><timeResidual>-0.17966461181640625</timeResidual><timeUsed>true</timeUsed><horizontalSlownessUsed>false</horizontalSlownessUsed><backazimuthUsed>false</backazimuthUsed><weight>1</weight></arrival><arrival><pickID>de.gempa.tb1.Pick/20250414052340.083539.135912</pickID><phase>P</phase><azimuth>208.9950714111328</azimuth><distance>0.6339685320854187</distance><timeResidual>0.4770278930664062</timeResidual><timeUsed>true</timeUsed><horizontalSlownessUsed>false</horizontalSlownessUsed><backazimuthUsed>false</backazimuthUsed><weight>1</weight></arrival><arrival><pickID>de.gempa.tb1.Pick/20250414052343.795837.135914</pickID><phase>P</phase><azimuth>241.72361755371094</azimuth><distance>1.029316782951355</distance><timeResidual>-0.05883979797363281</timeResidual><timeUsed>true</timeUsed><horizontalSlownessUsed>false</horizontalSlownessUsed><backazimuthUsed>false</backazimuthUsed><weight>1</weight></arrival><arrival><pickID>de.gempa.tb1.Pick/20250414052347.699037.135918</pickID><phase>S</phase><azimuth>289.8498229980469</azimuth><distance>0.5721692442893982</distance><timeResidual>-0.238525390625</timeResidual><timeUsed>true</timeUsed><horizontalSlownessUsed>false</horizontalSlownessUsed><backazimuthUsed>false</backazimuthUsed><weight>1</weight></arrival><arrival><pickID>de.gempa.tb1.Pick/20250414052352.49702.135921</pickID><phase>S</phase><azimuth>264.8520812988281</azimuth><distance>0.921895980834961</distance><timeResidual>0.3241081237792969</timeResidual><timeUsed>true</timeUsed><horizontalSlownessUsed>false</horizontalSlownessUsed><backazimuthUsed>false</backazimuthUsed><weight>1</weight></arrival><arrival><pickID>de.gempa.tb1.Pick/20250414052357.605708.135924</pickID><phase>S</phase><azimuth>224.05770874023438</azimuth><distance>1.1231591701507568</distance><timeResidual>-0.3989849090576172</timeResidual><timeUsed>true</timeUsed><horizontalSlownessUsed>false</horizontalSlownessUsed><backazimuthUsed>false</backazimuthUsed><weight>1</weight></arrival><arrival><pickID>de.gempa.tb1.Pick/20250414052401.77589.135925</pickID><phase>S</phase><azimuth>241.72361755371094</azimuth><distance>1.029316782951355</distance><timeResidual>0.24959754943847656</timeResidual><timeUsed>true</timeUsed><horizontalSlownessUsed>false</horizontalSlownessUsed><backazimuthUsed>false</backazimuthUsed><weight>1</weight></arrival><magnitude publicID="de.gempa.tb1.Magnitude/20250414052442.41969.433185"><magnitude><value>2.512110006920238</value></magnitude><type>M</type><methodID>weighted average</methodID><stationCount>2</stationCount></magnitude></origin><event publicID="gempa2025hira"><preferredOriginID>de.gempa.tb1.Origin/20250414052401.779467.128401</preferredOriginID><preferredMagnitudeID>de.gempa.tb1.Magnitude/20250414052442.41969.433185</preferredMagnitudeID><description><text>Chile-Bolivia Border Region</text><type>region name</type></description><originReference>de.gempa.tb1.Origin/20250414052401.779467.128401</originReference></event></EventParameters></seiscomp>