<?xml version="1.0" encoding="UTF-8"?>
<seiscomp xmlns="http://geofon.gfz-potsdam.de/ns/seiscomp3-schema/0.13" version="0.13"><EventParameters><pick publicID="de.gempa.tb1.Pick/20250413055033.493983.129195"><time><value>2025-04-13T05:50:25.898394Z</value></time><waveformID networkCode="CX" stationCode="PB06" channelCode="HHZ"/><filterID>ITAPER(4)&gt;&gt;BW(4,4,20)</filterID><methodID>AIC</methodID><horizontalSlowness><value>18.39492018524766</value></horizontalSlowness><backazimuth><value>187.27162656482884</value></backazimuth><phaseHint>P</phaseHint><evaluationMode>automatic</evaluationMode><comment><text>38.58807848595224</text><id>DFX:rectilinearity</id></comment><comment><text>9.508955364708118</text><id>SNR</id></comment></pick><pick publicID="de.gempa.tb1.Pick/20250413055033.510017.129197"><time><value>2025-04-13T05:50:27.39Z</value></time><waveformID networkCode="CX" stationCode="PB19" channelCode="HHZ"/><filterID>ITAPER(4)&gt;&gt;BW(4,4,20)</filterID><methodID>AIC</methodID><horizontalSlowness><value>21.307403244396816</value></horizontalSlowness><backazimuth><value>216.10725848312615</value></backazimuth><phaseHint>P</phaseHint><evaluationMode>automatic</evaluationMode><comment><text>8.986388038532706</text><id>DFX:rectilinearity</id></comment><comment><text>7.306434185053246</text><id>SNR</id></comment></pick><pick publicID="de.gempa.tb1.Pick/20250413055039.521926.129199"><time><value>2025-04-13T05:50:31.288393Z</value></time><waveformID networkCode="CX" stationCode="PB03" channelCode="HHZ"/><filterID>ITAPER(4)&gt;&gt;BW(4,4,20)</filterID><methodID>AIC</methodID><horizontalSlowness><value>13.156579842335342</value></horizontalSlowness><backazimuth><value>158.45418598696716</value></backazimuth><phaseHint>P</phaseHint><evaluationMode>automatic</evaluationMode><comment><text>13.206675038139885</text><id>DFX:rectilinearity</id></comment><comment><text>23.550554629385445</text><id>SNR</id></comment></pick><pick publicID="de.gempa.tb1.Pick/20250413055040.50102.129201"><time><value>2025-04-13T05:50:31.14Z</value></time><waveformID networkCode="CX" stationCode="PB09" channelCode="HHZ"/><filterID>ITAPER(4)&gt;&gt;BW(4,4,20)</filterID><methodID>AIC</methodID><horizontalSlowness><value>15.828816482653005</value></horizontalSlowness><backazimuth><value>260.49195505170923</value></backazimuth><phaseHint>P</phaseHint><evaluationMode>automatic</evaluationMode><comment><text>11.584630510131738</text><id>DFX:rectilinearity</id></comment><comment><text>50.43244788671882</text><id>SNR</id></comment></pick><pick publicID="de.gempa.tb1.Pick/20250413055048.490361.129207"><time><value>2025-04-13T05:50:38.878393Z</value></time><waveformID networkCode="CX" stationCode="PB02" channelCode="HHZ"/><filterID>ITAPER(4)&gt;&gt;BW(4,4,20)</filterID><methodID>AIC</methodID><horizontalSlowness><value>8.630906386770889</value></horizontalSlowness><backazimuth><value>271.1249899562013</value></backazimuth><phaseHint>P</phaseHint><evaluationMode>automatic</evaluationMode><comment><text>38.33610020900724</text><id>DFX:rectilinearity</id></comment><comment><text>9.688992049732045</text><id>SNR</id></comment></pick><pick publicID="de.gempa.tb1.Pick/20250413055048.691301.129209"><time><value>2025-04-13T05:50:41.728394Z</value></time><waveformID networkCode="CX" stationCode="PB06" channelCode="HHN"/><filterID>ITAPER(2)&gt;&gt;BW(3,3,20)</filterID><methodID>L2-AIC-GRID</methodID><horizontalSlowness><value>20.529843954563749</value></horizontalSlowness><backazimuth><value>351.2878735992645</value></backazimuth><phaseHint>S</phaseHint><evaluationMode>automatic</evaluationMode><comment><text>85.86401553652922</text><id>DFX:rectilinearity</id></comment><comment><text>de.gempa.tb1.Pick/20250413055033.493983.129195</text><id>RefPickID</id></comment><comment><text>16.1785300271783</text><id>SNR</id></comment></pick><pick publicID="de.gempa.tb1.Pick/20250413055052.263062.129213"><time><value>2025-04-13T05:50:34.978394Z</value></time><waveformID networkCode="CX" stationCode="PB07" channelCode="HHZ"/><filterID>ITAPER(4)&gt;&gt;BW(4,4,20)</filterID><methodID>AIC</methodID><horizontalSlowness><value>20.790377700758718</value></horizontalSlowness><backazimuth><value>59.29773042912146</value></backazimuth><phaseHint>P</phaseHint><evaluationMode>automatic</evaluationMode><comment><text>198.32108830966718</text><id>DFX:rectilinearity</id></comment><comment><text>76.71605312460042</text><id>SNR</id></comment></pick><pick publicID="de.gempa.tb1.Pick/20250413055052.602202.129215"><time><value>2025-04-13T05:50:44.34Z</value></time><waveformID networkCode="CX" stationCode="PB19" channelCode="HHN"/><filterID>ITAPER(2)&gt;&gt;BW(3,3,20)</filterID><methodID>L2-AIC-GRID</methodID><horizontalSlowness><value>21.54735141384215</value></horizontalSlowness><backazimuth><value>80.0308888288791</value></backazimuth><phaseHint>S</phaseHint><evaluationMode>automatic</evaluationMode><comment><text>41.924489090907926</text><id>DFX:rectilinearity</id></comment><comment><text>de.gempa.tb1.Pick/20250413055033.510017.129197</text><id>RefPickID</id></comment><comment><text>9.477238626405942</text><id>SNR</id></comment></pick><pick publicID="de.gempa.tb1.Pick/20250413055058.606549.129218"><time><value>2025-04-13T05:50:51.108393Z</value></time><waveformID networkCode="CX" stationCode="PB03" channelCode="HHN"/><filterID>ITAPER(2)&gt;&gt;BW(3,3,20)</filterID><methodID>L2-AIC-GRID</methodID><horizontalSlowness><value>9.680076733688038</value></horizontalSlowness><backazimuth><value>203.39322290630093</value></backazimuth><phaseHint>S</phaseHint><evaluationMode>automatic</evaluationMode><comment><text>12.53243632376178</text><id>DFX:rectilinearity</id></comment><comment><text>de.gempa.tb1.Pick/20250413055039.521926.129199</text><id>RefPickID</id></comment><comment><text>5.963481236708374</text><id>SNR</id></comment></pick><origin publicID="de.gempa.tb1.Origin/20250413055111.271718.101971"><time><value>2025-04-13T05:50:05.388989Z</value><uncertainty>1.0087318420410156</uncertainty></time><latitude><value>-23.058834075927734</value><uncertainty>7.146195411682129</uncertainty></latitude><longitude><value>-68.83558654785156</value><uncertainty>26.69353675842285</uncertainty></longitude><depth><value>125.641357421875</value><uncertainty>18.63908576965332</uncertainty></depth><depthType>from location</depthType><methodID>LOCSAT</methodID><earthModelID>iasp91_scanloc</earthModelID><quality><associatedPhaseCount>9</associatedPhaseCount><usedPhaseCount>9</usedPhaseCount><associatedStationCount>6</associatedStationCount><usedStationCount>6</usedStationCount><depthPhaseCount>0</depthPhaseCount><standardError>0.0802010294405402</standardError><azimuthalGap>223.0362548828125</azimuthalGap><maximumDistance>1.990321397781372</maximumDistance><minimumDistance>0.7645595669746399</minimumDistance><medianDistance>1.3114851713180542</medianDistance></quality><uncertainty><minHorizontalUncertainty>8.969101905822754</minHorizontalUncertainty><maxHorizontalUncertainty>58.5706787109375</maxHorizontalUncertainty><azimuthMaxHorizontalUncertainty>77.60482025146484</azimuthMaxHorizontalUncertainty><preferredDescription>horizontal uncertainty</preferredDescription></uncertainty><evaluationMode>automatic</evaluationMode><evaluationStatus>confirmed</evaluationStatus><comment><text>0.02</text><id>mismatchScore</id></comment><comment><text>mismatchScore</text><id>scevalMethod</id></comment><arrival><pickID>de.gempa.tb1.Pick/20250413055033.493983.129195</pickID><phase>P</phase><azimuth>297.21759033203125</azimuth><distance>0.7645595669746399</distance><timeResidual>0.03716087341308594</timeResidual><timeUsed>true</timeUsed><horizontalSlownessUsed>false</horizontalSlownessUsed><backazimuthUsed>false</backazimuthUsed><weight>1</weight></arrival><arrival><pickID>de.gempa.tb1.Pick/20250413055033.510017.129197</pickID><phase>P</phase><azimuth>206.30007934570312</azimuth><distance>0.94002366065979</distance><timeResidual>0.01107025146484375</timeResidual><timeUsed>true</timeUsed><horizontalSlownessUsed>false</horizontalSlownessUsed><backazimuthUsed>false</backazimuthUsed><weight>1</weight></arrival><arrival><pickID>de.gempa.tb1.Pick/20250413055039.521926.129199</pickID><phase>P</phase><azimuth>319.67742919921875</azimuth><distance>1.3155031204223633</distance><timeResidual>0.10727500915527344</timeResidual><timeUsed>true</timeUsed><horizontalSlownessUsed>false</horizontalSlownessUsed><backazimuthUsed>false</backazimuthUsed><weight>1</weight></arrival><arrival><pickID>de.gempa.tb1.Pick/20250413055040.50102.129201</pickID><phase>P</phase><azimuth>343.2638244628906</azimuth><distance>1.3114851713180542</distance><timeResidual>0.000820159912109375</timeResidual><timeUsed>true</timeUsed><horizontalSlownessUsed>false</horizontalSlownessUsed><backazimuthUsed>false</backazimuthUsed><weight>1</weight></arrival><arrival><pickID>de.gempa.tb1.Pick/20250413055048.490361.129207</pickID><phase>P</phase><azimuth>330.2084045410156</azimuth><distance>1.990321397781372</distance><timeResidual>-0.16881752014160156</timeResidual><timeUsed>true</timeUsed><horizontalSlownessUsed>false</horizontalSlownessUsed><backazimuthUsed>false</backazimuthUsed><weight>1</weight></arrival><arrival><pickID>de.gempa.tb1.Pick/20250413055048.691301.129209</pickID><phase>S</phase><azimuth>297.21759033203125</azimuth><distance>0.7645595669746399</distance><timeResidual>0.04486846923828125</timeResidual><timeUsed>true</timeUsed><horizontalSlownessUsed>false</horizontalSlownessUsed><backazimuthUsed>false</backazimuthUsed><weight>1</weight></arrival><arrival><pickID>de.gempa.tb1.Pick/20250413055052.263062.129213</pickID><phase>P</phase><azimuth>323.5444641113281</azimuth><distance>1.6441129446029663</distance><timeResidual>0.08546638488769531</timeResidual><timeUsed>true</timeUsed><horizontalSlownessUsed>false</horizontalSlownessUsed><backazimuthUsed>false</backazimuthUsed><weight>1</weight></arrival><arrival><pickID>de.gempa.tb1.Pick/20250413055052.602202.129215</pickID><phase>S</phase><azimuth>206.30007934570312</azimuth><distance>0.94002366065979</distance><timeResidual>-0.05058670043945312</timeResidual><timeUsed>true</timeUsed><horizontalSlownessUsed>false</horizontalSlownessUsed><backazimuthUsed>false</backazimuthUsed><weight>1</weight></arrival><arrival><pickID>de.gempa.tb1.Pick/20250413055058.606549.129218</pickID><phase>S</phase><azimuth>319.67742919921875</azimuth><distance>1.3155031204223633</distance><timeResidual>-0.06709480285644531</timeResidual><timeUsed>true</timeUsed><horizontalSlownessUsed>false</horizontalSlownessUsed><backazimuthUsed>false</backazimuthUsed><weight>1</weight></arrival><magnitude publicID="de.gempa.tb1.Magnitude/20250413055147.564222.320270"><magnitude><value>2.793483015504233</value></magnitude><type>M</type><methodID>weighted average</methodID><stationCount>4</stationCount></magnitude></origin><event publicID="gempa2025hgvx"><preferredOriginID>de.gempa.tb1.Origin/20250413055111.271718.101971</preferredOriginID><preferredMagnitudeID>de.gempa.tb1.Magnitude/20250413055147.564222.320270</preferredMagnitudeID><description><text>Northern Chile</text><type>region name</type></description><originReference>de.gempa.tb1.Origin/20250413055111.271718.101971</originReference></event></EventParameters></seiscomp>