<?xml version="1.0" encoding="UTF-8"?>
<seiscomp xmlns="http://geofon.gfz-potsdam.de/ns/seiscomp3-schema/0.13" version="0.13"><EventParameters><pick publicID="de.gempa.tb1.Pick/20250414080408.517842.216578"><time><value>2025-04-14T08:04:06.23Z</value></time><waveformID networkCode="CH" stationCode="MMK" channelCode="HHZ"/><filterID>ITAPER(4)&gt;&gt;BW(4,4,20)</filterID><methodID>AIC</methodID><phaseHint>P</phaseHint><evaluationMode>automatic</evaluationMode></pick><pick publicID="de.gempa.tb1.Pick/20250414080409.103284.216580"><time><value>2025-04-14T08:04:05.240001Z</value></time><waveformID networkCode="CH" stationCode="DIX" channelCode="HHZ"/><filterID>ITAPER(4)&gt;&gt;BW(4,4,20)</filterID><methodID>AIC</methodID><phaseHint>P</phaseHint><evaluationMode>automatic</evaluationMode></pick><pick publicID="de.gempa.tb1.Pick/20250414080412.72047.216587"><time><value>2025-04-14T08:04:07.88Z</value></time><waveformID networkCode="CH" stationCode="VANNI" channelCode="HHZ"/><filterID>ITAPER(4)&gt;&gt;BW(4,4,20)</filterID><methodID>AIC</methodID><phaseHint>P</phaseHint><evaluationMode>automatic</evaluationMode></pick><pick publicID="de.gempa.tb1.Pick/20250414080413.119207.216589"><time><value>2025-04-14T08:04:08.994998Z</value></time><waveformID networkCode="CH" stationCode="SALAN" channelCode="HHZ"/><filterID>ITAPER(4)&gt;&gt;BW(4,4,20)</filterID><methodID>AIC</methodID><phaseHint>P</phaseHint><evaluationMode>automatic</evaluationMode></pick><pick publicID="de.gempa.tb1.Pick/20250414080413.268995.216591"><time><value>2025-04-14T08:04:10.205Z</value></time><waveformID networkCode="CH" stationCode="GRYON" channelCode="HHZ"/><filterID>ITAPER(4)&gt;&gt;BW(4,4,20)</filterID><methodID>AIC</methodID><phaseHint>P</phaseHint><evaluationMode>automatic</evaluationMode></pick><pick publicID="de.gempa.tb1.Pick/20250414080414.153118.216593"><time><value>2025-04-14T08:04:09.625Z</value></time><waveformID networkCode="CH" stationCode="EMBD" channelCode="HHZ"/><filterID>ITAPER(4)&gt;&gt;BW(4,4,20)</filterID><methodID>AIC</methodID><phaseHint>P</phaseHint><evaluationMode>automatic</evaluationMode></pick><pick publicID="de.gempa.tb1.Pick/20250414080418.13493.216600"><time><value>2025-04-14T08:04:12.26Z</value></time><waveformID networkCode="CH" stationCode="SENIN" channelCode="HHZ"/><filterID>ITAPER(4)&gt;&gt;BW(4,4,20)</filterID><methodID>AIC</methodID><phaseHint>P</phaseHint><evaluationMode>automatic</evaluationMode></pick><pick publicID="de.gempa.tb1.Pick/20250414080418.48788.216604"><time><value>2025-04-14T08:04:16.575Z</value></time><waveformID networkCode="CH" stationCode="GIMEL" channelCode="HHZ"/><filterID>ITAPER(4)&gt;&gt;BW(4,4,20)</filterID><methodID>AIC</methodID><phaseHint>P</phaseHint><evaluationMode>automatic</evaluationMode></pick><pick publicID="de.gempa.tb1.Pick/20250414080419.123364.216607"><time><value>2025-04-14T08:04:14.215001Z</value></time><waveformID networkCode="CH" stationCode="FIESA" channelCode="HHZ"/><filterID>ITAPER(4)&gt;&gt;BW(4,4,20)</filterID><methodID>AIC</methodID><phaseHint>P</phaseHint><evaluationMode>automatic</evaluationMode></pick><pick publicID="de.gempa.tb1.Pick/20250414080420.093106.216612"><time><value>2025-04-14T08:04:17.528393Z</value></time><waveformID networkCode="CH" stationCode="GRIMS" channelCode="HHZ"/><filterID>ITAPER(4)&gt;&gt;BW(4,4,20)</filterID><methodID>AIC</methodID><phaseHint>P</phaseHint><evaluationMode>automatic</evaluationMode></pick><pick publicID="de.gempa.tb1.Pick/20250414080420.284071.216614"><time><value>2025-04-14T08:04:14.360001Z</value></time><waveformID networkCode="CH" stationCode="DIX" channelCode="HHN"/><filterID>RMHP(1)&gt;&gt;ITAPER(2)&gt;&gt;BW(4,3,20)</filterID><methodID>L2-AIC-GRID</methodID><phaseHint>S</phaseHint><evaluationMode>automatic</evaluationMode><comment><text>de.gempa.tb1.Pick/20250414080409.103284.216580</text><id>RefPickID</id></comment></pick><pick publicID="de.gempa.tb1.Pick/20250414080421.163195.216615"><time><value>2025-04-14T08:04:17.045Z</value></time><waveformID networkCode="CH" stationCode="FUSIO" channelCode="HHZ"/><filterID>ITAPER(4)&gt;&gt;BW(4,4,20)</filterID><methodID>AIC</methodID><phaseHint>P</phaseHint><evaluationMode>automatic</evaluationMode></pick><pick publicID="de.gempa.tb1.Pick/20250414080421.929461.216617"><time><value>2025-04-14T08:04:12.915Z</value></time><waveformID networkCode="CH" stationCode="AIGLE" channelCode="HHZ"/><filterID>ITAPER(4)&gt;&gt;BW(4,4,20)</filterID><methodID>AIC</methodID><phaseHint>P</phaseHint><evaluationMode>automatic</evaluationMode></pick><origin publicID="de.gempa.tb1.Origin/20250414080421.932292.135518"><time><value>2025-04-14T08:03:52.294054Z</value><uncertainty>1.0683403015136719</uncertainty></time><latitude><value>45.37819290161133</value><uncertainty>6.411829948425293</uncertainty></latitude><longitude><value>7.460434436798096</value><uncertainty>5.01125955581665</uncertainty></longitude><depth><value>0</value></depth><depthType>operator assigned</depthType><methodID>LOCSAT</methodID><earthModelID>iasp91</earthModelID><quality><associatedPhaseCount>13</associatedPhaseCount><usedPhaseCount>13</usedPhaseCount><associatedStationCount>12</associatedStationCount><usedStationCount>12</usedStationCount><depthPhaseCount>0</depthPhaseCount><standardError>0.7743185359818555</standardError><azimuthalGap>287.1087226867676</azimuthalGap><maximumDistance>1.42493999004364</maximumDistance><minimumDistance>0.7029363512992859</minimumDistance><medianDistance>0.9060518741607666</medianDistance></quality><uncertainty><minHorizontalUncertainty>10.381509780883789</minHorizontalUncertainty><maxHorizontalUncertainty>14.02840518951416</maxHorizontalUncertainty><azimuthMaxHorizontalUncertainty>17.12679672241211</azimuthMaxHorizontalUncertainty><preferredDescription>horizontal uncertainty</preferredDescription></uncertainty><evaluationMode>automatic</evaluationMode><evaluationStatus>confirmed</evaluationStatus><comment><text>0.12</text><id>mismatchScore</id></comment><comment><text>mismatchScore</text><id>scevalMethod</id></comment><arrival><pickID>de.gempa.tb1.Pick/20250414080408.517842.216578</pickID><phase>P</phase><azimuth>27.505489349365234</azimuth><distance>0.7593651413917542</distance><timeResidual>-0.6481866836547852</timeResidual><timeUsed>true</timeUsed><horizontalSlownessUsed>false</horizontalSlownessUsed><backazimuthUsed>false</backazimuthUsed><weight>1</weight></arrival><arrival><pickID>de.gempa.tb1.Pick/20250414080409.103284.216580</pickID><phase>P</phase><azimuth>357.0321960449219</azimuth><distance>0.7029363512992859</distance><timeResidual>-0.5652189254760742</timeResidual><timeUsed>true</timeUsed><horizontalSlownessUsed>false</horizontalSlownessUsed><backazimuthUsed>false</backazimuthUsed><weight>1</weight></arrival><arrival><pickID>de.gempa.tb1.Pick/20250414080412.72047.216587</pickID><phase>P</phase><azimuth>6.492002964019775</azimuth><distance>0.8374537229537964</distance><timeResidual>-0.4826593399047852</timeResidual><timeUsed>true</timeUsed><horizontalSlownessUsed>false</horizontalSlownessUsed><backazimuthUsed>false</backazimuthUsed><weight>1</weight></arrival><arrival><pickID>de.gempa.tb1.Pick/20250414080413.119207.216589</pickID><phase>P</phase><azimuth>336.1629943847656</azimuth><distance>0.8385863304138184</distance><timeResidual>0.6106901168823242</timeResidual><timeUsed>true</timeUsed><horizontalSlownessUsed>false</horizontalSlownessUsed><backazimuthUsed>false</backazimuthUsed><weight>1</weight></arrival><arrival><pickID>de.gempa.tb1.Pick/20250414080413.268995.216591</pickID><phase>P</phase><azimuth>344.4792175292969</azimuth><distance>0.9060518741607666</distance><timeResidual>0.5381107330322266</timeResidual><timeUsed>true</timeUsed><horizontalSlownessUsed>false</horizontalSlownessUsed><backazimuthUsed>false</backazimuthUsed><weight>1</weight></arrival><arrival><pickID>de.gempa.tb1.Pick/20250414080414.153118.216593</pickID><phase>P</phase><azimuth>17.102333068847656</azimuth><distance>0.8778793215751648</distance><timeResidual>0.49371337890625</timeResidual><timeUsed>true</timeUsed><horizontalSlownessUsed>false</horizontalSlownessUsed><backazimuthUsed>false</backazimuthUsed><weight>1</weight></arrival><arrival><pickID>de.gempa.tb1.Pick/20250414080418.13493.216600</pickID><phase>P</phase><azimuth>353.53936767578125</azimuth><distance>0.9917460680007935</distance><timeResidual>0.9639463424682617</timeResidual><timeUsed>true</timeUsed><horizontalSlownessUsed>false</horizontalSlownessUsed><backazimuthUsed>false</backazimuthUsed><weight>1</weight></arrival><arrival><pickID>de.gempa.tb1.Pick/20250414080418.48788.216604</pickID><phase>P</phase><azimuth>324.6220703125</azimuth><distance>1.42493999004364</distance><timeResidual>-1.8133726119995117</timeResidual><timeUsed>true</timeUsed><horizontalSlownessUsed>false</horizontalSlownessUsed><backazimuthUsed>false</backazimuthUsed><weight>1</weight></arrival><arrival><pickID>de.gempa.tb1.Pick/20250414080419.123364.216607</pickID><phase>P</phase><azimuth>22.999908447265625</azimuth><distance>1.150559663772583</distance><timeResidual>0.2633962631225586</timeResidual><timeUsed>true</timeUsed><horizontalSlownessUsed>false</horizontalSlownessUsed><backazimuthUsed>false</backazimuthUsed><weight>1</weight></arrival><arrival><pickID>de.gempa.tb1.Pick/20250414080420.093106.216612</pickID><phase>P</phase><azimuth>26.20158576965332</azimuth><distance>1.3411837816238403</distance><timeResidual>0.4785060882568359</timeResidual><timeUsed>true</timeUsed><horizontalSlownessUsed>false</horizontalSlownessUsed><backazimuthUsed>false</backazimuthUsed><weight>1</weight></arrival><arrival><pickID>de.gempa.tb1.Pick/20250414080420.284071.216614</pickID><phase>S</phase><azimuth>357.0321960449219</azimuth><distance>0.7029363512992859</distance><timeResidual>-0.4595394134521484</timeResidual><timeUsed>true</timeUsed><horizontalSlownessUsed>false</horizontalSlownessUsed><backazimuthUsed>false</backazimuthUsed><weight>1</weight></arrival><arrival><pickID>de.gempa.tb1.Pick/20250414080421.163195.216615</pickID><phase>P</phase><azimuth>37.51334762573242</azimuth><distance>1.3655160665512085</distance><timeResidual>-0.3953714370727539</timeResidual><timeUsed>true</timeUsed><horizontalSlownessUsed>false</horizontalSlownessUsed><backazimuthUsed>false</backazimuthUsed><weight>1</weight></arrival><arrival><pickID>de.gempa.tb1.Pick/20250414080421.929461.216617</pickID><phase>P</phase><azimuth>339.9903564453125</azimuth><distance>1.026673674583435</distance><timeResidual>1.0159769058227539</timeResidual><timeUsed>true</timeUsed><horizontalSlownessUsed>false</horizontalSlownessUsed><backazimuthUsed>false</backazimuthUsed><weight>1</weight></arrival><magnitude publicID="de.gempa.tb1.Magnitude/20250414080515.252894.449986"><magnitude><value>2.2029887544746436</value></magnitude><type>M</type><methodID>weighted average</methodID><stationCount>8</stationCount></magnitude></origin><event publicID="gempa2025hiwk"><preferredOriginID>de.gempa.tb1.Origin/20250414080421.932292.135518</preferredOriginID><preferredMagnitudeID>de.gempa.tb1.Magnitude/20250414080515.252894.449986</preferredMagnitudeID><description><text>Northern Italy</text><type>region name</type></description><originReference>de.gempa.tb1.Origin/20250414080421.932292.135518</originReference></event></EventParameters></seiscomp>