<?xml version="1.0" encoding="UTF-8"?>
<seiscomp xmlns="http://geofon.gfz-potsdam.de/ns/seiscomp3-schema/0.13" version="0.13"><EventParameters><pick publicID="de.gempa.tb1.Pick/20250411223747.357461.120388"><time><value>2025-04-11T22:37:39.689999Z</value></time><waveformID networkCode="CX" stationCode="PATCX" channelCode="HHZ"/><filterID>ITAPER(4)&gt;&gt;BW(4,4,20)</filterID><methodID>AIC</methodID><horizontalSlowness><value>10.226198709044942</value></horizontalSlowness><backazimuth><value>62.09188229155939</value></backazimuth><phaseHint>P</phaseHint><evaluationMode>automatic</evaluationMode><comment><text>343.02298136039315</text><id>DFX:rectilinearity</id></comment><comment><text>14.493188671240654</text><id>SNR</id></comment></pick><pick publicID="de.gempa.tb1.Pick/20250411223750.536163.120390"><time><value>2025-04-11T22:37:44.028393Z</value></time><waveformID networkCode="CX" stationCode="PB02" channelCode="HHZ"/><filterID>ITAPER(4)&gt;&gt;BW(4,4,20)</filterID><methodID>AIC</methodID><horizontalSlowness><value>12.420055338553812</value></horizontalSlowness><backazimuth><value>305.75011921910027</value></backazimuth><phaseHint>P</phaseHint><evaluationMode>automatic</evaluationMode><comment><text>14.66383917252154</text><id>DFX:rectilinearity</id></comment><comment><text>18.05595815708111</text><id>SNR</id></comment></pick><pick publicID="de.gempa.tb1.Pick/20250411223753.528695.120392"><time><value>2025-04-11T22:37:47.658393Z</value></time><waveformID networkCode="CX" stationCode="PB01" channelCode="HHZ"/><filterID>ITAPER(4)&gt;&gt;BW(4,4,20)</filterID><methodID>AIC</methodID><horizontalSlowness><value>23.41071427288041</value></horizontalSlowness><backazimuth><value>350.5041225217949</value></backazimuth><phaseHint>P</phaseHint><evaluationMode>automatic</evaluationMode><comment><text>14.724390619174132</text><id>DFX:rectilinearity</id></comment><comment><text>12.40271669259528</text><id>SNR</id></comment></pick><pick publicID="de.gempa.tb1.Pick/20250411223756.406418.120394"><time><value>2025-04-11T22:37:46.859999Z</value></time><waveformID networkCode="CX" stationCode="PATCX" channelCode="HHN"/><filterID>ITAPER(2)&gt;&gt;BW(3,3,20)</filterID><methodID>L2-AIC-GRID</methodID><horizontalSlowness><value>21.843410539935146</value></horizontalSlowness><backazimuth><value>73.92106739442609</value></backazimuth><phaseHint>S</phaseHint><evaluationMode>automatic</evaluationMode><comment><text>1469.5902998949416</text><id>DFX:rectilinearity</id></comment><comment><text>de.gempa.tb1.Pick/20250411223747.357461.120388</text><id>RefPickID</id></comment><comment><text>10.898713064843877</text><id>SNR</id></comment></pick><pick publicID="de.gempa.tb1.Pick/20250411223801.525746.120395"><time><value>2025-04-11T22:37:51.87Z</value></time><waveformID networkCode="CX" stationCode="PSGCX" channelCode="HHZ"/><filterID>ITAPER(4)&gt;&gt;BW(4,4,20)</filterID><methodID>AIC</methodID><horizontalSlowness><value>21.034425019094446</value></horizontalSlowness><backazimuth><value>321.6538971279645</value></backazimuth><phaseHint>P</phaseHint><evaluationMode>automatic</evaluationMode><comment><text>26.703228240941336</text><id>DFX:rectilinearity</id></comment><comment><text>18.563614699765605</text><id>SNR</id></comment></pick><pick publicID="de.gempa.tb1.Pick/20250411223802.616837.120397"><time><value>2025-04-11T22:37:54.178393Z</value></time><waveformID networkCode="CX" stationCode="PB02" channelCode="HHN"/><filterID>ITAPER(2)&gt;&gt;BW(3,3,20)</filterID><methodID>L2-AIC-GRID</methodID><horizontalSlowness><value>10.382517855613964</value></horizontalSlowness><backazimuth><value>68.1956387294402</value></backazimuth><phaseHint>S</phaseHint><evaluationMode>automatic</evaluationMode><comment><text>235.9333435537046</text><id>DFX:rectilinearity</id></comment><comment><text>de.gempa.tb1.Pick/20250411223750.536163.120390</text><id>RefPickID</id></comment><comment><text>8.507173306517027</text><id>SNR</id></comment></pick><pick publicID="de.gempa.tb1.Pick/20250411223811.623626.120398"><time><value>2025-04-11T22:38:00.118393Z</value></time><waveformID networkCode="CX" stationCode="PB01" channelCode="HHN"/><filterID>ITAPER(2)&gt;&gt;BW(3,3,20)</filterID><methodID>L2-AIC-GRID</methodID><horizontalSlowness><value>19.649927274429444</value></horizontalSlowness><backazimuth><value>76.33208091753085</value></backazimuth><phaseHint>S</phaseHint><evaluationMode>automatic</evaluationMode><comment><text>630.4344002433008</text><id>DFX:rectilinearity</id></comment><comment><text>de.gempa.tb1.Pick/20250411223753.528695.120392</text><id>RefPickID</id></comment><comment><text>18.222357249544974</text><id>SNR</id></comment></pick><pick publicID="de.gempa.tb1.Pick/20250411223818.575785.120400"><time><value>2025-04-11T22:38:07.8Z</value></time><waveformID networkCode="CX" stationCode="PSGCX" channelCode="HHN"/><filterID>ITAPER(2)&gt;&gt;BW(3,3,20)</filterID><methodID>L2-AIC-GRID</methodID><horizontalSlowness><value>21.08698081452228</value></horizontalSlowness><backazimuth><value>64.82963835091037</value></backazimuth><phaseHint>S</phaseHint><evaluationMode>automatic</evaluationMode><comment><text>63.59201575076512</text><id>DFX:rectilinearity</id></comment><comment><text>de.gempa.tb1.Pick/20250411223801.525746.120395</text><id>RefPickID</id></comment><comment><text>7.170815632147554</text><id>SNR</id></comment></pick><origin publicID="de.gempa.tb1.Origin/20250411223818.578447.67138"><time><value>2025-04-11T22:37:30.056295Z</value><uncertainty>1.0793391466140747</uncertainty></time><latitude><value>-20.843748092651367</value><uncertainty>4.544210433959961</uncertainty></latitude><longitude><value>-70.46617126464844</value><uncertainty>9.07640266418457</uncertainty></longitude><depth><value>53.97489929199219</value><uncertainty>7.926414966583252</uncertainty></depth><depthType>from location</depthType><methodID>LOCSAT</methodID><earthModelID>iasp91_scanloc</earthModelID><quality><associatedPhaseCount>8</associatedPhaseCount><usedPhaseCount>8</usedPhaseCount><associatedStationCount>4</associatedStationCount><usedStationCount>4</usedStationCount><depthPhaseCount>0</depthPhaseCount><standardError>0.3893786649130631</standardError><azimuthalGap>242.86891174316406</azimuthalGap><maximumDistance>1.2813864946365356</maximumDistance><minimumDistance>0.29395467042922974</minimumDistance><medianDistance>0.9361720085144043</medianDistance></quality><uncertainty><minHorizontalUncertainty>7.245018482208252</minHorizontalUncertainty><maxHorizontalUncertainty>20.52635955810547</maxHorizontalUncertainty><azimuthMaxHorizontalUncertainty>70.16279602050781</azimuthMaxHorizontalUncertainty><preferredDescription>horizontal uncertainty</preferredDescription></uncertainty><evaluationMode>automatic</evaluationMode><evaluationStatus>confirmed</evaluationStatus><comment><text>0.06</text><id>mismatchScore</id></comment><comment><text>mismatchScore</text><id>scevalMethod</id></comment><arrival><pickID>de.gempa.tb1.Pick/20250411223747.357461.120388</pickID><phase>P</phase><azimuth>85.5827865600586</azimuth><distance>0.29395467042922974</distance><timeResidual>0.16487789154052734</timeResidual><timeUsed>true</timeUsed><horizontalSlownessUsed>false</horizontalSlownessUsed><backazimuthUsed>false</backazimuthUsed><weight>1</weight></arrival><arrival><pickID>de.gempa.tb1.Pick/20250411223750.536163.120390</pickID><phase>P</phase><azimuth>131.75503540039062</azimuth><distance>0.712603509426117</distance><timeResidual>-0.12857818603515625</timeResidual><timeUsed>true</timeUsed><horizontalSlownessUsed>false</horizontalSlownessUsed><backazimuthUsed>false</backazimuthUsed><weight>1</weight></arrival><arrival><pickID>de.gempa.tb1.Pick/20250411223753.528695.120392</pickID><phase>P</phase><azimuth>102.4142074584961</azimuth><distance>0.9361720085144043</distance><timeResidual>0.6067428588867188</timeResidual><timeUsed>true</timeUsed><horizontalSlownessUsed>false</horizontalSlownessUsed><backazimuthUsed>false</backazimuthUsed><weight>1</weight></arrival><arrival><pickID>de.gempa.tb1.Pick/20250411223756.406418.120394</pickID><phase>S</phase><azimuth>85.5827865600586</azimuth><distance>0.29395467042922974</distance><timeResidual>0.23058605194091797</timeResidual><timeUsed>true</timeUsed><horizontalSlownessUsed>false</horizontalSlownessUsed><backazimuthUsed>false</backazimuthUsed><weight>1</weight></arrival><arrival><pickID>de.gempa.tb1.Pick/20250411223801.525746.120395</pickID><phase>P</phase><azimuth>14.623947143554688</azimuth><distance>1.2813864946365356</distance><timeResidual>0.198333740234375</timeResidual><timeUsed>true</timeUsed><horizontalSlownessUsed>false</horizontalSlownessUsed><backazimuthUsed>false</backazimuthUsed><weight>1</weight></arrival><arrival><pickID>de.gempa.tb1.Pick/20250411223802.616837.120397</pickID><phase>S</phase><azimuth>131.75503540039062</azimuth><distance>0.712603509426117</distance><timeResidual>-0.6658773422241211</timeResidual><timeUsed>true</timeUsed><horizontalSlownessUsed>false</horizontalSlownessUsed><backazimuthUsed>false</backazimuthUsed><weight>1</weight></arrival><arrival><pickID>de.gempa.tb1.Pick/20250411223811.623626.120398</pickID><phase>S</phase><azimuth>102.4142074584961</azimuth><distance>0.9361720085144043</distance><timeResidual>0.0989522933959961</timeResidual><timeUsed>true</timeUsed><horizontalSlownessUsed>false</horizontalSlownessUsed><backazimuthUsed>false</backazimuthUsed><weight>1</weight></arrival><arrival><pickID>de.gempa.tb1.Pick/20250411223818.575785.120400</pickID><phase>S</phase><azimuth>14.623947143554688</azimuth><distance>1.2813864946365356</distance><timeResidual>-0.5053529739379883</timeResidual><timeUsed>true</timeUsed><horizontalSlownessUsed>false</horizontalSlownessUsed><backazimuthUsed>false</backazimuthUsed><weight>1</weight></arrival><magnitude publicID="de.gempa.tb1.Magnitude/20250411223820.936911.149507"><magnitude><value>2.0973044354642618</value></magnitude><type>M</type><methodID>weighted average</methodID><stationCount>4</stationCount></magnitude></origin><event publicID="gempa2025hell"><preferredOriginID>de.gempa.tb1.Origin/20250411223818.578447.67138</preferredOriginID><preferredMagnitudeID>de.gempa.tb1.Magnitude/20250411223820.936911.149507</preferredMagnitudeID><description><text>Near Coast of Northern Chile</text><type>region name</type></description><originReference>de.gempa.tb1.Origin/20250411223818.578447.67138</originReference></event></EventParameters></seiscomp>