<?xml version="1.0" encoding="UTF-8"?>
<seiscomp xmlns="http://geofon.gfz-potsdam.de/ns/seiscomp3-schema/0.13" version="0.13"><EventParameters><pick publicID="de.gempa.tb1.Pick/20250414132449.986549.138260"><time><value>2025-04-14T13:24:43.638393Z</value></time><waveformID networkCode="CX" stationCode="PB06" channelCode="HHZ"/><filterID>ITAPER(4)&gt;&gt;BW(4,4,20)</filterID><methodID>AIC</methodID><horizontalSlowness><value>21.350524861293234</value></horizontalSlowness><backazimuth><value>62.54861133666726</value></backazimuth><phaseHint>P</phaseHint><evaluationMode>automatic</evaluationMode><comment><text>51.20577998924163</text><id>DFX:rectilinearity</id></comment><comment><text>53.1082828066742</text><id>SNR</id></comment></pick><pick publicID="de.gempa.tb1.Pick/20250414132450.188563.138262"><time><value>2025-04-14T13:24:44.848393Z</value></time><waveformID networkCode="CX" stationCode="PB15" channelCode="HHZ"/><filterID>ITAPER(4)&gt;&gt;BW(4,4,20)</filterID><methodID>AIC</methodID><horizontalSlowness><value>21.71136391131963</value></horizontalSlowness><backazimuth><value>79.5683301608933</value></backazimuth><phaseHint>P</phaseHint><evaluationMode>automatic</evaluationMode><comment><text>1470.3705226568484</text><id>DFX:rectilinearity</id></comment><comment><text>40.394710423151075</text><id>SNR</id></comment></pick><pick publicID="de.gempa.tb1.Pick/20250414132453.737844.138264"><time><value>2025-04-14T13:24:47.018393Z</value></time><waveformID networkCode="CX" stationCode="PB03" channelCode="HHZ"/><filterID>ITAPER(4)&gt;&gt;BW(4,4,20)</filterID><methodID>AIC</methodID><horizontalSlowness><value>8.861597339205206</value></horizontalSlowness><backazimuth><value>136.71157890003298</value></backazimuth><phaseHint>P</phaseHint><evaluationMode>automatic</evaluationMode><comment><text>18.272428584446303</text><id>DFX:rectilinearity</id></comment><comment><text>26.886808243514515</text><id>SNR</id></comment></pick><pick publicID="de.gempa.tb1.Pick/20250414132455.539418.138266"><time><value>2025-04-14T13:24:50.31Z</value></time><waveformID networkCode="CX" stationCode="PB19" channelCode="HHZ"/><filterID>ITAPER(4)&gt;&gt;BW(4,4,20)</filterID><methodID>AIC</methodID><horizontalSlowness><value>18.80566934093233</value></horizontalSlowness><backazimuth><value>31.13347646959005</value></backazimuth><phaseHint>P</phaseHint><evaluationMode>automatic</evaluationMode><comment><text>17.521329783091502</text><id>DFX:rectilinearity</id></comment><comment><text>18.69422387372516</text><id>SNR</id></comment></pick><pick publicID="de.gempa.tb1.Pick/20250414132457.265705.138268"><time><value>2025-04-14T13:24:50.788396Z</value></time><waveformID networkCode="CX" stationCode="PB07" channelCode="HHZ"/><filterID>ITAPER(4)&gt;&gt;BW(4,4,20)</filterID><methodID>AIC</methodID><horizontalSlowness><value>21.161867398596453</value></horizontalSlowness><backazimuth><value>277.7726833493197</value></backazimuth><phaseHint>P</phaseHint><evaluationMode>automatic</evaluationMode><comment><text>131.70668941577486</text><id>DFX:rectilinearity</id></comment><comment><text>72.74522021561611</text><id>SNR</id></comment></pick><pick publicID="de.gempa.tb1.Pick/20250414132459.978793.138270"><time><value>2025-04-14T13:24:45.98Z</value></time><waveformID networkCode="CX" stationCode="PB09" channelCode="HHZ"/><filterID>ITAPER(4)&gt;&gt;BW(4,4,20)</filterID><methodID>AIC</methodID><horizontalSlowness><value>18.97900526329909</value></horizontalSlowness><backazimuth><value>293.59942829137515</value></backazimuth><phaseHint>P</phaseHint><evaluationMode>automatic</evaluationMode><comment><text>10.390109887962135</text><id>DFX:rectilinearity</id></comment><comment><text>43.22327955490127</text><id>SNR</id></comment></pick><pick publicID="de.gempa.tb1.Pick/20250414132501.573139.138272"><time><value>2025-04-14T13:24:54.818393Z</value></time><waveformID networkCode="CX" stationCode="PB01" channelCode="HHZ"/><filterID>ITAPER(4)&gt;&gt;BW(4,4,20)</filterID><methodID>AIC</methodID><horizontalSlowness><value>22.88046189050039</value></horizontalSlowness><backazimuth><value>145.66397747402635</value></backazimuth><phaseHint>P</phaseHint><evaluationMode>automatic</evaluationMode><comment><text>8.239255896933095</text><id>DFX:rectilinearity</id></comment><comment><text>10.491982791858581</text><id>SNR</id></comment></pick><pick publicID="de.gempa.tb1.Pick/20250414132502.577333.138274"><time><value>2025-04-14T13:24:54.548393Z</value></time><waveformID networkCode="CX" stationCode="PB02" channelCode="HHZ"/><filterID>ITAPER(4)&gt;&gt;BW(4,4,20)</filterID><methodID>AIC</methodID><horizontalSlowness><value>16.26994034943755</value></horizontalSlowness><backazimuth><value>259.4404448644059</value></backazimuth><phaseHint>P</phaseHint><evaluationMode>automatic</evaluationMode><comment><text>22.357631085797514</text><id>DFX:rectilinearity</id></comment><comment><text>9.014646546201041</text><id>SNR</id></comment></pick><pick publicID="de.gempa.tb1.Pick/20250414132503.63942.138276"><time><value>2025-04-14T13:24:58.338393Z</value></time><waveformID networkCode="CX" stationCode="PB06" channelCode="HHN"/><filterID>ITAPER(2)&gt;&gt;BW(3,3,20)</filterID><methodID>L2-AIC-GRID</methodID><horizontalSlowness><value>15.17452538955105</value></horizontalSlowness><backazimuth><value>223.03476370675094</value></backazimuth><phaseHint>S</phaseHint><evaluationMode>automatic</evaluationMode><comment><text>117.04258595832533</text><id>DFX:rectilinearity</id></comment><comment><text>de.gempa.tb1.Pick/20250414132449.986549.138260</text><id>RefPickID</id></comment><comment><text>13.728152168914555</text><id>SNR</id></comment></pick><pick publicID="de.gempa.tb1.Pick/20250414132505.392536.138277"><time><value>2025-04-14T13:24:57.69Z</value></time><waveformID networkCode="CX" stationCode="PB10" channelCode="HHZ"/><filterID>ITAPER(4)&gt;&gt;BW(4,4,20)</filterID><methodID>AIC</methodID><horizontalSlowness><value>20.124524728673062</value></horizontalSlowness><backazimuth><value>347.5601483417537</value></backazimuth><phaseHint>P</phaseHint><evaluationMode>automatic</evaluationMode><comment><text>37.2229083151898</text><id>DFX:rectilinearity</id></comment><comment><text>7.140020996192536</text><id>SNR</id></comment></pick><pick publicID="de.gempa.tb1.Pick/20250414132511.686588.138279"><time><value>2025-04-14T13:25:03.888393Z</value></time><waveformID networkCode="CX" stationCode="PB03" channelCode="HHN"/><filterID>ITAPER(2)&gt;&gt;BW(3,3,20)</filterID><methodID>L2-AIC-GRID</methodID><horizontalSlowness><value>16.31916968059351</value></horizontalSlowness><backazimuth><value>347.4780683311112</value></backazimuth><phaseHint>S</phaseHint><evaluationMode>automatic</evaluationMode><comment><text>508.0225954657504</text><id>DFX:rectilinearity</id></comment><comment><text>de.gempa.tb1.Pick/20250414132453.737844.138264</text><id>RefPickID</id></comment><comment><text>17.953590977774535</text><id>SNR</id></comment></pick><pick publicID="de.gempa.tb1.Pick/20250414132512.711784.138280"><time><value>2025-04-14T13:25:00.618393Z</value></time><waveformID networkCode="CX" stationCode="PB15" channelCode="HHN"/><filterID>ITAPER(2)&gt;&gt;BW(3,3,20)</filterID><methodID>L2-AIC-GRID</methodID><horizontalSlowness><value>22.6825126501649</value></horizontalSlowness><backazimuth><value>33.856155026982776</value></backazimuth><phaseHint>S</phaseHint><evaluationMode>automatic</evaluationMode><comment><text>13914.30394541784</text><id>DFX:rectilinearity</id></comment><comment><text>de.gempa.tb1.Pick/20250414132450.188563.138262</text><id>RefPickID</id></comment><comment><text>7.953434495749181</text><id>SNR</id></comment></pick><pick publicID="de.gempa.tb1.Pick/20250414132513.444742.138281"><time><value>2025-04-14T13:25:01.73Z</value></time><waveformID networkCode="CX" stationCode="PB09" channelCode="HHN"/><filterID>ITAPER(2)&gt;&gt;BW(3,3,20)</filterID><methodID>L2-AIC-GRID</methodID><horizontalSlowness><value>10.066601136260728</value></horizontalSlowness><backazimuth><value>297.3914244704651</value></backazimuth><phaseHint>S</phaseHint><evaluationMode>automatic</evaluationMode><comment><text>77.3479278029</text><id>DFX:rectilinearity</id></comment><comment><text>de.gempa.tb1.Pick/20250414132459.978793.138270</text><id>RefPickID</id></comment><comment><text>7.784271903180765</text><id>SNR</id></comment></pick><pick publicID="de.gempa.tb1.Pick/20250414132516.523231.138282"><time><value>2025-04-14T13:25:09.68Z</value></time><waveformID networkCode="CX" stationCode="PB19" channelCode="HHN"/><filterID>ITAPER(2)&gt;&gt;BW(3,3,20)</filterID><methodID>L2-AIC-GRID</methodID><horizontalSlowness><value>22.81673999899856</value></horizontalSlowness><backazimuth><value>55.0752504836627</value></backazimuth><phaseHint>S</phaseHint><evaluationMode>automatic</evaluationMode><comment><text>386.9031465547896</text><id>DFX:rectilinearity</id></comment><comment><text>de.gempa.tb1.Pick/20250414132455.539418.138266</text><id>RefPickID</id></comment><comment><text>10.039437509168625</text><id>SNR</id></comment></pick><pick publicID="de.gempa.tb1.Pick/20250414132524.669229.138286"><time><value>2025-04-14T13:25:16.558393Z</value></time><waveformID networkCode="CX" stationCode="PB02" channelCode="HHN"/><filterID>ITAPER(2)&gt;&gt;BW(3,3,20)</filterID><methodID>L2-AIC-GRID</methodID><horizontalSlowness><value>16.685530064984142</value></horizontalSlowness><backazimuth><value>237.13305291408707</value></backazimuth><phaseHint>S</phaseHint><evaluationMode>automatic</evaluationMode><comment><text>215.8175860929536</text><id>DFX:rectilinearity</id></comment><comment><text>de.gempa.tb1.Pick/20250414132502.577333.138274</text><id>RefPickID</id></comment><comment><text>5.528018726792505</text><id>SNR</id></comment></pick><pick publicID="de.gempa.tb1.Pick/20250414132526.64143.138288"><time><value>2025-04-14T13:25:17.898393Z</value></time><waveformID networkCode="CX" stationCode="PB01" channelCode="HHN"/><filterID>ITAPER(2)&gt;&gt;BW(3,3,20)</filterID><methodID>L2-AIC-GRID</methodID><horizontalSlowness><value>22.629922499043587</value></horizontalSlowness><backazimuth><value>247.6598936478099</value></backazimuth><phaseHint>S</phaseHint><evaluationMode>automatic</evaluationMode><comment><text>76.69807600956045</text><id>DFX:rectilinearity</id></comment><comment><text>de.gempa.tb1.Pick/20250414132501.573139.138272</text><id>RefPickID</id></comment><comment><text>9.108347463604661</text><id>SNR</id></comment></pick><origin publicID="de.gempa.tb1.Origin/20250414132526.648044.139775"><time><value>2025-04-14T13:24:25.621053Z</value><uncertainty>0.762360692024231</uncertainty></time><latitude><value>-22.629167556762695</value><uncertainty>2.474967956542969</uncertainty></latitude><longitude><value>-68.73969268798828</value><uncertainty>9.722580909729004</uncertainty></longitude><depth><value>103.87329864501953</value><uncertainty>8.720030784606934</uncertainty></depth><depthType>from location</depthType><methodID>LOCSAT</methodID><earthModelID>iasp91_scanloc</earthModelID><quality><associatedPhaseCount>16</associatedPhaseCount><usedPhaseCount>16</usedPhaseCount><associatedStationCount>9</associatedStationCount><usedStationCount>9</usedStationCount><depthPhaseCount>0</depthPhaseCount><standardError>0.32633006055237695</standardError><azimuthalGap>225.54376220703125</azimuthalGap><maximumDistance>1.8885730504989624</maximumDistance><minimumDistance>0.7724390625953674</minimumDistance><medianDistance>1.3670718669891357</medianDistance></quality><uncertainty><minHorizontalUncertainty>5.203864097595215</minHorizontalUncertainty><maxHorizontalUncertainty>20.867759704589844</maxHorizontalUncertainty><azimuthMaxHorizontalUncertainty>87.06779479980469</azimuthMaxHorizontalUncertainty><preferredDescription>horizontal uncertainty</preferredDescription></uncertainty><evaluationMode>automatic</evaluationMode><evaluationStatus>confirmed</evaluationStatus><comment><text>0.00</text><id>mismatchScore</id></comment><comment><text>mismatchScore</text><id>scevalMethod</id></comment><arrival><pickID>de.gempa.tb1.Pick/20250414132449.986549.138260</pickID><phase>P</phase><azimuth>264.1741027832031</azimuth><distance>0.7724390625953674</distance><timeResidual>-0.4252910614013672</timeResidual><timeUsed>true</timeUsed><horizontalSlownessUsed>false</horizontalSlownessUsed><backazimuthUsed>false</backazimuthUsed><weight>1</weight></arrival><arrival><pickID>de.gempa.tb1.Pick/20250414132450.188563.138262</pickID><phase>P</phase><azimuth>229.32691955566406</azimuth><distance>0.8870278000831604</distance><timeResidual>-0.3247966766357422</timeResidual><timeUsed>true</timeUsed><horizontalSlownessUsed>false</horizontalSlownessUsed><backazimuthUsed>false</backazimuthUsed><weight>1</weight></arrival><arrival><pickID>de.gempa.tb1.Pick/20250414132453.737844.138264</pickID><phase>P</phase><azimuth>301.4389953613281</azimuth><distance>1.1019558906555176</distance><timeResidual>-0.4351024627685547</timeResidual><timeUsed>true</timeUsed><horizontalSlownessUsed>false</horizontalSlownessUsed><backazimuthUsed>false</backazimuthUsed><weight>1</weight></arrival><arrival><pickID>de.gempa.tb1.Pick/20250414132455.539418.138266</pickID><phase>P</phase><azimuth>201.64669799804688</azimuth><distance>1.3670718669891357</distance><timeResidual>-0.1799335479736328</timeResidual><timeUsed>true</timeUsed><horizontalSlownessUsed>false</horizontalSlownessUsed><backazimuthUsed>false</backazimuthUsed><weight>1</weight></arrival><arrival><pickID>de.gempa.tb1.Pick/20250414132457.265705.138268</pickID><phase>P</phase><azimuth>309.9878845214844</azimuth><distance>1.3913787603378296</distance><timeResidual>-0.001514434814453125</timeResidual><timeUsed>true</timeUsed><horizontalSlownessUsed>false</horizontalSlownessUsed><backazimuthUsed>false</backazimuthUsed><weight>1</weight></arrival><arrival><pickID>de.gempa.tb1.Pick/20250414132459.978793.138270</pickID><phase>P</phase><azimuth>330.58935546875</azimuth><distance>0.9505212306976318</distance><timeResidual>0.15046119689941406</timeResidual><timeUsed>true</timeUsed><horizontalSlownessUsed>false</horizontalSlownessUsed><backazimuthUsed>false</backazimuthUsed><weight>1</weight></arrival><arrival><pickID>de.gempa.tb1.Pick/20250414132501.573139.138272</pickID><phase>P</phase><azimuth>336.1029357910156</azimuth><distance>1.7243506908416748</distance><timeResidual>-0.05160140991210938</timeResidual><timeUsed>true</timeUsed><horizontalSlownessUsed>false</horizontalSlownessUsed><backazimuthUsed>false</backazimuthUsed><weight>1</weight></arrival><arrival><pickID>de.gempa.tb1.Pick/20250414132502.577333.138274</pickID><phase>P</phase><azimuth>320.3060302734375</azimuth><distance>1.6882073879241943</distance><timeResidual>0.13109588623046875</timeResidual><timeUsed>true</timeUsed><horizontalSlownessUsed>false</horizontalSlownessUsed><backazimuthUsed>false</backazimuthUsed><weight>1</weight></arrival><arrival><pickID>de.gempa.tb1.Pick/20250414132503.63942.138276</pickID><phase>S</phase><azimuth>264.1741027832031</azimuth><distance>0.7724390625953674</distance><timeResidual>0.06716728210449219</timeResidual><timeUsed>true</timeUsed><horizontalSlownessUsed>false</horizontalSlownessUsed><backazimuthUsed>false</backazimuthUsed><weight>1</weight></arrival><arrival><pickID>de.gempa.tb1.Pick/20250414132505.392536.138277</pickID><phase>P</phase><azimuth>241.8717956542969</azimuth><distance>1.8885730504989624</distance><timeResidual>0.7622032165527344</timeResidual><timeUsed>true</timeUsed><horizontalSlownessUsed>false</horizontalSlownessUsed><backazimuthUsed>false</backazimuthUsed><weight>1</weight></arrival><arrival><pickID>de.gempa.tb1.Pick/20250414132511.686588.138279</pickID><phase>S</phase><azimuth>301.4389953613281</azimuth><distance>1.1019558906555176</distance><timeResidual>-0.42745018005371094</timeResidual><timeUsed>true</timeUsed><horizontalSlownessUsed>false</horizontalSlownessUsed><backazimuthUsed>false</backazimuthUsed><weight>1</weight></arrival><arrival><pickID>de.gempa.tb1.Pick/20250414132512.711784.138280</pickID><phase>S</phase><azimuth>229.32691955566406</azimuth><distance>0.8870278000831604</distance><timeResidual>0.3693866729736328</timeResidual><timeUsed>true</timeUsed><horizontalSlownessUsed>false</horizontalSlownessUsed><backazimuthUsed>false</backazimuthUsed><weight>1</weight></arrival><arrival><pickID>de.gempa.tb1.Pick/20250414132513.444742.138281</pickID><phase>S</phase><azimuth>330.58935546875</azimuth><distance>0.9505212306976318</distance><timeResidual>0.31217384338378906</timeResidual><timeUsed>true</timeUsed><horizontalSlownessUsed>false</horizontalSlownessUsed><backazimuthUsed>false</backazimuthUsed><weight>1</weight></arrival><arrival><pickID>de.gempa.tb1.Pick/20250414132516.523231.138282</pickID><phase>S</phase><azimuth>201.64669799804688</azimuth><distance>1.3670718669891357</distance><timeResidual>-0.06377983093261719</timeResidual><timeUsed>true</timeUsed><horizontalSlownessUsed>false</horizontalSlownessUsed><backazimuthUsed>false</backazimuthUsed><weight>1</weight></arrival><arrival><pickID>de.gempa.tb1.Pick/20250414132524.669229.138286</pickID><phase>S</phase><azimuth>320.3060302734375</azimuth><distance>1.6882073879241943</distance><timeResidual>-0.20635414123535156</timeResidual><timeUsed>true</timeUsed><horizontalSlownessUsed>false</horizontalSlownessUsed><backazimuthUsed>false</backazimuthUsed><weight>1</weight></arrival><arrival><pickID>de.gempa.tb1.Pick/20250414132526.64143.138288</pickID><phase>S</phase><azimuth>336.1029357910156</azimuth><distance>1.7243506908416748</distance><timeResidual>0.32340049743652344</timeResidual><timeUsed>true</timeUsed><horizontalSlownessUsed>false</horizontalSlownessUsed><backazimuthUsed>false</backazimuthUsed><weight>1</weight></arrival><magnitude publicID="de.gempa.tb1.Magnitude/20250414132535.942513.494422"><magnitude><value>2.6550898110592964</value></magnitude><type>M</type><methodID>weighted average</methodID><stationCount>7</stationCount></magnitude></origin><event publicID="gempa2025hjhc"><preferredOriginID>de.gempa.tb1.Origin/20250414132526.648044.139775</preferredOriginID><preferredMagnitudeID>de.gempa.tb1.Magnitude/20250414132535.942513.494422</preferredMagnitudeID><description><text>Northern Chile</text><type>region name</type></description><originReference>de.gempa.tb1.Origin/20250414132526.648044.139775</originReference></event></EventParameters></seiscomp>