<?xml version="1.0" encoding="UTF-8"?>
<seiscomp xmlns="http://geofon.gfz-potsdam.de/ns/seiscomp3-schema/0.13" version="0.13"><EventParameters><pick publicID="de.gempa.tb1.Pick/20250412195224.527375.126382"><time><value>2025-04-12T19:52:19.208393Z</value></time><waveformID networkCode="CX" stationCode="PB03" channelCode="HHZ"/><filterID>ITAPER(4)&gt;&gt;BW(4,4,20)</filterID><methodID>AIC</methodID><horizontalSlowness><value>23.24672254970146</value></horizontalSlowness><backazimuth><value>99.98580061731273</value></backazimuth><phaseHint>P</phaseHint><evaluationMode>automatic</evaluationMode><comment><text>13.27444528084852</text><id>DFX:rectilinearity</id></comment><comment><text>30.835234489011107</text><id>SNR</id></comment></pick><pick publicID="de.gempa.tb1.Pick/20250412195226.515911.126384"><time><value>2025-04-12T19:52:18.428393Z</value></time><waveformID networkCode="CX" stationCode="PB06" channelCode="HHZ"/><filterID>ITAPER(4)&gt;&gt;BW(4,4,20)</filterID><methodID>AIC</methodID><horizontalSlowness><value>9.097579107146318</value></horizontalSlowness><backazimuth><value>271.07030653925005</value></backazimuth><phaseHint>P</phaseHint><evaluationMode>automatic</evaluationMode><comment><text>52.56813547251827</text><id>DFX:rectilinearity</id></comment><comment><text>11.884943793315232</text><id>SNR</id></comment></pick><pick publicID="de.gempa.tb1.Pick/20250412195229.639739.126386"><time><value>2025-04-12T19:52:24.928393Z</value></time><waveformID networkCode="CX" stationCode="PB15" channelCode="HHZ"/><filterID>ITAPER(4)&gt;&gt;BW(4,4,20)</filterID><methodID>AIC</methodID><horizontalSlowness><value>20.075835638035922</value></horizontalSlowness><backazimuth><value>99.96341132739721</value></backazimuth><phaseHint>P</phaseHint><evaluationMode>automatic</evaluationMode><comment><text>316.34695879104117</text><id>DFX:rectilinearity</id></comment><comment><text>16.70033037872384</text><id>SNR</id></comment></pick><pick publicID="de.gempa.tb1.Pick/20250412195230.55226.126388"><time><value>2025-04-12T19:52:14.46Z</value></time><waveformID networkCode="CX" stationCode="PB09" channelCode="HHZ"/><filterID>ITAPER(4)&gt;&gt;BW(4,4,20)</filterID><methodID>AIC</methodID><horizontalSlowness><value>21.670451532684098</value></horizontalSlowness><backazimuth><value>149.17410153447196</value></backazimuth><phaseHint>P</phaseHint><evaluationMode>automatic</evaluationMode><comment><text>76.76260993403754</text><id>DFX:rectilinearity</id></comment><comment><text>280.68061908297295</text><id>SNR</id></comment></pick><pick publicID="de.gempa.tb1.Pick/20250412195233.472084.126390"><time><value>2025-04-12T19:52:28.068393Z</value></time><waveformID networkCode="CX" stationCode="PB02" channelCode="HHZ"/><filterID>ITAPER(4)&gt;&gt;BW(4,4,20)</filterID><methodID>AIC</methodID><horizontalSlowness><value>22.10691887638757</value></horizontalSlowness><backazimuth><value>89.75894280868472</value></backazimuth><phaseHint>P</phaseHint><evaluationMode>automatic</evaluationMode><comment><text>40.071771258463286</text><id>DFX:rectilinearity</id></comment><comment><text>30.836192355788906</text><id>SNR</id></comment></pick><pick publicID="de.gempa.tb1.Pick/20250412195236.558551.126392"><time><value>2025-04-12T19:52:28.338393Z</value></time><waveformID networkCode="CX" stationCode="PB01" channelCode="HHZ"/><filterID>ITAPER(4)&gt;&gt;BW(4,4,20)</filterID><methodID>AIC</methodID><horizontalSlowness><value>15.71204860125863</value></horizontalSlowness><backazimuth><value>141.8324347516618</value></backazimuth><phaseHint>P</phaseHint><evaluationMode>automatic</evaluationMode><comment><text>17.13246199998034</text><id>DFX:rectilinearity</id></comment><comment><text>42.08548593202233</text><id>SNR</id></comment></pick><pick publicID="de.gempa.tb1.Pick/20250412195238.38966.126394"><time><value>2025-04-12T19:52:23.498393Z</value></time><waveformID networkCode="CX" stationCode="PB07" channelCode="HHZ"/><filterID>ITAPER(4)&gt;&gt;BW(4,4,20)</filterID><methodID>AIC</methodID><horizontalSlowness><value>20.531426886049626</value></horizontalSlowness><backazimuth><value>115.08556013475888</value></backazimuth><phaseHint>P</phaseHint><evaluationMode>automatic</evaluationMode><comment><text>572.4735891071884</text><id>DFX:rectilinearity</id></comment><comment><text>74.1798467730326</text><id>SNR</id></comment></pick><pick publicID="de.gempa.tb1.Pick/20250412195242.278917.126396"><time><value>2025-04-12T19:52:37.219999Z</value></time><waveformID networkCode="CX" stationCode="PATCX" channelCode="HHZ"/><filterID>ITAPER(4)&gt;&gt;BW(4,4,20)</filterID><methodID>AIC</methodID><horizontalSlowness><value>20.71287735924501</value></horizontalSlowness><backazimuth><value>89.6742139843993</value></backazimuth><phaseHint>P</phaseHint><evaluationMode>automatic</evaluationMode><comment><text>433.30427774255514</text><id>DFX:rectilinearity</id></comment><comment><text>10.297215263148018</text><id>SNR</id></comment></pick><pick publicID="de.gempa.tb1.Pick/20250412195242.552047.126399"><time><value>2025-04-12T19:52:36.45Z</value></time><waveformID networkCode="CX" stationCode="PB19" channelCode="HHZ"/><filterID>ITAPER(4)&gt;&gt;BW(4,4,20)</filterID><methodID>AIC</methodID><horizontalSlowness><value>22.474096739596817</value></horizontalSlowness><backazimuth><value>2.341574095738082</value></backazimuth><phaseHint>P</phaseHint><evaluationMode>automatic</evaluationMode><comment><text>16.722983010875048</text><id>DFX:rectilinearity</id></comment><comment><text>23.52971064360291</text><id>SNR</id></comment></pick><pick publicID="de.gempa.tb1.Pick/20250412195254.666852.126402"><time><value>2025-04-12T19:52:43.768393Z</value></time><waveformID networkCode="CX" stationCode="PB08" channelCode="HHZ"/><filterID>ITAPER(4)&gt;&gt;BW(4,4,20)</filterID><methodID>AIC</methodID><horizontalSlowness><value>13.095542689007848</value></horizontalSlowness><backazimuth><value>182.56789806901082</value></backazimuth><phaseHint>P</phaseHint><evaluationMode>automatic</evaluationMode><comment><text>9.09039483143399</text><id>DFX:rectilinearity</id></comment><comment><text>7.765157066567074</text><id>SNR</id></comment></pick><pick publicID="de.gempa.tb1.Pick/20250412195258.583856.126406"><time><value>2025-04-12T19:52:52.680001Z</value></time><waveformID networkCode="CX" stationCode="PSGCX" channelCode="HHZ"/><filterID>ITAPER(4)&gt;&gt;BW(4,4,20)</filterID><methodID>AIC</methodID><horizontalSlowness><value>14.169431318805037</value></horizontalSlowness><backazimuth><value>198.32908822060136</value></backazimuth><phaseHint>P</phaseHint><evaluationMode>automatic</evaluationMode><comment><text>18.657490995818247</text><id>DFX:rectilinearity</id></comment><comment><text>37.74083987676051</text><id>SNR</id></comment></pick><origin publicID="de.gempa.tb1.Origin/20250412195302.645782.90823"><time><value>2025-04-12T19:52:05.950621Z</value><uncertainty>0.5669341683387756</uncertainty></time><latitude><value>-22.241416931152344</value><uncertainty>2.5605359077453613</uncertainty></latitude><longitude><value>-69.08609008789062</value><uncertainty>6.100870132446289</uncertainty></longitude><depth><value>0</value></depth><depthType>operator assigned</depthType><methodID>LOCSAT</methodID><earthModelID>iasp91_scanloc</earthModelID><quality><associatedPhaseCount>11</associatedPhaseCount><usedPhaseCount>11</usedPhaseCount><associatedStationCount>11</associatedStationCount><usedStationCount>11</usedStationCount><depthPhaseCount>0</depthPhaseCount><standardError>0.7997464017593235</standardError><azimuthalGap>188.1856231689453</azimuthalGap><maximumDistance>2.803898811340332</maximumDistance><minimumDistance>0.4658968150615692</minimumDistance><medianDistance>1.1865745782852173</medianDistance></quality><uncertainty><minHorizontalUncertainty>5.491374492645264</minHorizontalUncertainty><maxHorizontalUncertainty>13.084506034851074</maxHorizontalUncertainty><azimuthMaxHorizontalUncertainty>90.20536041259766</azimuthMaxHorizontalUncertainty><preferredDescription>horizontal uncertainty</preferredDescription></uncertainty><evaluationMode>automatic</evaluationMode><evaluationStatus>confirmed</evaluationStatus><comment><text>0.03</text><id>mismatchScore</id></comment><comment><text>mismatchScore</text><id>scevalMethod</id></comment><arrival><pickID>de.gempa.tb1.Pick/20250412195224.527375.126382</pickID><phase>P</phase><azimuth>287.12518310546875</azimuth><distance>0.6475167274475098</distance><timeResidual>0.8376998901367188</timeResidual><timeUsed>true</timeUsed><horizontalSlownessUsed>false</horizontalSlownessUsed><backazimuthUsed>false</backazimuthUsed><weight>1</weight></arrival><arrival><pickID>de.gempa.tb1.Pick/20250412195226.515911.126384</pickID><phase>P</phase><azimuth>224.10072326660156</azimuth><distance>0.6445950269699097</distance><timeResidual>0.1145315170288086</timeResidual><timeUsed>true</timeUsed><horizontalSlownessUsed>false</horizontalSlownessUsed><backazimuthUsed>false</backazimuthUsed><weight>1</weight></arrival><arrival><pickID>de.gempa.tb1.Pick/20250412195229.639739.126386</pickID><phase>P</phase><azimuth>200.19065856933594</azimuth><distance>1.0258556604385376</distance><timeResidual>-0.6976404190063477</timeResidual><timeUsed>true</timeUsed><horizontalSlownessUsed>false</horizontalSlownessUsed><backazimuthUsed>false</backazimuthUsed><weight>1</weight></arrival><arrival><pickID>de.gempa.tb1.Pick/20250412195230.55226.126388</pickID><phase>P</phase><azimuth>341.88946533203125</azimuth><distance>0.4658968150615692</distance><timeResidual>-0.42748260498046875</timeResidual><timeUsed>true</timeUsed><horizontalSlownessUsed>false</horizontalSlownessUsed><backazimuthUsed>false</backazimuthUsed><weight>1</weight></arrival><arrival><pickID>de.gempa.tb1.Pick/20250412195233.472084.126390</pickID><phase>P</phase><azimuth>320.4718017578125</azimuth><distance>1.1865745782852173</distance><timeResidual>-0.6425504684448242</timeResidual><timeUsed>true</timeUsed><horizontalSlownessUsed>false</horizontalSlownessUsed><backazimuthUsed>false</backazimuthUsed><weight>1</weight></arrival><arrival><pickID>de.gempa.tb1.Pick/20250412195236.558551.126392</pickID><phase>P</phase><azimuth>342.5391540527344</azimuth><distance>1.2494149208068848</distance><timeResidual>-1.578181266784668</timeResidual><timeUsed>true</timeUsed><horizontalSlownessUsed>false</horizontalSlownessUsed><backazimuthUsed>false</backazimuthUsed><weight>1</weight></arrival><arrival><pickID>de.gempa.tb1.Pick/20250412195238.38966.126394</pickID><phase>P</phase><azimuth>304.4490051269531</azimuth><distance>0.9021455645561218</distance><timeResidual>0.2433633804321289</timeResidual><timeUsed>true</timeUsed><horizontalSlownessUsed>false</horizontalSlownessUsed><backazimuthUsed>false</backazimuthUsed><weight>1</weight></arrival><arrival><pickID>de.gempa.tb1.Pick/20250412195242.278917.126396</pickID><phase>P</phase><azimuth>324.7134704589844</azimuth><distance>1.7277449369430542</distance><timeResidual>-0.03164196014404297</timeResidual><timeUsed>true</timeUsed><horizontalSlownessUsed>false</horizontalSlownessUsed><backazimuthUsed>false</backazimuthUsed><weight>1</weight></arrival><arrival><pickID>de.gempa.tb1.Pick/20250412195242.552047.126399</pickID><phase>P</phase><azimuth>186.4519805908203</azimuth><distance>1.6663038730621338</distance><timeResidual>0.04774379730224609</timeResidual><timeUsed>true</timeUsed><horizontalSlownessUsed>false</horizontalSlownessUsed><backazimuthUsed>false</backazimuthUsed><weight>1</weight></arrival><arrival><pickID>de.gempa.tb1.Pick/20250412195254.666852.126402</pickID><phase>P</phase><azimuth>358.266357421875</azimuth><distance>2.0908253192901611</distance><timeResidual>1.5187387466430664</timeResidual><timeUsed>true</timeUsed><horizontalSlownessUsed>false</horizontalSlownessUsed><backazimuthUsed>false</backazimuthUsed><weight>1</weight></arrival><arrival><pickID>de.gempa.tb1.Pick/20250412195258.583856.126406</pickID><phase>P</phase><azimuth>339.5869140625</azimuth><distance>2.803898811340332</distance><timeResidual>0.6153326034545898</timeResidual><timeUsed>true</timeUsed><horizontalSlownessUsed>false</horizontalSlownessUsed><backazimuthUsed>false</backazimuthUsed><weight>1</weight></arrival><magnitude publicID="de.gempa.tb1.Magnitude/20250412195312.241813.272216"><magnitude><value>2.4935200030935434</value></magnitude><type>M</type><methodID>weighted average</methodID><stationCount>8</stationCount></magnitude></origin><event publicID="gempa2025hgby"><preferredOriginID>de.gempa.tb1.Origin/20250412195302.645782.90823</preferredOriginID><preferredMagnitudeID>de.gempa.tb1.Magnitude/20250412195312.241813.272216</preferredMagnitudeID><description><text>Northern Chile</text><type>region name</type></description><originReference>de.gempa.tb1.Origin/20250412195302.645782.90823</originReference></event></EventParameters></seiscomp>