<?xml version="1.0" encoding="UTF-8"?>
<seiscomp xmlns="http://geofon.gfz-potsdam.de/ns/seiscomp3-schema/0.13" version="0.13"><EventParameters><pick publicID="de.gempa.tb1.Pick/20250412013330.268708.121309"><time><value>2025-04-12T01:33:22.11Z</value></time><waveformID networkCode="CX" stationCode="PSGCX" channelCode="HHZ"/><filterID>ITAPER(4)&gt;&gt;BW(4,4,20)</filterID><methodID>AIC</methodID><horizontalSlowness><value>18.23294020205934</value></horizontalSlowness><backazimuth><value>290.4974784340528</value></backazimuth><phaseHint>P</phaseHint><evaluationMode>automatic</evaluationMode><comment><text>24.10330412979618</text><id>DFX:rectilinearity</id></comment><comment><text>85.66951547190794</text><id>SNR</id></comment></pick><pick publicID="de.gempa.tb1.Pick/20250412013331.612679.121311"><time><value>2025-04-12T01:33:24.258391Z</value></time><waveformID networkCode="CX" stationCode="PB01" channelCode="HHZ"/><filterID>ITAPER(4)&gt;&gt;BW(4,4,20)</filterID><methodID>AIC</methodID><horizontalSlowness><value>19.963811343636756</value></horizontalSlowness><backazimuth><value>194.86900115050918</value></backazimuth><phaseHint>P</phaseHint><evaluationMode>automatic</evaluationMode><comment><text>9.516836894751604</text><id>DFX:rectilinearity</id></comment><comment><text>10.692227859809215</text><id>SNR</id></comment></pick><pick publicID="de.gempa.tb1.Pick/20250412013335.617258.121315"><time><value>2025-04-12T01:33:28.218393Z</value></time><waveformID networkCode="CX" stationCode="PB02" channelCode="HHZ"/><filterID>ITAPER(4)&gt;&gt;BW(4,4,20)</filterID><methodID>AIC</methodID><horizontalSlowness><value>5.172629893493613</value></horizontalSlowness><backazimuth><value>331.45924523180724</value></backazimuth><phaseHint>P</phaseHint><evaluationMode>automatic</evaluationMode><comment><text>51.09206520296408</text><id>DFX:rectilinearity</id></comment><comment><text>11.652338910511343</text><id>SNR</id></comment></pick><pick publicID="de.gempa.tb1.Pick/20250412013339.588769.121321"><time><value>2025-04-12T01:33:32.51Z</value></time><waveformID networkCode="CX" stationCode="PSGCX" channelCode="HHN"/><filterID>ITAPER(2)&gt;&gt;BW(3,3,20)</filterID><methodID>L2-AIC-GRID</methodID><horizontalSlowness><value>22.862794984333753</value></horizontalSlowness><backazimuth><value>302.9381330944659</value></backazimuth><phaseHint>S</phaseHint><evaluationMode>automatic</evaluationMode><comment><text>99.300389954432</text><id>DFX:rectilinearity</id></comment><comment><text>de.gempa.tb1.Pick/20250412013330.268708.121309</text><id>RefPickID</id></comment><comment><text>6.46551811021738</text><id>SNR</id></comment></pick><pick publicID="de.gempa.tb1.Pick/20250412013347.598825.121324"><time><value>2025-04-12T01:33:40.718391Z</value></time><waveformID networkCode="CX" stationCode="PB01" channelCode="HHN"/><filterID>ITAPER(2)&gt;&gt;BW(3,3,20)</filterID><methodID>L2-AIC-GRID</methodID><horizontalSlowness><value>20.012703096439989</value></horizontalSlowness><backazimuth><value>307.32628339413253</value></backazimuth><phaseHint>S</phaseHint><evaluationMode>automatic</evaluationMode><comment><text>41.25920798423932</text><id>DFX:rectilinearity</id></comment><comment><text>de.gempa.tb1.Pick/20250412013331.612679.121311</text><id>RefPickID</id></comment><comment><text>6.904325759824937</text><id>SNR</id></comment></pick><pick publicID="de.gempa.tb1.Pick/20250412013351.502423.121327"><time><value>2025-04-12T01:33:42.628393Z</value></time><waveformID networkCode="CX" stationCode="PB02" channelCode="HHN"/><filterID>ITAPER(2)&gt;&gt;BW(3,3,20)</filterID><methodID>L2-AIC-GRID</methodID><horizontalSlowness><value>11.615510040168044</value></horizontalSlowness><backazimuth><value>328.91185367585314</value></backazimuth><phaseHint>S</phaseHint><evaluationMode>automatic</evaluationMode><comment><text>31.250812696044974</text><id>DFX:rectilinearity</id></comment><comment><text>de.gempa.tb1.Pick/20250412013335.617258.121315</text><id>RefPickID</id></comment><comment><text>6.232747717702944</text><id>SNR</id></comment></pick><origin publicID="de.gempa.tb1.Origin/20250412013351.507506.71773"><time><value>2025-04-12T01:33:06.945174Z</value><uncertainty>1.4748179912567139</uncertainty></time><latitude><value>-20.20089340209961</value><uncertainty>5.215015888214111</uncertainty></latitude><longitude><value>-70.01725769042969</value><uncertainty>14.563454627990723</uncertainty></longitude><depth><value>78.77505493164062</value><uncertainty>13.78225326538086</uncertainty></depth><depthType>from location</depthType><methodID>LOCSAT</methodID><earthModelID>iasp91_scanloc</earthModelID><quality><associatedPhaseCount>6</associatedPhaseCount><usedPhaseCount>6</usedPhaseCount><associatedStationCount>3</associatedStationCount><usedStationCount>3</usedStationCount><depthPhaseCount>0</depthPhaseCount><standardError>0.7851676173043621</standardError><azimuthalGap>176.3689727783203</azimuthalGap><maximumDistance>1.1189802885055542</maximumDistance><minimumDistance>0.6088045239448547</minimumDistance><medianDistance>0.9740198254585266</medianDistance></quality><uncertainty><minHorizontalUncertainty>7.394530296325684</minHorizontalUncertainty><maxHorizontalUncertainty>32.34611511230469</maxHorizontalUncertainty><azimuthMaxHorizontalUncertainty>74.541259765625</azimuthMaxHorizontalUncertainty><preferredDescription>horizontal uncertainty</preferredDescription></uncertainty><evaluationMode>automatic</evaluationMode><comment><text>0.56</text><id>mismatchScore</id></comment><arrival><pickID>de.gempa.tb1.Pick/20250412013330.268708.121309</pickID><phase>P</phase><azimuth>350.5709533691406</azimuth><distance>0.6088045239448547</distance><timeResidual>0.5123968124389648</timeResidual><timeUsed>true</timeUsed><horizontalSlownessUsed>false</horizontalSlownessUsed><backazimuthUsed>false</backazimuthUsed><weight>1</weight></arrival><arrival><pickID>de.gempa.tb1.Pick/20250412013331.612679.121311</pickID><phase>P</phase><azimuth>149.45799255371094</azimuth><distance>0.9740198254585266</distance><timeResidual>-1.3564558029174805</timeResidual><timeUsed>true</timeUsed><horizontalSlownessUsed>false</horizontalSlownessUsed><backazimuthUsed>false</backazimuthUsed><weight>1</weight></arrival><arrival><pickID>de.gempa.tb1.Pick/20250412013335.617258.121315</pickID><phase>P</phase><azimuth>174.2019805908203</azimuth><distance>1.1189802885055542</distance><timeResidual>0.8446321487426758</timeResidual><timeUsed>true</timeUsed><horizontalSlownessUsed>false</horizontalSlownessUsed><backazimuthUsed>false</backazimuthUsed><weight>1</weight></arrival><arrival><pickID>de.gempa.tb1.Pick/20250412013339.588769.121321</pickID><phase>S</phase><azimuth>350.5709533691406</azimuth><distance>0.6088045239448547</distance><timeResidual>-0.287907600402832</timeResidual><timeUsed>true</timeUsed><horizontalSlownessUsed>false</horizontalSlownessUsed><backazimuthUsed>false</backazimuthUsed><weight>1</weight></arrival><arrival><pickID>de.gempa.tb1.Pick/20250412013347.598825.121324</pickID><phase>S</phase><azimuth>149.45799255371094</azimuth><distance>0.9740198254585266</distance><timeResidual>0.7596330642700195</timeResidual><timeUsed>true</timeUsed><horizontalSlownessUsed>false</horizontalSlownessUsed><backazimuthUsed>false</backazimuthUsed><weight>1</weight></arrival><arrival><pickID>de.gempa.tb1.Pick/20250412013351.502423.121327</pickID><phase>S</phase><azimuth>174.2019805908203</azimuth><distance>1.1189802885055542</distance><timeResidual>-0.4723024368286133</timeResidual><timeUsed>true</timeUsed><horizontalSlownessUsed>false</horizontalSlownessUsed><backazimuthUsed>false</backazimuthUsed><weight>1</weight></arrival><magnitude publicID="de.gempa.tb1.Magnitude/20250412013355.936451.162125"><magnitude><value>2.069044866869282</value></magnitude><type>M</type><methodID>weighted average</methodID><stationCount>3</stationCount></magnitude></origin><event publicID="gempa2025heri"><preferredOriginID>de.gempa.tb1.Origin/20250412013351.507506.71773</preferredOriginID><preferredMagnitudeID>de.gempa.tb1.Magnitude/20250412013355.936451.162125</preferredMagnitudeID><description><text>Near Coast of Northern Chile</text><type>region name</type></description><originReference>de.gempa.tb1.Origin/20250412013351.507506.71773</originReference></event></EventParameters></seiscomp>