<?xml version="1.0" encoding="UTF-8"?>
<seiscomp xmlns="http://geofon.gfz-potsdam.de/ns/seiscomp3-schema/0.13" version="0.13"><EventParameters><pick publicID="de.gempa.tb1.Pick/20250413132848.602254.131444"><time><value>2025-04-13T13:28:43.668393Z</value></time><waveformID networkCode="CX" stationCode="PB02" channelCode="HHZ"/><filterID>ITAPER(4)&gt;&gt;BW(4,4,20)</filterID><methodID>AIC</methodID><horizontalSlowness><value>13.643352956993672</value></horizontalSlowness><backazimuth><value>342.9080813493466</value></backazimuth><phaseHint>P</phaseHint><evaluationMode>automatic</evaluationMode><comment><text>33.52520001910289</text><id>DFX:rectilinearity</id></comment><comment><text>21.375849855287395</text><id>SNR</id></comment></pick><pick publicID="de.gempa.tb1.Pick/20250413132853.543458.131446"><time><value>2025-04-13T13:28:47.418394Z</value></time><waveformID networkCode="CX" stationCode="PB01" channelCode="HHZ"/><filterID>ITAPER(4)&gt;&gt;BW(4,4,20)</filterID><methodID>AIC</methodID><horizontalSlowness><value>11.699393353435141</value></horizontalSlowness><backazimuth><value>286.90829824791206</value></backazimuth><phaseHint>P</phaseHint><evaluationMode>automatic</evaluationMode><comment><text>15.583399951783253</text><id>DFX:rectilinearity</id></comment><comment><text>18.882766531191468</text><id>SNR</id></comment></pick><pick publicID="de.gempa.tb1.Pick/20250413132856.536719.131448"><time><value>2025-04-13T13:28:50.378394Z</value></time><waveformID networkCode="CX" stationCode="PB03" channelCode="HHZ"/><filterID>ITAPER(4)&gt;&gt;BW(4,4,20)</filterID><methodID>AIC</methodID><horizontalSlowness><value>6.203424178105265</value></horizontalSlowness><backazimuth><value>331.7113710314701</value></backazimuth><phaseHint>P</phaseHint><evaluationMode>automatic</evaluationMode><comment><text>7.383069764766986</text><id>DFX:rectilinearity</id></comment><comment><text>17.131748456769305</text><id>SNR</id></comment></pick><pick publicID="de.gempa.tb1.Pick/20250413132857.61674.131450"><time><value>2025-04-13T13:28:50.298393Z</value></time><waveformID networkCode="CX" stationCode="PB02" channelCode="HHN"/><filterID>ITAPER(2)&gt;&gt;BW(3,3,20)</filterID><methodID>L2-AIC-GRID</methodID><horizontalSlowness><value>19.083319089555712</value></horizontalSlowness><backazimuth><value>16.06466320107549</value></backazimuth><phaseHint>S</phaseHint><evaluationMode>automatic</evaluationMode><comment><text>394.14598010304843</text><id>DFX:rectilinearity</id></comment><comment><text>de.gempa.tb1.Pick/20250413132848.602254.131444</text><id>RefPickID</id></comment><comment><text>6.292030360084506</text><id>SNR</id></comment></pick><pick publicID="de.gempa.tb1.Pick/20250413132859.711689.131452"><time><value>2025-04-13T13:28:52.340001Z</value></time><waveformID networkCode="CX" stationCode="PB09" channelCode="HHZ"/><filterID>ITAPER(4)&gt;&gt;BW(4,4,20)</filterID><methodID>AIC</methodID><horizontalSlowness><value>16.941116421014115</value></horizontalSlowness><backazimuth><value>252.2354189019695</value></backazimuth><phaseHint>P</phaseHint><evaluationMode>automatic</evaluationMode><comment><text>12.315190256840433</text><id>DFX:rectilinearity</id></comment><comment><text>19.651105860385083</text><id>SNR</id></comment></pick><pick publicID="de.gempa.tb1.Pick/20250413132902.030691.131455"><time><value>2025-04-13T13:28:46.328394Z</value></time><waveformID networkCode="CX" stationCode="PB07" channelCode="HHZ"/><filterID>ITAPER(4)&gt;&gt;BW(4,4,20)</filterID><methodID>AIC</methodID><horizontalSlowness><value>22.731825412482134</value></horizontalSlowness><backazimuth><value>86.63119021821136</value></backazimuth><phaseHint>P</phaseHint><evaluationMode>automatic</evaluationMode><comment><text>309.30634377626313</text><id>DFX:rectilinearity</id></comment><comment><text>11.607678532686675</text><id>SNR</id></comment></pick><pick publicID="de.gempa.tb1.Pick/20250413132903.572428.131457"><time><value>2025-04-13T13:28:56.618394Z</value></time><waveformID networkCode="CX" stationCode="PB01" channelCode="HHN"/><filterID>ITAPER(2)&gt;&gt;BW(3,3,20)</filterID><methodID>L2-AIC-GRID</methodID><horizontalSlowness><value>19.852581189039757</value></horizontalSlowness><backazimuth><value>82.24736902976467</value></backazimuth><phaseHint>S</phaseHint><evaluationMode>automatic</evaluationMode><comment><text>284.24316161675375</text><id>DFX:rectilinearity</id></comment><comment><text>de.gempa.tb1.Pick/20250413132853.543458.131446</text><id>RefPickID</id></comment><comment><text>15.310087140824962</text><id>SNR</id></comment></pick><pick publicID="de.gempa.tb1.Pick/20250413132905.139094.131460"><time><value>2025-04-13T13:28:54.918394Z</value></time><waveformID networkCode="CX" stationCode="PB07" channelCode="HHN"/><filterID>ITAPER(2)&gt;&gt;BW(3,3,20)</filterID><methodID>L2-AIC-GRID</methodID><horizontalSlowness><value>22.011796850653024</value></horizontalSlowness><backazimuth><value>127.47228917872621</value></backazimuth><phaseHint>S</phaseHint><evaluationMode>automatic</evaluationMode><comment><text>932.4042078052959</text><id>DFX:rectilinearity</id></comment><comment><text>de.gempa.tb1.Pick/20250413132902.030691.131455</text><id>RefPickID</id></comment><comment><text>5.122103323104928</text><id>SNR</id></comment></pick><pick publicID="de.gempa.tb1.Pick/20250413132909.794426.131461"><time><value>2025-04-13T13:29:02.038394Z</value></time><waveformID networkCode="CX" stationCode="PB03" channelCode="HHN"/><filterID>ITAPER(2)&gt;&gt;BW(3,3,20)</filterID><methodID>L2-AIC-GRID</methodID><horizontalSlowness><value>22.130377414558527</value></horizontalSlowness><backazimuth><value>65.95737143344444</value></backazimuth><phaseHint>S</phaseHint><evaluationMode>automatic</evaluationMode><comment><text>27.67589644676976</text><id>DFX:rectilinearity</id></comment><comment><text>de.gempa.tb1.Pick/20250413132856.536719.131448</text><id>RefPickID</id></comment><comment><text>5.208771204973778</text><id>SNR</id></comment></pick><origin publicID="de.gempa.tb1.Origin/20250413132909.797923.111279"><time><value>2025-04-13T13:28:35.153314Z</value><uncertainty>1.27460515499115</uncertainty></time><latitude><value>-21.27797508239746</value><uncertainty>4.960922718048096</uncertainty></latitude><longitude><value>-70.03946685791016</value><uncertainty>10.17551326751709</uncertainty></longitude><depth><value>54.77395629882812</value><uncertainty>6.536171913146973</uncertainty></depth><depthType>from location</depthType><methodID>LOCSAT</methodID><earthModelID>iasp91_scanloc</earthModelID><quality><associatedPhaseCount>9</associatedPhaseCount><usedPhaseCount>9</usedPhaseCount><associatedStationCount>5</associatedStationCount><usedStationCount>5</usedStationCount><depthPhaseCount>0</depthPhaseCount><standardError>0.24147765365638785</standardError><azimuthalGap>263.4166488647461</azimuthalGap><maximumDistance>0.9041327238082886</maximumDistance><minimumDistance>0.14006537199020386</minimumDistance><medianDistance>0.5657618641853333</medianDistance></quality><uncertainty><minHorizontalUncertainty>7.952426433563232</minHorizontalUncertainty><maxHorizontalUncertainty>22.93486022949219</maxHorizontalUncertainty><azimuthMaxHorizontalUncertainty>109.1742172241211</azimuthMaxHorizontalUncertainty><preferredDescription>horizontal uncertainty</preferredDescription></uncertainty><evaluationMode>automatic</evaluationMode><evaluationStatus>confirmed</evaluationStatus><comment><text>0.14</text><id>mismatchScore</id></comment><comment><text>mismatchScore</text><id>scevalMethod</id></comment><arrival><pickID>de.gempa.tb1.Pick/20250413132848.602254.131444</pickID><phase>P</phase><azimuth>107.28192138671875</azimuth><distance>0.14006537199020386</distance><timeResidual>-0.031780242919921875</timeResidual><timeUsed>true</timeUsed><horizontalSlownessUsed>false</horizontalSlownessUsed><backazimuthUsed>false</backazimuthUsed><weight>1</weight></arrival><arrival><pickID>de.gempa.tb1.Pick/20250413132853.543458.131446</pickID><phase>P</phase><azimuth>65.7147445678711</azimuth><distance>0.5657618641853333</distance><timeResidual>-0.09011363983154297</timeResidual><timeUsed>true</timeUsed><horizontalSlownessUsed>false</horizontalSlownessUsed><backazimuthUsed>false</backazimuthUsed><weight>1</weight></arrival><arrival><pickID>de.gempa.tb1.Pick/20250413132856.536719.131448</pickID><phase>P</phase><azimuth>160.89361572265625</azimuth><distance>0.8116868734359741</distance><timeResidual>-0.17634868621826172</timeResidual><timeUsed>true</timeUsed><horizontalSlownessUsed>false</horizontalSlownessUsed><backazimuthUsed>false</backazimuthUsed><weight>1</weight></arrival><arrival><pickID>de.gempa.tb1.Pick/20250413132857.61674.131450</pickID><phase>S</phase><azimuth>107.28192138671875</azimuth><distance>0.14006537199020386</distance><timeResidual>0.1903972625732422</timeResidual><timeUsed>true</timeUsed><horizontalSlownessUsed>false</horizontalSlownessUsed><backazimuthUsed>false</backazimuthUsed><weight>1</weight></arrival><arrival><pickID>de.gempa.tb1.Pick/20250413132859.711689.131452</pickID><phase>P</phase><azimuth>124.93408966064453</azimuth><distance>0.9041327238082886</distance><timeResidual>0.5840797424316406</timeResidual><timeUsed>true</timeUsed><horizontalSlownessUsed>false</horizontalSlownessUsed><backazimuthUsed>false</backazimuthUsed><weight>1</weight></arrival><arrival><pickID>de.gempa.tb1.Pick/20250413132902.030691.131455</pickID><phase>P</phase><azimuth>162.298095703125</azimuth><distance>0.4687550961971283</distance><timeResidual>-0.07384300231933594</timeResidual><timeUsed>true</timeUsed><horizontalSlownessUsed>false</horizontalSlownessUsed><backazimuthUsed>false</backazimuthUsed><weight>1</weight></arrival><arrival><pickID>de.gempa.tb1.Pick/20250413132903.572428.131457</pickID><phase>S</phase><azimuth>65.7147445678711</azimuth><distance>0.5657618641853333</distance><timeResidual>-0.21809005737304688</timeResidual><timeUsed>true</timeUsed><horizontalSlownessUsed>false</horizontalSlownessUsed><backazimuthUsed>false</backazimuthUsed><weight>1</weight></arrival><arrival><pickID>de.gempa.tb1.Pick/20250413132905.139094.131460</pickID><phase>S</phase><azimuth>162.298095703125</azimuth><distance>0.4687550961971283</distance><timeResidual>0.04399394989013672</timeResidual><timeUsed>true</timeUsed><horizontalSlownessUsed>false</horizontalSlownessUsed><backazimuthUsed>false</backazimuthUsed><weight>1</weight></arrival><arrival><pickID>de.gempa.tb1.Pick/20250413132909.794426.131461</pickID><phase>S</phase><azimuth>160.89361572265625</azimuth><distance>0.8116868734359741</distance><timeResidual>-0.22852134704589844</timeResidual><timeUsed>true</timeUsed><horizontalSlownessUsed>false</horizontalSlownessUsed><backazimuthUsed>false</backazimuthUsed><weight>1</weight></arrival><magnitude publicID="de.gempa.tb1.Magnitude/20250413132926.465747.362133"><magnitude><value>1.9465391257617917</value></magnitude><type>M</type><methodID>weighted average</methodID><stationCount>5</stationCount></magnitude></origin><event publicID="gempa2025hhlf"><preferredOriginID>de.gempa.tb1.Origin/20250413132909.797923.111279</preferredOriginID><preferredMagnitudeID>de.gempa.tb1.Magnitude/20250413132926.465747.362133</preferredMagnitudeID><description><text>Near Coast of Northern Chile</text><type>region name</type></description><originReference>de.gempa.tb1.Origin/20250413132909.797923.111279</originReference></event></EventParameters></seiscomp>