<?xml version="1.0" encoding="UTF-8"?>
<seiscomp xmlns="http://geofon.gfz-potsdam.de/ns/seiscomp3-schema/0.13" version="0.13"><EventParameters><pick publicID="de.gempa.tb1.Pick/20250411202754.477344.132610"><time><value>2025-04-11T20:27:48.2675Z</value></time><waveformID networkCode="SX" stationCode="WERN" channelCode="HHZ"/><filterID>ITAPER(2)&gt;&gt;BW(3,3,20)</filterID><methodID>AIC</methodID><horizontalSlowness><value>23.080105985599264</value></horizontalSlowness><backazimuth><value>167.44873432185486</value></backazimuth><phaseHint>P</phaseHint><evaluationMode>automatic</evaluationMode><comment><text>19.507548041778666</text><id>DFX:rectilinearity</id></comment></pick><pick publicID="de.gempa.tb1.Pick/20250411202755.587882.132612"><time><value>2025-04-11T20:27:48.43Z</value></time><waveformID networkCode="SX" stationCode="WERD" channelCode="HHZ"/><filterID>ITAPER(2)&gt;&gt;BW(3,3,20)</filterID><methodID>AIC</methodID><horizontalSlowness><value>23.54638245542425</value></horizontalSlowness><backazimuth><value>262.56651989623293</value></backazimuth><phaseHint>P</phaseHint><evaluationMode>automatic</evaluationMode><comment><text>8.729515012902535</text><id>DFX:rectilinearity</id></comment></pick><pick publicID="de.gempa.tb1.Pick/20250411202755.833516.132614"><time><value>2025-04-11T20:27:48.01Z</value></time><waveformID networkCode="SX" stationCode="GUNZ" channelCode="HHZ"/><filterID>ITAPER(2)&gt;&gt;BW(3,3,20)</filterID><methodID>AIC</methodID><horizontalSlowness><value>21.777923884277303</value></horizontalSlowness><backazimuth><value>304.45630971651133</value></backazimuth><phaseHint>P</phaseHint><evaluationMode>automatic</evaluationMode><comment><text>10.361134137137407</text><id>DFX:rectilinearity</id></comment></pick><pick publicID="de.gempa.tb1.Pick/20250411202756.522594.132616"><time><value>2025-04-11T20:27:49.88Z</value></time><waveformID networkCode="SX" stationCode="TRIB" channelCode="HHZ"/><filterID>ITAPER(2)&gt;&gt;BW(3,3,20)</filterID><methodID>AIC</methodID><horizontalSlowness><value>22.565151431312593</value><uncertainty>3.664394781207258</uncertainty></horizontalSlowness><backazimuth><value>304.27058708191805</value><uncertainty>9.314616834466698</uncertainty></backazimuth><phaseHint>P</phaseHint><evaluationMode>automatic</evaluationMode><comment><text>0.9627982268333233</text><id>DFX:rectilinearity</id></comment></pick><pick publicID="de.gempa.tb1.Pick/20250411202756.71216.132618"><time><value>2025-04-11T20:27:50.56Z</value></time><waveformID networkCode="SX" stationCode="WERD" channelCode="HHN"/><filterID>ITAPER(3)&gt;&gt;BW(4,3,10)</filterID><methodID>L2-AIC-GRID</methodID><horizontalSlowness><value>23.21495285002189</value></horizontalSlowness><backazimuth><value>261.4943782456708</value></backazimuth><phaseHint>S</phaseHint><evaluationMode>automatic</evaluationMode><comment><text>8.906006690703466</text><id>DFX:rectilinearity</id></comment><comment><text>de.gempa.tb1.Pick/20250411202755.587882.132612</text><id>RefPickID</id></comment></pick><pick publicID="de.gempa.tb1.Pick/20250411202756.847071.132619"><time><value>2025-04-11T20:27:47.27Z</value></time><waveformID networkCode="SX" stationCode="TANN" channelCode="HHZ"/><filterID>ITAPER(2)&gt;&gt;BW(3,3,20)</filterID><methodID>AIC</methodID><horizontalSlowness><value>20.62147150559876</value></horizontalSlowness><backazimuth><value>349.28159642471155</value></backazimuth><phaseHint>P</phaseHint><evaluationMode>automatic</evaluationMode><comment><text>14.849292634815205</text><id>DFX:rectilinearity</id></comment></pick><pick publicID="de.gempa.tb1.Pick/20250411202757.337648.132621"><time><value>2025-04-11T20:27:47.46Z</value></time><waveformID networkCode="SX" stationCode="MULD" channelCode="HHZ"/><filterID>ITAPER(2)&gt;&gt;BW(3,3,20)</filterID><methodID>AIC</methodID><horizontalSlowness><value>20.840564872006734</value></horizontalSlowness><backazimuth><value>299.06500557205106</value></backazimuth><phaseHint>P</phaseHint><evaluationMode>automatic</evaluationMode><comment><text>6.650629866971917</text><id>DFX:rectilinearity</id></comment></pick><pick publicID="de.gempa.tb1.Pick/20250411202802.621086.132623"><time><value>2025-04-11T20:27:49.0000Z</value></time><waveformID networkCode="SX" stationCode="MULD" channelCode="HHN"/><filterID>ITAPER(3)&gt;&gt;BW(4,3,10)</filterID><methodID>L2-AIC-GRID</methodID><horizontalSlowness><value>20.77710173337504</value></horizontalSlowness><backazimuth><value>299.3724829208139</value></backazimuth><phaseHint>S</phaseHint><evaluationMode>automatic</evaluationMode><comment><text>6.554521723323691</text><id>DFX:rectilinearity</id></comment><comment><text>de.gempa.tb1.Pick/20250411202757.337648.132621</text><id>RefPickID</id></comment></pick><pick publicID="de.gempa.tb1.Pick/20250411202803.133608.132624"><time><value>2025-04-11T20:27:50.1975Z</value></time><waveformID networkCode="SX" stationCode="WERN" channelCode="HHN"/><filterID>ITAPER(3)&gt;&gt;BW(4,3,10)</filterID><methodID>L2-AIC-GRID</methodID><horizontalSlowness><value>23.199764627012307</value></horizontalSlowness><backazimuth><value>166.10702076385104</value></backazimuth><phaseHint>S</phaseHint><evaluationMode>automatic</evaluationMode><comment><text>18.529356263293415</text><id>DFX:rectilinearity</id></comment><comment><text>de.gempa.tb1.Pick/20250411202754.477344.132610</text><id>RefPickID</id></comment></pick><pick publicID="de.gempa.tb1.Pick/20250411202803.151667.132627"><time><value>2025-04-11T20:27:48.61Z</value></time><waveformID networkCode="SX" stationCode="TANN" channelCode="HHN"/><filterID>ITAPER(3)&gt;&gt;BW(4,3,10)</filterID><methodID>L2-AIC-GRID</methodID><horizontalSlowness><value>20.637396908889087</value></horizontalSlowness><backazimuth><value>349.5535765509054</value></backazimuth><phaseHint>S</phaseHint><evaluationMode>automatic</evaluationMode><comment><text>15.05106232491154</text><id>DFX:rectilinearity</id></comment><comment><text>de.gempa.tb1.Pick/20250411202756.847071.132619</text><id>RefPickID</id></comment></pick><pick publicID="de.gempa.tb1.Pick/20250411202805.224647.132628"><time><value>2025-04-11T20:27:53.01Z</value></time><waveformID networkCode="SX" stationCode="TRIB" channelCode="HHN"/><filterID>ITAPER(3)&gt;&gt;BW(4,3,10)</filterID><methodID>L2-AIC-GRID</methodID><horizontalSlowness><value>15.870154755428143</value></horizontalSlowness><backazimuth><value>303.90590771004975</value></backazimuth><phaseHint>S</phaseHint><evaluationMode>automatic</evaluationMode><comment><text>1.727646709075671</text><id>DFX:rectilinearity</id></comment><comment><text>de.gempa.tb1.Pick/20250411202756.522594.132616</text><id>RefPickID</id></comment></pick><pick publicID="de.gempa.tb1.Pick/20250411202855.692433.132657"><time><value>2025-04-11T20:28:49.85Z</value></time><waveformID networkCode="PL" stationCode="GKP" channelCode="HHZ"/><filterID>ITAPER(2)&gt;&gt;BW(3,3,20)</filterID><methodID>AIC</methodID><horizontalSlowness><value>12.094587866729318</value></horizontalSlowness><backazimuth><value>323.11904792403845</value></backazimuth><phaseHint>P</phaseHint><evaluationMode>automatic</evaluationMode><comment><text>16.408859451155305</text><id>DFX:rectilinearity</id></comment></pick><origin publicID="de.gempa.tb1.Origin/20250411202858.679416.64253"><time><value>2025-04-11T20:27:45.707146Z</value><uncertainty>0.5732200741767883</uncertainty></time><latitude><value>50.37175750732422</value><uncertainty>2.0182580947875977</uncertainty></latitude><longitude><value>12.43021297454834</value><uncertainty>2.8863134384155273</uncertainty></longitude><depth><value>5.101487159729004</value><uncertainty>2.933156728744507</uncertainty></depth><depthType>from location</depthType><methodID>LOCSAT</methodID><earthModelID>iasp91</earthModelID><quality><associatedPhaseCount>12</associatedPhaseCount><usedPhaseCount>12</usedPhaseCount><associatedStationCount>7</associatedStationCount><usedStationCount>7</usedStationCount><depthPhaseCount>0</depthPhaseCount><standardError>0.18221139830074656</standardError><azimuthalGap>158.42350387573242</azimuthalGap><maximumDistance>4.1605634689331055</maximumDistance><minimumDistance>0.04348627105355263</minimumDistance><medianDistance>0.09130457788705826</medianDistance></quality><uncertainty><minHorizontalUncertainty>3.785672903060913</minHorizontalUncertainty><maxHorizontalUncertainty>6.533445358276367</maxHorizontalUncertainty><azimuthMaxHorizontalUncertainty>113.17774963378906</azimuthMaxHorizontalUncertainty><preferredDescription>horizontal uncertainty</preferredDescription></uncertainty><evaluationMode>automatic</evaluationMode><evaluationStatus>confirmed</evaluationStatus><comment><text>0.84</text><id>mismatchScore</id></comment><comment><text>extendedGap</text><id>scevalMethod</id></comment><arrival><pickID>de.gempa.tb1.Pick/20250411202754.477344.132610</pickID><phase>P</phase><azimuth>202.344970703125</azimuth><distance>0.09130457788705826</distance><timeResidual>0.012015461921691895</timeResidual><timeUsed>true</timeUsed><horizontalSlownessUsed>false</horizontalSlownessUsed><backazimuthUsed>false</backazimuthUsed><weight>1</weight></arrival><arrival><pickID>de.gempa.tb1.Pick/20250411202755.587882.132612</pickID><phase>P</phase><azimuth>314.1256103515625</azimuth><distance>0.10973898321390152</distance><timeResidual>-0.16226255893707275</timeResidual><timeUsed>true</timeUsed><horizontalSlownessUsed>false</horizontalSlownessUsed><backazimuthUsed>false</backazimuthUsed><weight>1</weight></arrival><arrival><pickID>de.gempa.tb1.Pick/20250411202755.833516.132614</pickID><phase>P</phase><azimuth>262.57806396484375</azimuth><distance>0.06369055062532425</distance><timeResidual>0.25969302654266357</timeResidual><timeUsed>true</timeUsed><horizontalSlownessUsed>false</horizontalSlownessUsed><backazimuthUsed>false</backazimuthUsed><weight>1</weight></arrival><arrival><pickID>de.gempa.tb1.Pick/20250411202756.522594.132616</pickID><phase>P</phase><azimuth>264.09979248046875</azimuth><distance>0.18883450329303741</distance><timeResidual>-0.15898430347442627</timeResidual><timeUsed>true</timeUsed><horizontalSlownessUsed>false</horizontalSlownessUsed><backazimuthUsed>false</backazimuthUsed><weight>1</weight></arrival><arrival><pickID>de.gempa.tb1.Pick/20250411202756.71216.132618</pickID><phase>S</phase><azimuth>314.1256103515625</azimuth><distance>0.10973898321390152</distance><timeResidual>-0.12878119945526123</timeResidual><timeUsed>true</timeUsed><horizontalSlownessUsed>false</horizontalSlownessUsed><backazimuthUsed>false</backazimuthUsed><weight>1</weight></arrival><arrival><pickID>de.gempa.tb1.Pick/20250411202756.847071.132619</pickID><phase>P</phase><azimuth>24.459779739379883</azimuth><distance>0.04757025465369225</distance><timeResidual>-0.18538343906402588</timeResidual><timeUsed>true</timeUsed><horizontalSlownessUsed>false</horizontalSlownessUsed><backazimuthUsed>false</backazimuthUsed><weight>1</weight></arrival><arrival><pickID>de.gempa.tb1.Pick/20250411202757.337648.132621</pickID><phase>P</phase><azimuth>337.2236022949219</azimuth><distance>0.04348627105355263</distance><timeResidual>0.07929813861846924</timeResidual><timeUsed>true</timeUsed><horizontalSlownessUsed>false</horizontalSlownessUsed><backazimuthUsed>false</backazimuthUsed><weight>1</weight></arrival><arrival><pickID>de.gempa.tb1.Pick/20250411202802.621086.132623</pickID><phase>S</phase><azimuth>337.2236022949219</azimuth><distance>0.04348627105355263</distance><timeResidual>0.4027668237686157</timeResidual><timeUsed>true</timeUsed><horizontalSlownessUsed>false</horizontalSlownessUsed><backazimuthUsed>false</backazimuthUsed><weight>1</weight></arrival><arrival><pickID>de.gempa.tb1.Pick/20250411202803.133608.132624</pickID><phase>S</phase><azimuth>202.344970703125</azimuth><distance>0.09130457788705826</distance><timeResidual>0.09005391597747803</timeResidual><timeUsed>true</timeUsed><horizontalSlownessUsed>false</horizontalSlownessUsed><backazimuthUsed>false</backazimuthUsed><weight>1</weight></arrival><arrival><pickID>de.gempa.tb1.Pick/20250411202803.151667.132627</pickID><phase>S</phase><azimuth>24.459779739379883</azimuth><distance>0.04757025465369225</distance><timeResidual>-0.1161576509475708</timeResidual><timeUsed>true</timeUsed><horizontalSlownessUsed>false</horizontalSlownessUsed><backazimuthUsed>false</backazimuthUsed><weight>1</weight></arrival><arrival><pickID>de.gempa.tb1.Pick/20250411202805.224647.132628</pickID><phase>S</phase><azimuth>264.09979248046875</azimuth><distance>0.18883450329303741</distance><timeResidual>-0.17634379863739014</timeResidual><timeUsed>true</timeUsed><horizontalSlownessUsed>false</horizontalSlownessUsed><backazimuthUsed>false</backazimuthUsed><weight>1</weight></arrival><arrival><pickID>de.gempa.tb1.Pick/20250411202855.692433.132657</pickID><phase>P</phase><azimuth>43.92146682739258</azimuth><distance>4.1605634689331055</distance><timeResidual>0.08403313159942627</timeResidual><timeUsed>true</timeUsed><horizontalSlownessUsed>false</horizontalSlownessUsed><backazimuthUsed>false</backazimuthUsed><weight>1</weight></arrival><magnitude publicID="de.gempa.tb1.Magnitude/20250411202858.689439.140120"><magnitude><value>0.09370295444278717</value></magnitude><type>M</type><methodID>weighted average</methodID><stationCount>6</stationCount></magnitude></origin><event publicID="gempa2025hehd"><preferredOriginID>de.gempa.tb1.Origin/20250411202858.679416.64253</preferredOriginID><preferredMagnitudeID>de.gempa.tb1.Magnitude/20250411202858.689439.140120</preferredMagnitudeID><description><text>Germany</text><type>region name</type></description><originReference>de.gempa.tb1.Origin/20250411202858.679416.64253</originReference></event></EventParameters></seiscomp>