<?xml version="1.0" encoding="UTF-8"?>
<seiscomp xmlns="http://geofon.gfz-potsdam.de/ns/seiscomp3-schema/0.13" version="0.13"><EventParameters><pick publicID="de.gempa.tb1.Pick/20250414234157.576826.142138"><time><value>2025-04-14T23:41:52.368393Z</value></time><waveformID networkCode="CX" stationCode="PB01" channelCode="HHZ"/><filterID>ITAPER(4)&gt;&gt;BW(4,4,20)</filterID><methodID>AIC</methodID><horizontalSlowness><value>5.83151742200956</value></horizontalSlowness><backazimuth><value>116.16566394811727</value></backazimuth><phaseHint>P</phaseHint><evaluationMode>automatic</evaluationMode><comment><text>80.50588172728014</text><id>DFX:rectilinearity</id></comment><comment><text>177.24411807335179</text><id>SNR</id></comment></pick><pick publicID="de.gempa.tb1.Pick/20250414234159.627848.142140"><time><value>2025-04-14T23:41:53.058393Z</value></time><waveformID networkCode="CX" stationCode="PB03" channelCode="HHZ"/><filterID>ITAPER(4)&gt;&gt;BW(4,4,20)</filterID><methodID>AIC</methodID><horizontalSlowness><value>8.974452832172535</value></horizontalSlowness><backazimuth><value>83.2755947542382</value></backazimuth><phaseHint>P</phaseHint><evaluationMode>automatic</evaluationMode><comment><text>162.89735620879384</text><id>DFX:rectilinearity</id></comment><comment><text>103.07344443520799</text><id>SNR</id></comment></pick><pick publicID="de.gempa.tb1.Pick/20250414234200.543795.142142"><time><value>2025-04-14T23:41:54.778393Z</value></time><waveformID networkCode="CX" stationCode="PB02" channelCode="HHZ"/><filterID>ITAPER(4)&gt;&gt;BW(4,4,20)</filterID><methodID>AIC</methodID><horizontalSlowness><value>5.830262745241797</value></horizontalSlowness><backazimuth><value>107.96914115534702</value></backazimuth><phaseHint>P</phaseHint><evaluationMode>automatic</evaluationMode><comment><text>295.86044126473013</text><id>DFX:rectilinearity</id></comment><comment><text>136.18660491601142</text><id>SNR</id></comment></pick><pick publicID="de.gempa.tb1.Pick/20250414234201.505372.142144"><time><value>2025-04-14T23:41:54.678393Z</value></time><waveformID networkCode="CX" stationCode="PB06" channelCode="HHZ"/><filterID>ITAPER(4)&gt;&gt;BW(4,4,20)</filterID><methodID>AIC</methodID><horizontalSlowness><value>8.667897483501143</value></horizontalSlowness><backazimuth><value>74.91062082263713</value></backazimuth><phaseHint>P</phaseHint><evaluationMode>automatic</evaluationMode><comment><text>59.4714933570193</text><id>DFX:rectilinearity</id></comment><comment><text>33.723669109821124</text><id>SNR</id></comment></pick><pick publicID="de.gempa.tb1.Pick/20250414234201.539855.142146"><time><value>2025-04-14T23:41:48.48Z</value></time><waveformID networkCode="CX" stationCode="PB09" channelCode="HHZ"/><filterID>ITAPER(4)&gt;&gt;BW(4,4,20)</filterID><methodID>AIC</methodID><horizontalSlowness><value>17.229123217961487</value></horizontalSlowness><backazimuth><value>90.90810042925368</value></backazimuth><phaseHint>P</phaseHint><evaluationMode>automatic</evaluationMode><comment><text>61.67222927239577</text><id>DFX:rectilinearity</id></comment><comment><text>68.04497059506662</text><id>SNR</id></comment></pick><pick publicID="de.gempa.tb1.Pick/20250414234204.697038.142149"><time><value>2025-04-14T23:41:59.318391Z</value></time><waveformID networkCode="CX" stationCode="PB15" channelCode="HHZ"/><filterID>ITAPER(4)&gt;&gt;BW(4,4,20)</filterID><methodID>AIC</methodID><horizontalSlowness><value>19.905388665745658</value></horizontalSlowness><backazimuth><value>53.68595725051951</value></backazimuth><phaseHint>P</phaseHint><evaluationMode>automatic</evaluationMode><comment><text>158.29688165340016</text><id>DFX:rectilinearity</id></comment><comment><text>10.095415895804495</text><id>SNR</id></comment></pick><pick publicID="de.gempa.tb1.Pick/20250414234207.212866.142151"><time><value>2025-04-14T23:41:59.419999Z</value></time><waveformID networkCode="CX" stationCode="PATCX" channelCode="HHZ"/><filterID>ITAPER(4)&gt;&gt;BW(4,4,20)</filterID><methodID>AIC</methodID><horizontalSlowness><value>22.186024883496536</value></horizontalSlowness><backazimuth><value>92.16449279538554</value></backazimuth><phaseHint>P</phaseHint><evaluationMode>automatic</evaluationMode><comment><text>128.00514103424723</text><id>DFX:rectilinearity</id></comment><comment><text>42.252973944281237</text><id>SNR</id></comment></pick><pick publicID="de.gempa.tb1.Pick/20250414234207.621805.142153"><time><value>2025-04-14T23:41:59.288393Z</value></time><waveformID networkCode="CX" stationCode="PB08" channelCode="HHZ"/><filterID>ITAPER(4)&gt;&gt;BW(4,4,20)</filterID><methodID>AIC</methodID><horizontalSlowness><value>14.46748671492984</value></horizontalSlowness><backazimuth><value>206.3820007340511</value></backazimuth><phaseHint>P</phaseHint><evaluationMode>automatic</evaluationMode><comment><text>45.80208117198283</text><id>DFX:rectilinearity</id></comment><comment><text>8.557513224212228</text><id>SNR</id></comment></pick><pick publicID="de.gempa.tb1.Pick/20250414234215.592643.142158"><time><value>2025-04-14T23:42:09.35Z</value></time><waveformID networkCode="CX" stationCode="PSGCX" channelCode="HHZ"/><filterID>ITAPER(4)&gt;&gt;BW(4,4,20)</filterID><methodID>AIC</methodID><horizontalSlowness><value>18.842917127003613</value></horizontalSlowness><backazimuth><value>104.31301493100712</value></backazimuth><phaseHint>P</phaseHint><evaluationMode>automatic</evaluationMode><comment><text>20.161350945437938</text><id>DFX:rectilinearity</id></comment><comment><text>26.252964373117866</text><id>SNR</id></comment></pick><pick publicID="de.gempa.tb1.Pick/20250414234218.77397.142160"><time><value>2025-04-14T23:42:11.788393Z</value></time><waveformID networkCode="CX" stationCode="PB01" channelCode="HHN"/><filterID>ITAPER(2)&gt;&gt;BW(3,3,20)</filterID><methodID>L2-AIC-GRID</methodID><horizontalSlowness><value>15.841544042813238</value></horizontalSlowness><backazimuth><value>351.36883103648984</value></backazimuth><phaseHint>S</phaseHint><evaluationMode>automatic</evaluationMode><comment><text>7867.575826477091</text><id>DFX:rectilinearity</id></comment><comment><text>de.gempa.tb1.Pick/20250414234157.576826.142138</text><id>RefPickID</id></comment><comment><text>13.528287198348158</text><id>SNR</id></comment></pick><pick publicID="de.gempa.tb1.Pick/20250414234218.774953.142161"><time><value>2025-04-14T23:42:12.648393Z</value></time><waveformID networkCode="CX" stationCode="PB03" channelCode="HHN"/><filterID>ITAPER(2)&gt;&gt;BW(3,3,20)</filterID><methodID>L2-AIC-GRID</methodID><horizontalSlowness><value>13.709519425014797</value></horizontalSlowness><backazimuth><value>237.611675349893</value></backazimuth><phaseHint>S</phaseHint><evaluationMode>automatic</evaluationMode><comment><text>3442.3400964050866</text><id>DFX:rectilinearity</id></comment><comment><text>de.gempa.tb1.Pick/20250414234159.627848.142140</text><id>RefPickID</id></comment><comment><text>7.402204025105059</text><id>SNR</id></comment></pick><pick publicID="de.gempa.tb1.Pick/20250414234222.657917.142162"><time><value>2025-04-14T23:42:15.738393Z</value></time><waveformID networkCode="CX" stationCode="PB02" channelCode="HHN"/><filterID>ITAPER(2)&gt;&gt;BW(3,3,20)</filterID><methodID>L2-AIC-GRID</methodID><horizontalSlowness><value>19.590057746045996</value></horizontalSlowness><backazimuth><value>8.939692266675848</value></backazimuth><phaseHint>S</phaseHint><evaluationMode>automatic</evaluationMode><comment><text>13877.844078585113</text><id>DFX:rectilinearity</id></comment><comment><text>de.gempa.tb1.Pick/20250414234200.543795.142142</text><id>RefPickID</id></comment><comment><text>10.80800021970294</text><id>SNR</id></comment></pick><pick publicID="de.gempa.tb1.Pick/20250414234223.679666.142163"><time><value>2025-04-14T23:42:15.978393Z</value></time><waveformID networkCode="CX" stationCode="PB06" channelCode="HHN"/><filterID>ITAPER(2)&gt;&gt;BW(3,3,20)</filterID><methodID>L2-AIC-GRID</methodID><horizontalSlowness><value>23.21799601627706</value></horizontalSlowness><backazimuth><value>149.04524523163693</value></backazimuth><phaseHint>S</phaseHint><evaluationMode>automatic</evaluationMode><comment><text>2112.6083406784733</text><id>DFX:rectilinearity</id></comment><comment><text>de.gempa.tb1.Pick/20250414234201.505372.142144</text><id>RefPickID</id></comment><comment><text>11.998722677792093</text><id>SNR</id></comment></pick><pick publicID="de.gempa.tb1.Pick/20250414234232.235473.142169"><time><value>2025-04-14T23:42:23.258391Z</value></time><waveformID networkCode="CX" stationCode="PB15" channelCode="HHN"/><filterID>ITAPER(2)&gt;&gt;BW(3,3,20)</filterID><methodID>L2-AIC-GRID</methodID><horizontalSlowness><value>22.9943128271403</value></horizontalSlowness><backazimuth><value>122.63435929283006</value></backazimuth><phaseHint>S</phaseHint><evaluationMode>automatic</evaluationMode><comment><text>61547.34555839122</text><id>DFX:rectilinearity</id></comment><comment><text>de.gempa.tb1.Pick/20250414234204.697038.142149</text><id>RefPickID</id></comment><comment><text>13.521901553795734</text><id>SNR</id></comment></pick><pick publicID="de.gempa.tb1.Pick/20250414234233.297006.142173"><time><value>2025-04-14T23:42:24.199999Z</value></time><waveformID networkCode="CX" stationCode="PATCX" channelCode="HHN"/><filterID>ITAPER(2)&gt;&gt;BW(3,3,20)</filterID><methodID>L2-AIC-GRID</methodID><horizontalSlowness><value>21.205647643331709</value></horizontalSlowness><backazimuth><value>19.97236465831594</value></backazimuth><phaseHint>S</phaseHint><evaluationMode>automatic</evaluationMode><comment><text>4439.520778044065</text><id>DFX:rectilinearity</id></comment><comment><text>de.gempa.tb1.Pick/20250414234207.212866.142151</text><id>RefPickID</id></comment><comment><text>12.727650634748754</text><id>SNR</id></comment></pick><pick publicID="de.gempa.tb1.Pick/20250414234234.107518.142175"><time><value>2025-04-14T23:42:23.428393Z</value></time><waveformID networkCode="CX" stationCode="PB08" channelCode="HHN"/><filterID>ITAPER(2)&gt;&gt;BW(3,3,20)</filterID><methodID>L2-AIC-GRID</methodID><horizontalSlowness><value>15.528295318466043</value></horizontalSlowness><backazimuth><value>207.36090997636188</value></backazimuth><phaseHint>S</phaseHint><evaluationMode>automatic</evaluationMode><comment><text>231.6375390664738</text><id>DFX:rectilinearity</id></comment><comment><text>de.gempa.tb1.Pick/20250414234207.621805.142153</text><id>RefPickID</id></comment><comment><text>10.838319330999944</text><id>SNR</id></comment></pick><origin publicID="de.gempa.tb1.Origin/20250414234234.115566.154868"><time><value>2025-04-14T23:41:27.939236Z</value><uncertainty>0.790361762046814</uncertainty></time><latitude><value>-21.74298858642578</value><uncertainty>2.7861783504486084</uncertainty></latitude><longitude><value>-68.5783462524414</value><uncertainty>9.421965599060059</uncertainty></longitude><depth><value>141.50994873046875</value><uncertainty>10.343429565429688</uncertainty></depth><depthType>from location</depthType><methodID>LOCSAT</methodID><earthModelID>iasp91_scanloc</earthModelID><quality><associatedPhaseCount>16</associatedPhaseCount><usedPhaseCount>16</usedPhaseCount><associatedStationCount>9</associatedStationCount><usedStationCount>9</usedStationCount><depthPhaseCount>0</depthPhaseCount><standardError>0.3269212346718225</standardError><azimuthalGap>228.08465576171875</azimuthalGap><maximumDistance>2.5787904262542725</maximumDistance><minimumDistance>0.6190994381904602</minimumDistance><medianDistance>1.3287616968154907</medianDistance></quality><uncertainty><minHorizontalUncertainty>5.963341236114502</minHorizontalUncertainty><maxHorizontalUncertainty>20.20047950744629</maxHorizontalUncertainty><azimuthMaxHorizontalUncertainty>89.00846099853516</azimuthMaxHorizontalUncertainty><preferredDescription>horizontal uncertainty</preferredDescription></uncertainty><evaluationMode>automatic</evaluationMode><evaluationStatus>confirmed</evaluationStatus><comment><text>0.14</text><id>mismatchScore</id></comment><comment><text>mismatchScore</text><id>scevalMethod</id></comment><arrival><pickID>de.gempa.tb1.Pick/20250414234157.576826.142138</pickID><phase>P</phase><azimuth>309.2521057128906</azimuth><distance>1.0965982675552368</distance><timeResidual>-0.4257240295410156</timeResidual><timeUsed>true</timeUsed><horizontalSlownessUsed>false</horizontalSlownessUsed><backazimuthUsed>false</backazimuthUsed><weight>1</weight></arrival><arrival><pickID>de.gempa.tb1.Pick/20250414234159.627848.142140</pickID><phase>P</phase><azimuth>254.21290588378906</azimuth><distance>1.1325793266296387</distance><timeResidual>-0.06703948974609375</timeResidual><timeUsed>true</timeUsed><horizontalSlownessUsed>false</horizontalSlownessUsed><backazimuthUsed>false</backazimuthUsed><weight>1</weight></arrival><arrival><pickID>de.gempa.tb1.Pick/20250414234200.543795.142142</pickID><phase>P</phase><azimuth>288.70654296875</azimuth><distance>1.29710853099823</distance><timeResidual>0.03258323669433594</timeResidual><timeUsed>true</timeUsed><horizontalSlownessUsed>false</horizontalSlownessUsed><backazimuthUsed>false</backazimuthUsed><weight>1</weight></arrival><arrival><pickID>de.gempa.tb1.Pick/20250414234201.505372.142144</pickID><phase>P</phase><azimuth>223.6678924560547</azimuth><distance>1.3287616968154907</distance><timeResidual>-0.3812541961669922</timeResidual><timeUsed>true</timeUsed><horizontalSlownessUsed>false</horizontalSlownessUsed><backazimuthUsed>false</backazimuthUsed><weight>1</weight></arrival><arrival><pickID>de.gempa.tb1.Pick/20250414234201.539855.142146</pickID><phase>P</phase><azimuth>264.95458984375</azimuth><distance>0.6190994381904602</distance><timeResidual>-0.5219764709472656</timeResidual><timeUsed>true</timeUsed><horizontalSlownessUsed>false</horizontalSlownessUsed><backazimuthUsed>false</backazimuthUsed><weight>1</weight></arrival><arrival><pickID>de.gempa.tb1.Pick/20250414234204.697038.142149</pickID><phase>P</phase><azimuth>209.3453369140625</azimuth><distance>1.675828218460083</distance><timeResidual>0.5185661315917969</timeResidual><timeUsed>true</timeUsed><horizontalSlownessUsed>false</horizontalSlownessUsed><backazimuthUsed>false</backazimuthUsed><weight>1</weight></arrival><arrival><pickID>de.gempa.tb1.Pick/20250414234207.212866.142151</pickID><phase>P</phase><azimuth>301.7176208496094</azimuth><distance>1.7316081523895264</distance><timeResidual>-0.026828765869140625</timeResidual><timeUsed>true</timeUsed><horizontalSlownessUsed>false</horizontalSlownessUsed><backazimuthUsed>false</backazimuthUsed><weight>1</weight></arrival><arrival><pickID>de.gempa.tb1.Pick/20250414234207.621805.142153</pickID><phase>P</phase><azimuth>341.26068115234375</azimuth><distance>1.6820521354675293</distance><timeResidual>0.3979530334472656</timeResidual><timeUsed>true</timeUsed><horizontalSlownessUsed>false</horizontalSlownessUsed><backazimuthUsed>false</backazimuthUsed><weight>1</weight></arrival><arrival><pickID>de.gempa.tb1.Pick/20250414234215.592643.142158</pickID><phase>P</phase><azimuth>325.60809326171875</azimuth><distance>2.5787904262542725</distance><timeResidual>-0.30770111083984375</timeResidual><timeUsed>true</timeUsed><horizontalSlownessUsed>false</horizontalSlownessUsed><backazimuthUsed>false</backazimuthUsed><weight>1</weight></arrival><arrival><pickID>de.gempa.tb1.Pick/20250414234218.77397.142160</pickID><phase>S</phase><azimuth>309.2521057128906</azimuth><distance>1.0965982675552368</distance><timeResidual>-0.29990577697753906</timeResidual><timeUsed>true</timeUsed><horizontalSlownessUsed>false</horizontalSlownessUsed><backazimuthUsed>false</backazimuthUsed><weight>1</weight></arrival><arrival><pickID>de.gempa.tb1.Pick/20250414234218.774953.142161</pickID><phase>S</phase><azimuth>254.21290588378906</azimuth><distance>1.1325793266296387</distance><timeResidual>-0.0329742431640625</timeResidual><timeUsed>true</timeUsed><horizontalSlownessUsed>false</horizontalSlownessUsed><backazimuthUsed>false</backazimuthUsed><weight>1</weight></arrival><arrival><pickID>de.gempa.tb1.Pick/20250414234222.657917.142162</pickID><phase>S</phase><azimuth>288.70654296875</azimuth><distance>1.29710853099823</distance><timeResidual>0.16492080688476562</timeResidual><timeUsed>true</timeUsed><horizontalSlownessUsed>false</horizontalSlownessUsed><backazimuthUsed>false</backazimuthUsed><weight>1</weight></arrival><arrival><pickID>de.gempa.tb1.Pick/20250414234223.679666.142163</pickID><phase>S</phase><azimuth>223.6678924560547</azimuth><distance>1.3287616968154907</distance><timeResidual>-0.1563129425048828</timeResidual><timeUsed>true</timeUsed><horizontalSlownessUsed>false</horizontalSlownessUsed><backazimuthUsed>false</backazimuthUsed><weight>1</weight></arrival><arrival><pickID>de.gempa.tb1.Pick/20250414234232.235473.142169</pickID><phase>S</phase><azimuth>209.3453369140625</azimuth><distance>1.675828218460083</distance><timeResidual>0.4364280700683594</timeResidual><timeUsed>true</timeUsed><horizontalSlownessUsed>false</horizontalSlownessUsed><backazimuthUsed>false</backazimuthUsed><weight>1</weight></arrival><arrival><pickID>de.gempa.tb1.Pick/20250414234233.297006.142173</pickID><phase>S</phase><azimuth>301.7176208496094</azimuth><distance>1.7316081523895264</distance><timeResidual>0.22208786010742188</timeResidual><timeUsed>true</timeUsed><horizontalSlownessUsed>false</horizontalSlownessUsed><backazimuthUsed>false</backazimuthUsed><weight>1</weight></arrival><arrival><pickID>de.gempa.tb1.Pick/20250414234234.107518.142175</pickID><phase>S</phase><azimuth>341.26068115234375</azimuth><distance>1.6820521354675293</distance><timeResidual>0.4475440979003906</timeResidual><timeUsed>true</timeUsed><horizontalSlownessUsed>false</horizontalSlownessUsed><backazimuthUsed>false</backazimuthUsed><weight>1</weight></arrival><magnitude publicID="de.gempa.tb1.Magnitude/20250414234240.94092.551994"><magnitude><value>2.5994692945587645</value></magnitude><type>M</type><methodID>weighted average</methodID><stationCount>7</stationCount></magnitude></origin><event publicID="gempa2025hkbr"><preferredOriginID>de.gempa.tb1.Origin/20250414234234.115566.154868</preferredOriginID><preferredMagnitudeID>de.gempa.tb1.Magnitude/20250414234240.94092.551994</preferredMagnitudeID><description><text>Chile-Bolivia Border Region</text><type>region name</type></description><originReference>de.gempa.tb1.Origin/20250414234234.115566.154868</originReference></event></EventParameters></seiscomp>