<?xml version="1.0" encoding="UTF-8"?>
<seiscomp xmlns="http://geofon.gfz-potsdam.de/ns/seiscomp3-schema/0.13" version="0.13"><EventParameters><pick publicID="de.gempa.tb1.Pick/20250412015743.589329.121382"><time><value>2025-04-12T01:57:38.878393Z</value></time><waveformID networkCode="CX" stationCode="PB08" channelCode="HHZ"/><filterID>ITAPER(4)&gt;&gt;BW(4,4,20)</filterID><methodID>AIC</methodID><horizontalSlowness><value>15.569060518082225</value></horizontalSlowness><backazimuth><value>211.05182233106223</value></backazimuth><phaseHint>P</phaseHint><evaluationMode>automatic</evaluationMode><comment><text>457.9241812219865</text><id>DFX:rectilinearity</id></comment><comment><text>151.88496379580585</text><id>SNR</id></comment></pick><pick publicID="de.gempa.tb1.Pick/20250412015745.79322.121384"><time><value>2025-04-12T01:57:40.118393Z</value></time><waveformID networkCode="CX" stationCode="PB01" channelCode="HHZ"/><filterID>ITAPER(4)&gt;&gt;BW(4,4,20)</filterID><methodID>AIC</methodID><horizontalSlowness><value>4.0399787354715286</value></horizontalSlowness><backazimuth><value>10.734508585198796</value></backazimuth><phaseHint>P</phaseHint><evaluationMode>automatic</evaluationMode><comment><text>359.3885820922662</text><id>DFX:rectilinearity</id></comment><comment><text>556.0188329462469</text><id>SNR</id></comment></pick><pick publicID="de.gempa.tb1.Pick/20250412015749.520182.121386"><time><value>2025-04-12T01:57:45.188393Z</value></time><waveformID networkCode="CX" stationCode="PB02" channelCode="HHZ"/><filterID>ITAPER(4)&gt;&gt;BW(4,4,20)</filterID><methodID>AIC</methodID><horizontalSlowness><value>3.6754820877843897</value></horizontalSlowness><backazimuth><value>334.4385547367235</value></backazimuth><phaseHint>P</phaseHint><evaluationMode>automatic</evaluationMode><comment><text>2246.488065047099</text><id>DFX:rectilinearity</id></comment><comment><text>258.61544629546643</text><id>SNR</id></comment></pick><pick publicID="de.gempa.tb1.Pick/20250412015752.297734.121388"><time><value>2025-04-12T01:57:44.529999Z</value></time><waveformID networkCode="CX" stationCode="PATCX" channelCode="HHZ"/><filterID>ITAPER(4)&gt;&gt;BW(4,4,20)</filterID><methodID>AIC</methodID><horizontalSlowness><value>22.401882422550724</value></horizontalSlowness><backazimuth><value>70.1247313198503</value></backazimuth><phaseHint>P</phaseHint><evaluationMode>automatic</evaluationMode><comment><text>677.4491978471091</text><id>DFX:rectilinearity</id></comment><comment><text>86.776873009907</text><id>SNR</id></comment></pick><pick publicID="de.gempa.tb1.Pick/20250412015752.577391.121390"><time><value>2025-04-12T01:57:48.0000Z</value></time><waveformID networkCode="CX" stationCode="PSGCX" channelCode="HHZ"/><filterID>ITAPER(4)&gt;&gt;BW(4,4,20)</filterID><methodID>AIC</methodID><horizontalSlowness><value>8.592068173700865</value></horizontalSlowness><backazimuth><value>122.3337736430272</value></backazimuth><phaseHint>P</phaseHint><evaluationMode>automatic</evaluationMode><comment><text>152.64449455607559</text><id>DFX:rectilinearity</id></comment><comment><text>385.3865361289031</text><id>SNR</id></comment></pick><pick publicID="de.gempa.tb1.Pick/20250412015757.67768.121392"><time><value>2025-04-12T01:57:51.438394Z</value></time><waveformID networkCode="CX" stationCode="PB03" channelCode="HHZ"/><filterID>ITAPER(4)&gt;&gt;BW(4,4,20)</filterID><methodID>AIC</methodID><horizontalSlowness><value>11.963159092499204</value></horizontalSlowness><backazimuth><value>42.285103713222156</value></backazimuth><phaseHint>P</phaseHint><evaluationMode>automatic</evaluationMode><comment><text>64.79846079742018</text><id>DFX:rectilinearity</id></comment><comment><text>68.60801689835225</text><id>SNR</id></comment></pick><pick publicID="de.gempa.tb1.Pick/20250412015757.689048.121394"><time><value>2025-04-12T01:57:50.538393Z</value></time><waveformID networkCode="CX" stationCode="PB08" channelCode="HHN"/><filterID>ITAPER(2)&gt;&gt;BW(3,3,20)</filterID><methodID>L2-AIC-GRID</methodID><horizontalSlowness><value>14.29719820523744</value></horizontalSlowness><backazimuth><value>213.2791807958944</value></backazimuth><phaseHint>S</phaseHint><evaluationMode>automatic</evaluationMode><comment><text>82260.17744689703</text><id>DFX:rectilinearity</id></comment><comment><text>de.gempa.tb1.Pick/20250412015743.589329.121382</text><id>RefPickID</id></comment><comment><text>15.607304594558753</text><id>SNR</id></comment></pick><pick publicID="de.gempa.tb1.Pick/20250412015759.777735.121395"><time><value>2025-04-12T01:57:53.038393Z</value></time><waveformID networkCode="CX" stationCode="PB01" channelCode="HHN"/><filterID>ITAPER(2)&gt;&gt;BW(3,3,20)</filterID><methodID>L2-AIC-GRID</methodID><horizontalSlowness><value>22.549445821420033</value></horizontalSlowness><backazimuth><value>205.08380746906786</value></backazimuth><phaseHint>S</phaseHint><evaluationMode>automatic</evaluationMode><comment><text>66244.8638120166</text><id>DFX:rectilinearity</id></comment><comment><text>de.gempa.tb1.Pick/20250412015745.79322.121384</text><id>RefPickID</id></comment><comment><text>20.201191549383498</text><id>SNR</id></comment></pick><pick publicID="de.gempa.tb1.Pick/20250412015803.485317.121396"><time><value>2025-04-12T01:57:47.319998Z</value></time><waveformID networkCode="CX" stationCode="PB09" channelCode="HHZ"/><filterID>ITAPER(4)&gt;&gt;BW(4,4,20)</filterID><methodID>AIC</methodID><horizontalSlowness><value>18.64792387388576</value></horizontalSlowness><backazimuth><value>56.64960372837848</value></backazimuth><phaseHint>P</phaseHint><evaluationMode>automatic</evaluationMode><comment><text>55.05761506071907</text><id>DFX:rectilinearity</id></comment><comment><text>99.62172955300889</text><id>SNR</id></comment></pick><pick publicID="de.gempa.tb1.Pick/20250412015804.720193.121398"><time><value>2025-04-12T01:57:48.678394Z</value></time><waveformID networkCode="CX" stationCode="PB07" channelCode="HHZ"/><filterID>ITAPER(4)&gt;&gt;BW(4,4,20)</filterID><methodID>AIC</methodID><horizontalSlowness><value>16.491387308785733</value></horizontalSlowness><backazimuth><value>358.77532441555473</value></backazimuth><phaseHint>P</phaseHint><evaluationMode>automatic</evaluationMode><comment><text>425.00076412203674</text><id>DFX:rectilinearity</id></comment><comment><text>125.80563136901385</text><id>SNR</id></comment></pick><pick publicID="de.gempa.tb1.Pick/20250412015807.451997.121400"><time><value>2025-04-12T01:58:01.239999Z</value></time><waveformID networkCode="CX" stationCode="PATCX" channelCode="HHN"/><filterID>ITAPER(2)&gt;&gt;BW(3,3,20)</filterID><methodID>L2-AIC-GRID</methodID><horizontalSlowness><value>22.48302203509554</value></horizontalSlowness><backazimuth><value>102.15373020803126</value></backazimuth><phaseHint>S</phaseHint><evaluationMode>automatic</evaluationMode><comment><text>17141.279364053062</text><id>DFX:rectilinearity</id></comment><comment><text>de.gempa.tb1.Pick/20250412015752.297734.121388</text><id>RefPickID</id></comment><comment><text>7.515815554884395</text><id>SNR</id></comment></pick><pick publicID="de.gempa.tb1.Pick/20250412015808.570272.121401"><time><value>2025-04-12T01:57:59.858393Z</value></time><waveformID networkCode="CX" stationCode="PB06" channelCode="HHZ"/><filterID>ITAPER(4)&gt;&gt;BW(4,4,20)</filterID><methodID>AIC</methodID><horizontalSlowness><value>6.417178254079791</value></horizontalSlowness><backazimuth><value>200.88539890882925</value></backazimuth><phaseHint>P</phaseHint><evaluationMode>automatic</evaluationMode><comment><text>171.26759068712121</text><id>DFX:rectilinearity</id></comment><comment><text>15.1705791693625</text><id>SNR</id></comment></pick><pick publicID="de.gempa.tb1.Pick/20250412015809.660783.121403"><time><value>2025-04-12T01:58:02.118393Z</value></time><waveformID networkCode="CX" stationCode="PB02" channelCode="HHN"/><filterID>ITAPER(2)&gt;&gt;BW(3,3,20)</filterID><methodID>L2-AIC-GRID</methodID><horizontalSlowness><value>21.220695691570793</value></horizontalSlowness><backazimuth><value>237.1770585318481</value></backazimuth><phaseHint>S</phaseHint><evaluationMode>automatic</evaluationMode><comment><text>975833.1123053278</text><id>DFX:rectilinearity</id></comment><comment><text>de.gempa.tb1.Pick/20250412015749.520182.121386</text><id>RefPickID</id></comment><comment><text>8.597148971233675</text><id>SNR</id></comment></pick><pick publicID="de.gempa.tb1.Pick/20250412015816.791864.121406"><time><value>2025-04-12T01:58:07.62Z</value></time><waveformID networkCode="CX" stationCode="PSGCX" channelCode="HHN"/><filterID>ITAPER(2)&gt;&gt;BW(3,3,20)</filterID><methodID>L2-AIC-GRID</methodID><horizontalSlowness><value>16.597433606625778</value></horizontalSlowness><backazimuth><value>145.19463566804882</value></backazimuth><phaseHint>S</phaseHint><evaluationMode>automatic</evaluationMode><comment><text>4128.0737814789927</text><id>DFX:rectilinearity</id></comment><comment><text>de.gempa.tb1.Pick/20250412015752.577391.121390</text><id>RefPickID</id></comment><comment><text>5.290652959077951</text><id>SNR</id></comment></pick><origin publicID="de.gempa.tb1.Origin/20250412015816.79465.72088"><time><value>2025-04-12T01:57:23.818433Z</value><uncertainty>0.7380844950675964</uncertainty></time><latitude><value>-20.537250518798828</value><uncertainty>3.26011061668396</uncertainty></latitude><longitude><value>-69.06144714355469</value><uncertainty>5.578818321228027</uncertainty></longitude><depth><value>98.5849380493164</value><uncertainty>6.191756248474121</uncertainty></depth><depthType>from location</depthType><methodID>LOCSAT</methodID><earthModelID>iasp91_scanloc</earthModelID><quality><associatedPhaseCount>14</associatedPhaseCount><usedPhaseCount>14</usedPhaseCount><associatedStationCount>9</associatedStationCount><usedStationCount>9</usedStationCount><depthPhaseCount>0</depthPhaseCount><standardError>0.3474245186956081</standardError><azimuthalGap>199.99026489257812</azimuthalGap><maximumDistance>2.2095820903778076</maximumDistance><minimumDistance>0.40344810485839844</minimumDistance><medianDistance>1.1021978855133057</medianDistance></quality><uncertainty><minHorizontalUncertainty>6.987964153289795</minHorizontalUncertainty><maxHorizontalUncertainty>11.961212158203125</maxHorizontalUncertainty><azimuthMaxHorizontalUncertainty>89.18168640136719</azimuthMaxHorizontalUncertainty><preferredDescription>horizontal uncertainty</preferredDescription></uncertainty><evaluationMode>automatic</evaluationMode><evaluationStatus>confirmed</evaluationStatus><comment><text>0.00</text><id>mismatchScore</id></comment><comment><text>mismatchScore</text><id>scevalMethod</id></comment><arrival><pickID>de.gempa.tb1.Pick/20250412015743.589329.121382</pickID><phase>P</phase><azimuth>347.6347351074219</azimuth><distance>0.40344810485839844</distance><timeResidual>0.07785224914550781</timeResidual><timeUsed>true</timeUsed><horizontalSlownessUsed>false</horizontalSlownessUsed><backazimuthUsed>false</backazimuthUsed><weight>1</weight></arrival><arrival><pickID>de.gempa.tb1.Pick/20250412015745.79322.121384</pickID><phase>P</phase><azimuth>218.29209899902344</azimuth><distance>0.6420983672142029</distance><timeResidual>-0.4639825820922852</timeResidual><timeUsed>true</timeUsed><horizontalSlownessUsed>false</horizontalSlownessUsed><backazimuthUsed>false</backazimuthUsed><weight>1</weight></arrival><arrival><pickID>de.gempa.tb1.Pick/20250412015749.520182.121386</pickID><phase>P</phase><azimuth>224.91195678710938</azimuth><distance>1.1021978855133057</distance><timeResidual>-0.07285404205322266</timeResidual><timeUsed>true</timeUsed><horizontalSlownessUsed>false</horizontalSlownessUsed><backazimuthUsed>false</backazimuthUsed><weight>1</weight></arrival><arrival><pickID>de.gempa.tb1.Pick/20250412015752.297734.121388</pickID><phase>P</phase><azimuth>254.3810272216797</azimuth><distance>1.0601630210876465</distance><timeResidual>-0.26137638092041016</timeResidual><timeUsed>true</timeUsed><horizontalSlownessUsed>false</horizontalSlownessUsed><backazimuthUsed>false</backazimuthUsed><weight>1</weight></arrival><arrival><pickID>de.gempa.tb1.Pick/20250412015752.577391.121390</pickID><phase>P</phase><azimuth>312.9608154296875</azimuth><distance>1.3676787614822388</distance><timeResidual>-0.382746696472168</timeResidual><timeUsed>true</timeUsed><horizontalSlownessUsed>false</horizontalSlownessUsed><backazimuthUsed>false</backazimuthUsed><weight>1</weight></arrival><arrival><pickID>de.gempa.tb1.Pick/20250412015757.67768.121392</pickID><phase>P</phase><azimuth>203.09193420410156</azimuth><distance>1.6362321376800537</distance><timeResidual>-0.2460145950317383</timeResidual><timeUsed>true</timeUsed><horizontalSlownessUsed>false</horizontalSlownessUsed><backazimuthUsed>false</backazimuthUsed><weight>1</weight></arrival><arrival><pickID>de.gempa.tb1.Pick/20250412015757.689048.121394</pickID><phase>S</phase><azimuth>347.6347351074219</azimuth><distance>0.40344810485839844</distance><timeResidual>0.2349214553833008</timeResidual><timeUsed>true</timeUsed><horizontalSlownessUsed>false</horizontalSlownessUsed><backazimuthUsed>false</backazimuthUsed><weight>1</weight></arrival><arrival><pickID>de.gempa.tb1.Pick/20250412015759.777735.121395</pickID><phase>S</phase><azimuth>218.29209899902344</azimuth><distance>0.6420983672142029</distance><timeResidual>-0.43541812896728516</timeResidual><timeUsed>true</timeUsed><horizontalSlownessUsed>false</horizontalSlownessUsed><backazimuthUsed>false</backazimuthUsed><weight>1</weight></arrival><arrival><pickID>de.gempa.tb1.Pick/20250412015803.485317.121396</pickID><phase>P</phase><azimuth>187.625</azimuth><distance>1.2641514539718628</distance><timeResidual>0.18483638763427734</timeResidual><timeUsed>true</timeUsed><horizontalSlownessUsed>false</horizontalSlownessUsed><backazimuthUsed>false</backazimuthUsed><weight>1</weight></arrival><arrival><pickID>de.gempa.tb1.Pick/20250412015804.720193.121398</pickID><phase>P</phase><azimuth>212.8992919921875</azimuth><distance>1.4119012355804443</distance><timeResidual>-0.23088550567626953</timeResidual><timeUsed>true</timeUsed><horizontalSlownessUsed>false</horizontalSlownessUsed><backazimuthUsed>false</backazimuthUsed><weight>1</weight></arrival><arrival><pickID>de.gempa.tb1.Pick/20250412015807.451997.121400</pickID><phase>S</phase><azimuth>254.3810272216797</azimuth><distance>1.0601630210876465</distance><timeResidual>0.2634401321411133</timeResidual><timeUsed>true</timeUsed><horizontalSlownessUsed>false</horizontalSlownessUsed><backazimuthUsed>false</backazimuthUsed><weight>1</weight></arrival><arrival><pickID>de.gempa.tb1.Pick/20250412015808.570272.121401</pickID><phase>P</phase><azimuth>192.31968688964844</azimuth><distance>2.2095820903778076</distance><timeResidual>0.8018503189086914</timeResidual><timeUsed>true</timeUsed><horizontalSlownessUsed>false</horizontalSlownessUsed><backazimuthUsed>false</backazimuthUsed><weight>1</weight></arrival><arrival><pickID>de.gempa.tb1.Pick/20250412015809.660783.121403</pickID><phase>S</phase><azimuth>224.91195678710938</azimuth><distance>1.1021978855133057</distance><timeResidual>0.3025197982788086</timeResidual><timeUsed>true</timeUsed><horizontalSlownessUsed>false</horizontalSlownessUsed><backazimuthUsed>false</backazimuthUsed><weight>1</weight></arrival><arrival><pickID>de.gempa.tb1.Pick/20250412015816.791864.121406</pickID><phase>S</phase><azimuth>312.9608154296875</azimuth><distance>1.3676787614822388</distance><timeResidual>0.22745609283447266</timeResidual><timeUsed>true</timeUsed><horizontalSlownessUsed>false</horizontalSlownessUsed><backazimuthUsed>false</backazimuthUsed><weight>1</weight></arrival><magnitude publicID="de.gempa.tb1.Magnitude/20250412015816.802992.163788"><magnitude><value>2.930910360261997</value></magnitude><type>M</type><methodID>weighted average</methodID><stationCount>7</stationCount></magnitude></origin><event publicID="gempa2025hesd"><preferredOriginID>de.gempa.tb1.Origin/20250412015816.79465.72088</preferredOriginID><preferredMagnitudeID>de.gempa.tb1.Magnitude/20250412015816.802992.163788</preferredMagnitudeID><description><text>Northern Chile</text><type>region name</type></description><originReference>de.gempa.tb1.Origin/20250412015816.79465.72088</originReference></event></EventParameters></seiscomp>