<?xml version="1.0" encoding="UTF-8"?>
<seiscomp xmlns="http://geofon.gfz-potsdam.de/ns/seiscomp3-schema/0.13" version="0.13"><EventParameters><pick publicID="de.gempa.tb1.Pick/20250414070915.544221.136430"><time><value>2025-04-14T07:09:06.088393Z</value></time><waveformID networkCode="CX" stationCode="PB01" channelCode="HHZ"/><filterID>ITAPER(4)&gt;&gt;BW(4,4,20)</filterID><methodID>AIC</methodID><horizontalSlowness><value>21.847154590333332</value></horizontalSlowness><backazimuth><value>319.55022161088107</value></backazimuth><phaseHint>P</phaseHint><evaluationMode>automatic</evaluationMode><comment><text>6.70866587672956</text><id>DFX:rectilinearity</id></comment><comment><text>10.189138318235544</text><id>SNR</id></comment></pick><pick publicID="de.gempa.tb1.Pick/20250414070917.51055.136432"><time><value>2025-04-14T07:09:09.828393Z</value></time><waveformID networkCode="CX" stationCode="PB02" channelCode="HHZ"/><filterID>ITAPER(4)&gt;&gt;BW(4,4,20)</filterID><methodID>AIC</methodID><horizontalSlowness><value>20.426602601382118</value></horizontalSlowness><backazimuth><value>329.57949017826485</value></backazimuth><phaseHint>P</phaseHint><evaluationMode>automatic</evaluationMode><comment><text>23.55921195400648</text><id>DFX:rectilinearity</id></comment><comment><text>8.122466121494426</text><id>SNR</id></comment></pick><pick publicID="de.gempa.tb1.Pick/20250414070917.60487.136434"><time><value>2025-04-14T07:09:12.578393Z</value></time><waveformID networkCode="CX" stationCode="PB03" channelCode="HHZ"/><filterID>ITAPER(4)&gt;&gt;BW(4,4,20)</filterID><methodID>AIC</methodID><horizontalSlowness><value>11.696024444891075</value></horizontalSlowness><backazimuth><value>173.08675023632466</value></backazimuth><phaseHint>P</phaseHint><evaluationMode>automatic</evaluationMode><comment><text>5.58177225859581</text><id>DFX:rectilinearity</id></comment><comment><text>6.339652723079984</text><id>SNR</id></comment></pick><pick publicID="de.gempa.tb1.Pick/20250414070924.585928.136436"><time><value>2025-04-14T07:09:17.008393Z</value></time><waveformID networkCode="CX" stationCode="PB01" channelCode="HHN"/><filterID>ITAPER(2)&gt;&gt;BW(3,3,20)</filterID><methodID>L2-AIC-GRID</methodID><horizontalSlowness><value>9.944085901906542</value></horizontalSlowness><backazimuth><value>176.07516552473587</value></backazimuth><phaseHint>S</phaseHint><evaluationMode>automatic</evaluationMode><comment><text>8.626244818850672</text><id>DFX:rectilinearity</id></comment><comment><text>de.gempa.tb1.Pick/20250414070915.544221.136430</text><id>RefPickID</id></comment><comment><text>7.109259609923313</text><id>SNR</id></comment></pick><pick publicID="de.gempa.tb1.Pick/20250414070924.921558.136437"><time><value>2025-04-14T07:09:08.07Z</value></time><waveformID networkCode="CX" stationCode="PB09" channelCode="HHZ"/><filterID>ITAPER(4)&gt;&gt;BW(4,4,20)</filterID><methodID>AIC</methodID><horizontalSlowness><value>19.877972522368822</value></horizontalSlowness><backazimuth><value>294.83746823044464</value></backazimuth><phaseHint>P</phaseHint><evaluationMode>automatic</evaluationMode><comment><text>11.104406913275112</text><id>DFX:rectilinearity</id></comment><comment><text>11.833089680077908</text><id>SNR</id></comment></pick><pick publicID="de.gempa.tb1.Pick/20250414070932.531018.136439"><time><value>2025-04-14T07:09:23.398393Z</value></time><waveformID networkCode="CX" stationCode="PB02" channelCode="HHN"/><filterID>ITAPER(2)&gt;&gt;BW(3,3,20)</filterID><methodID>L2-AIC-GRID</methodID><horizontalSlowness><value>18.471654483972905</value></horizontalSlowness><backazimuth><value>307.09070527773287</value></backazimuth><phaseHint>S</phaseHint><evaluationMode>automatic</evaluationMode><comment><text>49.1295064484531</text><id>DFX:rectilinearity</id></comment><comment><text>de.gempa.tb1.Pick/20250414070917.51055.136432</text><id>RefPickID</id></comment><comment><text>6.412517360916603</text><id>SNR</id></comment></pick><pick publicID="de.gempa.tb1.Pick/20250414070938.71444.136442"><time><value>2025-04-14T07:09:28.308393Z</value></time><waveformID networkCode="CX" stationCode="PB03" channelCode="HHN"/><filterID>ITAPER(2)&gt;&gt;BW(3,3,20)</filterID><methodID>L2-AIC-GRID</methodID><horizontalSlowness><value>4.520984477409185</value></horizontalSlowness><backazimuth><value>193.16403414094617</value></backazimuth><phaseHint>S</phaseHint><evaluationMode>automatic</evaluationMode><comment><text>5.917311273397837</text><id>DFX:rectilinearity</id></comment><comment><text>de.gempa.tb1.Pick/20250414070917.60487.136434</text><id>RefPickID</id></comment><comment><text>10.86865031949999</text><id>SNR</id></comment></pick><pick publicID="de.gempa.tb1.Pick/20250414070954.458433.136443"><time><value>2025-04-14T07:09:11.388394Z</value></time><waveformID networkCode="CX" stationCode="PB07" channelCode="HHZ"/><filterID>ITAPER(4)&gt;&gt;BW(4,4,20)</filterID><methodID>AIC</methodID><horizontalSlowness><value>22.81381057459546</value></horizontalSlowness><backazimuth><value>272.6594100096829</value></backazimuth><phaseHint>P</phaseHint><evaluationMode>automatic</evaluationMode><comment><text>147.84948198456024</text><id>DFX:rectilinearity</id></comment><comment><text>6.610504540609337</text><id>SNR</id></comment></pick><pick publicID="de.gempa.tb1.Pick/20250414070958.624771.136445"><time><value>2025-04-14T07:09:26.208394Z</value></time><waveformID networkCode="CX" stationCode="PB07" channelCode="HHN"/><filterID>ITAPER(2)&gt;&gt;BW(3,3,20)</filterID><methodID>L2-AIC-GRID</methodID><horizontalSlowness><value>23.39258292342634</value></horizontalSlowness><backazimuth><value>281.9398412103821</value></backazimuth><phaseHint>S</phaseHint><evaluationMode>automatic</evaluationMode><comment><text>92.60578566025644</text><id>DFX:rectilinearity</id></comment><comment><text>de.gempa.tb1.Pick/20250414070954.458433.136443</text><id>RefPickID</id></comment><comment><text>6.003209150532495</text><id>SNR</id></comment></pick><origin publicID="de.gempa.tb1.Origin/20250414070958.830136.131107"><time><value>2025-04-14T07:08:52.197431Z</value><uncertainty>1.2510695457458496</uncertainty></time><latitude><value>-21.19309425354004</value><uncertainty>6.654382705688477</uncertainty></latitude><longitude><value>-69.01039123535156</value><uncertainty>9.96882438659668</uncertainty></longitude><depth><value>85.83047485351562</value><uncertainty>12.844026565551758</uncertainty></depth><depthType>from location</depthType><methodID>LOCSAT</methodID><earthModelID>iasp91_scanloc</earthModelID><quality><associatedPhaseCount>9</associatedPhaseCount><usedPhaseCount>9</usedPhaseCount><associatedStationCount>5</associatedStationCount><usedStationCount>5</usedStationCount><depthPhaseCount>0</depthPhaseCount><standardError>0.18731091543890122</standardError><azimuthalGap>271.2882385253906</azimuthalGap><maximumDistance>1.0964038372039795</maximumDistance><minimumDistance>0.4696565270423889</minimumDistance><medianDistance>0.8356618285179138</medianDistance></quality><uncertainty><minHorizontalUncertainty>12.921262741088867</minHorizontalUncertainty><maxHorizontalUncertainty>22.21656036376953</maxHorizontalUncertainty><azimuthMaxHorizontalUncertainty>109.5691146850586</azimuthMaxHorizontalUncertainty><preferredDescription>horizontal uncertainty</preferredDescription></uncertainty><evaluationMode>automatic</evaluationMode><evaluationStatus>confirmed</evaluationStatus><comment><text>0.00</text><id>mismatchScore</id></comment><comment><text>mismatchScore</text><id>scevalMethod</id></comment><arrival><pickID>de.gempa.tb1.Pick/20250414070915.544221.136430</pickID><phase>P</phase><azimuth>288.4266662597656</azimuth><distance>0.4696565270423889</distance><timeResidual>-0.20015621185302734</timeResidual><timeUsed>true</timeUsed><horizontalSlownessUsed>false</horizontalSlownessUsed><backazimuthUsed>false</backazimuthUsed><weight>1</weight></arrival><arrival><pickID>de.gempa.tb1.Pick/20250414070917.51055.136432</pickID><phase>P</phase><azimuth>261.1678466796875</azimuth><distance>0.8356618285179138</distance><timeResidual>0.04948329925537109</timeResidual><timeUsed>true</timeUsed><horizontalSlownessUsed>false</horizontalSlownessUsed><backazimuthUsed>false</backazimuthUsed><weight>1</weight></arrival><arrival><pickID>de.gempa.tb1.Pick/20250414070917.60487.136434</pickID><phase>P</phase><azimuth>218.9375762939453</azimuth><distance>1.0964038372039795</distance><timeResidual>-0.18021869659423828</timeResidual><timeUsed>true</timeUsed><horizontalSlownessUsed>false</horizontalSlownessUsed><backazimuthUsed>false</backazimuthUsed><weight>1</weight></arrival><arrival><pickID>de.gempa.tb1.Pick/20250414070924.585928.136436</pickID><phase>S</phase><azimuth>288.4266662597656</azimuth><distance>0.4696565270423889</distance><timeResidual>-0.06177043914794922</timeResidual><timeUsed>true</timeUsed><horizontalSlownessUsed>false</horizontalSlownessUsed><backazimuthUsed>false</backazimuthUsed><weight>1</weight></arrival><arrival><pickID>de.gempa.tb1.Pick/20250414070924.921558.136437</pickID><phase>P</phase><azimuth>199.71490478515625</azimuth><distance>0.6378694772720337</distance><timeResidual>0.31704044342041016</timeResidual><timeUsed>true</timeUsed><horizontalSlownessUsed>false</horizontalSlownessUsed><backazimuthUsed>false</backazimuthUsed><weight>1</weight></arrival><arrival><pickID>de.gempa.tb1.Pick/20250414070932.531018.136439</pickID><phase>S</phase><azimuth>261.1678466796875</azimuth><distance>0.8356618285179138</distance><timeResidual>0.11657428741455078</timeResidual><timeUsed>true</timeUsed><horizontalSlownessUsed>false</horizontalSlownessUsed><backazimuthUsed>false</backazimuthUsed><weight>1</weight></arrival><arrival><pickID>de.gempa.tb1.Pick/20250414070938.71444.136442</pickID><phase>S</phase><azimuth>218.9375762939453</azimuth><distance>1.0964038372039795</distance><timeResidual>-0.2920656204223633</timeResidual><timeUsed>true</timeUsed><horizontalSlownessUsed>false</horizontalSlownessUsed><backazimuthUsed>false</backazimuthUsed><weight>1</weight></arrival><arrival><pickID>de.gempa.tb1.Pick/20250414070954.458433.136443</pickID><phase>P</phase><azimuth>236.78382873535156</azimuth><distance>0.9733602404594421</distance><timeResidual>0.07054424285888672</timeResidual><timeUsed>true</timeUsed><horizontalSlownessUsed>false</horizontalSlownessUsed><backazimuthUsed>false</backazimuthUsed><weight>1</weight></arrival><arrival><pickID>de.gempa.tb1.Pick/20250414070958.624771.136445</pickID><phase>S</phase><azimuth>236.78382873535156</azimuth><distance>0.9733602404594421</distance><timeResidual>0.18049907684326172</timeResidual><timeUsed>true</timeUsed><horizontalSlownessUsed>false</horizontalSlownessUsed><backazimuthUsed>false</backazimuthUsed><weight>1</weight></arrival><magnitude publicID="de.gempa.tb1.Magnitude/20250414071018.409303.444173"><magnitude><value>2.118266520185279</value></magnitude><type>M</type><methodID>weighted average</methodID><stationCount>3</stationCount></magnitude></origin><event publicID="gempa2025hiuo"><preferredOriginID>de.gempa.tb1.Origin/20250414070958.830136.131107</preferredOriginID><preferredMagnitudeID>de.gempa.tb1.Magnitude/20250414071018.409303.444173</preferredMagnitudeID><description><text>Northern Chile</text><type>region name</type></description><originReference>de.gempa.tb1.Origin/20250414070958.830136.131107</originReference></event></EventParameters></seiscomp>