<?xml version="1.0" encoding="UTF-8"?>
<seiscomp xmlns="http://geofon.gfz-potsdam.de/ns/seiscomp3-schema/0.13" version="0.13"><EventParameters><pick publicID="de.gempa.tb1.Pick/20250411190105.590402.119589"><time><value>2025-04-11T19:00:59.958393Z</value></time><waveformID networkCode="CX" stationCode="PB06" channelCode="HHZ"/><filterID>ITAPER(4)&gt;&gt;BW(4,4,20)</filterID><methodID>AIC</methodID><horizontalSlowness><value>17.647092081836696</value></horizontalSlowness><backazimuth><value>111.79908741740992</value></backazimuth><phaseHint>P</phaseHint><evaluationMode>automatic</evaluationMode><comment><text>2284.297743153274</text><id>DFX:rectilinearity</id></comment><comment><text>67.57602627512544</text><id>SNR</id></comment></pick><pick publicID="de.gempa.tb1.Pick/20250411190107.849252.119591"><time><value>2025-04-11T19:01:02.298393Z</value></time><waveformID networkCode="CX" stationCode="PB15" channelCode="HHZ"/><filterID>ITAPER(4)&gt;&gt;BW(4,4,20)</filterID><methodID>AIC</methodID><horizontalSlowness><value>20.008105723842235</value></horizontalSlowness><backazimuth><value>187.2867592033817</value></backazimuth><phaseHint>P</phaseHint><evaluationMode>automatic</evaluationMode><comment><text>2672.116274856826</text><id>DFX:rectilinearity</id></comment><comment><text>39.378511605458073</text><id>SNR</id></comment></pick><pick publicID="de.gempa.tb1.Pick/20250411190110.631537.119593"><time><value>2025-04-11T19:01:02.598393Z</value></time><waveformID networkCode="CX" stationCode="PB06" channelCode="HHN"/><filterID>ITAPER(2)&gt;&gt;BW(3,3,20)</filterID><methodID>L2-AIC-GRID</methodID><horizontalSlowness><value>13.389058876341364</value></horizontalSlowness><backazimuth><value>135.45576783100324</value></backazimuth><phaseHint>S</phaseHint><evaluationMode>automatic</evaluationMode><comment><text>6488.655101579283</text><id>DFX:rectilinearity</id></comment><comment><text>de.gempa.tb1.Pick/20250411190105.590402.119589</text><id>RefPickID</id></comment><comment><text>7.72702926252944</text><id>SNR</id></comment></pick><pick publicID="de.gempa.tb1.Pick/20250411190114.266118.119594"><time><value>2025-04-11T19:01:05.328393Z</value></time><waveformID networkCode="CX" stationCode="PB15" channelCode="HHN"/><filterID>ITAPER(2)&gt;&gt;BW(3,3,20)</filterID><methodID>L2-AIC-GRID</methodID><horizontalSlowness><value>21.173630896383028</value></horizontalSlowness><backazimuth><value>87.5771444141796</value></backazimuth><phaseHint>S</phaseHint><evaluationMode>automatic</evaluationMode><comment><text>32739.26706351629</text><id>DFX:rectilinearity</id></comment><comment><text>de.gempa.tb1.Pick/20250411190107.849252.119591</text><id>RefPickID</id></comment><comment><text>7.112812590711362</text><id>SNR</id></comment></pick><pick publicID="de.gempa.tb1.Pick/20250411190116.638108.119595"><time><value>2025-04-11T19:01:11.288393Z</value></time><waveformID networkCode="CX" stationCode="PB03" channelCode="HHZ"/><filterID>ITAPER(4)&gt;&gt;BW(4,4,20)</filterID><methodID>AIC</methodID><horizontalSlowness><value>15.368875649726274</value></horizontalSlowness><backazimuth><value>161.28601149998576</value></backazimuth><phaseHint>P</phaseHint><evaluationMode>automatic</evaluationMode><comment><text>408.7362875044828</text><id>DFX:rectilinearity</id></comment><comment><text>81.84963703267488</text><id>SNR</id></comment></pick><pick publicID="de.gempa.tb1.Pick/20250411190123.609.119599"><time><value>2025-04-11T19:01:16.93Z</value></time><waveformID networkCode="CX" stationCode="PB19" channelCode="HHZ"/><filterID>ITAPER(4)&gt;&gt;BW(4,4,20)</filterID><methodID>AIC</methodID><horizontalSlowness><value>21.551467118872747</value></horizontalSlowness><backazimuth><value>181.00804127622405</value></backazimuth><phaseHint>P</phaseHint><evaluationMode>automatic</evaluationMode><comment><text>16.496121281562402</text><id>DFX:rectilinearity</id></comment><comment><text>21.45519275771374</text><id>SNR</id></comment></pick><pick publicID="de.gempa.tb1.Pick/20250411190123.735185.119601"><time><value>2025-04-11T19:01:17.238396Z</value></time><waveformID networkCode="CX" stationCode="PB07" channelCode="HHZ"/><filterID>ITAPER(4)&gt;&gt;BW(4,4,20)</filterID><methodID>AIC</methodID><horizontalSlowness><value>21.188421107794628</value></horizontalSlowness><backazimuth><value>180.36509528540736</value></backazimuth><phaseHint>P</phaseHint><evaluationMode>automatic</evaluationMode><comment><text>1088.7108496512012</text><id>DFX:rectilinearity</id></comment><comment><text>105.39084134623496</text><id>SNR</id></comment></pick><pick publicID="de.gempa.tb1.Pick/20250411190126.220468.119604"><time><value>2025-04-11T19:01:20.21Z</value></time><waveformID networkCode="CX" stationCode="PB10" channelCode="HHZ"/><filterID>ITAPER(4)&gt;&gt;BW(4,4,20)</filterID><methodID>AIC</methodID><horizontalSlowness><value>16.785245432356039</value></horizontalSlowness><backazimuth><value>91.59998964323462</value></backazimuth><phaseHint>P</phaseHint><evaluationMode>automatic</evaluationMode><comment><text>88.7596337310963</text><id>DFX:rectilinearity</id></comment><comment><text>13.689338549337123</text><id>SNR</id></comment></pick><pick publicID="de.gempa.tb1.Pick/20250411190129.176562.119606"><time><value>2025-04-11T19:01:14.870001Z</value></time><waveformID networkCode="CX" stationCode="PB09" channelCode="HHZ"/><filterID>ITAPER(4)&gt;&gt;BW(4,4,20)</filterID><methodID>AIC</methodID><horizontalSlowness><value>18.450669517212134</value></horizontalSlowness><backazimuth><value>141.9242586567768</value></backazimuth><phaseHint>P</phaseHint><evaluationMode>automatic</evaluationMode><comment><text>37.612965351523265</text><id>DFX:rectilinearity</id></comment><comment><text>27.192296898663407</text><id>SNR</id></comment></pick><origin publicID="de.gempa.tb1.Origin/20250411190129.875021.63850"><time><value>2025-04-11T19:00:54.967236Z</value><uncertainty>0.4954859614372253</uncertainty></time><latitude><value>-22.84544372558594</value><uncertainty>1.9921519756317139</uncertainty></latitude><longitude><value>-69.3759994506836</value><uncertainty>4.533797740936279</uncertainty></longitude><depth><value>0</value></depth><depthType>operator assigned</depthType><methodID>LOCSAT</methodID><earthModelID>iasp91_scanloc</earthModelID><quality><associatedPhaseCount>9</associatedPhaseCount><usedPhaseCount>9</usedPhaseCount><associatedStationCount>7</associatedStationCount><usedStationCount>7</usedStationCount><depthPhaseCount>0</depthPhaseCount><standardError>0.9878806583984386</standardError><azimuthalGap>168.95629692077637</azimuthalGap><maximumDistance>1.2717406749725342</maximumDistance><minimumDistance>0.2280367761850357</minimumDistance><medianDistance>0.8665115833282471</medianDistance></quality><uncertainty><minHorizontalUncertainty>4.0742015838623047</minHorizontalUncertainty><maxHorizontalUncertainty>9.810471534729004</maxHorizontalUncertainty><azimuthMaxHorizontalUncertainty>81.69356536865234</azimuthMaxHorizontalUncertainty><preferredDescription>horizontal uncertainty</preferredDescription></uncertainty><evaluationMode>automatic</evaluationMode><evaluationStatus>confirmed</evaluationStatus><comment><text>0.00</text><id>mismatchScore</id></comment><comment><text>mismatchScore</text><id>scevalMethod</id></comment><arrival><pickID>de.gempa.tb1.Pick/20250411190105.590402.119589</pickID><phase>P</phase><azimuth>307.515380859375</azimuth><distance>0.2280367761850357</distance><timeResidual>0.6170711517333984</timeResidual><timeUsed>true</timeUsed><horizontalSlownessUsed>false</horizontalSlownessUsed><backazimuthUsed>false</backazimuthUsed><weight>1</weight></arrival><arrival><pickID>de.gempa.tb1.Pick/20250411190107.849252.119591</pickID><phase>P</phase><azimuth>193.59059143066406</azimuth><distance>0.37163421511650085</distance><timeResidual>0.20341205596923828</timeResidual><timeUsed>true</timeUsed><horizontalSlownessUsed>false</horizontalSlownessUsed><backazimuthUsed>false</backazimuthUsed><weight>1</weight></arrival><arrival><pickID>de.gempa.tb1.Pick/20250411190110.631537.119593</pickID><phase>S</phase><azimuth>307.515380859375</azimuth><distance>0.2280367761850357</distance><timeResidual>0.08084678649902344</timeResidual><timeUsed>true</timeUsed><horizontalSlownessUsed>false</horizontalSlownessUsed><backazimuthUsed>false</backazimuthUsed><weight>1</weight></arrival><arrival><pickID>de.gempa.tb1.Pick/20250411190114.266118.119594</pickID><phase>S</phase><azimuth>193.59059143066406</azimuth><distance>0.37163421511650085</distance><timeResidual>-1.942178726196289</timeResidual><timeUsed>true</timeUsed><horizontalSlownessUsed>false</horizontalSlownessUsed><backazimuthUsed>false</backazimuthUsed><weight>1</weight></arrival><arrival><pickID>de.gempa.tb1.Pick/20250411190116.638108.119595</pickID><phase>P</phase><azimuth>336.1867980957031</azimuth><distance>0.8665115833282471</distance><timeResidual>-0.29979801177978516</timeResidual><timeUsed>true</timeUsed><horizontalSlownessUsed>false</horizontalSlownessUsed><backazimuthUsed>false</backazimuthUsed><weight>1</weight></arrival><arrival><pickID>de.gempa.tb1.Pick/20250411190123.609.119599</pickID><phase>P</phase><azimuth>175.76312255859375</azimuth><distance>1.0573716163635254</distance><timeResidual>1.6834306716918945</timeResidual><timeUsed>true</timeUsed><horizontalSlownessUsed>false</horizontalSlownessUsed><backazimuthUsed>false</backazimuthUsed><weight>1</weight></arrival><arrival><pickID>de.gempa.tb1.Pick/20250411190123.735185.119601</pickID><phase>P</phase><azimuth>336.9076232910156</azimuth><distance>1.209534764289856</distance><timeResidual>-0.9293279647827148</timeResidual><timeUsed>true</timeUsed><horizontalSlownessUsed>false</horizontalSlownessUsed><backazimuthUsed>false</backazimuthUsed><weight>1</weight></arrival><arrival><pickID>de.gempa.tb1.Pick/20250411190126.220468.119604</pickID><phase>P</phase><azimuth>238.24932861328125</azimuth><distance>1.2717406749725342</distance><timeResidual>0.851384162902832</timeResidual><timeUsed>true</timeUsed><horizontalSlownessUsed>false</horizontalSlownessUsed><backazimuthUsed>false</backazimuthUsed><weight>1</weight></arrival><arrival><pickID>de.gempa.tb1.Pick/20250411190129.176562.119606</pickID><phase>P</phase><azimuth>6.806825637817383</azimuth><distance>1.051406979560852</distance><timeResidual>-0.2647695541381836</timeResidual><timeUsed>true</timeUsed><horizontalSlownessUsed>false</horizontalSlownessUsed><backazimuthUsed>false</backazimuthUsed><weight>1</weight></arrival><magnitude publicID="de.gempa.tb1.Magnitude/20250411190225.709081.133616"><magnitude><value>2.5384494534452506</value></magnitude><type>M</type><methodID>weighted average</methodID><stationCount>7</stationCount></magnitude></origin><event publicID="gempa2025heeg"><preferredOriginID>de.gempa.tb1.Origin/20250411190129.875021.63850</preferredOriginID><preferredMagnitudeID>de.gempa.tb1.Magnitude/20250411190225.709081.133616</preferredMagnitudeID><description><text>Northern Chile</text><type>region name</type></description><originReference>de.gempa.tb1.Origin/20250411190129.875021.63850</originReference></event></EventParameters></seiscomp>