<?xml version="1.0" encoding="UTF-8"?>
<seiscomp xmlns="http://geofon.gfz-potsdam.de/ns/seiscomp3-schema/0.13" version="0.13"><EventParameters><pick publicID="de.gempa.tb1.Pick/20250415040438.696013.143342"><time><value>2025-04-15T04:04:33.678393Z</value></time><waveformID networkCode="CX" stationCode="PB01" channelCode="HHZ"/><filterID>ITAPER(4)&gt;&gt;BW(4,4,20)</filterID><methodID>AIC</methodID><horizontalSlowness><value>5.658102625982405</value></horizontalSlowness><backazimuth><value>82.57036657544617</value></backazimuth><phaseHint>P</phaseHint><evaluationMode>automatic</evaluationMode><comment><text>85.48808505992982</text><id>DFX:rectilinearity</id></comment><comment><text>342.6443333407865</text><id>SNR</id></comment></pick><pick publicID="de.gempa.tb1.Pick/20250415040442.42478.143344"><time><value>2025-04-15T04:04:34.040001Z</value></time><waveformID networkCode="CX" stationCode="PB09" channelCode="HHZ"/><filterID>ITAPER(4)&gt;&gt;BW(4,4,20)</filterID><methodID>AIC</methodID><horizontalSlowness><value>15.207554518266875</value></horizontalSlowness><backazimuth><value>68.92558266198316</value></backazimuth><phaseHint>P</phaseHint><evaluationMode>automatic</evaluationMode><comment><text>1423.8519422228665</text><id>DFX:rectilinearity</id></comment><comment><text>486.9103159971495</text><id>SNR</id></comment></pick><pick publicID="de.gempa.tb1.Pick/20250415040443.545559.143346"><time><value>2025-04-15T04:04:37.368393Z</value></time><waveformID networkCode="CX" stationCode="PB02" channelCode="HHZ"/><filterID>ITAPER(4)&gt;&gt;BW(4,4,20)</filterID><methodID>AIC</methodID><horizontalSlowness><value>5.415979742302911</value></horizontalSlowness><backazimuth><value>88.89985862801917</value></backazimuth><phaseHint>P</phaseHint><evaluationMode>automatic</evaluationMode><comment><text>171.02568471982175</text><id>DFX:rectilinearity</id></comment><comment><text>161.2892884531881</text><id>SNR</id></comment></pick><pick publicID="de.gempa.tb1.Pick/20250415040444.527259.143348"><time><value>2025-04-15T04:04:38.438394Z</value></time><waveformID networkCode="CX" stationCode="PB08" channelCode="HHZ"/><filterID>ITAPER(4)&gt;&gt;BW(4,4,20)</filterID><methodID>AIC</methodID><horizontalSlowness><value>14.246469483776593</value></horizontalSlowness><backazimuth><value>206.43467316567148</value></backazimuth><phaseHint>P</phaseHint><evaluationMode>automatic</evaluationMode><comment><text>41.33093516578934</text><id>DFX:rectilinearity</id></comment><comment><text>28.398622297376715</text><id>SNR</id></comment></pick><pick publicID="de.gempa.tb1.Pick/20250415040444.766714.143350"><time><value>2025-04-15T04:04:38.698393Z</value></time><waveformID networkCode="CX" stationCode="PB03" channelCode="HHZ"/><filterID>ITAPER(4)&gt;&gt;BW(4,4,20)</filterID><methodID>AIC</methodID><horizontalSlowness><value>8.104167586896793</value></horizontalSlowness><backazimuth><value>61.24184974517486</value></backazimuth><phaseHint>P</phaseHint><evaluationMode>automatic</evaluationMode><comment><text>590.3838495471981</text><id>DFX:rectilinearity</id></comment><comment><text>194.8297960225598</text><id>SNR</id></comment></pick><pick publicID="de.gempa.tb1.Pick/20250415040446.408533.143352"><time><value>2025-04-15T04:04:40.539999Z</value></time><waveformID networkCode="CX" stationCode="PATCX" channelCode="HHZ"/><filterID>ITAPER(4)&gt;&gt;BW(4,4,20)</filterID><methodID>AIC</methodID><horizontalSlowness><value>13.769447097623345</value></horizontalSlowness><backazimuth><value>41.64832443901855</value></backazimuth><phaseHint>P</phaseHint><evaluationMode>automatic</evaluationMode><comment><text>495.9438900836791</text><id>DFX:rectilinearity</id></comment><comment><text>251.8340651125238</text><id>SNR</id></comment></pick><pick publicID="de.gempa.tb1.Pick/20250415040449.622502.143354"><time><value>2025-04-15T04:04:43.218393Z</value></time><waveformID networkCode="CX" stationCode="PB06" channelCode="HHZ"/><filterID>ITAPER(4)&gt;&gt;BW(4,4,20)</filterID><methodID>AIC</methodID><horizontalSlowness><value>3.68146626219203</value></horizontalSlowness><backazimuth><value>62.92954316058707</value></backazimuth><phaseHint>P</phaseHint><evaluationMode>automatic</evaluationMode><comment><text>1447.1800773849793</text><id>DFX:rectilinearity</id></comment><comment><text>106.17350000851569</text><id>SNR</id></comment></pick><pick publicID="de.gempa.tb1.Pick/20250415040453.621685.143356"><time><value>2025-04-15T04:04:48.648394Z</value></time><waveformID networkCode="CX" stationCode="PB15" channelCode="HHZ"/><filterID>ITAPER(4)&gt;&gt;BW(4,4,20)</filterID><methodID>AIC</methodID><horizontalSlowness><value>19.655629450919204</value></horizontalSlowness><backazimuth><value>89.3755457856509</value></backazimuth><phaseHint>P</phaseHint><evaluationMode>automatic</evaluationMode><comment><text>1729.038698763681</text><id>DFX:rectilinearity</id></comment><comment><text>47.69925105399366</text><id>SNR</id></comment></pick><pick publicID="de.gempa.tb1.Pick/20250415040455.555672.143358"><time><value>2025-04-15T04:04:47.63Z</value></time><waveformID networkCode="CX" stationCode="PSGCX" channelCode="HHZ"/><filterID>ITAPER(4)&gt;&gt;BW(4,4,20)</filterID><methodID>AIC</methodID><horizontalSlowness><value>7.975691898343133</value></horizontalSlowness><backazimuth><value>150.34787869436502</value></backazimuth><phaseHint>P</phaseHint><evaluationMode>automatic</evaluationMode><comment><text>42.82398195747723</text><id>DFX:rectilinearity</id></comment><comment><text>99.70560801894388</text><id>SNR</id></comment></pick><pick publicID="de.gempa.tb1.Pick/20250415040456.801535.143360"><time><value>2025-04-15T04:04:49.308393Z</value></time><waveformID networkCode="CX" stationCode="PB01" channelCode="HHN"/><filterID>ITAPER(2)&gt;&gt;BW(3,3,20)</filterID><methodID>L2-AIC-GRID</methodID><horizontalSlowness><value>21.852580518726597</value></horizontalSlowness><backazimuth><value>14.290014267549878</value></backazimuth><phaseHint>S</phaseHint><evaluationMode>automatic</evaluationMode><comment><text>54109.6434996188</text><id>DFX:rectilinearity</id></comment><comment><text>de.gempa.tb1.Pick/20250415040438.696013.143342</text><id>RefPickID</id></comment><comment><text>18.967690134468882</text><id>SNR</id></comment></pick><pick publicID="de.gempa.tb1.Pick/20250415040459.57126.143361"><time><value>2025-04-15T04:04:55.178393Z</value></time><waveformID networkCode="CX" stationCode="PB02" channelCode="HHN"/><filterID>ITAPER(2)&gt;&gt;BW(3,3,20)</filterID><methodID>L2-AIC-GRID</methodID><horizontalSlowness><value>18.436172799139609</value></horizontalSlowness><backazimuth><value>54.88797175307305</value></backazimuth><phaseHint>S</phaseHint><evaluationMode>automatic</evaluationMode><comment><text>77361.30585884358</text><id>DFX:rectilinearity</id></comment><comment><text>de.gempa.tb1.Pick/20250415040443.545559.143346</text><id>RefPickID</id></comment><comment><text>11.436326836978063</text><id>SNR</id></comment></pick><pick publicID="de.gempa.tb1.Pick/20250415040501.505217.143362"><time><value>2025-04-15T04:04:56.39Z</value></time><waveformID networkCode="CX" stationCode="PB19" channelCode="HHZ"/><filterID>ITAPER(4)&gt;&gt;BW(4,4,20)</filterID><methodID>AIC</methodID><horizontalSlowness><value>7.453547795812964</value></horizontalSlowness><backazimuth><value>6.731102533860877</value></backazimuth><phaseHint>P</phaseHint><evaluationMode>automatic</evaluationMode><comment><text>96.22578830151944</text><id>DFX:rectilinearity</id></comment><comment><text>148.13240420291922</text><id>SNR</id></comment></pick><pick publicID="de.gempa.tb1.Pick/20250415040503.69681.143366"><time><value>2025-04-15T04:04:57.788393Z</value></time><waveformID networkCode="CX" stationCode="PB03" channelCode="HHN"/><filterID>ITAPER(2)&gt;&gt;BW(3,3,20)</filterID><methodID>L2-AIC-GRID</methodID><horizontalSlowness><value>22.75995468646855</value></horizontalSlowness><backazimuth><value>144.78057188030957</value></backazimuth><phaseHint>S</phaseHint><evaluationMode>automatic</evaluationMode><comment><text>19452.606496148604</text><id>DFX:rectilinearity</id></comment><comment><text>de.gempa.tb1.Pick/20250415040444.766714.143350</text><id>RefPickID</id></comment><comment><text>12.632523841985567</text><id>SNR</id></comment></pick><pick publicID="de.gempa.tb1.Pick/20250415040506.098416.143368"><time><value>2025-04-15T04:04:57.388394Z</value></time><waveformID networkCode="CX" stationCode="PB08" channelCode="HHN"/><filterID>ITAPER(2)&gt;&gt;BW(3,3,20)</filterID><methodID>L2-AIC-GRID</methodID><horizontalSlowness><value>16.20301693761073</value></horizontalSlowness><backazimuth><value>203.973764388407</value></backazimuth><phaseHint>S</phaseHint><evaluationMode>automatic</evaluationMode><comment><text>1333.7198105892055</text><id>DFX:rectilinearity</id></comment><comment><text>de.gempa.tb1.Pick/20250415040444.527259.143348</text><id>RefPickID</id></comment><comment><text>8.656349361126786</text><id>SNR</id></comment></pick><pick publicID="de.gempa.tb1.Pick/20250415040509.268803.143370"><time><value>2025-04-15T04:05:01.139999Z</value></time><waveformID networkCode="CX" stationCode="PATCX" channelCode="HHN"/><filterID>ITAPER(2)&gt;&gt;BW(3,3,20)</filterID><methodID>L2-AIC-GRID</methodID><horizontalSlowness><value>20.230510807929004</value></horizontalSlowness><backazimuth><value>281.0156804540476</value></backazimuth><phaseHint>S</phaseHint><evaluationMode>automatic</evaluationMode><comment><text>22277.70875286765</text><id>DFX:rectilinearity</id></comment><comment><text>de.gempa.tb1.Pick/20250415040446.408533.143352</text><id>RefPickID</id></comment><comment><text>20.383640741175142</text><id>SNR</id></comment></pick><pick publicID="de.gempa.tb1.Pick/20250415040510.184064.143371"><time><value>2025-04-15T04:04:38.128393Z</value></time><waveformID networkCode="CX" stationCode="PB07" channelCode="HHZ"/><filterID>ITAPER(4)&gt;&gt;BW(4,4,20)</filterID><methodID>AIC</methodID><horizontalSlowness><value>15.021347924873258</value></horizontalSlowness><backazimuth><value>82.41035548187563</value></backazimuth><phaseHint>P</phaseHint><evaluationMode>automatic</evaluationMode><comment><text>7033.914780344465</text><id>DFX:rectilinearity</id></comment><comment><text>291.1304625978335</text><id>SNR</id></comment></pick><pick publicID="de.gempa.tb1.Pick/20250415040513.58532.143377"><time><value>2025-04-15T04:05:06.068393Z</value></time><waveformID networkCode="CX" stationCode="PB06" channelCode="HHN"/><filterID>ITAPER(2)&gt;&gt;BW(3,3,20)</filterID><methodID>L2-AIC-GRID</methodID><horizontalSlowness><value>22.923404478763626</value></horizontalSlowness><backazimuth><value>127.92974952468688</value></backazimuth><phaseHint>S</phaseHint><evaluationMode>automatic</evaluationMode><comment><text>2639.5367100052545</text><id>DFX:rectilinearity</id></comment><comment><text>de.gempa.tb1.Pick/20250415040449.622502.143354</text><id>RefPickID</id></comment><comment><text>7.077282315349793</text><id>SNR</id></comment></pick><pick publicID="de.gempa.tb1.Pick/20250415040518.730025.143379"><time><value>2025-04-15T04:04:56.968393Z</value></time><waveformID networkCode="CX" stationCode="PB07" channelCode="HHN"/><filterID>ITAPER(2)&gt;&gt;BW(3,3,20)</filterID><methodID>L2-AIC-GRID</methodID><horizontalSlowness><value>22.150929954462121</value></horizontalSlowness><backazimuth><value>198.3928436522289</value></backazimuth><phaseHint>S</phaseHint><evaluationMode>automatic</evaluationMode><comment><text>719031.9343690589</text><id>DFX:rectilinearity</id></comment><comment><text>de.gempa.tb1.Pick/20250415040510.184064.143371</text><id>RefPickID</id></comment><comment><text>11.250215010063348</text><id>SNR</id></comment></pick><pick publicID="de.gempa.tb1.Pick/20250415040524.690855.143383"><time><value>2025-04-15T04:05:15.08Z</value></time><waveformID networkCode="CX" stationCode="PSGCX" channelCode="HHN"/><filterID>ITAPER(2)&gt;&gt;BW(3,3,20)</filterID><methodID>L2-AIC-GRID</methodID><horizontalSlowness><value>21.545890301605652</value></horizontalSlowness><backazimuth><value>81.6148705666355</value></backazimuth><phaseHint>S</phaseHint><evaluationMode>automatic</evaluationMode><comment><text>2731.454496068963</text><id>DFX:rectilinearity</id></comment><comment><text>de.gempa.tb1.Pick/20250415040455.555672.143358</text><id>RefPickID</id></comment><comment><text>9.495438651871801</text><id>SNR</id></comment></pick><origin publicID="de.gempa.tb1.Origin/20250415040524.694045.160429"><time><value>2025-04-15T04:04:13.670605Z</value><uncertainty>0.6469279527664185</uncertainty></time><latitude><value>-21.240278244018555</value><uncertainty>2.55622935295105</uncertainty></latitude><longitude><value>-68.78607177734375</value><uncertainty>7.096555233001709</uncertainty></longitude><depth><value>130.55250549316406</value><uncertainty>7.69643497467041</uncertainty></depth><depthType>from location</depthType><methodID>LOCSAT</methodID><earthModelID>iasp91_scanloc</earthModelID><quality><associatedPhaseCount>19</associatedPhaseCount><usedPhaseCount>19</usedPhaseCount><associatedStationCount>11</associatedStationCount><usedStationCount>11</usedStationCount><depthPhaseCount>0</depthPhaseCount><standardError>0.34798443232221443</standardError><azimuthalGap>207.40113830566406</azimuthalGap><maximumDistance>2.6925699710845947</maximumDistance><minimumDistance>0.6834161281585693</minimumDistance><medianDistance>1.206717610359192</medianDistance></quality><uncertainty><minHorizontalUncertainty>5.476265430450439</minHorizontalUncertainty><maxHorizontalUncertainty>15.21196174621582</maxHorizontalUncertainty><azimuthMaxHorizontalUncertainty>89.2898178100586</azimuthMaxHorizontalUncertainty><preferredDescription>horizontal uncertainty</preferredDescription></uncertainty><evaluationMode>automatic</evaluationMode><evaluationStatus>confirmed</evaluationStatus><comment><text>0.00</text><id>mismatchScore</id></comment><comment><text>mismatchScore</text><id>scevalMethod</id></comment><arrival><pickID>de.gempa.tb1.Pick/20250415040438.696013.143342</pickID><phase>P</phase><azimuth>286.5462646484375</azimuth><distance>0.6834161281585693</distance><timeResidual>-0.3362884521484375</timeResidual><timeUsed>true</timeUsed><horizontalSlownessUsed>false</horizontalSlownessUsed><backazimuthUsed>false</backazimuthUsed><weight>1</weight></arrival><arrival><pickID>de.gempa.tb1.Pick/20250415040442.42478.143344</pickID><phase>P</phase><azimuth>217.40673828125</azimuth><distance>0.6974108815193176</distance><timeResidual>-0.07261466979980469</timeResidual><timeUsed>true</timeUsed><horizontalSlownessUsed>false</horizontalSlownessUsed><backazimuthUsed>false</backazimuthUsed><weight>1</weight></arrival><arrival><pickID>de.gempa.tb1.Pick/20250415040443.545559.143346</pickID><phase>P</phase><azimuth>265.43255615234375</azimuth><distance>1.0381983518600464</distance><timeResidual>0.34761810302734375</timeResidual><timeUsed>true</timeUsed><horizontalSlownessUsed>false</horizontalSlownessUsed><backazimuthUsed>false</backazimuthUsed><weight>1</weight></arrival><arrival><pickID>de.gempa.tb1.Pick/20250415040444.527259.143348</pickID><phase>P</phase><azimuth>342.4779968261719</azimuth><distance>1.1464216709136963</distance><timeResidual>0.35483360290527344</timeResidual><timeUsed>true</timeUsed><horizontalSlownessUsed>false</horizontalSlownessUsed><backazimuthUsed>false</backazimuthUsed><weight>1</weight></arrival><arrival><pickID>de.gempa.tb1.Pick/20250415040444.766714.143350</pickID><phase>P</phase><azimuth>228.02879333496094</azimuth><distance>1.206717610359192</distance><timeResidual>0.01645660400390625</timeResidual><timeUsed>true</timeUsed><horizontalSlownessUsed>false</horizontalSlownessUsed><backazimuthUsed>false</backazimuthUsed><weight>1</weight></arrival><arrival><pickID>de.gempa.tb1.Pick/20250415040446.408533.143352</pickID><phase>P</phase><azimuth>287.8608093261719</azimuth><distance>1.3433685302734375</distance><timeResidual>0.4165000915527344</timeResidual><timeUsed>true</timeUsed><horizontalSlownessUsed>false</horizontalSlownessUsed><backazimuthUsed>false</backazimuthUsed><weight>1</weight></arrival><arrival><pickID>de.gempa.tb1.Pick/20250415040449.622502.143354</pickID><phase>P</phase><azimuth>206.42575073242188</azimuth><distance>1.6306508779525757</distance><timeResidual>-0.09277915954589844</timeResidual><timeUsed>true</timeUsed><horizontalSlownessUsed>false</horizontalSlownessUsed><backazimuthUsed>false</backazimuthUsed><weight>1</weight></arrival><arrival><pickID>de.gempa.tb1.Pick/20250415040453.621685.143356</pickID><phase>P</phase><azimuth>197.82400512695312</azimuth><distance>2.0588419437408447</distance><timeResidual>0.24395179748535156</timeResidual><timeUsed>true</timeUsed><horizontalSlownessUsed>false</horizontalSlownessUsed><backazimuthUsed>false</backazimuthUsed><weight>1</weight></arrival><arrival><pickID>de.gempa.tb1.Pick/20250415040455.555672.143358</pickID><phase>P</phase><azimuth>322.2749938964844</azimuth><distance>2.0602874755859375</distance><timeResidual>-0.8141155242919922</timeResidual><timeUsed>true</timeUsed><horizontalSlownessUsed>false</horizontalSlownessUsed><backazimuthUsed>false</backazimuthUsed><weight>1</weight></arrival><arrival><pickID>de.gempa.tb1.Pick/20250415040456.801535.143360</pickID><phase>S</phase><azimuth>286.5462646484375</azimuth><distance>0.6834161281585693</distance><timeResidual>-0.4382457733154297</timeResidual><timeUsed>true</timeUsed><horizontalSlownessUsed>false</horizontalSlownessUsed><backazimuthUsed>false</backazimuthUsed><weight>1</weight></arrival><arrival><pickID>de.gempa.tb1.Pick/20250415040459.57126.143361</pickID><phase>S</phase><azimuth>265.43255615234375</azimuth><distance>1.0381983518600464</distance><timeResidual>0.06996726989746094</timeResidual><timeUsed>true</timeUsed><horizontalSlownessUsed>false</horizontalSlownessUsed><backazimuthUsed>false</backazimuthUsed><weight>1</weight></arrival><arrival><pickID>de.gempa.tb1.Pick/20250415040501.505217.143362</pickID><phase>P</phase><azimuth>189.87913513183594</azimuth><distance>2.6925699710845947</distance><timeResidual>0.037158966064453125</timeResidual><timeUsed>true</timeUsed><horizontalSlownessUsed>false</horizontalSlownessUsed><backazimuthUsed>false</backazimuthUsed><weight>1</weight></arrival><arrival><pickID>de.gempa.tb1.Pick/20250415040503.69681.143366</pickID><phase>S</phase><azimuth>228.02879333496094</azimuth><distance>1.206717610359192</distance><timeResidual>-0.28574180603027344</timeResidual><timeUsed>true</timeUsed><horizontalSlownessUsed>false</horizontalSlownessUsed><backazimuthUsed>false</backazimuthUsed><weight>1</weight></arrival><arrival><pickID>de.gempa.tb1.Pick/20250415040506.098416.143368</pickID><phase>S</phase><azimuth>342.4779968261719</azimuth><distance>1.1464216709136963</distance><timeResidual>0.3848915100097656</timeResidual><timeUsed>true</timeUsed><horizontalSlownessUsed>false</horizontalSlownessUsed><backazimuthUsed>false</backazimuthUsed><weight>1</weight></arrival><arrival><pickID>de.gempa.tb1.Pick/20250415040509.268803.143370</pickID><phase>S</phase><azimuth>287.8608093261719</azimuth><distance>1.3433685302734375</distance><timeResidual>0.4926013946533203</timeResidual><timeUsed>true</timeUsed><horizontalSlownessUsed>false</horizontalSlownessUsed><backazimuthUsed>false</backazimuthUsed><weight>1</weight></arrival><arrival><pickID>de.gempa.tb1.Pick/20250415040510.184064.143371</pickID><phase>P</phase><azimuth>244.51512145996094</azimuth><distance>1.133150577545166</distance><timeResidual>0.18677330017089844</timeResidual><timeUsed>true</timeUsed><horizontalSlownessUsed>false</horizontalSlownessUsed><backazimuthUsed>false</backazimuthUsed><weight>1</weight></arrival><arrival><pickID>de.gempa.tb1.Pick/20250415040513.58532.143377</pickID><phase>S</phase><azimuth>206.42575073242188</azimuth><distance>1.6306508779525757</distance><timeResidual>-0.27855873107910156</timeResidual><timeUsed>true</timeUsed><horizontalSlownessUsed>false</horizontalSlownessUsed><backazimuthUsed>fal