<?xml version="1.0" encoding="UTF-8"?>
<seiscomp xmlns="http://geofon.gfz-potsdam.de/ns/seiscomp3-schema/0.13" version="0.13"><EventParameters><pick publicID="de.gempa.tb1.Pick/20250413124824.570014.131273"><time><value>2025-04-13T12:48:18.978394Z</value></time><waveformID networkCode="CX" stationCode="PB01" channelCode="HHZ"/><filterID>ITAPER(4)&gt;&gt;BW(4,4,20)</filterID><methodID>AIC</methodID><horizontalSlowness><value>21.621008697256755</value></horizontalSlowness><backazimuth><value>347.6164576797453</value></backazimuth><phaseHint>P</phaseHint><evaluationMode>automatic</evaluationMode><comment><text>23.788664818459555</text><id>DFX:rectilinearity</id></comment><comment><text>30.05145516816767</text><id>SNR</id></comment></pick><pick publicID="de.gempa.tb1.Pick/20250413124827.537645.131275"><time><value>2025-04-13T12:48:21.158393Z</value></time><waveformID networkCode="CX" stationCode="PB08" channelCode="HHZ"/><filterID>ITAPER(4)&gt;&gt;BW(4,4,20)</filterID><methodID>AIC</methodID><horizontalSlowness><value>13.752056604068082</value></horizontalSlowness><backazimuth><value>93.09519069146695</value></backazimuth><phaseHint>P</phaseHint><evaluationMode>automatic</evaluationMode><comment><text>8.812765993762678</text><id>DFX:rectilinearity</id></comment><comment><text>7.712665486851235</text><id>SNR</id></comment></pick><pick publicID="de.gempa.tb1.Pick/20250413124834.589328.131277"><time><value>2025-04-13T12:48:29.078393Z</value></time><waveformID networkCode="CX" stationCode="PB03" channelCode="HHZ"/><filterID>ITAPER(4)&gt;&gt;BW(4,4,20)</filterID><methodID>AIC</methodID><horizontalSlowness><value>19.818498138844845</value></horizontalSlowness><backazimuth><value>295.40935687512763</value></backazimuth><phaseHint>P</phaseHint><evaluationMode>automatic</evaluationMode><comment><text>11.231985007757103</text><id>DFX:rectilinearity</id></comment><comment><text>9.276741377598668</text><id>SNR</id></comment></pick><pick publicID="de.gempa.tb1.Pick/20250413124834.682304.131279"><time><value>2025-04-13T12:48:23.828393Z</value></time><waveformID networkCode="CX" stationCode="PB02" channelCode="HHZ"/><filterID>ITAPER(4)&gt;&gt;BW(4,4,20)</filterID><methodID>AIC</methodID><horizontalSlowness><value>15.623943306783426</value></horizontalSlowness><backazimuth><value>314.4611907300896</value></backazimuth><phaseHint>P</phaseHint><evaluationMode>automatic</evaluationMode><comment><text>65.59950865183316</text><id>DFX:rectilinearity</id></comment><comment><text>9.684214558229417</text><id>SNR</id></comment></pick><pick publicID="de.gempa.tb1.Pick/20250413124836.777569.131281"><time><value>2025-04-13T12:48:31.138394Z</value></time><waveformID networkCode="CX" stationCode="PB01" channelCode="HHN"/><filterID>ITAPER(2)&gt;&gt;BW(3,3,20)</filterID><methodID>L2-AIC-GRID</methodID><horizontalSlowness><value>19.751194787951448</value></horizontalSlowness><backazimuth><value>279.5556148429482</value></backazimuth><phaseHint>S</phaseHint><evaluationMode>automatic</evaluationMode><comment><text>202.91114514264257</text><id>DFX:rectilinearity</id></comment><comment><text>de.gempa.tb1.Pick/20250413124824.570014.131273</text><id>RefPickID</id></comment><comment><text>18.58282362170035</text><id>SNR</id></comment></pick><pick publicID="de.gempa.tb1.Pick/20250413124840.489316.131282"><time><value>2025-04-13T12:48:30.33Z</value></time><waveformID networkCode="CX" stationCode="PSGCX" channelCode="HHZ"/><filterID>ITAPER(4)&gt;&gt;BW(4,4,20)</filterID><methodID>AIC</methodID><horizontalSlowness><value>6.063431235344975</value></horizontalSlowness><backazimuth><value>152.3374911977344</value></backazimuth><phaseHint>P</phaseHint><evaluationMode>automatic</evaluationMode><comment><text>44.49791548415193</text><id>DFX:rectilinearity</id></comment><comment><text>8.535563961861161</text><id>SNR</id></comment></pick><pick publicID="de.gempa.tb1.Pick/20250413124843.157419.131286"><time><value>2025-04-13T12:48:34.398393Z</value></time><waveformID networkCode="CX" stationCode="PB08" channelCode="HHN"/><filterID>ITAPER(2)&gt;&gt;BW(3,3,20)</filterID><methodID>L2-AIC-GRID</methodID><horizontalSlowness><value>15.36643042555551</value></horizontalSlowness><backazimuth><value>208.43562229130865</value></backazimuth><phaseHint>S</phaseHint><evaluationMode>automatic</evaluationMode><comment><text>180.29210431826738</text><id>DFX:rectilinearity</id></comment><comment><text>de.gempa.tb1.Pick/20250413124827.537645.131275</text><id>RefPickID</id></comment><comment><text>10.867144620041147</text><id>SNR</id></comment></pick><pick publicID="de.gempa.tb1.Pick/20250413124844.295498.131287"><time><value>2025-04-13T12:48:24.6Z</value></time><waveformID networkCode="CX" stationCode="PB09" channelCode="HHZ"/><filterID>ITAPER(4)&gt;&gt;BW(4,4,20)</filterID><methodID>AIC</methodID><horizontalSlowness><value>14.391728414877418</value></horizontalSlowness><backazimuth><value>272.31453340572847</value></backazimuth><phaseHint>P</phaseHint><evaluationMode>automatic</evaluationMode><comment><text>25.0861814056061</text><id>DFX:rectilinearity</id></comment><comment><text>27.897892833693007</text><id>SNR</id></comment></pick><pick publicID="de.gempa.tb1.Pick/20250413124848.634955.131291"><time><value>2025-04-13T12:48:39.158393Z</value></time><waveformID networkCode="CX" stationCode="PB02" channelCode="HHN"/><filterID>ITAPER(2)&gt;&gt;BW(3,3,20)</filterID><methodID>L2-AIC-GRID</methodID><horizontalSlowness><value>16.357463894528742</value></horizontalSlowness><backazimuth><value>350.21401447882795</value></backazimuth><phaseHint>S</phaseHint><evaluationMode>automatic</evaluationMode><comment><text>86.9375036717272</text><id>DFX:rectilinearity</id></comment><comment><text>de.gempa.tb1.Pick/20250413124834.682304.131279</text><id>RefPickID</id></comment><comment><text>8.951883364813387</text><id>SNR</id></comment></pick><pick publicID="de.gempa.tb1.Pick/20250413124859.600604.131294"><time><value>2025-04-13T12:48:48.288393Z</value></time><waveformID networkCode="CX" stationCode="PB03" channelCode="HHN"/><filterID>ITAPER(2)&gt;&gt;BW(3,3,20)</filterID><methodID>L2-AIC-GRID</methodID><horizontalSlowness><value>11.655238296804752</value></horizontalSlowness><backazimuth><value>178.05039594140754</value></backazimuth><phaseHint>S</phaseHint><evaluationMode>automatic</evaluationMode><comment><text>31.58534673641888</text><id>DFX:rectilinearity</id></comment><comment><text>de.gempa.tb1.Pick/20250413124834.589328.131277</text><id>RefPickID</id></comment><comment><text>6.09876433432577</text><id>SNR</id></comment></pick><origin publicID="de.gempa.tb1.Origin/20250413124859.604075.110408"><time><value>2025-04-13T12:48:03.85731Z</value><uncertainty>0.9016742706298828</uncertainty></time><latitude><value>-20.790374755859375</value><uncertainty>3.9970810413360596</uncertainty></latitude><longitude><value>-69.0875473022461</value><uncertainty>9.836723327636719</uncertainty></longitude><depth><value>101.7024917602539</value><uncertainty>7.297118186950684</uncertainty></depth><depthType>from location</depthType><methodID>LOCSAT</methodID><earthModelID>iasp91_scanloc</earthModelID><quality><associatedPhaseCount>10</associatedPhaseCount><usedPhaseCount>10</usedPhaseCount><associatedStationCount>6</associatedStationCount><usedStationCount>6</usedStationCount><depthPhaseCount>0</depthPhaseCount><standardError>0.2827356982239704</standardError><azimuthalGap>193.62744140625</azimuthalGap><maximumDistance>1.5346531867980957</maximumDistance><minimumDistance>0.4505956172943115</minimumDistance><medianDistance>0.9206961393356323</medianDistance></quality><uncertainty><minHorizontalUncertainty>7.010477066040039</minHorizontalUncertainty><maxHorizontalUncertainty>21.66079330444336</maxHorizontalUncertainty><azimuthMaxHorizontalUncertainty>103.9201431274414</azimuthMaxHorizontalUncertainty><preferredDescription>horizontal uncertainty</preferredDescription></uncertainty><evaluationMode>automatic</evaluationMode><evaluationStatus>confirmed</evaluationStatus><comment><text>0.12</text><id>mismatchScore</id></comment><comment><text>mismatchScore</text><id>scevalMethod</id></comment><arrival><pickID>de.gempa.tb1.Pick/20250413124824.570014.131273</pickID><phase>P</phase><azimuth>235.9873809814453</azimuth><distance>0.4505956172943115</distance><timeResidual>-0.5026769638061523</timeResidual><timeUsed>true</timeUsed><horizontalSlownessUsed>false</horizontalSlownessUsed><backazimuthUsed>false</backazimuthUsed><weight>1</weight></arrival><arrival><pickID>de.gempa.tb1.Pick/20250413124827.537645.131275</pickID><phase>P</phase><azimuth>354.528564453125</azimuth><distance>0.648905336856842</distance><timeResidual>0.16882705688476562</timeResidual><timeUsed>true</timeUsed><horizontalSlownessUsed>false</horizontalSlownessUsed><backazimuthUsed>false</backazimuthUsed><weight>1</weight></arrival><arrival><pickID>de.gempa.tb1.Pick/20250413124834.589328.131277</pickID><phase>P</phase><azimuth>206.2315673828125</azimuth><distance>1.3970680236816406</distance><timeResidual>0.127960205078125</timeResidual><timeUsed>true</timeUsed><horizontalSlownessUsed>false</horizontalSlownessUsed><backazimuthUsed>false</backazimuthUsed><weight>1</weight></arrival><arrival><pickID>de.gempa.tb1.Pick/20250413124834.682304.131279</pickID><phase>P</phase><azimuth>234.96034240722656</azimuth><distance>0.9206961393356323</distance><timeResidual>0.25992584228515625</timeResidual><timeUsed>true</timeUsed><horizontalSlownessUsed>false</horizontalSlownessUsed><backazimuthUsed>false</backazimuthUsed><weight>1</weight></arrival><arrival><pickID>de.gempa.tb1.Pick/20250413124836.777569.131281</pickID><phase>S</phase><azimuth>235.9873809814453</azimuth><distance>0.4505956172943115</distance><timeResidual>-0.349853515625</timeResidual><timeUsed>true</timeUsed><horizontalSlownessUsed>false</horizontalSlownessUsed><backazimuthUsed>false</backazimuthUsed><weight>1</weight></arrival><arrival><pickID>de.gempa.tb1.Pick/20250413124840.489316.131282</pickID><phase>P</phase><azimuth>320.4925231933594</azimuth><distance>1.5346531867980957</distance><timeResidual>-0.3051471710205078</timeResidual><timeUsed>true</timeUsed><horizontalSlownessUsed>false</horizontalSlownessUsed><backazimuthUsed>false</backazimuthUsed><weight>1</weight></arrival><arrival><pickID>de.gempa.tb1.Pick/20250413124843.157419.131286</pickID><phase>S</phase><azimuth>354.528564453125</azimuth><distance>0.648905336856842</distance><timeResidual>0.22744083404541016</timeResidual><timeUsed>true</timeUsed><horizontalSlownessUsed>false</horizontalSlownessUsed><backazimuthUsed>false</backazimuthUsed><weight>1</weight></arrival><arrival><pickID>de.gempa.tb1.Pick/20250413124844.295498.131287</pickID><phase>P</phase><azimuth>188.156005859375</azimuth><distance>1.0113297700881958</distance><timeResidual>0.07528400421142578</timeResidual><timeUsed>true</timeUsed><horizontalSlownessUsed>false</horizontalSlownessUsed><backazimuthUsed>false</backazimuthUsed><weight>1</weight></arrival><arrival><pickID>de.gempa.tb1.Pick/20250413124848.634955.131291</pickID><phase>S</phase><azimuth>234.96034240722656</azimuth><distance>0.9206961393356323</distance><timeResidual>0.3908653259277344</timeResidual><timeUsed>true</timeUsed><horizontalSlownessUsed>false</horizontalSlownessUsed><backazimuthUsed>false</backazimuthUsed><weight>1</weight></arrival><arrival><pickID>de.gempa.tb1.Pick/20250413124859.600604.131294</pickID><phase>S</phase><azimuth>206.2315673828125</azimuth><distance>1.3970680236816406</distance><timeResidual>-0.09267044067382812</timeResidual><timeUsed>true</timeUsed><horizontalSlownessUsed>false</horizontalSlownessUsed><backazimuthUsed>false</backazimuthUsed><weight>1</weight></arrival><magnitude publicID="de.gempa.tb1.Magnitude/20250413124859.609488.358547"><magnitude><value>1.805737703689286</value></magnitude><type>M</type><methodID>weighted average</methodID><stationCount>5</stationCount></magnitude></origin><event publicID="gempa2025hhjv"><preferredOriginID>de.gempa.tb1.Origin/20250413124859.604075.110408</preferredOriginID><preferredMagnitudeID>de.gempa.tb1.Magnitude/20250413124859.609488.358547</preferredMagnitudeID><description><text>Northern Chile</text><type>region name</type></description><originReference>de.gempa.tb1.Origin/20250413124859.604075.110408</originReference></event></EventParameters></seiscomp>