<?xml version="1.0" encoding="UTF-8"?>
<seiscomp xmlns="http://geofon.gfz-potsdam.de/ns/seiscomp3-schema/0.13" version="0.13"><EventParameters><pick publicID="de.gempa.tb1.Pick/20250412205352.283736.190026"><time><value>2025-04-12T20:53:46.87Z</value></time><waveformID networkCode="SX" stationCode="ROHR" channelCode="HHZ"/><filterID>ITAPER(2)&gt;&gt;BW(3,3,20)</filterID><methodID>AIC</methodID><horizontalSlowness><value>1.3530497651701614</value></horizontalSlowness><backazimuth><value>281.78010925596215</value></backazimuth><phaseHint>P</phaseHint><evaluationMode>automatic</evaluationMode><comment><text>26.11324281477013</text><id>DFX:rectilinearity</id></comment></pick><pick publicID="de.gempa.tb1.Pick/20250412205354.546999.190033"><time><value>2025-04-12T20:53:47.89Z</value></time><waveformID networkCode="SX" stationCode="TANN" channelCode="HHZ"/><filterID>ITAPER(2)&gt;&gt;BW(3,3,20)</filterID><methodID>AIC</methodID><horizontalSlowness><value>18.276464870310324</value></horizontalSlowness><backazimuth><value>309.56594416969426</value></backazimuth><phaseHint>P</phaseHint><evaluationMode>automatic</evaluationMode><comment><text>24.096692922289705</text><id>DFX:rectilinearity</id></comment></pick><pick publicID="de.gempa.tb1.Pick/20250412205354.551894.190035"><time><value>2025-04-12T20:53:47.91Z</value></time><waveformID networkCode="SX" stationCode="MULD" channelCode="HHZ"/><filterID>ITAPER(2)&gt;&gt;BW(3,3,20)</filterID><methodID>AIC</methodID><horizontalSlowness><value>21.878440695365526</value></horizontalSlowness><backazimuth><value>314.5894620484206</value></backazimuth><phaseHint>P</phaseHint><evaluationMode>automatic</evaluationMode><comment><text>26.057464297027746</text><id>DFX:rectilinearity</id></comment></pick><pick publicID="de.gempa.tb1.Pick/20250412205354.552687.190037"><time><value>2025-04-12T20:53:46.6375Z</value></time><waveformID networkCode="SX" stationCode="WERN" channelCode="HHZ"/><filterID>ITAPER(2)&gt;&gt;BW(3,3,20)</filterID><methodID>AIC</methodID><horizontalSlowness><value>23.47578626693799</value></horizontalSlowness><backazimuth><value>64.75110606859477</value></backazimuth><phaseHint>P</phaseHint><evaluationMode>automatic</evaluationMode><comment><text>231.57009313923183</text><id>DFX:rectilinearity</id></comment></pick><pick publicID="de.gempa.tb1.Pick/20250412205354.697668.190039"><time><value>2025-04-12T20:53:48.82Z</value></time><waveformID networkCode="SX" stationCode="WERD" channelCode="HHZ"/><filterID>ITAPER(2)&gt;&gt;BW(3,3,20)</filterID><methodID>AIC</methodID><horizontalSlowness><value>23.29657534491067</value></horizontalSlowness><backazimuth><value>219.58318204312334</value></backazimuth><phaseHint>P</phaseHint><evaluationMode>automatic</evaluationMode><comment><text>21.765259916084812</text><id>DFX:rectilinearity</id></comment></pick><pick publicID="de.gempa.tb1.Pick/20250412205354.891445.190041"><time><value>2025-04-12T20:53:47.58Z</value></time><waveformID networkCode="SX" stationCode="GUNZ" channelCode="HHZ"/><filterID>ITAPER(2)&gt;&gt;BW(3,3,20)</filterID><methodID>AIC</methodID><horizontalSlowness><value>23.39055817952023</value></horizontalSlowness><backazimuth><value>286.4827656979434</value></backazimuth><phaseHint>P</phaseHint><evaluationMode>automatic</evaluationMode><comment><text>59.37498063877918</text><id>DFX:rectilinearity</id></comment></pick><pick publicID="de.gempa.tb1.Pick/20250412205356.924564.190043"><time><value>2025-04-12T20:53:48.91Z</value></time><waveformID networkCode="SX" stationCode="TRIB" channelCode="HHZ"/><filterID>ITAPER(2)&gt;&gt;BW(3,3,20)</filterID><methodID>AIC</methodID><horizontalSlowness><value>21.746318139842437</value></horizontalSlowness><backazimuth><value>66.69103681368753</value></backazimuth><phaseHint>P</phaseHint><evaluationMode>automatic</evaluationMode><comment><text>2.5983967333829994</text><id>DFX:rectilinearity</id></comment></pick><pick publicID="de.gempa.tb1.Pick/20250412205357.621475.190045"><time><value>2025-04-12T20:53:54.365Z</value></time><waveformID networkCode="BW" stationCode="ROTZ" channelCode="HHZ"/><filterID>ITAPER(2)&gt;&gt;BW(3,3,20)</filterID><methodID>AIC</methodID><horizontalSlowness><value>9.946130038315129</value><uncertainty>5.773736471234473</uncertainty></horizontalSlowness><backazimuth><value>112.720766777367</value><uncertainty>33.74589555743656</uncertainty></backazimuth><phaseHint>P</phaseHint><evaluationMode>automatic</evaluationMode><comment><text>0.6407715847824024</text><id>DFX:rectilinearity</id></comment></pick><pick publicID="de.gempa.tb1.Pick/20250412205358.34269.190050"><time><value>2025-04-12T20:53:48.5Z</value></time><waveformID networkCode="SX" stationCode="ROHR" channelCode="HHN"/><filterID>ITAPER(3)&gt;&gt;BW(4,3,10)</filterID><methodID>L2-AIC-GRID</methodID><horizontalSlowness><value>1.0031837351436546</value></horizontalSlowness><backazimuth><value>221.44653333356163</value></backazimuth><phaseHint>S</phaseHint><evaluationMode>automatic</evaluationMode><comment><text>29.481194249046883</text><id>DFX:rectilinearity</id></comment><comment><text>de.gempa.tb1.Pick/20250412205352.283736.190026</text><id>RefPickID</id></comment></pick><pick publicID="de.gempa.tb1.Pick/20250412205359.441233.190052"><time><value>2025-04-12T20:53:55.625Z</value></time><waveformID networkCode="BW" stationCode="MANZ" channelCode="HHN"/><filterID>ITAPER(3)&gt;&gt;BW(4,3,10)</filterID><methodID>L2-AIC-GRID</methodID><horizontalSlowness><value>21.080060703651775</value></horizontalSlowness><backazimuth><value>107.89412976725875</value></backazimuth><phaseHint>S</phaseHint><evaluationMode>automatic</evaluationMode><comment><text>10.15890199207662</text><id>DFX:rectilinearity</id></comment><comment><text>de.gempa.tb1.Pick/20250412205348.102288.190017</text><id>RefPickID</id></comment></pick><pick publicID="de.gempa.tb1.Pick/20250412205359.60426.190054"><time><value>2025-04-12T20:53:51.59Z</value></time><waveformID networkCode="SX" stationCode="WERD" channelCode="HHN"/><filterID>ITAPER(3)&gt;&gt;BW(4,3,10)</filterID><methodID>L2-AIC-GRID</methodID><horizontalSlowness><value>22.812871641410663</value></horizontalSlowness><backazimuth><value>217.80341990560427</value></backazimuth><phaseHint>S</phaseHint><evaluationMode>automatic</evaluationMode><comment><text>22.06227220771164</text><id>DFX:rectilinearity</id></comment><comment><text>de.gempa.tb1.Pick/20250412205354.697668.190039</text><id>RefPickID</id></comment></pick><pick publicID="de.gempa.tb1.Pick/20250412205359.850729.190056"><time><value>2025-04-12T20:53:50.2Z</value></time><waveformID networkCode="SX" stationCode="TANN" channelCode="HHN"/><filterID>ITAPER(3)&gt;&gt;BW(4,3,10)</filterID><methodID>L2-AIC-GRID</methodID><horizontalSlowness><value>18.886166714926073</value></horizontalSlowness><backazimuth><value>305.527871604689</value></backazimuth><phaseHint>S</phaseHint><evaluationMode>automatic</evaluationMode><comment><text>27.09241754664941</text><id>DFX:rectilinearity</id></comment><comment><text>de.gempa.tb1.Pick/20250412205354.546999.190033</text><id>RefPickID</id></comment></pick><pick publicID="de.gempa.tb1.Pick/20250412205400.00579.190058"><time><value>2025-04-12T20:53:51.31Z</value></time><waveformID networkCode="SX" stationCode="LEUT" channelCode="HHZ"/><filterID>ITAPER(2)&gt;&gt;BW(3,3,20)</filterID><methodID>AIC</methodID><horizontalSlowness><value>17.258111965881358</value></horizontalSlowness><backazimuth><value>122.4081525678122</value></backazimuth><phaseHint>P</phaseHint><evaluationMode>automatic</evaluationMode><comment><text>1.8512474584581677</text><id>DFX:rectilinearity</id></comment></pick><pick publicID="de.gempa.tb1.Pick/20250412205400.348202.190060"><time><value>2025-04-12T20:53:50.19Z</value></time><waveformID networkCode="SX" stationCode="MULD" channelCode="HHN"/><filterID>ITAPER(3)&gt;&gt;BW(4,3,10)</filterID><methodID>L2-AIC-GRID</methodID><horizontalSlowness><value>22.117681369995221</value></horizontalSlowness><backazimuth><value>314.3867354875174</value></backazimuth><phaseHint>S</phaseHint><evaluationMode>automatic</evaluationMode><comment><text>27.075396358310524</text><id>DFX:rectilinearity</id></comment><comment><text>de.gempa.tb1.Pick/20250412205354.551894.190035</text><id>RefPickID</id></comment></pick><pick publicID="de.gempa.tb1.Pick/20250412205400.87769.190062"><time><value>2025-04-12T20:53:49.61Z</value></time><waveformID networkCode="SX" stationCode="GUNZ" channelCode="HHN"/><filterID>ITAPER(3)&gt;&gt;BW(4,3,10)</filterID><methodID>L2-AIC-GRID</methodID><horizontalSlowness><value>23.37872940542737</value></horizontalSlowness><backazimuth><value>286.42722588546837</value></backazimuth><phaseHint>S</phaseHint><evaluationMode>automatic</evaluationMode><comment><text>59.38995435080522</text><id>DFX:rectilinearity</id></comment><comment><text>de.gempa.tb1.Pick/20250412205354.891445.190041</text><id>RefPickID</id></comment></pick><pick publicID="de.gempa.tb1.Pick/20250412205401.297072.190063"><time><value>2025-04-12T20:53:55.000617Z</value></time><waveformID networkCode="SX" stationCode="MEINS" channelCode="HHZ"/><filterID>ITAPER(2)&gt;&gt;BW(3,3,20)</filterID><methodID>AIC</methodID><horizontalSlowness><value>6.764484302837249</value></horizontalSlowness><backazimuth><value>269.9287972598979</value></backazimuth><phaseHint>P</phaseHint><evaluationMode>automatic</evaluationMode><comment><text>1.227002001764943</text><id>DFX:rectilinearity</id></comment></pick><pick publicID="de.gempa.tb1.Pick/20250412205403.027695.190066"><time><value>2025-04-12T20:53:51.92Z</value></time><waveformID networkCode="SX" stationCode="TRIB" channelCode="HHN"/><filterID>ITAPER(3)&gt;&gt;BW(4,3,10)</filterID><methodID>L2-AIC-GRID</methodID><horizontalSlowness><value>21.707439288392123</value></horizontalSlowness><backazimuth><value>66.29826867337279</value></backazimuth><phaseHint>S</phaseHint><evaluationMode>automatic</evaluationMode><comment><text>2.591456918860774</text><id>DFX:rectilinearity</id></comment><comment><text>de.gempa.tb1.Pick/20250412205356.924564.190043</text><id>RefPickID</id></comment></pick><pick publicID="de.gempa.tb1.Pick/20250412205403.883229.190067"><time><value>2025-04-12T20:53:52.54Z</value></time><waveformID networkCode="SX" stationCode="SCHF" channelCode="HHZ"/><filterID>ITAPER(2)&gt;&gt;BW(3,3,20)</filterID><methodID>AIC</methodID><horizontalSlowness><value>21.85858221689811</value></horizontalSlowness><backazimuth><value>228.02583280119106</value></backazimuth><phaseHint>P</phaseHint><evaluationMode>automatic</evaluationMode><comment><text>4.988370452296232</text><id>DFX:rectilinearity</id></comment></pick><pick publicID="de.gempa.tb1.Pick/20250412205403.897412.190069"><time><value>2025-04-12T20:54:01.135Z</value></time><waveformID networkCode="BW" stationCode="ROTZ" channelCode="HHN"/><filterID>ITAPER(3)&gt;&gt;BW(4,3,10)</filterID><methodID>L2-AIC-GRID</methodID><horizontalSlowness><value>22.00766849992963</value><uncertainty>5.720771050923723</uncertainty></horizontalSlowness><backazimuth><value>280.4575434849084</value><uncertainty>14.935974005936487</uncertainty></backazimuth><phaseHint>S</phaseHint><evaluationMode>automatic</evaluationMode><comment><text>0.6506194398025049</text><id>DFX:rectilinearity</id></comment><comment><text>de.gempa.tb1.Pick/20250412205357.621475.190045</text><id>RefPickID</id></comment></pick><pick publicID="de.gempa.tb1.Pick/20250412205407.177752.190073"><time><value>2025-04-12T20:53:56.12Z</value></time><waveformID networkCode="SX" stationCode="LEUT" channelCode="HHN"/><filterID>ITAPER(3)&gt;&gt;BW(4,3,10)</filterID><methodID>L2-AIC-GRID</methodID><horizontalSlowness><value>17.40702653889435</value></horizontalSlowness><backazimuth><value>83.51182195899629</value></backazimuth><phaseHint>S</phaseHint><evaluationMode>automatic</evaluationMode><comment><text>1.6493877536618478</text><id>DFX:rectilinearity</id></comment><comment><text>de.gempa.tb1.Pick/20250412205400.00579.190058</text><id>RefPickID</id></comment></pick><origin publicID="de.gempa.tb1.Origin/20250412205414.162056.174477"><time><value>2025-04-12T20:53:44.197323Z</value><uncertainty>0.4615477323532104</uncertainty></time><latitude><value>50.24800872802734</value><uncertainty>1.6216835975646973</uncertainty></latitude><longitude><value>12.48066806793213</value><uncertainty>3.1454856395721436</uncertainty></longitude><depth><value>2.3966240882873535</value><uncertainty>2.0676498413085938</uncertainty></depth><depthType>from location</depthType><methodID>LOCSAT</methodID><earthModelID>iasp91</earthModelID><quality><associatedPhaseCount>20</associatedPhaseCount><usedPhaseCount>20</usedPhaseCount><associatedStationCount>12</associatedStationCount><usedStationCount>12</usedStationCount><depthPhaseCount>0</depthPhaseCount><standardError>0.2707858791510833</standardError><azimuthalGap>172.58419799804688</azimuthalGap><maximumDistance>0.5483982563018799</maximumDistance><minimumDistance>0.07783656567335129</minimumDistance><medianDistance>0.2290733754634857</medianDistance></quality><uncertainty><minHorizontalUncertainty>2.920313596725464</minHorizontalUncertainty><maxHorizontalUncertainty>6.99997615814209</maxHorizontalUncertainty><azimuthMaxHorizontalUncertainty>107.23228454589844</azimuthMaxHorizontalUncertainty><preferredDescription>horizontal uncertainty</preferredDescription></uncertainty><evaluationMode>automatic</evaluationMode><evaluationStatus>confirmed</evaluationStatus><comment><text>0.06</text><id>mismatchScore</id></comment><comment><text>mismatchScore</text><id>scevalMethod</id></comment><arrival><pickID>de.gempa.tb1.Pick/20250412205352.283736.190026</pickID><phase>P</phase><azimuth>262.46148681640625</azimuth><distance>0.10602207481861115</distance><timeResidual>0.20373249053955078</timeResidual><timeUsed>true</timeUsed><horizontalSlownessUsed>false</horizontalSlownessUsed><backazimuthUsed>false</backazimuthUsed><weight>1</weight></arrival><arrival><pickID>de.gempa.tb1.Pick/20250412205354.546999.190033</pickID><phase>P</phase><azimuth>355.6962585449219</azimuth><distance>0.16767066717147827</distance><timeResidual>0.07293081283569336</timeResidual><timeUsed>true</timeUsed><horizontalSlownessUsed>false</horizontalSlownessUsed><backazimuthUsed>false</backazimuthUsed><weight>1</weight></arrival><arrival><pickID>de.gempa.tb1.Pick/20250412205354.551894.190035</pickID><phase>P</phase><azimuth>343.3291320800781</azimuth><distance>0.1712133288383484</distance><timeResidual>0.02677321434020996</timeResidual><timeUsed>true</timeUsed><horizontalSlownessUsed>false</horizontalSlownessUsed><backazimuthUsed>false</backazimuthUsed><weight>1</weight></arrival><arrival><pickID>de.gempa.tb1.Pick/20250412205354.552687.190037</pickID><phase>P</phase><azimuth>300.48291015625</azimuth><distance>0.07783656567335129</distance><timeResidual>0.4976385831832886</timeResidual><timeUsed>true</timeUsed><horizontalSlownessUsed>false</horizontalSlownessUsed><backazimuthUsed>false</backazimuthUsed><weight>1</weight></arrival><arrival><pickID>de.gempa.tb1.Pick/20250412205354.697668.190039</pickID><phase>P</phase><azimuth>331.0079040527344</azimuth><distance>0.2290733754634857</distance><timeResidual>-0.14356589317321777</timeResidual><timeUsed>true</timeUsed><horizontalSlownessUsed>false</horizontalSlownessUsed><backazimuthUsed>false</backazimuthUsed><weight>1</weight></arrival><arrival><pickID>de.gempa.tb1.Pick/20250412205354.891445.190041</pickID><phase>P</phase><azimuth>320.4781188964844</azimuth><distance>0.15002387762069702</distance><timeResidual>0.0923464298248291</timeResidual><timeUsed>true</timeUsed><horizontalSlownessUsed>false</horizontalSlownessUsed><backazimuthUsed>false</backazimuthUsed><weight>1</weight></arrival><arrival><pickID>de.gempa.tb1.Pick/20250412205356.924564.190043</pickID><phase>P</phase><azimuth>295.4185791015625</azimuth><distance>0.24375206232070923</distance><timeResidual>-0.32784366607666016</timeResidual><timeUsed>true</timeUsed><horizontalSlownessUsed>false</horizontalSlownessUsed><backazimuthUsed>false</backazimuthUsed><weight>1</weight></arrival><arrival><pickID>de.gempa.tb1.Pick/20250412205357.621475.190045</pickID><phase>P</phase><azimuth>200.2374725341797</azimuth><distance>0.5130066871643066</distance><timeResidual>0.0982818603515625</timeResidual><timeUsed>true</timeUsed><horizontalSlownessUsed>false</horizontalSlownessUsed><backazimuthUsed>false</backazimuthUsed><weight>1</weight></arrival><arrival><pickID>de.gempa.tb1.Pick/20250412205358.34269.190050</pickID><phase>S</phase><azimuth>262.46148681640625</azimuth><distance>0.10602207481861115</distance><timeResidual>0.5320158004760742</timeResidual><timeUsed>true</timeUsed><horizontalSlownessUsed>false</horizontalSlownessUsed><backazimuthUsed>false</backazimuthUsed><weight>1</weight></arrival><arrival><pickID>de.gempa.tb1.Pick/20250412205359.441233.190052</pickID><phase>S</phase><azimuth>222.58639526367188</azimuth><distance>0.35520049929618835</distance><timeResidual>-0.407557487487793</timeResidual><timeUsed>true</timeUsed><horizontalSlownessUsed>false</horizontalSlownessUsed><backazimuthUsed>false</backazimuthUsed><weight>1</weight></arrival><arrival><pickID>de.gempa.tb1.Pick/20250412205359.60426.190054</pickID><phase>S</phase><azimuth>331.0079040527344</azimuth><distance>0.2290733754634857</distance><timeResidual>-0.35923242568969727</timeResidual><timeUsed>true</timeUsed><horizontalSlownessUsed>false</horizontalSlownessUsed><backazimuthUsed>false</backazimuthUsed><weight>1</weight></arrival><arrival><pickID>de.gempa.tb1.Pick/20250412205359.850729.190056</pickID><phase>S</phase><azimuth>355.6962585449219</azimuth><distance>0.16767066717147827</distance><timeResidual>0.23769092559814453</timeResidual><timeUsed>true</timeUsed><horizontalSlownessUsed>false</horizontalSlownessUsed><backazimuthUsed>false</backazimuthUsed><weight>1</weight></arrival><arrival><pickID>de.gempa.tb1.Pick/20250412205400.00579.190058</pickID><phase>P</phase><azimuth>4.2982192039489746</azimuth><distance>0.36066079139709473</distance><timeResidual>-0.11036396026611328</timeResidual><timeUsed>true</timeUsed><horizontalSlownessUsed>false</horizontalSlownessUsed><backazimuthUsed>false</backazimuthUsed><weight>1</weight></arrival><arrival><pickID>de.gempa.tb1.Pick/20250412205400.348202.190060</pickID><phase>S</phase><azimuth>343.3291320800781</azimuth><distance>0.1712133288383484</distance><timeResidual>0.11303496360778809</timeResidual><timeUsed>true</timeUsed><horizontalSlownessUsed>false</horizontalSlownessUsed><backazimuthUsed>false</backazimuthUsed><weight>1</weight></arrival><arrival><pickID>de.gempa.tb1.Pick/20250412205400.87769.190062</pickID><phase>S</phase><azimuth>320.4781188964844</azimuth><distance>0.15002387762069702</distance><timeResidual>0.21856427192687988</timeResidual><timeUsed>true</timeUsed><horizontalSlownessUsed>false</horizontalSlownessUsed><backazimuthUsed>false</backazimuthUsed><weight>1</weight></arrival><arrival><pickID>de.gempa.tb1.Pick/20250412205401.297072.190063</pickID><phase>P</phase><azimuth>27.65327453613281</azimuth><distance>0.5483982563018799</distance><timeResidual>0.07491207122802734</timeResidual><timeUsed>true</timeUsed><horizontalSlownessUsed>false</horizontalSlownessUsed><backazimuthUsed>false</backazimuthUsed><weight>1</weight></arrival><arrival><pickID>de.gempa.tb1.Pick/20250412205403.027695.190066</pickID><phase>S</phase><azimuth>295.4185791015625</azimuth><distance>0.24375206232070923</distance><timeResidual>-0.504608154296875</timeResidual><timeUsed>true</timeUsed><horizontalSlownessUsed>false</horizontalSlownessUsed><backazimuthUsed>false</backazimuthUsed><weight>1</weight></arrival><arrival><pickID>de.gempa.tb1.Pick/20250412205403.883229.190067</pickID><phase>P</phase><azimuth>353.4490051269531</azimuth><distance>0.43257907032966614</distance><timeResidual>-0.22314453125</timeResidual><timeUsed>true</timeUsed><horizontalSlownessUsed>false</horizontalSlownessUsed><backazimuthUsed>false</backazimuthUsed><weight>1</weight></arriva