<?xml version="1.0" encoding="UTF-8"?>
<seiscomp xmlns="http://geofon.gfz-potsdam.de/ns/seiscomp3-schema/0.13" version="0.13"><EventParameters><pick publicID="de.gempa.tb1.Pick/20250414023938.570158.135059"><time><value>2025-04-14T02:39:32.31Z</value></time><waveformID networkCode="CX" stationCode="PSGCX" channelCode="HHZ"/><filterID>ITAPER(4)&gt;&gt;BW(4,4,20)</filterID><methodID>AIC</methodID><horizontalSlowness><value>14.853143826990273</value></horizontalSlowness><backazimuth><value>331.26212662737817</value></backazimuth><phaseHint>P</phaseHint><evaluationMode>automatic</evaluationMode><comment><text>316.69637912155554</text><id>DFX:rectilinearity</id></comment><comment><text>90.77889766808534</text><id>SNR</id></comment></pick><pick publicID="de.gempa.tb1.Pick/20250414023952.245949.135061"><time><value>2025-04-14T02:39:46.919999Z</value></time><waveformID networkCode="CX" stationCode="PATCX" channelCode="HHZ"/><filterID>ITAPER(4)&gt;&gt;BW(4,4,20)</filterID><methodID>AIC</methodID><horizontalSlowness><value>21.69506941142371</value></horizontalSlowness><backazimuth><value>228.7136782739048</value></backazimuth><phaseHint>P</phaseHint><evaluationMode>automatic</evaluationMode><comment><text>177.87871336148496</text><id>DFX:rectilinearity</id></comment><comment><text>21.591656520478107</text><id>SNR</id></comment></pick><pick publicID="de.gempa.tb1.Pick/20250414023953.021846.135063"><time><value>2025-04-14T02:39:45.908393Z</value></time><waveformID networkCode="CX" stationCode="PB08" channelCode="HHZ"/><filterID>ITAPER(4)&gt;&gt;BW(4,4,20)</filterID><methodID>AIC</methodID><horizontalSlowness><value>12.621916866411532</value></horizontalSlowness><backazimuth><value>232.6954407758026</value></backazimuth><phaseHint>P</phaseHint><evaluationMode>automatic</evaluationMode><comment><text>44.77350156239705</text><id>DFX:rectilinearity</id></comment><comment><text>29.240864988456956</text><id>SNR</id></comment></pick><pick publicID="de.gempa.tb1.Pick/20250414024001.661356.135067"><time><value>2025-04-14T02:39:53.218391Z</value></time><waveformID networkCode="CX" stationCode="PB01" channelCode="HHZ"/><filterID>ITAPER(4)&gt;&gt;BW(4,4,20)</filterID><methodID>AIC</methodID><horizontalSlowness><value>14.939568725804227</value></horizontalSlowness><backazimuth><value>209.28067064850546</value></backazimuth><phaseHint>P</phaseHint><evaluationMode>automatic</evaluationMode><comment><text>19.381885100728582</text><id>DFX:rectilinearity</id></comment><comment><text>30.227610740030894</text><id>SNR</id></comment></pick><pick publicID="de.gempa.tb1.Pick/20250414024004.877145.135069"><time><value>2025-04-14T02:39:59.878394Z</value></time><waveformID networkCode="CX" stationCode="PB07" channelCode="HHZ"/><filterID>ITAPER(4)&gt;&gt;BW(4,4,20)</filterID><methodID>AIC</methodID><horizontalSlowness><value>14.045382770170006</value></horizontalSlowness><backazimuth><value>323.48774205265636</value></backazimuth><phaseHint>P</phaseHint><evaluationMode>automatic</evaluationMode><comment><text>316.00959976330017</text><id>DFX:rectilinearity</id></comment><comment><text>32.175219482615354</text><id>SNR</id></comment></pick><pick publicID="de.gempa.tb1.Pick/20250414024009.622427.135071"><time><value>2025-04-14T02:40:04.448393Z</value></time><waveformID networkCode="CX" stationCode="PB03" channelCode="HHZ"/><filterID>ITAPER(4)&gt;&gt;BW(4,4,20)</filterID><methodID>AIC</methodID><horizontalSlowness><value>11.201860992374792</value></horizontalSlowness><backazimuth><value>324.03319819788965</value></backazimuth><phaseHint>P</phaseHint><evaluationMode>automatic</evaluationMode><comment><text>20.165428590851125</text><id>DFX:rectilinearity</id></comment><comment><text>20.089449687633579</text><id>SNR</id></comment></pick><pick publicID="de.gempa.tb1.Pick/20250414024022.568755.135073"><time><value>2025-04-14T02:40:12.758393Z</value></time><waveformID networkCode="CX" stationCode="PB06" channelCode="HHZ"/><filterID>ITAPER(4)&gt;&gt;BW(4,4,20)</filterID><methodID>AIC</methodID><horizontalSlowness><value>8.64292679992378</value></horizontalSlowness><backazimuth><value>67.53535229148912</value></backazimuth><phaseHint>P</phaseHint><evaluationMode>automatic</evaluationMode><comment><text>43.28886885005973</text><id>DFX:rectilinearity</id></comment><comment><text>10.976661418686518</text><id>SNR</id></comment></pick><pick publicID="de.gempa.tb1.Pick/20250414024026.351659.135075"><time><value>2025-04-14T02:40:04.460001Z</value></time><waveformID networkCode="CX" stationCode="PB09" channelCode="HHZ"/><filterID>ITAPER(4)&gt;&gt;BW(4,4,20)</filterID><methodID>AIC</methodID><horizontalSlowness><value>15.503771081676984</value></horizontalSlowness><backazimuth><value>64.73384734974356</value></backazimuth><phaseHint>P</phaseHint><evaluationMode>automatic</evaluationMode><comment><text>19.823828077285494</text><id>DFX:rectilinearity</id></comment><comment><text>22.643269599650814</text><id>SNR</id></comment></pick><pick publicID="de.gempa.tb1.Pick/20250414024028.176882.135077"><time><value>2025-04-14T02:40:20.35Z</value></time><waveformID networkCode="CX" stationCode="PB10" channelCode="HHZ"/><filterID>ITAPER(4)&gt;&gt;BW(4,4,20)</filterID><methodID>AIC</methodID><horizontalSlowness><value>2.7664346024397246</value></horizontalSlowness><backazimuth><value>344.2091914696226</value></backazimuth><phaseHint>P</phaseHint><evaluationMode>automatic</evaluationMode><comment><text>47.75062569865474</text><id>DFX:rectilinearity</id></comment><comment><text>6.101278648858181</text><id>SNR</id></comment></pick><origin publicID="de.gempa.tb1.Origin/20250414024029.197522.123965"><time><value>2025-04-14T02:38:37.443225Z</value><uncertainty>10.064448356628418</uncertainty></time><latitude><value>-16.706682205200195</value><uncertainty>74.24754333496094</uncertainty></latitude><longitude><value>-72.11875915527344</value><uncertainty>40.31196975708008</uncertainty></longitude><depth><value>0</value></depth><depthType>operator assigned</depthType><methodID>LOCSAT</methodID><earthModelID>iasp91_scanloc</earthModelID><quality><associatedPhaseCount>9</associatedPhaseCount><usedPhaseCount>9</usedPhaseCount><associatedStationCount>9</associatedStationCount><usedStationCount>9</usedStationCount><depthPhaseCount>0</depthPhaseCount><standardError>0.3173724838760693</standardError><azimuthalGap>332.9532470703125</azimuthalGap><maximumDistance>6.92949390411377</maximumDistance><minimumDistance>3.444531202316284</minimumDistance><medianDistance>5.420639038085938</medianDistance></quality><uncertainty><minHorizontalUncertainty>42.59206771850586</minHorizontalUncertainty><maxHorizontalUncertainty>176.07855224609375</maxHorizontalUncertainty><azimuthMaxHorizontalUncertainty>153.880126953125</azimuthMaxHorizontalUncertainty><preferredDescription>horizontal uncertainty</preferredDescription></uncertainty><evaluationMode>automatic</evaluationMode><evaluationStatus>confirmed</evaluationStatus><comment><text>0.05</text><id>mismatchScore</id></comment><comment><text>mismatchScore</text><id>scevalMethod</id></comment><arrival><pickID>de.gempa.tb1.Pick/20250414023938.570158.135059</pickID><phase>P</phase><azimuth>146.8759765625</azimuth><distance>3.444531202316284</distance><timeResidual>-0.06868362426757812</timeResidual><timeUsed>true</timeUsed><horizontalSlownessUsed>false</horizontalSlownessUsed><backazimuthUsed>false</backazimuthUsed><weight>1</weight></arrival><arrival><pickID>de.gempa.tb1.Pick/20250414023952.245949.135061</pickID><phase>P</phase><azimuth>155.83351135253906</azimuth><distance>4.4959211349487305</distance><timeResidual>0.0746002197265625</timeResidual><timeUsed>true</timeUsed><horizontalSlownessUsed>false</horizontalSlownessUsed><backazimuthUsed>false</backazimuthUsed><weight>1</weight></arrival><arrival><pickID>de.gempa.tb1.Pick/20250414023953.021846.135063</pickID><phase>P</phase><azimuth>140.9626007080078</azimuth><distance>4.4262213706970215</distance><timeResidual>0.021327972412109375</timeResidual><timeUsed>true</timeUsed><horizontalSlownessUsed>false</horizontalSlownessUsed><backazimuthUsed>false</backazimuthUsed><weight>1</weight></arrival><arrival><pickID>de.gempa.tb1.Pick/20250414024001.661356.135067</pickID><phase>P</phase><azimuth>150.401611328125</azimuth><distance>4.981048107147217</distance><timeResidual>-0.3008842468261719</timeResidual><timeUsed>true</timeUsed><horizontalSlownessUsed>false</horizontalSlownessUsed><backazimuthUsed>false</backazimuthUsed><weight>1</weight></arrival><arrival><pickID>de.gempa.tb1.Pick/20250414024004.877145.135069</pickID><phase>P</phase><azimuth>157.4534912109375</azimuth><distance>5.420639038085938</distance><timeResidual>0.3165168762207031</timeResidual><timeUsed>true</timeUsed><horizontalSlownessUsed>false</horizontalSlownessUsed><backazimuthUsed>false</backazimuthUsed><weight>1</weight></arrival><arrival><pickID>de.gempa.tb1.Pick/20250414024009.622427.135071</pickID><phase>P</phase><azimuth>157.58456420898438</azimuth><distance>5.76366662979126</distance><timeResidual>0.17251968383789062</timeResidual><timeUsed>true</timeUsed><horizontalSlownessUsed>false</horizontalSlownessUsed><backazimuthUsed>false</backazimuthUsed><weight>1</weight></arrival><arrival><pickID>de.gempa.tb1.Pick/20250414024022.568755.135073</pickID><phase>P</phase><azimuth>158.5120849609375</azimuth><distance>6.431818962097168</distance><timeResidual>-0.6987991333007812</timeResidual><timeUsed>true</timeUsed><horizontalSlownessUsed>false</horizontalSlownessUsed><backazimuthUsed>false</backazimuthUsed><weight>1</weight></arrival><arrival><pickID>de.gempa.tb1.Pick/20250414024026.351659.135075</pickID><phase>P</phase><azimuth>152.23133850097656</azimuth><distance>5.745819568634033</distance><timeResidual>0.42890167236328125</timeResidual><timeUsed>true</timeUsed><horizontalSlownessUsed>false</horizontalSlownessUsed><backazimuthUsed>false</backazimuthUsed><weight>1</weight></arrival><arrival><pickID>de.gempa.tb1.Pick/20250414024028.176882.135077</pickID><phase>P</phase><azimuth>168.0093536376953</azimuth><distance>6.92949390411377</distance><timeResidual>0.0550994873046875</timeResidual><timeUsed>true</timeUsed><horizontalSlownessUsed>false</horizontalSlownessUsed><backazimuthUsed>false</backazimuthUsed><weight>1</weight></arrival><magnitude publicID="de.gempa.tb1.Magnitude/20250414024030.938079.420757"><magnitude><value>3.7604178377958157</value></magnitude><type>M</type><methodID>weighted average</methodID><stationCount>7</stationCount></magnitude></origin><event publicID="gempa2025hilo"><preferredOriginID>de.gempa.tb1.Origin/20250414024029.197522.123965</preferredOriginID><preferredMagnitudeID>de.gempa.tb1.Magnitude/20250414024030.938079.420757</preferredMagnitudeID><description><text>Near Coast of Peru</text><type>region name</type></description><originReference>de.gempa.tb1.Origin/20250414024029.197522.123965</originReference></event></EventParameters></seiscomp>