<?xml version="1.0" encoding="UTF-8"?>
<seiscomp xmlns="http://geofon.gfz-potsdam.de/ns/seiscomp3-schema/0.13" version="0.13"><EventParameters><pick publicID="de.gempa.tb1.Pick/20250411135802.549232.118021"><time><value>2025-04-11T13:57:57.310001Z</value></time><waveformID networkCode="CX" stationCode="PB19" channelCode="HHZ"/><filterID>ITAPER(4)&gt;&gt;BW(4,4,20)</filterID><methodID>AIC</methodID><horizontalSlowness><value>23.083078601910344</value></horizontalSlowness><backazimuth><value>194.137166464991</value></backazimuth><phaseHint>P</phaseHint><evaluationMode>automatic</evaluationMode><comment><text>23.52051925009089</text><id>DFX:rectilinearity</id></comment><comment><text>13.524680910046147</text><id>SNR</id></comment></pick><pick publicID="de.gempa.tb1.Pick/20250411135806.68746.118023"><time><value>2025-04-11T13:58:01.948393Z</value></time><waveformID networkCode="CX" stationCode="PB15" channelCode="HHZ"/><filterID>ITAPER(4)&gt;&gt;BW(4,4,20)</filterID><methodID>AIC</methodID><horizontalSlowness><value>21.589499052779924</value></horizontalSlowness><backazimuth><value>131.4553906673434</value></backazimuth><phaseHint>P</phaseHint><evaluationMode>automatic</evaluationMode><comment><text>622.1827150774085</text><id>DFX:rectilinearity</id></comment><comment><text>30.173246228742066</text><id>SNR</id></comment></pick><pick publicID="de.gempa.tb1.Pick/20250411135811.496027.118025"><time><value>2025-04-11T13:58:07.618393Z</value></time><waveformID networkCode="CX" stationCode="PB06" channelCode="HHZ"/><filterID>ITAPER(4)&gt;&gt;BW(4,4,20)</filterID><methodID>AIC</methodID><horizontalSlowness><value>13.210182871131847</value></horizontalSlowness><backazimuth><value>143.72609112749046</value></backazimuth><phaseHint>P</phaseHint><evaluationMode>automatic</evaluationMode><comment><text>87.04402834531588</text><id>DFX:rectilinearity</id></comment><comment><text>32.049817933245315</text><id>SNR</id></comment></pick><pick publicID="de.gempa.tb1.Pick/20250411135814.602552.118027"><time><value>2025-04-11T13:58:07.570001Z</value></time><waveformID networkCode="CX" stationCode="PB19" channelCode="HHN"/><filterID>ITAPER(2)&gt;&gt;BW(3,3,20)</filterID><methodID>L2-AIC-GRID</methodID><horizontalSlowness><value>18.422247616449187</value></horizontalSlowness><backazimuth><value>157.9043705548427</value></backazimuth><phaseHint>S</phaseHint><evaluationMode>automatic</evaluationMode><comment><text>335.6903303614499</text><id>DFX:rectilinearity</id></comment><comment><text>de.gempa.tb1.Pick/20250411135802.549232.118021</text><id>RefPickID</id></comment><comment><text>15.311858659776297</text><id>SNR</id></comment></pick><pick publicID="de.gempa.tb1.Pick/20250411135821.528257.118028"><time><value>2025-04-11T13:58:15.518393Z</value></time><waveformID networkCode="CX" stationCode="PB03" channelCode="HHZ"/><filterID>ITAPER(4)&gt;&gt;BW(4,4,20)</filterID><methodID>AIC</methodID><horizontalSlowness><value>5.986856792531574</value></horizontalSlowness><backazimuth><value>138.85474276154528</value></backazimuth><phaseHint>P</phaseHint><evaluationMode>automatic</evaluationMode><comment><text>6.986222788763254</text><id>DFX:rectilinearity</id></comment><comment><text>11.961434052414464</text><id>SNR</id></comment></pick><pick publicID="de.gempa.tb1.Pick/20250411135824.190357.118030"><time><value>2025-04-11T13:58:16.458393Z</value></time><waveformID networkCode="CX" stationCode="PB15" channelCode="HHN"/><filterID>ITAPER(2)&gt;&gt;BW(3,3,20)</filterID><methodID>L2-AIC-GRID</methodID><horizontalSlowness><value>22.3882089543926</value></horizontalSlowness><backazimuth><value>72.53215307670139</value></backazimuth><phaseHint>S</phaseHint><evaluationMode>automatic</evaluationMode><comment><text>1711.1222076919946</text><id>DFX:rectilinearity</id></comment><comment><text>de.gempa.tb1.Pick/20250411135806.68746.118023</text><id>RefPickID</id></comment><comment><text>6.418376411749379</text><id>SNR</id></comment></pick><pick publicID="de.gempa.tb1.Pick/20250411135828.369909.118031"><time><value>2025-04-11T13:58:19.24Z</value></time><waveformID networkCode="CX" stationCode="PB09" channelCode="HHZ"/><filterID>ITAPER(4)&gt;&gt;BW(4,4,20)</filterID><methodID>AIC</methodID><horizontalSlowness><value>15.691839029875188</value></horizontalSlowness><backazimuth><value>284.69166874107594</value></backazimuth><phaseHint>P</phaseHint><evaluationMode>automatic</evaluationMode><comment><text>18.35808778336311</text><id>DFX:rectilinearity</id></comment><comment><text>29.99585599165264</text><id>SNR</id></comment></pick><pick publicID="de.gempa.tb1.Pick/20250411135831.579636.118034"><time><value>2025-04-11T13:58:24.988393Z</value></time><waveformID networkCode="CX" stationCode="PB02" channelCode="HHZ"/><filterID>ITAPER(4)&gt;&gt;BW(4,4,20)</filterID><methodID>AIC</methodID><horizontalSlowness><value>15.895867009813665</value></horizontalSlowness><backazimuth><value>248.8584319786093</value></backazimuth><phaseHint>P</phaseHint><evaluationMode>automatic</evaluationMode><comment><text>48.47227226547945</text><id>DFX:rectilinearity</id></comment><comment><text>11.070003067679252</text><id>SNR</id></comment></pick><pick publicID="de.gempa.tb1.Pick/20250411135834.578357.118038"><time><value>2025-04-11T13:58:26.338393Z</value></time><waveformID networkCode="CX" stationCode="PB06" channelCode="HHN"/><filterID>ITAPER(2)&gt;&gt;BW(3,3,20)</filterID><methodID>L2-AIC-GRID</methodID><horizontalSlowness><value>15.370259912617302</value></horizontalSlowness><backazimuth><value>354.76653023203886</value></backazimuth><phaseHint>S</phaseHint><evaluationMode>automatic</evaluationMode><comment><text>324.3863820082886</text><id>DFX:rectilinearity</id></comment><comment><text>de.gempa.tb1.Pick/20250411135811.496027.118025</text><id>RefPickID</id></comment><comment><text>8.659357727627306</text><id>SNR</id></comment></pick><pick publicID="de.gempa.tb1.Pick/20250411135834.585002.118039"><time><value>2025-04-11T13:58:27.868393Z</value></time><waveformID networkCode="CX" stationCode="PB01" channelCode="HHZ"/><filterID>ITAPER(4)&gt;&gt;BW(4,4,20)</filterID><methodID>AIC</methodID><horizontalSlowness><value>21.753320736882074</value></horizontalSlowness><backazimuth><value>354.96671587402187</value></backazimuth><phaseHint>P</phaseHint><evaluationMode>automatic</evaluationMode><comment><text>26.778602033911955</text><id>DFX:rectilinearity</id></comment><comment><text>7.869806024381044</text><id>SNR</id></comment></pick><pick publicID="de.gempa.tb1.Pick/20250411135849.827698.118042"><time><value>2025-04-11T13:58:19.688393Z</value></time><waveformID networkCode="CX" stationCode="PB07" channelCode="HHZ"/><filterID>ITAPER(4)&gt;&gt;BW(4,4,20)</filterID><methodID>AIC</methodID><horizontalSlowness><value>20.12775240073011</value></horizontalSlowness><backazimuth><value>287.65873080698884</value></backazimuth><phaseHint>P</phaseHint><evaluationMode>automatic</evaluationMode><comment><text>169.25265283873841</text><id>DFX:rectilinearity</id></comment><comment><text>26.00345773782641</text><id>SNR</id></comment></pick><pick publicID="de.gempa.tb1.Pick/20250411135851.583678.118044"><time><value>2025-04-11T13:58:41.368393Z</value></time><waveformID networkCode="CX" stationCode="PB03" channelCode="HHN"/><filterID>ITAPER(2)&gt;&gt;BW(3,3,20)</filterID><methodID>L2-AIC-GRID</methodID><horizontalSlowness><value>16.740335755851572</value></horizontalSlowness><backazimuth><value>271.77395233897073</value></backazimuth><phaseHint>S</phaseHint><evaluationMode>automatic</evaluationMode><comment><text>11.056152836483212</text><id>DFX:rectilinearity</id></comment><comment><text>de.gempa.tb1.Pick/20250411135821.528257.118028</text><id>RefPickID</id></comment><comment><text>5.406010169739346</text><id>SNR</id></comment></pick><origin publicID="de.gempa.tb1.Origin/20250411135851.586647.57408"><time><value>2025-04-11T13:57:42.521446Z</value><uncertainty>1.0402028560638428</uncertainty></time><latitude><value>-24.07528495788574</value><uncertainty>9.950242042541504</uncertainty></latitude><longitude><value>-69.46912384033203</value><uncertainty>34.73091125488281</uncertainty></longitude><depth><value>101.18634033203125</value><uncertainty>7.849432468414307</uncertainty></depth><depthType>from location</depthType><methodID>LOCSAT</methodID><earthModelID>iasp91_scanloc</earthModelID><quality><associatedPhaseCount>12</associatedPhaseCount><usedPhaseCount>12</usedPhaseCount><associatedStationCount>8</associatedStationCount><usedStationCount>8</usedStationCount><depthPhaseCount>0</depthPhaseCount><standardError>0.3529054665529226</standardError><azimuthalGap>306.65880966186523</azimuthalGap><maximumDistance>3.01773738861084</maximumDistance><minimumDistance>0.2354942113161087</minimumDistance><medianDistance>2.0342607498168945</medianDistance></quality><uncertainty><minHorizontalUncertainty>12.138338088989258</minHorizontalUncertainty><maxHorizontalUncertainty>76.50505065917969</maxHorizontalUncertainty><azimuthMaxHorizontalUncertainty>76.5694351196289</azimuthMaxHorizontalUncertainty><preferredDescription>horizontal uncertainty</preferredDescription></uncertainty><evaluationMode>automatic</evaluationMode><evaluationStatus>confirmed</evaluationStatus><comment><text>0.24</text><id>mismatchScore</id></comment><comment><text>mismatchScore</text><id>scevalMethod</id></comment><arrival><pickID>de.gempa.tb1.Pick/20250411135802.549232.118021</pickID><phase>P</phase><azimuth>43.91757583618164</azimuth><distance>0.2354942113161087</distance><timeResidual>0.3436470031738281</timeResidual><timeUsed>true</timeUsed><horizontalSlownessUsed>false</horizontalSlownessUsed><backazimuthUsed>false</backazimuthUsed><weight>1</weight></arrival><arrival><pickID>de.gempa.tb1.Pick/20250411135806.68746.118023</pickID><phase>P</phase><azimuth>359.8904724121094</azimuth><distance>0.862998902797699</distance><timeResidual>0.34691619873046875</timeResidual><timeUsed>true</timeUsed><horizontalSlownessUsed>false</horizontalSlownessUsed><backazimuthUsed>false</backazimuthUsed><weight>1</weight></arrival><arrival><pickID>de.gempa.tb1.Pick/20250411135811.496027.118025</pickID><phase>P</phase><azimuth>356.0179138183594</azimuth><distance>1.366450309753418</distance><timeResidual>0.3954582214355469</timeResidual><timeUsed>true</timeUsed><horizontalSlownessUsed>false</horizontalSlownessUsed><backazimuthUsed>false</backazimuthUsed><weight>1</weight></arrival><arrival><pickID>de.gempa.tb1.Pick/20250411135814.602552.118027</pickID><phase>S</phase><azimuth>43.91757583618164</azimuth><distance>0.2354942113161087</distance><timeResidual>-0.4870777130126953</timeResidual><timeUsed>true</timeUsed><horizontalSlownessUsed>false</horizontalSlownessUsed><backazimuthUsed>false</backazimuthUsed><weight>1</weight></arrival><arrival><pickID>de.gempa.tb1.Pick/20250411135821.528257.118028</pickID><phase>P</phase><azimuth>352.5572814941406</azimuth><distance>2.0342607498168945</distance><timeResidual>-0.07078933715820312</timeResidual><timeUsed>true</timeUsed><horizontalSlownessUsed>false</horizontalSlownessUsed><backazimuthUsed>false</backazimuthUsed><weight>1</weight></arrival><arrival><pickID>de.gempa.tb1.Pick/20250411135824.190357.118030</pickID><phase>S</phase><azimuth>359.8904724121094</azimuth><distance>0.862998902797699</distance><timeResidual>0.15383529663085938</timeResidual><timeUsed>true</timeUsed><horizontalSlownessUsed>false</horizontalSlownessUsed><backazimuthUsed>false</backazimuthUsed><weight>1</weight></arrival><arrival><pickID>de.gempa.tb1.Pick/20250411135828.369909.118031</pickID><phase>P</phase><azimuth>5.320187568664551</azimuth><distance>2.277897357940674</distance><timeResidual>0.4808101654052734</timeResidual><timeUsed>true</timeUsed><horizontalSlownessUsed>false</horizontalSlownessUsed><backazimuthUsed>false</backazimuthUsed><weight>1</weight></arrival><arrival><pickID>de.gempa.tb1.Pick/20250411135831.579636.118034</pickID><phase>P</phase><azimuth>351.7372741699219</azimuth><distance>2.770742893218994</distance><timeResidual>-0.26990318298339844</timeResidual><timeUsed>true</timeUsed><horizontalSlownessUsed>false</horizontalSlownessUsed><backazimuthUsed>false</backazimuthUsed><weight>1</weight></arrival><arrival><pickID>de.gempa.tb1.Pick/20250411135834.578357.118038</pickID><phase>S</phase><azimuth>356.0179138183594</azimuth><distance>1.366450309753418</distance><timeResidual>-0.0034027099609375</timeResidual><timeUsed>true</timeUsed><horizontalSlownessUsed>false</horizontalSlownessUsed><backazimuthUsed>false</backazimuthUsed><weight>1</weight></arrival><arrival><pickID>de.gempa.tb1.Pick/20250411135834.585002.118039</pickID><phase>P</phase><azimuth>359.67578125</azimuth><distance>3.01773738861084</distance><timeResidual>-0.6767005920410156</timeResidual><timeUsed>true</timeUsed><horizontalSlownessUsed>false</horizontalSlownessUsed><backazimuthUsed>false</backazimuthUsed><weight>1</weight></arrival><arrival><pickID>de.gempa.tb1.Pick/20250411135849.827698.118042</pickID><phase>P</phase><azimuth>350.5763854980469</azimuth><distance>2.369035005569458</distance><timeResidual>-0.2631797790527344</timeResidual><timeUsed>true</timeUsed><horizontalSlownessUsed>false</horizontalSlownessUsed><backazimuthUsed>false</backazimuthUsed><weight>1</weight></arrival><arrival><pickID>de.gempa.tb1.Pick/20250411135851.583678.118044</pickID><phase>S</phase><azimuth>352.5572814941406</azimuth><distance>2.0342607498168945</distance><timeResidual>0.05029678344726562</timeResidual><timeUsed>true</timeUsed><horizontalSlownessUsed>false</horizontalSlownessUsed><backazimuthUsed>false</backazimuthUsed><weight>1</weight></arrival><magnitude publicID="de.gempa.tb1.Magnitude/20250411135855.937928.106053"><magnitude><value>2.4171431955514695</value></magnitude><type>M</type><methodID>weighted average</methodID><stationCount>3</stationCount></magnitude></origin><event publicID="gempa2025hdud"><preferredOriginID>de.gempa.tb1.Origin/20250411135851.586647.57408</preferredOriginID><preferredMagnitudeID>de.gempa.tb1.Magnitude/20250411135855.937928.106053</preferredMagnitudeID><description><text>Northern Chile</text><type>region name</type></description><originReference>de.gempa.tb1.Origin/20250411135851.586647.57408</originReference></event></EventParameters></seiscomp>