<?xml version="1.0" encoding="UTF-8"?>
<seiscomp xmlns="http://geofon.gfz-potsdam.de/ns/seiscomp3-schema/0.13" version="0.13"><EventParameters><pick publicID="de.gempa.tb1.Pick/20250413002124.696731.127757"><time><value>2025-04-13T00:21:16.968393Z</value></time><waveformID networkCode="CX" stationCode="PB06" channelCode="HHZ"/><filterID>ITAPER(4)&gt;&gt;BW(4,4,20)</filterID><methodID>AIC</methodID><horizontalSlowness><value>9.140804722899261</value></horizontalSlowness><backazimuth><value>284.49412052595255</value></backazimuth><phaseHint>P</phaseHint><evaluationMode>automatic</evaluationMode><comment><text>92.05255994083693</text><id>DFX:rectilinearity</id></comment><comment><text>20.563088883056714</text><id>SNR</id></comment></pick><pick publicID="de.gempa.tb1.Pick/20250413002125.714033.127759"><time><value>2025-04-13T00:21:17.158393Z</value></time><waveformID networkCode="CX" stationCode="PB03" channelCode="HHZ"/><filterID>ITAPER(4)&gt;&gt;BW(4,4,20)</filterID><methodID>AIC</methodID><horizontalSlowness><value>23.19826045963232</value></horizontalSlowness><backazimuth><value>50.48896986718009</value></backazimuth><phaseHint>P</phaseHint><evaluationMode>automatic</evaluationMode><comment><text>8.698008499615916</text><id>DFX:rectilinearity</id></comment><comment><text>17.997316129315067</text><id>SNR</id></comment></pick><pick publicID="de.gempa.tb1.Pick/20250413002126.114578.127761"><time><value>2025-04-13T00:21:14.84Z</value></time><waveformID networkCode="CX" stationCode="PB09" channelCode="HHZ"/><filterID>ITAPER(4)&gt;&gt;BW(4,4,20)</filterID><methodID>AIC</methodID><horizontalSlowness><value>18.217160207197562</value></horizontalSlowness><backazimuth><value>277.77933326996015</value></backazimuth><phaseHint>P</phaseHint><evaluationMode>automatic</evaluationMode><comment><text>21.93280613855724</text><id>DFX:rectilinearity</id></comment><comment><text>53.38369831836985</text><id>SNR</id></comment></pick><pick publicID="de.gempa.tb1.Pick/20250413002137.683267.127763"><time><value>2025-04-13T00:21:32.078393Z</value></time><waveformID networkCode="CX" stationCode="PB06" channelCode="HHN"/><filterID>ITAPER(2)&gt;&gt;BW(3,3,20)</filterID><methodID>L2-AIC-GRID</methodID><horizontalSlowness><value>21.29879592735648</value></horizontalSlowness><backazimuth><value>274.4681126066983</value></backazimuth><phaseHint>S</phaseHint><evaluationMode>automatic</evaluationMode><comment><text>54.28197427475389</text><id>DFX:rectilinearity</id></comment><comment><text>de.gempa.tb1.Pick/20250413002124.696731.127757</text><id>RefPickID</id></comment><comment><text>8.017958063119664</text><id>SNR</id></comment></pick><pick publicID="de.gempa.tb1.Pick/20250413002141.332085.127764"><time><value>2025-04-13T00:21:32.448393Z</value></time><waveformID networkCode="CX" stationCode="PB03" channelCode="HHN"/><filterID>ITAPER(2)&gt;&gt;BW(3,3,20)</filterID><methodID>L2-AIC-GRID</methodID><horizontalSlowness><value>13.022668716420254</value></horizontalSlowness><backazimuth><value>243.1693320000102</value></backazimuth><phaseHint>S</phaseHint><evaluationMode>automatic</evaluationMode><comment><text>26.3514813708905</text><id>DFX:rectilinearity</id></comment><comment><text>de.gempa.tb1.Pick/20250413002125.714033.127759</text><id>RefPickID</id></comment><comment><text>9.576547929452191</text><id>SNR</id></comment></pick><pick publicID="de.gempa.tb1.Pick/20250413002213.37334.127769"><time><value>2025-04-13T00:21:19.608394Z</value></time><waveformID networkCode="CX" stationCode="PB07" channelCode="HHZ"/><filterID>ITAPER(4)&gt;&gt;BW(4,4,20)</filterID><methodID>AIC</methodID><horizontalSlowness><value>20.946689189591616</value></horizontalSlowness><backazimuth><value>51.66027145071507</value></backazimuth><phaseHint>P</phaseHint><evaluationMode>automatic</evaluationMode><comment><text>192.46133983962449</text><id>DFX:rectilinearity</id></comment><comment><text>30.644220163102815</text><id>SNR</id></comment></pick><pick publicID="de.gempa.tb1.Pick/20250413002219.973596.127771"><time><value>2025-04-13T00:21:36.448394Z</value></time><waveformID networkCode="CX" stationCode="PB07" channelCode="HHN"/><filterID>ITAPER(2)&gt;&gt;BW(3,3,20)</filterID><methodID>L2-AIC-GRID</methodID><horizontalSlowness><value>23.049945911052745</value></horizontalSlowness><backazimuth><value>321.79115488088036</value></backazimuth><phaseHint>S</phaseHint><evaluationMode>automatic</evaluationMode><comment><text>716.7092604311315</text><id>DFX:rectilinearity</id></comment><comment><text>de.gempa.tb1.Pick/20250413002213.37334.127769</text><id>RefPickID</id></comment><comment><text>9.330930689369795</text><id>SNR</id></comment></pick><origin publicID="de.gempa.tb1.Origin/20250413002219.97716.96139"><time><value>2025-04-13T00:20:57.524094Z</value><uncertainty>1.470317006111145</uncertainty></time><latitude><value>-22.217788696289062</value><uncertainty>7.618142604827881</uncertainty></latitude><longitude><value>-68.87269592285156</value><uncertainty>16.380573272705078</uncertainty></longitude><depth><value>111.42623901367188</value><uncertainty>19.057588577270508</uncertainty></depth><depthType>from location</depthType><methodID>LOCSAT</methodID><earthModelID>iasp91_scanloc</earthModelID><quality><associatedPhaseCount>7</associatedPhaseCount><usedPhaseCount>7</usedPhaseCount><associatedStationCount>4</associatedStationCount><usedStationCount>4</usedStationCount><depthPhaseCount>0</depthPhaseCount><standardError>0.05752047093311348</standardError><azimuthalGap>272.2818603515625</azimuthalGap><maximumDistance>1.060124397277832</maximumDistance><minimumDistance>0.5415517091751099</minimumDistance><medianDistance>0.8335080146789551</medianDistance></quality><uncertainty><minHorizontalUncertainty>14.569157600402832</minHorizontalUncertainty><maxHorizontalUncertainty>35.896820068359375</maxHorizontalUncertainty><azimuthMaxHorizontalUncertainty>76.97966003417969</azimuthMaxHorizontalUncertainty><preferredDescription>horizontal uncertainty</preferredDescription></uncertainty><evaluationMode>automatic</evaluationMode><evaluationStatus>confirmed</evaluationStatus><comment><text>0.00</text><id>mismatchScore</id></comment><comment><text>mismatchScore</text><id>scevalMethod</id></comment><arrival><pickID>de.gempa.tb1.Pick/20250413002124.696731.127757</pickID><phase>P</phase><azimuth>232.9629211425781</azimuth><distance>0.8088247776031494</distance><timeResidual>-0.040985107421875</timeResidual><timeUsed>true</timeUsed><horizontalSlownessUsed>false</horizontalSlownessUsed><backazimuthUsed>false</backazimuthUsed><weight>1</weight></arrival><arrival><pickID>de.gempa.tb1.Pick/20250413002125.714033.127759</pickID><phase>P</phase><azimuth>281.49835205078125</azimuth><distance>0.8335080146789551</distance><timeResidual>-0.08297538757324219</timeResidual><timeUsed>true</timeUsed><horizontalSlownessUsed>false</horizontalSlownessUsed><backazimuthUsed>false</backazimuthUsed><weight>1</weight></arrival><arrival><pickID>de.gempa.tb1.Pick/20250413002126.114578.127761</pickID><phase>P</phase><azimuth>320.6810607910156</azimuth><distance>0.5415517091751099</distance><timeResidual>0.004571914672851562</timeResidual><timeUsed>true</timeUsed><horizontalSlownessUsed>false</horizontalSlownessUsed><backazimuthUsed>false</backazimuthUsed><weight>1</weight></arrival><arrival><pickID>de.gempa.tb1.Pick/20250413002137.683267.127763</pickID><phase>S</phase><azimuth>232.9629211425781</azimuth><distance>0.8088247776031494</distance><timeResidual>0.03918266296386719</timeResidual><timeUsed>true</timeUsed><horizontalSlownessUsed>false</horizontalSlownessUsed><backazimuthUsed>false</backazimuthUsed><weight>1</weight></arrival><arrival><pickID>de.gempa.tb1.Pick/20250413002141.332085.127764</pickID><phase>S</phase><azimuth>281.49835205078125</azimuth><distance>0.8335080146789551</distance><timeResidual>-0.0034656524658203125</timeResidual><timeUsed>true</timeUsed><horizontalSlownessUsed>false</horizontalSlownessUsed><backazimuthUsed>false</backazimuthUsed><weight>1</weight></arrival><arrival><pickID>de.gempa.tb1.Pick/20250413002213.37334.127769</pickID><phase>P</phase><azimuth>297.26397705078125</azimuth><distance>1.060124397277832</distance><timeResidual>0.11084556579589844</timeResidual><timeUsed>true</timeUsed><horizontalSlownessUsed>false</horizontalSlownessUsed><backazimuthUsed>false</backazimuthUsed><weight>1</weight></arrival><arrival><pickID>de.gempa.tb1.Pick/20250413002219.973596.127771</pickID><phase>S</phase><azimuth>297.26397705078125</azimuth><distance>1.060124397277832</distance><timeResidual>-0.02721405029296875</timeResidual><timeUsed>true</timeUsed><horizontalSlownessUsed>false</horizontalSlownessUsed><backazimuthUsed>false</backazimuthUsed><weight>1</weight></arrival><magnitude publicID="de.gempa.tb1.Magnitude/20250413002225.937296.295651"><magnitude><value>2.3750299774620487</value></magnitude><type>M</type><methodID>weighted average</methodID><stationCount>3</stationCount></magnitude></origin><event publicID="gempa2025hgky"><preferredOriginID>de.gempa.tb1.Origin/20250413002219.97716.96139</preferredOriginID><preferredMagnitudeID>de.gempa.tb1.Magnitude/20250413002225.937296.295651</preferredMagnitudeID><type>mining explosion</type><description><text>Northern Chile</text><type>region name</type></description><originReference>de.gempa.tb1.Origin/20250413002219.97716.96139</originReference></event></EventParameters></seiscomp>