<?xml version="1.0" encoding="UTF-8"?>
<seiscomp xmlns="http://geofon.gfz-potsdam.de/ns/seiscomp3-schema/0.13" version="0.13"><EventParameters><pick publicID="de.gempa.tb1.Pick/20250413224809.882861.206264"><time><value>2025-04-13T22:48:08.24Z</value></time><waveformID networkCode="CH" stationCode="AIGLE" channelCode="HHZ"/><filterID>ITAPER(4)&gt;&gt;BW(4,4,20)</filterID><methodID>AIC</methodID><phaseHint>P</phaseHint><evaluationMode>automatic</evaluationMode></pick><pick publicID="de.gempa.tb1.Pick/20250413224812.743597.206266"><time><value>2025-04-13T22:48:10.53Z</value></time><waveformID networkCode="CH" stationCode="GRYON" channelCode="HHZ"/><filterID>ITAPER(4)&gt;&gt;BW(4,4,20)</filterID><methodID>AIC</methodID><phaseHint>P</phaseHint><evaluationMode>automatic</evaluationMode></pick><pick publicID="de.gempa.tb1.Pick/20250413224814.14908.206268"><time><value>2025-04-13T22:48:12.275Z</value></time><waveformID networkCode="CH" stationCode="SENIN" channelCode="HHZ"/><filterID>ITAPER(4)&gt;&gt;BW(4,4,20)</filterID><methodID>AIC</methodID><phaseHint>P</phaseHint><evaluationMode>automatic</evaluationMode></pick><pick publicID="de.gempa.tb1.Pick/20250413224814.262459.206270"><time><value>2025-04-13T22:48:11.775Z</value></time><waveformID networkCode="CH" stationCode="SALAN" channelCode="HHZ"/><filterID>ITAPER(4)&gt;&gt;BW(4,4,20)</filterID><methodID>AIC</methodID><phaseHint>P</phaseHint><evaluationMode>automatic</evaluationMode></pick><pick publicID="de.gempa.tb1.Pick/20250413224819.090535.206272"><time><value>2025-04-13T22:48:16.71Z</value></time><waveformID networkCode="CH" stationCode="TORNY" channelCode="HHZ"/><filterID>ITAPER(4)&gt;&gt;BW(4,4,20)</filterID><methodID>AIC</methodID><phaseHint>P</phaseHint><evaluationMode>automatic</evaluationMode></pick><pick publicID="de.gempa.tb1.Pick/20250413224820.108635.206274"><time><value>2025-04-13T22:48:15.605Z</value></time><waveformID networkCode="CH" stationCode="DIX" channelCode="HHZ"/><filterID>ITAPER(4)&gt;&gt;BW(4,4,20)</filterID><methodID>AIC</methodID><phaseHint>P</phaseHint><evaluationMode>automatic</evaluationMode></pick><pick publicID="de.gempa.tb1.Pick/20250413224820.67722.206276"><time><value>2025-04-13T22:48:18.915Z</value></time><waveformID networkCode="CH" stationCode="GIMEL" channelCode="HHZ"/><filterID>ITAPER(4)&gt;&gt;BW(4,4,20)</filterID><methodID>AIC</methodID><phaseHint>P</phaseHint><evaluationMode>automatic</evaluationMode></pick><pick publicID="de.gempa.tb1.Pick/20250413224821.11176.206278"><time><value>2025-04-13T22:48:18.79Z</value></time><waveformID networkCode="CH" stationCode="WIMIS" channelCode="HHZ"/><filterID>ITAPER(4)&gt;&gt;BW(4,4,20)</filterID><methodID>AIC</methodID><phaseHint>P</phaseHint><evaluationMode>automatic</evaluationMode></pick><pick publicID="de.gempa.tb1.Pick/20250413224824.095205.206280"><time><value>2025-04-13T22:48:21.73Z</value></time><waveformID networkCode="CH" stationCode="BRANT" channelCode="HHZ"/><filterID>ITAPER(4)&gt;&gt;BW(4,4,20)</filterID><methodID>AIC</methodID><phaseHint>P</phaseHint><evaluationMode>automatic</evaluationMode></pick><origin publicID="de.gempa.tb1.Origin/20250413224824.098077.129503"><time><value>2025-04-13T22:48:08.102409Z</value><uncertainty>0.34651175141334534</uncertainty></time><latitude><value>46.33003997802734</value><uncertainty>3.066870927810669</uncertainty></latitude><longitude><value>6.987359046936035</value><uncertainty>2.951293468475342</uncertainty></longitude><depth><value>0</value></depth><depthType>operator assigned</depthType><methodID>LOCSAT</methodID><earthModelID>iasp91</earthModelID><quality><associatedPhaseCount>9</associatedPhaseCount><usedPhaseCount>9</usedPhaseCount><associatedStationCount>9</associatedStationCount><usedStationCount>9</usedStationCount><depthPhaseCount>0</depthPhaseCount><standardError>0.22671479809816797</standardError><azimuthalGap>109.37841796875</azimuthalGap><maximumDistance>0.7039369344711304</maximumDistance><minimumDistance>0.02624579519033432</minimumDistance><medianDistance>0.38460353016853333</medianDistance></quality><uncertainty><minHorizontalUncertainty>5.102153301239014</minHorizontalUncertainty><maxHorizontalUncertainty>7.566818714141846</maxHorizontalUncertainty><azimuthMaxHorizontalUncertainty>42.060863494873047</azimuthMaxHorizontalUncertainty><preferredDescription>horizontal uncertainty</preferredDescription></uncertainty><evaluationMode>automatic</evaluationMode><evaluationStatus>confirmed</evaluationStatus><comment><text>0.06</text><id>mismatchScore</id></comment><comment><text>mismatchScore</text><id>scevalMethod</id></comment><arrival><pickID>de.gempa.tb1.Pick/20250413224809.882861.206264</pickID><phase>P</phase><azimuth>296.1773986816406</azimuth><distance>0.02624579519033432</distance><timeResidual>-0.5083930492401123</timeResidual><timeUsed>true</timeUsed><horizontalSlownessUsed>false</horizontalSlownessUsed><backazimuthUsed>false</backazimuthUsed><weight>1</weight></arrival><arrival><pickID>de.gempa.tb1.Pick/20250413224812.743597.206266</pickID><phase>P</phase><azimuth>132.79173278808594</azimuth><distance>0.11697493493556976</distance><timeResidual>0.05643917620182037</timeResidual><timeUsed>true</timeUsed><horizontalSlownessUsed>false</horizontalSlownessUsed><backazimuthUsed>false</backazimuthUsed><weight>1</weight></arrival><arrival><pickID>de.gempa.tb1.Pick/20250413224814.14908.206268</pickID><phase>P</phase><azimuth>81.12179565429688</azimuth><distance>0.2186405062675476</distance><timeResidual>-0.13130639493465424</timeResidual><timeUsed>true</timeUsed><horizontalSlownessUsed>false</horizontalSlownessUsed><backazimuthUsed>false</backazimuthUsed><weight>1</weight></arrival><arrival><pickID>de.gempa.tb1.Pick/20250413224814.262459.206270</pickID><phase>P</phase><azimuth>183.072509765625</azimuth><distance>0.18625636398792267</distance><timeResidual>-0.015975698828697205</timeResidual><timeUsed>true</timeUsed><horizontalSlownessUsed>false</horizontalSlownessUsed><backazimuthUsed>false</backazimuthUsed><weight>1</weight></arrival><arrival><pickID>de.gempa.tb1.Pick/20250413224819.090535.206272</pickID><phase>P</phase><azimuth>357.4512939453125</azimuth><distance>0.44420552253723145</distance><timeResidual>0.01579214632511139</timeResidual><timeUsed>true</timeUsed><horizontalSlownessUsed>false</horizontalSlownessUsed><backazimuthUsed>false</backazimuthUsed><weight>1</weight></arrival><arrival><pickID>de.gempa.tb1.Pick/20250413224820.108635.206274</pickID><phase>P</phase><azimuth>130.39820861816406</azimuth><distance>0.38460353016853333</distance><timeResidual>0.042790189385414124</timeResidual><timeUsed>true</timeUsed><horizontalSlownessUsed>false</horizontalSlownessUsed><backazimuthUsed>false</backazimuthUsed><weight>1</weight></arrival><arrival><pickID>de.gempa.tb1.Pick/20250413224820.67722.206276</pickID><phase>P</phase><azimuth>292.450927734375</azimuth><distance>0.5392413735389709</distance><timeResidual>0.41348862648010254</timeResidual><timeUsed>true</timeUsed><horizontalSlownessUsed>false</horizontalSlownessUsed><backazimuthUsed>false</backazimuthUsed><weight>1</weight></arrival><arrival><pickID>de.gempa.tb1.Pick/20250413224821.11176.206278</pickID><phase>P</phase><azimuth>52.48534393310547</azimuth><distance>0.5529215335845947</distance><timeResidual>0.02861715853214264</timeResidual><timeUsed>true</timeUsed><horizontalSlownessUsed>false</horizontalSlownessUsed><backazimuthUsed>false</backazimuthUsed><weight>1</weight></arrival><arrival><pickID>de.gempa.tb1.Pick/20250413224824.095205.206280</pickID><phase>P</phase><azimuth>329.95245361328125</azimuth><distance>0.7039369344711304</distance><timeResidual>0.0978710800409317</timeResidual><timeUsed>true</timeUsed><horizontalSlownessUsed>false</horizontalSlownessUsed><backazimuthUsed>false</backazimuthUsed><weight>1</weight></arrival><magnitude publicID="de.gempa.tb1.Magnitude/20250413224839.416148.408397"><magnitude><value>1.304314541202979</value></magnitude><type>M</type><methodID>weighted average</methodID><stationCount>7</stationCount></magnitude></origin><event publicID="gempa2025hidw"><preferredOriginID>de.gempa.tb1.Origin/20250413224824.098077.129503</preferredOriginID><preferredMagnitudeID>de.gempa.tb1.Magnitude/20250413224839.416148.408397</preferredMagnitudeID><description><text>Switzerland</text><type>region name</type></description><originReference>de.gempa.tb1.Origin/20250413224824.098077.129503</originReference></event></EventParameters></seiscomp>