<?xml version="1.0" encoding="UTF-8"?>
<seiscomp xmlns="http://geofon.gfz-potsdam.de/ns/seiscomp3-schema/0.13" version="0.13"><EventParameters><pick publicID="de.gempa.tb1.Pick/20250414164618.615175.139338"><time><value>2025-04-14T16:46:13.078393Z</value></time><waveformID networkCode="CX" stationCode="PB03" channelCode="HHZ"/><filterID>ITAPER(4)&gt;&gt;BW(4,4,20)</filterID><methodID>AIC</methodID><horizontalSlowness><value>7.321827779539174</value></horizontalSlowness><backazimuth><value>118.87459202714894</value></backazimuth><phaseHint>P</phaseHint><evaluationMode>automatic</evaluationMode><comment><text>11.52906136746338</text><id>DFX:rectilinearity</id></comment><comment><text>21.625455087641615</text><id>SNR</id></comment></pick><pick publicID="de.gempa.tb1.Pick/20250414164620.360884.139340"><time><value>2025-04-14T16:46:09.11Z</value></time><waveformID networkCode="CX" stationCode="PB09" channelCode="HHZ"/><filterID>ITAPER(4)&gt;&gt;BW(4,4,20)</filterID><methodID>AIC</methodID><horizontalSlowness><value>19.039898464715861</value></horizontalSlowness><backazimuth><value>113.30930181552232</value></backazimuth><phaseHint>P</phaseHint><evaluationMode>automatic</evaluationMode><comment><text>23.58050823083133</text><id>DFX:rectilinearity</id></comment><comment><text>84.74759999635775</text><id>SNR</id></comment></pick><pick publicID="de.gempa.tb1.Pick/20250414164621.703428.139342"><time><value>2025-04-14T16:46:14.378393Z</value></time><waveformID networkCode="CX" stationCode="PB01" channelCode="HHZ"/><filterID>ITAPER(4)&gt;&gt;BW(4,4,20)</filterID><methodID>AIC</methodID><horizontalSlowness><value>15.6063065041359</value></horizontalSlowness><backazimuth><value>326.97997426319705</value></backazimuth><phaseHint>P</phaseHint><evaluationMode>automatic</evaluationMode><comment><text>11.606999514854806</text><id>DFX:rectilinearity</id></comment><comment><text>83.89121043778353</text><id>SNR</id></comment></pick><pick publicID="de.gempa.tb1.Pick/20250414164622.578295.139344"><time><value>2025-04-14T16:46:16.268394Z</value></time><waveformID networkCode="CX" stationCode="PB02" channelCode="HHZ"/><filterID>ITAPER(4)&gt;&gt;BW(4,4,20)</filterID><methodID>AIC</methodID><horizontalSlowness><value>6.945197603034813</value></horizontalSlowness><backazimuth><value>94.29746824395279</value></backazimuth><phaseHint>P</phaseHint><evaluationMode>automatic</evaluationMode><comment><text>36.813768028482606</text><id>DFX:rectilinearity</id></comment><comment><text>27.966082244188907</text><id>SNR</id></comment></pick><pick publicID="de.gempa.tb1.Pick/20250414164629.322702.139346"><time><value>2025-04-14T16:46:21.499999Z</value></time><waveformID networkCode="CX" stationCode="PATCX" channelCode="HHZ"/><filterID>ITAPER(4)&gt;&gt;BW(4,4,20)</filterID><methodID>AIC</methodID><horizontalSlowness><value>20.31460804817857</value></horizontalSlowness><backazimuth><value>247.83090785943125</value></backazimuth><phaseHint>P</phaseHint><evaluationMode>automatic</evaluationMode><comment><text>101.95447793969502</text><id>DFX:rectilinearity</id></comment><comment><text>15.38431101767724</text><id>SNR</id></comment></pick><pick publicID="de.gempa.tb1.Pick/20250414164638.590024.139348"><time><value>2025-04-14T16:46:31.92Z</value></time><waveformID networkCode="CX" stationCode="PSGCX" channelCode="HHZ"/><filterID>ITAPER(4)&gt;&gt;BW(4,4,20)</filterID><methodID>AIC</methodID><horizontalSlowness><value>12.709858578879107</value></horizontalSlowness><backazimuth><value>187.4171387857707</value></backazimuth><phaseHint>P</phaseHint><evaluationMode>automatic</evaluationMode><comment><text>6.626093292166311</text><id>DFX:rectilinearity</id></comment><comment><text>11.45842548594884</text><id>SNR</id></comment></pick><pick publicID="de.gempa.tb1.Pick/20250414164638.790221.139350"><time><value>2025-04-14T16:46:30.658393Z</value></time><waveformID networkCode="CX" stationCode="PB03" channelCode="HHN"/><filterID>ITAPER(2)&gt;&gt;BW(3,3,20)</filterID><methodID>L2-AIC-GRID</methodID><horizontalSlowness><value>3.7318165711126814</value></horizontalSlowness><backazimuth><value>250.8144320464229</value></backazimuth><phaseHint>S</phaseHint><evaluationMode>automatic</evaluationMode><comment><text>23.358776587691306</text><id>DFX:rectilinearity</id></comment><comment><text>de.gempa.tb1.Pick/20250414164618.615175.139338</text><id>RefPickID</id></comment><comment><text>7.229245724430801</text><id>SNR</id></comment></pick><pick publicID="de.gempa.tb1.Pick/20250414164654.879979.139353"><time><value>2025-04-14T16:46:14.678393Z</value></time><waveformID networkCode="CX" stationCode="PB07" channelCode="HHZ"/><filterID>ITAPER(4)&gt;&gt;BW(4,4,20)</filterID><methodID>AIC</methodID><horizontalSlowness><value>21.378521108969558</value></horizontalSlowness><backazimuth><value>103.02253765739204</value></backazimuth><phaseHint>P</phaseHint><evaluationMode>automatic</evaluationMode><comment><text>113.84820061810854</text><id>DFX:rectilinearity</id></comment><comment><text>120.84154935936435</text><id>SNR</id></comment></pick><origin publicID="de.gempa.tb1.Origin/20250414164655.922908.143410"><time><value>2025-04-14T16:45:50.63162Z</value><uncertainty>2.2317533493041992</uncertainty></time><latitude><value>-21.868371963500977</value><uncertainty>15.053302764892578</uncertainty></latitude><longitude><value>-68.63214874267578</value><uncertainty>16.787006378173828</uncertainty></longitude><depth><value>120.5958251953125</value><uncertainty>21.628143310546875</uncertainty></depth><depthType>from location</depthType><methodID>LOCSAT</methodID><earthModelID>iasp91_scanloc</earthModelID><quality><associatedPhaseCount>8</associatedPhaseCount><usedPhaseCount>8</usedPhaseCount><associatedStationCount>7</associatedStationCount><usedStationCount>7</usedStationCount><depthPhaseCount>0</depthPhaseCount><standardError>0.302081489699737</standardError><azimuthalGap>291.9822998046875</azimuthalGap><maximumDistance>2.6558797359466553</maximumDistance><minimumDistance>0.5710707902908325</minimumDistance><medianDistance>1.1739368438720703</medianDistance></quality><uncertainty><minHorizontalUncertainty>30.928895950317383</minHorizontalUncertainty><maxHorizontalUncertainty>37.16666030883789</maxHorizontalUncertainty><azimuthMaxHorizontalUncertainty>116.64991760253906</azimuthMaxHorizontalUncertainty><preferredDescription>horizontal uncertainty</preferredDescription></uncertainty><evaluationMode>automatic</evaluationMode><evaluationStatus>confirmed</evaluationStatus><comment><text>0.27</text><id>mismatchScore</id></comment><comment><text>mismatchScore</text><id>scevalMethod</id></comment><arrival><pickID>de.gempa.tb1.Pick/20250414164618.615175.139338</pickID><phase>P</phase><azimuth>260.0195617675781</azimuth><distance>1.0559200048446655</distance><timeResidual>-0.22995758056640625</timeResidual><timeUsed>true</timeUsed><horizontalSlownessUsed>false</horizontalSlownessUsed><backazimuthUsed>false</backazimuthUsed><weight>1</weight></arrival><arrival><pickID>de.gempa.tb1.Pick/20250414164620.360884.139340</pickID><phase>P</phase><azimuth>277.09417724609375</azimuth><distance>0.5710707902908325</distance><timeResidual>-0.022060394287109375</timeResidual><timeUsed>true</timeUsed><horizontalSlownessUsed>false</horizontalSlownessUsed><backazimuthUsed>false</backazimuthUsed><weight>1</weight></arrival><arrival><pickID>de.gempa.tb1.Pick/20250414164621.703428.139342</pickID><phase>P</phase><azimuth>315.70758056640625</azimuth><distance>1.1440616846084595</distance><timeResidual>0.16168785095214844</timeResidual><timeUsed>true</timeUsed><horizontalSlownessUsed>false</horizontalSlownessUsed><backazimuthUsed>false</backazimuthUsed><weight>1</weight></arrival><arrival><pickID>de.gempa.tb1.Pick/20250414164622.578295.139344</pickID><phase>P</phase><azimuth>294.6663818359375</azimuth><distance>1.296755313873291</distance><timeResidual>0.4180278778076172</timeResidual><timeUsed>true</timeUsed><horizontalSlownessUsed>false</horizontalSlownessUsed><backazimuthUsed>false</backazimuthUsed><weight>1</weight></arrival><arrival><pickID>de.gempa.tb1.Pick/20250414164629.322702.139346</pickID><phase>P</phase><azimuth>306.0519104003906</azimuth><distance>1.7596853971481323</distance><timeResidual>0.28821563720703125</timeResidual><timeUsed>true</timeUsed><horizontalSlownessUsed>false</horizontalSlownessUsed><backazimuthUsed>false</backazimuthUsed><weight>1</weight></arrival><arrival><pickID>de.gempa.tb1.Pick/20250414164638.590024.139348</pickID><phase>P</phase><azimuth>328.0372619628906</azimuth><distance>2.6558797359466553</distance><timeResidual>-0.5768241882324219</timeResidual><timeUsed>true</timeUsed><horizontalSlownessUsed>false</horizontalSlownessUsed><backazimuthUsed>false</backazimuthUsed><weight>1</weight></arrival><arrival><pickID>de.gempa.tb1.Pick/20250414164638.790221.139350</pickID><phase>S</phase><azimuth>260.0195617675781</azimuth><distance>1.0559200048446655</distance><timeResidual>-0.19159889221191406</timeResidual><timeUsed>true</timeUsed><horizontalSlownessUsed>false</horizontalSlownessUsed><backazimuthUsed>false</backazimuthUsed><weight>1</weight></arrival><arrival><pickID>de.gempa.tb1.Pick/20250414164654.879979.139353</pickID><phase>P</phase><azimuth>276.6672668457031</azimuth><distance>1.1739368438720703</distance><timeResidual>0.1525249481201172</timeResidual><timeUsed>true</timeUsed><horizontalSlownessUsed>false</horizontalSlownessUsed><backazimuthUsed>false</backazimuthUsed><weight>1</weight></arrival><magnitude publicID="de.gempa.tb1.Magnitude/20250414164727.55692.515786"><magnitude><value>2.1162391217094663</value></magnitude><type>M</type><methodID>weighted average</methodID><stationCount>3</stationCount></magnitude></origin><event publicID="gempa2025hjnu"><preferredOriginID>de.gempa.tb1.Origin/20250414164655.922908.143410</preferredOriginID><preferredMagnitudeID>de.gempa.tb1.Magnitude/20250414164727.55692.515786</preferredMagnitudeID><description><text>Chile-Bolivia Border Region</text><type>region name</type></description><originReference>de.gempa.tb1.Origin/20250414164655.922908.143410</originReference></event></EventParameters></seiscomp>