<?xml version="1.0" encoding="UTF-8"?>
<seiscomp xmlns="http://geofon.gfz-potsdam.de/ns/seiscomp3-schema/0.13" version="0.13"><EventParameters><pick publicID="de.gempa.tb1.Pick/20250411213759.585067.132640"><time><value>2025-04-11T21:37:57.895Z</value></time><waveformID networkCode="CH" stationCode="MMK" channelCode="HHZ"/><filterID>ITAPER(4)&gt;&gt;BW(4,4,20)</filterID><methodID>AIC</methodID><phaseHint>P</phaseHint><evaluationMode>automatic</evaluationMode></pick><pick publicID="de.gempa.tb1.Pick/20250411213801.139255.132642"><time><value>2025-04-11T21:37:59.315Z</value></time><waveformID networkCode="CH" stationCode="FIESA" channelCode="HHZ"/><filterID>ITAPER(4)&gt;&gt;BW(4,4,20)</filterID><methodID>AIC</methodID><phaseHint>P</phaseHint><evaluationMode>automatic</evaluationMode></pick><pick publicID="de.gempa.tb1.Pick/20250411213802.572162.132644"><time><value>2025-04-11T21:37:59.05Z</value></time><waveformID networkCode="CH" stationCode="NALPS" channelCode="HHZ"/><filterID>ITAPER(4)&gt;&gt;BW(4,4,20)</filterID><methodID>AIC</methodID><phaseHint>P</phaseHint><evaluationMode>automatic</evaluationMode></pick><pick publicID="de.gempa.tb1.Pick/20250411213805.917996.132646"><time><value>2025-04-11T21:38:03.66Z</value></time><waveformID networkCode="CH" stationCode="MUO" channelCode="HHZ"/><filterID>ITAPER(4)&gt;&gt;BW(4,4,20)</filterID><methodID>AIC</methodID><phaseHint>P</phaseHint><evaluationMode>automatic</evaluationMode></pick><pick publicID="de.gempa.tb1.Pick/20250411213808.156787.132650"><time><value>2025-04-11T21:38:03.285Z</value></time><waveformID networkCode="CH" stationCode="BNALP" channelCode="HHZ"/><filterID>ITAPER(4)&gt;&gt;BW(4,4,20)</filterID><methodID>AIC</methodID><phaseHint>P</phaseHint><evaluationMode>automatic</evaluationMode></pick><pick publicID="de.gempa.tb1.Pick/20250411213817.15797.132655"><time><value>2025-04-11T21:38:14.0000Z</value></time><waveformID networkCode="CH" stationCode="BRANT" channelCode="HHZ"/><filterID>ITAPER(4)&gt;&gt;BW(4,4,20)</filterID><methodID>AIC</methodID><phaseHint>P</phaseHint><evaluationMode>automatic</evaluationMode></pick><origin publicID="de.gempa.tb1.Origin/20250411213817.159712.63638"><time><value>2025-04-11T21:37:46.298853Z</value><uncertainty>3.276400566101074</uncertainty></time><latitude><value>45.98181915283203</value><uncertainty>31.715028762817383</uncertainty></latitude><longitude><value>8.624873161315918</value><uncertainty>17.487276077270508</uncertainty></longitude><depth><value>39.086814880371094</value><uncertainty>16.647981643676758</uncertainty></depth><depthType>from location</depthType><methodID>LOCSAT</methodID><earthModelID>iasp91</earthModelID><quality><associatedPhaseCount>6</associatedPhaseCount><usedPhaseCount>6</usedPhaseCount><associatedStationCount>6</associatedStationCount><usedStationCount>6</usedStationCount><depthPhaseCount>0</depthPhaseCount><standardError>0.36301715726417283</standardError><azimuthalGap>270.82744359970093</azimuthalGap><maximumDistance>1.7684540748596191</maximumDistance><minimumDistance>0.465645432472229</minimumDistance><medianDistance>0.8996328711509705</medianDistance></quality><uncertainty><minHorizontalUncertainty>17.18743896484375</minHorizontalUncertainty><maxHorizontalUncertainty>75.74687194824219</maxHorizontalUncertainty><azimuthMaxHorizontalUncertainty>153.1370849609375</azimuthMaxHorizontalUncertainty><preferredDescription>horizontal uncertainty</preferredDescription></uncertainty><evaluationMode>automatic</evaluationMode><evaluationStatus>rejected</evaluationStatus><comment><text>0.79</text><id>mismatchScore</id></comment><comment><text>mismatchScore</text><id>scevalMethod</id></comment><arrival><pickID>de.gempa.tb1.Pick/20250411213759.585067.132640</pickID><phase>P</phase><azimuth>278.7242431640625</azimuth><distance>0.465645432472229</distance><timeResidual>0.08420181274414062</timeResidual><timeUsed>true</timeUsed><horizontalSlownessUsed>false</horizontalSlownessUsed><backazimuthUsed>false</backazimuthUsed><weight>1</weight></arrival><arrival><pickID>de.gempa.tb1.Pick/20250411213801.139255.132642</pickID><phase>P</phase><azimuth>321.9587097167969</azimuth><distance>0.5773673057556152</distance><timeResidual>0.2441883087158203</timeResidual><timeUsed>true</timeUsed><horizontalSlownessUsed>false</horizontalSlownessUsed><backazimuthUsed>false</backazimuthUsed><weight>1</weight></arrival><arrival><pickID>de.gempa.tb1.Pick/20250411213802.572162.132644</pickID><phase>P</phase><azimuth>7.896799564361572</azimuth><distance>0.6194114685058594</distance><timeResidual>-0.4949102401733398</timeResidual><timeUsed>true</timeUsed><horizontalSlownessUsed>false</horizontalSlownessUsed><backazimuthUsed>false</backazimuthUsed><weight>1</weight></arrival><arrival><pickID>de.gempa.tb1.Pick/20250411213805.917996.132646</pickID><phase>P</phase><azimuth>0.4849388599395752</azimuth><distance>0.9861867427825928</distance><timeResidual>-0.026479721069335941</timeResidual><timeUsed>true</timeUsed><horizontalSlownessUsed>false</horizontalSlownessUsed><backazimuthUsed>false</backazimuthUsed><weight>1</weight></arrival><arrival><pickID>de.gempa.tb1.Pick/20250411213808.156787.132650</pickID><phase>P</phase><azimuth>351.2327575683594</azimuth><distance>0.8996328711509705</distance><timeResidual>0.5758228302001953</timeResidual><timeUsed>true</timeUsed><horizontalSlownessUsed>false</horizontalSlownessUsed><backazimuthUsed>false</backazimuthUsed><weight>1</weight></arrival><arrival><pickID>de.gempa.tb1.Pick/20250411213817.15797.132655</pickID><phase>P</phase><azimuth>303.51470947265625</azimuth><distance>1.7684540748596191</distance><timeResidual>-0.38309478759765625</timeResidual><timeUsed>true</timeUsed><horizontalSlownessUsed>false</horizontalSlownessUsed><backazimuthUsed>false</backazimuthUsed><weight>1</weight></arrival><magnitude publicID="de.gempa.tb1.Magnitude/20250411213846.944932.145066"><magnitude><value>1.6477057815077967</value></magnitude><type>M</type><methodID>weighted average</methodID><stationCount>6</stationCount></magnitude></origin><event publicID="gempa2025hejm"><preferredOriginID>de.gempa.tb1.Origin/20250411213817.159712.63638</preferredOriginID><preferredMagnitudeID>de.gempa.tb1.Magnitude/20250411213846.944932.145066</preferredMagnitudeID><type>not existing</type><description><text>Northern Italy</text><type>region name</type></description><originReference>de.gempa.tb1.Origin/20250411213817.159712.63638</originReference></event></EventParameters></seiscomp>