<?xml version="1.0" encoding="UTF-8"?>
<seiscomp xmlns="http://geofon.gfz-potsdam.de/ns/seiscomp3-schema/0.13" version="0.13"><EventParameters><pick publicID="de.gempa.tb1.Pick/20250411124254.178157.117654"><time><value>2025-04-11T12:42:49.109998Z</value></time><waveformID networkCode="CX" stationCode="PB10" channelCode="HHZ"/><filterID>ITAPER(4)&gt;&gt;BW(4,4,20)</filterID><methodID>AIC</methodID><horizontalSlowness><value>14.60829911643319</value></horizontalSlowness><backazimuth><value>146.5092147637043</value></backazimuth><phaseHint>P</phaseHint><evaluationMode>automatic</evaluationMode><comment><text>839.8834729758663</text><id>DFX:rectilinearity</id></comment><comment><text>79.18513732620018</text><id>SNR</id></comment></pick><pick publicID="de.gempa.tb1.Pick/20250411124254.519915.117656"><time><value>2025-04-11T12:42:49.04Z</value></time><waveformID networkCode="CX" stationCode="PB19" channelCode="HHZ"/><filterID>ITAPER(4)&gt;&gt;BW(4,4,20)</filterID><methodID>AIC</methodID><horizontalSlowness><value>6.236209590163899</value></horizontalSlowness><backazimuth><value>205.16866192657315</value></backazimuth><phaseHint>P</phaseHint><evaluationMode>automatic</evaluationMode><comment><text>13231.18092484452</text><id>DFX:rectilinearity</id></comment><comment><text>462.2118854557759</text><id>SNR</id></comment></pick><pick publicID="de.gempa.tb1.Pick/20250411124258.817063.117659"><time><value>2025-04-11T12:42:54.348393Z</value></time><waveformID networkCode="CX" stationCode="PB15" channelCode="HHZ"/><filterID>ITAPER(4)&gt;&gt;BW(4,4,20)</filterID><methodID>AIC</methodID><horizontalSlowness><value>19.958593645102283</value></horizontalSlowness><backazimuth><value>78.34410595754892</value></backazimuth><phaseHint>P</phaseHint><evaluationMode>automatic</evaluationMode><comment><text>7430.325032623312</text><id>DFX:rectilinearity</id></comment><comment><text>159.2626908225225</text><id>SNR</id></comment></pick><pick publicID="de.gempa.tb1.Pick/20250411124306.668226.117663"><time><value>2025-04-11T12:42:59.898394Z</value></time><waveformID networkCode="CX" stationCode="PB06" channelCode="HHZ"/><filterID>ITAPER(4)&gt;&gt;BW(4,4,20)</filterID><methodID>AIC</methodID><horizontalSlowness><value>21.656385477353894</value></horizontalSlowness><backazimuth><value>162.577729539057</value></backazimuth><phaseHint>P</phaseHint><evaluationMode>automatic</evaluationMode><comment><text>113.31247231938586</text><id>DFX:rectilinearity</id></comment><comment><text>25.52932868387957</text><id>SNR</id></comment></pick><pick publicID="de.gempa.tb1.Pick/20250411124306.669812.117665"><time><value>2025-04-11T12:43:00.5Z</value></time><waveformID networkCode="CX" stationCode="PB19" channelCode="HHN"/><filterID>ITAPER(2)&gt;&gt;BW(3,3,20)</filterID><methodID>L2-AIC-GRID</methodID><horizontalSlowness><value>18.96943399633417</value></horizontalSlowness><backazimuth><value>193.34715306569254</value></backazimuth><phaseHint>S</phaseHint><evaluationMode>automatic</evaluationMode><comment><text>138915.4067031051</text><id>DFX:rectilinearity</id></comment><comment><text>de.gempa.tb1.Pick/20250411124254.519915.117656</text><id>RefPickID</id></comment><comment><text>7.94506967200342</text><id>SNR</id></comment></pick><pick publicID="de.gempa.tb1.Pick/20250411124308.385671.117666"><time><value>2025-04-11T12:43:00.969998Z</value></time><waveformID networkCode="CX" stationCode="PB10" channelCode="HHN"/><filterID>ITAPER(2)&gt;&gt;BW(3,3,20)</filterID><methodID>L2-AIC-GRID</methodID><horizontalSlowness><value>21.465854005035343</value></horizontalSlowness><backazimuth><value>206.1091827276039</value></backazimuth><phaseHint>S</phaseHint><evaluationMode>automatic</evaluationMode><comment><text>12355.750131327575</text><id>DFX:rectilinearity</id></comment><comment><text>de.gempa.tb1.Pick/20250411124254.178157.117654</text><id>RefPickID</id></comment><comment><text>5.568971074720841</text><id>SNR</id></comment></pick><pick publicID="de.gempa.tb1.Pick/20250411124312.588241.117670"><time><value>2025-04-11T12:43:07.418391Z</value></time><waveformID networkCode="CX" stationCode="PB03" channelCode="HHZ"/><filterID>ITAPER(4)&gt;&gt;BW(4,4,20)</filterID><methodID>AIC</methodID><horizontalSlowness><value>9.470663640100502</value></horizontalSlowness><backazimuth><value>166.13922535275051</value></backazimuth><phaseHint>P</phaseHint><evaluationMode>automatic</evaluationMode><comment><text>15.182454983935136</text><id>DFX:rectilinearity</id></comment><comment><text>11.115365467398357</text><id>SNR</id></comment></pick><pick publicID="de.gempa.tb1.Pick/20250411124318.31358.117672"><time><value>2025-04-11T12:43:11.688396Z</value></time><waveformID networkCode="CX" stationCode="PB07" channelCode="HHZ"/><filterID>ITAPER(4)&gt;&gt;BW(4,4,20)</filterID><methodID>AIC</methodID><horizontalSlowness><value>23.582341547170287</value></horizontalSlowness><backazimuth><value>242.0234237417145</value></backazimuth><phaseHint>P</phaseHint><evaluationMode>automatic</evaluationMode><comment><text>401.2243871137557</text><id>DFX:rectilinearity</id></comment><comment><text>11.806822249528292</text><id>SNR</id></comment></pick><pick publicID="de.gempa.tb1.Pick/20250411124323.541968.117676"><time><value>2025-04-11T12:43:17.018393Z</value></time><waveformID networkCode="CX" stationCode="PB02" channelCode="HHZ"/><filterID>ITAPER(4)&gt;&gt;BW(4,4,20)</filterID><methodID>AIC</methodID><horizontalSlowness><value>4.0200888125769323</value></horizontalSlowness><backazimuth><value>137.24372588978673</value></backazimuth><phaseHint>P</phaseHint><evaluationMode>automatic</evaluationMode><comment><text>25.99850670938737</text><id>DFX:rectilinearity</id></comment><comment><text>5.723689862788871</text><id>SNR</id></comment></pick><pick publicID="de.gempa.tb1.Pick/20250411124325.548835.117678"><time><value>2025-04-11T12:43:10.328393Z</value></time><waveformID networkCode="CX" stationCode="PB15" channelCode="HHN"/><filterID>ITAPER(2)&gt;&gt;BW(3,3,20)</filterID><methodID>L2-AIC-GRID</methodID><horizontalSlowness><value>22.289462973181369</value></horizontalSlowness><backazimuth><value>305.6959347133963</value></backazimuth><phaseHint>S</phaseHint><evaluationMode>automatic</evaluationMode><comment><text>741803.6422202503</text><id>DFX:rectilinearity</id></comment><comment><text>de.gempa.tb1.Pick/20250411124258.817063.117659</text><id>RefPickID</id></comment><comment><text>7.877762208024834</text><id>SNR</id></comment></pick><pick publicID="de.gempa.tb1.Pick/20250411124326.694178.117679"><time><value>2025-04-11T12:43:21.408393Z</value></time><waveformID networkCode="CX" stationCode="PB01" channelCode="HHZ"/><filterID>ITAPER(4)&gt;&gt;BW(4,4,20)</filterID><methodID>AIC</methodID><horizontalSlowness><value>21.272133353371952</value></horizontalSlowness><backazimuth><value>227.26476044755034</value></backazimuth><phaseHint>P</phaseHint><evaluationMode>automatic</evaluationMode><comment><text>21.896085386275516</text><id>DFX:rectilinearity</id></comment><comment><text>8.507705346661556</text><id>SNR</id></comment></pick><pick publicID="de.gempa.tb1.Pick/20250411124326.831171.117681"><time><value>2025-04-11T12:43:19.838394Z</value></time><waveformID networkCode="CX" stationCode="PB06" channelCode="HHN"/><filterID>ITAPER(2)&gt;&gt;BW(3,3,20)</filterID><methodID>L2-AIC-GRID</methodID><horizontalSlowness><value>18.79130246302568</value></horizontalSlowness><backazimuth><value>109.80885423190905</value></backazimuth><phaseHint>S</phaseHint><evaluationMode>automatic</evaluationMode><comment><text>2463.733915282962</text><id>DFX:rectilinearity</id></comment><comment><text>de.gempa.tb1.Pick/20250411124306.668226.117663</text><id>RefPickID</id></comment><comment><text>9.570075630675271</text><id>SNR</id></comment></pick><pick publicID="de.gempa.tb1.Pick/20250411124330.534066.117682"><time><value>2025-04-11T12:43:13.78Z</value></time><waveformID networkCode="CX" stationCode="PB09" channelCode="HHZ"/><filterID>ITAPER(4)&gt;&gt;BW(4,4,20)</filterID><methodID>AIC</methodID><horizontalSlowness><value>19.726335074141726</value></horizontalSlowness><backazimuth><value>275.95841107604826</value></backazimuth><phaseHint>P</phaseHint><evaluationMode>automatic</evaluationMode><comment><text>15.55741004703925</text><id>DFX:rectilinearity</id></comment><comment><text>15.896164939950948</text><id>SNR</id></comment></pick><pick publicID="de.gempa.tb1.Pick/20250411124357.540889.117690"><time><value>2025-04-11T12:43:50.458393Z</value></time><waveformID networkCode="CX" stationCode="PB02" channelCode="HHN"/><filterID>ITAPER(2)&gt;&gt;BW(3,3,20)</filterID><methodID>L2-AIC-GRID</methodID><horizontalSlowness><value>12.442082300861601</value></horizontalSlowness><backazimuth><value>77.46870057324274</value></backazimuth><phaseHint>S</phaseHint><evaluationMode>automatic</evaluationMode><comment><text>227.48056511229615</text><id>DFX:rectilinearity</id></comment><comment><text>de.gempa.tb1.Pick/20250411124323.541968.117676</text><id>RefPickID</id></comment><comment><text>6.401982264875791</text><id>SNR</id></comment></pick><pick publicID="de.gempa.tb1.Pick/20250411124409.798794.117691"><time><value>2025-04-11T12:43:59.488393Z</value></time><waveformID networkCode="CX" stationCode="PB01" channelCode="HHN"/><filterID>ITAPER(2)&gt;&gt;BW(3,3,20)</filterID><methodID>L2-AIC-GRID</methodID><horizontalSlowness><value>22.948670088587065</value></horizontalSlowness><backazimuth><value>259.5467503605372</value></backazimuth><phaseHint>S</phaseHint><evaluationMode>automatic</evaluationMode><comment><text>37.346192711134343</text><id>DFX:rectilinearity</id></comment><comment><text>de.gempa.tb1.Pick/20250411124326.694178.117679</text><id>RefPickID</id></comment><comment><text>6.169841944140625</text><id>SNR</id></comment></pick><pick publicID="de.gempa.tb1.Pick/20250411124420.971736.117692"><time><value>2025-04-11T12:43:41.318396Z</value></time><waveformID networkCode="CX" stationCode="PB07" channelCode="HHN"/><filterID>ITAPER(2)&gt;&gt;BW(3,3,20)</filterID><methodID>L2-AIC-GRID</methodID><horizontalSlowness><value>19.106167240631255</value></horizontalSlowness><backazimuth><value>172.00251511061379</value></backazimuth><phaseHint>S</phaseHint><evaluationMode>automatic</evaluationMode><comment><text>1153.115913615954</text><id>DFX:rectilinearity</id></comment><comment><text>de.gempa.tb1.Pick/20250411124318.31358.117672</text><id>RefPickID</id></comment><comment><text>5.041579643795224</text><id>SNR</id></comment></pick><origin publicID="de.gempa.tb1.Origin/20250411124420.977.55827"><time><value>2025-04-11T12:42:33.696718Z</value><uncertainty>0.8729538321495056</uncertainty></time><latitude><value>-24.219858169555664</value><uncertainty>4.882399559020996</uncertainty></latitude><longitude><value>-70.12225341796875</value><uncertainty>4.037904739379883</uncertainty></longitude><depth><value>56.69619369506836</value><uncertainty>9.750736236572266</uncertainty></depth><depthType>from location</depthType><methodID>LOCSAT</methodID><earthModelID>iasp91_scanloc</earthModelID><quality><associatedPhaseCount>16</associatedPhaseCount><usedPhaseCount>16</usedPhaseCount><associatedStationCount>9</associatedStationCount><usedStationCount>9</usedStationCount><depthPhaseCount>0</depthPhaseCount><standardError>0.5541921112969134</standardError><azimuthalGap>262.8228988647461</azimuthalGap><maximumDistance>3.215545177459717</maximumDistance><minimumDistance>0.806736171245575</minimumDistance><medianDistance>2.1878535747528076</medianDistance></quality><uncertainty><minHorizontalUncertainty>8.011795997619629</minHorizontalUncertainty><maxHorizontalUncertainty>10.969975471496582</maxHorizontalUncertainty><azimuthMaxHorizontalUncertainty>25.96211051940918</azimuthMaxHorizontalUncertainty><preferredDescription>horizontal uncertainty</preferredDescription></uncertainty><evaluationMode>automatic</evaluationMode><evaluationStatus>confirmed</evaluationStatus><comment><text>0.00</text><id>mismatchScore</id></comment><comment><text>mismatchScore</text><id>scevalMethod</id></comment><arrival><pickID>de.gempa.tb1.Pick/20250411124254.178157.117654</pickID><phase>P</phase><azimuth>330.5699462890625</azimuth><distance>0.806736171245575</distance><timeResidual>-0.01745891571044922</timeResidual><timeUsed>true</timeUsed><horizontalSlownessUsed>false</horizontalSlownessUsed><backazimuthUsed>false</backazimuthUsed><weight>1</weight></arrival><arrival><pickID>de.gempa.tb1.Pick/20250411124254.519915.117656</pickID><phase>P</phase><azimuth>67.7470474243164</azimuth><distance>0.8223506808280945</distance><timeResidual>-0.2846946716308594</timeResidual><timeUsed>true</timeUsed><horizontalSlownessUsed>false</horizontalSlownessUsed><backazimuthUsed>false</backazimuthUsed><weight>1</weight></arrival><arrival><pickID>de.gempa.tb1.Pick/20250411124258.817063.117659</pickID><phase>P</phase><azimuth>30.79367256164551</azimuth><distance>1.170586109161377</distance><timeResidual>0.4570531845092773</timeResidual><timeUsed>true</timeUsed><horizontalSlownessUsed>false</horizontalSlownessUsed><backazimuthUsed>false</backazimuthUsed><weight>1</weight></arrival><arrival><pickID>de.gempa.tb1.Pick/20250411124306.668226.117663</pickID><phase>P</phase><azimuth>18.648317337036133</azimuth><distance>1.5895906686782837</distance><timeResidual>0.36406898498535156</timeResidual><timeUsed>true</timeUsed><horizontalSlownessUsed>false</horizontalSlownessUsed><backazimuthUsed>false</backazimuthUsed><weight>1</weight></arrival><arrival><pickID>de.gempa.tb1.Pick/20250411124306.669812.117665</pickID><phase>S</phase><azimuth>67.7470474243164</azimuth><distance>0.8223506808280945</distance><timeResidual>-0.7213850021362305</timeResidual><timeUsed>true</timeUsed><horizontalSlownessUsed>false</horizontalSlownessUsed><backazimuthUsed>false</backazimuthUsed><weight>1</weight></arrival><arrival><pickID>de.gempa.tb1.Pick/20250411124308.385671.117666</pickID><phase>S</phase><azimuth>330.5699462890625</azimuth><distance>0.806736171245575</distance><timeResidual>0.1012105941772461</timeResidual><timeUsed>true</timeUsed><horizontalSlownessUsed>false</horizontalSlownessUsed><backazimuthUsed>false</backazimuthUsed><weight>1</weight></arrival><arrival><pickID>de.gempa.tb1.Pick/20250411124312.588241.117670</pickID><phase>P</phase><azimuth>9.008103370666504</azimuth><distance>2.1878535747528076</distance><timeResidual>-0.26433849334716797</timeResidual><timeUsed>true</timeUsed><horizontalSlownessUsed>false</horizontalSlownessUsed><backazimuthUsed>false</backazimuthUsed><weight>1</weight></arrival><arrival><pickID>de.gempa.tb1.Pick/20250411124318.31358.117672</pickID><phase>P</phase><azimuth>5.056901454925537</azimuth><distance>2.4910638332366943</distance><timeResidual>-0.13672542572021484</timeResidual><timeUsed>true</timeUsed><horizontalSlownessUsed>false</horizontalSlownessUsed><backazimuthUsed>false</backazimuthUsed><weight>1</weight></arrival><arrival><pickID>de.gempa.tb1.Pick/20250411124323.541968.117676</pickID><phase>P</phase><azimuth>4.18148136138916</azimuth><distance>2.8940279483795166</distance><timeResidual>-0.3234281539916992</timeResidual><timeUsed>true</timeUsed><horizontalSlownessUsed>false</horizontalSlownessUsed><backazimuthUsed>false</backazimuthUsed><weight>1</weight></arrival><arrival><pickID>de.gempa.tb1.Pick/20250411124325.548835.117678</pickID><phase>S</phase><azimuth>30.79367256164551</azimuth><distance>1.170586109161377</distance><timeResidual>0.9285802841186523</timeResidual><timeUsed>true</timeUsed><horizontalSlownessUsed>false</horizontalSlownessUsed><backazimuthUsed>false</backazimuthUsed><weight>1</weight></arrival><arrival><pickID>de.gempa.tb1.Pick/20250411124326.694178.117679</pickID><phase>P</phase><azimuth>10.63306999206543</azimuth><distance>3.215545177459717</distance><timeResidual>-0.337367057800293</timeResidual><timeUsed>true</timeUsed><horizontalSlownessUsed>false</horizontalSlownessUsed><backazimuthUsed>false</backazimuthUsed><weight>1</weight></arrival><arrival><pickID>de.gempa.tb1.Pick/20250411124326.831171.117681</pickID><phase>S</phase><azimuth>18.648317337036133</azimuth><distance>1.5895906686782837</distance><timeResidual>0.30840396881103516</timeResidual><timeUsed>true</timeUsed><horizontalSlownessUsed>false</horizontalSlownessUsed><backazimuthUsed>false</backazimuthUsed><weight>1</weight></arrival><arrival><pickID>de.gempa.tb1.Pick/20250411124330.534066.117682</pickID><phase>P</phase><azimuth>18.758678436279297</azimuth><distance>2.5448715686798096</distance><timeResidual>1.2191686630249023</timeResidual><timeUsed>true</timeUsed><horizontalSlownessUsed>false</horizontalSlownessUsed><backazimuthUsed>false</backazimuthUsed><weight>1</weight></arrival><arrival><pickID>de.gempa.tb1.Pick/20250411124357.540889.117690</pickID><phase>S</phase><azimuth>4.18148136138916</azimuth><distance>2.8940279483795166</distance><timeResidual>-1.0591878890991211</timeResidual><timeUsed>true</timeUsed><horizontalSlownessUsed>false</horizontalSlownessUsed><backazimuthUsed>false</backazimuthUsed><weight>1</weight></arrival><arrival><pickID>de.gempa.tb1.Pick/20250411124409.798794.117691</pickID><phase>S</phase><azimuth>10.63306999206543</azimuth><distance>3.215545177459717</distance><timeResidual>0.05737781524658203</timeResidual><timeUsed>true</timeUsed><horizontalSlownessUsed>false</horizontalSlownessUsed><backazimuthUsed>false</backazimuthUsed><weight>1</weight></arrival><arrival><pickID>de.gempa.tb1.Pick/20250411124420.971736.117692</pickID><phase>S</phase><azimuth>5.056901454925537</azimuth><distance>2.4910638332366943</distance><timeResidual>-0.29105663299560547</timeResidual><timeUsed>true</timeUsed><horizontalSlownessUsed>false</horizontalSlownessUsed><backazimuthUsed>false</backazimuthUsed><weight>1</weight></arrival><magnitude publicID="de.gempa.tb1.Magnitude/20250411124430.943446.99200"><magnitude><value>3.2383876908986235</value></magnitude><type>M</type><methodID>weighted average</methodID><stationCount>7</stationCount></magnitude></origin><event publicID="gempa2025hdrq"><preferredOriginID>de.gempa.tb1.Origin/20250411124420.977.55827</preferredOriginID><preferredMagnitudeID>de.gempa.tb1.Magnitude/20250411124430.943446.99200</preferredMagnitudeID><description><text>Near Coast of Northern Chile</text><type>region name</type></description><originReference>de.gempa.tb1.Origin/20250411124420.977.55827</originReference></event></EventParameters></seiscomp>