<?xml version="1.0" encoding="UTF-8"?>
<seiscomp xmlns="http://geofon.gfz-potsdam.de/ns/seiscomp3-schema/0.13" version="0.13"><EventParameters><pick publicID="de.gempa.tb1.Pick/20250412155506.478023.125057"><time><value>2025-04-12T15:54:57.89Z</value></time><waveformID networkCode="CX" stationCode="PB09" channelCode="HHZ"/><filterID>ITAPER(4)&gt;&gt;BW(4,4,20)</filterID><methodID>AIC</methodID><horizontalSlowness><value>12.410723361036515</value></horizontalSlowness><backazimuth><value>92.64485466026143</value></backazimuth><phaseHint>P</phaseHint><evaluationMode>automatic</evaluationMode><comment><text>27.92254127608733</text><id>DFX:rectilinearity</id></comment><comment><text>43.69713920591356</text><id>SNR</id></comment></pick><pick publicID="de.gempa.tb1.Pick/20250412155507.577874.125059"><time><value>2025-04-12T15:55:02.008394Z</value></time><waveformID networkCode="CX" stationCode="PB03" channelCode="HHZ"/><filterID>ITAPER(4)&gt;&gt;BW(4,4,20)</filterID><methodID>AIC</methodID><horizontalSlowness><value>22.268431447095043</value></horizontalSlowness><backazimuth><value>142.540365642875</value></backazimuth><phaseHint>P</phaseHint><evaluationMode>automatic</evaluationMode><comment><text>11.395956450234836</text><id>DFX:rectilinearity</id></comment><comment><text>19.031164583494181</text><id>SNR</id></comment></pick><pick publicID="de.gempa.tb1.Pick/20250412155508.551399.125061"><time><value>2025-04-12T15:55:03.508391Z</value></time><waveformID networkCode="CX" stationCode="PB06" channelCode="HHZ"/><filterID>ITAPER(4)&gt;&gt;BW(4,4,20)</filterID><methodID>AIC</methodID><horizontalSlowness><value>10.716437879477297</value></horizontalSlowness><backazimuth><value>267.975030946674</value></backazimuth><phaseHint>P</phaseHint><evaluationMode>automatic</evaluationMode><comment><text>69.29507758273549</text><id>DFX:rectilinearity</id></comment><comment><text>10.883769300714373</text><id>SNR</id></comment></pick><pick publicID="de.gempa.tb1.Pick/20250412155509.472412.125063"><time><value>2025-04-12T15:55:04.818394Z</value></time><waveformID networkCode="CX" stationCode="PB02" channelCode="HHZ"/><filterID>ITAPER(4)&gt;&gt;BW(4,4,20)</filterID><methodID>AIC</methodID><horizontalSlowness><value>18.013173023988834</value></horizontalSlowness><backazimuth><value>123.32982683227343</value></backazimuth><phaseHint>P</phaseHint><evaluationMode>automatic</evaluationMode><comment><text>31.68937029465531</text><id>DFX:rectilinearity</id></comment><comment><text>23.54727380850958</text><id>SNR</id></comment></pick><pick publicID="de.gempa.tb1.Pick/20250412155509.619959.125065"><time><value>2025-04-12T15:55:02.648394Z</value></time><waveformID networkCode="CX" stationCode="PB01" channelCode="HHZ"/><filterID>ITAPER(4)&gt;&gt;BW(4,4,20)</filterID><methodID>AIC</methodID><horizontalSlowness><value>21.92033088522095</value></horizontalSlowness><backazimuth><value>193.14574249154887</value></backazimuth><phaseHint>P</phaseHint><evaluationMode>automatic</evaluationMode><comment><text>25.41330488870842</text><id>DFX:rectilinearity</id></comment><comment><text>20.218498974141454</text><id>SNR</id></comment></pick><pick publicID="de.gempa.tb1.Pick/20250412155511.925492.125067"><time><value>2025-04-12T15:55:03.648391Z</value></time><waveformID networkCode="CX" stationCode="PB07" channelCode="HHZ"/><filterID>ITAPER(4)&gt;&gt;BW(4,4,20)</filterID><methodID>AIC</methodID><horizontalSlowness><value>22.467521510023982</value></horizontalSlowness><backazimuth><value>11.17918208234147</value></backazimuth><phaseHint>P</phaseHint><evaluationMode>automatic</evaluationMode><comment><text>119.07499668697834</text><id>DFX:rectilinearity</id></comment><comment><text>56.31807051122438</text><id>SNR</id></comment></pick><pick publicID="de.gempa.tb1.Pick/20250412155529.583373.125069"><time><value>2025-04-12T15:55:20.868394Z</value></time><waveformID networkCode="CX" stationCode="PB03" channelCode="HHN"/><filterID>ITAPER(2)&gt;&gt;BW(3,3,20)</filterID><methodID>L2-AIC-GRID</methodID><horizontalSlowness><value>13.40213425199411</value></horizontalSlowness><backazimuth><value>205.8400121842674</value></backazimuth><phaseHint>S</phaseHint><evaluationMode>automatic</evaluationMode><comment><text>24.010379243028567</text><id>DFX:rectilinearity</id></comment><comment><text>de.gempa.tb1.Pick/20250412155507.577874.125059</text><id>RefPickID</id></comment><comment><text>8.21465361058373</text><id>SNR</id></comment></pick><pick publicID="de.gempa.tb1.Pick/20250412155530.568222.125070"><time><value>2025-04-12T15:55:22.408394Z</value></time><waveformID networkCode="CX" stationCode="PB01" channelCode="HHN"/><filterID>ITAPER(2)&gt;&gt;BW(3,3,20)</filterID><methodID>L2-AIC-GRID</methodID><horizontalSlowness><value>20.02159927908951</value></horizontalSlowness><backazimuth><value>355.83381577714073</value></backazimuth><phaseHint>S</phaseHint><evaluationMode>automatic</evaluationMode><comment><text>57.65008623721385</text><id>DFX:rectilinearity</id></comment><comment><text>de.gempa.tb1.Pick/20250412155509.619959.125065</text><id>RefPickID</id></comment><comment><text>6.087157133535688</text><id>SNR</id></comment></pick><pick publicID="de.gempa.tb1.Pick/20250412155530.611624.125071"><time><value>2025-04-12T15:55:23.128391Z</value></time><waveformID networkCode="CX" stationCode="PB06" channelCode="HHN"/><filterID>ITAPER(2)&gt;&gt;BW(3,3,20)</filterID><methodID>L2-AIC-GRID</methodID><horizontalSlowness><value>21.551705933638015</value></horizontalSlowness><backazimuth><value>281.1356203627347</value></backazimuth><phaseHint>S</phaseHint><evaluationMode>automatic</evaluationMode><comment><text>93.17732012077653</text><id>DFX:rectilinearity</id></comment><comment><text>de.gempa.tb1.Pick/20250412155508.551399.125061</text><id>RefPickID</id></comment><comment><text>6.22974962955278</text><id>SNR</id></comment></pick><pick publicID="de.gempa.tb1.Pick/20250412155533.594004.125073"><time><value>2025-04-12T15:55:25.358394Z</value></time><waveformID networkCode="CX" stationCode="PB02" channelCode="HHN"/><filterID>ITAPER(2)&gt;&gt;BW(3,3,20)</filterID><methodID>L2-AIC-GRID</methodID><horizontalSlowness><value>8.858466621457037</value></horizontalSlowness><backazimuth><value>357.6845844933704</value></backazimuth><phaseHint>S</phaseHint><evaluationMode>automatic</evaluationMode><comment><text>86.22070830570954</text><id>DFX:rectilinearity</id></comment><comment><text>de.gempa.tb1.Pick/20250412155509.472412.125063</text><id>RefPickID</id></comment><comment><text>5.607367801636042</text><id>SNR</id></comment></pick><origin publicID="de.gempa.tb1.Origin/20250412155533.596489.86140"><time><value>2025-04-12T15:54:37.972741Z</value><uncertainty>1.1618578433990479</uncertainty></time><latitude><value>-21.87912368774414</value><uncertainty>4.923113346099854</uncertainty></latitude><longitude><value>-68.5281982421875</value><uncertainty>15.378825187683105</uncertainty></longitude><depth><value>127.64398956298828</value><uncertainty>18.27095603942871</uncertainty></depth><depthType>from location</depthType><methodID>LOCSAT</methodID><earthModelID>iasp91_scanloc</earthModelID><quality><associatedPhaseCount>10</associatedPhaseCount><usedPhaseCount>10</usedPhaseCount><associatedStationCount>6</associatedStationCount><usedStationCount>6</usedStationCount><depthPhaseCount>0</depthPhaseCount><standardError>0.14270913014634426</standardError><azimuthalGap>276.6252899169922</azimuthalGap><maximumDistance>1.3893123865127563</maximumDistance><minimumDistance>0.6682109236717224</minimumDistance><medianDistance>1.269315242767334</medianDistance></quality><uncertainty><minHorizontalUncertainty>10.530808448791504</minHorizontalUncertainty><maxHorizontalUncertainty>32.982791900634766</maxHorizontalUncertainty><azimuthMaxHorizontalUncertainty>88.66466522216797</azimuthMaxHorizontalUncertainty><preferredDescription>horizontal uncertainty</preferredDescription></uncertainty><evaluationMode>automatic</evaluationMode><evaluationStatus>confirmed</evaluationStatus><comment><text>0.00</text><id>mismatchScore</id></comment><comment><text>mismatchScore</text><id>scevalMethod</id></comment><arrival><pickID>de.gempa.tb1.Pick/20250412155506.478023.125057</pickID><phase>P</phase><azimuth>276.9463806152344</azimuth><distance>0.6682109236717224</distance><timeResidual>-0.01360321044921875</timeResidual><timeUsed>true</timeUsed><horizontalSlownessUsed>false</horizontalSlownessUsed><backazimuthUsed>false</backazimuthUsed><weight>1</weight></arrival><arrival><pickID>de.gempa.tb1.Pick/20250412155507.577874.125059</pickID><phase>P</phase><azimuth>261.3419494628906</azimuth><distance>1.1494758129119873</distance><timeResidual>-0.16270065307617188</timeResidual><timeUsed>true</timeUsed><horizontalSlownessUsed>false</horizontalSlownessUsed><backazimuthUsed>false</backazimuthUsed><weight>1</weight></arrival><arrival><pickID>de.gempa.tb1.Pick/20250412155508.551399.125061</pickID><phase>P</phase><azimuth>229.40150451660156</azimuth><distance>1.269315242767334</distance><timeResidual>0.09846305847167969</timeResidual><timeUsed>true</timeUsed><horizontalSlownessUsed>false</horizontalSlownessUsed><backazimuthUsed>false</backazimuthUsed><weight>1</weight></arrival><arrival><pickID>de.gempa.tb1.Pick/20250412155509.472412.125063</pickID><phase>P</phase><azimuth>293.3684387207031</azimuth><distance>1.3893123865127563</distance><timeResidual>0.10495948791503906</timeResidual><timeUsed>true</timeUsed><horizontalSlownessUsed>false</horizontalSlownessUsed><backazimuthUsed>false</backazimuthUsed><weight>1</weight></arrival><arrival><pickID>de.gempa.tb1.Pick/20250412155509.619959.125065</pickID><phase>P</phase><azimuth>312.7762145996094</azimuth><distance>1.220724105834961</distance><timeResidual>-0.2610759735107422</timeResidual><timeUsed>true</timeUsed><horizontalSlownessUsed>false</horizontalSlownessUsed><backazimuthUsed>false</backazimuthUsed><weight>1</weight></arrival><arrival><pickID>de.gempa.tb1.Pick/20250412155511.925492.125067</pickID><phase>P</phase><azimuth>276.60394287109375</azimuth><distance>1.2710826396942139</distance><timeResidual>0.21379470825195312</timeResidual><timeUsed>true</timeUsed><horizontalSlownessUsed>false</horizontalSlownessUsed><backazimuthUsed>false</backazimuthUsed><weight>1</weight></arrival><arrival><pickID>de.gempa.tb1.Pick/20250412155529.583373.125069</pickID><phase>S</phase><azimuth>261.3419494628906</azimuth><distance>1.1494758129119873</distance><timeResidual>-0.05066299438476562</timeResidual><timeUsed>true</timeUsed><horizontalSlownessUsed>false</horizontalSlownessUsed><backazimuthUsed>false</backazimuthUsed><weight>1</weight></arrival><arrival><pickID>de.gempa.tb1.Pick/20250412155530.568222.125070</pickID><phase>S</phase><azimuth>312.7762145996094</azimuth><distance>1.220724105834961</distance><timeResidual>0.17279434204101562</timeResidual><timeUsed>true</timeUsed><horizontalSlownessUsed>false</horizontalSlownessUsed><backazimuthUsed>false</backazimuthUsed><weight>1</weight></arrival><arrival><pickID>de.gempa.tb1.Pick/20250412155530.611624.125071</pickID><phase>S</phase><azimuth>229.40150451660156</azimuth><distance>1.269315242767334</distance><timeResidual>-0.002407073974609375</timeResidual><timeUsed>true</timeUsed><horizontalSlownessUsed>false</horizontalSlownessUsed><backazimuthUsed>false</backazimuthUsed><weight>1</weight></arrival><arrival><pickID>de.gempa.tb1.Pick/20250412155533.594004.125073</pickID><phase>S</phase><azimuth>293.3684387207031</azimuth><distance>1.3893123865127563</distance><timeResidual>-0.09995841979980469</timeResidual><timeUsed>true</timeUsed><horizontalSlownessUsed>false</horizontalSlownessUsed><backazimuthUsed>false</backazimuthUsed><weight>1</weight></arrival><magnitude publicID="de.gempa.tb1.Magnitude/20250412155620.540227.248712"><magnitude><value>2.3370990220541583</value></magnitude><type>M</type><methodID>weighted average</methodID><stationCount>4</stationCount></magnitude></origin><event publicID="gempa2025hfub"><preferredOriginID>de.gempa.tb1.Origin/20250412155533.596489.86140</preferredOriginID><preferredMagnitudeID>de.gempa.tb1.Magnitude/20250412155620.540227.248712</preferredMagnitudeID><description><text>Chile-Bolivia Border Region</text><type>region name</type></description><originReference>de.gempa.tb1.Origin/20250412155533.596489.86140</originReference></event></EventParameters></seiscomp>