<?xml version="1.0" encoding="UTF-8"?>
<seiscomp xmlns="http://geofon.gfz-potsdam.de/ns/seiscomp3-schema/0.13" version="0.13"><EventParameters><pick publicID="de.gempa.tb1.Pick/20250412211919.51014.126836"><time><value>2025-04-12T21:19:12.658393Z</value></time><waveformID networkCode="CX" stationCode="PB03" channelCode="HHZ"/><filterID>ITAPER(4)&gt;&gt;BW(4,4,20)</filterID><methodID>AIC</methodID><horizontalSlowness><value>10.365702585737569</value></horizontalSlowness><backazimuth><value>93.40277470348032</value></backazimuth><phaseHint>P</phaseHint><evaluationMode>automatic</evaluationMode><comment><text>16.62277489062723</text><id>DFX:rectilinearity</id></comment><comment><text>12.889816260090674</text><id>SNR</id></comment></pick><pick publicID="de.gempa.tb1.Pick/20250412211921.534201.126838"><time><value>2025-04-12T21:19:12.558393Z</value></time><waveformID networkCode="CX" stationCode="PB01" channelCode="HHZ"/><filterID>ITAPER(4)&gt;&gt;BW(4,4,20)</filterID><methodID>AIC</methodID><horizontalSlowness><value>15.56859301471643</value></horizontalSlowness><backazimuth><value>357.40100406671513</value></backazimuth><phaseHint>P</phaseHint><evaluationMode>automatic</evaluationMode><comment><text>13.014103320694744</text><id>DFX:rectilinearity</id></comment><comment><text>11.070769552242293</text><id>SNR</id></comment></pick><pick publicID="de.gempa.tb1.Pick/20250412211922.683069.126840"><time><value>2025-04-12T21:19:13.558393Z</value></time><waveformID networkCode="CX" stationCode="PB07" channelCode="HHZ"/><filterID>ITAPER(4)&gt;&gt;BW(4,4,20)</filterID><methodID>AIC</methodID><horizontalSlowness><value>20.480265437047528</value></horizontalSlowness><backazimuth><value>262.2942048190887</value></backazimuth><phaseHint>P</phaseHint><evaluationMode>automatic</evaluationMode><comment><text>309.66681164667676</text><id>DFX:rectilinearity</id></comment><comment><text>57.35360797050064</text><id>SNR</id></comment></pick><pick publicID="de.gempa.tb1.Pick/20250412211928.3708.126842"><time><value>2025-04-12T21:19:08.56Z</value></time><waveformID networkCode="CX" stationCode="PB09" channelCode="HHZ"/><filterID>ITAPER(4)&gt;&gt;BW(4,4,20)</filterID><methodID>AIC</methodID><horizontalSlowness><value>18.008017108530009</value></horizontalSlowness><backazimuth><value>271.7908739215078</value></backazimuth><phaseHint>P</phaseHint><evaluationMode>automatic</evaluationMode><comment><text>20.385704108290756</text><id>DFX:rectilinearity</id></comment><comment><text>35.881806556044253</text><id>SNR</id></comment></pick><pick publicID="de.gempa.tb1.Pick/20250412211938.576079.126848"><time><value>2025-04-12T21:19:30.358393Z</value></time><waveformID networkCode="CX" stationCode="PB03" channelCode="HHN"/><filterID>ITAPER(2)&gt;&gt;BW(3,3,20)</filterID><methodID>L2-AIC-GRID</methodID><horizontalSlowness><value>12.95408912762798</value></horizontalSlowness><backazimuth><value>211.22151768831748</value></backazimuth><phaseHint>S</phaseHint><evaluationMode>automatic</evaluationMode><comment><text>71.90791520441621</text><id>DFX:rectilinearity</id></comment><comment><text>de.gempa.tb1.Pick/20250412211919.51014.126836</text><id>RefPickID</id></comment><comment><text>10.992984994604662</text><id>SNR</id></comment></pick><pick publicID="de.gempa.tb1.Pick/20250412211942.77121.126851"><time><value>2025-04-12T21:19:29.668393Z</value></time><waveformID networkCode="CX" stationCode="PB01" channelCode="HHN"/><filterID>ITAPER(2)&gt;&gt;BW(3,3,20)</filterID><methodID>L2-AIC-GRID</methodID><horizontalSlowness><value>22.151789561136965</value></horizontalSlowness><backazimuth><value>40.2053092716132</value></backazimuth><phaseHint>S</phaseHint><evaluationMode>automatic</evaluationMode><comment><text>14.463094314471496</text><id>DFX:rectilinearity</id></comment><comment><text>de.gempa.tb1.Pick/20250412211921.534201.126838</text><id>RefPickID</id></comment><comment><text>7.059526931638762</text><id>SNR</id></comment></pick><pick publicID="de.gempa.tb1.Pick/20250412211944.100089.126852"><time><value>2025-04-12T21:19:32.088393Z</value></time><waveformID networkCode="CX" stationCode="PB07" channelCode="HHN"/><filterID>ITAPER(2)&gt;&gt;BW(3,3,20)</filterID><methodID>L2-AIC-GRID</methodID><horizontalSlowness><value>23.08768916963678</value></horizontalSlowness><backazimuth><value>247.246356080443</value></backazimuth><phaseHint>S</phaseHint><evaluationMode>automatic</evaluationMode><comment><text>737.046442742224</text><id>DFX:rectilinearity</id></comment><comment><text>de.gempa.tb1.Pick/20250412211922.683069.126840</text><id>RefPickID</id></comment><comment><text>7.493252125893788</text><id>SNR</id></comment></pick><origin publicID="de.gempa.tb1.Origin/20250412211944.106075.92585"><time><value>2025-04-12T21:18:50.017296Z</value><uncertainty>1.4626609086990356</uncertainty></time><latitude><value>-21.724578857421875</value><uncertainty>8.557270050048828</uncertainty></latitude><longitude><value>-68.66220092773438</value><uncertainty>16.773324966430664</uncertainty></longitude><depth><value>121.3699722290039</value><uncertainty>21.333375930786133</uncertainty></depth><depthType>from location</depthType><methodID>LOCSAT</methodID><earthModelID>iasp91_scanloc</earthModelID><quality><associatedPhaseCount>7</associatedPhaseCount><usedPhaseCount>7</usedPhaseCount><associatedStationCount>4</associatedStationCount><usedStationCount>4</usedStationCount><depthPhaseCount>0</depthPhaseCount><standardError>0.14931952238595922</standardError><azimuthalGap>300.9032897949219</azimuthalGap><maximumDistance>1.138073444366455</maximumDistance><minimumDistance>0.5436198115348816</minimumDistance><medianDistance>1.0632376670837402</medianDistance></quality><uncertainty><minHorizontalUncertainty>15.8684139251709</minHorizontalUncertainty><maxHorizontalUncertainty>37.13216018676758</maxHorizontalUncertainty><azimuthMaxHorizontalUncertainty>105.93515014648438</azimuthMaxHorizontalUncertainty><preferredDescription>horizontal uncertainty</preferredDescription></uncertainty><evaluationMode>automatic</evaluationMode><evaluationStatus>confirmed</evaluationStatus><comment><text>0.00</text><id>mismatchScore</id></comment><comment><text>mismatchScore</text><id>scevalMethod</id></comment><arrival><pickID>de.gempa.tb1.Pick/20250412211919.51014.126836</pickID><phase>P</phase><azimuth>252.15155029296875</azimuth><distance>1.0632376670837402</distance><timeResidual>-0.1727752685546875</timeResidual><timeUsed>true</timeUsed><horizontalSlownessUsed>false</horizontalSlownessUsed><backazimuthUsed>false</backazimuthUsed><weight>1</weight></arrival><arrival><pickID>de.gempa.tb1.Pick/20250412211921.534201.126838</pickID><phase>P</phase><azimuth>311.2482604980469</azimuth><distance>1.0252453088760376</distance><timeResidual>0.09965705871582031</timeResidual><timeUsed>true</timeUsed><horizontalSlownessUsed>false</horizontalSlownessUsed><backazimuthUsed>false</backazimuthUsed><weight>1</weight></arrival><arrival><pickID>de.gempa.tb1.Pick/20250412211922.683069.126840</pickID><phase>P</phase><azimuth>269.6700439453125</azimuth><distance>1.138073444366455</distance><timeResidual>-0.03855705261230469</timeResidual><timeUsed>true</timeUsed><horizontalSlownessUsed>false</horizontalSlownessUsed><backazimuthUsed>false</backazimuthUsed><weight>1</weight></arrival><arrival><pickID>de.gempa.tb1.Pick/20250412211928.3708.126842</pickID><phase>P</phase><azimuth>262.3407287597656</azimuth><distance>0.5436198115348816</distance><timeResidual>0.14234352111816406</timeResidual><timeUsed>true</timeUsed><horizontalSlownessUsed>false</horizontalSlownessUsed><backazimuthUsed>false</backazimuthUsed><weight>1</weight></arrival><arrival><pickID>de.gempa.tb1.Pick/20250412211938.576079.126848</pickID><phase>S</phase><azimuth>252.15155029296875</azimuth><distance>1.0632376670837402</distance><timeResidual>-0.1232891082763672</timeResidual><timeUsed>true</timeUsed><horizontalSlownessUsed>false</horizontalSlownessUsed><backazimuthUsed>false</backazimuthUsed><weight>1</weight></arrival><arrival><pickID>de.gempa.tb1.Pick/20250412211942.77121.126851</pickID><phase>S</phase><azimuth>311.2482604980469</azimuth><distance>1.0252453088760376</distance><timeResidual>-0.14731216430664062</timeResidual><timeUsed>true</timeUsed><horizontalSlownessUsed>false</horizontalSlownessUsed><backazimuthUsed>false</backazimuthUsed><weight>1</weight></arrival><arrival><pickID>de.gempa.tb1.Pick/20250412211944.100089.126852</pickID><phase>S</phase><azimuth>269.6700439453125</azimuth><distance>1.138073444366455</distance><timeResidual>0.24008750915527344</timeResidual><timeUsed>true</timeUsed><horizontalSlownessUsed>false</horizontalSlownessUsed><backazimuthUsed>false</backazimuthUsed><weight>1</weight></arrival><magnitude publicID="de.gempa.tb1.Magnitude/20250412212119.887996.284516"><magnitude><value>2.030113476679574</value></magnitude><type>M</type><methodID>weighted average</methodID><stationCount>1</stationCount></magnitude></origin><event publicID="gempa2025hgew"><preferredOriginID>de.gempa.tb1.Origin/20250412211944.106075.92585</preferredOriginID><preferredMagnitudeID>de.gempa.tb1.Magnitude/20250412212119.887996.284516</preferredMagnitudeID><typeCertainty>suspected</typeCertainty><description><text>Chile-Bolivia Border Region</text><type>region name</type></description><originReference>de.gempa.tb1.Origin/20250412211944.106075.92585</originReference></event></EventParameters></seiscomp>