<?xml version="1.0" encoding="UTF-8"?>
<seiscomp xmlns="http://geofon.gfz-potsdam.de/ns/seiscomp3-schema/0.13" version="0.13"><EventParameters><pick publicID="de.gempa.tb1.Pick/20250411095755.48571.118217"><time><value>2025-04-11T09:57:50.28Z</value></time><waveformID networkCode="CX" stationCode="PB19" channelCode="HHZ"/><filterID>ITAPER(4)&gt;&gt;BW(4,4,20)</filterID><methodID>AIC</methodID><horizontalSlowness><value>17.985400181105756</value></horizontalSlowness><backazimuth><value>42.80595029435483</value></backazimuth><phaseHint>P</phaseHint><evaluationMode>automatic</evaluationMode><comment><text>25.438346022636583</text><id>DFX:rectilinearity</id></comment><comment><text>11.281233414153442</text><id>SNR</id></comment></pick><pick publicID="de.gempa.tb1.Pick/20250411095800.669408.118219"><time><value>2025-04-11T09:57:53.518393Z</value></time><waveformID networkCode="CX" stationCode="PB15" channelCode="HHZ"/><filterID>ITAPER(4)&gt;&gt;BW(4,4,20)</filterID><methodID>AIC</methodID><horizontalSlowness><value>23.381777663269766</value></horizontalSlowness><backazimuth><value>222.46760458372887</value></backazimuth><phaseHint>P</phaseHint><evaluationMode>automatic</evaluationMode><comment><text>85.15500049136084</text><id>DFX:rectilinearity</id></comment><comment><text>10.650054457264735</text><id>SNR</id></comment></pick><pick publicID="de.gempa.tb1.Pick/20250411095803.500859.118222"><time><value>2025-04-11T09:57:56.798393Z</value></time><waveformID networkCode="CX" stationCode="PB06" channelCode="HHZ"/><filterID>ITAPER(4)&gt;&gt;BW(4,4,20)</filterID><methodID>AIC</methodID><horizontalSlowness><value>5.399175702394277</value></horizontalSlowness><backazimuth><value>327.90678541541854</value></backazimuth><phaseHint>P</phaseHint><evaluationMode>automatic</evaluationMode><comment><text>122.35074504365184</text><id>DFX:rectilinearity</id></comment><comment><text>18.881625384358802</text><id>SNR</id></comment></pick><pick publicID="de.gempa.tb1.Pick/20250411095809.763084.118224"><time><value>2025-04-11T09:58:02.858393Z</value></time><waveformID networkCode="CX" stationCode="PB03" channelCode="HHZ"/><filterID>ITAPER(4)&gt;&gt;BW(4,4,20)</filterID><methodID>AIC</methodID><horizontalSlowness><value>15.41470263915554</value></horizontalSlowness><backazimuth><value>244.5062712566945</value></backazimuth><phaseHint>P</phaseHint><evaluationMode>automatic</evaluationMode><comment><text>21.58562245671711</text><id>DFX:rectilinearity</id></comment><comment><text>13.867554611401424</text><id>SNR</id></comment></pick><pick publicID="de.gempa.tb1.Pick/20250411095819.08293.118226"><time><value>2025-04-11T09:58:01.91Z</value></time><waveformID networkCode="CX" stationCode="PB09" channelCode="HHZ"/><filterID>ITAPER(4)&gt;&gt;BW(4,4,20)</filterID><methodID>AIC</methodID><horizontalSlowness><value>19.316833376741496</value></horizontalSlowness><backazimuth><value>273.56250726928283</value></backazimuth><phaseHint>P</phaseHint><evaluationMode>automatic</evaluationMode><comment><text>16.936602444539435</text><id>DFX:rectilinearity</id></comment><comment><text>9.852000595958652</text><id>SNR</id></comment></pick><pick publicID="de.gempa.tb1.Pick/20250411095823.21628.118228"><time><value>2025-04-11T09:58:06.468396Z</value></time><waveformID networkCode="CX" stationCode="PB07" channelCode="HHZ"/><filterID>ITAPER(4)&gt;&gt;BW(4,4,20)</filterID><methodID>AIC</methodID><horizontalSlowness><value>21.00706941312776</value></horizontalSlowness><backazimuth><value>91.34065123418516</value></backazimuth><phaseHint>P</phaseHint><evaluationMode>automatic</evaluationMode><comment><text>261.0895643707981</text><id>DFX:rectilinearity</id></comment><comment><text>18.539227035761595</text><id>SNR</id></comment></pick><pick publicID="de.gempa.tb1.Pick/20250411095840.626242.118232"><time><value>2025-04-11T09:58:28.948393Z</value></time><waveformID networkCode="CX" stationCode="PB06" channelCode="HHN"/><filterID>ITAPER(2)&gt;&gt;BW(3,3,20)</filterID><methodID>L2-AIC-GRID</methodID><horizontalSlowness><value>8.721892393689773</value></horizontalSlowness><backazimuth><value>225.55290511647013</value></backazimuth><phaseHint>S</phaseHint><evaluationMode>automatic</evaluationMode><comment><text>157.44242831088437</text><id>DFX:rectilinearity</id></comment><comment><text>de.gempa.tb1.Pick/20250411095803.500859.118222</text><id>RefPickID</id></comment><comment><text>16.08676388982532</text><id>SNR</id></comment></pick><pick publicID="de.gempa.tb1.Pick/20250411095847.565175.118235"><time><value>2025-04-11T09:58:39.078393Z</value></time><waveformID networkCode="CX" stationCode="PB03" channelCode="HHN"/><filterID>ITAPER(2)&gt;&gt;BW(3,3,20)</filterID><methodID>L2-AIC-GRID</methodID><horizontalSlowness><value>14.747699976184974</value></horizontalSlowness><backazimuth><value>35.93778823059344</value></backazimuth><phaseHint>S</phaseHint><evaluationMode>automatic</evaluationMode><comment><text>16.474187465041986</text><id>DFX:rectilinearity</id></comment><comment><text>de.gempa.tb1.Pick/20250411095809.763084.118224</text><id>RefPickID</id></comment><comment><text>9.981896469915</text><id>SNR</id></comment></pick><pick publicID="de.gempa.tb1.Pick/20250411095910.335861.118236"><time><value>2025-04-11T09:58:45.638396Z</value></time><waveformID networkCode="CX" stationCode="PB07" channelCode="HHN"/><filterID>ITAPER(2)&gt;&gt;BW(3,3,20)</filterID><methodID>L2-AIC-GRID</methodID><horizontalSlowness><value>22.818864050397906</value></horizontalSlowness><backazimuth><value>245.52984737711546</value></backazimuth><phaseHint>S</phaseHint><evaluationMode>automatic</evaluationMode><comment><text>527.3964294289277</text><id>DFX:rectilinearity</id></comment><comment><text>de.gempa.tb1.Pick/20250411095823.21628.118228</text><id>RefPickID</id></comment><comment><text>6.312468477825712</text><id>SNR</id></comment></pick><origin publicID="de.gempa.tb1.Origin/20250411095910.338759.57722"><time><value>2025-04-11T09:57:16.624872Z</value><uncertainty>1.07132089138031</uncertainty></time><latitude><value>-23.97502326965332</value><uncertainty>12.481566429138184</uncertainty></latitude><longitude><value>-67.87677764892578</value><uncertainty>37.161720275878906</uncertainty></longitude><depth><value>219.9795379638672</value><uncertainty>28.90509033203125</uncertainty></depth><depthType>from location</depthType><methodID>LOCSAT</methodID><earthModelID>iasp91_scanloc</earthModelID><quality><associatedPhaseCount>9</associatedPhaseCount><usedPhaseCount>9</usedPhaseCount><associatedStationCount>6</associatedStationCount><usedStationCount>6</usedStationCount><depthPhaseCount>0</depthPhaseCount><standardError>0.1910278437279645</standardError><azimuthalGap>303.2138977050781</azimuthalGap><maximumDistance>2.905643939971924</maximumDistance><minimumDistance>1.295543670654297</minimumDistance><medianDistance>2.507345914840698</medianDistance></quality><uncertainty><minHorizontalUncertainty>17.058124542236328</minHorizontalUncertainty><maxHorizontalUncertainty>82.31094360351562</maxHorizontalUncertainty><azimuthMaxHorizontalUncertainty>75.16015625</azimuthMaxHorizontalUncertainty><preferredDescription>horizontal uncertainty</preferredDescription></uncertainty><evaluationMode>automatic</evaluationMode><evaluationStatus>confirmed</evaluationStatus><comment><text>0.02</text><id>mismatchScore</id></comment><comment><text>mismatchScore</text><id>scevalMethod</id></comment><arrival><pickID>de.gempa.tb1.Pick/20250411095755.48571.118217</pickID><phase>P</phase><azimuth>272.8086242675781</azimuth><distance>1.295543670654297</distance><timeResidual>-0.25891876220703125</timeResidual><timeUsed>true</timeUsed><horizontalSlownessUsed>false</horizontalSlownessUsed><backazimuthUsed>false</backazimuthUsed><weight>1</weight></arrival><arrival><pickID>de.gempa.tb1.Pick/20250411095800.669408.118219</pickID><phase>P</phase><azimuth>297.23883056640625</azimuth><distance>1.6496025323867798</distance><timeResidual>0.06452178955078125</timeResidual><timeUsed>true</timeUsed><horizontalSlownessUsed>false</horizontalSlownessUsed><backazimuthUsed>false</backazimuthUsed><weight>1</weight></arrival><arrival><pickID>de.gempa.tb1.Pick/20250411095803.500859.118222</pickID><phase>P</phase><azimuth>308.7015686035156</azimuth><distance>2.005828857421875</distance><timeResidual>0.022930145263671875</timeResidual><timeUsed>true</timeUsed><horizontalSlownessUsed>false</horizontalSlownessUsed><backazimuthUsed>false</backazimuthUsed><weight>1</weight></arrival><arrival><pickID>de.gempa.tb1.Pick/20250411095809.763084.118224</pickID><phase>P</phase><azimuth>317.5953063964844</azimuth><distance>2.581716299057007</distance><timeResidual>0.11348724365234375</timeResidual><timeUsed>true</timeUsed><horizontalSlownessUsed>false</horizontalSlownessUsed><backazimuthUsed>false</backazimuthUsed><weight>1</weight></arrival><arrival><pickID>de.gempa.tb1.Pick/20250411095819.08293.118226</pickID><phase>P</phase><azimuth>329.5947265625</azimuth><distance>2.507345914840698</distance><timeResidual>-0.029750823974609375</timeResidual><timeUsed>true</timeUsed><horizontalSlownessUsed>false</horizontalSlownessUsed><backazimuthUsed>false</backazimuthUsed><weight>1</weight></arrival><arrival><pickID>de.gempa.tb1.Pick/20250411095823.21628.118228</pickID><phase>P</phase><azimuth>319.9725036621094</azimuth><distance>2.905643939971924</distance><timeResidual>0.13714599609375</timeResidual><timeUsed>true</timeUsed><horizontalSlownessUsed>false</horizontalSlownessUsed><backazimuthUsed>false</backazimuthUsed><weight>1</weight></arrival><arrival><pickID>de.gempa.tb1.Pick/20250411095840.626242.118232</pickID><phase>S</phase><azimuth>308.7015686035156</azimuth><distance>2.005828857421875</distance><timeResidual>0.3650779724121094</timeResidual><timeUsed>true</timeUsed><horizontalSlownessUsed>false</horizontalSlownessUsed><backazimuthUsed>false</backazimuthUsed><weight>1</weight></arrival><arrival><pickID>de.gempa.tb1.Pick/20250411095847.565175.118235</pickID><phase>S</phase><azimuth>317.5953063964844</azimuth><distance>2.581716299057007</distance><timeResidual>-0.25557708740234375</timeResidual><timeUsed>true</timeUsed><horizontalSlownessUsed>false</horizontalSlownessUsed><backazimuthUsed>false</backazimuthUsed><weight>1</weight></arrival><arrival><pickID>de.gempa.tb1.Pick/20250411095910.335861.118236</pickID><phase>S</phase><azimuth>319.9725036621094</azimuth><distance>2.905643939971924</distance><timeResidual>-0.15975570678710938</timeResidual><timeUsed>true</timeUsed><horizontalSlownessUsed>false</horizontalSlownessUsed><backazimuthUsed>false</backazimuthUsed><weight>1</weight></arrival><magnitude publicID="de.gempa.tb1.Magnitude/20250411095910.344194.114757"><magnitude><value>2.9283341700164076</value></magnitude><type>M</type><methodID>weighted average</methodID><stationCount>3</stationCount></magnitude></origin><event publicID="gempa2025hdmc"><preferredOriginID>de.gempa.tb1.Origin/20250411095910.338759.57722</preferredOriginID><preferredMagnitudeID>de.gempa.tb1.Magnitude/20250411095910.344194.114757</preferredMagnitudeID><description><text>Chile-Argentina Border Region</text><type>region name</type></description><originReference>de.gempa.tb1.Origin/20250411095910.338759.57722</originReference></event></EventParameters></seiscomp>