<?xml version="1.0" encoding="UTF-8"?>
<seiscomp xmlns="http://geofon.gfz-potsdam.de/ns/seiscomp3-schema/0.13" version="0.13"><EventParameters><pick publicID="de.gempa.tb1.Pick/20250414000150.971806.134455"><time><value>2025-04-14T00:01:44.318393Z</value></time><waveformID networkCode="CX" stationCode="PB03" channelCode="HHZ"/><filterID>ITAPER(4)&gt;&gt;BW(4,4,20)</filterID><methodID>AIC</methodID><horizontalSlowness><value>16.647555975087467</value></horizontalSlowness><backazimuth><value>291.7559393703814</value></backazimuth><phaseHint>P</phaseHint><evaluationMode>automatic</evaluationMode><comment><text>6.625492704056448</text><id>DFX:rectilinearity</id></comment><comment><text>7.957001409723321</text><id>SNR</id></comment></pick><pick publicID="de.gempa.tb1.Pick/20250414000150.972202.134457"><time><value>2025-04-14T00:01:40.45Z</value></time><waveformID networkCode="CX" stationCode="PB09" channelCode="HHZ"/><filterID>ITAPER(4)&gt;&gt;BW(4,4,20)</filterID><methodID>AIC</methodID><horizontalSlowness><value>22.16474856196879</value></horizontalSlowness><backazimuth><value>353.80996465495366</value></backazimuth><phaseHint>P</phaseHint><evaluationMode>automatic</evaluationMode><comment><text>5.658355127797798</text><id>DFX:rectilinearity</id></comment><comment><text>13.46053750164448</text><id>SNR</id></comment></pick><pick publicID="de.gempa.tb1.Pick/20250414000152.888368.134459"><time><value>2025-04-14T00:01:43.958393Z</value></time><waveformID networkCode="CX" stationCode="PB01" channelCode="HHZ"/><filterID>ITAPER(4)&gt;&gt;BW(4,4,20)</filterID><methodID>AIC</methodID><horizontalSlowness><value>18.654514472862122</value></horizontalSlowness><backazimuth><value>32.157882866867794</value></backazimuth><phaseHint>P</phaseHint><evaluationMode>automatic</evaluationMode><comment><text>10.273911866084196</text><id>DFX:rectilinearity</id></comment><comment><text>16.79546415364961</text><id>SNR</id></comment></pick><pick publicID="de.gempa.tb1.Pick/20250414000154.680461.134461"><time><value>2025-04-14T00:01:46.878394Z</value></time><waveformID networkCode="CX" stationCode="PB02" channelCode="HHZ"/><filterID>ITAPER(4)&gt;&gt;BW(4,4,20)</filterID><methodID>AIC</methodID><horizontalSlowness><value>19.856809635560396</value></horizontalSlowness><backazimuth><value>74.59783266071823</value></backazimuth><phaseHint>P</phaseHint><evaluationMode>automatic</evaluationMode><comment><text>29.3316548628268</text><id>DFX:rectilinearity</id></comment><comment><text>7.976216319750354</text><id>SNR</id></comment></pick><pick publicID="de.gempa.tb1.Pick/20250414000156.637612.134463"><time><value>2025-04-14T00:01:50.599999Z</value></time><waveformID networkCode="CX" stationCode="PATCX" channelCode="HHZ"/><filterID>ITAPER(4)&gt;&gt;BW(4,4,20)</filterID><methodID>AIC</methodID><horizontalSlowness><value>18.429435114303594</value></horizontalSlowness><backazimuth><value>22.321249638899474</value></backazimuth><phaseHint>P</phaseHint><evaluationMode>automatic</evaluationMode><comment><text>131.97974803754485</text><id>DFX:rectilinearity</id></comment><comment><text>6.574535970828443</text><id>SNR</id></comment></pick><pick publicID="de.gempa.tb1.Pick/20250414000202.190275.134465"><time><value>2025-04-14T00:01:45.908353Z</value></time><waveformID networkCode="CX" stationCode="PB07" channelCode="HHZ"/><filterID>ITAPER(4)&gt;&gt;BW(4,4,20)</filterID><methodID>AIC</methodID><horizontalSlowness><value>21.359492823666312</value></horizontalSlowness><backazimuth><value>91.35936659038619</value></backazimuth><phaseHint>P</phaseHint><evaluationMode>automatic</evaluationMode><comment><text>226.69568571782315</text><id>DFX:rectilinearity</id></comment><comment><text>20.434170319835403</text><id>SNR</id></comment></pick><pick publicID="de.gempa.tb1.Pick/20250414000202.826484.134467"><time><value>2025-04-14T00:01:57.368393Z</value></time><waveformID networkCode="CX" stationCode="PB01" channelCode="HHN"/><filterID>ITAPER(2)&gt;&gt;BW(3,3,20)</filterID><methodID>L2-AIC-GRID</methodID><horizontalSlowness><value>20.680918625541544</value></horizontalSlowness><backazimuth><value>346.6630194491298</value></backazimuth><phaseHint>S</phaseHint><evaluationMode>automatic</evaluationMode><comment><text>9.654144673205916</text><id>DFX:rectilinearity</id></comment><comment><text>de.gempa.tb1.Pick/20250414000152.888368.134459</text><id>RefPickID</id></comment><comment><text>9.099083980739898</text><id>SNR</id></comment></pick><pick publicID="de.gempa.tb1.Pick/20250414000207.195061.134470"><time><value>2025-04-14T00:01:55.27Z</value></time><waveformID networkCode="CX" stationCode="PB09" channelCode="HHN"/><filterID>ITAPER(2)&gt;&gt;BW(3,3,20)</filterID><methodID>L2-AIC-GRID</methodID><horizontalSlowness><value>23.01385586883111</value></horizontalSlowness><backazimuth><value>283.84897023812653</value></backazimuth><phaseHint>S</phaseHint><evaluationMode>automatic</evaluationMode><comment><text>10.690536473285469</text><id>DFX:rectilinearity</id></comment><comment><text>de.gempa.tb1.Pick/20250414000150.972202.134457</text><id>RefPickID</id></comment><comment><text>5.707819538688819</text><id>SNR</id></comment></pick><pick publicID="de.gempa.tb1.Pick/20250414000207.685391.134471"><time><value>2025-04-14T00:01:58.27Z</value></time><waveformID networkCode="CX" stationCode="PSGCX" channelCode="HHZ"/><filterID>ITAPER(4)&gt;&gt;BW(4,4,20)</filterID><methodID>AIC</methodID><horizontalSlowness><value>19.443737722817175</value></horizontalSlowness><backazimuth><value>271.79511194874385</value></backazimuth><phaseHint>P</phaseHint><evaluationMode>automatic</evaluationMode><comment><text>25.986074614651795</text><id>DFX:rectilinearity</id></comment><comment><text>8.025390353111588</text><id>SNR</id></comment></pick><pick publicID="de.gempa.tb1.Pick/20250414000213.279533.134473"><time><value>2025-04-14T00:02:01.958393Z</value></time><waveformID networkCode="CX" stationCode="PB03" channelCode="HHN"/><filterID>ITAPER(2)&gt;&gt;BW(3,3,20)</filterID><methodID>L2-AIC-GRID</methodID><horizontalSlowness><value>16.328568948739072</value></horizontalSlowness><backazimuth><value>226.15561464230314</value></backazimuth><phaseHint>S</phaseHint><evaluationMode>automatic</evaluationMode><comment><text>34.00118310187351</text><id>DFX:rectilinearity</id></comment><comment><text>de.gempa.tb1.Pick/20250414000150.971806.134455</text><id>RefPickID</id></comment><comment><text>18.067130308554937</text><id>SNR</id></comment></pick><pick publicID="de.gempa.tb1.Pick/20250414000213.820513.134474"><time><value>2025-04-14T00:02:03.968394Z</value></time><waveformID networkCode="CX" stationCode="PB02" channelCode="HHN"/><filterID>ITAPER(2)&gt;&gt;BW(3,3,20)</filterID><methodID>L2-AIC-GRID</methodID><horizontalSlowness><value>20.21344927097929</value></horizontalSlowness><backazimuth><value>278.9414088921742</value></backazimuth><phaseHint>S</phaseHint><evaluationMode>automatic</evaluationMode><comment><text>42.403183782250416</text><id>DFX:rectilinearity</id></comment><comment><text>de.gempa.tb1.Pick/20250414000154.680461.134461</text><id>RefPickID</id></comment><comment><text>8.41279429789485</text><id>SNR</id></comment></pick><pick publicID="de.gempa.tb1.Pick/20250414000216.575481.134475"><time><value>2025-04-14T00:02:04.268353Z</value></time><waveformID networkCode="CX" stationCode="PB07" channelCode="HHN"/><filterID>ITAPER(2)&gt;&gt;BW(3,3,20)</filterID><methodID>L2-AIC-GRID</methodID><horizontalSlowness><value>23.462933679406504</value></horizontalSlowness><backazimuth><value>106.90346024133233</value></backazimuth><phaseHint>S</phaseHint><evaluationMode>automatic</evaluationMode><comment><text>570.3609843601431</text><id>DFX:rectilinearity</id></comment><comment><text>de.gempa.tb1.Pick/20250414000202.190275.134465</text><id>RefPickID</id></comment><comment><text>10.020052448631567</text><id>SNR</id></comment></pick><origin publicID="de.gempa.tb1.Origin/20250414000216.579357.121800"><time><value>2025-04-14T00:01:22.344438Z</value><uncertainty>0.9798595309257507</uncertainty></time><latitude><value>-21.487960815429688</value><uncertainty>5.74150276184082</uncertainty></latitude><longitude><value>-68.67927551269531</value><uncertainty>9.717525482177734</uncertainty></longitude><depth><value>115.52093505859375</value><uncertainty>8.985157012939453</uncertainty></depth><depthType>from location</depthType><methodID>LOCSAT</methodID><earthModelID>iasp91_scanloc</earthModelID><quality><associatedPhaseCount>12</associatedPhaseCount><usedPhaseCount>12</usedPhaseCount><associatedStationCount>7</associatedStationCount><usedStationCount>7</usedStationCount><depthPhaseCount>0</depthPhaseCount><standardError>1.0035939042264574</standardError><azimuthalGap>275.4935302734375</azimuthalGap><maximumDistance>2.317235469818115</maximumDistance><minimumDistance>0.6067947149276733</minimumDistance><medianDistance>1.146129012107849</medianDistance></quality><uncertainty><minHorizontalUncertainty>12.303564071655273</minHorizontalUncertainty><maxHorizontalUncertainty>20.854101181030273</maxHorizontalUncertainty><azimuthMaxHorizontalUncertainty>88.05604553222656</azimuthMaxHorizontalUncertainty><preferredDescription>horizontal uncertainty</preferredDescription></uncertainty><evaluationMode>automatic</evaluationMode><evaluationStatus>confirmed</evaluationStatus><comment><text>0.09</text><id>mismatchScore</id></comment><comment><text>mismatchScore</text><id>scevalMethod</id></comment><arrival><pickID>de.gempa.tb1.Pick/20250414000150.971806.134455</pickID><phase>P</phase><azimuth>240.6061706542969</azimuth><distance>1.1434327363967896</distance><timeResidual>-1.199901580810547</timeResidual><timeUsed>true</timeUsed><horizontalSlownessUsed>false</horizontalSlownessUsed><backazimuthUsed>false</backazimuthUsed><weight>1</weight></arrival><arrival><pickID>de.gempa.tb1.Pick/20250414000150.972202.134457</pickID><phase>P</phase><azimuth>239.5133361816406</azimuth><distance>0.6067947149276733</distance><timeResidual>-0.10807228088378906</timeResidual><timeUsed>true</timeUsed><horizontalSlownessUsed>false</horizontalSlownessUsed><backazimuthUsed>false</backazimuthUsed><weight>1</weight></arrival><arrival><pickID>de.gempa.tb1.Pick/20250414000152.888368.134459</pickID><phase>P</phase><azimuth>300.27099609375</azimuth><distance>0.874057948589325</distance><timeResidual>1.1411418914794922</timeResidual><timeUsed>true</timeUsed><horizontalSlownessUsed>false</horizontalSlownessUsed><backazimuthUsed>false</backazimuthUsed><weight>1</weight></arrival><arrival><pickID>de.gempa.tb1.Pick/20250414000154.680461.134461</pickID><phase>P</phase><azimuth>278.177490234375</azimuth><distance>1.146129012107849</distance><timeResidual>1.3274078369140625</timeResidual><timeUsed>true</timeUsed><horizontalSlownessUsed>false</horizontalSlownessUsed><backazimuthUsed>false</backazimuthUsed><weight>1</weight></arrival><arrival><pickID>de.gempa.tb1.Pick/20250414000156.637612.134463</pickID><phase>P</phase><azimuth>295.5004577636719</azimuth><distance>1.5273360013961792</distance><timeResidual>0.7470932006835938</timeResidual><timeUsed>true</timeUsed><horizontalSlownessUsed>false</horizontalSlownessUsed><backazimuthUsed>false</backazimuthUsed><weight>1</weight></arrival><arrival><pickID>de.gempa.tb1.Pick/20250414000202.190275.134465</pickID><phase>P</phase><azimuth>257.8372802734375</azimuth><distance>1.1479500532150269</distance><timeResidual>0.3401508331298828</timeResidual><timeUsed>true</timeUsed><horizontalSlownessUsed>false</horizontalSlownessUsed><backazimuthUsed>false</backazimuthUsed><weight>1</weight></arrival><arrival><pickID>de.gempa.tb1.Pick/20250414000202.826484.134467</pickID><phase>S</phase><azimuth>300.27099609375</azimuth><distance>0.874057948589325</distance><timeResidual>-1.2549800872802734</timeResidual><timeUsed>true</timeUsed><horizontalSlownessUsed>false</horizontalSlownessUsed><backazimuthUsed>false</backazimuthUsed><weight>1</weight></arrival><arrival><pickID>de.gempa.tb1.Pick/20250414000207.195061.134470</pickID><phase>S</phase><azimuth>239.5133361816406</azimuth><distance>0.6067947149276733</distance><timeResidual>0.6708850860595703</timeResidual><timeUsed>true</timeUsed><horizontalSlownessUsed>false</horizontalSlownessUsed><backazimuthUsed>false</backazimuthUsed><weight>1</weight></arrival><arrival><pickID>de.gempa.tb1.Pick/20250414000207.685391.134471</pickID><phase>P</phase><azimuth>324.0198059082031</azimuth><distance>2.317235469818115</distance><timeResidual>-1.3805789947509766</timeResidual><timeUsed>true</timeUsed><horizontalSlownessUsed>false</horizontalSlownessUsed><backazimuthUsed>false</backazimuthUsed><weight>1</weight></arrival><arrival><pickID>de.gempa.tb1.Pick/20250414000213.279533.134473</pickID><phase>S</phase><azimuth>240.6061706542969</azimuth><distance>1.1434327363967896</distance><timeResidual>-1.4854907989501953</timeResidual><timeUsed>true</timeUsed><horizontalSlownessUsed>false</horizontalSlownessUsed><backazimuthUsed>false</backazimuthUsed><weight>1</weight></arrival><arrival><pickID>de.gempa.tb1.Pick/20250414000213.820513.134474</pickID><phase>S</phase><azimuth>278.177490234375</azimuth><distance>1.146129012107849</distance><timeResidual>0.4668903350830078</timeResidual><timeUsed>true</timeUsed><horizontalSlownessUsed>false</horizontalSlownessUsed><backazimuthUsed>false</backazimuthUsed><weight>1</weight></arrival><arrival><pickID>de.gempa.tb1.Pick/20250414000216.575481.134475</pickID><phase>S</phase><azimuth>257.8372802734375</azimuth><distance>1.1479500532150269</distance><timeResidual>0.7356414794921875</timeResidual><timeUsed>true</timeUsed><horizontalSlownessUsed>false</horizontalSlownessUsed><backazimuthUsed>false</backazimuthUsed><weight>1</weight></arrival><magnitude publicID="de.gempa.tb1.Magnitude/20250414000318.900294.412129"><magnitude><value>2.1613002626254367</value></magnitude><type>M</type><methodID>weighted average</methodID><stationCount>4</stationCount></magnitude></origin><event publicID="gempa2025high"><preferredOriginID>de.gempa.tb1.Origin/20250414000216.579357.121800</preferredOriginID><preferredMagnitudeID>de.gempa.tb1.Magnitude/20250414000318.900294.412129</preferredMagnitudeID><description><text>Chile-Bolivia Border Region</text><type>region name</type></description><originReference>de.gempa.tb1.Origin/20250414000216.579357.121800</originReference></event></EventParameters></seiscomp>