<?xml version="1.0" encoding="UTF-8"?>
<seiscomp xmlns="http://geofon.gfz-potsdam.de/ns/seiscomp3-schema/0.13" version="0.13"><EventParameters><pick publicID="de.gempa.tb1.Pick/20250411134555.593594.117978"><time><value>2025-04-11T13:45:50.42Z</value></time><waveformID networkCode="CX" stationCode="PB19" channelCode="HHZ"/><filterID>ITAPER(4)&gt;&gt;BW(4,4,20)</filterID><methodID>AIC</methodID><horizontalSlowness><value>8.895817875212053</value></horizontalSlowness><backazimuth><value>157.92779374965187</value></backazimuth><phaseHint>P</phaseHint><evaluationMode>automatic</evaluationMode><comment><text>381.44081533894206</text><id>DFX:rectilinearity</id></comment><comment><text>186.47797224601447</text><id>SNR</id></comment></pick><pick publicID="de.gempa.tb1.Pick/20250411134600.721581.117980"><time><value>2025-04-11T13:45:54.848393Z</value></time><waveformID networkCode="CX" stationCode="PB15" channelCode="HHZ"/><filterID>ITAPER(4)&gt;&gt;BW(4,4,20)</filterID><methodID>AIC</methodID><horizontalSlowness><value>21.897426242964318</value></horizontalSlowness><backazimuth><value>112.98494716951248</value></backazimuth><phaseHint>P</phaseHint><evaluationMode>automatic</evaluationMode><comment><text>9661.687491071725</text><id>DFX:rectilinearity</id></comment><comment><text>39.94646996654425</text><id>SNR</id></comment></pick><pick publicID="de.gempa.tb1.Pick/20250411134604.571819.117982"><time><value>2025-04-11T13:45:58.628393Z</value></time><waveformID networkCode="CX" stationCode="PB06" channelCode="HHZ"/><filterID>ITAPER(4)&gt;&gt;BW(4,4,20)</filterID><methodID>AIC</methodID><horizontalSlowness><value>7.484108545755292</value></horizontalSlowness><backazimuth><value>175.5824385700316</value></backazimuth><phaseHint>P</phaseHint><evaluationMode>automatic</evaluationMode><comment><text>136.06945180077904</text><id>DFX:rectilinearity</id></comment><comment><text>31.11014722792302</text><id>SNR</id></comment></pick><pick publicID="de.gempa.tb1.Pick/20250411134609.225004.117984"><time><value>2025-04-11T13:46:04.07Z</value></time><waveformID networkCode="CX" stationCode="PB10" channelCode="HHZ"/><filterID>ITAPER(4)&gt;&gt;BW(4,4,20)</filterID><methodID>AIC</methodID><horizontalSlowness><value>14.219857880327874</value></horizontalSlowness><backazimuth><value>111.60029617948034</value></backazimuth><phaseHint>P</phaseHint><evaluationMode>automatic</evaluationMode><comment><text>306.47230294869775</text><id>DFX:rectilinearity</id></comment><comment><text>17.17007087542218</text><id>SNR</id></comment></pick><pick publicID="de.gempa.tb1.Pick/20250411134611.584933.117986"><time><value>2025-04-11T13:46:05.158393Z</value></time><waveformID networkCode="CX" stationCode="PB03" channelCode="HHZ"/><filterID>ITAPER(4)&gt;&gt;BW(4,4,20)</filterID><methodID>AIC</methodID><horizontalSlowness><value>13.810531665146536</value></horizontalSlowness><backazimuth><value>156.43846349744729</value></backazimuth><phaseHint>P</phaseHint><evaluationMode>automatic</evaluationMode><comment><text>16.584348077329992</text><id>DFX:rectilinearity</id></comment><comment><text>37.127598186734375</text><id>SNR</id></comment></pick><pick publicID="de.gempa.tb1.Pick/20250411134618.535835.117988"><time><value>2025-04-11T13:46:04.53Z</value></time><waveformID networkCode="CX" stationCode="PB09" channelCode="HHZ"/><filterID>ITAPER(4)&gt;&gt;BW(4,4,20)</filterID><methodID>AIC</methodID><horizontalSlowness><value>21.121889570662354</value></horizontalSlowness><backazimuth><value>282.6550477107623</value></backazimuth><phaseHint>P</phaseHint><evaluationMode>automatic</evaluationMode><comment><text>9.676359549305374</text><id>DFX:rectilinearity</id></comment><comment><text>46.32354266572619</text><id>SNR</id></comment></pick><pick publicID="de.gempa.tb1.Pick/20250411134618.634079.117990"><time><value>2025-04-11T13:46:13.018393Z</value></time><waveformID networkCode="CX" stationCode="PB01" channelCode="HHZ"/><filterID>ITAPER(4)&gt;&gt;BW(4,4,20)</filterID><methodID>AIC</methodID><horizontalSlowness><value>18.401040746083172</value></horizontalSlowness><backazimuth><value>242.5174261846288</value></backazimuth><phaseHint>P</phaseHint><evaluationMode>automatic</evaluationMode><comment><text>21.815097789572235</text><id>DFX:rectilinearity</id></comment><comment><text>15.407456374840784</text><id>SNR</id></comment></pick><pick publicID="de.gempa.tb1.Pick/20250411134621.519014.117992"><time><value>2025-04-11T13:46:12.858393Z</value></time><waveformID networkCode="CX" stationCode="PB02" channelCode="HHZ"/><filterID>ITAPER(4)&gt;&gt;BW(4,4,20)</filterID><methodID>AIC</methodID><horizontalSlowness><value>6.148681694149659</value></horizontalSlowness><backazimuth><value>325.2706573782678</value></backazimuth><phaseHint>P</phaseHint><evaluationMode>automatic</evaluationMode><comment><text>39.0346146397087</text><id>DFX:rectilinearity</id></comment><comment><text>13.762032110485855</text><id>SNR</id></comment></pick><pick publicID="de.gempa.tb1.Pick/20250411134625.610299.117995"><time><value>2025-04-11T13:46:18.22Z</value></time><waveformID networkCode="CX" stationCode="PB19" channelCode="HHN"/><filterID>ITAPER(2)&gt;&gt;BW(3,3,20)</filterID><methodID>L2-AIC-GRID</methodID><horizontalSlowness><value>22.464776668300242</value></horizontalSlowness><backazimuth><value>21.060134733007573</value></backazimuth><phaseHint>S</phaseHint><evaluationMode>automatic</evaluationMode><comment><text>3604.505582554208</text><id>DFX:rectilinearity</id></comment><comment><text>de.gempa.tb1.Pick/20250411134555.593594.117978</text><id>RefPickID</id></comment><comment><text>5.954687227130734</text><id>SNR</id></comment></pick><pick publicID="de.gempa.tb1.Pick/20250411134632.233904.117997"><time><value>2025-04-11T13:46:25.228393Z</value></time><waveformID networkCode="CX" stationCode="PB15" channelCode="HHN"/><filterID>ITAPER(2)&gt;&gt;BW(3,3,20)</filterID><methodID>L2-AIC-GRID</methodID><horizontalSlowness><value>19.086519762015485</value></horizontalSlowness><backazimuth><value>104.79591125090219</value></backazimuth><phaseHint>S</phaseHint><evaluationMode>automatic</evaluationMode><comment><text>34005.446014148954</text><id>DFX:rectilinearity</id></comment><comment><text>de.gempa.tb1.Pick/20250411134600.721581.117980</text><id>RefPickID</id></comment><comment><text>9.214756360232064</text><id>SNR</id></comment></pick><pick publicID="de.gempa.tb1.Pick/20250411134636.581323.117998"><time><value>2025-04-11T13:46:08.868393Z</value></time><waveformID networkCode="CX" stationCode="PB07" channelCode="HHZ"/><filterID>ITAPER(4)&gt;&gt;BW(4,4,20)</filterID><methodID>AIC</methodID><horizontalSlowness><value>20.512580827024866</value></horizontalSlowness><backazimuth><value>202.9903334435991</value></backazimuth><phaseHint>P</phaseHint><evaluationMode>automatic</evaluationMode><comment><text>273.2035022798679</text><id>DFX:rectilinearity</id></comment><comment><text>53.06063333416155</text><id>SNR</id></comment></pick><pick publicID="de.gempa.tb1.Pick/20250411134639.643083.118000"><time><value>2025-04-11T13:46:31.358393Z</value></time><waveformID networkCode="CX" stationCode="PB06" channelCode="HHN"/><filterID>ITAPER(2)&gt;&gt;BW(3,3,20)</filterID><methodID>L2-AIC-GRID</methodID><horizontalSlowness><value>23.281206957928475</value></horizontalSlowness><backazimuth><value>234.2265900474803</value></backazimuth><phaseHint>S</phaseHint><evaluationMode>automatic</evaluationMode><comment><text>1099.7422574449722</text><id>DFX:rectilinearity</id></comment><comment><text>de.gempa.tb1.Pick/20250411134604.571819.117982</text><id>RefPickID</id></comment><comment><text>16.892799466904176</text><id>SNR</id></comment></pick><pick publicID="de.gempa.tb1.Pick/20250411134649.786193.118004"><time><value>2025-04-11T13:46:42.448393Z</value></time><waveformID networkCode="CX" stationCode="PB03" channelCode="HHN"/><filterID>ITAPER(2)&gt;&gt;BW(3,3,20)</filterID><methodID>L2-AIC-GRID</methodID><horizontalSlowness><value>23.508862691359155</value></horizontalSlowness><backazimuth><value>282.11365826736704</value></backazimuth><phaseHint>S</phaseHint><evaluationMode>automatic</evaluationMode><comment><text>662.867399731912</text><id>DFX:rectilinearity</id></comment><comment><text>de.gempa.tb1.Pick/20250411134611.584933.117986</text><id>RefPickID</id></comment><comment><text>15.851021716323594</text><id>SNR</id></comment></pick><pick publicID="de.gempa.tb1.Pick/20250411134655.090408.118005"><time><value>2025-04-11T13:46:41.69Z</value></time><waveformID networkCode="CX" stationCode="PB09" channelCode="HHN"/><filterID>ITAPER(2)&gt;&gt;BW(3,3,20)</filterID><methodID>L2-AIC-GRID</methodID><horizontalSlowness><value>16.176904995927604</value></horizontalSlowness><backazimuth><value>323.9846444248915</value></backazimuth><phaseHint>S</phaseHint><evaluationMode>automatic</evaluationMode><comment><text>265.96928738166275</text><id>DFX:rectilinearity</id></comment><comment><text>de.gempa.tb1.Pick/20250411134618.535835.117988</text><id>RefPickID</id></comment><comment><text>5.748056217559666</text><id>SNR</id></comment></pick><origin publicID="de.gempa.tb1.Origin/20250411134733.588276.57326"><time><value>2025-04-11T13:45:17.012899Z</value><uncertainty>1.0018953084945679</uncertainty></time><latitude><value>-24.15305709838867</value><uncertainty>6.429976940155029</uncertainty></latitude><longitude><value>-67.66321563720703</value><uncertainty>20.769493103027344</uncertainty></longitude><depth><value>204.06265258789062</value><uncertainty>16.475414276123047</uncertainty></depth><depthType>from location</depthType><methodID>LOCSAT</methodID><earthModelID>iasp91_scanloc</earthModelID><quality><associatedPhaseCount>14</associatedPhaseCount><usedPhaseCount>14</usedPhaseCount><associatedStationCount>9</associatedStationCount><usedStationCount>9</usedStationCount><depthPhaseCount>0</depthPhaseCount><standardError>0.34857714113455845</standardError><azimuthalGap>308.0294494628906</azimuthalGap><maximumDistance>3.524275541305542</maximumDistance><minimumDistance>1.5084246397018433</minimumDistance><medianDistance>2.7601821422576904</medianDistance></quality><uncertainty><minHorizontalUncertainty>13.74367618560791</minHorizontalUncertainty><maxHorizontalUncertainty>44.54050064086914</maxHorizontalUncertainty><azimuthMaxHorizontalUncertainty>88.55374145507812</azimuthMaxHorizontalUncertainty><preferredDescription>horizontal uncertainty</preferredDescription></uncertainty><evaluationMode>automatic</evaluationMode><evaluationStatus>confirmed</evaluationStatus><comment><text>0.00</text><id>mismatchScore</id></comment><comment><text>mismatchScore</text><id>scevalMethod</id></comment><arrival><pickID>de.gempa.tb1.Pick/20250411134555.593594.117978</pickID><phase>P</phase><azimuth>279.1004943847656</azimuth><distance>1.5084246397018433</distance><timeResidual>-0.7324256896972656</timeResidual><timeUsed>true</timeUsed><horizontalSlownessUsed>false</horizontalSlownessUsed><backazimuthUsed>false</backazimuthUsed><weight>1</weight></arrival><arrival><pickID>de.gempa.tb1.Pick/20250411134600.721581.117980</pickID><phase>P</phase><azimuth>299.2094421386719</azimuth><distance>1.9054696559906006</distance><timeResidual>-0.04216766357421875</timeResidual><timeUsed>true</timeUsed><horizontalSlownessUsed>false</horizontalSlownessUsed><backazimuthUsed>false</backazimuthUsed><weight>1</weight></arrival><arrival><pickID>de.gempa.tb1.Pick/20250411134604.571819.117982</pickID><phase>P</phase><azimuth>309.0302429199219</azimuth><distance>2.26904559135437</distance><timeResidual>-0.038135528564453125</timeResidual><timeUsed>true</timeUsed><horizontalSlownessUsed>false</horizontalSlownessUsed><backazimuthUsed>false</backazimuthUsed><weight>1</weight></arrival><arrival><pickID>de.gempa.tb1.Pick/20250411134609.225004.117984</pickID><phase>P</phase><azimuth>282.94061279296875</azimuth><distance>2.7226641178131104</distance><timeResidual>0.3921775817871094</timeResidual><timeUsed>true</timeUsed><horizontalSlownessUsed>false</horizontalSlownessUsed><backazimuthUsed>false</backazimuthUsed><weight>1</weight></arrival><arrival><pickID>de.gempa.tb1.Pick/20250411134611.584933.117986</pickID><phase>P</phase><azimuth>317.0169372558594</azimuth><distance>2.844357967376709</distance><timeResidual>0.07336044311523438</timeResidual><timeUsed>true</timeUsed><horizontalSlownessUsed>false</horizontalSlownessUsed><backazimuthUsed>false</backazimuthUsed><weight>1</weight></arrival><arrival><pickID>de.gempa.tb1.Pick/20250411134618.535835.117988</pickID><phase>P</phase><azimuth>327.8799743652344</azimuth><distance>2.7601821422576904</distance><timeResidual>0.40636444091796875</timeResidual><timeUsed>true</timeUsed><horizontalSlownessUsed>false</horizontalSlownessUsed><backazimuthUsed>false</backazimuthUsed><weight>1</weight></arrival><arrival><pickID>de.gempa.tb1.Pick/20250411134618.634079.117990</pickID><phase>P</phase><azimuth>331.071044921875</azimuth><distance>3.524275541305542</distance><timeResidual>-0.1471710205078125</timeResidual><timeUsed>true</timeUsed><horizontalSlownessUsed>false</horizontalSlownessUsed><backazimuthUsed>false</backazimuthUsed><weight>1</weight></arrival><arrival><pickID>de.gempa.tb1.Pick/20250411134621.519014.117992</pickID><phase>P</phase><azimuth>323.3984680175781</azimuth><distance>3.492868661880493</distance><timeResidual>0.07524871826171875</timeResidual><timeUsed>true</timeUsed><horizontalSlownessUsed>false</horizontalSlownessUsed><backazimuthUsed>false</backazimuthUsed><weight>1</weight></arrival><arrival><pickID>de.gempa.tb1.Pick/20250411134625.610299.117995</pickID><phase>S</phase><azimuth>279.1004943847656</azimuth><distance>1.5084246397018433</distance><timeResidual>0.152679443359375</timeResidual><timeUsed>true</timeUsed><horizontalSlownessUsed>false</horizontalSlownessUsed><backazimuthUsed>false</backazimuthUsed><weight>1</weight></arrival><arrival><pickID>de.gempa.tb1.Pick/20250411134632.233904.117997</pickID><phase>S</phase><azimuth>299.2094421386719</azimuth><distance>1.9054696559906006</distance><timeResidual>0.4456787109375</timeResidual><timeUsed>true</timeUsed><horizontalSlownessUsed>false</horizontalSlownessUsed><backazimuthUsed>false</backazimuthUsed><weight>1</weight></arrival><arrival><pickID>de.gempa.tb1.Pick/20250411134636.581323.117998</pickID><phase>P</phase><azimuth>319.2478942871094</azimuth><distance>3.167137861251831</distance><timeResidual>-0.003620147705078125</timeResidual><timeUsed>true</timeUsed><horizontalSlownessUsed>false</horizontalSlownessUsed><backazimuthUsed>false</backazimuthUsed><weight>1</weight></arrival><arrival><pickID>de.gempa.tb1.Pick/20250411134639.643083.118000</pickID><phase>S</phase><azimuth>309.0302429199219</azimuth><distance>2.26904559135437</distance><timeResidual>-0.21223068237304688</timeResidual><timeUsed>true</timeUsed><horizontalSlownessUsed>false</horizontalSlownessUsed><backazimuthUsed>false</backazimuthUsed><weight>1</weight></arrival><arrival><pickID>de.gempa.tb1.Pick/20250411134649.786193.118004</pickID><phase>S</phase><azimuth>317.0169372558594</azimuth><distance>2.844357967376709</distance><timeResidual>-0.6718521118164062</timeResidual><timeUsed>true</timeUsed><horizontalSlownessUsed>false</horizontalSlownessUsed><backazimuthUsed>false</backazimuthUsed><weight>1</weight></arrival><arrival><pickID>de.gempa.tb1.Pick/20250411134655.090408.118005</pickID><phase>S</phase><azimuth>327.8799743652344</azimuth><distance>2.7601821422576904</distance><timeResidual>0.30229949951171875</timeResidual><timeUsed>true</timeUsed><horizontalSlownessUsed>false</horizontalSlownessUsed><backazimuthUsed>false</backazimuthUsed><weight>1</weight></arrival><magnitude publicID="de.gempa.tb1.Magnitude/20250411134733.595353.105298"><magnitude><value>3.2347320424505916</value></magnitude><type>M</type><methodID>weighted average</methodID><stationCount>7</stationCount></magnitude></origin><event publicID="gempa2025hdts"><preferredOriginID>de.gempa.tb1.Origin/20250411134733.588276.57326</preferredOriginID><preferredMagnitudeID>de.gempa.tb1.Magnitude/20250411134733.595353.105298</preferredMagnitudeID><description><text>Chile-Argentina Border Region</text><type>region name</type></description><originReference>de.gempa.tb1.Origin/20250411134733.588276.57326</originReference></event></EventParameters></seiscomp>