<?xml version="1.0" encoding="UTF-8"?>
<seiscomp xmlns="http://geofon.gfz-potsdam.de/ns/seiscomp3-schema/0.13" version="0.13"><EventParameters><pick publicID="de.gempa.tb1.Pick/20250411230440.698705.120514"><time><value>2025-04-11T23:04:34.038393Z</value></time><waveformID networkCode="CX" stationCode="PB08" channelCode="HHZ"/><filterID>ITAPER(4)&gt;&gt;BW(4,4,20)</filterID><methodID>AIC</methodID><horizontalSlowness><value>14.98417943864155</value></horizontalSlowness><backazimuth><value>209.02137330659727</value></backazimuth><phaseHint>P</phaseHint><evaluationMode>automatic</evaluationMode><comment><text>162.6448879067153</text><id>DFX:rectilinearity</id></comment><comment><text>69.24633129855734</text><id>SNR</id></comment></pick><pick publicID="de.gempa.tb1.Pick/20250411230442.817352.120516"><time><value>2025-04-11T23:04:35.628393Z</value></time><waveformID networkCode="CX" stationCode="PB01" channelCode="HHZ"/><filterID>ITAPER(4)&gt;&gt;BW(4,4,20)</filterID><methodID>AIC</methodID><horizontalSlowness><value>11.023944658105332</value></horizontalSlowness><backazimuth><value>40.889350791742515</value></backazimuth><phaseHint>P</phaseHint><evaluationMode>automatic</evaluationMode><comment><text>108.82037399198616</text><id>DFX:rectilinearity</id></comment><comment><text>110.31416522320194</text><id>SNR</id></comment></pick><pick publicID="de.gempa.tb1.Pick/20250411230447.52935.120518"><time><value>2025-04-11T23:04:41.088394Z</value></time><waveformID networkCode="CX" stationCode="PB02" channelCode="HHZ"/><filterID>ITAPER(4)&gt;&gt;BW(4,4,20)</filterID><methodID>AIC</methodID><horizontalSlowness><value>11.49189679388083</value></horizontalSlowness><backazimuth><value>29.49630333718079</value></backazimuth><phaseHint>P</phaseHint><evaluationMode>automatic</evaluationMode><comment><text>55.76089910529345</text><id>DFX:rectilinearity</id></comment><comment><text>40.48459969018782</text><id>SNR</id></comment></pick><pick publicID="de.gempa.tb1.Pick/20250411230448.493756.120520"><time><value>2025-04-11T23:04:40.099999Z</value></time><waveformID networkCode="CX" stationCode="PATCX" channelCode="HHZ"/><filterID>ITAPER(4)&gt;&gt;BW(4,4,20)</filterID><methodID>AIC</methodID><horizontalSlowness><value>22.803714495527426</value></horizontalSlowness><backazimuth><value>36.775163867428773</value></backazimuth><phaseHint>P</phaseHint><evaluationMode>automatic</evaluationMode><comment><text>183.34421113520531</text><id>DFX:rectilinearity</id></comment><comment><text>10.548889715581884</text><id>SNR</id></comment></pick><pick publicID="de.gempa.tb1.Pick/20250411230450.595047.120522"><time><value>2025-04-11T23:04:43.37Z</value></time><waveformID networkCode="CX" stationCode="PSGCX" channelCode="HHZ"/><filterID>ITAPER(4)&gt;&gt;BW(4,4,20)</filterID><methodID>AIC</methodID><horizontalSlowness><value>9.732690504733398</value></horizontalSlowness><backazimuth><value>105.33278474575225</value></backazimuth><phaseHint>P</phaseHint><evaluationMode>automatic</evaluationMode><comment><text>213.2047412358281</text><id>DFX:rectilinearity</id></comment><comment><text>215.41602159701819</text><id>SNR</id></comment></pick><pick publicID="de.gempa.tb1.Pick/20250411230453.927328.120524"><time><value>2025-04-11T23:04:46.948393Z</value></time><waveformID networkCode="CX" stationCode="PB08" channelCode="HHN"/><filterID>ITAPER(2)&gt;&gt;BW(3,3,20)</filterID><methodID>L2-AIC-GRID</methodID><horizontalSlowness><value>17.261743357947996</value></horizontalSlowness><backazimuth><value>201.84313587514862</value></backazimuth><phaseHint>S</phaseHint><evaluationMode>automatic</evaluationMode><comment><text>2877.3056077910155</text><id>DFX:rectilinearity</id></comment><comment><text>de.gempa.tb1.Pick/20250411230440.698705.120514</text><id>RefPickID</id></comment><comment><text>10.778718968584364</text><id>SNR</id></comment></pick><pick publicID="de.gempa.tb1.Pick/20250411230454.206296.120525"><time><value>2025-04-11T23:04:42.25Z</value></time><waveformID networkCode="CX" stationCode="PB09" channelCode="HHZ"/><filterID>ITAPER(4)&gt;&gt;BW(4,4,20)</filterID><methodID>AIC</methodID><horizontalSlowness><value>22.209176370006706</value></horizontalSlowness><backazimuth><value>12.329470834227862</value></backazimuth><phaseHint>P</phaseHint><evaluationMode>automatic</evaluationMode><comment><text>11.344923646545974</text><id>DFX:rectilinearity</id></comment><comment><text>18.167283299337072</text><id>SNR</id></comment></pick><pick publicID="de.gempa.tb1.Pick/20250411230455.59696.120527"><time><value>2025-04-11T23:04:46.828393Z</value></time><waveformID networkCode="CX" stationCode="PB03" channelCode="HHZ"/><filterID>ITAPER(4)&gt;&gt;BW(4,4,20)</filterID><methodID>AIC</methodID><horizontalSlowness><value>0.9734699641620737</value></horizontalSlowness><backazimuth><value>340.0608890822633</value></backazimuth><phaseHint>P</phaseHint><evaluationMode>automatic</evaluationMode><comment><text>6.90259742497663</text><id>DFX:rectilinearity</id></comment><comment><text>11.390681138938396</text><id>SNR</id></comment></pick><pick publicID="de.gempa.tb1.Pick/20250411230456.58489.120529"><time><value>2025-04-11T23:04:50.168393Z</value></time><waveformID networkCode="CX" stationCode="PB01" channelCode="HHN"/><filterID>ITAPER(2)&gt;&gt;BW(3,3,20)</filterID><methodID>L2-AIC-GRID</methodID><horizontalSlowness><value>22.222436103770317</value></horizontalSlowness><backazimuth><value>187.35229885179186</value></backazimuth><phaseHint>S</phaseHint><evaluationMode>automatic</evaluationMode><comment><text>6094.22314684388</text><id>DFX:rectilinearity</id></comment><comment><text>de.gempa.tb1.Pick/20250411230442.817352.120516</text><id>RefPickID</id></comment><comment><text>11.702332107124292</text><id>SNR</id></comment></pick><pick publicID="de.gempa.tb1.Pick/20250411230505.527289.120530"><time><value>2025-04-11T23:04:58.758394Z</value></time><waveformID networkCode="CX" stationCode="PB02" channelCode="HHN"/><filterID>ITAPER(2)&gt;&gt;BW(3,3,20)</filterID><methodID>L2-AIC-GRID</methodID><horizontalSlowness><value>16.578356470028812</value></horizontalSlowness><backazimuth><value>201.143140763087</value></backazimuth><phaseHint>S</phaseHint><evaluationMode>automatic</evaluationMode><comment><text>3551.9718442134276</text><id>DFX:rectilinearity</id></comment><comment><text>de.gempa.tb1.Pick/20250411230447.52935.120518</text><id>RefPickID</id></comment><comment><text>6.633571859803117</text><id>SNR</id></comment></pick><pick publicID="de.gempa.tb1.Pick/20250411230506.505696.120531"><time><value>2025-04-11T23:04:58.799999Z</value></time><waveformID networkCode="CX" stationCode="PATCX" channelCode="HHN"/><filterID>ITAPER(2)&gt;&gt;BW(3,3,20)</filterID><methodID>L2-AIC-GRID</methodID><horizontalSlowness><value>22.566197467090106</value></horizontalSlowness><backazimuth><value>245.37547669408906</value></backazimuth><phaseHint>S</phaseHint><evaluationMode>automatic</evaluationMode><comment><text>458.9299434833377</text><id>DFX:rectilinearity</id></comment><comment><text>de.gempa.tb1.Pick/20250411230448.493756.120520</text><id>RefPickID</id></comment><comment><text>9.923066553018799</text><id>SNR</id></comment></pick><pick publicID="de.gempa.tb1.Pick/20250411230511.56093.120534"><time><value>2025-04-11T23:05:04.61Z</value></time><waveformID networkCode="CX" stationCode="PSGCX" channelCode="HHN"/><filterID>ITAPER(2)&gt;&gt;BW(3,3,20)</filterID><methodID>L2-AIC-GRID</methodID><horizontalSlowness><value>22.86950470601333</value></horizontalSlowness><backazimuth><value>32.693490869462295</value></backazimuth><phaseHint>S</phaseHint><evaluationMode>automatic</evaluationMode><comment><text>97.35319669655352</text><id>DFX:rectilinearity</id></comment><comment><text>de.gempa.tb1.Pick/20250411230450.595047.120522</text><id>RefPickID</id></comment><comment><text>5.061126843805869</text><id>SNR</id></comment></pick><pick publicID="de.gempa.tb1.Pick/20250411230514.64851.120536"><time><value>2025-04-11T23:05:08.418393Z</value></time><waveformID networkCode="CX" stationCode="PB03" channelCode="HHN"/><filterID>ITAPER(2)&gt;&gt;BW(3,3,20)</filterID><methodID>L2-AIC-GRID</methodID><horizontalSlowness><value>12.586590374164587</value></horizontalSlowness><backazimuth><value>251.2046830005081</value></backazimuth><phaseHint>S</phaseHint><evaluationMode>automatic</evaluationMode><comment><text>119.17825189893365</text><id>DFX:rectilinearity</id></comment><comment><text>de.gempa.tb1.Pick/20250411230455.59696.120527</text><id>RefPickID</id></comment><comment><text>8.508951101144808</text><id>SNR</id></comment></pick><pick publicID="de.gempa.tb1.Pick/20250411230522.750091.120538"><time><value>2025-04-11T23:04:44.008393Z</value></time><waveformID networkCode="CX" stationCode="PB07" channelCode="HHZ"/><filterID>ITAPER(4)&gt;&gt;BW(4,4,20)</filterID><methodID>AIC</methodID><horizontalSlowness><value>20.40922195753626</value></horizontalSlowness><backazimuth><value>340.09905386141247</value></backazimuth><phaseHint>P</phaseHint><evaluationMode>automatic</evaluationMode><comment><text>257.5173549006337</text><id>DFX:rectilinearity</id></comment><comment><text>27.800191228501347</text><id>SNR</id></comment></pick><origin publicID="de.gempa.tb1.Origin/20250411230522.987492.67750"><time><value>2025-04-11T23:04:17.425776Z</value><uncertainty>0.8424898982048035</uncertainty></time><latitude><value>-20.54629135131836</value><uncertainty>3.2061243057250977</uncertainty></latitude><longitude><value>-68.93330383300781</value><uncertainty>6.333494186401367</uncertainty></longitude><depth><value>110.60604858398438</value><uncertainty>6.661654949188232</uncertainty></depth><depthType>from location</depthType><methodID>LOCSAT</methodID><earthModelID>iasp91_scanloc</earthModelID><quality><associatedPhaseCount>14</associatedPhaseCount><usedPhaseCount>14</usedPhaseCount><associatedStationCount>8</associatedStationCount><usedStationCount>8</usedStationCount><depthPhaseCount>0</depthPhaseCount><standardError>0.3580080298531883</standardError><azimuthalGap>220.14889526367188</azimuthalGap><maximumDistance>1.6788899898529053</maximumDistance><minimumDistance>0.4529359042644501</minimumDistance><medianDistance>1.1841155290603638</medianDistance></quality><uncertainty><minHorizontalUncertainty>6.869647979736328</minHorizontalUncertainty><maxHorizontalUncertainty>13.580442428588867</maxHorizontalUncertainty><azimuthMaxHorizontalUncertainty>91.1447982788086</azimuthMaxHorizontalUncertainty><preferredDescription>horizontal uncertainty</preferredDescription></uncertainty><evaluationMode>automatic</evaluationMode><evaluationStatus>confirmed</evaluationStatus><comment><text>0.00</text><id>mismatchScore</id></comment><comment><text>mismatchScore</text><id>scevalMethod</id></comment><arrival><pickID>de.gempa.tb1.Pick/20250411230440.698705.120514</pickID><phase>P</phase><azimuth>332.833740234375</azimuth><distance>0.4529359042644501</distance><timeResidual>-0.026609420776367191</timeResidual><timeUsed>true</timeUsed><horizontalSlownessUsed>false</horizontalSlownessUsed><backazimuthUsed>false</backazimuthUsed><weight>1</weight></arrival><arrival><pickID>de.gempa.tb1.Pick/20250411230442.817352.120516</pickID><phase>P</phase><azimuth>226.2593536376953</azimuth><distance>0.7164115905761719</distance><timeResidual>-0.38709068298339844</timeResidual><timeUsed>true</timeUsed><horizontalSlownessUsed>false</horizontalSlownessUsed><backazimuthUsed>false</backazimuthUsed><weight>1</weight></arrival><arrival><pickID>de.gempa.tb1.Pick/20250411230447.52935.120518</pickID><phase>P</phase><azimuth>229.295166015625</azimuth><distance>1.1841155290603638</distance><timeResidual>0.4203605651855469</timeResidual><timeUsed>true</timeUsed><horizontalSlownessUsed>false</horizontalSlownessUsed><backazimuthUsed>false</backazimuthUsed><weight>1</weight></arrival><arrival><pickID>de.gempa.tb1.Pick/20250411230448.493756.120520</pickID><phase>P</phase><azimuth>256.33929443359375</azimuth><distance>1.1741021871566772</distance><timeResidual>-0.4603118896484375</timeResidual><timeUsed>true</timeUsed><horizontalSlownessUsed>false</horizontalSlownessUsed><backazimuthUsed>false</backazimuthUsed><weight>1</weight></arrival><arrival><pickID>de.gempa.tb1.Pick/20250411230450.595047.120522</pickID><phase>P</phase><azimuth>309.9706726074219</azimuth><distance>1.463659644126892</distance><timeResidual>-0.5095062255859375</timeResidual><timeUsed>true</timeUsed><horizontalSlownessUsed>false</horizontalSlownessUsed><backazimuthUsed>false</backazimuthUsed><weight>1</weight></arrival><arrival><pickID>de.gempa.tb1.Pick/20250411230453.927328.120524</pickID><phase>S</phase><azimuth>332.833740234375</azimuth><distance>0.4529359042644501</distance><timeResidual>0.07746124267578125</timeResidual><timeUsed>true</timeUsed><horizontalSlownessUsed>false</horizontalSlownessUsed><backazimuthUsed>false</backazimuthUsed><weight>1</weight></arrival><arrival><pickID>de.gempa.tb1.Pick/20250411230454.206296.120525</pickID><phase>P</phase><azimuth>192.98263549804688</azimuth><distance>1.276796579360962</distance><timeResidual>0.5474948883056641</timeResidual><timeUsed>true</timeUsed><horizontalSlownessUsed>false</horizontalSlownessUsed><backazimuthUsed>false</backazimuthUsed><weight>1</weight></arrival><arrival><pickID>de.gempa.tb1.Pick/20250411230455.59696.120527</pickID><phase>P</phase><azimuth>206.94017028808594</azimuth><distance>1.6788899898529053</distance><timeResidual>0.36991119384765625</timeResidual><timeUsed>true</timeUsed><horizontalSlownessUsed>false</horizontalSlownessUsed><backazimuthUsed>false</backazimuthUsed><weight>1</weight></arrival><arrival><pickID>de.gempa.tb1.Pick/20250411230456.58489.120529</pickID><phase>S</phase><azimuth>226.2593536376953</azimuth><distance>0.7164115905761719</distance><timeResidual>-0.17560386657714844</timeResidual><timeUsed>true</timeUsed><horizontalSlownessUsed>false</horizontalSlownessUsed><backazimuthUsed>false</backazimuthUsed><weight>1</weight></arrival><arrival><pickID>de.gempa.tb1.Pick/20250411230505.527289.120530</pickID><phase>S</phase><azimuth>229.295166015625</azimuth><distance>1.1841155290603638</distance><timeResidual>0.11553573608398438</timeResidual><timeUsed>true</timeUsed><horizontalSlownessUsed>false</horizontalSlownessUsed><backazimuthUsed>false</backazimuthUsed><weight>1</weight></arrival><arrival><pickID>de.gempa.tb1.Pick/20250411230506.505696.120531</pickID><phase>S</phase><azimuth>256.33929443359375</azimuth><distance>1.1741021871566772</distance><timeResidual>0.3499469757080078</timeResidual><timeUsed>true</timeUsed><horizontalSlownessUsed>false</horizontalSlownessUsed><backazimuthUsed>false</backazimuthUsed><weight>1</weight></arrival><arrival><pickID>de.gempa.tb1.Pick/20250411230511.56093.120534</pickID><phase>S</phase><azimuth>309.9706726074219</azimuth><distance>1.463659644126892</distance><timeResidual>0.2301921844482422</timeResidual><timeUsed>true</timeUsed><horizontalSlownessUsed>false</horizontalSlownessUsed><backazimuthUsed>false</backazimuthUsed><weight>1</weight></arrival><arrival><pickID>de.gempa.tb1.Pick/20250411230514.64851.120536</pickID><phase>S</phase><azimuth>206.94017028808594</azimuth><distance>1.6788899898529053</distance><timeResidual>-0.5768814086914062</timeResidual><timeUsed>true</timeUsed><horizontalSlownessUsed>false</horizontalSlownessUsed><backazimuthUsed>false</backazimuthUsed><weight>1</weight></arrival><arrival><pickID>de.gempa.tb1.Pick/20250411230522.750091.120538</pickID><phase>P</phase><azimuth>216.9694366455078</azimuth><distance>1.4733370542526245</distance><timeResidual>0.025074005126953125</timeResidual><timeUsed>true</timeUsed><horizontalSlownessUsed>false</horizontalSlownessUsed><backazimuthUsed>false</backazimuthUsed><weight>1</weight></arrival><magnitude publicID="de.gempa.tb1.Magnitude/20250411230530.939455.151664"><magnitude><value>2.5148568381669807</value></magnitude><type>M</type><methodID>weighted average</methodID><stationCount>7</stationCount></magnitude></origin><event publicID="gempa2025hemj"><preferredOriginID>de.gempa.tb1.Origin/20250411230522.987492.67750</preferredOriginID><preferredMagnitudeID>de.gempa.tb1.Magnitude/20250411230530.939455.151664</preferredMagnitudeID><description><text>Chile-Bolivia Border Region</text><type>region name</type></description><originReference>de.gempa.tb1.Origin/20250411230522.987492.67750</originReference></event></EventParameters></seiscomp>