<?xml version="1.0" encoding="UTF-8"?>
<seiscomp xmlns="http://geofon.gfz-potsdam.de/ns/seiscomp3-schema/0.13" version="0.13"><EventParameters><pick publicID="de.gempa.tb1.Pick/20250413095527.833315.207904"><time><value>2025-04-13T09:55:22.2Z</value></time><waveformID networkCode="SX" stationCode="ROHR" channelCode="HHZ"/><filterID>ITAPER(2)&gt;&gt;BW(3,3,20)</filterID><methodID>AIC</methodID><horizontalSlowness><value>23.23062243780598</value></horizontalSlowness><backazimuth><value>78.45673342487133</value></backazimuth><phaseHint>P</phaseHint><evaluationMode>automatic</evaluationMode><comment><text>642.7249111009247</text><id>DFX:rectilinearity</id></comment></pick><pick publicID="de.gempa.tb1.Pick/20250413095528.798835.207908"><time><value>2025-04-13T09:55:26.56Z</value></time><waveformID networkCode="BW" stationCode="MANZ" channelCode="HHZ"/><filterID>ITAPER(2)&gt;&gt;BW(3,3,20)</filterID><methodID>AIC</methodID><horizontalSlowness><value>16.484642945583246</value></horizontalSlowness><backazimuth><value>23.17271069744197</value></backazimuth><phaseHint>P</phaseHint><evaluationMode>automatic</evaluationMode><comment><text>3.6708312126480895</text><id>DFX:rectilinearity</id></comment></pick><pick publicID="de.gempa.tb1.Pick/20250413095529.562521.207910"><time><value>2025-04-13T09:55:21.9575Z</value></time><waveformID networkCode="SX" stationCode="WERN" channelCode="HHZ"/><filterID>ITAPER(2)&gt;&gt;BW(3,3,20)</filterID><methodID>AIC</methodID><horizontalSlowness><value>21.629390920352932</value></horizontalSlowness><backazimuth><value>347.48034541563857</value></backazimuth><phaseHint>P</phaseHint><evaluationMode>automatic</evaluationMode><comment><text>1129.0346653716826</text><id>DFX:rectilinearity</id></comment></pick><pick publicID="de.gempa.tb1.Pick/20250413095530.870468.207912"><time><value>2025-04-13T09:55:22.91Z</value></time><waveformID networkCode="SX" stationCode="GUNZ" channelCode="HHZ"/><filterID>ITAPER(2)&gt;&gt;BW(3,3,20)</filterID><methodID>AIC</methodID><horizontalSlowness><value>21.845603266763518</value></horizontalSlowness><backazimuth><value>261.63473984894756</value></backazimuth><phaseHint>P</phaseHint><evaluationMode>automatic</evaluationMode><comment><text>27.90510198957649</text><id>DFX:rectilinearity</id></comment></pick><pick publicID="de.gempa.tb1.Pick/20250413095531.419035.207914"><time><value>2025-04-13T09:55:24.24Z</value></time><waveformID networkCode="SX" stationCode="TRIB" channelCode="HHZ"/><filterID>ITAPER(2)&gt;&gt;BW(3,3,20)</filterID><methodID>AIC</methodID><horizontalSlowness><value>17.17035643047916</value></horizontalSlowness><backazimuth><value>30.09969921641482</value></backazimuth><phaseHint>P</phaseHint><evaluationMode>automatic</evaluationMode><comment><text>6.822571673573603</text><id>DFX:rectilinearity</id></comment></pick><pick publicID="de.gempa.tb1.Pick/20250413095531.464291.207916"><time><value>2025-04-13T09:55:29.585Z</value></time><waveformID networkCode="BW" stationCode="ROTZ" channelCode="HHZ"/><filterID>ITAPER(2)&gt;&gt;BW(3,3,20)</filterID><methodID>AIC</methodID><horizontalSlowness><value>17.68700848876615</value><uncertainty>4.4827316836956204</uncertainty></horizontalSlowness><backazimuth><value>62.07383656861684</value><uncertainty>14.560633916927062</uncertainty></backazimuth><phaseHint>P</phaseHint><evaluationMode>automatic</evaluationMode><comment><text>0.8549543608270371</text><id>DFX:rectilinearity</id></comment></pick><pick publicID="de.gempa.tb1.Pick/20250413095531.60325.207918"><time><value>2025-04-13T09:55:24.15Z</value></time><waveformID networkCode="SX" stationCode="WERD" channelCode="HHZ"/><filterID>ITAPER(2)&gt;&gt;BW(3,3,20)</filterID><methodID>AIC</methodID><horizontalSlowness><value>17.830527724999456</value></horizontalSlowness><backazimuth><value>256.53090699986814</value></backazimuth><phaseHint>P</phaseHint><evaluationMode>automatic</evaluationMode><comment><text>42.75753252636323</text><id>DFX:rectilinearity</id></comment></pick><pick publicID="de.gempa.tb1.Pick/20250413095531.844956.207920"><time><value>2025-04-13T09:55:23.25Z</value></time><waveformID networkCode="SX" stationCode="TANN" channelCode="HHZ"/><filterID>ITAPER(2)&gt;&gt;BW(3,3,20)</filterID><methodID>AIC</methodID><horizontalSlowness><value>18.949346173668186</value></horizontalSlowness><backazimuth><value>318.26452029172526</value></backazimuth><phaseHint>P</phaseHint><evaluationMode>automatic</evaluationMode><comment><text>217.6640116688397</text><id>DFX:rectilinearity</id></comment></pick><pick publicID="de.gempa.tb1.Pick/20250413095532.313092.207922"><time><value>2025-04-13T09:55:23.25Z</value></time><waveformID networkCode="SX" stationCode="MULD" channelCode="HHZ"/><filterID>ITAPER(2)&gt;&gt;BW(3,3,20)</filterID><methodID>AIC</methodID><horizontalSlowness><value>22.532242459643566</value></horizontalSlowness><backazimuth><value>328.49477441166113</value></backazimuth><phaseHint>P</phaseHint><evaluationMode>automatic</evaluationMode><comment><text>100.85730260205793</text><id>DFX:rectilinearity</id></comment></pick><pick publicID="de.gempa.tb1.Pick/20250413095532.470631.207924"><time><value>2025-04-13T09:55:28.545Z</value></time><waveformID networkCode="TH" stationCode="GRZ1" channelCode="HHZ"/><filterID>ITAPER(2)&gt;&gt;BW(3,3,20)</filterID><methodID>AIC</methodID><horizontalSlowness><value>19.935555766954938</value></horizontalSlowness><backazimuth><value>255.1338530109468</value></backazimuth><phaseHint>P</phaseHint><evaluationMode>automatic</evaluationMode><comment><text>4.777998365667014</text><id>DFX:rectilinearity</id></comment></pick><pick publicID="de.gempa.tb1.Pick/20250413095533.865122.207927"><time><value>2025-04-13T09:55:23.82Z</value></time><waveformID networkCode="SX" stationCode="ROHR" channelCode="HHN"/><filterID>ITAPER(3)&gt;&gt;BW(4,3,10)</filterID><methodID>L2-AIC-GRID</methodID><horizontalSlowness><value>23.12199879733476</value></horizontalSlowness><backazimuth><value>77.32746298839874</value></backazimuth><phaseHint>S</phaseHint><evaluationMode>automatic</evaluationMode><comment><text>593.5938235122934</text><id>DFX:rectilinearity</id></comment><comment><text>de.gempa.tb1.Pick/20250413095527.833315.207904</text><id>RefPickID</id></comment></pick><pick publicID="de.gempa.tb1.Pick/20250413095534.37302.207928"><time><value>2025-04-13T09:55:25.524999Z</value></time><waveformID networkCode="TH" stationCode="PLN" channelCode="HHZ"/><filterID>ITAPER(2)&gt;&gt;BW(3,3,20)</filterID><methodID>AIC</methodID><horizontalSlowness><value>13.96872501068282</value></horizontalSlowness><backazimuth><value>233.06461510630646</value></backazimuth><phaseHint>P</phaseHint><evaluationMode>automatic</evaluationMode><comment><text>3.243595477817609</text><id>DFX:rectilinearity</id></comment></pick><pick publicID="de.gempa.tb1.Pick/20250413095534.860254.207932"><time><value>2025-04-13T09:55:25.53Z</value></time><waveformID networkCode="SX" stationCode="TANN" channelCode="HHN"/><filterID>ITAPER(3)&gt;&gt;BW(4,3,10)</filterID><methodID>L2-AIC-GRID</methodID><horizontalSlowness><value>19.583227768795492</value></horizontalSlowness><backazimuth><value>317.3940909946073</value></backazimuth><phaseHint>S</phaseHint><evaluationMode>automatic</evaluationMode><comment><text>243.3164812859559</text><id>DFX:rectilinearity</id></comment><comment><text>de.gempa.tb1.Pick/20250413095531.844956.207920</text><id>RefPickID</id></comment></pick><pick publicID="de.gempa.tb1.Pick/20250413095535.345084.207933"><time><value>2025-04-13T09:55:25.5Z</value></time><waveformID networkCode="SX" stationCode="MULD" channelCode="HHN"/><filterID>ITAPER(3)&gt;&gt;BW(4,3,10)</filterID><methodID>L2-AIC-GRID</methodID><horizontalSlowness><value>23.243230777953713</value></horizontalSlowness><backazimuth><value>332.15785384966165</value></backazimuth><phaseHint>S</phaseHint><evaluationMode>automatic</evaluationMode><comment><text>115.1339503281254</text><id>DFX:rectilinearity</id></comment><comment><text>de.gempa.tb1.Pick/20250413095532.313092.207922</text><id>RefPickID</id></comment></pick><pick publicID="de.gempa.tb1.Pick/20250413095535.487097.207936"><time><value>2025-04-13T09:55:30.330627Z</value></time><waveformID networkCode="SX" stationCode="MEINS" channelCode="HHZ"/><filterID>ITAPER(2)&gt;&gt;BW(3,3,20)</filterID><methodID>AIC</methodID><horizontalSlowness><value>14.84028259292864</value></horizontalSlowness><backazimuth><value>48.07622494293463</value></backazimuth><phaseHint>P</phaseHint><evaluationMode>automatic</evaluationMode><comment><text>1.67783871028218</text><id>DFX:rectilinearity</id></comment></pick><pick publicID="de.gempa.tb1.Pick/20250413095535.679296.207938"><time><value>2025-04-13T09:55:26.95Z</value></time><waveformID networkCode="SX" stationCode="WERD" channelCode="HHN"/><filterID>ITAPER(3)&gt;&gt;BW(4,3,10)</filterID><methodID>L2-AIC-GRID</methodID><horizontalSlowness><value>17.429477118383506</value></horizontalSlowness><backazimuth><value>256.1682150727858</value></backazimuth><phaseHint>S</phaseHint><evaluationMode>automatic</evaluationMode><comment><text>40.639026965413073</text><id>DFX:rectilinearity</id></comment><comment><text>de.gempa.tb1.Pick/20250413095531.60325.207918</text><id>RefPickID</id></comment></pick><pick publicID="de.gempa.tb1.Pick/20250413095535.882452.207939"><time><value>2025-04-13T09:55:27.26Z</value></time><waveformID networkCode="SX" stationCode="TRIB" channelCode="HHN"/><filterID>ITAPER(3)&gt;&gt;BW(4,3,10)</filterID><methodID>L2-AIC-GRID</methodID><horizontalSlowness><value>23.322438495023686</value></horizontalSlowness><backazimuth><value>250.83624564751534</value></backazimuth><phaseHint>S</phaseHint><evaluationMode>automatic</evaluationMode><comment><text>7.615085182614372</text><id>DFX:rectilinearity</id></comment><comment><text>de.gempa.tb1.Pick/20250413095531.419035.207914</text><id>RefPickID</id></comment></pick><pick publicID="de.gempa.tb1.Pick/20250413095535.89965.207940"><time><value>2025-04-13T09:55:25.0000Z</value></time><waveformID networkCode="SX" stationCode="GUNZ" channelCode="HHN"/><filterID>ITAPER(3)&gt;&gt;BW(4,3,10)</filterID><methodID>L2-AIC-GRID</methodID><horizontalSlowness><value>21.985828455768484</value></horizontalSlowness><backazimuth><value>261.7912345435948</value></backazimuth><phaseHint>S</phaseHint><evaluationMode>automatic</evaluationMode><comment><text>27.956302578528547</text><id>DFX:rectilinearity</id></comment><comment><text>de.gempa.tb1.Pick/20250413095530.870468.207912</text><id>RefPickID</id></comment></pick><pick publicID="de.gempa.tb1.Pick/20250413095536.016894.207941"><time><value>2025-04-13T09:55:26.65Z</value></time><waveformID networkCode="SX" stationCode="LEUT" channelCode="HHZ"/><filterID>ITAPER(2)&gt;&gt;BW(3,3,20)</filterID><methodID>AIC</methodID><horizontalSlowness><value>11.219015725933792</value></horizontalSlowness><backazimuth><value>323.3014248239931</value></backazimuth><phaseHint>P</phaseHint><evaluationMode>automatic</evaluationMode><comment><text>4.991562843682967</text><id>DFX:rectilinearity</id></comment></pick><pick publicID="de.gempa.tb1.Pick/20250413095537.704112.207945"><time><value>2025-04-13T09:55:31.29Z</value></time><waveformID networkCode="BW" stationCode="MANZ" channelCode="HHN"/><filterID>ITAPER(3)&gt;&gt;BW(4,3,10)</filterID><methodID>L2-AIC-GRID</methodID><horizontalSlowness><value>19.642495061337154</value></horizontalSlowness><backazimuth><value>36.55175061858114</value></backazimuth><phaseHint>S</phaseHint><evaluationMode>automatic</evaluationMode><comment><text>2.3697042752807636</text><id>DFX:rectilinearity</id></comment><comment><text>de.gempa.tb1.Pick/20250413095528.798835.207908</text><id>RefPickID</id></comment></pick><pick publicID="de.gempa.tb1.Pick/20250413095540.326917.207946"><time><value>2025-04-13T09:55:36.435Z</value></time><waveformID networkCode="BW" stationCode="ROTZ" channelCode="HHN"/><filterID>ITAPER(3)&gt;&gt;BW(4,3,10)</filterID><methodID>L2-AIC-GRID</methodID><horizontalSlowness><value>19.183114268673325</value></horizontalSlowness><backazimuth><value>109.09319667277491</value></backazimuth><phaseHint>S</phaseHint><evaluationMode>automatic</evaluationMode><comment><text>2.7333190933342357</text><id>DFX:rectilinearity</id></comment><comment><text>de.gempa.tb1.Pick/20250413095531.464291.207916</text><id>RefPickID</id></comment></pick><pick publicID="de.gempa.tb1.Pick/20250413095540.50158.207947"><time><value>2025-04-13T09:55:29.614999Z</value></time><waveformID networkCode="TH" stationCode="PLN" channelCode="HHN"/><filterID>ITAPER(3)&gt;&gt;BW(4,3,10)</filterID><methodID>L2-AIC-GRID</methodID><horizontalSlowness><value>11.75646196236062</value></horizontalSlowness><backazimuth><value>234.2858148601055</value></backazimuth><phaseHint>S</phaseHint><evaluationMode>automatic</evaluationMode><comment><text>5.615476733377744</text><id>DFX:rectilinearity</id></comment><comment><text>de.gempa.tb1.Pick/20250413095534.37302.207928</text><id>RefPickID</id></comment></pick><pick publicID="de.gempa.tb1.Pick/20250413095541.488731.207948"><time><value>2025-04-13T09:55:34.38Z</value></time><waveformID networkCode="TH" stationCode="GRZ1" channelCode="HHN"/><filterID>ITAPER(3)&gt;&gt;BW(4,3,10)</filterID><methodID>L2-AIC-GRID</methodID><horizontalSlowness><value>20.931814750236232</value></horizontalSlowness><backazimuth><value>41.33008932135914</value></backazimuth><phaseHint>S</phaseHint><evaluationMode>automatic</evaluationMode><comment><text>10.954768811816189</text><id>DFX:rectilinearity</id></comment><comment><text>de.gempa.tb1.Pick/20250413095532.470631.207924</text><id>RefPickID</id></comment></pick><pick publicID="de.gempa.tb1.Pick/20250413095542.190124.207949"><time><value>2025-04-13T09:55:31.44Z</value></time><waveformID networkCode="SX" stationCode="LEUT" channelCode="HHN"/><filterID>ITAPER(3)&gt;&gt;BW(4,3,10)</filterID><methodID>L2-AIC-GRID</methodID><horizontalSlowness><value>22.488315288424644</value></horizontalSlowness><backazimuth><value>264.7654951784026</value></backazimuth><phaseHint>S</phaseHint><evaluationMode>automatic</evaluationMode><comment><text>9.694666831172915</text><id>DFX:rectilinearity</id></comment><comment><text>de.gempa.tb1.Pick/20250413095536.016894.207941</text><id>RefPickID</id></comment></pick><pick publicID="de.gempa.tb1.Pick/20250413095543.500734.207950"><time><value>2025-04-13T09:55:37.410627Z</value></time><waveformID networkCode="SX" stationCode="MEINS" channelCode="HHN"/><filterID>ITAPER(3)&gt;&gt;BW(4,3,10)</filterID><methodID>L2-AIC-GRID</methodID><horizontalSlowness><value>3.471771939546503</value></horizontalSlowness><backazimuth><value>108.05857431856498</value></backazimuth><phaseHint>S</phaseHint><evaluationMode>automatic</evaluationMode><comment><text>3.1710673395206666</text><id>DFX:rectilinearity</id></comment><comment><text>de.gempa.tb1.Pick/20250413095535.487097.207936</text><id>RefPickID</id></comment></pick><pick publicID="de.gempa.tb1.Pick/20250413095552.985687.207960"><time><value>2025-04-13T09:55:31.88Z</value></time><waveformID networkCode="TH" stationCode="ANNA" channelCode="HHZ"/><filterID>ITAPER(2)&gt;&gt;BW(3,3,20)</filterID><methodID>AIC</methodID><horizontalSlowness><value>19.11545334342398</value></horizontalSlowness><backazimuth><value>253.6302139251294</value></backazimuth><phaseHint>P</phaseHint><evaluationMode>automatic</evaluationMode><comment><text>4.643819951926337</text><id>DFX:rectilinearity</id></comment></pick><pick publicID="de.gempa.tb1.Pick/20250413095553.414074.207964"><time><value>2025-04-13T09:55:40.32Z</value></time><waveformID networkCode="TH" stationCode="ANNA" channelCode="HHN"/><filterID>ITAPER(3)&gt;&gt;BW(4,3,10)</filterID><methodID>L2-AIC-GRID</methodID><horizontalSlowness><value>22.612037672783767</value></horizontalSlowness><backazimuth><value>267.44170987797833</value></backazimuth><phaseHint>S</phaseHint><evaluationMode>automatic</evaluationMode><comment><text>12.918366437622273</text><id>DFX:rectilinearity</id></comment><comment><text>de.gempa.tb1.Pick/20250413095552.985687.207960</text><id>RefPickID</id></comment></pick><origin publicID="de.gempa.tb1.Origin/20250413095555.864406.200204"><time><value>2025-04-13T09:55:19.460166Z</value><uncertainty>0.4001413583755493</uncertainty></time><latitude><value>50.25328063964844</value><uncertainty>1.465924620628357</uncertainty></latitude><longitude><value>12.480761528015137</value><uncertainty>2.4224390983581543</uncertainty></longitude><depth><value>2.57766056060791</value><uncertainty>1.7666913270950317</uncertainty></depth><depthType>from location</depthType><methodID>LOCSAT</methodID><earthModelID>iasp91</earthModelID><quality><associatedPhaseCount>27</associatedPhaseCount><usedPhaseCount>27</usedPhaseCount><associatedStationCount>14</associatedStationCount><usedStationCount>14</usedStationCount><depthPhaseCount>0</depthPhaseCount><standardError>0.29467675142712613</standardError><azimuthalGap>172.135929107666</azimuthalGap><maximumDistance>0.6451064944267273</maximumDistance><minimumDistance>0.07534997165203094</minimumDistance><medianDistance>0.3111701011657715</medianDistance></quality><uncertainty><minHorizontalUncertainty>2.5383951663970947</minHorizontalUncertainty><maxHorizontalUncertainty>5.510017871856689</maxHorizontalUncertainty><azimuthMaxHorizontalUncertainty>112.22415924072266</azimuthMaxHorizontalUncertainty><preferredDescription>horizontal uncertainty</preferredDescription></uncertainty><evaluationMode>automatic</evaluationMode><evaluationStatus>confirmed</evaluationStatus><comment><text>0.06</text><id>mismatchScore</id></comment><comment><text>mismatchScore</text><id>scevalMethod</id></comment><arrival><pickID>de.gempa.tb1.Pick/20250413095527.833315.207904</pickID><phase>P</phase><azimuth>259.66015625</azimuth><distance>0.10690177232027054</distance><timeResidual>0.2313201427459717</timeResidual><timeUsed>true</timeUsed><horizontalSlownessUsed>false</horizontalSlownessUsed><backazimuthUsed>false</backazimuthUsed><weight>1</weight></arrival><arrival><pickID>de.gempa.tb1.Pick/20250413095528.798835.207908</pickID><phase>P</phase><azimuth>222.023681640625</azimuth><distance>0.35914456844329834</distance><timeResidual>-0.11283588409423828</timeResidual><timeUsed>true</timeUsed><horizontalSlownessUsed>false</horizontalSlownessUsed><backazimuthUsed>false</backazimuthUsed><weight>1</weight></arrival><arrival><pickID>de.gempa.tb1.Pick/20250413095529.562521.207910</pickID><phase>P</phase><azimuth>296.9989013671875</azimuth><distance>0.07534997165203094</distance><timeResidual>0.5772838592529297</timeResidual><timeUsed>true</timeUsed><horizontalSlownessUsed>false</horizontalSlownessUsed><backazimuthUsed>false</backazimuthUsed><weight>1</weight></arrival><arrival><pickID>de.gempa.tb1.Pick/20250413095530.870468.207912</pickID><phase>P</phase><azimuth>319.1419982910156</azimuth><distance>0.1460302174091339</distance><timeResidual>0.2119297981262207</timeResidual><timeUsed>true</timeUsed><horizontalSlownessUsed>false</horizontalSlownessUsed><backazimuthUsed>false</backazimuthUsed><weight>1</weight></arrival><arrival><pickID>de.gempa.tb1.Pick/20250413095531.419035.207914</pickID><phase>P</phase><azimuth>294.2818603515625</azimuth><distance>0.2415882349014282</distance><timeResidual>-0.24000048637390137</timeResidual><timeUsed>true</timeUsed><horizontalSlownessUsed>false</horizontalSlownessUsed><backazimuthUsed>false</backazimuthUsed><weight>1</weight></arrival><arrival><pickID>de.gempa.tb1.Pick/20250413095531.464291.207916</pickID><phase>P</phase><azimuth>200.0418243408203</azimuth><distance>0.5179828405380249</distance><timeResidual>-0.0501861572265625</timeResidual><timeUsed>true</timeUsed><horizontalSlownessUsed>false</horizontalSlownessUsed><backazimuthUsed>false</backazimuthUsed><weight>1</weight></arrival><arrival><pickID>de.gempa.tb1.Pick/20250413095531.60325.207918</pickID><phase>P</phase><azimuth>330.3416442871094</azimuth><distance>0.22450082004070282</distance><timeResidual>-0.011177778244018555</timeR