<?xml version="1.0" encoding="UTF-8"?>
<seiscomp xmlns="http://geofon.gfz-potsdam.de/ns/seiscomp3-schema/0.13" version="0.13"><EventParameters><pick publicID="de.gempa.tb1.Pick/20250411181649.783942.119347"><time><value>2025-04-11T18:16:43.538394Z</value></time><waveformID networkCode="CX" stationCode="PB01" channelCode="HHZ"/><filterID>ITAPER(4)&gt;&gt;BW(4,4,20)</filterID><methodID>AIC</methodID><horizontalSlowness><value>8.22210395217308</value></horizontalSlowness><backazimuth><value>42.459691801760243</value></backazimuth><phaseHint>P</phaseHint><evaluationMode>automatic</evaluationMode><comment><text>193.2118326046471</text><id>DFX:rectilinearity</id></comment><comment><text>44.8295921294313</text><id>SNR</id></comment></pick><pick publicID="de.gempa.tb1.Pick/20250411181652.459309.119349"><time><value>2025-04-11T18:16:47.138393Z</value></time><waveformID networkCode="CX" stationCode="PB02" channelCode="HHZ"/><filterID>ITAPER(4)&gt;&gt;BW(4,4,20)</filterID><methodID>AIC</methodID><horizontalSlowness><value>3.5127285476497874</value></horizontalSlowness><backazimuth><value>67.98009558411944</value></backazimuth><phaseHint>P</phaseHint><evaluationMode>automatic</evaluationMode><comment><text>2179.1984013125161</text><id>DFX:rectilinearity</id></comment><comment><text>91.51782370101054</text><id>SNR</id></comment></pick><pick publicID="de.gempa.tb1.Pick/20250411181652.588672.119351"><time><value>2025-04-11T18:16:47.188393Z</value></time><waveformID networkCode="CX" stationCode="PB03" channelCode="HHZ"/><filterID>ITAPER(4)&gt;&gt;BW(4,4,20)</filterID><methodID>AIC</methodID><horizontalSlowness><value>7.483282585764281</value></horizontalSlowness><backazimuth><value>55.67385585727429</value></backazimuth><phaseHint>P</phaseHint><evaluationMode>automatic</evaluationMode><comment><text>486.4730131652769</text><id>DFX:rectilinearity</id></comment><comment><text>73.75645746878796</text><id>SNR</id></comment></pick><pick publicID="de.gempa.tb1.Pick/20250411181653.258095.119353"><time><value>2025-04-11T18:16:42.309998Z</value></time><waveformID networkCode="CX" stationCode="PB09" channelCode="HHZ"/><filterID>ITAPER(4)&gt;&gt;BW(4,4,20)</filterID><methodID>AIC</methodID><horizontalSlowness><value>16.31488931270086</value></horizontalSlowness><backazimuth><value>78.05405607722946</value></backazimuth><phaseHint>P</phaseHint><evaluationMode>automatic</evaluationMode><comment><text>3809.952594243194</text><id>DFX:rectilinearity</id></comment><comment><text>104.77306654478608</text><id>SNR</id></comment></pick><pick publicID="de.gempa.tb1.Pick/20250411181653.743015.119355"><time><value>2025-04-11T18:16:47.348396Z</value></time><waveformID networkCode="CX" stationCode="PB07" channelCode="HHZ"/><filterID>ITAPER(4)&gt;&gt;BW(4,4,20)</filterID><methodID>AIC</methodID><horizontalSlowness><value>14.98322348775883</value></horizontalSlowness><backazimuth><value>102.0084840779558</value></backazimuth><phaseHint>P</phaseHint><evaluationMode>automatic</evaluationMode><comment><text>10127.563103480223</text><id>DFX:rectilinearity</id></comment><comment><text>159.25053740275825</text><id>SNR</id></comment></pick><pick publicID="de.gempa.tb1.Pick/20250411181655.195035.119357"><time><value>2025-04-11T18:16:48.828393Z</value></time><waveformID networkCode="CX" stationCode="PB08" channelCode="HHZ"/><filterID>ITAPER(4)&gt;&gt;BW(4,4,20)</filterID><methodID>AIC</methodID><horizontalSlowness><value>14.540346519612317</value></horizontalSlowness><backazimuth><value>211.93016863780122</value></backazimuth><phaseHint>P</phaseHint><evaluationMode>automatic</evaluationMode><comment><text>84.55928275262146</text><id>DFX:rectilinearity</id></comment><comment><text>16.392367613675493</text><id>SNR</id></comment></pick><pick publicID="de.gempa.tb1.Pick/20250411181657.322986.119359"><time><value>2025-04-11T18:16:51.229999Z</value></time><waveformID networkCode="CX" stationCode="PATCX" channelCode="HHZ"/><filterID>ITAPER(4)&gt;&gt;BW(4,4,20)</filterID><methodID>AIC</methodID><horizontalSlowness><value>5.082826943953012</value></horizontalSlowness><backazimuth><value>168.65647441897812</value></backazimuth><phaseHint>P</phaseHint><evaluationMode>automatic</evaluationMode><comment><text>8123.995716912352</text><id>DFX:rectilinearity</id></comment><comment><text>140.88248645293584</text><id>SNR</id></comment></pick><pick publicID="de.gempa.tb1.Pick/20250411181657.540366.119361"><time><value>2025-04-11T18:16:50.698393Z</value></time><waveformID networkCode="CX" stationCode="PB06" channelCode="HHZ"/><filterID>ITAPER(4)&gt;&gt;BW(4,4,20)</filterID><methodID>AIC</methodID><horizontalSlowness><value>6.499881477856648</value></horizontalSlowness><backazimuth><value>315.72345519707756</value></backazimuth><phaseHint>P</phaseHint><evaluationMode>automatic</evaluationMode><comment><text>97.91316407798631</text><id>DFX:rectilinearity</id></comment><comment><text>41.28809465663641</text><id>SNR</id></comment></pick><pick publicID="de.gempa.tb1.Pick/20250411181702.735286.119363"><time><value>2025-04-11T18:16:55.198393Z</value></time><waveformID networkCode="CX" stationCode="PB15" channelCode="HHZ"/><filterID>ITAPER(4)&gt;&gt;BW(4,4,20)</filterID><methodID>AIC</methodID><horizontalSlowness><value>22.59455799879427</value></horizontalSlowness><backazimuth><value>74.40336766164162</value></backazimuth><phaseHint>P</phaseHint><evaluationMode>automatic</evaluationMode><comment><text>529.3036857659761</text><id>DFX:rectilinearity</id></comment><comment><text>13.94799802993056</text><id>SNR</id></comment></pick><pick publicID="de.gempa.tb1.Pick/20250411181707.610549.119365"><time><value>2025-04-11T18:16:58.79Z</value></time><waveformID networkCode="CX" stationCode="PSGCX" channelCode="HHZ"/><filterID>ITAPER(4)&gt;&gt;BW(4,4,20)</filterID><methodID>AIC</methodID><horizontalSlowness><value>8.893206477781264</value></horizontalSlowness><backazimuth><value>153.85747968213252</value></backazimuth><phaseHint>P</phaseHint><evaluationMode>automatic</evaluationMode><comment><text>18.132836496365076</text><id>DFX:rectilinearity</id></comment><comment><text>51.3721135848176</text><id>SNR</id></comment></pick><pick publicID="de.gempa.tb1.Pick/20250411181710.504753.119367"><time><value>2025-04-11T18:17:03.33Z</value></time><waveformID networkCode="CX" stationCode="PB19" channelCode="HHZ"/><filterID>ITAPER(4)&gt;&gt;BW(4,4,20)</filterID><methodID>AIC</methodID><horizontalSlowness><value>18.93325754191438</value></horizontalSlowness><backazimuth><value>86.67116668641826</value></backazimuth><phaseHint>P</phaseHint><evaluationMode>automatic</evaluationMode><comment><text>10.668541299666863</text><id>DFX:rectilinearity</id></comment><comment><text>13.578741114073214</text><id>SNR</id></comment></pick><pick publicID="de.gempa.tb1.Pick/20250411181710.663817.119369"><time><value>2025-04-11T18:17:01.748394Z</value></time><waveformID networkCode="CX" stationCode="PB01" channelCode="HHN"/><filterID>ITAPER(2)&gt;&gt;BW(3,3,20)</filterID><methodID>L2-AIC-GRID</methodID><horizontalSlowness><value>20.400648243048892</value></horizontalSlowness><backazimuth><value>345.1708682598129</value></backazimuth><phaseHint>S</phaseHint><evaluationMode>automatic</evaluationMode><comment><text>1743.1772306464422</text><id>DFX:rectilinearity</id></comment><comment><text>de.gempa.tb1.Pick/20250411181649.783942.119347</text><id>RefPickID</id></comment><comment><text>5.485367304779994</text><id>SNR</id></comment></pick><pick publicID="de.gempa.tb1.Pick/20250411181721.666216.119374"><time><value>2025-04-11T18:17:13.698393Z</value></time><waveformID networkCode="CX" stationCode="PB06" channelCode="HHN"/><filterID>ITAPER(2)&gt;&gt;BW(3,3,20)</filterID><methodID>L2-AIC-GRID</methodID><horizontalSlowness><value>20.125100625021478</value></horizontalSlowness><backazimuth><value>284.96230976983207</value></backazimuth><phaseHint>S</phaseHint><evaluationMode>automatic</evaluationMode><comment><text>387.05617123717445</text><id>DFX:rectilinearity</id></comment><comment><text>de.gempa.tb1.Pick/20250411181657.540366.119361</text><id>RefPickID</id></comment><comment><text>8.420397592334707</text><id>SNR</id></comment></pick><pick publicID="de.gempa.tb1.Pick/20250411181731.747723.119378"><time><value>2025-04-11T18:17:22.588393Z</value></time><waveformID networkCode="CX" stationCode="PB15" channelCode="HHN"/><filterID>ITAPER(2)&gt;&gt;BW(3,3,20)</filterID><methodID>L2-AIC-GRID</methodID><horizontalSlowness><value>22.217741770100673</value></horizontalSlowness><backazimuth><value>118.8214991417505</value></backazimuth><phaseHint>S</phaseHint><evaluationMode>automatic</evaluationMode><comment><text>14259.99520561034</text><id>DFX:rectilinearity</id></comment><comment><text>de.gempa.tb1.Pick/20250411181702.735286.119363</text><id>RefPickID</id></comment><comment><text>7.656234473740427</text><id>SNR</id></comment></pick><pick publicID="de.gempa.tb1.Pick/20250411181736.699012.119379"><time><value>2025-04-11T18:17:28.59Z</value></time><waveformID networkCode="CX" stationCode="PSGCX" channelCode="HHN"/><filterID>ITAPER(2)&gt;&gt;BW(3,3,20)</filterID><methodID>L2-AIC-GRID</methodID><horizontalSlowness><value>20.644590888916724</value></horizontalSlowness><backazimuth><value>306.4539083534698</value></backazimuth><phaseHint>S</phaseHint><evaluationMode>automatic</evaluationMode><comment><text>59.44839623050351</text><id>DFX:rectilinearity</id></comment><comment><text>de.gempa.tb1.Pick/20250411181707.610549.119365</text><id>RefPickID</id></comment><comment><text>5.804346718288585</text><id>SNR</id></comment></pick><pick publicID="de.gempa.tb1.Pick/20250411181743.633738.119382"><time><value>2025-04-11T18:17:35.05Z</value></time><waveformID networkCode="CX" stationCode="PB19" channelCode="HHN"/><filterID>ITAPER(2)&gt;&gt;BW(3,3,20)</filterID><methodID>L2-AIC-GRID</methodID><horizontalSlowness><value>23.12870472079784</value></horizontalSlowness><backazimuth><value>52.49565071401801</value></backazimuth><phaseHint>S</phaseHint><evaluationMode>automatic</evaluationMode><comment><text>148.41737610461306</text><id>DFX:rectilinearity</id></comment><comment><text>de.gempa.tb1.Pick/20250411181710.504753.119367</text><id>RefPickID</id></comment><comment><text>9.3430369877844</text><id>SNR</id></comment></pick><origin publicID="de.gempa.tb1.Origin/20250411181743.638562.63069"><time><value>2025-04-11T18:16:21.360291Z</value><uncertainty>0.8411948680877686</uncertainty></time><latitude><value>-21.391645431518555</value><uncertainty>2.8211519718170166</uncertainty></latitude><longitude><value>-68.59789276123047</value><uncertainty>12.934401512145996</uncertainty></longitude><depth><value>136.68174743652344</value><uncertainty>11.422057151794434</uncertainty></depth><depthType>from location</depthType><methodID>LOCSAT</methodID><earthModelID>iasp91_scanloc</earthModelID><quality><associatedPhaseCount>16</associatedPhaseCount><usedPhaseCount>16</usedPhaseCount><associatedStationCount>11</associatedStationCount><usedStationCount>11</usedStationCount><depthPhaseCount>0</depthPhaseCount><standardError>0.35887533716397313</standardError><azimuthalGap>216.99424743652344</azimuthalGap><maximumDistance>2.5818164348602295</maximumDistance><minimumDistance>0.7221143841743469</minimumDistance><medianDistance>1.5895981788635254</medianDistance></quality><uncertainty><minHorizontalUncertainty>5.313527584075928</minHorizontalUncertainty><maxHorizontalUncertainty>27.87777900695801</maxHorizontalUncertainty><azimuthMaxHorizontalUncertainty>83.94182586669922</azimuthMaxHorizontalUncertainty><preferredDescription>horizontal uncertainty</preferredDescription></uncertainty><evaluationMode>automatic</evaluationMode><evaluationStatus>confirmed</evaluationStatus><comment><text>0.00</text><id>mismatchScore</id></comment><comment><text>mismatchScore</text><id>scevalMethod</id></comment><arrival><pickID>de.gempa.tb1.Pick/20250411181649.783942.119347</pickID><phase>P</phase><azimuth>292.5113525390625</azimuth><distance>0.8994314670562744</distance><timeResidual>-0.480804443359375</timeResidual><timeUsed>true</timeUsed><horizontalSlownessUsed>false</horizontalSlownessUsed><backazimuthUsed>false</backazimuthUsed><weight>1</weight></arrival><arrival><pickID>de.gempa.tb1.Pick/20250411181652.459309.119349</pickID><phase>P</phase><azimuth>273.1492004394531</azimuth><distance>1.2121827602386475</distance><timeResidual>0.21532058715820312</timeResidual><timeUsed>true</timeUsed><horizontalSlownessUsed>false</horizontalSlownessUsed><backazimuthUsed>false</backazimuthUsed><weight>1</weight></arrival><arrival><pickID>de.gempa.tb1.Pick/20250411181652.588672.119351</pickID><phase>P</phase><azimuth>238.46839904785156</azimuth><distance>1.2573941946029663</distance><timeResidual>-0.18680191040039062</timeResidual><timeUsed>true</timeUsed><horizontalSlownessUsed>false</horizontalSlownessUsed><backazimuthUsed>false</backazimuthUsed><weight>1</weight></arrival><arrival><pickID>de.gempa.tb1.Pick/20250411181653.258095.119353</pickID><phase>P</phase><azimuth>235.9829559326172</azimuth><distance>0.7221143841743469</distance><timeResidual>-0.3034992218017578</timeResidual><timeUsed>true</timeUsed><horizontalSlownessUsed>false</horizontalSlownessUsed><backazimuthUsed>false</backazimuthUsed><weight>1</weight></arrival><arrival><pickID>de.gempa.tb1.Pick/20250411181653.743015.119355</pickID><phase>P</phase><azimuth>254.22962951660156</azimuth><distance>1.2447065114974976</distance><timeResidual>0.10006332397460938</timeResidual><timeUsed>true</timeUsed><horizontalSlownessUsed>false</horizontalSlownessUsed><backazimuthUsed>false</backazimuthUsed><weight>1</weight></arrival><arrival><pickID>de.gempa.tb1.Pick/20250411181655.195035.119357</pickID><phase>P</phase><azimuth>337.22607421875</azimuth><distance>1.3484673500061035</distance><timeResidual>0.4982738494873047</timeResidual><timeUsed>true</timeUsed><horizontalSlownessUsed>false</horizontalSlownessUsed><backazimuthUsed>false</backazimuthUsed><weight>1</weight></arrival><arrival><pickID>de.gempa.tb1.Pick/20250411181657.322986.119359</pickID><phase>P</phase><azimuth>291.08935546875</azimuth><distance>1.5590956211090088</distance><timeResidual>0.6233139038085938</timeResidual><timeUsed>true</timeUsed><horizontalSlownessUsed>false</horizontalSlownessUsed><backazimuthUsed>false</backazimuthUsed><weight>1</weight></arrival><arrival><pickID>de.gempa.tb1.Pick/20250411181657.540366.119361</pickID><phase>P</phase><azimuth>214.46096801757812</azimuth><distance>1.5895981788635254</distance><timeResidual>-0.23653221130371094</timeResidual><timeUsed>true</timeUsed><horizontalSlownessUsed>false</horizontalSlownessUsed><backazimuthUsed>false</backazimuthUsed><weight>1</weight></arrival><arrival><pickID>de.gempa.tb1.Pick/20250411181702.735286.119363</pickID><phase>P</phase><azimuth>203.929931640625</azimuth><distance>1.9805248975753784</distance><timeResidual>-0.27196311950683594</timeResidual><timeUsed>true</timeUsed><horizontalSlownessUsed>false</horizontalSlownessUsed><backazimuthUsed>false</backazimuthUsed><weight>1</weight></arrival><arrival><pickID>de.gempa.tb1.Pick/20250411181707.610549.119365</pickID><phase>P</phase><azimuth>321.0429382324219</azimuth><distance>2.2872800827026367</distance><timeResidual>-0.44145774841308594</timeResidual><timeUsed>true</timeUsed><horizontalSlownessUsed>false</horizontalSlownessUsed><backazimuthUsed>false</backazimuthUsed><weight>1</weight></arrival><arrival><pickID>de.gempa.tb1.Pick/20250411181710.504753.119367</pickID><phase>P</phase><azimuth>194.22032165527344</azimuth><distance>2.5818164348602295</distance><timeResidual>0.4503917694091797</timeResidual><timeUsed>true</timeUsed><horizontalSlownessUsed>false</horizontalSlownessUsed><backazimuthUsed>false</backazimuthUsed><weight>1</weight></arrival><arrival><pickID>de.gempa.tb1.Pick/20250411181710.663817.119369</pickID><phase>S</phase><azimuth>292.5113525390625</azimuth><distance>0.8994314670562744</distance><timeResidual>0.17041778564453125</timeResidual><timeUsed>true</timeUsed><horizontalSlownessUsed>false</horizontalSlownessUsed><backazimuthUsed>false</backazimuthUsed><weight>1</weight></arrival><arrival><pickID>de.gempa.tb1.Pick/20250411181721.666216.119374</pickID><phase>S</phase><azimuth>214.46096801757812</azimuth><distance>1.5895981788635254</distance><timeResidual>-0.2324848175048828</timeResidual><timeUsed>true</timeUsed><horizontalSlownessUsed>false</horizontalSlownessUsed><backazimuthUsed>false</backazimuthUsed><weight>1</weight></arrival><arrival><pickID>de.gempa.tb1.Pick/20250411181731.747723.119378</pickID><phase>S</phase><azimuth>203.929931640625</azimuth><distance>1.9805248975753784</distance><timeResidual>0.5436363220214844</timeResidual><timeUsed>true</timeUsed><horizontalSlownessUsed>false</horizontalSlownessUsed><backazimuthUsed>false</backazimuthUsed><weight>1</weight></arrival><arrival><pickID>de.gempa.tb1.Pick/20250411181736.699012.119379</pickID><phase>S</phase><azimuth>321.0429382324219</azimuth><distance>2.2872800827026367</distance><timeResidual>-0.18621444702148438</timeResidual><timeUsed>true</timeUsed><horizontalSlownessUsed>false</horizontalSlownessUsed><backazimuthUsed>false</backazimuthUsed><weight>1</weight></arrival><arrival><pickID>de.gempa.tb1.Pick/20250411181743.633738.119382</pickID><phase>S</phase><azimuth>194.22032165527344</azimuth><distance>2.5818164348602295</distance><timeResidual>-0.2614479064941406</timeResidual><timeUsed>true</timeUsed><horizontalSlownessUsed>false</horizontalSlownessUsed><backazimuthUsed>false</backazimuthUsed><weight>1</weight></arrival><magnitude publicID="de.gempa.tb1.Magnitude/20250411181745.94048.129352"><magnitude><value>2.6941402196583373</value></magnitude><type>M</type><methodID>weighted average</methodID><stationCount>7</stationCount></magnitude></origin><event publicID="gempa2025hect"><preferredOriginID>de.gempa.tb1.Origin/20250411181743.638562.63069</preferredOriginID><preferredMagnitudeID>de.gempa.tb1.Magnitude/20250411181745.94048.129352</preferredMagnitudeID><description><text>Chile-Bolivia Border Region</text><type>region name</type></description><originReference>de.gempa.tb1.Origin/20250411181743.638562.63069</originReference></event></EventParameters></seiscomp>