<?xml version="1.0" encoding="UTF-8"?>
<seiscomp xmlns="http://geofon.gfz-potsdam.de/ns/seiscomp3-schema/0.13" version="0.13"><EventParameters><pick publicID="de.gempa.tb1.Pick/20250413183808.718593.133180"><time><value>2025-04-13T18:38:02.118391Z</value></time><waveformID networkCode="CX" stationCode="PB07" channelCode="HHZ"/><filterID>ITAPER(4)&gt;&gt;BW(4,4,20)</filterID><methodID>AIC</methodID><horizontalSlowness><value>22.401580697595538</value></horizontalSlowness><backazimuth><value>32.5325826678324</value></backazimuth><phaseHint>P</phaseHint><evaluationMode>automatic</evaluationMode><comment><text>225.87446925409256</text><id>DFX:rectilinearity</id></comment><comment><text>14.926819725108894</text><id>SNR</id></comment></pick><pick publicID="de.gempa.tb1.Pick/20250413183816.650711.133185"><time><value>2025-04-13T18:38:09.138393Z</value></time><waveformID networkCode="CX" stationCode="PB02" channelCode="HHZ"/><filterID>ITAPER(4)&gt;&gt;BW(4,4,20)</filterID><methodID>AIC</methodID><horizontalSlowness><value>4.1202376367455136</value></horizontalSlowness><backazimuth><value>64.21251675631376</value></backazimuth><phaseHint>P</phaseHint><evaluationMode>automatic</evaluationMode><comment><text>22.41691981894164</text><id>DFX:rectilinearity</id></comment><comment><text>7.133697002805008</text><id>SNR</id></comment></pick><pick publicID="de.gempa.tb1.Pick/20250413183819.744723.133191"><time><value>2025-04-13T18:38:14.258393Z</value></time><waveformID networkCode="CX" stationCode="PB02" channelCode="HHN"/><filterID>ITAPER(2)&gt;&gt;BW(3,3,20)</filterID><methodID>L2-AIC-GRID</methodID><horizontalSlowness><value>5.649807255268915</value></horizontalSlowness><backazimuth><value>63.7086514973082</value></backazimuth><phaseHint>S</phaseHint><evaluationMode>automatic</evaluationMode><comment><text>66.12680727622137</text><id>DFX:rectilinearity</id></comment><comment><text>de.gempa.tb1.Pick/20250413183816.650711.133185</text><id>RefPickID</id></comment><comment><text>7.525819168984542</text><id>SNR</id></comment></pick><pick publicID="de.gempa.tb1.Pick/20250413183822.472547.133192"><time><value>2025-04-13T18:38:17.459999Z</value></time><waveformID networkCode="CX" stationCode="PATCX" channelCode="HHZ"/><filterID>ITAPER(4)&gt;&gt;BW(4,4,20)</filterID><methodID>AIC</methodID><horizontalSlowness><value>19.614654724048496</value></horizontalSlowness><backazimuth><value>312.52762541089737</value></backazimuth><phaseHint>P</phaseHint><evaluationMode>automatic</evaluationMode><comment><text>390.03244330910576</text><id>DFX:rectilinearity</id></comment><comment><text>13.613498023778662</text><id>SNR</id></comment></pick><pick publicID="de.gempa.tb1.Pick/20250413183825.538586.133197"><time><value>2025-04-13T18:38:10.770001Z</value></time><waveformID networkCode="CX" stationCode="PB09" channelCode="HHZ"/><filterID>ITAPER(4)&gt;&gt;BW(4,4,20)</filterID><methodID>AIC</methodID><horizontalSlowness><value>15.954257421090984</value></horizontalSlowness><backazimuth><value>72.78262879481984</value></backazimuth><phaseHint>P</phaseHint><evaluationMode>automatic</evaluationMode><comment><text>151.95989921729816</text><id>DFX:rectilinearity</id></comment><comment><text>12.114771595595057</text><id>SNR</id></comment></pick><pick publicID="de.gempa.tb1.Pick/20250413183838.995124.133200"><time><value>2025-04-13T18:38:24.310001Z</value></time><waveformID networkCode="CX" stationCode="PB09" channelCode="HHN"/><filterID>ITAPER(2)&gt;&gt;BW(3,3,20)</filterID><methodID>L2-AIC-GRID</methodID><horizontalSlowness><value>17.544250789412771</value></horizontalSlowness><backazimuth><value>316.13791960645096</value></backazimuth><phaseHint>S</phaseHint><evaluationMode>automatic</evaluationMode><comment><text>71.3899657448731</text><id>DFX:rectilinearity</id></comment><comment><text>de.gempa.tb1.Pick/20250413183825.538586.133197</text><id>RefPickID</id></comment><comment><text>5.558856419613526</text><id>SNR</id></comment></pick><origin publicID="de.gempa.tb1.Origin/20250413183839.004214.117513"><time><value>2025-04-13T18:37:58.055978Z</value><uncertainty>1.395877480506897</uncertainty></time><latitude><value>-21.81726837158203</value><uncertainty>5.908039569854736</uncertainty></latitude><longitude><value>-70.06278228759766</value><uncertainty>5.91608476638794</uncertainty></longitude><depth><value>0</value></depth><depthType>operator assigned</depthType><methodID>LOCSAT</methodID><earthModelID>iasp91_scanloc</earthModelID><quality><associatedPhaseCount>6</associatedPhaseCount><usedPhaseCount>6</usedPhaseCount><associatedStationCount>4</associatedStationCount><usedStationCount>4</usedStationCount><depthPhaseCount>0</depthPhaseCount><standardError>1.097422176621837</standardError><azimuthalGap>266.5508728027344</azimuthalGap><maximumDistance>0.9951885938644409</maximumDistance><minimumDistance>0.18728695809841156</minimumDistance><medianDistance>0.7631072402000427</medianDistance></quality><uncertainty><minHorizontalUncertainty>6.744404315948486</minHorizontalUncertainty><maxHorizontalUncertainty>16.619855880737305</maxHorizontalUncertainty><azimuthMaxHorizontalUncertainty>45.05435562133789</azimuthMaxHorizontalUncertainty><preferredDescription>horizontal uncertainty</preferredDescription></uncertainty><evaluationMode>automatic</evaluationMode><evaluationStatus>confirmed</evaluationStatus><comment><text>0.37</text><id>mismatchScore</id></comment><comment><text>mismatchScore</text><id>scevalMethod</id></comment><arrival><pickID>de.gempa.tb1.Pick/20250413183808.718593.133180</pickID><phase>P</phase><azimuth>61.25636672973633</azimuth><distance>0.18728695809841156</distance><timeResidual>0.4698400497436523</timeResidual><timeUsed>true</timeUsed><horizontalSlownessUsed>false</horizontalSlownessUsed><backazimuthUsed>false</backazimuthUsed><weight>1</weight></arrival><arrival><pickID>de.gempa.tb1.Pick/20250413183816.650711.133185</pickID><phase>P</phase><azimuth>17.437322616577148</azimuth><distance>0.5188607573509216</distance><timeResidual>1.1294918060302734</timeResidual><timeUsed>true</timeUsed><horizontalSlownessUsed>false</horizontalSlownessUsed><backazimuthUsed>false</backazimuthUsed><weight>1</weight></arrival><arrival><pickID>de.gempa.tb1.Pick/20250413183819.744723.133191</pickID><phase>S</phase><azimuth>17.437322616577148</azimuth><distance>0.5188607573509216</distance><timeResidual>-0.9781088829040527</timeResidual><timeUsed>true</timeUsed><horizontalSlownessUsed>false</horizontalSlownessUsed><backazimuthUsed>false</backazimuthUsed><weight>1</weight></arrival><arrival><pickID>de.gempa.tb1.Pick/20250413183822.472547.133192</pickID><phase>P</phase><azimuth>355.1415100097656</azimuth><distance>0.9951885938644409</distance><timeResidual>0.3141789436340332</timeResidual><timeUsed>true</timeUsed><horizontalSlownessUsed>false</horizontalSlownessUsed><backazimuthUsed>false</backazimuthUsed><weight>1</weight></arrival><arrival><pickID>de.gempa.tb1.Pick/20250413183825.538586.133197</pickID><phase>P</phase><azimuth>88.59063720703125</azimuth><distance>0.7631072402000427</distance><timeResidual>-1.923173427581787</timeResidual><timeUsed>true</timeUsed><horizontalSlownessUsed>false</horizontalSlownessUsed><backazimuthUsed>false</backazimuthUsed><weight>1</weight></arrival><arrival><pickID>de.gempa.tb1.Pick/20250413183838.995124.133200</pickID><phase>S</phase><azimuth>88.59063720703125</azimuth><distance>0.7631072402000427</distance><timeResidual>0.9876790046691895</timeResidual><timeUsed>true</timeUsed><horizontalSlownessUsed>false</horizontalSlownessUsed><backazimuthUsed>false</backazimuthUsed><weight>1</weight></arrival><magnitude publicID="de.gempa.tb1.Magnitude/20250413183839.007804.390072"><magnitude><value>1.8222599855547181</value></magnitude><type>M</type><methodID>weighted average</methodID><stationCount>4</stationCount></magnitude></origin><event publicID="gempa2025hhvn"><preferredOriginID>de.gempa.tb1.Origin/20250413183839.004214.117513</preferredOriginID><preferredMagnitudeID>de.gempa.tb1.Magnitude/20250413183839.007804.390072</preferredMagnitudeID><description><text>Near Coast of Northern Chile</text><type>region name</type></description><originReference>de.gempa.tb1.Origin/20250413183839.004214.117513</originReference></event></EventParameters></seiscomp>