<?xml version="1.0" encoding="UTF-8"?>
<seiscomp xmlns="http://geofon.gfz-potsdam.de/ns/seiscomp3-schema/0.13" version="0.13"><EventParameters><pick publicID="de.gempa.tb1.Pick/20250411152958.464916.118466"><time><value>2025-04-11T15:29:51.360001Z</value></time><waveformID networkCode="CX" stationCode="PATCX" channelCode="HHZ"/><filterID>ITAPER(4)&gt;&gt;BW(4,4,20)</filterID><methodID>AIC</methodID><horizontalSlowness><value>11.98596506058147</value></horizontalSlowness><backazimuth><value>39.50860485452671</value></backazimuth><phaseHint>P</phaseHint><evaluationMode>automatic</evaluationMode><comment><text>1886.5093288010244</text><id>DFX:rectilinearity</id></comment><comment><text>12.849551975007037</text><id>SNR</id></comment></pick><pick publicID="de.gempa.tb1.Pick/20250411152959.667476.118468"><time><value>2025-04-11T15:29:54.848394Z</value></time><waveformID networkCode="CX" stationCode="PB02" channelCode="HHZ"/><filterID>ITAPER(4)&gt;&gt;BW(4,4,20)</filterID><methodID>AIC</methodID><horizontalSlowness><value>11.260201810376214</value></horizontalSlowness><backazimuth><value>6.161048777953056</value></backazimuth><phaseHint>P</phaseHint><evaluationMode>automatic</evaluationMode><comment><text>809.0902865673895</text><id>DFX:rectilinearity</id></comment><comment><text>28.043933482524725</text><id>SNR</id></comment></pick><pick publicID="de.gempa.tb1.Pick/20250411153003.527227.118470"><time><value>2025-04-11T15:29:56.528394Z</value></time><waveformID networkCode="CX" stationCode="PB01" channelCode="HHZ"/><filterID>ITAPER(4)&gt;&gt;BW(4,4,20)</filterID><methodID>AIC</methodID><horizontalSlowness><value>14.820386989114345</value></horizontalSlowness><backazimuth><value>263.52244816489713</value></backazimuth><phaseHint>P</phaseHint><evaluationMode>automatic</evaluationMode><comment><text>51.93907484567233</text><id>DFX:rectilinearity</id></comment><comment><text>36.90233619237935</text><id>SNR</id></comment></pick><pick publicID="de.gempa.tb1.Pick/20250411153008.706407.118472"><time><value>2025-04-11T15:30:00.718394Z</value></time><waveformID networkCode="CX" stationCode="PB02" channelCode="HHN"/><filterID>ITAPER(2)&gt;&gt;BW(3,3,20)</filterID><methodID>L2-AIC-GRID</methodID><horizontalSlowness><value>12.75867961588697</value></horizontalSlowness><backazimuth><value>150.57143507629087</value></backazimuth><phaseHint>S</phaseHint><evaluationMode>automatic</evaluationMode><comment><text>7333.813330987325</text><id>DFX:rectilinearity</id></comment><comment><text>de.gempa.tb1.Pick/20250411152959.667476.118468</text><id>RefPickID</id></comment><comment><text>8.573377574519201</text><id>SNR</id></comment></pick><pick publicID="de.gempa.tb1.Pick/20250411153011.70068.118473"><time><value>2025-04-11T15:30:03.398394Z</value></time><waveformID networkCode="CX" stationCode="PB01" channelCode="HHN"/><filterID>ITAPER(2)&gt;&gt;BW(3,3,20)</filterID><methodID>L2-AIC-GRID</methodID><horizontalSlowness><value>21.649433886542457</value></horizontalSlowness><backazimuth><value>356.92806005683684</value></backazimuth><phaseHint>S</phaseHint><evaluationMode>automatic</evaluationMode><comment><text>918.1654236897637</text><id>DFX:rectilinearity</id></comment><comment><text>de.gempa.tb1.Pick/20250411153003.527227.118470</text><id>RefPickID</id></comment><comment><text>5.846581073777928</text><id>SNR</id></comment></pick><pick publicID="de.gempa.tb1.Pick/20250411153014.869085.118474"><time><value>2025-04-11T15:30:01.858393Z</value></time><waveformID networkCode="CX" stationCode="PB07" channelCode="HHZ"/><filterID>ITAPER(4)&gt;&gt;BW(4,4,20)</filterID><methodID>AIC</methodID><horizontalSlowness><value>22.037587740349132</value></horizontalSlowness><backazimuth><value>136.99475585188455</value></backazimuth><phaseHint>P</phaseHint><evaluationMode>automatic</evaluationMode><comment><text>254.1017564316057</text><id>DFX:rectilinearity</id></comment><comment><text>9.695745309958063</text><id>SNR</id></comment></pick><pick publicID="de.gempa.tb1.Pick/20250411153020.793091.118476"><time><value>2025-04-11T15:30:11.290001Z</value></time><waveformID networkCode="CX" stationCode="PSGCX" channelCode="HHZ"/><filterID>ITAPER(4)&gt;&gt;BW(4,4,20)</filterID><methodID>AIC</methodID><horizontalSlowness><value>8.783327904442226</value></horizontalSlowness><backazimuth><value>255.06658167349477</value></backazimuth><phaseHint>P</phaseHint><evaluationMode>automatic</evaluationMode><comment><text>26.64149817619958</text><id>DFX:rectilinearity</id></comment><comment><text>25.007761973681276</text><id>SNR</id></comment></pick><pick publicID="de.gempa.tb1.Pick/20250411153030.447627.118480"><time><value>2025-04-11T15:30:08.31Z</value></time><waveformID networkCode="CX" stationCode="PB09" channelCode="HHZ"/><filterID>ITAPER(4)&gt;&gt;BW(4,4,20)</filterID><methodID>AIC</methodID><horizontalSlowness><value>5.675266548595203</value></horizontalSlowness><backazimuth><value>300.3813353300874</value></backazimuth><phaseHint>P</phaseHint><evaluationMode>automatic</evaluationMode><comment><text>10.750009732318695</text><id>DFX:rectilinearity</id></comment><comment><text>6.272151560566527</text><id>SNR</id></comment></pick><pick publicID="de.gempa.tb1.Pick/20250411153041.807709.118485"><time><value>2025-04-11T15:30:29.740001Z</value></time><waveformID networkCode="CX" stationCode="PSGCX" channelCode="HHN"/><filterID>ITAPER(2)&gt;&gt;BW(3,3,20)</filterID><methodID>L2-AIC-GRID</methodID><horizontalSlowness><value>19.14496443202286</value></horizontalSlowness><backazimuth><value>71.65233819189542</value></backazimuth><phaseHint>S</phaseHint><evaluationMode>automatic</evaluationMode><comment><text>176.8982665400011</text><id>DFX:rectilinearity</id></comment><comment><text>de.gempa.tb1.Pick/20250411153020.793091.118476</text><id>RefPickID</id></comment><comment><text>11.990938507403115</text><id>SNR</id></comment></pick><origin publicID="de.gempa.tb1.Origin/20250411153041.811237.59278"><time><value>2025-04-11T15:29:46.973634Z</value><uncertainty>0.392012357711792</uncertainty></time><latitude><value>-20.934688568115234</value><uncertainty>3.006355047225952</uncertainty></latitude><longitude><value>-69.99243927001953</value><uncertainty>3.3291425704956055</uncertainty></longitude><depth><value>12.85731029510498</value><uncertainty>4.5373854637146</uncertainty></depth><depthType>from location</depthType><methodID>LOCSAT</methodID><earthModelID>iasp91_scanloc</earthModelID><quality><associatedPhaseCount>9</associatedPhaseCount><usedPhaseCount>9</usedPhaseCount><associatedStationCount>6</associatedStationCount><usedStationCount>6</usedStationCount><depthPhaseCount>0</depthPhaseCount><standardError>0.21628105463003244</standardError><azimuthalGap>134.20309448242188</azimuthalGap><maximumDistance>1.3363330364227295</maximumDistance><minimumDistance>0.18807187676429749</minimumDistance><medianDistance>0.4841368496417999</medianDistance></quality><uncertainty><minHorizontalUncertainty>5.594817638397217</minHorizontalUncertainty><maxHorizontalUncertainty>7.824075222015381</maxHorizontalUncertainty><azimuthMaxHorizontalUncertainty>54.16028213500977</azimuthMaxHorizontalUncertainty><preferredDescription>horizontal uncertainty</preferredDescription></uncertainty><evaluationMode>automatic</evaluationMode><evaluationStatus>confirmed</evaluationStatus><comment><text>0.02</text><id>mismatchScore</id></comment><comment><text>mismatchScore</text><id>scevalMethod</id></comment><arrival><pickID>de.gempa.tb1.Pick/20250411152958.464916.118466</pickID><phase>P</phase><azimuth>307.0570373535156</azimuth><distance>0.18807187676429749</distance><timeResidual>0.14905118942260742</timeResidual><timeUsed>true</timeUsed><horizontalSlownessUsed>false</horizontalSlownessUsed><backazimuthUsed>false</backazimuthUsed><weight>1</weight></arrival><arrival><pickID>de.gempa.tb1.Pick/20250411152959.667476.118468</pickID><phase>P</phase><azimuth>166.7962646484375</azimuth><distance>0.39355990290641785</distance><timeResidual>0.010508060455322266</timeResidual><timeUsed>true</timeUsed><horizontalSlownessUsed>false</horizontalSlownessUsed><backazimuthUsed>false</backazimuthUsed><weight>1</weight></arrival><arrival><pickID>de.gempa.tb1.Pick/20250411153003.527227.118470</pickID><phase>P</phase><azimuth>102.97965240478516</azimuth><distance>0.4841368496417999</distance><timeResidual>0.004895687103271484</timeResidual><timeUsed>true</timeUsed><horizontalSlownessUsed>false</horizontalSlownessUsed><backazimuthUsed>false</backazimuthUsed><weight>1</weight></arrival><arrival><pickID>de.gempa.tb1.Pick/20250411153008.706407.118472</pickID><phase>S</phase><azimuth>166.7962646484375</azimuth><distance>0.39355990290641785</distance><timeResidual>0.17072725296020508</timeResidual><timeUsed>true</timeUsed><horizontalSlownessUsed>false</horizontalSlownessUsed><backazimuthUsed>false</backazimuthUsed><weight>1</weight></arrival><arrival><pickID>de.gempa.tb1.Pick/20250411153011.70068.118473</pickID><phase>S</phase><azimuth>102.97965240478516</azimuth><distance>0.4841368496417999</distance><timeResidual>-0.05728960037231445</timeResidual><timeUsed>true</timeUsed><horizontalSlownessUsed>false</horizontalSlownessUsed><backazimuthUsed>false</backazimuthUsed><weight>1</weight></arrival><arrival><pickID>de.gempa.tb1.Pick/20250411153014.869085.118474</pickID><phase>P</phase><azimuth>172.85394287109375</azimuth><distance>0.7942730188369751</distance><timeResidual>-0.5061306953430176</timeResidual><timeUsed>true</timeUsed><horizontalSlownessUsed>false</horizontalSlownessUsed><backazimuthUsed>false</backazimuthUsed><weight>1</weight></arrival><arrival><pickID>de.gempa.tb1.Pick/20250411153020.793091.118476</pickID><phase>P</phase><azimuth>354.71258544921875</azimuth><distance>1.3363330364227295</distance><timeResidual>-0.05785417556762695</timeResidual><timeUsed>true</timeUsed><horizontalSlownessUsed>false</horizontalSlownessUsed><backazimuthUsed>false</backazimuthUsed><weight>1</weight></arrival><arrival><pickID>de.gempa.tb1.Pick/20250411153030.447627.118480</pickID><phase>P</phase><azimuth>140.92532348632812</azimuth><distance>1.1066044569015503</distance><timeResidual>0.3244051933288574</timeResidual><timeUsed>true</timeUsed><horizontalSlownessUsed>false</horizontalSlownessUsed><backazimuthUsed>false</backazimuthUsed><weight>1</weight></arrival><arrival><pickID>de.gempa.tb1.Pick/20250411153041.807709.118485</pickID><phase>S</phase><azimuth>354.71258544921875</azimuth><distance>1.3363330364227295</distance><timeResidual>-0.038246631622314453</timeResidual><timeUsed>true</timeUsed><horizontalSlownessUsed>false</horizontalSlownessUsed><backazimuthUsed>false</backazimuthUsed><weight>1</weight></arrival><magnitude publicID="de.gempa.tb1.Magnitude/20250411153050.939032.114341"><magnitude><value>1.9073513986094432</value></magnitude><type>M</type><methodID>weighted average</methodID><stationCount>6</stationCount></magnitude></origin><event publicID="gempa2025hdxf"><preferredOriginID>de.gempa.tb1.Origin/20250411153041.811237.59278</preferredOriginID><preferredMagnitudeID>de.gempa.tb1.Magnitude/20250411153050.939032.114341</preferredMagnitudeID><description><text>Northern Chile</text><type>region name</type></description><originReference>de.gempa.tb1.Origin/20250411153041.811237.59278</originReference></event></EventParameters></seiscomp>