<?xml version="1.0" encoding="UTF-8"?>
<seiscomp xmlns="http://geofon.gfz-potsdam.de/ns/seiscomp3-schema/0.13" version="0.13"><EventParameters><pick publicID="de.gempa.tb1.Pick/20250415065650.618892.117775"><time><value>2025-04-15T06:56:45.888393Z</value></time><waveformID networkCode="CX" stationCode="PB06" channelCode="HHZ"/><filterID>ITAPER(4)&gt;&gt;BW(4,4,20)</filterID><methodID>AIC</methodID><horizontalSlowness><value>19.949608521635412</value></horizontalSlowness><backazimuth><value>129.63258515188949</value></backazimuth><phaseHint>P</phaseHint><evaluationMode>automatic</evaluationMode><comment><text>85.31324869865001</text><id>DFX:rectilinearity</id></comment><comment><text>86.75858217280803</text><id>SNR</id></comment></pick><pick publicID="de.gempa.tb1.Pick/20250415065651.172437.117777"><time><value>2025-04-15T06:56:44.94Z</value></time><waveformID networkCode="CX" stationCode="PB10" channelCode="HHZ"/><filterID>ITAPER(4)&gt;&gt;BW(4,4,20)</filterID><methodID>AIC</methodID><horizontalSlowness><value>9.797262677394709</value></horizontalSlowness><backazimuth><value>76.95270573585418</value></backazimuth><phaseHint>P</phaseHint><evaluationMode>automatic</evaluationMode><comment><text>94.44600625743081</text><id>DFX:rectilinearity</id></comment><comment><text>53.37868449250294</text><id>SNR</id></comment></pick><pick publicID="de.gempa.tb1.Pick/20250415065653.455494.117779"><time><value>2025-04-15T06:56:46.848393Z</value></time><waveformID networkCode="CX" stationCode="PB15" channelCode="HHZ"/><filterID>ITAPER(4)&gt;&gt;BW(4,4,20)</filterID><methodID>AIC</methodID><horizontalSlowness><value>18.642268787191693</value></horizontalSlowness><backazimuth><value>93.28380064464953</value></backazimuth><phaseHint>P</phaseHint><evaluationMode>automatic</evaluationMode><comment><text>602.0712528370152</text><id>DFX:rectilinearity</id></comment><comment><text>51.17292860605013</text><id>SNR</id></comment></pick><pick publicID="de.gempa.tb1.Pick/20250415065657.580899.117781"><time><value>2025-04-15T06:56:51.268393Z</value></time><waveformID networkCode="CX" stationCode="PB03" channelCode="HHZ"/><filterID>ITAPER(4)&gt;&gt;BW(4,4,20)</filterID><methodID>AIC</methodID><horizontalSlowness><value>9.799176236818617</value></horizontalSlowness><backazimuth><value>202.57056479861907</value></backazimuth><phaseHint>P</phaseHint><evaluationMode>automatic</evaluationMode><comment><text>50.18520055115928</text><id>DFX:rectilinearity</id></comment><comment><text>40.65863617535092</text><id>SNR</id></comment></pick><pick publicID="de.gempa.tb1.Pick/20250415065703.588086.117783"><time><value>2025-04-15T06:56:55.56Z</value></time><waveformID networkCode="CX" stationCode="PB19" channelCode="HHZ"/><filterID>ITAPER(4)&gt;&gt;BW(4,4,20)</filterID><methodID>AIC</methodID><horizontalSlowness><value>19.382128995910076</value></horizontalSlowness><backazimuth><value>300.9508888110262</value></backazimuth><phaseHint>P</phaseHint><evaluationMode>automatic</evaluationMode><comment><text>14.94367786843979</text><id>DFX:rectilinearity</id></comment><comment><text>21.206212683216503</text><id>SNR</id></comment></pick><pick publicID="de.gempa.tb1.Pick/20250415065703.634967.117785"><time><value>2025-04-15T06:56:55.788393Z</value></time><waveformID networkCode="CX" stationCode="PB06" channelCode="HHN"/><filterID>ITAPER(2)&gt;&gt;BW(3,3,20)</filterID><methodID>L2-AIC-GRID</methodID><horizontalSlowness><value>21.530669837534543</value></horizontalSlowness><backazimuth><value>337.12656827652017</value></backazimuth><phaseHint>S</phaseHint><evaluationMode>automatic</evaluationMode><comment><text>1582.9791325650708</text><id>DFX:rectilinearity</id></comment><comment><text>de.gempa.tb1.Pick/20250415065650.618892.117775</text><id>RefPickID</id></comment><comment><text>12.573847574429402</text><id>SNR</id></comment></pick><pick publicID="de.gempa.tb1.Pick/20250415065703.898108.117786"><time><value>2025-04-15T06:56:57.218393Z</value></time><waveformID networkCode="CX" stationCode="PB15" channelCode="HHN"/><filterID>ITAPER(2)&gt;&gt;BW(3,3,20)</filterID><methodID>L2-AIC-GRID</methodID><horizontalSlowness><value>21.972754402717356</value></horizontalSlowness><backazimuth><value>140.96167405585547</value></backazimuth><phaseHint>S</phaseHint><evaluationMode>automatic</evaluationMode><comment><text>3957.496933260957</text><id>DFX:rectilinearity</id></comment><comment><text>de.gempa.tb1.Pick/20250415065653.455494.117779</text><id>RefPickID</id></comment><comment><text>8.080468990236071</text><id>SNR</id></comment></pick><pick publicID="de.gempa.tb1.Pick/20250415065705.573761.117787"><time><value>2025-04-15T06:57:00.238393Z</value></time><waveformID networkCode="CX" stationCode="PB02" channelCode="HHZ"/><filterID>ITAPER(4)&gt;&gt;BW(4,4,20)</filterID><methodID>AIC</methodID><horizontalSlowness><value>2.7045377585005004</value></horizontalSlowness><backazimuth><value>256.92253911045714</value></backazimuth><phaseHint>P</phaseHint><evaluationMode>automatic</evaluationMode><comment><text>43.48361517772981</text><id>DFX:rectilinearity</id></comment><comment><text>14.719944313104454</text><id>SNR</id></comment></pick><pick publicID="de.gempa.tb1.Pick/20250415065711.545536.117791"><time><value>2025-04-15T06:57:05.538393Z</value></time><waveformID networkCode="CX" stationCode="PB03" channelCode="HHN"/><filterID>ITAPER(2)&gt;&gt;BW(3,3,20)</filterID><methodID>L2-AIC-GRID</methodID><horizontalSlowness><value>21.28380181537592</value></horizontalSlowness><backazimuth><value>98.40548959266108</value></backazimuth><phaseHint>S</phaseHint><evaluationMode>automatic</evaluationMode><comment><text>242.097312143992</text><id>DFX:rectilinearity</id></comment><comment><text>de.gempa.tb1.Pick/20250415065657.580899.117781</text><id>RefPickID</id></comment><comment><text>6.26517525142402</text><id>SNR</id></comment></pick><pick publicID="de.gempa.tb1.Pick/20250415065714.590729.117792"><time><value>2025-04-15T06:57:05.668393Z</value></time><waveformID networkCode="CX" stationCode="PB01" channelCode="HHZ"/><filterID>ITAPER(4)&gt;&gt;BW(4,4,20)</filterID><methodID>AIC</methodID><horizontalSlowness><value>21.587139130053963</value></horizontalSlowness><backazimuth><value>210.34519448689832</value></backazimuth><phaseHint>P</phaseHint><evaluationMode>automatic</evaluationMode><comment><text>9.654593925623747</text><id>DFX:rectilinearity</id></comment><comment><text>8.840337463830567</text><id>SNR</id></comment></pick><origin publicID="de.gempa.tb1.Origin/20250415065715.770315.56329"><time><value>2025-04-15T06:56:32.716536Z</value><uncertainty>0.6033222675323486</uncertainty></time><latitude><value>-22.966230392456055</value><uncertainty>2.9624996185302734</uncertainty></latitude><longitude><value>-70.2437744140625</value><uncertainty>3.91545033454895</uncertainty></longitude><depth><value>23.310834884643555</value><uncertainty>7.925248146057129</uncertainty></depth><depthType>from location</depthType><methodID>LOCSAT</methodID><earthModelID>iasp91_scanloc</earthModelID><quality><associatedPhaseCount>10</associatedPhaseCount><usedPhaseCount>10</usedPhaseCount><associatedStationCount>7</associatedStationCount><usedStationCount>7</usedStationCount><depthPhaseCount>0</depthPhaseCount><standardError>0.28883309137805274</standardError><azimuthalGap>163.60169506072998</azimuthalGap><maximumDistance>2.0383679866790771</maximumDistance><minimumDistance>0.6149207353591919</minimumDistance><medianDistance>1.0198941230773926</medianDistance></quality><uncertainty><minHorizontalUncertainty>6.074949741363525</minHorizontalUncertainty><maxHorizontalUncertainty>8.598448753356934</maxHorizontalUncertainty><azimuthMaxHorizontalUncertainty>107.76351928710938</azimuthMaxHorizontalUncertainty><preferredDescription>horizontal uncertainty</preferredDescription></uncertainty><evaluationMode>automatic</evaluationMode><evaluationStatus>confirmed</evaluationStatus><comment><text>0.16</text><id>mismatchScore</id></comment><comment><text>mismatchScore</text><id>scevalMethod</id></comment><arrival><pickID>de.gempa.tb1.Pick/20250415065650.618892.117775</pickID><phase>P</phase><azimuth>67.43643188476562</azimuth><distance>0.6718710064888</distance><timeResidual>0.11441516876220703</timeResidual><timeUsed>true</timeUsed><horizontalSlownessUsed>false</horizontalSlownessUsed><backazimuthUsed>false</backazimuthUsed><weight>1</weight></arrival><arrival><pickID>de.gempa.tb1.Pick/20250415065651.172437.117777</pickID><phase>P</phase><azimuth>207.59512329101562</azimuth><distance>0.6149207353591919</distance><timeResidual>0.12946128845214844</timeResidual><timeUsed>true</timeUsed><horizontalSlownessUsed>false</horizontalSlownessUsed><backazimuthUsed>false</backazimuthUsed><weight>1</weight></arrival><arrival><pickID>de.gempa.tb1.Pick/20250415065653.455494.117779</pickID><phase>P</phase><azimuth>108.8565902709961</azimuth><distance>0.75137859582901</distance><timeResidual>-0.28089427947998047</timeResidual><timeUsed>true</timeUsed><horizontalSlownessUsed>false</horizontalSlownessUsed><backazimuthUsed>false</backazimuthUsed><weight>1</weight></arrival><arrival><pickID>de.gempa.tb1.Pick/20250415065657.580899.117781</pickID><phase>P</phase><azimuth>26.51030731201172</azimuth><distance>1.0198941230773926</distance><timeResidual>-0.2427845001220703</timeResidual><timeUsed>true</timeUsed><horizontalSlownessUsed>false</horizontalSlownessUsed><backazimuthUsed>false</backazimuthUsed><weight>1</weight></arrival><arrival><pickID>de.gempa.tb1.Pick/20250415065703.588086.117783</pickID><phase>P</phase><azimuth>137.0489501953125</azimuth><distance>1.280288815498352</distance><timeResidual>0.4036579132080078</timeResidual><timeUsed>true</timeUsed><horizontalSlownessUsed>false</horizontalSlownessUsed><backazimuthUsed>false</backazimuthUsed><weight>1</weight></arrival><arrival><pickID>de.gempa.tb1.Pick/20250415065703.634967.117785</pickID><phase>S</phase><azimuth>67.43643188476562</azimuth><distance>0.6718710064888</distance><timeResidual>0.4925594329833984</timeResidual><timeUsed>true</timeUsed><horizontalSlownessUsed>false</horizontalSlownessUsed><backazimuthUsed>false</backazimuthUsed><weight>1</weight></arrival><arrival><pickID>de.gempa.tb1.Pick/20250415065703.898108.117786</pickID><phase>S</phase><azimuth>108.8565902709961</azimuth><distance>0.75137859582901</distance><timeResidual>-0.4152994155883789</timeResidual><timeUsed>true</timeUsed><horizontalSlownessUsed>false</horizontalSlownessUsed><backazimuthUsed>false</backazimuthUsed><weight>1</weight></arrival><arrival><pickID>de.gempa.tb1.Pick/20250415065705.573761.117787</pickID><phase>P</phase><azimuth>11.196818351745605</azimuth><distance>1.669998288154602</distance><timeResidual>-0.28838062286376953</timeResidual><timeUsed>true</timeUsed><horizontalSlownessUsed>false</horizontalSlownessUsed><backazimuthUsed>false</backazimuthUsed><weight>1</weight></arrival><arrival><pickID>de.gempa.tb1.Pick/20250415065711.545536.117791</pickID><phase>S</phase><azimuth>26.51030731201172</azimuth><distance>1.0198941230773926</distance><timeResidual>0.01586437225341797</timeResidual><timeUsed>true</timeUsed><horizontalSlownessUsed>false</horizontalSlownessUsed><backazimuthUsed>false</backazimuthUsed><weight>1</weight></arrival><arrival><pickID>de.gempa.tb1.Pick/20250415065714.590729.117792</pickID><phase>P</phase><azimuth>20.284692764282227</azimuth><distance>2.0383679866790771</distance><timeResidual>0.07145214080810547</timeResidual><timeUsed>true</timeUsed><horizontalSlownessUsed>false</horizontalSlownessUsed><backazimuthUsed>false</backazimuthUsed><weight>1</weight></arrival><magnitude publicID="de.gempa.tb1.Magnitude/20250415065716.54947.99995"><magnitude><value>2.3406726402617934</value></magnitude><type>M</type><methodID>weighted average</methodID><stationCount>7</stationCount></magnitude></origin><event publicID="gempa2025hkqe"><preferredOriginID>de.gempa.tb1.Origin/20250415065715.770315.56329</preferredOriginID><preferredMagnitudeID>de.gempa.tb1.Magnitude/20250415065716.54947.99995</preferredMagnitudeID><description><text>Near Coast of Northern Chile</text><type>region name</type></description><originReference>de.gempa.tb1.Origin/20250415065715.770315.56329</originReference></event></EventParameters></seiscomp>