<?xml version="1.0" encoding="UTF-8"?>
<seiscomp xmlns="http://geofon.gfz-potsdam.de/ns/seiscomp3-schema/0.13" version="0.13"><EventParameters><pick publicID="de.gempa.tb1.Pick/20250413064116.525127.129531"><time><value>2025-04-13T06:41:10.36Z</value></time><waveformID networkCode="CX" stationCode="PB19" channelCode="HHZ"/><filterID>ITAPER(4)&gt;&gt;BW(4,4,20)</filterID><methodID>AIC</methodID><horizontalSlowness><value>17.76722054460533</value></horizontalSlowness><backazimuth><value>151.60524741666214</value></backazimuth><phaseHint>P</phaseHint><evaluationMode>automatic</evaluationMode><comment><text>225.04687885267714</text><id>DFX:rectilinearity</id></comment><comment><text>131.99821257734095</text><id>SNR</id></comment></pick><pick publicID="de.gempa.tb1.Pick/20250413064133.633632.129533"><time><value>2025-04-13T06:41:25.048393Z</value></time><waveformID networkCode="CX" stationCode="PB06" channelCode="HHZ"/><filterID>ITAPER(4)&gt;&gt;BW(4,4,20)</filterID><methodID>AIC</methodID><horizontalSlowness><value>11.827837026079628</value></horizontalSlowness><backazimuth><value>257.123146449044</value></backazimuth><phaseHint>P</phaseHint><evaluationMode>automatic</evaluationMode><comment><text>54.03012027944302</text><id>DFX:rectilinearity</id></comment><comment><text>15.003064793149026</text><id>SNR</id></comment></pick><pick publicID="de.gempa.tb1.Pick/20250413064136.689637.129535"><time><value>2025-04-13T06:41:29.63Z</value></time><waveformID networkCode="CX" stationCode="PB19" channelCode="HHN"/><filterID>ITAPER(2)&gt;&gt;BW(3,3,20)</filterID><methodID>L2-AIC-GRID</methodID><horizontalSlowness><value>18.43974138748452</value></horizontalSlowness><backazimuth><value>76.55594696671623</value></backazimuth><phaseHint>S</phaseHint><evaluationMode>automatic</evaluationMode><comment><text>2374.9312053034173</text><id>DFX:rectilinearity</id></comment><comment><text>de.gempa.tb1.Pick/20250413064116.525127.129531</text><id>RefPickID</id></comment><comment><text>15.0698461652996</text><id>SNR</id></comment></pick><pick publicID="de.gempa.tb1.Pick/20250413064140.57749.129536"><time><value>2025-04-13T06:41:33.518393Z</value></time><waveformID networkCode="CX" stationCode="PB03" channelCode="HHZ"/><filterID>ITAPER(4)&gt;&gt;BW(4,4,20)</filterID><methodID>AIC</methodID><horizontalSlowness><value>9.965828003734792</value></horizontalSlowness><backazimuth><value>172.7637310585505</value></backazimuth><phaseHint>P</phaseHint><evaluationMode>automatic</evaluationMode><comment><text>10.32619957768839</text><id>DFX:rectilinearity</id></comment><comment><text>12.158186349219582</text><id>SNR</id></comment></pick><pick publicID="de.gempa.tb1.Pick/20250413064143.65916.129539"><time><value>2025-04-13T06:41:37.15Z</value></time><waveformID networkCode="CX" stationCode="PB09" channelCode="HHZ"/><filterID>ITAPER(4)&gt;&gt;BW(4,4,20)</filterID><methodID>AIC</methodID><horizontalSlowness><value>11.97256193076177</value></horizontalSlowness><backazimuth><value>254.7521847514967</value></backazimuth><phaseHint>P</phaseHint><evaluationMode>automatic</evaluationMode><comment><text>12.793249223115172</text><id>DFX:rectilinearity</id></comment><comment><text>28.445161070855296</text><id>SNR</id></comment></pick><pick publicID="de.gempa.tb1.Pick/20250413064149.608178.129541"><time><value>2025-04-13T06:41:42.568393Z</value></time><waveformID networkCode="CX" stationCode="PB02" channelCode="HHZ"/><filterID>ITAPER(4)&gt;&gt;BW(4,4,20)</filterID><methodID>AIC</methodID><horizontalSlowness><value>12.080789564896998</value></horizontalSlowness><backazimuth><value>59.92885398554797</value></backazimuth><phaseHint>P</phaseHint><evaluationMode>automatic</evaluationMode><comment><text>32.416974870920946</text><id>DFX:rectilinearity</id></comment><comment><text>10.347997957153815</text><id>SNR</id></comment></pick><pick publicID="de.gempa.tb1.Pick/20250413064152.701851.129543"><time><value>2025-04-13T06:41:45.558393Z</value></time><waveformID networkCode="CX" stationCode="PB01" channelCode="HHZ"/><filterID>ITAPER(4)&gt;&gt;BW(4,4,20)</filterID><methodID>AIC</methodID><horizontalSlowness><value>22.740788300442407</value></horizontalSlowness><backazimuth><value>37.370253554621854</value></backazimuth><phaseHint>P</phaseHint><evaluationMode>automatic</evaluationMode><comment><text>7.361801269947096</text><id>DFX:rectilinearity</id></comment><comment><text>11.56527221066799</text><id>SNR</id></comment></pick><pick publicID="de.gempa.tb1.Pick/20250413064209.062158.129548"><time><value>2025-04-13T06:41:37.158393Z</value></time><waveformID networkCode="CX" stationCode="PB07" channelCode="HHZ"/><filterID>ITAPER(4)&gt;&gt;BW(4,4,20)</filterID><methodID>AIC</methodID><horizontalSlowness><value>21.02225762618189</value></horizontalSlowness><backazimuth><value>58.6168257883552</value></backazimuth><phaseHint>P</phaseHint><evaluationMode>automatic</evaluationMode><comment><text>231.93963448900476</text><id>DFX:rectilinearity</id></comment><comment><text>15.76392713335567</text><id>SNR</id></comment></pick><pick publicID="de.gempa.tb1.Pick/20250413064219.607376.129551"><time><value>2025-04-13T06:42:10.798393Z</value></time><waveformID networkCode="CX" stationCode="PB03" channelCode="HHN"/><filterID>ITAPER(2)&gt;&gt;BW(3,3,20)</filterID><methodID>L2-AIC-GRID</methodID><horizontalSlowness><value>23.30234714611895</value></horizontalSlowness><backazimuth><value>316.4995966729105</value></backazimuth><phaseHint>S</phaseHint><evaluationMode>automatic</evaluationMode><comment><text>24.974875199000234</text><id>DFX:rectilinearity</id></comment><comment><text>de.gempa.tb1.Pick/20250413064140.57749.129536</text><id>RefPickID</id></comment><comment><text>5.049100410416028</text><id>SNR</id></comment></pick><origin publicID="de.gempa.tb1.Origin/20250413064219.616242.103383"><time><value>2025-04-13T06:40:44.101791Z</value><uncertainty>1.0173485279083252</uncertainty></time><latitude><value>-25.10660934448242</value><uncertainty>14.753596305847168</uncertainty></latitude><longitude><value>-70.10752868652344</value><uncertainty>10.34310245513916</uncertainty></longitude><depth><value>7.483332633972168</value><uncertainty>18.499536514282227</uncertainty></depth><depthType>from location</depthType><methodID>LOCSAT</methodID><earthModelID>iasp91_scanloc</earthModelID><quality><associatedPhaseCount>9</associatedPhaseCount><usedPhaseCount>9</usedPhaseCount><associatedStationCount>7</associatedStationCount><usedStationCount>7</usedStationCount><depthPhaseCount>0</depthPhaseCount><standardError>0.5815191814560645</standardError><azimuthalGap>330.9493193626404</azimuthalGap><maximumDistance>4.0845799446105957</maximumDistance><minimumDistance>1.4090465307235718</minimumDistance><medianDistance>3.06148624420166</medianDistance></quality><uncertainty><minHorizontalUncertainty>20.117460250854492</minHorizontalUncertainty><maxHorizontalUncertainty>32.99112319946289</maxHorizontalUncertainty><azimuthMaxHorizontalUncertainty>20.937828063964844</azimuthMaxHorizontalUncertainty><preferredDescription>horizontal uncertainty</preferredDescription></uncertainty><evaluationMode>automatic</evaluationMode><evaluationStatus>confirmed</evaluationStatus><comment><text>0.29</text><id>mismatchScore</id></comment><comment><text>mismatchScore</text><id>scevalMethod</id></comment><arrival><pickID>de.gempa.tb1.Pick/20250413064116.525127.129531</pickID><phase>P</phase><azimuth>32.047779083251953</azimuth><distance>1.4090465307235718</distance><timeResidual>0.2437305450439453</timeResidual><timeUsed>true</timeUsed><horizontalSlownessUsed>false</horizontalSlownessUsed><backazimuthUsed>false</backazimuthUsed><weight>1</weight></arrival><arrival><pickID>de.gempa.tb1.Pick/20250413064133.633632.129533</pickID><phase>P</phase><azimuth>11.700648307800293</azimuth><distance>2.439728021621704</distance><timeResidual>0.7465744018554688</timeResidual><timeUsed>true</timeUsed><horizontalSlownessUsed>false</horizontalSlownessUsed><backazimuthUsed>false</backazimuthUsed><weight>1</weight></arrival><arrival><pickID>de.gempa.tb1.Pick/20250413064136.689637.129535</pickID><phase>S</phase><azimuth>32.047779083251953</azimuth><distance>1.4090465307235718</distance><timeResidual>-0.13314056396484375</timeResidual><timeUsed>true</timeUsed><horizontalSlownessUsed>false</horizontalSlownessUsed><backazimuthUsed>false</backazimuthUsed><weight>1</weight></arrival><arrival><pickID>de.gempa.tb1.Pick/20250413064140.57749.129536</pickID><phase>P</phase><azimuth>6.168668270111084</azimuth><distance>3.06148624420166</distance><timeResidual>0.6597137451171875</timeResidual><timeUsed>true</timeUsed><horizontalSlownessUsed>false</horizontalSlownessUsed><backazimuthUsed>false</backazimuthUsed><weight>1</weight></arrival><arrival><pickID>de.gempa.tb1.Pick/20250413064143.65916.129539</pickID><phase>P</phase><azimuth>13.73710536956787</azimuth><distance>3.389538288116455</distance><timeResidual>-0.22245407104492188</timeResidual><timeUsed>true</timeUsed><horizontalSlownessUsed>false</horizontalSlownessUsed><backazimuthUsed>false</backazimuthUsed><weight>1</weight></arrival><arrival><pickID>de.gempa.tb1.Pick/20250413064149.608178.129541</pickID><phase>P</phase><azimuth>2.997098445892334</azimuth><distance>3.7743704319000244</distance><timeResidual>-0.0988922119140625</timeResidual><timeUsed>true</timeUsed><horizontalSlownessUsed>false</horizontalSlownessUsed><backazimuthUsed>false</backazimuthUsed><weight>1</weight></arrival><arrival><pickID>de.gempa.tb1.Pick/20250413064152.701851.129543</pickID><phase>P</phase><azimuth>8.159958839416504</azimuth><distance>4.0845799446105957</distance><timeResidual>-1.376361846923828</timeResidual><timeUsed>true</timeUsed><horizontalSlownessUsed>false</horizontalSlownessUsed><backazimuthUsed>false</backazimuthUsed><weight>1</weight></arrival><arrival><pickID>de.gempa.tb1.Pick/20250413064209.062158.129548</pickID><phase>P</phase><azimuth>3.5028324127197266</azimuth><distance>3.370548725128174</distance><timeResidual>0.04704666137695312</timeResidual><timeUsed>true</timeUsed><horizontalSlownessUsed>false</horizontalSlownessUsed><backazimuthUsed>false</backazimuthUsed><weight>1</weight></arrival><arrival><pickID>de.gempa.tb1.Pick/20250413064219.607376.129551</pickID><phase>S</phase><azimuth>6.168668270111084</azimuth><distance>3.06148624420166</distance><timeResidual>0.1338043212890625</timeResidual><timeUsed>true</timeUsed><horizontalSlownessUsed>false</horizontalSlownessUsed><backazimuthUsed>false</backazimuthUsed><weight>1</weight></arrival><magnitude publicID="de.gempa.tb1.Magnitude/20250413064219.621405.324711"><magnitude><value>3.162069713726998</value></magnitude><type>M</type><methodID>weighted average</methodID><stationCount>6</stationCount></magnitude></origin><event publicID="gempa2025hgxp"><preferredOriginID>de.gempa.tb1.Origin/20250413064219.616242.103383</preferredOriginID><preferredMagnitudeID>de.gempa.tb1.Magnitude/20250413064219.621405.324711</preferredMagnitudeID><description><text>Near Coast of Northern Chile</text><type>region name</type></description><originReference>de.gempa.tb1.Origin/20250413064219.616242.103383</originReference></event></EventParameters></seiscomp>