<?xml version="1.0" encoding="UTF-8"?>
<seiscomp xmlns="http://geofon.gfz-potsdam.de/ns/seiscomp3-schema/0.13" version="0.13"><EventParameters><pick publicID="de.gempa.tb1.Pick/20250411212232.266414.120090"><time><value>2025-04-11T21:22:24.709999Z</value></time><waveformID networkCode="CX" stationCode="PATCX" channelCode="HHZ"/><filterID>ITAPER(4)&gt;&gt;BW(4,4,20)</filterID><methodID>AIC</methodID><horizontalSlowness><value>15.458424620929494</value></horizontalSlowness><backazimuth><value>276.0232041351888</value></backazimuth><phaseHint>P</phaseHint><evaluationMode>automatic</evaluationMode><comment><text>325.4841338431075</text><id>DFX:rectilinearity</id></comment><comment><text>16.36727633527618</text><id>SNR</id></comment></pick><pick publicID="de.gempa.tb1.Pick/20250411212236.558121.120092"><time><value>2025-04-11T21:22:31.61Z</value></time><waveformID networkCode="CX" stationCode="PSGCX" channelCode="HHZ"/><filterID>ITAPER(4)&gt;&gt;BW(4,4,20)</filterID><methodID>AIC</methodID><horizontalSlowness><value>11.102818714272621</value></horizontalSlowness><backazimuth><value>230.61050860778207</value></backazimuth><phaseHint>P</phaseHint><evaluationMode>automatic</evaluationMode><comment><text>30.946142908378285</text><id>DFX:rectilinearity</id></comment><comment><text>27.680591411069834</text><id>SNR</id></comment></pick><pick publicID="de.gempa.tb1.Pick/20250411212240.43905.120094"><time><value>2025-04-11T21:22:32.559999Z</value></time><waveformID networkCode="CX" stationCode="PATCX" channelCode="HHN"/><filterID>ITAPER(2)&gt;&gt;BW(3,3,20)</filterID><methodID>L2-AIC-GRID</methodID><horizontalSlowness><value>22.531860761149147</value></horizontalSlowness><backazimuth><value>53.58250935336044</value></backazimuth><phaseHint>S</phaseHint><evaluationMode>automatic</evaluationMode><comment><text>1482.6560273812345</text><id>DFX:rectilinearity</id></comment><comment><text>de.gempa.tb1.Pick/20250411212232.266414.120090</text><id>RefPickID</id></comment><comment><text>7.20499615539199</text><id>SNR</id></comment></pick><pick publicID="de.gempa.tb1.Pick/20250411212241.609735.120095"><time><value>2025-04-11T21:22:33.398393Z</value></time><waveformID networkCode="CX" stationCode="PB02" channelCode="HHZ"/><filterID>ITAPER(4)&gt;&gt;BW(4,4,20)</filterID><methodID>AIC</methodID><horizontalSlowness><value>7.165118129599312</value></horizontalSlowness><backazimuth><value>18.340342134852904</value></backazimuth><phaseHint>P</phaseHint><evaluationMode>automatic</evaluationMode><comment><text>219.373307073916</text><id>DFX:rectilinearity</id></comment><comment><text>24.454422517426593</text><id>SNR</id></comment></pick><pick publicID="de.gempa.tb1.Pick/20250411212242.569866.120097"><time><value>2025-04-11T21:22:34.988393Z</value></time><waveformID networkCode="CX" stationCode="PB01" channelCode="HHZ"/><filterID>ITAPER(4)&gt;&gt;BW(4,4,20)</filterID><methodID>AIC</methodID><horizontalSlowness><value>16.547935085178644</value></horizontalSlowness><backazimuth><value>303.0574047891408</value></backazimuth><phaseHint>P</phaseHint><evaluationMode>automatic</evaluationMode><comment><text>37.09439361157365</text><id>DFX:rectilinearity</id></comment><comment><text>48.1735756359413</text><id>SNR</id></comment></pick><pick publicID="de.gempa.tb1.Pick/20250411212253.774638.120099"><time><value>2025-04-11T21:22:45.33Z</value></time><waveformID networkCode="CX" stationCode="PSGCX" channelCode="HHN"/><filterID>ITAPER(2)&gt;&gt;BW(3,3,20)</filterID><methodID>L2-AIC-GRID</methodID><horizontalSlowness><value>22.227144785339334</value></horizontalSlowness><backazimuth><value>356.6618454889098</value></backazimuth><phaseHint>S</phaseHint><evaluationMode>automatic</evaluationMode><comment><text>241.24854669387705</text><id>DFX:rectilinearity</id></comment><comment><text>de.gempa.tb1.Pick/20250411212236.558121.120092</text><id>RefPickID</id></comment><comment><text>5.471541811737071</text><id>SNR</id></comment></pick><pick publicID="de.gempa.tb1.Pick/20250411212254.533899.120100"><time><value>2025-04-11T21:22:47.758393Z</value></time><waveformID networkCode="CX" stationCode="PB02" channelCode="HHN"/><filterID>ITAPER(2)&gt;&gt;BW(3,3,20)</filterID><methodID>L2-AIC-GRID</methodID><horizontalSlowness><value>21.647159963364622</value></horizontalSlowness><backazimuth><value>91.78569370001438</value></backazimuth><phaseHint>S</phaseHint><evaluationMode>automatic</evaluationMode><comment><text>2233.6180565114983</text><id>DFX:rectilinearity</id></comment><comment><text>de.gempa.tb1.Pick/20250411212241.609735.120095</text><id>RefPickID</id></comment><comment><text>6.985791787974215</text><id>SNR</id></comment></pick><pick publicID="de.gempa.tb1.Pick/20250411212259.058344.120102"><time><value>2025-04-11T21:22:50.508393Z</value></time><waveformID networkCode="CX" stationCode="PB01" channelCode="HHN"/><filterID>ITAPER(2)&gt;&gt;BW(3,3,20)</filterID><methodID>L2-AIC-GRID</methodID><horizontalSlowness><value>23.457635933543763</value></horizontalSlowness><backazimuth><value>189.99563894808142</value></backazimuth><phaseHint>S</phaseHint><evaluationMode>automatic</evaluationMode><comment><text>400.08495272370243</text><id>DFX:rectilinearity</id></comment><comment><text>de.gempa.tb1.Pick/20250411212242.569866.120097</text><id>RefPickID</id></comment><comment><text>5.144975970121396</text><id>SNR</id></comment></pick><pick publicID="de.gempa.tb1.Pick/20250411212304.777125.120104"><time><value>2025-04-11T21:22:45.71Z</value></time><waveformID networkCode="CX" stationCode="PB09" channelCode="HHZ"/><filterID>ITAPER(4)&gt;&gt;BW(4,4,20)</filterID><methodID>AIC</methodID><horizontalSlowness><value>11.02026053677398</value></horizontalSlowness><backazimuth><value>309.12891943526643</value></backazimuth><phaseHint>P</phaseHint><evaluationMode>automatic</evaluationMode><comment><text>11.618934158910486</text><id>DFX:rectilinearity</id></comment><comment><text>9.465023795239171</text><id>SNR</id></comment></pick><pick publicID="de.gempa.tb1.Pick/20250411212321.927951.120107"><time><value>2025-04-11T21:22:38.318389Z</value></time><waveformID networkCode="CX" stationCode="PB07" channelCode="HHZ"/><filterID>ITAPER(4)&gt;&gt;BW(4,4,20)</filterID><methodID>AIC</methodID><horizontalSlowness><value>20.665811801889951</value></horizontalSlowness><backazimuth><value>50.32826706898882</value></backazimuth><phaseHint>P</phaseHint><evaluationMode>automatic</evaluationMode><comment><text>171.38066226661218</text><id>DFX:rectilinearity</id></comment><comment><text>21.12725901378325</text><id>SNR</id></comment></pick><origin publicID="de.gempa.tb1.Origin/20250411212321.931577.65940"><time><value>2025-04-11T21:22:14.41365Z</value><uncertainty>0.9171676635742188</uncertainty></time><latitude><value>-20.460615158081055</value><uncertainty>2.6873676776885986</uncertainty></latitude><longitude><value>-70.54393005371094</value><uncertainty>7.055867671966553</uncertainty></longitude><depth><value>21.229257583618164</value><uncertainty>6.636153221130371</uncertainty></depth><depthType>from location</depthType><methodID>LOCSAT</methodID><earthModelID>iasp91_scanloc</earthModelID><quality><associatedPhaseCount>10</associatedPhaseCount><usedPhaseCount>10</usedPhaseCount><associatedStationCount>6</associatedStationCount><usedStationCount>6</usedStationCount><depthPhaseCount>0</depthPhaseCount><standardError>0.5587792134821175</standardError><azimuthalGap>230.68220138549805</azimuthalGap><maximumDistance>1.8011107444763184</maximumDistance><minimumDistance>0.5123516917228699</minimumDistance><medianDistance>1.0477240085601807</medianDistance></quality><uncertainty><minHorizontalUncertainty>5.132600784301758</minHorizontalUncertainty><maxHorizontalUncertainty>15.35644817352295</maxHorizontalUncertainty><azimuthMaxHorizontalUncertainty>79.56742858886719</azimuthMaxHorizontalUncertainty><preferredDescription>horizontal uncertainty</preferredDescription></uncertainty><evaluationMode>automatic</evaluationMode><evaluationStatus>confirmed</evaluationStatus><comment><text>0.10</text><id>mismatchScore</id></comment><comment><text>mismatchScore</text><id>scevalMethod</id></comment><arrival><pickID>de.gempa.tb1.Pick/20250411212232.266414.120090</pickID><phase>P</phase><azimuth>134.43759155273438</azimuth><distance>0.5123516917228699</distance><timeResidual>-0.038188934326171875</timeResidual><timeUsed>true</timeUsed><horizontalSlownessUsed>false</horizontalSlownessUsed><backazimuthUsed>false</backazimuthUsed><weight>1</weight></arrival><arrival><pickID>de.gempa.tb1.Pick/20250411212236.558121.120092</pickID><phase>P</phase><azimuth>24.80704879760742</azimuth><distance>0.9457811713218689</distance><timeResidual>-0.4977569580078125</timeResidual><timeUsed>true</timeUsed><horizontalSlownessUsed>false</horizontalSlownessUsed><backazimuthUsed>false</backazimuthUsed><weight>1</weight></arrival><arrival><pickID>de.gempa.tb1.Pick/20250411212240.43905.120094</pickID><phase>S</phase><azimuth>134.43759155273438</azimuth><distance>0.5123516917228699</distance><timeResidual>0.2870330810546875</timeResidual><timeUsed>true</timeUsed><horizontalSlownessUsed>false</horizontalSlownessUsed><backazimuthUsed>false</backazimuthUsed><weight>1</weight></arrival><arrival><pickID>de.gempa.tb1.Pick/20250411212241.609735.120095</pickID><phase>P</phase><azimuth>144.78817749023438</azimuth><distance>1.0477240085601807</distance><timeResidual>-0.35251617431640625</timeResidual><timeUsed>true</timeUsed><horizontalSlownessUsed>false</horizontalSlownessUsed><backazimuthUsed>false</backazimuthUsed><weight>1</weight></arrival><arrival><pickID>de.gempa.tb1.Pick/20250411212242.569866.120097</pickID><phase>P</phase><azimuth>120.56585693359375</azimuth><distance>1.1462030410766602</distance><timeResidual>-0.21226787567138672</timeResidual><timeUsed>true</timeUsed><horizontalSlownessUsed>false</horizontalSlownessUsed><backazimuthUsed>false</backazimuthUsed><weight>1</weight></arrival><arrival><pickID>de.gempa.tb1.Pick/20250411212253.774638.120099</pickID><phase>S</phase><azimuth>24.80704879760742</azimuth><distance>0.9457811713218689</distance><timeResidual>0.2635231018066406</timeResidual><timeUsed>true</timeUsed><horizontalSlownessUsed>false</horizontalSlownessUsed><backazimuthUsed>false</backazimuthUsed><weight>1</weight></arrival><arrival><pickID>de.gempa.tb1.Pick/20250411212254.533899.120100</pickID><phase>S</phase><azimuth>144.78817749023438</azimuth><distance>1.0477240085601807</distance><timeResidual>-0.2670555114746094</timeResidual><timeUsed>true</timeUsed><horizontalSlownessUsed>false</horizontalSlownessUsed><backazimuthUsed>false</backazimuthUsed><weight>1</weight></arrival><arrival><pickID>de.gempa.tb1.Pick/20250411212259.058344.120102</pickID><phase>S</phase><azimuth>120.56585693359375</azimuth><distance>1.1462030410766602</distance><timeResidual>-0.28650665283203125</timeResidual><timeUsed>true</timeUsed><horizontalSlownessUsed>false</horizontalSlownessUsed><backazimuthUsed>false</backazimuthUsed><weight>1</weight></arrival><arrival><pickID>de.gempa.tb1.Pick/20250411212304.777125.120104</pickID><phase>P</phase><azimuth>137.78738403320312</azimuth><distance>1.8011107444763184</distance><timeResidual>1.4976768493652344</timeResidual><timeUsed>true</timeUsed><horizontalSlownessUsed>false</horizontalSlownessUsed><backazimuthUsed>false</backazimuthUsed><weight>1</weight></arrival><arrival><pickID>de.gempa.tb1.Pick/20250411212321.927951.120107</pickID><phase>P</phase><azimuth>154.12484741210938</azimuth><distance>1.4015055894851685</distance><timeResidual>-0.3943643569946289</timeResidual><timeUsed>true</timeUsed><horizontalSlownessUsed>false</horizontalSlownessUsed><backazimuthUsed>false</backazimuthUsed><weight>1</weight></arrival><magnitude publicID="de.gempa.tb1.Magnitude/20250411212330.938752.143851"><magnitude><value>2.3708578622904457</value></magnitude><type>M</type><methodID>weighted average</methodID><stationCount>6</stationCount></magnitude></origin><event publicID="gempa2025heiy"><preferredOriginID>de.gempa.tb1.Origin/20250411212321.931577.65940</preferredOriginID><preferredMagnitudeID>de.gempa.tb1.Magnitude/20250411212330.938752.143851</preferredMagnitudeID><description><text>Near Coast of Northern Chile</text><type>region name</type></description><originReference>de.gempa.tb1.Origin/20250411212321.931577.65940</originReference></event></EventParameters></seiscomp>