<?xml version="1.0" encoding="UTF-8"?>
<seiscomp xmlns="http://geofon.gfz-potsdam.de/ns/seiscomp3-schema/0.13" version="0.13"><EventParameters><pick publicID="de.gempa.tb1.Pick/20250411181945.623808.119384"><time><value>2025-04-11T18:19:40.9Z</value></time><waveformID networkCode="CX" stationCode="PB19" channelCode="HHZ"/><filterID>ITAPER(4)&gt;&gt;BW(4,4,20)</filterID><methodID>AIC</methodID><horizontalSlowness><value>13.494712098546348</value></horizontalSlowness><backazimuth><value>177.521009786016</value></backazimuth><phaseHint>P</phaseHint><evaluationMode>automatic</evaluationMode><comment><text>637.9849430081887</text><id>DFX:rectilinearity</id></comment><comment><text>53.6369019687847</text><id>SNR</id></comment></pick><pick publicID="de.gempa.tb1.Pick/20250411181959.676874.119386"><time><value>2025-04-11T18:19:54.428393Z</value></time><waveformID networkCode="CX" stationCode="PB15" channelCode="HHZ"/><filterID>ITAPER(4)&gt;&gt;BW(4,4,20)</filterID><methodID>AIC</methodID><horizontalSlowness><value>22.711220436469073</value></horizontalSlowness><backazimuth><value>39.31495701383079</value></backazimuth><phaseHint>P</phaseHint><evaluationMode>automatic</evaluationMode><comment><text>650.4010251217529</text><id>DFX:rectilinearity</id></comment><comment><text>16.43987600748908</text><id>SNR</id></comment></pick><pick publicID="de.gempa.tb1.Pick/20250411182007.37973.119388"><time><value>2025-04-11T18:20:01.660001Z</value></time><waveformID networkCode="CX" stationCode="PB10" channelCode="HHZ"/><filterID>ITAPER(4)&gt;&gt;BW(4,4,20)</filterID><methodID>AIC</methodID><horizontalSlowness><value>11.805828291256542</value></horizontalSlowness><backazimuth><value>130.54070388810305</value></backazimuth><phaseHint>P</phaseHint><evaluationMode>automatic</evaluationMode><comment><text>342.3962294903701</text><id>DFX:rectilinearity</id></comment><comment><text>17.37023171841328</text><id>SNR</id></comment></pick><pick publicID="de.gempa.tb1.Pick/20250411182011.507719.119390"><time><value>2025-04-11T18:20:02.678393Z</value></time><waveformID networkCode="CX" stationCode="PB06" channelCode="HHZ"/><filterID>ITAPER(4)&gt;&gt;BW(4,4,20)</filterID><methodID>AIC</methodID><horizontalSlowness><value>16.79747386064534</value></horizontalSlowness><backazimuth><value>342.55561688595606</value></backazimuth><phaseHint>P</phaseHint><evaluationMode>automatic</evaluationMode><comment><text>73.59202686934528</text><id>DFX:rectilinearity</id></comment><comment><text>22.505575373138296</text><id>SNR</id></comment></pick><pick publicID="de.gempa.tb1.Pick/20250411182022.555669.119393"><time><value>2025-04-11T18:20:14.338393Z</value></time><waveformID networkCode="CX" stationCode="PB03" channelCode="HHZ"/><filterID>ITAPER(4)&gt;&gt;BW(4,4,20)</filterID><methodID>AIC</methodID><horizontalSlowness><value>13.02722130176806</value></horizontalSlowness><backazimuth><value>182.28672717887312</value></backazimuth><phaseHint>P</phaseHint><evaluationMode>automatic</evaluationMode><comment><text>316.31567035845586</text><id>DFX:rectilinearity</id></comment><comment><text>31.267070039047187</text><id>SNR</id></comment></pick><pick publicID="de.gempa.tb1.Pick/20250411182030.578587.119397"><time><value>2025-04-11T18:20:19.668396Z</value></time><waveformID networkCode="CX" stationCode="PB07" channelCode="HHZ"/><filterID>ITAPER(4)&gt;&gt;BW(4,4,20)</filterID><methodID>AIC</methodID><horizontalSlowness><value>17.185572182691068</value></horizontalSlowness><backazimuth><value>179.31530513021448</value></backazimuth><phaseHint>P</phaseHint><evaluationMode>automatic</evaluationMode><comment><text>944.5007301714933</text><id>DFX:rectilinearity</id></comment><comment><text>18.440421226028644</text><id>SNR</id></comment></pick><pick publicID="de.gempa.tb1.Pick/20250411182038.564676.119399"><time><value>2025-04-11T18:20:27.558394Z</value></time><waveformID networkCode="CX" stationCode="PB01" channelCode="HHZ"/><filterID>ITAPER(4)&gt;&gt;BW(4,4,20)</filterID><methodID>AIC</methodID><horizontalSlowness><value>22.93068199240362</value></horizontalSlowness><backazimuth><value>357.2974966976372</value></backazimuth><phaseHint>P</phaseHint><evaluationMode>automatic</evaluationMode><comment><text>12.001678533734902</text><id>DFX:rectilinearity</id></comment><comment><text>9.710495774253715</text><id>SNR</id></comment></pick><pick publicID="de.gempa.tb1.Pick/20250411182052.548901.119401"><time><value>2025-04-11T18:20:45.258393Z</value></time><waveformID networkCode="CX" stationCode="PB03" channelCode="HHN"/><filterID>ITAPER(2)&gt;&gt;BW(3,3,20)</filterID><methodID>L2-AIC-GRID</methodID><horizontalSlowness><value>21.79918052361169</value></horizontalSlowness><backazimuth><value>229.98316706153437</value></backazimuth><phaseHint>S</phaseHint><evaluationMode>automatic</evaluationMode><comment><text>639.7214870398996</text><id>DFX:rectilinearity</id></comment><comment><text>de.gempa.tb1.Pick/20250411182022.555669.119393</text><id>RefPickID</id></comment><comment><text>5.435688415713627</text><id>SNR</id></comment></pick><origin publicID="de.gempa.tb1.Origin/20250411182052.553304.63160"><time><value>2025-04-11T18:19:33.958099Z</value><uncertainty>1.5627814531326294</uncertainty></time><latitude><value>-24.334686279296875</value><uncertainty>8.967023849487305</uncertainty></latitude><longitude><value>-69.21522521972656</value><uncertainty>14.22188663482666</uncertainty></longitude><depth><value>0</value></depth><depthType>operator assigned</depthType><methodID>LOCSAT</methodID><earthModelID>iasp91_scanloc</earthModelID><quality><associatedPhaseCount>8</associatedPhaseCount><usedPhaseCount>8</usedPhaseCount><associatedStationCount>7</associatedStationCount><usedStationCount>7</usedStationCount><depthPhaseCount>0</depthPhaseCount><standardError>1.2284852306615606</standardError><azimuthalGap>307.8841552734375</azimuthalGap><maximumDistance>3.2855591773986816</maximumDistance><minimumDistance>0.43349558115005493</minimumDistance><medianDistance>2.328810691833496</medianDistance></quality><uncertainty><minHorizontalUncertainty>17.338603973388672</minHorizontalUncertainty><maxHorizontalUncertainty>31.632320404052734</maxHorizontalUncertainty><azimuthMaxHorizontalUncertainty>108.36940002441406</azimuthMaxHorizontalUncertainty><preferredDescription>horizontal uncertainty</preferredDescription></uncertainty><evaluationMode>automatic</evaluationMode><evaluationStatus>confirmed</evaluationStatus><comment><text>0.03</text><id>mismatchScore</id></comment><comment><text>mismatchScore</text><id>scevalMethod</id></comment><arrival><pickID>de.gempa.tb1.Pick/20250411181945.623808.119384</pickID><phase>P</phase><azimuth>350.83709716796875</azimuth><distance>0.43349558115005493</distance><timeResidual>-1.372894287109375</timeResidual><timeUsed>true</timeUsed><horizontalSlownessUsed>false</horizontalSlownessUsed><backazimuthUsed>false</backazimuthUsed><weight>1</weight></arrival><arrival><pickID>de.gempa.tb1.Pick/20250411181959.676874.119386</pickID><phase>P</phase><azimuth>348.1479187011719</azimuth><distance>1.145449161529541</distance><timeResidual>-1.4999399185180664</timeResidual><timeUsed>true</timeUsed><horizontalSlownessUsed>false</horizontalSlownessUsed><backazimuthUsed>false</backazimuthUsed><weight>1</weight></arrival><arrival><pickID>de.gempa.tb1.Pick/20250411182007.37973.119388</pickID><phase>P</phase><azimuth>303.4437255859375</azimuth><distance>1.4728806018829346</distance><timeResidual>-0.0884866714477539</timeResidual><timeUsed>true</timeUsed><horizontalSlownessUsed>false</horizontalSlownessUsed><backazimuthUsed>false</backazimuthUsed><weight>1</weight></arrival><arrival><pickID>de.gempa.tb1.Pick/20250411182011.507719.119390</pickID><phase>P</phase><azimuth>348.5141906738281</azimuth><distance>1.6541439294815063</distance><timeResidual>-1.5657167434692383</timeResidual><timeUsed>true</timeUsed><horizontalSlownessUsed>false</horizontalSlownessUsed><backazimuthUsed>false</backazimuthUsed><weight>1</weight></arrival><arrival><pickID>de.gempa.tb1.Pick/20250411182022.555669.119393</pickID><phase>P</phase><azimuth>347.6237487792969</azimuth><distance>2.328810691833496</distance><timeResidual>0.8086690902709961</timeResidual><timeUsed>true</timeUsed><horizontalSlownessUsed>false</horizontalSlownessUsed><backazimuthUsed>false</backazimuthUsed><weight>1</weight></arrival><arrival><pickID>de.gempa.tb1.Pick/20250411182030.578587.119397</pickID><phase>P</phase><azimuth>346.4748229980469</azimuth><distance>2.668419122695923</distance><timeResidual>1.464552879333496</timeResidual><timeUsed>true</timeUsed><horizontalSlownessUsed>false</horizontalSlownessUsed><backazimuthUsed>false</backazimuthUsed><weight>1</weight></arrival><arrival><pickID>de.gempa.tb1.Pick/20250411182038.564676.119399</pickID><phase>P</phase><azimuth>355.5595703125</azimuth><distance>3.2855591773986816</distance><timeResidual>0.8612699508666992</timeResidual><timeUsed>true</timeUsed><horizontalSlownessUsed>false</horizontalSlownessUsed><backazimuthUsed>false</backazimuthUsed><weight>1</weight></arrival><arrival><pickID>de.gempa.tb1.Pick/20250411182052.548901.119401</pickID><phase>S</phase><azimuth>347.6237487792969</azimuth><distance>2.328810691833496</distance><timeResidual>1.392409324645996</timeResidual><timeUsed>true</timeUsed><horizontalSlownessUsed>false</horizontalSlownessUsed><backazimuthUsed>false</backazimuthUsed><weight>1</weight></arrival><magnitude publicID="de.gempa.tb1.Magnitude/20250411182052.564865.129692"><magnitude><value>2.619746082191428</value></magnitude><type>M</type><methodID>weighted average</methodID><stationCount>6</stationCount></magnitude></origin><event publicID="gempa2025hecw"><preferredOriginID>de.gempa.tb1.Origin/20250411182052.553304.63160</preferredOriginID><preferredMagnitudeID>de.gempa.tb1.Magnitude/20250411182052.564865.129692</preferredMagnitudeID><description><text>Northern Chile</text><type>region name</type></description><originReference>de.gempa.tb1.Origin/20250411182052.553304.63160</originReference></event></EventParameters></seiscomp>