<?xml version="1.0" encoding="UTF-8"?>
<seiscomp xmlns="http://geofon.gfz-potsdam.de/ns/seiscomp3-schema/0.13" version="0.13"><EventParameters><pick publicID="de.gempa.tb1.Pick/20250415045626.56989.143604"><time><value>2025-04-15T04:56:17.928393Z</value></time><waveformID networkCode="CX" stationCode="PB01" channelCode="HHZ"/><filterID>ITAPER(4)&gt;&gt;BW(4,4,20)</filterID><methodID>AIC</methodID><horizontalSlowness><value>20.795892488804142</value></horizontalSlowness><backazimuth><value>157.83043926233003</value></backazimuth><phaseHint>P</phaseHint><evaluationMode>automatic</evaluationMode><comment><text>10.608107269669379</text><id>DFX:rectilinearity</id></comment><comment><text>17.189889162416673</text><id>SNR</id></comment></pick><pick publicID="de.gempa.tb1.Pick/20250415045626.570275.143606"><time><value>2025-04-15T04:56:19.908393Z</value></time><waveformID networkCode="CX" stationCode="PB03" channelCode="HHZ"/><filterID>ITAPER(4)&gt;&gt;BW(4,4,20)</filterID><methodID>AIC</methodID><horizontalSlowness><value>12.405245939936787</value></horizontalSlowness><backazimuth><value>218.4610032576875</value></backazimuth><phaseHint>P</phaseHint><evaluationMode>automatic</evaluationMode><comment><text>12.944516223979413</text><id>DFX:rectilinearity</id></comment><comment><text>8.00986460854565</text><id>SNR</id></comment></pick><pick publicID="de.gempa.tb1.Pick/20250415045626.682849.143608"><time><value>2025-04-15T04:56:20.918393Z</value></time><waveformID networkCode="CX" stationCode="PB02" channelCode="HHZ"/><filterID>ITAPER(4)&gt;&gt;BW(4,4,20)</filterID><methodID>AIC</methodID><horizontalSlowness><value>7.23684453934674</value></horizontalSlowness><backazimuth><value>349.46366517660726</value></backazimuth><phaseHint>P</phaseHint><evaluationMode>automatic</evaluationMode><comment><text>36.085090462215767</text><id>DFX:rectilinearity</id></comment><comment><text>17.24322202311997</text><id>SNR</id></comment></pick><pick publicID="de.gempa.tb1.Pick/20250415045628.768898.143610"><time><value>2025-04-15T04:56:20.458393Z</value></time><waveformID networkCode="CX" stationCode="PB07" channelCode="HHZ"/><filterID>ITAPER(4)&gt;&gt;BW(4,4,20)</filterID><methodID>AIC</methodID><horizontalSlowness><value>22.077447681708428</value></horizontalSlowness><backazimuth><value>142.41957255328941</value></backazimuth><phaseHint>P</phaseHint><evaluationMode>automatic</evaluationMode><comment><text>277.0292842645328</text><id>DFX:rectilinearity</id></comment><comment><text>33.41314598017815</text><id>SNR</id></comment></pick><pick publicID="de.gempa.tb1.Pick/20250415045629.989751.143612"><time><value>2025-04-15T04:56:15.52Z</value></time><waveformID networkCode="CX" stationCode="PB09" channelCode="HHZ"/><filterID>ITAPER(4)&gt;&gt;BW(4,4,20)</filterID><methodID>AIC</methodID><horizontalSlowness><value>11.17178839749266</value></horizontalSlowness><backazimuth><value>6.995024028939298</value></backazimuth><phaseHint>P</phaseHint><evaluationMode>automatic</evaluationMode><comment><text>23.56332952170035</text><id>DFX:rectilinearity</id></comment><comment><text>16.66385071694457</text><id>SNR</id></comment></pick><pick publicID="de.gempa.tb1.Pick/20250415045642.580839.143615"><time><value>2025-04-15T04:56:32.67Z</value></time><waveformID networkCode="CX" stationCode="PSGCX" channelCode="HHZ"/><filterID>ITAPER(4)&gt;&gt;BW(4,4,20)</filterID><methodID>AIC</methodID><horizontalSlowness><value>19.364312885722384</value></horizontalSlowness><backazimuth><value>129.65313106530698</value></backazimuth><phaseHint>P</phaseHint><evaluationMode>automatic</evaluationMode><comment><text>19.366690555505958</text><id>DFX:rectilinearity</id></comment><comment><text>9.65593331206257</text><id>SNR</id></comment></pick><pick publicID="de.gempa.tb1.Pick/20250415045646.583186.143619"><time><value>2025-04-15T04:56:39.788393Z</value></time><waveformID networkCode="CX" stationCode="PB03" channelCode="HHN"/><filterID>ITAPER(2)&gt;&gt;BW(3,3,20)</filterID><methodID>L2-AIC-GRID</methodID><horizontalSlowness><value>7.689292625075817</value></horizontalSlowness><backazimuth><value>250.3335224199476</value></backazimuth><phaseHint>S</phaseHint><evaluationMode>automatic</evaluationMode><comment><text>14.7315289823641</text><id>DFX:rectilinearity</id></comment><comment><text>de.gempa.tb1.Pick/20250415045626.570275.143606</text><id>RefPickID</id></comment><comment><text>15.12090420074532</text><id>SNR</id></comment></pick><pick publicID="de.gempa.tb1.Pick/20250415045648.785012.143622"><time><value>2025-04-15T04:56:40.998393Z</value></time><waveformID networkCode="CX" stationCode="PB07" channelCode="HHN"/><filterID>ITAPER(2)&gt;&gt;BW(3,3,20)</filterID><methodID>L2-AIC-GRID</methodID><horizontalSlowness><value>21.513956361461386</value></horizontalSlowness><backazimuth><value>348.9962281428343</value></backazimuth><phaseHint>S</phaseHint><evaluationMode>automatic</evaluationMode><comment><text>559.6853381300352</text><id>DFX:rectilinearity</id></comment><comment><text>de.gempa.tb1.Pick/20250415045628.768898.143610</text><id>RefPickID</id></comment><comment><text>8.103670350624389</text><id>SNR</id></comment></pick><origin publicID="de.gempa.tb1.Origin/20250415045648.788594.161448"><time><value>2025-04-15T04:55:53.867925Z</value><uncertainty>1.6074985265731812</uncertainty></time><latitude><value>-21.503976821899414</value><uncertainty>11.53961944580078</uncertainty></latitude><longitude><value>-68.58512878417969</value><uncertainty>17.510055541992188</uncertainty></longitude><depth><value>144.1066436767578</value><uncertainty>23.48661994934082</uncertainty></depth><depthType>from location</depthType><methodID>LOCSAT</methodID><earthModelID>iasp91_scanloc</earthModelID><quality><associatedPhaseCount>8</associatedPhaseCount><usedPhaseCount>8</usedPhaseCount><associatedStationCount>6</associatedStationCount><usedStationCount>6</usedStationCount><depthPhaseCount>0</depthPhaseCount><standardError>0.4120004440967417</standardError><azimuthalGap>280.7557373046875</azimuthalGap><maximumDistance>2.3824565410614014</maximumDistance><minimumDistance>0.6767570972442627</minimumDistance><medianDistance>1.230762481689453</medianDistance></quality><uncertainty><minHorizontalUncertainty>24.05117607116699</minHorizontalUncertainty><maxHorizontalUncertainty>37.999656677246094</maxHorizontalUncertainty><azimuthMaxHorizontalUncertainty>78.57804107666016</azimuthMaxHorizontalUncertainty><preferredDescription>horizontal uncertainty</preferredDescription></uncertainty><evaluationMode>automatic</evaluationMode><evaluationStatus>confirmed</evaluationStatus><comment><text>0.17</text><id>mismatchScore</id></comment><comment><text>mismatchScore</text><id>scevalMethod</id></comment><arrival><pickID>de.gempa.tb1.Pick/20250415045626.56989.143604</pickID><phase>P</phase><azimuth>298.41851806640625</azimuth><distance>0.9583055377006531</distance><timeResidual>0.2031230926513672</timeResidual><timeUsed>true</timeUsed><horizontalSlownessUsed>false</horizontalSlownessUsed><backazimuthUsed>false</backazimuthUsed><weight>1</weight></arrival><arrival><pickID>de.gempa.tb1.Pick/20250415045626.570275.143606</pickID><phase>P</phase><azimuth>243.2612609863281</azimuth><distance>1.2133198976516724</distance><timeResidual>-0.1382122039794922</timeResidual><timeUsed>true</timeUsed><horizontalSlownessUsed>false</horizontalSlownessUsed><backazimuthUsed>false</backazimuthUsed><weight>1</weight></arrival><arrival><pickID>de.gempa.tb1.Pick/20250415045626.682849.143608</pickID><phase>P</phase><azimuth>278.29766845703125</azimuth><distance>1.2351847887039185</distance><timeResidual>0.653249740600586</timeResidual><timeUsed>true</timeUsed><horizontalSlownessUsed>false</horizontalSlownessUsed><backazimuthUsed>false</backazimuthUsed><weight>1</weight></arrival><arrival><pickID>de.gempa.tb1.Pick/20250415045628.768898.143610</pickID><phase>P</phase><azimuth>259.38934326171875</azimuth><distance>1.230762481689453</distance><timeResidual>0.2393512725830078</timeResidual><timeUsed>true</timeUsed><horizontalSlownessUsed>false</horizontalSlownessUsed><backazimuthUsed>false</backazimuthUsed><weight>1</weight></arrival><arrival><pickID>de.gempa.tb1.Pick/20250415045629.989751.143612</pickID><phase>P</phase><azimuth>244.4153289794922</azimuth><distance>0.6767570972442627</distance><timeResidual>-0.05910682678222656</timeResidual><timeUsed>true</timeUsed><horizontalSlownessUsed>false</horizontalSlownessUsed><backazimuthUsed>false</backazimuthUsed><weight>1</weight></arrival><arrival><pickID>de.gempa.tb1.Pick/20250415045642.580839.143615</pickID><phase>P</phase><azimuth>322.5055236816406</azimuth><distance>2.3824565410614014</distance><timeResidual>-0.5983924865722656</timeResidual><timeUsed>true</timeUsed><horizontalSlownessUsed>false</horizontalSlownessUsed><backazimuthUsed>false</backazimuthUsed><weight>1</weight></arrival><arrival><pickID>de.gempa.tb1.Pick/20250415045646.583186.143619</pickID><phase>S</phase><azimuth>243.2612609863281</azimuth><distance>1.2133198976516724</distance><timeResidual>-0.6010589599609375</timeResidual><timeUsed>true</timeUsed><horizontalSlownessUsed>false</horizontalSlownessUsed><backazimuthUsed>false</backazimuthUsed><weight>1</weight></arrival><arrival><pickID>de.gempa.tb1.Pick/20250415045648.785012.143622</pickID><phase>S</phase><azimuth>259.38934326171875</azimuth><distance>1.230762481689453</distance><timeResidual>0.30121421813964844</timeResidual><timeUsed>true</timeUsed><horizontalSlownessUsed>false</horizontalSlownessUsed><backazimuthUsed>false</backazimuthUsed><weight>1</weight></arrival><magnitude publicID="de.gempa.tb1.Magnitude/20250415045740.581691.573239"><magnitude><value>2.0035778251953187</value></magnitude><type>M</type><methodID>weighted average</methodID><stationCount>4</stationCount></magnitude></origin><event publicID="gempa2025hkmd"><preferredOriginID>de.gempa.tb1.Origin/20250415045648.788594.161448</preferredOriginID><preferredMagnitudeID>de.gempa.tb1.Magnitude/20250415045740.581691.573239</preferredMagnitudeID><description><text>Chile-Bolivia Border Region</text><type>region name</type></description><originReference>de.gempa.tb1.Origin/20250415045648.788594.161448</originReference></event></EventParameters></seiscomp>