<?xml version="1.0" encoding="UTF-8"?>
<seiscomp xmlns="http://geofon.gfz-potsdam.de/ns/seiscomp3-schema/0.13" version="0.13"><EventParameters><pick publicID="de.gempa.tb1.Pick/20250413140842.577835.131691"><time><value>2025-04-13T14:08:35.62Z</value></time><waveformID networkCode="CX" stationCode="PB19" channelCode="HHZ"/><filterID>ITAPER(4)&gt;&gt;BW(4,4,20)</filterID><methodID>AIC</methodID><horizontalSlowness><value>20.44228740556193</value></horizontalSlowness><backazimuth><value>157.72511313873812</value></backazimuth><phaseHint>P</phaseHint><evaluationMode>automatic</evaluationMode><comment><text>865.8345394086972</text><id>DFX:rectilinearity</id></comment><comment><text>136.78267617230603</text><id>SNR</id></comment></pick><pick publicID="de.gempa.tb1.Pick/20250413140846.37657.131693"><time><value>2025-04-13T14:08:41.26Z</value></time><waveformID networkCode="CX" stationCode="PB10" channelCode="HHZ"/><filterID>ITAPER(4)&gt;&gt;BW(4,4,20)</filterID><methodID>AIC</methodID><horizontalSlowness><value>14.519074916303085</value></horizontalSlowness><backazimuth><value>163.93118555114995</value></backazimuth><phaseHint>P</phaseHint><evaluationMode>automatic</evaluationMode><comment><text>98.41797693765594</text><id>DFX:rectilinearity</id></comment><comment><text>28.072439687414075</text><id>SNR</id></comment></pick><pick publicID="de.gempa.tb1.Pick/20250413140850.085017.131695"><time><value>2025-04-13T14:08:44.488393Z</value></time><waveformID networkCode="CX" stationCode="PB15" channelCode="HHZ"/><filterID>ITAPER(4)&gt;&gt;BW(4,4,20)</filterID><methodID>AIC</methodID><horizontalSlowness><value>20.13967298741624</value></horizontalSlowness><backazimuth><value>31.59103410711151</value></backazimuth><phaseHint>P</phaseHint><evaluationMode>automatic</evaluationMode><comment><text>871.2211966750026</text><id>DFX:rectilinearity</id></comment><comment><text>50.10838442662438</text><id>SNR</id></comment></pick><pick publicID="de.gempa.tb1.Pick/20250413140857.538782.131697"><time><value>2025-04-13T14:08:50.378393Z</value></time><waveformID networkCode="CX" stationCode="PB06" channelCode="HHZ"/><filterID>ITAPER(4)&gt;&gt;BW(4,4,20)</filterID><methodID>AIC</methodID><horizontalSlowness><value>3.381605304858611</value></horizontalSlowness><backazimuth><value>198.2110070168515</value></backazimuth><phaseHint>P</phaseHint><evaluationMode>automatic</evaluationMode><comment><text>210.55165741546017</text><id>DFX:rectilinearity</id></comment><comment><text>10.335699572492723</text><id>SNR</id></comment></pick><pick publicID="de.gempa.tb1.Pick/20250413140903.572722.131699"><time><value>2025-04-13T14:08:58.148393Z</value></time><waveformID networkCode="CX" stationCode="PB03" channelCode="HHZ"/><filterID>ITAPER(4)&gt;&gt;BW(4,4,20)</filterID><methodID>AIC</methodID><horizontalSlowness><value>9.002362591954926</value></horizontalSlowness><backazimuth><value>165.63816917579013</value></backazimuth><phaseHint>P</phaseHint><evaluationMode>automatic</evaluationMode><comment><text>29.99909775832423</text><id>DFX:rectilinearity</id></comment><comment><text>31.92396405043235</text><id>SNR</id></comment></pick><pick publicID="de.gempa.tb1.Pick/20250413140908.040778.131701"><time><value>2025-04-13T14:09:02.308394Z</value></time><waveformID networkCode="CX" stationCode="PB07" channelCode="HHZ"/><filterID>ITAPER(4)&gt;&gt;BW(4,4,20)</filterID><methodID>AIC</methodID><horizontalSlowness><value>19.31991860444269</value></horizontalSlowness><backazimuth><value>209.0611039586882</value></backazimuth><phaseHint>P</phaseHint><evaluationMode>automatic</evaluationMode><comment><text>202.80403857835918</text><id>DFX:rectilinearity</id></comment><comment><text>52.18164979432983</text><id>SNR</id></comment></pick><pick publicID="de.gempa.tb1.Pick/20250413140915.52847.131703"><time><value>2025-04-13T14:09:07.628393Z</value></time><waveformID networkCode="CX" stationCode="PB02" channelCode="HHZ"/><filterID>ITAPER(4)&gt;&gt;BW(4,4,20)</filterID><methodID>AIC</methodID><horizontalSlowness><value>8.899431046305175</value></horizontalSlowness><backazimuth><value>128.41908259576738</value></backazimuth><phaseHint>P</phaseHint><evaluationMode>automatic</evaluationMode><comment><text>53.49794999322089</text><id>DFX:rectilinearity</id></comment><comment><text>25.034431131551674</text><id>SNR</id></comment></pick><pick publicID="de.gempa.tb1.Pick/20250413140916.775481.131707"><time><value>2025-04-13T14:09:02.67Z</value></time><waveformID networkCode="CX" stationCode="PB09" channelCode="HHZ"/><filterID>ITAPER(4)&gt;&gt;BW(4,4,20)</filterID><methodID>AIC</methodID><horizontalSlowness><value>21.33879728260695</value></horizontalSlowness><backazimuth><value>112.88939772081063</value></backazimuth><phaseHint>P</phaseHint><evaluationMode>automatic</evaluationMode><comment><text>31.000228064858785</text><id>DFX:rectilinearity</id></comment><comment><text>48.95506073101578</text><id>SNR</id></comment></pick><pick publicID="de.gempa.tb1.Pick/20250413140919.556035.131710"><time><value>2025-04-13T14:09:10.938394Z</value></time><waveformID networkCode="CX" stationCode="PB01" channelCode="HHZ"/><filterID>ITAPER(4)&gt;&gt;BW(4,4,20)</filterID><methodID>AIC</methodID><horizontalSlowness><value>11.780600054946493</value></horizontalSlowness><backazimuth><value>207.80979817595986</value></backazimuth><phaseHint>P</phaseHint><evaluationMode>automatic</evaluationMode><comment><text>18.840729666462376</text><id>DFX:rectilinearity</id></comment><comment><text>51.57867009370953</text><id>SNR</id></comment></pick><pick publicID="de.gempa.tb1.Pick/20250413140937.538342.131713"><time><value>2025-04-13T14:09:28.51Z</value></time><waveformID networkCode="CX" stationCode="PSGCX" channelCode="HHZ"/><filterID>ITAPER(4)&gt;&gt;BW(4,4,20)</filterID><methodID>AIC</methodID><horizontalSlowness><value>14.142820940800831</value></horizontalSlowness><backazimuth><value>221.93630143817526</value></backazimuth><phaseHint>P</phaseHint><evaluationMode>automatic</evaluationMode><comment><text>18.693198381502693</text><id>DFX:rectilinearity</id></comment><comment><text>8.858607118747601</text><id>SNR</id></comment></pick><origin publicID="de.gempa.tb1.Origin/20250413140937.543293.112236"><time><value>2025-04-13T14:07:02.10156Z</value><uncertainty>2.820103168487549</uncertainty></time><latitude><value>-30.312965393066406</value><uncertainty>24.300926208496094</uncertainty></latitude><longitude><value>-69.80458068847656</value><uncertainty>52.99397277832031</uncertainty></longitude><depth><value>287.45635986328125</value><uncertainty>28.33523941040039</uncertainty></depth><depthType>from location</depthType><methodID>LOCSAT</methodID><earthModelID>iasp91_scanloc</earthModelID><quality><associatedPhaseCount>10</associatedPhaseCount><usedPhaseCount>10</usedPhaseCount><associatedStationCount>10</associatedStationCount><usedStationCount>10</usedStationCount><depthPhaseCount>0</depthPhaseCount><standardError>0.3458198095269872</standardError><azimuthalGap>349.96047353744507</azimuthalGap><maximumDistance>10.673568725585938</maximumDistance><minimumDistance>6.399413108825684</minimumDistance><medianDistance>8.496576309204102</medianDistance></quality><uncertainty><minHorizontalUncertainty>52.09926605224609</minHorizontalUncertainty><maxHorizontalUncertainty>113.6374053955078</maxHorizontalUncertainty><azimuthMaxHorizontalUncertainty>90.53485107421875</azimuthMaxHorizontalUncertainty><preferredDescription>horizontal uncertainty</preferredDescription></uncertainty><evaluationMode>automatic</evaluationMode><evaluationStatus>confirmed</evaluationStatus><comment><text>0.01</text><id>mismatchScore</id></comment><comment><text>mismatchScore</text><id>scevalMethod</id></comment><arrival><pickID>de.gempa.tb1.Pick/20250413140842.577835.131691</pickID><phase>P</phase><azimuth>4.2238221168518066</azimuth><distance>6.399413108825684</distance><timeResidual>-0.37500762939453125</timeResidual><timeUsed>true</timeUsed><horizontalSlownessUsed>false</horizontalSlownessUsed><backazimuthUsed>false</backazimuthUsed><weight>1</weight></arrival><arrival><pickID>de.gempa.tb1.Pick/20250413140846.37657.131693</pickID><phase>P</phase><azimuth>354.1842956542969</azimuth><distance>6.805512428283691</distance><timeResidual>0.297088623046875</timeResidual><timeUsed>true</timeUsed><horizontalSlownessUsed>false</horizontalSlownessUsed><backazimuthUsed>false</backazimuthUsed><weight>1</weight></arrival><arrival><pickID>de.gempa.tb1.Pick/20250413140850.085017.131695</pickID><phase>P</phase><azimuth>2.490494728088379</azimuth><distance>7.082556247711182</distance><timeResidual>0.1260528564453125</timeResidual><timeUsed>true</timeUsed><horizontalSlownessUsed>false</horizontalSlownessUsed><backazimuthUsed>false</backazimuthUsed><weight>1</weight></arrival><arrival><pickID>de.gempa.tb1.Pick/20250413140857.538782.131697</pickID><phase>P</phase><azimuth>1.6293656826019287</azimuth><distance>7.579333782196045</distance><timeResidual>-0.0976409912109375</timeResidual><timeUsed>true</timeUsed><horizontalSlownessUsed>false</horizontalSlownessUsed><backazimuthUsed>false</backazimuthUsed><weight>1</weight></arrival><arrival><pickID>de.gempa.tb1.Pick/20250413140903.572722.131699</pickID><phase>P</phase><azimuth>0.33363303542137146</azimuth><distance>8.230795860290527</distance><timeResidual>-0.40789031982421875</timeResidual><timeUsed>true</timeUsed><horizontalSlownessUsed>false</horizontalSlownessUsed><backazimuthUsed>false</backazimuthUsed><weight>1</weight></arrival><arrival><pickID>de.gempa.tb1.Pick/20250413140908.040778.131701</pickID><phase>P</phase><azimuth>359.48974609375</azimuth><distance>8.551220893859863</distance><timeResidual>-0.2232666015625</timeResidual><timeUsed>true</timeUsed><horizontalSlownessUsed>false</horizontalSlownessUsed><backazimuthUsed>false</backazimuthUsed><weight>1</weight></arrival><arrival><pickID>de.gempa.tb1.Pick/20250413140915.52847.131703</pickID><phase>P</phase><azimuth>359.4523010253906</azimuth><distance>8.956226348876953</distance><timeResidual>0.1236419677734375</timeResidual><timeUsed>true</timeUsed><horizontalSlownessUsed>false</horizontalSlownessUsed><backazimuthUsed>false</backazimuthUsed><weight>1</weight></arrival><arrival><pickID>de.gempa.tb1.Pick/20250413140916.775481.131707</pickID><phase>P</phase><azimuth>3.5413877964019775</azimuth><distance>8.496576309204102</distance><timeResidual>0.8094406127929688</timeResidual><timeUsed>true</timeUsed><horizontalSlownessUsed>false</horizontalSlownessUsed><backazimuthUsed>false</backazimuthUsed><weight>1</weight></arrival><arrival><pickID>de.gempa.tb1.Pick/20250413140919.556035.131710</pickID><phase>P</phase><azimuth>1.846434473991394</azimuth><distance>9.235397338867188</distance><timeResidual>-0.01930999755859375</timeResidual><timeUsed>true</timeUsed><horizontalSlownessUsed>false</horizontalSlownessUsed><backazimuthUsed>false</backazimuthUsed><weight>1</weight></arrival><arrival><pickID>de.gempa.tb1.Pick/20250413140937.538342.131713</pickID><phase>P</phase><azimuth>358.37872314453125</azimuth><distance>10.673568725585938</distance><timeResidual>-0.23349761962890625</timeResidual><timeUsed>true</timeUsed><horizontalSlownessUsed>false</horizontalSlownessUsed><backazimuthUsed>false</backazimuthUsed><weight>1</weight></arrival><magnitude publicID="de.gempa.tb1.Magnitude/20250413140937.549122.366018"><magnitude><value>4.3838961189941896</value></magnitude><type>M</type><methodID>weighted average</methodID><stationCount>6</stationCount></magnitude></origin><event publicID="gempa2025hhmm"><preferredOriginID>de.gempa.tb1.Origin/20250413140937.543293.112236</preferredOriginID><preferredMagnitudeID>de.gempa.tb1.Magnitude/20250413140937.549122.366018</preferredMagnitudeID><description><text>Chile-Argentina Border Region</text><type>region name</type></description><originReference>de.gempa.tb1.Origin/20250413140937.543293.112236</originReference></event></EventParameters></seiscomp>