<?xml version="1.0" encoding="UTF-8"?>
<seiscomp xmlns="http://geofon.gfz-potsdam.de/ns/seiscomp3-schema/0.13" version="0.13"><EventParameters><pick publicID="de.gempa.tb1.Pick/20250414061427.606508.136130"><time><value>2025-04-14T06:14:21.998393Z</value></time><waveformID networkCode="CX" stationCode="PB01" channelCode="HHZ"/><filterID>ITAPER(4)&gt;&gt;BW(4,4,20)</filterID><methodID>AIC</methodID><horizontalSlowness><value>6.588036948720808</value></horizontalSlowness><backazimuth><value>123.97127244760327</value></backazimuth><phaseHint>P</phaseHint><evaluationMode>automatic</evaluationMode><comment><text>126.94843775666787</text><id>DFX:rectilinearity</id></comment><comment><text>355.44792157966157</text><id>SNR</id></comment></pick><pick publicID="de.gempa.tb1.Pick/20250414061427.767425.136132"><time><value>2025-04-14T06:14:23.718393Z</value></time><waveformID networkCode="CX" stationCode="PB03" channelCode="HHZ"/><filterID>ITAPER(4)&gt;&gt;BW(4,4,20)</filterID><methodID>AIC</methodID><horizontalSlowness><value>7.181466007253493</value></horizontalSlowness><backazimuth><value>80.5693243644191</value></backazimuth><phaseHint>P</phaseHint><evaluationMode>automatic</evaluationMode><comment><text>57.31344227075367</text><id>DFX:rectilinearity</id></comment><comment><text>71.00343518968063</text><id>SNR</id></comment></pick><pick publicID="de.gempa.tb1.Pick/20250414061429.555365.136134"><time><value>2025-04-14T06:14:24.628393Z</value></time><waveformID networkCode="CX" stationCode="PB02" channelCode="HHZ"/><filterID>ITAPER(4)&gt;&gt;BW(4,4,20)</filterID><methodID>AIC</methodID><horizontalSlowness><value>7.486387430014311</value></horizontalSlowness><backazimuth><value>77.38864913334416</value></backazimuth><phaseHint>P</phaseHint><evaluationMode>automatic</evaluationMode><comment><text>610.7846820068946</text><id>DFX:rectilinearity</id></comment><comment><text>267.057918889238</text><id>SNR</id></comment></pick><pick publicID="de.gempa.tb1.Pick/20250414061430.159147.136136"><time><value>2025-04-14T06:14:19.11Z</value></time><waveformID networkCode="CX" stationCode="PB09" channelCode="HHZ"/><filterID>ITAPER(4)&gt;&gt;BW(4,4,20)</filterID><methodID>AIC</methodID><horizontalSlowness><value>21.587029249592298</value></horizontalSlowness><backazimuth><value>77.94167912241664</value></backazimuth><phaseHint>P</phaseHint><evaluationMode>automatic</evaluationMode><comment><text>120.44453853441013</text><id>DFX:rectilinearity</id></comment><comment><text>109.71997119327794</text><id>SNR</id></comment></pick><pick publicID="de.gempa.tb1.Pick/20250414061434.516818.136138"><time><value>2025-04-14T06:14:26.318393Z</value></time><waveformID networkCode="CX" stationCode="PB06" channelCode="HHZ"/><filterID>ITAPER(4)&gt;&gt;BW(4,4,20)</filterID><methodID>AIC</methodID><horizontalSlowness><value>20.639453835088833</value></horizontalSlowness><backazimuth><value>132.97055467619322</value></backazimuth><phaseHint>P</phaseHint><evaluationMode>automatic</evaluationMode><comment><text>45.74668311109015</text><id>DFX:rectilinearity</id></comment><comment><text>10.277544112530853</text><id>SNR</id></comment></pick><pick publicID="de.gempa.tb1.Pick/20250414061436.231615.136140"><time><value>2025-04-14T06:14:29.369999Z</value></time><waveformID networkCode="CX" stationCode="PATCX" channelCode="HHZ"/><filterID>ITAPER(4)&gt;&gt;BW(4,4,20)</filterID><methodID>AIC</methodID><horizontalSlowness><value>7.564971628276475</value></horizontalSlowness><backazimuth><value>175.4352765169318</value></backazimuth><phaseHint>P</phaseHint><evaluationMode>automatic</evaluationMode><comment><text>515.5500392426557</text><id>DFX:rectilinearity</id></comment><comment><text>95.08324287946472</text><id>SNR</id></comment></pick><pick publicID="de.gempa.tb1.Pick/20250414061438.559472.136142"><time><value>2025-04-14T06:14:28.908394Z</value></time><waveformID networkCode="CX" stationCode="PB08" channelCode="HHZ"/><filterID>ITAPER(4)&gt;&gt;BW(4,4,20)</filterID><methodID>AIC</methodID><horizontalSlowness><value>12.63707266204638</value></horizontalSlowness><backazimuth><value>198.832561847785</value></backazimuth><phaseHint>P</phaseHint><evaluationMode>automatic</evaluationMode><comment><text>7.964697534591659</text><id>DFX:rectilinearity</id></comment><comment><text>12.802277588430034</text><id>SNR</id></comment></pick><pick publicID="de.gempa.tb1.Pick/20250414061443.544278.136144"><time><value>2025-04-14T06:14:37.84Z</value></time><waveformID networkCode="CX" stationCode="PSGCX" channelCode="HHZ"/><filterID>ITAPER(4)&gt;&gt;BW(4,4,20)</filterID><methodID>AIC</methodID><horizontalSlowness><value>20.032663401837866</value></horizontalSlowness><backazimuth><value>285.56817368585786</value></backazimuth><phaseHint>P</phaseHint><evaluationMode>automatic</evaluationMode><comment><text>14.386533483339804</text><id>DFX:rectilinearity</id></comment><comment><text>49.48401925591209</text><id>SNR</id></comment></pick><pick publicID="de.gempa.tb1.Pick/20250414061445.906035.136148"><time><value>2025-04-14T06:14:24.408393Z</value></time><waveformID networkCode="CX" stationCode="PB07" channelCode="HHZ"/><filterID>ITAPER(4)&gt;&gt;BW(4,4,20)</filterID><methodID>AIC</methodID><horizontalSlowness><value>11.182772919582474</value></horizontalSlowness><backazimuth><value>86.01468368234657</value></backazimuth><phaseHint>P</phaseHint><evaluationMode>automatic</evaluationMode><comment><text>1453.6418675723348</text><id>DFX:rectilinearity</id></comment><comment><text>742.8117728151598</text><id>SNR</id></comment></pick><pick publicID="de.gempa.tb1.Pick/20250414061453.594432.136150"><time><value>2025-04-14T06:14:47.768393Z</value></time><waveformID networkCode="CX" stationCode="PB06" channelCode="HHN"/><filterID>ITAPER(2)&gt;&gt;BW(3,3,20)</filterID><methodID>L2-AIC-GRID</methodID><horizontalSlowness><value>21.155918159645726</value></horizontalSlowness><backazimuth><value>285.7970568875859</value></backazimuth><phaseHint>S</phaseHint><evaluationMode>automatic</evaluationMode><comment><text>899.2620037040159</text><id>DFX:rectilinearity</id></comment><comment><text>de.gempa.tb1.Pick/20250414061434.516818.136138</text><id>RefPickID</id></comment><comment><text>15.622421117285633</text><id>SNR</id></comment></pick><pick publicID="de.gempa.tb1.Pick/20250414061453.688049.136151"><time><value>2025-04-14T06:14:42.918393Z</value></time><waveformID networkCode="CX" stationCode="PB03" channelCode="HHN"/><filterID>ITAPER(2)&gt;&gt;BW(3,3,20)</filterID><methodID>L2-AIC-GRID</methodID><horizontalSlowness><value>12.587202446127822</value></horizontalSlowness><backazimuth><value>286.59581394450674</value></backazimuth><phaseHint>S</phaseHint><evaluationMode>automatic</evaluationMode><comment><text>1328.7190299253234</text><id>DFX:rectilinearity</id></comment><comment><text>de.gempa.tb1.Pick/20250414061427.767425.136132</text><id>RefPickID</id></comment><comment><text>13.03941083573044</text><id>SNR</id></comment></pick><pick publicID="de.gempa.tb1.Pick/20250414061459.612313.136156"><time><value>2025-04-14T06:14:51.858394Z</value></time><waveformID networkCode="CX" stationCode="PB08" channelCode="HHN"/><filterID>ITAPER(2)&gt;&gt;BW(3,3,20)</filterID><methodID>L2-AIC-GRID</methodID><horizontalSlowness><value>15.452500624262285</value></horizontalSlowness><backazimuth><value>206.3703078618471</value></backazimuth><phaseHint>S</phaseHint><evaluationMode>automatic</evaluationMode><comment><text>249.98198771572586</text><id>DFX:rectilinearity</id></comment><comment><text>de.gempa.tb1.Pick/20250414061438.559472.136142</text><id>RefPickID</id></comment><comment><text>8.940016507897989</text><id>SNR</id></comment></pick><pick publicID="de.gempa.tb1.Pick/20250414061521.641228.136166"><time><value>2025-04-14T06:15:09.58Z</value></time><waveformID networkCode="CX" stationCode="PSGCX" channelCode="HHN"/><filterID>ITAPER(2)&gt;&gt;BW(3,3,20)</filterID><methodID>L2-AIC-GRID</methodID><horizontalSlowness><value>16.960157195705424</value></horizontalSlowness><backazimuth><value>174.74238016542262</value></backazimuth><phaseHint>S</phaseHint><evaluationMode>automatic</evaluationMode><comment><text>129.93904823473386</text><id>DFX:rectilinearity</id></comment><comment><text>de.gempa.tb1.Pick/20250414061443.544278.136144</text><id>RefPickID</id></comment><comment><text>6.605791575271813</text><id>SNR</id></comment></pick><pick publicID="de.gempa.tb1.Pick/20250414061523.081898.136167"><time><value>2025-04-14T06:14:44.448393Z</value></time><waveformID networkCode="CX" stationCode="PB07" channelCode="HHN"/><filterID>ITAPER(2)&gt;&gt;BW(3,3,20)</filterID><methodID>L2-AIC-GRID</methodID><horizontalSlowness><value>19.414216525994306</value></horizontalSlowness><backazimuth><value>321.627555727484</value></backazimuth><phaseHint>S</phaseHint><evaluationMode>automatic</evaluationMode><comment><text>8464.278141788041</text><id>DFX:rectilinearity</id></comment><comment><text>de.gempa.tb1.Pick/20250414061445.906035.136148</text><id>RefPickID</id></comment><comment><text>5.47977077387895</text><id>SNR</id></comment></pick><origin publicID="de.gempa.tb1.Origin/20250414061523.088539.129845"><time><value>2025-04-14T06:13:58.332212Z</value><uncertainty>0.9686659574508667</uncertainty></time><latitude><value>-21.63210678100586</value><uncertainty>3.424612045288086</uncertainty></latitude><longitude><value>-68.68122100830078</value><uncertainty>10.277241706848145</uncertainty></longitude><depth><value>148.22906494140625</value><uncertainty>10.398151397705078</uncertainty></depth><depthType>from location</depthType><methodID>LOCSAT</methodID><earthModelID>iasp91_scanloc</earthModelID><quality><associatedPhaseCount>14</associatedPhaseCount><usedPhaseCount>14</usedPhaseCount><associatedStationCount>9</associatedStationCount><usedStationCount>9</usedStationCount><depthPhaseCount>0</depthPhaseCount><standardError>0.4407105582644271</standardError><azimuthalGap>234.1833190917969</azimuthalGap><maximumDistance>2.433755874633789</maximumDistance><minimumDistance>0.5464144349098206</minimumDistance><medianDistance>1.3503142595291138</medianDistance></quality><uncertainty><minHorizontalUncertainty>7.311089038848877</minHorizontalUncertainty><maxHorizontalUncertainty>22.04488182067871</maxHorizontalUncertainty><azimuthMaxHorizontalUncertainty>91.86616516113281</azimuthMaxHorizontalUncertainty><preferredDescription>horizontal uncertainty</preferredDescription></uncertainty><evaluationMode>automatic</evaluationMode><evaluationStatus>confirmed</evaluationStatus><comment><text>0.06</text><id>mismatchScore</id></comment><comment><text>mismatchScore</text><id>scevalMethod</id></comment><arrival><pickID>de.gempa.tb1.Pick/20250414061427.606508.136130</pickID><phase>P</phase><azimuth>307.79547119140625</azimuth><distance>0.9530065655708313</distance><timeResidual>-0.5363006591796875</timeResidual><timeUsed>true</timeUsed><horizontalSlownessUsed>false</horizontalSlownessUsed><backazimuthUsed>false</backazimuthUsed><weight>1</weight></arrival><arrival><pickID>de.gempa.tb1.Pick/20250414061427.767425.136132</pickID><phase>P</phase><azimuth>247.21205139160156</azimuth><distance>1.078614354133606</distance><timeResidual>0.10843658447265625</timeResidual><timeUsed>true</timeUsed><horizontalSlownessUsed>false</horizontalSlownessUsed><backazimuthUsed>false</backazimuthUsed><weight>1</weight></arrival><arrival><pickID>de.gempa.tb1.Pick/20250414061429.555365.136134</pickID><phase>P</phase><azimuth>285.1397705078125</azimuth><distance>1.1733919382095337</distance><timeResidual>0.1446552276611328</timeResidual><timeUsed>true</timeUsed><horizontalSlownessUsed>false</horizontalSlownessUsed><backazimuthUsed>false</backazimuthUsed><weight>1</weight></arrival><arrival><pickID>de.gempa.tb1.Pick/20250414061430.159147.136136</pickID><phase>P</phase><azimuth>252.4892272949219</azimuth><distance>0.5464144349098206</distance><timeResidual>-0.5955543518066406</timeResidual><timeUsed>true</timeUsed><horizontalSlownessUsed>false</horizontalSlownessUsed><backazimuthUsed>false</backazimuthUsed><weight>1</weight></arrival><arrival><pickID>de.gempa.tb1.Pick/20250414061434.516818.136138</pickID><phase>P</phase><azimuth>217.52517700195312</azimuth><distance>1.3503142595291138</distance><timeResidual>0.1198596954345703</timeResidual><timeUsed>true</timeUsed><horizontalSlownessUsed>false</horizontalSlownessUsed><backazimuthUsed>false</backazimuthUsed><weight>1</weight></arrival><arrival><pickID>de.gempa.tb1.Pick/20250414061436.231615.136140</pickID><phase>P</phase><azimuth>300.1904296875</azimuth><distance>1.5927884578704834</distance><timeResidual>0.6192989349365234</timeResidual><timeUsed>true</timeUsed><horizontalSlownessUsed>false</horizontalSlownessUsed><backazimuthUsed>false</backazimuthUsed><weight>1</weight></arrival><arrival><pickID>de.gempa.tb1.Pick/20250414061438.559472.136142</pickID><phase>P</phase><azimuth>343.34185791015625</azimuth><distance>1.5478249788284302</distance><timeResidual>0.6367206573486328</timeResidual><timeUsed>true</timeUsed><horizontalSlownessUsed>false</horizontalSlownessUsed><backazimuthUsed>false</backazimuthUsed><weight>1</weight></arrival><arrival><pickID>de.gempa.tb1.Pick/20250414061443.544278.136144</pickID><phase>P</phase><azimuth>326.0382080078125</azimuth><distance>2.433755874633789</distance><timeResidual>-0.7214336395263672</timeResidual><timeUsed>true</timeUsed><horizontalSlownessUsed>false</horizontalSlownessUsed><backazimuthUsed>false</backazimuthUsed><weight>1</weight></arrival><arrival><pickID>de.gempa.tb1.Pick/20250414061445.906035.136148</pickID><phase>P</phase><azimuth>264.97943115234375</azimuth><distance>1.1246856451034546</distance><timeResidual>0.3790721893310547</timeResidual><timeUsed>true</timeUsed><horizontalSlownessUsed>false</horizontalSlownessUsed><backazimuthUsed>false</backazimuthUsed><weight>1</weight></arrival><arrival><pickID>de.gempa.tb1.Pick/20250414061453.594432.136150</pickID><phase>S</phase><azimuth>217.52517700195312</azimuth><distance>1.3503142595291138</distance><timeResidual>-0.11139106750488281</timeResidual><timeUsed>true</timeUsed><horizontalSlownessUsed>false</horizontalSlownessUsed><backazimuthUsed>false</backazimuthUsed><weight>1</weight></arrival><arrival><pickID>de.gempa.tb1.Pick/20250414061453.688049.136151</pickID><phase>S</phase><azimuth>247.21205139160156</azimuth><distance>1.078614354133606</distance><timeResidual>-0.3388862609863281</timeResidual><timeUsed>true</timeUsed><horizontalSlownessUsed>false</horizontalSlownessUsed><backazimuthUsed>false</backazimuthUsed><weight>1</weight></arrival><arrival><pickID>de.gempa.tb1.Pick/20250414061459.612313.136156</pickID><phase>S</phase><azimuth>343.34185791015625</azimuth><distance>1.5478249788284302</distance><timeResidual>0.27528953552246094</timeResidual><timeUsed>true</timeUsed><horizontalSlownessUsed>false</horizontalSlownessUsed><backazimuthUsed>false</backazimuthUsed><weight>1</weight></arrival><arrival><pickID>de.gempa.tb1.Pick/20250414061521.641228.136166</pickID><phase>S</phase><azimuth>326.0382080078125</azimuth><distance>2.433755874633789</distance><timeResidual>-0.4221477508544922</timeResidual><timeUsed>true</timeUsed><horizontalSlownessUsed>false</horizontalSlownessUsed><backazimuthUsed>false</backazimuthUsed><weight>1</weight></arrival><arrival><pickID>de.gempa.tb1.Pick/20250414061523.081898.136167</pickID><phase>S</phase><azimuth>264.97943115234375</azimuth><distance>1.1246856451034546</distance><timeResidual>0.4421043395996094</timeResidual><timeUsed>true</timeUsed><horizontalSlownessUsed>false</horizontalSlownessUsed><backazimuthUsed>false</backazimuthUsed><weight>1</weight></arrival><magnitude publicID="de.gempa.tb1.Magnitude/20250414061530.940644.437646"><magnitude><value>2.456406171968611</value></magnitude><type>M</type><methodID>weighted average</methodID><stationCount>6</stationCount></magnitude></origin><event publicID="gempa2025hiss"><preferredOriginID>de.gempa.tb1.Origin/20250414061523.088539.129845</preferredOriginID><preferredMagnitudeID>de.gempa.tb1.Magnitude/20250414061530.940644.437646</preferredMagnitudeID><description><text>Chile-Bolivia Border Region</text><type>region name</type></description><originReference>de.gempa.tb1.Origin/20250414061523.088539.129845</originReference></event></EventParameters></seiscomp>