<?xml version="1.0" encoding="UTF-8"?>
<seiscomp xmlns="http://geofon.gfz-potsdam.de/ns/seiscomp3-schema/0.13" version="0.13"><EventParameters><pick publicID="de.gempa.tb1.Pick/20250412115807.223532.123775"><time><value>2025-04-12T11:58:01.34Z</value></time><waveformID networkCode="CX" stationCode="PB10" channelCode="HHZ"/><filterID>ITAPER(4)&gt;&gt;BW(4,4,20)</filterID><methodID>AIC</methodID><horizontalSlowness><value>7.648565206761039</value></horizontalSlowness><backazimuth><value>93.57687715292563</value></backazimuth><phaseHint>P</phaseHint><evaluationMode>automatic</evaluationMode><comment><text>476.445469653824</text><id>DFX:rectilinearity</id></comment><comment><text>35.516727573129685</text><id>SNR</id></comment></pick><pick publicID="de.gempa.tb1.Pick/20250412115817.700667.123777"><time><value>2025-04-12T11:58:12.888393Z</value></time><waveformID networkCode="CX" stationCode="PB15" channelCode="HHZ"/><filterID>ITAPER(4)&gt;&gt;BW(4,4,20)</filterID><methodID>AIC</methodID><horizontalSlowness><value>21.975433137384847</value></horizontalSlowness><backazimuth><value>119.51977121220717</value></backazimuth><phaseHint>P</phaseHint><evaluationMode>automatic</evaluationMode><comment><text>89.16242314257566</text><id>DFX:rectilinearity</id></comment><comment><text>94.11396909945729</text><id>SNR</id></comment></pick><pick publicID="de.gempa.tb1.Pick/20250412115821.520466.123779"><time><value>2025-04-12T11:58:14.998393Z</value></time><waveformID networkCode="CX" stationCode="PB06" channelCode="HHZ"/><filterID>ITAPER(4)&gt;&gt;BW(4,4,20)</filterID><methodID>AIC</methodID><horizontalSlowness><value>8.950985348689244</value></horizontalSlowness><backazimuth><value>206.43035514334107</value></backazimuth><phaseHint>P</phaseHint><evaluationMode>automatic</evaluationMode><comment><text>20.185065508575715</text><id>DFX:rectilinearity</id></comment><comment><text>18.811381379000505</text><id>SNR</id></comment></pick><pick publicID="de.gempa.tb1.Pick/20250412115823.497846.123781"><time><value>2025-04-12T11:58:17.54Z</value></time><waveformID networkCode="CX" stationCode="PB19" channelCode="HHZ"/><filterID>ITAPER(4)&gt;&gt;BW(4,4,20)</filterID><methodID>AIC</methodID><horizontalSlowness><value>10.326732600067368</value></horizontalSlowness><backazimuth><value>120.60817551669106</value></backazimuth><phaseHint>P</phaseHint><evaluationMode>automatic</evaluationMode><comment><text>19.588744151281546</text><id>DFX:rectilinearity</id></comment><comment><text>20.563725946729647</text><id>SNR</id></comment></pick><pick publicID="de.gempa.tb1.Pick/20250412115829.538083.123783"><time><value>2025-04-12T11:58:21.758393Z</value></time><waveformID networkCode="CX" stationCode="PB03" channelCode="HHZ"/><filterID>ITAPER(4)&gt;&gt;BW(4,4,20)</filterID><methodID>AIC</methodID><horizontalSlowness><value>9.963121696577707</value></horizontalSlowness><backazimuth><value>212.7680654109892</value></backazimuth><phaseHint>P</phaseHint><evaluationMode>automatic</evaluationMode><comment><text>5.084688185676102</text><id>DFX:rectilinearity</id></comment><comment><text>15.18301099505419</text><id>SNR</id></comment></pick><pick publicID="de.gempa.tb1.Pick/20250412115834.512194.123786"><time><value>2025-04-12T11:58:25.768397Z</value></time><waveformID networkCode="CX" stationCode="PB07" channelCode="HHZ"/><filterID>ITAPER(4)&gt;&gt;BW(4,4,20)</filterID><methodID>AIC</methodID><horizontalSlowness><value>20.850939233272218</value></horizontalSlowness><backazimuth><value>24.40246572671944</value></backazimuth><phaseHint>P</phaseHint><evaluationMode>automatic</evaluationMode><comment><text>138.2331936714234</text><id>DFX:rectilinearity</id></comment><comment><text>15.3140975189319</text><id>SNR</id></comment></pick><pick publicID="de.gempa.tb1.Pick/20250412115836.666066.123788"><time><value>2025-04-12T11:58:29.148393Z</value></time><waveformID networkCode="CX" stationCode="PB06" channelCode="HHN"/><filterID>ITAPER(2)&gt;&gt;BW(3,3,20)</filterID><methodID>L2-AIC-GRID</methodID><horizontalSlowness><value>23.20524912357863</value></horizontalSlowness><backazimuth><value>304.0525019906347</value></backazimuth><phaseHint>S</phaseHint><evaluationMode>automatic</evaluationMode><comment><text>115.55380480537691</text><id>DFX:rectilinearity</id></comment><comment><text>de.gempa.tb1.Pick/20250412115821.520466.123779</text><id>RefPickID</id></comment><comment><text>5.820665900489345</text><id>SNR</id></comment></pick><pick publicID="de.gempa.tb1.Pick/20250412115840.520905.123789"><time><value>2025-04-12T11:58:33.35Z</value></time><waveformID networkCode="CX" stationCode="PB19" channelCode="HHN"/><filterID>ITAPER(2)&gt;&gt;BW(3,3,20)</filterID><methodID>L2-AIC-GRID</methodID><horizontalSlowness><value>16.546899658348547</value></horizontalSlowness><backazimuth><value>193.74872497823162</value></backazimuth><phaseHint>S</phaseHint><evaluationMode>automatic</evaluationMode><comment><text>115.12849748705813</text><id>DFX:rectilinearity</id></comment><comment><text>de.gempa.tb1.Pick/20250412115823.497846.123781</text><id>RefPickID</id></comment><comment><text>6.309582129640776</text><id>SNR</id></comment></pick><pick publicID="de.gempa.tb1.Pick/20250412115842.41388.123790"><time><value>2025-04-12T11:58:29.72Z</value></time><waveformID networkCode="CX" stationCode="PB09" channelCode="HHZ"/><filterID>ITAPER(4)&gt;&gt;BW(4,4,20)</filterID><methodID>AIC</methodID><horizontalSlowness><value>23.16534729456031</value></horizontalSlowness><backazimuth><value>102.27605448417378</value></backazimuth><phaseHint>P</phaseHint><evaluationMode>automatic</evaluationMode><comment><text>10.405291767990892</text><id>DFX:rectilinearity</id></comment><comment><text>21.039151807747455</text><id>SNR</id></comment></pick><origin publicID="de.gempa.tb1.Origin/20250412115842.513162.82026"><time><value>2025-04-12T11:57:56.514124Z</value><uncertainty>0.5107364058494568</uncertainty></time><latitude><value>-23.370983123779297</value><uncertainty>3.13395881652832</uncertainty></latitude><longitude><value>-70.36053466796875</value><uncertainty>3.4670515060424805</uncertainty></longitude><depth><value>11.228137969970703</value><uncertainty>5.323586463928223</uncertainty></depth><depthType>from location</depthType><methodID>LOCSAT</methodID><earthModelID>iasp91_scanloc</earthModelID><quality><associatedPhaseCount>9</associatedPhaseCount><usedPhaseCount>9</usedPhaseCount><associatedStationCount>7</associatedStationCount><usedStationCount>7</usedStationCount><depthPhaseCount>0</depthPhaseCount><standardError>0.4928980836238838</standardError><azimuthalGap>143.7086534500122</azimuthalGap><maximumDistance>1.8774197101593018</maximumDistance><minimumDistance>0.22738097608089447</minimumDistance><medianDistance>1.115809440612793</medianDistance></quality><uncertainty><minHorizontalUncertainty>6.640797138214111</minHorizontalUncertainty><maxHorizontalUncertainty>7.506520748138428</maxHorizontalUncertainty><azimuthMaxHorizontalUncertainty>107.17545318603516</azimuthMaxHorizontalUncertainty><preferredDescription>horizontal uncertainty</preferredDescription></uncertainty><evaluationMode>automatic</evaluationMode><evaluationStatus>confirmed</evaluationStatus><comment><text>0.00</text><id>mismatchScore</id></comment><comment><text>mismatchScore</text><id>scevalMethod</id></comment><arrival><pickID>de.gempa.tb1.Pick/20250412115807.223532.123775</pickID><phase>P</phase><azimuth>231.38304138183594</azimuth><distance>0.22738097608089447</distance><timeResidual>0.05357599258422852</timeResidual><timeUsed>true</timeUsed><horizontalSlownessUsed>false</horizontalSlownessUsed><backazimuthUsed>false</backazimuthUsed><weight>1</weight></arrival><arrival><pickID>de.gempa.tb1.Pick/20250412115817.700667.123777</pickID><phase>P</phase><azimuth>78.97975158691406</azimuth><distance>0.8338492512702942</distance><timeResidual>0.27871274948120117</timeResidual><timeUsed>true</timeUsed><horizontalSlownessUsed>false</horizontalSlownessUsed><backazimuthUsed>false</backazimuthUsed><weight>1</weight></arrival><arrival><pickID>de.gempa.tb1.Pick/20250412115821.520466.123779</pickID><phase>P</phase><azimuth>47.8100700378418</azimuth><distance>0.9829277396202087</distance><timeResidual>-0.4074587821960449</timeResidual><timeUsed>true</timeUsed><horizontalSlownessUsed>false</horizontalSlownessUsed><backazimuthUsed>false</backazimuthUsed><weight>1</weight></arrival><arrival><pickID>de.gempa.tb1.Pick/20250412115823.497846.123781</pickID><phase>P</phase><azimuth>118.6506576538086</azimuth><distance>1.115809440612793</distance><timeResidual>-0.27246713638305664</timeResidual><timeUsed>true</timeUsed><horizontalSlownessUsed>false</horizontalSlownessUsed><backazimuthUsed>false</backazimuthUsed><weight>1</weight></arrival><arrival><pickID>de.gempa.tb1.Pick/20250412115829.538083.123783</pickID><phase>P</phase><azimuth>23.19741439819336</azimuth><distance>1.430796504020691</distance><timeResidual>-0.6228680610656738</timeResidual><timeUsed>true</timeUsed><horizontalSlownessUsed>false</horizontalSlownessUsed><backazimuthUsed>false</backazimuthUsed><weight>1</weight></arrival><arrival><pickID>de.gempa.tb1.Pick/20250412115834.512194.123786</pickID><phase>P</phase><azimuth>15.091694831848145</azimuth><distance>1.6942479610443115</distance><timeResidual>-0.239199161529541</timeResidual><timeUsed>true</timeUsed><horizontalSlownessUsed>false</horizontalSlownessUsed><backazimuthUsed>false</backazimuthUsed><weight>1</weight></arrival><arrival><pickID>de.gempa.tb1.Pick/20250412115836.666066.123788</pickID><phase>S</phase><azimuth>47.8100700378418</azimuth><distance>0.9829277396202087</distance><timeResidual>0.002482891082763672</timeResidual><timeUsed>true</timeUsed><horizontalSlownessUsed>false</horizontalSlownessUsed><backazimuthUsed>false</backazimuthUsed><weight>1</weight></arrival><arrival><pickID>de.gempa.tb1.Pick/20250412115840.520905.123789</pickID><phase>S</phase><azimuth>118.6506576538086</azimuth><distance>1.115809440612793</distance><timeResidual>0.015187740325927734</timeResidual><timeUsed>true</timeUsed><horizontalSlownessUsed>false</horizontalSlownessUsed><backazimuthUsed>false</backazimuthUsed><weight>1</weight></arrival><arrival><pickID>de.gempa.tb1.Pick/20250412115842.41388.123790</pickID><phase>P</phase><azimuth>33.628299713134766</azimuth><distance>1.8774197101593018</distance><timeResidual>1.1917662620544434</timeResidual><timeUsed>true</timeUsed><horizontalSlownessUsed>false</horizontalSlownessUsed><backazimuthUsed>false</backazimuthUsed><weight>1</weight></arrival><magnitude publicID="de.gempa.tb1.Magnitude/20250412115845.939362.221518"><magnitude><value>2.4110293859942713</value></magnitude><type>M</type><methodID>weighted average</methodID><stationCount>6</stationCount></magnitude></origin><event publicID="gempa2025hfmd"><preferredOriginID>de.gempa.tb1.Origin/20250412115842.513162.82026</preferredOriginID><preferredMagnitudeID>de.gempa.tb1.Magnitude/20250412115845.939362.221518</preferredMagnitudeID><description><text>Near Coast of Northern Chile</text><type>region name</type></description><originReference>de.gempa.tb1.Origin/20250412115842.513162.82026</originReference></event></EventParameters></seiscomp>