<?xml version="1.0" encoding="UTF-8"?>
<seiscomp xmlns="http://geofon.gfz-potsdam.de/ns/seiscomp3-schema/0.13" version="0.13"><EventParameters><pick publicID="de.gempa.tb1.Pick/20250411184110.681225.119519"><time><value>2025-04-11T18:41:02.938393Z</value></time><waveformID networkCode="CX" stationCode="PB15" channelCode="HHZ"/><filterID>ITAPER(4)&gt;&gt;BW(4,4,20)</filterID><methodID>AIC</methodID><horizontalSlowness><value>23.094637503830235</value></horizontalSlowness><backazimuth><value>114.14886162854717</value></backazimuth><phaseHint>P</phaseHint><evaluationMode>automatic</evaluationMode><comment><text>344.47869574216395</text><id>DFX:rectilinearity</id></comment><comment><text>22.84949508889833</text><id>SNR</id></comment></pick><pick publicID="de.gempa.tb1.Pick/20250411184115.609583.119523"><time><value>2025-04-11T18:41:09.728393Z</value></time><waveformID networkCode="CX" stationCode="PB06" channelCode="HHZ"/><filterID>ITAPER(4)&gt;&gt;BW(4,4,20)</filterID><methodID>AIC</methodID><horizontalSlowness><value>18.13984123311596</value></horizontalSlowness><backazimuth><value>311.6076577948388</value></backazimuth><phaseHint>P</phaseHint><evaluationMode>automatic</evaluationMode><comment><text>40.930476094923215</text><id>DFX:rectilinearity</id></comment><comment><text>10.064267581320935</text><id>SNR</id></comment></pick><pick publicID="de.gempa.tb1.Pick/20250411184118.189731.119525"><time><value>2025-04-11T18:41:12.31Z</value></time><waveformID networkCode="CX" stationCode="PB10" channelCode="HHZ"/><filterID>ITAPER(4)&gt;&gt;BW(4,4,20)</filterID><methodID>AIC</methodID><horizontalSlowness><value>16.106085833527278</value></horizontalSlowness><backazimuth><value>106.78348924950055</value></backazimuth><phaseHint>P</phaseHint><evaluationMode>automatic</evaluationMode><comment><text>132.89402411274187</text><id>DFX:rectilinearity</id></comment><comment><text>11.087403134236382</text><id>SNR</id></comment></pick><pick publicID="de.gempa.tb1.Pick/20250411184119.284983.119527"><time><value>2025-04-11T18:41:05.368393Z</value></time><waveformID networkCode="CX" stationCode="PB15" channelCode="HHN"/><filterID>ITAPER(2)&gt;&gt;BW(3,3,20)</filterID><methodID>L2-AIC-GRID</methodID><horizontalSlowness><value>22.45575964616193</value></horizontalSlowness><backazimuth><value>204.54613511758984</value></backazimuth><phaseHint>S</phaseHint><evaluationMode>automatic</evaluationMode><comment><text>211.11621677621585</text><id>DFX:rectilinearity</id></comment><comment><text>de.gempa.tb1.Pick/20250411184110.681225.119519</text><id>RefPickID</id></comment><comment><text>7.235347531671325</text><id>SNR</id></comment></pick><pick publicID="de.gempa.tb1.Pick/20250411184121.63587.119529"><time><value>2025-04-11T18:41:13.998393Z</value></time><waveformID networkCode="CX" stationCode="PB06" channelCode="HHN"/><filterID>ITAPER(2)&gt;&gt;BW(3,3,20)</filterID><methodID>L2-AIC-GRID</methodID><horizontalSlowness><value>9.040169000510721</value></horizontalSlowness><backazimuth><value>168.3639504066031</value></backazimuth><phaseHint>S</phaseHint><evaluationMode>automatic</evaluationMode><comment><text>64.05489360152404</text><id>DFX:rectilinearity</id></comment><comment><text>de.gempa.tb1.Pick/20250411184115.609583.119523</text><id>RefPickID</id></comment><comment><text>7.71198156772198</text><id>SNR</id></comment></pick><pick publicID="de.gempa.tb1.Pick/20250411184127.676508.119531"><time><value>2025-04-11T18:41:20.628393Z</value></time><waveformID networkCode="CX" stationCode="PB03" channelCode="HHZ"/><filterID>ITAPER(4)&gt;&gt;BW(4,4,20)</filterID><methodID>AIC</methodID><horizontalSlowness><value>10.263422695874842</value></horizontalSlowness><backazimuth><value>168.58977760194895</value></backazimuth><phaseHint>P</phaseHint><evaluationMode>automatic</evaluationMode><comment><text>13.178123302323225</text><id>DFX:rectilinearity</id></comment><comment><text>7.804263645742727</text><id>SNR</id></comment></pick><pick publicID="de.gempa.tb1.Pick/20250411184139.383474.119537"><time><value>2025-04-11T18:41:26.6Z</value></time><waveformID networkCode="CX" stationCode="PB09" channelCode="HHZ"/><filterID>ITAPER(4)&gt;&gt;BW(4,4,20)</filterID><methodID>AIC</methodID><horizontalSlowness><value>20.785231691631388</value></horizontalSlowness><backazimuth><value>165.57615967003076</value></backazimuth><phaseHint>P</phaseHint><evaluationMode>automatic</evaluationMode><comment><text>10.151487485733425</text><id>DFX:rectilinearity</id></comment><comment><text>13.46820904495409</text><id>SNR</id></comment></pick><origin publicID="de.gempa.tb1.Origin/20250411184139.386709.63655"><time><value>2025-04-11T18:40:57.799053Z</value><uncertainty>0.5427002906799316</uncertainty></time><latitude><value>-23.224193572998047</value><uncertainty>3.436079263687134</uncertainty></latitude><longitude><value>-69.73870086669922</value><uncertainty>2.86704158782959</uncertainty></longitude><depth><value>0</value></depth><depthType>operator assigned</depthType><methodID>LOCSAT</methodID><earthModelID>iasp91_scanloc</earthModelID><quality><associatedPhaseCount>7</associatedPhaseCount><usedPhaseCount>7</usedPhaseCount><associatedStationCount>5</associatedStationCount><usedStationCount>5</usedStationCount><depthPhaseCount>0</depthPhaseCount><standardError>1.0140448182663904</standardError><azimuthalGap>162.4341812133789</azimuthalGap><maximumDistance>1.4934381246566772</maximumDistance><minimumDistance>0.2468605488538742</minimumDistance><medianDistance>0.5383946895599365</medianDistance></quality><uncertainty><minHorizontalUncertainty>6.120060920715332</minHorizontalUncertainty><maxHorizontalUncertainty>7.39586067199707</maxHorizontalUncertainty><azimuthMaxHorizontalUncertainty>171.58224487304688</azimuthMaxHorizontalUncertainty><preferredDescription>horizontal uncertainty</preferredDescription></uncertainty><evaluationMode>automatic</evaluationMode><evaluationStatus>confirmed</evaluationStatus><comment><text>0.09</text><id>mismatchScore</id></comment><comment><text>mismatchScore</text><id>scevalMethod</id></comment><arrival><pickID>de.gempa.tb1.Pick/20250411184110.681225.119519</pickID><phase>P</phase><azimuth>86.3864974975586</azimuth><distance>0.2468605488538742</distance><timeResidual>0.4044332504272461</timeResidual><timeUsed>true</timeUsed><horizontalSlownessUsed>false</horizontalSlownessUsed><backazimuthUsed>false</backazimuthUsed><weight>1</weight></arrival><arrival><pickID>de.gempa.tb1.Pick/20250411184115.609583.119523</pickID><phase>P</phase><azimuth>16.626371383666992</azimuth><distance>0.5383946895599365</distance><timeResidual>1.6021957397460938</timeResidual><timeUsed>true</timeUsed><horizontalSlownessUsed>false</horizontalSlownessUsed><backazimuthUsed>false</backazimuthUsed><weight>1</weight></arrival><arrival><pickID>de.gempa.tb1.Pick/20250411184118.189731.119525</pickID><phase>P</phase><azimuth>248.8206787109375</azimuth><distance>0.8026853203773499</distance><timeResidual>-0.8842744827270508</timeResidual><timeUsed>true</timeUsed><horizontalSlownessUsed>false</horizontalSlownessUsed><backazimuthUsed>false</backazimuthUsed><weight>1</weight></arrival><arrival><pickID>de.gempa.tb1.Pick/20250411184119.284983.119527</pickID><phase>S</phase><azimuth>86.3864974975586</azimuth><distance>0.2468605488538742</distance><timeResidual>-0.603790283203125</timeResidual><timeUsed>true</timeUsed><horizontalSlownessUsed>false</horizontalSlownessUsed><backazimuthUsed>false</backazimuthUsed><weight>1</weight></arrival><arrival><pickID>de.gempa.tb1.Pick/20250411184121.63587.119529</pickID><phase>S</phase><azimuth>16.626371383666992</azimuth><distance>0.5383946895599365</distance><timeResidual>-1.6271791458129883</timeResidual><timeUsed>true</timeUsed><horizontalSlownessUsed>false</horizontalSlownessUsed><backazimuthUsed>false</backazimuthUsed><weight>1</weight></arrival><arrival><pickID>de.gempa.tb1.Pick/20250411184127.676508.119531</pickID><phase>P</phase><azimuth>359.34600830078125</azimuth><distance>1.170242190361023</distance><timeResidual>0.3826913833618164</timeResidual><timeUsed>true</timeUsed><horizontalSlownessUsed>false</horizontalSlownessUsed><backazimuthUsed>false</backazimuthUsed><weight>1</weight></arrival><arrival><pickID>de.gempa.tb1.Pick/20250411184139.383474.119537</pickID><phase>P</phase><azimuth>18.00963592529297</azimuth><distance>1.4934381246566772</distance><timeResidual>0.7257699966430664</timeResidual><timeUsed>true</timeUsed><horizontalSlownessUsed>false</horizontalSlownessUsed><backazimuthUsed>false</backazimuthUsed><weight>1</weight></arrival><magnitude publicID="de.gempa.tb1.Magnitude/20250411184250.325295.132501"><magnitude><value>2.199444283958926</value></magnitude><type>M</type><methodID>weighted average</methodID><stationCount>4</stationCount></magnitude></origin><event publicID="gempa2025hedp"><preferredOriginID>de.gempa.tb1.Origin/20250411184139.386709.63655</preferredOriginID><preferredMagnitudeID>de.gempa.tb1.Magnitude/20250411184250.325295.132501</preferredMagnitudeID><description><text>Northern Chile</text><type>region name</type></description><originReference>de.gempa.tb1.Origin/20250411184139.386709.63655</originReference></event></EventParameters></seiscomp>