<?xml version="1.0" encoding="UTF-8"?>
<seiscomp xmlns="http://geofon.gfz-potsdam.de/ns/seiscomp3-schema/0.13" version="0.13"><EventParameters><pick publicID="de.gempa.tb1.Pick/20250414130509.71181.138165"><time><value>2025-04-14T13:05:05.468393Z</value></time><waveformID networkCode="CX" stationCode="PB03" channelCode="HHZ"/><filterID>ITAPER(4)&gt;&gt;BW(4,4,20)</filterID><methodID>AIC</methodID><horizontalSlowness><value>8.548223766931242</value></horizontalSlowness><backazimuth><value>104.12088531775679</value></backazimuth><phaseHint>P</phaseHint><evaluationMode>automatic</evaluationMode><comment><text>111.65264249185871</text><id>DFX:rectilinearity</id></comment><comment><text>263.84580385054574</text><id>SNR</id></comment></pick><pick publicID="de.gempa.tb1.Pick/20250414130511.572798.138167"><time><value>2025-04-14T13:05:05.418393Z</value></time><waveformID networkCode="CX" stationCode="PB06" channelCode="HHZ"/><filterID>ITAPER(4)&gt;&gt;BW(4,4,20)</filterID><methodID>AIC</methodID><horizontalSlowness><value>4.664169197121371</value></horizontalSlowness><backazimuth><value>76.64945539647464</value></backazimuth><phaseHint>P</phaseHint><evaluationMode>automatic</evaluationMode><comment><text>150.64115822990834</text><id>DFX:rectilinearity</id></comment><comment><text>131.87539497811667</text><id>SNR</id></comment></pick><pick publicID="de.gempa.tb1.Pick/20250414130514.506198.138169"><time><value>2025-04-14T13:05:09.668393Z</value></time><waveformID networkCode="CX" stationCode="PB02" channelCode="HHZ"/><filterID>ITAPER(4)&gt;&gt;BW(4,4,20)</filterID><methodID>AIC</methodID><horizontalSlowness><value>8.477192528142124</value></horizontalSlowness><backazimuth><value>108.4273739941417</value></backazimuth><phaseHint>P</phaseHint><evaluationMode>automatic</evaluationMode><comment><text>61.70599402415634</text><id>DFX:rectilinearity</id></comment><comment><text>55.58978623398746</text><id>SNR</id></comment></pick><pick publicID="de.gempa.tb1.Pick/20250414130514.627219.138171"><time><value>2025-04-14T13:05:08.728393Z</value></time><waveformID networkCode="CX" stationCode="PB15" channelCode="HHZ"/><filterID>ITAPER(4)&gt;&gt;BW(4,4,20)</filterID><methodID>AIC</methodID><horizontalSlowness><value>22.18077676284788</value></horizontalSlowness><backazimuth><value>28.159193416364616</value></backazimuth><phaseHint>P</phaseHint><evaluationMode>automatic</evaluationMode><comment><text>916.8472919570704</text><id>DFX:rectilinearity</id></comment><comment><text>26.517014410622554</text><id>SNR</id></comment></pick><pick publicID="de.gempa.tb1.Pick/20250414130515.780997.138173"><time><value>2025-04-14T13:05:08.828393Z</value></time><waveformID networkCode="CX" stationCode="PB01" channelCode="HHZ"/><filterID>ITAPER(4)&gt;&gt;BW(4,4,20)</filterID><methodID>AIC</methodID><horizontalSlowness><value>14.426316790168228</value></horizontalSlowness><backazimuth><value>193.537674872864</value></backazimuth><phaseHint>P</phaseHint><evaluationMode>automatic</evaluationMode><comment><text>18.1329433899774</text><id>DFX:rectilinearity</id></comment><comment><text>74.43191376698366</text><id>SNR</id></comment></pick><pick publicID="de.gempa.tb1.Pick/20250414130517.634346.138175"><time><value>2025-04-14T13:05:02.34Z</value></time><waveformID networkCode="CX" stationCode="PB09" channelCode="HHZ"/><filterID>ITAPER(4)&gt;&gt;BW(4,4,20)</filterID><methodID>AIC</methodID><horizontalSlowness><value>16.772656315118688</value></horizontalSlowness><backazimuth><value>95.72727785203148</value></backazimuth><phaseHint>P</phaseHint><evaluationMode>automatic</evaluationMode><comment><text>140.2293113112539</text><id>DFX:rectilinearity</id></comment><comment><text>230.52416152628254</text><id>SNR</id></comment></pick><pick publicID="de.gempa.tb1.Pick/20250414130520.530243.138177"><time><value>2025-04-14T13:05:15.44Z</value></time><waveformID networkCode="CX" stationCode="PB19" channelCode="HHZ"/><filterID>ITAPER(4)&gt;&gt;BW(4,4,20)</filterID><methodID>AIC</methodID><horizontalSlowness><value>19.020847003530879</value></horizontalSlowness><backazimuth><value>270.4260774435053</value></backazimuth><phaseHint>P</phaseHint><evaluationMode>automatic</evaluationMode><comment><text>23.843052766264954</text><id>DFX:rectilinearity</id></comment><comment><text>12.451176811657186</text><id>SNR</id></comment></pick><pick publicID="de.gempa.tb1.Pick/20250414130528.642004.138179"><time><value>2025-04-14T13:05:22.858393Z</value></time><waveformID networkCode="CX" stationCode="PB03" channelCode="HHN"/><filterID>ITAPER(2)&gt;&gt;BW(3,3,20)</filterID><methodID>L2-AIC-GRID</methodID><horizontalSlowness><value>14.157495079129054</value></horizontalSlowness><backazimuth><value>302.6212819333226</value></backazimuth><phaseHint>S</phaseHint><evaluationMode>automatic</evaluationMode><comment><text>755.164797330689</text><id>DFX:rectilinearity</id></comment><comment><text>de.gempa.tb1.Pick/20250414130509.71181.138165</text><id>RefPickID</id></comment><comment><text>6.927503175649844</text><id>SNR</id></comment></pick><pick publicID="de.gempa.tb1.Pick/20250414130529.601698.138180"><time><value>2025-04-14T13:05:22.988393Z</value></time><waveformID networkCode="CX" stationCode="PB06" channelCode="HHN"/><filterID>ITAPER(2)&gt;&gt;BW(3,3,20)</filterID><methodID>L2-AIC-GRID</methodID><horizontalSlowness><value>22.691797228344083</value></horizontalSlowness><backazimuth><value>333.1519127529805</value></backazimuth><phaseHint>S</phaseHint><evaluationMode>automatic</evaluationMode><comment><text>633.1154232468211</text><id>DFX:rectilinearity</id></comment><comment><text>de.gempa.tb1.Pick/20250414130511.572798.138167</text><id>RefPickID</id></comment><comment><text>6.061561962662115</text><id>SNR</id></comment></pick><pick publicID="de.gempa.tb1.Pick/20250414130532.279832.138181"><time><value>2025-04-14T13:05:07.508396Z</value></time><waveformID networkCode="CX" stationCode="PB07" channelCode="HHZ"/><filterID>ITAPER(4)&gt;&gt;BW(4,4,20)</filterID><methodID>AIC</methodID><horizontalSlowness><value>12.063063540115516</value></horizontalSlowness><backazimuth><value>136.1158763827266</value></backazimuth><phaseHint>P</phaseHint><evaluationMode>automatic</evaluationMode><comment><text>384.30494495988</text><id>DFX:rectilinearity</id></comment><comment><text>517.2577192950193</text><id>SNR</id></comment></pick><pick publicID="de.gempa.tb1.Pick/20250414130535.717516.138185"><time><value>2025-04-14T13:05:28.518393Z</value></time><waveformID networkCode="CX" stationCode="PB01" channelCode="HHN"/><filterID>ITAPER(2)&gt;&gt;BW(3,3,20)</filterID><methodID>L2-AIC-GRID</methodID><horizontalSlowness><value>22.330269482594108</value></horizontalSlowness><backazimuth><value>248.8999694716864</value></backazimuth><phaseHint>S</phaseHint><evaluationMode>automatic</evaluationMode><comment><text>1238.9376144565267</text><id>DFX:rectilinearity</id></comment><comment><text>de.gempa.tb1.Pick/20250414130515.780997.138173</text><id>RefPickID</id></comment><comment><text>15.659265773462435</text><id>SNR</id></comment></pick><origin publicID="de.gempa.tb1.Origin/20250414130535.720703.139170"><time><value>2025-04-14T13:04:43.342064Z</value><uncertainty>0.9243219494819641</uncertainty></time><latitude><value>-22.120229721069336</value><uncertainty>4.020261287689209</uncertainty></latitude><longitude><value>-68.68372344970703</value><uncertainty>17.06148338317871</uncertainty></longitude><depth><value>122.4239501953125</value><uncertainty>17.300243377685547</uncertainty></depth><depthType>from location</depthType><methodID>LOCSAT</methodID><earthModelID>iasp91_scanloc</earthModelID><quality><associatedPhaseCount>11</associatedPhaseCount><usedPhaseCount>11</usedPhaseCount><associatedStationCount>8</associatedStationCount><usedStationCount>8</usedStationCount><depthPhaseCount>0</depthPhaseCount><standardError>0.11236183618135961</standardError><azimuthalGap>232.41876220703125</azimuthalGap><maximumDistance>1.8621609210968018</maximumDistance><minimumDistance>0.6102321743965149</minimumDistance><medianDistance>1.1832289695739746</medianDistance></quality><uncertainty><minHorizontalUncertainty>8.555533409118652</minHorizontalUncertainty><maxHorizontalUncertainty>36.59574508666992</maxHorizontalUncertainty><azimuthMaxHorizontalUncertainty>88.30998992919922</azimuthMaxHorizontalUncertainty><preferredDescription>horizontal uncertainty</preferredDescription></uncertainty><evaluationMode>automatic</evaluationMode><evaluationStatus>confirmed</evaluationStatus><comment><text>0.00</text><id>mismatchScore</id></comment><comment><text>mismatchScore</text><id>scevalMethod</id></comment><arrival><pickID>de.gempa.tb1.Pick/20250414130509.71181.138165</pickID><phase>P</phase><azimuth>273.91827392578125</azimuth><distance>0.9944170117378235</distance><timeResidual>-0.09996414184570312</timeResidual><timeUsed>true</timeUsed><horizontalSlownessUsed>false</horizontalSlownessUsed><backazimuthUsed>false</backazimuthUsed><weight>1</weight></arrival><arrival><pickID>de.gempa.tb1.Pick/20250414130511.572798.138167</pickID><phase>P</phase><azimuth>234.4918670654297</azimuth><distance>1.0075087547302246</distance><timeResidual>-0.27310943603515625</timeResidual><timeUsed>true</timeUsed><horizontalSlownessUsed>false</horizontalSlownessUsed><backazimuthUsed>false</backazimuthUsed><weight>1</weight></arrival><arrival><pickID>de.gempa.tb1.Pick/20250414130514.506198.138169</pickID><phase>P</phase><azimuth>305.0231628417969</azimuth><distance>1.3803092241287231</distance><timeResidual>0.0516357421875</timeResidual><timeUsed>true</timeUsed><horizontalSlownessUsed>false</horizontalSlownessUsed><backazimuthUsed>false</backazimuthUsed><weight>1</weight></arrival><arrival><pickID>de.gempa.tb1.Pick/20250414130514.627219.138171</pickID><phase>P</phase><azimuth>213.72817993164062</azimuth><distance>1.3044178485870361</distance><timeResidual>-0.039093017578125</timeResidual><timeUsed>true</timeUsed><horizontalSlownessUsed>false</horizontalSlownessUsed><backazimuthUsed>false</backazimuthUsed><weight>1</weight></arrival><arrival><pickID>de.gempa.tb1.Pick/20250414130515.780997.138173</pickID><phase>P</phase><azimuth>324.93927001953125</azimuth><distance>1.3069360256195068</distance><timeResidual>0.020603179931640625</timeResidual><timeUsed>true</timeUsed><horizontalSlownessUsed>false</horizontalSlownessUsed><backazimuthUsed>false</backazimuthUsed><weight>1</weight></arrival><arrival><pickID>de.gempa.tb1.Pick/20250414130517.634346.138175</pickID><phase>P</phase><azimuth>301.7753601074219</azimuth><distance>0.6102321743965149</distance><timeResidual>0.029481887817382809</timeResidual><timeUsed>true</timeUsed><horizontalSlownessUsed>false</horizontalSlownessUsed><backazimuthUsed>false</backazimuthUsed><weight>1</weight></arrival><arrival><pickID>de.gempa.tb1.Pick/20250414130520.530243.138177</pickID><phase>P</phase><azimuth>197.3580322265625</azimuth><distance>1.8621609210968018</distance><timeResidual>0.19351768493652344</timeResidual><timeUsed>true</timeUsed><horizontalSlownessUsed>false</horizontalSlownessUsed><backazimuthUsed>false</backazimuthUsed><weight>1</weight></arrival><arrival><pickID>de.gempa.tb1.Pick/20250414130528.642004.138179</pickID><phase>S</phase><azimuth>273.91827392578125</azimuth><distance>0.9944170117378235</distance><timeResidual>0.09912300109863281</timeResidual><timeUsed>true</timeUsed><horizontalSlownessUsed>false</horizontalSlownessUsed><backazimuthUsed>false</backazimuthUsed><weight>1</weight></arrival><arrival><pickID>de.gempa.tb1.Pick/20250414130529.601698.138180</pickID><phase>S</phase><azimuth>234.4918670654297</azimuth><distance>1.0075087547302246</distance><timeResidual>0.008882522583007812</timeResidual><timeUsed>true</timeUsed><horizontalSlownessUsed>false</horizontalSlownessUsed><backazimuthUsed>false</backazimuthUsed><weight>1</weight></arrival><arrival><pickID>de.gempa.tb1.Pick/20250414130532.279832.138181</pickID><phase>P</phase><azimuth>289.10577392578125</azimuth><distance>1.1832289695739746</distance><timeResidual>0.031133651733398441</timeResidual><timeUsed>true</timeUsed><horizontalSlownessUsed>false</horizontalSlownessUsed><backazimuthUsed>false</backazimuthUsed><weight>1</weight></arrival><arrival><pickID>de.gempa.tb1.Pick/20250414130535.717516.138185</pickID><phase>S</phase><azimuth>324.93927001953125</azimuth><distance>1.3069360256195068</distance><timeResidual>-0.022012710571289062</timeResidual><timeUsed>true</timeUsed><horizontalSlownessUsed>false</horizontalSlownessUsed><backazimuthUsed>false</backazimuthUsed><weight>1</weight></arrival><magnitude publicID="de.gempa.tb1.Magnitude/20250414130535.725933.492110"><magnitude><value>2.7281218363636155</value></magnitude><type>M</type><methodID>weighted average</methodID><stationCount>7</stationCount></magnitude></origin><event publicID="gempa2025hjgk"><preferredOriginID>de.gempa.tb1.Origin/20250414130535.720703.139170</preferredOriginID><preferredMagnitudeID>de.gempa.tb1.Magnitude/20250414130535.725933.492110</preferredMagnitudeID><description><text>Northern Chile</text><type>region name</type></description><originReference>de.gempa.tb1.Origin/20250414130535.720703.139170</originReference></event></EventParameters></seiscomp>