<?xml version="1.0" encoding="UTF-8"?>
<seiscomp xmlns="http://geofon.gfz-potsdam.de/ns/seiscomp3-schema/0.13" version="0.13"><EventParameters><pick publicID="de.gempa.tb1.Pick/20250413194136.42169.133504"><time><value>2025-04-13T19:41:31.429999Z</value></time><waveformID networkCode="CX" stationCode="PATCX" channelCode="HHZ"/><filterID>ITAPER(4)&gt;&gt;BW(4,4,20)</filterID><methodID>AIC</methodID><horizontalSlowness><value>23.342138538075886</value></horizontalSlowness><backazimuth><value>245.66430984487175</value></backazimuth><phaseHint>P</phaseHint><evaluationMode>automatic</evaluationMode><comment><text>526.1470016312113</text><id>DFX:rectilinearity</id></comment><comment><text>160.91798373377716</text><id>SNR</id></comment></pick><pick publicID="de.gempa.tb1.Pick/20250413194138.506316.133506"><time><value>2025-04-13T19:41:33.678393Z</value></time><waveformID networkCode="CX" stationCode="PB02" channelCode="HHZ"/><filterID>ITAPER(4)&gt;&gt;BW(4,4,20)</filterID><methodID>AIC</methodID><horizontalSlowness><value>11.43308372264527</value></horizontalSlowness><backazimuth><value>287.2130463853092</value></backazimuth><phaseHint>P</phaseHint><evaluationMode>automatic</evaluationMode><comment><text>931.3581498221334</text><id>DFX:rectilinearity</id></comment><comment><text>300.44389628145706</text><id>SNR</id></comment></pick><pick publicID="de.gempa.tb1.Pick/20250413194144.777075.133508"><time><value>2025-04-13T19:41:37.918394Z</value></time><waveformID networkCode="CX" stationCode="PB01" channelCode="HHZ"/><filterID>ITAPER(4)&gt;&gt;BW(4,4,20)</filterID><methodID>AIC</methodID><horizontalSlowness><value>20.442291506214527</value></horizontalSlowness><backazimuth><value>230.2042869423952</value></backazimuth><phaseHint>P</phaseHint><evaluationMode>automatic</evaluationMode><comment><text>13.686679181629135</text><id>DFX:rectilinearity</id></comment><comment><text>105.0811131732847</text><id>SNR</id></comment></pick><pick publicID="de.gempa.tb1.Pick/20250413194146.775596.133510"><time><value>2025-04-13T19:41:41.198393Z</value></time><waveformID networkCode="CX" stationCode="PB03" channelCode="HHZ"/><filterID>ITAPER(4)&gt;&gt;BW(4,4,20)</filterID><methodID>AIC</methodID><horizontalSlowness><value>12.253374118772468</value></horizontalSlowness><backazimuth><value>65.29919335052503</value></backazimuth><phaseHint>P</phaseHint><evaluationMode>automatic</evaluationMode><comment><text>6.679240943025461</text><id>DFX:rectilinearity</id></comment><comment><text>19.636375728805877</text><id>SNR</id></comment></pick><pick publicID="de.gempa.tb1.Pick/20250413194147.263782.133512"><time><value>2025-04-13T19:41:38.979999Z</value></time><waveformID networkCode="CX" stationCode="PATCX" channelCode="HHN"/><filterID>ITAPER(2)&gt;&gt;BW(3,3,20)</filterID><methodID>L2-AIC-GRID</methodID><horizontalSlowness><value>23.17131768636118</value></horizontalSlowness><backazimuth><value>49.61864572073068</value></backazimuth><phaseHint>S</phaseHint><evaluationMode>automatic</evaluationMode><comment><text>17062.786171260312</text><id>DFX:rectilinearity</id></comment><comment><text>de.gempa.tb1.Pick/20250413194136.42169.133504</text><id>RefPickID</id></comment><comment><text>6.538547280252522</text><id>SNR</id></comment></pick><pick publicID="de.gempa.tb1.Pick/20250413194147.778334.133513"><time><value>2025-04-13T19:41:36.808396Z</value></time><waveformID networkCode="CX" stationCode="PB07" channelCode="HHZ"/><filterID>ITAPER(4)&gt;&gt;BW(4,4,20)</filterID><methodID>AIC</methodID><horizontalSlowness><value>17.45626769303794</value></horizontalSlowness><backazimuth><value>326.55755441341284</value></backazimuth><phaseHint>P</phaseHint><evaluationMode>automatic</evaluationMode><comment><text>248.9213242401287</text><id>DFX:rectilinearity</id></comment><comment><text>221.10578760593097</text><id>SNR</id></comment></pick><pick publicID="de.gempa.tb1.Pick/20250413194148.526289.133515"><time><value>2025-04-13T19:41:42.638393Z</value></time><waveformID networkCode="CX" stationCode="PB02" channelCode="HHN"/><filterID>ITAPER(2)&gt;&gt;BW(3,3,20)</filterID><methodID>L2-AIC-GRID</methodID><horizontalSlowness><value>21.62067033332828</value></horizontalSlowness><backazimuth><value>73.98222271095557</value></backazimuth><phaseHint>S</phaseHint><evaluationMode>automatic</evaluationMode><comment><text>20657.278616702031</text><id>DFX:rectilinearity</id></comment><comment><text>de.gempa.tb1.Pick/20250413194138.506316.133506</text><id>RefPickID</id></comment><comment><text>10.068502260192906</text><id>SNR</id></comment></pick><pick publicID="de.gempa.tb1.Pick/20250413194153.331827.133516"><time><value>2025-04-13T19:41:44.6Z</value></time><waveformID networkCode="CX" stationCode="PB09" channelCode="HHZ"/><filterID>ITAPER(4)&gt;&gt;BW(4,4,20)</filterID><methodID>AIC</methodID><horizontalSlowness><value>12.899483213283856</value></horizontalSlowness><backazimuth><value>117.53664232364105</value></backazimuth><phaseHint>P</phaseHint><evaluationMode>automatic</evaluationMode><comment><text>10.171028160985559</text><id>DFX:rectilinearity</id></comment><comment><text>42.676222616507836</text><id>SNR</id></comment></pick><pick publicID="de.gempa.tb1.Pick/20250413194153.52396.133518"><time><value>2025-04-13T19:41:45.92Z</value></time><waveformID networkCode="CX" stationCode="PSGCX" channelCode="HHZ"/><filterID>ITAPER(4)&gt;&gt;BW(4,4,20)</filterID><methodID>AIC</methodID><horizontalSlowness><value>4.4696032151642324</value></horizontalSlowness><backazimuth><value>174.77506586668855</value></backazimuth><phaseHint>P</phaseHint><evaluationMode>automatic</evaluationMode><comment><text>19.360278342951137</text><id>DFX:rectilinearity</id></comment><comment><text>31.317178126290784</text><id>SNR</id></comment></pick><pick publicID="de.gempa.tb1.Pick/20250413194154.594833.133520"><time><value>2025-04-13T19:41:47.188393Z</value></time><waveformID networkCode="CX" stationCode="PB08" channelCode="HHZ"/><filterID>ITAPER(4)&gt;&gt;BW(4,4,20)</filterID><methodID>AIC</methodID><horizontalSlowness><value>13.982107081933556</value></horizontalSlowness><backazimuth><value>201.4761849242824</value></backazimuth><phaseHint>P</phaseHint><evaluationMode>automatic</evaluationMode><comment><text>25.94485124844194</text><id>DFX:rectilinearity</id></comment><comment><text>13.633642455426534</text><id>SNR</id></comment></pick><pick publicID="de.gempa.tb1.Pick/20250413194154.838037.133522"><time><value>2025-04-13T19:41:48.228396Z</value></time><waveformID networkCode="CX" stationCode="PB07" channelCode="HHN"/><filterID>ITAPER(2)&gt;&gt;BW(3,3,20)</filterID><methodID>L2-AIC-GRID</methodID><horizontalSlowness><value>22.18483190928763</value></horizontalSlowness><backazimuth><value>107.15566467311356</value></backazimuth><phaseHint>S</phaseHint><evaluationMode>automatic</evaluationMode><comment><text>28460.725800493987</text><id>DFX:rectilinearity</id></comment><comment><text>de.gempa.tb1.Pick/20250413194147.778334.133513</text><id>RefPickID</id></comment><comment><text>9.349017134578874</text><id>SNR</id></comment></pick><pick publicID="de.gempa.tb1.Pick/20250413194159.775916.133523"><time><value>2025-04-13T19:41:50.148394Z</value></time><waveformID networkCode="CX" stationCode="PB01" channelCode="HHN"/><filterID>ITAPER(2)&gt;&gt;BW(3,3,20)</filterID><methodID>L2-AIC-GRID</methodID><horizontalSlowness><value>21.51358016498773</value></horizontalSlowness><backazimuth><value>324.2064117407258</value></backazimuth><phaseHint>S</phaseHint><evaluationMode>automatic</evaluationMode><comment><text>1969.3108362184219</text><id>DFX:rectilinearity</id></comment><comment><text>de.gempa.tb1.Pick/20250413194144.777075.133508</text><id>RefPickID</id></comment><comment><text>10.507849160329137</text><id>SNR</id></comment></pick><pick publicID="de.gempa.tb1.Pick/20250413194211.785216.133527"><time><value>2025-04-13T19:42:03.66Z</value></time><waveformID networkCode="CX" stationCode="PSGCX" channelCode="HHN"/><filterID>ITAPER(2)&gt;&gt;BW(3,3,20)</filterID><methodID>L2-AIC-GRID</methodID><horizontalSlowness><value>21.515821576626895</value></horizontalSlowness><backazimuth><value>14.760628946531824</value></backazimuth><phaseHint>S</phaseHint><evaluationMode>automatic</evaluationMode><comment><text>335.92683255260704</text><id>DFX:rectilinearity</id></comment><comment><text>de.gempa.tb1.Pick/20250413194153.52396.133518</text><id>RefPickID</id></comment><comment><text>6.66541846820212</text><id>SNR</id></comment></pick><pick publicID="de.gempa.tb1.Pick/20250413194215.248405.133528"><time><value>2025-04-13T19:42:06.758393Z</value></time><waveformID networkCode="CX" stationCode="PB08" channelCode="HHN"/><filterID>ITAPER(2)&gt;&gt;BW(3,3,20)</filterID><methodID>L2-AIC-GRID</methodID><horizontalSlowness><value>14.525531710062387</value></horizontalSlowness><backazimuth><value>209.91929971038243</value></backazimuth><phaseHint>S</phaseHint><evaluationMode>automatic</evaluationMode><comment><text>455.4430324569516</text><id>DFX:rectilinearity</id></comment><comment><text>de.gempa.tb1.Pick/20250413194154.594833.133520</text><id>RefPickID</id></comment><comment><text>11.255088009283583</text><id>SNR</id></comment></pick><pick publicID="de.gempa.tb1.Pick/20250413194218.175087.133529"><time><value>2025-04-13T19:42:01.92Z</value></time><waveformID networkCode="CX" stationCode="PB09" channelCode="HHN"/><filterID>ITAPER(2)&gt;&gt;BW(3,3,20)</filterID><methodID>L2-AIC-GRID</methodID><horizontalSlowness><value>15.060469438151523</value></horizontalSlowness><backazimuth><value>299.94124791350907</value></backazimuth><phaseHint>S</phaseHint><evaluationMode>automatic</evaluationMode><comment><text>613.3918182624075</text><id>DFX:rectilinearity</id></comment><comment><text>de.gempa.tb1.Pick/20250413194153.331827.133516</text><id>RefPickID</id></comment><comment><text>5.383594261761866</text><id>SNR</id></comment></pick><origin publicID="de.gempa.tb1.Origin/20250413194218.454855.118610"><time><value>2025-04-13T19:41:21.119368Z</value><uncertainty>0.6705072522163391</uncertainty></time><latitude><value>-21.076984405517578</value><uncertainty>2.554057836532593</uncertainty></latitude><longitude><value>-70.50309753417969</value><uncertainty>5.359285831451416</uncertainty></longitude><depth><value>45.61597061157227</value><uncertainty>9.095551490783691</uncertainty></depth><depthType>from location</depthType><methodID>LOCSAT</methodID><earthModelID>iasp91_scanloc</earthModelID><quality><associatedPhaseCount>15</associatedPhaseCount><usedPhaseCount>15</usedPhaseCount><associatedStationCount>8</associatedStationCount><usedStationCount>8</usedStationCount><depthPhaseCount>0</depthPhaseCount><standardError>0.5502509474541356</standardError><azimuthalGap>229.38260650634766</azimuthalGap><maximumDistance>1.5702205896377563</maximumDistance><minimumDistance>0.4149453043937683</minimumDistance><medianDistance>0.9492669105529785</medianDistance></quality><uncertainty><minHorizontalUncertainty>5.078348636627197</minHorizontalUncertainty><maxHorizontalUncertainty>11.672078132629395</maxHorizontalUncertainty><azimuthMaxHorizontalUncertainty>78.75699615478516</azimuthMaxHorizontalUncertainty><preferredDescription>horizontal uncertainty</preferredDescription></uncertainty><evaluationMode>automatic</evaluationMode><evaluationStatus>confirmed</evaluationStatus><comment><text>0.00</text><id>mismatchScore</id></comment><comment><text>mismatchScore</text><id>scevalMethod</id></comment><arrival><pickID>de.gempa.tb1.Pick/20250413194136.42169.133504</pickID><phase>P</phase><azimuth>52.14493179321289</azimuth><distance>0.4149453043937683</distance><timeResidual>0.32582664489746094</timeResidual><timeUsed>true</timeUsed><horizontalSlownessUsed>false</horizontalSlownessUsed><backazimuthUsed>false</backazimuthUsed><weight>1</weight></arrival><arrival><pickID>de.gempa.tb1.Pick/20250413194138.506316.133506</pickID><phase>P</phase><azimuth>113.20166778564453</azimuth><distance>0.6158325672149658</distance><timeResidual>0.07859420776367188</timeResidual><timeUsed>true</timeUsed><horizontalSlownessUsed>false</horizontalSlownessUsed><backazimuthUsed>false</backazimuthUsed><weight>1</weight></arrival><arrival><pickID>de.gempa.tb1.Pick/20250413194144.777075.133508</pickID><phase>P</phase><azimuth>88.15386962890625</azimuth><distance>0.9492669105529785</distance><timeResidual>-0.13761043548583984</timeResidual><timeUsed>true</timeUsed><horizontalSlownessUsed>false</horizontalSlownessUsed><backazimuthUsed>false</backazimuthUsed><weight>1</weight></arrival><arrival><pickID>de.gempa.tb1.Pick/20250413194146.775596.133510</pickID><phase>P</phase><azimuth>144.30055236816406</azimuth><distance>1.192450761795044</distance><timeResidual>-0.16338729858398438</timeResidual><timeUsed>true</timeUsed><horizontalSlownessUsed>false</horizontalSlownessUsed><backazimuthUsed>false</backazimuthUsed><weight>1</weight></arrival><arrival><pickID>de.gempa.tb1.Pick/20250413194147.263782.133512</pickID><phase>S</phase><azimuth>52.14493179321289</azimuth><distance>0.4149453043937683</distance><timeResidual>0.432927131652832</timeResidual><timeUsed>true</timeUsed><horizontalSlownessUsed>false</horizontalSlownessUsed><backazimuthUsed>false</backazimuthUsed><weight>1</weight></arrival><arrival><pickID>de.gempa.tb1.Pick/20250413194147.778334.133513</pickID><phase>P</phase><azimuth>138.4661407470703</azimuth><distance>0.865122139453888</distance><timeResidual>-0.1064748764038086</timeResidual><timeUsed>true</timeUsed><horizontalSlownessUsed>false</horizontalSlownessUsed><backazimuthUsed>false</backazimuthUsed><weight>1</weight></arrival><arrival><pickID>de.gempa.tb1.Pick/20250413194148.526289.133515</pickID><phase>S</phase><azimuth>113.20166778564453</azimuth><distance>0.6158325672149658</distance><timeResidual>-0.3408956527709961</timeResidual><timeUsed>true</timeUsed><horizontalSlownessUsed>false</horizontalSlownessUsed><backazimuthUsed>false</backazimuthUsed><weight>1</weight></arrival><arrival><pickID>de.gempa.tb1.Pick/20250413194153.331827.133516</pickID><phase>P</phase><azimuth>121.57976531982422</azimuth><distance>1.3758597373962402</distance><timeResidual>0.7297964096069336</timeResidual><timeUsed>true</timeUsed><horizontalSlownessUsed>false</horizontalSlownessUsed><backazimuthUsed>false</backazimuthUsed><weight>1</weight></arrival><arrival><pickID>de.gempa.tb1.Pick/20250413194153.52396.133518</pickID><phase>P</phase><azimuth>13.68315887451172</azimuth><distance>1.5148600339889526</distance><timeResidual>0.13678646087646484</timeResidual><timeUsed>true</timeUsed><horizontalSlownessUsed>false</horizontalSlownessUsed><backazimuthUsed>false</backazimuthUsed><weight>1</weight></arrival><arrival><pickID>de.gempa.tb1.Pick/20250413194154.594833.133520</pickID><phase>P</phase><azimuth>53.8681755065918</azimuth><distance>1.5702205896377563</distance><timeResidual>0.64910888671875</timeResidual><timeUsed>true</timeUsed><horizontalSlownessUsed>false</horizontalSlownessUsed><backazimuthUsed>false</backazimuthUsed><weight>1</weight></arrival><arrival><pickID>de.gempa.tb1.Pick/20250413194154.838037.133522</pickID><phase>S</phase><azimuth>138.4661407470703</azimuth><distance>0.865122139453888</distance><timeResidual>-0.6828441619873047</timeResidual><timeUsed>true</timeUsed><horizontalSlownessUsed>false</horizontalSlownessUsed><backazimuthUsed>false</backazimuthUsed><weight>1</weight></arrival><arrival><pickID>de.gempa.tb1.Pick/20250413194159.775916.133523</pickID><phase>S</phase><azimuth>88.15386962890625</azimuth><distance>0.9492669105529785</distance><timeResidual>-0.810403823852539</timeResidual><timeUsed>true</timeUsed><horizontalSlownessUsed>false</horizontalSlownessUsed><backazimuthUsed>false</backazimuthUsed><weight>1</weight></arrival><arrival><pickID>de.gempa.tb1.Pick/20250413194211.785216.133527</pickID><phase>S</phase><azimuth>13.68315887451172</azimuth><distance>1.5148600339889526</distance><timeResidual>-1.1823577880859375</timeResidual><timeUsed>true</timeUsed><horizontalSlownessUsed>false</horizontalSlownessUsed><backazimuthUsed>false</backazimuthUsed><weight>1</weight></arrival><arrival><pickID>de.gempa.tb1.Pick/20250413194215.248405.133528</pickID><phase>S</phase><azimuth>53.8681755065918</azimuth><distance>1.5702205896377563</distance><timeResidual>0.5565338134765625</timeResidual><timeUsed>true</timeUsed><horizontalSlownessUsed>false</horizontalSlownessUsed><backazimuthUsed>false</backazimuthUsed><weight>1</weight></arrival><arrival><pickID>de.gempa.tb1.Pick/20250413194218.175087.133529</pickID><phase>S</phase><azimuth>121.57976531982422</azimuth><distance>1.3758597373962402</distance><timeResidual>0.5150833129882812</timeResidual><timeUsed>true</timeUsed><horizontalSlownessUsed>false</horizontalSlownessUsed><backazimuthUsed>false</backazimuthUsed><weight>1</weight></arrival><magnitude publicID="de.gempa.tb1.Magnitude/20250413194230.940905.395236"><magnitude><value>2.58846267382836</value></magnitude><type>M</type><methodID>weighted average</methodID><stationCount>6</stationCount></magnitude></origin><event publicID="gempa2025hhxq"><preferredOriginID>de.gempa.tb1.Origin/20250413194218.454855.118610</preferredOriginID><preferredMagnitudeID>de.gempa.tb1.Magnitude/20250413194230.940905.395236</preferredMagnitudeID><description><text>Near Coast of Northern Chile</text><type>region name</type></description><originReference>de.gempa.tb1.Origin/20250413194218.454855.118610</originReference></event></EventParameters></seiscomp>