<?xml version="1.0" encoding="UTF-8"?>
<seiscomp xmlns="http://geofon.gfz-potsdam.de/ns/seiscomp3-schema/0.13" version="0.13"><EventParameters><pick publicID="de.gempa.tb1.Pick/20250412193037.977901.187088"><time><value>2025-04-12T19:30:32.8Z</value></time><waveformID networkCode="SX" stationCode="ROHR" channelCode="HHZ"/><filterID>ITAPER(2)&gt;&gt;BW(3,3,20)</filterID><methodID>AIC</methodID><horizontalSlowness><value>19.879361680371268</value></horizontalSlowness><backazimuth><value>82.89517500754083</value></backazimuth><phaseHint>P</phaseHint><evaluationMode>automatic</evaluationMode><comment><text>21.390123086599953</text><id>DFX:rectilinearity</id></comment></pick><pick publicID="de.gempa.tb1.Pick/20250412193039.69886.187092"><time><value>2025-04-12T19:30:34.74Z</value></time><waveformID networkCode="SX" stationCode="WERD" channelCode="HHZ"/><filterID>ITAPER(2)&gt;&gt;BW(3,3,20)</filterID><methodID>AIC</methodID><horizontalSlowness><value>23.037789080662723</value></horizontalSlowness><backazimuth><value>228.9113894312021</value></backazimuth><phaseHint>P</phaseHint><evaluationMode>automatic</evaluationMode><comment><text>22.56909331945806</text><id>DFX:rectilinearity</id></comment></pick><pick publicID="de.gempa.tb1.Pick/20250412193039.843375.187094"><time><value>2025-04-12T19:30:33.82Z</value></time><waveformID networkCode="SX" stationCode="TANN" channelCode="HHZ"/><filterID>ITAPER(2)&gt;&gt;BW(3,3,20)</filterID><methodID>AIC</methodID><horizontalSlowness><value>17.767663671507453</value></horizontalSlowness><backazimuth><value>318.9173348263904</value></backazimuth><phaseHint>P</phaseHint><evaluationMode>automatic</evaluationMode><comment><text>9.303961221885034</text><id>DFX:rectilinearity</id></comment></pick><pick publicID="de.gempa.tb1.Pick/20250412193040.470103.187096"><time><value>2025-04-12T19:30:32.5675Z</value></time><waveformID networkCode="SX" stationCode="WERN" channelCode="HHZ"/><filterID>ITAPER(2)&gt;&gt;BW(3,3,20)</filterID><methodID>AIC</methodID><horizontalSlowness><value>22.80449144050552</value></horizontalSlowness><backazimuth><value>247.5424494702395</value></backazimuth><phaseHint>P</phaseHint><evaluationMode>automatic</evaluationMode><comment><text>161.96547432116475</text><id>DFX:rectilinearity</id></comment></pick><pick publicID="de.gempa.tb1.Pick/20250412193041.110945.187098"><time><value>2025-04-12T19:30:37.25Z</value></time><waveformID networkCode="SX" stationCode="LEUT" channelCode="HHZ"/><filterID>ITAPER(2)&gt;&gt;BW(3,3,20)</filterID><methodID>AIC</methodID><horizontalSlowness><value>19.182609872570175</value></horizontalSlowness><backazimuth><value>279.4772192688632</value></backazimuth><phaseHint>P</phaseHint><evaluationMode>automatic</evaluationMode><comment><text>2.0633647610262535</text><id>DFX:rectilinearity</id></comment></pick><pick publicID="de.gempa.tb1.Pick/20250412193042.907391.187100"><time><value>2025-04-12T19:30:33.54Z</value></time><waveformID networkCode="SX" stationCode="GUNZ" channelCode="HHZ"/><filterID>ITAPER(2)&gt;&gt;BW(3,3,20)</filterID><methodID>AIC</methodID><horizontalSlowness><value>22.86704351909361</value></horizontalSlowness><backazimuth><value>276.24646858342976</value></backazimuth><phaseHint>P</phaseHint><evaluationMode>automatic</evaluationMode><comment><text>42.38427345752982</text><id>DFX:rectilinearity</id></comment></pick><pick publicID="de.gempa.tb1.Pick/20250412193043.123317.187102"><time><value>2025-04-12T19:30:40.105Z</value></time><waveformID networkCode="BW" stationCode="ROTZ" channelCode="HHZ"/><filterID>ITAPER(2)&gt;&gt;BW(3,3,20)</filterID><methodID>AIC</methodID><horizontalSlowness><value>7.826392121579326</value><uncertainty>5.456937432016065</uncertainty></horizontalSlowness><backazimuth><value>239.3704657808703</value><uncertainty>40.80636097157906</uncertainty></backazimuth><phaseHint>P</phaseHint><evaluationMode>automatic</evaluationMode><comment><text>0.6983220087545847</text><id>DFX:rectilinearity</id></comment></pick><pick publicID="de.gempa.tb1.Pick/20250412193043.347249.187104"><time><value>2025-04-12T19:30:33.84Z</value></time><waveformID networkCode="SX" stationCode="MULD" channelCode="HHZ"/><filterID>ITAPER(2)&gt;&gt;BW(3,3,20)</filterID><methodID>AIC</methodID><horizontalSlowness><value>22.206657550446906</value></horizontalSlowness><backazimuth><value>318.24004342422376</value></backazimuth><phaseHint>P</phaseHint><evaluationMode>automatic</evaluationMode><comment><text>10.04793996400308</text><id>DFX:rectilinearity</id></comment></pick><pick publicID="de.gempa.tb1.Pick/20250412193044.109022.187108"><time><value>2025-04-12T19:30:34.48Z</value></time><waveformID networkCode="SX" stationCode="ROHR" channelCode="HHN"/><filterID>ITAPER(3)&gt;&gt;BW(4,3,10)</filterID><methodID>L2-AIC-GRID</methodID><horizontalSlowness><value>19.96624554071419</value></horizontalSlowness><backazimuth><value>82.38065934143123</value></backazimuth><phaseHint>S</phaseHint><evaluationMode>automatic</evaluationMode><comment><text>20.322180541201043</text><id>DFX:rectilinearity</id></comment><comment><text>de.gempa.tb1.Pick/20250412193037.977901.187088</text><id>RefPickID</id></comment></pick><pick publicID="de.gempa.tb1.Pick/20250412193044.36028.187111"><time><value>2025-04-12T19:30:34.84Z</value></time><waveformID networkCode="SX" stationCode="TRIB" channelCode="HHZ"/><filterID>ITAPER(2)&gt;&gt;BW(3,3,20)</filterID><methodID>AIC</methodID><horizontalSlowness><value>21.629143654007187</value></horizontalSlowness><backazimuth><value>193.38505793154644</value></backazimuth><phaseHint>P</phaseHint><evaluationMode>automatic</evaluationMode><comment><text>2.6311538140936217</text><id>DFX:rectilinearity</id></comment></pick><pick publicID="de.gempa.tb1.Pick/20250412193044.861319.187116"><time><value>2025-04-12T19:30:38.49Z</value></time><waveformID networkCode="SX" stationCode="SCHF" channelCode="HHZ"/><filterID>ITAPER(2)&gt;&gt;BW(3,3,20)</filterID><methodID>AIC</methodID><horizontalSlowness><value>15.402549696927586</value></horizontalSlowness><backazimuth><value>211.04076118370165</value></backazimuth><phaseHint>P</phaseHint><evaluationMode>automatic</evaluationMode><comment><text>3.440061506219232</text><id>DFX:rectilinearity</id></comment></pick><pick publicID="de.gempa.tb1.Pick/20250412193045.358773.187118"><time><value>2025-04-12T19:30:36.12Z</value></time><waveformID networkCode="SX" stationCode="MULD" channelCode="HHN"/><filterID>ITAPER(3)&gt;&gt;BW(4,3,10)</filterID><methodID>L2-AIC-GRID</methodID><horizontalSlowness><value>22.916916973390215</value></horizontalSlowness><backazimuth><value>322.8697159522116</value></backazimuth><phaseHint>S</phaseHint><evaluationMode>automatic</evaluationMode><comment><text>11.169753913516304</text><id>DFX:rectilinearity</id></comment><comment><text>de.gempa.tb1.Pick/20250412193043.347249.187104</text><id>RefPickID</id></comment></pick><pick publicID="de.gempa.tb1.Pick/20250412193045.850588.187120"><time><value>2025-04-12T19:30:36.14Z</value></time><waveformID networkCode="SX" stationCode="TANN" channelCode="HHN"/><filterID>ITAPER(3)&gt;&gt;BW(4,3,10)</filterID><methodID>L2-AIC-GRID</methodID><horizontalSlowness><value>18.134610305873725</value></horizontalSlowness><backazimuth><value>316.864908087279</value></backazimuth><phaseHint>S</phaseHint><evaluationMode>automatic</evaluationMode><comment><text>9.781130273273622</text><id>DFX:rectilinearity</id></comment><comment><text>de.gempa.tb1.Pick/20250412193039.843375.187094</text><id>RefPickID</id></comment></pick><pick publicID="de.gempa.tb1.Pick/20250412193046.506909.187121"><time><value>2025-04-12T19:30:34.0675Z</value></time><waveformID networkCode="SX" stationCode="WERN" channelCode="HHN"/><filterID>ITAPER(3)&gt;&gt;BW(4,3,10)</filterID><methodID>L2-AIC-GRID</methodID><horizontalSlowness><value>22.731668926373697</value></horizontalSlowness><backazimuth><value>249.5436032619556</value></backazimuth><phaseHint>S</phaseHint><evaluationMode>automatic</evaluationMode><comment><text>154.92881060924464</text><id>DFX:rectilinearity</id></comment><comment><text>de.gempa.tb1.Pick/20250412193040.470103.187096</text><id>RefPickID</id></comment></pick><pick publicID="de.gempa.tb1.Pick/20250412193048.618448.187123"><time><value>2025-04-12T19:30:37.84Z</value></time><waveformID networkCode="SX" stationCode="TRIB" channelCode="HHN"/><filterID>ITAPER(3)&gt;&gt;BW(4,3,10)</filterID><methodID>L2-AIC-GRID</methodID><horizontalSlowness><value>21.629143654005258</value></horizontalSlowness><backazimuth><value>193.38505793154366</value></backazimuth><phaseHint>S</phaseHint><evaluationMode>automatic</evaluationMode><comment><text>2.631153814093716</text><id>DFX:rectilinearity</id></comment><comment><text>de.gempa.tb1.Pick/20250412193044.36028.187111</text><id>RefPickID</id></comment></pick><pick publicID="de.gempa.tb1.Pick/20250412193048.926076.187124"><time><value>2025-04-12T19:30:35.54Z</value></time><waveformID networkCode="SX" stationCode="GUNZ" channelCode="HHN"/><filterID>ITAPER(3)&gt;&gt;BW(4,3,10)</filterID><methodID>L2-AIC-GRID</methodID><horizontalSlowness><value>22.86704351909361</value></horizontalSlowness><backazimuth><value>276.2464685834276</value></backazimuth><phaseHint>S</phaseHint><evaluationMode>automatic</evaluationMode><comment><text>42.384273457529204</text><id>DFX:rectilinearity</id></comment><comment><text>de.gempa.tb1.Pick/20250412193042.907391.187100</text><id>RefPickID</id></comment></pick><pick publicID="de.gempa.tb1.Pick/20250412193050.945552.187127"><time><value>2025-04-12T19:30:47.14Z</value></time><waveformID networkCode="BW" stationCode="ROTZ" channelCode="HHN"/><filterID>ITAPER(3)&gt;&gt;BW(4,3,10)</filterID><methodID>L2-AIC-GRID</methodID><horizontalSlowness><value>21.552038711772855</value><uncertainty>4.804815697421704</uncertainty></horizontalSlowness><backazimuth><value>101.98152107979004</value><uncertainty>12.800134328425171</uncertainty></backazimuth><phaseHint>S</phaseHint><evaluationMode>automatic</evaluationMode><comment><text>0.8065673196212112</text><id>DFX:rectilinearity</id></comment><comment><text>de.gempa.tb1.Pick/20250412193043.123317.187102</text><id>RefPickID</id></comment></pick><pick publicID="de.gempa.tb1.Pick/20250412193058.331345.187131"><time><value>2025-04-12T19:30:55.5Z</value></time><waveformID networkCode="TH" stationCode="WARTH" channelCode="HHZ"/><filterID>ITAPER(2)&gt;&gt;BW(3,3,20)</filterID><methodID>AIC</methodID><horizontalSlowness><value>22.254917412949652</value></horizontalSlowness><backazimuth><value>276.45951470464075</value></backazimuth><phaseHint>P</phaseHint><evaluationMode>automatic</evaluationMode><comment><text>6.255524794665964</text><id>DFX:rectilinearity</id></comment></pick><origin publicID="de.gempa.tb1.Origin/20250412193100.911486.117532"><time><value>2025-04-12T19:30:29.54758Z</value><uncertainty>0.517699122428894</uncertainty></time><latitude><value>50.25750350952148</value><uncertainty>1.9558053016662598</uncertainty></latitude><longitude><value>12.44965648651123</value><uncertainty>3.2180540561676025</uncertainty></longitude><depth><value>7.391162872314453</value><uncertainty>3.2739644050598145</uncertainty></depth><depthType>from location</depthType><methodID>LOCSAT</methodID><earthModelID>iasp91</earthModelID><quality><associatedPhaseCount>18</associatedPhaseCount><usedPhaseCount>18</usedPhaseCount><associatedStationCount>11</associatedStationCount><usedStationCount>11</usedStationCount><depthPhaseCount>0</depthPhaseCount><standardError>0.41343502338174593</standardError><azimuthalGap>190.16034173965454</azimuthalGap><maximumDistance>1.481605887413025</maximumDistance><minimumDistance>0.0558902807533741</minimumDistance><medianDistance>0.1578574776649475</medianDistance></quality><uncertainty><minHorizontalUncertainty>3.636942148208618</minHorizontalUncertainty><maxHorizontalUncertainty>7.20665454864502</maxHorizontalUncertainty><azimuthMaxHorizontalUncertainty>109.58570861816406</azimuthMaxHorizontalUncertainty><preferredDescription>horizontal uncertainty</preferredDescription></uncertainty><evaluationMode>automatic</evaluationMode><evaluationStatus>confirmed</evaluationStatus><comment><text>0.17</text><id>mismatchScore</id></comment><comment><text>mismatchScore</text><id>scevalMethod</id></comment><arrival><pickID>de.gempa.tb1.Pick/20250412193037.977901.187088</pickID><phase>P</phase><azimuth>254.6064758300781</azimuth><distance>0.08836030215024948</distance><timeResidual>0.40218567848205566</timeResidual><timeUsed>true</timeUsed><horizontalSlownessUsed>false</horizontalSlownessUsed><backazimuthUsed>false</backazimuthUsed><weight>1</weight></arrival><arrival><pickID>de.gempa.tb1.Pick/20250412193039.69886.187092</pickID><phase>P</phase><azimuth>334.45428466796875</azimuth><distance>0.211494579911232</distance><timeResidual>0.14427924156188965</timeResidual><timeUsed>true</timeUsed><horizontalSlownessUsed>false</horizontalSlownessUsed><backazimuthUsed>false</backazimuthUsed><weight>1</weight></arrival><arrival><pickID>de.gempa.tb1.Pick/20250412193039.843375.187094</pickID><phase>P</phase><azimuth>2.6350841522216797</azimuth><distance>0.1578574776649475</distance><timeResidual>0.18183016777038574</timeResidual><timeUsed>true</timeUsed><horizontalSlownessUsed>false</horizontalSlownessUsed><backazimuthUsed>false</backazimuthUsed><weight>1</weight></arrival><arrival><pickID>de.gempa.tb1.Pick/20250412193040.470103.187096</pickID><phase>P</phase><azimuth>302.40924072265625</azimuth><distance>0.0558902807533741</distance><timeResidual>0.7495310306549072</timeResidual><timeUsed>true</timeUsed><horizontalSlownessUsed>false</horizontalSlownessUsed><backazimuthUsed>false</backazimuthUsed><weight>1</weight></arrival><arrival><pickID>de.gempa.tb1.Pick/20250412193041.110945.187098</pickID><phase>P</phase><azimuth>7.611249446868896</azimuth><distance>0.35326799750328064</distance><timeResidual>0.1234591007232666</timeResidual><timeUsed>true</timeUsed><horizontalSlownessUsed>false</horizontalSlownessUsed><backazimuthUsed>false</backazimuthUsed><weight>1</weight></arrival><arrival><pickID>de.gempa.tb1.Pick/20250412193042.907391.187100</pickID><phase>P</phase><azimuth>324.5467529296875</azimuth><distance>0.13035278022289276</distance><timeResidual>0.39277100563049316</timeResidual><timeUsed>true</timeUsed><horizontalSlownessUsed>false</horizontalSlownessUsed><backazimuthUsed>false</backazimuthUsed><weight>1</weight></arrival><arrival><pickID>de.gempa.tb1.Pick/20250412193043.123317.187102</pickID><phase>P</phase><azimuth>197.77159118652344</azimuth><distance>0.5155125260353088</distance><timeResidual>0.0797274112701416</timeResidual><timeUsed>true</timeUsed><horizontalSlownessUsed>false</horizontalSlownessUsed><backazimuthUsed>false</backazimuthUsed><weight>1</weight></arrival><arrival><pickID>de.gempa.tb1.Pick/20250412193043.347249.187104</pickID><phase>P</phase><azimuth>349.2702331542969</azimuth><distance>0.15724369883537292</distance><timeResidual>0.21278071403503418</timeResidual><timeUsed>true</timeUsed><horizontalSlownessUsed>false</horizontalSlownessUsed><backazimuthUsed>false</backazimuthUsed><weight>1</weight></arrival><arrival><pickID>de.gempa.tb1.Pick/20250412193044.109022.187108</pickID><phase>S</phase><azimuth>254.6064758300781</azimuth><distance>0.08836030215024948</distance><timeResidual>-0.007164955139160156</timeResidual><timeUsed>true</timeUsed><horizontalSlownessUsed>false</horizontalSlownessUsed><backazimuthUsed>false</backazimuthUsed><weight>1</weight></arrival><arrival><pickID>de.gempa.tb1.Pick/20250412193044.36028.187111</pickID><phase>P</phase><azimuth>295.38299560546875</azimuth><distance>0.2216913402080536</distance><timeResidual>0.0619957447052002</timeResidual><timeUsed>true</timeUsed><horizontalSlownessUsed>false</horizontalSlownessUsed><backazimuthUsed>false</backazimuthUsed><weight>1</weight></arrival><arrival><pickID>de.gempa.tb1.Pick/20250412193044.861319.187116</pickID><phase>P</phase><azimuth>355.9680480957031</azimuth><distance>0.42127466201782227</distance><timeResidual>0.1494462490081787</timeResidual><timeUsed>true</timeUsed><horizontalSlownessUsed>false</horizontalSlownessUsed><backazimuthUsed>false</backazimuthUsed><weight>1</weight></arrival><arrival><pickID>de.gempa.tb1.Pick/20250412193045.358773.187118</pickID><phase>S</phase><azimuth>349.2702331542969</azimuth><distance>0.15724369883537292</distance><timeResidual>-0.4925222396850586</timeResidual><timeUsed>true</timeUsed><horizontalSlownessUsed>false</horizontalSlownessUsed><backazimuthUsed>false</backazimuthUsed><weight>1</weight></arrival><arrival><pickID>de.gempa.tb1.Pick/20250412193045.850588.187120</pickID><phase>S</phase><azimuth>2.6350841522216797</azimuth><distance>0.1578574776649475</distance><timeResidual>-0.4914531707763672</timeResidual><timeUsed>true</timeUsed><horizontalSlownessUsed>false</horizontalSlownessUsed><backazimuthUsed>false</backazimuthUsed><weight>1</weight></arrival><arrival><pickID>de.gempa.tb1.Pick/20250412193046.506909.187121</pickID><phase>S</phase><azimuth>302.40924072265625</azimuth><distance>0.0558902807533741</distance><timeResidual>0.5827937126159668</timeResidual><timeUsed>true</timeUsed><horizontalSlownessUsed>false</horizontalSlownessUsed><backazimuthUsed>false</backazimuthUsed><weight>1</weight></arrival><arrival><pickID>de.gempa.tb1.Pick/20250412193048.618448.187123</pickID><phase>S</phase><azimuth>295.38299560546875</azimuth><distance>0.2216913402080536</distance><timeResidual>-0.7620303630828857</timeResidual><timeUsed>true</timeUsed><horizontalSlownessUsed>false</horizontalSlownessUsed><backazimuthUsed>false</backazimuthUsed><weight>1</weight></arrival><arrival><pickID>de.gempa.tb1.Pick/20250412193048.926076.187124</pickID><phase>S</phase><azimuth>324.5467529296875</azimuth><distance>0.13035278022289276</distance><timeResidual>-0.2427239418029785</timeResidual><timeUsed>true</timeUsed><horizontalSlownessUsed>false</horizontalSlownessUsed><backazimuthUsed>false</backazimuthUsed><weight>1</weight></arrival><arrival><pickID>de.gempa.tb1.Pick/20250412193050.945552.187127</pickID><phase>S</phase><azimuth>197.77159118652344</azimuth><distance>0.5155125260353088</distance><timeResidual>-0.5337417125701904</timeResidual><timeUsed>true</timeUsed><horizontalSlownessUsed>false</horizontalSlownessUsed><backazimuthUsed>false</backazimuthUsed><weight>1</weight></arrival><arrival><pickID>de.gempa.tb1.Pick/20250412193058.331345.187131</pickID><phase>P</phase><azimuth>294.2166748046875</azimuth><distance>1.481605887413025</distance><timeResidual>-0.5510661602020264</timeResidual><timeUsed>true</timeUsed><horizontalSlownessUsed>false</horizontalSlownessUsed><backazimuthUsed>false</backazimuthUsed><weight>1</weight></arrival><magnitude publicID="de.gempa.tb1.Magnitude/20250412193111.034836.270439"><magnitude><value>0.6749769115303174</value></magnitude><type>M</type><methodID>weighted average</methodID><stationCount>9</stationCount></magnitude></origin><event publicID="gempa2025hgbg"><preferredOriginID>de.gempa.tb1.Origin/20250412193100.911486.117532</preferredOriginID><preferredMagnitudeID>de.gempa.tb1.Magnitude/20250412193111.034836.270439</preferredMagnitudeID><description><text>Germany</text><type>region name</type></description><originReference>de.gempa.tb1.Origin/20250412193100.911486.117532</originReference></event></EventParameters></seiscomp>