<?xml version="1.0" encoding="UTF-8"?>
<seiscomp xmlns="http://geofon.gfz-potsdam.de/ns/seiscomp3-schema/0.13" version="0.13"><EventParameters><pick publicID="de.gempa.tb1.Pick/20250414222720.781088.141744"><time><value>2025-04-14T22:27:15.688393Z</value></time><waveformID networkCode="CX" stationCode="PB01" channelCode="HHZ"/><filterID>ITAPER(4)&gt;&gt;BW(4,4,20)</filterID><methodID>AIC</methodID><horizontalSlowness><value>18.69161128107962</value></horizontalSlowness><backazimuth><value>354.43473246460547</value></backazimuth><phaseHint>P</phaseHint><evaluationMode>automatic</evaluationMode><comment><text>3919.552707368645</text><id>DFX:rectilinearity</id></comment><comment><text>103.13333648456639</text><id>SNR</id></comment></pick><pick publicID="de.gempa.tb1.Pick/20250414222721.243699.141746"><time><value>2025-04-14T22:27:14.799999Z</value></time><waveformID networkCode="CX" stationCode="PATCX" channelCode="HHZ"/><filterID>ITAPER(4)&gt;&gt;BW(4,4,20)</filterID><methodID>AIC</methodID><horizontalSlowness><value>12.182055706207205</value></horizontalSlowness><backazimuth><value>34.969483591059287</value></backazimuth><phaseHint>P</phaseHint><evaluationMode>automatic</evaluationMode><comment><text>17417.91224694531</text><id>DFX:rectilinearity</id></comment><comment><text>162.41669500009314</text><id>SNR</id></comment></pick><pick publicID="de.gempa.tb1.Pick/20250414222726.590023.141749"><time><value>2025-04-14T22:27:21.048393Z</value></time><waveformID networkCode="CX" stationCode="PB02" channelCode="HHZ"/><filterID>ITAPER(4)&gt;&gt;BW(4,4,20)</filterID><methodID>AIC</methodID><horizontalSlowness><value>6.869283748164939</value></horizontalSlowness><backazimuth><value>22.379298805768371</value></backazimuth><phaseHint>P</phaseHint><evaluationMode>automatic</evaluationMode><comment><text>15079.057347103744</text><id>DFX:rectilinearity</id></comment><comment><text>190.4272101900929</text><id>SNR</id></comment></pick><pick publicID="de.gempa.tb1.Pick/20250414222733.999179.141752"><time><value>2025-04-14T22:27:27.328393Z</value></time><waveformID networkCode="CX" stationCode="PB07" channelCode="HHZ"/><filterID>ITAPER(4)&gt;&gt;BW(4,4,20)</filterID><methodID>AIC</methodID><horizontalSlowness><value>17.937335005859186</value></horizontalSlowness><backazimuth><value>356.38246339896307</value></backazimuth><phaseHint>P</phaseHint><evaluationMode>automatic</evaluationMode><comment><text>39792.768066492936</text><id>DFX:rectilinearity</id></comment><comment><text>116.11684260138988</text><id>SNR</id></comment></pick><pick publicID="de.gempa.tb1.Pick/20250414222739.386661.141755"><time><value>2025-04-14T22:27:28.78Z</value></time><waveformID networkCode="CX" stationCode="PB09" channelCode="HHZ"/><filterID>ITAPER(4)&gt;&gt;BW(4,4,20)</filterID><methodID>AIC</methodID><horizontalSlowness><value>20.361242520462554</value></horizontalSlowness><backazimuth><value>68.49377912083077</value></backazimuth><phaseHint>P</phaseHint><evaluationMode>automatic</evaluationMode><comment><text>5835.760255325635</text><id>DFX:rectilinearity</id></comment><comment><text>83.51336593191257</text><id>SNR</id></comment></pick><pick publicID="de.gempa.tb1.Pick/20250414222739.545752.141757"><time><value>2025-04-14T22:27:31.848393Z</value></time><waveformID networkCode="CX" stationCode="PB03" channelCode="HHZ"/><filterID>ITAPER(4)&gt;&gt;BW(4,4,20)</filterID><methodID>AIC</methodID><horizontalSlowness><value>11.67893667546223</value></horizontalSlowness><backazimuth><value>356.30347884399555</value></backazimuth><phaseHint>P</phaseHint><evaluationMode>automatic</evaluationMode><comment><text>1020.4936408403732</text><id>DFX:rectilinearity</id></comment><comment><text>53.48216015511832</text><id>SNR</id></comment></pick><pick publicID="de.gempa.tb1.Pick/20250414222750.620762.141763"><time><value>2025-04-14T22:27:42.458393Z</value></time><waveformID networkCode="CX" stationCode="PB06" channelCode="HHZ"/><filterID>ITAPER(4)&gt;&gt;BW(4,4,20)</filterID><methodID>AIC</methodID><horizontalSlowness><value>3.084033695178207</value></horizontalSlowness><backazimuth><value>32.24328334826623</value></backazimuth><phaseHint>P</phaseHint><evaluationMode>automatic</evaluationMode><comment><text>133.3346126197979</text><id>DFX:rectilinearity</id></comment><comment><text>8.955142401541602</text><id>SNR</id></comment></pick><origin publicID="de.gempa.tb1.Origin/20250414222753.052352.153013"><time><value>2025-04-14T22:27:01.479088Z</value><uncertainty>5.297641754150391</uncertainty></time><latitude><value>-20.316970825195312</value><uncertainty>32.82820129394531</uncertainty></latitude><longitude><value>-69.64716339111328</value><uncertainty>11.789155006408691</uncertainty></longitude><depth><value>5.274633407592773</value><uncertainty>12.274970054626465</uncertainty></depth><depthType>from location</depthType><methodID>LOCSAT</methodID><earthModelID>iasp91_scanloc</earthModelID><quality><associatedPhaseCount>7</associatedPhaseCount><usedPhaseCount>7</usedPhaseCount><associatedStationCount>7</associatedStationCount><usedStationCount>7</usedStationCount><depthPhaseCount>0</depthPhaseCount><standardError>0.6024002121170072</standardError><azimuthalGap>302.3450622558594</azimuthalGap><maximumDistance>2.378138065338135</maximumDistance><minimumDistance>0.689738929271698</minimumDistance><medianDistance>1.4203319549560547</medianDistance></quality><uncertainty><minHorizontalUncertainty>17.837486267089844</minHorizontalUncertainty><maxHorizontalUncertainty>72.65264129638672</maxHorizontalUncertainty><azimuthMaxHorizontalUncertainty>14.74071979522705</azimuthMaxHorizontalUncertainty><preferredDescription>horizontal uncertainty</preferredDescription></uncertainty><evaluationMode>automatic</evaluationMode><evaluationStatus>confirmed</evaluationStatus><comment><text>0.27</text><id>mismatchScore</id></comment><comment><text>mismatchScore</text><id>scevalMethod</id></comment><arrival><pickID>de.gempa.tb1.Pick/20250414222720.781088.141744</pickID><phase>P</phase><azimuth>168.33145141601562</azimuth><distance>0.7379224896430969</distance><timeResidual>0.030557632446289059</timeResidual><timeUsed>true</timeUsed><horizontalSlownessUsed>false</horizontalSlownessUsed><backazimuthUsed>false</backazimuthUsed><weight>1</weight></arrival><arrival><pickID>de.gempa.tb1.Pick/20250414222721.243699.141746</pickID><phase>P</phase><azimuth>223.3066864013672</azimuth><distance>0.689738929271698</distance><timeResidual>0.06383991241455078</timeResidual><timeUsed>true</timeUsed><horizontalSlownessUsed>false</horizontalSlownessUsed><backazimuthUsed>false</backazimuthUsed><weight>1</weight></arrival><arrival><pickID>de.gempa.tb1.Pick/20250414222726.590023.141749</pickID><phase>P</phase><azimuth>193.09068298339844</azimuth><distance>1.024530291557312</distance><timeResidual>-0.09708786010742188</timeResidual><timeUsed>true</timeUsed><horizontalSlownessUsed>false</horizontalSlownessUsed><backazimuthUsed>false</backazimuthUsed><weight>1</weight></arrival><arrival><pickID>de.gempa.tb1.Pick/20250414222733.999179.141752</pickID><phase>P</phase><azimuth>189.0028839111328</azimuth><distance>1.4203319549560547</distance><timeResidual>-0.5857343673706055</timeResidual><timeUsed>true</timeUsed><horizontalSlownessUsed>false</horizontalSlownessUsed><backazimuthUsed>false</backazimuthUsed><weight>1</weight></arrival><arrival><pickID>de.gempa.tb1.Pick/20250414222739.386661.141755</pickID><phase>P</phase><azimuth>165.65174865722656</azimuth><distance>1.5199217796325684</distance><timeResidual>-0.504791259765625</timeResidual><timeUsed>true</timeUsed><horizontalSlownessUsed>false</horizontalSlownessUsed><backazimuthUsed>false</backazimuthUsed><weight>1</weight></arrival><arrival><pickID>de.gempa.tb1.Pick/20250414222739.545752.141757</pickID><phase>P</phase><azimuth>183.26519775390625</azimuth><distance>1.725744128227234</distance><timeResidual>-0.2689933776855469</timeResidual><timeUsed>true</timeUsed><horizontalSlownessUsed>false</horizontalSlownessUsed><backazimuthUsed>false</backazimuthUsed><weight>1</weight></arrival><arrival><pickID>de.gempa.tb1.Pick/20250414222750.620762.141763</pickID><phase>P</phase><azimuth>178.32432556152344</azimuth><distance>2.378138065338135</distance><timeResidual>1.362171173095703</timeResidual><timeUsed>true</timeUsed><horizontalSlownessUsed>false</horizontalSlownessUsed><backazimuthUsed>false</backazimuthUsed><weight>1</weight></arrival><magnitude publicID="de.gempa.tb1.Magnitude/20250414222753.056303.546980"><magnitude><value>2.7913755350797853</value></magnitude><type>M</type><methodID>weighted average</methodID><stationCount>6</stationCount></magnitude></origin><event publicID="gempa2025hjze"><preferredOriginID>de.gempa.tb1.Origin/20250414222753.052352.153013</preferredOriginID><preferredMagnitudeID>de.gempa.tb1.Magnitude/20250414222753.056303.546980</preferredMagnitudeID><description><text>Northern Chile</text><type>region name</type></description><originReference>de.gempa.tb1.Origin/20250414222753.052352.153013</originReference></event></EventParameters></seiscomp>