<?xml version="1.0" encoding="UTF-8"?>
<seiscomp xmlns="http://geofon.gfz-potsdam.de/ns/seiscomp3-schema/0.13" version="0.13"><EventParameters><pick publicID="de.gempa.tb1.Pick/20250413235929.546394.134438"><time><value>2025-04-13T23:59:24.388393Z</value></time><waveformID networkCode="CX" stationCode="PB01" channelCode="HHZ"/><filterID>ITAPER(4)&gt;&gt;BW(4,4,20)</filterID><methodID>AIC</methodID><horizontalSlowness><value>15.5343694827476</value></horizontalSlowness><backazimuth><value>148.70297474209355</value></backazimuth><phaseHint>P</phaseHint><evaluationMode>automatic</evaluationMode><comment><text>2.2614363640749406</text><id>DFX:rectilinearity</id></comment><comment><text>7.949738811564158</text><id>SNR</id></comment></pick><pick publicID="de.gempa.tb1.Pick/20250413235941.5736.134440"><time><value>2025-04-13T23:59:31.088391Z</value></time><waveformID networkCode="CX" stationCode="PB07" channelCode="HHZ"/><filterID>ITAPER(4)&gt;&gt;BW(4,4,20)</filterID><methodID>AIC</methodID><horizontalSlowness><value>21.333574923641425</value></horizontalSlowness><backazimuth><value>95.14672615893156</value></backazimuth><phaseHint>P</phaseHint><evaluationMode>automatic</evaluationMode><comment><text>237.3384443712642</text><id>DFX:rectilinearity</id></comment><comment><text>10.277380588854347</text><id>SNR</id></comment></pick><pick publicID="de.gempa.tb1.Pick/20250413235944.095822.134443"><time><value>2025-04-13T23:59:28.3Z</value></time><waveformID networkCode="CX" stationCode="PB09" channelCode="HHZ"/><filterID>ITAPER(4)&gt;&gt;BW(4,4,20)</filterID><methodID>AIC</methodID><horizontalSlowness><value>19.407786199879396</value></horizontalSlowness><backazimuth><value>167.6498300261007</value></backazimuth><phaseHint>P</phaseHint><evaluationMode>automatic</evaluationMode><comment><text>5.016543458551293</text><id>DFX:rectilinearity</id></comment><comment><text>8.869558524857446</text><id>SNR</id></comment></pick><pick publicID="de.gempa.tb1.Pick/20250413235945.607833.134445"><time><value>2025-04-13T23:59:38.16Z</value></time><waveformID networkCode="CX" stationCode="PSGCX" channelCode="HHZ"/><filterID>ITAPER(4)&gt;&gt;BW(4,4,20)</filterID><methodID>AIC</methodID><horizontalSlowness><value>17.839013001639852</value></horizontalSlowness><backazimuth><value>112.60320321860137</value></backazimuth><phaseHint>P</phaseHint><evaluationMode>automatic</evaluationMode><comment><text>31.317675207570055</text><id>DFX:rectilinearity</id></comment><comment><text>6.800930019233836</text><id>SNR</id></comment></pick><pick publicID="de.gempa.tb1.Pick/20250413235947.718788.134447"><time><value>2025-04-13T23:59:37.248393Z</value></time><waveformID networkCode="CX" stationCode="PB01" channelCode="HHN"/><filterID>ITAPER(2)&gt;&gt;BW(3,3,20)</filterID><methodID>L2-AIC-GRID</methodID><horizontalSlowness><value>23.240738600156003</value></horizontalSlowness><backazimuth><value>349.1375096728332</value></backazimuth><phaseHint>S</phaseHint><evaluationMode>automatic</evaluationMode><comment><text>24.133052548349045</text><id>DFX:rectilinearity</id></comment><comment><text>de.gempa.tb1.Pick/20250413235929.546394.134438</text><id>RefPickID</id></comment><comment><text>10.893402709815179</text><id>SNR</id></comment></pick><pick publicID="de.gempa.tb1.Pick/20250414000000.593816.134450"><time><value>2025-04-13T23:59:49.938391Z</value></time><waveformID networkCode="CX" stationCode="PB07" channelCode="HHN"/><filterID>ITAPER(2)&gt;&gt;BW(3,3,20)</filterID><methodID>L2-AIC-GRID</methodID><horizontalSlowness><value>23.57541182349199</value></horizontalSlowness><backazimuth><value>155.18655030392617</value></backazimuth><phaseHint>S</phaseHint><evaluationMode>automatic</evaluationMode><comment><text>201.48506595863498</text><id>DFX:rectilinearity</id></comment><comment><text>de.gempa.tb1.Pick/20250413235941.5736.134440</text><id>RefPickID</id></comment><comment><text>5.726096746084226</text><id>SNR</id></comment></pick><pick publicID="de.gempa.tb1.Pick/20250414000013.892823.134452"><time><value>2025-04-14T00:00:01.88Z</value></time><waveformID networkCode="CX" stationCode="PSGCX" channelCode="HHN"/><filterID>ITAPER(2)&gt;&gt;BW(3,3,20)</filterID><methodID>L2-AIC-GRID</methodID><horizontalSlowness><value>21.925996240441464</value></horizontalSlowness><backazimuth><value>65.5189776483637</value></backazimuth><phaseHint>S</phaseHint><evaluationMode>automatic</evaluationMode><comment><text>15.413293753398827</text><id>DFX:rectilinearity</id></comment><comment><text>de.gempa.tb1.Pick/20250413235945.607833.134445</text><id>RefPickID</id></comment><comment><text>5.056478501732431</text><id>SNR</id></comment></pick><origin publicID="de.gempa.tb1.Origin/20250414000013.89621.121712"><time><value>2025-04-13T23:59:08.189623Z</value><uncertainty>1.1366716623306274</uncertainty></time><latitude><value>-20.928056716918945</value><uncertainty>4.761846542358398</uncertainty></latitude><longitude><value>-68.78478240966797</value><uncertainty>12.534972190856934</uncertainty></longitude><depth><value>93.41142272949219</value><uncertainty>13.823445320129395</uncertainty></depth><depthType>from location</depthType><methodID>LOCSAT</methodID><earthModelID>iasp91_scanloc</earthModelID><quality><associatedPhaseCount>7</associatedPhaseCount><usedPhaseCount>7</usedPhaseCount><associatedStationCount>4</associatedStationCount><usedStationCount>4</usedStationCount><depthPhaseCount>0</depthPhaseCount><standardError>0.3492409573711613</standardError><azimuthalGap>249.8988952636719</azimuthalGap><maximumDistance>1.8253209590911865</maximumDistance><minimumDistance>0.6664970517158508</minimumDistance><medianDistance>1.298438549041748</medianDistance></quality><uncertainty><minHorizontalUncertainty>9.201289176940918</minHorizontalUncertainty><maxHorizontalUncertainty>27.24448776245117</maxHorizontalUncertainty><azimuthMaxHorizontalUncertainty>80.05281066894531</azimuthMaxHorizontalUncertainty><preferredDescription>horizontal uncertainty</preferredDescription></uncertainty><evaluationMode>automatic</evaluationMode><evaluationStatus>confirmed</evaluationStatus><comment><text>0.42</text><id>mismatchScore</id></comment><comment><text>mismatchScore</text><id>scevalMethod</id></comment><arrival><pickID>de.gempa.tb1.Pick/20250413235929.546394.134438</pickID><phase>P</phase><azimuth>259.9743347167969</azimuth><distance>0.6664970517158508</distance><timeResidual>-0.3073463439941406</timeResidual><timeUsed>true</timeUsed><horizontalSlownessUsed>false</horizontalSlownessUsed><backazimuthUsed>false</backazimuthUsed><weight>1</weight></arrival><arrival><pickID>de.gempa.tb1.Pick/20250413235941.5736.134440</pickID><phase>P</phase><azimuth>232.0666961669922</azimuth><distance>1.298438549041748</distance><timeResidual>-0.5311107635498047</timeResidual><timeUsed>true</timeUsed><horizontalSlownessUsed>false</horizontalSlownessUsed><backazimuthUsed>false</backazimuthUsed><weight>1</weight></arrival><arrival><pickID>de.gempa.tb1.Pick/20250413235944.095822.134443</pickID><phase>P</phase><azimuth>206.16815185546875</azimuth><distance>0.9633936285972595</distance><timeResidual>0.5783491134643555</timeResidual><timeUsed>true</timeUsed><horizontalSlownessUsed>false</horizontalSlownessUsed><backazimuthUsed>false</backazimuthUsed><weight>1</weight></arrival><arrival><pickID>de.gempa.tb1.Pick/20250413235945.607833.134445</pickID><phase>P</phase><azimuth>316.2692565917969</azimuth><distance>1.8253209590911865</distance><timeResidual>-0.095001220703125</timeResidual><timeUsed>true</timeUsed><horizontalSlownessUsed>false</horizontalSlownessUsed><backazimuthUsed>false</backazimuthUsed><weight>1</weight></arrival><arrival><pickID>de.gempa.tb1.Pick/20250413235947.718788.134447</pickID><phase>S</phase><azimuth>259.9743347167969</azimuth><distance>0.6664970517158508</distance><timeResidual>-0.12602806091308594</timeResidual><timeUsed>true</timeUsed><horizontalSlownessUsed>false</horizontalSlownessUsed><backazimuthUsed>false</backazimuthUsed><weight>1</weight></arrival><arrival><pickID>de.gempa.tb1.Pick/20250414000000.593816.134450</pickID><phase>S</phase><azimuth>232.0666961669922</azimuth><distance>1.298438549041748</distance><timeResidual>0.20745468139648438</timeResidual><timeUsed>true</timeUsed><horizontalSlownessUsed>false</horizontalSlownessUsed><backazimuthUsed>false</backazimuthUsed><weight>1</weight></arrival><arrival><pickID>de.gempa.tb1.Pick/20250414000013.892823.134452</pickID><phase>S</phase><azimuth>316.2692565917969</azimuth><distance>1.8253209590911865</distance><timeResidual>0.2735157012939453</timeResidual><timeUsed>true</timeUsed><horizontalSlownessUsed>false</horizontalSlownessUsed><backazimuthUsed>false</backazimuthUsed><weight>1</weight></arrival><magnitude publicID="de.gempa.tb1.Magnitude/20250414000013.902759.411930"><magnitude><value>1.9738193273982543</value></magnitude><type>M</type><methodID>weighted average</methodID><stationCount>2</stationCount></magnitude></origin><event publicID="gempa2025higf"><preferredOriginID>de.gempa.tb1.Origin/20250414000013.89621.121712</preferredOriginID><preferredMagnitudeID>de.gempa.tb1.Magnitude/20250414000013.902759.411930</preferredMagnitudeID><description><text>Chile-Bolivia Border Region</text><type>region name</type></description><originReference>de.gempa.tb1.Origin/20250414000013.89621.121712</originReference></event></EventParameters></seiscomp>