<?xml version="1.0" encoding="UTF-8"?>
<seiscomp xmlns="http://geofon.gfz-potsdam.de/ns/seiscomp3-schema/0.13" version="0.13"><EventParameters><pick publicID="de.gempa.tb1.Pick/20250415023613.505303.142975"><time><value>2025-04-15T02:36:05.08Z</value></time><waveformID networkCode="CX" stationCode="PB09" channelCode="HHZ"/><filterID>ITAPER(4)&gt;&gt;BW(4,4,20)</filterID><methodID>AIC</methodID><horizontalSlowness><value>13.651245353688934</value></horizontalSlowness><backazimuth><value>95.9971021727382</value></backazimuth><phaseHint>P</phaseHint><evaluationMode>automatic</evaluationMode><comment><text>121.84658910654842</text><id>DFX:rectilinearity</id></comment><comment><text>630.9326905121502</text><id>SNR</id></comment></pick><pick publicID="de.gempa.tb1.Pick/20250415023614.777403.142979"><time><value>2025-04-15T02:36:09.978394Z</value></time><waveformID networkCode="CX" stationCode="PB01" channelCode="HHZ"/><filterID>ITAPER(4)&gt;&gt;BW(4,4,20)</filterID><methodID>AIC</methodID><horizontalSlowness><value>3.390573481864228</value></horizontalSlowness><backazimuth><value>95.62991439930266</value></backazimuth><phaseHint>P</phaseHint><evaluationMode>automatic</evaluationMode><comment><text>1048.1057165428715</text><id>DFX:rectilinearity</id></comment><comment><text>641.4444197734597</text><id>SNR</id></comment></pick><pick publicID="de.gempa.tb1.Pick/20250415023615.693882.142981"><time><value>2025-04-15T02:36:11.458393Z</value></time><waveformID networkCode="CX" stationCode="PB02" channelCode="HHZ"/><filterID>ITAPER(4)&gt;&gt;BW(4,4,20)</filterID><methodID>AIC</methodID><horizontalSlowness><value>6.724994224685526</value></horizontalSlowness><backazimuth><value>93.68708846387203</value></backazimuth><phaseHint>P</phaseHint><evaluationMode>automatic</evaluationMode><comment><text>664.8625703718534</text><id>DFX:rectilinearity</id></comment><comment><text>51.88679817945028</text><id>SNR</id></comment></pick><pick publicID="de.gempa.tb1.Pick/20250415023617.615299.142984"><time><value>2025-04-15T02:36:10.068393Z</value></time><waveformID networkCode="CX" stationCode="PB06" channelCode="HHZ"/><filterID>ITAPER(4)&gt;&gt;BW(4,4,20)</filterID><methodID>AIC</methodID><horizontalSlowness><value>7.324561579667757</value></horizontalSlowness><backazimuth><value>159.1124324020871</value></backazimuth><phaseHint>P</phaseHint><evaluationMode>automatic</evaluationMode><comment><text>184.57870205565143</text><id>DFX:rectilinearity</id></comment><comment><text>56.63730898536477</text><id>SNR</id></comment></pick><pick publicID="de.gempa.tb1.Pick/20250415023620.683013.142986"><time><value>2025-04-15T02:36:14.558393Z</value></time><waveformID networkCode="CX" stationCode="PB15" channelCode="HHZ"/><filterID>ITAPER(4)&gt;&gt;BW(4,4,20)</filterID><methodID>AIC</methodID><horizontalSlowness><value>23.2958949726742</value></horizontalSlowness><backazimuth><value>298.7560725144524</value></backazimuth><phaseHint>P</phaseHint><evaluationMode>automatic</evaluationMode><comment><text>348.123142309635</text><id>DFX:rectilinearity</id></comment><comment><text>18.695322313499283</text><id>SNR</id></comment></pick><pick publicID="de.gempa.tb1.Pick/20250415023623.435138.142988"><time><value>2025-04-15T02:36:16.619999Z</value></time><waveformID networkCode="CX" stationCode="PATCX" channelCode="HHZ"/><filterID>ITAPER(4)&gt;&gt;BW(4,4,20)</filterID><methodID>AIC</methodID><horizontalSlowness><value>18.862606682900193</value></horizontalSlowness><backazimuth><value>45.56887263421328</value></backazimuth><phaseHint>P</phaseHint><evaluationMode>automatic</evaluationMode><comment><text>302.5161529506471</text><id>DFX:rectilinearity</id></comment><comment><text>113.63808929787965</text><id>SNR</id></comment></pick><pick publicID="de.gempa.tb1.Pick/20250415023625.70234.142990"><time><value>2025-04-15T02:36:18.848393Z</value></time><waveformID networkCode="CX" stationCode="PB08" channelCode="HHZ"/><filterID>ITAPER(4)&gt;&gt;BW(4,4,20)</filterID><methodID>AIC</methodID><horizontalSlowness><value>14.79042959320996</value></horizontalSlowness><backazimuth><value>208.81527586758276</value></backazimuth><phaseHint>P</phaseHint><evaluationMode>automatic</evaluationMode><comment><text>1110.5568258691167</text><id>DFX:rectilinearity</id></comment><comment><text>61.76631561420815</text><id>SNR</id></comment></pick><pick publicID="de.gempa.tb1.Pick/20250415023627.524271.142992"><time><value>2025-04-15T02:36:21.23Z</value></time><waveformID networkCode="CX" stationCode="PB19" channelCode="HHZ"/><filterID>ITAPER(4)&gt;&gt;BW(4,4,20)</filterID><methodID>AIC</methodID><horizontalSlowness><value>3.984920272301715</value></horizontalSlowness><backazimuth><value>2.86195617692627</value></backazimuth><phaseHint>P</phaseHint><evaluationMode>automatic</evaluationMode><comment><text>51.21774665786014</text><id>DFX:rectilinearity</id></comment><comment><text>47.58280381477006</text><id>SNR</id></comment></pick><pick publicID="de.gempa.tb1.Pick/20250415023633.47978.142994"><time><value>2025-04-15T02:36:19.51Z</value></time><waveformID networkCode="CX" stationCode="PB09" channelCode="HHN"/><filterID>ITAPER(2)&gt;&gt;BW(3,3,20)</filterID><methodID>L2-AIC-GRID</methodID><horizontalSlowness><value>14.222835369221356</value></horizontalSlowness><backazimuth><value>276.16796742556983</value></backazimuth><phaseHint>S</phaseHint><evaluationMode>automatic</evaluationMode><comment><text>10394.607291818023</text><id>DFX:rectilinearity</id></comment><comment><text>de.gempa.tb1.Pick/20250415023613.505303.142975</text><id>RefPickID</id></comment><comment><text>6.468389762390052</text><id>SNR</id></comment></pick><pick publicID="de.gempa.tb1.Pick/20250415023634.585923.142995"><time><value>2025-04-15T02:36:26.879998Z</value></time><waveformID networkCode="CX" stationCode="PSGCX" channelCode="HHZ"/><filterID>ITAPER(4)&gt;&gt;BW(4,4,20)</filterID><methodID>AIC</methodID><horizontalSlowness><value>6.600956414423426</value></horizontalSlowness><backazimuth><value>189.73010784052295</value></backazimuth><phaseHint>P</phaseHint><evaluationMode>automatic</evaluationMode><comment><text>28.414374073146327</text><id>DFX:rectilinearity</id></comment><comment><text>90.75562941468185</text><id>SNR</id></comment></pick><pick publicID="de.gempa.tb1.Pick/20250415023635.77059.142997"><time><value>2025-04-15T02:36:28.278394Z</value></time><waveformID networkCode="CX" stationCode="PB01" channelCode="HHN"/><filterID>ITAPER(2)&gt;&gt;BW(3,3,20)</filterID><methodID>L2-AIC-GRID</methodID><horizontalSlowness><value>21.950433997302618</value></horizontalSlowness><backazimuth><value>71.89917422376514</value></backazimuth><phaseHint>S</phaseHint><evaluationMode>automatic</evaluationMode><comment><text>11257.751809667603</text><id>DFX:rectilinearity</id></comment><comment><text>de.gempa.tb1.Pick/20250415023614.777403.142979</text><id>RefPickID</id></comment><comment><text>7.388971978929248</text><id>SNR</id></comment></pick><pick publicID="de.gempa.tb1.Pick/20250415023637.531898.142998"><time><value>2025-04-15T02:36:30.258393Z</value></time><waveformID networkCode="CX" stationCode="PB02" channelCode="HHN"/><filterID>ITAPER(2)&gt;&gt;BW(3,3,20)</filterID><methodID>L2-AIC-GRID</methodID><horizontalSlowness><value>21.61700605307557</value></horizontalSlowness><backazimuth><value>35.63528314614095</value></backazimuth><phaseHint>S</phaseHint><evaluationMode>automatic</evaluationMode><comment><text>58445.80207985901</text><id>DFX:rectilinearity</id></comment><comment><text>de.gempa.tb1.Pick/20250415023615.693882.142981</text><id>RefPickID</id></comment><comment><text>5.797046265622162</text><id>SNR</id></comment></pick><pick publicID="de.gempa.tb1.Pick/20250415023637.629608.142999"><time><value>2025-04-15T02:36:28.238393Z</value></time><waveformID networkCode="CX" stationCode="PB06" channelCode="HHN"/><filterID>ITAPER(2)&gt;&gt;BW(3,3,20)</filterID><methodID>L2-AIC-GRID</methodID><horizontalSlowness><value>23.31928118003115</value></horizontalSlowness><backazimuth><value>336.74671699872744</value></backazimuth><phaseHint>S</phaseHint><evaluationMode>automatic</evaluationMode><comment><text>4922.618107684823</text><id>DFX:rectilinearity</id></comment><comment><text>de.gempa.tb1.Pick/20250415023617.615299.142984</text><id>RefPickID</id></comment><comment><text>11.36334653633504</text><id>SNR</id></comment></pick><pick publicID="de.gempa.tb1.Pick/20250415023641.800734.143002"><time><value>2025-04-15T02:36:35.518393Z</value></time><waveformID networkCode="CX" stationCode="PB15" channelCode="HHN"/><filterID>ITAPER(2)&gt;&gt;BW(3,3,20)</filterID><methodID>L2-AIC-GRID</methodID><horizontalSlowness><value>20.899948266514965</value></horizontalSlowness><backazimuth><value>123.06708769958325</value></backazimuth><phaseHint>S</phaseHint><evaluationMode>automatic</evaluationMode><comment><text>96576.65617922125</text><id>DFX:rectilinearity</id></comment><comment><text>de.gempa.tb1.Pick/20250415023620.683013.142986</text><id>RefPickID</id></comment><comment><text>11.293055493215371</text><id>SNR</id></comment></pick><pick publicID="de.gempa.tb1.Pick/20250415023649.41423.143008"><time><value>2025-04-15T02:36:40.199999Z</value></time><waveformID networkCode="CX" stationCode="PATCX" channelCode="HHN"/><filterID>ITAPER(2)&gt;&gt;BW(3,3,20)</filterID><methodID>L2-AIC-GRID</methodID><horizontalSlowness><value>21.976630841289527</value></horizontalSlowness><backazimuth><value>225.19940969287313</value></backazimuth><phaseHint>S</phaseHint><evaluationMode>automatic</evaluationMode><comment><text>1535.612047303985</text><id>DFX:rectilinearity</id></comment><comment><text>de.gempa.tb1.Pick/20250415023623.435138.142988</text><id>RefPickID</id></comment><comment><text>5.091256040880272</text><id>SNR</id></comment></pick><pick publicID="de.gempa.tb1.Pick/20250415023650.571335.143009"><time><value>2025-04-15T02:36:10.138393Z</value></time><waveformID networkCode="CX" stationCode="PB07" channelCode="HHZ"/><filterID>ITAPER(4)&gt;&gt;BW(4,4,20)</filterID><methodID>AIC</methodID><horizontalSlowness><value>14.49078383190648</value></horizontalSlowness><backazimuth><value>95.00965515860514</value></backazimuth><phaseHint>P</phaseHint><evaluationMode>automatic</evaluationMode><comment><text>796.290310055931</text><id>DFX:rectilinearity</id></comment><comment><text>554.6271763789382</text><id>SNR</id></comment></pick><pick publicID="de.gempa.tb1.Pick/20250415023654.699137.143014"><time><value>2025-04-15T02:36:47.43Z</value></time><waveformID networkCode="CX" stationCode="PB19" channelCode="HHN"/><filterID>ITAPER(2)&gt;&gt;BW(3,3,20)</filterID><methodID>L2-AIC-GRID</methodID><horizontalSlowness><value>20.347493863690914</value></horizontalSlowness><backazimuth><value>31.330897771370644</value></backazimuth><phaseHint>S</phaseHint><evaluationMode>automatic</evaluationMode><comment><text>3032.406714176491</text><id>DFX:rectilinearity</id></comment><comment><text>de.gempa.tb1.Pick/20250415023627.524271.142992</text><id>RefPickID</id></comment><comment><text>13.083234874294812</text><id>SNR</id></comment></pick><pick publicID="de.gempa.tb1.Pick/20250415023752.382171.143015"><time><value>2025-04-15T02:36:27.848393Z</value></time><waveformID networkCode="CX" stationCode="PB07" channelCode="HHN"/><filterID>ITAPER(2)&gt;&gt;BW(3,3,20)</filterID><methodID>L2-AIC-GRID</methodID><horizontalSlowness><value>23.389065019472135</value></horizontalSlowness><backazimuth><value>219.70714264283788</value></backazimuth><phaseHint>S</phaseHint><evaluationMode>automatic</evaluationMode><comment><text>260774.5274383031</text><id>DFX:rectilinearity</id></comment><comment><text>de.gempa.tb1.Pick/20250415023650.571335.143009</text><id>RefPickID</id></comment><comment><text>10.270482813759532</text><id>SNR</id></comment></pick><origin publicID="de.gempa.tb1.Origin/20250415023752.385348.158765"><time><value>2025-04-15T02:35:46.597403Z</value><uncertainty>0.6383534669876099</uncertainty></time><latitude><value>-21.90396499633789</value><uncertainty>2.5728914737701416</uncertainty></latitude><longitude><value>-68.78921508789062</value><uncertainty>8.286852836608887</uncertainty></longitude><depth><value>129.00405883789062</value><uncertainty>7.061833381652832</uncertainty></depth><depthType>from location</depthType><methodID>LOCSAT</methodID><earthModelID>iasp91_scanloc</earthModelID><quality><associatedPhaseCount>18</associatedPhaseCount><usedPhaseCount>18</usedPhaseCount><associatedStationCount>10</associatedStationCount><usedStationCount>10</usedStationCount><depthPhaseCount>0</depthPhaseCount><standardError>0.44938268172592605</standardError><azimuthalGap>204.0175323486328</azimuthalGap><maximumDistance>2.612666130065918</maximumDistance><minimumDistance>0.43398529291152954</minimumDistance><medianDistance>1.182686448097229</medianDistance></quality><uncertainty><minHorizontalUncertainty>5.043426036834717</minHorizontalUncertainty><maxHorizontalUncertainty>17.904064178466797</maxHorizontalUncertainty><azimuthMaxHorizontalUncertainty>82.53305053710938</azimuthMaxHorizontalUncertainty><preferredDescription>horizontal uncertainty</preferredDescription></uncertainty><evaluationMode>automatic</evaluationMode><evaluationStatus>confirmed</evaluationStatus><comment><text>0.16</text><id>mismatchScore</id></comment><comment><text>mismatchScore</text><id>scevalMethod</id></comment><arrival><pickID>de.gempa.tb1.Pick/20250415023613.505303.142975</pickID><phase>P</phase><azimuth>284.1983947753906</azimuth><distance>0.43398529291152954</distance><timeResidual>-0.13070297241210938</timeResidual><timeUsed>true</timeUsed><horizontalSlownessUsed>false</horizontalSlownessUsed><backazimuthUsed>false</backazimuthUsed><weight>1</weight></arrival><arrival><pickID>de.gempa.tb1.Pick/20250415023614.777403.142979</pickID><phase>P</phase><azimuth>322.6648254394531</azimuth><distance>1.0753962993621826</distance><timeResidual>-0.19935226440429688</timeResidual><timeUsed>true</timeUsed><horizontalSlownessUsed>false</horizontalSlownessUsed><backazimuthUsed>false</backazimuthUsed><weight>1</weight></arrival><arrival><pickID>de.gempa.tb1.Pick/20250415023615.693882.142981</pickID><phase>P</phase><azimuth>299.240234375</azimuth><distance>1.182686448097229</distance><timeResidual>0.21110916137695312</timeResidual><timeUsed>true</timeUsed><horizontalSlownessUsed>false</horizontalSlownessUsed><backazimuthUsed>false</backazimuthUsed><weight>1</weight></arrival><arrival><pickID>de.gempa.tb1.Pick/20250415023617.615299.142984</pickID><phase>P</phase><azimuth>222.10084533691406</azimuth><distance>1.0780175924301147</distance><timeResidual>-0.12466049194335938</timeResidual><timeUsed>true</timeUsed><horizontalSlownessUsed>false</horizontalSlownessUsed><backazimuthUsed>false</backazimuthUsed><weight>1</weight></arrival><arrival><pickID>de.gempa.tb1.Pick/20250415023620.683013.142986</pickID><phase>P</phase><azimuth>205.7638397216797</azimuth><distance>1.4430469274520874</distance><timeResidual>0.5430641174316406</timeResidual><timeUsed>true</timeUsed><horizontalSlownessUsed>false</horizontalSlownessUsed><backazimuthUsed>false</backazimuthUsed><weight>1</weight></arrival><arrival><pickID>de.gempa.tb1.Pick/20250415023623.435138.142988</pickID><phase>P</phase><azimuth>310.0498046875</azimuth><distance>1.6665858030319214</distance><timeResidual>0.04929351806640625</timeResidual><timeUsed>true</timeUsed><horizontalSlownessUsed>false</horizontalSlownessUsed><backazimuthUsed>false</backazimuthUsed><weight>1</weight></arrival><arrival><pickID>de.gempa.tb1.Pick/20250415023625.70234.142990</pickID><phase>P</phase><azimuth>348.957275390625</azimuth><distance>1.7867454290390015</distance><timeResidual>0.8626117706298828</timeResidual><timeUsed>true</timeUsed><horizontalSlownessUsed>false</horizontalSlownessUsed><backazimuthUsed>false</backazimuthUsed><weight>1</weight></arrival><arrival><pickID>de.gempa.tb1.Pick/20250415023627.524271.142992</pickID><phase>P</phase><azimuth>192.9748077392578</azimuth><distance>2.04440975189209</distance><timeResidual>0.15717506408691406</timeResidual><timeUsed>true</timeUsed><horizontalSlownessUsed>false</horizontalSlownessUsed><backazimuthUsed>false</backazimuthUsed><weight>1</weight></arrival><arrival><pickID>de.gempa.tb1.Pick/20250415023633.47978.142994</pickID><phase>S</phase><azimuth>284.1983947753906</azimuth><distance>0.43398529291152954</distance><timeResidual>-0.07727813720703125</timeResidual><timeUsed>true</timeUsed><horizontalSlownessUsed>false</horizontalSlownessUsed><backazimuthUsed>false</backazimuthUsed><weight>1</weight></arrival><arrival><pickID>de.gempa.tb1.Pick/20250415023634.585923.142995</pickID><phase>P</phase><azimuth>331.2206726074219</azimuth><distance>2.612666130065918</distance><timeResidual>-1.3450908660888672</timeResidual><timeUsed>true</timeUsed><horizontalSlownessUsed>false</horizontalSlownessUsed><backazimuthUsed>false</backazimuthUsed><weight>1</weight></arrival><arrival><pickID>de.gempa.tb1.Pick/20250415023635.77059.142997</pickID><phase>S</phase><azimuth>322.6648254394531</azimuth><distance>1.0753962993621826</distance><timeResidual>-0.162994384765625</timeResidual><timeUsed>true</timeUsed><horizontalSlownessUsed>false</horizontalSlownessUsed><backazimuthUsed>false</backazimuthUsed><weight>1</weight></arrival><arrival><pickID>de.gempa.tb1.Pick/20250415023637.531898.142998</pickID><phase>S</phase><azimuth>299.240234375</azimuth><distance>1.182686448097229</distance><timeResidual>-0.09304237365722656</timeResidual><timeUsed>true</timeUsed><horizontalSlownessUsed>false</horizontalSlownessUsed><backazimuthUsed>false</backazimuthUsed><weight>1</weight></arrival><arrival><pickID>de.gempa.tb1.Pick/20250415023637.629608.142999</pickID><phase>S</phase><azimuth>222.10084533691406</azimuth><distance>1.0780175924301147</distance><timeResidual>-0.2321586608886719</timeResidual><timeUsed>true</timeUsed><horizontalSlownessUsed>false</horizontalSlownessUsed><backazimuthUsed>false</backazimuthUsed><weight>1</weight></arrival><arrival><pickID>de.gempa.tb1.Pick/20250415023641.800734.143002</pickID><phase>S</phase><azimuth>205.7638397216797</azimuth><distance>1.4430469274520874</distance><timeResidual>0.22153091430664062</timeResidual><timeUsed>true</timeUsed><horizontalSlownessUsed>false</horizontalSlownessUsed><backazimuthUsed>false</backazimuthUsed><weight>1</weight></arrival><arrival><pickID>de.gempa.tb1.Pick/20250415023649.41423.143008</pickID><phase>S</phase><azimuth>310.0498046875</azimuth><distance>1.6665858030319214</distance><timeResidual>0.3358268737792969</timeResidual><timeUsed>true</timeUsed><horizontalSlownessUsed>false</horizontalSlownessUsed><backazimuthUsed>false</backazimuthUsed><weight>1</weight></arrival><arrival><pickID>de.gempa.tb1.Pick/20250415023650.571335.143009</pickID><phase>P</phase><azimuth>279.6168518066406</azimuth><distance>1.0344980955123901</distance><timeResidual>0.35947608947753906</timeResidual><timeUsed>true</timeUsed><horizontalSlownessUsed>false</horizontalSlownessUsed><backazimuthUsed>false</backazimuthUsed><weight>1</weight></arrival><arrival><pickID>de.gempa.tb1.Pick/20250415023654.699137.143014</pickID><phase>S</phase><azimuth>192.9748077392578</azimuth><distance>2.04440975189209</distance><timeResidual>-0.4926071166992188</timeResidual><timeUsed>true</timeUsed><horizontalSlownessUsed>false</horizontalSlownessUsed><backazimuthUsed>false</backazimuthUsed><weight>1</weight></arrival><arrival><pickID>de.gempa.tb1.Pick/20250415023752.382171.143015</pickID><phase>S</phase><azimuth>279.6168518066406</azimuth><distance>1.0344980955123901</distance><timeResidual>0.1175556182861328</timeResidual><timeUsed>true</timeUsed><horizontalSlownessUsed>false</horizontalSlownessUsed><backazimuthUsed>false</backazimuthUsed><weight>1</weight></arrival><magnitude publicID="de.gempa.tb1.Magnitude/20250415023752.398799.563466"><magnitude><value>2.803697140203562</value></magnitude><type>M</type><methodID>weighted average</methodID><stationCount>7</stationCount></magnitude>