<?xml version="1.0" encoding="UTF-8"?>
<seiscomp xmlns="http://geofon.gfz-potsdam.de/ns/seiscomp3-schema/0.13" version="0.13"><EventParameters><pick publicID="de.gempa.tb1.Pick/20250413234922.614226.134367"><time><value>2025-04-13T23:49:17.168393Z</value></time><waveformID networkCode="CX" stationCode="PB01" channelCode="HHZ"/><filterID>ITAPER(4)&gt;&gt;BW(4,4,20)</filterID><methodID>AIC</methodID><horizontalSlowness><value>2.7600808560172503</value></horizontalSlowness><backazimuth><value>135.5817401859232</value></backazimuth><phaseHint>P</phaseHint><evaluationMode>automatic</evaluationMode><comment><text>78.70014854651555</text><id>DFX:rectilinearity</id></comment><comment><text>187.43314511341075</text><id>SNR</id></comment></pick><pick publicID="de.gempa.tb1.Pick/20250413234924.527317.134370"><time><value>2025-04-13T23:49:20.768393Z</value></time><waveformID networkCode="CX" stationCode="PB02" channelCode="HHZ"/><filterID>ITAPER(4)&gt;&gt;BW(4,4,20)</filterID><methodID>AIC</methodID><horizontalSlowness><value>6.859669556480727</value></horizontalSlowness><backazimuth><value>62.46563952692777</value></backazimuth><phaseHint>P</phaseHint><evaluationMode>automatic</evaluationMode><comment><text>612.7951876316126</text><id>DFX:rectilinearity</id></comment><comment><text>194.45592662978876</text><id>SNR</id></comment></pick><pick publicID="de.gempa.tb1.Pick/20250413234926.503838.134372"><time><value>2025-04-13T23:49:19.54Z</value></time><waveformID networkCode="CX" stationCode="PB09" channelCode="HHZ"/><filterID>ITAPER(4)&gt;&gt;BW(4,4,20)</filterID><methodID>AIC</methodID><horizontalSlowness><value>15.276931446900418</value></horizontalSlowness><backazimuth><value>74.89999147894231</value></backazimuth><phaseHint>P</phaseHint><evaluationMode>automatic</evaluationMode><comment><text>14.258493629561482</text><id>DFX:rectilinearity</id></comment><comment><text>105.05369439667558</text><id>SNR</id></comment></pick><pick publicID="de.gempa.tb1.Pick/20250413234928.547727.134375"><time><value>2025-04-13T23:49:22.588393Z</value></time><waveformID networkCode="CX" stationCode="PB08" channelCode="HHZ"/><filterID>ITAPER(4)&gt;&gt;BW(4,4,20)</filterID><methodID>AIC</methodID><horizontalSlowness><value>12.350652791921636</value></horizontalSlowness><backazimuth><value>195.7286334931475</value></backazimuth><phaseHint>P</phaseHint><evaluationMode>automatic</evaluationMode><comment><text>16.604319299197954</text><id>DFX:rectilinearity</id></comment><comment><text>15.7671903637957</text><id>SNR</id></comment></pick><pick publicID="de.gempa.tb1.Pick/20250413234928.626643.134377"><time><value>2025-04-13T23:49:23.538393Z</value></time><waveformID networkCode="CX" stationCode="PB03" channelCode="HHZ"/><filterID>ITAPER(4)&gt;&gt;BW(4,4,20)</filterID><methodID>AIC</methodID><horizontalSlowness><value>5.762352731588272</value></horizontalSlowness><backazimuth><value>72.13959978496219</value></backazimuth><phaseHint>P</phaseHint><evaluationMode>automatic</evaluationMode><comment><text>18.520889825131398</text><id>DFX:rectilinearity</id></comment><comment><text>49.28756210715834</text><id>SNR</id></comment></pick><pick publicID="de.gempa.tb1.Pick/20250413234931.46366.134379"><time><value>2025-04-13T23:49:23.599998Z</value></time><waveformID networkCode="CX" stationCode="PATCX" channelCode="HHZ"/><filterID>ITAPER(4)&gt;&gt;BW(4,4,20)</filterID><methodID>AIC</methodID><horizontalSlowness><value>8.778306310679014</value></horizontalSlowness><backazimuth><value>105.57512727380087</value></backazimuth><phaseHint>P</phaseHint><evaluationMode>automatic</evaluationMode><comment><text>299.43066916713724</text><id>DFX:rectilinearity</id></comment><comment><text>147.60867959153464</text><id>SNR</id></comment></pick><pick publicID="de.gempa.tb1.Pick/20250413234936.571062.134381"><time><value>2025-04-13T23:49:31.21Z</value></time><waveformID networkCode="CX" stationCode="PSGCX" channelCode="HHZ"/><filterID>ITAPER(4)&gt;&gt;BW(4,4,20)</filterID><methodID>AIC</methodID><horizontalSlowness><value>20.60306564993024</value></horizontalSlowness><backazimuth><value>124.42517004065881</value></backazimuth><phaseHint>P</phaseHint><evaluationMode>automatic</evaluationMode><comment><text>29.364979330309</text><id>DFX:rectilinearity</id></comment><comment><text>38.2274303412148</text><id>SNR</id></comment></pick><pick publicID="de.gempa.tb1.Pick/20250413234937.585862.134383"><time><value>2025-04-13T23:49:30.298393Z</value></time><waveformID networkCode="CX" stationCode="PB01" channelCode="HHN"/><filterID>ITAPER(2)&gt;&gt;BW(3,3,20)</filterID><methodID>L2-AIC-GRID</methodID><horizontalSlowness><value>19.560263570844224</value></horizontalSlowness><backazimuth><value>293.07892396357346</value></backazimuth><phaseHint>S</phaseHint><evaluationMode>automatic</evaluationMode><comment><text>10661.855243324397</text><id>DFX:rectilinearity</id></comment><comment><text>de.gempa.tb1.Pick/20250413234922.614226.134367</text><id>RefPickID</id></comment><comment><text>17.430731754233395</text><id>SNR</id></comment></pick><pick publicID="de.gempa.tb1.Pick/20250413234938.523462.134384"><time><value>2025-04-13T23:49:29.968391Z</value></time><waveformID networkCode="CX" stationCode="PB06" channelCode="HHZ"/><filterID>ITAPER(4)&gt;&gt;BW(4,4,20)</filterID><methodID>AIC</methodID><horizontalSlowness><value>6.855628325924702</value></horizontalSlowness><backazimuth><value>321.56444073541377</value></backazimuth><phaseHint>P</phaseHint><evaluationMode>automatic</evaluationMode><comment><text>35.69973273123619</text><id>DFX:rectilinearity</id></comment><comment><text>10.445392189626233</text><id>SNR</id></comment></pick><pick publicID="de.gempa.tb1.Pick/20250413234943.518772.134386"><time><value>2025-04-13T23:49:36.778393Z</value></time><waveformID networkCode="CX" stationCode="PB02" channelCode="HHN"/><filterID>ITAPER(2)&gt;&gt;BW(3,3,20)</filterID><methodID>L2-AIC-GRID</methodID><horizontalSlowness><value>23.35203159097741</value></horizontalSlowness><backazimuth><value>38.72624851216395</value></backazimuth><phaseHint>S</phaseHint><evaluationMode>automatic</evaluationMode><comment><text>13431.260495765184</text><id>DFX:rectilinearity</id></comment><comment><text>de.gempa.tb1.Pick/20250413234924.527317.134370</text><id>RefPickID</id></comment><comment><text>5.950583705483366</text><id>SNR</id></comment></pick><pick publicID="de.gempa.tb1.Pick/20250413234946.782794.134387"><time><value>2025-04-13T23:49:40.948393Z</value></time><waveformID networkCode="CX" stationCode="PB03" channelCode="HHN"/><filterID>ITAPER(2)&gt;&gt;BW(3,3,20)</filterID><methodID>L2-AIC-GRID</methodID><horizontalSlowness><value>22.148936429445168</value></horizontalSlowness><backazimuth><value>136.30279495890355</value></backazimuth><phaseHint>S</phaseHint><evaluationMode>automatic</evaluationMode><comment><text>571.0670802565865</text><id>DFX:rectilinearity</id></comment><comment><text>de.gempa.tb1.Pick/20250413234928.626643.134377</text><id>RefPickID</id></comment><comment><text>13.235861842761423</text><id>SNR</id></comment></pick><pick publicID="de.gempa.tb1.Pick/20250413234947.016466.134388"><time><value>2025-04-13T23:49:39.308393Z</value></time><waveformID networkCode="CX" stationCode="PB08" channelCode="HHN"/><filterID>ITAPER(2)&gt;&gt;BW(3,3,20)</filterID><methodID>L2-AIC-GRID</methodID><horizontalSlowness><value>16.682282968944964</value></horizontalSlowness><backazimuth><value>209.07043928017978</value></backazimuth><phaseHint>S</phaseHint><evaluationMode>automatic</evaluationMode><comment><text>282.0414742211583</text><id>DFX:rectilinearity</id></comment><comment><text>de.gempa.tb1.Pick/20250413234928.547727.134375</text><id>RefPickID</id></comment><comment><text>10.204406686243475</text><id>SNR</id></comment></pick><pick publicID="de.gempa.tb1.Pick/20250413234949.339323.134390"><time><value>2025-04-13T23:49:41.429998Z</value></time><waveformID networkCode="CX" stationCode="PATCX" channelCode="HHN"/><filterID>ITAPER(2)&gt;&gt;BW(3,3,20)</filterID><methodID>L2-AIC-GRID</methodID><horizontalSlowness><value>22.008990931014246</value></horizontalSlowness><backazimuth><value>259.1929052884975</value></backazimuth><phaseHint>S</phaseHint><evaluationMode>automatic</evaluationMode><comment><text>4883.206555284341</text><id>DFX:rectilinearity</id></comment><comment><text>de.gempa.tb1.Pick/20250413234931.46366.134379</text><id>RefPickID</id></comment><comment><text>6.625040486215302</text><id>SNR</id></comment></pick><pick publicID="de.gempa.tb1.Pick/20250413234957.670943.134396"><time><value>2025-04-13T23:49:51.528391Z</value></time><waveformID networkCode="CX" stationCode="PB06" channelCode="HHN"/><filterID>ITAPER(2)&gt;&gt;BW(3,3,20)</filterID><methodID>L2-AIC-GRID</methodID><horizontalSlowness><value>21.262804608583796</value></horizontalSlowness><backazimuth><value>293.12370209205767</value></backazimuth><phaseHint>S</phaseHint><evaluationMode>automatic</evaluationMode><comment><text>314.1923314653114</text><id>DFX:rectilinearity</id></comment><comment><text>de.gempa.tb1.Pick/20250413234938.523462.134384</text><id>RefPickID</id></comment><comment><text>10.468677158910708</text><id>SNR</id></comment></pick><pick publicID="de.gempa.tb1.Pick/20250413235000.59119.134397"><time><value>2025-04-13T23:49:55.05Z</value></time><waveformID networkCode="CX" stationCode="PSGCX" channelCode="HHN"/><filterID>ITAPER(2)&gt;&gt;BW(3,3,20)</filterID><methodID>L2-AIC-GRID</methodID><horizontalSlowness><value>20.310026229214678</value></horizontalSlowness><backazimuth><value>106.72207240463182</value></backazimuth><phaseHint>S</phaseHint><evaluationMode>automatic</evaluationMode><comment><text>100.59077364206038</text><id>DFX:rectilinearity</id></comment><comment><text>de.gempa.tb1.Pick/20250413234936.571062.134381</text><id>RefPickID</id></comment><comment><text>7.545576089814524</text><id>SNR</id></comment></pick><pick publicID="de.gempa.tb1.Pick/20250413235001.413651.134398"><time><value>2025-04-13T23:49:22.148391Z</value></time><waveformID networkCode="CX" stationCode="PB07" channelCode="HHZ"/><filterID>ITAPER(4)&gt;&gt;BW(4,4,20)</filterID><methodID>AIC</methodID><horizontalSlowness><value>19.169058207903383</value></horizontalSlowness><backazimuth><value>80.62760494054041</value></backazimuth><phaseHint>P</phaseHint><evaluationMode>automatic</evaluationMode><comment><text>629.5736546003903</text><id>DFX:rectilinearity</id></comment><comment><text>128.13855529447568</text><id>SNR</id></comment></pick><pick publicID="de.gempa.tb1.Pick/20250413235008.586147.134402"><time><value>2025-04-13T23:49:38.978391Z</value></time><waveformID networkCode="CX" stationCode="PB07" channelCode="HHN"/><filterID>ITAPER(2)&gt;&gt;BW(3,3,20)</filterID><methodID>L2-AIC-GRID</methodID><horizontalSlowness><value>21.732411771801097</value></horizontalSlowness><backazimuth><value>244.15160940877115</value></backazimuth><phaseHint>S</phaseHint><evaluationMode>automatic</evaluationMode><comment><text>13685.764199690815</text><id>DFX:rectilinearity</id></comment><comment><text>de.gempa.tb1.Pick/20250413235001.413651.134398</text><id>RefPickID</id></comment><comment><text>7.126142014931455</text><id>SNR</id></comment></pick><origin publicID="de.gempa.tb1.Origin/20250413235008.590208.121522"><time><value>2025-04-13T23:49:00.435424Z</value><uncertainty>0.7309284806251526</uncertainty></time><latitude><value>-21.12840461730957</value><uncertainty>2.4833831787109375</uncertainty></latitude><longitude><value>-69.03382873535156</value><uncertainty>6.358317852020264</uncertainty></longitude><depth><value>116.71250915527344</value><uncertainty>6.767841815948486</uncertainty></depth><depthType>from location</depthType><methodID>LOCSAT</methodID><earthModelID>iasp91_scanloc</earthModelID><quality><associatedPhaseCount>17</associatedPhaseCount><usedPhaseCount>17</usedPhaseCount><associatedStationCount>9</associatedStationCount><usedStationCount>9</usedStationCount><depthPhaseCount>0</depthPhaseCount><standardError>0.4969515671971592</standardError><azimuthalGap>202.74496459960938</azimuthalGap><maximumDistance>1.8344573974609375</maximumDistance><minimumDistance>0.43195921182632446</minimumDistance><medianDistance>0.9925004243850708</medianDistance></quality><uncertainty><minHorizontalUncertainty>5.311784744262695</minHorizontalUncertainty><maxHorizontalUncertainty>13.636000633239746</maxHorizontalUncertainty><azimuthMaxHorizontalUncertainty>91.64366912841797</azimuthMaxHorizontalUncertainty><preferredDescription>horizontal uncertainty</preferredDescription></uncertainty><evaluationMode>automatic</evaluationMode><evaluationStatus>confirmed</evaluationStatus><comment><text>0.00</text><id>mismatchScore</id></comment><comment><text>mismatchScore</text><id>scevalMethod</id></comment><arrival><pickID>de.gempa.tb1.Pick/20250413234922.614226.134367</pickID><phase>P</phase><azimuth>281.23370361328125</azimuth><distance>0.43195921182632446</distance><timeResidual>-0.4703845977783203</timeResidual><timeUsed>true</timeUsed><horizontalSlownessUsed>false</horizontalSlownessUsed><backazimuthUsed>false</backazimuthUsed><weight>1</weight></arrival><arrival><pickID>de.gempa.tb1.Pick/20250413234924.527317.134370</pickID><phase>P</phase><azimuth>256.5301513671875</azimuth><distance>0.8266398310661316</distance><timeResidual>0.1880779266357422</timeResidual><timeUsed>true</timeUsed><horizontalSlownessUsed>false</horizontalSlownessUsed><backazimuthUsed>false</backazimuthUsed><weight>1</weight></arrival><arrival><pickID>de.gempa.tb1.Pick/20250413234926.503838.134372</pickID><phase>P</phase><azimuth>196.21987915039062</azimuth><distance>0.6923760771751404</distance><timeResidual>0.10858345031738281</timeResidual><timeUsed>true</timeUsed><horizontalSlownessUsed>false</horizontalSlownessUsed><backazimuthUsed>false</backazimuthUsed><weight>1</weight></arrival><arrival><pickID>de.gempa.tb1.Pick/20250413234928.547727.134375</pickID><phase>P</phase><azimuth>353.47491455078125</azimuth><distance>0.9886654615402222</distance><timeResidual>0.4673538208007812</timeResidual><timeUsed>true</timeUsed><horizontalSlownessUsed>false</horizontalSlownessUsed><backazimuthUsed>false</backazimuthUsed><weight>1</weight></arrival><arrival><pickID>de.gempa.tb1.Pick/20250413234928.626643.134377</pickID><phase>P</phase><azimuth>216.04173278808594</azimuth><distance>1.1341756582260132</distance><timeResidual>-0.06416893005371094</timeResidual><timeUsed>true</timeUsed><horizontalSlownessUsed>false</horizontalSlownessUsed><backazimuthUsed>false</backazimuthUsed><weight>1</weight></arrival><arrival><pickID>de.gempa.tb1.Pick/20250413234931.46366.134379</pickID><phase>P</phase><azimuth>286.1178894042969</azimuth><distance>1.089684247970581</distance><timeResidual>0.4570102691650391</timeResidual><timeUsed>true</timeUsed><horizontalSlownessUsed>false</horizontalSlownessUsed><backazimuthUsed>false</backazimuthUsed><weight>1</weight></arrival><arrival><pickID>de.gempa.tb1.Pick/20250413234936.571062.134381</pickID><phase>P</phase><azimuth>325.9550476074219</azimuth><distance>1.8344573974609375</distance><timeResidual>-0.5083541870117188</timeResidual><timeUsed>true</timeUsed><horizontalSlownessUsed>false</horizontalSlownessUsed><backazimuthUsed>false</backazimuthUsed><weight>1</weight></arrival><arrival><pickID>de.gempa.tb1.Pick/20250413234937.585862.134383</pickID><phase>S</phase><azimuth>281.23370361328125</azimuth><distance>0.43195921182632446</distance><timeResidual>-0.594869613647461</timeResidual><timeUsed>true</timeUsed><horizontalSlownessUsed>false</horizontalSlownessUsed><backazimuthUsed>false</backazimuthUsed><weight>1</weight></arrival><arrival><pickID>de.gempa.tb1.Pick/20250413234938.523462.134384</pickID><phase>P</phase><azimuth>197.55613708496094</azimuth><distance>1.6473400592803955</distance><timeResidual>0.5382137298583984</timeResidual><timeUsed>true</timeUsed><horizontalSlownessUsed>false</horizontalSlownessUsed><backazimuthUsed>false</backazimuthUsed><weight>1</weight></arrival><arrival><pickID>de.gempa.tb1.Pick/20250413234943.518772.134386</pickID><phase>S</phase><azimuth>256.5301513671875</azimuth><distance>0.8266398310661316</distance><timeResidual>0.6461505889892578</timeResidual><timeUsed>true</timeUsed><horizontalSlownessUsed>false</horizontalSlownessUsed><backazimuthUsed>false</backazimuthUsed><weight>1</weight></arrival><arrival><pickID>de.gempa.tb1.Pick/20250413234946.782794.134387</pickID><phase>S</phase><azimuth>216.04173278808594</azimuth><distance>1.1341756582260132</distance><timeResidual>-0.5759658813476562</timeResidual><timeUsed>true</timeUsed><horizontalSlownessUsed>false</horizontalSlownessUsed><backazimuthUsed>false</backazimuthUsed><weight>1</weight></arrival><arrival><pickID>de.gempa.tb1.Pick/20250413234947.016466.134388</pickID><phase>S</phase><azimuth>353.47491455078125</azimuth><distance>0.9886654615402222</distance><timeResidual>0.4302806854248047</timeResidual><timeUsed>true</timeUsed><horizontalSlownessUsed>false</horizontalSlownessUsed><backazimuthUsed>false</backazimuthUsed><weight>1</weight></arrival><arrival><pickID>de.gempa.tb1.Pick/20250413234949.339323.134390</pickID><phase>S</phase><azimuth>286.1178894042969</azimuth><distance>1.089684247970581</distance><timeResidual>0.7270946502685547</timeResidual><timeUsed>true</timeUsed><horizontalSlownessUsed>false</horizontalSlownessUsed><backazimuthUsed>false</backazimuthUsed><weight>1</weight></arrival><arrival><pickID>de.gempa.tb1.Pick/20250413234957.670943.134396</pickID><phase>S</phase><azimuth>197.55613708496094</azimuth><distance>1.6473400592803955</distance><timeResidual>-0.4114246368408203</timeResidual><timeUsed>true</timeUsed><horizontalSlownessUsed>false</horizontalSlownessUsed><backazimuthUsed>false</backazimuthUsed><weight>1</weight></arrival><arrival><pickID>de.gempa.tb1.Pick/20250413235000.59119.134397</pickID><phase>S</phase><azimuth>325.9550476074219</azimuth><distance>1.8344573974609375</distance><timeResidual>-0.9808826446533203</timeResidual><timeUsed>true</timeUsed><horizontalSlownessUsed>false</horizontalSlownessUsed><backazimuthUsed>false</backazimuthUsed><weight>1</weight></arrival><arrival><pickID>de.gempa.tb1.Pick/20250413235001.413651.134398</pickID><phase>P</phase><azimuth>232.9891662597656</azimuth><distance>0.9925004243850708</distance><timeResidual>-0.0020618438720703125</timeResidual><timeUsed>true</timeUsed><horizontalSlownessUsed>false</horizontalSlownessUsed><backazimuthUsed>false</backazimuthUsed><weight>1</weight></arrival><arrival><pickID>de.gempa.tb1.Pick/20250413235008.586147.134402</pickID><phase>S</phase><azimuth>232.9891662597656</azimuth><distance>0.9925004243850708</distance><timeResidual>0.04566383361816406</timeResidual><timeUsed>true</timeUsed><horizontalSlownessUsed>false</horizontalSlownessUsed><backazimuthUsed>false</backazimuthUsed><weight>1</weight></arrival><magnitude publicID="de.gempa.tb1.Magnitude/20250413235015.940569.411328"><magnitude><value>2.4580393062593235</value></magnitude><type>M</type><methodID>weighted average</methodID><stationCount>7</stationCount></magnitude></origin><event publicID="gempa2025hifx"><preferredOriginID>de.gempa.tb1.Origin/20250413235008.590208.121522</preferredOriginID><preferredMagnitudeID>de.gempa.tb1.Magnitude/20250413235015.940569.411328</preferredMagnitudeID><description><text>Northern Chile</text><type>region name</type></description><originReference>de.gempa.tb1.Origin/20250413235008.590208.121522</originReference></event></EventParameters></seiscomp>