<?xml version="1.0" encoding="UTF-8"?>
<seiscomp xmlns="http://geofon.gfz-potsdam.de/ns/seiscomp3-schema/0.13" version="0.13"><EventParameters><pick publicID="de.gempa.tb1.Pick/20250414170025.638647.139397"><time><value>2025-04-14T17:00:19.628393Z</value></time><waveformID networkCode="CX" stationCode="PB02" channelCode="HHZ"/><filterID>ITAPER(4)&gt;&gt;BW(4,4,20)</filterID><methodID>AIC</methodID><horizontalSlowness><value>12.147458000888573</value></horizontalSlowness><backazimuth><value>11.51359513742912</value></backazimuth><phaseHint>P</phaseHint><evaluationMode>automatic</evaluationMode><comment><text>7676.457336573211</text><id>DFX:rectilinearity</id></comment><comment><text>64.82729735830682</text><id>SNR</id></comment></pick><pick publicID="de.gempa.tb1.Pick/20250414170027.631423.139399"><time><value>2025-04-14T17:00:20.348393Z</value></time><waveformID networkCode="CX" stationCode="PB01" channelCode="HHZ"/><filterID>ITAPER(4)&gt;&gt;BW(4,4,20)</filterID><methodID>AIC</methodID><horizontalSlowness><value>13.501778110400142</value></horizontalSlowness><backazimuth><value>293.4348395458573</value></backazimuth><phaseHint>P</phaseHint><evaluationMode>automatic</evaluationMode><comment><text>90.40169938187246</text><id>DFX:rectilinearity</id></comment><comment><text>14.7646173962949</text><id>SNR</id></comment></pick><pick publicID="de.gempa.tb1.Pick/20250414170038.4402.139401"><time><value>2025-04-14T17:00:26.718393Z</value></time><waveformID networkCode="CX" stationCode="PB02" channelCode="HHN"/><filterID>ITAPER(2)&gt;&gt;BW(3,3,20)</filterID><methodID>L2-AIC-GRID</methodID><horizontalSlowness><value>20.021955476159633</value></horizontalSlowness><backazimuth><value>85.00559033422752</value></backazimuth><phaseHint>S</phaseHint><evaluationMode>automatic</evaluationMode><comment><text>104534.5019901369</text><id>DFX:rectilinearity</id></comment><comment><text>de.gempa.tb1.Pick/20250414170025.638647.139397</text><id>RefPickID</id></comment><comment><text>7.910500451446659</text><id>SNR</id></comment></pick><pick publicID="de.gempa.tb1.Pick/20250414170044.666469.139402"><time><value>2025-04-14T17:00:34.24Z</value></time><waveformID networkCode="CX" stationCode="PSGCX" channelCode="HHZ"/><filterID>ITAPER(4)&gt;&gt;BW(4,4,20)</filterID><methodID>AIC</methodID><horizontalSlowness><value>20.55394201462633</value></horizontalSlowness><backazimuth><value>59.00368498811079</value></backazimuth><phaseHint>P</phaseHint><evaluationMode>automatic</evaluationMode><comment><text>14.761944235244066</text><id>DFX:rectilinearity</id></comment><comment><text>13.66887091731619</text><id>SNR</id></comment></pick><pick publicID="de.gempa.tb1.Pick/20250414170105.773882.139408"><time><value>2025-04-14T17:00:51.66Z</value></time><waveformID networkCode="CX" stationCode="PSGCX" channelCode="HHN"/><filterID>ITAPER(2)&gt;&gt;BW(3,3,20)</filterID><methodID>L2-AIC-GRID</methodID><horizontalSlowness><value>19.526089911161272</value></horizontalSlowness><backazimuth><value>47.35773543469389</value></backazimuth><phaseHint>S</phaseHint><evaluationMode>automatic</evaluationMode><comment><text>273.7774068191311</text><id>DFX:rectilinearity</id></comment><comment><text>de.gempa.tb1.Pick/20250414170044.666469.139402</text><id>RefPickID</id></comment><comment><text>6.728926308770466</text><id>SNR</id></comment></pick><pick publicID="de.gempa.tb1.Pick/20250414170108.030805.139409"><time><value>2025-04-14T17:00:27.118393Z</value></time><waveformID networkCode="CX" stationCode="PB07" channelCode="HHZ"/><filterID>ITAPER(4)&gt;&gt;BW(4,4,20)</filterID><methodID>AIC</methodID><horizontalSlowness><value>18.1971262356309</value></horizontalSlowness><backazimuth><value>317.04176308576416</value></backazimuth><phaseHint>P</phaseHint><evaluationMode>automatic</evaluationMode><comment><text>1111.757924189749</text><id>DFX:rectilinearity</id></comment><comment><text>9.957041833133184</text><id>SNR</id></comment></pick><origin publicID="de.gempa.tb1.Origin/20250414170109.17526.143555"><time><value>2025-04-14T17:00:10.375452Z</value><uncertainty>0.4898680746555328</uncertainty></time><latitude><value>-20.842714309692383</value><uncertainty>2.3227415084838867</uncertainty></latitude><longitude><value>-70.00389099121094</value><uncertainty>7.807202339172363</uncertainty></longitude><depth><value>0</value></depth><depthType>operator assigned</depthType><methodID>LOCSAT</methodID><earthModelID>iasp91_scanloc</earthModelID><quality><associatedPhaseCount>6</associatedPhaseCount><usedPhaseCount>6</usedPhaseCount><associatedStationCount>4</associatedStationCount><usedStationCount>4</usedStationCount><depthPhaseCount>0</depthPhaseCount><standardError>0.16156817029816556</standardError><azimuthalGap>181.91256713867188</azimuthalGap><maximumDistance>1.244223952293396</maximumDistance><minimumDistance>0.4852137565612793</minimumDistance><medianDistance>0.8864083886146545</medianDistance></quality><uncertainty><minHorizontalUncertainty>4.1891932487487793</minHorizontalUncertainty><maxHorizontalUncertainty>16.957887649536133</maxHorizontalUncertainty><azimuthMaxHorizontalUncertainty>80.5613021850586</azimuthMaxHorizontalUncertainty><preferredDescription>horizontal uncertainty</preferredDescription></uncertainty><evaluationMode>automatic</evaluationMode><evaluationStatus>confirmed</evaluationStatus><comment><text>0.36</text><id>mismatchScore</id></comment><comment><text>mismatchScore</text><id>scevalMethod</id></comment><arrival><pickID>de.gempa.tb1.Pick/20250414170025.638647.139397</pickID><phase>P</phase><azimuth>168.03729248046875</azimuth><distance>0.4852137565612793</distance><timeResidual>-0.05377769470214844</timeResidual><timeUsed>true</timeUsed><horizontalSlownessUsed>false</horizontalSlownessUsed><backazimuthUsed>false</backazimuthUsed><weight>1</weight></arrival><arrival><pickID>de.gempa.tb1.Pick/20250414170027.631423.139399</pickID><phase>P</phase><azimuth>112.54474639892578</azimuth><distance>0.5223854780197144</distance><timeResidual>-0.04708957672119141</timeResidual><timeUsed>true</timeUsed><horizontalSlownessUsed>false</horizontalSlownessUsed><backazimuthUsed>false</backazimuthUsed><weight>1</weight></arrival><arrival><pickID>de.gempa.tb1.Pick/20250414170038.4402.139401</pickID><phase>S</phase><azimuth>168.03729248046875</azimuth><distance>0.4852137565612793</distance><timeResidual>0.2782115936279297</timeResidual><timeUsed>true</timeUsed><horizontalSlownessUsed>false</horizontalSlownessUsed><backazimuthUsed>false</backazimuthUsed><weight>1</weight></arrival><arrival><pickID>de.gempa.tb1.Pick/20250414170044.666469.139402</pickID><phase>P</phase><azimuth>354.8194274902344</azimuth><distance>1.244223952293396</distance><timeResidual>-0.0029430389404296875</timeResidual><timeUsed>true</timeUsed><horizontalSlownessUsed>false</horizontalSlownessUsed><backazimuthUsed>false</backazimuthUsed><weight>1</weight></arrival><arrival><pickID>de.gempa.tb1.Pick/20250414170105.773882.139408</pickID><phase>S</phase><azimuth>354.8194274902344</azimuth><distance>1.244223952293396</distance><timeResidual>0.0844573974609375</timeResidual><timeUsed>true</timeUsed><horizontalSlownessUsed>false</horizontalSlownessUsed><backazimuthUsed>false</backazimuthUsed><weight>1</weight></arrival><arrival><pickID>de.gempa.tb1.Pick/20250414170108.030805.139409</pickID><phase>P</phase><azimuth>172.9068603515625</azimuth><distance>0.8864083886146545</distance><timeResidual>-0.2587909698486328</timeResidual><timeUsed>true</timeUsed><horizontalSlownessUsed>false</horizontalSlownessUsed><backazimuthUsed>false</backazimuthUsed><weight>1</weight></arrival><magnitude publicID="de.gempa.tb1.Magnitude/20250414170109.182169.517030"><magnitude><value>2.1153110921130915</value></magnitude><type>M</type><methodID>weighted average</methodID><stationCount>2</stationCount></magnitude></origin><event publicID="gempa2025hjoh"><preferredOriginID>de.gempa.tb1.Origin/20250414170109.17526.143555</preferredOriginID><preferredMagnitudeID>de.gempa.tb1.Magnitude/20250414170109.182169.517030</preferredMagnitudeID><description><text>Near Coast of Northern Chile</text><type>region name</type></description><originReference>de.gempa.tb1.Origin/20250414170109.17526.143555</originReference></event></EventParameters></seiscomp>