<?xml version="1.0" encoding="UTF-8"?>
<seiscomp xmlns="http://geofon.gfz-potsdam.de/ns/seiscomp3-schema/0.13" version="0.13"><EventParameters><pick publicID="de.gempa.tb1.Pick/20250413010500.225549.127899"><time><value>2025-04-13T01:04:54.409999Z</value></time><waveformID networkCode="CX" stationCode="PATCX" channelCode="HHZ"/><filterID>ITAPER(4)&gt;&gt;BW(4,4,20)</filterID><methodID>AIC</methodID><horizontalSlowness><value>22.308322614633248</value></horizontalSlowness><backazimuth><value>337.83921798008805</value></backazimuth><phaseHint>P</phaseHint><evaluationMode>automatic</evaluationMode><comment><text>300.4577755093289</text><id>DFX:rectilinearity</id></comment><comment><text>63.27404511608463</text><id>SNR</id></comment></pick><pick publicID="de.gempa.tb1.Pick/20250413010506.453346.127901"><time><value>2025-04-13T01:04:59.259999Z</value></time><waveformID networkCode="CX" stationCode="PATCX" channelCode="HHN"/><filterID>ITAPER(2)&gt;&gt;BW(3,3,20)</filterID><methodID>L2-AIC-GRID</methodID><horizontalSlowness><value>23.453922936454745</value></horizontalSlowness><backazimuth><value>270.88459710025506</value></backazimuth><phaseHint>S</phaseHint><evaluationMode>automatic</evaluationMode><comment><text>1731.2078067705297</text><id>DFX:rectilinearity</id></comment><comment><text>de.gempa.tb1.Pick/20250413010500.225549.127899</text><id>RefPickID</id></comment><comment><text>10.904250994116081</text><id>SNR</id></comment></pick><pick publicID="de.gempa.tb1.Pick/20250413010506.541669.127902"><time><value>2025-04-13T01:05:02.008393Z</value></time><waveformID networkCode="CX" stationCode="PB02" channelCode="HHZ"/><filterID>ITAPER(4)&gt;&gt;BW(4,4,20)</filterID><methodID>AIC</methodID><horizontalSlowness><value>7.790471582689713</value></horizontalSlowness><backazimuth><value>317.36844289094324</value></backazimuth><phaseHint>P</phaseHint><evaluationMode>automatic</evaluationMode><comment><text>117.53315571179978</text><id>DFX:rectilinearity</id></comment><comment><text>41.540803693672714</text><id>SNR</id></comment></pick><pick publicID="de.gempa.tb1.Pick/20250413010510.579956.127904"><time><value>2025-04-13T01:05:03.798393Z</value></time><waveformID networkCode="CX" stationCode="PB01" channelCode="HHZ"/><filterID>ITAPER(4)&gt;&gt;BW(4,4,20)</filterID><methodID>AIC</methodID><horizontalSlowness><value>16.703795224286338</value></horizontalSlowness><backazimuth><value>358.83771611986606</value></backazimuth><phaseHint>P</phaseHint><evaluationMode>automatic</evaluationMode><comment><text>12.820621335585507</text><id>DFX:rectilinearity</id></comment><comment><text>42.744406897398733</text><id>SNR</id></comment></pick><pick publicID="de.gempa.tb1.Pick/20250413010514.5697.127906"><time><value>2025-04-13T01:05:06.569998Z</value></time><waveformID networkCode="CX" stationCode="PSGCX" channelCode="HHZ"/><filterID>ITAPER(4)&gt;&gt;BW(4,4,20)</filterID><methodID>AIC</methodID><horizontalSlowness><value>22.477878840414185</value></horizontalSlowness><backazimuth><value>336.7088970945643</value></backazimuth><phaseHint>P</phaseHint><evaluationMode>automatic</evaluationMode><comment><text>21.875529918597337</text><id>DFX:rectilinearity</id></comment><comment><text>56.16154654664147</text><id>SNR</id></comment></pick><pick publicID="de.gempa.tb1.Pick/20250413010515.24566.127908"><time><value>2025-04-13T01:05:09.848393Z</value></time><waveformID networkCode="CX" stationCode="PB08" channelCode="HHZ"/><filterID>ITAPER(4)&gt;&gt;BW(4,4,20)</filterID><methodID>AIC</methodID><horizontalSlowness><value>12.97611079309678</value></horizontalSlowness><backazimuth><value>92.93896262222398</value></backazimuth><phaseHint>P</phaseHint><evaluationMode>automatic</evaluationMode><comment><text>9.174837313171937</text><id>DFX:rectilinearity</id></comment><comment><text>6.695900712544354</text><id>SNR</id></comment></pick><pick publicID="de.gempa.tb1.Pick/20250413010519.591032.127910"><time><value>2025-04-13T01:05:12.668393Z</value></time><waveformID networkCode="CX" stationCode="PB02" channelCode="HHN"/><filterID>ITAPER(2)&gt;&gt;BW(3,3,20)</filterID><methodID>L2-AIC-GRID</methodID><horizontalSlowness><value>15.06444617694529</value></horizontalSlowness><backazimuth><value>9.009269147223904</value></backazimuth><phaseHint>S</phaseHint><evaluationMode>automatic</evaluationMode><comment><text>925.9056701378894</text><id>DFX:rectilinearity</id></comment><comment><text>de.gempa.tb1.Pick/20250413010506.541669.127902</text><id>RefPickID</id></comment><comment><text>12.168852238802767</text><id>SNR</id></comment></pick><pick publicID="de.gempa.tb1.Pick/20250413010523.555188.127911"><time><value>2025-04-13T01:05:07.848394Z</value></time><waveformID networkCode="CX" stationCode="PB07" channelCode="HHZ"/><filterID>ITAPER(4)&gt;&gt;BW(4,4,20)</filterID><methodID>AIC</methodID><horizontalSlowness><value>20.921529336519967</value></horizontalSlowness><backazimuth><value>285.82247599847636</value></backazimuth><phaseHint>P</phaseHint><evaluationMode>automatic</evaluationMode><comment><text>220.7348297233353</text><id>DFX:rectilinearity</id></comment><comment><text>20.791342345197563</text><id>SNR</id></comment></pick><pick publicID="de.gempa.tb1.Pick/20250413010526.650788.127913"><time><value>2025-04-13T01:05:14.77Z</value></time><waveformID networkCode="CX" stationCode="PB09" channelCode="HHZ"/><filterID>ITAPER(4)&gt;&gt;BW(4,4,20)</filterID><methodID>AIC</methodID><horizontalSlowness><value>19.311311342160383</value></horizontalSlowness><backazimuth><value>288.28904578460117</value></backazimuth><phaseHint>P</phaseHint><evaluationMode>automatic</evaluationMode><comment><text>24.61491149752632</text><id>DFX:rectilinearity</id></comment><comment><text>23.51832404821674</text><id>SNR</id></comment></pick><pick publicID="de.gempa.tb1.Pick/20250413010526.746404.127915"><time><value>2025-04-13T01:05:15.298393Z</value></time><waveformID networkCode="CX" stationCode="PB01" channelCode="HHN"/><filterID>ITAPER(2)&gt;&gt;BW(3,3,20)</filterID><methodID>L2-AIC-GRID</methodID><horizontalSlowness><value>22.68121134019424</value></horizontalSlowness><backazimuth><value>19.4931548126267</value></backazimuth><phaseHint>S</phaseHint><evaluationMode>automatic</evaluationMode><comment><text>41.410705395893473</text><id>DFX:rectilinearity</id></comment><comment><text>de.gempa.tb1.Pick/20250413010510.579956.127904</text><id>RefPickID</id></comment><comment><text>6.330855503115916</text><id>SNR</id></comment></pick><pick publicID="de.gempa.tb1.Pick/20250413010530.576627.127917"><time><value>2025-04-13T01:05:20.279998Z</value></time><waveformID networkCode="CX" stationCode="PSGCX" channelCode="HHN"/><filterID>ITAPER(2)&gt;&gt;BW(3,3,20)</filterID><methodID>L2-AIC-GRID</methodID><horizontalSlowness><value>18.408806151787115</value></horizontalSlowness><backazimuth><value>60.54132250792112</value></backazimuth><phaseHint>S</phaseHint><evaluationMode>automatic</evaluationMode><comment><text>243.39880662552443</text><id>DFX:rectilinearity</id></comment><comment><text>de.gempa.tb1.Pick/20250413010514.5697.127906</text><id>RefPickID</id></comment><comment><text>8.908441344391056</text><id>SNR</id></comment></pick><pick publicID="de.gempa.tb1.Pick/20250413010533.711037.127918"><time><value>2025-04-13T01:05:26.098393Z</value></time><waveformID networkCode="CX" stationCode="PB08" channelCode="HHN"/><filterID>ITAPER(2)&gt;&gt;BW(3,3,20)</filterID><methodID>L2-AIC-GRID</methodID><horizontalSlowness><value>18.07518723170174</value></horizontalSlowness><backazimuth><value>192.01620825825285</value></backazimuth><phaseHint>S</phaseHint><evaluationMode>automatic</evaluationMode><comment><text>32.912116960207413</text><id>DFX:rectilinearity</id></comment><comment><text>de.gempa.tb1.Pick/20250413010515.24566.127908</text><id>RefPickID</id></comment><comment><text>5.679039807570799</text><id>SNR</id></comment></pick><origin publicID="de.gempa.tb1.Origin/20250413010533.714316.96829"><time><value>2025-04-13T01:04:47.600787Z</value><uncertainty>0.6433289051055908</uncertainty></time><latitude><value>-20.654253005981445</value><uncertainty>3.171530485153198</uncertainty></latitude><longitude><value>-70.34065246582031</value><uncertainty>5.05086612701416</uncertainty></longitude><depth><value>27.09482765197754</value><uncertainty>4.0773677825927734</uncertainty></depth><depthType>from location</depthType><methodID>LOCSAT</methodID><earthModelID>iasp91_scanloc</earthModelID><quality><associatedPhaseCount>12</associatedPhaseCount><usedPhaseCount>12</usedPhaseCount><associatedStationCount>7</associatedStationCount><usedStationCount>7</usedStationCount><depthPhaseCount>0</depthPhaseCount><standardError>0.8566733210640478</standardError><azimuthalGap>212.63429832458496</azimuthalGap><maximumDistance>1.530465841293335</maximumDistance><minimumDistance>0.24149511754512787</minimumDistance><medianDistance>1.0713620185852051</medianDistance></quality><uncertainty><minHorizontalUncertainty>6.514118671417236</minHorizontalUncertainty><maxHorizontalUncertainty>11.00930118560791</maxHorizontalUncertainty><azimuthMaxHorizontalUncertainty>77.2433090209961</azimuthMaxHorizontalUncertainty><preferredDescription>horizontal uncertainty</preferredDescription></uncertainty><evaluationMode>automatic</evaluationMode><evaluationStatus>confirmed</evaluationStatus><comment><text>0.00</text><id>mismatchScore</id></comment><comment><text>mismatchScore</text><id>scevalMethod</id></comment><arrival><pickID>de.gempa.tb1.Pick/20250413010500.225549.127899</pickID><phase>P</phase><azimuth>133.3320770263672</azimuth><distance>0.24149511754512787</distance><timeResidual>0.4167461395263672</timeResidual><timeUsed>true</timeUsed><horizontalSlownessUsed>false</horizontalSlownessUsed><backazimuthUsed>false</backazimuthUsed><weight>1</weight></arrival><arrival><pickID>de.gempa.tb1.Pick/20250413010506.453346.127901</pickID><phase>S</phase><azimuth>133.3320770263672</azimuth><distance>0.24149511754512787</distance><timeResidual>0.6138272285461426</timeResidual><timeUsed>true</timeUsed><horizontalSlownessUsed>false</horizontalSlownessUsed><backazimuthUsed>false</backazimuthUsed><weight>1</weight></arrival><arrival><pickID>de.gempa.tb1.Pick/20250413010506.541669.127902</pickID><phase>P</phase><azimuth>147.9716796875</azimuth><distance>0.7817138433456421</distance><timeResidual>-0.5435104370117188</timeResidual><timeUsed>true</timeUsed><horizontalSlownessUsed>false</horizontalSlownessUsed><backazimuthUsed>false</backazimuthUsed><weight>1</weight></arrival><arrival><pickID>de.gempa.tb1.Pick/20250413010510.579956.127904</pickID><phase>P</phase><azimuth>116.02195739746094</azimuth><distance>0.8869548439979553</distance><timeResidual>-0.4053006172180176</timeResidual><timeUsed>true</timeUsed><horizontalSlownessUsed>false</horizontalSlownessUsed><backazimuthUsed>false</backazimuthUsed><weight>1</weight></arrival><arrival><pickID>de.gempa.tb1.Pick/20250413010514.5697.127906</pickID><phase>P</phase><azimuth>11.040349960327148</azimuth><distance>1.0713620185852051</distance><timeResidual>-0.25992822647094727</timeResidual><timeUsed>true</timeUsed><horizontalSlownessUsed>false</horizontalSlownessUsed><backazimuthUsed>false</backazimuthUsed><weight>1</weight></arrival><arrival><pickID>de.gempa.tb1.Pick/20250413010515.24566.127908</pickID><phase>P</phase><azimuth>65.57988739013672</azimuth><distance>1.2251430749893188</distance><timeResidual>0.9037270545959473</timeResidual><timeUsed>true</timeUsed><horizontalSlownessUsed>false</horizontalSlownessUsed><backazimuthUsed>false</backazimuthUsed><weight>1</weight></arrival><arrival><pickID>de.gempa.tb1.Pick/20250413010519.591032.127910</pickID><phase>S</phase><azimuth>147.9716796875</azimuth><distance>0.7817138433456421</distance><timeResidual>-0.8671069145202637</timeResidual><timeUsed>true</timeUsed><horizontalSlownessUsed>false</horizontalSlownessUsed><backazimuthUsed>false</backazimuthUsed><weight>1</weight></arrival><arrival><pickID>de.gempa.tb1.Pick/20250413010523.555188.127911</pickID><phase>P</phase><azimuth>158.4060516357422</azimuth><distance>1.1482874155044556</distance><timeResidual>-0.03394460678100586</timeResidual><timeUsed>true</timeUsed><horizontalSlownessUsed>false</horizontalSlownessUsed><backazimuthUsed>false</backazimuthUsed><weight>1</weight></arrival><arrival><pickID>de.gempa.tb1.Pick/20250413010526.650788.127913</pickID><phase>P</phase><azimuth>138.1459197998047</azimuth><distance>1.530465841293335</distance><timeResidual>1.6281037330627441</timeResidual><timeUsed>true</timeUsed><horizontalSlownessUsed>false</horizontalSlownessUsed><backazimuthUsed>false</backazimuthUsed><weight>1</weight></arrival><arrival><pickID>de.gempa.tb1.Pick/20250413010526.746404.127915</pickID><phase>S</phase><azimuth>116.02195739746094</azimuth><distance>0.8869548439979553</distance><timeResidual>-1.2094721794128418</timeResidual><timeUsed>true</timeUsed><horizontalSlownessUsed>false</horizontalSlownessUsed><backazimuthUsed>false</backazimuthUsed><weight>1</weight></arrival><arrival><pickID>de.gempa.tb1.Pick/20250413010530.576627.127917</pickID><phase>S</phase><azimuth>11.040349960327148</azimuth><distance>1.0713620185852051</distance><timeResidual>-1.1259150505065918</timeResidual><timeUsed>true</timeUsed><horizontalSlownessUsed>false</horizontalSlownessUsed><backazimuthUsed>false</backazimuthUsed><weight>1</weight></arrival><arrival><pickID>de.gempa.tb1.Pick/20250413010533.711037.127918</pickID><phase>S</phase><azimuth>65.57988739013672</azimuth><distance>1.2251430749893188</distance><timeResidual>0.8820405006408691</timeResidual><timeUsed>true</timeUsed><horizontalSlownessUsed>false</horizontalSlownessUsed><backazimuthUsed>false</backazimuthUsed><weight>1</weight></arrival><magnitude publicID="de.gempa.tb1.Magnitude/20250413010540.938608.297732"><magnitude><value>2.2246010376456828</value></magnitude><type>M</type><methodID>weighted average</methodID><stationCount>7</stationCount></magnitude></origin><event publicID="gempa2025hgmk"><preferredOriginID>de.gempa.tb1.Origin/20250413010533.714316.96829</preferredOriginID><preferredMagnitudeID>de.gempa.tb1.Magnitude/20250413010540.938608.297732</preferredMagnitudeID><description><text>Near Coast of Northern Chile</text><type>region name</type></description><originReference>de.gempa.tb1.Origin/20250413010533.714316.96829</originReference></event></EventParameters></seiscomp>