<?xml version="1.0" encoding="UTF-8"?>
<seiscomp xmlns="http://geofon.gfz-potsdam.de/ns/seiscomp3-schema/0.13" version="0.13"><EventParameters><pick publicID="de.gempa.tb1.Pick/20250414031723.544443.135302"><time><value>2025-04-14T03:17:16.128393Z</value></time><waveformID networkCode="CX" stationCode="PB02" channelCode="HHZ"/><filterID>ITAPER(4)&gt;&gt;BW(4,4,20)</filterID><methodID>AIC</methodID><horizontalSlowness><value>19.497985881111884</value></horizontalSlowness><backazimuth><value>273.74113976766586</value></backazimuth><phaseHint>P</phaseHint><evaluationMode>automatic</evaluationMode><comment><text>34.35108300007632</text><id>DFX:rectilinearity</id></comment><comment><text>15.074435001965297</text><id>SNR</id></comment></pick><pick publicID="de.gempa.tb1.Pick/20250414031725.177845.135304"><time><value>2025-04-14T03:17:16.418414Z</value></time><waveformID networkCode="CX" stationCode="PB07" channelCode="HHZ"/><filterID>ITAPER(4)&gt;&gt;BW(4,4,20)</filterID><methodID>AIC</methodID><horizontalSlowness><value>21.864603853085658</value></horizontalSlowness><backazimuth><value>261.23321801370633</value></backazimuth><phaseHint>P</phaseHint><evaluationMode>automatic</evaluationMode><comment><text>218.03616663107752</text><id>DFX:rectilinearity</id></comment><comment><text>83.20178918823987</text><id>SNR</id></comment></pick><pick publicID="de.gempa.tb1.Pick/20250414031726.516393.135306"><time><value>2025-04-14T03:17:19.218393Z</value></time><waveformID networkCode="CX" stationCode="PB03" channelCode="HHZ"/><filterID>ITAPER(4)&gt;&gt;BW(4,4,20)</filterID><methodID>AIC</methodID><horizontalSlowness><value>14.289416826367153</value></horizontalSlowness><backazimuth><value>289.01511318780524</value></backazimuth><phaseHint>P</phaseHint><evaluationMode>automatic</evaluationMode><comment><text>12.541634914881763</text><id>DFX:rectilinearity</id></comment><comment><text>31.88350026921764</text><id>SNR</id></comment></pick><pick publicID="de.gempa.tb1.Pick/20250414031726.526574.135308"><time><value>2025-04-14T03:17:22.328393Z</value></time><waveformID networkCode="CX" stationCode="PB01" channelCode="HHZ"/><filterID>ITAPER(4)&gt;&gt;BW(4,4,20)</filterID><methodID>AIC</methodID><horizontalSlowness><value>13.003313712662688</value></horizontalSlowness><backazimuth><value>289.60389194519973</value></backazimuth><phaseHint>P</phaseHint><evaluationMode>automatic</evaluationMode><comment><text>25.899428890999463</text><id>DFX:rectilinearity</id></comment><comment><text>6.688819955458532</text><id>SNR</id></comment></pick><pick publicID="de.gempa.tb1.Pick/20250414031731.664766.135310"><time><value>2025-04-14T03:17:25.428393Z</value></time><waveformID networkCode="CX" stationCode="PB06" channelCode="HHZ"/><filterID>ITAPER(4)&gt;&gt;BW(4,4,20)</filterID><methodID>AIC</methodID><horizontalSlowness><value>1.2777650973730876</value></horizontalSlowness><backazimuth><value>248.9648839374795</value></backazimuth><phaseHint>P</phaseHint><evaluationMode>automatic</evaluationMode><comment><text>101.55804098881129</text><id>DFX:rectilinearity</id></comment><comment><text>8.946693727326066</text><id>SNR</id></comment></pick><pick publicID="de.gempa.tb1.Pick/20250414031736.465644.135312"><time><value>2025-04-14T03:17:26.27Z</value></time><waveformID networkCode="CX" stationCode="PB09" channelCode="HHZ"/><filterID>ITAPER(4)&gt;&gt;BW(4,4,20)</filterID><methodID>AIC</methodID><horizontalSlowness><value>21.061002297265507</value></horizontalSlowness><backazimuth><value>328.5669072852132</value></backazimuth><phaseHint>P</phaseHint><evaluationMode>automatic</evaluationMode><comment><text>8.274409834696261</text><id>DFX:rectilinearity</id></comment><comment><text>101.43949363549326</text><id>SNR</id></comment></pick><pick publicID="de.gempa.tb1.Pick/20250414031802.561751.135317"><time><value>2025-04-14T03:17:53.068393Z</value></time><waveformID networkCode="CX" stationCode="PB06" channelCode="HHN"/><filterID>ITAPER(2)&gt;&gt;BW(3,3,20)</filterID><methodID>L2-AIC-GRID</methodID><horizontalSlowness><value>16.213844596866362</value></horizontalSlowness><backazimuth><value>112.24469207989932</value></backazimuth><phaseHint>S</phaseHint><evaluationMode>automatic</evaluationMode><comment><text>148.68359699129633</text><id>DFX:rectilinearity</id></comment><comment><text>de.gempa.tb1.Pick/20250414031731.664766.135310</text><id>RefPickID</id></comment><comment><text>12.602187429185363</text><id>SNR</id></comment></pick><origin publicID="de.gempa.tb1.Origin/20250414031802.566742.125305"><time><value>2025-04-14T03:16:50.349113Z</value><uncertainty>1.8873474597930908</uncertainty></time><latitude><value>-21.49949836730957</value><uncertainty>7.443795680999756</uncertainty></latitude><longitude><value>-71.34120178222656</value><uncertainty>13.684816360473633</uncertainty></longitude><depth><value>0</value></depth><depthType>operator assigned</depthType><methodID>LOCSAT</methodID><earthModelID>iasp91_scanloc</earthModelID><quality><associatedPhaseCount>7</associatedPhaseCount><usedPhaseCount>7</usedPhaseCount><associatedStationCount>6</associatedStationCount><usedStationCount>6</usedStationCount><depthPhaseCount>0</depthPhaseCount><standardError>0.5212998425988666</standardError><azimuthalGap>309.1043243408203</azimuthalGap><maximumDistance>2.0330758094787598</maximumDistance><minimumDistance>1.3584715127944946</minimumDistance><medianDistance>1.7876278162002563</medianDistance></quality><uncertainty><minHorizontalUncertainty>15.508705139160156</minHorizontalUncertainty><maxHorizontalUncertainty>29.59088897705078</maxHorizontalUncertainty><azimuthMaxHorizontalUncertainty>81.36412811279297</azimuthMaxHorizontalUncertainty><preferredDescription>horizontal uncertainty</preferredDescription></uncertainty><evaluationMode>automatic</evaluationMode><evaluationStatus>confirmed</evaluationStatus><comment><text>0.15</text><id>mismatchScore</id></comment><comment><text>mismatchScore</text><id>scevalMethod</id></comment><arrival><pickID>de.gempa.tb1.Pick/20250414031723.544443.135302</pickID><phase>P</phase><azimuth>82.69605255126953</azimuth><distance>1.3584715127944946</distance><timeResidual>-0.24798583984375</timeResidual><timeUsed>true</timeUsed><horizontalSlownessUsed>false</horizontalSlownessUsed><backazimuthUsed>false</backazimuthUsed><weight>1</weight></arrival><arrival><pickID>de.gempa.tb1.Pick/20250414031725.177845.135304</pickID><phase>P</phase><azimuth>99.7447509765625</azimuth><distance>1.372687578201294</distance><timeResidual>-0.21957969665527344</timeResidual><timeUsed>true</timeUsed><horizontalSlownessUsed>false</horizontalSlownessUsed><backazimuthUsed>false</backazimuthUsed><weight>1</weight></arrival><arrival><pickID>de.gempa.tb1.Pick/20250414031726.516393.135306</pickID><phase>P</phase><azimuth>110.60022735595703</azimuth><distance>1.5739871263504028</distance><timeResidual>-0.3138256072998047</timeResidual><timeUsed>true</timeUsed><horizontalSlownessUsed>false</horizontalSlownessUsed><backazimuthUsed>false</backazimuthUsed><weight>1</weight></arrival><arrival><pickID>de.gempa.tb1.Pick/20250414031726.526574.135308</pickID><phase>P</phase><azimuth>75.62293243408203</azimuth><distance>1.7876278162002563</distance><timeResidual>-0.1456012725830078</timeResidual><timeUsed>true</timeUsed><horizontalSlownessUsed>false</horizontalSlownessUsed><backazimuthUsed>false</backazimuthUsed><weight>1</weight></arrival><arrival><pickID>de.gempa.tb1.Pick/20250414031731.664766.135310</pickID><phase>P</phase><azimuth>126.51860809326172</azimuth><distance>2.0330758094787598</distance><timeResidual>-0.42194175720214844</timeResidual><timeUsed>true</timeUsed><horizontalSlownessUsed>false</horizontalSlownessUsed><backazimuthUsed>false</backazimuthUsed><weight>1</weight></arrival><arrival><pickID>de.gempa.tb1.Pick/20250414031736.465644.135312</pickID><phase>P</phase><azimuth>98.98600006103516</azimuth><distance>1.9751900434494019</distance><timeResidual>1.2153358459472656</timeResidual><timeUsed>true</timeUsed><horizontalSlownessUsed>false</horizontalSlownessUsed><backazimuthUsed>false</backazimuthUsed><weight>1</weight></arrival><arrival><pickID>de.gempa.tb1.Pick/20250414031802.561751.135317</pickID><phase>S</phase><azimuth>126.51860809326172</azimuth><distance>2.0330758094787598</distance><timeResidual>0.13341712951660156</timeResidual><timeUsed>true</timeUsed><horizontalSlownessUsed>false</horizontalSlownessUsed><backazimuthUsed>false</backazimuthUsed><weight>1</weight></arrival><magnitude publicID="de.gempa.tb1.Magnitude/20250414031802.572053.423576"><magnitude><value>2.326020732166987</value></magnitude><type>M</type><methodID>weighted average</methodID><stationCount>3</stationCount></magnitude></origin><event publicID="gempa2025himv"><preferredOriginID>de.gempa.tb1.Origin/20250414031802.566742.125305</preferredOriginID><preferredMagnitudeID>de.gempa.tb1.Magnitude/20250414031802.572053.423576</preferredMagnitudeID><description><text>Off Coast of Northern Chile</text><type>region name</type></description><originReference>de.gempa.tb1.Origin/20250414031802.566742.125305</originReference></event></EventParameters></seiscomp>