<?xml version="1.0" encoding="UTF-8"?>
<seiscomp xmlns="http://geofon.gfz-potsdam.de/ns/seiscomp3-schema/0.13" version="0.13"><EventParameters><pick publicID="de.gempa.tb1.Pick/20250412195349.590456.126411"><time><value>2025-04-12T19:53:42.078393Z</value></time><waveformID networkCode="CX" stationCode="PB06" channelCode="HHZ"/><filterID>ITAPER(4)&gt;&gt;BW(4,4,20)</filterID><methodID>AIC</methodID><horizontalSlowness><value>11.231328581335674</value></horizontalSlowness><backazimuth><value>64.42137584758146</value></backazimuth><phaseHint>P</phaseHint><evaluationMode>automatic</evaluationMode><comment><text>150.00673915682796</text><id>DFX:rectilinearity</id></comment><comment><text>21.047776141877687</text><id>SNR</id></comment></pick><pick publicID="de.gempa.tb1.Pick/20250412195357.481318.126413"><time><value>2025-04-12T19:53:49.068394Z</value></time><waveformID networkCode="CX" stationCode="PB15" channelCode="HHZ"/><filterID>ITAPER(4)&gt;&gt;BW(4,4,20)</filterID><methodID>AIC</methodID><horizontalSlowness><value>18.698399417903769</value></horizontalSlowness><backazimuth><value>57.55067183177465</value></backazimuth><phaseHint>P</phaseHint><evaluationMode>automatic</evaluationMode><comment><text>2245.1847828911045</text><id>DFX:rectilinearity</id></comment><comment><text>9.710179452891921</text><id>SNR</id></comment></pick><pick publicID="de.gempa.tb1.Pick/20250412195358.56257.126415"><time><value>2025-04-12T19:53:51.658393Z</value></time><waveformID networkCode="CX" stationCode="PB01" channelCode="HHZ"/><filterID>ITAPER(4)&gt;&gt;BW(4,4,20)</filterID><methodID>AIC</methodID><horizontalSlowness><value>17.082516201408332</value></horizontalSlowness><backazimuth><value>151.96386519670008</value></backazimuth><phaseHint>P</phaseHint><evaluationMode>automatic</evaluationMode><comment><text>355.89786603358596</text><id>DFX:rectilinearity</id></comment><comment><text>19.499521758288996</text><id>SNR</id></comment></pick><pick publicID="de.gempa.tb1.Pick/20250412195401.685507.126417"><time><value>2025-04-12T19:53:53.428393Z</value></time><waveformID networkCode="CX" stationCode="PB06" channelCode="HHN"/><filterID>ITAPER(2)&gt;&gt;BW(3,3,20)</filterID><methodID>L2-AIC-GRID</methodID><horizontalSlowness><value>13.16100799911685</value></horizontalSlowness><backazimuth><value>213.89116246778121</value></backazimuth><phaseHint>S</phaseHint><evaluationMode>automatic</evaluationMode><comment><text>807.5569916883437</text><id>DFX:rectilinearity</id></comment><comment><text>de.gempa.tb1.Pick/20250412195349.590456.126411</text><id>RefPickID</id></comment><comment><text>5.403879027328527</text><id>SNR</id></comment></pick><pick publicID="de.gempa.tb1.Pick/20250412195408.611298.126418"><time><value>2025-04-12T19:54:01.07Z</value></time><waveformID networkCode="CX" stationCode="PB19" channelCode="HHZ"/><filterID>ITAPER(4)&gt;&gt;BW(4,4,20)</filterID><methodID>AIC</methodID><horizontalSlowness><value>3.803526211641587</value></horizontalSlowness><backazimuth><value>110.66372543097813</value></backazimuth><phaseHint>P</phaseHint><evaluationMode>automatic</evaluationMode><comment><text>119.35360664820249</text><id>DFX:rectilinearity</id></comment><comment><text>19.155233942261116</text><id>SNR</id></comment></pick><pick publicID="de.gempa.tb1.Pick/20250412195409.271008.126420"><time><value>2025-04-12T19:54:01.049999Z</value></time><waveformID networkCode="CX" stationCode="PATCX" channelCode="HHZ"/><filterID>ITAPER(4)&gt;&gt;BW(4,4,20)</filterID><methodID>AIC</methodID><horizontalSlowness><value>20.31866073094769</value></horizontalSlowness><backazimuth><value>108.15550261687932</value></backazimuth><phaseHint>P</phaseHint><evaluationMode>automatic</evaluationMode><comment><text>762.8696618692132</text><id>DFX:rectilinearity</id></comment><comment><text>11.874873209953545</text><id>SNR</id></comment></pick><pick publicID="de.gempa.tb1.Pick/20250412195414.300376.126423"><time><value>2025-04-12T19:54:04.86Z</value></time><waveformID networkCode="CX" stationCode="PB10" channelCode="HHZ"/><filterID>ITAPER(4)&gt;&gt;BW(4,4,20)</filterID><methodID>AIC</methodID><horizontalSlowness><value>1.2511717965504823</value></horizontalSlowness><backazimuth><value>357.17483831436687</value></backazimuth><phaseHint>P</phaseHint><evaluationMode>automatic</evaluationMode><comment><text>115.2403008636934</text><id>DFX:rectilinearity</id></comment><comment><text>5.548338523419663</text><id>SNR</id></comment></pick><origin publicID="de.gempa.tb1.Origin/20250412195414.304137.90875"><time><value>2025-04-12T19:53:29.184807Z</value><uncertainty>0.7296112179756165</uncertainty></time><latitude><value>-22.18501091003418</value><uncertainty>3.2523910999298096</uncertainty></latitude><longitude><value>-69.02371978759766</value><uncertainty>7.50639533996582</uncertainty></longitude><depth><value>0</value></depth><depthType>operator assigned</depthType><methodID>LOCSAT</methodID><earthModelID>iasp91_scanloc</earthModelID><quality><associatedPhaseCount>7</associatedPhaseCount><usedPhaseCount>7</usedPhaseCount><associatedStationCount>6</associatedStationCount><usedStationCount>6</usedStationCount><depthPhaseCount>0</depthPhaseCount><standardError>0.9564573263116404</standardError><azimuthalGap>209.00184631347656</azimuthalGap><maximumDistance>1.934139370918274</maximumDistance><minimumDistance>0.725132405757904</minimumDistance><medianDistance>1.2153562307357788</medianDistance></quality><uncertainty><minHorizontalUncertainty>6.187427997589111</minHorizontalUncertainty><maxHorizontalUncertainty>16.42095184326172</maxHorizontalUncertainty><azimuthMaxHorizontalUncertainty>102.23314666748047</azimuthMaxHorizontalUncertainty><preferredDescription>horizontal uncertainty</preferredDescription></uncertainty><evaluationMode>automatic</evaluationMode><comment><text>0.66</text><id>mismatchScore</id></comment><arrival><pickID>de.gempa.tb1.Pick/20250412195349.590456.126411</pickID><phase>P</phase><azimuth>224.27127075195312</azimuth><distance>0.725132405757904</distance><timeResidual>-1.0143680572509766</timeResidual><timeUsed>true</timeUsed><horizontalSlownessUsed>false</horizontalSlownessUsed><backazimuthUsed>false</backazimuthUsed><weight>1</weight></arrival><arrival><pickID>de.gempa.tb1.Pick/20250412195357.481318.126413</pickID><phase>P</phase><azimuth>201.9859619140625</azimuth><distance>1.0990363359451294</distance><timeResidual>-1.195425033569336</timeResidual><timeUsed>true</timeUsed><horizontalSlownessUsed>false</horizontalSlownessUsed><backazimuthUsed>false</backazimuthUsed><weight>1</weight></arrival><arrival><pickID>de.gempa.tb1.Pick/20250412195358.56257.126415</pickID><phase>P</phase><azimuth>339.12066650390625</azimuth><distance>1.2153562307357788</distance><timeResidual>-0.8390874862670898</timeResidual><timeUsed>true</timeUsed><horizontalSlownessUsed>false</horizontalSlownessUsed><backazimuthUsed>false</backazimuthUsed><weight>1</weight></arrival><arrival><pickID>de.gempa.tb1.Pick/20250412195401.685507.126417</pickID><phase>S</phase><azimuth>224.27127075195312</azimuth><distance>0.725132405757904</distance><timeResidual>0.23619747161865234</timeResidual><timeUsed>true</timeUsed><horizontalSlownessUsed>false</horizontalSlownessUsed><backazimuthUsed>false</backazimuthUsed><weight>1</weight></arrival><arrival><pickID>de.gempa.tb1.Pick/20250412195408.611298.126418</pickID><phase>P</phase><azimuth>188.1225128173828</azimuth><distance>1.7293239831924438</distance><timeResidual>0.5661630630493164</timeResidual><timeUsed>true</timeUsed><horizontalSlownessUsed>false</horizontalSlownessUsed><backazimuthUsed>false</backazimuthUsed><weight>1</weight></arrival><arrival><pickID>de.gempa.tb1.Pick/20250412195409.271008.126420</pickID><phase>P</phase><azimuth>322.0336608886719</azimuth><distance>1.7171721458435059</distance><timeResidual>0.7096967697143555</timeResidual><timeUsed>true</timeUsed><horizontalSlownessUsed>false</horizontalSlownessUsed><backazimuthUsed>false</backazimuthUsed><weight>1</weight></arrival><arrival><pickID>de.gempa.tb1.Pick/20250412195414.300376.126423</pickID><phase>P</phase><azimuth>226.5820007324219</azimuth><distance>1.934139370918274</distance><timeResidual>1.536757469177246</timeResidual><timeUsed>true</timeUsed><horizontalSlownessUsed>false</horizontalSlownessUsed><backazimuthUsed>false</backazimuthUsed><weight>1</weight></arrival><magnitude publicID="de.gempa.tb1.Magnitude/20250412195452.172941.272554"><magnitude><value>2.68166200020109</value></magnitude><type>M</type><methodID>weighted average</methodID><stationCount>6</stationCount></magnitude></origin><event publicID="gempa2025hgca"><preferredOriginID>de.gempa.tb1.Origin/20250412195414.304137.90875</preferredOriginID><preferredMagnitudeID>de.gempa.tb1.Magnitude/20250412195452.172941.272554</preferredMagnitudeID><description><text>Northern Chile</text><type>region name</type></description><originReference>de.gempa.tb1.Origin/20250412195414.304137.90875</originReference></event></EventParameters></seiscomp>