<?xml version="1.0" encoding="UTF-8"?>
<seiscomp xmlns="http://geofon.gfz-potsdam.de/ns/seiscomp3-schema/0.13" version="0.13"><EventParameters><pick publicID="de.gempa.tb1.Pick/20250412212143.491032.191046"><time><value>2025-04-12T21:21:34.7175Z</value></time><waveformID networkCode="SX" stationCode="WERN" channelCode="HHZ"/><filterID>ITAPER(2)&gt;&gt;BW(3,3,20)</filterID><methodID>AIC</methodID><horizontalSlowness><value>22.705022808606323</value></horizontalSlowness><backazimuth><value>260.7466096455844</value></backazimuth><phaseHint>P</phaseHint><evaluationMode>automatic</evaluationMode><comment><text>12.70334823380448</text><id>DFX:rectilinearity</id></comment></pick><pick publicID="de.gempa.tb1.Pick/20250412212146.844862.191048"><time><value>2025-04-12T21:21:35.51Z</value></time><waveformID networkCode="SX" stationCode="TANN" channelCode="HHZ"/><filterID>ITAPER(2)&gt;&gt;BW(3,3,20)</filterID><methodID>AIC</methodID><horizontalSlowness><value>18.898882946979338</value></horizontalSlowness><backazimuth><value>332.2806714572087</value></backazimuth><phaseHint>P</phaseHint><evaluationMode>automatic</evaluationMode><comment><text>1.5233375040744233</text><id>DFX:rectilinearity</id></comment></pick><pick publicID="de.gempa.tb1.Pick/20250412212147.083291.191050"><time><value>2025-04-12T21:21:44.015Z</value></time><waveformID networkCode="BW" stationCode="MANZ" channelCode="HHZ"/><filterID>ITAPER(2)&gt;&gt;BW(3,3,20)</filterID><methodID>AIC</methodID><horizontalSlowness><value>18.837296086011104</value></horizontalSlowness><backazimuth><value>136.4296050657967</value></backazimuth><phaseHint>P</phaseHint><evaluationMode>automatic</evaluationMode><comment><text>1.7230415354830264</text><id>DFX:rectilinearity</id></comment></pick><pick publicID="de.gempa.tb1.Pick/20250412212147.264179.191052"><time><value>2025-04-12T21:21:36.96Z</value></time><waveformID networkCode="SX" stationCode="TRIB" channelCode="HHZ"/><filterID>ITAPER(2)&gt;&gt;BW(3,3,20)</filterID><methodID>AIC</methodID><horizontalSlowness><value>13.664442875504301</value></horizontalSlowness><backazimuth><value>209.64397979621472</value></backazimuth><phaseHint>P</phaseHint><evaluationMode>automatic</evaluationMode><comment><text>1.6709712534495207</text><id>DFX:rectilinearity</id></comment></pick><pick publicID="de.gempa.tb1.Pick/20250412212147.332242.191054"><time><value>2025-04-12T21:21:36.01Z</value></time><waveformID networkCode="SX" stationCode="MULD" channelCode="HHZ"/><filterID>ITAPER(2)&gt;&gt;BW(3,3,20)</filterID><methodID>AIC</methodID><horizontalSlowness><value>20.890317476628994</value></horizontalSlowness><backazimuth><value>194.8803219076857</value></backazimuth><phaseHint>P</phaseHint><evaluationMode>automatic</evaluationMode><comment><text>2.467236132621442</text><id>DFX:rectilinearity</id></comment></pick><pick publicID="de.gempa.tb1.Pick/20250412212147.941165.191056"><time><value>2025-04-12T21:21:37.46Z</value></time><waveformID networkCode="SX" stationCode="GUNZ" channelCode="HHZ"/><filterID>ITAPER(2)&gt;&gt;BW(3,3,20)</filterID><methodID>AIC</methodID><horizontalSlowness><value>22.307414220864427</value></horizontalSlowness><backazimuth><value>280.43053813750635</value></backazimuth><phaseHint>P</phaseHint><evaluationMode>automatic</evaluationMode><comment><text>4.2798948249209063</text><id>DFX:rectilinearity</id></comment></pick><pick publicID="de.gempa.tb1.Pick/20250412212149.865333.191059"><time><value>2025-04-12T21:21:38.28Z</value></time><waveformID networkCode="SX" stationCode="TANN" channelCode="HHN"/><filterID>ITAPER(3)&gt;&gt;BW(4,3,10)</filterID><methodID>L2-AIC-GRID</methodID><horizontalSlowness><value>19.299991861845108</value></horizontalSlowness><backazimuth><value>334.3176943752778</value></backazimuth><phaseHint>S</phaseHint><evaluationMode>automatic</evaluationMode><comment><text>1.5939036870150727</text><id>DFX:rectilinearity</id></comment><comment><text>de.gempa.tb1.Pick/20250412212146.844862.191048</text><id>RefPickID</id></comment></pick><pick publicID="de.gempa.tb1.Pick/20250412212150.356568.191060"><time><value>2025-04-12T21:21:38.27Z</value></time><waveformID networkCode="SX" stationCode="MULD" channelCode="HHN"/><filterID>ITAPER(3)&gt;&gt;BW(4,3,10)</filterID><methodID>L2-AIC-GRID</methodID><horizontalSlowness><value>20.37330448270999</value></horizontalSlowness><backazimuth><value>195.54185511381854</value></backazimuth><phaseHint>S</phaseHint><evaluationMode>automatic</evaluationMode><comment><text>2.447754299527896</text><id>DFX:rectilinearity</id></comment><comment><text>de.gempa.tb1.Pick/20250412212147.332242.191054</text><id>RefPickID</id></comment></pick><pick publicID="de.gempa.tb1.Pick/20250412212151.665244.191061"><time><value>2025-04-12T21:21:40.07Z</value></time><waveformID networkCode="SX" stationCode="TRIB" channelCode="HHN"/><filterID>ITAPER(3)&gt;&gt;BW(4,3,10)</filterID><methodID>L2-AIC-GRID</methodID><horizontalSlowness><value>20.713883101332964</value></horizontalSlowness><backazimuth><value>274.82628793056273</value></backazimuth><phaseHint>S</phaseHint><evaluationMode>automatic</evaluationMode><comment><text>2.6135332374594196</text><id>DFX:rectilinearity</id></comment><comment><text>de.gempa.tb1.Pick/20250412212147.264179.191052</text><id>RefPickID</id></comment></pick><origin publicID="de.gempa.tb1.Origin/20250412212156.910997.189393"><time><value>2025-04-12T21:21:34.191502Z</value><uncertainty>0.6716521382331848</uncertainty></time><latitude><value>50.33334732055664</value><uncertainty>3.388270378112793</uncertainty></latitude><longitude><value>12.401044845581055</value><uncertainty>3.4274466037750244</uncertainty></longitude><depth><value>3.936323642730713</value><uncertainty>3.2517876625061035</uncertainty></depth><depthType>from location</depthType><methodID>LOCSAT</methodID><earthModelID>iasp91</earthModelID><quality><associatedPhaseCount>9</associatedPhaseCount><usedPhaseCount>9</usedPhaseCount><associatedStationCount>6</associatedStationCount><usedStationCount>6</usedStationCount><depthPhaseCount>0</depthPhaseCount><standardError>1.0543753627136925</standardError><azimuthalGap>174.04962348937988</azimuthalGap><maximumDistance>0.3952839970588684</maximumDistance><minimumDistance>0.04870495945215225</minimumDistance><medianDistance>0.09031915664672852</medianDistance></quality><uncertainty><minHorizontalUncertainty>4.791897773742676</minHorizontalUncertainty><maxHorizontalUncertainty>9.161959648132324</maxHorizontalUncertainty><azimuthMaxHorizontalUncertainty>134.42262268066406</azimuthMaxHorizontalUncertainty><preferredDescription>horizontal uncertainty</preferredDescription></uncertainty><evaluationMode>automatic</evaluationMode><evaluationStatus>confirmed</evaluationStatus><comment><text>0.35</text><id>mismatchScore</id></comment><comment><text>mismatchScore</text><id>scevalMethod</id></comment><arrival><pickID>de.gempa.tb1.Pick/20250412212143.491032.191046</pickID><phase>P</phase><azimuth>199.1804656982422</azimuth><distance>0.04870495945215225</distance><timeResidual>-1.0820504426956177</timeResidual><timeUsed>true</timeUsed><horizontalSlownessUsed>false</horizontalSlownessUsed><backazimuthUsed>false</backazimuthUsed><weight>1</weight></arrival><arrival><pickID>de.gempa.tb1.Pick/20250412212146.844862.191048</pickID><phase>P</phase><azimuth>25.130842208862305</azimuth><distance>0.09031915664672852</distance><timeResidual>-1.0573446750640869</timeResidual><timeUsed>true</timeUsed><horizontalSlownessUsed>false</horizontalSlownessUsed><backazimuthUsed>false</backazimuthUsed><weight>1</weight></arrival><arrival><pickID>de.gempa.tb1.Pick/20250412212147.083291.191050</pickID><phase>P</phase><azimuth>208.55859375</azimuth><distance>0.3952839970588684</distance><timeResidual>1.8181185722351074</timeResidual><timeUsed>true</timeUsed><horizontalSlownessUsed>false</horizontalSlownessUsed><backazimuthUsed>false</backazimuthUsed><weight>1</weight></arrival><arrival><pickID>de.gempa.tb1.Pick/20250412212147.264179.191052</pickID><phase>P</phase><azimuth>276.40093994140625</azimuth><distance>0.17021000385284424</distance><timeResidual>-1.0819962024688721</timeResidual><timeUsed>true</timeUsed><horizontalSlownessUsed>false</horizontalSlownessUsed><backazimuthUsed>false</backazimuthUsed><weight>1</weight></arrival><arrival><pickID>de.gempa.tb1.Pick/20250412212147.332242.191054</pickID><phase>P</phase><azimuth>1.3322933912277222</azimuth><distance>0.07857093960046768</distance><timeResidual>-0.3405179977416992</timeResidual><timeUsed>true</timeUsed><horizontalSlownessUsed>false</horizontalSlownessUsed><backazimuthUsed>false</backazimuthUsed><weight>1</weight></arrival><arrival><pickID>de.gempa.tb1.Pick/20250412212147.941165.191056</pickID><phase>P</phase><azimuth>304.1850891113281</azimuth><distance>0.05376531183719635</distance><timeResidual>1.567211151123047</timeResidual><timeUsed>true</timeUsed><horizontalSlownessUsed>false</horizontalSlownessUsed><backazimuthUsed>false</backazimuthUsed><weight>1</weight></arrival><arrival><pickID>de.gempa.tb1.Pick/20250412212149.865333.191059</pickID><phase>S</phase><azimuth>25.130842208862305</azimuth><distance>0.09031915664672852</distance><timeResidual>0.18871307373046875</timeResidual><timeUsed>true</timeUsed><horizontalSlownessUsed>false</horizontalSlownessUsed><backazimuthUsed>false</backazimuthUsed><weight>1</weight></arrival><arrival><pickID>de.gempa.tb1.Pick/20250412212150.356568.191060</pickID><phase>S</phase><azimuth>1.3322933912277222</azimuth><distance>0.07857093960046768</distance><timeResidual>0.5536127090454102</timeResidual><timeUsed>true</timeUsed><horizontalSlownessUsed>false</horizontalSlownessUsed><backazimuthUsed>false</backazimuthUsed><weight>1</weight></arrival><arrival><pickID>de.gempa.tb1.Pick/20250412212151.665244.191061</pickID><phase>S</phase><azimuth>276.40093994140625</azimuth><distance>0.17021000385284424</distance><timeResidual>-0.5710358619689941</timeResidual><timeUsed>true</timeUsed><horizontalSlownessUsed>false</horizontalSlownessUsed><backazimuthUsed>false</backazimuthUsed><weight>1</weight></arrival><magnitude publicID="de.gempa.tb1.Magnitude/20250412212211.943422.284601"><magnitude><value>0.09029311881409903</value></magnitude><type>M</type><methodID>weighted average</methodID><stationCount>6</stationCount></magnitude></origin><event publicID="gempa2025hgey"><preferredOriginID>de.gempa.tb1.Origin/20250412212156.910997.189393</preferredOriginID><preferredMagnitudeID>de.gempa.tb1.Magnitude/20250412212211.943422.284601</preferredMagnitudeID><description><text>Germany</text><type>region name</type></description><originReference>de.gempa.tb1.Origin/20250412212156.910997.189393</originReference></event></EventParameters></seiscomp>