<?xml version="1.0" encoding="UTF-8"?>
<seiscomp xmlns="http://geofon.gfz-potsdam.de/ns/seiscomp3-schema/0.13" version="0.13"><EventParameters><pick publicID="de.gempa.tb1.Pick/20250414035043.550428.135517"><time><value>2025-04-14T03:50:37.228393Z</value></time><waveformID networkCode="CX" stationCode="PB08" channelCode="HHZ"/><filterID>ITAPER(4)&gt;&gt;BW(4,4,20)</filterID><methodID>AIC</methodID><horizontalSlowness><value>15.576507091301227</value></horizontalSlowness><backazimuth><value>213.29979535205652</value></backazimuth><phaseHint>P</phaseHint><evaluationMode>automatic</evaluationMode><comment><text>228.87428556621515</text><id>DFX:rectilinearity</id></comment><comment><text>142.53894622853952</text><id>SNR</id></comment></pick><pick publicID="de.gempa.tb1.Pick/20250414035043.746312.135519"><time><value>2025-04-14T03:50:37.038393Z</value></time><waveformID networkCode="CX" stationCode="PB01" channelCode="HHZ"/><filterID>ITAPER(4)&gt;&gt;BW(4,4,20)</filterID><methodID>AIC</methodID><horizontalSlowness><value>8.0358851308862</value></horizontalSlowness><backazimuth><value>57.1727559849639</value></backazimuth><phaseHint>P</phaseHint><evaluationMode>automatic</evaluationMode><comment><text>105.53045201171446</text><id>DFX:rectilinearity</id></comment><comment><text>174.19796992806323</text><id>SNR</id></comment></pick><pick publicID="de.gempa.tb1.Pick/20250414035047.34755.135521"><time><value>2025-04-14T03:50:41.259999Z</value></time><waveformID networkCode="CX" stationCode="PATCX" channelCode="HHZ"/><filterID>ITAPER(4)&gt;&gt;BW(4,4,20)</filterID><methodID>AIC</methodID><horizontalSlowness><value>21.87881664409194</value></horizontalSlowness><backazimuth><value>65.5558537956956</value></backazimuth><phaseHint>P</phaseHint><evaluationMode>automatic</evaluationMode><comment><text>267.16682093810584</text><id>DFX:rectilinearity</id></comment><comment><text>36.32692528907616</text><id>SNR</id></comment></pick><pick publicID="de.gempa.tb1.Pick/20250414035048.629824.135523"><time><value>2025-04-14T03:50:41.888393Z</value></time><waveformID networkCode="CX" stationCode="PB02" channelCode="HHZ"/><filterID>ITAPER(4)&gt;&gt;BW(4,4,20)</filterID><methodID>AIC</methodID><horizontalSlowness><value>6.190768685945431</value></horizontalSlowness><backazimuth><value>60.93044214414118</value></backazimuth><phaseHint>P</phaseHint><evaluationMode>automatic</evaluationMode><comment><text>172.21279791049355</text><id>DFX:rectilinearity</id></comment><comment><text>35.232143649830483</text><id>SNR</id></comment></pick><pick publicID="de.gempa.tb1.Pick/20250414035050.64286.135525"><time><value>2025-04-14T03:50:45.27Z</value></time><waveformID networkCode="CX" stationCode="PSGCX" channelCode="HHZ"/><filterID>ITAPER(4)&gt;&gt;BW(4,4,20)</filterID><methodID>AIC</methodID><horizontalSlowness><value>9.752003287170769</value></horizontalSlowness><backazimuth><value>120.77722809521435</value></backazimuth><phaseHint>P</phaseHint><evaluationMode>automatic</evaluationMode><comment><text>204.45818946625909</text><id>DFX:rectilinearity</id></comment><comment><text>133.86211326029806</text><id>SNR</id></comment></pick><pick publicID="de.gempa.tb1.Pick/20250414035050.711409.135527"><time><value>2025-04-14T03:50:44.878393Z</value></time><waveformID networkCode="CX" stationCode="PB07" channelCode="HHZ"/><filterID>ITAPER(4)&gt;&gt;BW(4,4,20)</filterID><methodID>AIC</methodID><horizontalSlowness><value>20.83556928528424</value></horizontalSlowness><backazimuth><value>48.25191407410711</value></backazimuth><phaseHint>P</phaseHint><evaluationMode>automatic</evaluationMode><comment><text>168.0001252031934</text><id>DFX:rectilinearity</id></comment><comment><text>33.01978814005316</text><id>SNR</id></comment></pick><pick publicID="de.gempa.tb1.Pick/20250414035051.700826.135530"><time><value>2025-04-14T03:50:47.508393Z</value></time><waveformID networkCode="CX" stationCode="PB03" channelCode="HHZ"/><filterID>ITAPER(4)&gt;&gt;BW(4,4,20)</filterID><methodID>AIC</methodID><horizontalSlowness><value>9.158176257557221</value></horizontalSlowness><backazimuth><value>34.13542940401649</value></backazimuth><phaseHint>P</phaseHint><evaluationMode>automatic</evaluationMode><comment><text>32.74551705948248</text><id>DFX:rectilinearity</id></comment><comment><text>25.415771820603005</text><id>SNR</id></comment></pick><pick publicID="de.gempa.tb1.Pick/20250414035055.181688.135532"><time><value>2025-04-14T03:50:43.71Z</value></time><waveformID networkCode="CX" stationCode="PB09" channelCode="HHZ"/><filterID>ITAPER(4)&gt;&gt;BW(4,4,20)</filterID><methodID>AIC</methodID><horizontalSlowness><value>15.75326400861943</value></horizontalSlowness><backazimuth><value>58.11142652119645</value></backazimuth><phaseHint>P</phaseHint><evaluationMode>automatic</evaluationMode><comment><text>636.2114903235064</text><id>DFX:rectilinearity</id></comment><comment><text>58.9875604578589</text><id>SNR</id></comment></pick><pick publicID="de.gempa.tb1.Pick/20250414035056.654233.135534"><time><value>2025-04-14T03:50:49.818393Z</value></time><waveformID networkCode="CX" stationCode="PB01" channelCode="HHN"/><filterID>ITAPER(2)&gt;&gt;BW(3,3,20)</filterID><methodID>L2-AIC-GRID</methodID><horizontalSlowness><value>23.478414149496185</value></horizontalSlowness><backazimuth><value>10.128821605476332</value></backazimuth><phaseHint>S</phaseHint><evaluationMode>automatic</evaluationMode><comment><text>41702.29693491927</text><id>DFX:rectilinearity</id></comment><comment><text>de.gempa.tb1.Pick/20250414035043.746312.135519</text><id>RefPickID</id></comment><comment><text>18.187236496917286</text><id>SNR</id></comment></pick><pick publicID="de.gempa.tb1.Pick/20250414035058.544378.135535"><time><value>2025-04-14T03:50:49.918393Z</value></time><waveformID networkCode="CX" stationCode="PB08" channelCode="HHN"/><filterID>ITAPER(2)&gt;&gt;BW(3,3,20)</filterID><methodID>L2-AIC-GRID</methodID><horizontalSlowness><value>15.01648203052263</value></horizontalSlowness><backazimuth><value>208.76423734216388</value></backazimuth><phaseHint>S</phaseHint><evaluationMode>automatic</evaluationMode><comment><text>5147.926066093924</text><id>DFX:rectilinearity</id></comment><comment><text>de.gempa.tb1.Pick/20250414035043.550428.135517</text><id>RefPickID</id></comment><comment><text>9.891965196614073</text><id>SNR</id></comment></pick><pick publicID="de.gempa.tb1.Pick/20250414035104.550064.135536"><time><value>2025-04-14T03:50:55.638393Z</value></time><waveformID networkCode="CX" stationCode="PB06" channelCode="HHZ"/><filterID>ITAPER(4)&gt;&gt;BW(4,4,20)</filterID><methodID>AIC</methodID><horizontalSlowness><value>12.612785592753195</value></horizontalSlowness><backazimuth><value>313.4136830768457</value></backazimuth><phaseHint>P</phaseHint><evaluationMode>automatic</evaluationMode><comment><text>149.65484520863455</text><id>DFX:rectilinearity</id></comment><comment><text>10.645391452576925</text><id>SNR</id></comment></pick><pick publicID="de.gempa.tb1.Pick/20250414035104.615787.135538"><time><value>2025-04-14T03:50:57.908393Z</value></time><waveformID networkCode="CX" stationCode="PB02" channelCode="HHN"/><filterID>ITAPER(2)&gt;&gt;BW(3,3,20)</filterID><methodID>L2-AIC-GRID</methodID><horizontalSlowness><value>14.261247091190505</value></horizontalSlowness><backazimuth><value>213.70592824181841</value></backazimuth><phaseHint>S</phaseHint><evaluationMode>automatic</evaluationMode><comment><text>50608.14377238124</text><id>DFX:rectilinearity</id></comment><comment><text>de.gempa.tb1.Pick/20250414035048.629824.135523</text><id>RefPickID</id></comment><comment><text>9.171489308539172</text><id>SNR</id></comment></pick><pick publicID="de.gempa.tb1.Pick/20250414035105.268533.135539"><time><value>2025-04-14T03:50:57.599999Z</value></time><waveformID networkCode="CX" stationCode="PATCX" channelCode="HHN"/><filterID>ITAPER(2)&gt;&gt;BW(3,3,20)</filterID><methodID>L2-AIC-GRID</methodID><horizontalSlowness><value>20.2482581587515</value></horizontalSlowness><backazimuth><value>286.26410375176573</value></backazimuth><phaseHint>S</phaseHint><evaluationMode>automatic</evaluationMode><comment><text>2986.255348189086</text><id>DFX:rectilinearity</id></comment><comment><text>de.gempa.tb1.Pick/20250414035047.34755.135521</text><id>RefPickID</id></comment><comment><text>10.203252188484912</text><id>SNR</id></comment></pick><pick publicID="de.gempa.tb1.Pick/20250414035109.838741.135540"><time><value>2025-04-14T03:51:03.258393Z</value></time><waveformID networkCode="CX" stationCode="PB07" channelCode="HHN"/><filterID>ITAPER(2)&gt;&gt;BW(3,3,20)</filterID><methodID>L2-AIC-GRID</methodID><horizontalSlowness><value>21.959274534818277</value></horizontalSlowness><backazimuth><value>257.63033364405396</value></backazimuth><phaseHint>S</phaseHint><evaluationMode>automatic</evaluationMode><comment><text>19044.127188403309</text><id>DFX:rectilinearity</id></comment><comment><text>de.gempa.tb1.Pick/20250414035050.711409.135527</text><id>RefPickID</id></comment><comment><text>5.760966065814684</text><id>SNR</id></comment></pick><pick publicID="de.gempa.tb1.Pick/20250414035113.60204.135543"><time><value>2025-04-14T03:51:04.36Z</value></time><waveformID networkCode="CX" stationCode="PSGCX" channelCode="HHN"/><filterID>ITAPER(2)&gt;&gt;BW(3,3,20)</filterID><methodID>L2-AIC-GRID</methodID><horizontalSlowness><value>21.11302147400977</value></horizontalSlowness><backazimuth><value>20.518255186091807</value></backazimuth><phaseHint>S</phaseHint><evaluationMode>automatic</evaluationMode><comment><text>1523.1770274505468</text><id>DFX:rectilinearity</id></comment><comment><text>de.gempa.tb1.Pick/20250414035050.64286.135525</text><id>RefPickID</id></comment><comment><text>6.178607555283661</text><id>SNR</id></comment></pick><pick publicID="de.gempa.tb1.Pick/20250414035115.682992.135546"><time><value>2025-04-14T03:51:08.168393Z</value></time><waveformID networkCode="CX" stationCode="PB03" channelCode="HHN"/><filterID>ITAPER(2)&gt;&gt;BW(3,3,20)</filterID><methodID>L2-AIC-GRID</methodID><horizontalSlowness><value>9.672410185201917</value></horizontalSlowness><backazimuth><value>209.99914665330684</value></backazimuth><phaseHint>S</phaseHint><evaluationMode>automatic</evaluationMode><comment><text>280.9321953589698</text><id>DFX:rectilinearity</id></comment><comment><text>de.gempa.tb1.Pick/20250414035051.700826.135530</text><id>RefPickID</id></comment><comment><text>6.243034504938556</text><id>SNR</id></comment></pick><pick publicID="de.gempa.tb1.Pick/20250414035128.64348.135550"><time><value>2025-04-14T03:51:21.268393Z</value></time><waveformID networkCode="CX" stationCode="PB06" channelCode="HHN"/><filterID>ITAPER(2)&gt;&gt;BW(3,3,20)</filterID><methodID>L2-AIC-GRID</methodID><horizontalSlowness><value>21.696688125221264</value></horizontalSlowness><backazimuth><value>309.68087633904486</value></backazimuth><phaseHint>S</phaseHint><evaluationMode>automatic</evaluationMode><comment><text>251.04832208706907</text><id>DFX:rectilinearity</id></comment><comment><text>de.gempa.tb1.Pick/20250414035104.550064.135536</text><id>RefPickID</id></comment><comment><text>7.917333759073408</text><id>SNR</id></comment></pick><origin publicID="de.gempa.tb1.Origin/20250414035128.648188.126502"><time><value>2025-04-14T03:50:20.654612Z</value><uncertainty>0.7260373830795288</uncertainty></time><latitude><value>-20.617267608642578</value><uncertainty>2.549940586090088</uncertainty></latitude><longitude><value>-69.16546630859375</value><uncertainty>5.550048351287842</uncertainty></longitude><depth><value>107.29188537597656</value><uncertainty>5.856717109680176</uncertainty></depth><depthType>from location</depthType><methodID>LOCSAT</methodID><earthModelID>iasp91_scanloc</earthModelID><quality><associatedPhaseCount>17</associatedPhaseCount><usedPhaseCount>17</usedPhaseCount><associatedStationCount>9</associatedStationCount><usedStationCount>9</usedStationCount><depthPhaseCount>0</depthPhaseCount><standardError>0.40480439398628726</standardError><azimuthalGap>182.09445416927338</azimuthalGap><maximumDistance>2.1124298572540283</maximumDistance><minimumDistance>0.473861038684845</minimumDistance><medianDistance>1.17543363571167</medianDistance></quality><uncertainty><minHorizontalUncertainty>5.457472324371338</minHorizontalUncertainty><maxHorizontalUncertainty>11.901643753051758</maxHorizontalUncertainty><azimuthMaxHorizontalUncertainty>91.681396484375</azimuthMaxHorizontalUncertainty><preferredDescription>horizontal uncertainty</preferredDescription></uncertainty><evaluationMode>automatic</evaluationMode><evaluationStatus>confirmed</evaluationStatus><comment><text>0.00</text><id>mismatchScore</id></comment><comment><text>mismatchScore</text><id>scevalMethod</id></comment><arrival><pickID>de.gempa.tb1.Pick/20250414035043.550428.135517</pickID><phase>P</phase><azimuth>1.3713661432266235</azimuth><distance>0.473861038684845</distance><timeResidual>0.1717529296875</timeResidual><timeUsed>true</timeUsed><horizontalSlownessUsed>false</horizontalSlownessUsed><backazimuthUsed>false</backazimuthUsed><weight>1</weight></arrival><arrival><pickID>de.gempa.tb1.Pick/20250414035043.746312.135519</pickID><phase>P</phase><azimuth>215.3382568359375</azimuth><distance>0.5199177265167236</distance><timeResidual>-0.3258819580078125</timeResidual><timeUsed>true</timeUsed><horizontalSlownessUsed>false</horizontalSlownessUsed><backazimuthUsed>false</backazimuthUsed><weight>1</weight></arrival><arrival><pickID>de.gempa.tb1.Pick/20250414035047.34755.135521</pickID><phase>P</phase><azimuth>257.4744567871094</azimuth><distance>0.9462268352508545</distance><timeResidual>0.154296875</timeResidual><timeUsed>true</timeUsed><horizontalSlownessUsed>false</horizontalSlownessUsed><backazimuthUsed>false</backazimuthUsed><weight>1</weight></arrival><arrival><pickID>de.gempa.tb1.Pick/20250414035048.629824.135523</pickID><phase>P</phase><azimuth>224.19924926757812</azimuth><distance>0.9770854711532593</distance><timeResidual>0.4687690734863281</timeResidual><timeUsed>true</timeUsed><horizontalSlownessUsed>false</horizontalSlownessUsed><backazimuthUsed>false</backazimuthUsed><weight>1</weight></arrival><arrival><pickID>de.gempa.tb1.Pick/20250414035050.64286.135525</pickID><phase>P</phase><azimuth>318.2705993652344</azimuth><distance>1.3563909530639648</distance><timeResidual>-0.36428260803222656</timeResidual><timeUsed>true</timeUsed><horizontalSlownessUsed>false</horizontalSlownessUsed><backazimuthUsed>false</backazimuthUsed><weight>1</weight></arrival><arrival><pickID>de.gempa.tb1.Pick/20250414035050.711409.135527</pickID><phase>P</phase><azimuth>211.2269744873047</azimuth><distance>1.2926806211471558</distance><timeResidual>-0.005514144897460938</timeResidual><timeUsed>true</timeUsed><horizontalSlownessUsed>false</horizontalSlownessUsed><backazimuthUsed>false</backazimuthUsed><weight>1</weight></arrival><arrival><pickID>de.gempa.tb1.Pick/20250414035051.700826.135530</pickID><phase>P</phase><azimuth>200.9356689453125</azimuth><distance>1.5258715152740479</distance><timeResidual>-0.12961196899414062</timeResidual><timeUsed>true</timeUsed><horizontalSlownessUsed>false</horizontalSlownessUsed><backazimuthUsed>false</backazimuthUsed><weight>1</weight></arrival><arrival><pickID>de.gempa.tb1.Pick/20250414035055.181688.135532</pickID><phase>P</phase><azimuth>183.4658203125</azimuth><distance>1.17543363571167</distance><timeResidual>0.15644073486328125</timeResidual><timeUsed>true</timeUsed><horizontalSlownessUsed>false</horizontalSlownessUsed><backazimuthUsed>false</backazimuthUsed><weight>1</weight></arrival><arrival><pickID>de.gempa.tb1.Pick/20250414035056.654233.135534</pickID><phase>S</phase><azimuth>215.3382568359375</azimuth><distance>0.5199177265167236</distance><timeResidual>-0.4039268493652344</timeResidual><timeUsed>true</timeUsed><horizontalSlownessUsed>false</horizontalSlownessUsed><backazimuthUsed>false</backazimuthUsed><weight>1</weight></arrival><arrival><pickID>de.gempa.tb1.Pick/20250414035058.544378.135535</pickID><phase>S</phase><azimuth>1.3713661432266235</azimuth><distance>0.473861038684845</distance><timeResidual>0.2444725036621094</timeResidual><timeUsed>true</timeUsed><horizontalSlownessUsed>false</horizontalSlownessUsed><backazimuthUsed>false</backazimuthUsed><weight>1</weight></arrival><arrival><pickID>de.gempa.tb1.Pick/20250414035104.550064.135536</pickID><phase>P</phase><azimuth>190.23553466796875</azimuth><distance>2.1124298572540283</distance><timeResidual>0.663858413696289</timeResidual><timeUsed>true</timeUsed><horizontalSlownessUsed>false</horizontalSlownessUsed><backazimuthUsed>false</backazimuthUsed><weight>1</weight></arrival><arrival><pickID>de.gempa.tb1.Pick/20250414035104.615787.135538</pickID><phase>S</phase><azimuth>224.19924926757812</azimuth><distance>0.9770854711532593</distance><timeResidual>0.4604415893554688</timeResidual><timeUsed>true</timeUsed><horizontalSlownessUsed>false</horizontalSlownessUsed><backazimuthUsed>false</backazimuthUsed><weight>1</weight></arrival><arrival><pickID>de.gempa.tb1.Pick/20250414035105.268533.135539</pickID><phase>S</phase><azimuth>257.4744567871094</azimuth><distance>0.9462268352508545</distance><timeResidual>0.712594985961914</timeResidual><timeUsed>true</timeUsed><horizontalSlownessUsed>false</horizontalSlownessUsed><backazimuthUsed>false</backazimuthUsed><weight>1</weight></arrival><arrival><pickID>de.gempa.tb1.Pick/20250414035109.838741.135540</pickID><phase>S</phase><azimuth>211.2269744873047</azimuth><distance>1.2926806211471558</distance><timeResidual>-0.3750629425048828</timeResidual><timeUsed>true</timeUsed><horizontalSlownessUsed>false</horizontalSlownessUsed><backazimuthUsed>false</backazimuthUsed><weight>1</weight></arrival><arrival><pickID>de.gempa.tb1.Pick/20250414035113.60204.135543</pickID><phase>S</phase><azimuth>318.2705993652344</azimuth><distance>1.3563909530639648</distance><timeResidual>-0.6123981475830078</timeResidual><timeUsed>true</timeUsed><horizontalSlownessUsed>false</horizontalSlownessUsed><backazimuthUsed>false</backazimuthUsed><weight>1</weight></arrival><arrival><pickID>de.gempa.tb1.Pick/20250414035115.682992.135546</pickID><phase>S</phase><azimuth>200.9356689453125</azimuth><distance>1.5258715152740479</distance><timeResidual>-0.3898906707763672</timeResidual><timeUsed>true</timeUsed><horizontalSlownessUsed>false</horizontalSlownessUsed><backazimuthUsed>false</backazimuthUsed><weight>1</weight></arrival><arrival><pickID>de.gempa.tb1.Pick/20250414035128.64348.135550</pickID><phase>S</phase><azimuth>190.23553466796875</azimuth><distance>2.1124298572540283</distance><timeResidual>-0.4258270263671875</timeResidual><timeUsed>true</timeUsed><horizontalSlownessUsed>false</horizontalSlownessUsed><backazimuthUsed>false</backazimuthUsed><weight>1</weight></arrival><magnitude publicID="de.gempa.tb1.Magnitude/20250414035130.941556.426017"><magnitude><value>2.7823343000109513</value></magnitude><type>M</type><methodID>weighted average</methodID><stationCount>6</stationCount></magnitude></origin><event publicID="gempa2025hinz"><preferredOriginID>de.gempa.tb1.Origin/20250414035128.648188.126502</preferredOriginID><preferredMagnitudeID>de.gempa.tb1.Magnitude/20250414035130.941556.426017</preferredMagnitudeID><description><text>Northern Chile</text><type>region name</type></description><originReference>de.gempa.tb1.Origin/20250414035128.648188.126502</originReference></event></EventParameters></seiscomp>