<?xml version="1.0" encoding="UTF-8"?>
<seiscomp xmlns="http://geofon.gfz-potsdam.de/ns/seiscomp3-schema/0.13" version="0.13"><EventParameters><pick publicID="de.gempa.tb1.Pick/20250414220508.533896.141545"><time><value>2025-04-14T22:05:04.428393Z</value></time><waveformID networkCode="CX" stationCode="PB08" channelCode="HHZ"/><filterID>ITAPER(4)&gt;&gt;BW(4,4,20)</filterID><methodID>AIC</methodID><horizontalSlowness><value>14.185732737376817</value></horizontalSlowness><backazimuth><value>213.58054269942983</value></backazimuth><phaseHint>P</phaseHint><evaluationMode>automatic</evaluationMode><comment><text>2065956.0865340142</text><id>DFX:rectilinearity</id></comment><comment><text>9083.866533511609</text><id>SNR</id></comment></pick><pick publicID="de.gempa.tb1.Pick/20250414220514.685079.141547"><time><value>2025-04-14T22:05:09.158393Z</value></time><waveformID networkCode="CX" stationCode="PB01" channelCode="HHZ"/><filterID>ITAPER(4)&gt;&gt;BW(4,4,20)</filterID><methodID>AIC</methodID><horizontalSlowness><value>10.221785114675825</value></horizontalSlowness><backazimuth><value>16.62138136993022</value></backazimuth><phaseHint>P</phaseHint><evaluationMode>automatic</evaluationMode><comment><text>202974.43422063196</text><id>DFX:rectilinearity</id></comment><comment><text>5312.102499098232</text><id>SNR</id></comment></pick><pick publicID="de.gempa.tb1.Pick/20250414220516.24379.141549"><time><value>2025-04-14T22:05:11.579999Z</value></time><waveformID networkCode="CX" stationCode="PATCX" channelCode="HHZ"/><filterID>ITAPER(4)&gt;&gt;BW(4,4,20)</filterID><methodID>AIC</methodID><horizontalSlowness><value>12.020530413526146</value></horizontalSlowness><backazimuth><value>43.395196394819237</value></backazimuth><phaseHint>P</phaseHint><evaluationMode>automatic</evaluationMode><comment><text>705742.2372734266</text><id>DFX:rectilinearity</id></comment><comment><text>1339.3025007164433</text><id>SNR</id></comment></pick><pick publicID="de.gempa.tb1.Pick/20250414220516.65501.141551"><time><value>2025-04-14T22:05:11.57Z</value></time><waveformID networkCode="CX" stationCode="PSGCX" channelCode="HHZ"/><filterID>ITAPER(4)&gt;&gt;BW(4,4,20)</filterID><methodID>AIC</methodID><horizontalSlowness><value>12.598628139409378</value></horizontalSlowness><backazimuth><value>104.50295685002234</value></backazimuth><phaseHint>P</phaseHint><evaluationMode>automatic</evaluationMode><comment><text>1880539.2040345715</text><id>DFX:rectilinearity</id></comment><comment><text>9149.152467631127</text><id>SNR</id></comment></pick><pick publicID="de.gempa.tb1.Pick/20250414220520.492984.141553"><time><value>2025-04-14T22:05:14.098393Z</value></time><waveformID networkCode="CX" stationCode="PB02" channelCode="HHZ"/><filterID>ITAPER(4)&gt;&gt;BW(4,4,20)</filterID><methodID>AIC</methodID><horizontalSlowness><value>7.27133938108743</value></horizontalSlowness><backazimuth><value>43.059244553054015</value></backazimuth><phaseHint>P</phaseHint><evaluationMode>automatic</evaluationMode><comment><text>273137.24056523555</text><id>DFX:rectilinearity</id></comment><comment><text>2107.900903720511</text><id>SNR</id></comment></pick><pick publicID="de.gempa.tb1.Pick/20250414220521.660954.141555"><time><value>2025-04-14T22:05:15.118393Z</value></time><waveformID networkCode="CX" stationCode="PB08" channelCode="HHN"/><filterID>ITAPER(2)&gt;&gt;BW(3,3,20)</filterID><methodID>L2-AIC-GRID</methodID><horizontalSlowness><value>16.210026369079927</value></horizontalSlowness><backazimuth><value>204.56751104842283</value></backazimuth><phaseHint>S</phaseHint><evaluationMode>automatic</evaluationMode><comment><text>97096663.5343285</text><id>DFX:rectilinearity</id></comment><comment><text>de.gempa.tb1.Pick/20250414220508.533896.141545</text><id>RefPickID</id></comment><comment><text>26.9263707722257</text><id>SNR</id></comment></pick><pick publicID="de.gempa.tb1.Pick/20250414220526.613571.141557"><time><value>2025-04-14T22:05:21.758393Z</value></time><waveformID networkCode="CX" stationCode="PB03" channelCode="HHZ"/><filterID>ITAPER(4)&gt;&gt;BW(4,4,20)</filterID><methodID>AIC</methodID><horizontalSlowness><value>9.51657806049562</value></horizontalSlowness><backazimuth><value>346.1844385222386</value></backazimuth><phaseHint>P</phaseHint><evaluationMode>automatic</evaluationMode><comment><text>151647.92304847782</text><id>DFX:rectilinearity</id></comment><comment><text>804.2462417056596</text><id>SNR</id></comment></pick><pick publicID="de.gempa.tb1.Pick/20250414220527.159427.141559"><time><value>2025-04-14T22:05:17.98Z</value></time><waveformID networkCode="CX" stationCode="PB09" channelCode="HHZ"/><filterID>ITAPER(4)&gt;&gt;BW(4,4,20)</filterID><methodID>AIC</methodID><horizontalSlowness><value>15.587220882362196</value></horizontalSlowness><backazimuth><value>64.07682149145583</value></backazimuth><phaseHint>P</phaseHint><evaluationMode>automatic</evaluationMode><comment><text>77806.08331235113</text><id>DFX:rectilinearity</id></comment><comment><text>1518.172191131987</text><id>SNR</id></comment></pick><pick publicID="de.gempa.tb1.Pick/20250414220529.174829.141561"><time><value>2025-04-14T22:05:23.678393Z</value></time><waveformID networkCode="CX" stationCode="PB01" channelCode="HHN"/><filterID>ITAPER(2)&gt;&gt;BW(3,3,20)</filterID><methodID>L2-AIC-GRID</methodID><horizontalSlowness><value>22.50759350747495</value></horizontalSlowness><backazimuth><value>190.4956733024167</value></backazimuth><phaseHint>S</phaseHint><evaluationMode>automatic</evaluationMode><comment><text>83064163.34991321</text><id>DFX:rectilinearity</id></comment><comment><text>de.gempa.tb1.Pick/20250414220514.685079.141547</text><id>RefPickID</id></comment><comment><text>21.061368422896237</text><id>SNR</id></comment></pick><pick publicID="de.gempa.tb1.Pick/20250414220533.422062.141562"><time><value>2025-04-14T22:05:27.989999Z</value></time><waveformID networkCode="CX" stationCode="PATCX" channelCode="HHN"/><filterID>ITAPER(2)&gt;&gt;BW(3,3,20)</filterID><methodID>L2-AIC-GRID</methodID><horizontalSlowness><value>20.533237749423026</value></horizontalSlowness><backazimuth><value>272.40845515931937</value></backazimuth><phaseHint>S</phaseHint><evaluationMode>automatic</evaluationMode><comment><text>24224442.595761087</text><id>DFX:rectilinearity</id></comment><comment><text>de.gempa.tb1.Pick/20250414220516.24379.141549</text><id>RefPickID</id></comment><comment><text>12.08329822397789</text><id>SNR</id></comment></pick><pick publicID="de.gempa.tb1.Pick/20250414220535.740524.141563"><time><value>2025-04-14T22:05:28.48Z</value></time><waveformID networkCode="CX" stationCode="PSGCX" channelCode="HHN"/><filterID>ITAPER(2)&gt;&gt;BW(3,3,20)</filterID><methodID>L2-AIC-GRID</methodID><horizontalSlowness><value>16.098582209017469</value></horizontalSlowness><backazimuth><value>147.0224235099565</value></backazimuth><phaseHint>S</phaseHint><evaluationMode>automatic</evaluationMode><comment><text>107633255.75765449</text><id>DFX:rectilinearity</id></comment><comment><text>de.gempa.tb1.Pick/20250414220516.65501.141551</text><id>RefPickID</id></comment><comment><text>8.563577866890309</text><id>SNR</id></comment></pick><pick publicID="de.gempa.tb1.Pick/20250414220536.517463.141564"><time><value>2025-04-14T22:05:29.988393Z</value></time><waveformID networkCode="CX" stationCode="PB06" channelCode="HHZ"/><filterID>ITAPER(4)&gt;&gt;BW(4,4,20)</filterID><methodID>AIC</methodID><horizontalSlowness><value>5.075169722788673</value></horizontalSlowness><backazimuth><value>350.42744668506714</value></backazimuth><phaseHint>P</phaseHint><evaluationMode>automatic</evaluationMode><comment><text>24477.64189182317</text><id>DFX:rectilinearity</id></comment><comment><text>179.10454985436144</text><id>SNR</id></comment></pick><pick publicID="de.gempa.tb1.Pick/20250414220540.127401.141567"><time><value>2025-04-14T22:05:18.528393Z</value></time><waveformID networkCode="CX" stationCode="PB07" channelCode="HHZ"/><filterID>ITAPER(4)&gt;&gt;BW(4,4,20)</filterID><methodID>AIC</methodID><horizontalSlowness><value>14.624518991519475</value></horizontalSlowness><backazimuth><value>48.56388302965121</value></backazimuth><phaseHint>P</phaseHint><evaluationMode>automatic</evaluationMode><comment><text>1333268.0765011874</text><id>DFX:rectilinearity</id></comment><comment><text>2247.3371250432656</text><id>SNR</id></comment></pick><pick publicID="de.gempa.tb1.Pick/20250414220543.868763.141570"><time><value>2025-04-14T22:05:37.378393Z</value></time><waveformID networkCode="CX" stationCode="PB15" channelCode="HHZ"/><filterID>ITAPER(4)&gt;&gt;BW(4,4,20)</filterID><methodID>AIC</methodID><horizontalSlowness><value>21.580435063705323</value></horizontalSlowness><backazimuth><value>303.1308767471462</value></backazimuth><phaseHint>P</phaseHint><evaluationMode>automatic</evaluationMode><comment><text>35509.27314379631</text><id>DFX:rectilinearity</id></comment><comment><text>38.687759393738894</text><id>SNR</id></comment></pick><pick publicID="de.gempa.tb1.Pick/20250414220549.215859.141576"><time><value>2025-04-14T22:05:42.04Z</value></time><waveformID networkCode="CX" stationCode="PB10" channelCode="HHZ"/><filterID>ITAPER(4)&gt;&gt;BW(4,4,20)</filterID><methodID>AIC</methodID><horizontalSlowness><value>13.41782102460562</value></horizontalSlowness><backazimuth><value>43.63138413777389</value></backazimuth><phaseHint>P</phaseHint><evaluationMode>automatic</evaluationMode><comment><text>60.68462613882469</text><id>DFX:rectilinearity</id></comment><comment><text>34.831876537190787</text><id>SNR</id></comment></pick><pick publicID="de.gempa.tb1.Pick/20250414220551.556991.141578"><time><value>2025-04-14T22:05:45.02Z</value></time><waveformID networkCode="CX" stationCode="PB19" channelCode="HHZ"/><filterID>ITAPER(4)&gt;&gt;BW(4,4,20)</filterID><methodID>AIC</methodID><horizontalSlowness><value>7.582257383018778</value></horizontalSlowness><backazimuth><value>13.45025299013085</value></backazimuth><phaseHint>P</phaseHint><evaluationMode>automatic</evaluationMode><comment><text>296.9637240824268</text><id>DFX:rectilinearity</id></comment><comment><text>29.155205407388863</text><id>SNR</id></comment></pick><pick publicID="de.gempa.tb1.Pick/20250414220557.69377.141584"><time><value>2025-04-14T22:05:40.69Z</value></time><waveformID networkCode="CX" stationCode="PB09" channelCode="HHN"/><filterID>ITAPER(2)&gt;&gt;BW(3,3,20)</filterID><methodID>L2-AIC-GRID</methodID><horizontalSlowness><value>13.541794094292</value></horizontalSlowness><backazimuth><value>338.7851633242609</value></backazimuth><phaseHint>S</phaseHint><evaluationMode>automatic</evaluationMode><comment><text>7136722.66470621</text><id>DFX:rectilinearity</id></comment><comment><text>de.gempa.tb1.Pick/20250414220527.159427.141559</text><id>RefPickID</id></comment><comment><text>5.028847132142786</text><id>SNR</id></comment></pick><pick publicID="de.gempa.tb1.Pick/20250414220558.591876.141585"><time><value>2025-04-14T22:05:46.458393Z</value></time><waveformID networkCode="CX" stationCode="PB03" channelCode="HHN"/><filterID>ITAPER(2)&gt;&gt;BW(3,3,20)</filterID><methodID>L2-AIC-GRID</methodID><horizontalSlowness><value>21.138153232691675</value></horizontalSlowness><backazimuth><value>94.86350498315311</value></backazimuth><phaseHint>S</phaseHint><evaluationMode>automatic</evaluationMode><comment><text>7246600.18695518</text><id>DFX:rectilinearity</id></comment><comment><text>de.gempa.tb1.Pick/20250414220526.613571.141557</text><id>RefPickID</id></comment><comment><text>8.416365772931416</text><id>SNR</id></comment></pick><pick publicID="de.gempa.tb1.Pick/20250414220631.177772.141591"><time><value>2025-04-14T22:05:41.158393Z</value></time><waveformID networkCode="CX" stationCode="PB07" channelCode="HHN"/><filterID>ITAPER(2)&gt;&gt;BW(3,3,20)</filterID><methodID>L2-AIC-GRID</methodID><horizontalSlowness><value>22.59473023970315</value></horizontalSlowness><backazimuth><value>39.545090776704853</value></backazimuth><phaseHint>S</phaseHint><evaluationMode>automatic</evaluationMode><comment><text>240066146.54428494</text><id>DFX:rectilinearity</id></comment><comment><text>de.gempa.tb1.Pick/20250414220540.127401.141567</text><id>RefPickID</id></comment><comment><text>6.859201032903747</text><id>SNR</id></comment></pick><origin publicID="de.gempa.tb1.Origin/20250414220631.181887.152220"><time><value>2025-04-14T22:04:50.376047Z</value><uncertainty>0.6678102612495422</uncertainty></time><latitude><value>-20.192873001098633</value><uncertainty>3.132535219192505</uncertainty></latitude><longitude><value>-69.20893096923828</value><uncertainty>5.266776561737061</uncertainty></longitude><depth><value>101.65446472167969</value><uncertainty>4.859992980957031</uncertainty></depth><depthType>from location</depthType><methodID>LOCSAT</methodID><earthModelID>iasp91_scanloc</earthModelID><quality><associatedPhaseCount>19</associatedPhaseCount><usedPhaseCount>19</usedPhaseCount><associatedStationCount>12</associatedStationCount><usedStationCount>12</usedStationCount><depthPhaseCount>0</depthPhaseCount><standardError>0.6395862384275925</standardError><azimuthalGap>135.71355438232422</azimuthalGap><maximumDistance>3.694793462753296</maximumDistance><minimumDistance>0.0732991024851799</minimumDistance><medianDistance>1.595803141593933</medianDistance></quality><uncertainty><minHorizontalUncertainty>6.497452259063721</minHorizontalUncertainty><maxHorizontalUncertainty>11.419302940368652</maxHorizontalUncertainty><azimuthMaxHorizontalUncertainty>79.56941223144531</azimuthMaxHorizontalUncertainty><preferredDescription>horizontal uncertainty</preferredDescription></uncertainty><evaluationMode>automatic</evaluationMode><evaluationStatus>confirmed</evaluationStatus><comment><text>0.00</text><id>mismatchScore</id></comment><comment><text>mismatchScore</text><id>scevalMethod</id></comment><arrival><pickID>de.gempa.tb1.Pick/20250414220508.533896.141545</pickID><phase>P</phase><azimuth>45.38744354248047</azimuth><distance>0.0732991024851799</distance><timeResidual>-0.05023956298828125</timeResidual><timeUsed>true</timeUsed><horizontalSlownessUsed>false</horizontalSlownessUsed><backazimuthUsed>false</backazimuthUsed><weight>1</weight></arrival><arrival><pickID>de.gempa.tb1.Pick/20250414220514.685079.141547</pickID><phase>P</phase><azimuth>197.086181640625</azimuth><distance>0.885360598564148</distance><timeResidual>-0.5613527297973633</timeResidual><timeUsed>true</timeUsed><horizontalSlownessUsed>false</horizontalSlownessUsed><backazimuthUsed>false</backazimuthUsed><weight>1</weight></arrival><arrival><pickID>de.gempa.tb1.Pick/20250414220516.24379.141549</pickID><phase>P</phase><azimuth>234.6164855957031</azimuth><distance>1.0831202268600464</distance><timeResidual>-0.24814891815185547</timeResidual><timeUsed>true</timeUsed><horizontalSlownessUsed>false</horizontalSlownessUsed><backazimuthUsed>false</backazimuthUsed><weight>1</weight></arrival><arrival><pickID>de.gempa.tb1.Pick/20250414220516.65501.141551</pickID><phase>P</phase><azimuth>304.4086608886719</azimuth><distance>1.0445985794067383</distance><timeResidual>0.16044330596923828</timeResidual><timeUsed>true</timeUsed><horizontalSlownessUsed>false</horizontalSlownessUsed><backazimuthUsed>false</backazimuthUsed><weight>1</weight></arrival><arrival><pickID>de.gempa.tb1.Pick/20250414220520.492984.141553</pickID><phase>P</phase><azimuth>209.71527099609375</azimuth><distance>1.292499542236328</distance><timeResidual>-0.12502765655517578</timeResidual><timeUsed>true</timeUsed><horizontalSlownessUsed>false</horizontalSlownessUsed><backazimuthUsed>false</backazimuthUsed><weight>1</weight></arrival><arrival><pickID>de.gempa.tb1.Pick/20250414220521.660954.141555</pickID><phase>S</phase><azimuth>45.38744354248047</azimuth><distance>0.0732991024851799</distance><timeResidual>-0.18714427947998047</timeResidual><timeUsed>true</timeUsed><horizontalSlownessUsed>false</horizontalSlownessUsed><backazimuthUsed>false</backazimuthUsed><weight>1</weight></arrival><arrival><pickID>de.gempa.tb1.Pick/20250414220526.613571.141557</pickID><phase>P</phase><azimuth>195.28811645507812</azimuth><distance>1.9149892330169678</distance><timeResidual>-0.15957355499267578</timeResidual><timeUsed>true</timeUsed><horizontalSlownessUsed>false</horizontalSlownessUsed><backazimuthUsed>false</backazimuthUsed><weight>1</weight></arrival><arrival><pickID>de.gempa.tb1.Pick/20250414220527.159427.141559</pickID><phase>P</phase><azimuth>181.1009979248047</azimuth><distance>1.595803141593933</distance><timeResidual>0.08594989776611328</timeResidual><timeUsed>true</timeUsed><horizontalSlownessUsed>false</horizontalSlownessUsed><backazimuthUsed>false</backazimuthUsed><weight>1</weight></arrival><arrival><pickID>de.gempa.tb1.Pick/20250414220529.174829.141561</pickID><phase>S</phase><azimuth>197.086181640625</azimuth><distance>0.885360598564148</distance><timeResidual>-0.9527463912963867</timeResidual><timeUsed>true</timeUsed><horizontalSlownessUsed>false</horizontalSlownessUsed><backazimuthUsed>false</backazimuthUsed><weight>1</weight></arrival><arrival><pickID>de.gempa.tb1.Pick/20250414220533.422062.141562</pickID><phase>S</phase><azimuth>234.6164855957031</azimuth><distance>1.0831202268600464</distance><timeResidual>-0.4024629592895508</timeResidual><timeUsed>true</timeUsed><horizontalSlownessUsed>false</horizontalSlownessUsed><backazimuthUsed>false</backazimuthUsed><weight>1</weight></arrival><arrival><pickID>de.gempa.tb1.Pick/20250414220535.740524.141563</pickID><phase>S</phase><azimuth>304.4086608886719</azimuth><distance>1.0445985794067383</distance><timeResidual>0.836085319519043</timeResidual><timeUsed>true</timeUsed><horizontalSlownessUsed>false</horizontalSlownessUsed><backazimuthUsed>false</backazimuthUsed><weight>1</weight></arrival><arrival><pickID>de.gempa.tb1.Pick/20250414220536.517463.141564</pickID><phase>P</phase><azimuth>187.6350860595703</azimuth><distance>2.5233187675476074</distance><timeResidual>0.15523052215576172</timeResidual><timeUsed>true</timeUsed><horizontalSlownessUsed>false</horizontalSlownessUsed><backazimuthUsed>false</backazimuthUsed><weight>1</weight></arrival><arrival><pickID>de.gempa.tb1.Pick/20250414220540.127401.141567</pickID><phase>P</phase><azimuth>202.40695190429688</azimuth><distance>1.6521834135055542</distance><timeResidual>-0.06796741485595703</timeResidual><timeUsed>true</timeUsed><horizontalSlownessUsed>false</horizontalSlownessUsed><backazimuthUsed>false</backazimuthUsed><weight>1</weight></arrival><arrival><pickID>de.gempa.tb1.Pick/20250414220543.868763.141570</pickID><phase>P</phase><azimuth>184.5941925048828</azimuth><distance>3.0106284618377686</distance><timeResidual>1.0824098587036133</timeResidual><timeUsed>true</timeUsed><horizontalSlownessUsed>false</horizontalSlownessUsed><backazimuthUsed>false</backazimuthUsed><weight>1</weight></arrival><arrival><pickID>de.gempa.tb1.Pick/20250414220549.215859.141576</pickID><phase>P</phase><azimuth>200.46954345703125</azimuth><distance>3.532748222351074</distance><timeResidual>-1.2512083053588867</timeResidual><timeUsed>true</timeUsed><horizontalSlownessUsed>false</horizontalSlownessUsed><backazimuthUsed>false</backazimuthUsed><weight>1</weight></arrival><arrival><pickID>de.gempa.tb1.Pick/20250414220551.556991.141578</pickID><phase>P</phase><azimuth>181.16067504882812</azimuth><distance>3.694793462753296</distance><timeResidual>-0.4465169906616211</timeResidual><timeUsed>true</timeUsed><horizontalSlownessUsed>false</horizontalSlownessUsed><backazimuthUsed>false</backazimuthUsed><weight>1</weight></arrival><arrival><pickID>de.gempa.tb1.Pick/20250414220557.69377.141584</pickID><phase>S</phase><azimuth>181.1009979248047</azimuth><distance>1.595803141593933</distance><timeResidual>1.4518442153930664</timeResidual><timeUsed>true</timeUsed><horizontalSlownessUsed>false</horizontalSlownessUsed><backazimuthUsed>false</backazimuthUsed><weight>1</weight></arrival><arrival><pickID>de.gempa.tb1.Pick/20250414220558.591876.141585</pickID>