<?xml version="1.0" encoding="UTF-8"?>
<seiscomp xmlns="http://geofon.gfz-potsdam.de/ns/seiscomp3-schema/0.13" version="0.13"><EventParameters><pick publicID="de.gempa.tb1.Pick/20250413145636.654875.131958"><time><value>2025-04-13T14:56:32.718393Z</value></time><waveformID networkCode="CX" stationCode="PB06" channelCode="HHZ"/><filterID>ITAPER(4)&gt;&gt;BW(4,4,20)</filterID><methodID>AIC</methodID><horizontalSlowness><value>12.683480284441723</value></horizontalSlowness><backazimuth><value>125.39858989903655</value></backazimuth><phaseHint>P</phaseHint><evaluationMode>automatic</evaluationMode><comment><text>73.97097898393707</text><id>DFX:rectilinearity</id></comment><comment><text>27.35644264507849</text><id>SNR</id></comment></pick><pick publicID="de.gempa.tb1.Pick/20250413145638.180937.131960"><time><value>2025-04-13T14:56:32.49Z</value></time><waveformID networkCode="CX" stationCode="PB10" channelCode="HHZ"/><filterID>ITAPER(4)&gt;&gt;BW(4,4,20)</filterID><methodID>AIC</methodID><horizontalSlowness><value>11.84928390043265</value></horizontalSlowness><backazimuth><value>126.55067627681147</value></backazimuth><phaseHint>P</phaseHint><evaluationMode>automatic</evaluationMode><comment><text>122.01961259443378</text><id>DFX:rectilinearity</id></comment><comment><text>6.003364987527982</text><id>SNR</id></comment></pick><pick publicID="de.gempa.tb1.Pick/20250413145640.860978.131962"><time><value>2025-04-13T14:56:33.328393Z</value></time><waveformID networkCode="CX" stationCode="PB15" channelCode="HHZ"/><filterID>ITAPER(4)&gt;&gt;BW(4,4,20)</filterID><methodID>AIC</methodID><horizontalSlowness><value>20.34128799812144</value></horizontalSlowness><backazimuth><value>84.21878343535492</value></backazimuth><phaseHint>P</phaseHint><evaluationMode>automatic</evaluationMode><comment><text>908.7544892930273</text><id>DFX:rectilinearity</id></comment><comment><text>32.63254573978213</text><id>SNR</id></comment></pick><pick publicID="de.gempa.tb1.Pick/20250413145643.511337.131964"><time><value>2025-04-13T14:56:38.65Z</value></time><waveformID networkCode="CX" stationCode="PB19" channelCode="HHZ"/><filterID>ITAPER(4)&gt;&gt;BW(4,4,20)</filterID><methodID>AIC</methodID><horizontalSlowness><value>11.84278719160597</value></horizontalSlowness><backazimuth><value>359.25053210580575</value></backazimuth><phaseHint>P</phaseHint><evaluationMode>automatic</evaluationMode><comment><text>38.969468902433</text><id>DFX:rectilinearity</id></comment><comment><text>26.62560821812218</text><id>SNR</id></comment></pick><pick publicID="de.gempa.tb1.Pick/20250413145643.583496.131966"><time><value>2025-04-13T14:56:37.248393Z</value></time><waveformID networkCode="CX" stationCode="PB03" channelCode="HHZ"/><filterID>ITAPER(4)&gt;&gt;BW(4,4,20)</filterID><methodID>AIC</methodID><horizontalSlowness><value>7.251748463046655</value></horizontalSlowness><backazimuth><value>229.86133890083616</value></backazimuth><phaseHint>P</phaseHint><evaluationMode>automatic</evaluationMode><comment><text>10.950312222024174</text><id>DFX:rectilinearity</id></comment><comment><text>55.02778658811613</text><id>SNR</id></comment></pick><pick publicID="de.gempa.tb1.Pick/20250413145650.507568.131970"><time><value>2025-04-13T14:56:45.018393Z</value></time><waveformID networkCode="CX" stationCode="PB02" channelCode="HHZ"/><filterID>ITAPER(4)&gt;&gt;BW(4,4,20)</filterID><methodID>AIC</methodID><horizontalSlowness><value>18.059426126039089</value></horizontalSlowness><backazimuth><value>73.31078072724245</value></backazimuth><phaseHint>P</phaseHint><evaluationMode>automatic</evaluationMode><comment><text>35.739566092589975</text><id>DFX:rectilinearity</id></comment><comment><text>24.463886415643675</text><id>SNR</id></comment></pick><pick publicID="de.gempa.tb1.Pick/20250413145651.668264.131974"><time><value>2025-04-13T14:56:45.168393Z</value></time><waveformID networkCode="CX" stationCode="PB06" channelCode="HHN"/><filterID>ITAPER(2)&gt;&gt;BW(3,3,20)</filterID><methodID>L2-AIC-GRID</methodID><horizontalSlowness><value>22.98498755873262</value></horizontalSlowness><backazimuth><value>199.58457275880028</value></backazimuth><phaseHint>S</phaseHint><evaluationMode>automatic</evaluationMode><comment><text>486.8627041123931</text><id>DFX:rectilinearity</id></comment><comment><text>de.gempa.tb1.Pick/20250413145636.654875.131958</text><id>RefPickID</id></comment><comment><text>13.720282125589112</text><id>SNR</id></comment></pick><pick publicID="de.gempa.tb1.Pick/20250413145654.0182.131975"><time><value>2025-04-13T14:56:46.408393Z</value></time><waveformID networkCode="CX" stationCode="PB15" channelCode="HHN"/><filterID>ITAPER(2)&gt;&gt;BW(3,3,20)</filterID><methodID>L2-AIC-GRID</methodID><horizontalSlowness><value>19.681573193594794</value></horizontalSlowness><backazimuth><value>134.64965857503594</value></backazimuth><phaseHint>S</phaseHint><evaluationMode>automatic</evaluationMode><comment><text>28913.554757021906</text><id>DFX:rectilinearity</id></comment><comment><text>de.gempa.tb1.Pick/20250413145640.860978.131962</text><id>RefPickID</id></comment><comment><text>14.843558578227663</text><id>SNR</id></comment></pick><pick publicID="de.gempa.tb1.Pick/20250413145659.751454.131976"><time><value>2025-04-13T14:56:52.968393Z</value></time><waveformID networkCode="CX" stationCode="PB03" channelCode="HHN"/><filterID>ITAPER(2)&gt;&gt;BW(3,3,20)</filterID><methodID>L2-AIC-GRID</methodID><horizontalSlowness><value>20.050840812084136</value></horizontalSlowness><backazimuth><value>252.77278454166984</value></backazimuth><phaseHint>S</phaseHint><evaluationMode>automatic</evaluationMode><comment><text>216.35086367371426</text><id>DFX:rectilinearity</id></comment><comment><text>de.gempa.tb1.Pick/20250413145643.583496.131966</text><id>RefPickID</id></comment><comment><text>17.959123082845828</text><id>SNR</id></comment></pick><pick publicID="de.gempa.tb1.Pick/20250413145702.619497.131977"><time><value>2025-04-13T14:56:55.77Z</value></time><waveformID networkCode="CX" stationCode="PB19" channelCode="HHN"/><filterID>ITAPER(2)&gt;&gt;BW(3,3,20)</filterID><methodID>L2-AIC-GRID</methodID><horizontalSlowness><value>22.413589834271953</value></horizontalSlowness><backazimuth><value>172.03028227662708</value></backazimuth><phaseHint>S</phaseHint><evaluationMode>automatic</evaluationMode><comment><text>595.5279309722143</text><id>DFX:rectilinearity</id></comment><comment><text>de.gempa.tb1.Pick/20250413145643.511337.131964</text><id>RefPickID</id></comment><comment><text>11.833992225043248</text><id>SNR</id></comment></pick><pick publicID="de.gempa.tb1.Pick/20250413145713.482146.131983"><time><value>2025-04-13T14:57:07.068393Z</value></time><waveformID networkCode="CX" stationCode="PB02" channelCode="HHN"/><filterID>ITAPER(2)&gt;&gt;BW(3,3,20)</filterID><methodID>L2-AIC-GRID</methodID><horizontalSlowness><value>19.376203976137425</value></horizontalSlowness><backazimuth><value>60.57654631160418</value></backazimuth><phaseHint>S</phaseHint><evaluationMode>automatic</evaluationMode><comment><text>77.15936389188589</text><id>DFX:rectilinearity</id></comment><comment><text>de.gempa.tb1.Pick/20250413145650.507568.131970</text><id>RefPickID</id></comment><comment><text>5.723118091665246</text><id>SNR</id></comment></pick><pick publicID="de.gempa.tb1.Pick/20250413145715.052012.131984"><time><value>2025-04-13T14:56:40.928394Z</value></time><waveformID networkCode="CX" stationCode="PB07" channelCode="HHZ"/><filterID>ITAPER(4)&gt;&gt;BW(4,4,20)</filterID><methodID>AIC</methodID><horizontalSlowness><value>23.562852453399866</value></horizontalSlowness><backazimuth><value>241.59224263382436</value></backazimuth><phaseHint>P</phaseHint><evaluationMode>automatic</evaluationMode><comment><text>226.63427909139045</text><id>DFX:rectilinearity</id></comment><comment><text>115.96707262780713</text><id>SNR</id></comment></pick><pick publicID="de.gempa.tb1.Pick/20250413145735.539701.131992"><time><value>2025-04-13T14:56:59.618394Z</value></time><waveformID networkCode="CX" stationCode="PB07" channelCode="HHN"/><filterID>ITAPER(2)&gt;&gt;BW(3,3,20)</filterID><methodID>L2-AIC-GRID</methodID><horizontalSlowness><value>23.33504280157761</value></horizontalSlowness><backazimuth><value>85.45711991191118</value></backazimuth><phaseHint>S</phaseHint><evaluationMode>automatic</evaluationMode><comment><text>6305.964270794676</text><id>DFX:rectilinearity</id></comment><comment><text>de.gempa.tb1.Pick/20250413145715.052012.131984</text><id>RefPickID</id></comment><comment><text>5.143200615479286</text><id>SNR</id></comment></pick><origin publicID="de.gempa.tb1.Origin/20250413145735.544889.113230"><time><value>2025-04-13T14:56:16.497312Z</value><uncertainty>0.8270179629325867</uncertainty></time><latitude><value>-23.03110694885254</value><uncertainty>2.7594292163848877</uncertainty></latitude><longitude><value>-70.16776275634766</value><uncertainty>7.74113702774048</uncertainty></longitude><depth><value>95.63455963134766</value><uncertainty>10.033544540405273</uncertainty></depth><depthType>from location</depthType><methodID>LOCSAT</methodID><earthModelID>iasp91_scanloc</earthModelID><quality><associatedPhaseCount>13</associatedPhaseCount><usedPhaseCount>13</usedPhaseCount><associatedStationCount>7</associatedStationCount><usedStationCount>7</usedStationCount><depthPhaseCount>0</depthPhaseCount><standardError>0.3787162287598552</standardError><azimuthalGap>152.03918933868408</azimuthalGap><maximumDistance>1.7216802835464478</maximumDistance><minimumDistance>0.5972384214401245</minimumDistance><medianDistance>1.0504299402236938</medianDistance></quality><uncertainty><minHorizontalUncertainty>5.610735416412354</minHorizontalUncertainty><maxHorizontalUncertainty>16.702936172485352</maxHorizontalUncertainty><azimuthMaxHorizontalUncertainty>83.14894104003906</azimuthMaxHorizontalUncertainty><preferredDescription>horizontal uncertainty</preferredDescription></uncertainty><evaluationMode>automatic</evaluationMode><evaluationStatus>confirmed</evaluationStatus><comment><text>0.06</text><id>mismatchScore</id></comment><comment><text>mismatchScore</text><id>scevalMethod</id></comment><arrival><pickID>de.gempa.tb1.Pick/20250413145636.654875.131958</pickID><phase>P</phase><azimuth>59.61217880249023</azimuth><distance>0.6378850936889648</distance><timeResidual>-0.2310171127319336</timeResidual><timeUsed>true</timeUsed><horizontalSlownessUsed>false</horizontalSlownessUsed><backazimuthUsed>false</backazimuthUsed><weight>1</weight></arrival><arrival><pickID>de.gempa.tb1.Pick/20250413145638.180937.131960</pickID><phase>P</phase><azimuth>216.4244842529297</azimuth><distance>0.5972384214401245</distance><timeResidual>-0.10356616973876953</timeResidual><timeUsed>true</timeUsed><horizontalSlownessUsed>false</horizontalSlownessUsed><backazimuthUsed>false</backazimuthUsed><weight>1</weight></arrival><arrival><pickID>de.gempa.tb1.Pick/20250413145640.860978.131962</pickID><phase>P</phase><azimuth>105.5105972290039</azimuth><distance>0.6653504967689514</distance><timeResidual>0.13641357421875</timeResidual><timeUsed>true</timeUsed><horizontalSlownessUsed>false</horizontalSlownessUsed><backazimuthUsed>false</backazimuthUsed><weight>1</weight></arrival><arrival><pickID>de.gempa.tb1.Pick/20250413145643.511337.131964</pickID><phase>P</phase><azimuth>137.36944580078125</azimuth><distance>1.1853209733963013</distance><timeResidual>-0.05432605743408203</timeResidual><timeUsed>true</timeUsed><horizontalSlownessUsed>false</horizontalSlownessUsed><backazimuthUsed>false</backazimuthUsed><weight>1</weight></arrival><arrival><pickID>de.gempa.tb1.Pick/20250413145643.583496.131966</pickID><phase>P</phase><azimuth>21.4844970703125</azimuth><distance>1.0504299402236938</distance><timeResidual>0.08714008331298828</timeResidual><timeUsed>true</timeUsed><horizontalSlownessUsed>false</horizontalSlownessUsed><backazimuthUsed>false</backazimuthUsed><weight>1</weight></arrival><arrival><pickID>de.gempa.tb1.Pick/20250413145650.507568.131970</pickID><phase>P</phase><azimuth>8.46367359161377</azimuth><distance>1.7216802835464478</distance><timeResidual>-0.3051156997680664</timeResidual><timeUsed>true</timeUsed><horizontalSlownessUsed>false</horizontalSlownessUsed><backazimuthUsed>false</backazimuthUsed><weight>1</weight></arrival><arrival><pickID>de.gempa.tb1.Pick/20250413145651.668264.131974</pickID><phase>S</phase><azimuth>59.61217880249023</azimuth><distance>0.6378850936889648</distance><timeResidual>-0.4221982955932617</timeResidual><timeUsed>true</timeUsed><horizontalSlownessUsed>false</horizontalSlownessUsed><backazimuthUsed>false</backazimuthUsed><weight>1</weight></arrival><arrival><pickID>de.gempa.tb1.Pick/20250413145654.0182.131975</pickID><phase>S</phase><azimuth>105.5105972290039</azimuth><distance>0.6653504967689514</distance><timeResidual>0.38543128967285156</timeResidual><timeUsed>true</timeUsed><horizontalSlownessUsed>false</horizontalSlownessUsed><backazimuthUsed>false</backazimuthUsed><weight>1</weight></arrival><arrival><pickID>de.gempa.tb1.Pick/20250413145659.751454.131976</pickID><phase>S</phase><azimuth>21.4844970703125</azimuth><distance>1.0504299402236938</distance><timeResidual>-0.1293325424194336</timeResidual><timeUsed>true</timeUsed><horizontalSlownessUsed>false</horizontalSlownessUsed><backazimuthUsed>false</backazimuthUsed><weight>1</weight></arrival><arrival><pickID>de.gempa.tb1.Pick/20250413145702.619497.131977</pickID><phase>S</phase><azimuth>137.36944580078125</azimuth><distance>1.1853209733963013</distance><timeResidual>-0.08557605743408203</timeResidual><timeUsed>true</timeUsed><horizontalSlownessUsed>false</horizontalSlownessUsed><backazimuthUsed>false</backazimuthUsed><weight>1</weight></arrival><arrival><pickID>de.gempa.tb1.Pick/20250413145713.482146.131983</pickID><phase>S</phase><azimuth>8.46367359161377</azimuth><distance>1.7216802835464478</distance><timeResidual>-0.6261014938354492</timeResidual><timeUsed>true</timeUsed><horizontalSlownessUsed>false</horizontalSlownessUsed><backazimuthUsed>false</backazimuthUsed><weight>1</weight></arrival><arrival><pickID>de.gempa.tb1.Pick/20250413145715.052012.131984</pickID><phase>P</phase><azimuth>11.405380249023438</azimuth><distance>1.3241188526153564</distance><timeResidual>0.5592136383056641</timeResidual><timeUsed>true</timeUsed><horizontalSlownessUsed>false</horizontalSlownessUsed><backazimuthUsed>false</backazimuthUsed><weight>1</weight></arrival><arrival><pickID>de.gempa.tb1.Pick/20250413145735.539701.131992</pickID><phase>S</phase><azimuth>11.405380249023438</azimuth><distance>1.3241188526153564</distance><timeResidual>0.789057731628418</timeResidual><timeUsed>true</timeUsed><horizontalSlownessUsed>false</horizontalSlownessUsed><backazimuthUsed>false</backazimuthUsed><weight>1</weight></arrival><magnitude publicID="de.gempa.tb1.Magnitude/20250413145735.55351.370777"><magnitude><value>2.5381192055257946</value></magnitude><type>M</type><methodID>weighted average</methodID><stationCount>6</stationCount></magnitude></origin><event publicID="gempa2025hhoc"><preferredOriginID>de.gempa.tb1.Origin/20250413145735.544889.113230</preferredOriginID><preferredMagnitudeID>de.gempa.tb1.Magnitude/20250413145735.55351.370777</preferredMagnitudeID><description><text>Near Coast of Northern Chile</text><type>region name</type></description><originReference>de.gempa.tb1.Origin/20250413145735.544889.113230</originReference></event></EventParameters></seiscomp>