<?xml version="1.0" encoding="UTF-8"?>
<seiscomp xmlns="http://geofon.gfz-potsdam.de/ns/seiscomp3-schema/0.13" version="0.13"><EventParameters><pick publicID="de.gempa.tb1.Pick/20250411144633.597467.118207"><time><value>2025-04-11T14:46:27.208393Z</value></time><waveformID networkCode="CX" stationCode="PB03" channelCode="HHZ"/><filterID>ITAPER(4)&gt;&gt;BW(4,4,20)</filterID><methodID>AIC</methodID><horizontalSlowness><value>7.847017135354548</value></horizontalSlowness><backazimuth><value>219.36180770310307</value></backazimuth><phaseHint>P</phaseHint><evaluationMode>automatic</evaluationMode><comment><text>10.456442569615064</text><id>DFX:rectilinearity</id></comment><comment><text>9.408533161072993</text><id>SNR</id></comment></pick><pick publicID="de.gempa.tb1.Pick/20250411144634.763275.118209"><time><value>2025-04-11T14:46:28.898393Z</value></time><waveformID networkCode="CX" stationCode="PB07" channelCode="HHZ"/><filterID>ITAPER(4)&gt;&gt;BW(4,4,20)</filterID><methodID>AIC</methodID><horizontalSlowness><value>23.073957970451897</value></horizontalSlowness><backazimuth><value>106.17370863160716</value></backazimuth><phaseHint>P</phaseHint><evaluationMode>automatic</evaluationMode><comment><text>110.57440843749661</text><id>DFX:rectilinearity</id></comment><comment><text>23.442308064585685</text><id>SNR</id></comment></pick><pick publicID="de.gempa.tb1.Pick/20250411144634.773938.118211"><time><value>2025-04-11T14:46:27.378393Z</value></time><waveformID networkCode="CX" stationCode="PB06" channelCode="HHZ"/><filterID>ITAPER(4)&gt;&gt;BW(4,4,20)</filterID><methodID>AIC</methodID><horizontalSlowness><value>22.617076119904166</value></horizontalSlowness><backazimuth><value>127.8497799748512</value></backazimuth><phaseHint>P</phaseHint><evaluationMode>automatic</evaluationMode><comment><text>29.662412032294277</text><id>DFX:rectilinearity</id></comment><comment><text>9.65808730323827</text><id>SNR</id></comment></pick><pick publicID="de.gempa.tb1.Pick/20250411144641.053033.118213"><time><value>2025-04-11T14:46:23.45Z</value></time><waveformID networkCode="CX" stationCode="PB09" channelCode="HHZ"/><filterID>ITAPER(4)&gt;&gt;BW(4,4,20)</filterID><methodID>AIC</methodID><horizontalSlowness><value>15.715402619226094</value></horizontalSlowness><backazimuth><value>299.0595343818163</value></backazimuth><phaseHint>P</phaseHint><evaluationMode>automatic</evaluationMode><comment><text>14.982357614451757</text><id>DFX:rectilinearity</id></comment><comment><text>14.157559701712543</text><id>SNR</id></comment></pick><pick publicID="de.gempa.tb1.Pick/20250411144655.655894.118217"><time><value>2025-04-11T14:46:44.438393Z</value></time><waveformID networkCode="CX" stationCode="PB03" channelCode="HHN"/><filterID>ITAPER(2)&gt;&gt;BW(3,3,20)</filterID><methodID>L2-AIC-GRID</methodID><horizontalSlowness><value>9.219771600058868</value></horizontalSlowness><backazimuth><value>226.33158781451417</value></backazimuth><phaseHint>S</phaseHint><evaluationMode>automatic</evaluationMode><comment><text>15.268275843551868</text><id>DFX:rectilinearity</id></comment><comment><text>de.gempa.tb1.Pick/20250411144633.597467.118207</text><id>RefPickID</id></comment><comment><text>9.182297402047668</text><id>SNR</id></comment></pick><pick publicID="de.gempa.tb1.Pick/20250411144655.749372.118218"><time><value>2025-04-11T14:46:47.588393Z</value></time><waveformID networkCode="CX" stationCode="PB07" channelCode="HHN"/><filterID>ITAPER(2)&gt;&gt;BW(3,3,20)</filterID><methodID>L2-AIC-GRID</methodID><horizontalSlowness><value>22.947674779506993</value></horizontalSlowness><backazimuth><value>102.88480252975923</value></backazimuth><phaseHint>S</phaseHint><evaluationMode>automatic</evaluationMode><comment><text>988.5082386068373</text><id>DFX:rectilinearity</id></comment><comment><text>de.gempa.tb1.Pick/20250411144634.763275.118209</text><id>RefPickID</id></comment><comment><text>11.567353232109141</text><id>SNR</id></comment></pick><pick publicID="de.gempa.tb1.Pick/20250411144657.409036.118219"><time><value>2025-04-11T14:46:38.29Z</value></time><waveformID networkCode="CX" stationCode="PB09" channelCode="HHN"/><filterID>ITAPER(2)&gt;&gt;BW(3,3,20)</filterID><methodID>L2-AIC-GRID</methodID><horizontalSlowness><value>19.111930538928945</value></horizontalSlowness><backazimuth><value>174.37159213753503</value></backazimuth><phaseHint>S</phaseHint><evaluationMode>automatic</evaluationMode><comment><text>34.596035132684577</text><id>DFX:rectilinearity</id></comment><comment><text>de.gempa.tb1.Pick/20250411144641.053033.118213</text><id>RefPickID</id></comment><comment><text>5.798874317576721</text><id>SNR</id></comment></pick><origin publicID="de.gempa.tb1.Origin/20250411144657.413104.58061"><time><value>2025-04-11T14:46:04.600087Z</value><uncertainty>1.4141883850097656</uncertainty></time><latitude><value>-22.075908660888672</value><uncertainty>13.260613441467285</uncertainty></latitude><longitude><value>-68.65361022949219</value><uncertainty>11.786602020263672</uncertainty></longitude><depth><value>122.3125</value><uncertainty>12.931679725646973</uncertainty></depth><depthType>from location</depthType><methodID>LOCSAT</methodID><earthModelID>iasp91_scanloc</earthModelID><quality><associatedPhaseCount>7</associatedPhaseCount><usedPhaseCount>7</usedPhaseCount><associatedStationCount>4</associatedStationCount><usedStationCount>4</usedStationCount><depthPhaseCount>0</depthPhaseCount><standardError>0.08197145925958314</standardError><azimuthalGap>296.53407287597656</azimuthalGap><maximumDistance>1.1962658166885376</maximumDistance><minimumDistance>0.6129792332649231</minimumDistance><medianDistance>1.0203030109405518</medianDistance></quality><uncertainty><minHorizontalUncertainty>25.196712493896484</minHorizontalUncertainty><maxHorizontalUncertainty>28.50728416442871</maxHorizontalUncertainty><azimuthMaxHorizontalUncertainty>8.629565238952637</azimuthMaxHorizontalUncertainty><preferredDescription>horizontal uncertainty</preferredDescription></uncertainty><evaluationMode>automatic</evaluationMode><evaluationStatus>confirmed</evaluationStatus><comment><text>0.00</text><id>mismatchScore</id></comment><comment><text>mismatchScore</text><id>scevalMethod</id></comment><arrival><pickID>de.gempa.tb1.Pick/20250411144633.597467.118207</pickID><phase>P</phase><azimuth>271.3282470703125</azimuth><distance>1.0203030109405518</distance><timeResidual>0.13965606689453125</timeResidual><timeUsed>true</timeUsed><horizontalSlownessUsed>false</horizontalSlownessUsed><backazimuthUsed>false</backazimuthUsed><weight>1</weight></arrival><arrival><pickID>de.gempa.tb1.Pick/20250411144634.763275.118209</pickID><phase>P</phase><azimuth>286.6601867675781</azimuth><distance>1.1962658166885376</distance><timeResidual>0.03483390808105469</timeResidual><timeUsed>true</timeUsed><horizontalSlownessUsed>false</horizontalSlownessUsed><backazimuthUsed>false</backazimuthUsed><weight>1</weight></arrival><arrival><pickID>de.gempa.tb1.Pick/20250411144634.773938.118211</pickID><phase>P</phase><azimuth>233.41294860839844</azimuth><distance>1.0560464859008789</distance><timeResidual>-0.03978729248046875</timeResidual><timeUsed>true</timeUsed><horizontalSlownessUsed>false</horizontalSlownessUsed><backazimuthUsed>false</backazimuthUsed><weight>1</weight></arrival><arrival><pickID>de.gempa.tb1.Pick/20250411144641.053033.118213</pickID><phase>P</phase><azimuth>296.8788757324219</azimuth><distance>0.6129792332649231</distance><timeResidual>-0.12611770629882812</timeResidual><timeUsed>true</timeUsed><horizontalSlownessUsed>false</horizontalSlownessUsed><backazimuthUsed>false</backazimuthUsed><weight>1</weight></arrival><arrival><pickID>de.gempa.tb1.Pick/20250411144655.655894.118217</pickID><phase>S</phase><azimuth>271.3282470703125</azimuth><distance>1.0203030109405518</distance><timeResidual>-0.011196136474609375</timeResidual><timeUsed>true</timeUsed><horizontalSlownessUsed>false</horizontalSlownessUsed><backazimuthUsed>false</backazimuthUsed><weight>1</weight></arrival><arrival><pickID>de.gempa.tb1.Pick/20250411144655.749372.118218</pickID><phase>S</phase><azimuth>286.6601867675781</azimuth><distance>1.1962658166885376</distance><timeResidual>-0.06453132629394531</timeResidual><timeUsed>true</timeUsed><horizontalSlownessUsed>false</horizontalSlownessUsed><backazimuthUsed>false</backazimuthUsed><weight>1</weight></arrival><arrival><pickID>de.gempa.tb1.Pick/20250411144657.409036.118219</pickID><phase>S</phase><azimuth>296.8788757324219</azimuth><distance>0.6129792332649231</distance><timeResidual>0.06737709045410156</timeResidual><timeUsed>true</timeUsed><horizontalSlownessUsed>false</horizontalSlownessUsed><backazimuthUsed>false</backazimuthUsed><weight>1</weight></arrival><magnitude publicID="de.gempa.tb1.Magnitude/20250411144700.936178.109847"><magnitude><value>2.7281438407333427</value></magnitude><type>M</type><methodID>weighted average</methodID><stationCount>2</stationCount></magnitude></origin><event publicID="gempa2025hdvt"><preferredOriginID>de.gempa.tb1.Origin/20250411144657.413104.58061</preferredOriginID><preferredMagnitudeID>de.gempa.tb1.Magnitude/20250411144700.936178.109847</preferredMagnitudeID><description><text>Northern Chile</text><type>region name</type></description><originReference>de.gempa.tb1.Origin/20250411144657.413104.58061</originReference></event></EventParameters></seiscomp>