<?xml version="1.0" encoding="UTF-8"?>
<seiscomp xmlns="http://geofon.gfz-potsdam.de/ns/seiscomp3-schema/0.13" version="0.13"><EventParameters><pick publicID="de.gempa.tb1.Pick/20250414145219.760578.138696"><time><value>2025-04-14T14:52:12.15Z</value></time><waveformID networkCode="CX" stationCode="PB19" channelCode="HHZ"/><filterID>ITAPER(4)&gt;&gt;BW(4,4,20)</filterID><methodID>AIC</methodID><horizontalSlowness><value>22.505630496170372</value></horizontalSlowness><backazimuth><value>295.2204219411044</value></backazimuth><phaseHint>P</phaseHint><evaluationMode>automatic</evaluationMode><comment><text>30.712662866942935</text><id>DFX:rectilinearity</id></comment><comment><text>23.57202312156364</text><id>SNR</id></comment></pick><pick publicID="de.gempa.tb1.Pick/20250414145222.270206.138698"><time><value>2025-04-14T14:52:15.858393Z</value></time><waveformID networkCode="CX" stationCode="PB15" channelCode="HHZ"/><filterID>ITAPER(4)&gt;&gt;BW(4,4,20)</filterID><methodID>AIC</methodID><horizontalSlowness><value>20.577761643117555</value></horizontalSlowness><backazimuth><value>106.09064112424684</value></backazimuth><phaseHint>P</phaseHint><evaluationMode>automatic</evaluationMode><comment><text>204.68472672142565</text><id>DFX:rectilinearity</id></comment><comment><text>6.791383491391468</text><id>SNR</id></comment></pick><pick publicID="de.gempa.tb1.Pick/20250414145232.512766.138700"><time><value>2025-04-14T14:52:25.638393Z</value></time><waveformID networkCode="CX" stationCode="PB03" channelCode="HHZ"/><filterID>ITAPER(4)&gt;&gt;BW(4,4,20)</filterID><methodID>AIC</methodID><horizontalSlowness><value>12.314485598658832</value></horizontalSlowness><backazimuth><value>305.69894533675944</value></backazimuth><phaseHint>P</phaseHint><evaluationMode>automatic</evaluationMode><comment><text>4.833970678344021</text><id>DFX:rectilinearity</id></comment><comment><text>13.503952111974568</text><id>SNR</id></comment></pick><pick publicID="de.gempa.tb1.Pick/20250414145233.174019.138702"><time><value>2025-04-14T14:52:25.14Z</value></time><waveformID networkCode="CX" stationCode="PB10" channelCode="HHZ"/><filterID>ITAPER(4)&gt;&gt;BW(4,4,20)</filterID><methodID>AIC</methodID><horizontalSlowness><value>23.301694274741976</value></horizontalSlowness><backazimuth><value>132.92907484101335</value></backazimuth><phaseHint>P</phaseHint><evaluationMode>automatic</evaluationMode><comment><text>17.567818487937192</text><id>DFX:rectilinearity</id></comment><comment><text>8.533493631641294</text><id>SNR</id></comment></pick><pick publicID="de.gempa.tb1.Pick/20250414145236.30508.138706"><time><value>2025-04-14T14:52:24.98Z</value></time><waveformID networkCode="CX" stationCode="PB09" channelCode="HHZ"/><filterID>ITAPER(4)&gt;&gt;BW(4,4,20)</filterID><methodID>AIC</methodID><horizontalSlowness><value>19.829868192974342</value></horizontalSlowness><backazimuth><value>272.73548377142617</value></backazimuth><phaseHint>P</phaseHint><evaluationMode>automatic</evaluationMode><comment><text>10.5367455938804</text><id>DFX:rectilinearity</id></comment><comment><text>4.640720024940899</text><id>SNR</id></comment></pick><pick publicID="de.gempa.tb1.Pick/20250414145247.614246.138709"><time><value>2025-04-14T14:52:40.25Z</value></time><waveformID networkCode="CX" stationCode="PB19" channelCode="HHN"/><filterID>ITAPER(2)&gt;&gt;BW(3,3,20)</filterID><methodID>L2-AIC-GRID</methodID><horizontalSlowness><value>20.791229353444479</value></horizontalSlowness><backazimuth><value>194.25918260150888</value></backazimuth><phaseHint>S</phaseHint><evaluationMode>automatic</evaluationMode><comment><text>220.35316418052085</text><id>DFX:rectilinearity</id></comment><comment><text>de.gempa.tb1.Pick/20250414145219.760578.138696</text><id>RefPickID</id></comment><comment><text>6.00485812710762</text><id>SNR</id></comment></pick><pick publicID="de.gempa.tb1.Pick/20250414145254.012861.138712"><time><value>2025-04-14T14:52:46.798393Z</value></time><waveformID networkCode="CX" stationCode="PB15" channelCode="HHN"/><filterID>ITAPER(2)&gt;&gt;BW(3,3,20)</filterID><methodID>L2-AIC-GRID</methodID><horizontalSlowness><value>21.874060893704993</value></horizontalSlowness><backazimuth><value>81.02509188720367</value></backazimuth><phaseHint>S</phaseHint><evaluationMode>automatic</evaluationMode><comment><text>942.7285273678193</text><id>DFX:rectilinearity</id></comment><comment><text>de.gempa.tb1.Pick/20250414145222.270206.138698</text><id>RefPickID</id></comment><comment><text>7.306684867949808</text><id>SNR</id></comment></pick><pick publicID="de.gempa.tb1.Pick/20250414145311.728925.138726"><time><value>2025-04-14T14:53:02.838393Z</value></time><waveformID networkCode="CX" stationCode="PB03" channelCode="HHN"/><filterID>ITAPER(2)&gt;&gt;BW(3,3,20)</filterID><methodID>L2-AIC-GRID</methodID><horizontalSlowness><value>9.278428401980012</value></horizontalSlowness><backazimuth><value>6.50366985407544</value></backazimuth><phaseHint>S</phaseHint><evaluationMode>automatic</evaluationMode><comment><text>11.164461479481652</text><id>DFX:rectilinearity</id></comment><comment><text>de.gempa.tb1.Pick/20250414145232.512766.138700</text><id>RefPickID</id></comment><comment><text>9.116361195405485</text><id>SNR</id></comment></pick><pick publicID="de.gempa.tb1.Pick/20250414145315.843315.138727"><time><value>2025-04-14T14:52:29.188396Z</value></time><waveformID networkCode="CX" stationCode="PB07" channelCode="HHZ"/><filterID>ITAPER(4)&gt;&gt;BW(4,4,20)</filterID><methodID>AIC</methodID><horizontalSlowness><value>21.534708261837153</value></horizontalSlowness><backazimuth><value>271.2080375069602</value></backazimuth><phaseHint>P</phaseHint><evaluationMode>automatic</evaluationMode><comment><text>104.07330878579741</text><id>DFX:rectilinearity</id></comment><comment><text>17.389799197393753</text><id>SNR</id></comment></pick><pick publicID="de.gempa.tb1.Pick/20250414145329.933535.138737"><time><value>2025-04-14T14:53:09.948396Z</value></time><waveformID networkCode="CX" stationCode="PB07" channelCode="HHN"/><filterID>ITAPER(2)&gt;&gt;BW(3,3,20)</filterID><methodID>L2-AIC-GRID</methodID><horizontalSlowness><value>22.96476355577009</value></horizontalSlowness><backazimuth><value>315.85925828486165</value></backazimuth><phaseHint>S</phaseHint><evaluationMode>automatic</evaluationMode><comment><text>331.72153098770917</text><id>DFX:rectilinearity</id></comment><comment><text>de.gempa.tb1.Pick/20250414145315.843315.138727</text><id>RefPickID</id></comment><comment><text>11.374123879247962</text><id>SNR</id></comment></pick><origin publicID="de.gempa.tb1.Origin/20250414145329.938325.141281"><time><value>2025-04-14T14:51:37.852763Z</value><uncertainty>1.1066416501998901</uncertainty></time><latitude><value>-24.039634704589844</value><uncertainty>7.898787021636963</uncertainty></latitude><longitude><value>-67.65338897705078</value><uncertainty>22.5511531829834</uncertainty></longitude><depth><value>212.6326446533203</value><uncertainty>17.840822219848633</uncertainty></depth><depthType>from location</depthType><methodID>LOCSAT</methodID><earthModelID>iasp91_scanloc</earthModelID><quality><associatedPhaseCount>10</associatedPhaseCount><usedPhaseCount>10</usedPhaseCount><associatedStationCount>6</associatedStationCount><usedStationCount>6</usedStationCount><depthPhaseCount>0</depthPhaseCount><standardError>0.3784308329518336</standardError><azimuthalGap>308.3656005859375</azimuthalGap><maximumDistance>3.08851432800293</maximumDistance><minimumDistance>1.5036810636520386</minimumDistance><medianDistance>2.708451509475708</medianDistance></quality><uncertainty><minHorizontalUncertainty>14.582724571228027</minHorizontalUncertainty><maxHorizontalUncertainty>49.1177864074707</maxHorizontalUncertainty><azimuthMaxHorizontalUncertainty>79.41604614257812</azimuthMaxHorizontalUncertainty><preferredDescription>horizontal uncertainty</preferredDescription></uncertainty><evaluationMode>automatic</evaluationMode><evaluationStatus>confirmed</evaluationStatus><comment><text>0.15</text><id>mismatchScore</id></comment><comment><text>mismatchScore</text><id>scevalMethod</id></comment><arrival><pickID>de.gempa.tb1.Pick/20250414145219.760578.138696</pickID><phase>P</phase><azimuth>274.7910461425781</azimuth><distance>1.5036810636520386</distance><timeResidual>-0.5914230346679688</timeResidual><timeUsed>true</timeUsed><horizontalSlownessUsed>false</horizontalSlownessUsed><backazimuthUsed>false</backazimuthUsed><weight>1</weight></arrival><arrival><pickID>de.gempa.tb1.Pick/20250414145222.270206.138698</pickID><phase>P</phase><azimuth>296.0357971191406</azimuth><distance>1.861057162284851</distance><timeResidual>-0.13979721069335938</timeResidual><timeUsed>true</timeUsed><horizontalSlownessUsed>false</horizontalSlownessUsed><backazimuthUsed>false</backazimuthUsed><weight>1</weight></arrival><arrival><pickID>de.gempa.tb1.Pick/20250414145232.512766.138700</pickID><phase>P</phase><azimuth>315.2852783203125</azimuth><distance>2.7691402435302734</distance><timeResidual>0.05710601806640625</timeResidual><timeUsed>true</timeUsed><horizontalSlownessUsed>false</horizontalSlownessUsed><backazimuthUsed>false</backazimuthUsed><weight>1</weight></arrival><arrival><pickID>de.gempa.tb1.Pick/20250414145233.174019.138702</pickID><phase>P</phase><azimuth>280.56719970703125</azimuth><distance>2.708451509475708</distance><timeResidual>0.2550544738769531</timeResidual><timeUsed>true</timeUsed><horizontalSlownessUsed>false</horizontalSlownessUsed><backazimuthUsed>false</backazimuthUsed><weight>1</weight></arrival><arrival><pickID>de.gempa.tb1.Pick/20250414145236.30508.138706</pickID><phase>P</phase><azimuth>326.4254455566406</azimuth><distance>2.67018461227417</distance><timeResidual>0.5036506652832031</timeResidual><timeUsed>true</timeUsed><horizontalSlownessUsed>false</horizontalSlownessUsed><backazimuthUsed>false</backazimuthUsed><weight>1</weight></arrival><arrival><pickID>de.gempa.tb1.Pick/20250414145247.614246.138709</pickID><phase>S</phase><azimuth>274.7910461425781</azimuth><distance>1.5036810636520386</distance><timeResidual>-0.05374526977539062</timeResidual><timeUsed>true</timeUsed><horizontalSlownessUsed>false</horizontalSlownessUsed><backazimuthUsed>false</backazimuthUsed><weight>1</weight></arrival><arrival><pickID>de.gempa.tb1.Pick/20250414145254.012861.138712</pickID><phase>S</phase><azimuth>296.0357971191406</azimuth><distance>1.861057162284851</distance><timeResidual>0.6400108337402344</timeResidual><timeUsed>true</timeUsed><horizontalSlownessUsed>false</horizontalSlownessUsed><backazimuthUsed>false</backazimuthUsed><weight>1</weight></arrival><arrival><pickID>de.gempa.tb1.Pick/20250414145311.728925.138726</pickID><phase>S</phase><azimuth>315.2852783203125</azimuth><distance>2.7691402435302734</distance><timeResidual>-0.5683479309082031</timeResidual><timeUsed>true</timeUsed><horizontalSlownessUsed>false</horizontalSlownessUsed><backazimuthUsed>false</backazimuthUsed><weight>1</weight></arrival><arrival><pickID>de.gempa.tb1.Pick/20250414145315.843315.138727</pickID><phase>P</phase><azimuth>317.7515869140625</azimuth><distance>3.08851432800293</distance><timeResidual>-0.05120468139648438</timeResidual><timeUsed>true</timeUsed><horizontalSlownessUsed>false</horizontalSlownessUsed><backazimuthUsed>false</backazimuthUsed><weight>1</weight></arrival><arrival><pickID>de.gempa.tb1.Pick/20250414145329.933535.138737</pickID><phase>S</phase><azimuth>317.7515869140625</azimuth><distance>3.08851432800293</distance><timeResidual>-0.05150604248046875</timeResidual><timeUsed>true</timeUsed><horizontalSlownessUsed>false</horizontalSlownessUsed><backazimuthUsed>false</backazimuthUsed><weight>1</weight></arrival><magnitude publicID="de.gempa.tb1.Magnitude/20250414145335.937519.502977"><magnitude><value>2.9633905876043363</value></magnitude><type>M</type><methodID>weighted average</methodID><stationCount>5</stationCount></magnitude></origin><event publicID="gempa2025hjjz"><preferredOriginID>de.gempa.tb1.Origin/20250414145329.938325.141281</preferredOriginID><preferredMagnitudeID>de.gempa.tb1.Magnitude/20250414145335.937519.502977</preferredMagnitudeID><description><text>Chile-Argentina Border Region</text><type>region name</type></description><originReference>de.gempa.tb1.Origin/20250414145329.938325.141281</originReference></event></EventParameters></seiscomp>