<?xml version="1.0" encoding="UTF-8"?>
<seiscomp xmlns="http://geofon.gfz-potsdam.de/ns/seiscomp3-schema/0.13" version="0.13"><EventParameters><pick publicID="de.gempa.tb1.Pick/20250414193608.368435.140684"><time><value>2025-04-14T19:35:59.51Z</value></time><waveformID networkCode="CX" stationCode="PB09" channelCode="HHZ"/><filterID>ITAPER(4)&gt;&gt;BW(4,4,20)</filterID><methodID>AIC</methodID><horizontalSlowness><value>20.617064359845994</value></horizontalSlowness><backazimuth><value>128.04709819079184</value></backazimuth><phaseHint>P</phaseHint><evaluationMode>automatic</evaluationMode><comment><text>337.4580963547808</text><id>DFX:rectilinearity</id></comment><comment><text>105.54699888978448</text><id>SNR</id></comment></pick><pick publicID="de.gempa.tb1.Pick/20250414193611.501728.140686"><time><value>2025-04-14T19:36:03.378393Z</value></time><waveformID networkCode="CX" stationCode="PB06" channelCode="HHZ"/><filterID>ITAPER(4)&gt;&gt;BW(4,4,20)</filterID><methodID>AIC</methodID><horizontalSlowness><value>10.334914022337813</value></horizontalSlowness><backazimuth><value>147.4706240329431</value></backazimuth><phaseHint>P</phaseHint><evaluationMode>automatic</evaluationMode><comment><text>49.78892155016326</text><id>DFX:rectilinearity</id></comment><comment><text>19.641716068094432</text><id>SNR</id></comment></pick><pick publicID="de.gempa.tb1.Pick/20250414193613.71655.140688"><time><value>2025-04-14T19:36:09.258393Z</value></time><waveformID networkCode="CX" stationCode="PB15" channelCode="HHZ"/><filterID>ITAPER(4)&gt;&gt;BW(4,4,20)</filterID><methodID>AIC</methodID><horizontalSlowness><value>22.092007313635495</value></horizontalSlowness><backazimuth><value>352.59480675128435</value></backazimuth><phaseHint>P</phaseHint><evaluationMode>automatic</evaluationMode><comment><text>231.6743658581699</text><id>DFX:rectilinearity</id></comment><comment><text>12.91720526789538</text><id>SNR</id></comment></pick><pick publicID="de.gempa.tb1.Pick/20250414193614.556729.140692"><time><value>2025-04-14T19:36:06.308393Z</value></time><waveformID networkCode="CX" stationCode="PB03" channelCode="HHN"/><filterID>ITAPER(2)&gt;&gt;BW(3,3,20)</filterID><methodID>L2-AIC-GRID</methodID><horizontalSlowness><value>16.652618500692839</value></horizontalSlowness><backazimuth><value>117.06067482354935</value></backazimuth><phaseHint>S</phaseHint><evaluationMode>automatic</evaluationMode><comment><text>50.09684252747311</text><id>DFX:rectilinearity</id></comment><comment><text>de.gempa.tb1.Pick/20250414193614.555577.140690</text><id>RefPickID</id></comment><comment><text>5.629236010540601</text><id>SNR</id></comment></pick><pick publicID="de.gempa.tb1.Pick/20250414193617.523173.140696"><time><value>2025-04-14T19:36:13.078393Z</value></time><waveformID networkCode="CX" stationCode="PB01" channelCode="HHZ"/><filterID>ITAPER(4)&gt;&gt;BW(4,4,20)</filterID><methodID>AIC</methodID><horizontalSlowness><value>21.792411979734215</value></horizontalSlowness><backazimuth><value>325.18698580115915</value></backazimuth><phaseHint>P</phaseHint><evaluationMode>automatic</evaluationMode><comment><text>19.610084486293403</text><id>DFX:rectilinearity</id></comment><comment><text>26.170884746472545</text><id>SNR</id></comment></pick><pick publicID="de.gempa.tb1.Pick/20250414193619.627168.140700"><time><value>2025-04-14T19:36:01.86Z</value></time><waveformID networkCode="CX" stationCode="PB09" channelCode="HHN"/><filterID>ITAPER(2)&gt;&gt;BW(3,3,20)</filterID><methodID>L2-AIC-GRID</methodID><horizontalSlowness><value>21.583065249143974</value></horizontalSlowness><backazimuth><value>129.29166540996482</value></backazimuth><phaseHint>S</phaseHint><evaluationMode>automatic</evaluationMode><comment><text>614.4969330034968</text><id>DFX:rectilinearity</id></comment><comment><text>de.gempa.tb1.Pick/20250414193608.368435.140684</text><id>RefPickID</id></comment><comment><text>10.806609614578125</text><id>SNR</id></comment></pick><pick publicID="de.gempa.tb1.Pick/20250414193628.619037.140705"><time><value>2025-04-14T19:36:22.6Z</value></time><waveformID networkCode="CX" stationCode="PB19" channelCode="HHZ"/><filterID>ITAPER(4)&gt;&gt;BW(4,4,20)</filterID><methodID>AIC</methodID><horizontalSlowness><value>7.68555358309757</value></horizontalSlowness><backazimuth><value>33.894296616688763</value></backazimuth><phaseHint>P</phaseHint><evaluationMode>automatic</evaluationMode><comment><text>23.111375040242123</text><id>DFX:rectilinearity</id></comment><comment><text>30.92235186282109</text><id>SNR</id></comment></pick><origin publicID="de.gempa.tb1.Origin/20250414193629.658757.148966"><time><value>2025-04-14T19:35:50.854992Z</value><uncertainty>0.4531196057796478</uncertainty></time><latitude><value>-22.17072868347168</value><uncertainty>2.1983470916748047</uncertainty></latitude><longitude><value>-69.26258087158203</value><uncertainty>3.865489721298218</uncertainty></longitude><depth><value>0</value></depth><depthType>operator assigned</depthType><methodID>LOCSAT</methodID><earthModelID>iasp91_scanloc</earthModelID><quality><associatedPhaseCount>7</associatedPhaseCount><usedPhaseCount>7</usedPhaseCount><associatedStationCount>6</associatedStationCount><usedStationCount>6</usedStationCount><depthPhaseCount>0</depthPhaseCount><standardError>1.0898970364094884</standardError><azimuthalGap>177.9023494720459</azimuthalGap><maximumDistance>1.7261641025543213</maximumDistance><minimumDistance>0.373033344745636</minimumDistance><medianDistance>0.6045384407043457</medianDistance></quality><uncertainty><minHorizontalUncertainty>4.677830219268799</minHorizontalUncertainty><maxHorizontalUncertainty>8.314033508300781</maxHorizontalUncertainty><azimuthMaxHorizontalUncertainty>94.99817657470703</azimuthMaxHorizontalUncertainty><preferredDescription>horizontal uncertainty</preferredDescription></uncertainty><evaluationMode>automatic</evaluationMode><evaluationStatus>confirmed</evaluationStatus><comment><text>0.36</text><id>mismatchScore</id></comment><comment><text>mismatchScore</text><id>scevalMethod</id></comment><arrival><pickID>de.gempa.tb1.Pick/20250414193608.368435.140684</pickID><phase>P</phase><azimuth>2.9504947662353516</azimuth><distance>0.373033344745636</distance><timeResidual>1.4993624687194824</timeResidual><timeUsed>true</timeUsed><horizontalSlownessUsed>false</horizontalSlownessUsed><backazimuthUsed>false</backazimuthUsed><weight>1</weight></arrival><arrival><pickID>de.gempa.tb1.Pick/20250414193611.501728.140686</pickID><phase>P</phase><azimuth>208.1933135986328</azimuth><distance>0.6045384407043457</distance><timeResidual>0.9285116195678711</timeResidual><timeUsed>true</timeUsed><horizontalSlownessUsed>false</horizontalSlownessUsed><backazimuthUsed>false</backazimuthUsed><weight>1</weight></arrival><arrival><pickID>de.gempa.tb1.Pick/20250414193613.71655.140688</pickID><phase>P</phase><azimuth>190.513916015625</azimuth><distance>1.0504813194274902</distance><timeResidual>-1.7443056106567383</timeResidual><timeUsed>true</timeUsed><horizontalSlownessUsed>false</horizontalSlownessUsed><backazimuthUsed>false</backazimuthUsed><weight>1</weight></arrival><arrival><pickID>de.gempa.tb1.Pick/20250414193614.556729.140692</pickID><phase>S</phase><azimuth>284.883056640625</azimuth><distance>0.4708678126335144</distance><timeResidual>-0.1370096206665039</timeResidual><timeUsed>true</timeUsed><horizontalSlownessUsed>false</horizontalSlownessUsed><backazimuthUsed>false</backazimuthUsed><weight>1</weight></arrival><arrival><pickID>de.gempa.tb1.Pick/20250414193617.523173.140696</pickID><phase>P</phase><azimuth>349.3964538574219</azimuth><distance>1.1413182020187378</distance><timeResidual>0.3308076858520508</timeResidual><timeUsed>true</timeUsed><horizontalSlownessUsed>false</horizontalSlownessUsed><backazimuthUsed>false</backazimuthUsed><weight>1</weight></arrival><arrival><pickID>de.gempa.tb1.Pick/20250414193619.627168.140700</pickID><phase>S</phase><azimuth>2.9504947662353516</azimuth><distance>0.373033344745636</distance><timeResidual>-1.3467369079589844</timeResidual><timeUsed>true</timeUsed><horizontalSlownessUsed>false</horizontalSlownessUsed><backazimuthUsed>false</backazimuthUsed><weight>1</weight></arrival><arrival><pickID>de.gempa.tb1.Pick/20250414193628.619037.140705</pickID><phase>P</phase><azimuth>180.85284423828125</azimuth><distance>1.7261641025543213</distance><timeResidual>0.4694671630859375</timeResidual><timeUsed>true</timeUsed><horizontalSlownessUsed>false</horizontalSlownessUsed><backazimuthUsed>false</backazimuthUsed><weight>1</weight></arrival><magnitude publicID="de.gempa.tb1.Magnitude/20250414193629.662911.534148"><magnitude><value>2.3971660458486195</value></magnitude><type>M</type><methodID>weighted average</methodID><stationCount>5</stationCount></magnitude></origin><event publicID="gempa2025hjtm"><preferredOriginID>de.gempa.tb1.Origin/20250414193629.658757.148966</preferredOriginID><preferredMagnitudeID>de.gempa.tb1.Magnitude/20250414193629.662911.534148</preferredMagnitudeID><type>mining explosion</type><description><text>Northern Chile</text><type>region name</type></description><originReference>de.gempa.tb1.Origin/20250414193629.658757.148966</originReference></event></EventParameters></seiscomp>