<?xml version="1.0" encoding="UTF-8"?>
<seiscomp xmlns="http://geofon.gfz-potsdam.de/ns/seiscomp3-schema/0.13" version="0.13"><EventParameters><pick publicID="de.gempa.tb1.Pick/20250412201036.494793.126462"><time><value>2025-04-12T20:10:31.648391Z</value></time><waveformID networkCode="CX" stationCode="PB06" channelCode="HHZ"/><filterID>ITAPER(4)&gt;&gt;BW(4,4,20)</filterID><methodID>AIC</methodID><horizontalSlowness><value>18.866448822013595</value></horizontalSlowness><backazimuth><value>104.20098784311779</value></backazimuth><phaseHint>P</phaseHint><evaluationMode>automatic</evaluationMode><comment><text>41.267577196230924</text><id>DFX:rectilinearity</id></comment><comment><text>15.061549382090249</text><id>SNR</id></comment></pick><pick publicID="de.gempa.tb1.Pick/20250412201038.578158.126464"><time><value>2025-04-12T20:10:34.158394Z</value></time><waveformID networkCode="CX" stationCode="PB03" channelCode="HHZ"/><filterID>ITAPER(4)&gt;&gt;BW(4,4,20)</filterID><methodID>AIC</methodID><horizontalSlowness><value>21.493135263370124</value></horizontalSlowness><backazimuth><value>114.04163397570892</value></backazimuth><phaseHint>P</phaseHint><evaluationMode>automatic</evaluationMode><comment><text>17.63149481310986</text><id>DFX:rectilinearity</id></comment><comment><text>34.13744590379549</text><id>SNR</id></comment></pick><pick publicID="de.gempa.tb1.Pick/20250412201040.287015.126466"><time><value>2025-04-12T20:10:31.360001Z</value></time><waveformID networkCode="CX" stationCode="PB09" channelCode="HHZ"/><filterID>ITAPER(4)&gt;&gt;BW(4,4,20)</filterID><methodID>AIC</methodID><horizontalSlowness><value>15.613285739116158</value></horizontalSlowness><backazimuth><value>302.1665137668828</value></backazimuth><phaseHint>P</phaseHint><evaluationMode>automatic</evaluationMode><comment><text>31.449235944969367</text><id>DFX:rectilinearity</id></comment><comment><text>98.48282157997362</text><id>SNR</id></comment></pick><pick publicID="de.gempa.tb1.Pick/20250412201043.65909.126468"><time><value>2025-04-12T20:10:38.088391Z</value></time><waveformID networkCode="CX" stationCode="PB15" channelCode="HHZ"/><filterID>ITAPER(4)&gt;&gt;BW(4,4,20)</filterID><methodID>AIC</methodID><horizontalSlowness><value>21.334245141017</value></horizontalSlowness><backazimuth><value>108.04707873593591</value></backazimuth><phaseHint>P</phaseHint><evaluationMode>automatic</evaluationMode><comment><text>163.91161750548719</text><id>DFX:rectilinearity</id></comment><comment><text>14.314335437975132</text><id>SNR</id></comment></pick><pick publicID="de.gempa.tb1.Pick/20250412201051.482466.126470"><time><value>2025-04-12T20:10:44.718394Z</value></time><waveformID networkCode="CX" stationCode="PB02" channelCode="HHZ"/><filterID>ITAPER(4)&gt;&gt;BW(4,4,20)</filterID><methodID>AIC</methodID><horizontalSlowness><value>23.399142984269535</value></horizontalSlowness><backazimuth><value>59.48646970004192</value></backazimuth><phaseHint>P</phaseHint><evaluationMode>automatic</evaluationMode><comment><text>57.20959164320925</text><id>DFX:rectilinearity</id></comment><comment><text>26.74218212277707</text><id>SNR</id></comment></pick><pick publicID="de.gempa.tb1.Pick/20250412201052.62283.126472"><time><value>2025-04-12T20:10:45.308393Z</value></time><waveformID networkCode="CX" stationCode="PB01" channelCode="HHZ"/><filterID>ITAPER(4)&gt;&gt;BW(4,4,20)</filterID><methodID>AIC</methodID><horizontalSlowness><value>19.020618025894386</value></horizontalSlowness><backazimuth><value>296.16329024061554</value></backazimuth><phaseHint>P</phaseHint><evaluationMode>automatic</evaluationMode><comment><text>12.011149433092125</text><id>DFX:rectilinearity</id></comment><comment><text>40.94252261168427</text><id>SNR</id></comment></pick><pick publicID="de.gempa.tb1.Pick/20250412201057.584206.126474"><time><value>2025-04-12T20:10:48.249998Z</value></time><waveformID networkCode="CX" stationCode="PB19" channelCode="HHZ"/><filterID>ITAPER(4)&gt;&gt;BW(4,4,20)</filterID><methodID>AIC</methodID><horizontalSlowness><value>19.718196908417077</value></horizontalSlowness><backazimuth><value>193.8233643798193</value></backazimuth><phaseHint>P</phaseHint><evaluationMode>automatic</evaluationMode><comment><text>26.90506787977614</text><id>DFX:rectilinearity</id></comment><comment><text>28.13183387917011</text><id>SNR</id></comment></pick><pick publicID="de.gempa.tb1.Pick/20250412201059.418707.126476"><time><value>2025-04-12T20:10:53.959999Z</value></time><waveformID networkCode="CX" stationCode="PATCX" channelCode="HHZ"/><filterID>ITAPER(4)&gt;&gt;BW(4,4,20)</filterID><methodID>AIC</methodID><horizontalSlowness><value>20.83250936386946</value></horizontalSlowness><backazimuth><value>65.42048070510174</value></backazimuth><phaseHint>P</phaseHint><evaluationMode>automatic</evaluationMode><comment><text>284.36744757020125</text><id>DFX:rectilinearity</id></comment><comment><text>11.040852419909257</text><id>SNR</id></comment></pick><pick publicID="de.gempa.tb1.Pick/20250412201105.934012.126480"><time><value>2025-04-12T20:10:39.168393Z</value></time><waveformID networkCode="CX" stationCode="PB07" channelCode="HHZ"/><filterID>ITAPER(4)&gt;&gt;BW(4,4,20)</filterID><methodID>AIC</methodID><horizontalSlowness><value>20.525645441220455</value></horizontalSlowness><backazimuth><value>253.14922557008595</value></backazimuth><phaseHint>P</phaseHint><evaluationMode>automatic</evaluationMode><comment><text>335.6521170126372</text><id>DFX:rectilinearity</id></comment><comment><text>32.02095686335992</text><id>SNR</id></comment></pick><pick publicID="de.gempa.tb1.Pick/20250412201117.561508.126484"><time><value>2025-04-12T20:11:09.920001Z</value></time><waveformID networkCode="CX" stationCode="PSGCX" channelCode="HHZ"/><filterID>ITAPER(4)&gt;&gt;BW(4,4,20)</filterID><methodID>AIC</methodID><horizontalSlowness><value>14.657620278698642</value></horizontalSlowness><backazimuth><value>283.0030002520274</value></backazimuth><phaseHint>P</phaseHint><evaluationMode>automatic</evaluationMode><comment><text>15.09183527526573</text><id>DFX:rectilinearity</id></comment><comment><text>21.404142928859557</text><id>SNR</id></comment></pick><origin publicID="de.gempa.tb1.Origin/20250412201119.629649.91104"><time><value>2025-04-12T20:10:20.175949Z</value><uncertainty>0.6834192872047424</uncertainty></time><latitude><value>-22.367202758789062</value><uncertainty>2.6976027488708496</uncertainty></latitude><longitude><value>-69.04838562011719</value><uncertainty>7.098603248596191</uncertainty></longitude><depth><value>0</value></depth><depthType>operator assigned</depthType><methodID>LOCSAT</methodID><earthModelID>iasp91_scanloc</earthModelID><quality><associatedPhaseCount>10</associatedPhaseCount><usedPhaseCount>10</usedPhaseCount><associatedStationCount>10</associatedStationCount><usedStationCount>10</usedStationCount><depthPhaseCount>0</depthPhaseCount><standardError>0.817671263409039</standardError><azimuthalGap>205.54122924804688</azimuthalGap><maximumDistance>2.933419704437256</maximumDistance><minimumDistance>0.5897515416145325</minimumDistance><medianDistance>1.306412935256958</medianDistance></quality><uncertainty><minHorizontalUncertainty>5.785272121429443</minHorizontalUncertainty><maxHorizontalUncertainty>15.224912643432617</maxHorizontalUncertainty><azimuthMaxHorizontalUncertainty>89.71624755859375</azimuthMaxHorizontalUncertainty><preferredDescription>horizontal uncertainty</preferredDescription></uncertainty><evaluationMode>automatic</evaluationMode><evaluationStatus>confirmed</evaluationStatus><comment><text>0.09</text><id>mismatchScore</id></comment><comment><text>mismatchScore</text><id>scevalMethod</id></comment><arrival><pickID>de.gempa.tb1.Pick/20250412201036.494793.126462</pickID><phase>P</phase><azimuth>235.0519104003906</azimuth><distance>0.5897515416145325</distance><timeResidual>0.1610126495361328</timeResidual><timeUsed>true</timeUsed><horizontalSlownessUsed>false</horizontalSlownessUsed><backazimuthUsed>false</backazimuthUsed><weight>1</weight></arrival><arrival><pickID>de.gempa.tb1.Pick/20250412201038.578158.126464</pickID><phase>P</phase><azimuth>295.7740783691406</azimuth><distance>0.7260174751281738</distance><timeResidual>0.05658721923828125</timeResidual><timeUsed>true</timeUsed><horizontalSlownessUsed>false</horizontalSlownessUsed><backazimuthUsed>false</backazimuthUsed><weight>1</weight></arrival><arrival><pickID>de.gempa.tb1.Pick/20250412201040.287015.126466</pickID><phase>P</phase><azimuth>342.4275207519531</azimuth><distance>0.5957603454589844</distance><timeResidual>-0.2437314987182617</timeResidual><timeUsed>true</timeUsed><horizontalSlownessUsed>false</horizontalSlownessUsed><backazimuthUsed>false</backazimuthUsed><weight>1</weight></arrival><arrival><pickID>de.gempa.tb1.Pick/20250412201043.65909.126468</pickID><phase>P</phase><azimuth>204.8941192626953</azimuth><distance>0.923535168170929</distance><timeResidual>0.19948959350585938</timeResidual><timeUsed>true</timeUsed><horizontalSlownessUsed>false</horizontalSlownessUsed><backazimuthUsed>false</backazimuthUsed><weight>1</weight></arrival><arrival><pickID>de.gempa.tb1.Pick/20250412201051.482466.126470</pickID><phase>P</phase><azimuth>322.77166748046875</azimuth><distance>1.306412935256958</distance><timeResidual>-0.5142631530761719</timeResidual><timeUsed>true</timeUsed><horizontalSlownessUsed>false</horizontalSlownessUsed><backazimuthUsed>false</backazimuthUsed><weight>1</weight></arrival><arrival><pickID>de.gempa.tb1.Pick/20250412201052.62283.126472</pickID><phase>P</phase><azimuth>342.7022705078125</azimuth><distance>1.3793140649795532</distance><timeResidual>-1.279261589050293</timeResidual><timeUsed>true</timeUsed><horizontalSlownessUsed>false</horizontalSlownessUsed><backazimuthUsed>false</backazimuthUsed><weight>1</weight></arrival><arrival><pickID>de.gempa.tb1.Pick/20250412201057.584206.126474</pickID><phase>P</phase><azimuth>188.24349975585938</azimuth><distance>1.5465983152389526</distance><timeResidual>-0.7299938201904297</timeResidual><timeUsed>true</timeUsed><horizontalSlownessUsed>false</horizontalSlownessUsed><backazimuthUsed>false</backazimuthUsed><weight>1</weight></arrival><arrival><pickID>de.gempa.tb1.Pick/20250412201059.418707.126476</pickID><phase>P</phase><azimuth>326.0558776855469</azimuth><distance>1.8506134748458862</distance><timeResidual>0.7919540405273438</timeResidual><timeUsed>true</timeUsed><horizontalSlownessUsed>false</horizontalSlownessUsed><backazimuthUsed>false</backazimuthUsed><weight>1</weight></arrival><arrival><pickID>de.gempa.tb1.Pick/20250412201105.934012.126480</pickID><phase>P</phase><azimuth>309.1987609863281</azimuth><distance>1.0052152872085571</distance><timeResidual>-0.2889423370361328</timeResidual><timeUsed>true</timeUsed><horizontalSlownessUsed>false</horizontalSlownessUsed><backazimuthUsed>false</backazimuthUsed><weight>1</weight></arrival><arrival><pickID>de.gempa.tb1.Pick/20250412201117.561508.126484</pickID><phase>P</phase><azimuth>339.7864685058594</azimuth><distance>2.933419704437256</distance><timeResidual>1.8474273681640625</timeResidual><timeUsed>true</timeUsed><horizontalSlownessUsed>false</horizontalSlownessUsed><backazimuthUsed>false</backazimuthUsed><weight>1</weight></arrival><magnitude publicID="de.gempa.tb1.Magnitude/20250412201119.635363.276755"><magnitude><value>2.4659576686927793</value></magnitude><type>M</type><methodID>weighted average</methodID><stationCount>7</stationCount></magnitude></origin><event publicID="gempa2025hgcq"><preferredOriginID>de.gempa.tb1.Origin/20250412201119.629649.91104</preferredOriginID><preferredMagnitudeID>de.gempa.tb1.Magnitude/20250412201119.635363.276755</preferredMagnitudeID><description><text>Northern Chile</text><type>region name</type></description><originReference>de.gempa.tb1.Origin/20250412201119.629649.91104</originReference></event></EventParameters></seiscomp>