<?xml version="1.0" encoding="UTF-8"?>
<seiscomp xmlns="http://geofon.gfz-potsdam.de/ns/seiscomp3-schema/0.13" version="0.13"><EventParameters><pick publicID="de.gempa.tb1.Pick/20250415013747.643115.142731"><time><value>2025-04-15T01:37:43.238393Z</value></time><waveformID networkCode="CX" stationCode="PB15" channelCode="HHZ"/><filterID>ITAPER(4)&gt;&gt;BW(4,4,20)</filterID><methodID>AIC</methodID><horizontalSlowness><value>18.883791943971925</value></horizontalSlowness><backazimuth><value>90.51990313328457</value></backazimuth><phaseHint>P</phaseHint><evaluationMode>automatic</evaluationMode><comment><text>746.4310126367362</text><id>DFX:rectilinearity</id></comment><comment><text>32.216420195435347</text><id>SNR</id></comment></pick><pick publicID="de.gempa.tb1.Pick/20250415013748.501034.142733"><time><value>2025-04-15T01:37:43.428393Z</value></time><waveformID networkCode="CX" stationCode="PB06" channelCode="HHZ"/><filterID>ITAPER(4)&gt;&gt;BW(4,4,20)</filterID><methodID>AIC</methodID><horizontalSlowness><value>9.214348523701046</value></horizontalSlowness><backazimuth><value>237.9433956257259</value></backazimuth><phaseHint>P</phaseHint><evaluationMode>automatic</evaluationMode><comment><text>143.13987404997422</text><id>DFX:rectilinearity</id></comment><comment><text>15.03282024618019</text><id>SNR</id></comment></pick><pick publicID="de.gempa.tb1.Pick/20250415013754.598438.142735"><time><value>2025-04-15T01:37:47.22Z</value></time><waveformID networkCode="CX" stationCode="PB19" channelCode="HHZ"/><filterID>ITAPER(4)&gt;&gt;BW(4,4,20)</filterID><methodID>AIC</methodID><horizontalSlowness><value>19.203353242000894</value></horizontalSlowness><backazimuth><value>17.203990794463323</value></backazimuth><phaseHint>P</phaseHint><evaluationMode>automatic</evaluationMode><comment><text>26.50892835911142</text><id>DFX:rectilinearity</id></comment><comment><text>25.31113999957778</text><id>SNR</id></comment></pick><pick publicID="de.gempa.tb1.Pick/20250415013757.590323.142737"><time><value>2025-04-15T01:37:52.238393Z</value></time><waveformID networkCode="CX" stationCode="PB07" channelCode="HHZ"/><filterID>ITAPER(4)&gt;&gt;BW(4,4,20)</filterID><methodID>AIC</methodID><horizontalSlowness><value>22.46747068025211</value></horizontalSlowness><backazimuth><value>42.14819053609179</value></backazimuth><phaseHint>P</phaseHint><evaluationMode>automatic</evaluationMode><comment><text>289.67909862964245</text><id>DFX:rectilinearity</id></comment><comment><text>11.474453839099432</text><id>SNR</id></comment></pick><pick publicID="de.gempa.tb1.Pick/20250415013759.179372.142739"><time><value>2025-04-15T01:37:47.71Z</value></time><waveformID networkCode="CX" stationCode="PB09" channelCode="HHZ"/><filterID>ITAPER(4)&gt;&gt;BW(4,4,20)</filterID><methodID>AIC</methodID><horizontalSlowness><value>16.21462205940409</value></horizontalSlowness><backazimuth><value>272.9448395052118</value></backazimuth><phaseHint>P</phaseHint><evaluationMode>automatic</evaluationMode><comment><text>11.903120763902008</text><id>DFX:rectilinearity</id></comment><comment><text>12.154934405520068</text><id>SNR</id></comment></pick><pick publicID="de.gempa.tb1.Pick/20250415013807.909761.142741"><time><value>2025-04-15T01:37:58.928393Z</value></time><waveformID networkCode="CX" stationCode="PB15" channelCode="HHN"/><filterID>ITAPER(2)&gt;&gt;BW(3,3,20)</filterID><methodID>L2-AIC-GRID</methodID><horizontalSlowness><value>20.786392892941262</value></horizontalSlowness><backazimuth><value>113.29945897242023</value></backazimuth><phaseHint>S</phaseHint><evaluationMode>automatic</evaluationMode><comment><text>5058.885212908032</text><id>DFX:rectilinearity</id></comment><comment><text>de.gempa.tb1.Pick/20250415013747.643115.142731</text><id>RefPickID</id></comment><comment><text>6.195784863486514</text><id>SNR</id></comment></pick><pick publicID="de.gempa.tb1.Pick/20250415013808.685407.142742"><time><value>2025-04-15T01:37:58.508393Z</value></time><waveformID networkCode="CX" stationCode="PB06" channelCode="HHN"/><filterID>ITAPER(2)&gt;&gt;BW(3,3,20)</filterID><methodID>L2-AIC-GRID</methodID><horizontalSlowness><value>22.454144330266956</value></horizontalSlowness><backazimuth><value>207.85275619774814</value></backazimuth><phaseHint>S</phaseHint><evaluationMode>automatic</evaluationMode><comment><text>290.94990845130076</text><id>DFX:rectilinearity</id></comment><comment><text>de.gempa.tb1.Pick/20250415013748.501034.142733</text><id>RefPickID</id></comment><comment><text>12.07102971672309</text><id>SNR</id></comment></pick><pick publicID="de.gempa.tb1.Pick/20250415013813.677618.142743"><time><value>2025-04-15T01:38:05.27Z</value></time><waveformID networkCode="CX" stationCode="PB19" channelCode="HHN"/><filterID>ITAPER(2)&gt;&gt;BW(3,3,20)</filterID><methodID>L2-AIC-GRID</methodID><horizontalSlowness><value>20.47272048046056</value></horizontalSlowness><backazimuth><value>2.3044644147386464</value></backazimuth><phaseHint>S</phaseHint><evaluationMode>automatic</evaluationMode><comment><text>84.88516871259698</text><id>DFX:rectilinearity</id></comment><comment><text>de.gempa.tb1.Pick/20250415013754.598438.142735</text><id>RefPickID</id></comment><comment><text>7.787245709680644</text><id>SNR</id></comment></pick><origin publicID="de.gempa.tb1.Origin/20250415013815.579855.157622"><time><value>2025-04-15T01:37:20.739398Z</value><uncertainty>0.9420263767242432</uncertainty></time><latitude><value>-22.8610897064209</value><uncertainty>3.3316938877105713</uncertainty></latitude><longitude><value>-68.3135986328125</value><uncertainty>5.030922412872314</uncertainty></longitude><depth><value>0</value></depth><depthType>operator assigned</depthType><methodID>LOCSAT</methodID><earthModelID>iasp91_scanloc</earthModelID><quality><associatedPhaseCount>8</associatedPhaseCount><usedPhaseCount>8</usedPhaseCount><associatedStationCount>5</associatedStationCount><usedStationCount>5</usedStationCount><depthPhaseCount>0</depthPhaseCount><standardError>0.9197060737871403</standardError><azimuthalGap>259.8647155761719</azimuthalGap><maximumDistance>1.8427391052246094</maximumDistance><minimumDistance>1.1207523345947266</minimumDistance><medianDistance>1.364398956298828</medianDistance></quality><uncertainty><minHorizontalUncertainty>6.803367614746094</minHorizontalUncertainty><maxHorizontalUncertainty>11.010699272155762</maxHorizontalUncertainty><azimuthMaxHorizontalUncertainty>104.63609313964844</azimuthMaxHorizontalUncertainty><preferredDescription>horizontal uncertainty</preferredDescription></uncertainty><evaluationMode>automatic</evaluationMode><evaluationStatus>confirmed</evaluationStatus><comment><text>0.18</text><id>mismatchScore</id></comment><comment><text>mismatchScore</text><id>scevalMethod</id></comment><arrival><pickID>de.gempa.tb1.Pick/20250415013747.643115.142731</pickID><phase>P</phase><azimuth>251.81336975097656</azimuth><distance>1.1207523345947266</distance><timeResidual>1.0031681060791016</timeResidual><timeUsed>true</timeUsed><horizontalSlownessUsed>false</horizontalSlownessUsed><backazimuthUsed>false</backazimuthUsed><weight>1</weight></arrival><arrival><pickID>de.gempa.tb1.Pick/20250415013748.501034.142733</pickID><phase>P</phase><azimuth>277.3387756347656</azimuth><distance>1.1714999675750732</distance><timeResidual>0.21921730041503906</timeResidual><timeUsed>true</timeUsed><horizontalSlownessUsed>false</horizontalSlownessUsed><backazimuthUsed>false</backazimuthUsed><weight>1</weight></arrival><arrival><pickID>de.gempa.tb1.Pick/20250415013754.598438.142735</pickID><phase>P</phase><azimuth>220.64016723632812</azimuth><distance>1.3730283975601196</distance><timeResidual>0.18770217895507812</timeResidual><timeUsed>true</timeUsed><horizontalSlownessUsed>false</horizontalSlownessUsed><backazimuthUsed>false</backazimuthUsed><weight>1</weight></arrival><arrival><pickID>de.gempa.tb1.Pick/20250415013757.590323.142737</pickID><phase>P</phase><azimuth>307.4833679199219</azimuth><distance>1.8427391052246094</distance><timeResidual>-1.3836383819580078</timeResidual><timeUsed>true</timeUsed><horizontalSlownessUsed>false</horizontalSlownessUsed><backazimuthUsed>false</backazimuthUsed><weight>1</weight></arrival><arrival><pickID>de.gempa.tb1.Pick/20250415013759.179372.142739</pickID><phase>P</phase><azimuth>320.77545166015625</azimuth><distance>1.364398956298828</distance><timeResidual>0.834014892578125</timeResidual><timeUsed>true</timeUsed><horizontalSlownessUsed>false</horizontalSlownessUsed><backazimuthUsed>false</backazimuthUsed><weight>1</weight></arrival><arrival><pickID>de.gempa.tb1.Pick/20250415013807.909761.142741</pickID><phase>S</phase><azimuth>251.81336975097656</azimuth><distance>1.1207523345947266</distance><timeResidual>1.0834159851074219</timeResidual><timeUsed>true</timeUsed><horizontalSlownessUsed>false</horizontalSlownessUsed><backazimuthUsed>false</backazimuthUsed><weight>1</weight></arrival><arrival><pickID>de.gempa.tb1.Pick/20250415013808.685407.142742</pickID><phase>S</phase><azimuth>277.3387756347656</azimuth><distance>1.1714999675750732</distance><timeResidual>-1.018026351928711</timeResidual><timeUsed>true</timeUsed><horizontalSlownessUsed>false</horizontalSlownessUsed><backazimuthUsed>false</backazimuthUsed><weight>1</weight></arrival><arrival><pickID>de.gempa.tb1.Pick/20250415013813.677618.142743</pickID><phase>S</phase><azimuth>220.64016723632812</azimuth><distance>1.3730283975601196</distance><timeResidual>-0.9257621765136719</timeResidual><timeUsed>true</timeUsed><horizontalSlownessUsed>false</horizontalSlownessUsed><backazimuthUsed>false</backazimuthUsed><weight>1</weight></arrival><magnitude publicID="de.gempa.tb1.Magnitude/20250415013915.080222.559272"><magnitude><value>2.2392897183163782</value></magnitude><type>M</type><methodID>weighted average</methodID><stationCount>4</stationCount></magnitude></origin><event publicID="gempa2025hkfn"><preferredOriginID>de.gempa.tb1.Origin/20250415013815.579855.157622</preferredOriginID><preferredMagnitudeID>de.gempa.tb1.Magnitude/20250415013915.080222.559272</preferredMagnitudeID><description><text>Northern Chile</text><type>region name</type></description><originReference>de.gempa.tb1.Origin/20250415013815.579855.157622</originReference></event></EventParameters></seiscomp>