<?xml version="1.0" encoding="UTF-8"?>
<seiscomp xmlns="http://geofon.gfz-potsdam.de/ns/seiscomp3-schema/0.13" version="0.13"><EventParameters><pick publicID="de.gempa.tb1.Pick/20250413040639.519972.128725"><time><value>2025-04-13T04:06:34.488393Z</value></time><waveformID networkCode="CX" stationCode="PB06" channelCode="HHZ"/><filterID>ITAPER(4)&gt;&gt;BW(4,4,20)</filterID><methodID>AIC</methodID><horizontalSlowness><value>4.640611207299012</value></horizontalSlowness><backazimuth><value>336.2492680107997</value></backazimuth><phaseHint>P</phaseHint><evaluationMode>automatic</evaluationMode><comment><text>38.332633378061907</text><id>DFX:rectilinearity</id></comment><comment><text>12.840668341910478</text><id>SNR</id></comment></pick><pick publicID="de.gempa.tb1.Pick/20250413040639.58991.128727"><time><value>2025-04-13T04:06:35.188393Z</value></time><waveformID networkCode="CX" stationCode="PB03" channelCode="HHZ"/><filterID>ITAPER(4)&gt;&gt;BW(4,4,20)</filterID><methodID>AIC</methodID><horizontalSlowness><value>10.126615851892209</value></horizontalSlowness><backazimuth><value>109.97959329640717</value></backazimuth><phaseHint>P</phaseHint><evaluationMode>automatic</evaluationMode><comment><text>35.18917539538865</text><id>DFX:rectilinearity</id></comment><comment><text>8.718521845800222</text><id>SNR</id></comment></pick><pick publicID="de.gempa.tb1.Pick/20250413040645.892098.128732"><time><value>2025-04-13T04:06:37.808394Z</value></time><waveformID networkCode="CX" stationCode="PB07" channelCode="HHZ"/><filterID>ITAPER(4)&gt;&gt;BW(4,4,20)</filterID><methodID>AIC</methodID><horizontalSlowness><value>22.011561926425571</value></horizontalSlowness><backazimuth><value>122.55532661689034</value></backazimuth><phaseHint>P</phaseHint><evaluationMode>automatic</evaluationMode><comment><text>322.2577407736487</text><id>DFX:rectilinearity</id></comment><comment><text>6.096485471208545</text><id>SNR</id></comment></pick><pick publicID="de.gempa.tb1.Pick/20250413040646.395774.128734"><time><value>2025-04-13T04:06:32.42Z</value></time><waveformID networkCode="CX" stationCode="PB09" channelCode="HHZ"/><filterID>ITAPER(4)&gt;&gt;BW(4,4,20)</filterID><methodID>AIC</methodID><horizontalSlowness><value>3.4280223273825783</value></horizontalSlowness><backazimuth><value>208.43853662786452</value></backazimuth><phaseHint>P</phaseHint><evaluationMode>automatic</evaluationMode><comment><text>21.999151188463006</text><id>DFX:rectilinearity</id></comment><comment><text>12.209471833288445</text><id>SNR</id></comment></pick><pick publicID="de.gempa.tb1.Pick/20250413040657.600345.128739"><time><value>2025-04-13T04:06:50.618393Z</value></time><waveformID networkCode="CX" stationCode="PB06" channelCode="HHN"/><filterID>ITAPER(2)&gt;&gt;BW(3,3,20)</filterID><methodID>L2-AIC-GRID</methodID><horizontalSlowness><value>17.411123546432592</value></horizontalSlowness><backazimuth><value>289.6377483006446</value></backazimuth><phaseHint>S</phaseHint><evaluationMode>automatic</evaluationMode><comment><text>147.21271220859202</text><id>DFX:rectilinearity</id></comment><comment><text>de.gempa.tb1.Pick/20250413040639.519972.128725</text><id>RefPickID</id></comment><comment><text>8.595418455050286</text><id>SNR</id></comment></pick><pick publicID="de.gempa.tb1.Pick/20250413040659.795793.128740"><time><value>2025-04-13T04:06:51.648393Z</value></time><waveformID networkCode="CX" stationCode="PB03" channelCode="HHN"/><filterID>ITAPER(2)&gt;&gt;BW(3,3,20)</filterID><methodID>L2-AIC-GRID</methodID><horizontalSlowness><value>16.624966710018292</value></horizontalSlowness><backazimuth><value>212.18473276321777</value></backazimuth><phaseHint>S</phaseHint><evaluationMode>automatic</evaluationMode><comment><text>789.9679590211722</text><id>DFX:rectilinearity</id></comment><comment><text>de.gempa.tb1.Pick/20250413040639.58991.128727</text><id>RefPickID</id></comment><comment><text>15.682538229436652</text><id>SNR</id></comment></pick><pick publicID="de.gempa.tb1.Pick/20250413040733.85689.128746"><time><value>2025-04-13T04:06:56.078394Z</value></time><waveformID networkCode="CX" stationCode="PB07" channelCode="HHN"/><filterID>ITAPER(2)&gt;&gt;BW(3,3,20)</filterID><methodID>L2-AIC-GRID</methodID><horizontalSlowness><value>20.37065032383627</value></horizontalSlowness><backazimuth><value>95.93561169689264</value></backazimuth><phaseHint>S</phaseHint><evaluationMode>automatic</evaluationMode><comment><text>639.7077391088968</text><id>DFX:rectilinearity</id></comment><comment><text>de.gempa.tb1.Pick/20250413040645.892098.128732</text><id>RefPickID</id></comment><comment><text>6.12546447090257</text><id>SNR</id></comment></pick><origin publicID="de.gempa.tb1.Origin/20250413040733.882003.100287"><time><value>2025-04-13T04:06:13.941543Z</value><uncertainty>1.4720978736877441</uncertainty></time><latitude><value>-22.253955841064453</value><uncertainty>8.265176773071289</uncertainty></latitude><longitude><value>-68.7101821899414</value><uncertainty>17.19934844970703</uncertainty></longitude><depth><value>112.99459075927734</value><uncertainty>22.12032699584961</uncertainty></depth><depthType>from location</depthType><methodID>LOCSAT</methodID><earthModelID>iasp91_scanloc</earthModelID><quality><associatedPhaseCount>7</associatedPhaseCount><usedPhaseCount>7</usedPhaseCount><associatedStationCount>4</associatedStationCount><usedStationCount>4</usedStationCount><depthPhaseCount>0</depthPhaseCount><standardError>0.10888856243091467</standardError><azimuthalGap>287.7979736328125</azimuthalGap><maximumDistance>1.2110391855239868</maximumDistance><minimumDistance>0.6714137196540833</minimumDistance><medianDistance>0.9882447719573975</medianDistance></quality><uncertainty><minHorizontalUncertainty>15.768953323364258</minHorizontalUncertainty><maxHorizontalUncertainty>37.76100540161133</maxHorizontalUncertainty><azimuthMaxHorizontalUncertainty>76.35692596435547</azimuthMaxHorizontalUncertainty><preferredDescription>horizontal uncertainty</preferredDescription></uncertainty><evaluationMode>automatic</evaluationMode><evaluationStatus>confirmed</evaluationStatus><comment><text>0.00</text><id>mismatchScore</id></comment><comment><text>mismatchScore</text><id>scevalMethod</id></comment><arrival><pickID>de.gempa.tb1.Pick/20250413040639.519972.128725</pickID><phase>P</phase><azimuth>240.4033508300781</azimuth><distance>0.9151071906089783</distance><timeResidual>-0.0850830078125</timeResidual><timeUsed>true</timeUsed><horizontalSlownessUsed>false</horizontalSlownessUsed><backazimuthUsed>false</backazimuthUsed><weight>1</weight></arrival><arrival><pickID>de.gempa.tb1.Pick/20250413040639.58991.128727</pickID><phase>P</phase><azimuth>281.7467346191406</azimuth><distance>0.9882447719573975</distance><timeResidual>-0.11316299438476562</timeResidual><timeUsed>true</timeUsed><horizontalSlownessUsed>false</horizontalSlownessUsed><backazimuthUsed>false</backazimuthUsed><weight>1</weight></arrival><arrival><pickID>de.gempa.tb1.Pick/20250413040645.892098.128732</pickID><phase>P</phase><azimuth>295.45697021484375</azimuth><distance>1.2110391855239868</distance><timeResidual>0.14678382873535156</timeResidual><timeUsed>true</timeUsed><horizontalSlownessUsed>false</horizontalSlownessUsed><backazimuthUsed>false</backazimuthUsed><weight>1</weight></arrival><arrival><pickID>de.gempa.tb1.Pick/20250413040646.395774.128734</pickID><phase>P</phase><azimuth>312.6053771972656</azimuth><distance>0.6714137196540833</distance><timeResidual>0.021711349487304688</timeResidual><timeUsed>true</timeUsed><horizontalSlownessUsed>false</horizontalSlownessUsed><backazimuthUsed>false</backazimuthUsed><weight>1</weight></arrival><arrival><pickID>de.gempa.tb1.Pick/20250413040657.600345.128739</pickID><phase>S</phase><azimuth>240.4033508300781</azimuth><distance>0.9151071906089783</distance><timeResidual>0.115966796875</timeResidual><timeUsed>true</timeUsed><horizontalSlownessUsed>false</horizontalSlownessUsed><backazimuthUsed>false</backazimuthUsed><weight>1</weight></arrival><arrival><pickID>de.gempa.tb1.Pick/20250413040659.795793.128740</pickID><phase>S</phase><azimuth>281.7467346191406</azimuth><distance>0.9882447719573975</distance><timeResidual>-0.15213966369628906</timeResidual><timeUsed>true</timeUsed><horizontalSlownessUsed>false</horizontalSlownessUsed><backazimuthUsed>false</backazimuthUsed><weight>1</weight></arrival><arrival><pickID>de.gempa.tb1.Pick/20250413040733.85689.128746</pickID><phase>S</phase><azimuth>295.45697021484375</azimuth><distance>1.2110391855239868</distance><timeResidual>0.06588172912597656</timeResidual><timeUsed>true</timeUsed><horizontalSlownessUsed>false</horizontalSlownessUsed><backazimuthUsed>false</backazimuthUsed><weight>1</weight></arrival><magnitude publicID="de.gempa.tb1.Magnitude/20250413040740.936698.309399"><magnitude><value>2.736763330715684</value></magnitude><type>M</type><methodID>weighted average</methodID><stationCount>3</stationCount></magnitude></origin><event publicID="gempa2025hgsl"><preferredOriginID>de.gempa.tb1.Origin/20250413040733.882003.100287</preferredOriginID><preferredMagnitudeID>de.gempa.tb1.Magnitude/20250413040740.936698.309399</preferredMagnitudeID><description><text>Northern Chile</text><type>region name</type></description><originReference>de.gempa.tb1.Origin/20250413040733.882003.100287</originReference></event></EventParameters></seiscomp>