<?xml version="1.0" encoding="UTF-8"?>
<seiscomp xmlns="http://geofon.gfz-potsdam.de/ns/seiscomp3-schema/0.13" version="0.13"><EventParameters><pick publicID="de.gempa.tb1.Pick/20250411175112.712083.119132"><time><value>2025-04-11T17:51:07.178394Z</value></time><waveformID networkCode="CX" stationCode="PB03" channelCode="HHZ"/><filterID>ITAPER(4)&gt;&gt;BW(4,4,20)</filterID><methodID>AIC</methodID><horizontalSlowness><value>9.554038727562624</value></horizontalSlowness><backazimuth><value>107.31883807207841</value></backazimuth><phaseHint>P</phaseHint><evaluationMode>automatic</evaluationMode><comment><text>8.130046496211493</text><id>DFX:rectilinearity</id></comment><comment><text>24.61267482076333</text><id>SNR</id></comment></pick><pick publicID="de.gempa.tb1.Pick/20250411175113.392497.119134"><time><value>2025-04-11T17:51:04.140001Z</value></time><waveformID networkCode="CX" stationCode="PB09" channelCode="HHZ"/><filterID>ITAPER(4)&gt;&gt;BW(4,4,20)</filterID><methodID>AIC</methodID><horizontalSlowness><value>10.354918332897322</value></horizontalSlowness><backazimuth><value>58.66245731721406</value></backazimuth><phaseHint>P</phaseHint><evaluationMode>automatic</evaluationMode><comment><text>14.593885463237353</text><id>DFX:rectilinearity</id></comment><comment><text>88.15428199317114</text><id>SNR</id></comment></pick><pick publicID="de.gempa.tb1.Pick/20250411175113.748851.119136"><time><value>2025-04-11T17:51:09.128396Z</value></time><waveformID networkCode="CX" stationCode="PB07" channelCode="HHZ"/><filterID>ITAPER(4)&gt;&gt;BW(4,4,20)</filterID><methodID>AIC</methodID><horizontalSlowness><value>20.753377614182092</value></horizontalSlowness><backazimuth><value>68.01970597582834</value></backazimuth><phaseHint>P</phaseHint><evaluationMode>automatic</evaluationMode><comment><text>78.36327252249741</text><id>DFX:rectilinearity</id></comment><comment><text>43.6347922648262</text><id>SNR</id></comment></pick><pick publicID="de.gempa.tb1.Pick/20250411175114.546474.119138"><time><value>2025-04-11T17:51:10.058393Z</value></time><waveformID networkCode="CX" stationCode="PB01" channelCode="HHZ"/><filterID>ITAPER(4)&gt;&gt;BW(4,4,20)</filterID><methodID>AIC</methodID><horizontalSlowness><value>5.425380770950713</value></horizontalSlowness><backazimuth><value>192.8525792653902</value></backazimuth><phaseHint>P</phaseHint><evaluationMode>automatic</evaluationMode><comment><text>22.74798181307805</text><id>DFX:rectilinearity</id></comment><comment><text>93.32804700663864</text><id>SNR</id></comment></pick><pick publicID="de.gempa.tb1.Pick/20250411175114.552292.119140"><time><value>2025-04-11T17:51:06.348393Z</value></time><waveformID networkCode="CX" stationCode="PB06" channelCode="HHZ"/><filterID>ITAPER(4)&gt;&gt;BW(4,4,20)</filterID><methodID>AIC</methodID><horizontalSlowness><value>3.7421987406058217</value></horizontalSlowness><backazimuth><value>220.77360641054634</value></backazimuth><phaseHint>P</phaseHint><evaluationMode>automatic</evaluationMode><comment><text>29.976308203478123</text><id>DFX:rectilinearity</id></comment><comment><text>13.06536427960162</text><id>SNR</id></comment></pick><pick publicID="de.gempa.tb1.Pick/20250411175116.761114.119142"><time><value>2025-04-11T17:51:11.128393Z</value></time><waveformID networkCode="CX" stationCode="PB02" channelCode="HHZ"/><filterID>ITAPER(4)&gt;&gt;BW(4,4,20)</filterID><methodID>AIC</methodID><horizontalSlowness><value>7.401609405205688</value></horizontalSlowness><backazimuth><value>119.43489958765157</value></backazimuth><phaseHint>P</phaseHint><evaluationMode>automatic</evaluationMode><comment><text>29.08791974938197</text><id>DFX:rectilinearity</id></comment><comment><text>28.49278876610065</text><id>SNR</id></comment></pick><pick publicID="de.gempa.tb1.Pick/20250411175123.612492.119144"><time><value>2025-04-11T17:51:18.460001Z</value></time><waveformID networkCode="CX" stationCode="PB19" channelCode="HHZ"/><filterID>ITAPER(4)&gt;&gt;BW(4,4,20)</filterID><methodID>AIC</methodID><horizontalSlowness><value>18.44916680037777</value></horizontalSlowness><backazimuth><value>245.53148282511506</value></backazimuth><phaseHint>P</phaseHint><evaluationMode>automatic</evaluationMode><comment><text>24.07410964216823</text><id>DFX:rectilinearity</id></comment><comment><text>15.53893981429289</text><id>SNR</id></comment></pick><pick publicID="de.gempa.tb1.Pick/20250411175126.862853.119146"><time><value>2025-04-11T17:51:19.768393Z</value></time><waveformID networkCode="CX" stationCode="PB08" channelCode="HHZ"/><filterID>ITAPER(4)&gt;&gt;BW(4,4,20)</filterID><methodID>AIC</methodID><horizontalSlowness><value>17.121894306405576</value></horizontalSlowness><backazimuth><value>79.18472223776109</value></backazimuth><phaseHint>P</phaseHint><evaluationMode>automatic</evaluationMode><comment><text>9.364868201330399</text><id>DFX:rectilinearity</id></comment><comment><text>8.339500272919846</text><id>SNR</id></comment></pick><pick publicID="de.gempa.tb1.Pick/20250411175129.784774.119148"><time><value>2025-04-11T17:51:23.238394Z</value></time><waveformID networkCode="CX" stationCode="PB03" channelCode="HHN"/><filterID>ITAPER(2)&gt;&gt;BW(3,3,20)</filterID><methodID>L2-AIC-GRID</methodID><horizontalSlowness><value>21.974710999538903</value></horizontalSlowness><backazimuth><value>346.25912720809396</value></backazimuth><phaseHint>S</phaseHint><evaluationMode>automatic</evaluationMode><comment><text>257.9915150304654</text><id>DFX:rectilinearity</id></comment><comment><text>de.gempa.tb1.Pick/20250411175112.712083.119132</text><id>RefPickID</id></comment><comment><text>17.193700374238176</text><id>SNR</id></comment></pick><pick publicID="de.gempa.tb1.Pick/20250411175131.706992.119149"><time><value>2025-04-11T17:51:24.558393Z</value></time><waveformID networkCode="CX" stationCode="PB06" channelCode="HHN"/><filterID>ITAPER(2)&gt;&gt;BW(3,3,20)</filterID><methodID>L2-AIC-GRID</methodID><horizontalSlowness><value>21.858691760165136</value></horizontalSlowness><backazimuth><value>325.8606029868739</value></backazimuth><phaseHint>S</phaseHint><evaluationMode>automatic</evaluationMode><comment><text>531.6380118238397</text><id>DFX:rectilinearity</id></comment><comment><text>de.gempa.tb1.Pick/20250411175114.552292.119140</text><id>RefPickID</id></comment><comment><text>9.761194540951657</text><id>SNR</id></comment></pick><pick publicID="de.gempa.tb1.Pick/20250411175136.612499.119150"><time><value>2025-04-11T17:51:28.478393Z</value></time><waveformID networkCode="CX" stationCode="PB01" channelCode="HHN"/><filterID>ITAPER(2)&gt;&gt;BW(3,3,20)</filterID><methodID>L2-AIC-GRID</methodID><horizontalSlowness><value>18.678241699557567</value></horizontalSlowness><backazimuth><value>12.989448361182184</value></backazimuth><phaseHint>S</phaseHint><evaluationMode>automatic</evaluationMode><comment><text>347.3378439631946</text><id>DFX:rectilinearity</id></comment><comment><text>de.gempa.tb1.Pick/20250411175114.546474.119138</text><id>RefPickID</id></comment><comment><text>8.765412651408978</text><id>SNR</id></comment></pick><pick publicID="de.gempa.tb1.Pick/20250411175136.681428.119151"><time><value>2025-04-11T17:51:29.618393Z</value></time><waveformID networkCode="CX" stationCode="PB02" channelCode="HHN"/><filterID>ITAPER(2)&gt;&gt;BW(3,3,20)</filterID><methodID>L2-AIC-GRID</methodID><horizontalSlowness><value>22.587387490689693</value></horizontalSlowness><backazimuth><value>196.65117942355928</value></backazimuth><phaseHint>S</phaseHint><evaluationMode>automatic</evaluationMode><comment><text>318.376109451217</text><id>DFX:rectilinearity</id></comment><comment><text>de.gempa.tb1.Pick/20250411175116.761114.119142</text><id>RefPickID</id></comment><comment><text>6.993462575085452</text><id>SNR</id></comment></pick><pick publicID="de.gempa.tb1.Pick/20250411175138.189877.119154"><time><value>2025-04-11T17:51:17.750001Z</value></time><waveformID networkCode="CX" stationCode="PB09" channelCode="HHN"/><filterID>ITAPER(2)&gt;&gt;BW(3,3,20)</filterID><methodID>L2-AIC-GRID</methodID><horizontalSlowness><value>21.56000427174686</value></horizontalSlowness><backazimuth><value>349.2254737016085</value></backazimuth><phaseHint>S</phaseHint><evaluationMode>automatic</evaluationMode><comment><text>568.0036551785993</text><id>DFX:rectilinearity</id></comment><comment><text>de.gempa.tb1.Pick/20250411175113.392497.119134</text><id>RefPickID</id></comment><comment><text>6.463143865112755</text><id>SNR</id></comment></pick><pick publicID="de.gempa.tb1.Pick/20250411175151.757308.119158"><time><value>2025-04-11T17:51:26.338396Z</value></time><waveformID networkCode="CX" stationCode="PB07" channelCode="HHN"/><filterID>ITAPER(2)&gt;&gt;BW(3,3,20)</filterID><methodID>L2-AIC-GRID</methodID><horizontalSlowness><value>23.503447414601894</value></horizontalSlowness><backazimuth><value>26.125356168779604</value></backazimuth><phaseHint>S</phaseHint><evaluationMode>automatic</evaluationMode><comment><text>7201.343324225855</text><id>DFX:rectilinearity</id></comment><comment><text>de.gempa.tb1.Pick/20250411175113.748851.119136</text><id>RefPickID</id></comment><comment><text>9.439139239948704</text><id>SNR</id></comment></pick><pick publicID="de.gempa.tb1.Pick/20250411175154.531688.119159"><time><value>2025-04-11T17:51:43.340001Z</value></time><waveformID networkCode="CX" stationCode="PB19" channelCode="HHN"/><filterID>ITAPER(2)&gt;&gt;BW(3,3,20)</filterID><methodID>L2-AIC-GRID</methodID><horizontalSlowness><value>19.106547379872616</value></horizontalSlowness><backazimuth><value>58.20639431295928</value></backazimuth><phaseHint>S</phaseHint><evaluationMode>automatic</evaluationMode><comment><text>112.6757605309026</text><id>DFX:rectilinearity</id></comment><comment><text>de.gempa.tb1.Pick/20250411175123.612492.119144</text><id>RefPickID</id></comment><comment><text>9.933281041927431</text><id>SNR</id></comment></pick><origin publicID="de.gempa.tb1.Origin/20250411175154.539733.62431"><time><value>2025-04-11T17:50:46.440323Z</value><uncertainty>0.7201609015464783</uncertainty></time><latitude><value>-22.067514419555664</value><uncertainty>2.8712499141693115</uncertainty></latitude><longitude><value>-68.82432556152344</value><uncertainty>8.713449478149414</uncertainty></longitude><depth><value>118.51367950439453</value><uncertainty>8.350552558898926</uncertainty></depth><depthType>from location</depthType><methodID>LOCSAT</methodID><earthModelID>iasp91_scanloc</earthModelID><quality><associatedPhaseCount>15</associatedPhaseCount><usedPhaseCount>15</usedPhaseCount><associatedStationCount>8</associatedStationCount><usedStationCount>8</usedStationCount><depthPhaseCount>0</depthPhaseCount><standardError>0.4621904457474013</standardError><azimuthalGap>202.30076599121094</azimuthalGap><maximumDistance>1.9412829875946045</maximumDistance><minimumDistance>0.47237828373909</minimumDistance><medianDistance>1.0428591966629028</medianDistance></quality><uncertainty><minHorizontalUncertainty>6.049896717071533</minHorizontalUncertainty><maxHorizontalUncertainty>18.71578598022461</maxHorizontalUncertainty><azimuthMaxHorizontalUncertainty>86.31906127929688</azimuthMaxHorizontalUncertainty><preferredDescription>horizontal uncertainty</preferredDescription></uncertainty><evaluationMode>automatic</evaluationMode><evaluationStatus>confirmed</evaluationStatus><comment><text>0.03</text><id>mismatchScore</id></comment><comment><text>mismatchScore</text><id>scevalMethod</id></comment><arrival><pickID>de.gempa.tb1.Pick/20250411175112.712083.119132</pickID><phase>P</phase><azimuth>271.08673095703125</azimuth><distance>0.8618080615997314</distance><timeResidual>0.10741615295410156</timeResidual><timeUsed>true</timeUsed><horizontalSlownessUsed>false</horizontalSlownessUsed><backazimuthUsed>false</backazimuthUsed><weight>1</weight></arrival><arrival><pickID>de.gempa.tb1.Pick/20250411175113.392497.119134</pickID><phase>P</phase><azimuth>304.7562255859375</azimuth><distance>0.47237828373909</distance><timeResidual>0.0590972900390625</timeResidual><timeUsed>true</timeUsed><horizontalSlownessUsed>false</horizontalSlownessUsed><backazimuthUsed>false</backazimuthUsed><weight>1</weight></arrival><arrival><pickID>de.gempa.tb1.Pick/20250411175113.748851.119136</pickID><phase>P</phase><azimuth>288.7834167480469</azimuth><distance>1.0428591966629028</distance><timeResidual>0.313201904296875</timeResidual><timeUsed>true</timeUsed><horizontalSlownessUsed>false</horizontalSlownessUsed><backazimuthUsed>false</backazimuthUsed><weight>1</weight></arrival><arrival><pickID>de.gempa.tb1.Pick/20250411175114.546474.119138</pickID><phase>P</phase><azimuth>328.6796875</azimuth><distance>1.191589117050171</distance><timeResidual>-0.30797767639160156</timeResidual><timeUsed>true</timeUsed><horizontalSlownessUsed>false</horizontalSlownessUsed><backazimuthUsed>false</backazimuthUsed><weight>1</weight></arrival><arrival><pickID>de.gempa.tb1.Pick/20250411175114.552292.119140</pickID><phase>P</phase><azimuth>227.3028564453125</azimuth><distance>0.9392673373222351</distance><timeResidual>-1.442800521850586</timeResidual><timeUsed>true</timeUsed><horizontalSlownessUsed>false</horizontalSlownessUsed><backazimuthUsed>false</backazimuthUsed><weight>1</weight></arrival><arrival><pickID>de.gempa.tb1.Pick/20250411175116.761114.119142</pickID><phase>P</phase><azimuth>306.546875</azimuth><distance>1.2438381910324097</distance><timeResidual>0.19924354553222656</timeResidual><timeUsed>true</timeUsed><horizontalSlownessUsed>false</horizontalSlownessUsed><backazimuthUsed>false</backazimuthUsed><weight>1</weight></arrival><arrival><pickID>de.gempa.tb1.Pick/20250411175123.612492.119144</pickID><phase>P</phase><azimuth>193.13441467285156</azimuth><distance>1.8784961700439453</distance><timeResidual>0.1219654083251953</timeResidual><timeUsed>true</timeUsed><horizontalSlownessUsed>false</horizontalSlownessUsed><backazimuthUsed>false</backazimuthUsed><weight>1</weight></arrival><arrival><pickID>de.gempa.tb1.Pick/20250411175126.862853.119146</pickID><phase>P</phase><azimuth>350.8336486816406</azimuth><distance>1.9412829875946045</distance><timeResidual>0.6340312957763672</timeResidual><timeUsed>true</timeUsed><horizontalSlownessUsed>false</horizontalSlownessUsed><backazimuthUsed>false</backazimuthUsed><weight>1</weight></arrival><arrival><pickID>de.gempa.tb1.Pick/20250411175129.784774.119148</pickID><phase>S</phase><azimuth>271.08673095703125</azimuth><distance>0.8618080615997314</distance><timeResidual>0.23290061950683594</timeResidual><timeUsed>true</timeUsed><horizontalSlownessUsed>false</horizontalSlownessUsed><backazimuthUsed>false</backazimuthUsed><weight>1</weight></arrival><arrival><pickID>de.gempa.tb1.Pick/20250411175131.706992.119149</pickID><phase>S</phase><azimuth>227.3028564453125</azimuth><distance>0.9392673373222351</distance><timeResidual>0.26793861389160156</timeResidual><timeUsed>true</timeUsed><horizontalSlownessUsed>false</horizontalSlownessUsed><backazimuthUsed>false</backazimuthUsed><weight>1</weight></arrival><arrival><pickID>de.gempa.tb1.Pick/20250411175136.612499.119150</pickID><phase>S</phase><azimuth>328.6796875</azimuth><distance>1.191589117050171</distance><timeResidual>-0.4057502746582031</timeResidual><timeUsed>true</timeUsed><horizontalSlownessUsed>false</horizontalSlownessUsed><backazimuthUsed>false</backazimuthUsed><weight>1</weight></arrival><arrival><pickID>de.gempa.tb1.Pick/20250411175136.681428.119151</pickID><phase>S</phase><azimuth>306.546875</azimuth><distance>1.2438381910324097</distance><timeResidual>-0.2710456848144531</timeResidual><timeUsed>true</timeUsed><horizontalSlownessUsed>false</horizontalSlownessUsed><backazimuthUsed>false</backazimuthUsed><weight>1</weight></arrival><arrival><pickID>de.gempa.tb1.Pick/20250411175138.189877.119154</pickID><phase>S</phase><azimuth>304.7562255859375</azimuth><distance>0.47237828373909</distance><timeResidual>0.07113456726074219</timeResidual><timeUsed>true</timeUsed><horizontalSlownessUsed>false</horizontalSlownessUsed><backazimuthUsed>false</backazimuthUsed><weight>1</weight></arrival><arrival><pickID>de.gempa.tb1.Pick/20250411175151.757308.119158</pickID><phase>S</phase><azimuth>288.7834167480469</azimuth><distance>1.0428591966629028</distance><timeResidual>0.2219562530517578</timeResidual><timeUsed>true</timeUsed><horizontalSlownessUsed>false</horizontalSlownessUsed><backazimuthUsed>false</backazimuthUsed><weight>1</weight></arrival><arrival><pickID>de.gempa.tb1.Pick/20250411175154.531688.119159</pickID><phase>S</phase><azimuth>193.13441467285156</azimuth><distance>1.8784961700439453</distance><timeResidual>0.19905662536621094</timeResidual><timeUsed>true</timeUsed><horizontalSlownessUsed>false</horizontalSlownessUsed><backazimuthUsed>false</backazimuthUsed><weight>1</weight></arrival><magnitude publicID="de.gempa.tb1.Magnitude/20250411175205.939791.126350"><magnitude><value>2.291559979753838</value></magnitude><type>M</type><methodID>weighted average</methodID><stationCount>6</stationCount></magnitude></origin><event publicID="gempa2025hebx"><preferredOriginID>de.gempa.tb1.Origin/20250411175154.539733.62431</preferredOriginID><preferredMagnitudeID>de.gempa.tb1.Magnitude/20250411175205.939791.126350</preferredMagnitudeID><description><text>Northern Chile</text><type>region name</type></description><originReference>de.gempa.tb1.Origin/20250411175154.539733.62431</originReference></event></EventParameters></seiscomp>