<?xml version="1.0" encoding="UTF-8"?>
<seiscomp xmlns="http://geofon.gfz-potsdam.de/ns/seiscomp3-schema/0.13" version="0.13"><EventParameters><pick publicID="de.gempa.tb1.Pick/20250412214054.689577.127014"><time><value>2025-04-12T21:40:49.218393Z</value></time><waveformID networkCode="CX" stationCode="PB15" channelCode="HHZ"/><filterID>ITAPER(4)&gt;&gt;BW(4,4,20)</filterID><methodID>AIC</methodID><horizontalSlowness><value>20.898526458062285</value></horizontalSlowness><backazimuth><value>78.40334656295444</value></backazimuth><phaseHint>P</phaseHint><evaluationMode>automatic</evaluationMode><comment><text>1176.681532246216</text><id>DFX:rectilinearity</id></comment><comment><text>14.448135924139995</text><id>SNR</id></comment></pick><pick publicID="de.gempa.tb1.Pick/20250412214059.56954.127016"><time><value>2025-04-12T21:40:52.948393Z</value></time><waveformID networkCode="CX" stationCode="PB06" channelCode="HHZ"/><filterID>ITAPER(4)&gt;&gt;BW(4,4,20)</filterID><methodID>AIC</methodID><horizontalSlowness><value>18.519453916104926</value></horizontalSlowness><backazimuth><value>131.59908581240617</value></backazimuth><phaseHint>P</phaseHint><evaluationMode>automatic</evaluationMode><comment><text>84.59124527499843</text><id>DFX:rectilinearity</id></comment><comment><text>6.612742000887484</text><id>SNR</id></comment></pick><pick publicID="de.gempa.tb1.Pick/20250412214120.550812.127018"><time><value>2025-04-12T21:41:14.438393Z</value></time><waveformID networkCode="CX" stationCode="PB02" channelCode="HHZ"/><filterID>ITAPER(4)&gt;&gt;BW(4,4,20)</filterID><methodID>AIC</methodID><horizontalSlowness><value>22.18417093403471</value></horizontalSlowness><backazimuth><value>275.027276331107</value></backazimuth><phaseHint>P</phaseHint><evaluationMode>automatic</evaluationMode><comment><text>52.22908362341341</text><id>DFX:rectilinearity</id></comment><comment><text>14.510169425138558</text><id>SNR</id></comment></pick><pick publicID="de.gempa.tb1.Pick/20250412214121.912667.127020"><time><value>2025-04-12T21:41:03.9Z</value></time><waveformID networkCode="CX" stationCode="PB09" channelCode="HHZ"/><filterID>ITAPER(4)&gt;&gt;BW(4,4,20)</filterID><methodID>AIC</methodID><horizontalSlowness><value>17.686655637341243</value></horizontalSlowness><backazimuth><value>295.33752970298497</value></backazimuth><phaseHint>P</phaseHint><evaluationMode>automatic</evaluationMode><comment><text>20.510260076327107</text><id>DFX:rectilinearity</id></comment><comment><text>7.943330774422775</text><id>SNR</id></comment></pick><pick publicID="de.gempa.tb1.Pick/20250412214122.515972.127022"><time><value>2025-04-12T21:41:17.558393Z</value></time><waveformID networkCode="CX" stationCode="PB01" channelCode="HHZ"/><filterID>ITAPER(4)&gt;&gt;BW(4,4,20)</filterID><methodID>AIC</methodID><horizontalSlowness><value>16.378430823309124</value></horizontalSlowness><backazimuth><value>220.66558925554497</value></backazimuth><phaseHint>P</phaseHint><evaluationMode>automatic</evaluationMode><comment><text>20.558693390163047</text><id>DFX:rectilinearity</id></comment><comment><text>9.610735129711163</text><id>SNR</id></comment></pick><pick publicID="de.gempa.tb1.Pick/20250412214235.742306.127027"><time><value>2025-04-12T21:41:08.088393Z</value></time><waveformID networkCode="CX" stationCode="PB07" channelCode="HHZ"/><filterID>ITAPER(4)&gt;&gt;BW(4,4,20)</filterID><methodID>AIC</methodID><horizontalSlowness><value>22.296348132541482</value></horizontalSlowness><backazimuth><value>345.96744764018405</value></backazimuth><phaseHint>P</phaseHint><evaluationMode>automatic</evaluationMode><comment><text>240.0798050465213</text><id>DFX:rectilinearity</id></comment><comment><text>11.095506716407302</text><id>SNR</id></comment></pick><origin publicID="de.gempa.tb1.Origin/20250412214235.746702.93213"><time><value>2025-04-12T21:40:23.367609Z</value><uncertainty>4.0236730575561523</uncertainty></time><latitude><value>-24.250511169433594</value><uncertainty>37.188255310058594</uncertainty></latitude><longitude><value>-68.71094512939453</value><uncertainty>19.7830810546875</uncertainty></longitude><depth><value>0</value></depth><depthType>operator assigned</depthType><methodID>LOCSAT</methodID><earthModelID>iasp91_scanloc</earthModelID><quality><associatedPhaseCount>6</associatedPhaseCount><usedPhaseCount>6</usedPhaseCount><associatedStationCount>6</associatedStationCount><usedStationCount>6</usedStationCount><depthPhaseCount>0</depthPhaseCount><standardError>1.3866283351453792</standardError><azimuthalGap>337.4007873535156</azimuthalGap><maximumDistance>3.271699905395508</maximumDistance><minimumDistance>1.2495343685150146</minimumDistance><medianDistance>2.7355170249938965</medianDistance></quality><uncertainty><minHorizontalUncertainty>33.258960723876953</minHorizontalUncertainty><maxHorizontalUncertainty>84.03083038330078</maxHorizontalUncertainty><azimuthMaxHorizontalUncertainty>19.9809627532959</azimuthMaxHorizontalUncertainty><preferredDescription>horizontal uncertainty</preferredDescription></uncertainty><evaluationMode>automatic</evaluationMode><evaluationStatus>confirmed</evaluationStatus><comment><text>0.48</text><id>mismatchScore</id></comment><comment><text>mismatchScore</text><id>scevalMethod</id></comment><arrival><pickID>de.gempa.tb1.Pick/20250412214054.689577.127014</pickID><phase>P</phase><azimuth>325.97222900390625</azimuth><distance>1.2495343685150146</distance><timeResidual>1.884357452392578</timeResidual><timeUsed>true</timeUsed><horizontalSlownessUsed>false</horizontalSlownessUsed><backazimuthUsed>false</backazimuthUsed><weight>1</weight></arrival><arrival><pickID>de.gempa.tb1.Pick/20250412214059.56954.127016</pickID><phase>P</phase><azimuth>332.6206359863281</azimuth><distance>1.7289077043533325</distance><timeResidual>-1.7341461181640625</timeResidual><timeUsed>true</timeUsed><horizontalSlownessUsed>false</horizontalSlownessUsed><backazimuthUsed>false</backazimuthUsed><weight>1</weight></arrival><arrival><pickID>de.gempa.tb1.Pick/20250412214120.550812.127018</pickID><phase>P</phase><azimuth>339.21612548828125</azimuth><distance>3.115234375</distance><timeResidual>0.6756114959716797</timeResidual><timeUsed>true</timeUsed><horizontalSlownessUsed>false</horizontalSlownessUsed><backazimuthUsed>false</backazimuthUsed><weight>1</weight></arrival><arrival><pickID>de.gempa.tb1.Pick/20250412214121.912667.127020</pickID><phase>P</phase><azimuth>348.5714416503906</azimuth><distance>2.4911818504333496</distance><timeResidual>-1.2741470336914062</timeResidual><timeUsed>true</timeUsed><horizontalSlownessUsed>false</horizontalSlownessUsed><backazimuthUsed>false</backazimuthUsed><weight>1</weight></arrival><arrival><pickID>de.gempa.tb1.Pick/20250412214122.515972.127022</pickID><phase>P</phase><azimuth>347.1851806640625</azimuth><distance>3.271699905395508</distance><timeResidual>1.642375946044922</timeResidual><timeUsed>true</timeUsed><horizontalSlownessUsed>false</horizontalSlownessUsed><backazimuthUsed>false</backazimuthUsed><weight>1</weight></arrival><arrival><pickID>de.gempa.tb1.Pick/20250412214235.742306.127027</pickID><phase>P</phase><azimuth>336.447509765625</azimuth><distance>2.7355170249938965</distance><timeResidual>-0.44840049743652344</timeResidual><timeUsed>true</timeUsed><horizontalSlownessUsed>false</horizontalSlownessUsed><backazimuthUsed>false</backazimuthUsed><weight>1</weight></arrival><magnitude publicID="de.gempa.tb1.Magnitude/20250412214235.752815.286246"><magnitude><value>2.7998593618571146</value></magnitude><type>M</type><methodID>weighted average</methodID><stationCount>5</stationCount></magnitude></origin><event publicID="gempa2025hgfo"><preferredOriginID>de.gempa.tb1.Origin/20250412214235.746702.93213</preferredOriginID><preferredMagnitudeID>de.gempa.tb1.Magnitude/20250412214235.752815.286246</preferredMagnitudeID><description><text>Chile-Argentina Border Region</text><type>region name</type></description><originReference>de.gempa.tb1.Origin/20250412214235.746702.93213</originReference></event></EventParameters></seiscomp>