<?xml version="1.0" encoding="UTF-8"?>
<seiscomp xmlns="http://geofon.gfz-potsdam.de/ns/seiscomp3-schema/0.13" version="0.13"><EventParameters><pick publicID="de.gempa.tb1.Pick/20250412072046.568679.122678"><time><value>2025-04-12T07:20:36.218393Z</value></time><waveformID networkCode="CX" stationCode="PB01" channelCode="HHZ"/><filterID>ITAPER(4)&gt;&gt;BW(4,4,20)</filterID><methodID>AIC</methodID><horizontalSlowness><value>7.434114607120011</value></horizontalSlowness><backazimuth><value>148.70071939596636</value></backazimuth><phaseHint>P</phaseHint><evaluationMode>automatic</evaluationMode><comment><text>5.209397257122276</text><id>DFX:rectilinearity</id></comment><comment><text>22.34445663650219</text><id>SNR</id></comment></pick><pick publicID="de.gempa.tb1.Pick/20250412072048.556534.122680"><time><value>2025-04-12T07:20:40.018393Z</value></time><waveformID networkCode="CX" stationCode="PB02" channelCode="HHZ"/><filterID>ITAPER(4)&gt;&gt;BW(4,4,20)</filterID><methodID>AIC</methodID><horizontalSlowness><value>9.288962052213613</value></horizontalSlowness><backazimuth><value>76.8833899965192</value></backazimuth><phaseHint>P</phaseHint><evaluationMode>automatic</evaluationMode><comment><text>28.831248165085825</text><id>DFX:rectilinearity</id></comment><comment><text>18.79436070097018</text><id>SNR</id></comment></pick><pick publicID="de.gempa.tb1.Pick/20250412072055.520826.122682"><time><value>2025-04-12T07:20:48.49Z</value></time><waveformID networkCode="CX" stationCode="PSGCX" channelCode="HHZ"/><filterID>ITAPER(4)&gt;&gt;BW(4,4,20)</filterID><methodID>AIC</methodID><horizontalSlowness><value>13.67214337203167</value></horizontalSlowness><backazimuth><value>165.71292526241336</value></backazimuth><phaseHint>P</phaseHint><evaluationMode>automatic</evaluationMode><comment><text>17.329721906507242</text><id>DFX:rectilinearity</id></comment><comment><text>16.849934769731348</text><id>SNR</id></comment></pick><pick publicID="de.gempa.tb1.Pick/20250412072107.775004.122684"><time><value>2025-04-12T07:20:40.318391Z</value></time><waveformID networkCode="CX" stationCode="PB07" channelCode="HHZ"/><filterID>ITAPER(4)&gt;&gt;BW(4,4,20)</filterID><methodID>AIC</methodID><horizontalSlowness><value>22.78657171986246</value></horizontalSlowness><backazimuth><value>221.21807303309555</value></backazimuth><phaseHint>P</phaseHint><evaluationMode>automatic</evaluationMode><comment><text>148.18352766805054</text><id>DFX:rectilinearity</id></comment><comment><text>14.871419049803063</text><id>SNR</id></comment></pick><pick publicID="de.gempa.tb1.Pick/20250412072109.571533.122686"><time><value>2025-04-12T07:21:01.398393Z</value></time><waveformID networkCode="CX" stationCode="PB01" channelCode="HHN"/><filterID>ITAPER(2)&gt;&gt;BW(3,3,20)</filterID><methodID>L2-AIC-GRID</methodID><horizontalSlowness><value>18.255255244946191</value></horizontalSlowness><backazimuth><value>18.371307330646516</value></backazimuth><phaseHint>S</phaseHint><evaluationMode>automatic</evaluationMode><comment><text>7.397097023072394</text><id>DFX:rectilinearity</id></comment><comment><text>de.gempa.tb1.Pick/20250412072046.568679.122678</text><id>RefPickID</id></comment><comment><text>6.417117079660563</text><id>SNR</id></comment></pick><origin publicID="de.gempa.tb1.Origin/20250412072109.574362.77480"><time><value>2025-04-12T07:20:04.115057Z</value><uncertainty>2.2348847389221191</uncertainty></time><latitude><value>-21.2209529876709</value><uncertainty>14.496193885803223</uncertainty></latitude><longitude><value>-67.9187240600586</value><uncertainty>46.05159759521484</uncertainty></longitude><depth><value>184.06072998046875</value><uncertainty>33.595970153808594</uncertainty></depth><depthType>from location</depthType><methodID>LOCSAT</methodID><earthModelID>iasp91_scanloc</earthModelID><quality><associatedPhaseCount>5</associatedPhaseCount><usedPhaseCount>5</usedPhaseCount><associatedStationCount>4</associatedStationCount><usedStationCount>4</usedStationCount><depthPhaseCount>0</depthPhaseCount><standardError>0.08213734754903682</standardError><azimuthalGap>306.67222595214844</azimuthalGap><maximumDistance>2.623847961425781</maximumDistance><minimumDistance>1.4750840663909912</minimumDistance><medianDistance>1.8468321561813354</medianDistance></quality><uncertainty><minHorizontalUncertainty>30.557355880737305</minHorizontalUncertainty><maxHorizontalUncertainty>98.93209838867188</maxHorizontalUncertainty><azimuthMaxHorizontalUncertainty>86.5094223022461</azimuthMaxHorizontalUncertainty><preferredDescription>horizontal uncertainty</preferredDescription></uncertainty><evaluationMode>automatic</evaluationMode><comment><text>0.63</text><id>mismatchScore</id></comment><arrival><pickID>de.gempa.tb1.Pick/20250412072046.568679.122678</pickID><phase>P</phase><azimuth>276.6038513183594</azimuth><distance>1.4750840663909912</distance><timeResidual>0.0025634765625</timeResidual><timeUsed>true</timeUsed><horizontalSlownessUsed>false</horizontalSlownessUsed><backazimuthUsed>false</backazimuthUsed><weight>1</weight></arrival><arrival><pickID>de.gempa.tb1.Pick/20250412072048.556534.122680</pickID><phase>P</phase><azimuth>266.5929870605469</azimuth><distance>1.8468321561813354</distance><timeResidual>0.14450836181640625</timeResidual><timeUsed>true</timeUsed><horizontalSlownessUsed>false</horizontalSlownessUsed><backazimuthUsed>false</backazimuthUsed><weight>1</weight></arrival><arrival><pickID>de.gempa.tb1.Pick/20250412072055.520826.122682</pickID><phase>P</phase><azimuth>307.61566162109375</azimuth><distance>2.623847961425781</distance><timeResidual>-0.02890777587890625</timeResidual><timeUsed>true</timeUsed><horizontalSlownessUsed>false</horizontalSlownessUsed><backazimuthUsed>false</backazimuthUsed><weight>1</weight></arrival><arrival><pickID>de.gempa.tb1.Pick/20250412072107.775004.122684</pickID><phase>P</phase><azimuth>254.2878875732422</azimuth><distance>1.900342345237732</distance><timeResidual>-0.10921478271484375</timeResidual><timeUsed>true</timeUsed><horizontalSlownessUsed>false</horizontalSlownessUsed><backazimuthUsed>false</backazimuthUsed><weight>1</weight></arrival><arrival><pickID>de.gempa.tb1.Pick/20250412072109.571533.122686</pickID><phase>S</phase><azimuth>276.6038513183594</azimuth><distance>1.4750840663909912</distance><timeResidual>-0.008941650390625</timeResidual><timeUsed>true</timeUsed><horizontalSlownessUsed>false</horizontalSlownessUsed><backazimuthUsed>false</backazimuthUsed><weight>1</weight></arrival><magnitude publicID="de.gempa.tb1.Magnitude/20250412072200.919893.192139"><magnitude><value>2.7032785239706696</value></magnitude><type>M</type><methodID>weighted average</methodID><stationCount>2</stationCount></magnitude></origin><event publicID="gempa2025hfcw"><preferredOriginID>de.gempa.tb1.Origin/20250412072109.574362.77480</preferredOriginID><preferredMagnitudeID>de.gempa.tb1.Magnitude/20250412072200.919893.192139</preferredMagnitudeID><typeCertainty>suspected</typeCertainty><description><text>Chile-Bolivia Border Region</text><type>region name</type></description><originReference>de.gempa.tb1.Origin/20250412072109.574362.77480</originReference></event></EventParameters></seiscomp>