<?xml version="1.0" encoding="UTF-8"?>
<seiscomp xmlns="http://geofon.gfz-potsdam.de/ns/seiscomp3-schema/0.13" version="0.13"><EventParameters><pick publicID="de.gempa.tb1.Pick/20250414151914.64849.138819"><time><value>2025-04-14T15:19:09.678393Z</value></time><waveformID networkCode="CX" stationCode="PB16" channelCode="HHZ"/><filterID>ITAPER(4)&gt;&gt;BW(4,4,20)</filterID><methodID>AIC</methodID><horizontalSlowness><value>3.9772510216838275</value></horizontalSlowness><backazimuth><value>350.03524469984904</value></backazimuth><phaseHint>P</phaseHint><evaluationMode>automatic</evaluationMode><comment><text>644.4768171737174</text><id>DFX:rectilinearity</id></comment><comment><text>281.9764095743124</text><id>SNR</id></comment></pick><pick publicID="de.gempa.tb1.Pick/20250414151927.55388.138821"><time><value>2025-04-14T15:19:21.54Z</value></time><waveformID networkCode="CX" stationCode="PSGCX" channelCode="HHZ"/><filterID>ITAPER(4)&gt;&gt;BW(4,4,20)</filterID><methodID>AIC</methodID><horizontalSlowness><value>13.678353249126527</value></horizontalSlowness><backazimuth><value>6.237968929713816</value></backazimuth><phaseHint>P</phaseHint><evaluationMode>automatic</evaluationMode><comment><text>76.94557505987335</text><id>DFX:rectilinearity</id></comment><comment><text>32.190734682784516</text><id>SNR</id></comment></pick><pick publicID="de.gempa.tb1.Pick/20250414151935.138523.138823"><time><value>2025-04-14T15:19:29.308393Z</value></time><waveformID networkCode="CX" stationCode="PB08" channelCode="HHZ"/><filterID>ITAPER(4)&gt;&gt;BW(4,4,20)</filterID><methodID>AIC</methodID><horizontalSlowness><value>11.830133981787482</value></horizontalSlowness><backazimuth><value>267.78728784348687</value></backazimuth><phaseHint>P</phaseHint><evaluationMode>automatic</evaluationMode><comment><text>61.54425863912463</text><id>DFX:rectilinearity</id></comment><comment><text>61.57282884449665</text><id>SNR</id></comment></pick><pick publicID="de.gempa.tb1.Pick/20250414151936.513553.138825"><time><value>2025-04-14T15:19:28.638393Z</value></time><waveformID networkCode="CX" stationCode="PB16" channelCode="HHN"/><filterID>ITAPER(2)&gt;&gt;BW(3,3,20)</filterID><methodID>L2-AIC-GRID</methodID><horizontalSlowness><value>23.040029863488503</value></horizontalSlowness><backazimuth><value>192.26580316302542</value></backazimuth><phaseHint>S</phaseHint><evaluationMode>automatic</evaluationMode><comment><text>12321.72767653618</text><id>DFX:rectilinearity</id></comment><comment><text>de.gempa.tb1.Pick/20250414151914.64849.138819</text><id>RefPickID</id></comment><comment><text>8.825496683525353</text><id>SNR</id></comment></pick><pick publicID="de.gempa.tb1.Pick/20250414151944.492588.138827"><time><value>2025-04-14T15:19:36.259999Z</value></time><waveformID networkCode="CX" stationCode="PATCX" channelCode="HHZ"/><filterID>ITAPER(4)&gt;&gt;BW(4,4,20)</filterID><methodID>AIC</methodID><horizontalSlowness><value>18.447285304407266</value></horizontalSlowness><backazimuth><value>45.20826377628367</value></backazimuth><phaseHint>P</phaseHint><evaluationMode>automatic</evaluationMode><comment><text>93.00203687419877</text><id>DFX:rectilinearity</id></comment><comment><text>8.976022032187647</text><id>SNR</id></comment></pick><pick publicID="de.gempa.tb1.Pick/20250414151946.549464.138829"><time><value>2025-04-14T15:19:38.738393Z</value></time><waveformID networkCode="CX" stationCode="PB01" channelCode="HHZ"/><filterID>ITAPER(4)&gt;&gt;BW(4,4,20)</filterID><methodID>AIC</methodID><horizontalSlowness><value>12.24962065917081</value></horizontalSlowness><backazimuth><value>358.10746563968104</value></backazimuth><phaseHint>P</phaseHint><evaluationMode>automatic</evaluationMode><comment><text>245.9235597679134</text><id>DFX:rectilinearity</id></comment><comment><text>67.32076157052943</text><id>SNR</id></comment></pick><pick publicID="de.gempa.tb1.Pick/20250414151948.51966.138833"><time><value>2025-04-14T15:19:43.078394Z</value></time><waveformID networkCode="CX" stationCode="PB02" channelCode="HHZ"/><filterID>ITAPER(4)&gt;&gt;BW(4,4,20)</filterID><methodID>AIC</methodID><horizontalSlowness><value>7.695965779374863</value></horizontalSlowness><backazimuth><value>357.76302077145385</value></backazimuth><phaseHint>P</phaseHint><evaluationMode>automatic</evaluationMode><comment><text>87.45214414871465</text><id>DFX:rectilinearity</id></comment><comment><text>27.480292241546824</text><id>SNR</id></comment></pick><pick publicID="de.gempa.tb1.Pick/20250414151953.855125.138835"><time><value>2025-04-14T15:19:47.43Z</value></time><waveformID networkCode="CX" stationCode="PSGCX" channelCode="HHN"/><filterID>ITAPER(2)&gt;&gt;BW(3,3,20)</filterID><methodID>L2-AIC-GRID</methodID><horizontalSlowness><value>17.36672379634047</value></horizontalSlowness><backazimuth><value>160.28183396400578</value></backazimuth><phaseHint>S</phaseHint><evaluationMode>automatic</evaluationMode><comment><text>3958.2695002858336</text><id>DFX:rectilinearity</id></comment><comment><text>de.gempa.tb1.Pick/20250414151927.55388.138821</text><id>RefPickID</id></comment><comment><text>12.53573360407289</text><id>SNR</id></comment></pick><pick publicID="de.gempa.tb1.Pick/20250414151956.412447.138837"><time><value>2025-04-14T15:19:51.808393Z</value></time><waveformID networkCode="CX" stationCode="PB03" channelCode="HHZ"/><filterID>ITAPER(4)&gt;&gt;BW(4,4,20)</filterID><methodID>AIC</methodID><horizontalSlowness><value>12.472706746995007</value></horizontalSlowness><backazimuth><value>357.46247996088175</value></backazimuth><phaseHint>P</phaseHint><evaluationMode>automatic</evaluationMode><comment><text>57.21768175525083</text><id>DFX:rectilinearity</id></comment><comment><text>27.29717493258545</text><id>SNR</id></comment></pick><pick publicID="de.gempa.tb1.Pick/20250414152000.960984.138839"><time><value>2025-04-14T15:19:49.35Z</value></time><waveformID networkCode="CX" stationCode="PB09" channelCode="HHZ"/><filterID>ITAPER(4)&gt;&gt;BW(4,4,20)</filterID><methodID>AIC</methodID><horizontalSlowness><value>20.872641281631168</value></horizontalSlowness><backazimuth><value>91.33298313058035</value></backazimuth><phaseHint>P</phaseHint><evaluationMode>automatic</evaluationMode><comment><text>40.32897722918999</text><id>DFX:rectilinearity</id></comment><comment><text>54.75274174282088</text><id>SNR</id></comment></pick><pick publicID="de.gempa.tb1.Pick/20250414152004.504779.138843"><time><value>2025-04-14T15:19:59.778393Z</value></time><waveformID networkCode="CX" stationCode="PB06" channelCode="HHZ"/><filterID>ITAPER(4)&gt;&gt;BW(4,4,20)</filterID><methodID>AIC</methodID><horizontalSlowness><value>4.0183308892017964</value></horizontalSlowness><backazimuth><value>304.1191784018096</value></backazimuth><phaseHint>P</phaseHint><evaluationMode>automatic</evaluationMode><comment><text>66.39543385295315</text><id>DFX:rectilinearity</id></comment><comment><text>25.26138936652273</text><id>SNR</id></comment></pick><pick publicID="de.gempa.tb1.Pick/20250414152006.73127.138845"><time><value>2025-04-14T15:20:00.688393Z</value></time><waveformID networkCode="CX" stationCode="PB08" channelCode="HHN"/><filterID>ITAPER(2)&gt;&gt;BW(3,3,20)</filterID><methodID>L2-AIC-GRID</methodID><horizontalSlowness><value>14.76921608310065</value></horizontalSlowness><backazimuth><value>211.0089700657448</value></backazimuth><phaseHint>S</phaseHint><evaluationMode>automatic</evaluationMode><comment><text>4051.850050270186</text><id>DFX:rectilinearity</id></comment><comment><text>de.gempa.tb1.Pick/20250414151935.138523.138823</text><id>RefPickID</id></comment><comment><text>9.966415807298718</text><id>SNR</id></comment></pick><pick publicID="de.gempa.tb1.Pick/20250414152013.646219.138846"><time><value>2025-04-14T15:20:06.808394Z</value></time><waveformID networkCode="CX" stationCode="PB15" channelCode="HHZ"/><filterID>ITAPER(4)&gt;&gt;BW(4,4,20)</filterID><methodID>AIC</methodID><horizontalSlowness><value>20.062977585969538</value></horizontalSlowness><backazimuth><value>83.80969610134258</value></backazimuth><phaseHint>P</phaseHint><evaluationMode>automatic</evaluationMode><comment><text>24508.89599815661</text><id>DFX:rectilinearity</id></comment><comment><text>15.570619541918736</text><id>SNR</id></comment></pick><pick publicID="de.gempa.tb1.Pick/20250414152019.204742.138848"><time><value>2025-04-14T15:20:10.3Z</value></time><waveformID networkCode="CX" stationCode="PB10" channelCode="HHZ"/><filterID>ITAPER(4)&gt;&gt;BW(4,4,20)</filterID><methodID>AIC</methodID><horizontalSlowness><value>8.676594423524604</value></horizontalSlowness><backazimuth><value>12.775570633323724</value></backazimuth><phaseHint>P</phaseHint><evaluationMode>automatic</evaluationMode><comment><text>57.4054619467447</text><id>DFX:rectilinearity</id></comment><comment><text>12.016697680747788</text><id>SNR</id></comment></pick><pick publicID="de.gempa.tb1.Pick/20250414152023.331958.138850"><time><value>2025-04-14T15:20:13.159999Z</value></time><waveformID networkCode="CX" stationCode="PATCX" channelCode="HHN"/><filterID>ITAPER(2)&gt;&gt;BW(3,3,20)</filterID><methodID>L2-AIC-GRID</methodID><horizontalSlowness><value>8.194132607530275</value></horizontalSlowness><backazimuth><value>346.4307075654216</value></backazimuth><phaseHint>S</phaseHint><evaluationMode>automatic</evaluationMode><comment><text>509.9917426181499</text><id>DFX:rectilinearity</id></comment><comment><text>de.gempa.tb1.Pick/20250414151944.492588.138827</text><id>RefPickID</id></comment><comment><text>9.585733071370239</text><id>SNR</id></comment></pick><pick publicID="de.gempa.tb1.Pick/20250414152023.598786.138851"><time><value>2025-04-14T15:20:15.94Z</value></time><waveformID networkCode="CX" stationCode="PB19" channelCode="HHZ"/><filterID>ITAPER(4)&gt;&gt;BW(4,4,20)</filterID><methodID>AIC</methodID><horizontalSlowness><value>8.994147659733004</value></horizontalSlowness><backazimuth><value>29.56787822820482</value></backazimuth><phaseHint>P</phaseHint><evaluationMode>automatic</evaluationMode><comment><text>69.41985018514985</text><id>DFX:rectilinearity</id></comment><comment><text>13.745410608515193</text><id>SNR</id></comment></pick><pick publicID="de.gempa.tb1.Pick/20250414152028.65997.138853"><time><value>2025-04-14T15:20:17.168393Z</value></time><waveformID networkCode="CX" stationCode="PB01" channelCode="HHN"/><filterID>ITAPER(2)&gt;&gt;BW(3,3,20)</filterID><methodID>L2-AIC-GRID</methodID><horizontalSlowness><value>23.174632540985534</value></horizontalSlowness><backazimuth><value>83.98006214755279</value></backazimuth><phaseHint>S</phaseHint><evaluationMode>automatic</evaluationMode><comment><text>4295.128602566181</text><id>DFX:rectilinearity</id></comment><comment><text>de.gempa.tb1.Pick/20250414151946.549464.138829</text><id>RefPickID</id></comment><comment><text>20.212568534607183</text><id>SNR</id></comment></pick><pick publicID="de.gempa.tb1.Pick/20250414152029.876314.138854"><time><value>2025-04-14T15:19:47.878396Z</value></time><waveformID networkCode="CX" stationCode="PB07" channelCode="HHZ"/><filterID>ITAPER(4)&gt;&gt;BW(4,4,20)</filterID><methodID>AIC</methodID><horizontalSlowness><value>22.95814005132364</value></horizontalSlowness><backazimuth><value>259.2912533775057</value></backazimuth><phaseHint>P</phaseHint><evaluationMode>automatic</evaluationMode><comment><text>361.0290501524505</text><id>DFX:rectilinearity</id></comment><comment><text>45.21280924287355</text><id>SNR</id></comment></pick><pick publicID="de.gempa.tb1.Pick/20250414152031.593302.138856"><time><value>2025-04-14T15:20:23.118394Z</value></time><waveformID networkCode="CX" stationCode="PB02" channelCode="HHN"/><filterID>ITAPER(2)&gt;&gt;BW(3,3,20)</filterID><methodID>L2-AIC-GRID</methodID><horizontalSlowness><value>19.049628920127041</value></horizontalSlowness><backazimuth><value>84.52297521226875</value></backazimuth><phaseHint>S</phaseHint><evaluationMode>automatic</evaluationMode><comment><text>1874.0953922958247</text><id>DFX:rectilinearity</id></comment><comment><text>de.gempa.tb1.Pick/20250414151948.51966.138833</text><id>RefPickID</id></comment><comment><text>17.763081307362619</text><id>SNR</id></comment></pick><origin publicID="de.gempa.tb1.Origin/20250414152034.973835.141710"><time><value>2025-04-14T15:18:48.680201Z</value><uncertainty>0.7840431928634644</uncertainty></time><latitude><value>-17.838611602783203</value><uncertainty>5.30826473236084</uncertainty></latitude><longitude><value>-69.87442016601562</value><uncertainty>11.868249893188477</uncertainty></longitude><depth><value>154.25079345703125</value><uncertainty>5.217246055603027</uncertainty></depth><depthType>from location</depthType><methodID>LOCSAT</methodID><earthModelID>iasp91_scanloc</earthModelID><quality><associatedPhaseCount>19</associatedPhaseCount><usedPhaseCount>19</usedPhaseCount><associatedStationCount>13</associatedStationCount><usedStationCount>13</usedStationCount><depthPhaseCount>0</depthPhaseCount><standardError>0.6469811380241393</standardError><azimuthalGap>317.18341064453125</azimuthalGap><maximumDistance>6.06044340133667</maximumDistance><minimumDistance>0.6045964956283569</minimumDistance><medianDistance>3.2087321281433105</medianDistance></quality><uncertainty><minHorizontalUncertainty>10.932279586791992</minHorizontalUncertainty><maxHorizontalUncertainty>25.64193534851074</maxHorizontalUncertainty><azimuthMaxHorizontalUncertainty>97.84159851074219</azimuthMaxHorizontalUncertainty><preferredDescription>horizontal uncertainty</preferredDescription></uncertainty><evaluationMode>automatic</evaluationMode><evaluationStatus>confirmed</evaluationStatus><comment><text>0.00</text><id>mismatchScore</id></comment><comment><text>mismatchScore</text><id>scevalMethod</id></comment><arrival><pickID>de.gempa.tb1.Pick/20250414151914.64849.138819</pickID><phase>P</phase><azimuth>144.8163604736328</azimuth><distance>0.6045964956283569</distance><timeResidual>-1.378570556640625</timeResidual><timeUsed>true</timeUsed><horizontalSlownessUsed>false</horizontalSlownessUsed><backazimuthUsed>false</backazimuthUsed><weight>1</weight></arrival><arrival><pickID>de.gempa.tb1.Pick/20250414151927.55388.138821</pickID><phase>P</phase><azimuth>187.63294982910156</azimuth><distance>1.7649896144866943</distance><timeResidual>0.1345062255859375</timeResidual><timeUsed>true</timeUsed><horizontalSlownessUsed>false</horizontalSlownessUsed><backazimuthUsed>false</backazimuthUsed><weight>1</weight></arrival><arrival><pickID>de.gempa.tb1.Pick/20250414151935.138523.138823</pickID><phase>P</phase><azimuth>163.52719116210938</azimuth><distance>2.3897767066955566</distance><timeResidual>0.6415023803710938</timeResidual><timeUsed>true</timeUsed><horizontalSlownessUsed>false</horizontalSlownessUsed><backazimuthUsed>false</backazimuthUsed><weight>1</weight></arrival><arrival><pickID>de.gempa.tb1.Pick/20250414151936.513553.138825</pickID><phase>S</phase><azimuth>144.8163604736328</azimuth><distance>0.6045964956283569</distance><timeResidual>0.190277099609375</timeResidual><timeUsed>true</timeUsed><horizontalSlownessUsed>false</horizontalSlownessUsed><backazimuthUsed>false</backazimuthUsed><weight>1</weight></arrival><arrival><pickID>de.gempa.tb1.Pick/20250414151944.492588.138827</pickID><phase>P</phase><azimuth>185.02029418945312</azimuth><distance>2.9781057834625244</distance><timeResidual>0.33168601989746094</timeResidual><timeUsed>true</timeUsed><horizontalSlownessUsed>false</horizontalSlownessUsed><backazimuthUsed>false</backazimuthUsed><weight>1</weight></arrival><arrival><pickID>de.gempa.tb1.Pick/20250414151946.549464.138829</pickID><phase>P</phase><azimuth>173.5274658203125</azimuth><distance>3.2087321281433105</distance><timeResidual>-0.1184864044189453</timeResidual><timeUsed>true</timeUsed><horizontalSlownessUsed>false</horizontalSlownessUsed><backazimuthUsed>false</backazimuthUsed><weight>1</weight></arrival><arrival><pickID>de.gempa.tb1.Pick/20250414151948.51966.138833</pickID><phase>P</phase><azimuth>180.33351135253906</azimuth><distance>3.4630751609802246</distance><timeResidual>0.970855712890625</timeResidual><timeUsed>true</timeUsed><horizontalSlownessUsed>false</horizontalSlownessUsed><backazimuthUsed>false</backazimuthUsed><weight>1</weight></arrival><arrival><pickID>de.gempa.tb1.Pick/20250414151953.855125.138835</pickID><phase>S</phase><azimuth>187.63294982910156</azimuth><distance>1.7649896144866943</distance><timeResidual>0.486663818359375</timeResidual><timeUsed>true</timeUsed><horizontalSlownessUsed>false</horizontalSlownessUsed><backazimuthUsed>false</backazimuthUsed><weight>1</weight></arrival><arrival><pickID>de.gempa.tb1.Pick/20250414151956.412447.138837</pickID><phase>P</phase><azimuth>178.45921325683594</azimuth><distance>4.189750671386719</distance><timeResidual>0.3002433776855469</timeResidual><timeUsed>true</timeUsed><horizontalSlownessUsed>false</horizontalSlownessUsed><backazimuthUsed>false</backazimuthUsed><weight>1</weight></arrival><arrival><pickID>de.gempa.tb1.Pick/20250414152000.960984.138839</pickID><phase>P</phase><azimuth>171.50442504882812</azimuth><distance>3.982080936431885</distance><timeResidual>0.5507354736328125</timeResidual><timeUsed>true</timeUsed><horizontalSlownessUsed>false</horizontalSlownessUsed><backazimuthUsed>false</backazimuthUsed><weight>1</weight></arrival><arrival><pickID>de.gempa.tb1.Pick/20250414152004.504779.138843</pickID><phase>P</phase><azimuth>176.69432067871094</azimuth><distance>4.850706577301025</distance><timeResidual>-0.40387725830078125</timeResidual><timeUsed>true</timeUsed><horizontalSlownessUsed>false</horizontalSlownessUsed><backazimuthUsed>false</backazimuthUsed><weight>1</weight></arrival><arrival><pickID>de.gempa.tb1.Pick/20250414152006.73127.138845</pickID><phase>S</phase><azimuth>163.52719116210938</azimuth><distance>2.3897767066955566</distance><timeResidual>0.7397346496582031</timeResidual><timeUsed>true</timeUsed><horizontalSlownessUsed>false</horizontalSlownessUsed><backazimuthUsed>false</backazimuthUsed><weight>1</weight></arrival><arrival><pickID>de.gempa.tb1.Pick/20250414152013.646219.138846</pickID><phase>P</phase><azimuth>176.0196990966797</azimuth><distance>5.355935096740723</distance><timeResidual>-0.05535507202148438</timeResidual><timeUsed>true</timeUsed><horizontalSlownessUsed>false</horizontalSlownessUsed><backazimuthUsed>false</backazimuthUsed><weight>1</weight></arrival><arrival><pickID>de.gempa.tb1.Pick/20250414152019.204742.138848</pickID><phase>P</phase><azimuth>186.31407165527344</azimuth><distance>5.681979179382324</distance><timeResidual>-0.8933677673339844</timeResidual><timeUsed>true</timeUsed><horizontalSlownessUsed>false</horizontalSlownessUsed><backazimuthUsed>false</backazimuthUsed><weight>1</weight></arrival><arrival><pickID>de.gempa.tb1.Pick/20250414152023.331958.138850</pickID><phase>S</phase><azimuth>185.02029418945312</azimuth><distance>2.9781057834625244</distance><timeResidual>0.2003021240234375</timeResidual><timeUsed>true</timeUsed><horizontalSlownessUsed>false</horizontalSlownessUsed><backazimuthUsed>false</backazimuthUsed><weight>1</weight></arrival><arrival><pickID>de.gempa.tb1.Pick/20250414152023.598786.138851</pickID><phase>P</phase><azimuth>174.9329376220703</azimuth><distance>6.06044340133667</distance><timeResidual>-0.284515380859375</timeResidual><timeUsed>true</timeUsed><horizontalSlownessUsed>false</horizontalSlownessUsed><backazimuthUsed>false</backazimuthUsed><weight>1</weight></arrival><arrival><pickID>de.gempa.tb1.Pick/20250414152028.65997.138853</pickID><phase>S</phase><azimuth>173.5274658203125</azimuth><distance>3.2087321281433105</distance><timeResidual>-1.0439682006835938</timeResidual><timeUsed>true</timeUsed><horizontalSlownessUsed>false</horizontalSlownessUsed><backazimuthUsed>false</backazimuthUsed><weight>1</weight></arrival><arrival><pickID>de.gempa.tb1.Pick/20250414152029.876314.138854</pickID><phase>P</phase><azimuth>180.16204833984375</azimuth><distance>3.8679726123809814</distance><timeResidual>0.5573