<?xml version="1.0" encoding="UTF-8"?>
<seiscomp xmlns="http://geofon.gfz-potsdam.de/ns/seiscomp3-schema/0.13" version="0.13"><EventParameters><pick publicID="de.gempa.tb1.Pick/20250415064041.627319.117682"><time><value>2025-04-15T06:40:35.418393Z</value></time><waveformID networkCode="CX" stationCode="PB02" channelCode="HHZ"/><filterID>ITAPER(4)&gt;&gt;BW(4,4,20)</filterID><methodID>AIC</methodID><horizontalSlowness><value>19.908635706395202</value></horizontalSlowness><backazimuth><value>358.1364673617751</value></backazimuth><phaseHint>P</phaseHint><evaluationMode>automatic</evaluationMode><comment><text>158.71061169468913</text><id>DFX:rectilinearity</id></comment><comment><text>9.864867628984285</text><id>SNR</id></comment></pick><pick publicID="de.gempa.tb1.Pick/20250415064042.635113.117684"><time><value>2025-04-15T06:40:34.398393Z</value></time><waveformID networkCode="CX" stationCode="PB03" channelCode="HHZ"/><filterID>ITAPER(4)&gt;&gt;BW(4,4,20)</filterID><methodID>AIC</methodID><horizontalSlowness><value>12.576247234252588</value></horizontalSlowness><backazimuth><value>277.10253474219564</value></backazimuth><phaseHint>P</phaseHint><evaluationMode>automatic</evaluationMode><comment><text>34.42533371299171</text><id>DFX:rectilinearity</id></comment><comment><text>8.992122242547573</text><id>SNR</id></comment></pick><pick publicID="de.gempa.tb1.Pick/20250415064045.336604.117687"><time><value>2025-04-15T06:40:35.658396Z</value></time><waveformID networkCode="CX" stationCode="PB07" channelCode="HHZ"/><filterID>ITAPER(4)&gt;&gt;BW(4,4,20)</filterID><methodID>AIC</methodID><horizontalSlowness><value>22.088764912619737</value></horizontalSlowness><backazimuth><value>329.21426422065565</value></backazimuth><phaseHint>P</phaseHint><evaluationMode>automatic</evaluationMode><comment><text>623.9318631298172</text><id>DFX:rectilinearity</id></comment><comment><text>6.250883846101313</text><id>SNR</id></comment></pick><pick publicID="de.gempa.tb1.Pick/20250415064045.653933.117692"><time><value>2025-04-15T06:40:36.418393Z</value></time><waveformID networkCode="CX" stationCode="PB06" channelCode="HHZ"/><filterID>ITAPER(4)&gt;&gt;BW(4,4,20)</filterID><methodID>AIC</methodID><horizontalSlowness><value>16.287121266793395</value></horizontalSlowness><backazimuth><value>311.0099799411886</value></backazimuth><phaseHint>P</phaseHint><evaluationMode>automatic</evaluationMode><comment><text>44.715015331151164</text><id>DFX:rectilinearity</id></comment><comment><text>6.434964050807529</text><id>SNR</id></comment></pick><pick publicID="de.gempa.tb1.Pick/20250415064047.718623.117694"><time><value>2025-04-15T06:40:40.918393Z</value></time><waveformID networkCode="CX" stationCode="PB15" channelCode="HHZ"/><filterID>ITAPER(4)&gt;&gt;BW(4,4,20)</filterID><methodID>AIC</methodID><horizontalSlowness><value>22.83673971472651</value></horizontalSlowness><backazimuth><value>68.0089748537037</value></backazimuth><phaseHint>P</phaseHint><evaluationMode>automatic</evaluationMode><comment><text>366.72677818209695</text><id>DFX:rectilinearity</id></comment><comment><text>9.280323250435554</text><id>SNR</id></comment></pick><pick publicID="de.gempa.tb1.Pick/20250415064052.497033.117696"><time><value>2025-04-15T06:40:46.61Z</value></time><waveformID networkCode="CX" stationCode="PB19" channelCode="HHZ"/><filterID>ITAPER(4)&gt;&gt;BW(4,4,20)</filterID><methodID>AIC</methodID><horizontalSlowness><value>22.60419062244747</value></horizontalSlowness><backazimuth><value>282.3363954777599</value></backazimuth><phaseHint>P</phaseHint><evaluationMode>automatic</evaluationMode><comment><text>19.136601632417104</text><id>DFX:rectilinearity</id></comment><comment><text>9.96713281393324</text><id>SNR</id></comment></pick><pick publicID="de.gempa.tb1.Pick/20250415064055.524163.117698"><time><value>2025-04-15T06:40:48.38Z</value></time><waveformID networkCode="CX" stationCode="PSGCX" channelCode="HHZ"/><filterID>ITAPER(4)&gt;&gt;BW(4,4,20)</filterID><methodID>AIC</methodID><horizontalSlowness><value>3.20854542818299</value></horizontalSlowness><backazimuth><value>264.6088454375137</value></backazimuth><phaseHint>P</phaseHint><evaluationMode>automatic</evaluationMode><comment><text>12.967142025021595</text><id>DFX:rectilinearity</id></comment><comment><text>6.13943023526491</text><id>SNR</id></comment></pick><origin publicID="de.gempa.tb1.Origin/20250415064057.572681.55818"><time><value>2025-04-15T06:39:54.589567Z</value><uncertainty>3.3588595390319824</uncertainty></time><latitude><value>-22.284887313842773</value><uncertainty>8.848851203918457</uncertainty></latitude><longitude><value>-72.31837463378906</value><uncertainty>29.64484977722168</uncertainty></longitude><depth><value>0</value></depth><depthType>operator assigned</depthType><methodID>LOCSAT</methodID><earthModelID>iasp91_scanloc</earthModelID><quality><associatedPhaseCount>7</associatedPhaseCount><usedPhaseCount>7</usedPhaseCount><associatedStationCount>7</associatedStationCount><usedStationCount>7</usedStationCount><depthPhaseCount>0</depthPhaseCount><standardError>0.7984100492579983</standardError><azimuthalGap>277.27001571655273</azimuthalGap><maximumDistance>3.3707048892974854</maximumDistance><minimumDistance>2.324439525604248</minimumDistance><medianDistance>2.574270725250244</medianDistance></quality><uncertainty><minHorizontalUncertainty>15.579761505126953</minHorizontalUncertainty><maxHorizontalUncertainty>64.50061798095703</maxHorizontalUncertainty><azimuthMaxHorizontalUncertainty>80.0275650024414</azimuthMaxHorizontalUncertainty><preferredDescription>horizontal uncertainty</preferredDescription></uncertainty><evaluationMode>automatic</evaluationMode><evaluationStatus>confirmed</evaluationStatus><comment><text>0.43</text><id>mismatchScore</id></comment><comment><text>mismatchScore</text><id>scevalMethod</id></comment><arrival><pickID>de.gempa.tb1.Pick/20250415064041.627319.117682</pickID><phase>P</phase><azimuth>67.34490966796875</azimuth><distance>2.4474267959594727</distance><timeResidual>-0.3768196105957031</timeResidual><timeUsed>true</timeUsed><horizontalSlownessUsed>false</horizontalSlownessUsed><backazimuthUsed>false</backazimuthUsed><weight>1</weight></arrival><arrival><pickID>de.gempa.tb1.Pick/20250415064042.635113.117684</pickID><phase>P</phase><azimuth>84.83150482177734</azimuth><distance>2.389518737792969</distance><timeResidual>-0.5989227294921875</timeResidual><timeUsed>true</timeUsed><horizontalSlownessUsed>false</horizontalSlownessUsed><backazimuthUsed>false</backazimuthUsed><weight>1</weight></arrival><arrival><pickID>de.gempa.tb1.Pick/20250415064045.336604.117687</pickID><phase>P</phase><azimuth>76.62833404541016</azimuth><distance>2.324439525604248</distance><timeResidual>1.5564002990722656</timeResidual><timeUsed>true</timeUsed><horizontalSlownessUsed>false</horizontalSlownessUsed><backazimuthUsed>false</backazimuthUsed><weight>1</weight></arrival><arrival><pickID>de.gempa.tb1.Pick/20250415064045.653933.117692</pickID><phase>P</phase><azimuth>99.88597869873047</azimuth><distance>2.574270725250244</distance><timeResidual>-1.1209449768066406</timeResidual><timeUsed>true</timeUsed><horizontalSlownessUsed>false</horizontalSlownessUsed><backazimuthUsed>false</backazimuthUsed><weight>1</weight></arrival><arrival><pickID>de.gempa.tb1.Pick/20250415064047.718623.117694</pickID><phase>P</phase><azimuth>109.81587219238281</azimuth><distance>2.7845888137817383</distance><timeResidual>0.4849700927734375</timeResidual><timeUsed>true</timeUsed><horizontalSlownessUsed>false</horizontalSlownessUsed><backazimuthUsed>false</backazimuthUsed><weight>1</weight></arrival><arrival><pickID>de.gempa.tb1.Pick/20250415064052.497033.117696</pickID><phase>P</phase><azimuth>120.6262969970703</azimuth><distance>3.2204389572143555</distance><timeResidual>0.17913436889648438</timeResidual><timeUsed>true</timeUsed><horizontalSlownessUsed>false</horizontalSlownessUsed><backazimuthUsed>false</backazimuthUsed><weight>1</weight></arrival><arrival><pickID>de.gempa.tb1.Pick/20250415064055.524163.117698</pickID><phase>P</phase><azimuth>37.896312713623047</azimuth><distance>3.3707048892974854</distance><timeResidual>-0.12379074096679688</timeResidual><timeUsed>true</timeUsed><horizontalSlownessUsed>false</horizontalSlownessUsed><backazimuthUsed>false</backazimuthUsed><weight>1</weight></arrival><magnitude publicID="de.gempa.tb1.Magnitude/20250415064221.643171.98444"><magnitude><value>3.007196615867753</value></magnitude><type>M</type><methodID>weighted average</methodID><stationCount>7</stationCount></magnitude></origin><event publicID="gempa2025hkpq"><preferredOriginID>de.gempa.tb1.Origin/20250415064057.572681.55818</preferredOriginID><preferredMagnitudeID>de.gempa.tb1.Magnitude/20250415064221.643171.98444</preferredMagnitudeID><description><text>Off Coast of Northern Chile</text><type>region name</type></description><originReference>de.gempa.tb1.Origin/20250415064057.572681.55818</originReference></event></EventParameters></seiscomp>