<?xml version="1.0" encoding="UTF-8"?>
<seiscomp xmlns="http://geofon.gfz-potsdam.de/ns/seiscomp3-schema/0.13" version="0.13"><EventParameters><pick publicID="de.gempa.tb1.Pick/20250414064334.565121.136299"><time><value>2025-04-14T06:43:29.808393Z</value></time><waveformID networkCode="CX" stationCode="PB01" channelCode="HHZ"/><filterID>ITAPER(4)&gt;&gt;BW(4,4,20)</filterID><methodID>AIC</methodID><horizontalSlowness><value>22.54558674689605</value></horizontalSlowness><backazimuth><value>1.542092166263302</value></backazimuth><phaseHint>P</phaseHint><evaluationMode>automatic</evaluationMode><comment><text>11.998053599695643</text><id>DFX:rectilinearity</id></comment><comment><text>6.487800998132622</text><id>SNR</id></comment></pick><pick publicID="de.gempa.tb1.Pick/20250414064337.679479.136301"><time><value>2025-04-14T06:43:33.338393Z</value></time><waveformID networkCode="CX" stationCode="PB02" channelCode="HHZ"/><filterID>ITAPER(4)&gt;&gt;BW(4,4,20)</filterID><methodID>AIC</methodID><horizontalSlowness><value>17.423883045552135</value></horizontalSlowness><backazimuth><value>53.96847783989011</value></backazimuth><phaseHint>P</phaseHint><evaluationMode>automatic</evaluationMode><comment><text>19.905274606824307</text><id>DFX:rectilinearity</id></comment><comment><text>13.44299345657024</text><id>SNR</id></comment></pick><pick publicID="de.gempa.tb1.Pick/20250414064340.515477.136303"><time><value>2025-04-14T06:43:33.608393Z</value></time><waveformID networkCode="CX" stationCode="PB03" channelCode="HHZ"/><filterID>ITAPER(4)&gt;&gt;BW(4,4,20)</filterID><methodID>AIC</methodID><horizontalSlowness><value>21.20923883806337</value></horizontalSlowness><backazimuth><value>313.8628469862392</value></backazimuth><phaseHint>P</phaseHint><evaluationMode>automatic</evaluationMode><comment><text>4.1400588937709006</text><id>DFX:rectilinearity</id></comment><comment><text>17.987442075366133</text><id>SNR</id></comment></pick><pick publicID="de.gempa.tb1.Pick/20250414064344.578687.136305"><time><value>2025-04-14T06:43:36.398393Z</value></time><waveformID networkCode="CX" stationCode="PB06" channelCode="HHZ"/><filterID>ITAPER(4)&gt;&gt;BW(4,4,20)</filterID><methodID>AIC</methodID><horizontalSlowness><value>11.12037367333979</value></horizontalSlowness><backazimuth><value>193.47290236130857</value></backazimuth><phaseHint>P</phaseHint><evaluationMode>automatic</evaluationMode><comment><text>33.996934779639815</text><id>DFX:rectilinearity</id></comment><comment><text>16.134095374654976</text><id>SNR</id></comment></pick><pick publicID="de.gempa.tb1.Pick/20250414064351.517662.136307"><time><value>2025-04-14T06:43:40.720001Z</value></time><waveformID networkCode="CX" stationCode="PSGCX" channelCode="HHZ"/><filterID>ITAPER(4)&gt;&gt;BW(4,4,20)</filterID><methodID>AIC</methodID><horizontalSlowness><value>5.582899395863271</value></horizontalSlowness><backazimuth><value>153.986299125581</value></backazimuth><phaseHint>P</phaseHint><evaluationMode>automatic</evaluationMode><comment><text>16.546399538931436</text><id>DFX:rectilinearity</id></comment><comment><text>7.91317070317996</text><id>SNR</id></comment></pick><pick publicID="de.gempa.tb1.Pick/20250414064353.53281.136309"><time><value>2025-04-14T06:43:29.03Z</value></time><waveformID networkCode="CX" stationCode="PB09" channelCode="HHZ"/><filterID>ITAPER(4)&gt;&gt;BW(4,4,20)</filterID><methodID>AIC</methodID><horizontalSlowness><value>22.566686324375134</value></horizontalSlowness><backazimuth><value>114.18659434970486</value></backazimuth><phaseHint>P</phaseHint><evaluationMode>automatic</evaluationMode><comment><text>4.85677093515933</text><id>DFX:rectilinearity</id></comment><comment><text>15.006155320642971</text><id>SNR</id></comment></pick><pick publicID="de.gempa.tb1.Pick/20250414064401.215031.136311"><time><value>2025-04-14T06:43:33.798394Z</value></time><waveformID networkCode="CX" stationCode="PB07" channelCode="HHZ"/><filterID>ITAPER(4)&gt;&gt;BW(4,4,20)</filterID><methodID>AIC</methodID><horizontalSlowness><value>22.61625144844958</value></horizontalSlowness><backazimuth><value>52.87876443317228</value></backazimuth><phaseHint>P</phaseHint><evaluationMode>automatic</evaluationMode><comment><text>203.54861897249054</text><id>DFX:rectilinearity</id></comment><comment><text>31.26462042367408</text><id>SNR</id></comment></pick><pick publicID="de.gempa.tb1.Pick/20250414064408.736536.136314"><time><value>2025-04-14T06:43:56.248393Z</value></time><waveformID networkCode="CX" stationCode="PB01" channelCode="HHN"/><filterID>ITAPER(2)&gt;&gt;BW(3,3,20)</filterID><methodID>L2-AIC-GRID</methodID><horizontalSlowness><value>17.187397402386043</value></horizontalSlowness><backazimuth><value>336.0377491466593</value></backazimuth><phaseHint>S</phaseHint><evaluationMode>automatic</evaluationMode><comment><text>16.514134679211395</text><id>DFX:rectilinearity</id></comment><comment><text>de.gempa.tb1.Pick/20250414064334.565121.136299</text><id>RefPickID</id></comment><comment><text>5.663898789046979</text><id>SNR</id></comment></pick><pick publicID="de.gempa.tb1.Pick/20250414064408.737837.136315"><time><value>2025-04-14T06:44:03.248394Z</value></time><waveformID networkCode="CX" stationCode="PB07" channelCode="HHN"/><filterID>ITAPER(2)&gt;&gt;BW(3,3,20)</filterID><methodID>L2-AIC-GRID</methodID><horizontalSlowness><value>21.383190436828123</value></horizontalSlowness><backazimuth><value>217.20470933586569</value></backazimuth><phaseHint>S</phaseHint><evaluationMode>automatic</evaluationMode><comment><text>287.7434184612889</text><id>DFX:rectilinearity</id></comment><comment><text>de.gempa.tb1.Pick/20250414064401.215031.136311</text><id>RefPickID</id></comment><comment><text>7.728255728187557</text><id>SNR</id></comment></pick><pick publicID="de.gempa.tb1.Pick/20250414064410.58779.136318"><time><value>2025-04-14T06:44:02.978393Z</value></time><waveformID networkCode="CX" stationCode="PB03" channelCode="HHN"/><filterID>ITAPER(2)&gt;&gt;BW(3,3,20)</filterID><methodID>L2-AIC-GRID</methodID><horizontalSlowness><value>20.252179824276325</value></horizontalSlowness><backazimuth><value>188.00042399899542</value></backazimuth><phaseHint>S</phaseHint><evaluationMode>automatic</evaluationMode><comment><text>11.099053799624503</text><id>DFX:rectilinearity</id></comment><comment><text>de.gempa.tb1.Pick/20250414064340.515477.136303</text><id>RefPickID</id></comment><comment><text>16.718888423797733</text><id>SNR</id></comment></pick><pick publicID="de.gempa.tb1.Pick/20250414064413.074638.136321"><time><value>2025-04-14T06:43:55.45Z</value></time><waveformID networkCode="CX" stationCode="PB09" channelCode="HHN"/><filterID>ITAPER(2)&gt;&gt;BW(3,3,20)</filterID><methodID>L2-AIC-GRID</methodID><horizontalSlowness><value>20.091105621038707</value></horizontalSlowness><backazimuth><value>295.6105015312162</value></backazimuth><phaseHint>S</phaseHint><evaluationMode>automatic</evaluationMode><comment><text>11.452926502986774</text><id>DFX:rectilinearity</id></comment><comment><text>de.gempa.tb1.Pick/20250414064353.53281.136309</text><id>RefPickID</id></comment><comment><text>5.249664721709924</text><id>SNR</id></comment></pick><pick publicID="de.gempa.tb1.Pick/20250414064414.681966.136323"><time><value>2025-04-14T06:44:07.818393Z</value></time><waveformID networkCode="CX" stationCode="PB06" channelCode="HHN"/><filterID>ITAPER(2)&gt;&gt;BW(3,3,20)</filterID><methodID>L2-AIC-GRID</methodID><horizontalSlowness><value>18.377764705100105</value></horizontalSlowness><backazimuth><value>342.8805417572566</value></backazimuth><phaseHint>S</phaseHint><evaluationMode>automatic</evaluationMode><comment><text>71.03868169314433</text><id>DFX:rectilinearity</id></comment><comment><text>de.gempa.tb1.Pick/20250414064344.578687.136305</text><id>RefPickID</id></comment><comment><text>6.723077593240927</text><id>SNR</id></comment></pick><pick publicID="de.gempa.tb1.Pick/20250414064428.66492.136326"><time><value>2025-04-14T06:44:15.770001Z</value></time><waveformID networkCode="CX" stationCode="PSGCX" channelCode="HHN"/><filterID>ITAPER(2)&gt;&gt;BW(3,3,20)</filterID><methodID>L2-AIC-GRID</methodID><horizontalSlowness><value>17.261070126699554</value></horizontalSlowness><backazimuth><value>98.44431163042893</value></backazimuth><phaseHint>S</phaseHint><evaluationMode>automatic</evaluationMode><comment><text>12.03611774959141</text><id>DFX:rectilinearity</id></comment><comment><text>de.gempa.tb1.Pick/20250414064351.517662.136307</text><id>RefPickID</id></comment><comment><text>8.50136538647061</text><id>SNR</id></comment></pick><origin publicID="de.gempa.tb1.Origin/20250414064428.671892.130588"><time><value>2025-04-14T06:42:56.407426Z</value><uncertainty>0.9760273098945618</uncertainty></time><latitude><value>-21.182079315185547</value><uncertainty>5.299758911132812</uncertainty></latitude><longitude><value>-68.13568115234375</value><uncertainty>17.352310180664062</uncertainty></longitude><depth><value>216.76429748535156</value><uncertainty>12.948527336120605</uncertainty></depth><depthType>from location</depthType><methodID>LOCSAT</methodID><earthModelID>iasp91_scanloc</earthModelID><quality><associatedPhaseCount>13</associatedPhaseCount><usedPhaseCount>13</usedPhaseCount><associatedStationCount>7</associatedStationCount><usedStationCount>7</usedStationCount><depthPhaseCount>0</depthPhaseCount><standardError>0.21439237292436547</standardError><azimuthalGap>271.18572998046875</azimuthalGap><maximumDistance>2.4417099952697754</maximumDistance><minimumDistance>1.1979522705078125</minimumDistance><medianDistance>1.7183305025100708</medianDistance></quality><uncertainty><minHorizontalUncertainty>10.053878784179688</minHorizontalUncertainty><maxHorizontalUncertainty>37.5760498046875</maxHorizontalUncertainty><azimuthMaxHorizontalUncertainty>81.59366607666016</azimuthMaxHorizontalUncertainty><preferredDescription>horizontal uncertainty</preferredDescription></uncertainty><evaluationMode>automatic</evaluationMode><evaluationStatus>confirmed</evaluationStatus><comment><text>0.18</text><id>mismatchScore</id></comment><comment><text>mismatchScore</text><id>scevalMethod</id></comment><arrival><pickID>de.gempa.tb1.Pick/20250414064334.565121.136299</pickID><phase>P</phase><azimuth>276.0049743652344</azimuth><distance>1.2696082592010498</distance><timeResidual>-0.006343841552734375</timeResidual><timeUsed>true</timeUsed><horizontalSlownessUsed>false</horizontalSlownessUsed><backazimuthUsed>false</backazimuthUsed><weight>1</weight></arrival><arrival><pickID>de.gempa.tb1.Pick/20250414064337.679479.136301</pickID><phase>P</phase><azimuth>264.9150695800781</azimuth><distance>1.64777934551239</distance><timeResidual>0.4076385498046875</timeResidual><timeUsed>true</timeUsed><horizontalSlownessUsed>false</horizontalSlownessUsed><backazimuthUsed>false</backazimuthUsed><weight>1</weight></arrival><arrival><pickID>de.gempa.tb1.Pick/20250414064340.515477.136303</pickID><phase>P</phase><azimuth>239.8997344970703</azimuth><distance>1.7344647645950317</distance><timeResidual>-0.09704208374023438</timeResidual><timeUsed>true</timeUsed><horizontalSlownessUsed>false</horizontalSlownessUsed><backazimuthUsed>false</backazimuthUsed><weight>1</weight></arrival><arrival><pickID>de.gempa.tb1.Pick/20250414064344.578687.136305</pickID><phase>P</phase><azimuth>221.06198120117188</azimuth><distance>2.019171953201294</distance><timeResidual>-0.01442718505859375</timeResidual><timeUsed>true</timeUsed><horizontalSlownessUsed>false</horizontalSlownessUsed><backazimuthUsed>false</backazimuthUsed><weight>1</weight></arrival><arrival><pickID>de.gempa.tb1.Pick/20250414064351.517662.136307</pickID><phase>P</phase><azimuth>309.8762512207031</azimuth><distance>2.4417099952697754</distance><timeResidual>-0.08087158203125</timeResidual><timeUsed>true</timeUsed><horizontalSlownessUsed>false</horizontalSlownessUsed><backazimuthUsed>false</backazimuthUsed><weight>1</weight></arrival><arrival><pickID>de.gempa.tb1.Pick/20250414064353.53281.136309</pickID><phase>P</phase><azimuth>239.11769104003906</azimuth><distance>1.1979522705078125</distance><timeResidual>-0.2476539611816406</timeResidual><timeUsed>true</timeUsed><horizontalSlownessUsed>false</horizontalSlownessUsed><backazimuthUsed>false</backazimuthUsed><weight>1</weight></arrival><arrival><pickID>de.gempa.tb1.Pick/20250414064401.215031.136311</pickID><phase>P</phase><azimuth>251.30006408691406</azimuth><distance>1.7183305025100708</distance><timeResidual>0.2370452880859375</timeResidual><timeUsed>true</timeUsed><horizontalSlownessUsed>false</horizontalSlownessUsed><backazimuthUsed>false</backazimuthUsed><weight>1</weight></arrival><arrival><pickID>de.gempa.tb1.Pick/20250414064408.736536.136314</pickID><phase>S</phase><azimuth>276.0049743652344</azimuth><distance>1.2696082592010498</distance><timeResidual>0.0290679931640625</timeResidual><timeUsed>true</timeUsed><horizontalSlownessUsed>false</horizontalSlownessUsed><backazimuthUsed>false</backazimuthUsed><weight>1</weight></arrival><arrival><pickID>de.gempa.tb1.Pick/20250414064408.737837.136315</pickID><phase>S</phase><azimuth>251.30006408691406</azimuth><distance>1.7183305025100708</distance><timeResidual>0.2926139831542969</timeResidual><timeUsed>true</timeUsed><horizontalSlownessUsed>false</horizontalSlownessUsed><backazimuthUsed>false</backazimuthUsed><weight>1</weight></arrival><arrival><pickID>de.gempa.tb1.Pick/20250414064410.58779.136318</pickID><phase>S</phase><azimuth>239.8997344970703</azimuth><distance>1.7344647645950317</distance><timeResidual>-0.235870361328125</timeResidual><timeUsed>true</timeUsed><horizontalSlownessUsed>false</horizontalSlownessUsed><backazimuthUsed>false</backazimuthUsed><weight>1</weight></arrival><arrival><pickID>de.gempa.tb1.Pick/20250414064413.074638.136321</pickID><phase>S</phase><azimuth>239.11769104003906</azimuth><distance>1.1979522705078125</distance><timeResidual>0.19683837890625</timeResidual><timeUsed>true</timeUsed><horizontalSlownessUsed>false</horizontalSlownessUsed><backazimuthUsed>false</backazimuthUsed><weight>1</weight></arrival><arrival><pickID>de.gempa.tb1.Pick/20250414064414.681966.136323</pickID><phase>S</phase><azimuth>221.06198120117188</azimuth><distance>2.019171953201294</distance><timeResidual>-0.26580810546875</timeResidual><timeUsed>true</timeUsed><horizontalSlownessUsed>false</horizontalSlownessUsed><backazimuthUsed>false</backazimuthUsed><weight>1</weight></arrival><arrival><pickID>de.gempa.tb1.Pick/20250414064428.66492.136326</pickID><phase>S</phase><azimuth>309.8762512207031</azimuth><distance>2.4417099952697754</distance><timeResidual>-0.21478652954101562</timeResidual><timeUsed>true</timeUsed><horizontalSlownessUsed>false</horizontalSlownessUsed><backazimuthUsed>false</backazimuthUsed><weight>1</weight></arrival><magnitude publicID="de.gempa.tb1.Magnitude/20250414064542.784652.441437"><magnitude><value>2.7909585080680746</value></magnitude><type>M</type><methodID>weighted average</methodID><stationCount>6</stationCount></magnitude></origin><event publicID="gempa2025hitr"><preferredOriginID>de.gempa.tb1.Origin/20250414064428.671892.130588</preferredOriginID><preferredMagnitudeID>de.gempa.tb1.Magnitude/20250414064542.784652.441437</preferredMagnitudeID><description><text>Chile-Bolivia Border Region</text><type>region name</type></description><originReference>de.gempa.tb1.Origin/20250414064428.671892.130588</originReference></event></EventParameters></seiscomp>