<?xml version="1.0" encoding="UTF-8"?>
<seiscomp xmlns="http://geofon.gfz-potsdam.de/ns/seiscomp3-schema/0.13" version="0.13"><EventParameters><pick publicID="de.gempa.tb1.Pick/20250414190345.759269.140428"><time><value>2025-04-14T19:03:40.868394Z</value></time><waveformID networkCode="CX" stationCode="PB08" channelCode="HHZ"/><filterID>ITAPER(4)&gt;&gt;BW(4,4,20)</filterID><methodID>AIC</methodID><horizontalSlowness><value>13.371234004269258</value></horizontalSlowness><backazimuth><value>209.85447110058402</value></backazimuth><phaseHint>P</phaseHint><evaluationMode>automatic</evaluationMode><comment><text>8.95391788153378</text><id>DFX:rectilinearity</id></comment><comment><text>31.312851129031063</text><id>SNR</id></comment></pick><pick publicID="de.gempa.tb1.Pick/20250414190346.641278.140430"><time><value>2025-04-14T19:03:41.968393Z</value></time><waveformID networkCode="CX" stationCode="PB01" channelCode="HHZ"/><filterID>ITAPER(4)&gt;&gt;BW(4,4,20)</filterID><methodID>AIC</methodID><horizontalSlowness><value>15.69969989439223</value></horizontalSlowness><backazimuth><value>354.59577842245903</value></backazimuth><phaseHint>P</phaseHint><evaluationMode>automatic</evaluationMode><comment><text>12.128329022437638</text><id>DFX:rectilinearity</id></comment><comment><text>162.14256869671783</text><id>SNR</id></comment></pick><pick publicID="de.gempa.tb1.Pick/20250414190353.276129.140432"><time><value>2025-04-14T19:03:45.849999Z</value></time><waveformID networkCode="CX" stationCode="PATCX" channelCode="HHZ"/><filterID>ITAPER(4)&gt;&gt;BW(4,4,20)</filterID><methodID>AIC</methodID><horizontalSlowness><value>21.04460625770816</value></horizontalSlowness><backazimuth><value>241.4946570888689</value></backazimuth><phaseHint>P</phaseHint><evaluationMode>automatic</evaluationMode><comment><text>141.73969154091571</text><id>DFX:rectilinearity</id></comment><comment><text>25.138012674191966</text><id>SNR</id></comment></pick><pick publicID="de.gempa.tb1.Pick/20250414190353.716983.140434"><time><value>2025-04-14T19:03:47.168393Z</value></time><waveformID networkCode="CX" stationCode="PB02" channelCode="HHZ"/><filterID>ITAPER(4)&gt;&gt;BW(4,4,20)</filterID><methodID>AIC</methodID><horizontalSlowness><value>10.773257365854981</value></horizontalSlowness><backazimuth><value>36.33039421259946</value></backazimuth><phaseHint>P</phaseHint><evaluationMode>automatic</evaluationMode><comment><text>302.52370167579005</text><id>DFX:rectilinearity</id></comment><comment><text>54.51620891229556</text><id>SNR</id></comment></pick><pick publicID="de.gempa.tb1.Pick/20250414190354.604645.140436"><time><value>2025-04-14T19:03:49.13Z</value></time><waveformID networkCode="CX" stationCode="PSGCX" channelCode="HHZ"/><filterID>ITAPER(4)&gt;&gt;BW(4,4,20)</filterID><methodID>AIC</methodID><horizontalSlowness><value>11.944697627075536</value></horizontalSlowness><backazimuth><value>67.10661429174095</value></backazimuth><phaseHint>P</phaseHint><evaluationMode>automatic</evaluationMode><comment><text>8.864994378798475</text><id>DFX:rectilinearity</id></comment><comment><text>54.98305563360356</text><id>SNR</id></comment></pick><pick publicID="de.gempa.tb1.Pick/20250414190357.003741.140438"><time><value>2025-04-14T19:03:50.978393Z</value></time><waveformID networkCode="CX" stationCode="PB07" channelCode="HHZ"/><filterID>ITAPER(4)&gt;&gt;BW(4,4,20)</filterID><methodID>AIC</methodID><horizontalSlowness><value>20.674144336348846</value></horizontalSlowness><backazimuth><value>269.9255609618673</value></backazimuth><phaseHint>P</phaseHint><evaluationMode>automatic</evaluationMode><comment><text>110.81148690718284</text><id>DFX:rectilinearity</id></comment><comment><text>55.1269293843102</text><id>SNR</id></comment></pick><pick publicID="de.gempa.tb1.Pick/20250414190359.178756.140440"><time><value>2025-04-14T19:03:51.848394Z</value></time><waveformID networkCode="CX" stationCode="PB08" channelCode="HHN"/><filterID>ITAPER(2)&gt;&gt;BW(3,3,20)</filterID><methodID>L2-AIC-GRID</methodID><horizontalSlowness><value>18.433035329190414</value></horizontalSlowness><backazimuth><value>199.13370375536613</value></backazimuth><phaseHint>S</phaseHint><evaluationMode>automatic</evaluationMode><comment><text>246.6462220751702</text><id>DFX:rectilinearity</id></comment><comment><text>de.gempa.tb1.Pick/20250414190345.759269.140428</text><id>RefPickID</id></comment><comment><text>12.685127649521101</text><id>SNR</id></comment></pick><pick publicID="de.gempa.tb1.Pick/20250414190401.13373.140441"><time><value>2025-04-14T19:03:50.26Z</value></time><waveformID networkCode="CX" stationCode="PB09" channelCode="HHZ"/><filterID>ITAPER(4)&gt;&gt;BW(4,4,20)</filterID><methodID>AIC</methodID><horizontalSlowness><value>19.06970888459309</value></horizontalSlowness><backazimuth><value>100.44988980469485</value></backazimuth><phaseHint>P</phaseHint><evaluationMode>automatic</evaluationMode><comment><text>9.038735575170776</text><id>DFX:rectilinearity</id></comment><comment><text>27.47290734432315</text><id>SNR</id></comment></pick><pick publicID="de.gempa.tb1.Pick/20250414190401.831685.140443"><time><value>2025-04-14T19:03:54.438393Z</value></time><waveformID networkCode="CX" stationCode="PB01" channelCode="HHN"/><filterID>ITAPER(2)&gt;&gt;BW(3,3,20)</filterID><methodID>L2-AIC-GRID</methodID><horizontalSlowness><value>22.602410903502225</value></horizontalSlowness><backazimuth><value>307.49521522740343</value></backazimuth><phaseHint>S</phaseHint><evaluationMode>automatic</evaluationMode><comment><text>1274.3554019281962</text><id>DFX:rectilinearity</id></comment><comment><text>de.gempa.tb1.Pick/20250414190346.641278.140430</text><id>RefPickID</id></comment><comment><text>14.78056139653473</text><id>SNR</id></comment></pick><pick publicID="de.gempa.tb1.Pick/20250414190402.525561.140444"><time><value>2025-04-14T19:03:54.188393Z</value></time><waveformID networkCode="CX" stationCode="PB03" channelCode="HHZ"/><filterID>ITAPER(4)&gt;&gt;BW(4,4,20)</filterID><methodID>AIC</methodID><horizontalSlowness><value>8.216391559118536</value></horizontalSlowness><backazimuth><value>99.11755153184004</value></backazimuth><phaseHint>P</phaseHint><evaluationMode>automatic</evaluationMode><comment><text>8.398599438841288</text><id>DFX:rectilinearity</id></comment><comment><text>9.505071712213368</text><id>SNR</id></comment></pick><pick publicID="de.gempa.tb1.Pick/20250414190410.564461.140446"><time><value>2025-04-14T19:04:03.488393Z</value></time><waveformID networkCode="CX" stationCode="PB02" channelCode="HHN"/><filterID>ITAPER(2)&gt;&gt;BW(3,3,20)</filterID><methodID>L2-AIC-GRID</methodID><horizontalSlowness><value>17.352151406765309</value></horizontalSlowness><backazimuth><value>267.1070409611782</value></backazimuth><phaseHint>S</phaseHint><evaluationMode>automatic</evaluationMode><comment><text>5940.844068011735</text><id>DFX:rectilinearity</id></comment><comment><text>de.gempa.tb1.Pick/20250414190353.716983.140434</text><id>RefPickID</id></comment><comment><text>7.3125446589398</text><id>SNR</id></comment></pick><pick publicID="de.gempa.tb1.Pick/20250414190414.684417.140447"><time><value>2025-04-14T19:04:01.539999Z</value></time><waveformID networkCode="CX" stationCode="PATCX" channelCode="HHN"/><filterID>ITAPER(2)&gt;&gt;BW(3,3,20)</filterID><methodID>L2-AIC-GRID</methodID><horizontalSlowness><value>22.1716596734148</value></horizontalSlowness><backazimuth><value>161.10376610104657</value></backazimuth><phaseHint>S</phaseHint><evaluationMode>automatic</evaluationMode><comment><text>557.5738002214119</text><id>DFX:rectilinearity</id></comment><comment><text>de.gempa.tb1.Pick/20250414190353.276129.140432</text><id>RefPickID</id></comment><comment><text>7.703071762502638</text><id>SNR</id></comment></pick><origin publicID="de.gempa.tb1.Origin/20250414190414.687195.148006"><time><value>2025-04-14T19:03:26.364118Z</value><uncertainty>0.7903071641921997</uncertainty></time><latitude><value>-20.494678497314453</value><uncertainty>4.0813260078430176</uncertainty></latitude><longitude><value>-69.17929077148438</value><uncertainty>6.236515998840332</uncertainty></longitude><depth><value>95.05743408203125</value><uncertainty>6.268009185791016</uncertainty></depth><depthType>from location</depthType><methodID>LOCSAT</methodID><earthModelID>iasp91_scanloc</earthModelID><quality><associatedPhaseCount>12</associatedPhaseCount><usedPhaseCount>12</usedPhaseCount><associatedStationCount>8</associatedStationCount><usedStationCount>8</usedStationCount><depthPhaseCount>0</depthPhaseCount><standardError>0.34230258195982177</standardError><azimuthalGap>178.61652493476868</azimuthalGap><maximumDistance>1.636104702949524</maximumDistance><minimumDistance>0.35259515047073364</minimumDistance><medianDistance>1.0596976280212402</medianDistance></quality><uncertainty><minHorizontalUncertainty>7.970208168029785</minHorizontalUncertainty><maxHorizontalUncertainty>13.85098648071289</maxHorizontalUncertainty><azimuthMaxHorizontalUncertainty>108.59642028808594</azimuthMaxHorizontalUncertainty><preferredDescription>horizontal uncertainty</preferredDescription></uncertainty><evaluationMode>automatic</evaluationMode><evaluationStatus>confirmed</evaluationStatus><comment><text>0.00</text><id>mismatchScore</id></comment><comment><text>mismatchScore</text><id>scevalMethod</id></comment><arrival><pickID>de.gempa.tb1.Pick/20250414190345.759269.140428</pickID><phase>P</phase><azimuth>3.956717252731323</azimuth><distance>0.35259515047073364</distance><timeResidual>0.21512126922607422</timeResidual><timeUsed>true</timeUsed><horizontalSlownessUsed>false</horizontalSlownessUsed><backazimuthUsed>false</backazimuthUsed><weight>1</weight></arrival><arrival><pickID>de.gempa.tb1.Pick/20250414190346.641278.140430</pickID><phase>P</phase><azimuth>207.79190063476562</azimuth><distance>0.6172708868980408</distance><timeResidual>-0.6119880676269531</timeResidual><timeUsed>true</timeUsed><horizontalSlownessUsed>false</horizontalSlownessUsed><backazimuthUsed>false</backazimuthUsed><weight>1</weight></arrival><arrival><pickID>de.gempa.tb1.Pick/20250414190353.276129.140432</pickID><phase>P</phase><azimuth>250.24488830566406</azimuth><distance>0.9677317142486572</distance><timeResidual>-0.21517562866210938</timeResidual><timeUsed>true</timeUsed><horizontalSlownessUsed>false</horizontalSlownessUsed><backazimuthUsed>false</backazimuthUsed><weight>1</weight></arrival><arrival><pickID>de.gempa.tb1.Pick/20250414190353.716983.140434</pickID><phase>P</phase><azimuth>219.09800720214844</azimuth><distance>1.0596976280212402</distance><timeResidual>0.0799560546875</timeResidual><timeUsed>true</timeUsed><horizontalSlownessUsed>false</horizontalSlownessUsed><backazimuthUsed>false</backazimuthUsed><weight>1</weight></arrival><arrival><pickID>de.gempa.tb1.Pick/20250414190354.604645.140436</pickID><phase>P</phase><azimuth>315.01922607421875</azimuth><distance>1.258772373199463</distance><timeResidual>-0.28853416442871094</timeResidual><timeUsed>true</timeUsed><horizontalSlownessUsed>false</horizontalSlownessUsed><backazimuthUsed>false</backazimuthUsed><weight>1</weight></arrival><arrival><pickID>de.gempa.tb1.Pick/20250414190357.003741.140438</pickID><phase>P</phase><azimuth>208.17257690429688</azimuth><distance>1.3922439813613892</distance><timeResidual>-0.04746246337890625</timeResidual><timeUsed>true</timeUsed><horizontalSlownessUsed>false</horizontalSlownessUsed><backazimuthUsed>false</backazimuthUsed><weight>1</weight></arrival><arrival><pickID>de.gempa.tb1.Pick/20250414190359.178756.140440</pickID><phase>S</phase><azimuth>3.956717252731323</azimuth><distance>0.35259515047073364</distance><timeResidual>0.2382011413574219</timeResidual><timeUsed>true</timeUsed><horizontalSlownessUsed>false</horizontalSlownessUsed><backazimuthUsed>false</backazimuthUsed><weight>1</weight></arrival><arrival><pickID>de.gempa.tb1.Pick/20250414190401.13373.140441</pickID><phase>P</phase><azimuth>182.5732421875</azimuth><distance>1.296554684638977</distance><timeResidual>0.3981142044067383</timeResidual><timeUsed>true</timeUsed><horizontalSlownessUsed>false</horizontalSlownessUsed><backazimuthUsed>false</backazimuthUsed><weight>1</weight></arrival><arrival><pickID>de.gempa.tb1.Pick/20250414190401.831685.140443</pickID><phase>S</phase><azimuth>207.79190063476562</azimuth><distance>0.6172708868980408</distance><timeResidual>-0.5987863540649414</timeResidual><timeUsed>true</timeUsed><horizontalSlownessUsed>false</horizontalSlownessUsed><backazimuthUsed>false</backazimuthUsed><weight>1</weight></arrival><arrival><pickID>de.gempa.tb1.Pick/20250414190402.525561.140444</pickID><phase>P</phase><azimuth>198.990478515625</azimuth><distance>1.636104702949524</distance><timeResidual>0.1220998764038086</timeResidual><timeUsed>true</timeUsed><horizontalSlownessUsed>false</horizontalSlownessUsed><backazimuthUsed>false</backazimuthUsed><weight>1</weight></arrival><arrival><pickID>de.gempa.tb1.Pick/20250414190410.564461.140446</pickID><phase>S</phase><azimuth>219.09800720214844</azimuth><distance>1.0596976280212402</distance><timeResidual>0.41515350341796875</timeResidual><timeUsed>true</timeUsed><horizontalSlownessUsed>false</horizontalSlownessUsed><backazimuthUsed>false</backazimuthUsed><weight>1</weight></arrival><arrival><pickID>de.gempa.tb1.Pick/20250414190414.684417.140447</pickID><phase>S</phase><azimuth>250.24488830566406</azimuth><distance>0.9677317142486572</distance><timeResidual>0.2932701110839844</timeResidual><timeUsed>true</timeUsed><horizontalSlownessUsed>false</horizontalSlownessUsed><backazimuthUsed>false</backazimuthUsed><weight>1</weight></arrival><magnitude publicID="de.gempa.tb1.Magnitude/20250414190414.693513.531362"><magnitude><value>2.3964475797531946</value></magnitude><type>M</type><methodID>weighted average</methodID><stationCount>7</stationCount></magnitude></origin><event publicID="gempa2025hjsj"><preferredOriginID>de.gempa.tb1.Origin/20250414190414.687195.148006</preferredOriginID><preferredMagnitudeID>de.gempa.tb1.Magnitude/20250414190414.693513.531362</preferredMagnitudeID><description><text>Northern Chile</text><type>region name</type></description><originReference>de.gempa.tb1.Origin/20250414190414.687195.148006</originReference></event></EventParameters></seiscomp>