<?xml version="1.0" encoding="UTF-8"?>
<seiscomp xmlns="http://geofon.gfz-potsdam.de/ns/seiscomp3-schema/0.13" version="0.13"><EventParameters><pick publicID="de.gempa.tb1.Pick/20250412142727.131989.162937"><time><value>2025-04-12T14:27:23.415Z</value></time><waveformID networkCode="CH" stationCode="WIMIS" channelCode="HHZ"/><filterID>ITAPER(4)&gt;&gt;BW(4,4,20)</filterID><methodID>AIC</methodID><phaseHint>P</phaseHint><evaluationMode>automatic</evaluationMode></pick><pick publicID="de.gempa.tb1.Pick/20250412142729.001668.162939"><time><value>2025-04-12T14:27:25.25Z</value></time><waveformID networkCode="CH" stationCode="SIMPL" channelCode="HHZ"/><filterID>ITAPER(4)&gt;&gt;BW(4,4,20)</filterID><methodID>AIC</methodID><phaseHint>P</phaseHint><evaluationMode>automatic</evaluationMode></pick><pick publicID="de.gempa.tb1.Pick/20250412142734.375408.162945"><time><value>2025-04-12T14:27:29.2Z</value></time><waveformID networkCode="CH" stationCode="VANNI" channelCode="HHZ"/><filterID>ITAPER(4)&gt;&gt;BW(4,4,20)</filterID><methodID>AIC</methodID><phaseHint>P</phaseHint><evaluationMode>automatic</evaluationMode></pick><pick publicID="de.gempa.tb1.Pick/20250412142734.684395.162948"><time><value>2025-04-12T14:27:31.605Z</value></time><waveformID networkCode="CH" stationCode="AIGLE" channelCode="HHZ"/><filterID>ITAPER(4)&gt;&gt;BW(4,4,20)</filterID><methodID>AIC</methodID><phaseHint>P</phaseHint><evaluationMode>automatic</evaluationMode></pick><pick publicID="de.gempa.tb1.Pick/20250412142738.70736.162960"><time><value>2025-04-12T14:27:33.14Z</value></time><waveformID networkCode="CH" stationCode="VANNI" channelCode="HHN"/><filterID>RMHP(1)&gt;&gt;ITAPER(2)&gt;&gt;BW(4,3,20)</filterID><methodID>L2-AIC-GRID</methodID><phaseHint>S</phaseHint><evaluationMode>automatic</evaluationMode><comment><text>de.gempa.tb1.Pick/20250412142734.375408.162945</text><id>RefPickID</id></comment></pick><pick publicID="de.gempa.tb1.Pick/20250412142745.464114.162965"><time><value>2025-04-12T14:27:42.275Z</value></time><waveformID networkCode="CH" stationCode="WILA" channelCode="HHZ"/><filterID>ITAPER(4)&gt;&gt;BW(4,4,20)</filterID><methodID>AIC</methodID><phaseHint>P</phaseHint><evaluationMode>automatic</evaluationMode></pick><origin publicID="de.gempa.tb1.Origin/20250412142745.465732.104137"><time><value>2025-04-12T14:27:19.968774Z</value><uncertainty>0.6052035093307495</uncertainty></time><latitude><value>46.55168533325195</value><uncertainty>4.239999771118164</uncertainty></latitude><longitude><value>7.82274341583252</value><uncertainty>4.854982376098633</uncertainty></longitude><depth><value>3.2869954109191895</value><uncertainty>6.075077056884766</uncertainty></depth><depthType>from location</depthType><methodID>LOCSAT</methodID><earthModelID>iasp91</earthModelID><quality><associatedPhaseCount>6</associatedPhaseCount><usedPhaseCount>6</usedPhaseCount><associatedStationCount>5</associatedStationCount><usedStationCount>5</usedStationCount><depthPhaseCount>0</depthPhaseCount><standardError>1.097787256443785</standardError><azimuthalGap>116.04174423217773</azimuthalGap><maximumDistance>1.138827919960022</maximumDistance><minimumDistance>0.17765548825263977</minimumDistance><medianDistance>0.3758305311203003</medianDistance></quality><uncertainty><minHorizontalUncertainty>8.445955276489258</minHorizontalUncertainty><maxHorizontalUncertainty>10.949581146240234</maxHorizontalUncertainty><azimuthMaxHorizontalUncertainty>61.00739669799805</azimuthMaxHorizontalUncertainty><preferredDescription>horizontal uncertainty</preferredDescription></uncertainty><evaluationMode>automatic</evaluationMode><evaluationStatus>rejected</evaluationStatus><comment><text>0.75</text><id>mismatchScore</id></comment><comment><text>mismatchScore</text><id>scevalMethod</id></comment><arrival><pickID>de.gempa.tb1.Pick/20250412142727.131989.162937</pickID><phase>P</phase><azimuth>309.66839599609375</azimuth><distance>0.17765548825263977</distance><timeResidual>-0.4657688140869141</timeResidual><timeUsed>true</timeUsed><horizontalSlownessUsed>false</horizontalSlownessUsed><backazimuthUsed>false</backazimuthUsed><weight>1</weight></arrival><arrival><pickID>de.gempa.tb1.Pick/20250412142729.001668.162939</pickID><phase>P</phase><azimuth>156.35186767578125</azimuth><distance>0.3405914604663849</distance><timeResidual>-1.654310941696167</timeResidual><timeUsed>true</timeUsed><horizontalSlownessUsed>false</horizontalSlownessUsed><backazimuthUsed>false</backazimuthUsed><weight>1</weight></arrival><arrival><pickID>de.gempa.tb1.Pick/20250412142734.375408.162945</pickID><phase>P</phase><azimuth>204.67828369140625</azimuth><distance>0.3758305311203003</distance><timeResidual>1.6418988704681396</timeResidual><timeUsed>true</timeUsed><horizontalSlownessUsed>false</horizontalSlownessUsed><backazimuthUsed>false</backazimuthUsed><weight>1</weight></arrival><arrival><pickID>de.gempa.tb1.Pick/20250412142734.684395.162948</pickID><phase>P</phase><azimuth>251.0462188720703</azimuth><distance>0.6368085741996765</distance><timeResidual>-0.7942960262298584</timeResidual><timeUsed>true</timeUsed><horizontalSlownessUsed>false</horizontalSlownessUsed><backazimuthUsed>false</backazimuthUsed><weight>1</weight></arrival><arrival><pickID>de.gempa.tb1.Pick/20250412142738.70736.162960</pickID><phase>S</phase><azimuth>204.67828369140625</azimuth><distance>0.3758305311203003</distance><timeResidual>0.37083935737609863</timeResidual><timeUsed>true</timeUsed><horizontalSlownessUsed>false</horizontalSlownessUsed><backazimuthUsed>false</backazimuthUsed><weight>1</weight></arrival><arrival><pickID>de.gempa.tb1.Pick/20250412142745.464114.162965</pickID><phase>P</phase><azimuth>40.310123443603516</azimuth><distance>1.138827919960022</distance><timeResidual>0.9015963077545166</timeResidual><timeUsed>true</timeUsed><horizontalSlownessUsed>false</horizontalSlownessUsed><backazimuthUsed>false</backazimuthUsed><weight>1</weight></arrival><magnitude publicID="de.gempa.tb1.Magnitude/20250412142905.929211.238975"><magnitude><value>1.700016112212026</value></magnitude><type>M</type><methodID>weighted average</methodID><stationCount>5</stationCount></magnitude></origin><event publicID="gempa2025hfre"><preferredOriginID>de.gempa.tb1.Origin/20250412142745.465732.104137</preferredOriginID><preferredMagnitudeID>de.gempa.tb1.Magnitude/20250412142905.929211.238975</preferredMagnitudeID><typeCertainty>suspected</typeCertainty><description><text>Switzerland</text><type>region name</type></description><originReference>de.gempa.tb1.Origin/20250412142745.465732.104137</originReference></event></EventParameters></seiscomp>