<?xml version="1.0" encoding="UTF-8"?>
<seiscomp xmlns="http://geofon.gfz-potsdam.de/ns/seiscomp3-schema/0.13" version="0.13"><EventParameters><pick publicID="de.gempa.tb1.Pick/20250412035511.783925.121717"><time><value>2025-04-12T03:55:06.728393Z</value></time><waveformID networkCode="CX" stationCode="PB01" channelCode="HHZ"/><filterID>ITAPER(4)&gt;&gt;BW(4,4,20)</filterID><methodID>AIC</methodID><horizontalSlowness><value>21.213485292142195</value></horizontalSlowness><backazimuth><value>303.0783658535497</value></backazimuth><phaseHint>P</phaseHint><evaluationMode>automatic</evaluationMode><comment><text>19.82713080008287</text><id>DFX:rectilinearity</id></comment><comment><text>10.490097019878291</text><id>SNR</id></comment></pick><pick publicID="de.gempa.tb1.Pick/20250412035512.535824.121719"><time><value>2025-04-12T03:55:04.838391Z</value></time><waveformID networkCode="CX" stationCode="PB03" channelCode="HHZ"/><filterID>ITAPER(4)&gt;&gt;BW(4,4,20)</filterID><methodID>AIC</methodID><horizontalSlowness><value>16.394069648540896</value></horizontalSlowness><backazimuth><value>45.77077605335566</value></backazimuth><phaseHint>P</phaseHint><evaluationMode>automatic</evaluationMode><comment><text>6.184432911315228</text><id>DFX:rectilinearity</id></comment><comment><text>9.517388855186327</text><id>SNR</id></comment></pick><pick publicID="de.gempa.tb1.Pick/20250412035513.564427.121721"><time><value>2025-04-12T03:55:05.698393Z</value></time><waveformID networkCode="CX" stationCode="PB06" channelCode="HHZ"/><filterID>ITAPER(4)&gt;&gt;BW(4,4,20)</filterID><methodID>AIC</methodID><horizontalSlowness><value>20.88243864847476</value></horizontalSlowness><backazimuth><value>109.76607051486621</value></backazimuth><phaseHint>P</phaseHint><evaluationMode>automatic</evaluationMode><comment><text>53.29111847681315</text><id>DFX:rectilinearity</id></comment><comment><text>8.914547185762219</text><id>SNR</id></comment></pick><pick publicID="de.gempa.tb1.Pick/20250412035514.469092.121723"><time><value>2025-04-12T03:55:08.078393Z</value></time><waveformID networkCode="CX" stationCode="PB02" channelCode="HHZ"/><filterID>ITAPER(4)&gt;&gt;BW(4,4,20)</filterID><methodID>AIC</methodID><horizontalSlowness><value>12.796628179509693</value></horizontalSlowness><backazimuth><value>37.104622681629365</value></backazimuth><phaseHint>P</phaseHint><evaluationMode>automatic</evaluationMode><comment><text>18.145723633684963</text><id>DFX:rectilinearity</id></comment><comment><text>15.722316086526053</text><id>SNR</id></comment></pick><pick publicID="de.gempa.tb1.Pick/20250412035518.839967.121725"><time><value>2025-04-12T03:55:00.92Z</value></time><waveformID networkCode="CX" stationCode="PB09" channelCode="HHZ"/><filterID>ITAPER(4)&gt;&gt;BW(4,4,20)</filterID><methodID>AIC</methodID><horizontalSlowness><value>17.59749720080048</value></horizontalSlowness><backazimuth><value>359.4213184354901</value></backazimuth><phaseHint>P</phaseHint><evaluationMode>automatic</evaluationMode><comment><text>11.3284045118162</text><id>DFX:rectilinearity</id></comment><comment><text>28.99513582617244</text><id>SNR</id></comment></pick><pick publicID="de.gempa.tb1.Pick/20250412035531.56649.121727"><time><value>2025-04-12T03:55:22.868391Z</value></time><waveformID networkCode="CX" stationCode="PB03" channelCode="HHN"/><filterID>ITAPER(2)&gt;&gt;BW(3,3,20)</filterID><methodID>L2-AIC-GRID</methodID><horizontalSlowness><value>11.557000788581865</value></horizontalSlowness><backazimuth><value>53.11164785089501</value></backazimuth><phaseHint>S</phaseHint><evaluationMode>automatic</evaluationMode><comment><text>12.637768130411486</text><id>DFX:rectilinearity</id></comment><comment><text>de.gempa.tb1.Pick/20250412035512.535824.121719</text><id>RefPickID</id></comment><comment><text>7.810438755414783</text><id>SNR</id></comment></pick><pick publicID="de.gempa.tb1.Pick/20250412035532.697234.121730"><time><value>2025-04-12T03:55:25.718393Z</value></time><waveformID networkCode="CX" stationCode="PB01" channelCode="HHN"/><filterID>ITAPER(2)&gt;&gt;BW(3,3,20)</filterID><methodID>L2-AIC-GRID</methodID><horizontalSlowness><value>18.412817853515545</value></horizontalSlowness><backazimuth><value>338.3222333795483</value></backazimuth><phaseHint>S</phaseHint><evaluationMode>automatic</evaluationMode><comment><text>19.842865606706397</text><id>DFX:rectilinearity</id></comment><comment><text>de.gempa.tb1.Pick/20250412035511.783925.121717</text><id>RefPickID</id></comment><comment><text>7.56553908036784</text><id>SNR</id></comment></pick><pick publicID="de.gempa.tb1.Pick/20250412035537.483366.121733"><time><value>2025-04-12T03:55:28.318393Z</value></time><waveformID networkCode="CX" stationCode="PB02" channelCode="HHN"/><filterID>ITAPER(2)&gt;&gt;BW(3,3,20)</filterID><methodID>L2-AIC-GRID</methodID><horizontalSlowness><value>11.716108826937688</value></horizontalSlowness><backazimuth><value>338.49894459836457</value></backazimuth><phaseHint>S</phaseHint><evaluationMode>automatic</evaluationMode><comment><text>38.92539097374929</text><id>DFX:rectilinearity</id></comment><comment><text>de.gempa.tb1.Pick/20250412035514.469092.121723</text><id>RefPickID</id></comment><comment><text>5.250347929958441</text><id>SNR</id></comment></pick><pick publicID="de.gempa.tb1.Pick/20250412035556.940278.121734"><time><value>2025-04-12T03:55:06.438394Z</value></time><waveformID networkCode="CX" stationCode="PB07" channelCode="HHZ"/><filterID>ITAPER(4)&gt;&gt;BW(4,4,20)</filterID><methodID>AIC</methodID><horizontalSlowness><value>22.270770200759348</value></horizontalSlowness><backazimuth><value>210.5966815593816</value></backazimuth><phaseHint>P</phaseHint><evaluationMode>automatic</evaluationMode><comment><text>186.3604793026491</text><id>DFX:rectilinearity</id></comment><comment><text>53.48853272293661</text><id>SNR</id></comment></pick><origin publicID="de.gempa.tb1.Origin/20250412035557.041234.73132"><time><value>2025-04-12T03:54:41.835462Z</value><uncertainty>1.2319090366363525</uncertainty></time><latitude><value>-21.97016716003418</value><uncertainty>6.39578914642334</uncertainty></latitude><longitude><value>-68.5894775390625</value><uncertainty>15.021321296691895</uncertainty></longitude><depth><value>122.10659790039062</value><uncertainty>19.44434356689453</uncertainty></depth><depthType>from location</depthType><methodID>LOCSAT</methodID><earthModelID>iasp91_scanloc</earthModelID><quality><associatedPhaseCount>9</associatedPhaseCount><usedPhaseCount>9</usedPhaseCount><associatedStationCount>6</associatedStationCount><usedStationCount>6</usedStationCount><depthPhaseCount>0</depthPhaseCount><standardError>0.0722214505117391</standardError><azimuthalGap>273.3410949707031</azimuthalGap><maximumDistance>1.377102255821228</maximumDistance><minimumDistance>0.6301879286766052</minimumDistance><medianDistance>1.2287975549697876</medianDistance></quality><uncertainty><minHorizontalUncertainty>13.711341857910156</minHorizontalUncertainty><maxHorizontalUncertainty>32.210777282714844</maxHorizontalUncertainty><azimuthMaxHorizontalUncertainty>90.55126953125</azimuthMaxHorizontalUncertainty><preferredDescription>horizontal uncertainty</preferredDescription></uncertainty><evaluationMode>automatic</evaluationMode><evaluationStatus>confirmed</evaluationStatus><comment><text>0.00</text><id>mismatchScore</id></comment><comment><text>mismatchScore</text><id>scevalMethod</id></comment><arrival><pickID>de.gempa.tb1.Pick/20250412035511.783925.121717</pickID><phase>P</phase><azimuth>317.64288330078125</azimuth><distance>1.2449581623077393</distance><timeResidual>0.12284088134765625</timeResidual><timeUsed>true</timeUsed><horizontalSlownessUsed>false</horizontalSlownessUsed><backazimuthUsed>false</backazimuthUsed><weight>1</weight></arrival><arrival><pickID>de.gempa.tb1.Pick/20250412035512.535824.121719</pickID><phase>P</phase><azimuth>265.6558532714844</azimuth><distance>1.0826363563537598</distance><timeResidual>-0.06803512573242188</timeResidual><timeUsed>true</timeUsed><horizontalSlownessUsed>false</horizontalSlownessUsed><backazimuthUsed>false</backazimuthUsed><weight>1</weight></arrival><arrival><pickID>de.gempa.tb1.Pick/20250412035513.564427.121721</pickID><phase>P</phase><azimuth>230.9839782714844</azimuth><distance>1.1675904989242554</distance><timeResidual>-0.07740592956542969</timeResidual><timeUsed>true</timeUsed><horizontalSlownessUsed>false</horizontalSlownessUsed><backazimuthUsed>false</backazimuthUsed><weight>1</weight></arrival><arrival><pickID>de.gempa.tb1.Pick/20250412035514.469092.121723</pickID><phase>P</phase><azimuth>297.7942199707031</azimuth><distance>1.377102255821228</distance><timeResidual>0.026790618896484375</timeResidual><timeUsed>true</timeUsed><horizontalSlownessUsed>false</horizontalSlownessUsed><backazimuthUsed>false</backazimuthUsed><weight>1</weight></arrival><arrival><pickID>de.gempa.tb1.Pick/20250412035518.839967.121725</pickID><phase>P</phase><azimuth>285.8072204589844</azimuth><distance>0.6301879286766052</distance><timeResidual>0.006700515747070312</timeResidual><timeUsed>true</timeUsed><horizontalSlownessUsed>false</horizontalSlownessUsed><backazimuthUsed>false</backazimuthUsed><weight>1</weight></arrival><arrival><pickID>de.gempa.tb1.Pick/20250412035531.56649.121727</pickID><phase>S</phase><azimuth>265.6558532714844</azimuth><distance>1.0826363563537598</distance><timeResidual>0.10876083374023438</timeResidual><timeUsed>true</timeUsed><horizontalSlownessUsed>false</horizontalSlownessUsed><backazimuthUsed>false</backazimuthUsed><weight>1</weight></arrival><arrival><pickID>de.gempa.tb1.Pick/20250412035532.697234.121730</pickID><phase>S</phase><azimuth>317.64288330078125</azimuth><distance>1.2449581623077393</distance><timeResidual>-0.07288360595703125</timeResidual><timeUsed>true</timeUsed><horizontalSlownessUsed>false</horizontalSlownessUsed><backazimuthUsed>false</backazimuthUsed><weight>1</weight></arrival><arrival><pickID>de.gempa.tb1.Pick/20250412035537.483366.121733</pickID><phase>S</phase><azimuth>297.7942199707031</azimuth><distance>1.377102255821228</distance><timeResidual>-0.05683326721191406</timeResidual><timeUsed>true</timeUsed><horizontalSlownessUsed>false</horizontalSlownessUsed><backazimuthUsed>false</backazimuthUsed><weight>1</weight></arrival><arrival><pickID>de.gempa.tb1.Pick/20250412035556.940278.121734</pickID><phase>P</phase><azimuth>281.1326904296875</azimuth><distance>1.2287975549697876</distance><timeResidual>0.009975433349609375</timeResidual><timeUsed>true</timeUsed><horizontalSlownessUsed>false</horizontalSlownessUsed><backazimuthUsed>false</backazimuthUsed><weight>1</weight></arrival><magnitude publicID="de.gempa.tb1.Magnitude/20250412035624.959118.171969"><magnitude><value>2.2938175163958903</value></magnitude><type>M</type><methodID>weighted average</methodID><stationCount>4</stationCount></magnitude></origin><event publicID="gempa2025hewa"><preferredOriginID>de.gempa.tb1.Origin/20250412035557.041234.73132</preferredOriginID><preferredMagnitudeID>de.gempa.tb1.Magnitude/20250412035624.959118.171969</preferredMagnitudeID><description><text>Chile-Bolivia Border Region</text><type>region name</type></description><originReference>de.gempa.tb1.Origin/20250412035557.041234.73132</originReference></event></EventParameters></seiscomp>