<?xml version="1.0" encoding="UTF-8"?>
<seiscomp xmlns="http://geofon.gfz-potsdam.de/ns/seiscomp3-schema/0.13" version="0.13"><EventParameters><pick publicID="de.gempa.tb1.Pick/20250415025716.521458.143078"><time><value>2025-04-15T02:57:11.958393Z</value></time><waveformID networkCode="CX" stationCode="PB01" channelCode="HHZ"/><filterID>ITAPER(4)&gt;&gt;BW(4,4,20)</filterID><methodID>AIC</methodID><horizontalSlowness><value>18.892543551607638</value></horizontalSlowness><backazimuth><value>8.41589840323789</value></backazimuth><phaseHint>P</phaseHint><evaluationMode>automatic</evaluationMode><comment><text>14.099309853156194</text><id>DFX:rectilinearity</id></comment><comment><text>6.495574628267681</text><id>SNR</id></comment></pick><pick publicID="de.gempa.tb1.Pick/20250415025724.725186.143080"><time><value>2025-04-15T02:57:17.138393Z</value></time><waveformID networkCode="CX" stationCode="PB07" channelCode="HHZ"/><filterID>ITAPER(4)&gt;&gt;BW(4,4,20)</filterID><methodID>AIC</methodID><horizontalSlowness><value>19.653388839242979</value></horizontalSlowness><backazimuth><value>306.0974363379929</value></backazimuth><phaseHint>P</phaseHint><evaluationMode>automatic</evaluationMode><comment><text>392.7548153574533</text><id>DFX:rectilinearity</id></comment><comment><text>12.693572342555367</text><id>SNR</id></comment></pick><pick publicID="de.gempa.tb1.Pick/20250415025725.325778.143082"><time><value>2025-04-15T02:57:13.37Z</value></time><waveformID networkCode="CX" stationCode="PB09" channelCode="HHZ"/><filterID>ITAPER(4)&gt;&gt;BW(4,4,20)</filterID><methodID>AIC</methodID><horizontalSlowness><value>22.78914874409608</value></horizontalSlowness><backazimuth><value>56.90692601099548</value></backazimuth><phaseHint>P</phaseHint><evaluationMode>automatic</evaluationMode><comment><text>15.231151049822838</text><id>DFX:rectilinearity</id></comment><comment><text>20.092364454422267</text><id>SNR</id></comment></pick><pick publicID="de.gempa.tb1.Pick/20250415025735.641142.143086"><time><value>2025-04-15T02:57:26.078393Z</value></time><waveformID networkCode="CX" stationCode="PB01" channelCode="HHN"/><filterID>ITAPER(2)&gt;&gt;BW(3,3,20)</filterID><methodID>L2-AIC-GRID</methodID><horizontalSlowness><value>20.751176094171413</value></horizontalSlowness><backazimuth><value>354.42914100093083</value></backazimuth><phaseHint>S</phaseHint><evaluationMode>automatic</evaluationMode><comment><text>47.17123804358769</text><id>DFX:rectilinearity</id></comment><comment><text>de.gempa.tb1.Pick/20250415025716.521458.143078</text><id>RefPickID</id></comment><comment><text>5.8788412139901</text><id>SNR</id></comment></pick><pick publicID="de.gempa.tb1.Pick/20250415025743.503044.143089"><time><value>2025-04-15T02:57:29.29Z</value></time><waveformID networkCode="CX" stationCode="PB09" channelCode="HHN"/><filterID>ITAPER(2)&gt;&gt;BW(3,3,20)</filterID><methodID>L2-AIC-GRID</methodID><horizontalSlowness><value>16.35586686190078</value></horizontalSlowness><backazimuth><value>299.6646655453245</value></backazimuth><phaseHint>S</phaseHint><evaluationMode>automatic</evaluationMode><comment><text>56.4532630707079</text><id>DFX:rectilinearity</id></comment><comment><text>de.gempa.tb1.Pick/20250415025725.325778.143082</text><id>RefPickID</id></comment><comment><text>5.114259177806839</text><id>SNR</id></comment></pick><pick publicID="de.gempa.tb1.Pick/20250415025750.899548.143093"><time><value>2025-04-15T02:57:36.718393Z</value></time><waveformID networkCode="CX" stationCode="PB07" channelCode="HHN"/><filterID>ITAPER(2)&gt;&gt;BW(3,3,20)</filterID><methodID>L2-AIC-GRID</methodID><horizontalSlowness><value>21.653145036147315</value></horizontalSlowness><backazimuth><value>270.32315975589347</value></backazimuth><phaseHint>S</phaseHint><evaluationMode>automatic</evaluationMode><comment><text>315.60283450997724</text><id>DFX:rectilinearity</id></comment><comment><text>de.gempa.tb1.Pick/20250415025724.725186.143080</text><id>RefPickID</id></comment><comment><text>5.568942731083699</text><id>SNR</id></comment></pick><origin publicID="de.gempa.tb1.Origin/20250415025750.90359.159011"><time><value>2025-04-15T02:56:52.746906Z</value><uncertainty>1.4977293014526367</uncertainty></time><latitude><value>-21.02574348449707</value><uncertainty>8.609232902526855</uncertainty></latitude><longitude><value>-68.71356964111328</value><uncertainty>13.442155838012695</uncertainty></longitude><depth><value>113.3004150390625</value><uncertainty>13.04111671447754</uncertainty></depth><depthType>from location</depthType><methodID>LOCSAT</methodID><earthModelID>iasp91_scanloc</earthModelID><quality><associatedPhaseCount>6</associatedPhaseCount><usedPhaseCount>6</usedPhaseCount><associatedStationCount>3</associatedStationCount><usedStationCount>3</usedStationCount><depthPhaseCount>0</depthPhaseCount><standardError>0.19719332904847867</standardError><azimuthalGap>304.1225128173828</azimuthalGap><maximumDistance>1.296491026878357</maximumDistance><minimumDistance>0.7230926156044006</minimumDistance><medianDistance>0.9112751483917236</medianDistance></quality><uncertainty><minHorizontalUncertainty>18.306133270263672</minHorizontalUncertainty><maxHorizontalUncertainty>28.928096771240234</maxHorizontalUncertainty><azimuthMaxHorizontalUncertainty>83.83816528320312</azimuthMaxHorizontalUncertainty><preferredDescription>horizontal uncertainty</preferredDescription></uncertainty><evaluationMode>automatic</evaluationMode><evaluationStatus>confirmed</evaluationStatus><comment><text>0.25</text><id>mismatchScore</id></comment><comment><text>mismatchScore</text><id>scevalMethod</id></comment><arrival><pickID>de.gempa.tb1.Pick/20250415025716.521458.143078</pickID><phase>P</phase><azimuth>268.483154296875</azimuth><distance>0.7230926156044006</distance><timeResidual>0.2978019714355469</timeResidual><timeUsed>true</timeUsed><horizontalSlownessUsed>false</horizontalSlownessUsed><backazimuthUsed>false</backazimuthUsed><weight>1</weight></arrival><arrival><pickID>de.gempa.tb1.Pick/20250415025724.725186.143080</pickID><phase>P</phase><azimuth>237.2434997558594</azimuth><distance>1.296491026878357</distance><timeResidual>-0.2986488342285156</timeResidual><timeUsed>true</timeUsed><horizontalSlownessUsed>false</horizontalSlownessUsed><backazimuthUsed>false</backazimuthUsed><weight>1</weight></arrival><arrival><pickID>de.gempa.tb1.Pick/20250415025725.325778.143082</pickID><phase>P</phase><azimuth>212.6056671142578</azimuth><distance>0.9112751483917236</distance><timeResidual>0.0012378692626953125</timeResidual><timeUsed>true</timeUsed><horizontalSlownessUsed>false</horizontalSlownessUsed><backazimuthUsed>false</backazimuthUsed><weight>1</weight></arrival><arrival><pickID>de.gempa.tb1.Pick/20250415025735.641142.143086</pickID><phase>S</phase><azimuth>268.483154296875</azimuth><distance>0.7230926156044006</distance><timeResidual>-0.16666030883789062</timeResidual><timeUsed>true</timeUsed><horizontalSlownessUsed>false</horizontalSlownessUsed><backazimuthUsed>false</backazimuthUsed><weight>1</weight></arrival><arrival><pickID>de.gempa.tb1.Pick/20250415025743.503044.143089</pickID><phase>S</phase><azimuth>212.6056671142578</azimuth><distance>0.9112751483917236</distance><timeResidual>-0.0001678466796875</timeResidual><timeUsed>true</timeUsed><horizontalSlownessUsed>false</horizontalSlownessUsed><backazimuthUsed>false</backazimuthUsed><weight>1</weight></arrival><arrival><pickID>de.gempa.tb1.Pick/20250415025750.899548.143093</pickID><phase>S</phase><azimuth>237.2434997558594</azimuth><distance>1.296491026878357</distance><timeResidual>0.1663036346435547</timeResidual><timeUsed>true</timeUsed><horizontalSlownessUsed>false</horizontalSlownessUsed><backazimuthUsed>false</backazimuthUsed><weight>1</weight></arrival><magnitude publicID="de.gempa.tb1.Magnitude/20250415025817.826735.564936"><magnitude><value>1.7720681707365047</value></magnitude><type>M</type><methodID>weighted average</methodID><stationCount>1</stationCount></magnitude></origin><event publicID="gempa2025hkie"><preferredOriginID>de.gempa.tb1.Origin/20250415025750.90359.159011</preferredOriginID><preferredMagnitudeID>de.gempa.tb1.Magnitude/20250415025817.826735.564936</preferredMagnitudeID><description><text>Chile-Bolivia Border Region</text><type>region name</type></description><originReference>de.gempa.tb1.Origin/20250415025750.90359.159011</originReference></event></EventParameters></seiscomp>