<?xml version="1.0" encoding="UTF-8"?>
<seiscomp xmlns="http://geofon.gfz-potsdam.de/ns/seiscomp3-schema/0.13" version="0.13"><EventParameters><pick publicID="de.gempa.tb1.Pick/20250412095217.402508.123311"><time><value>2025-04-12T09:52:09.669999Z</value></time><waveformID networkCode="CX" stationCode="PATCX" channelCode="HHZ"/><filterID>ITAPER(4)&gt;&gt;BW(4,4,20)</filterID><methodID>AIC</methodID><horizontalSlowness><value>21.917064030614505</value></horizontalSlowness><backazimuth><value>277.1298019624241</value></backazimuth><phaseHint>P</phaseHint><evaluationMode>automatic</evaluationMode><comment><text>172.0609834374796</text><id>DFX:rectilinearity</id></comment><comment><text>10.761468949347291</text><id>SNR</id></comment></pick><pick publicID="de.gempa.tb1.Pick/20250412095219.498564.123313"><time><value>2025-04-12T09:52:14.608393Z</value></time><waveformID networkCode="CX" stationCode="PB02" channelCode="HHZ"/><filterID>ITAPER(4)&gt;&gt;BW(4,4,20)</filterID><methodID>AIC</methodID><horizontalSlowness><value>6.091849107955051</value></horizontalSlowness><backazimuth><value>48.10987108263816</value></backazimuth><phaseHint>P</phaseHint><evaluationMode>automatic</evaluationMode><comment><text>35.486028293519844</text><id>DFX:rectilinearity</id></comment><comment><text>11.147417644244285</text><id>SNR</id></comment></pick><pick publicID="de.gempa.tb1.Pick/20250412095219.531874.123315"><time><value>2025-04-12T09:52:11.788393Z</value></time><waveformID networkCode="CX" stationCode="PB01" channelCode="HHZ"/><filterID>ITAPER(4)&gt;&gt;BW(4,4,20)</filterID><methodID>AIC</methodID><horizontalSlowness><value>21.231727901800912</value></horizontalSlowness><backazimuth><value>350.22493377616036</value></backazimuth><phaseHint>P</phaseHint><evaluationMode>automatic</evaluationMode><comment><text>11.2239241314714</text><id>DFX:rectilinearity</id></comment><comment><text>13.592150092672153</text><id>SNR</id></comment></pick><pick publicID="de.gempa.tb1.Pick/20250412095223.628399.123320"><time><value>2025-04-12T09:52:18.38Z</value></time><waveformID networkCode="CX" stationCode="PSGCX" channelCode="HHZ"/><filterID>ITAPER(4)&gt;&gt;BW(4,4,20)</filterID><methodID>AIC</methodID><horizontalSlowness><value>12.076698885650679</value></horizontalSlowness><backazimuth><value>265.23785442094686</value></backazimuth><phaseHint>P</phaseHint><evaluationMode>automatic</evaluationMode><comment><text>14.565839193314568</text><id>DFX:rectilinearity</id></comment><comment><text>11.86732698804902</text><id>SNR</id></comment></pick><pick publicID="de.gempa.tb1.Pick/20250412095227.586137.123322"><time><value>2025-04-12T09:52:19.818393Z</value></time><waveformID networkCode="CX" stationCode="PB01" channelCode="HHN"/><filterID>ITAPER(2)&gt;&gt;BW(3,3,20)</filterID><methodID>L2-AIC-GRID</methodID><horizontalSlowness><value>20.51349740788059</value></horizontalSlowness><backazimuth><value>141.37514979905467</value></backazimuth><phaseHint>S</phaseHint><evaluationMode>automatic</evaluationMode><comment><text>151.09553279873944</text><id>DFX:rectilinearity</id></comment><comment><text>de.gempa.tb1.Pick/20250412095219.531874.123315</text><id>RefPickID</id></comment><comment><text>23.95011328483543</text><id>SNR</id></comment></pick><pick publicID="de.gempa.tb1.Pick/20250412095242.510846.123327"><time><value>2025-04-12T09:52:23.63Z</value></time><waveformID networkCode="CX" stationCode="PB09" channelCode="HHZ"/><filterID>ITAPER(4)&gt;&gt;BW(4,4,20)</filterID><methodID>AIC</methodID><horizontalSlowness><value>17.304494780587117</value></horizontalSlowness><backazimuth><value>285.9737104157938</value></backazimuth><phaseHint>P</phaseHint><evaluationMode>automatic</evaluationMode><comment><text>8.493883959985125</text><id>DFX:rectilinearity</id></comment><comment><text>12.686342610342862</text><id>SNR</id></comment></pick><origin publicID="de.gempa.tb1.Origin/20250412095245.91081.80491"><time><value>2025-04-12T09:52:00.203351Z</value><uncertainty>0.7400467991828918</uncertainty></time><latitude><value>-20.544055938720703</value><uncertainty>6.530617237091064</uncertainty></latitude><longitude><value>-69.7882080078125</value><uncertainty>6.593263149261475</uncertainty></longitude><depth><value>25.38978958129883</value><uncertainty>9.130562782287598</uncertainty></depth><depthType>from location</depthType><methodID>LOCSAT</methodID><earthModelID>iasp91_scanloc</earthModelID><quality><associatedPhaseCount>6</associatedPhaseCount><usedPhaseCount>6</usedPhaseCount><associatedStationCount>5</associatedStationCount><usedStationCount>5</usedStationCount><depthPhaseCount>0</depthPhaseCount><standardError>0.26714842785541804</standardError><azimuthalGap>169.04620361328125</azimuthalGap><maximumDistance>1.3463774919509888</maximumDistance><minimumDistance>0.43858513236045837</minimumDistance><medianDistance>0.7783496975898743</medianDistance></quality><uncertainty><minHorizontalUncertainty>8.646334648132324</minHorizontalUncertainty><maxHorizontalUncertainty>17.925975799560547</maxHorizontalUncertainty><azimuthMaxHorizontalUncertainty>45.4393424987793</azimuthMaxHorizontalUncertainty><preferredDescription>horizontal uncertainty</preferredDescription></uncertainty><evaluationMode>automatic</evaluationMode><evaluationStatus>confirmed</evaluationStatus><comment><text>0.14</text><id>mismatchScore</id></comment><comment><text>mismatchScore</text><id>scevalMethod</id></comment><arrival><pickID>de.gempa.tb1.Pick/20250412095217.402508.123311</pickID><phase>P</phase><azimuth>231.0623016357422</azimuth><distance>0.43858513236045837</distance><timeResidual>0.25463199615478516</timeResidual><timeUsed>true</timeUsed><horizontalSlownessUsed>false</horizontalSlownessUsed><backazimuthUsed>false</backazimuthUsed><weight>1</weight></arrival><arrival><pickID>de.gempa.tb1.Pick/20250412095219.498564.123313</pickID><phase>P</phase><azimuth>187.4210662841797</azimuth><distance>0.7783496975898743</distance><timeResidual>-0.4840278625488281</timeResidual><timeUsed>true</timeUsed><horizontalSlownessUsed>false</horizontalSlownessUsed><backazimuthUsed>false</backazimuthUsed><weight>1</weight></arrival><arrival><pickID>de.gempa.tb1.Pick/20250412095219.531874.123315</pickID><phase>P</phase><azimuth>150.51327514648438</azimuth><distance>0.5708721876144409</distance><timeResidual>0.1852102279663086</timeResidual><timeUsed>true</timeUsed><horizontalSlownessUsed>false</horizontalSlownessUsed><backazimuthUsed>false</backazimuthUsed><weight>1</weight></arrival><arrival><pickID>de.gempa.tb1.Pick/20250412095223.628399.123320</pickID><phase>P</phase><azimuth>341.4670715332031</azimuth><distance>0.9932178854942322</distance><timeResidual>-0.1278247833251953</timeResidual><timeUsed>true</timeUsed><horizontalSlownessUsed>false</horizontalSlownessUsed><backazimuthUsed>false</backazimuthUsed><weight>1</weight></arrival><arrival><pickID>de.gempa.tb1.Pick/20250412095227.586137.123322</pickID><phase>S</phase><azimuth>150.51327514648438</azimuth><distance>0.5708721876144409</distance><timeResidual>-0.09239387512207031</timeResidual><timeUsed>true</timeUsed><horizontalSlownessUsed>false</horizontalSlownessUsed><backazimuthUsed>false</backazimuthUsed><weight>1</weight></arrival><arrival><pickID>de.gempa.tb1.Pick/20250412095242.510846.123327</pickID><phase>P</phase><azimuth>157.8448944091797</azimuth><distance>1.3463774919509888</distance><timeResidual>0.2644062042236328</timeResidual><timeUsed>true</timeUsed><horizontalSlownessUsed>false</horizontalSlownessUsed><backazimuthUsed>false</backazimuthUsed><weight>1</weight></arrival><magnitude publicID="de.gempa.tb1.Magnitude/20250412095245.914495.207442"><magnitude><value>2.0778088246034394</value></magnitude><type>M</type><methodID>weighted average</methodID><stationCount>4</stationCount></magnitude></origin><event publicID="gempa2025hfhy"><preferredOriginID>de.gempa.tb1.Origin/20250412095245.91081.80491</preferredOriginID><preferredMagnitudeID>de.gempa.tb1.Magnitude/20250412095245.914495.207442</preferredMagnitudeID><description><text>Northern Chile</text><type>region name</type></description><originReference>de.gempa.tb1.Origin/20250412095245.91081.80491</originReference></event></EventParameters></seiscomp>