<?xml version="1.0" encoding="UTF-8"?>
<seiscomp xmlns="http://geofon.gfz-potsdam.de/ns/seiscomp3-schema/0.13" version="0.13"><EventParameters><pick publicID="de.gempa.tb1.Pick/20250413095033.521685.130440"><time><value>2025-04-13T09:50:29.06Z</value></time><waveformID networkCode="CX" stationCode="PB19" channelCode="HHZ"/><filterID>ITAPER(4)&gt;&gt;BW(4,4,20)</filterID><methodID>AIC</methodID><horizontalSlowness><value>15.224630873806003</value></horizontalSlowness><backazimuth><value>110.80619931831626</value></backazimuth><phaseHint>P</phaseHint><evaluationMode>automatic</evaluationMode><comment><text>164.21137573855387</text><id>DFX:rectilinearity</id></comment><comment><text>72.78518266939108</text><id>SNR</id></comment></pick><pick publicID="de.gempa.tb1.Pick/20250413095035.754321.130442"><time><value>2025-04-13T09:50:30.968393Z</value></time><waveformID networkCode="CX" stationCode="PB15" channelCode="HHZ"/><filterID>ITAPER(4)&gt;&gt;BW(4,4,20)</filterID><methodID>AIC</methodID><horizontalSlowness><value>16.98066757270765</value></horizontalSlowness><backazimuth><value>98.80944403163012</value></backazimuth><phaseHint>P</phaseHint><evaluationMode>automatic</evaluationMode><comment><text>374.73599174962897</text><id>DFX:rectilinearity</id></comment><comment><text>41.251068687087205</text><id>SNR</id></comment></pick><pick publicID="de.gempa.tb1.Pick/20250413095039.631733.130444"><time><value>2025-04-13T09:50:33.508393Z</value></time><waveformID networkCode="CX" stationCode="PB06" channelCode="HHZ"/><filterID>ITAPER(4)&gt;&gt;BW(4,4,20)</filterID><methodID>AIC</methodID><horizontalSlowness><value>5.326684680809445</value></horizontalSlowness><backazimuth><value>115.94238053022298</value></backazimuth><phaseHint>P</phaseHint><evaluationMode>automatic</evaluationMode><comment><text>118.36389824605499</text><id>DFX:rectilinearity</id></comment><comment><text>82.37186143645302</text><id>SNR</id></comment></pick><pick publicID="de.gempa.tb1.Pick/20250413095045.772667.130446"><time><value>2025-04-13T09:50:38.078393Z</value></time><waveformID networkCode="CX" stationCode="PB03" channelCode="HHZ"/><filterID>ITAPER(4)&gt;&gt;BW(4,4,20)</filterID><methodID>AIC</methodID><horizontalSlowness><value>10.326697816761769</value></horizontalSlowness><backazimuth><value>122.9556298624031</value></backazimuth><phaseHint>P</phaseHint><evaluationMode>automatic</evaluationMode><comment><text>209.2408313439887</text><id>DFX:rectilinearity</id></comment><comment><text>91.75349322548803</text><id>SNR</id></comment></pick><pick publicID="de.gempa.tb1.Pick/20250413095046.191029.130448"><time><value>2025-04-13T09:50:41.47Z</value></time><waveformID networkCode="CX" stationCode="PB10" channelCode="HHZ"/><filterID>ITAPER(4)&gt;&gt;BW(4,4,20)</filterID><methodID>AIC</methodID><horizontalSlowness><value>11.649235450527733</value></horizontalSlowness><backazimuth><value>103.54197091702912</value></backazimuth><phaseHint>P</phaseHint><evaluationMode>automatic</evaluationMode><comment><text>889.3851012553538</text><id>DFX:rectilinearity</id></comment><comment><text>35.75692216724063</text><id>SNR</id></comment></pick><pick publicID="de.gempa.tb1.Pick/20250413095050.555853.130450"><time><value>2025-04-13T09:50:43.128394Z</value></time><waveformID networkCode="CX" stationCode="PB01" channelCode="HHZ"/><filterID>ITAPER(4)&gt;&gt;BW(4,4,20)</filterID><methodID>AIC</methodID><horizontalSlowness><value>19.873633752144421</value></horizontalSlowness><backazimuth><value>247.0161056140552</value></backazimuth><phaseHint>P</phaseHint><evaluationMode>automatic</evaluationMode><comment><text>18.59753313027408</text><id>DFX:rectilinearity</id></comment><comment><text>26.1259299087894</text><id>SNR</id></comment></pick><pick publicID="de.gempa.tb1.Pick/20250413095052.453035.130454"><time><value>2025-04-13T09:50:44.148393Z</value></time><waveformID networkCode="CX" stationCode="PB02" channelCode="HHZ"/><filterID>ITAPER(4)&gt;&gt;BW(4,4,20)</filterID><methodID>AIC</methodID><horizontalSlowness><value>7.336253257781483</value></horizontalSlowness><backazimuth><value>288.8743254809345</value></backazimuth><phaseHint>P</phaseHint><evaluationMode>automatic</evaluationMode><comment><text>47.86065062471415</text><id>DFX:rectilinearity</id></comment><comment><text>21.375084960656338</text><id>SNR</id></comment></pick><pick publicID="de.gempa.tb1.Pick/20250413095057.377359.130456"><time><value>2025-04-13T09:50:41.178394Z</value></time><waveformID networkCode="CX" stationCode="PB07" channelCode="HHZ"/><filterID>ITAPER(4)&gt;&gt;BW(4,4,20)</filterID><methodID>AIC</methodID><horizontalSlowness><value>19.644751931063976</value></horizontalSlowness><backazimuth><value>152.17450370193498</value></backazimuth><phaseHint>P</phaseHint><evaluationMode>automatic</evaluationMode><comment><text>367.1822286030063</text><id>DFX:rectilinearity</id></comment><comment><text>174.07608702869092</text><id>SNR</id></comment></pick><pick publicID="de.gempa.tb1.Pick/20250413095106.508903.130459"><time><value>2025-04-13T09:51:00.44Z</value></time><waveformID networkCode="CX" stationCode="PSGCX" channelCode="HHZ"/><filterID>ITAPER(4)&gt;&gt;BW(4,4,20)</filterID><methodID>AIC</methodID><horizontalSlowness><value>16.100972098419032</value></horizontalSlowness><backazimuth><value>93.87207792872321</value></backazimuth><phaseHint>P</phaseHint><evaluationMode>automatic</evaluationMode><comment><text>39.80374567825506</text><id>DFX:rectilinearity</id></comment><comment><text>11.176664119868963</text><id>SNR</id></comment></pick><pick publicID="de.gempa.tb1.Pick/20250413095107.769519.130461"><time><value>2025-04-13T09:51:00.89Z</value></time><waveformID networkCode="CX" stationCode="PB19" channelCode="HHN"/><filterID>ITAPER(2)&gt;&gt;BW(3,3,20)</filterID><methodID>L2-AIC-GRID</methodID><horizontalSlowness><value>21.807592159130394</value></horizontalSlowness><backazimuth><value>112.67817755605202</value></backazimuth><phaseHint>S</phaseHint><evaluationMode>automatic</evaluationMode><comment><text>2081.806768446308</text><id>DFX:rectilinearity</id></comment><comment><text>de.gempa.tb1.Pick/20250413095033.521685.130440</text><id>RefPickID</id></comment><comment><text>8.393127754222999</text><id>SNR</id></comment></pick><pick publicID="de.gempa.tb1.Pick/20250413095114.866044.130463"><time><value>2025-04-13T09:51:05.028393Z</value></time><waveformID networkCode="CX" stationCode="PB15" channelCode="HHN"/><filterID>ITAPER(2)&gt;&gt;BW(3,3,20)</filterID><methodID>L2-AIC-GRID</methodID><horizontalSlowness><value>22.02309669061178</value></horizontalSlowness><backazimuth><value>85.44736746036</value></backazimuth><phaseHint>S</phaseHint><evaluationMode>automatic</evaluationMode><comment><text>28601.957258587274</text><id>DFX:rectilinearity</id></comment><comment><text>de.gempa.tb1.Pick/20250413095035.754321.130442</text><id>RefPickID</id></comment><comment><text>7.669544354878698</text><id>SNR</id></comment></pick><pick publicID="de.gempa.tb1.Pick/20250413095115.638434.130465"><time><value>2025-04-13T09:51:08.448393Z</value></time><waveformID networkCode="CX" stationCode="PB06" channelCode="HHN"/><filterID>ITAPER(2)&gt;&gt;BW(3,3,20)</filterID><methodID>L2-AIC-GRID</methodID><horizontalSlowness><value>23.29903152717639</value></horizontalSlowness><backazimuth><value>201.90448055806252</value></backazimuth><phaseHint>S</phaseHint><evaluationMode>automatic</evaluationMode><comment><text>1974.338880620563</text><id>DFX:rectilinearity</id></comment><comment><text>de.gempa.tb1.Pick/20250413095039.631733.130444</text><id>RefPickID</id></comment><comment><text>14.457746521127827</text><id>SNR</id></comment></pick><pick publicID="de.gempa.tb1.Pick/20250413095124.76326.130466"><time><value>2025-04-13T09:51:16.578393Z</value></time><waveformID networkCode="CX" stationCode="PB03" channelCode="HHN"/><filterID>ITAPER(2)&gt;&gt;BW(3,3,20)</filterID><methodID>L2-AIC-GRID</methodID><horizontalSlowness><value>20.582482253128333</value></horizontalSlowness><backazimuth><value>25.737822662026673</value></backazimuth><phaseHint>S</phaseHint><evaluationMode>automatic</evaluationMode><comment><text>753.0103482147669</text><id>DFX:rectilinearity</id></comment><comment><text>de.gempa.tb1.Pick/20250413095045.772667.130446</text><id>RefPickID</id></comment><comment><text>15.232214443266617</text><id>SNR</id></comment></pick><pick publicID="de.gempa.tb1.Pick/20250413095134.363908.130467"><time><value>2025-04-13T09:51:23.43Z</value></time><waveformID networkCode="CX" stationCode="PB10" channelCode="HHN"/><filterID>ITAPER(2)&gt;&gt;BW(3,3,20)</filterID><methodID>L2-AIC-GRID</methodID><horizontalSlowness><value>21.20831025767093</value></horizontalSlowness><backazimuth><value>247.37268547786107</value></backazimuth><phaseHint>S</phaseHint><evaluationMode>automatic</evaluationMode><comment><text>218.12058392164872</text><id>DFX:rectilinearity</id></comment><comment><text>de.gempa.tb1.Pick/20250413095046.191029.130448</text><id>RefPickID</id></comment><comment><text>5.247783735624083</text><id>SNR</id></comment></pick><pick publicID="de.gempa.tb1.Pick/20250413095135.490516.130468"><time><value>2025-04-13T09:51:27.008393Z</value></time><waveformID networkCode="CX" stationCode="PB02" channelCode="HHN"/><filterID>ITAPER(2)&gt;&gt;BW(3,3,20)</filterID><methodID>L2-AIC-GRID</methodID><horizontalSlowness><value>21.31359159179091</value></horizontalSlowness><backazimuth><value>270.8013935275084</value></backazimuth><phaseHint>S</phaseHint><evaluationMode>automatic</evaluationMode><comment><text>735.3435008458456</text><id>DFX:rectilinearity</id></comment><comment><text>de.gempa.tb1.Pick/20250413095052.453035.130454</text><id>RefPickID</id></comment><comment><text>10.513259286860658</text><id>SNR</id></comment></pick><pick publicID="de.gempa.tb1.Pick/20250413095135.763545.130469"><time><value>2025-04-13T09:51:26.038394Z</value></time><waveformID networkCode="CX" stationCode="PB01" channelCode="HHN"/><filterID>ITAPER(2)&gt;&gt;BW(3,3,20)</filterID><methodID>L2-AIC-GRID</methodID><horizontalSlowness><value>20.17568647819332</value></horizontalSlowness><backazimuth><value>284.7924168522686</value></backazimuth><phaseHint>S</phaseHint><evaluationMode>automatic</evaluationMode><comment><text>578.1103190990182</text><id>DFX:rectilinearity</id></comment><comment><text>de.gempa.tb1.Pick/20250413095050.555853.130450</text><id>RefPickID</id></comment><comment><text>19.539592518583987</text><id>SNR</id></comment></pick><pick publicID="de.gempa.tb1.Pick/20250413095157.366268.130470"><time><value>2025-04-13T09:51:22.028394Z</value></time><waveformID networkCode="CX" stationCode="PB07" channelCode="HHN"/><filterID>ITAPER(2)&gt;&gt;BW(3,3,20)</filterID><methodID>L2-AIC-GRID</methodID><horizontalSlowness><value>22.72706669711897</value></horizontalSlowness><backazimuth><value>62.39435974220568</value></backazimuth><phaseHint>S</phaseHint><evaluationMode>automatic</evaluationMode><comment><text>19934.378806462642</text><id>DFX:rectilinearity</id></comment><comment><text>de.gempa.tb1.Pick/20250413095057.377359.130456</text><id>RefPickID</id></comment><comment><text>12.49522226060704</text><id>SNR</id></comment></pick><origin publicID="de.gempa.tb1.Origin/20250413095157.36931.106966"><time><value>2025-04-13T09:49:48.925971Z</value><uncertainty>0.8379403948783875</uncertainty></time><latitude><value>-23.485599517822266</value><uncertainty>4.924118995666504</uncertainty></latitude><longitude><value>-67.13410186767578</value><uncertainty>13.403560638427734</uncertainty></longitude><depth><value>223.75189208984375</value><uncertainty>15.44034767150879</uncertainty></depth><depthType>from location</depthType><methodID>LOCSAT</methodID><earthModelID>iasp91_scanloc</earthModelID><quality><associatedPhaseCount>17</associatedPhaseCount><usedPhaseCount>17</usedPhaseCount><associatedStationCount>9</associatedStationCount><usedStationCount>9</usedStationCount><depthPhaseCount>0</depthPhaseCount><standardError>0.40011632831662425</standardError><azimuthalGap>293.9308166503906</azimuthalGap><maximumDistance>4.765583992004395</maximumDistance><minimumDistance>2.0204074382781982</minimumDistance><medianDistance>3.0872700214385986</medianDistance></quality><uncertainty><minHorizontalUncertainty>10.357319831848145</minHorizontalUncertainty><maxHorizontalUncertainty>28.80514907836914</maxHorizontalUncertainty><azimuthMaxHorizontalUncertainty>85.6532974243164</azimuthMaxHorizontalUncertainty><preferredDescription>horizontal uncertainty</preferredDescription></uncertainty><evaluationMode>automatic</evaluationMode><evaluationStatus>confirmed</evaluationStatus><comment><text>0.19</text><id>mismatchScore</id></comment><comment><text>mismatchScore</text><id>scevalMethod</id></comment><arrival><pickID>de.gempa.tb1.Pick/20250413095033.521685.130440</pickID><phase>P</phase><azimuth>257.6515808105469</azimuth><distance>2.0204074382781982</distance><timeResidual>-0.4434928894042969</timeResidual><timeUsed>true</timeUsed><horizontalSlownessUsed>false</horizontalSlownessUsed><backazimuthUsed>false</backazimuthUsed><weight>1</weight></arrival><arrival><pickID>de.gempa.tb1.Pick/20250413095035.754321.130442</pickID><phase>P</phase><azimuth>276.8609619140625</azimuth><distance>2.1653659343719482</distance><timeResidual>0.019580841064453125</timeResidual><timeUsed>true</timeUsed><horizontalSlownessUsed>false</horizontalSlownessUsed><backazimuthUsed>false</backazimuthUsed><weight>1</weight></arrival><arrival><pickID>de.gempa.tb1.Pick/20250413095039.631733.130444</pickID><phase>P</phase><azimuth>288.59613037109375</azimuth><distance>2.3750507831573486</distance><timeResidual>0.4139060974121094</timeResidual><timeUsed>true</timeUsed><horizontalSlownessUsed>false</horizontalSlownessUsed><backazimuthUsed>false</backazimuthUsed><weight>1</weight></arrival><arrival><pickID>de.gempa.tb1.Pick/20250413095045.772667.130446</pickID><phase>P</phase><azimuth>300.1041259765625</azimuth><distance>2.8087267875671387</distance><timeResidual>0.3049278259277344</timeResidual><timeUsed>true</timeUsed><horizontalSlownessUsed>false</horizontalSlownessUsed><backazimuthUsed>false</backazimuthUsed><weight>1</weight></arrival><arrival><pickID>de.gempa.tb1.Pick/20250413095046.191029.130448</pickID><phase>P</phase><azimuth>268.8164367675781</azimuth><distance>3.1397156715393066</distance><timeResidual>-0.024322509765625</timeResidual><timeUsed>true</timeUsed><horizontalSlownessUsed>false</horizontalSlownessUsed><backazimuthUsed>false</backazimuthUsed><weight>1</weight></arrival><arrival><pickID>de.gempa.tb1.Pick/20250413095050.555853.130450</pickID><phase>P</phase><azimuth>317.66339111328125</azimuth><distance>3.264833927154541</distance><timeResidual>0.1591339111328125</timeResidual><timeUsed>true</timeUsed><horizontalSlownessUsed>false</horizontalSlownessUsed><backazimuthUsed>false</backazimuthUsed><weight>1</weight></arrival><arrival><pickID>de.gempa.tb1.Pick/20250413095052.453035.130454</pickID><phase>P</phase><azimuth>309.61181640625</azimuth><distance>3.3433449268341064</distance><timeResidual>0.2692756652832031</timeResidual><timeUsed>true</timeUsed><horizontalSlownessUsed>false</horizontalSlownessUsed><backazimuthUsed>false</backazimuthUsed><weight>1</weight></arrival><arrival><pickID>de.gempa.tb1.Pick/20250413095057.377359.130456</pickID><phase>P</phase><azimuth>304.0099182128906</azimuth><distance>3.0872700214385986</distance><timeResidual>0.2684059143066406</timeResidual><timeUsed>true</timeUsed><horizontalSlownessUsed>false</horizontalSlownessUsed><backazimuthUsed>false</backazimuthUsed><weight>1</weight></arrival><arrival><pickID>de.gempa.tb1.Pick/20250413095106.508903.130459</pickID><phase>P</phase><azimuth>323.72076416015625</azimuth><distance>4.765583992004395</distance><timeResidual>-0.6345100402832031</timeResidual><timeUsed>true</timeUsed><horizontalSlownessUsed>false</horizontalSlownessUsed><backazimuthUsed>false</backazimuthUsed><weight>1</weight></arrival><arrival><pickID>de.gempa.tb1.Pick/20250413095107.769519.130461</pickID><phase>S</phase><azimuth>257.6515808105469</azimuth><distance>2.0204074382781982</distance><timeResidual>-0.7894783020019531</timeResidual><timeUsed>true</timeUsed><horizontalSlownessUsed>false</horizontalSlownessUsed><backazimuthUsed>false</backazimuthUsed><weight>1</weight></arrival><arrival><pickID>de.gempa.tb1.Pick/20250413095114.866044.130463</pickID><phase>S</phase><azimuth>276.8609619140625</azimuth><distance>2.1653659343719482</distance><timeResidual>0.7455940246582031</timeResidual><timeUsed>true</timeUsed><horizontalSlownessUsed>false</horizontalSlownessUsed><backazimuthUsed>false</backazimuthUsed><weight>1</weight></arrival><arrival><pickID>de.gempa.tb1.Pick/20250413095115.638434.130465</pickID><phase>S</phase><azimuth>288.59613037109375</azimuth><distance>2.3750507831573486</distance><timeResidual>0.30023956298828125</timeResidual><timeUsed>true</timeUsed><horizontalSlownessUsed>false</horizontalSlownessUsed><backazimuthUsed>false</backazimuthUsed><weight>1</weight></arrival><arrival><pickID>de.gempa.tb1.Pick/20250413095124.76326.130466</pickID><phase>S</phase><azimuth>300.1041259765625</azimuth><distance>2.8087267875671387</distance><timeResidual>-0.003162384033203125</timeResidual><timeUsed>true</timeUsed><horizontalSlownessUsed>false</horizontalSlownessUsed><backazimuthUsed>false</backazimuthUsed><weight>1</weight></arrival><arrival><pickID>de.gempa.tb1.Pick/20250413095134.363908.130467</pickID><phase>S</phase><azimuth>268.8164367675781</azimuth><distance>3.1397156715393066</distance><timeResidual>0.13196563720703125</timeResidual><timeUsed>true</timeUsed><horizontalSlownessUsed>false</horizontalSlownessUsed><backazimuthUsed>false</backazimuthUsed><weight>1</weight></arrival><arrival><pickID>de.gempa.tb1.Pick/20250413095135.490516.130468</pickID><phase>S</phase><azimuth>309.61181640625</azimuth><distance>3.3433449268341064</distance><timeResidual>-0.5905265808105469</timeResidual><timeUsed>true</timeUsed><horizontalSlownessUsed>false</horizontalSlownessUsed><backazimuthUsed>false</backazimuthUsed><weight>1</weight></arrival><arrival><pickID>de.gempa.tb1.Pick/20250413095135.763545.130469</pickID><phase>S</phase><azimuth>317.66339111328125</azimuth><distance>3.264833927154541</distance><timeResidual>0.08369827270507812</timeResidual><timeUsed>true</timeUsed><horizontalSlownessUsed>false</horizontalSlownessUsed><backazimuthUsed>false</backazimuthUsed><weight>1</weight></arrival><arrival><pickID>de.gempa.tb1.Pick/20250413095157.366268.130470</pickID><phase>S</phase><azimuth>304.0099182128906</azimuth><distance>3.0872700214385986</distance><timeResidual>-0.211334228515625</timeResidual><timeUsed>true</timeUsed><horizontalSlownessUsed>false</horizontalSlownessUsed><backazimuthUsed>false</backazimuthUsed><weight>1</weight></arrival><magnitude publicID="de.gempa.tb1.Magnitude/20250413095157.38164.344336"><magnitude><value>3.4805827768684425</value></magnitude><type>M</type><methodID>weighted average</methodID><stationCount>7</stationCount></magnitude></origin><event publicID="gempa2025hhdx"><preferredOriginID>de.gempa.tb1.Origin/20250413095157.36931.106966</preferredOriginID><preferredMagnitudeID>de.gempa.tb1.Magnitude/20250413095157.38164.344336</preferredMagnitudeID><description><text>Chile-Argentina Border Region</text><type>region name</type></description><originReference>de.gempa.tb1.Origin/20250413095157.36931.106966</originReference></event></EventParameters></seiscomp>