<?xml version="1.0" encoding="UTF-8"?>
<seiscomp xmlns="http://geofon.gfz-potsdam.de/ns/seiscomp3-schema/0.13" version="0.13"><EventParameters><pick publicID="de.gempa.tb1.Pick/20250412122551.59483.123892"><time><value>2025-04-12T12:25:46.888997Z</value></time><waveformID networkCode="CX" stationCode="PB16" channelCode="HHZ"/><filterID>ITAPER(4)&gt;&gt;BW(4,4,20)</filterID><methodID>AIC</methodID><horizontalSlowness><value>6.958673113218061</value></horizontalSlowness><backazimuth><value>271.53439507083067</value></backazimuth><phaseHint>P</phaseHint><evaluationMode>automatic</evaluationMode><comment><text>94.47737311503982</text><id>DFX:rectilinearity</id></comment><comment><text>162.91139025842398</text><id>SNR</id></comment></pick><pick publicID="de.gempa.tb1.Pick/20250412122558.577925.123894"><time><value>2025-04-12T12:25:53.96Z</value></time><waveformID networkCode="CX" stationCode="PSGCX" channelCode="HHZ"/><filterID>ITAPER(4)&gt;&gt;BW(4,4,20)</filterID><methodID>AIC</methodID><horizontalSlowness><value>15.342003486033478</value></horizontalSlowness><backazimuth><value>318.24671818781434</value></backazimuth><phaseHint>P</phaseHint><evaluationMode>automatic</evaluationMode><comment><text>39.8584281368819</text><id>DFX:rectilinearity</id></comment><comment><text>75.24664013332473</text><id>SNR</id></comment></pick><pick publicID="de.gempa.tb1.Pick/20250412122615.859685.123896"><time><value>2025-04-12T12:26:07.028391Z</value></time><waveformID networkCode="CX" stationCode="PB08" channelCode="HHZ"/><filterID>ITAPER(4)&gt;&gt;BW(4,4,20)</filterID><methodID>AIC</methodID><horizontalSlowness><value>11.34980341313026</value></horizontalSlowness><backazimuth><value>261.71596764706607</value></backazimuth><phaseHint>P</phaseHint><evaluationMode>automatic</evaluationMode><comment><text>11.55730630106225</text><id>DFX:rectilinearity</id></comment><comment><text>23.596543846421167</text><id>SNR</id></comment></pick><pick publicID="de.gempa.tb1.Pick/20250412122620.590017.123900"><time><value>2025-04-12T12:26:14.588393Z</value></time><waveformID networkCode="CX" stationCode="PB01" channelCode="HHZ"/><filterID>ITAPER(4)&gt;&gt;BW(4,4,20)</filterID><methodID>AIC</methodID><horizontalSlowness><value>21.38854935244039</value></horizontalSlowness><backazimuth><value>189.54458361392895</value></backazimuth><phaseHint>P</phaseHint><evaluationMode>automatic</evaluationMode><comment><text>28.25238489065198</text><id>DFX:rectilinearity</id></comment><comment><text>23.1585930019417</text><id>SNR</id></comment></pick><pick publicID="de.gempa.tb1.Pick/20250412122621.472065.123902"><time><value>2025-04-12T12:26:16.208393Z</value></time><waveformID networkCode="CX" stationCode="PB02" channelCode="HHZ"/><filterID>ITAPER(4)&gt;&gt;BW(4,4,20)</filterID><methodID>AIC</methodID><horizontalSlowness><value>21.918968697186045</value></horizontalSlowness><backazimuth><value>273.8531403503953</value></backazimuth><phaseHint>P</phaseHint><evaluationMode>automatic</evaluationMode><comment><text>20.86946742439157</text><id>DFX:rectilinearity</id></comment><comment><text>16.32341153831258</text><id>SNR</id></comment></pick><pick publicID="de.gempa.tb1.Pick/20250412122630.566411.123904"><time><value>2025-04-12T12:26:25.988393Z</value></time><waveformID networkCode="CX" stationCode="PB03" channelCode="HHZ"/><filterID>ITAPER(4)&gt;&gt;BW(4,4,20)</filterID><methodID>AIC</methodID><horizontalSlowness><value>17.644715789465543</value></horizontalSlowness><backazimuth><value>317.80232850492814</value></backazimuth><phaseHint>P</phaseHint><evaluationMode>automatic</evaluationMode><comment><text>11.575327598840472</text><id>DFX:rectilinearity</id></comment><comment><text>12.714601518658943</text><id>SNR</id></comment></pick><pick publicID="de.gempa.tb1.Pick/20250412122635.332953.123906"><time><value>2025-04-12T12:26:24.548997Z</value></time><waveformID networkCode="CX" stationCode="PB16" channelCode="HHN"/><filterID>ITAPER(2)&gt;&gt;BW(3,3,20)</filterID><methodID>L2-AIC-GRID</methodID><horizontalSlowness><value>13.019189618508152</value></horizontalSlowness><backazimuth><value>236.5613526700234</value></backazimuth><phaseHint>S</phaseHint><evaluationMode>automatic</evaluationMode><comment><text>256.14326936578124</text><id>DFX:rectilinearity</id></comment><comment><text>de.gempa.tb1.Pick/20250412122551.59483.123892</text><id>RefPickID</id></comment><comment><text>8.227963875733892</text><id>SNR</id></comment></pick><pick publicID="de.gempa.tb1.Pick/20250412122636.226201.123907"><time><value>2025-04-12T12:26:21.498397Z</value></time><waveformID networkCode="CX" stationCode="PB07" channelCode="HHZ"/><filterID>ITAPER(4)&gt;&gt;BW(4,4,20)</filterID><methodID>AIC</methodID><horizontalSlowness><value>22.805215757225145</value></horizontalSlowness><backazimuth><value>69.05609058548856</value></backazimuth><phaseHint>P</phaseHint><evaluationMode>automatic</evaluationMode><comment><text>127.57567525749525</text><id>DFX:rectilinearity</id></comment><comment><text>13.51602136832238</text><id>SNR</id></comment></pick><pick publicID="de.gempa.tb1.Pick/20250412122638.297969.123909"><time><value>2025-04-12T12:26:25.97Z</value></time><waveformID networkCode="CX" stationCode="PB09" channelCode="HHZ"/><filterID>ITAPER(4)&gt;&gt;BW(4,4,20)</filterID><methodID>AIC</methodID><horizontalSlowness><value>15.421496994246487</value></horizontalSlowness><backazimuth><value>256.9701653125578</value></backazimuth><phaseHint>P</phaseHint><evaluationMode>automatic</evaluationMode><comment><text>10.100063815337013</text><id>DFX:rectilinearity</id></comment><comment><text>22.025036597677715</text><id>SNR</id></comment></pick><pick publicID="de.gempa.tb1.Pick/20250412122644.778872.123912"><time><value>2025-04-12T12:26:35.45Z</value></time><waveformID networkCode="CX" stationCode="PSGCX" channelCode="HHN"/><filterID>ITAPER(2)&gt;&gt;BW(3,3,20)</filterID><methodID>L2-AIC-GRID</methodID><horizontalSlowness><value>21.894761867670244</value></horizontalSlowness><backazimuth><value>238.51361449659655</value></backazimuth><phaseHint>S</phaseHint><evaluationMode>automatic</evaluationMode><comment><text>1655.4726091363175</text><id>DFX:rectilinearity</id></comment><comment><text>de.gempa.tb1.Pick/20250412122558.577925.123894</text><id>RefPickID</id></comment><comment><text>17.58160631573718</text><id>SNR</id></comment></pick><origin publicID="de.gempa.tb1.Origin/20250412122644.781928.82273"><time><value>2025-04-12T12:24:59.726075Z</value><uncertainty>1.3419607877731323</uncertainty></time><latitude><value>-16.742748260498047</value><uncertainty>11.6131591796875</uncertainty></latitude><longitude><value>-72.06867218017578</value><uncertainty>7.830267429351807</uncertainty></longitude><depth><value>0</value></depth><depthType>operator assigned</depthType><methodID>LOCSAT</methodID><earthModelID>iasp91_scanloc</earthModelID><quality><associatedPhaseCount>10</associatedPhaseCount><usedPhaseCount>10</usedPhaseCount><associatedStationCount>8</associatedStationCount><usedStationCount>8</usedStationCount><depthPhaseCount>0</depthPhaseCount><standardError>0.35807924348848164</standardError><azimuthalGap>325.4491271972656</azimuthalGap><maximumDistance>5.712289333343506</maximumDistance><minimumDistance>2.9116313457489014</minimumDistance><medianDistance>4.92621374130249</medianDistance></quality><uncertainty><minHorizontalUncertainty>15.767316818237305</minHorizontalUncertainty><maxHorizontalUncertainty>25.560110092163086</maxHorizontalUncertainty><azimuthMaxHorizontalUncertainty>16.663482666015625</azimuthMaxHorizontalUncertainty><preferredDescription>horizontal uncertainty</preferredDescription></uncertainty><evaluationMode>automatic</evaluationMode><evaluationStatus>confirmed</evaluationStatus><comment><text>0.12</text><id>mismatchScore</id></comment><comment><text>mismatchScore</text><id>scevalMethod</id></comment><arrival><pickID>de.gempa.tb1.Pick/20250412122551.59483.123892</pickID><phase>P</phase><azimuth>123.3261260986328</azimuth><distance>2.9116313457489014</distance><timeResidual>-0.43865966796875</timeResidual><timeUsed>true</timeUsed><horizontalSlownessUsed>false</horizontalSlownessUsed><backazimuthUsed>false</backazimuthUsed><weight>1</weight></arrival><arrival><pickID>de.gempa.tb1.Pick/20250412122558.577925.123894</pickID><phase>P</phase><azimuth>147.20941162109375</azimuth><distance>3.3883283138275146</distance><timeResidual>0.07202911376953125</timeResidual><timeUsed>true</timeUsed><horizontalSlownessUsed>false</horizontalSlownessUsed><backazimuthUsed>false</backazimuthUsed><weight>1</weight></arrival><arrival><pickID>de.gempa.tb1.Pick/20250412122615.859685.123896</pickID><phase>P</phase><azimuth>141.14048767089844</azimuth><distance>4.36815881729126</distance><timeResidual>-0.3425941467285156</timeResidual><timeUsed>true</timeUsed><horizontalSlownessUsed>false</horizontalSlownessUsed><backazimuthUsed>false</backazimuthUsed><weight>1</weight></arrival><arrival><pickID>de.gempa.tb1.Pick/20250412122620.590017.123900</pickID><phase>P</phase><azimuth>150.66586303710938</azimuth><distance>4.92621374130249</distance><timeResidual>-0.4593391418457031</timeResidual><timeUsed>true</timeUsed><horizontalSlownessUsed>false</horizontalSlownessUsed><backazimuthUsed>false</backazimuthUsed><weight>1</weight></arrival><arrival><pickID>de.gempa.tb1.Pick/20250412122621.472065.123902</pickID><phase>P</phase><azimuth>156.04771423339844</azimuth><distance>4.994959354400635</distance><timeResidual>0.21522903442382812</timeResidual><timeUsed>true</timeUsed><horizontalSlownessUsed>false</horizontalSlownessUsed><backazimuthUsed>false</backazimuthUsed><weight>1</weight></arrival><arrival><pickID>de.gempa.tb1.Pick/20250412122630.566411.123904</pickID><phase>P</phase><azimuth>157.8769989013672</azimuth><distance>5.712289333343506</distance><timeResidual>0.13581466674804688</timeResidual><timeUsed>true</timeUsed><horizontalSlownessUsed>false</horizontalSlownessUsed><backazimuthUsed>false</backazimuthUsed><weight>1</weight></arrival><arrival><pickID>de.gempa.tb1.Pick/20250412122635.332953.123906</pickID><phase>S</phase><azimuth>123.3261260986328</azimuth><distance>2.9116313457489014</distance><timeResidual>0.4764556884765625</timeResidual><timeUsed>true</timeUsed><horizontalSlownessUsed>false</horizontalSlownessUsed><backazimuthUsed>false</backazimuthUsed><weight>1</weight></arrival><arrival><pickID>de.gempa.tb1.Pick/20250412122636.226201.123907</pickID><phase>P</phase><azimuth>157.764404296875</azimuth><distance>5.36919641494751</distance><timeResidual>0.360870361328125</timeResidual><timeUsed>true</timeUsed><horizontalSlownessUsed>false</horizontalSlownessUsed><backazimuthUsed>false</backazimuthUsed><weight>1</weight></arrival><arrival><pickID>de.gempa.tb1.Pick/20250412122638.297969.123909</pickID><phase>P</phase><azimuth>152.47537231445312</azimuth><distance>5.691779613494873</distance><timeResidual>0.3988075256347656</timeResidual><timeUsed>true</timeUsed><horizontalSlownessUsed>false</horizontalSlownessUsed><backazimuthUsed>false</backazimuthUsed><weight>1</weight></arrival><arrival><pickID>de.gempa.tb1.Pick/20250412122644.778872.123912</pickID><phase>S</phase><azimuth>147.20941162109375</azimuth><distance>3.3883283138275146</distance><timeResidual>-0.4185447692871094</timeResidual><timeUsed>true</timeUsed><horizontalSlownessUsed>false</horizontalSlownessUsed><backazimuthUsed>false</backazimuthUsed><weight>1</weight></arrival><magnitude publicID="de.gempa.tb1.Magnitude/20250412122757.394928.224498"><magnitude><value>3.7411782120084025</value></magnitude><type>M</type><methodID>weighted average</methodID><stationCount>6</stationCount></magnitude></origin><event publicID="gempa2025hfnb"><preferredOriginID>de.gempa.tb1.Origin/20250412122644.781928.82273</preferredOriginID><preferredMagnitudeID>de.gempa.tb1.Magnitude/20250412122757.394928.224498</preferredMagnitudeID><description><text>Near Coast of Peru</text><type>region name</type></description><originReference>de.gempa.tb1.Origin/20250412122644.781928.82273</originReference></event></EventParameters></seiscomp>