<?xml version="1.0" encoding="UTF-8"?>
<seiscomp xmlns="http://geofon.gfz-potsdam.de/ns/seiscomp3-schema/0.13" version="0.13"><EventParameters><pick publicID="de.gempa.tb1.Pick/20250412051924.142477.141116"><time><value>2025-04-12T05:19:22.095Z</value></time><waveformID networkCode="CH" stationCode="DIX" channelCode="HHZ"/><filterID>ITAPER(4)&gt;&gt;BW(4,4,20)</filterID><methodID>AIC</methodID><phaseHint>P</phaseHint><evaluationMode>automatic</evaluationMode></pick><pick publicID="de.gempa.tb1.Pick/20250412051928.950847.141119"><time><value>2025-04-12T05:19:24.67Z</value></time><waveformID networkCode="CH" stationCode="VANNI" channelCode="HHZ"/><filterID>ITAPER(4)&gt;&gt;BW(4,4,20)</filterID><methodID>AIC</methodID><phaseHint>P</phaseHint><evaluationMode>automatic</evaluationMode></pick><pick publicID="de.gempa.tb1.Pick/20250412051929.126955.141121"><time><value>2025-04-12T05:19:25.534998Z</value></time><waveformID networkCode="CH" stationCode="SALAN" channelCode="HHZ"/><filterID>ITAPER(4)&gt;&gt;BW(4,4,20)</filterID><methodID>AIC</methodID><phaseHint>P</phaseHint><evaluationMode>automatic</evaluationMode></pick><pick publicID="de.gempa.tb1.Pick/20250412051929.828158.141123"><time><value>2025-04-12T05:19:25.995Z</value></time><waveformID networkCode="CH" stationCode="EMBD" channelCode="HHZ"/><filterID>ITAPER(4)&gt;&gt;BW(4,4,20)</filterID><methodID>AIC</methodID><phaseHint>P</phaseHint><evaluationMode>automatic</evaluationMode></pick><pick publicID="de.gempa.tb1.Pick/20250412051930.296561.141125"><time><value>2025-04-12T05:19:25.915Z</value></time><waveformID networkCode="CH" stationCode="DIX" channelCode="HHN"/><filterID>RMHP(1)&gt;&gt;ITAPER(2)&gt;&gt;BW(4,3,20)</filterID><methodID>L2-AIC-GRID</methodID><phaseHint>S</phaseHint><evaluationMode>automatic</evaluationMode><comment><text>de.gempa.tb1.Pick/20250412051924.142477.141116</text><id>RefPickID</id></comment></pick><pick publicID="de.gempa.tb1.Pick/20250412051933.125477.141126"><time><value>2025-04-12T05:19:29.19Z</value></time><waveformID networkCode="CH" stationCode="FIESA" channelCode="HHZ"/><filterID>ITAPER(4)&gt;&gt;BW(4,4,20)</filterID><methodID>AIC</methodID><phaseHint>P</phaseHint><evaluationMode>automatic</evaluationMode></pick><pick publicID="de.gempa.tb1.Pick/20250412051933.718915.141129"><time><value>2025-04-12T05:19:27.755Z</value></time><waveformID networkCode="CH" stationCode="SIMPL" channelCode="HHZ"/><filterID>ITAPER(4)&gt;&gt;BW(4,4,20)</filterID><methodID>AIC</methodID><phaseHint>P</phaseHint><evaluationMode>automatic</evaluationMode></pick><pick publicID="de.gempa.tb1.Pick/20250412051934.141052.141131"><time><value>2025-04-12T05:19:30.93Z</value></time><waveformID networkCode="CH" stationCode="WIMIS" channelCode="HHZ"/><filterID>ITAPER(4)&gt;&gt;BW(4,4,20)</filterID><methodID>AIC</methodID><phaseHint>P</phaseHint><evaluationMode>automatic</evaluationMode></pick><pick publicID="de.gempa.tb1.Pick/20250412051934.193038.141133"><time><value>2025-04-12T05:19:25.4Z</value></time><waveformID networkCode="CH" stationCode="MMK" channelCode="HHZ"/><filterID>ITAPER(4)&gt;&gt;BW(4,4,20)</filterID><methodID>AIC</methodID><phaseHint>P</phaseHint><evaluationMode>automatic</evaluationMode></pick><pick publicID="de.gempa.tb1.Pick/20250412051936.482099.141137"><time><value>2025-04-12T05:19:30.56Z</value></time><waveformID networkCode="CH" stationCode="MMK" channelCode="HHN"/><filterID>RMHP(1)&gt;&gt;ITAPER(2)&gt;&gt;BW(4,3,20)</filterID><methodID>L2-AIC-GRID</methodID><phaseHint>S</phaseHint><evaluationMode>automatic</evaluationMode><comment><text>de.gempa.tb1.Pick/20250412051934.193038.141133</text><id>RefPickID</id></comment></pick><pick publicID="de.gempa.tb1.Pick/20250412051938.464379.141140"><time><value>2025-04-12T05:19:32.04Z</value></time><waveformID networkCode="CH" stationCode="EMBD" channelCode="HHN"/><filterID>RMHP(1)&gt;&gt;ITAPER(2)&gt;&gt;BW(4,3,20)</filterID><methodID>L2-AIC-GRID</methodID><phaseHint>S</phaseHint><evaluationMode>automatic</evaluationMode><comment><text>de.gempa.tb1.Pick/20250412051929.828158.141123</text><id>RefPickID</id></comment></pick><pick publicID="de.gempa.tb1.Pick/20250412051941.233367.141143"><time><value>2025-04-12T05:19:35.655Z</value></time><waveformID networkCode="CH" stationCode="SIMPL" channelCode="HHN"/><filterID>RMHP(1)&gt;&gt;ITAPER(2)&gt;&gt;BW(4,3,20)</filterID><methodID>L2-AIC-GRID</methodID><phaseHint>S</phaseHint><evaluationMode>automatic</evaluationMode><comment><text>de.gempa.tb1.Pick/20250412051933.718915.141129</text><id>RefPickID</id></comment></pick><pick publicID="de.gempa.tb1.Pick/20250412051957.719435.141148"><time><value>2025-04-12T05:19:48.375Z</value></time><waveformID networkCode="CH" stationCode="EMING" channelCode="HHZ"/><filterID>ITAPER(4)&gt;&gt;BW(4,4,20)</filterID><methodID>AIC</methodID><phaseHint>P</phaseHint><evaluationMode>automatic</evaluationMode></pick><origin publicID="de.gempa.tb1.Origin/20250412051957.72108.92241"><time><value>2025-04-12T05:19:15.955171Z</value><uncertainty>0.7990512251853943</uncertainty></time><latitude><value>45.9692268371582</value><uncertainty>6.951003074645996</uncertainty></latitude><longitude><value>7.474324226379395</value><uncertainty>3.0627171993255615</uncertainty></longitude><depth><value>26.717161178588867</value><uncertainty>3.893979549407959</uncertainty></depth><depthType>from location</depthType><methodID>LOCSAT</methodID><earthModelID>iasp91</earthModelID><quality><associatedPhaseCount>13</associatedPhaseCount><usedPhaseCount>13</usedPhaseCount><associatedStationCount>9</associatedStationCount><usedStationCount>9</usedStationCount><depthPhaseCount>0</depthPhaseCount><standardError>0.8232651893508997</standardError><azimuthalGap>220.37061309814453</azimuthalGap><maximumDistance>2.1440048217773438</maximumDistance><minimumDistance>0.12007314711809158</minimumDistance><medianDistance>0.35102197527885437</medianDistance></quality><uncertainty><minHorizontalUncertainty>6.244885444641113</minHorizontalUncertainty><maxHorizontalUncertainty>15.046844482421875</maxHorizontalUncertainty><azimuthMaxHorizontalUncertainty>8.558659553527832</azimuthMaxHorizontalUncertainty><preferredDescription>horizontal uncertainty</preferredDescription></uncertainty><evaluationMode>automatic</evaluationMode><evaluationStatus>confirmed</evaluationStatus><comment><text>0.52</text><id>mismatchScore</id></comment><comment><text>extendedGap</text><id>scevalMethod</id></comment><arrival><pickID>de.gempa.tb1.Pick/20250412051924.142477.141116</pickID><phase>P</phase><azimuth>337.4423828125</azimuth><distance>0.12007314711809158</distance><timeResidual>0.011363983154296875</timeResidual><timeUsed>true</timeUsed><horizontalSlownessUsed>false</horizontalSlownessUsed><backazimuthUsed>false</backazimuthUsed><weight>1</weight></arrival><arrival><pickID>de.gempa.tb1.Pick/20250412051928.950847.141119</pickID><phase>P</phase><azimuth>19.438955307006836</azimuth><distance>0.2555201053619385</distance><timeResidual>0.7376651763916016</timeResidual><timeUsed>true</timeUsed><horizontalSlownessUsed>false</horizontalSlownessUsed><backazimuthUsed>false</backazimuthUsed><weight>1</weight></arrival><arrival><pickID>de.gempa.tb1.Pick/20250412051929.126955.141121</pickID><phase>P</phase><azimuth>296.7922668457031</azimuth><distance>0.39046868681907654</distance><timeResidual>-0.2400846481323242</timeResidual><timeUsed>true</timeUsed><horizontalSlownessUsed>false</horizontalSlownessUsed><backazimuthUsed>false</backazimuthUsed><weight>1</weight></arrival><arrival><pickID>de.gempa.tb1.Pick/20250412051929.828158.141123</pickID><phase>P</phase><azimuth>45.07005310058594</azimuth><distance>0.35102197527885437</distance><timeResidual>0.7588014602661133</timeResidual><timeUsed>true</timeUsed><horizontalSlownessUsed>false</horizontalSlownessUsed><backazimuthUsed>false</backazimuthUsed><weight>1</weight></arrival><arrival><pickID>de.gempa.tb1.Pick/20250412051930.296561.141125</pickID><phase>S</phase><azimuth>337.4423828125</azimuth><distance>0.12007314711809158</distance><timeResidual>-0.6820230484008789</timeResidual><timeUsed>true</timeUsed><horizontalSlownessUsed>false</horizontalSlownessUsed><backazimuthUsed>false</backazimuthUsed><weight>1</weight></arrival><arrival><pickID>de.gempa.tb1.Pick/20250412051933.125477.141126</pickID><phase>P</phase><azimuth>43.23432159423828</azimuth><distance>0.642250657081604</distance><timeResidual>-0.0355219841003418</timeResidual><timeUsed>true</timeUsed><horizontalSlownessUsed>false</horizontalSlownessUsed><backazimuthUsed>false</backazimuthUsed><weight>1</weight></arrival><arrival><pickID>de.gempa.tb1.Pick/20250412051933.718915.141129</pickID><phase>P</phase><azimuth>54.31872177124023</azimuth><distance>0.4659025967121124</distance><timeResidual>0.9490480422973633</timeResidual><timeUsed>true</timeUsed><horizontalSlownessUsed>false</horizontalSlownessUsed><backazimuthUsed>false</backazimuthUsed><weight>1</weight></arrival><arrival><pickID>de.gempa.tb1.Pick/20250412051934.141052.141131</pickID><phase>P</phase><azimuth>8.43539047241211</azimuth><distance>0.703559398651123</distance><timeResidual>0.8639955520629883</timeResidual><timeUsed>true</timeUsed><horizontalSlownessUsed>false</horizontalSlownessUsed><backazimuthUsed>false</backazimuthUsed><weight>1</weight></arrival><arrival><pickID>de.gempa.tb1.Pick/20250412051934.193038.141133</pickID><phase>P</phase><azimuth>76.4216537475586</azimuth><distance>0.35082483291625977</distance><timeResidual>0.16576814651489258</timeResidual><timeUsed>true</timeUsed><horizontalSlownessUsed>false</horizontalSlownessUsed><backazimuthUsed>false</backazimuthUsed><weight>1</weight></arrival><arrival><pickID>de.gempa.tb1.Pick/20250412051936.482099.141137</pickID><phase>S</phase><azimuth>76.4216537475586</azimuth><distance>0.35082483291625977</distance><timeResidual>-1.5934925079345703</timeResidual><timeUsed>true</timeUsed><horizontalSlownessUsed>false</horizontalSlownessUsed><backazimuthUsed>false</backazimuthUsed><weight>1</weight></arrival><arrival><pickID>de.gempa.tb1.Pick/20250412051938.464379.141140</pickID><phase>S</phase><azimuth>45.07005310058594</azimuth><distance>0.35102197527885437</distance><timeResidual>-0.11701202392578125</timeResidual><timeUsed>true</timeUsed><horizontalSlownessUsed>false</horizontalSlownessUsed><backazimuthUsed>false</backazimuthUsed><weight>1</weight></arrival><arrival><pickID>de.gempa.tb1.Pick/20250412051941.233367.141143</pickID><phase>S</phase><azimuth>54.31872177124023</azimuth><distance>0.4659025967121124</distance><timeResidual>0.7322330474853516</timeResidual><timeUsed>true</timeUsed><horizontalSlownessUsed>false</horizontalSlownessUsed><backazimuthUsed>false</backazimuthUsed><weight>1</weight></arrival><arrival><pickID>de.gempa.tb1.Pick/20250412051957.719435.141148</pickID><phase>P</phase><azimuth>25.52103805541992</azimuth><distance>2.1440048217773438</distance><timeResidual>-1.5501937866210938</timeResidual><timeUsed>true</timeUsed><horizontalSlownessUsed>false</horizontalSlownessUsed><backazimuthUsed>false</backazimuthUsed><weight>1</weight></arrival><magnitude publicID="de.gempa.tb1.Magnitude/20250412052004.193401.181004"><magnitude><value>1.2778575746958547</value></magnitude><type>M</type><methodID>weighted average</methodID><stationCount>7</stationCount></magnitude></origin><event publicID="gempa2025heyw"><preferredOriginID>de.gempa.tb1.Origin/20250412051957.72108.92241</preferredOriginID><preferredMagnitudeID>de.gempa.tb1.Magnitude/20250412052004.193401.181004</preferredMagnitudeID><description><text>Northern Italy</text><type>region name</type></description><originReference>de.gempa.tb1.Origin/20250412051957.72108.92241</originReference></event></EventParameters></seiscomp>