<?xml version="1.0" encoding="UTF-8"?>
<seiscomp xmlns="http://geofon.gfz-potsdam.de/ns/seiscomp3-schema/0.13" version="0.13"><EventParameters><pick publicID="de.gempa.tb1.Pick/20250415072233.59322.117998"><time><value>2025-04-15T07:22:28.16Z</value></time><waveformID networkCode="CX" stationCode="PSGCX" channelCode="HHZ"/><filterID>ITAPER(4)&gt;&gt;BW(4,4,20)</filterID><methodID>AIC</methodID><horizontalSlowness><value>10.219712842104986</value></horizontalSlowness><backazimuth><value>79.64919694821839</value></backazimuth><phaseHint>P</phaseHint><evaluationMode>automatic</evaluationMode><comment><text>6469.123133870637</text><id>DFX:rectilinearity</id></comment><comment><text>1388.7750724130954</text><id>SNR</id></comment></pick><pick publicID="de.gempa.tb1.Pick/20250415072233.794581.118000"><time><value>2025-04-15T07:22:27.568393Z</value></time><waveformID networkCode="CX" stationCode="PB08" channelCode="HHZ"/><filterID>ITAPER(4)&gt;&gt;BW(4,4,20)</filterID><methodID>AIC</methodID><horizontalSlowness><value>12.953175500025596</value></horizontalSlowness><backazimuth><value>322.73939263951314</value></backazimuth><phaseHint>P</phaseHint><evaluationMode>automatic</evaluationMode><comment><text>2041.7351209044964</text><id>DFX:rectilinearity</id></comment><comment><text>312.38083130614916</text><id>SNR</id></comment></pick><pick publicID="de.gempa.tb1.Pick/20250415072240.28151.118002"><time><value>2025-04-15T07:22:35.529999Z</value></time><waveformID networkCode="CX" stationCode="PATCX" channelCode="HHZ"/><filterID>ITAPER(4)&gt;&gt;BW(4,4,20)</filterID><methodID>AIC</methodID><horizontalSlowness><value>7.173108336317845</value></horizontalSlowness><backazimuth><value>51.06846009607619</value></backazimuth><phaseHint>P</phaseHint><evaluationMode>automatic</evaluationMode><comment><text>3058.294638167936</text><id>DFX:rectilinearity</id></comment><comment><text>339.7665001382183</text><id>SNR</id></comment></pick><pick publicID="de.gempa.tb1.Pick/20250415072240.768405.118004"><time><value>2025-04-15T07:22:36.278393Z</value></time><waveformID networkCode="CX" stationCode="PB01" channelCode="HHZ"/><filterID>ITAPER(4)&gt;&gt;BW(4,4,20)</filterID><methodID>AIC</methodID><horizontalSlowness><value>12.772416818173152</value></horizontalSlowness><backazimuth><value>354.8339099052647</value></backazimuth><phaseHint>P</phaseHint><evaluationMode>automatic</evaluationMode><comment><text>82257.98585945844</text><id>DFX:rectilinearity</id></comment><comment><text>1405.556270900798</text><id>SNR</id></comment></pick><pick publicID="de.gempa.tb1.Pick/20250415072246.585465.118006"><time><value>2025-04-15T07:22:40.318394Z</value></time><waveformID networkCode="CX" stationCode="PB02" channelCode="HHZ"/><filterID>ITAPER(4)&gt;&gt;BW(4,4,20)</filterID><methodID>AIC</methodID><horizontalSlowness><value>11.724977156685997</value></horizontalSlowness><backazimuth><value>22.93410460337708</value></backazimuth><phaseHint>P</phaseHint><evaluationMode>automatic</evaluationMode><comment><text>11263.204300599002</text><id>DFX:rectilinearity</id></comment><comment><text>215.29925323824668</text><id>SNR</id></comment></pick><pick publicID="de.gempa.tb1.Pick/20250415072246.621013.118008"><time><value>2025-04-15T07:22:39.968393Z</value></time><waveformID networkCode="CX" stationCode="PB08" channelCode="HHN"/><filterID>ITAPER(2)&gt;&gt;BW(3,3,20)</filterID><methodID>L2-AIC-GRID</methodID><horizontalSlowness><value>14.997396065054762</value></horizontalSlowness><backazimuth><value>209.7759189417614</value></backazimuth><phaseHint>S</phaseHint><evaluationMode>automatic</evaluationMode><comment><text>740845.5331594005</text><id>DFX:rectilinearity</id></comment><comment><text>de.gempa.tb1.Pick/20250415072233.794581.118000</text><id>RefPickID</id></comment><comment><text>14.31752071885772</text><id>SNR</id></comment></pick><pick publicID="de.gempa.tb1.Pick/20250415072252.586301.118011"><time><value>2025-04-15T07:22:41.72Z</value></time><waveformID networkCode="CX" stationCode="PSGCX" channelCode="HHN"/><filterID>ITAPER(2)&gt;&gt;BW(3,3,20)</filterID><methodID>L2-AIC-GRID</methodID><horizontalSlowness><value>15.23177453523163</value></horizontalSlowness><backazimuth><value>101.89234148781212</value></backazimuth><phaseHint>S</phaseHint><evaluationMode>automatic</evaluationMode><comment><text>119155.94188977715</text><id>DFX:rectilinearity</id></comment><comment><text>de.gempa.tb1.Pick/20250415072233.59322.117998</text><id>RefPickID</id></comment><comment><text>12.19925530274057</text><id>SNR</id></comment></pick><pick publicID="de.gempa.tb1.Pick/20250415072254.724664.118012"><time><value>2025-04-15T07:22:48.798393Z</value></time><waveformID networkCode="CX" stationCode="PB03" channelCode="HHZ"/><filterID>ITAPER(4)&gt;&gt;BW(4,4,20)</filterID><methodID>AIC</methodID><horizontalSlowness><value>7.069751518027247</value></horizontalSlowness><backazimuth><value>336.86213524901507</value></backazimuth><phaseHint>P</phaseHint><evaluationMode>automatic</evaluationMode><comment><text>442.7627318394185</text><id>DFX:rectilinearity</id></comment><comment><text>151.3040187998449</text><id>SNR</id></comment></pick><origin publicID="de.gempa.tb1.Origin/20250415072254.728534.57372"><time><value>2025-04-15T07:22:11.002578Z</value><uncertainty>1.817180871963501</uncertainty></time><latitude><value>-19.645496368408203</value><uncertainty>12.78661060333252</uncertainty></latitude><longitude><value>-69.42324829101562</value><uncertainty>9.666378974914551</uncertainty></longitude><depth><value>102.39012145996094</value><uncertainty>8.25448989868164</uncertainty></depth><depthType>from location</depthType><methodID>LOCSAT</methodID><earthModelID>iasp91_scanloc</earthModelID><quality><associatedPhaseCount>8</associatedPhaseCount><usedPhaseCount>8</usedPhaseCount><associatedStationCount>6</associatedStationCount><usedStationCount>6</usedStationCount><depthPhaseCount>0</depthPhaseCount><standardError>0.15079106239647685</standardError><azimuthalGap>238.74424743652344</azimuthalGap><maximumDistance>2.4107491970062256</maximumDistance><minimumDistance>0.5546206831932068</minimumDistance><medianDistance>1.3551634550094604</medianDistance></quality><uncertainty><minHorizontalUncertainty>11.019145011901855</minHorizontalUncertainty><maxHorizontalUncertainty>32.5586051940918</maxHorizontalUncertainty><azimuthMaxHorizontalUncertainty>34.963619232177734</azimuthMaxHorizontalUncertainty><preferredDescription>horizontal uncertainty</preferredDescription></uncertainty><evaluationMode>automatic</evaluationMode><evaluationStatus>confirmed</evaluationStatus><comment><text>0.06</text><id>mismatchScore</id></comment><comment><text>mismatchScore</text><id>scevalMethod</id></comment><arrival><pickID>de.gempa.tb1.Pick/20250415072233.59322.117998</pickID><phase>P</phase><azimuth>274.0514221191406</azimuth><distance>0.661408543586731</distance><timeResidual>-0.1492328643798828</timeResidual><timeUsed>true</timeUsed><horizontalSlownessUsed>false</horizontalSlownessUsed><backazimuthUsed>false</backazimuthUsed><weight>1</weight></arrival><arrival><pickID>de.gempa.tb1.Pick/20250415072233.794581.118000</pickID><phase>P</phase><azimuth>152.79566955566406</azimuth><distance>0.5546206831932068</distance><timeResidual>0.12799453735351562</timeResidual><timeUsed>true</timeUsed><horizontalSlownessUsed>false</horizontalSlownessUsed><backazimuthUsed>false</backazimuthUsed><weight>1</weight></arrival><arrival><pickID>de.gempa.tb1.Pick/20250415072240.28151.118002</pickID><phase>P</phase><azimuth>210.24546813964844</azimuth><distance>1.3551634550094604</distance><timeResidual>-0.11045455932617188</timeResidual><timeUsed>true</timeUsed><horizontalSlownessUsed>false</horizontalSlownessUsed><backazimuthUsed>false</backazimuthUsed><weight>1</weight></arrival><arrival><pickID>de.gempa.tb1.Pick/20250415072240.768405.118004</pickID><phase>P</phase><azimuth>182.46755981445312</azimuth><distance>1.3919222354888916</distance><timeResidual>0.20020675659179688</timeResidual><timeUsed>true</timeUsed><horizontalSlownessUsed>false</horizontalSlownessUsed><backazimuthUsed>false</backazimuthUsed><weight>1</weight></arrival><arrival><pickID>de.gempa.tb1.Pick/20250415072246.585465.118006</pickID><phase>P</phase><azimuth>194.81927490234375</azimuth><distance>1.7237086296081543</distance><timeResidual>0.1614532470703125</timeResidual><timeUsed>true</timeUsed><horizontalSlownessUsed>false</horizontalSlownessUsed><backazimuthUsed>false</backazimuthUsed><weight>1</weight></arrival><arrival><pickID>de.gempa.tb1.Pick/20250415072246.621013.118008</pickID><phase>S</phase><azimuth>152.79566955566406</azimuth><distance>0.5546206831932068</distance><timeResidual>-0.11375808715820312</timeResidual><timeUsed>true</timeUsed><horizontalSlownessUsed>false</horizontalSlownessUsed><backazimuthUsed>false</backazimuthUsed><weight>1</weight></arrival><arrival><pickID>de.gempa.tb1.Pick/20250415072252.586301.118011</pickID><phase>S</phase><azimuth>274.0514221191406</azimuth><distance>0.661408543586731</distance><timeResidual>0.09219551086425781</timeResidual><timeUsed>true</timeUsed><horizontalSlownessUsed>false</horizontalSlownessUsed><backazimuthUsed>false</backazimuthUsed><weight>1</weight></arrival><arrival><pickID>de.gempa.tb1.Pick/20250415072254.724664.118012</pickID><phase>P</phase><azimuth>187.29476928710938</azimuth><distance>2.4107491970062256</distance><timeResidual>-0.20846939086914062</timeResidual><timeUsed>true</timeUsed><horizontalSlownessUsed>false</horizontalSlownessUsed><backazimuthUsed>false</backazimuthUsed><weight>1</weight></arrival><magnitude publicID="de.gempa.tb1.Magnitude/20250415072254.733934.103590"><magnitude><value>3.286732137624449</value></magnitude><type>M</type><methodID>weighted average</methodID><stationCount>6</stationCount></magnitude></origin><event publicID="gempa2025hkra"><preferredOriginID>de.gempa.tb1.Origin/20250415072254.728534.57372</preferredOriginID><preferredMagnitudeID>de.gempa.tb1.Magnitude/20250415072254.733934.103590</preferredMagnitudeID><description><text>Northern Chile</text><type>region name</type></description><originReference>de.gempa.tb1.Origin/20250415072254.728534.57372</originReference></event></EventParameters></seiscomp>