<?xml version="1.0" encoding="UTF-8"?>
<seiscomp xmlns="http://geofon.gfz-potsdam.de/ns/seiscomp3-schema/0.13" version="0.13"><EventParameters><pick publicID="de.gempa.tb1.Pick/20250414010313.749281.134669"><time><value>2025-04-14T01:03:06.748393Z</value></time><waveformID networkCode="CX" stationCode="PB01" channelCode="HHZ"/><filterID>ITAPER(4)&gt;&gt;BW(4,4,20)</filterID><methodID>AIC</methodID><horizontalSlowness><value>8.915570693348306</value></horizontalSlowness><backazimuth><value>154.2200921402439</value></backazimuth><phaseHint>P</phaseHint><evaluationMode>automatic</evaluationMode><comment><text>99.31492544078563</text><id>DFX:rectilinearity</id></comment><comment><text>211.78248736726803</text><id>SNR</id></comment></pick><pick publicID="de.gempa.tb1.Pick/20250414010315.548857.134671"><time><value>2025-04-14T01:03:10.458393Z</value></time><waveformID networkCode="CX" stationCode="PB02" channelCode="HHZ"/><filterID>ITAPER(4)&gt;&gt;BW(4,4,20)</filterID><methodID>AIC</methodID><horizontalSlowness><value>8.007656577211351</value></horizontalSlowness><backazimuth><value>45.18030223177161</value></backazimuth><phaseHint>P</phaseHint><evaluationMode>automatic</evaluationMode><comment><text>633.7602993420448</text><id>DFX:rectilinearity</id></comment><comment><text>340.14579713710123</text><id>SNR</id></comment></pick><pick publicID="de.gempa.tb1.Pick/20250414010317.687715.134675"><time><value>2025-04-14T01:03:11.358393Z</value></time><waveformID networkCode="CX" stationCode="PB08" channelCode="HHZ"/><filterID>ITAPER(4)&gt;&gt;BW(4,4,20)</filterID><methodID>AIC</methodID><horizontalSlowness><value>18.727141027406518</value></horizontalSlowness><backazimuth><value>216.5816104937988</value></backazimuth><phaseHint>P</phaseHint><evaluationMode>automatic</evaluationMode><comment><text>21.678533839545747</text><id>DFX:rectilinearity</id></comment><comment><text>10.012960234316852</text><id>SNR</id></comment></pick><pick publicID="de.gempa.tb1.Pick/20250414010317.743957.134677"><time><value>2025-04-14T01:03:11.038391Z</value></time><waveformID networkCode="CX" stationCode="PB03" channelCode="HHZ"/><filterID>ITAPER(4)&gt;&gt;BW(4,4,20)</filterID><methodID>AIC</methodID><horizontalSlowness><value>8.966559882981032</value></horizontalSlowness><backazimuth><value>62.82829225157381</value></backazimuth><phaseHint>P</phaseHint><evaluationMode>automatic</evaluationMode><comment><text>205.86825950907942</text><id>DFX:rectilinearity</id></comment><comment><text>102.48463839848628</text><id>SNR</id></comment></pick><pick publicID="de.gempa.tb1.Pick/20250414010319.261235.134679"><time><value>2025-04-14T01:03:06.21Z</value></time><waveformID networkCode="CX" stationCode="PB09" channelCode="HHZ"/><filterID>ITAPER(4)&gt;&gt;BW(4,4,20)</filterID><methodID>AIC</methodID><horizontalSlowness><value>14.58876879066515</value></horizontalSlowness><backazimuth><value>74.37735600204586</value></backazimuth><phaseHint>P</phaseHint><evaluationMode>automatic</evaluationMode><comment><text>950.1845020006476</text><id>DFX:rectilinearity</id></comment><comment><text>209.1529611463867</text><id>SNR</id></comment></pick><pick publicID="de.gempa.tb1.Pick/20250414010319.604119.134681"><time><value>2025-04-14T01:03:14.648393Z</value></time><waveformID networkCode="CX" stationCode="PB06" channelCode="HHZ"/><filterID>ITAPER(4)&gt;&gt;BW(4,4,20)</filterID><methodID>AIC</methodID><horizontalSlowness><value>1.1412568673573606</value></horizontalSlowness><backazimuth><value>98.48479127878728</value></backazimuth><phaseHint>P</phaseHint><evaluationMode>automatic</evaluationMode><comment><text>98.85822751126749</text><id>DFX:rectilinearity</id></comment><comment><text>11.851822379651816</text><id>SNR</id></comment></pick><pick publicID="de.gempa.tb1.Pick/20250414010322.293849.134683"><time><value>2025-04-14T01:03:14.000001Z</value></time><waveformID networkCode="CX" stationCode="PATCX" channelCode="HHZ"/><filterID>ITAPER(4)&gt;&gt;BW(4,4,20)</filterID><methodID>AIC</methodID><horizontalSlowness><value>6.204926661767246</value></horizontalSlowness><backazimuth><value>200.490301330061</value></backazimuth><phaseHint>P</phaseHint><evaluationMode>automatic</evaluationMode><comment><text>446.54484077964065</text><id>DFX:rectilinearity</id></comment><comment><text>73.87655969241948</text><id>SNR</id></comment></pick><pick publicID="de.gempa.tb1.Pick/20250414010326.582087.134685"><time><value>2025-04-14T01:03:20.86Z</value></time><waveformID networkCode="CX" stationCode="PSGCX" channelCode="HHZ"/><filterID>ITAPER(4)&gt;&gt;BW(4,4,20)</filterID><methodID>AIC</methodID><horizontalSlowness><value>11.892770201562735</value></horizontalSlowness><backazimuth><value>330.45458258166525</value></backazimuth><phaseHint>P</phaseHint><evaluationMode>automatic</evaluationMode><comment><text>18.432347962239405</text><id>DFX:rectilinearity</id></comment><comment><text>33.60199389938389</text><id>SNR</id></comment></pick><pick publicID="de.gempa.tb1.Pick/20250414010326.772992.134687"><time><value>2025-04-14T01:03:20.078393Z</value></time><waveformID networkCode="CX" stationCode="PB15" channelCode="HHZ"/><filterID>ITAPER(4)&gt;&gt;BW(4,4,20)</filterID><methodID>AIC</methodID><horizontalSlowness><value>22.42277571612125</value></horizontalSlowness><backazimuth><value>68.8823607955143</value></backazimuth><phaseHint>P</phaseHint><evaluationMode>automatic</evaluationMode><comment><text>178.13006092928967</text><id>DFX:rectilinearity</id></comment><comment><text>8.722840518830406</text><id>SNR</id></comment></pick><pick publicID="de.gempa.tb1.Pick/20250414010333.824582.134689"><time><value>2025-04-14T01:03:25.368393Z</value></time><waveformID networkCode="CX" stationCode="PB01" channelCode="HHN"/><filterID>ITAPER(2)&gt;&gt;BW(3,3,20)</filterID><methodID>L2-AIC-GRID</methodID><horizontalSlowness><value>20.349554364552557</value></horizontalSlowness><backazimuth><value>44.19345998508709</value></backazimuth><phaseHint>S</phaseHint><evaluationMode>automatic</evaluationMode><comment><text>389.56344735577557</text><id>DFX:rectilinearity</id></comment><comment><text>de.gempa.tb1.Pick/20250414010313.749281.134669</text><id>RefPickID</id></comment><comment><text>5.629582841521878</text><id>SNR</id></comment></pick><pick publicID="de.gempa.tb1.Pick/20250414010334.657704.134690"><time><value>2025-04-14T01:03:26.9Z</value></time><waveformID networkCode="CX" stationCode="PB19" channelCode="HHZ"/><filterID>ITAPER(4)&gt;&gt;BW(4,4,20)</filterID><methodID>AIC</methodID><horizontalSlowness><value>13.77661521739297</value></horizontalSlowness><backazimuth><value>225.45588973936293</value></backazimuth><phaseHint>P</phaseHint><evaluationMode>automatic</evaluationMode><comment><text>24.9776475955996</text><id>DFX:rectilinearity</id></comment><comment><text>10.71027249424483</text><id>SNR</id></comment></pick><pick publicID="de.gempa.tb1.Pick/20250414010339.425921.134693"><time><value>2025-04-14T01:03:32.148393Z</value></time><waveformID networkCode="CX" stationCode="PB08" channelCode="HHN"/><filterID>ITAPER(2)&gt;&gt;BW(3,3,20)</filterID><methodID>L2-AIC-GRID</methodID><horizontalSlowness><value>13.890956301979204</value></horizontalSlowness><backazimuth><value>218.35138588270581</value></backazimuth><phaseHint>S</phaseHint><evaluationMode>automatic</evaluationMode><comment><text>132.12366490648358</text><id>DFX:rectilinearity</id></comment><comment><text>de.gempa.tb1.Pick/20250414010317.687715.134675</text><id>RefPickID</id></comment><comment><text>5.699058393615396</text><id>SNR</id></comment></pick><pick publicID="de.gempa.tb1.Pick/20250414010339.830773.134694"><time><value>2025-04-14T01:03:31.758391Z</value></time><waveformID networkCode="CX" stationCode="PB03" channelCode="HHN"/><filterID>ITAPER(2)&gt;&gt;BW(3,3,20)</filterID><methodID>L2-AIC-GRID</methodID><horizontalSlowness><value>14.487574920760702</value></horizontalSlowness><backazimuth><value>296.4532401701947</value></backazimuth><phaseHint>S</phaseHint><evaluationMode>automatic</evaluationMode><comment><text>716.064828491827</text><id>DFX:rectilinearity</id></comment><comment><text>de.gempa.tb1.Pick/20250414010317.743957.134677</text><id>RefPickID</id></comment><comment><text>8.369102626168283</text><id>SNR</id></comment></pick><pick publicID="de.gempa.tb1.Pick/20250414010345.712394.134699"><time><value>2025-04-14T01:03:38.198393Z</value></time><waveformID networkCode="CX" stationCode="PB06" channelCode="HHN"/><filterID>ITAPER(2)&gt;&gt;BW(3,3,20)</filterID><methodID>L2-AIC-GRID</methodID><horizontalSlowness><value>20.89510405856955</value></horizontalSlowness><backazimuth><value>287.90359902861917</value></backazimuth><phaseHint>S</phaseHint><evaluationMode>automatic</evaluationMode><comment><text>517.6321368776012</text><id>DFX:rectilinearity</id></comment><comment><text>de.gempa.tb1.Pick/20250414010319.604119.134681</text><id>RefPickID</id></comment><comment><text>10.229432876077055</text><id>SNR</id></comment></pick><pick publicID="de.gempa.tb1.Pick/20250414010347.097574.134700"><time><value>2025-04-14T01:03:10.858394Z</value></time><waveformID networkCode="CX" stationCode="PB07" channelCode="HHZ"/><filterID>ITAPER(4)&gt;&gt;BW(4,4,20)</filterID><methodID>AIC</methodID><horizontalSlowness><value>12.759378704445366</value></horizontalSlowness><backazimuth><value>96.13535062475873</value></backazimuth><phaseHint>P</phaseHint><evaluationMode>automatic</evaluationMode><comment><text>1167.215026190969</text><id>DFX:rectilinearity</id></comment><comment><text>232.6481901114721</text><id>SNR</id></comment></pick><pick publicID="de.gempa.tb1.Pick/20250414010349.30327.134702"><time><value>2025-04-14T01:03:37.170001Z</value></time><waveformID networkCode="CX" stationCode="PATCX" channelCode="HHN"/><filterID>ITAPER(2)&gt;&gt;BW(3,3,20)</filterID><methodID>L2-AIC-GRID</methodID><horizontalSlowness><value>23.480417801180756</value></horizontalSlowness><backazimuth><value>294.65939235439384</value></backazimuth><phaseHint>S</phaseHint><evaluationMode>automatic</evaluationMode><comment><text>634.7577888649938</text><id>DFX:rectilinearity</id></comment><comment><text>de.gempa.tb1.Pick/20250414010322.293849.134683</text><id>RefPickID</id></comment><comment><text>5.550537743425798</text><id>SNR</id></comment></pick><pick publicID="de.gempa.tb1.Pick/20250414010355.863109.134705"><time><value>2025-04-14T01:03:47.178393Z</value></time><waveformID networkCode="CX" stationCode="PB15" channelCode="HHN"/><filterID>ITAPER(2)&gt;&gt;BW(3,3,20)</filterID><methodID>L2-AIC-GRID</methodID><horizontalSlowness><value>21.367977605415728</value></horizontalSlowness><backazimuth><value>122.10542577891425</value></backazimuth><phaseHint>S</phaseHint><evaluationMode>automatic</evaluationMode><comment><text>6589.618827040968</text><id>DFX:rectilinearity</id></comment><comment><text>de.gempa.tb1.Pick/20250414010326.772992.134687</text><id>RefPickID</id></comment><comment><text>9.054927863594507</text><id>SNR</id></comment></pick><origin publicID="de.gempa.tb1.Origin/20250414010355.866075.122695"><time><value>2025-04-14T01:02:44.131337Z</value><uncertainty>0.7348250150680542</uncertainty></time><latitude><value>-21.325319290161133</value><uncertainty>2.768981695175171</uncertainty></latitude><longitude><value>-68.59100341796875</value><uncertainty>9.20065689086914</uncertainty></longitude><depth><value>143.57174682617188</value><uncertainty>9.218032836914062</uncertainty></depth><depthType>from location</depthType><methodID>LOCSAT</methodID><earthModelID>iasp91_scanloc</earthModelID><quality><associatedPhaseCount>17</associatedPhaseCount><usedPhaseCount>17</usedPhaseCount><associatedStationCount>11</associatedStationCount><usedStationCount>11</usedStationCount><depthPhaseCount>0</depthPhaseCount><standardError>0.39975838548603004</standardError><azimuthalGap>218.17539978027344</azimuthalGap><maximumDistance>2.6473896503448486</maximumDistance><minimumDistance>0.766067624092102</minimumDistance><medianDistance>1.298462152481079</medianDistance></quality><uncertainty><minHorizontalUncertainty>5.935203552246094</minHorizontalUncertainty><maxHorizontalUncertainty>19.723499298095703</maxHorizontalUncertainty><azimuthMaxHorizontalUncertainty>90.26168060302734</azimuthMaxHorizontalUncertainty><preferredDescription>horizontal uncertainty</preferredDescription></uncertainty><evaluationMode>automatic</evaluationMode><evaluationStatus>confirmed</evaluationStatus><comment><text>0.00</text><id>mismatchScore</id></comment><comment><text>mismatchScore</text><id>scevalMethod</id></comment><arrival><pickID>de.gempa.tb1.Pick/20250414010313.749281.134669</pickID><phase>P</phase><azimuth>288.386962890625</azimuth><distance>0.8823791742324829</distance><timeResidual>-0.5599021911621094</timeResidual><timeUsed>true</timeUsed><horizontalSlownessUsed>false</horizontalSlownessUsed><backazimuthUsed>false</backazimuthUsed><weight>1</weight></arrival><arrival><pickID>de.gempa.tb1.Pick/20250414010315.548857.134671</pickID><phase>P</phase><azimuth>270.02593994140625</azimuth><distance>1.2167752981185913</distance><timeResidual>0.15506362915039062</timeResidual><timeUsed>true</timeUsed><horizontalSlownessUsed>false</horizontalSlownessUsed><backazimuthUsed>false</backazimuthUsed><weight>1</weight></arrival><arrival><pickID>de.gempa.tb1.Pick/20250414010317.687715.134675</pickID><phase>P</phase><azimuth>335.8264465332031</azimuth><distance>1.290484070777893</distance><timeResidual>0.317535400390625</timeResidual><timeUsed>true</timeUsed><horizontalSlownessUsed>false</horizontalSlownessUsed><backazimuthUsed>false</backazimuthUsed><weight>1</weight></arrival><arrival><pickID>de.gempa.tb1.Pick/20250414010317.743957.134677</pickID><phase>P</phase><azimuth>236.13160705566406</azimuth><distance>1.298462152481079</distance><timeResidual>-0.06982421875</timeResidual><timeUsed>true</timeUsed><horizontalSlownessUsed>false</horizontalSlownessUsed><backazimuthUsed>false</backazimuthUsed><weight>1</weight></arrival><arrival><pickID>de.gempa.tb1.Pick/20250414010319.261235.134679</pickID><phase>P</phase><azimuth>232.1551208496094</azimuth><distance>0.766067624092102</distance><timeResidual>-0.1988506317138672</timeResidual><timeUsed>true</timeUsed><horizontalSlownessUsed>false</horizontalSlownessUsed><backazimuthUsed>false</backazimuthUsed><weight>1</weight></arrival><arrival><pickID>de.gempa.tb1.Pick/20250414010319.604119.134681</pickID><phase>P</phase><azimuth>213.34442138671875</azimuth><distance>1.647961139678955</distance><timeResidual>-0.1706829071044922</timeResidual><timeUsed>true</timeUsed><horizontalSlownessUsed>false</horizontalSlownessUsed><backazimuthUsed>false</backazimuthUsed><weight>1</weight></arrival><arrival><pickID>de.gempa.tb1.Pick/20250414010322.293849.134683</pickID><phase>P</phase><azimuth>288.7138671875</azimuth><distance>1.5426640510559082</distance><timeResidual>0.32460975646972656</timeResidual><timeUsed>true</timeUsed><horizontalSlownessUsed>false</horizontalSlownessUsed><backazimuthUsed>false</backazimuthUsed><weight>1</weight></arrival><arrival><pickID>de.gempa.tb1.Pick/20250414010326.582087.134685</pickID><phase>P</phase><azimuth>319.85205078125</azimuth><distance>2.2404789924621582</distance><timeResidual>-0.9133548736572266</timeResidual><timeUsed>true</timeUsed><horizontalSlownessUsed>false</horizontalSlownessUsed><backazimuthUsed>false</backazimuthUsed><weight>1</weight></arrival><arrival><pickID>de.gempa.tb1.Pick/20250414010326.772992.134687</pickID><phase>P</phase><azimuth>203.34170532226562</azimuth><distance>2.043562650680542</distance><timeResidual>0.6992721557617188</timeResidual><timeUsed>true</timeUsed><horizontalSlownessUsed>false</horizontalSlownessUsed><backazimuthUsed>false</backazimuthUsed><weight>1</weight></arrival><arrival><pickID>de.gempa.tb1.Pick/20250414010333.824582.134689</pickID><phase>S</phase><azimuth>288.386962890625</azimuth><distance>0.8823791742324829</distance><timeResidual>0.07666778564453125</timeResidual><timeUsed>true</timeUsed><horizontalSlownessUsed>false</horizontalSlownessUsed><backazimuthUsed>false</backazimuthUsed><weight>1</weight></arrival><arrival><pickID>de.gempa.tb1.Pick/20250414010334.657704.134690</pickID><phase>P</phase><azimuth>194.00184631347656</azimuth><distance>2.6473896503448486</distance><timeResidual>0.1294574737548828</timeResidual><timeUsed>true</timeUsed><horizontalSlownessUsed>false</horizontalSlownessUsed><backazimuthUsed>false</backazimuthUsed><weight>1</weight></arrival><arrival><pickID>de.gempa.tb1.Pick/20250414010339.425921.134693</pickID><phase>S</phase><azimuth>335.8264465332031</azimuth><distance>1.290484070777893</distance><timeResidual>0.195068359375</timeResidual><timeUsed>true</timeUsed><horizontalSlownessUsed>false</horizontalSlownessUsed><backazimuthUsed>false</backazimuthUsed><weight>1</weight></arrival><arrival><pickID>de.gempa.tb1.Pick/20250414010339.830773.134694</pickID><phase>S</phase><azimuth>236.13160705566406</azimuth><distance>1.298462152481079</distance><timeResidual>-0.31783103942871094</timeResidual><timeUsed>true</timeUsed><horizontalSlownessUsed>false</horizontalSlownessUsed><backazimuthUsed>false</backazimuthUsed><weight>1</weight></arrival><arrival><pickID>de.gempa.tb1.Pick/20250414010345.712394.134699</pickID><phase>S</phase><azimuth>213.34442138671875</azimuth><distance>1.647961139678955</distance><timeResidual>-0.5119400024414062</timeResidual><timeUsed>true</timeUsed><horizontalSlownessUsed>false</horizontalSlownessUsed><backazimuthUsed>false</backazimuthUsed><weight>1</weight></arrival><arrival><pickID>de.gempa.tb1.Pick/20250414010347.097574.134700</pickID><phase>P</phase><azimuth>251.4405059814453</azimuth><distance>1.2703276872634888</distance><timeResidual>0.029693603515625</timeResidual><timeUsed>true</timeUsed><horizontalSlownessUsed>false</horizontalSlownessUsed><backazimuthUsed>false</backazimuthUsed><weight>1</weight></arrival><arrival><pickID>de.gempa.tb1.Pick/20250414010349.30327.134702</pickID><phase>S</phase><azimuth>288.7138671875</azimuth><distance>1.5426640510559082</distance><timeResidual>0.5060405731201172</timeResidual><timeUsed>true</timeUsed><horizontalSlownessUsed>false</horizontalSlownessUsed><backazimuthUsed>false</backazimuthUsed><weight>1</weight></arrival><arrival><pickID>de.gempa.tb1.Pick/20250414010355.863109.134705</pickID><phase>S</phase><azimuth>203.34170532226562</azimuth><distance>2.043562650680542</distance><timeResidual>0.3090057373046875</timeResidual><timeUsed>true</timeUsed><horizontalSlownessUsed>false</horizontalSlownessUsed><backazimuthUsed>false</backazimuthUsed><weight>1</weight></arrival><magnitude publicID="de.gempa.tb1.Magnitude/20250414010355.875977.415005"><magnitude><value>2.5905703070317867</value></magnitude><type>M</type><methodID>weighted average</methodID><stationCount>7</stationCount></magnitude></origin><event publicID="gempa2025hiii"><preferredOriginID>de.gempa.tb1.Origin/20250414010355.866075.122695</preferredOriginID><preferredMagnitudeID>de.gempa.tb1.Magnitude/20250414010355.875977.415005</preferredMagnitudeID><description><text>Chile-Bolivia Border Region</text><type>region name</type></description><originReference>de.gempa.tb1.Origin/20250414010355.866075.122695</originReference></event></EventParameters></seiscomp>