<?xml version="1.0" encoding="UTF-8"?>
<seiscomp xmlns="http://geofon.gfz-potsdam.de/ns/seiscomp3-schema/0.13" version="0.13"><EventParameters><pick publicID="de.gempa.tb1.Pick/20250413220856.548664.134017"><time><value>2025-04-13T22:08:48.558393Z</value></time><waveformID networkCode="CX" stationCode="PB02" channelCode="HHZ"/><filterID>ITAPER(4)&gt;&gt;BW(4,4,20)</filterID><methodID>AIC</methodID><horizontalSlowness><value>19.570064421865318</value></horizontalSlowness><backazimuth><value>100.23067064996773</value></backazimuth><phaseHint>P</phaseHint><evaluationMode>automatic</evaluationMode><comment><text>37.88225091827758</text><id>DFX:rectilinearity</id></comment><comment><text>8.362855582079808</text><id>SNR</id></comment></pick><pick publicID="de.gempa.tb1.Pick/20250413220858.407599.134019"><time><value>2025-04-13T22:08:51.25Z</value></time><waveformID networkCode="CX" stationCode="PB10" channelCode="HHZ"/><filterID>ITAPER(4)&gt;&gt;BW(4,4,20)</filterID><methodID>AIC</methodID><horizontalSlowness><value>18.661759253270422</value></horizontalSlowness><backazimuth><value>193.6158298277758</value></backazimuth><phaseHint>P</phaseHint><evaluationMode>automatic</evaluationMode><comment><text>38.753607043288646</text><id>DFX:rectilinearity</id></comment><comment><text>7.30782148485424</text><id>SNR</id></comment></pick><pick publicID="de.gempa.tb1.Pick/20250413220858.609369.134021"><time><value>2025-04-13T22:08:50.638393Z</value></time><waveformID networkCode="CX" stationCode="PB03" channelCode="HHZ"/><filterID>ITAPER(4)&gt;&gt;BW(4,4,20)</filterID><methodID>AIC</methodID><horizontalSlowness><value>14.6308928587303</value></horizontalSlowness><backazimuth><value>252.8985281354445</value></backazimuth><phaseHint>P</phaseHint><evaluationMode>automatic</evaluationMode><comment><text>22.87654369099601</text><id>DFX:rectilinearity</id></comment><comment><text>16.181891221660003</text><id>SNR</id></comment></pick><pick publicID="de.gempa.tb1.Pick/20250413220902.597745.134023"><time><value>2025-04-13T22:08:55.708393Z</value></time><waveformID networkCode="CX" stationCode="PB06" channelCode="HHZ"/><filterID>ITAPER(4)&gt;&gt;BW(4,4,20)</filterID><methodID>AIC</methodID><horizontalSlowness><value>8.913351059261098</value></horizontalSlowness><backazimuth><value>304.32605804348873</value></backazimuth><phaseHint>P</phaseHint><evaluationMode>automatic</evaluationMode><comment><text>90.10824384225005</text><id>DFX:rectilinearity</id></comment><comment><text>8.577050221009118</text><id>SNR</id></comment></pick><pick publicID="de.gempa.tb1.Pick/20250413220910.020508.134025"><time><value>2025-04-13T22:08:58.05Z</value></time><waveformID networkCode="CX" stationCode="PB09" channelCode="HHZ"/><filterID>ITAPER(4)&gt;&gt;BW(4,4,20)</filterID><methodID>AIC</methodID><horizontalSlowness><value>4.351477058360139</value></horizontalSlowness><backazimuth><value>10.032809702514072</value></backazimuth><phaseHint>P</phaseHint><evaluationMode>automatic</evaluationMode><comment><text>13.579788715380673</text><id>DFX:rectilinearity</id></comment><comment><text>23.61657646428669</text><id>SNR</id></comment></pick><pick publicID="de.gempa.tb1.Pick/20250413220914.787354.134027"><time><value>2025-04-13T22:08:48.138396Z</value></time><waveformID networkCode="CX" stationCode="PB07" channelCode="HHZ"/><filterID>ITAPER(4)&gt;&gt;BW(4,4,20)</filterID><methodID>AIC</methodID><horizontalSlowness><value>22.188126748460625</value></horizontalSlowness><backazimuth><value>86.64156042924088</value></backazimuth><phaseHint>P</phaseHint><evaluationMode>automatic</evaluationMode><comment><text>138.59847380365508</text><id>DFX:rectilinearity</id></comment><comment><text>32.83884522386748</text><id>SNR</id></comment></pick><origin publicID="de.gempa.tb1.Origin/20250413220915.279515.120089"><time><value>2025-04-13T22:08:05.31832Z</value><uncertainty>6.992933750152588</uncertainty></time><latitude><value>-21.5247859954834</value><uncertainty>24.917837142944336</uncertainty></latitude><longitude><value>-72.6812744140625</value><uncertainty>55.1408805847168</uncertainty></longitude><depth><value>0</value></depth><depthType>operator assigned</depthType><methodID>LOCSAT</methodID><earthModelID>iasp91_scanloc</earthModelID><quality><associatedPhaseCount>6</associatedPhaseCount><usedPhaseCount>6</usedPhaseCount><associatedStationCount>6</associatedStationCount><usedStationCount>6</usedStationCount><depthPhaseCount>0</depthPhaseCount><standardError>0.5049376093104321</standardError><azimuthalGap>310.43226623535156</azimuthalGap><maximumDistance>3.2107255458831787</maximumDistance><minimumDistance>2.6031107902526855</minimumDistance><medianDistance>2.790235757827759</medianDistance></quality><uncertainty><minHorizontalUncertainty>25.26100730895996</minHorizontalUncertainty><maxHorizontalUncertainty>127.2883529663086</maxHorizontalUncertainty><azimuthMaxHorizontalUncertainty>112.17716217041016</azimuthMaxHorizontalUncertainty><preferredDescription>horizontal uncertainty</preferredDescription></uncertainty><evaluationMode>automatic</evaluationMode><comment><text>0.66</text><id>mismatchScore</id></comment><arrival><pickID>de.gempa.tb1.Pick/20250413220856.548664.134017</pickID><phase>P</phase><azimuth>86.01095581054688</azimuth><distance>2.6031107902526855</distance><timeResidual>-0.10867691040039062</timeResidual><timeUsed>true</timeUsed><horizontalSlownessUsed>false</horizontalSlownessUsed><backazimuthUsed>false</backazimuthUsed><weight>1</weight></arrival><arrival><pickID>de.gempa.tb1.Pick/20250413220858.407599.134019</pickID><phase>P</phase><azimuth>135.5786895751953</azimuth><distance>2.790235757827759</distance><timeResidual>0.00992584228515625</timeResidual><timeUsed>true</timeUsed><horizontalSlownessUsed>false</horizontalSlownessUsed><backazimuthUsed>false</backazimuthUsed><weight>1</weight></arrival><arrival><pickID>de.gempa.tb1.Pick/20250413220858.609369.134021</pickID><phase>P</phase><azimuth>101.378173828125</azimuth><distance>2.7709197998046875</distance><timeResidual>-0.3375282287597656</timeResidual><timeUsed>true</timeUsed><horizontalSlownessUsed>false</horizontalSlownessUsed><backazimuthUsed>false</backazimuthUsed><weight>1</weight></arrival><arrival><pickID>de.gempa.tb1.Pick/20250413220902.597745.134023</pickID><phase>P</phase><azimuth>112.75385284423828</azimuth><distance>3.11359167098999</distance><timeResidual>0.01697540283203125</timeResidual><timeUsed>true</timeUsed><horizontalSlownessUsed>false</horizontalSlownessUsed><backazimuthUsed>false</backazimuthUsed><weight>1</weight></arrival><arrival><pickID>de.gempa.tb1.Pick/20250413220910.020508.134025</pickID><phase>P</phase><azimuth>95.45832824707031</azimuth><distance>3.2107255458831787</distance><timeResidual>1.0208206176757812</timeResidual><timeUsed>true</timeUsed><horizontalSlownessUsed>false</horizontalSlownessUsed><backazimuthUsed>false</backazimuthUsed><weight>1</weight></arrival><arrival><pickID>de.gempa.tb1.Pick/20250413220914.787354.134027</pickID><phase>P</phase><azimuth>94.92841339111328</azimuth><distance>2.6084227561950684</distance><timeResidual>-0.6013107299804688</timeResidual><timeUsed>true</timeUsed><horizontalSlownessUsed>false</horizontalSlownessUsed><backazimuthUsed>false</backazimuthUsed><weight>1</weight></arrival><magnitude publicID="de.gempa.tb1.Magnitude/20250413220940.643999.406478"><magnitude><value>3.097613586506338</value></magnitude><type>M</type><methodID>weighted average</methodID><stationCount>4</stationCount></magnitude></origin><event publicID="gempa2025hicn"><preferredOriginID>de.gempa.tb1.Origin/20250413220915.279515.120089</preferredOriginID><preferredMagnitudeID>de.gempa.tb1.Magnitude/20250413220940.643999.406478</preferredMagnitudeID><description><text>Off Coast of Northern Chile</text><type>region name</type></description><originReference>de.gempa.tb1.Origin/20250413220915.279515.120089</originReference></event></EventParameters></seiscomp>