<?xml version="1.0" encoding="UTF-8"?>
<seiscomp xmlns="http://geofon.gfz-potsdam.de/ns/seiscomp3-schema/0.13" version="0.13"><EventParameters><pick publicID="de.gempa.tb1.Pick/20250414183853.740953.140252"><time><value>2025-04-14T18:38:46.478394Z</value></time><waveformID networkCode="CX" stationCode="PB01" channelCode="HHZ"/><filterID>ITAPER(4)&gt;&gt;BW(4,4,20)</filterID><methodID>AIC</methodID><horizontalSlowness><value>9.417872554221864</value></horizontalSlowness><backazimuth><value>158.76395862105562</value></backazimuth><phaseHint>P</phaseHint><evaluationMode>automatic</evaluationMode><comment><text>6.360883209736689</text><id>DFX:rectilinearity</id></comment><comment><text>31.531665590819646</text><id>SNR</id></comment></pick><pick publicID="de.gempa.tb1.Pick/20250414183855.509566.140254"><time><value>2025-04-14T18:38:50.698393Z</value></time><waveformID networkCode="CX" stationCode="PB02" channelCode="HHZ"/><filterID>ITAPER(4)&gt;&gt;BW(4,4,20)</filterID><methodID>AIC</methodID><horizontalSlowness><value>14.0401411349218</value></horizontalSlowness><backazimuth><value>91.242279243899</value></backazimuth><phaseHint>P</phaseHint><evaluationMode>automatic</evaluationMode><comment><text>13.20071813194864</text><id>DFX:rectilinearity</id></comment><comment><text>11.775628533441305</text><id>SNR</id></comment></pick><pick publicID="de.gempa.tb1.Pick/20250414183858.532257.140256"><time><value>2025-04-14T18:38:50.918393Z</value></time><waveformID networkCode="CX" stationCode="PB08" channelCode="HHZ"/><filterID>ITAPER(4)&gt;&gt;BW(4,4,20)</filterID><methodID>AIC</methodID><horizontalSlowness><value>14.272844837683328</value></horizontalSlowness><backazimuth><value>88.93233609871731</value></backazimuth><phaseHint>P</phaseHint><evaluationMode>automatic</evaluationMode><comment><text>8.126498169840078</text><id>DFX:rectilinearity</id></comment><comment><text>8.160506668019325</text><id>SNR</id></comment></pick><pick publicID="de.gempa.tb1.Pick/20250414183905.600815.140261"><time><value>2025-04-14T18:39:00.08Z</value></time><waveformID networkCode="CX" stationCode="PSGCX" channelCode="HHZ"/><filterID>ITAPER(4)&gt;&gt;BW(4,4,20)</filterID><methodID>AIC</methodID><horizontalSlowness><value>3.6325777375673813</value></horizontalSlowness><backazimuth><value>215.87422336390733</value></backazimuth><phaseHint>P</phaseHint><evaluationMode>automatic</evaluationMode><comment><text>14.303075646803242</text><id>DFX:rectilinearity</id></comment><comment><text>16.43123918114659</text><id>SNR</id></comment></pick><pick publicID="de.gempa.tb1.Pick/20250414183906.063511.140263"><time><value>2025-04-14T18:38:52.498393Z</value></time><waveformID networkCode="CX" stationCode="PB07" channelCode="HHZ"/><filterID>ITAPER(4)&gt;&gt;BW(4,4,20)</filterID><methodID>AIC</methodID><horizontalSlowness><value>22.197436942801168</value></horizontalSlowness><backazimuth><value>230.7318463601836</value></backazimuth><phaseHint>P</phaseHint><evaluationMode>automatic</evaluationMode><comment><text>110.73976179744383</text><id>DFX:rectilinearity</id></comment><comment><text>7.922071366366713</text><id>SNR</id></comment></pick><pick publicID="de.gempa.tb1.Pick/20250414183907.820802.140265"><time><value>2025-04-14T18:38:59.218394Z</value></time><waveformID networkCode="CX" stationCode="PB01" channelCode="HHN"/><filterID>ITAPER(2)&gt;&gt;BW(3,3,20)</filterID><methodID>L2-AIC-GRID</methodID><horizontalSlowness><value>22.485480366815647</value></horizontalSlowness><backazimuth><value>229.78406050037205</value></backazimuth><phaseHint>S</phaseHint><evaluationMode>automatic</evaluationMode><comment><text>91.11576332417094</text><id>DFX:rectilinearity</id></comment><comment><text>de.gempa.tb1.Pick/20250414183853.740953.140252</text><id>RefPickID</id></comment><comment><text>9.909204296524379</text><id>SNR</id></comment></pick><pick publicID="de.gempa.tb1.Pick/20250414183908.808764.140266"><time><value>2025-04-14T18:38:49.78Z</value></time><waveformID networkCode="CX" stationCode="PB09" channelCode="HHZ"/><filterID>ITAPER(4)&gt;&gt;BW(4,4,20)</filterID><methodID>AIC</methodID><horizontalSlowness><value>17.189946355311594</value></horizontalSlowness><backazimuth><value>137.5163604416178</value></backazimuth><phaseHint>P</phaseHint><evaluationMode>automatic</evaluationMode><comment><text>9.740205316718441</text><id>DFX:rectilinearity</id></comment><comment><text>18.239086838807083</text><id>SNR</id></comment></pick><pick publicID="de.gempa.tb1.Pick/20250414183913.967704.140268"><time><value>2025-04-14T18:39:07.268393Z</value></time><waveformID networkCode="CX" stationCode="PB15" channelCode="HHZ"/><filterID>ITAPER(4)&gt;&gt;BW(4,4,20)</filterID><methodID>AIC</methodID><horizontalSlowness><value>20.878476237798456</value></horizontalSlowness><backazimuth><value>122.51306989028663</value></backazimuth><phaseHint>P</phaseHint><evaluationMode>automatic</evaluationMode><comment><text>1414.9577598321987</text><id>DFX:rectilinearity</id></comment><comment><text>62.67804265996879</text><id>SNR</id></comment></pick><pick publicID="de.gempa.tb1.Pick/20250414183915.472415.140270"><time><value>2025-04-14T18:39:06.358393Z</value></time><waveformID networkCode="CX" stationCode="PB02" channelCode="HHN"/><filterID>ITAPER(2)&gt;&gt;BW(3,3,20)</filterID><methodID>L2-AIC-GRID</methodID><horizontalSlowness><value>17.40200141187043</value></horizontalSlowness><backazimuth><value>323.29326738284686</value></backazimuth><phaseHint>S</phaseHint><evaluationMode>automatic</evaluationMode><comment><text>202.59994465383105</text><id>DFX:rectilinearity</id></comment><comment><text>de.gempa.tb1.Pick/20250414183855.509566.140254</text><id>RefPickID</id></comment><comment><text>8.058914217760654</text><id>SNR</id></comment></pick><pick publicID="de.gempa.tb1.Pick/20250414183916.689893.140271"><time><value>2025-04-14T18:39:06.728393Z</value></time><waveformID networkCode="CX" stationCode="PB08" channelCode="HHN"/><filterID>ITAPER(2)&gt;&gt;BW(3,3,20)</filterID><methodID>L2-AIC-GRID</methodID><horizontalSlowness><value>19.34305034484093</value></horizontalSlowness><backazimuth><value>79.0179257922041</value></backazimuth><phaseHint>S</phaseHint><evaluationMode>automatic</evaluationMode><comment><text>9.302321984510163</text><id>DFX:rectilinearity</id></comment><comment><text>de.gempa.tb1.Pick/20250414183858.532257.140256</text><id>RefPickID</id></comment><comment><text>5.796293913954212</text><id>SNR</id></comment></pick><pick publicID="de.gempa.tb1.Pick/20250414183922.188465.140277"><time><value>2025-04-14T18:39:14.88Z</value></time><waveformID networkCode="CX" stationCode="PB10" channelCode="HHZ"/><filterID>ITAPER(4)&gt;&gt;BW(4,4,20)</filterID><methodID>AIC</methodID><horizontalSlowness><value>11.647583124582516</value></horizontalSlowness><backazimuth><value>121.35460723919887</value></backazimuth><phaseHint>P</phaseHint><evaluationMode>automatic</evaluationMode><comment><text>904.0338441354111</text><id>DFX:rectilinearity</id></comment><comment><text>55.21505645801879</text><id>SNR</id></comment></pick><pick publicID="de.gempa.tb1.Pick/20250414183941.922781.140292"><time><value>2025-04-14T18:39:10.158393Z</value></time><waveformID networkCode="CX" stationCode="PB07" channelCode="HHN"/><filterID>ITAPER(2)&gt;&gt;BW(3,3,20)</filterID><methodID>L2-AIC-GRID</methodID><horizontalSlowness><value>23.46321168905967</value></horizontalSlowness><backazimuth><value>304.56121518491176</value></backazimuth><phaseHint>S</phaseHint><evaluationMode>automatic</evaluationMode><comment><text>189.22945825600334</text><id>DFX:rectilinearity</id></comment><comment><text>de.gempa.tb1.Pick/20250414183906.063511.140263</text><id>RefPickID</id></comment><comment><text>5.508722833892193</text><id>SNR</id></comment></pick><origin publicID="de.gempa.tb1.Origin/20250414183941.925587.147442"><time><value>2025-04-14T18:38:30.733644Z</value><uncertainty>0.7045634388923645</uncertainty></time><latitude><value>-21.005786895751953</value><uncertainty>4.1289162635803223</uncertainty></latitude><longitude><value>-69.03742218017578</value><uncertainty>9.24498176574707</uncertainty></longitude><depth><value>110.5884017944336</value><uncertainty>7.199801921844482</uncertainty></depth><depthType>from location</depthType><methodID>LOCSAT</methodID><earthModelID>iasp91_scanloc</earthModelID><quality><associatedPhaseCount>12</associatedPhaseCount><usedPhaseCount>12</usedPhaseCount><associatedStationCount>8</associatedStationCount><usedStationCount>8</usedStationCount><depthPhaseCount>0</depthPhaseCount><standardError>0.44366928868972383</standardError><azimuthalGap>197.53158569335938</azimuthalGap><maximumDistance>2.863856792449951</maximumDistance><minimumDistance>0.42202669382095337</minimumDistance><medianDistance>0.8671309947967529</medianDistance></quality><uncertainty><minHorizontalUncertainty>7.226938724517822</minHorizontalUncertainty><maxHorizontalUncertainty>20.471887588500977</maxHorizontalUncertainty><azimuthMaxHorizontalUncertainty>105.48457336425781</azimuthMaxHorizontalUncertainty><preferredDescription>horizontal uncertainty</preferredDescription></uncertainty><evaluationMode>automatic</evaluationMode><evaluationStatus>confirmed</evaluationStatus><comment><text>0.29</text><id>mismatchScore</id></comment><comment><text>mismatchScore</text><id>scevalMethod</id></comment><arrival><pickID>de.gempa.tb1.Pick/20250414183853.740953.140252</pickID><phase>P</phase><azimuth>264.8551330566406</azimuth><distance>0.42202669382095337</distance><timeResidual>-0.7056779861450195</timeResidual><timeUsed>true</timeUsed><horizontalSlownessUsed>false</horizontalSlownessUsed><backazimuthUsed>false</backazimuthUsed><weight>1</weight></arrival><arrival><pickID>de.gempa.tb1.Pick/20250414183855.509566.140254</pickID><phase>P</phase><azimuth>248.5503845214844</azimuth><distance>0.8601259589195251</distance><timeResidual>0.0740957260131836</timeResidual><timeUsed>true</timeUsed><horizontalSlownessUsed>false</horizontalSlownessUsed><backazimuthUsed>false</backazimuthUsed><weight>1</weight></arrival><arrival><pickID>de.gempa.tb1.Pick/20250414183858.532257.140256</pickID><phase>P</phase><azimuth>352.7805480957031</azimuth><distance>0.8671309947967529</distance><timeResidual>0.22124767303466797</timeResidual><timeUsed>true</timeUsed><horizontalSlownessUsed>false</horizontalSlownessUsed><backazimuthUsed>false</backazimuthUsed><weight>1</weight></arrival><arrival><pickID>de.gempa.tb1.Pick/20250414183905.600815.140261</pickID><phase>P</phase><azimuth>323.7898864746094</azimuth><distance>1.7327216863632202</distance><timeResidual>-0.36019039154052734</timeResidual><timeUsed>true</timeUsed><horizontalSlownessUsed>false</horizontalSlownessUsed><backazimuthUsed>false</backazimuthUsed><weight>1</weight></arrival><arrival><pickID>de.gempa.tb1.Pick/20250414183906.063511.140263</pickID><phase>P</phase><azimuth>227.647705078125</azimuth><distance>1.0679035186767578</distance><timeResidual>-0.21900272369384766</timeResidual><timeUsed>true</timeUsed><horizontalSlownessUsed>false</horizontalSlownessUsed><backazimuthUsed>false</backazimuthUsed><weight>1</weight></arrival><arrival><pickID>de.gempa.tb1.Pick/20250414183907.820802.140265</pickID><phase>S</phase><azimuth>264.8551330566406</azimuth><distance>0.42202669382095337</distance><timeResidual>-0.6252641677856445</timeResidual><timeUsed>true</timeUsed><horizontalSlownessUsed>false</horizontalSlownessUsed><backazimuthUsed>false</backazimuthUsed><weight>1</weight></arrival><arrival><pickID>de.gempa.tb1.Pick/20250414183908.808764.140266</pickID><phase>P</phase><azimuth>193.5798797607422</azimuth><distance>0.8094491362571716</distance><timeResidual>-0.3666257858276367</timeResidual><timeUsed>true</timeUsed><horizontalSlownessUsed>false</horizontalSlownessUsed><backazimuthUsed>false</backazimuthUsed><weight>1</weight></arrival><arrival><pickID>de.gempa.tb1.Pick/20250414183913.967704.140268</pickID><phase>P</phase><azimuth>190.3121337890625</azimuth><distance>2.228501796722412</distance><timeResidual>0.5879983901977539</timeResidual><timeUsed>true</timeUsed><horizontalSlownessUsed>false</horizontalSlownessUsed><backazimuthUsed>false</backazimuthUsed><weight>1</weight></arrival><arrival><pickID>de.gempa.tb1.Pick/20250414183915.472415.140270</pickID><phase>S</phase><azimuth>248.5503845214844</azimuth><distance>0.8601259589195251</distance><timeResidual>0.3884592056274414</timeResidual><timeUsed>true</timeUsed><horizontalSlownessUsed>false</horizontalSlownessUsed><backazimuthUsed>false</backazimuthUsed><weight>1</weight></arrival><arrival><pickID>de.gempa.tb1.Pick/20250414183916.689893.140271</pickID><phase>S</phase><azimuth>352.7805480957031</azimuth><distance>0.8671309947967529</distance><timeResidual>0.630253791809082</timeResidual><timeUsed>true</timeUsed><horizontalSlownessUsed>false</horizontalSlownessUsed><backazimuthUsed>false</backazimuthUsed><weight>1</weight></arrival><arrival><pickID>de.gempa.tb1.Pick/20250414183922.188465.140277</pickID><phase>P</phase><azimuth>209.09596252441406</azimuth><distance>2.863856792449951</distance><timeResidual>-0.0795278549194336</timeResidual><timeUsed>true</timeUsed><horizontalSlownessUsed>false</horizontalSlownessUsed><backazimuthUsed>false</backazimuthUsed><weight>1</weight></arrival><arrival><pickID>de.gempa.tb1.Pick/20250414183941.922781.140292</pickID><phase>S</phase><azimuth>227.647705078125</azimuth><distance>1.0679035186767578</distance><timeResidual>0.4543466567993164</timeResidual><timeUsed>true</timeUsed><horizontalSlownessUsed>false</horizontalSlownessUsed><backazimuthUsed>false</backazimuthUsed><weight>1</weight></arrival><magnitude publicID="de.gempa.tb1.Magnitude/20250414183941.932497.529131"><magnitude><value>2.8530863455691957</value></magnitude><type>M</type><methodID>weighted average</methodID><stationCount>6</stationCount></magnitude></origin><event publicID="gempa2025hjro"><preferredOriginID>de.gempa.tb1.Origin/20250414183941.925587.147442</preferredOriginID><preferredMagnitudeID>de.gempa.tb1.Magnitude/20250414183941.932497.529131</preferredMagnitudeID><description><text>Northern Chile</text><type>region name</type></description><originReference>de.gempa.tb1.Origin/20250414183941.925587.147442</originReference></event></EventParameters></seiscomp>