<?xml version="1.0" encoding="UTF-8"?>
<seiscomp xmlns="http://geofon.gfz-potsdam.de/ns/seiscomp3-schema/0.13" version="0.13"><EventParameters><pick publicID="de.gempa.tb1.Pick/20250411152616.627037.118435"><time><value>2025-04-11T15:26:11.11Z</value></time><waveformID networkCode="CX" stationCode="PB09" channelCode="HHZ"/><filterID>ITAPER(4)&gt;&gt;BW(4,4,20)</filterID><methodID>AIC</methodID><horizontalSlowness><value>16.289285882162453</value></horizontalSlowness><backazimuth><value>80.69146989265975</value></backazimuth><phaseHint>P</phaseHint><evaluationMode>automatic</evaluationMode><comment><text>37.998220606562974</text><id>DFX:rectilinearity</id></comment><comment><text>94.9509818155209</text><id>SNR</id></comment></pick><pick publicID="de.gempa.tb1.Pick/20250411152620.611309.118437"><time><value>2025-04-11T15:26:15.908394Z</value></time><waveformID networkCode="CX" stationCode="PB01" channelCode="HHZ"/><filterID>ITAPER(4)&gt;&gt;BW(4,4,20)</filterID><methodID>AIC</methodID><horizontalSlowness><value>17.498342212225843</value></horizontalSlowness><backazimuth><value>336.16959685995675</value></backazimuth><phaseHint>P</phaseHint><evaluationMode>automatic</evaluationMode><comment><text>18.704486231138798</text><id>DFX:rectilinearity</id></comment><comment><text>52.3834931624122</text><id>SNR</id></comment></pick><pick publicID="de.gempa.tb1.Pick/20250411152621.686545.118439"><time><value>2025-04-11T15:26:15.438393Z</value></time><waveformID networkCode="CX" stationCode="PB03" channelCode="HHZ"/><filterID>ITAPER(4)&gt;&gt;BW(4,4,20)</filterID><methodID>AIC</methodID><horizontalSlowness><value>8.763804577539474</value></horizontalSlowness><backazimuth><value>94.46639511672093</value></backazimuth><phaseHint>P</phaseHint><evaluationMode>automatic</evaluationMode><comment><text>13.199071203615642</text><id>DFX:rectilinearity</id></comment><comment><text>45.78585210500842</text><id>SNR</id></comment></pick><pick publicID="de.gempa.tb1.Pick/20250411152623.558773.118441"><time><value>2025-04-11T15:26:17.818393Z</value></time><waveformID networkCode="CX" stationCode="PB02" channelCode="HHZ"/><filterID>ITAPER(4)&gt;&gt;BW(4,4,20)</filterID><methodID>AIC</methodID><horizontalSlowness><value>14.604785173777167</value></horizontalSlowness><backazimuth><value>80.65491387509599</value></backazimuth><phaseHint>P</phaseHint><evaluationMode>automatic</evaluationMode><comment><text>69.66976017723015</text><id>DFX:rectilinearity</id></comment><comment><text>54.38398866038401</text><id>SNR</id></comment></pick><pick publicID="de.gempa.tb1.Pick/20250411152626.518465.118443"><time><value>2025-04-11T15:26:17.598393Z</value></time><waveformID networkCode="CX" stationCode="PB06" channelCode="HHZ"/><filterID>ITAPER(4)&gt;&gt;BW(4,4,20)</filterID><methodID>AIC</methodID><horizontalSlowness><value>14.467232700249804</value></horizontalSlowness><backazimuth><value>111.71244120904753</value></backazimuth><phaseHint>P</phaseHint><evaluationMode>automatic</evaluationMode><comment><text>97.93712258333827</text><id>DFX:rectilinearity</id></comment><comment><text>10.841161879449469</text><id>SNR</id></comment></pick><pick publicID="de.gempa.tb1.Pick/20250411152631.482428.118445"><time><value>2025-04-11T15:26:23.399999Z</value></time><waveformID networkCode="CX" stationCode="PATCX" channelCode="HHZ"/><filterID>ITAPER(4)&gt;&gt;BW(4,4,20)</filterID><methodID>AIC</methodID><horizontalSlowness><value>17.631370547475317</value></horizontalSlowness><backazimuth><value>15.10191619649214</value></backazimuth><phaseHint>P</phaseHint><evaluationMode>automatic</evaluationMode><comment><text>909.0099148828814</text><id>DFX:rectilinearity</id></comment><comment><text>9.664275369988166</text><id>SNR</id></comment></pick><pick publicID="de.gempa.tb1.Pick/20250411152633.278243.118447"><time><value>2025-04-11T15:26:16.608393Z</value></time><waveformID networkCode="CX" stationCode="PB07" channelCode="HHZ"/><filterID>ITAPER(4)&gt;&gt;BW(4,4,20)</filterID><methodID>AIC</methodID><horizontalSlowness><value>19.063116353628939</value></horizontalSlowness><backazimuth><value>61.12991849625351</value></backazimuth><phaseHint>P</phaseHint><evaluationMode>automatic</evaluationMode><comment><text>129.1255686898418</text><id>DFX:rectilinearity</id></comment><comment><text>65.61723325032496</text><id>SNR</id></comment></pick><pick publicID="de.gempa.tb1.Pick/20250411152635.530356.118449"><time><value>2025-04-11T15:26:28.61Z</value></time><waveformID networkCode="CX" stationCode="PB19" channelCode="HHZ"/><filterID>ITAPER(4)&gt;&gt;BW(4,4,20)</filterID><methodID>AIC</methodID><horizontalSlowness><value>20.032702622079192</value></horizontalSlowness><backazimuth><value>54.74580435040698</value></backazimuth><phaseHint>P</phaseHint><evaluationMode>automatic</evaluationMode><comment><text>35.75121526658153</text><id>DFX:rectilinearity</id></comment><comment><text>7.926374084192559</text><id>SNR</id></comment></pick><pick publicID="de.gempa.tb1.Pick/20250411152638.68864.118451"><time><value>2025-04-11T15:26:33.258393Z</value></time><waveformID networkCode="CX" stationCode="PB03" channelCode="HHN"/><filterID>ITAPER(2)&gt;&gt;BW(3,3,20)</filterID><methodID>L2-AIC-GRID</methodID><horizontalSlowness><value>17.162115305121073</value></horizontalSlowness><backazimuth><value>315.3248120243551</value></backazimuth><phaseHint>S</phaseHint><evaluationMode>automatic</evaluationMode><comment><text>167.4546000877931</text><id>DFX:rectilinearity</id></comment><comment><text>de.gempa.tb1.Pick/20250411152621.686545.118439</text><id>RefPickID</id></comment><comment><text>14.14804317375714</text><id>SNR</id></comment></pick><pick publicID="de.gempa.tb1.Pick/20250411152642.6625.118452"><time><value>2025-04-11T15:26:36.558393Z</value></time><waveformID networkCode="CX" stationCode="PB06" channelCode="HHN"/><filterID>ITAPER(2)&gt;&gt;BW(3,3,20)</filterID><methodID>L2-AIC-GRID</methodID><horizontalSlowness><value>23.055940555466563</value></horizontalSlowness><backazimuth><value>137.3413151855602</value></backazimuth><phaseHint>S</phaseHint><evaluationMode>automatic</evaluationMode><comment><text>164.9456301566047</text><id>DFX:rectilinearity</id></comment><comment><text>de.gempa.tb1.Pick/20250411152626.518465.118443</text><id>RefPickID</id></comment><comment><text>9.176318768524297</text><id>SNR</id></comment></pick><pick publicID="de.gempa.tb1.Pick/20250411152642.806408.118453"><time><value>2025-04-11T15:26:34.898394Z</value></time><waveformID networkCode="CX" stationCode="PB01" channelCode="HHN"/><filterID>ITAPER(2)&gt;&gt;BW(3,3,20)</filterID><methodID>L2-AIC-GRID</methodID><horizontalSlowness><value>23.03436877685273</value></horizontalSlowness><backazimuth><value>9.148328195561675</value></backazimuth><phaseHint>S</phaseHint><evaluationMode>automatic</evaluationMode><comment><text>208.27574948118396</text><id>DFX:rectilinearity</id></comment><comment><text>de.gempa.tb1.Pick/20250411152620.611309.118437</text><id>RefPickID</id></comment><comment><text>5.294368658105158</text><id>SNR</id></comment></pick><pick publicID="de.gempa.tb1.Pick/20250411152644.51878.118454"><time><value>2025-04-11T15:26:34.06Z</value></time><waveformID networkCode="CX" stationCode="PSGCX" channelCode="HHZ"/><filterID>ITAPER(4)&gt;&gt;BW(4,4,20)</filterID><methodID>AIC</methodID><horizontalSlowness><value>7.53401631261737</value></horizontalSlowness><backazimuth><value>15.075947057078906</value></backazimuth><phaseHint>P</phaseHint><evaluationMode>automatic</evaluationMode><comment><text>8.388981021888219</text><id>DFX:rectilinearity</id></comment><comment><text>11.954464059208076</text><id>SNR</id></comment></pick><pick publicID="de.gempa.tb1.Pick/20250411152712.624458.118460"><time><value>2025-04-11T15:27:05.56Z</value></time><waveformID networkCode="CX" stationCode="PSGCX" channelCode="HHN"/><filterID>ITAPER(2)&gt;&gt;BW(3,3,20)</filterID><methodID>L2-AIC-GRID</methodID><horizontalSlowness><value>21.71970781477356</value></horizontalSlowness><backazimuth><value>277.37213162372097</value></backazimuth><phaseHint>S</phaseHint><evaluationMode>automatic</evaluationMode><comment><text>14.41381929542296</text><id>DFX:rectilinearity</id></comment><comment><text>de.gempa.tb1.Pick/20250411152644.51878.118454</text><id>RefPickID</id></comment><comment><text>5.030381106361218</text><id>SNR</id></comment></pick><origin publicID="de.gempa.tb1.Origin/20250411152715.617275.59176"><time><value>2025-04-11T15:25:52.706872Z</value><uncertainty>0.8484408855438232</uncertainty></time><latitude><value>-21.815881729125977</value><uncertainty>3.6022064685821533</uncertainty></latitude><longitude><value>-68.67891693115234</value><uncertainty>14.022236824035645</uncertainty></longitude><depth><value>126.9441375732422</value><uncertainty>12.035058975219727</uncertainty></depth><depthType>from location</depthType><methodID>LOCSAT</methodID><earthModelID>iasp91_scanloc</earthModelID><quality><associatedPhaseCount>13</associatedPhaseCount><usedPhaseCount>13</usedPhaseCount><associatedStationCount>9</associatedStationCount><usedStationCount>9</usedStationCount><depthPhaseCount>0</depthPhaseCount><standardError>0.32956568281663184</standardError><azimuthalGap>226.80810546875</azimuthalGap><maximumDistance>2.5885798931121826</maximumDistance><minimumDistance>0.5235599279403687</minimumDistance><medianDistance>1.211867094039917</medianDistance></quality><uncertainty><minHorizontalUncertainty>6.996870517730713</minHorizontalUncertainty><maxHorizontalUncertainty>30.240562438964844</maxHorizontalUncertainty><azimuthMaxHorizontalUncertainty>83.61959075927734</azimuthMaxHorizontalUncertainty><preferredDescription>horizontal uncertainty</preferredDescription></uncertainty><evaluationMode>automatic</evaluationMode><evaluationStatus>confirmed</evaluationStatus><comment><text>0.06</text><id>mismatchScore</id></comment><comment><text>mismatchScore</text><id>scevalMethod</id></comment><arrival><pickID>de.gempa.tb1.Pick/20250411152616.627037.118435</pickID><phase>P</phase><azimuth>272.0203857421875</azimuth><distance>0.5235599279403687</distance><timeResidual>-0.4814643859863281</timeResidual><timeUsed>true</timeUsed><horizontalSlownessUsed>false</horizontalSlownessUsed><backazimuthUsed>false</backazimuthUsed><weight>1</weight></arrival><arrival><pickID>de.gempa.tb1.Pick/20250411152620.611309.118437</pickID><phase>P</phase><azimuth>315.4393310546875</azimuth><distance>1.0763422250747681</distance><timeResidual>-0.21409034729003906</timeResidual><timeUsed>true</timeUsed><horizontalSlownessUsed>false</horizontalSlownessUsed><backazimuthUsed>false</backazimuthUsed><weight>1</weight></arrival><arrival><pickID>de.gempa.tb1.Pick/20250411152621.686545.118439</pickID><phase>P</phase><azimuth>256.73541259765625</azimuth><distance>1.0238701105117798</distance><timeResidual>-0.1679363250732422</timeResidual><timeUsed>true</timeUsed><horizontalSlownessUsed>false</horizontalSlownessUsed><backazimuthUsed>false</backazimuthUsed><weight>1</weight></arrival><arrival><pickID>de.gempa.tb1.Pick/20250411152623.558773.118441</pickID><phase>P</phase><azimuth>293.3241271972656</azimuth><distance>1.235813021659851</distance><timeResidual>0.07302284240722656</timeResidual><timeUsed>true</timeUsed><horizontalSlownessUsed>false</horizontalSlownessUsed><backazimuthUsed>false</backazimuthUsed><weight>1</weight></arrival><arrival><pickID>de.gempa.tb1.Pick/20250411152626.518465.118443</pickID><phase>P</phase><azimuth>222.87802124023438</azimuth><distance>1.211867094039917</distance><timeResidual>0.11199378967285156</timeResidual><timeUsed>true</timeUsed><horizontalSlownessUsed>false</horizontalSlownessUsed><backazimuthUsed>false</backazimuthUsed><weight>1</weight></arrival><arrival><pickID>de.gempa.tb1.Pick/20250411152631.482428.118445</pickID><phase>P</phase><azimuth>305.5061950683594</azimuth><distance>1.6938937902450562</distance><timeResidual>0.5270671844482422</timeResidual><timeUsed>true</timeUsed><horizontalSlownessUsed>false</horizontalSlownessUsed><backazimuthUsed>false</backazimuthUsed><weight>1</weight></arrival><arrival><pickID>de.gempa.tb1.Pick/20250411152633.278243.118447</pickID><phase>P</phase><azimuth>274.30059814453125</azimuth><distance>1.1256823539733887</distance><timeResidual>-0.0012798309326171875</timeResidual><timeUsed>true</timeUsed><horizontalSlownessUsed>false</horizontalSlownessUsed><backazimuthUsed>false</backazimuthUsed><weight>1</weight></arrival><arrival><pickID>de.gempa.tb1.Pick/20250411152635.530356.118449</pickID><phase>P</phase><azimuth>195.066650390625</azimuth><distance>2.154296875</distance><timeResidual>0.1707592010498047</timeResidual><timeUsed>true</timeUsed><horizontalSlownessUsed>false</horizontalSlownessUsed><backazimuthUsed>false</backazimuthUsed><weight>1</weight></arrival><arrival><pickID>de.gempa.tb1.Pick/20250411152638.68864.118451</pickID><phase>S</phase><azimuth>256.73541259765625</azimuth><distance>1.0238701105117798</distance><timeResidual>-0.07497787475585938</timeResidual><timeUsed>true</timeUsed><horizontalSlownessUsed>false</horizontalSlownessUsed><backazimuthUsed>false</backazimuthUsed><weight>1</weight></arrival><arrival><pickID>de.gempa.tb1.Pick/20250411152642.6625.118452</pickID><phase>S</phase><azimuth>222.87802124023438</azimuth><distance>1.211867094039917</distance><timeResidual>-0.13122940063476562</timeResidual><timeUsed>true</timeUsed><horizontalSlownessUsed>false</horizontalSlownessUsed><backazimuthUsed>false</backazimuthUsed><weight>1</weight></arrival><arrival><pickID>de.gempa.tb1.Pick/20250411152642.806408.118453</pickID><phase>S</phase><azimuth>315.4393310546875</azimuth><distance>1.0763422250747681</distance><timeResidual>0.645303726196289</timeResidual><timeUsed>true</timeUsed><horizontalSlownessUsed>false</horizontalSlownessUsed><backazimuthUsed>false</backazimuthUsed><weight>1</weight></arrival><arrival><pickID>de.gempa.tb1.Pick/20250411152644.51878.118454</pickID><phase>P</phase><azimuth>328.258544921875</azimuth><distance>2.5885798931121826</distance><timeResidual>0.1157054901123047</timeResidual><timeUsed>true</timeUsed><horizontalSlownessUsed>false</horizontalSlownessUsed><backazimuthUsed>false</backazimuthUsed><weight>1</weight></arrival><arrival><pickID>de.gempa.tb1.Pick/20250411152712.624458.118460</pickID><phase>S</phase><azimuth>328.258544921875</azimuth><distance>2.5885798931121826</distance><timeResidual>-0.5732784271240234</timeResidual><timeUsed>true</timeUsed><horizontalSlownessUsed>false</horizontalSlownessUsed><backazimuthUsed>false</backazimuthUsed><weight>1</weight></arrival><magnitude publicID="de.gempa.tb1.Magnitude/20250411152715.623236.113906"><magnitude><value>2.328581640383694</value></magnitude><type>M</type><methodID>weighted average</methodID><stationCount>4</stationCount></magnitude></origin><event publicID="gempa2025hdxb"><preferredOriginID>de.gempa.tb1.Origin/20250411152715.617275.59176</preferredOriginID><preferredMagnitudeID>de.gempa.tb1.Magnitude/20250411152715.623236.113906</preferredMagnitudeID><description><text>Chile-Bolivia Border Region</text><type>region name</type></description><originReference>de.gempa.tb1.Origin/20250411152715.617275.59176</originReference></event></EventParameters></seiscomp>