<?xml version="1.0" encoding="UTF-8"?>
<seiscomp xmlns="http://geofon.gfz-potsdam.de/ns/seiscomp3-schema/0.13" version="0.13"><EventParameters><pick publicID="de.gempa.tb1.Pick/20250414011654.546717.134763"><time><value>2025-04-14T01:16:50.12Z</value></time><waveformID networkCode="CX" stationCode="PB19" channelCode="HHZ"/><filterID>ITAPER(4)&gt;&gt;BW(4,4,20)</filterID><methodID>AIC</methodID><horizontalSlowness><value>7.064491834512489</value></horizontalSlowness><backazimuth><value>92.96023370228693</value></backazimuth><phaseHint>P</phaseHint><evaluationMode>automatic</evaluationMode><comment><text>211.22925880709386</text><id>DFX:rectilinearity</id></comment><comment><text>76.72936197793976</text><id>SNR</id></comment></pick><pick publicID="de.gempa.tb1.Pick/20250414011654.645718.134765"><time><value>2025-04-14T01:16:49.668393Z</value></time><waveformID networkCode="CX" stationCode="PB06" channelCode="HHZ"/><filterID>ITAPER(4)&gt;&gt;BW(4,4,20)</filterID><methodID>AIC</methodID><horizontalSlowness><value>5.249506178062971</value></horizontalSlowness><backazimuth><value>121.50250630344682</value></backazimuth><phaseHint>P</phaseHint><evaluationMode>automatic</evaluationMode><comment><text>99.75996866841625</text><id>DFX:rectilinearity</id></comment><comment><text>47.90028982848518</text><id>SNR</id></comment></pick><pick publicID="de.gempa.tb1.Pick/20250414011654.815419.134767"><time><value>2025-04-14T01:16:48.318393Z</value></time><waveformID networkCode="CX" stationCode="PB15" channelCode="HHZ"/><filterID>ITAPER(4)&gt;&gt;BW(4,4,20)</filterID><methodID>AIC</methodID><horizontalSlowness><value>19.07957604750779</value></horizontalSlowness><backazimuth><value>107.02111803259346</value></backazimuth><phaseHint>P</phaseHint><evaluationMode>automatic</evaluationMode><comment><text>825.2181926211248</text><id>DFX:rectilinearity</id></comment><comment><text>27.49626557457996</text><id>SNR</id></comment></pick><pick publicID="de.gempa.tb1.Pick/20250414011700.771936.134769"><time><value>2025-04-14T01:16:54.758393Z</value></time><waveformID networkCode="CX" stationCode="PB03" channelCode="HHZ"/><filterID>ITAPER(4)&gt;&gt;BW(4,4,20)</filterID><methodID>AIC</methodID><horizontalSlowness><value>8.45162677240416</value></horizontalSlowness><backazimuth><value>167.4011797597708</value></backazimuth><phaseHint>P</phaseHint><evaluationMode>automatic</evaluationMode><comment><text>67.89232717817855</text><id>DFX:rectilinearity</id></comment><comment><text>107.51229864428844</text><id>SNR</id></comment></pick><pick publicID="de.gempa.tb1.Pick/20250414011703.504853.134771"><time><value>2025-04-14T01:16:54.29Z</value></time><waveformID networkCode="CX" stationCode="PB09" channelCode="HHZ"/><filterID>ITAPER(4)&gt;&gt;BW(4,4,20)</filterID><methodID>AIC</methodID><horizontalSlowness><value>18.527816409389494</value></horizontalSlowness><backazimuth><value>127.05880873506723</value></backazimuth><phaseHint>P</phaseHint><evaluationMode>automatic</evaluationMode><comment><text>231.3487242089736</text><id>DFX:rectilinearity</id></comment><comment><text>139.34227800110662</text><id>SNR</id></comment></pick><pick publicID="de.gempa.tb1.Pick/20250414011708.56984.134773"><time><value>2025-04-14T01:17:02.208391Z</value></time><waveformID networkCode="CX" stationCode="PB02" channelCode="HHZ"/><filterID>ITAPER(4)&gt;&gt;BW(4,4,20)</filterID><methodID>AIC</methodID><horizontalSlowness><value>9.785868443841586</value></horizontalSlowness><backazimuth><value>298.33717400186686</value></backazimuth><phaseHint>P</phaseHint><evaluationMode>automatic</evaluationMode><comment><text>36.574800450371406</text><id>DFX:rectilinearity</id></comment><comment><text>32.84497930697715</text><id>SNR</id></comment></pick><pick publicID="de.gempa.tb1.Pick/20250414011709.371254.134775"><time><value>2025-04-14T01:16:59.74Z</value></time><waveformID networkCode="CX" stationCode="PB10" channelCode="HHZ"/><filterID>ITAPER(4)&gt;&gt;BW(4,4,20)</filterID><methodID>AIC</methodID><horizontalSlowness><value>12.929293972189559</value></horizontalSlowness><backazimuth><value>46.72613670486948</value></backazimuth><phaseHint>P</phaseHint><evaluationMode>automatic</evaluationMode><comment><text>64.08958977654625</text><id>DFX:rectilinearity</id></comment><comment><text>5.672247303036708</text><id>SNR</id></comment></pick><pick publicID="de.gempa.tb1.Pick/20250414011710.555085.134777"><time><value>2025-04-14T01:17:02.588391Z</value></time><waveformID networkCode="CX" stationCode="PB01" channelCode="HHZ"/><filterID>ITAPER(4)&gt;&gt;BW(4,4,20)</filterID><methodID>AIC</methodID><horizontalSlowness><value>16.901194189804919</value></horizontalSlowness><backazimuth><value>345.9364748092712</value></backazimuth><phaseHint>P</phaseHint><evaluationMode>automatic</evaluationMode><comment><text>13.58217237123488</text><id>DFX:rectilinearity</id></comment><comment><text>30.2918880878774</text><id>SNR</id></comment></pick><pick publicID="de.gempa.tb1.Pick/20250414011711.922571.134779"><time><value>2025-04-14T01:17:05.018393Z</value></time><waveformID networkCode="CX" stationCode="PB15" channelCode="HHN"/><filterID>ITAPER(2)&gt;&gt;BW(3,3,20)</filterID><methodID>L2-AIC-GRID</methodID><horizontalSlowness><value>21.779772558575672</value></horizontalSlowness><backazimuth><value>69.83032641091036</value></backazimuth><phaseHint>S</phaseHint><evaluationMode>automatic</evaluationMode><comment><text>414742.36853147484</text><id>DFX:rectilinearity</id></comment><comment><text>de.gempa.tb1.Pick/20250414011654.815419.134767</text><id>RefPickID</id></comment><comment><text>28.65044196680188</text><id>SNR</id></comment></pick><pick publicID="de.gempa.tb1.Pick/20250414011714.66108.134780"><time><value>2025-04-14T01:17:07.188393Z</value></time><waveformID networkCode="CX" stationCode="PB06" channelCode="HHN"/><filterID>ITAPER(2)&gt;&gt;BW(3,3,20)</filterID><methodID>L2-AIC-GRID</methodID><horizontalSlowness><value>22.03062908802514</value></horizontalSlowness><backazimuth><value>10.626111745580005</value></backazimuth><phaseHint>S</phaseHint><evaluationMode>automatic</evaluationMode><comment><text>3987.084331902959</text><id>DFX:rectilinearity</id></comment><comment><text>de.gempa.tb1.Pick/20250414011654.645718.134765</text><id>RefPickID</id></comment><comment><text>27.397475621942466</text><id>SNR</id></comment></pick><pick publicID="de.gempa.tb1.Pick/20250414011714.798415.134781"><time><value>2025-04-14T01:17:08.47Z</value></time><waveformID networkCode="CX" stationCode="PB19" channelCode="HHN"/><filterID>ITAPER(2)&gt;&gt;BW(3,3,20)</filterID><methodID>L2-AIC-GRID</methodID><horizontalSlowness><value>19.259835255614433</value></horizontalSlowness><backazimuth><value>44.06950292434115</value></backazimuth><phaseHint>S</phaseHint><evaluationMode>automatic</evaluationMode><comment><text>1206.234948331176</text><id>DFX:rectilinearity</id></comment><comment><text>de.gempa.tb1.Pick/20250414011654.546717.134763</text><id>RefPickID</id></comment><comment><text>6.07738885717577</text><id>SNR</id></comment></pick><pick publicID="de.gempa.tb1.Pick/20250414011718.472326.134782"><time><value>2025-04-14T01:17:09.529999Z</value></time><waveformID networkCode="CX" stationCode="PATCX" channelCode="HHZ"/><filterID>ITAPER(4)&gt;&gt;BW(4,4,20)</filterID><methodID>AIC</methodID><horizontalSlowness><value>12.970196574318939</value></horizontalSlowness><backazimuth><value>327.5620798859479</value></backazimuth><phaseHint>P</phaseHint><evaluationMode>automatic</evaluationMode><comment><text>114.73449232832166</text><id>DFX:rectilinearity</id></comment><comment><text>6.903427854646509</text><id>SNR</id></comment></pick><pick publicID="de.gempa.tb1.Pick/20250414011722.771836.134786"><time><value>2025-04-14T01:17:16.258393Z</value></time><waveformID networkCode="CX" stationCode="PB03" channelCode="HHN"/><filterID>ITAPER(2)&gt;&gt;BW(3,3,20)</filterID><methodID>L2-AIC-GRID</methodID><horizontalSlowness><value>18.661676589444667</value></horizontalSlowness><backazimuth><value>46.09305498938605</value></backazimuth><phaseHint>S</phaseHint><evaluationMode>automatic</evaluationMode><comment><text>238.78249280734693</text><id>DFX:rectilinearity</id></comment><comment><text>de.gempa.tb1.Pick/20250414011700.771936.134769</text><id>RefPickID</id></comment><comment><text>5.18180504126313</text><id>SNR</id></comment></pick><pick publicID="de.gempa.tb1.Pick/20250414011725.709615.134789"><time><value>2025-04-14T01:16:58.468394Z</value></time><waveformID networkCode="CX" stationCode="PB07" channelCode="HHZ"/><filterID>ITAPER(4)&gt;&gt;BW(4,4,20)</filterID><methodID>AIC</methodID><horizontalSlowness><value>15.6393834402238</value></horizontalSlowness><backazimuth><value>162.5820225403884</value></backazimuth><phaseHint>P</phaseHint><evaluationMode>automatic</evaluationMode><comment><text>3283.7907906522287</text><id>DFX:rectilinearity</id></comment><comment><text>344.00737968096007</text><id>SNR</id></comment></pick><pick publicID="de.gempa.tb1.Pick/20250414011731.358221.134792"><time><value>2025-04-14T01:17:23.29Z</value></time><waveformID networkCode="CX" stationCode="PB10" channelCode="HHN"/><filterID>ITAPER(2)&gt;&gt;BW(3,3,20)</filterID><methodID>L2-AIC-GRID</methodID><horizontalSlowness><value>21.47331841789537</value></horizontalSlowness><backazimuth><value>318.68117584297215</value></backazimuth><phaseHint>S</phaseHint><evaluationMode>automatic</evaluationMode><comment><text>141.85732790066558</text><id>DFX:rectilinearity</id></comment><comment><text>de.gempa.tb1.Pick/20250414011709.371254.134775</text><id>RefPickID</id></comment><comment><text>9.548496833960185</text><id>SNR</id></comment></pick><pick publicID="de.gempa.tb1.Pick/20250414011738.552666.134793"><time><value>2025-04-14T01:17:31.268391Z</value></time><waveformID networkCode="CX" stationCode="PB01" channelCode="HHN"/><filterID>ITAPER(2)&gt;&gt;BW(3,3,20)</filterID><methodID>L2-AIC-GRID</methodID><horizontalSlowness><value>21.13706855062816</value></horizontalSlowness><backazimuth><value>33.24353300355119</value></backazimuth><phaseHint>S</phaseHint><evaluationMode>automatic</evaluationMode><comment><text>119.68000388667728</text><id>DFX:rectilinearity</id></comment><comment><text>de.gempa.tb1.Pick/20250414011710.555085.134777</text><id>RefPickID</id></comment><comment><text>7.569292839240195</text><id>SNR</id></comment></pick><origin publicID="de.gempa.tb1.Origin/20250414011738.556024.123184"><time><value>2025-04-14T01:16:27.058481Z</value><uncertainty>0.7922840118408203</uncertainty></time><latitude><value>-23.0684757232666</value><uncertainty>3.4143054485321045</uncertainty></latitude><longitude><value>-68.63860321044922</value><uncertainty>8.076788902282715</uncertainty></longitude><depth><value>132.42828369140625</value><uncertainty>7.806009292602539</uncertainty></depth><depthType>from location</depthType><methodID>LOCSAT</methodID><earthModelID>iasp91_scanloc</earthModelID><quality><associatedPhaseCount>16</associatedPhaseCount><usedPhaseCount>16</usedPhaseCount><associatedStationCount>10</associatedStationCount><usedStationCount>10</usedStationCount><depthPhaseCount>0</depthPhaseCount><standardError>0.3176507242241625</standardError><azimuthalGap>237.0923309326172</azimuthalGap><maximumDistance>2.641922950744629</maximumDistance><minimumDistance>0.7786939740180969</minimumDistance><medianDistance>1.4463436603546143</medianDistance></quality><uncertainty><minHorizontalUncertainty>7.298470497131348</minHorizontalUncertainty><maxHorizontalUncertainty>17.32273292541504</maxHorizontalUncertainty><azimuthMaxHorizontalUncertainty>92.0059585571289</azimuthMaxHorizontalUncertainty><preferredDescription>horizontal uncertainty</preferredDescription></uncertainty><evaluationMode>automatic</evaluationMode><evaluationStatus>confirmed</evaluationStatus><comment><text>0.00</text><id>mismatchScore</id></comment><comment><text>mismatchScore</text><id>scevalMethod</id></comment><arrival><pickID>de.gempa.tb1.Pick/20250414011654.546717.134763</pickID><phase>P</phase><azimuth>215.5926971435547</azimuth><distance>1.025373101234436</distance><timeResidual>-0.32334136962890625</timeResidual><timeUsed>true</timeUsed><horizontalSlownessUsed>false</horizontalSlownessUsed><backazimuthUsed>false</backazimuthUsed><weight>1</weight></arrival><arrival><pickID>de.gempa.tb1.Pick/20250414011654.645718.134765</pickID><phase>P</phase><azimuth>292.5729675292969</azimuth><distance>0.9332996606826782</distance><timeResidual>0.05597496032714844</timeResidual><timeUsed>true</timeUsed><horizontalSlownessUsed>false</horizontalSlownessUsed><backazimuthUsed>false</backazimuthUsed><weight>1</weight></arrival><arrival><pickID>de.gempa.tb1.Pick/20250414011654.815419.134767</pickID><phase>P</phase><azimuth>259.5391845703125</azimuth><distance>0.7786939740180969</distance><timeResidual>0.006982803344726562</timeResidual><timeUsed>true</timeUsed><horizontalSlownessUsed>false</horizontalSlownessUsed><backazimuthUsed>false</backazimuthUsed><weight>1</weight></arrival><arrival><pickID>de.gempa.tb1.Pick/20250414011700.771936.134769</pickID><phase>P</phase><azimuth>314.3642272949219</azimuth><distance>1.4463436603546143</distance><timeResidual>-0.006715774536132812</timeResidual><timeUsed>true</timeUsed><horizontalSlownessUsed>false</horizontalSlownessUsed><backazimuthUsed>false</backazimuthUsed><weight>1</weight></arrival><arrival><pickID>de.gempa.tb1.Pick/20250414011703.504853.134771</pickID><phase>P</phase><azimuth>336.0918884277344</azimuth><distance>1.3836312294006348</distance><timeResidual>0.2055072784423828</timeResidual><timeUsed>true</timeUsed><horizontalSlownessUsed>false</horizontalSlownessUsed><backazimuthUsed>false</backazimuthUsed><weight>1</weight></arrival><arrival><pickID>de.gempa.tb1.Pick/20250414011708.56984.134773</pickID><phase>P</phase><azimuth>325.954833984375</azimuth><distance>2.0944573879241943</distance><timeResidual>-0.1368255615234375</timeResidual><timeUsed>true</timeUsed><horizontalSlownessUsed>false</horizontalSlownessUsed><backazimuthUsed>false</backazimuthUsed><weight>1</weight></arrival><arrival><pickID>de.gempa.tb1.Pick/20250414011709.371254.134775</pickID><phase>P</phase><azimuth>255.50904846191406</azimuth><distance>1.816033959388733</distance><timeResidual>0.763162612915039</timeResidual><timeUsed>true</timeUsed><horizontalSlownessUsed>false</horizontalSlownessUsed><backazimuthUsed>false</backazimuthUsed><weight>1</weight></arrival><arrival><pickID>de.gempa.tb1.Pick/20250414011710.555085.134777</pickID><phase>P</phase><azimuth>338.5003662109375</azimuth><distance>2.1638154983520508</distance><timeResidual>-0.610910415649414</timeResidual><timeUsed>true</timeUsed><horizontalSlownessUsed>false</horizontalSlownessUsed><backazimuthUsed>false</backazimuthUsed><weight>1</weight></arrival><arrival><pickID>de.gempa.tb1.Pick/20250414011711.922571.134779</pickID><phase>S</phase><azimuth>259.5391845703125</azimuth><distance>0.7786939740180969</distance><timeResidual>0.2589550018310547</timeResidual><timeUsed>true</timeUsed><horizontalSlownessUsed>false</horizontalSlownessUsed><backazimuthUsed>false</backazimuthUsed><weight>1</weight></arrival><arrival><pickID>de.gempa.tb1.Pick/20250414011714.66108.134780</pickID><phase>S</phase><azimuth>292.5729675292969</azimuth><distance>0.9332996606826782</distance><timeResidual>0.10936164855957031</timeResidual><timeUsed>true</timeUsed><horizontalSlownessUsed>false</horizontalSlownessUsed><backazimuthUsed>false</backazimuthUsed><weight>1</weight></arrival><arrival><pickID>de.gempa.tb1.Pick/20250414011714.798415.134781</pickID><phase>S</phase><azimuth>215.5926971435547</azimuth><distance>1.025373101234436</distance><timeResidual>-0.09254646301269531</timeResidual><timeUsed>true</timeUsed><horizontalSlownessUsed>false</horizontalSlownessUsed><backazimuthUsed>false</backazimuthUsed><weight>1</weight></arrival><arrival><pickID>de.gempa.tb1.Pick/20250414011718.472326.134782</pickID><phase>P</phase><azimuth>327.5664367675781</azimuth><distance>2.641922950744629</distance><timeResidual>0.3361377716064453</timeResidual><timeUsed>true</timeUsed><horizontalSlownessUsed>false</horizontalSlownessUsed><backazimuthUsed>false</backazimuthUsed><weight>1</weight></arrival><arrival><pickID>de.gempa.tb1.Pick/20250414011722.771836.134786</pickID><phase>S</phase><azimuth>314.3642272949219</azimuth><distance>1.4463436603546143</distance><timeResidual>-0.01998138427734375</timeResidual><timeUsed>true</timeUsed><horizontalSlownessUsed>false</horizontalSlownessUsed><backazimuthUsed>false</backazimuthUsed><weight>1</weight></arrival><arrival><pickID>de.gempa.tb1.Pick/20250414011725.709615.134789</pickID><phase>P</phase><azimuth>318.9156494140625</azimuth><distance>1.765297770500183</distance><timeResidual>0.07630729675292969</timeResidual><timeUsed>true</timeUsed><horizontalSlownessUsed>false</horizontalSlownessUsed><backazimuthUsed>false</backazimuthUsed><weight>1</weight></arrival><arrival><pickID>de.gempa.tb1.Pick/20250414011731.358221.134792</pickID><phase>S</phase><azimuth>255.50904846191406</azimuth><distance>1.816033959388733</distance><timeResidual>-0.5230350494384766</timeResidual><timeUsed>true</timeUsed><horizontalSlownessUsed>false</horizontalSlownessUsed><backazimuthUsed>false</backazimuthUsed><weight>1</weight></arrival><arrival><pickID>de.gempa.tb1.Pick/20250414011738.552666.134793</pickID><phase>S</phase><azimuth>338.5003662109375</azimuth><distance>2.1638154983520508</distance><timeResidual>-0.09855461120605469</timeResidual><timeUsed>true</timeUsed><horizontalSlownessUsed>false</horizontalSlownessUsed><backazimuthUsed>false</backazimuthUsed><weight>1</weight></arrival><magnitude publicID="de.gempa.tb1.Magnitude/20250414011738.566804.415917"><magnitude><value>2.884603225013315</value></magnitude><type>M</type><methodID>weighted average</methodID><stationCount>6</stationCount></magnitude></origin><event publicID="gempa2025hiiu"><preferredOriginID>de.gempa.tb1.Origin/20250414011738.556024.123184</preferredOriginID><preferredMagnitudeID>de.gempa.tb1.Magnitude/20250414011738.566804.415917</preferredMagnitudeID><description><text>Northern Chile</text><type>region name</type></description><originReference>de.gempa.tb1.Origin/20250414011738.556024.123184</originReference></event></EventParameters></seiscomp>