<?xml version="1.0" encoding="UTF-8"?>
<seiscomp xmlns="http://geofon.gfz-potsdam.de/ns/seiscomp3-schema/0.13" version="0.13"><EventParameters><pick publicID="de.gempa.tb1.Pick/20250411153709.881341.118542"><time><value>2025-04-11T15:37:02.638394Z</value></time><waveformID networkCode="CX" stationCode="PB15" channelCode="HHZ"/><filterID>ITAPER(4)&gt;&gt;BW(4,4,20)</filterID><methodID>AIC</methodID><horizontalSlowness><value>22.440086455219063</value></horizontalSlowness><backazimuth><value>116.6662444530563</value></backazimuth><phaseHint>P</phaseHint><evaluationMode>automatic</evaluationMode><comment><text>275.6523046892568</text><id>DFX:rectilinearity</id></comment><comment><text>8.075310966863983</text><id>SNR</id></comment></pick><pick publicID="de.gempa.tb1.Pick/20250411153710.713421.118544"><time><value>2025-04-11T15:37:04.328393Z</value></time><waveformID networkCode="CX" stationCode="PB06" channelCode="HHZ"/><filterID>ITAPER(4)&gt;&gt;BW(4,4,20)</filterID><methodID>AIC</methodID><horizontalSlowness><value>12.249615356370247</value></horizontalSlowness><backazimuth><value>141.08566336743405</value></backazimuth><phaseHint>P</phaseHint><evaluationMode>automatic</evaluationMode><comment><text>38.87146137153872</text><id>DFX:rectilinearity</id></comment><comment><text>13.963273576053828</text><id>SNR</id></comment></pick><pick publicID="de.gempa.tb1.Pick/20250411153716.544597.118546"><time><value>2025-04-11T15:37:08.68Z</value></time><waveformID networkCode="CX" stationCode="PB19" channelCode="HHZ"/><filterID>ITAPER(4)&gt;&gt;BW(4,4,20)</filterID><methodID>AIC</methodID><horizontalSlowness><value>22.920302494665275</value></horizontalSlowness><backazimuth><value>180.0510761011417</value></backazimuth><phaseHint>P</phaseHint><evaluationMode>automatic</evaluationMode><comment><text>19.036153597824416</text><id>DFX:rectilinearity</id></comment><comment><text>8.562323288220213</text><id>SNR</id></comment></pick><pick publicID="de.gempa.tb1.Pick/20250411153720.690836.118548"><time><value>2025-04-11T15:37:12.028393Z</value></time><waveformID networkCode="CX" stationCode="PB03" channelCode="HHZ"/><filterID>ITAPER(4)&gt;&gt;BW(4,4,20)</filterID><methodID>AIC</methodID><horizontalSlowness><value>10.006061112075207</value></horizontalSlowness><backazimuth><value>234.1861150982985</value></backazimuth><phaseHint>P</phaseHint><evaluationMode>automatic</evaluationMode><comment><text>5.926837827741987</text><id>DFX:rectilinearity</id></comment><comment><text>8.38999215739288</text><id>SNR</id></comment></pick><pick publicID="de.gempa.tb1.Pick/20250411153721.565976.118550"><time><value>2025-04-11T15:37:13.958393Z</value></time><waveformID networkCode="CX" stationCode="PB06" channelCode="HHN"/><filterID>ITAPER(2)&gt;&gt;BW(3,3,20)</filterID><methodID>L2-AIC-GRID</methodID><horizontalSlowness><value>7.506144046335075</value></horizontalSlowness><backazimuth><value>230.7114361244715</value></backazimuth><phaseHint>S</phaseHint><evaluationMode>automatic</evaluationMode><comment><text>89.69625048433758</text><id>DFX:rectilinearity</id></comment><comment><text>de.gempa.tb1.Pick/20250411153710.713421.118544</text><id>RefPickID</id></comment><comment><text>12.639228507560935</text><id>SNR</id></comment></pick><pick publicID="de.gempa.tb1.Pick/20250411153724.627208.118551"><time><value>2025-04-11T15:37:10.868394Z</value></time><waveformID networkCode="CX" stationCode="PB15" channelCode="HHN"/><filterID>ITAPER(2)&gt;&gt;BW(3,3,20)</filterID><methodID>L2-AIC-GRID</methodID><horizontalSlowness><value>20.969973843160268</value></horizontalSlowness><backazimuth><value>99.54287980377818</value></backazimuth><phaseHint>S</phaseHint><evaluationMode>automatic</evaluationMode><comment><text>963.4137074388436</text><id>DFX:rectilinearity</id></comment><comment><text>de.gempa.tb1.Pick/20250411153709.881341.118542</text><id>RefPickID</id></comment><comment><text>11.92680935866452</text><id>SNR</id></comment></pick><pick publicID="de.gempa.tb1.Pick/20250411153728.67985.118552"><time><value>2025-04-11T15:37:21.75Z</value></time><waveformID networkCode="CX" stationCode="PB19" channelCode="HHN"/><filterID>ITAPER(2)&gt;&gt;BW(3,3,20)</filterID><methodID>L2-AIC-GRID</methodID><horizontalSlowness><value>21.05538017626263</value></horizontalSlowness><backazimuth><value>173.93855455319272</value></backazimuth><phaseHint>S</phaseHint><evaluationMode>automatic</evaluationMode><comment><text>71.74460068527404</text><id>DFX:rectilinearity</id></comment><comment><text>de.gempa.tb1.Pick/20250411153716.544597.118546</text><id>RefPickID</id></comment><comment><text>7.441383973164296</text><id>SNR</id></comment></pick><pick publicID="de.gempa.tb1.Pick/20250411153736.611731.118556"><time><value>2025-04-11T15:37:27.658393Z</value></time><waveformID networkCode="CX" stationCode="PB03" channelCode="HHN"/><filterID>ITAPER(2)&gt;&gt;BW(3,3,20)</filterID><methodID>L2-AIC-GRID</methodID><horizontalSlowness><value>14.15350560272045</value></horizontalSlowness><backazimuth><value>308.0614613999332</value></backazimuth><phaseHint>S</phaseHint><evaluationMode>automatic</evaluationMode><comment><text>16.798567880068642</text><id>DFX:rectilinearity</id></comment><comment><text>de.gempa.tb1.Pick/20250411153720.690836.118548</text><id>RefPickID</id></comment><comment><text>10.60454573963743</text><id>SNR</id></comment></pick><pick publicID="de.gempa.tb1.Pick/20250411153738.798929.118557"><time><value>2025-04-11T15:37:16.63Z</value></time><waveformID networkCode="CX" stationCode="PB09" channelCode="HHZ"/><filterID>ITAPER(4)&gt;&gt;BW(4,4,20)</filterID><methodID>AIC</methodID><horizontalSlowness><value>16.19054547326935</value></horizontalSlowness><backazimuth><value>271.1143767007036</value></backazimuth><phaseHint>P</phaseHint><evaluationMode>automatic</evaluationMode><comment><text>14.7041174615396</text><id>DFX:rectilinearity</id></comment><comment><text>11.373938799425884</text><id>SNR</id></comment></pick><pick publicID="de.gempa.tb1.Pick/20250411153747.942055.118559"><time><value>2025-04-11T15:37:16.918393Z</value></time><waveformID networkCode="CX" stationCode="PB07" channelCode="HHZ"/><filterID>ITAPER(4)&gt;&gt;BW(4,4,20)</filterID><methodID>AIC</methodID><horizontalSlowness><value>21.95084349317942</value></horizontalSlowness><backazimuth><value>126.44558169337634</value></backazimuth><phaseHint>P</phaseHint><evaluationMode>automatic</evaluationMode><comment><text>165.09961077692597</text><id>DFX:rectilinearity</id></comment><comment><text>9.232465142921637</text><id>SNR</id></comment></pick><pick publicID="de.gempa.tb1.Pick/20250411153800.691147.118567"><time><value>2025-04-11T15:37:36.318393Z</value></time><waveformID networkCode="CX" stationCode="PB07" channelCode="HHN"/><filterID>ITAPER(2)&gt;&gt;BW(3,3,20)</filterID><methodID>L2-AIC-GRID</methodID><horizontalSlowness><value>23.248734299981717</value></horizontalSlowness><backazimuth><value>124.81762972537587</value></backazimuth><phaseHint>S</phaseHint><evaluationMode>automatic</evaluationMode><comment><text>222.13844008600194</text><id>DFX:rectilinearity</id></comment><comment><text>de.gempa.tb1.Pick/20250411153747.942055.118559</text><id>RefPickID</id></comment><comment><text>5.09341420471969</text><id>SNR</id></comment></pick><origin publicID="de.gempa.tb1.Origin/20250411153800.801265.59687"><time><value>2025-04-11T15:36:52.78526Z</value><uncertainty>0.7441050410270691</uncertainty></time><latitude><value>-23.160818099975586</value><uncertainty>5.852401256561279</uncertainty></latitude><longitude><value>-69.68148040771484</value><uncertainty>23.520313262939453</uncertainty></longitude><depth><value>66.23457336425781</value><uncertainty>8.80911922454834</uncertainty></depth><depthType>from location</depthType><methodID>LOCSAT</methodID><earthModelID>iasp91_scanloc</earthModelID><quality><associatedPhaseCount>11</associatedPhaseCount><usedPhaseCount>11</usedPhaseCount><associatedStationCount>6</associatedStationCount><usedStationCount>6</usedStationCount><depthPhaseCount>0</depthPhaseCount><standardError>0.42101928223842006</standardError><azimuthalGap>198.1702423095703</azimuthalGap><maximumDistance>1.4398319721221924</maximumDistance><minimumDistance>0.19944851100444794</minimumDistance><medianDistance>0.8228561282157898</medianDistance></quality><uncertainty><minHorizontalUncertainty>5.500207424163818</minHorizontalUncertainty><maxHorizontalUncertainty>51.67925643920898</maxHorizontalUncertainty><azimuthMaxHorizontalUncertainty>77.320068359375</azimuthMaxHorizontalUncertainty><preferredDescription>horizontal uncertainty</preferredDescription></uncertainty><evaluationMode>automatic</evaluationMode><evaluationStatus>confirmed</evaluationStatus><comment><text>0.08</text><id>mismatchScore</id></comment><comment><text>mismatchScore</text><id>scevalMethod</id></comment><arrival><pickID>de.gempa.tb1.Pick/20250411153709.881341.118542</pickID><phase>P</phase><azimuth>103.75907897949219</azimuth><distance>0.19944851100444794</distance><timeResidual>-0.3146495819091797</timeResidual><timeUsed>true</timeUsed><horizontalSlownessUsed>false</horizontalSlownessUsed><backazimuthUsed>false</backazimuthUsed><weight>1</weight></arrival><arrival><pickID>de.gempa.tb1.Pick/20250411153710.713421.118544</pickID><phase>P</phase><azimuth>12.598381996154785</azimuth><distance>0.4640252292156219</distance><timeResidual>-0.6138782501220703</timeResidual><timeUsed>true</timeUsed><horizontalSlownessUsed>false</horizontalSlownessUsed><backazimuthUsed>false</backazimuthUsed><weight>1</weight></arrival><arrival><pickID>de.gempa.tb1.Pick/20250411153716.544597.118546</pickID><phase>P</phase><azimuth>154.23289489746094</azimuth><distance>0.8228561282157898</distance><timeResidual>-0.22024822235107422</timeResidual><timeUsed>true</timeUsed><horizontalSlownessUsed>false</horizontalSlownessUsed><backazimuthUsed>false</backazimuthUsed><weight>1</weight></arrival><arrival><pickID>de.gempa.tb1.Pick/20250411153720.690836.118548</pickID><phase>P</phase><azimuth>356.56524658203125</azimuth><distance>1.1090611219406128</distance><timeResidual>-0.474517822265625</timeResidual><timeUsed>true</timeUsed><horizontalSlownessUsed>false</horizontalSlownessUsed><backazimuthUsed>false</backazimuthUsed><weight>1</weight></arrival><arrival><pickID>de.gempa.tb1.Pick/20250411153721.565976.118550</pickID><phase>S</phase><azimuth>12.598381996154785</azimuth><distance>0.4640252292156219</distance><timeResidual>-0.20763301849365234</timeResidual><timeUsed>true</timeUsed><horizontalSlownessUsed>false</horizontalSlownessUsed><backazimuthUsed>false</backazimuthUsed><weight>1</weight></arrival><arrival><pickID>de.gempa.tb1.Pick/20250411153724.627208.118551</pickID><phase>S</phase><azimuth>103.75907897949219</azimuth><distance>0.19944851100444794</distance><timeResidual>0.221527099609375</timeResidual><timeUsed>true</timeUsed><horizontalSlownessUsed>false</horizontalSlownessUsed><backazimuthUsed>false</backazimuthUsed><weight>1</weight></arrival><arrival><pickID>de.gempa.tb1.Pick/20250411153728.67985.118552</pickID><phase>S</phase><azimuth>154.23289489746094</azimuth><distance>0.8228561282157898</distance><timeResidual>0.5407524108886719</timeResidual><timeUsed>true</timeUsed><horizontalSlownessUsed>false</horizontalSlownessUsed><backazimuthUsed>false</backazimuthUsed><weight>1</weight></arrival><arrival><pickID>de.gempa.tb1.Pick/20250411153736.611731.118556</pickID><phase>S</phase><azimuth>356.56524658203125</azimuth><distance>1.1090611219406128</distance><timeResidual>0.010000228881835938</timeResidual><timeUsed>true</timeUsed><horizontalSlownessUsed>false</horizontalSlownessUsed><backazimuthUsed>false</backazimuthUsed><weight>1</weight></arrival><arrival><pickID>de.gempa.tb1.Pick/20250411153738.798929.118557</pickID><phase>P</phase><azimuth>16.751249313354492</azimuth><distance>1.4175045490264893</distance><timeResidual>0.08526611328125</timeResidual><timeUsed>true</timeUsed><horizontalSlownessUsed>false</horizontalSlownessUsed><backazimuthUsed>false</backazimuthUsed><weight>1</weight></arrival><arrival><pickID>de.gempa.tb1.Pick/20250411153747.942055.118559</pickID><phase>P</phase><azimuth>352.40313720703125</azimuth><distance>1.4398319721221924</distance><timeResidual>0.0772552490234375</timeResidual><timeUsed>true</timeUsed><horizontalSlownessUsed>false</horizontalSlownessUsed><backazimuthUsed>false</backazimuthUsed><weight>1</weight></arrival><arrival><pickID>de.gempa.tb1.Pick/20250411153800.691147.118567</pickID><phase>S</phase><azimuth>352.40313720703125</azimuth><distance>1.4398319721221924</distance><timeResidual>0.8957481384277344</timeResidual><timeUsed>true</timeUsed><horizontalSlownessUsed>false</horizontalSlownessUsed><backazimuthUsed>false</backazimuthUsed><weight>1</weight></arrival><magnitude publicID="de.gempa.tb1.Magnitude/20250411153800.806445.115289"><magnitude><value>2.3414738169433904</value></magnitude><type>M</type><methodID>weighted average</methodID><stationCount>6</stationCount></magnitude></origin><event publicID="gempa2025hdxl"><preferredOriginID>de.gempa.tb1.Origin/20250411153800.801265.59687</preferredOriginID><preferredMagnitudeID>de.gempa.tb1.Magnitude/20250411153800.806445.115289</preferredMagnitudeID><description><text>Northern Chile</text><type>region name</type></description><originReference>de.gempa.tb1.Origin/20250411153800.801265.59687</originReference></event></EventParameters></seiscomp>