<?xml version="1.0" encoding="UTF-8"?>
<seiscomp xmlns="http://geofon.gfz-potsdam.de/ns/seiscomp3-schema/0.13" version="0.13"><EventParameters><pick publicID="de.gempa.tb1.Pick/20250413071103.658228.129691"><time><value>2025-04-13T07:10:59.158393Z</value></time><waveformID networkCode="CX" stationCode="PB01" channelCode="HHZ"/><filterID>ITAPER(4)&gt;&gt;BW(4,4,20)</filterID><methodID>AIC</methodID><horizontalSlowness><value>16.609641556701963</value></horizontalSlowness><backazimuth><value>314.61943042370814</value></backazimuth><phaseHint>P</phaseHint><evaluationMode>automatic</evaluationMode><comment><text>17.505151986800104</text><id>DFX:rectilinearity</id></comment><comment><text>88.95179490838514</text><id>SNR</id></comment></pick><pick publicID="de.gempa.tb1.Pick/20250413071104.604746.129693"><time><value>2025-04-13T07:10:59.388393Z</value></time><waveformID networkCode="CX" stationCode="PB03" channelCode="HHZ"/><filterID>ITAPER(4)&gt;&gt;BW(4,4,20)</filterID><methodID>AIC</methodID><horizontalSlowness><value>6.0830740514099</value></horizontalSlowness><backazimuth><value>105.86454713460014</value></backazimuth><phaseHint>P</phaseHint><evaluationMode>automatic</evaluationMode><comment><text>18.703686701058942</text><id>DFX:rectilinearity</id></comment><comment><text>72.55063142621782</text><id>SNR</id></comment></pick><pick publicID="de.gempa.tb1.Pick/20250413071106.470539.129695"><time><value>2025-04-13T07:11:02.038393Z</value></time><waveformID networkCode="CX" stationCode="PB06" channelCode="HHZ"/><filterID>ITAPER(4)&gt;&gt;BW(4,4,20)</filterID><methodID>AIC</methodID><horizontalSlowness><value>22.089595473809197</value></horizontalSlowness><backazimuth><value>132.1700628441639</value></backazimuth><phaseHint>P</phaseHint><evaluationMode>automatic</evaluationMode><comment><text>72.00946689982656</text><id>DFX:rectilinearity</id></comment><comment><text>25.57512562586243</text><id>SNR</id></comment></pick><pick publicID="de.gempa.tb1.Pick/20250413071106.561571.129697"><time><value>2025-04-13T07:11:01.318393Z</value></time><waveformID networkCode="CX" stationCode="PB02" channelCode="HHZ"/><filterID>ITAPER(4)&gt;&gt;BW(4,4,20)</filterID><methodID>AIC</methodID><horizontalSlowness><value>10.585584517136121</value></horizontalSlowness><backazimuth><value>39.649618099515124</value></backazimuth><phaseHint>P</phaseHint><evaluationMode>automatic</evaluationMode><comment><text>65.72428871540897</text><id>DFX:rectilinearity</id></comment><comment><text>55.57435047573698</text><id>SNR</id></comment></pick><pick publicID="de.gempa.tb1.Pick/20250413071107.181858.129699"><time><value>2025-04-13T07:10:54.81Z</value></time><waveformID networkCode="CX" stationCode="PB09" channelCode="HHZ"/><filterID>ITAPER(4)&gt;&gt;BW(4,4,20)</filterID><methodID>AIC</methodID><horizontalSlowness><value>14.595163480253644</value></horizontalSlowness><backazimuth><value>321.1777353409875</value></backazimuth><phaseHint>P</phaseHint><evaluationMode>automatic</evaluationMode><comment><text>12.137291776072322</text><id>DFX:rectilinearity</id></comment><comment><text>118.95049053182778</text><id>SNR</id></comment></pick><pick publicID="de.gempa.tb1.Pick/20250413071115.255711.129703"><time><value>2025-04-13T07:11:07.029999Z</value></time><waveformID networkCode="CX" stationCode="PATCX" channelCode="HHZ"/><filterID>ITAPER(4)&gt;&gt;BW(4,4,20)</filterID><methodID>AIC</methodID><horizontalSlowness><value>22.368776295664446</value></horizontalSlowness><backazimuth><value>66.70951334052225</value></backazimuth><phaseHint>P</phaseHint><evaluationMode>automatic</evaluationMode><comment><text>203.51700810420328</text><id>DFX:rectilinearity</id></comment><comment><text>19.56512766458588</text><id>SNR</id></comment></pick><pick publicID="de.gempa.tb1.Pick/20250413071117.365914.129705"><time><value>2025-04-13T07:11:00.118393Z</value></time><waveformID networkCode="CX" stationCode="PB07" channelCode="HHZ"/><filterID>ITAPER(4)&gt;&gt;BW(4,4,20)</filterID><methodID>AIC</methodID><horizontalSlowness><value>23.41865712040781</value></horizontalSlowness><backazimuth><value>237.7040953010981</value></backazimuth><phaseHint>P</phaseHint><evaluationMode>automatic</evaluationMode><comment><text>476.6614794857656</text><id>DFX:rectilinearity</id></comment><comment><text>153.71778076925582</text><id>SNR</id></comment></pick><pick publicID="de.gempa.tb1.Pick/20250413071122.778423.129707"><time><value>2025-04-13T07:11:15.538393Z</value></time><waveformID networkCode="CX" stationCode="PB03" channelCode="HHN"/><filterID>ITAPER(2)&gt;&gt;BW(3,3,20)</filterID><methodID>L2-AIC-GRID</methodID><horizontalSlowness><value>0.3294993534741068</value></horizontalSlowness><backazimuth><value>319.4109408997365</value></backazimuth><phaseHint>S</phaseHint><evaluationMode>automatic</evaluationMode><comment><text>236.1661704354776</text><id>DFX:rectilinearity</id></comment><comment><text>de.gempa.tb1.Pick/20250413071104.604746.129693</text><id>RefPickID</id></comment><comment><text>21.895855610256014</text><id>SNR</id></comment></pick><pick publicID="de.gempa.tb1.Pick/20250413071126.569229.129709"><time><value>2025-04-13T07:11:17.14Z</value></time><waveformID networkCode="CX" stationCode="PSGCX" channelCode="HHZ"/><filterID>ITAPER(4)&gt;&gt;BW(4,4,20)</filterID><methodID>AIC</methodID><horizontalSlowness><value>13.83187115890881</value></horizontalSlowness><backazimuth><value>120.7255747234882</value></backazimuth><phaseHint>P</phaseHint><evaluationMode>automatic</evaluationMode><comment><text>41.17143796324042</text><id>DFX:rectilinearity</id></comment><comment><text>26.38992384826819</text><id>SNR</id></comment></pick><pick publicID="de.gempa.tb1.Pick/20250413071128.648042.129711"><time><value>2025-04-13T07:11:20.488393Z</value></time><waveformID networkCode="CX" stationCode="PB06" channelCode="HHN"/><filterID>ITAPER(2)&gt;&gt;BW(3,3,20)</filterID><methodID>L2-AIC-GRID</methodID><horizontalSlowness><value>18.752930659250307</value></horizontalSlowness><backazimuth><value>303.69682671647814</value></backazimuth><phaseHint>S</phaseHint><evaluationMode>automatic</evaluationMode><comment><text>187.09843366230808</text><id>DFX:rectilinearity</id></comment><comment><text>de.gempa.tb1.Pick/20250413071106.470539.129695</text><id>RefPickID</id></comment><comment><text>7.305277039713038</text><id>SNR</id></comment></pick><pick publicID="de.gempa.tb1.Pick/20250413071200.131785.129715"><time><value>2025-04-13T07:11:17.948393Z</value></time><waveformID networkCode="CX" stationCode="PB07" channelCode="HHN"/><filterID>ITAPER(2)&gt;&gt;BW(3,3,20)</filterID><methodID>L2-AIC-GRID</methodID><horizontalSlowness><value>21.97831358673935</value></horizontalSlowness><backazimuth><value>71.78859443473591</value></backazimuth><phaseHint>S</phaseHint><evaluationMode>automatic</evaluationMode><comment><text>4820.775586905123</text><id>DFX:rectilinearity</id></comment><comment><text>de.gempa.tb1.Pick/20250413071117.365914.129705</text><id>RefPickID</id></comment><comment><text>5.939519993364415</text><id>SNR</id></comment></pick><pick publicID="de.gempa.tb1.Pick/20250413071204.644407.129716"><time><value>2025-04-13T07:11:49.94Z</value></time><waveformID networkCode="CX" stationCode="PSGCX" channelCode="HHN"/><filterID>ITAPER(2)&gt;&gt;BW(3,3,20)</filterID><methodID>L2-AIC-GRID</methodID><horizontalSlowness><value>22.932191417500835</value></horizontalSlowness><backazimuth><value>355.58586414110266</value></backazimuth><phaseHint>S</phaseHint><evaluationMode>automatic</evaluationMode><comment><text>68.59380595391789</text><id>DFX:rectilinearity</id></comment><comment><text>de.gempa.tb1.Pick/20250413071126.569229.129709</text><id>RefPickID</id></comment><comment><text>5.421662895879315</text><id>SNR</id></comment></pick><origin publicID="de.gempa.tb1.Origin/20250413071204.648139.103926"><time><value>2025-04-13T07:10:37.749783Z</value><uncertainty>1.0567106008529663</uncertainty></time><latitude><value>-21.764976501464844</value><uncertainty>5.098801136016846</uncertainty></latitude><longitude><value>-68.64105224609375</value><uncertainty>12.923298835754395</uncertainty></longitude><depth><value>106.08506774902344</value><uncertainty>18.423175811767578</uncertainty></depth><depthType>from location</depthType><methodID>LOCSAT</methodID><earthModelID>iasp91_scanloc</earthModelID><quality><associatedPhaseCount>12</associatedPhaseCount><usedPhaseCount>12</usedPhaseCount><associatedStationCount>8</associatedStationCount><usedStationCount>8</usedStationCount><depthPhaseCount>0</depthPhaseCount><standardError>0.39824715364750335</standardError><azimuthalGap>255.49244689941406</azimuthalGap><maximumDistance>2.564643621444702</maximumDistance><minimumDistance>0.5593593716621399</minimumDistance><medianDistance>1.249541997909546</medianDistance></quality><uncertainty><minHorizontalUncertainty>9.579252243041992</minHorizontalUncertainty><maxHorizontalUncertainty>28.20570373535156</maxHorizontalUncertainty><azimuthMaxHorizontalUncertainty>78.54521942138672</azimuthMaxHorizontalUncertainty><preferredDescription>horizontal uncertainty</preferredDescription></uncertainty><evaluationMode>automatic</evaluationMode><evaluationStatus>confirmed</evaluationStatus><comment><text>0.11</text><id>mismatchScore</id></comment><comment><text>mismatchScore</text><id>scevalMethod</id></comment><arrival><pickID>de.gempa.tb1.Pick/20250413071103.658228.129691</pickID><phase>P</phase><azimuth>312.16778564453125</azimuth><distance>1.0666722059249878</distance><timeResidual>-0.21162033081054688</timeResidual><timeUsed>true</timeUsed><horizontalSlownessUsed>false</horizontalSlownessUsed><backazimuthUsed>false</backazimuthUsed><weight>1</weight></arrival><arrival><pickID>de.gempa.tb1.Pick/20250413071104.604746.129693</pickID><phase>P</phase><azimuth>254.5147247314453</azimuth><distance>1.0705450773239136</distance><timeResidual>-0.018384933471679688</timeResidual><timeUsed>true</timeUsed><horizontalSlownessUsed>false</horizontalSlownessUsed><backazimuthUsed>false</backazimuthUsed><weight>1</weight></arrival><arrival><pickID>de.gempa.tb1.Pick/20250413071106.470539.129695</pickID><phase>P</phase><azimuth>222.4737091064453</azimuth><distance>1.272965431213379</distance><timeResidual>0.3701801300048828</timeResidual><timeUsed>true</timeUsed><horizontalSlownessUsed>false</horizontalSlownessUsed><backazimuthUsed>false</backazimuthUsed><weight>1</weight></arrival><arrival><pickID>de.gempa.tb1.Pick/20250413071106.561571.129697</pickID><phase>P</phase><azimuth>290.5376892089844</azimuth><distance>1.249541997909546</distance><timeResidual>-0.08789634704589844</timeResidual><timeUsed>true</timeUsed><horizontalSlownessUsed>false</horizontalSlownessUsed><backazimuthUsed>false</backazimuthUsed><weight>1</weight></arrival><arrival><pickID>de.gempa.tb1.Pick/20250413071107.181858.129699</pickID><phase>P</phase><azimuth>266.68658447265625</azimuth><distance>0.5593593716621399</distance><timeResidual>0.1942615509033203</timeResidual><timeUsed>true</timeUsed><horizontalSlownessUsed>false</horizontalSlownessUsed><backazimuthUsed>false</backazimuthUsed><weight>1</weight></arrival><arrival><pickID>de.gempa.tb1.Pick/20250413071115.255711.129703</pickID><phase>P</phase><azimuth>303.4065856933594</azimuth><distance>1.6942503452301025</distance><timeResidual>0.29259681701660156</timeResidual><timeUsed>true</timeUsed><horizontalSlownessUsed>false</horizontalSlownessUsed><backazimuthUsed>false</backazimuthUsed><weight>1</weight></arrival><arrival><pickID>de.gempa.tb1.Pick/20250413071117.365914.129705</pickID><phase>P</phase><azimuth>271.65673828125</azimuth><distance>1.1582025289535522</distance><timeResidual>-0.25337791442871094</timeResidual><timeUsed>true</timeUsed><horizontalSlownessUsed>false</horizontalSlownessUsed><backazimuthUsed>false</backazimuthUsed><weight>1</weight></arrival><arrival><pickID>de.gempa.tb1.Pick/20250413071122.778423.129707</pickID><phase>S</phase><azimuth>254.5147247314453</azimuth><distance>1.0705450773239136</distance><timeResidual>-0.5951671600341797</timeResidual><timeUsed>true</timeUsed><horizontalSlownessUsed>false</horizontalSlownessUsed><backazimuthUsed>false</backazimuthUsed><weight>1</weight></arrival><arrival><pickID>de.gempa.tb1.Pick/20250413071126.569229.129709</pickID><phase>P</phase><azimuth>326.98126220703125</azimuth><distance>2.564643621444702</distance><timeResidual>-0.7770538330078125</timeResidual><timeUsed>true</timeUsed><horizontalSlownessUsed>false</horizontalSlownessUsed><backazimuthUsed>false</backazimuthUsed><weight>1</weight></arrival><arrival><pickID>de.gempa.tb1.Pick/20250413071128.648042.129711</pickID><phase>S</phase><azimuth>222.4737091064453</azimuth><distance>1.272965431213379</distance><timeResidual>0.3155860900878906</timeResidual><timeUsed>true</timeUsed><horizontalSlownessUsed>false</horizontalSlownessUsed><backazimuthUsed>false</backazimuthUsed><weight>1</weight></arrival><arrival><pickID>de.gempa.tb1.Pick/20250413071200.131785.129715</pickID><phase>S</phase><azimuth>271.65673828125</azimuth><distance>1.1582025289535522</distance><timeResidual>0.09258842468261719</timeResidual><timeUsed>true</timeUsed><horizontalSlownessUsed>false</horizontalSlownessUsed><backazimuthUsed>false</backazimuthUsed><weight>1</weight></arrival><arrival><pickID>de.gempa.tb1.Pick/20250413071204.644407.129716</pickID><phase>S</phase><azimuth>326.98126220703125</azimuth><distance>2.564643621444702</distance><timeResidual>0.6779193878173828</timeResidual><timeUsed>true</timeUsed><horizontalSlownessUsed>false</horizontalSlownessUsed><backazimuthUsed>false</backazimuthUsed><weight>1</weight></arrival><magnitude publicID="de.gempa.tb1.Magnitude/20250413071205.947537.326943"><magnitude><value>2.6822259766329655</value></magnitude><type>M</type><methodID>weighted average</methodID><stationCount>5</stationCount></magnitude></origin><event publicID="gempa2025hgyp"><preferredOriginID>de.gempa.tb1.Origin/20250413071204.648139.103926</preferredOriginID><preferredMagnitudeID>de.gempa.tb1.Magnitude/20250413071205.947537.326943</preferredMagnitudeID><description><text>Chile-Bolivia Border Region</text><type>region name</type></description><originReference>de.gempa.tb1.Origin/20250413071204.648139.103926</originReference></event></EventParameters></seiscomp>