<?xml version="1.0" encoding="UTF-8"?>
<seiscomp xmlns="http://geofon.gfz-potsdam.de/ns/seiscomp3-schema/0.13" version="0.13"><EventParameters><pick publicID="de.gempa.tb1.Pick/20250415050909.515328.143637"><time><value>2025-04-15T05:09:04.788393Z</value></time><waveformID networkCode="CX" stationCode="PB02" channelCode="HHZ"/><filterID>ITAPER(4)&gt;&gt;BW(4,4,20)</filterID><methodID>AIC</methodID><horizontalSlowness><value>22.971957188953734</value></horizontalSlowness><backazimuth><value>208.42153772860303</value></backazimuth><phaseHint>P</phaseHint><evaluationMode>automatic</evaluationMode><comment><text>2746.09737286752</text><id>DFX:rectilinearity</id></comment><comment><text>174.5774296519183</text><id>SNR</id></comment></pick><pick publicID="de.gempa.tb1.Pick/20250415050914.523899.143639"><time><value>2025-04-15T05:09:09.388393Z</value></time><waveformID networkCode="CX" stationCode="PB01" channelCode="HHZ"/><filterID>ITAPER(4)&gt;&gt;BW(4,4,20)</filterID><methodID>AIC</methodID><horizontalSlowness><value>19.254358690473541</value></horizontalSlowness><backazimuth><value>26.356095074715427</value></backazimuth><phaseHint>P</phaseHint><evaluationMode>automatic</evaluationMode><comment><text>13.482304680822434</text><id>DFX:rectilinearity</id></comment><comment><text>11.87987861647015</text><id>SNR</id></comment></pick><pick publicID="de.gempa.tb1.Pick/20250415050915.642151.143641"><time><value>2025-04-15T05:09:08.158393Z</value></time><waveformID networkCode="CX" stationCode="PB02" channelCode="HHN"/><filterID>ITAPER(2)&gt;&gt;BW(3,3,20)</filterID><methodID>L2-AIC-GRID</methodID><horizontalSlowness><value>23.494756105148983</value></horizontalSlowness><backazimuth><value>209.82550711635386</value></backazimuth><phaseHint>S</phaseHint><evaluationMode>automatic</evaluationMode><comment><text>3012.0665457368395</text><id>DFX:rectilinearity</id></comment><comment><text>de.gempa.tb1.Pick/20250415050909.515328.143637</text><id>RefPickID</id></comment><comment><text>15.48999706535773</text><id>SNR</id></comment></pick><pick publicID="de.gempa.tb1.Pick/20250415050917.277762.143642"><time><value>2025-04-15T05:09:09.129999Z</value></time><waveformID networkCode="CX" stationCode="PATCX" channelCode="HHZ"/><filterID>ITAPER(4)&gt;&gt;BW(4,4,20)</filterID><methodID>AIC</methodID><horizontalSlowness><value>19.472742591167481</value></horizontalSlowness><backazimuth><value>268.47679619999775</value></backazimuth><phaseHint>P</phaseHint><evaluationMode>automatic</evaluationMode><comment><text>418.2366132575827</text><id>DFX:rectilinearity</id></comment><comment><text>15.76654598605472</text><id>SNR</id></comment></pick><pick publicID="de.gempa.tb1.Pick/20250415050921.576874.143644"><time><value>2025-04-15T05:09:14.418393Z</value></time><waveformID networkCode="CX" stationCode="PB03" channelCode="HHZ"/><filterID>ITAPER(4)&gt;&gt;BW(4,4,20)</filterID><methodID>AIC</methodID><horizontalSlowness><value>10.635102025140586</value></horizontalSlowness><backazimuth><value>220.47445514205555</value></backazimuth><phaseHint>P</phaseHint><evaluationMode>automatic</evaluationMode><comment><text>11.245200310314216</text><id>DFX:rectilinearity</id></comment><comment><text>13.93330713468141</text><id>SNR</id></comment></pick><origin publicID="de.gempa.tb1.Origin/20250415050923.626982.161484"><time><value>2025-04-15T05:08:59.163469Z</value><uncertainty>0.6366420984268188</uncertainty></time><latitude><value>-21.257793426513672</value><uncertainty>5.178871154785156</uncertainty></latitude><longitude><value>-69.95521545410156</value><uncertainty>7.947083950042725</uncertainty></longitude><depth><value>30.632755279541016</value><uncertainty>4.600351333618164</uncertainty></depth><depthType>from location</depthType><methodID>LOCSAT</methodID><earthModelID>iasp91_scanloc</earthModelID><quality><associatedPhaseCount>5</associatedPhaseCount><usedPhaseCount>5</usedPhaseCount><associatedStationCount>4</associatedStationCount><usedStationCount>4</usedStationCount><depthPhaseCount>0</depthPhaseCount><standardError>0.1678187581983757</standardError><azimuthalGap>170.36355590820312</azimuthalGap><maximumDistance>0.8089666366577148</maximumDistance><minimumDistance>0.08273613452911377</minimumDistance><medianDistance>0.4724791049957275</medianDistance></quality><uncertainty><minHorizontalUncertainty>10.625621795654297</minHorizontalUncertainty><maxHorizontalUncertainty>17.348316192626953</maxHorizontalUncertainty><azimuthMaxHorizontalUncertainty>76.3563461303711</azimuthMaxHorizontalUncertainty><preferredDescription>horizontal uncertainty</preferredDescription></uncertainty><evaluationMode>automatic</evaluationMode><evaluationStatus>confirmed</evaluationStatus><comment><text>0.11</text><id>mismatchScore</id></comment><comment><text>mismatchScore</text><id>scevalMethod</id></comment><arrival><pickID>de.gempa.tb1.Pick/20250415050909.515328.143637</pickID><phase>P</phase><azimuth>138.1621856689453</azimuth><distance>0.08273613452911377</distance><timeResidual>0.31609106063842773</timeResidual><timeUsed>true</timeUsed><horizontalSlownessUsed>false</horizontalSlownessUsed><backazimuthUsed>false</backazimuthUsed><weight>1</weight></arrival><arrival><pickID>de.gempa.tb1.Pick/20250415050914.523899.143639</pickID><phase>P</phase><azimuth>64.02973175048828</azimuth><distance>0.4860804378986359</distance><timeResidual>-0.01012277603149414</timeResidual><timeUsed>true</timeUsed><horizontalSlownessUsed>false</horizontalSlownessUsed><backazimuthUsed>false</backazimuthUsed><weight>1</weight></arrival><arrival><pickID>de.gempa.tb1.Pick/20250415050915.642151.143641</pickID><phase>S</phase><azimuth>138.1621856689453</azimuth><distance>0.08273613452911377</distance><timeResidual>-0.18173789978027344</timeResidual><timeUsed>true</timeUsed><horizontalSlownessUsed>false</horizontalSlownessUsed><backazimuthUsed>false</backazimuthUsed><weight>1</weight></arrival><arrival><pickID>de.gempa.tb1.Pick/20250415050917.277762.143642</pickID><phase>P</phase><azimuth>336.9604797363281</azimuth><distance>0.4724791049957275</distance><timeResidual>-0.05730819702148438</timeResidual><timeUsed>true</timeUsed><horizontalSlownessUsed>false</horizontalSlownessUsed><backazimuthUsed>false</backazimuthUsed><weight>1</weight></arrival><arrival><pickID>de.gempa.tb1.Pick/20250415050921.576874.143644</pickID><phase>P</phase><azimuth>166.596923828125</azimuth><distance>0.8089666366577148</distance><timeResidual>-0.06698322296142578</timeResidual><timeUsed>true</timeUsed><horizontalSlownessUsed>false</horizontalSlownessUsed><backazimuthUsed>false</backazimuthUsed><weight>1</weight></arrival><magnitude publicID="de.gempa.tb1.Magnitude/20250415050943.470799.573872"><magnitude><value>1.7451889278505148</value></magnitude><type>M</type><methodID>weighted average</methodID><stationCount>4</stationCount></magnitude></origin><event publicID="gempa2025hkmp"><preferredOriginID>de.gempa.tb1.Origin/20250415050923.626982.161484</preferredOriginID><preferredMagnitudeID>de.gempa.tb1.Magnitude/20250415050943.470799.573872</preferredMagnitudeID><description><text>Northern Chile</text><type>region name</type></description><originReference>de.gempa.tb1.Origin/20250415050923.626982.161484</originReference></event></EventParameters></seiscomp>