<?xml version="1.0" encoding="UTF-8"?>
<seiscomp xmlns="http://geofon.gfz-potsdam.de/ns/seiscomp3-schema/0.13" version="0.13"><EventParameters><pick publicID="de.gempa.tb1.Pick/20250411235300.641847.120809"><time><value>2025-04-11T23:52:55.09Z</value></time><waveformID networkCode="CX" stationCode="PB09" channelCode="HHZ"/><filterID>ITAPER(4)&gt;&gt;BW(4,4,20)</filterID><methodID>AIC</methodID><horizontalSlowness><value>15.33698651030856</value></horizontalSlowness><backazimuth><value>72.64493623720782</value></backazimuth><phaseHint>P</phaseHint><evaluationMode>automatic</evaluationMode><comment><text>126732.79587009648</text><id>DFX:rectilinearity</id></comment><comment><text>1630.919416573092</text><id>SNR</id></comment></pick><pick publicID="de.gempa.tb1.Pick/20250411235300.642273.120811"><time><value>2025-04-11T23:52:55.388393Z</value></time><waveformID networkCode="CX" stationCode="PB01" channelCode="HHZ"/><filterID>ITAPER(4)&gt;&gt;BW(4,4,20)</filterID><methodID>AIC</methodID><horizontalSlowness><value>6.627145346303779</value></horizontalSlowness><backazimuth><value>93.12547177630178</value></backazimuth><phaseHint>P</phaseHint><evaluationMode>automatic</evaluationMode><comment><text>720.0467209344815</text><id>DFX:rectilinearity</id></comment><comment><text>410.54084004445446</text><id>SNR</id></comment></pick><pick publicID="de.gempa.tb1.Pick/20250411235304.535044.120813"><time><value>2025-04-11T23:52:59.198393Z</value></time><waveformID networkCode="CX" stationCode="PB02" channelCode="HHZ"/><filterID>ITAPER(4)&gt;&gt;BW(4,4,20)</filterID><methodID>AIC</methodID><horizontalSlowness><value>4.864313881577727</value></horizontalSlowness><backazimuth><value>71.14274930527267</value></backazimuth><phaseHint>P</phaseHint><evaluationMode>automatic</evaluationMode><comment><text>7537.598736611151</text><id>DFX:rectilinearity</id></comment><comment><text>264.7526589705427</text><id>SNR</id></comment></pick><pick publicID="de.gempa.tb1.Pick/20250411235306.642594.120815"><time><value>2025-04-11T23:53:00.098393Z</value></time><waveformID networkCode="CX" stationCode="PB03" channelCode="HHZ"/><filterID>ITAPER(4)&gt;&gt;BW(4,4,20)</filterID><methodID>AIC</methodID><horizontalSlowness><value>8.08242886482736</value></horizontalSlowness><backazimuth><value>64.2729127316801</value></backazimuth><phaseHint>P</phaseHint><evaluationMode>automatic</evaluationMode><comment><text>11412.56198911605</text><id>DFX:rectilinearity</id></comment><comment><text>528.9689595835854</text><id>SNR</id></comment></pick><pick publicID="de.gempa.tb1.Pick/20250411235307.529313.120817"><time><value>2025-04-11T23:53:00.178393Z</value></time><waveformID networkCode="CX" stationCode="PB08" channelCode="HHZ"/><filterID>ITAPER(4)&gt;&gt;BW(4,4,20)</filterID><methodID>AIC</methodID><horizontalSlowness><value>15.401833596223252</value></horizontalSlowness><backazimuth><value>209.61706515344127</value></backazimuth><phaseHint>P</phaseHint><evaluationMode>automatic</evaluationMode><comment><text>4585.623117818217</text><id>DFX:rectilinearity</id></comment><comment><text>74.95785536664062</text><id>SNR</id></comment></pick><pick publicID="de.gempa.tb1.Pick/20250411235308.270976.120819"><time><value>2025-04-11T23:53:03.149998Z</value></time><waveformID networkCode="CX" stationCode="PATCX" channelCode="HHZ"/><filterID>ITAPER(4)&gt;&gt;BW(4,4,20)</filterID><methodID>AIC</methodID><horizontalSlowness><value>9.223211741318021</value></horizontalSlowness><backazimuth><value>158.14326524204188</value></backazimuth><phaseHint>P</phaseHint><evaluationMode>automatic</evaluationMode><comment><text>1501.439475987269</text><id>DFX:rectilinearity</id></comment><comment><text>71.47148553401594</text><id>SNR</id></comment></pick><pick publicID="de.gempa.tb1.Pick/20250411235310.571933.120821"><time><value>2025-04-11T23:53:04.068393Z</value></time><waveformID networkCode="CX" stationCode="PB06" channelCode="HHZ"/><filterID>ITAPER(4)&gt;&gt;BW(4,4,20)</filterID><methodID>AIC</methodID><horizontalSlowness><value>7.789882680691012</value></horizontalSlowness><backazimuth><value>62.11692002340902</value></backazimuth><phaseHint>P</phaseHint><evaluationMode>automatic</evaluationMode><comment><text>1876.9963338620028</text><id>DFX:rectilinearity</id></comment><comment><text>208.80842118815954</text><id>SNR</id></comment></pick><pick publicID="de.gempa.tb1.Pick/20250411235313.70924.120823"><time><value>2025-04-11T23:53:08.958393Z</value></time><waveformID networkCode="CX" stationCode="PB15" channelCode="HHZ"/><filterID>ITAPER(4)&gt;&gt;BW(4,4,20)</filterID><methodID>AIC</methodID><horizontalSlowness><value>22.2967190376914</value></horizontalSlowness><backazimuth><value>94.6265419280153</value></backazimuth><phaseHint>P</phaseHint><evaluationMode>automatic</evaluationMode><comment><text>33790.870778754084</text><id>DFX:rectilinearity</id></comment><comment><text>221.44267239043748</text><id>SNR</id></comment></pick><pick publicID="de.gempa.tb1.Pick/20250411235315.519926.120825"><time><value>2025-04-11T23:53:10.11Z</value></time><waveformID networkCode="CX" stationCode="PSGCX" channelCode="HHZ"/><filterID>ITAPER(4)&gt;&gt;BW(4,4,20)</filterID><methodID>AIC</methodID><horizontalSlowness><value>8.881957017994246</value></horizontalSlowness><backazimuth><value>131.89428233222174</value></backazimuth><phaseHint>P</phaseHint><evaluationMode>automatic</evaluationMode><comment><text>355.63818708186204</text><id>DFX:rectilinearity</id></comment><comment><text>162.82302776032662</text><id>SNR</id></comment></pick><pick publicID="de.gempa.tb1.Pick/20250411235319.653401.120827"><time><value>2025-04-11T23:53:12.768393Z</value></time><waveformID networkCode="CX" stationCode="PB01" channelCode="HHN"/><filterID>ITAPER(2)&gt;&gt;BW(3,3,20)</filterID><methodID>L2-AIC-GRID</methodID><horizontalSlowness><value>20.468703676861004</value></horizontalSlowness><backazimuth><value>342.78360570499444</value></backazimuth><phaseHint>S</phaseHint><evaluationMode>automatic</evaluationMode><comment><text>17973.209530989872</text><id>DFX:rectilinearity</id></comment><comment><text>de.gempa.tb1.Pick/20250411235300.642273.120811</text><id>RefPickID</id></comment><comment><text>7.74758654076629</text><id>SNR</id></comment></pick><pick publicID="de.gempa.tb1.Pick/20250411235320.543612.120828"><time><value>2025-04-11T23:53:16.51Z</value></time><waveformID networkCode="CX" stationCode="PB19" channelCode="HHZ"/><filterID>ITAPER(4)&gt;&gt;BW(4,4,20)</filterID><methodID>AIC</methodID><horizontalSlowness><value>8.058399298874878</value></horizontalSlowness><backazimuth><value>26.01014905703775</value></backazimuth><phaseHint>P</phaseHint><evaluationMode>automatic</evaluationMode><comment><text>406.91922368980107</text><id>DFX:rectilinearity</id></comment><comment><text>175.807514809078</text><id>SNR</id></comment></pick><pick publicID="de.gempa.tb1.Pick/20250411235326.004122.120830"><time><value>2025-04-11T23:52:59.788393Z</value></time><waveformID networkCode="CX" stationCode="PB07" channelCode="HHZ"/><filterID>ITAPER(4)&gt;&gt;BW(4,4,20)</filterID><methodID>AIC</methodID><horizontalSlowness><value>14.229555753062128</value></horizontalSlowness><backazimuth><value>93.03157191967827</value></backazimuth><phaseHint>P</phaseHint><evaluationMode>automatic</evaluationMode><comment><text>26474.475766439624</text><id>DFX:rectilinearity</id></comment><comment><text>730.4265331093034</text><id>SNR</id></comment></pick><pick publicID="de.gempa.tb1.Pick/20250411235327.262618.120833"><time><value>2025-04-11T23:53:19.378393Z</value></time><waveformID networkCode="CX" stationCode="PB02" channelCode="HHN"/><filterID>ITAPER(2)&gt;&gt;BW(3,3,20)</filterID><methodID>L2-AIC-GRID</methodID><horizontalSlowness><value>15.925857105925223</value></horizontalSlowness><backazimuth><value>345.46729506879024</value></backazimuth><phaseHint>S</phaseHint><evaluationMode>automatic</evaluationMode><comment><text>212413.15208002378</text><id>DFX:rectilinearity</id></comment><comment><text>de.gempa.tb1.Pick/20250411235304.535044.120813</text><id>RefPickID</id></comment><comment><text>6.46964336704422</text><id>SNR</id></comment></pick><pick publicID="de.gempa.tb1.Pick/20250411235327.746557.120834"><time><value>2025-04-11T23:53:20.368393Z</value></time><waveformID networkCode="CX" stationCode="PB03" channelCode="HHN"/><filterID>ITAPER(2)&gt;&gt;BW(3,3,20)</filterID><methodID>L2-AIC-GRID</methodID><horizontalSlowness><value>20.879833680028618</value></horizontalSlowness><backazimuth><value>152.60892418727826</value></backazimuth><phaseHint>S</phaseHint><evaluationMode>automatic</evaluationMode><comment><text>161998.00351835194</text><id>DFX:rectilinearity</id></comment><comment><text>de.gempa.tb1.Pick/20250411235306.642594.120815</text><id>RefPickID</id></comment><comment><text>14.088632582229113</text><id>SNR</id></comment></pick><pick publicID="de.gempa.tb1.Pick/20250411235330.208907.120835"><time><value>2025-04-11T23:53:18.99Z</value></time><waveformID networkCode="CX" stationCode="PB10" channelCode="HHZ"/><filterID>ITAPER(4)&gt;&gt;BW(4,4,20)</filterID><methodID>AIC</methodID><horizontalSlowness><value>9.285227446697428</value></horizontalSlowness><backazimuth><value>163.06964028303815</value></backazimuth><phaseHint>P</phaseHint><evaluationMode>automatic</evaluationMode><comment><text>102.2169239660949</text><id>DFX:rectilinearity</id></comment><comment><text>22.633967142468713</text><id>SNR</id></comment></pick><pick publicID="de.gempa.tb1.Pick/20250411235330.576146.120837"><time><value>2025-04-11T23:53:20.568393Z</value></time><waveformID networkCode="CX" stationCode="PB08" channelCode="HHN"/><filterID>ITAPER(2)&gt;&gt;BW(3,3,20)</filterID><methodID>L2-AIC-GRID</methodID><horizontalSlowness><value>16.899841067039077</value></horizontalSlowness><backazimuth><value>202.23701929076063</value></backazimuth><phaseHint>S</phaseHint><evaluationMode>automatic</evaluationMode><comment><text>19212.489943289947</text><id>DFX:rectilinearity</id></comment><comment><text>de.gempa.tb1.Pick/20250411235307.529313.120817</text><id>RefPickID</id></comment><comment><text>5.601507980917889</text><id>SNR</id></comment></pick><pick publicID="de.gempa.tb1.Pick/20250411235332.454423.120841"><time><value>2025-04-11T23:53:25.489998Z</value></time><waveformID networkCode="CX" stationCode="PATCX" channelCode="HHN"/><filterID>ITAPER(2)&gt;&gt;BW(3,3,20)</filterID><methodID>L2-AIC-GRID</methodID><horizontalSlowness><value>23.245972968239297</value></horizontalSlowness><backazimuth><value>296.5870235551849</value></backazimuth><phaseHint>S</phaseHint><evaluationMode>automatic</evaluationMode><comment><text>110655.161453991</text><id>DFX:rectilinearity</id></comment><comment><text>de.gempa.tb1.Pick/20250411235308.270976.120819</text><id>RefPickID</id></comment><comment><text>9.771024830956662</text><id>SNR</id></comment></pick><pick publicID="de.gempa.tb1.Pick/20250411235333.250132.120842"><time><value>2025-04-11T23:53:27.518393Z</value></time><waveformID networkCode="CX" stationCode="PB06" channelCode="HHN"/><filterID>ITAPER(2)&gt;&gt;BW(3,3,20)</filterID><methodID>L2-AIC-GRID</methodID><horizontalSlowness><value>21.746113961762703</value></horizontalSlowness><backazimuth><value>4.4455566350472964</value></backazimuth><phaseHint>S</phaseHint><evaluationMode>automatic</evaluationMode><comment><text>31786.78346210091</text><id>DFX:rectilinearity</id></comment><comment><text>de.gempa.tb1.Pick/20250411235310.571933.120821</text><id>RefPickID</id></comment><comment><text>11.042177881723166</text><id>SNR</id></comment></pick><pick publicID="de.gempa.tb1.Pick/20250411235347.788963.120848"><time><value>2025-04-11T23:53:38.89Z</value></time><waveformID networkCode="CX" stationCode="PSGCX" channelCode="HHN"/><filterID>ITAPER(2)&gt;&gt;BW(3,3,20)</filterID><methodID>L2-AIC-GRID</methodID><horizontalSlowness><value>23.274162227667187</value></horizontalSlowness><backazimuth><value>80.15927859444716</value></backazimuth><phaseHint>S</phaseHint><evaluationMode>automatic</evaluationMode><comment><text>4992.445162337025</text><id>DFX:rectilinearity</id></comment><comment><text>de.gempa.tb1.Pick/20250411235315.519926.120825</text><id>RefPickID</id></comment><comment><text>6.881697268766412</text><id>SNR</id></comment></pick><pick publicID="de.gempa.tb1.Pick/20250411235357.773405.120851"><time><value>2025-04-11T23:53:49.97Z</value></time><waveformID networkCode="CX" stationCode="PB19" channelCode="HHN"/><filterID>ITAPER(2)&gt;&gt;BW(3,3,20)</filterID><methodID>L2-AIC-GRID</methodID><horizontalSlowness><value>21.029174804322018</value></horizontalSlowness><backazimuth><value>59.34319995902642</value></backazimuth><phaseHint>S</phaseHint><evaluationMode>automatic</evaluationMode><comment><text>11637.821924572818</text><id>DFX:rectilinearity</id></comment><comment><text>de.gempa.tb1.Pick/20250411235320.543612.120828</text><id>RefPickID</id></comment><comment><text>6.332118568369302</text><id>SNR</id></comment></pick><pick publicID="de.gempa.tb1.Pick/20250411235420.576674.120852"><time><value>2025-04-11T23:53:19.908393Z</value></time><waveformID networkCode="CX" stationCode="PB07" channelCode="HHN"/><filterID>ITAPER(2)&gt;&gt;BW(3,3,20)</filterID><methodID>L2-AIC-GRID</methodID><horizontalSlowness><value>23.040825960214416</value></horizontalSlowness><backazimuth><value>123.43402184073693</value></backazimuth><phaseHint>S</phaseHint><evaluationMode>automatic</evaluationMode><comment><text>990377.7706012296</text><id>DFX:rectilinearity</id></comment><comment><text>de.gempa.tb1.Pick/20250411235326.004122.120830</text><id>RefPickID</id></comment><comment><text>6.338420109871958</text><id>SNR</id></comment></pick><origin publicID="de.gempa.tb1.Origin/20250411235420.581679.69470"><time><value>2025-04-11T23:52:33.862873Z</value><uncertainty>0.6290362477302551</uncertainty></time><latitude><value>-21.298818588256836</value><uncertainty>2.405468702316284</uncertainty></latitude><longitude><value>-68.60419464111328</value><uncertainty>7.326152324676514</uncertainty></longitude><depth><value>134.93719482421875</value><uncertainty>8.237259864807129</uncertainty></depth><depthType>from location</depthType><methodID>LOCSAT</methodID><earthModelID>iasp91_scanloc</earthModelID><quality><associatedPhaseCount>21</associatedPhaseCount><usedPhaseCount>21</usedPhaseCount><associatedStationCount>12</associatedStationCount><usedStationCount>12</usedStationCount><depthPhaseCount>0</depthPhaseCount><standardError>0.3932418090507908</standardError><azimuthalGap>217.76339721679688</azimuthalGap><maximumDistance>2.848365783691406</maximumDistance><minimumDistance>0.7730527520179749</minimumDistance><medianDistance>1.3032605648040771</medianDistance></quality><uncertainty><minHorizontalUncertainty>5.129964828491211</minHorizontalUncertainty><maxHorizontalUncertainty>15.710661888122559</maxHorizontalUncertainty><azimuthMaxHorizontalUncertainty>88.01546478271484</azimuthMaxHorizontalUncertainty><preferredDescription>horizontal uncertainty</preferredDescription></uncertainty><evaluationMode>automatic</evaluationMode><evaluationStatus>confirmed</evaluationStatus><comment><text>0.00</text><id>mismatchScore</id></comment><comment><text>mismatchScore</text><id>scevalMethod</id></comment><arrival><pickID>de.gempa.tb1.Pick/20250411235300.641847.120809</pickID><phase>P</phase><azimuth>230.0568542480469</azimuth><distance>0.7730527520179749</distance><timeResidual>-0.2318878173828125</timeResidual><timeUsed>true</timeUsed><horizontalSlownessUsed>false</horizontalSlownessUsed><backazimuthUsed>false</backazimuthUsed><weight>1</weight></arrival><arrival><pickID>de.gempa.tb1.Pick/20250411235300.642273.120811</pickID><phase>P</phase><azimuth>286.9874267578125</azimuth><distance>0.8626474738121033</distance><timeResidual>-0.6584148406982422</timeResidual><timeUsed>true</timeUsed><horizontalSlownessUsed>false</horizontalSlownessUsed><backazimuthUsed>false</backazimuthUsed><weight>1</weight></arrival><arrival><pickID>de.gempa.tb1.Pick/20250411235304.535044.120813</pickID><phase>P</phase><azimuth>268.7770080566406</azimuth><distance>1.2047507762908936</distance><timeResidual>-0.011201858520507812</timeResidual><timeUsed>true</timeUsed><horizontalSlownessUsed>false</horizontalSlownessUsed><backazimuthUsed>false</backazimuthUsed><weight>1</weight></arrival><arrival><pickID>de.gempa.tb1.Pick/20250411235306.642594.120815</pickID><phase>P</phase><azimuth>234.8725280761719</azimuth><distance>1.3032605648040771</distance><timeResidual>-0.1155548095703125</timeResidual><timeUsed>true</timeUsed><horizontalSlownessUsed>false</horizontalSlownessUsed><backazimuthUsed>false</backazimuthUsed><weight>1</weight></arrival><arrival><pickID>de.gempa.tb1.Pick/20250411235307.529313.120817</pickID><phase>P</phase><azimuth>335.8504638671875</azimuth><distance>1.2613898515701294</distance><timeResidual>0.3854637145996094</timeResidual><timeUsed>true</timeUsed><horizontalSlownessUsed>false</horizontalSlownessUsed><backazimuthUsed>false</backazimuthUsed><weight>1</weight></arrival><arrival><pickID>de.gempa.tb1.Pick/20250411235308.270976.120819</pickID><phase>P</phase><azimuth>287.92755126953125</azimuth><distance>1.5226980447769165</distance><timeResidual>0.5645484924316406</timeResidual><timeUsed>true</timeUsed><horizontalSlownessUsed>false</horizontalSlownessUsed><backazimuthUsed>false</backazimuthUsed><weight>1</weight></arrival><arrival><pickID>de.gempa.tb1.Pick/20250411235310.571933.120821</pickID><phase>P</phase><azimuth>212.49618530273438</azimuth><distance>1.66341233253479</distance><timeResidual>-0.08979988098144531</timeResidual><timeUsed>true</timeUsed><horizontalSlownessUsed>false</horizontalSlownessUsed><backazimuthUsed>false</backazimuthUsed><weight>1</weight></arrival><arrival><pickID>de.gempa.tb1.Pick/20250411235313.70924.120823</pickID><phase>P</phase><azimuth>202.7428741455078</azimuth><distance>2.0630145072937012</distance><timeResidual>0.08254241943359375</timeResidual><timeUsed>true</timeUsed><horizontalSlownessUsed>false</horizontalSlownessUsed><backazimuthUsed>false</backazimuthUsed><weight>1</weight></arrival><arrival><pickID>de.gempa.tb1.Pick/20250411235315.519926.120825</pickID><phase>P</phase><azimuth>319.6601257324219</azimuth><distance>2.212404727935791</distance><timeResidual>-0.6165847778320312</timeResidual><timeUsed>true</timeUsed><horizontalSlownessUsed>false</horizontalSlownessUsed><backazimuthUsed>false</backazimuthUsed><weight>1</weight></arrival><arrival><pickID>de.gempa.tb1.Pick/20250411235319.653401.120827</pickID><phase>S</phase><azimuth>286.9874267578125</azimuth><distance>0.8626474738121033</distance><timeResidual>-0.4608287811279297</timeResidual><timeUsed>true</timeUsed><horizontalSlownessUsed>false</horizontalSlownessUsed><backazimuthUsed>false</backazimuthUsed><weight>1</weight></arrival><arrival><pickID>de.gempa.tb1.Pick/20250411235320.543612.120828</pickID><phase>P</phase><azimuth>193.61386108398438</azimuth><distance>2.6700618267059326</distance><timeResidual>0.07997703552246094</timeResidual><timeUsed>true</timeUsed><horizontalSlownessUsed>false</horizontalSlownessUsed><backazimuthUsed>false</backazimuthUsed><weight>1</weight></arrival><arrival><pickID>de.gempa.tb1.Pick/20250411235326.004122.120830</pickID><phase>P</phase><azimuth>250.1382751464844</azimuth><distance>1.267389178276062</distance><timeResidual>-0.05618858337402344</timeResidual><timeUsed>true</timeUsed><horizontalSlownessUsed>false</horizontalSlownessUsed><backazimuthUsed>false</backazimuthUsed><weight>1</weight></arrival><arrival><pickID>de.gempa.tb1.Pick/20250411235327.262618.120833</pickID><phase>S</phase><azimuth>268.7770080566406</azimuth><distance>1.2047507762908936</distance><timeResidual>0.5037746429443359</timeResidual><timeUsed>true</timeUsed><horizontalSlownessUsed>false</horizontalSlownessUsed><backazimuthUsed>false</backazimuthUsed><weight>1</weight></arrival><arrival><pickID>de.gempa.tb1.Pick/20250411235327.746557.120834</pickID><phase>S</ph