<?xml version="1.0" encoding="UTF-8"?>
<seiscomp xmlns="http://geofon.gfz-potsdam.de/ns/seiscomp3-schema/0.13" version="0.13"><EventParameters><pick publicID="de.gempa.tb1.Pick/20250412075758.731738.122856"><time><value>2025-04-12T07:57:53.74Z</value></time><waveformID networkCode="CX" stationCode="PB09" channelCode="HHZ"/><filterID>ITAPER(4)&gt;&gt;BW(4,4,20)</filterID><methodID>AIC</methodID><horizontalSlowness><value>4.728249494098618</value></horizontalSlowness><backazimuth><value>349.5338875912271</value></backazimuth><phaseHint>P</phaseHint><evaluationMode>automatic</evaluationMode><comment><text>6.86768049643659</text><id>DFX:rectilinearity</id></comment><comment><text>11.478409333867745</text><id>SNR</id></comment></pick><pick publicID="de.gempa.tb1.Pick/20250412075807.545005.122858"><time><value>2025-04-12T07:57:59.118393Z</value></time><waveformID networkCode="CX" stationCode="PB01" channelCode="HHZ"/><filterID>ITAPER(4)&gt;&gt;BW(4,4,20)</filterID><methodID>AIC</methodID><horizontalSlowness><value>20.529197989224961</value></horizontalSlowness><backazimuth><value>286.58122710076395</value></backazimuth><phaseHint>P</phaseHint><evaluationMode>automatic</evaluationMode><comment><text>5.474017670979197</text><id>DFX:rectilinearity</id></comment><comment><text>18.180535040842344</text><id>SNR</id></comment></pick><pick publicID="de.gempa.tb1.Pick/20250412075808.462412.122860"><time><value>2025-04-12T07:58:00.818393Z</value></time><waveformID networkCode="CX" stationCode="PB02" channelCode="HHZ"/><filterID>ITAPER(4)&gt;&gt;BW(4,4,20)</filterID><methodID>AIC</methodID><horizontalSlowness><value>20.694344744970113</value></horizontalSlowness><backazimuth><value>82.9949772990132</value></backazimuth><phaseHint>P</phaseHint><evaluationMode>automatic</evaluationMode><comment><text>22.259442756199451</text><id>DFX:rectilinearity</id></comment><comment><text>7.94762481656558</text><id>SNR</id></comment></pick><pick publicID="de.gempa.tb1.Pick/20250412075828.712566.122869"><time><value>2025-04-12T07:58:18.168393Z</value></time><waveformID networkCode="CX" stationCode="PB01" channelCode="HHN"/><filterID>ITAPER(2)&gt;&gt;BW(3,3,20)</filterID><methodID>L2-AIC-GRID</methodID><horizontalSlowness><value>22.33694329264593</value></horizontalSlowness><backazimuth><value>159.94595689752512</value></backazimuth><phaseHint>S</phaseHint><evaluationMode>automatic</evaluationMode><comment><text>8.251600590119901</text><id>DFX:rectilinearity</id></comment><comment><text>de.gempa.tb1.Pick/20250412075807.545005.122858</text><id>RefPickID</id></comment><comment><text>5.621001469419578</text><id>SNR</id></comment></pick><origin publicID="de.gempa.tb1.Origin/20250412075840.925177.78228"><time><value>2025-04-12T07:57:34.519717Z</value><uncertainty>2.5898547172546387</uncertainty></time><latitude><value>-21.914936065673828</value><uncertainty>21.358442306518555</uncertainty></latitude><longitude><value>-68.54765319824219</value><uncertainty>40.227359771728516</uncertainty></longitude><depth><value>121.7136001586914</value><uncertainty>24.702463150024414</uncertainty></depth><depthType>from location</depthType><methodID>LOCSAT</methodID><earthModelID>iasp91_scanloc</earthModelID><quality><associatedPhaseCount>4</associatedPhaseCount><usedPhaseCount>4</usedPhaseCount><associatedStationCount>3</associatedStationCount><usedStationCount>3</usedStationCount><depthPhaseCount>0</depthPhaseCount><standardError>0.006811927749015288</standardError><azimuthalGap>325.66748046875</azimuthalGap><maximumDistance>1.3874378204345703</maximumDistance><minimumDistance>0.6556647419929504</minimumDistance><medianDistance>1.232267141342163</medianDistance></quality><uncertainty><minHorizontalUncertainty>29.61676597595215</minHorizontalUncertainty><maxHorizontalUncertainty>93.08826446533203</maxHorizontalUncertainty><azimuthMaxHorizontalUncertainty>66.67150115966797</azimuthMaxHorizontalUncertainty><preferredDescription>horizontal uncertainty</preferredDescription></uncertainty><evaluationMode>automatic</evaluationMode><arrival><pickID>de.gempa.tb1.Pick/20250412075758.731738.122856</pickID><phase>P</phase><azimuth>280.2377624511719</azimuth><distance>0.6556647419929504</distance><timeResidual>-0.0044612884521484375</timeResidual><timeUsed>true</timeUsed><horizontalSlownessUsed>false</horizontalSlownessUsed><backazimuthUsed>false</backazimuthUsed><weight>1</weight></arrival><arrival><pickID>de.gempa.tb1.Pick/20250412075807.545005.122858</pickID><phase>P</phase><azimuth>314.5702819824219</azimuth><distance>1.232267141342163</distance><timeResidual>-0.005430221557617188</timeResidual><timeUsed>true</timeUsed><horizontalSlownessUsed>false</horizontalSlownessUsed><backazimuthUsed>false</backazimuthUsed><weight>1</weight></arrival><arrival><pickID>de.gempa.tb1.Pick/20250412075808.462412.122860</pickID><phase>P</phase><azimuth>295.02252197265625</azimuth><distance>1.3874378204345703</distance><timeResidual>-0.005428314208984375</timeResidual><timeUsed>true</timeUsed><horizontalSlownessUsed>false</horizontalSlownessUsed><backazimuthUsed>false</backazimuthUsed><weight>1</weight></arrival><arrival><pickID>de.gempa.tb1.Pick/20250412075828.712566.122869</pickID><phase>S</phase><azimuth>314.5702819824219</azimuth><distance>1.232267141342163</distance><timeResidual>-0.010332107543945312</timeResidual><timeUsed>true</timeUsed><horizontalSlownessUsed>false</horizontalSlownessUsed><backazimuthUsed>false</backazimuthUsed><weight>1</weight></arrival><magnitude publicID="de.gempa.tb1.Magnitude/20250412075852.640322.195711"><magnitude><value>2.763001213144028</value></magnitude><type>M</type><methodID>weighted average</methodID><stationCount>1</stationCount></magnitude></origin><event publicID="gempa2025hfed"><preferredOriginID>de.gempa.tb1.Origin/20250412075840.925177.78228</preferredOriginID><preferredMagnitudeID>de.gempa.tb1.Magnitude/20250412075852.640322.195711</preferredMagnitudeID><typeCertainty>suspected</typeCertainty><description><text>Chile-Bolivia Border Region</text><type>region name</type></description><originReference>de.gempa.tb1.Origin/20250412075840.925177.78228</originReference></event></EventParameters></seiscomp>