<?xml version="1.0" encoding="UTF-8"?>
<seiscomp xmlns="http://geofon.gfz-potsdam.de/ns/seiscomp3-schema/0.13" version="0.13"><EventParameters><pick publicID="de.gempa.tb1.Pick/20250411101321.536487.118268"><time><value>2025-04-11T10:13:14.238393Z</value></time><waveformID networkCode="CX" stationCode="PB06" channelCode="HHZ"/><filterID>ITAPER(4)&gt;&gt;BW(4,4,20)</filterID><methodID>AIC</methodID><horizontalSlowness><value>21.28398854570354</value></horizontalSlowness><backazimuth><value>157.49943786019054</value></backazimuth><phaseHint>P</phaseHint><evaluationMode>automatic</evaluationMode><comment><text>34.13095826471478</text><id>DFX:rectilinearity</id></comment><comment><text>16.889294422988382</text><id>SNR</id></comment></pick><pick publicID="de.gempa.tb1.Pick/20250411101321.591366.118270"><time><value>2025-04-11T10:13:13.908393Z</value></time><waveformID networkCode="CX" stationCode="PB03" channelCode="HHZ"/><filterID>ITAPER(4)&gt;&gt;BW(4,4,20)</filterID><methodID>AIC</methodID><horizontalSlowness><value>10.49564937310913</value></horizontalSlowness><backazimuth><value>191.3605825865557</value></backazimuth><phaseHint>P</phaseHint><evaluationMode>automatic</evaluationMode><comment><text>15.170917679614488</text><id>DFX:rectilinearity</id></comment><comment><text>38.010796415654774</text><id>SNR</id></comment></pick><pick publicID="de.gempa.tb1.Pick/20250411101323.727655.118272"><time><value>2025-04-11T10:13:16.248396Z</value></time><waveformID networkCode="CX" stationCode="PB07" channelCode="HHZ"/><filterID>ITAPER(4)&gt;&gt;BW(4,4,20)</filterID><methodID>AIC</methodID><horizontalSlowness><value>22.67499927404545</value></horizontalSlowness><backazimuth><value>108.88895341950824</value></backazimuth><phaseHint>P</phaseHint><evaluationMode>automatic</evaluationMode><comment><text>173.96544136220308</text><id>DFX:rectilinearity</id></comment><comment><text>52.84026937899392</text><id>SNR</id></comment></pick><pick publicID="de.gempa.tb1.Pick/20250411101325.536442.118274"><time><value>2025-04-11T10:13:18.908393Z</value></time><waveformID networkCode="CX" stationCode="PB02" channelCode="HHZ"/><filterID>ITAPER(4)&gt;&gt;BW(4,4,20)</filterID><methodID>AIC</methodID><horizontalSlowness><value>23.566637667805434</value></horizontalSlowness><backazimuth><value>102.82693573558618</value></backazimuth><phaseHint>P</phaseHint><evaluationMode>automatic</evaluationMode><comment><text>34.41843409433715</text><id>DFX:rectilinearity</id></comment><comment><text>10.499930485917368</text><id>SNR</id></comment></pick><pick publicID="de.gempa.tb1.Pick/20250411101325.590849.118276"><time><value>2025-04-11T10:13:10.830001Z</value></time><waveformID networkCode="CX" stationCode="PB09" channelCode="HHZ"/><filterID>ITAPER(4)&gt;&gt;BW(4,4,20)</filterID><methodID>AIC</methodID><horizontalSlowness><value>14.033687244286176</value></horizontalSlowness><backazimuth><value>83.83153414411063</value></backazimuth><phaseHint>P</phaseHint><evaluationMode>automatic</evaluationMode><comment><text>18.80446281119731</text><id>DFX:rectilinearity</id></comment><comment><text>58.46150526307859</text><id>SNR</id></comment></pick><pick publicID="de.gempa.tb1.Pick/20250411101337.621362.118278"><time><value>2025-04-11T10:13:30.388393Z</value></time><waveformID networkCode="CX" stationCode="PB06" channelCode="HHN"/><filterID>ITAPER(2)&gt;&gt;BW(3,3,20)</filterID><methodID>L2-AIC-GRID</methodID><horizontalSlowness><value>12.62456106663261</value></horizontalSlowness><backazimuth><value>181.29044169367444</value></backazimuth><phaseHint>S</phaseHint><evaluationMode>automatic</evaluationMode><comment><text>50.26152588730113</text><id>DFX:rectilinearity</id></comment><comment><text>de.gempa.tb1.Pick/20250411101321.536487.118268</text><id>RefPickID</id></comment><comment><text>10.281531518429592</text><id>SNR</id></comment></pick><pick publicID="de.gempa.tb1.Pick/20250411101337.721077.118279"><time><value>2025-04-11T10:13:30.318393Z</value></time><waveformID networkCode="CX" stationCode="PB03" channelCode="HHN"/><filterID>ITAPER(2)&gt;&gt;BW(3,3,20)</filterID><methodID>L2-AIC-GRID</methodID><horizontalSlowness><value>8.956262545710324</value></horizontalSlowness><backazimuth><value>287.12445859527037</value></backazimuth><phaseHint>S</phaseHint><evaluationMode>automatic</evaluationMode><comment><text>74.93949273947449</text><id>DFX:rectilinearity</id></comment><comment><text>de.gempa.tb1.Pick/20250411101321.591366.118270</text><id>RefPickID</id></comment><comment><text>8.323423408282727</text><id>SNR</id></comment></pick><origin publicID="de.gempa.tb1.Origin/20250411101338.714125.58024"><time><value>2025-04-11T10:12:53.305495Z</value><uncertainty>1.456855297088623</uncertainty></time><latitude><value>-22.14729881286621</value><uncertainty>8.564409255981445</uncertainty></latitude><longitude><value>-68.705322265625</value><uncertainty>17.726076126098633</uncertainty></longitude><depth><value>108.88849639892578</value><uncertainty>20.722871780395508</uncertainty></depth><depthType>from location</depthType><methodID>LOCSAT</methodID><earthModelID>iasp91_scanloc</earthModelID><quality><associatedPhaseCount>7</associatedPhaseCount><usedPhaseCount>7</usedPhaseCount><associatedStationCount>5</associatedStationCount><usedStationCount>5</usedStationCount><depthPhaseCount>0</depthPhaseCount><standardError>0.15143762936151814</standardError><azimuthalGap>288.6803283691406</azimuthalGap><maximumDistance>1.3797802925109863</maximumDistance><minimumDistance>0.6083158850669861</minimumDistance><medianDistance>0.9766889810562134</medianDistance></quality><uncertainty><minHorizontalUncertainty>18.060239791870117</minHorizontalUncertainty><maxHorizontalUncertainty>38.159584045410156</maxHorizontalUncertainty><azimuthMaxHorizontalUncertainty>84.30016326904297</azimuthMaxHorizontalUncertainty><preferredDescription>horizontal uncertainty</preferredDescription></uncertainty><evaluationMode>automatic</evaluationMode><evaluationStatus>confirmed</evaluationStatus><comment><text>0.01</text><id>mismatchScore</id></comment><comment><text>mismatchScore</text><id>scevalMethod</id></comment><arrival><pickID>de.gempa.tb1.Pick/20250411101321.536487.118268</pickID><phase>P</phase><azimuth>235.10479736328125</azimuth><distance>0.9756153225898743</distance><timeResidual>0.05082511901855469</timeResidual><timeUsed>true</timeUsed><horizontalSlownessUsed>false</horizontalSlownessUsed><backazimuthUsed>false</backazimuthUsed><weight>1</weight></arrival><arrival><pickID>de.gempa.tb1.Pick/20250411101321.591366.118270</pickID><phase>P</phase><azimuth>275.5834045410156</azimuth><distance>0.9766889810562134</distance><timeResidual>-0.29360389709472656</timeResidual><timeUsed>true</timeUsed><horizontalSlownessUsed>false</horizontalSlownessUsed><backazimuthUsed>false</backazimuthUsed><weight>1</weight></arrival><arrival><pickID>de.gempa.tb1.Pick/20250411101323.727655.118272</pickID><phase>P</phase><azimuth>290.6766662597656</azimuth><distance>1.1735622882843018</distance><timeResidual>-0.05904769897460938</timeResidual><timeUsed>true</timeUsed><horizontalSlownessUsed>false</horizontalSlownessUsed><backazimuthUsed>false</backazimuthUsed><weight>1</weight></arrival><arrival><pickID>de.gempa.tb1.Pick/20250411101325.536442.118274</pickID><phase>P</phase><azimuth>306.4244689941406</azimuth><distance>1.3797802925109863</distance><timeResidual>0.2481975555419922</timeResidual><timeUsed>true</timeUsed><horizontalSlownessUsed>false</horizontalSlownessUsed><backazimuthUsed>false</backazimuthUsed><weight>1</weight></arrival><arrival><pickID>de.gempa.tb1.Pick/20250411101325.590849.118276</pickID><phase>P</phase><azimuth>304.9352111816406</azimuth><distance>0.6083158850669861</distance><timeResidual>-0.010211944580078125</timeResidual><timeUsed>true</timeUsed><horizontalSlownessUsed>false</horizontalSlownessUsed><backazimuthUsed>false</backazimuthUsed><weight>1</weight></arrival><arrival><pickID>de.gempa.tb1.Pick/20250411101337.621362.118278</pickID><phase>S</phase><azimuth>235.10479736328125</azimuth><distance>0.9756153225898743</distance><timeResidual>0.0794525146484375</timeResidual><timeUsed>true</timeUsed><horizontalSlownessUsed>false</horizontalSlownessUsed><backazimuthUsed>false</backazimuthUsed><weight>1</weight></arrival><arrival><pickID>de.gempa.tb1.Pick/20250411101337.721077.118279</pickID><phase>S</phase><azimuth>275.5834045410156</azimuth><distance>0.9766889810562134</distance><timeResidual>-0.015537261962890625</timeResidual><timeUsed>true</timeUsed><horizontalSlownessUsed>false</horizontalSlownessUsed><backazimuthUsed>false</backazimuthUsed><weight>1</weight></arrival></origin><event publicID="gempa2025hdmq"><preferredOriginID>de.gempa.tb1.Origin/20250411101338.714125.58024</preferredOriginID><description><text>Northern Chile</text><type>region name</type></description><originReference>de.gempa.tb1.Origin/20250411101338.714125.58024</originReference></event></EventParameters></seiscomp>