<?xml version="1.0" encoding="UTF-8"?>
<seiscomp xmlns="http://geofon.gfz-potsdam.de/ns/seiscomp3-schema/0.13" version="0.13"><EventParameters><pick publicID="de.gempa.tb1.Pick/20250414105631.576728.137406"><time><value>2025-04-14T10:56:26.248391Z</value></time><waveformID networkCode="CX" stationCode="PB01" channelCode="HHZ"/><filterID>ITAPER(4)&gt;&gt;BW(4,4,20)</filterID><methodID>AIC</methodID><horizontalSlowness><value>7.390761295208354</value></horizontalSlowness><backazimuth><value>119.29177380853532</value></backazimuth><phaseHint>P</phaseHint><evaluationMode>automatic</evaluationMode><comment><text>22.914258551757957</text><id>DFX:rectilinearity</id></comment><comment><text>61.66859623469313</text><id>SNR</id></comment></pick><pick publicID="de.gempa.tb1.Pick/20250414105634.578181.137408"><time><value>2025-04-14T10:56:29.148391Z</value></time><waveformID networkCode="CX" stationCode="PB02" channelCode="HHZ"/><filterID>ITAPER(4)&gt;&gt;BW(4,4,20)</filterID><methodID>AIC</methodID><horizontalSlowness><value>12.401157058914986</value></horizontalSlowness><backazimuth><value>77.65949444142906</value></backazimuth><phaseHint>P</phaseHint><evaluationMode>automatic</evaluationMode><comment><text>27.64145096030497</text><id>DFX:rectilinearity</id></comment><comment><text>41.7046202483668</text><id>SNR</id></comment></pick><pick publicID="de.gempa.tb1.Pick/20250414105635.542301.137410"><time><value>2025-04-14T10:56:28.168393Z</value></time><waveformID networkCode="CX" stationCode="PB03" channelCode="HHZ"/><filterID>ITAPER(4)&gt;&gt;BW(4,4,20)</filterID><methodID>AIC</methodID><horizontalSlowness><value>3.798913823535887</value></horizontalSlowness><backazimuth><value>64.9357260047268</value></backazimuth><phaseHint>P</phaseHint><evaluationMode>automatic</evaluationMode><comment><text>7.383844567036442</text><id>DFX:rectilinearity</id></comment><comment><text>28.49668809579202</text><id>SNR</id></comment></pick><pick publicID="de.gempa.tb1.Pick/20250414105636.533114.137412"><time><value>2025-04-14T10:56:31.318393Z</value></time><waveformID networkCode="CX" stationCode="PB06" channelCode="HHZ"/><filterID>ITAPER(4)&gt;&gt;BW(4,4,20)</filterID><methodID>AIC</methodID><horizontalSlowness><value>2.6957150035704265</value></horizontalSlowness><backazimuth><value>306.48627422941894</value></backazimuth><phaseHint>P</phaseHint><evaluationMode>automatic</evaluationMode><comment><text>106.24040832640827</text><id>DFX:rectilinearity</id></comment><comment><text>9.77815971508123</text><id>SNR</id></comment></pick><pick publicID="de.gempa.tb1.Pick/20250414105636.556583.137414"><time><value>2025-04-14T10:56:23.76Z</value></time><waveformID networkCode="CX" stationCode="PB09" channelCode="HHZ"/><filterID>ITAPER(4)&gt;&gt;BW(4,4,20)</filterID><methodID>AIC</methodID><horizontalSlowness><value>13.845457483148973</value></horizontalSlowness><backazimuth><value>83.10103972845442</value></backazimuth><phaseHint>P</phaseHint><evaluationMode>automatic</evaluationMode><comment><text>29.759408771899167</text><id>DFX:rectilinearity</id></comment><comment><text>74.24089576388488</text><id>SNR</id></comment></pick><pick publicID="de.gempa.tb1.Pick/20250414105638.332588.137416"><time><value>2025-04-14T10:56:33.519999Z</value></time><waveformID networkCode="CX" stationCode="PATCX" channelCode="HHZ"/><filterID>ITAPER(4)&gt;&gt;BW(4,4,20)</filterID><methodID>AIC</methodID><horizontalSlowness><value>22.74556547551702</value></horizontalSlowness><backazimuth><value>313.65289774709515</value></backazimuth><phaseHint>P</phaseHint><evaluationMode>automatic</evaluationMode><comment><text>84.25948500679907</text><id>DFX:rectilinearity</id></comment><comment><text>18.863172942410905</text><id>SNR</id></comment></pick><pick publicID="de.gempa.tb1.Pick/20250414105647.425545.137418"><time><value>2025-04-14T10:56:28.808393Z</value></time><waveformID networkCode="CX" stationCode="PB07" channelCode="HHZ"/><filterID>ITAPER(4)&gt;&gt;BW(4,4,20)</filterID><methodID>AIC</methodID><horizontalSlowness><value>14.18249233014513</value></horizontalSlowness><backazimuth><value>93.2320312657389</value></backazimuth><phaseHint>P</phaseHint><evaluationMode>automatic</evaluationMode><comment><text>260.85970350027645</text><id>DFX:rectilinearity</id></comment><comment><text>134.93352250653217</text><id>SNR</id></comment></pick><pick publicID="de.gempa.tb1.Pick/20250414105648.499463.137420"><time><value>2025-04-14T10:56:42.299998Z</value></time><waveformID networkCode="CX" stationCode="PB19" channelCode="HHZ"/><filterID>ITAPER(4)&gt;&gt;BW(4,4,20)</filterID><methodID>AIC</methodID><horizontalSlowness><value>16.819321978026181</value></horizontalSlowness><backazimuth><value>88.77190902196023</value></backazimuth><phaseHint>P</phaseHint><evaluationMode>automatic</evaluationMode><comment><text>26.293183510110044</text><id>DFX:rectilinearity</id></comment><comment><text>18.044295831206327</text><id>SNR</id></comment></pick><pick publicID="de.gempa.tb1.Pick/20250414105650.574125.137422"><time><value>2025-04-14T10:56:41.78Z</value></time><waveformID networkCode="CX" stationCode="PSGCX" channelCode="HHZ"/><filterID>ITAPER(4)&gt;&gt;BW(4,4,20)</filterID><methodID>AIC</methodID><horizontalSlowness><value>5.237454122478751</value></horizontalSlowness><backazimuth><value>176.1813809834457</value></backazimuth><phaseHint>P</phaseHint><evaluationMode>automatic</evaluationMode><comment><text>8.727268550158996</text><id>DFX:rectilinearity</id></comment><comment><text>11.31069203614992</text><id>SNR</id></comment></pick><pick publicID="de.gempa.tb1.Pick/20250414105653.71852.137424"><time><value>2025-04-14T10:56:47.848393Z</value></time><waveformID networkCode="CX" stationCode="PB03" channelCode="HHN"/><filterID>ITAPER(2)&gt;&gt;BW(3,3,20)</filterID><methodID>L2-AIC-GRID</methodID><horizontalSlowness><value>12.156087084737997</value></horizontalSlowness><backazimuth><value>248.7016432124485</value></backazimuth><phaseHint>S</phaseHint><evaluationMode>automatic</evaluationMode><comment><text>418.54226271557076</text><id>DFX:rectilinearity</id></comment><comment><text>de.gempa.tb1.Pick/20250414105635.542301.137410</text><id>RefPickID</id></comment><comment><text>19.945115444593554</text><id>SNR</id></comment></pick><pick publicID="de.gempa.tb1.Pick/20250414105655.791059.137425"><time><value>2025-04-14T10:56:49.018393Z</value></time><waveformID networkCode="CX" stationCode="PB07" channelCode="HHN"/><filterID>ITAPER(2)&gt;&gt;BW(3,3,20)</filterID><methodID>L2-AIC-GRID</methodID><horizontalSlowness><value>22.790826074595707</value></horizontalSlowness><backazimuth><value>211.69581746853</value></backazimuth><phaseHint>S</phaseHint><evaluationMode>automatic</evaluationMode><comment><text>4613.698881834644</text><id>DFX:rectilinearity</id></comment><comment><text>de.gempa.tb1.Pick/20250414105647.425545.137418</text><id>RefPickID</id></comment><comment><text>11.09088206396366</text><id>SNR</id></comment></pick><pick publicID="de.gempa.tb1.Pick/20250414105659.671095.137426"><time><value>2025-04-14T10:56:52.508393Z</value></time><waveformID networkCode="CX" stationCode="PB06" channelCode="HHN"/><filterID>ITAPER(2)&gt;&gt;BW(3,3,20)</filterID><methodID>L2-AIC-GRID</methodID><horizontalSlowness><value>20.343300940332387</value></horizontalSlowness><backazimuth><value>295.5020038180249</value></backazimuth><phaseHint>S</phaseHint><evaluationMode>automatic</evaluationMode><comment><text>89.73790730857276</text><id>DFX:rectilinearity</id></comment><comment><text>de.gempa.tb1.Pick/20250414105636.533114.137412</text><id>RefPickID</id></comment><comment><text>15.554830927782914</text><id>SNR</id></comment></pick><pick publicID="de.gempa.tb1.Pick/20250414105719.65622.137436"><time><value>2025-04-14T10:57:11.149998Z</value></time><waveformID networkCode="CX" stationCode="PB19" channelCode="HHN"/><filterID>ITAPER(2)&gt;&gt;BW(3,3,20)</filterID><methodID>L2-AIC-GRID</methodID><horizontalSlowness><value>12.164017765409424</value></horizontalSlowness><backazimuth><value>126.2239013202622</value></backazimuth><phaseHint>S</phaseHint><evaluationMode>automatic</evaluationMode><comment><text>118.49254933886992</text><id>DFX:rectilinearity</id></comment><comment><text>de.gempa.tb1.Pick/20250414105648.499463.137420</text><id>RefPickID</id></comment><comment><text>13.510877895383775</text><id>SNR</id></comment></pick><pick publicID="de.gempa.tb1.Pick/20250414105722.672648.137441"><time><value>2025-04-14T10:57:12.76Z</value></time><waveformID networkCode="CX" stationCode="PSGCX" channelCode="HHN"/><filterID>ITAPER(2)&gt;&gt;BW(3,3,20)</filterID><methodID>L2-AIC-GRID</methodID><horizontalSlowness><value>15.91148022025398</value></horizontalSlowness><backazimuth><value>32.107629915210907</value></backazimuth><phaseHint>S</phaseHint><evaluationMode>automatic</evaluationMode><comment><text>27.92660780479385</text><id>DFX:rectilinearity</id></comment><comment><text>de.gempa.tb1.Pick/20250414105650.574125.137422</text><id>RefPickID</id></comment><comment><text>8.271758523378606</text><id>SNR</id></comment></pick><origin publicID="de.gempa.tb1.Origin/20250414105723.684528.135375"><time><value>2025-04-14T10:56:02.346004Z</value><uncertainty>0.825358510017395</uncertainty></time><latitude><value>-21.582050323486328</value><uncertainty>4.15207576751709</uncertainty></latitude><longitude><value>-68.56522369384766</value><uncertainty>16.048505783081055</uncertainty></longitude><depth><value>139.6355743408203</value><uncertainty>18.16004180908203</uncertainty></depth><depthType>from location</depthType><methodID>LOCSAT</methodID><earthModelID>iasp91_scanloc</earthModelID><quality><associatedPhaseCount>14</associatedPhaseCount><usedPhaseCount>14</usedPhaseCount><associatedStationCount>9</associatedStationCount><usedStationCount>9</usedStationCount><depthPhaseCount>0</depthPhaseCount><standardError>0.6088089067426433</standardError><azimuthalGap>232.7589416503906</azimuthalGap><maximumDistance>2.4555909633636475</maximumDistance><minimumDistance>0.6645182967185974</minimumDistance><medianDistance>1.4565985202789307</medianDistance></quality><uncertainty><minHorizontalUncertainty>6.463558673858643</minHorizontalUncertainty><maxHorizontalUncertainty>34.95281219482422</maxHorizontalUncertainty><azimuthMaxHorizontalUncertainty>79.73226165771484</azimuthMaxHorizontalUncertainty><preferredDescription>horizontal uncertainty</preferredDescription></uncertainty><evaluationMode>automatic</evaluationMode><evaluationStatus>confirmed</evaluationStatus><comment><text>0.12</text><id>mismatchScore</id></comment><comment><text>mismatchScore</text><id>scevalMethod</id></comment><arrival><pickID>de.gempa.tb1.Pick/20250414105631.576728.137406</pickID><phase>P</phase><azimuth>301.7778625488281</azimuth><distance>1.0133224725723267</distance><timeResidual>-0.02435874938964844</timeResidual><timeUsed>true</timeUsed><horizontalSlownessUsed>false</horizontalSlownessUsed><backazimuthUsed>false</backazimuthUsed><weight>1</weight></arrival><arrival><pickID>de.gempa.tb1.Pick/20250414105634.578181.137408</pickID><phase>P</phase><azimuth>281.647705078125</azimuth><distance>1.2669039964675903</distance><timeResidual>0.4510002136230469</timeResidual><timeUsed>true</timeUsed><horizontalSlownessUsed>false</horizontalSlownessUsed><backazimuthUsed>false</backazimuthUsed><weight>1</weight></arrival><arrival><pickID>de.gempa.tb1.Pick/20250414105635.542301.137410</pickID><phase>P</phase><azimuth>246.97483825683594</azimuth><distance>1.1974343061447144</distance><timeResidual>0.1687030792236328</timeResidual><timeUsed>true</timeUsed><horizontalSlownessUsed>false</horizontalSlownessUsed><backazimuthUsed>false</backazimuthUsed><weight>1</weight></arrival><arrival><pickID>de.gempa.tb1.Pick/20250414105636.533114.137412</pickID><phase>P</phase><azimuth>219.65834045410156</azimuth><distance>1.4565985202789307</distance><timeResidual>0.6505908966064453</timeResidual><timeUsed>true</timeUsed><horizontalSlownessUsed>false</horizontalSlownessUsed><backazimuthUsed>false</backazimuthUsed><weight>1</weight></arrival><arrival><pickID>de.gempa.tb1.Pick/20250414105636.556583.137414</pickID><phase>P</phase><azimuth>251.155029296875</azimuth><distance>0.6645182967185974</distance><timeResidual>0.2563438415527344</timeResidual><timeUsed>true</timeUsed><horizontalSlownessUsed>false</horizontalSlownessUsed><backazimuthUsed>false</backazimuthUsed><weight>1</weight></arrival><arrival><pickID>de.gempa.tb1.Pick/20250414105638.332588.137416</pickID><phase>P</phase><azimuth>296.79608154296875</azimuth><distance>1.6639251708984375</distance><timeResidual>0.5553760528564453</timeResidual><timeUsed>true</timeUsed><horizontalSlownessUsed>false</horizontalSlownessUsed><backazimuthUsed>false</backazimuthUsed><weight>1</weight></arrival><arrival><pickID>de.gempa.tb1.Pick/20250414105647.425545.137418</pickID><phase>P</phase><azimuth>263.0783996582031</azimuth><distance>1.2372405529022217</distance><timeResidual>0.4117145538330078</timeResidual><timeUsed>true</timeUsed><horizontalSlownessUsed>false</horizontalSlownessUsed><backazimuthUsed>false</backazimuthUsed><weight>1</weight></arrival><arrival><pickID>de.gempa.tb1.Pick/20250414105648.499463.137420</pickID><phase>P</phase><azimuth>196.0172119140625</azimuth><distance>2.4068188667297363</distance><timeResidual>0.4942569732666016</timeResidual><timeUsed>true</timeUsed><horizontalSlownessUsed>false</horizontalSlownessUsed><backazimuthUsed>false</backazimuthUsed><weight>1</weight></arrival><arrival><pickID>de.gempa.tb1.Pick/20250414105650.574125.137422</pickID><phase>P</phase><azimuth>323.2582702636719</azimuth><distance>2.4555909633636475</distance><timeResidual>-0.6584148406982422</timeResidual><timeUsed>true</timeUsed><horizontalSlownessUsed>false</horizontalSlownessUsed><backazimuthUsed>false</backazimuthUsed><weight>1</weight></arrival><arrival><pickID>de.gempa.tb1.Pick/20250414105653.71852.137424</pickID><phase>S</phase><azimuth>246.97483825683594</azimuth><distance>1.1974343061447144</distance><timeResidual>-0.0694580078125</timeResidual><timeUsed>true</timeUsed><horizontalSlownessUsed>false</horizontalSlownessUsed><backazimuthUsed>false</backazimuthUsed><weight>1</weight></arrival><arrival><pickID>de.gempa.tb1.Pick/20250414105655.791059.137425</pickID><phase>S</phase><azimuth>263.0783996582031</azimuth><distance>1.2372405529022217</distance><timeResidual>0.3921794891357422</timeResidual><timeUsed>true</timeUsed><horizontalSlownessUsed>false</horizontalSlownessUsed><backazimuthUsed>false</backazimuthUsed><weight>1</weight></arrival><arrival><pickID>de.gempa.tb1.Pick/20250414105659.671095.137426</pickID><phase>S</phase><azimuth>219.65834045410156</azimuth><distance>1.4565985202789307</distance><timeResidual>-0.17525482177734375</timeResidual><timeUsed>true</timeUsed><horizontalSlownessUsed>false</horizontalSlownessUsed><backazimuthUsed>false</backazimuthUsed><weight>1</weight></arrival><arrival><pickID>de.gempa.tb1.Pick/20250414105719.65622.137436</pickID><phase>S</phase><azimuth>196.0172119140625</azimuth><distance>2.4068188667297363</distance><timeResidual>-1.4664440155029297</timeResidual><timeUsed>true</timeUsed><horizontalSlownessUsed>false</horizontalSlownessUsed><backazimuthUsed>false</backazimuthUsed><weight>1</weight></arrival><arrival><pickID>de.gempa.tb1.Pick/20250414105722.672648.137441</pickID><phase>S</phase><azimuth>323.2582702636719</azimuth><distance>2.4555909633636475</distance><timeResidual>-0.9859447479248047</timeResidual><timeUsed>true</timeUsed><horizontalSlownessUsed>false</horizontalSlownessUsed><backazimuthUsed>false</backazimuthUsed><weight>1</weight></arrival><magnitude publicID="de.gempa.tb1.Magnitude/20250414105730.939521.475812"><magnitude><value>2.5213574235013514</value></magnitude><type>M</type><methodID>weighted average</methodID><stationCount>5</stationCount></magnitude></origin><event publicID="gempa2025hjcd"><preferredOriginID>de.gempa.tb1.Origin/20250414105723.684528.135375</preferredOriginID><preferredMagnitudeID>de.gempa.tb1.Magnitude/20250414105730.939521.475812</preferredMagnitudeID><description><text>Chile-Bolivia Border Region</text><type>region name</type></description><originReference>de.gempa.tb1.Origin/20250414105723.684528.135375</originReference></event></EventParameters></seiscomp>