<?xml version="1.0" encoding="UTF-8"?>
<seiscomp xmlns="http://geofon.gfz-potsdam.de/ns/seiscomp3-schema/0.13" version="0.13"><EventParameters><pick publicID="de.gempa.tb1.Pick/20250413084123.653095.130140"><time><value>2025-04-13T08:41:15.46Z</value></time><waveformID networkCode="CX" stationCode="PB19" channelCode="HHZ"/><filterID>ITAPER(4)&gt;&gt;BW(4,4,20)</filterID><methodID>AIC</methodID><horizontalSlowness><value>9.648380634516675</value></horizontalSlowness><backazimuth><value>137.37621723392974</value></backazimuth><phaseHint>P</phaseHint><evaluationMode>automatic</evaluationMode><comment><text>40.29588719896107</text><id>DFX:rectilinearity</id></comment><comment><text>13.41575315509107</text><id>SNR</id></comment></pick><pick publicID="de.gempa.tb1.Pick/20250413084130.652129.130142"><time><value>2025-04-13T08:41:23.958393Z</value></time><waveformID networkCode="CX" stationCode="PB06" channelCode="HHZ"/><filterID>ITAPER(4)&gt;&gt;BW(4,4,20)</filterID><methodID>AIC</methodID><horizontalSlowness><value>0.7097663364674068</value></horizontalSlowness><backazimuth><value>233.2888334990155</value></backazimuth><phaseHint>P</phaseHint><evaluationMode>automatic</evaluationMode><comment><text>60.12125778457925</text><id>DFX:rectilinearity</id></comment><comment><text>13.21988707346978</text><id>SNR</id></comment></pick><pick publicID="de.gempa.tb1.Pick/20250413084139.551937.130144"><time><value>2025-04-13T08:41:30.228393Z</value></time><waveformID networkCode="CX" stationCode="PB03" channelCode="HHZ"/><filterID>ITAPER(4)&gt;&gt;BW(4,4,20)</filterID><methodID>AIC</methodID><horizontalSlowness><value>21.677825009270997</value></horizontalSlowness><backazimuth><value>215.75786344965798</value></backazimuth><phaseHint>P</phaseHint><evaluationMode>automatic</evaluationMode><comment><text>4.629579746426955</text><id>DFX:rectilinearity</id></comment><comment><text>9.099790713410124</text><id>SNR</id></comment></pick><pick publicID="de.gempa.tb1.Pick/20250413084144.031288.130146"><time><value>2025-04-13T08:41:30.01Z</value></time><waveformID networkCode="CX" stationCode="PB09" channelCode="HHZ"/><filterID>ITAPER(4)&gt;&gt;BW(4,4,20)</filterID><methodID>AIC</methodID><horizontalSlowness><value>16.84590964180648</value></horizontalSlowness><backazimuth><value>305.39467934038566</value></backazimuth><phaseHint>P</phaseHint><evaluationMode>automatic</evaluationMode><comment><text>13.031125918466412</text><id>DFX:rectilinearity</id></comment><comment><text>11.997864142314862</text><id>SNR</id></comment></pick><pick publicID="de.gempa.tb1.Pick/20250413084144.881683.130148"><time><value>2025-04-13T08:41:34.198393Z</value></time><waveformID networkCode="CX" stationCode="PB07" channelCode="HHZ"/><filterID>ITAPER(4)&gt;&gt;BW(4,4,20)</filterID><methodID>AIC</methodID><horizontalSlowness><value>18.214957830800312</value></horizontalSlowness><backazimuth><value>176.74681854810396</value></backazimuth><phaseHint>P</phaseHint><evaluationMode>automatic</evaluationMode><comment><text>123.65320608391252</text><id>DFX:rectilinearity</id></comment><comment><text>14.88088788818319</text><id>SNR</id></comment></pick><pick publicID="de.gempa.tb1.Pick/20250413084147.548658.130150"><time><value>2025-04-13T08:41:38.768393Z</value></time><waveformID networkCode="CX" stationCode="PB01" channelCode="HHZ"/><filterID>ITAPER(4)&gt;&gt;BW(4,4,20)</filterID><methodID>AIC</methodID><horizontalSlowness><value>19.578537124645283</value></horizontalSlowness><backazimuth><value>3.1810187959312373</value></backazimuth><phaseHint>P</phaseHint><evaluationMode>automatic</evaluationMode><comment><text>20.842917934016661</text><id>DFX:rectilinearity</id></comment><comment><text>9.023336181461943</text><id>SNR</id></comment></pick><pick publicID="de.gempa.tb1.Pick/20250413084148.648102.130152"><time><value>2025-04-13T08:41:42.96Z</value></time><waveformID networkCode="CX" stationCode="PB19" channelCode="HHN"/><filterID>ITAPER(2)&gt;&gt;BW(3,3,20)</filterID><methodID>L2-AIC-GRID</methodID><horizontalSlowness><value>20.31679295907852</value></horizontalSlowness><backazimuth><value>213.46970016564109</value></backazimuth><phaseHint>S</phaseHint><evaluationMode>automatic</evaluationMode><comment><text>74.20648985476025</text><id>DFX:rectilinearity</id></comment><comment><text>de.gempa.tb1.Pick/20250413084123.653095.130140</text><id>RefPickID</id></comment><comment><text>12.070962507099122</text><id>SNR</id></comment></pick><pick publicID="de.gempa.tb1.Pick/20250413084214.584548.130158"><time><value>2025-04-13T08:42:07.778393Z</value></time><waveformID networkCode="CX" stationCode="PB03" channelCode="HHN"/><filterID>ITAPER(2)&gt;&gt;BW(3,3,20)</filterID><methodID>L2-AIC-GRID</methodID><horizontalSlowness><value>17.46744829990708</value></horizontalSlowness><backazimuth><value>295.7554773464841</value></backazimuth><phaseHint>S</phaseHint><evaluationMode>automatic</evaluationMode><comment><text>21.765913939111204</text><id>DFX:rectilinearity</id></comment><comment><text>de.gempa.tb1.Pick/20250413084139.551937.130144</text><id>RefPickID</id></comment><comment><text>12.90287642118651</text><id>SNR</id></comment></pick><pick publicID="de.gempa.tb1.Pick/20250413084235.966075.130162"><time><value>2025-04-13T08:42:14.258393Z</value></time><waveformID networkCode="CX" stationCode="PB07" channelCode="HHN"/><filterID>ITAPER(2)&gt;&gt;BW(3,3,20)</filterID><methodID>L2-AIC-GRID</methodID><horizontalSlowness><value>22.32197415168699</value></horizontalSlowness><backazimuth><value>69.17354272616836</value></backazimuth><phaseHint>S</phaseHint><evaluationMode>automatic</evaluationMode><comment><text>651.4185028829776</text><id>DFX:rectilinearity</id></comment><comment><text>de.gempa.tb1.Pick/20250413084144.881683.130148</text><id>RefPickID</id></comment><comment><text>5.898901310242287</text><id>SNR</id></comment></pick><origin publicID="de.gempa.tb1.Origin/20250413084236.760773.105662"><time><value>2025-04-13T08:40:42.646962Z</value><uncertainty>1.2219741344451904</uncertainty></time><latitude><value>-24.24118423461914</value><uncertainty>15.137639045715332</uncertainty></latitude><longitude><value>-68.07137298583984</value><uncertainty>46.64656448364258</uncertainty></longitude><depth><value>225.13555908203125</value><uncertainty>29.09262275695801</uncertainty></depth><depthType>from location</depthType><methodID>LOCSAT</methodID><earthModelID>iasp91_scanloc</earthModelID><quality><associatedPhaseCount>9</associatedPhaseCount><usedPhaseCount>9</usedPhaseCount><associatedStationCount>6</associatedStationCount><usedStationCount>6</usedStationCount><depthPhaseCount>0</depthPhaseCount><standardError>0.3039751281683233</standardError><azimuthalGap>309.0953674316406</azimuthalGap><maximumDistance>3.4411003589630127</maximumDistance><minimumDistance>1.1636945009231567</minimumDistance><medianDistance>2.675666809082031</medianDistance></quality><uncertainty><minHorizontalUncertainty>15.931248664855957</minHorizontalUncertainty><maxHorizontalUncertainty>103.94750213623047</maxHorizontalUncertainty><azimuthMaxHorizontalUncertainty>74.01825714111328</azimuthMaxHorizontalUncertainty><preferredDescription>horizontal uncertainty</preferredDescription></uncertainty><evaluationMode>automatic</evaluationMode><evaluationStatus>confirmed</evaluationStatus><comment><text>0.12</text><id>mismatchScore</id></comment><comment><text>mismatchScore</text><id>scevalMethod</id></comment><arrival><pickID>de.gempa.tb1.Pick/20250413084123.653095.130140</pickID><phase>P</phase><azimuth>286.4775390625</azimuth><distance>1.1636945009231567</distance><timeResidual>-0.6689605712890625</timeResidual><timeUsed>true</timeUsed><horizontalSlownessUsed>false</horizontalSlownessUsed><backazimuthUsed>false</backazimuthUsed><weight>1</weight></arrival><arrival><pickID>de.gempa.tb1.Pick/20250413084130.652129.130142</pickID><phase>P</phase><azimuth>317.66595458984375</azimuth><distance>2.0576536655426025</distance><timeResidual>0.23856353759765625</timeResidual><timeUsed>true</timeUsed><horizontalSlownessUsed>false</horizontalSlownessUsed><backazimuthUsed>false</backazimuthUsed><weight>1</weight></arrival><arrival><pickID>de.gempa.tb1.Pick/20250413084139.551937.130144</pickID><phase>P</phase><azimuth>324.321533203125</azimuth><distance>2.675666809082031</distance><timeResidual>0.09861373901367188</timeResidual><timeUsed>true</timeUsed><horizontalSlownessUsed>false</horizontalSlownessUsed><backazimuthUsed>false</backazimuthUsed><weight>1</weight></arrival><arrival><pickID>de.gempa.tb1.Pick/20250413084144.031288.130146</pickID><phase>P</phase><azimuth>335.8679504394531</azimuth><distance>2.661623001098633</distance><timeResidual>0.03005218505859375</timeResidual><timeUsed>true</timeUsed><horizontalSlownessUsed>false</horizontalSlownessUsed><backazimuthUsed>false</backazimuthUsed><weight>1</weight></arrival><arrival><pickID>de.gempa.tb1.Pick/20250413084144.881683.130148</pickID><phase>P</phase><azimuth>325.89117431640625</azimuth><distance>3.010019540786743</distance><timeResidual>0.36751556396484375</timeResidual><timeUsed>true</timeUsed><horizontalSlownessUsed>false</horizontalSlownessUsed><backazimuthUsed>false</backazimuthUsed><weight>1</weight></arrival><arrival><pickID>de.gempa.tb1.Pick/20250413084147.548658.130150</pickID><phase>P</phase><azimuth>337.3821716308594</azimuth><distance>3.4411003589630127</distance><timeResidual>-0.05264663696289062</timeResidual><timeUsed>true</timeUsed><horizontalSlownessUsed>false</horizontalSlownessUsed><backazimuthUsed>false</backazimuthUsed><weight>1</weight></arrival><arrival><pickID>de.gempa.tb1.Pick/20250413084148.648102.130152</pickID><phase>S</phase><azimuth>286.4775390625</azimuth><distance>1.1636945009231567</distance><timeResidual>0.32183837890625</timeResidual><timeUsed>true</timeUsed><horizontalSlownessUsed>false</horizontalSlownessUsed><backazimuthUsed>false</backazimuthUsed><weight>1</weight></arrival><arrival><pickID>de.gempa.tb1.Pick/20250413084214.584548.130158</pickID><phase>S</phase><azimuth>324.321533203125</azimuth><distance>2.675666809082031</distance><timeResidual>-0.0697479248046875</timeResidual><timeUsed>true</timeUsed><horizontalSlownessUsed>false</horizontalSlownessUsed><backazimuthUsed>false</backazimuthUsed><weight>1</weight></arrival><arrival><pickID>de.gempa.tb1.Pick/20250413084235.966075.130162</pickID><phase>S</phase><azimuth>325.89117431640625</azimuth><distance>3.010019540786743</distance><timeResidual>-0.2650947570800781</timeResidual><timeUsed>true</timeUsed><horizontalSlownessUsed>false</horizontalSlownessUsed><backazimuthUsed>false</backazimuthUsed><weight>1</weight></arrival><magnitude publicID="de.gempa.tb1.Magnitude/20250413084240.936766.332932"><magnitude><value>3.2767948909192617</value></magnitude><type>M</type><methodID>weighted average</methodID><stationCount>4</stationCount></magnitude></origin><event publicID="gempa2025hhbp"><preferredOriginID>de.gempa.tb1.Origin/20250413084236.760773.105662</preferredOriginID><preferredMagnitudeID>de.gempa.tb1.Magnitude/20250413084240.936766.332932</preferredMagnitudeID><description><text>Chile-Argentina Border Region</text><type>region name</type></description><originReference>de.gempa.tb1.Origin/20250413084236.760773.105662</originReference></event></EventParameters></seiscomp>