<?xml version="1.0" encoding="UTF-8"?>
<seiscomp xmlns="http://geofon.gfz-potsdam.de/ns/seiscomp3-schema/0.13" version="0.13"><EventParameters><pick publicID="de.gempa.tb1.Pick/20250414210906.597512.141289"><time><value>2025-04-14T21:08:59.878393Z</value></time><waveformID networkCode="CX" stationCode="PB06" channelCode="HHZ"/><filterID>ITAPER(4)&gt;&gt;BW(4,4,20)</filterID><methodID>AIC</methodID><horizontalSlowness><value>12.399865344880611</value></horizontalSlowness><backazimuth><value>89.5058183877268</value></backazimuth><phaseHint>P</phaseHint><evaluationMode>automatic</evaluationMode><comment><text>73.69417782664704</text><id>DFX:rectilinearity</id></comment><comment><text>22.401661689141942</text><id>SNR</id></comment></pick><pick publicID="de.gempa.tb1.Pick/20250414210908.559431.141291"><time><value>2025-04-14T21:09:02.368394Z</value></time><waveformID networkCode="CX" stationCode="PB03" channelCode="HHZ"/><filterID>ITAPER(4)&gt;&gt;BW(4,4,20)</filterID><methodID>AIC</methodID><horizontalSlowness><value>16.62961667290692</value></horizontalSlowness><backazimuth><value>97.9830361497002</value></backazimuth><phaseHint>P</phaseHint><evaluationMode>automatic</evaluationMode><comment><text>80.74279549021958</text><id>DFX:rectilinearity</id></comment><comment><text>14.652054873027142</text><id>SNR</id></comment></pick><pick publicID="de.gempa.tb1.Pick/20250414210912.683308.141293"><time><value>2025-04-14T21:09:05.448393Z</value></time><waveformID networkCode="CX" stationCode="PB15" channelCode="HHZ"/><filterID>ITAPER(4)&gt;&gt;BW(4,4,20)</filterID><methodID>AIC</methodID><horizontalSlowness><value>21.68833110204726</value></horizontalSlowness><backazimuth><value>34.449009803284753</value></backazimuth><phaseHint>P</phaseHint><evaluationMode>automatic</evaluationMode><comment><text>752.8140903543105</text><id>DFX:rectilinearity</id></comment><comment><text>13.426859576660158</text><id>SNR</id></comment></pick><pick publicID="de.gempa.tb1.Pick/20250414210913.088258.141295"><time><value>2025-04-14T21:08:59.450001Z</value></time><waveformID networkCode="CX" stationCode="PB09" channelCode="HHZ"/><filterID>ITAPER(4)&gt;&gt;BW(4,4,20)</filterID><methodID>AIC</methodID><horizontalSlowness><value>21.167502002870275</value></horizontalSlowness><backazimuth><value>141.77317990482914</value></backazimuth><phaseHint>P</phaseHint><evaluationMode>automatic</evaluationMode><comment><text>232.8043070745936</text><id>DFX:rectilinearity</id></comment><comment><text>61.58081530071325</text><id>SNR</id></comment></pick><pick publicID="de.gempa.tb1.Pick/20250414210918.593261.141297"><time><value>2025-04-14T21:09:13.378391Z</value></time><waveformID networkCode="CX" stationCode="PB01" channelCode="HHZ"/><filterID>ITAPER(4)&gt;&gt;BW(4,4,20)</filterID><methodID>AIC</methodID><horizontalSlowness><value>23.180789467706255</value></horizontalSlowness><backazimuth><value>352.97178080333566</value></backazimuth><phaseHint>P</phaseHint><evaluationMode>automatic</evaluationMode><comment><text>31.568907405812254</text><id>DFX:rectilinearity</id></comment><comment><text>34.83481016858539</text><id>SNR</id></comment></pick><pick publicID="de.gempa.tb1.Pick/20250414210919.587354.141299"><time><value>2025-04-14T21:09:12.838393Z</value></time><waveformID networkCode="CX" stationCode="PB02" channelCode="HHZ"/><filterID>ITAPER(4)&gt;&gt;BW(4,4,20)</filterID><methodID>AIC</methodID><horizontalSlowness><value>13.26070280574744</value></horizontalSlowness><backazimuth><value>138.08931635620246</value></backazimuth><phaseHint>P</phaseHint><evaluationMode>automatic</evaluationMode><comment><text>57.37707462010638</text><id>DFX:rectilinearity</id></comment><comment><text>28.194175633765973</text><id>SNR</id></comment></pick><pick publicID="de.gempa.tb1.Pick/20250414210923.527483.141301"><time><value>2025-04-14T21:09:16.21Z</value></time><waveformID networkCode="CX" stationCode="PB19" channelCode="HHZ"/><filterID>ITAPER(4)&gt;&gt;BW(4,4,20)</filterID><methodID>AIC</methodID><horizontalSlowness><value>18.772095014919834</value></horizontalSlowness><backazimuth><value>273.3322150328397</value></backazimuth><phaseHint>P</phaseHint><evaluationMode>automatic</evaluationMode><comment><text>21.779388107644461</text><id>DFX:rectilinearity</id></comment><comment><text>18.382833004296533</text><id>SNR</id></comment></pick><pick publicID="de.gempa.tb1.Pick/20250414210928.174973.141303"><time><value>2025-04-14T21:09:20.21Z</value></time><waveformID networkCode="CX" stationCode="PB10" channelCode="HHZ"/><filterID>ITAPER(4)&gt;&gt;BW(4,4,20)</filterID><methodID>AIC</methodID><horizontalSlowness><value>13.336490829577729</value></horizontalSlowness><backazimuth><value>34.24633333882957</value></backazimuth><phaseHint>P</phaseHint><evaluationMode>automatic</evaluationMode><comment><text>100.54849175439121</text><id>DFX:rectilinearity</id></comment><comment><text>18.834781564077588</text><id>SNR</id></comment></pick><origin publicID="de.gempa.tb1.Origin/20250414210928.179375.151081"><time><value>2025-04-14T21:08:47.345083Z</value><uncertainty>1.2733927965164185</uncertainty></time><latitude><value>-22.360862731933594</value><uncertainty>3.0575661659240723</uncertainty></latitude><longitude><value>-68.9751205444336</value><uncertainty>10.512592315673828</uncertainty></longitude><depth><value>3.0414628982543945</value><uncertainty>7.743051528930664</uncertainty></depth><depthType>from location</depthType><methodID>LOCSAT</methodID><earthModelID>iasp91_scanloc</earthModelID><quality><associatedPhaseCount>8</associatedPhaseCount><usedPhaseCount>8</usedPhaseCount><associatedStationCount>8</associatedStationCount><usedStationCount>8</usedStationCount><depthPhaseCount>0</depthPhaseCount><standardError>0.22131629857622237</standardError><azimuthalGap>210.70413208007812</azimuthalGap><maximumDistance>1.8532737493515015</maximumDistance><minimumDistance>0.6138554811477661</minimumDistance><medianDistance>1.3436774015426636</medianDistance></quality><uncertainty><minHorizontalUncertainty>6.547610282897949</minHorizontalUncertainty><maxHorizontalUncertainty>22.54582977294922</maxHorizontalUncertainty><azimuthMaxHorizontalUncertainty>90.91385650634766</azimuthMaxHorizontalUncertainty><preferredDescription>horizontal uncertainty</preferredDescription></uncertainty><evaluationMode>automatic</evaluationMode><evaluationStatus>confirmed</evaluationStatus><comment><text>0.10</text><id>mismatchScore</id></comment><comment><text>mismatchScore</text><id>scevalMethod</id></comment><arrival><pickID>de.gempa.tb1.Pick/20250414210906.597512.141289</pickID><phase>P</phase><azimuth>237.99609375</azimuth><distance>0.649821937084198</distance><timeResidual>0.06043720245361328</timeResidual><timeUsed>true</timeUsed><horizontalSlownessUsed>false</horizontalSlownessUsed><backazimuthUsed>false</backazimuthUsed><weight>1</weight></arrival><arrival><pickID>de.gempa.tb1.Pick/20250414210908.559431.141291</pickID><phase>P</phase><azimuth>293.1800231933594</azimuth><distance>0.7851427793502808</distance><timeResidual>-0.04387855529785156</timeResidual><timeUsed>true</timeUsed><horizontalSlownessUsed>false</horizontalSlownessUsed><backazimuthUsed>false</backazimuthUsed><weight>1</weight></arrival><arrival><pickID>de.gempa.tb1.Pick/20250414210912.683308.141293</pickID><phase>P</phase><azimuth>208.38336181640625</azimuth><distance>0.9596002101898193</distance><timeResidual>-0.3062582015991211</timeResidual><timeUsed>true</timeUsed><horizontalSlownessUsed>false</horizontalSlownessUsed><backazimuthUsed>false</backazimuthUsed><weight>1</weight></arrival><arrival><pickID>de.gempa.tb1.Pick/20250414210913.088258.141295</pickID><phase>P</phase><azimuth>336.175537109375</azimuth><distance>0.6138554811477661</distance><timeResidual>0.319793701171875</timeResidual><timeUsed>true</timeUsed><horizontalSlownessUsed>false</horizontalSlownessUsed><backazimuthUsed>false</backazimuthUsed><weight>1</weight></arrival><arrival><pickID>de.gempa.tb1.Pick/20250414210918.593261.141297</pickID><phase>P</phase><azimuth>339.9377136230469</azimuth><distance>1.395062804222107</distance><timeResidual>-0.3206644058227539</timeResidual><timeUsed>true</timeUsed><horizontalSlownessUsed>false</horizontalSlownessUsed><backazimuthUsed>false</backazimuthUsed><weight>1</weight></arrival><arrival><pickID>de.gempa.tb1.Pick/20250414210919.587354.141299</pickID><phase>P</phase><azimuth>320.2785949707031</azimuth><distance>1.3436774015426636</distance><timeResidual>-0.10154438018798828</timeResidual><timeUsed>true</timeUsed><horizontalSlownessUsed>false</horizontalSlownessUsed><backazimuthUsed>false</backazimuthUsed><weight>1</weight></arrival><arrival><pickID>de.gempa.tb1.Pick/20250414210923.527483.141301</pickID><phase>P</phase><azimuth>190.641845703125</azimuth><distance>1.5639530420303345</distance><timeResidual>0.18736553192138672</timeResidual><timeUsed>true</timeUsed><horizontalSlownessUsed>false</horizontalSlownessUsed><backazimuthUsed>false</backazimuthUsed><weight>1</weight></arrival><arrival><pickID>de.gempa.tb1.Pick/20250414210928.174973.141303</pickID><phase>P</phase><azimuth>231.45396423339844</azimuth><distance>1.8532737493515015</distance><timeResidual>0.20485210418701172</timeResidual><timeUsed>true</timeUsed><horizontalSlownessUsed>false</horizontalSlownessUsed><backazimuthUsed>false</backazimuthUsed><weight>1</weight></arrival><magnitude publicID="de.gempa.tb1.Magnitude/20250414210928.184123.541532"><magnitude><value>2.322945214789921</value></magnitude><type>M</type><methodID>weighted average</methodID><stationCount>7</stationCount></magnitude></origin><event publicID="gempa2025hjwp"><preferredOriginID>de.gempa.tb1.Origin/20250414210928.179375.151081</preferredOriginID><preferredMagnitudeID>de.gempa.tb1.Magnitude/20250414210928.184123.541532</preferredMagnitudeID><description><text>Northern Chile</text><type>region name</type></description><originReference>de.gempa.tb1.Origin/20250414210928.179375.151081</originReference></event></EventParameters></seiscomp>