<?xml version="1.0" encoding="UTF-8"?>
<seiscomp xmlns="http://geofon.gfz-potsdam.de/ns/seiscomp3-schema/0.13" version="0.13"><EventParameters><pick publicID="de.gempa.tb1.Pick/20250415080709.687156.118196"><time><value>2025-04-15T08:07:01.16Z</value></time><waveformID networkCode="CX" stationCode="PSGCX" channelCode="HHZ"/><filterID>ITAPER(4)&gt;&gt;BW(4,4,20)</filterID><methodID>AIC</methodID><horizontalSlowness><value>23.39524259905229</value></horizontalSlowness><backazimuth><value>75.51315061629752</value></backazimuth><phaseHint>P</phaseHint><evaluationMode>automatic</evaluationMode><comment><text>12.02124267279824</text><id>DFX:rectilinearity</id></comment><comment><text>17.95228057670779</text><id>SNR</id></comment></pick><pick publicID="de.gempa.tb1.Pick/20250415080718.591771.118198"><time><value>2025-04-15T08:07:12.308393Z</value></time><waveformID networkCode="CX" stationCode="PB01" channelCode="HHZ"/><filterID>ITAPER(4)&gt;&gt;BW(4,4,20)</filterID><methodID>AIC</methodID><horizontalSlowness><value>16.524420780877815</value></horizontalSlowness><backazimuth><value>349.7300625572193</value></backazimuth><phaseHint>P</phaseHint><evaluationMode>automatic</evaluationMode><comment><text>6.639872750341701</text><id>DFX:rectilinearity</id></comment><comment><text>32.018598307227</text><id>SNR</id></comment></pick><pick publicID="de.gempa.tb1.Pick/20250415080719.662396.118200"><time><value>2025-04-15T08:07:11.18Z</value></time><waveformID networkCode="CX" stationCode="PSGCX" channelCode="HHN"/><filterID>ITAPER(2)&gt;&gt;BW(3,3,20)</filterID><methodID>L2-AIC-GRID</methodID><horizontalSlowness><value>15.7723856104661</value></horizontalSlowness><backazimuth><value>135.4408517788223</value></backazimuth><phaseHint>S</phaseHint><evaluationMode>automatic</evaluationMode><comment><text>29.364675603417425</text><id>DFX:rectilinearity</id></comment><comment><text>de.gempa.tb1.Pick/20250415080709.687156.118196</text><id>RefPickID</id></comment><comment><text>12.48422147364185</text><id>SNR</id></comment></pick><pick publicID="de.gempa.tb1.Pick/20250415080720.720942.118201"><time><value>2025-04-15T08:07:12.448394Z</value></time><waveformID networkCode="CX" stationCode="PB08" channelCode="HHZ"/><filterID>ITAPER(4)&gt;&gt;BW(4,4,20)</filterID><methodID>AIC</methodID><horizontalSlowness><value>15.350769742149684</value></horizontalSlowness><backazimuth><value>88.63464156071348</value></backazimuth><phaseHint>P</phaseHint><evaluationMode>automatic</evaluationMode><comment><text>13.519776357432294</text><id>DFX:rectilinearity</id></comment><comment><text>12.452275561609305</text><id>SNR</id></comment></pick><pick publicID="de.gempa.tb1.Pick/20250415080725.54347.118205"><time><value>2025-04-15T08:07:17.398393Z</value></time><waveformID networkCode="CX" stationCode="PB02" channelCode="HHZ"/><filterID>ITAPER(4)&gt;&gt;BW(4,4,20)</filterID><methodID>AIC</methodID><horizontalSlowness><value>20.428872403135447</value></horizontalSlowness><backazimuth><value>112.46938185302623</value></backazimuth><phaseHint>P</phaseHint><evaluationMode>automatic</evaluationMode><comment><text>17.048354066229749</text><id>DFX:rectilinearity</id></comment><comment><text>7.681770215736828</text><id>SNR</id></comment></pick><pick publicID="de.gempa.tb1.Pick/20250415080732.411379.118210"><time><value>2025-04-15T08:07:20.888396Z</value></time><waveformID networkCode="CX" stationCode="PB07" channelCode="HHZ"/><filterID>ITAPER(4)&gt;&gt;BW(4,4,20)</filterID><methodID>AIC</methodID><horizontalSlowness><value>19.831767622030139</value></horizontalSlowness><backazimuth><value>88.93702088156758</value></backazimuth><phaseHint>P</phaseHint><evaluationMode>automatic</evaluationMode><comment><text>186.80240589476168</text><id>DFX:rectilinearity</id></comment><comment><text>11.202696886116208</text><id>SNR</id></comment></pick><pick publicID="de.gempa.tb1.Pick/20250415080736.678139.118212"><time><value>2025-04-15T08:07:23.658394Z</value></time><waveformID networkCode="CX" stationCode="PB08" channelCode="HHN"/><filterID>ITAPER(2)&gt;&gt;BW(3,3,20)</filterID><methodID>L2-AIC-GRID</methodID><horizontalSlowness><value>14.905127841732053</value></horizontalSlowness><backazimuth><value>206.96634694720325</value></backazimuth><phaseHint>S</phaseHint><evaluationMode>automatic</evaluationMode><comment><text>74.18012040797625</text><id>DFX:rectilinearity</id></comment><comment><text>de.gempa.tb1.Pick/20250415080720.720942.118201</text><id>RefPickID</id></comment><comment><text>11.974308896655147</text><id>SNR</id></comment></pick><pick publicID="de.gempa.tb1.Pick/20250415080738.524304.118215"><time><value>2025-04-15T08:07:32.828393Z</value></time><waveformID networkCode="CX" stationCode="PB02" channelCode="HHN"/><filterID>ITAPER(2)&gt;&gt;BW(3,3,20)</filterID><methodID>L2-AIC-GRID</methodID><horizontalSlowness><value>21.983101226288149</value></horizontalSlowness><backazimuth><value>338.2841897280864</value></backazimuth><phaseHint>S</phaseHint><evaluationMode>automatic</evaluationMode><comment><text>109.86536471658617</text><id>DFX:rectilinearity</id></comment><comment><text>de.gempa.tb1.Pick/20250415080725.54347.118205</text><id>RefPickID</id></comment><comment><text>7.549586875544288</text><id>SNR</id></comment></pick><origin publicID="de.gempa.tb1.Origin/20250415080740.546019.58403"><time><value>2025-04-15T08:06:52.386414Z</value><uncertainty>0.5048030614852905</uncertainty></time><latitude><value>-20.132587432861328</value><uncertainty>1.9798684120178223</uncertainty></latitude><longitude><value>-70.1797103881836</value><uncertainty>3.87005352973938</uncertainty></longitude><depth><value>0</value></depth><depthType>operator assigned</depthType><methodID>LOCSAT</methodID><earthModelID>iasp91_scanloc</earthModelID><quality><associatedPhaseCount>8</associatedPhaseCount><usedPhaseCount>8</usedPhaseCount><associatedStationCount>5</associatedStationCount><usedStationCount>5</usedStationCount><depthPhaseCount>0</depthPhaseCount><standardError>1.2782065280430437</standardError><azimuthalGap>195.49068403244019</azimuthalGap><maximumDistance>1.6096707582473755</maximumDistance><minimumDistance>0.5353173017501831</minimumDistance><medianDistance>1.1142818927764893</medianDistance></quality><uncertainty><minHorizontalUncertainty>4.238626003265381</minHorizontalUncertainty><maxHorizontalUncertainty>8.308631896972656</maxHorizontalUncertainty><azimuthMaxHorizontalUncertainty>87.72493743896484</azimuthMaxHorizontalUncertainty><preferredDescription>horizontal uncertainty</preferredDescription></uncertainty><evaluationMode>automatic</evaluationMode><evaluationStatus>confirmed</evaluationStatus><comment><text>0.28</text><id>mismatchScore</id></comment><comment><text>mismatchScore</text><id>scevalMethod</id></comment><arrival><pickID>de.gempa.tb1.Pick/20250415080709.687156.118196</pickID><phase>P</phase><azimuth>5.727378368377686</azimuth><distance>0.5353173017501831</distance><timeResidual>-1.495553970336914</timeResidual><timeUsed>true</timeUsed><horizontalSlownessUsed>false</horizontalSlownessUsed><backazimuthUsed>false</backazimuthUsed><weight>1</weight></arrival><arrival><pickID>de.gempa.tb1.Pick/20250415080718.591771.118198</pickID><phase>P</phase><azimuth>144.52157592773438</azimuth><distance>1.1142818927764893</distance><timeResidual>-1.4511165618896484</timeResidual><timeUsed>true</timeUsed><horizontalSlownessUsed>false</horizontalSlownessUsed><backazimuthUsed>false</backazimuthUsed><weight>1</weight></arrival><arrival><pickID>de.gempa.tb1.Pick/20250415080719.662396.118200</pickID><phase>S</phase><azimuth>5.727378368377686</azimuth><distance>0.5353173017501831</distance><timeResidual>1.0672130584716797</timeResidual><timeUsed>true</timeUsed><horizontalSlownessUsed>false</horizontalSlownessUsed><backazimuthUsed>false</backazimuthUsed><weight>1</weight></arrival><arrival><pickID>de.gempa.tb1.Pick/20250415080720.720942.118201</pickID><phase>P</phase><azimuth>90.68000793457031</azimuth><distance>0.9643770456314087</distance><timeResidual>1.5632944107055664</timeResidual><timeUsed>true</timeUsed><horizontalSlownessUsed>false</horizontalSlownessUsed><backazimuthUsed>false</backazimuthUsed><weight>1</weight></arrival><arrival><pickID>de.gempa.tb1.Pick/20250415080725.54347.118205</pickID><phase>P</phase><azimuth>167.37930297851562</azimuth><distance>1.2106506824493408</distance><timeResidual>1.7906837463378906</timeResidual><timeUsed>true</timeUsed><horizontalSlownessUsed>false</horizontalSlownessUsed><backazimuthUsed>false</backazimuthUsed><weight>1</weight></arrival><arrival><pickID>de.gempa.tb1.Pick/20250415080732.411379.118210</pickID><phase>P</phase><azimuth>170.2366943359375</azimuth><distance>1.6096707582473755</distance><timeResidual>-1.1725292205810547</timeResidual><timeUsed>true</timeUsed><horizontalSlownessUsed>false</horizontalSlownessUsed><backazimuthUsed>false</backazimuthUsed><weight>1</weight></arrival><arrival><pickID>de.gempa.tb1.Pick/20250415080736.678139.118212</pickID><phase>S</phase><azimuth>90.68000793457031</azimuth><distance>0.9643770456314087</distance><timeResidual>-0.6600284576416016</timeResidual><timeUsed>true</timeUsed><horizontalSlownessUsed>false</horizontalSlownessUsed><backazimuthUsed>false</backazimuthUsed><weight>1</weight></arrival><arrival><pickID>de.gempa.tb1.Pick/20250415080738.524304.118215</pickID><phase>S</phase><azimuth>167.37930297851562</azimuth><distance>1.2106506824493408</distance><timeResidual>0.35809326171875</timeResidual><timeUsed>true</timeUsed><horizontalSlownessUsed>false</horizontalSlownessUsed><backazimuthUsed>false</backazimuthUsed><weight>1</weight></arrival><magnitude publicID="de.gempa.tb1.Magnitude/20250415080740.551023.108465"><magnitude><value>2.076736641412817</value></magnitude><type>M</type><methodID>weighted average</methodID><stationCount>5</stationCount></magnitude></origin><event publicID="gempa2025hksn"><preferredOriginID>de.gempa.tb1.Origin/20250415080740.546019.58403</preferredOriginID><preferredMagnitudeID>de.gempa.tb1.Magnitude/20250415080740.551023.108465</preferredMagnitudeID><description><text>Near Coast of Northern Chile</text><type>region name</type></description><originReference>de.gempa.tb1.Origin/20250415080740.546019.58403</originReference></event></EventParameters></seiscomp>