<?xml version="1.0" encoding="UTF-8"?>
<seiscomp xmlns="http://geofon.gfz-potsdam.de/ns/seiscomp3-schema/0.13" version="0.13"><EventParameters><pick publicID="de.gempa.tb1.Pick/20250413172427.2102.132640"><time><value>2025-04-13T17:24:21.79Z</value></time><waveformID networkCode="CX" stationCode="PB10" channelCode="HHZ"/><filterID>ITAPER(4)&gt;&gt;BW(4,4,20)</filterID><methodID>AIC</methodID><horizontalSlowness><value>16.741410224636034</value></horizontalSlowness><backazimuth><value>99.77897362177538</value></backazimuth><phaseHint>P</phaseHint><evaluationMode>automatic</evaluationMode><comment><text>118.86523935776665</text><id>DFX:rectilinearity</id></comment><comment><text>15.082737341285705</text><id>SNR</id></comment></pick><pick publicID="de.gempa.tb1.Pick/20250413172429.617312.132642"><time><value>2025-04-13T17:24:24.328393Z</value></time><waveformID networkCode="CX" stationCode="PB15" channelCode="HHZ"/><filterID>ITAPER(4)&gt;&gt;BW(4,4,20)</filterID><methodID>AIC</methodID><horizontalSlowness><value>21.262159377731425</value></horizontalSlowness><backazimuth><value>78.53966587930229</value></backazimuth><phaseHint>P</phaseHint><evaluationMode>automatic</evaluationMode><comment><text>1103.8914650200056</text><id>DFX:rectilinearity</id></comment><comment><text>15.64050675578639</text><id>SNR</id></comment></pick><pick publicID="de.gempa.tb1.Pick/20250413172431.189172.132644"><time><value>2025-04-13T17:24:25.06Z</value></time><waveformID networkCode="CX" stationCode="PB10" channelCode="HHN"/><filterID>ITAPER(2)&gt;&gt;BW(3,3,20)</filterID><methodID>L2-AIC-GRID</methodID><horizontalSlowness><value>20.698245532506505</value></horizontalSlowness><backazimuth><value>106.81791577996366</value></backazimuth><phaseHint>S</phaseHint><evaluationMode>automatic</evaluationMode><comment><text>229.9868442910777</text><id>DFX:rectilinearity</id></comment><comment><text>de.gempa.tb1.Pick/20250413172427.2102.132640</text><id>RefPickID</id></comment><comment><text>9.003528502156156</text><id>SNR</id></comment></pick><pick publicID="de.gempa.tb1.Pick/20250413172433.515967.132645"><time><value>2025-04-13T17:24:29.26Z</value></time><waveformID networkCode="CX" stationCode="PB19" channelCode="HHZ"/><filterID>ITAPER(4)&gt;&gt;BW(4,4,20)</filterID><methodID>AIC</methodID><horizontalSlowness><value>10.963695691647828</value></horizontalSlowness><backazimuth><value>314.8229563012414</value></backazimuth><phaseHint>P</phaseHint><evaluationMode>automatic</evaluationMode><comment><text>86.58804017723553</text><id>DFX:rectilinearity</id></comment><comment><text>20.342741340640654</text><id>SNR</id></comment></pick><pick publicID="de.gempa.tb1.Pick/20250413172433.64071.132647"><time><value>2025-04-13T17:24:28.758393Z</value></time><waveformID networkCode="CX" stationCode="PB06" channelCode="HHZ"/><filterID>ITAPER(4)&gt;&gt;BW(4,4,20)</filterID><methodID>AIC</methodID><horizontalSlowness><value>10.236488836129107</value></horizontalSlowness><backazimuth><value>184.96130181513496</value></backazimuth><phaseHint>P</phaseHint><evaluationMode>automatic</evaluationMode><comment><text>157.41488882413233</text><id>DFX:rectilinearity</id></comment><comment><text>22.033828799217858</text><id>SNR</id></comment></pick><pick publicID="de.gempa.tb1.Pick/20250413172445.572736.132651"><time><value>2025-04-13T17:24:38.058393Z</value></time><waveformID networkCode="CX" stationCode="PB03" channelCode="HHZ"/><filterID>ITAPER(4)&gt;&gt;BW(4,4,20)</filterID><methodID>AIC</methodID><horizontalSlowness><value>11.731925571274887</value></horizontalSlowness><backazimuth><value>182.89404262857639</value></backazimuth><phaseHint>P</phaseHint><evaluationMode>automatic</evaluationMode><comment><text>50.15729162146485</text><id>DFX:rectilinearity</id></comment><comment><text>20.133022274914428</text><id>SNR</id></comment></pick><pick publicID="de.gempa.tb1.Pick/20250413172454.563782.132655"><time><value>2025-04-13T17:24:49.678391Z</value></time><waveformID networkCode="CX" stationCode="PB02" channelCode="HHZ"/><filterID>ITAPER(4)&gt;&gt;BW(4,4,20)</filterID><methodID>AIC</methodID><horizontalSlowness><value>8.551584299317566</value></horizontalSlowness><backazimuth><value>168.38409777442237</value></backazimuth><phaseHint>P</phaseHint><evaluationMode>automatic</evaluationMode><comment><text>56.25718717965883</text><id>DFX:rectilinearity</id></comment><comment><text>13.865477711705337</text><id>SNR</id></comment></pick><pick publicID="de.gempa.tb1.Pick/20250413172459.574929.132658"><time><value>2025-04-13T17:24:54.948393Z</value></time><waveformID networkCode="CX" stationCode="PB01" channelCode="HHZ"/><filterID>ITAPER(4)&gt;&gt;BW(4,4,20)</filterID><methodID>AIC</methodID><horizontalSlowness><value>15.470391774623982</value></horizontalSlowness><backazimuth><value>208.6281829170847</value></backazimuth><phaseHint>P</phaseHint><evaluationMode>automatic</evaluationMode><comment><text>22.72534186415878</text><id>DFX:rectilinearity</id></comment><comment><text>39.47201441822326</text><id>SNR</id></comment></pick><pick publicID="de.gempa.tb1.Pick/20250413172502.183733.132661"><time><value>2025-04-13T17:24:45.34Z</value></time><waveformID networkCode="CX" stationCode="PB09" channelCode="HHZ"/><filterID>ITAPER(4)&gt;&gt;BW(4,4,20)</filterID><methodID>AIC</methodID><horizontalSlowness><value>22.269150042094527</value></horizontalSlowness><backazimuth><value>176.9512522744945</value></backazimuth><phaseHint>P</phaseHint><evaluationMode>automatic</evaluationMode><comment><text>36.78539541416226</text><id>DFX:rectilinearity</id></comment><comment><text>14.490198003914305</text><id>SNR</id></comment></pick><pick publicID="de.gempa.tb1.Pick/20250413172508.824403.132666"><time><value>2025-04-13T17:24:43.018391Z</value></time><waveformID networkCode="CX" stationCode="PB07" channelCode="HHZ"/><filterID>ITAPER(4)&gt;&gt;BW(4,4,20)</filterID><methodID>AIC</methodID><horizontalSlowness><value>16.946162837291666</value></horizontalSlowness><backazimuth><value>195.23077215972623</value></backazimuth><phaseHint>P</phaseHint><evaluationMode>automatic</evaluationMode><comment><text>443.18557077345554</text><id>DFX:rectilinearity</id></comment><comment><text>20.196477803119478</text><id>SNR</id></comment></pick><origin publicID="de.gempa.tb1.Origin/20250413172508.983316.115532"><time><value>2025-04-13T17:24:12.414683Z</value><uncertainty>0.4014970660209656</uncertainty></time><latitude><value>-23.434301376342773</value><uncertainty>4.1236681938171387</uncertainty></latitude><longitude><value>-70.11063385009766</value><uncertainty>2.602271556854248</uncertainty></longitude><depth><value>0</value></depth><depthType>operator assigned</depthType><methodID>LOCSAT</methodID><earthModelID>iasp91_scanloc</earthModelID><quality><associatedPhaseCount>10</associatedPhaseCount><usedPhaseCount>10</usedPhaseCount><associatedStationCount>9</associatedStationCount><usedStationCount>9</usedStationCount><depthPhaseCount>0</depthPhaseCount><standardError>0.8934375471450003</standardError><azimuthalGap>136.8803253173828</azimuthalGap><maximumDistance>2.448657751083374</maximumDistance><minimumDistance>0.4147241711616516</minimumDistance><medianDistance>1.4182461500167847</medianDistance></quality><uncertainty><minHorizontalUncertainty>4.907689571380615</minHorizontalUncertainty><maxHorizontalUncertainty>9.2357816696167</maxHorizontalUncertainty><azimuthMaxHorizontalUncertainty>160.13427734375</azimuthMaxHorizontalUncertainty><preferredDescription>horizontal uncertainty</preferredDescription></uncertainty><evaluationMode>automatic</evaluationMode><evaluationStatus>confirmed</evaluationStatus><comment><text>0.00</text><id>mismatchScore</id></comment><comment><text>mismatchScore</text><id>scevalMethod</id></comment><arrival><pickID>de.gempa.tb1.Pick/20250413172427.2102.132640</pickID><phase>P</phase><azimuth>258.9639892578125</azimuth><distance>0.4147241711616516</distance><timeResidual>1.4209322929382324</timeResidual><timeUsed>true</timeUsed><horizontalSlownessUsed>false</horizontalSlownessUsed><backazimuthUsed>false</backazimuthUsed><weight>1</weight></arrival><arrival><pickID>de.gempa.tb1.Pick/20250413172429.617312.132642</pickID><phase>P</phase><azimuth>69.19532775878906</azimuth><distance>0.6296125054359436</distance><timeResidual>-0.16249942779541016</timeResidual><timeUsed>true</timeUsed><horizontalSlownessUsed>false</horizontalSlownessUsed><backazimuthUsed>false</backazimuthUsed><weight>1</weight></arrival><arrival><pickID>de.gempa.tb1.Pick/20250413172431.189172.132644</pickID><phase>S</phase><azimuth>258.9639892578125</azimuth><distance>0.4147241711616516</distance><timeResidual>-1.0850896835327148</timeResidual><timeUsed>true</timeUsed><horizontalSlownessUsed>false</horizontalSlownessUsed><backazimuthUsed>false</backazimuthUsed><weight>1</weight></arrival><arrival><pickID>de.gempa.tb1.Pick/20250413172433.515967.132645</pickID><phase>P</phase><azimuth>122.0836639404297</azimuth><distance>0.885750949382782</distance><timeResidual>-0.1427135467529297</timeResidual><timeUsed>true</timeUsed><horizontalSlownessUsed>false</horizontalSlownessUsed><backazimuthUsed>false</backazimuthUsed><weight>1</weight></arrival><arrival><pickID>de.gempa.tb1.Pick/20250413172433.64071.132647</pickID><phase>P</phase><azimuth>34.48841857910156</azimuth><distance>0.8786211013793945</distance><timeResidual>-0.5090818405151367</timeResidual><timeUsed>true</timeUsed><horizontalSlownessUsed>false</horizontalSlownessUsed><backazimuthUsed>false</backazimuthUsed><weight>1</weight></arrival><arrival><pickID>de.gempa.tb1.Pick/20250413172445.572736.132651</pickID><phase>P</phase><azimuth>13.526975631713867</azimuth><distance>1.4182461500167847</distance><timeResidual>-1.396388053894043</timeResidual><timeUsed>true</timeUsed><horizontalSlownessUsed>false</horizontalSlownessUsed><backazimuthUsed>false</backazimuthUsed><weight>1</weight></arrival><arrival><pickID>de.gempa.tb1.Pick/20250413172454.563782.132655</pickID><phase>P</phase><azimuth>5.433011531829834</azimuth><distance>2.1138391494750977</distance><timeResidual>0.649500846862793</timeResidual><timeUsed>true</timeUsed><horizontalSlownessUsed>false</horizontalSlownessUsed><backazimuthUsed>false</backazimuthUsed><weight>1</weight></arrival><arrival><pickID>de.gempa.tb1.Pick/20250413172459.574929.132658</pickID><phase>P</phase><azimuth>13.757929801940918</azimuth><distance>2.448657751083374</distance><timeResidual>1.311161994934082</timeResidual><timeUsed>true</timeUsed><horizontalSlownessUsed>false</horizontalSlownessUsed><backazimuthUsed>false</backazimuthUsed><weight>1</weight></arrival><arrival><pickID>de.gempa.tb1.Pick/20250413172502.183733.132661</pickID><phase>P</phase><azimuth>26.38319969177246</azimuth><distance>1.8170697689056396</distance><timeResidual>0.3960123062133789</timeResidual><timeUsed>true</timeUsed><horizontalSlownessUsed>false</horizontalSlownessUsed><backazimuthUsed>false</backazimuthUsed><weight>1</weight></arrival><arrival><pickID>de.gempa.tb1.Pick/20250413172508.824403.132666</pickID><phase>P</phase><azimuth>7.002470016479492</azimuth><distance>1.712158441543579</distance><timeResidual>-0.4818487167358398</timeResidual><timeUsed>true</timeUsed><horizontalSlownessUsed>false</horizontalSlownessUsed><backazimuthUsed>false</backazimuthUsed><weight>1</weight></arrival><magnitude publicID="de.gempa.tb1.Magnitude/20250413172508.988902.382559"><magnitude><value>2.5892111000681726</value></magnitude><type>M</type><methodID>weighted average</methodID><stationCount>7</stationCount></magnitude></origin><event publicID="gempa2025hhtb"><preferredOriginID>de.gempa.tb1.Origin/20250413172508.983316.115532</preferredOriginID><preferredMagnitudeID>de.gempa.tb1.Magnitude/20250413172508.988902.382559</preferredMagnitudeID><description><text>Near Coast of Northern Chile</text><type>region name</type></description><originReference>de.gempa.tb1.Origin/20250413172508.983316.115532</originReference></event></EventParameters></seiscomp>