<?xml version="1.0" encoding="UTF-8"?>
<seiscomp xmlns="http://geofon.gfz-potsdam.de/ns/seiscomp3-schema/0.13" version="0.13"><EventParameters><pick publicID="de.gempa.tb1.Pick/20250412202304.492737.189094"><time><value>2025-04-12T20:22:58.4175Z</value></time><waveformID networkCode="SX" stationCode="WERN" channelCode="HHZ"/><filterID>ITAPER(2)&gt;&gt;BW(3,3,20)</filterID><methodID>AIC</methodID><horizontalSlowness><value>23.10676422798402</value></horizontalSlowness><backazimuth><value>72.38971708341892</value></backazimuth><phaseHint>P</phaseHint><evaluationMode>automatic</evaluationMode><comment><text>19.31855621363238</text><id>DFX:rectilinearity</id></comment></pick><pick publicID="de.gempa.tb1.Pick/20250412202307.431639.189098"><time><value>2025-04-12T20:22:59.67Z</value></time><waveformID networkCode="SX" stationCode="TANN" channelCode="HHZ"/><filterID>ITAPER(2)&gt;&gt;BW(3,3,20)</filterID><methodID>AIC</methodID><horizontalSlowness><value>17.826861002989123</value></horizontalSlowness><backazimuth><value>311.0820503673649</value></backazimuth><phaseHint>P</phaseHint><evaluationMode>automatic</evaluationMode><comment><text>2.4452186804375216</text><id>DFX:rectilinearity</id></comment></pick><pick publicID="de.gempa.tb1.Pick/20250412202307.446957.189102"><time><value>2025-04-12T20:23:00.3Z</value></time><waveformID networkCode="SX" stationCode="ROHR" channelCode="HHZ"/><filterID>ITAPER(2)&gt;&gt;BW(3,3,20)</filterID><methodID>AIC</methodID><horizontalSlowness><value>2.0930159500730885</value></horizontalSlowness><backazimuth><value>100.87186617835573</value></backazimuth><phaseHint>P</phaseHint><evaluationMode>automatic</evaluationMode><comment><text>17.433756721305176</text><id>DFX:rectilinearity</id></comment></pick><pick publicID="de.gempa.tb1.Pick/20250412202308.352528.189107"><time><value>2025-04-12T20:22:59.69Z</value></time><waveformID networkCode="SX" stationCode="MULD" channelCode="HHZ"/><filterID>ITAPER(2)&gt;&gt;BW(3,3,20)</filterID><methodID>AIC</methodID><horizontalSlowness><value>21.51864865100064</value></horizontalSlowness><backazimuth><value>336.84172122930704</value></backazimuth><phaseHint>P</phaseHint><evaluationMode>automatic</evaluationMode><comment><text>4.677040902647176</text><id>DFX:rectilinearity</id></comment></pick><pick publicID="de.gempa.tb1.Pick/20250412202309.310006.189109"><time><value>2025-04-12T20:23:07.595Z</value></time><waveformID networkCode="BW" stationCode="MANZ" channelCode="HHZ"/><filterID>ITAPER(2)&gt;&gt;BW(3,3,20)</filterID><methodID>AIC</methodID><horizontalSlowness><value>21.979253764562579</value></horizontalSlowness><backazimuth><value>93.6535124111589</value></backazimuth><phaseHint>P</phaseHint><evaluationMode>automatic</evaluationMode><comment><text>2.655851305026151</text><id>DFX:rectilinearity</id></comment></pick><pick publicID="de.gempa.tb1.Pick/20250412202311.110121.189111"><time><value>2025-04-12T20:23:01.25Z</value></time><waveformID networkCode="SX" stationCode="GUNZ" channelCode="HHZ"/><filterID>ITAPER(2)&gt;&gt;BW(3,3,20)</filterID><methodID>AIC</methodID><horizontalSlowness><value>21.95437187366348</value></horizontalSlowness><backazimuth><value>296.7319011624213</value></backazimuth><phaseHint>P</phaseHint><evaluationMode>automatic</evaluationMode><comment><text>6.731726914073413</text><id>DFX:rectilinearity</id></comment></pick><pick publicID="de.gempa.tb1.Pick/20250412202311.853695.189115"><time><value>2025-04-12T20:23:02.02Z</value></time><waveformID networkCode="SX" stationCode="TANN" channelCode="HHN"/><filterID>ITAPER(3)&gt;&gt;BW(4,3,10)</filterID><methodID>L2-AIC-GRID</methodID><horizontalSlowness><value>18.547280670468432</value></horizontalSlowness><backazimuth><value>311.19791956134975</value></backazimuth><phaseHint>S</phaseHint><evaluationMode>automatic</evaluationMode><comment><text>2.6303726172048836</text><id>DFX:rectilinearity</id></comment><comment><text>de.gempa.tb1.Pick/20250412202307.431639.189098</text><id>RefPickID</id></comment></pick><pick publicID="de.gempa.tb1.Pick/20250412202312.484741.189116"><time><value>2025-04-12T20:22:59.9075Z</value></time><waveformID networkCode="SX" stationCode="WERN" channelCode="HHN"/><filterID>ITAPER(3)&gt;&gt;BW(4,3,10)</filterID><methodID>L2-AIC-GRID</methodID><horizontalSlowness><value>23.057345442007993</value></horizontalSlowness><backazimuth><value>75.77002370292513</value></backazimuth><phaseHint>S</phaseHint><evaluationMode>automatic</evaluationMode><comment><text>19.271596799942206</text><id>DFX:rectilinearity</id></comment><comment><text>de.gempa.tb1.Pick/20250412202304.492737.189094</text><id>RefPickID</id></comment></pick><pick publicID="de.gempa.tb1.Pick/20250412202314.37837.189118"><time><value>2025-04-12T20:23:01.96Z</value></time><waveformID networkCode="SX" stationCode="MULD" channelCode="HHN"/><filterID>ITAPER(3)&gt;&gt;BW(4,3,10)</filterID><methodID>L2-AIC-GRID</methodID><horizontalSlowness><value>23.303644973169394</value></horizontalSlowness><backazimuth><value>349.2386250300383</value></backazimuth><phaseHint>S</phaseHint><evaluationMode>automatic</evaluationMode><comment><text>5.453925147706705</text><id>DFX:rectilinearity</id></comment><comment><text>de.gempa.tb1.Pick/20250412202308.352528.189107</text><id>RefPickID</id></comment></pick><pick publicID="de.gempa.tb1.Pick/20250412202315.398074.189119"><time><value>2025-04-12T20:23:03.66Z</value></time><waveformID networkCode="SX" stationCode="TRIB" channelCode="HHZ"/><filterID>ITAPER(2)&gt;&gt;BW(3,3,20)</filterID><methodID>AIC</methodID><horizontalSlowness><value>16.34176111658439</value></horizontalSlowness><backazimuth><value>233.2569917378676</value></backazimuth><phaseHint>P</phaseHint><evaluationMode>automatic</evaluationMode><comment><text>2.7924359281113857</text><id>DFX:rectilinearity</id></comment></pick><pick publicID="de.gempa.tb1.Pick/20250412202315.85993.189122"><time><value>2025-04-12T20:23:04.31Z</value></time><waveformID networkCode="SX" stationCode="SCHF" channelCode="HHZ"/><filterID>ITAPER(2)&gt;&gt;BW(3,3,20)</filterID><methodID>AIC</methodID><horizontalSlowness><value>19.405376051563088</value></horizontalSlowness><backazimuth><value>267.58106904868174</value></backazimuth><phaseHint>P</phaseHint><evaluationMode>automatic</evaluationMode><comment><text>3.2018035010616805</text><id>DFX:rectilinearity</id></comment></pick><pick publicID="de.gempa.tb1.Pick/20250412202331.878151.189129"><time><value>2025-04-12T20:23:24.25Z</value></time><waveformID networkCode="SX" stationCode="LANDS" channelCode="HHZ"/><filterID>ITAPER(2)&gt;&gt;BW(3,3,20)</filterID><methodID>AIC</methodID><horizontalSlowness><value>18.718909339559477</value><uncertainty>3.8557447837725274</uncertainty></horizontalSlowness><backazimuth><value>137.14790542454568</value><uncertainty>11.822821706484556</uncertainty></backazimuth><phaseHint>P</phaseHint><evaluationMode>automatic</evaluationMode><comment><text>0.9395219653422833</text><id>DFX:rectilinearity</id></comment></pick><origin publicID="de.gempa.tb1.Origin/20250412202332.691883.161687"><time><value>2025-04-12T20:22:58.613681Z</value><uncertainty>0.7191789150238037</uncertainty></time><latitude><value>50.3060302734375</value><uncertainty>2.7379705905914307</uncertainty></latitude><longitude><value>12.464887619018555</value><uncertainty>4.877082347869873</uncertainty></longitude><depth><value>0</value></depth><depthType>operator assigned</depthType><methodID>LOCSAT</methodID><earthModelID>iasp91</earthModelID><quality><associatedPhaseCount>12</associatedPhaseCount><usedPhaseCount>12</usedPhaseCount><associatedStationCount>9</associatedStationCount><usedStationCount>9</usedStationCount><depthPhaseCount>0</depthPhaseCount><standardError>1.2163698936602294</standardError><azimuthalGap>217.06240844726562</azimuthalGap><maximumDistance>1.2364786863327026</maximumDistance><minimumDistance>0.05992159247398376</minimumDistance><medianDistance>0.11287497729063034</medianDistance></quality><uncertainty><minHorizontalUncertainty>4.009582042694092</minHorizontalUncertainty><maxHorizontalUncertainty>11.311575889587402</maxHorizontalUncertainty><azimuthMaxHorizontalUncertainty>113.95177459716797</azimuthMaxHorizontalUncertainty><preferredDescription>horizontal uncertainty</preferredDescription></uncertainty><evaluationMode>automatic</evaluationMode><evaluationStatus>confirmed</evaluationStatus><comment><text>0.66</text><id>mismatchScore</id></comment><comment><text>extendedGap</text><id>scevalMethod</id></comment><arrival><pickID>de.gempa.tb1.Pick/20250412202304.492737.189094</pickID><phase>P</phase><azimuth>251.89646911621094</azimuth><distance>0.05992159247398376</distance><timeResidual>-1.4822640419006348</timeResidual><timeUsed>true</timeUsed><horizontalSlownessUsed>false</horizontalSlownessUsed><backazimuthUsed>false</backazimuthUsed><weight>1</weight></arrival><arrival><pickID>de.gempa.tb1.Pick/20250412202307.431639.189098</pickID><phase>P</phase><azimuth>358.6942443847656</azimuth><distance>0.10913291573524475</distance><timeResidual>-1.165006160736084</timeResidual><timeUsed>true</timeUsed><horizontalSlownessUsed>false</horizontalSlownessUsed><backazimuthUsed>false</backazimuthUsed><weight>1</weight></arrival><arrival><pickID>de.gempa.tb1.Pick/20250412202307.446957.189102</pickID><phase>P</phase><azimuth>232.8250274658203</azimuth><distance>0.11919230222702026</distance><timeResidual>-0.7265336513519287</timeResidual><timeUsed>true</timeUsed><horizontalSlownessUsed>false</horizontalSlownessUsed><backazimuthUsed>false</backazimuthUsed><weight>1</weight></arrival><arrival><pickID>de.gempa.tb1.Pick/20250412202308.352528.189107</pickID><phase>P</phase><azimuth>339.77587890625</azimuth><distance>0.11287497729063034</distance><timeResidual>-1.2161448001861572</timeResidual><timeUsed>true</timeUsed><horizontalSlownessUsed>false</horizontalSlownessUsed><backazimuthUsed>false</backazimuthUsed><weight>1</weight></arrival><arrival><pickID>de.gempa.tb1.Pick/20250412202309.310006.189109</pickID><phase>P</phase><azimuth>215.75665283203125</azimuth><distance>0.39390969276428223</distance><timeResidual>1.3459341526031494</timeResidual><timeUsed>true</timeUsed><horizontalSlownessUsed>false</horizontalSlownessUsed><backazimuthUsed>false</backazimuthUsed><weight>1</weight></arrival><arrival><pickID>de.gempa.tb1.Pick/20250412202311.110121.189111</pickID><phase>P</phase><azimuth>304.01654052734375</azimuth><distance>0.10298816859722137</distance><timeResidual>0.5317120552062988</timeResidual><timeUsed>true</timeUsed><horizontalSlownessUsed>false</horizontalSlownessUsed><backazimuthUsed>false</backazimuthUsed><weight>1</weight></arrival><arrival><pickID>de.gempa.tb1.Pick/20250412202311.853695.189115</pickID><phase>S</phase><azimuth>358.6942443847656</azimuth><distance>0.10913291573524475</distance><timeResidual>0.5148723125457764</timeResidual><timeUsed>true</timeUsed><horizontalSlownessUsed>false</horizontalSlownessUsed><backazimuthUsed>false</backazimuthUsed><weight>1</weight></arrival><arrival><pickID>de.gempa.tb1.Pick/20250412202312.484741.189116</pickID><phase>S</phase><azimuth>251.89646911621094</azimuth><distance>0.05992159247398376</distance><timeResidual>0.028811484575271606</timeResidual><timeUsed>true</timeUsed><horizontalSlownessUsed>false</horizontalSlownessUsed><backazimuthUsed>false</backazimuthUsed><weight>1</weight></arrival><arrival><pickID>de.gempa.tb1.Pick/20250412202314.37837.189118</pickID><phase>S</phase><azimuth>339.77587890625</azimuth><distance>0.11287497729063034</distance><timeResidual>0.33115294575691223</timeResidual><timeUsed>true</timeUsed><horizontalSlownessUsed>false</horizontalSlownessUsed><backazimuthUsed>false</backazimuthUsed><weight>1</weight></arrival><arrival><pickID>de.gempa.tb1.Pick/20250412202315.398074.189119</pickID><phase>P</phase><azimuth>282.479736328125</azimuth><distance>0.21512982249259949</distance><timeResidual>0.8099892139434814</timeResidual><timeUsed>true</timeUsed><horizontalSlownessUsed>false</horizontalSlownessUsed><backazimuthUsed>false</backazimuthUsed><weight>1</weight></arrival><arrival><pickID>de.gempa.tb1.Pick/20250412202315.85993.189122</pickID><phase>P</phase><azimuth>353.96197509765625</azimuth><distance>0.37372687458992004</distance><timeResidual>-1.5542328357696533</timeResidual><timeUsed>true</timeUsed><horizontalSlownessUsed>false</horizontalSlownessUsed><backazimuthUsed>false</backazimuthUsed><weight>1</weight></arrival><arrival><pickID>de.gempa.tb1.Pick/20250412202331.878151.189129</pickID><phase>P</phase><azimuth>351.22601318359375</azimuth><distance>1.2364786863327026</distance><timeResidual>2.579127550125122</timeResidual><timeUsed>true</timeUsed><horizontalSlownessUsed>false</horizontalSlownessUsed><backazimuthUsed>false</backazimuthUsed><weight>1</weight></arrival><magnitude publicID="de.gempa.tb1.Magnitude/20250412202427.285746.279345"><magnitude><value>0.548891804936831</value></magnitude><type>M</type><methodID>weighted average</methodID><stationCount>7</stationCount></magnitude></origin><event publicID="gempa2025hgcz"><preferredOriginID>de.gempa.tb1.Origin/20250412202332.691883.161687</preferredOriginID><preferredMagnitudeID>de.gempa.tb1.Magnitude/20250412202427.285746.279345</preferredMagnitudeID><description><text>Germany</text><type>region name</type></description><originReference>de.gempa.tb1.Origin/20250412202332.691883.161687</originReference></event></EventParameters></seiscomp>