<?xml version="1.0" encoding="UTF-8"?>
<seiscomp xmlns="http://geofon.gfz-potsdam.de/ns/seiscomp3-schema/0.13" version="0.13"><EventParameters><pick publicID="de.gempa.tb1.Pick/20250414071109.72981.136448"><time><value>2025-04-14T07:11:04.318393Z</value></time><waveformID networkCode="CX" stationCode="PB03" channelCode="HHZ"/><filterID>ITAPER(4)&gt;&gt;BW(4,4,20)</filterID><methodID>AIC</methodID><horizontalSlowness><value>9.114252831001654</value></horizontalSlowness><backazimuth><value>180.88421571629874</value></backazimuth><phaseHint>P</phaseHint><evaluationMode>automatic</evaluationMode><comment><text>9.203285917787095</text><id>DFX:rectilinearity</id></comment><comment><text>8.260340309953202</text><id>SNR</id></comment></pick><pick publicID="de.gempa.tb1.Pick/20250414071112.328985.136450"><time><value>2025-04-14T07:11:01.63Z</value></time><waveformID networkCode="CX" stationCode="PB09" channelCode="HHZ"/><filterID>ITAPER(4)&gt;&gt;BW(4,4,20)</filterID><methodID>AIC</methodID><horizontalSlowness><value>16.03782824073716</value></horizontalSlowness><backazimuth><value>304.8843879426186</value></backazimuth><phaseHint>P</phaseHint><evaluationMode>automatic</evaluationMode><comment><text>7.458182085759659</text><id>DFX:rectilinearity</id></comment><comment><text>10.389674226938716</text><id>SNR</id></comment></pick><pick publicID="de.gempa.tb1.Pick/20250414071112.543222.136452"><time><value>2025-04-14T07:11:04.148393Z</value></time><waveformID networkCode="CX" stationCode="PB06" channelCode="HHZ"/><filterID>ITAPER(4)&gt;&gt;BW(4,4,20)</filterID><methodID>AIC</methodID><horizontalSlowness><value>5.589409122647643</value></horizontalSlowness><backazimuth><value>268.98803845184307</value></backazimuth><phaseHint>P</phaseHint><evaluationMode>automatic</evaluationMode><comment><text>57.13935385078742</text><id>DFX:rectilinearity</id></comment><comment><text>6.56304473663937</text><id>SNR</id></comment></pick><pick publicID="de.gempa.tb1.Pick/20250414071114.975531.136454"><time><value>2025-04-14T07:11:06.668394Z</value></time><waveformID networkCode="CX" stationCode="PB07" channelCode="HHZ"/><filterID>ITAPER(4)&gt;&gt;BW(4,4,20)</filterID><methodID>AIC</methodID><horizontalSlowness><value>23.232895364969487</value></horizontalSlowness><backazimuth><value>85.92813006343617</value></backazimuth><phaseHint>P</phaseHint><evaluationMode>automatic</evaluationMode><comment><text>90.53822376073964</text><id>DFX:rectilinearity</id></comment><comment><text>16.516907164554226</text><id>SNR</id></comment></pick><pick publicID="de.gempa.tb1.Pick/20250414071126.61396.136456"><time><value>2025-04-14T07:11:20.428393Z</value></time><waveformID networkCode="CX" stationCode="PB06" channelCode="HHN"/><filterID>ITAPER(2)&gt;&gt;BW(3,3,20)</filterID><methodID>L2-AIC-GRID</methodID><horizontalSlowness><value>4.458194602747831</value></horizontalSlowness><backazimuth><value>336.552971921452</value></backazimuth><phaseHint>S</phaseHint><evaluationMode>automatic</evaluationMode><comment><text>74.9211193099296</text><id>DFX:rectilinearity</id></comment><comment><text>de.gempa.tb1.Pick/20250414071112.543222.136452</text><id>RefPickID</id></comment><comment><text>5.04928317128486</text><id>SNR</id></comment></pick><pick publicID="de.gempa.tb1.Pick/20250414071128.566794.136459"><time><value>2025-04-14T07:11:21.508393Z</value></time><waveformID networkCode="CX" stationCode="PB03" channelCode="HHN"/><filterID>ITAPER(2)&gt;&gt;BW(3,3,20)</filterID><methodID>L2-AIC-GRID</methodID><horizontalSlowness><value>12.837804416130679</value></horizontalSlowness><backazimuth><value>275.8345874662408</value></backazimuth><phaseHint>S</phaseHint><evaluationMode>automatic</evaluationMode><comment><text>11.017111916007311</text><id>DFX:rectilinearity</id></comment><comment><text>de.gempa.tb1.Pick/20250414071109.72981.136448</text><id>RefPickID</id></comment><comment><text>9.170089823213669</text><id>SNR</id></comment></pick><origin publicID="de.gempa.tb1.Origin/20250414071128.575365.131199"><time><value>2025-04-14T07:10:42.572648Z</value><uncertainty>1.546960711479187</uncertainty></time><latitude><value>-22.224454879760742</value><uncertainty>9.682043075561523</uncertainty></latitude><longitude><value>-68.71712493896484</value><uncertainty>19.94811248779297</uncertainty></longitude><depth><value>120.7133026123047</value><uncertainty>21.830520629882812</uncertainty></depth><depthType>from location</depthType><methodID>LOCSAT</methodID><earthModelID>iasp91_scanloc</earthModelID><quality><associatedPhaseCount>6</associatedPhaseCount><usedPhaseCount>6</usedPhaseCount><associatedStationCount>4</associatedStationCount><usedStationCount>4</usedStationCount><depthPhaseCount>0</depthPhaseCount><standardError>0.10985807036695917</standardError><azimuthalGap>287.54673767089844</azimuthalGap><maximumDistance>1.1928473711013794</maximumDistance><minimumDistance>0.6470341086387634</minimumDistance><medianDistance>0.976354718208313</medianDistance></quality><uncertainty><minHorizontalUncertainty>20.552223205566406</minHorizontalUncertainty><maxHorizontalUncertainty>42.88243103027344</maxHorizontalUncertainty><azimuthMaxHorizontalUncertainty>85.49310302734375</azimuthMaxHorizontalUncertainty><preferredDescription>horizontal uncertainty</preferredDescription></uncertainty><evaluationMode>automatic</evaluationMode><evaluationStatus>confirmed</evaluationStatus><comment><text>0.00</text><id>mismatchScore</id></comment><comment><text>mismatchScore</text><id>scevalMethod</id></comment><arrival><pickID>de.gempa.tb1.Pick/20250414071109.72981.136448</pickID><phase>P</phase><azimuth>280.1393127441406</azimuth><distance>0.976354718208313</distance><timeResidual>-0.15838623046875</timeResidual><timeUsed>true</timeUsed><horizontalSlownessUsed>false</horizontalSlownessUsed><backazimuthUsed>false</backazimuthUsed><weight>1</weight></arrival><arrival><pickID>de.gempa.tb1.Pick/20250414071112.328985.136450</pickID><phase>P</phase><azimuth>311.0799560546875</azimuth><distance>0.6470341086387634</distance><timeResidual>-0.000728607177734375</timeResidual><timeUsed>true</timeUsed><horizontalSlownessUsed>false</horizontalSlownessUsed><backazimuthUsed>false</backazimuthUsed><weight>1</weight></arrival><arrival><pickID>de.gempa.tb1.Pick/20250414071112.543222.136452</pickID><phase>P</phase><azimuth>238.62669372558594</azimuth><distance>0.9244595170021057</distance><timeResidual>0.1690196990966797</timeResidual><timeUsed>true</timeUsed><horizontalSlownessUsed>false</horizontalSlownessUsed><backazimuthUsed>false</backazimuthUsed><weight>1</weight></arrival><arrival><pickID>de.gempa.tb1.Pick/20250414071114.975531.136454</pickID><phase>P</phase><azimuth>294.3191833496094</azimuth><distance>1.1928473711013794</distance><timeResidual>-0.008974075317382812</timeResidual><timeUsed>true</timeUsed><horizontalSlownessUsed>false</horizontalSlownessUsed><backazimuthUsed>false</backazimuthUsed><weight>1</weight></arrival><arrival><pickID>de.gempa.tb1.Pick/20250414071126.61396.136456</pickID><phase>S</phase><azimuth>238.62669372558594</azimuth><distance>0.9244595170021057</distance><timeResidual>-0.09714698791503906</timeResidual><timeUsed>true</timeUsed><horizontalSlownessUsed>false</horizontalSlownessUsed><backazimuthUsed>false</backazimuthUsed><weight>1</weight></arrival><arrival><pickID>de.gempa.tb1.Pick/20250414071128.566794.136459</pickID><phase>S</phase><azimuth>280.1393127441406</azimuth><distance>0.976354718208313</distance><timeResidual>0.09612655639648438</timeResidual><timeUsed>true</timeUsed><horizontalSlownessUsed>false</horizontalSlownessUsed><backazimuthUsed>false</backazimuthUsed><weight>1</weight></arrival></origin><event publicID="gempa2025hiup"><preferredOriginID>de.gempa.tb1.Origin/20250414071128.575365.131199</preferredOriginID><description><text>Northern Chile</text><type>region name</type></description><originReference>de.gempa.tb1.Origin/20250414071128.575365.131199</originReference></event></EventParameters></seiscomp>