<?xml version="1.0" encoding="UTF-8"?>
<seiscomp xmlns="http://geofon.gfz-potsdam.de/ns/seiscomp3-schema/0.13" version="0.13"><EventParameters><pick publicID="de.gempa.tb1.Pick/20250414211212.056117.141321"><time><value>2025-04-14T21:12:06.808393Z</value></time><waveformID networkCode="CX" stationCode="PB15" channelCode="HHZ"/><filterID>ITAPER(4)&gt;&gt;BW(4,4,20)</filterID><methodID>AIC</methodID><horizontalSlowness><value>20.703568736535829</value></horizontalSlowness><backazimuth><value>74.58004606098447</value></backazimuth><phaseHint>P</phaseHint><evaluationMode>automatic</evaluationMode><comment><text>828.1961435321363</text><id>DFX:rectilinearity</id></comment><comment><text>25.656922203287234</text><id>SNR</id></comment></pick><pick publicID="de.gempa.tb1.Pick/20250414211214.521604.141323"><time><value>2025-04-14T21:12:06.158393Z</value></time><waveformID networkCode="CX" stationCode="PB06" channelCode="HHZ"/><filterID>ITAPER(4)&gt;&gt;BW(4,4,20)</filterID><methodID>AIC</methodID><horizontalSlowness><value>7.705484379716304</value></horizontalSlowness><backazimuth><value>103.71113360843688</value></backazimuth><phaseHint>P</phaseHint><evaluationMode>automatic</evaluationMode><comment><text>72.85623011960506</text><id>DFX:rectilinearity</id></comment><comment><text>29.998078112432584</text><id>SNR</id></comment></pick><pick publicID="de.gempa.tb1.Pick/20250414211214.572023.141325"><time><value>2025-04-14T21:12:09.588394Z</value></time><waveformID networkCode="CX" stationCode="PB03" channelCode="HHZ"/><filterID>ITAPER(4)&gt;&gt;BW(4,4,20)</filterID><methodID>AIC</methodID><horizontalSlowness><value>5.654360691608657</value></horizontalSlowness><backazimuth><value>107.47529690796225</value></backazimuth><phaseHint>P</phaseHint><evaluationMode>automatic</evaluationMode><comment><text>10.748531417185699</text><id>DFX:rectilinearity</id></comment><comment><text>14.970738181656968</text><id>SNR</id></comment></pick><pick publicID="de.gempa.tb1.Pick/20250414211216.515441.141327"><time><value>2025-04-14T21:12:07.8Z</value></time><waveformID networkCode="CX" stationCode="PB09" channelCode="HHZ"/><filterID>ITAPER(4)&gt;&gt;BW(4,4,20)</filterID><methodID>AIC</methodID><horizontalSlowness><value>22.234776844866797</value></horizontalSlowness><backazimuth><value>312.6269050370581</value></backazimuth><phaseHint>P</phaseHint><evaluationMode>automatic</evaluationMode><comment><text>10.027866066589329</text><id>DFX:rectilinearity</id></comment><comment><text>34.931593388491343</text><id>SNR</id></comment></pick><pick publicID="de.gempa.tb1.Pick/20250414211218.62684.141329"><time><value>2025-04-14T21:12:11.04Z</value></time><waveformID networkCode="CX" stationCode="PB19" channelCode="HHZ"/><filterID>ITAPER(4)&gt;&gt;BW(4,4,20)</filterID><methodID>AIC</methodID><horizontalSlowness><value>13.30917671949506</value></horizontalSlowness><backazimuth><value>219.11121624013776</value></backazimuth><phaseHint>P</phaseHint><evaluationMode>automatic</evaluationMode><comment><text>28.926489323433845</text><id>DFX:rectilinearity</id></comment><comment><text>19.680773304487992</text><id>SNR</id></comment></pick><pick publicID="de.gempa.tb1.Pick/20250414211221.544291.141331"><time><value>2025-04-14T21:12:16.328393Z</value></time><waveformID networkCode="CX" stationCode="PB01" channelCode="HHZ"/><filterID>ITAPER(4)&gt;&gt;BW(4,4,20)</filterID><methodID>AIC</methodID><horizontalSlowness><value>16.494357600837255</value></horizontalSlowness><backazimuth><value>185.87798837476788</value></backazimuth><phaseHint>P</phaseHint><evaluationMode>automatic</evaluationMode><comment><text>23.00606492254006</text><id>DFX:rectilinearity</id></comment><comment><text>9.707241178596783</text><id>SNR</id></comment></pick><pick publicID="de.gempa.tb1.Pick/20250414211230.652812.141333"><time><value>2025-04-14T21:12:23.508393Z</value></time><waveformID networkCode="CX" stationCode="PB06" channelCode="HHN"/><filterID>ITAPER(2)&gt;&gt;BW(3,3,20)</filterID><methodID>L2-AIC-GRID</methodID><horizontalSlowness><value>16.753380466531564</value></horizontalSlowness><backazimuth><value>86.64594148866333</value></backazimuth><phaseHint>S</phaseHint><evaluationMode>automatic</evaluationMode><comment><text>271.38498152221393</text><id>DFX:rectilinearity</id></comment><comment><text>de.gempa.tb1.Pick/20250414211214.521604.141323</text><id>RefPickID</id></comment><comment><text>8.17544353314614</text><id>SNR</id></comment></pick><pick publicID="de.gempa.tb1.Pick/20250414211231.877799.141334"><time><value>2025-04-14T21:12:24.788393Z</value></time><waveformID networkCode="CX" stationCode="PB15" channelCode="HHN"/><filterID>ITAPER(2)&gt;&gt;BW(3,3,20)</filterID><methodID>L2-AIC-GRID</methodID><horizontalSlowness><value>20.718484937828961</value></horizontalSlowness><backazimuth><value>142.666699336973</value></backazimuth><phaseHint>S</phaseHint><evaluationMode>automatic</evaluationMode><comment><text>4038.925331927903</text><id>DFX:rectilinearity</id></comment><comment><text>de.gempa.tb1.Pick/20250414211212.056117.141321</text><id>RefPickID</id></comment><comment><text>5.625579691134721</text><id>SNR</id></comment></pick><pick publicID="de.gempa.tb1.Pick/20250414211236.793985.141335"><time><value>2025-04-14T21:12:28.918394Z</value></time><waveformID networkCode="CX" stationCode="PB03" channelCode="HHN"/><filterID>ITAPER(2)&gt;&gt;BW(3,3,20)</filterID><methodID>L2-AIC-GRID</methodID><horizontalSlowness><value>17.6803328250666</value></horizontalSlowness><backazimuth><value>231.76637791458845</value></backazimuth><phaseHint>S</phaseHint><evaluationMode>automatic</evaluationMode><comment><text>130.6961023392822</text><id>DFX:rectilinearity</id></comment><comment><text>de.gempa.tb1.Pick/20250414211214.572023.141325</text><id>RefPickID</id></comment><comment><text>9.684328831908394</text><id>SNR</id></comment></pick><pick publicID="de.gempa.tb1.Pick/20250414211238.590754.141337"><time><value>2025-04-14T21:12:31.87Z</value></time><waveformID networkCode="CX" stationCode="PB19" channelCode="HHN"/><filterID>ITAPER(2)&gt;&gt;BW(3,3,20)</filterID><methodID>L2-AIC-GRID</methodID><horizontalSlowness><value>22.217434480010045</value></horizontalSlowness><backazimuth><value>67.19681700353006</value></backazimuth><phaseHint>S</phaseHint><evaluationMode>automatic</evaluationMode><comment><text>283.9095104107601</text><id>DFX:rectilinearity</id></comment><comment><text>de.gempa.tb1.Pick/20250414211218.62684.141329</text><id>RefPickID</id></comment><comment><text>5.137279655953257</text><id>SNR</id></comment></pick><pick publicID="de.gempa.tb1.Pick/20250414211248.769983.141341"><time><value>2025-04-14T21:12:13.058393Z</value></time><waveformID networkCode="CX" stationCode="PB07" channelCode="HHZ"/><filterID>ITAPER(4)&gt;&gt;BW(4,4,20)</filterID><methodID>AIC</methodID><horizontalSlowness><value>23.518739474627065</value></horizontalSlowness><backazimuth><value>48.62791430464762</value></backazimuth><phaseHint>P</phaseHint><evaluationMode>automatic</evaluationMode><comment><text>88.14481935702794</text><id>DFX:rectilinearity</id></comment><comment><text>26.714712112394903</text><id>SNR</id></comment></pick><pick publicID="de.gempa.tb1.Pick/20250414211315.691508.141346"><time><value>2025-04-14T21:12:35.058393Z</value></time><waveformID networkCode="CX" stationCode="PB07" channelCode="HHN"/><filterID>ITAPER(2)&gt;&gt;BW(3,3,20)</filterID><methodID>L2-AIC-GRID</methodID><horizontalSlowness><value>22.922610761779595</value></horizontalSlowness><backazimuth><value>198.404499315357</value></backazimuth><phaseHint>S</phaseHint><evaluationMode>automatic</evaluationMode><comment><text>1491.1441200701506</text><id>DFX:rectilinearity</id></comment><comment><text>de.gempa.tb1.Pick/20250414211248.769983.141341</text><id>RefPickID</id></comment><comment><text>7.919616405786665</text><id>SNR</id></comment></pick><origin publicID="de.gempa.tb1.Origin/20250414211315.694165.151286"><time><value>2025-04-14T21:11:44.303048Z</value><uncertainty>0.9678879380226135</uncertainty></time><latitude><value>-22.67559242248535</value><uncertainty>5.567667961120605</uncertainty></latitude><longitude><value>-68.57933807373047</value><uncertainty>21.175302505493164</uncertainty></longitude><depth><value>128.90771484375</value><uncertainty>22.75064468383789</uncertainty></depth><depthType>from location</depthType><methodID>LOCSAT</methodID><earthModelID>iasp91_scanloc</earthModelID><quality><associatedPhaseCount>12</associatedPhaseCount><usedPhaseCount>12</usedPhaseCount><associatedStationCount>7</associatedStationCount><usedStationCount>7</usedStationCount><depthPhaseCount>0</depthPhaseCount><standardError>0.20475773408082767</standardError><azimuthalGap>235.5994110107422</azimuthalGap><maximumDistance>1.8303853273391724</maximumDistance><minimumDistance>0.9171184301376343</minimumDistance><medianDistance>1.25303053855896</medianDistance></quality><uncertainty><minHorizontalUncertainty>7.645320892333984</minHorizontalUncertainty><maxHorizontalUncertainty>46.31581878662109</maxHorizontalUncertainty><azimuthMaxHorizontalUncertainty>78.42298889160156</azimuthMaxHorizontalUncertainty><preferredDescription>horizontal uncertainty</preferredDescription></uncertainty><evaluationMode>automatic</evaluationMode><evaluationStatus>confirmed</evaluationStatus><comment><text>0.00</text><id>mismatchScore</id></comment><comment><text>mismatchScore</text><id>scevalMethod</id></comment><arrival><pickID>de.gempa.tb1.Pick/20250414211212.056117.141321</pickID><phase>P</phase><azimuth>236.9992218017578</azimuth><distance>0.9780893325805664</distance><timeResidual>-0.1309185028076172</timeResidual><timeUsed>true</timeUsed><horizontalSlownessUsed>false</horizontalSlownessUsed><backazimuthUsed>false</backazimuthUsed><weight>1</weight></arrival><arrival><pickID>de.gempa.tb1.Pick/20250414211214.521604.141323</pickID><phase>P</phase><azimuth>267.93115234375</azimuth><distance>0.9171184301376343</distance><timeResidual>-0.2291259765625</timeResidual><timeUsed>true</timeUsed><horizontalSlownessUsed>false</horizontalSlownessUsed><backazimuthUsed>false</backazimuthUsed><weight>1</weight></arrival><arrival><pickID>de.gempa.tb1.Pick/20250414211214.572023.141325</pickID><phase>P</phase><azimuth>299.6509094238281</azimuth><distance>1.25303053855896</distance><timeResidual>-0.0843963623046875</timeResidual><timeUsed>true</timeUsed><horizontalSlownessUsed>false</horizontalSlownessUsed><backazimuthUsed>false</backazimuthUsed><weight>1</weight></arrival><arrival><pickID>de.gempa.tb1.Pick/20250414211216.515441.141327</pickID><phase>P</phase><azimuth>324.8215026855469</azimuth><distance>1.0688685178756714</distance><timeResidual>-0.010784149169921875</timeResidual><timeUsed>true</timeUsed><horizontalSlownessUsed>false</horizontalSlownessUsed><backazimuthUsed>false</backazimuthUsed><weight>1</weight></arrival><arrival><pickID>de.gempa.tb1.Pick/20250414211218.62684.141329</pickID><phase>P</phase><azimuth>207.98780822753906</azimuth><distance>1.387339472770691</distance><timeResidual>-0.05972671508789062</timeResidual><timeUsed>true</timeUsed><horizontalSlownessUsed>false</horizontalSlownessUsed><backazimuthUsed>false</backazimuthUsed><weight>1</weight></arrival><arrival><pickID>de.gempa.tb1.Pick/20250414211221.544291.141331</pickID><phase>P</phase><azimuth>332.3883972167969</azimuth><distance>1.8303853273391724</distance><timeResidual>0.125518798828125</timeResidual><timeUsed>true</timeUsed><horizontalSlownessUsed>false</horizontalSlownessUsed><backazimuthUsed>false</backazimuthUsed><weight>1</weight></arrival><arrival><pickID>de.gempa.tb1.Pick/20250414211230.652812.141333</pickID><phase>S</phase><azimuth>267.93115234375</azimuth><distance>0.9171184301376343</distance><timeResidual>0.029247283935546875</timeResidual><timeUsed>true</timeUsed><horizontalSlownessUsed>false</horizontalSlownessUsed><backazimuthUsed>false</backazimuthUsed><weight>1</weight></arrival><arrival><pickID>de.gempa.tb1.Pick/20250414211231.877799.141334</pickID><phase>S</phase><azimuth>236.9992218017578</azimuth><distance>0.9780893325805664</distance><timeResidual>0.32450294494628906</timeResidual><timeUsed>true</timeUsed><horizontalSlownessUsed>false</horizontalSlownessUsed><backazimuthUsed>false</backazimuthUsed><weight>1</weight></arrival><arrival><pickID>de.gempa.tb1.Pick/20250414211236.793985.141335</pickID><phase>S</phase><azimuth>299.6509094238281</azimuth><distance>1.25303053855896</distance><timeResidual>-0.423370361328125</timeResidual><timeUsed>true</timeUsed><horizontalSlownessUsed>false</horizontalSlownessUsed><backazimuthUsed>false</backazimuthUsed><weight>1</weight></arrival><arrival><pickID>de.gempa.tb1.Pick/20250414211238.590754.141337</pickID><phase>S</phase><azimuth>207.98780822753906</azimuth><distance>1.387339472770691</distance><timeResidual>-0.02219390869140625</timeResidual><timeUsed>true</timeUsed><horizontalSlownessUsed>false</horizontalSlownessUsed><backazimuthUsed>false</backazimuthUsed><weight>1</weight></arrival><arrival><pickID>de.gempa.tb1.Pick/20250414211248.769983.141341</pickID><phase>P</phase><azimuth>307.69854736328125</azimuth><distance>1.5357601642608643</distance><timeResidual>0.29203224182128906</timeResidual><timeUsed>true</timeUsed><horizontalSlownessUsed>false</horizontalSlownessUsed><backazimuthUsed>false</backazimuthUsed><weight>1</weight></arrival><arrival><pickID>de.gempa.tb1.Pick/20250414211315.691508.141346</pickID><phase>S</phase><azimuth>307.69854736328125</azimuth><distance>1.5357601642608643</distance><timeResidual>0.18903350830078125</timeResidual><timeUsed>true</timeUsed><horizontalSlownessUsed>false</horizontalSlownessUsed><backazimuthUsed>false</backazimuthUsed><weight>1</weight></arrival><magnitude publicID="de.gempa.tb1.Magnitude/20250414211315.701736.542124"><magnitude><value>2.230571372022268</value></magnitude><type>M</type><methodID>weighted average</methodID><stationCount>6</stationCount></magnitude></origin><event publicID="gempa2025hjwr"><preferredOriginID>de.gempa.tb1.Origin/20250414211315.694165.151286</preferredOriginID><preferredMagnitudeID>de.gempa.tb1.Magnitude/20250414211315.701736.542124</preferredMagnitudeID><description><text>Northern Chile</text><type>region name</type></description><originReference>de.gempa.tb1.Origin/20250414211315.694165.151286</originReference></event></EventParameters></seiscomp>