<?xml version="1.0" encoding="UTF-8"?>
<seiscomp xmlns="http://geofon.gfz-potsdam.de/ns/seiscomp3-schema/0.13" version="0.13"><EventParameters><pick publicID="de.gempa.tb1.Pick/20250414141353.366016.138480"><time><value>2025-04-14T14:13:47.608393Z</value></time><waveformID networkCode="CX" stationCode="PB16" channelCode="HHZ"/><filterID>ITAPER(4)&gt;&gt;BW(4,4,20)</filterID><methodID>AIC</methodID><horizontalSlowness><value>11.048986057275325</value></horizontalSlowness><backazimuth><value>129.27296469656142</value></backazimuth><phaseHint>P</phaseHint><evaluationMode>automatic</evaluationMode><comment><text>4511.884040330321</text><id>DFX:rectilinearity</id></comment><comment><text>604.8179405059392</text><id>SNR</id></comment></pick><pick publicID="de.gempa.tb1.Pick/20250414141400.386423.138484"><time><value>2025-04-14T14:13:54.878393Z</value></time><waveformID networkCode="CX" stationCode="PB16" channelCode="HHN"/><filterID>ITAPER(2)&gt;&gt;BW(3,3,20)</filterID><methodID>L2-AIC-GRID</methodID><horizontalSlowness><value>19.947706262196686</value></horizontalSlowness><backazimuth><value>4.6447484928932</value></backazimuth><phaseHint>S</phaseHint><evaluationMode>automatic</evaluationMode><comment><text>21473.95456323473</text><id>DFX:rectilinearity</id></comment><comment><text>de.gempa.tb1.Pick/20250414141353.366016.138480</text><id>RefPickID</id></comment><comment><text>6.701245428355563</text><id>SNR</id></comment></pick><pick publicID="de.gempa.tb1.Pick/20250414141425.574117.138490"><time><value>2025-04-14T14:14:21.548393Z</value></time><waveformID networkCode="CX" stationCode="PB01" channelCode="HHZ"/><filterID>ITAPER(4)&gt;&gt;BW(4,4,20)</filterID><methodID>AIC</methodID><horizontalSlowness><value>17.88555851009858</value></horizontalSlowness><backazimuth><value>0.16958799357212229</value></backazimuth><phaseHint>P</phaseHint><evaluationMode>automatic</evaluationMode><comment><text>465.0249832460972</text><id>DFX:rectilinearity</id></comment><comment><text>52.90891265543814</text><id>SNR</id></comment></pick><pick publicID="de.gempa.tb1.Pick/20250414141426.222948.138492"><time><value>2025-04-14T14:14:20.369999Z</value></time><waveformID networkCode="CX" stationCode="PATCX" channelCode="HHZ"/><filterID>ITAPER(4)&gt;&gt;BW(4,4,20)</filterID><methodID>AIC</methodID><horizontalSlowness><value>13.867280524453617</value></horizontalSlowness><backazimuth><value>283.82218859317163</value></backazimuth><phaseHint>P</phaseHint><evaluationMode>automatic</evaluationMode><comment><text>2202.4319777429905</text><id>DFX:rectilinearity</id></comment><comment><text>23.625004324601385</text><id>SNR</id></comment></pick><pick publicID="de.gempa.tb1.Pick/20250414141429.580941.138494"><time><value>2025-04-14T14:14:21.39Z</value></time><waveformID networkCode="CX" stationCode="PSGCX" channelCode="HHN"/><filterID>ITAPER(2)&gt;&gt;BW(3,3,20)</filterID><methodID>L2-AIC-GRID</methodID><horizontalSlowness><value>13.466661015956245</value></horizontalSlowness><backazimuth><value>122.65931255421893</value></backazimuth><phaseHint>S</phaseHint><evaluationMode>automatic</evaluationMode><comment><text>2662.443582847224</text><id>DFX:rectilinearity</id></comment><comment><text>de.gempa.tb1.Pick/20250414141408.513706.138486</text><id>RefPickID</id></comment><comment><text>13.18414009209389</text><id>SNR</id></comment></pick><pick publicID="de.gempa.tb1.Pick/20250414141431.531085.138495"><time><value>2025-04-14T14:14:26.838393Z</value></time><waveformID networkCode="CX" stationCode="PB02" channelCode="HHZ"/><filterID>ITAPER(4)&gt;&gt;BW(4,4,20)</filterID><methodID>AIC</methodID><horizontalSlowness><value>8.143452575118582</value></horizontalSlowness><backazimuth><value>17.977980991970213</value></backazimuth><phaseHint>P</phaseHint><evaluationMode>automatic</evaluationMode><comment><text>1035.882015841672</text><id>DFX:rectilinearity</id></comment><comment><text>29.242840537660776</text><id>SNR</id></comment></pick><pick publicID="de.gempa.tb1.Pick/20250414141446.500351.138498"><time><value>2025-04-14T14:14:37.708393Z</value></time><waveformID networkCode="CX" stationCode="PB03" channelCode="HHZ"/><filterID>ITAPER(4)&gt;&gt;BW(4,4,20)</filterID><methodID>AIC</methodID><horizontalSlowness><value>10.2839251409568</value></horizontalSlowness><backazimuth><value>341.3301864241689</value></backazimuth><phaseHint>P</phaseHint><evaluationMode>automatic</evaluationMode><comment><text>38.322833689110233</text><id>DFX:rectilinearity</id></comment><comment><text>9.584227924068943</text><id>SNR</id></comment></pick><pick publicID="de.gempa.tb1.Pick/20250414141447.141801.138500"><time><value>2025-04-14T14:14:33.89Z</value></time><waveformID networkCode="CX" stationCode="PB09" channelCode="HHZ"/><filterID>ITAPER(4)&gt;&gt;BW(4,4,20)</filterID><methodID>AIC</methodID><horizontalSlowness><value>20.174078505271584</value></horizontalSlowness><backazimuth><value>75.01018522379952</value></backazimuth><phaseHint>P</phaseHint><evaluationMode>automatic</evaluationMode><comment><text>106.65942751159702</text><id>DFX:rectilinearity</id></comment><comment><text>11.201402449059692</text><id>SNR</id></comment></pick><pick publicID="de.gempa.tb1.Pick/20250414141500.491121.138506"><time><value>2025-04-14T14:14:52.399999Z</value></time><waveformID networkCode="CX" stationCode="PATCX" channelCode="HHN"/><filterID>ITAPER(2)&gt;&gt;BW(3,3,20)</filterID><methodID>L2-AIC-GRID</methodID><horizontalSlowness><value>22.63888330365033</value></horizontalSlowness><backazimuth><value>115.2757534210715</value></backazimuth><phaseHint>S</phaseHint><evaluationMode>automatic</evaluationMode><comment><text>15827.03602241119</text><id>DFX:rectilinearity</id></comment><comment><text>de.gempa.tb1.Pick/20250414141426.222948.138492</text><id>RefPickID</id></comment><comment><text>12.001801418841453</text><id>SNR</id></comment></pick><pick publicID="de.gempa.tb1.Pick/20250414141502.776641.138507"><time><value>2025-04-14T14:14:54.708393Z</value></time><waveformID networkCode="CX" stationCode="PB01" channelCode="HHN"/><filterID>ITAPER(2)&gt;&gt;BW(3,3,20)</filterID><methodID>L2-AIC-GRID</methodID><horizontalSlowness><value>17.591673990868934</value></horizontalSlowness><backazimuth><value>56.73443462539414</value></backazimuth><phaseHint>S</phaseHint><evaluationMode>automatic</evaluationMode><comment><text>556.2181862817669</text><id>DFX:rectilinearity</id></comment><comment><text>de.gempa.tb1.Pick/20250414141425.574117.138490</text><id>RefPickID</id></comment><comment><text>5.332196131113821</text><id>SNR</id></comment></pick><pick publicID="de.gempa.tb1.Pick/20250414141510.014087.138508"><time><value>2025-04-14T14:14:32.708396Z</value></time><waveformID networkCode="CX" stationCode="PB07" channelCode="HHZ"/><filterID>ITAPER(4)&gt;&gt;BW(4,4,20)</filterID><methodID>AIC</methodID><horizontalSlowness><value>19.52046324189583</value></horizontalSlowness><backazimuth><value>37.78570557678455</value></backazimuth><phaseHint>P</phaseHint><evaluationMode>automatic</evaluationMode><comment><text>938.8849708350159</text><id>DFX:rectilinearity</id></comment><comment><text>27.077344561610403</text><id>SNR</id></comment></pick><origin publicID="de.gempa.tb1.Origin/20250414141510.738084.140474"><time><value>2025-04-14T14:13:42.450712Z</value><uncertainty>0.4809034168720245</uncertainty></time><latitude><value>-18.64431381225586</value><uncertainty>2.0543859004974365</uncertainty></latitude><longitude><value>-69.3610610961914</value><uncertainty>5.70728826522827</uncertainty></longitude><depth><value>0</value></depth><depthType>operator assigned</depthType><methodID>LOCSAT</methodID><earthModelID>iasp91_scanloc</earthModelID><quality><associatedPhaseCount>11</associatedPhaseCount><usedPhaseCount>11</usedPhaseCount><associatedStationCount>8</associatedStationCount><usedStationCount>8</usedStationCount><depthPhaseCount>0</depthPhaseCount><standardError>0.9360788527195607</standardError><azimuthalGap>202.3410186767578</azimuthalGap><maximumDistance>3.406752347946167</maximumDistance><minimumDistance>0.3375627398490906</minimumDistance><medianDistance>2.389490604400635</medianDistance></quality><uncertainty><minHorizontalUncertainty>4.2620930671691895</minHorizontalUncertainty><maxHorizontalUncertainty>12.292970657348633</maxHorizontalUncertainty><azimuthMaxHorizontalUncertainty>84.43004608154297</azimuthMaxHorizontalUncertainty><preferredDescription>horizontal uncertainty</preferredDescription></uncertainty><evaluationMode>automatic</evaluationMode><evaluationStatus>confirmed</evaluationStatus><comment><text>0.23</text><id>mismatchScore</id></comment><comment><text>mismatchScore</text><id>scevalMethod</id></comment><arrival><pickID>de.gempa.tb1.Pick/20250414141353.366016.138480</pickID><phase>P</phase><azimuth>335.6358337402344</azimuth><distance>0.3375627398490906</distance><timeResidual>-1.3182320594787598</timeResidual><timeUsed>true</timeUsed><horizontalSlownessUsed>false</horizontalSlownessUsed><backazimuthUsed>false</backazimuthUsed><weight>1</weight></arrival><arrival><pickID>de.gempa.tb1.Pick/20250414141400.386423.138484</pickID><phase>S</phase><azimuth>335.6358337402344</azimuth><distance>0.3375627398490906</distance><timeResidual>1.24932861328125</timeResidual><timeUsed>true</timeUsed><horizontalSlownessUsed>false</horizontalSlownessUsed><backazimuthUsed>false</backazimuthUsed><weight>1</weight></arrival><arrival><pickID>de.gempa.tb1.Pick/20250414141425.574117.138490</pickID><phase>P</phase><azimuth>182.83168029785156</azimuth><distance>2.389490604400635</distance><timeResidual>-1.3122859001159668</timeResidual><timeUsed>true</timeUsed><horizontalSlownessUsed>false</horizontalSlownessUsed><backazimuthUsed>false</backazimuthUsed><weight>1</weight></arrival><arrival><pickID>de.gempa.tb1.Pick/20250414141426.222948.138492</pickID><phase>P</phase><azimuth>198.87733459472656</azimuth><distance>2.289979934692383</distance><timeResidual>-1.1210741996765137</timeResidual><timeUsed>true</timeUsed><horizontalSlownessUsed>false</horizontalSlownessUsed><backazimuthUsed>false</backazimuthUsed><weight>1</weight></arrival><arrival><pickID>de.gempa.tb1.Pick/20250414141429.580941.138494</pickID><phase>S</phase><azimuth>217.1156768798828</azimuth><distance>1.1905630826950073</distance><timeResidual>-0.4819216728210449</timeResidual><timeUsed>true</timeUsed><horizontalSlownessUsed>false</horizontalSlownessUsed><backazimuthUsed>false</backazimuthUsed><weight>1</weight></arrival><arrival><pickID>de.gempa.tb1.Pick/20250414141431.531085.138495</pickID><phase>P</phase><azimuth>190.61483764648438</azimuth><distance>2.708786964416504</distance><timeResidual>-0.41731977462768555</timeResidual><timeUsed>true</timeUsed><horizontalSlownessUsed>false</horizontalSlownessUsed><backazimuthUsed>false</backazimuthUsed><weight>1</weight></arrival><arrival><pickID>de.gempa.tb1.Pick/20250414141446.500351.138498</pickID><phase>P</phase><azimuth>186.1322021484375</azimuth><distance>3.406752347946167</distance><timeResidual>0.8465733528137207</timeResidual><timeUsed>true</timeUsed><horizontalSlownessUsed>false</horizontalSlownessUsed><backazimuthUsed>false</backazimuthUsed><weight>1</weight></arrival><arrival><pickID>de.gempa.tb1.Pick/20250414141447.141801.138500</pickID><phase>P</phase><azimuth>177.9768524169922</azimuth><distance>3.137965440750122</distance><timeResidual>0.7271466255187988</timeResidual><timeUsed>true</timeUsed><horizontalSlownessUsed>false</horizontalSlownessUsed><backazimuthUsed>false</backazimuthUsed><weight>1</weight></arrival><arrival><pickID>de.gempa.tb1.Pick/20250414141500.491121.138506</pickID><phase>S</phase><azimuth>198.87733459472656</azimuth><distance>2.289979934692383</distance><timeResidual>0.9985928535461426</timeResidual><timeUsed>true</timeUsed><horizontalSlownessUsed>false</horizontalSlownessUsed><backazimuthUsed>false</backazimuthUsed><weight>1</weight></arrival><arrival><pickID>de.gempa.tb1.Pick/20250414141502.776641.138507</pickID><phase>S</phase><azimuth>182.83168029785156</azimuth><distance>2.389490604400635</distance><timeResidual>0.84379243850708</timeResidual><timeUsed>true</timeUsed><horizontalSlownessUsed>false</horizontalSlownessUsed><backazimuthUsed>false</backazimuthUsed><weight>1</weight></arrival><arrival><pickID>de.gempa.tb1.Pick/20250414141510.014087.138508</pickID><phase>P</phase><azimuth>189.0486602783203</azimuth><distance>3.106003522872925</distance><timeResidual>-0.014632701873779297</timeResidual><timeUsed>true</timeUsed><horizontalSlownessUsed>false</horizontalSlownessUsed><backazimuthUsed>false</backazimuthUsed><weight>1</weight></arrival><magnitude publicID="de.gempa.tb1.Magnitude/20250414141510.744766.499055"><magnitude><value>2.916893508941674</value></magnitude><type>M</type><methodID>weighted average</methodID><stationCount>6</stationCount></magnitude></origin><event publicID="gempa2025hjit"><preferredOriginID>de.gempa.tb1.Origin/20250414141510.738084.140474</preferredOriginID><preferredMagnitudeID>de.gempa.tb1.Magnitude/20250414141510.744766.499055</preferredMagnitudeID><description><text>Northern Chile</text><type>region name</type></description><originReference>de.gempa.tb1.Origin/20250414141510.738084.140474</originReference></event></EventParameters></seiscomp>