<?xml version="1.0" encoding="UTF-8"?>
<seiscomp xmlns="http://geofon.gfz-potsdam.de/ns/seiscomp3-schema/0.13" version="0.13"><EventParameters><pick publicID="de.gempa.tb1.Pick/20250412201205.529244.126486"><time><value>2025-04-12T20:12:00.208393Z</value></time><waveformID networkCode="CX" stationCode="PB06" channelCode="HHZ"/><filterID>ITAPER(4)&gt;&gt;BW(4,4,20)</filterID><methodID>AIC</methodID><horizontalSlowness><value>8.69811280870522</value></horizontalSlowness><backazimuth><value>106.31275006009056</value></backazimuth><phaseHint>P</phaseHint><evaluationMode>automatic</evaluationMode><comment><text>676.959769108746</text><id>DFX:rectilinearity</id></comment><comment><text>22.240460027054795</text><id>SNR</id></comment></pick><pick publicID="de.gempa.tb1.Pick/20250412201205.680102.126488"><time><value>2025-04-12T20:11:59.198393Z</value></time><waveformID networkCode="CX" stationCode="PB15" channelCode="HHZ"/><filterID>ITAPER(4)&gt;&gt;BW(4,4,20)</filterID><methodID>AIC</methodID><horizontalSlowness><value>21.780214543934502</value></horizontalSlowness><backazimuth><value>104.00159516883983</value></backazimuth><phaseHint>P</phaseHint><evaluationMode>automatic</evaluationMode><comment><text>2998.707329955282</text><id>DFX:rectilinearity</id></comment><comment><text>8.946626827069942</text><id>SNR</id></comment></pick><pick publicID="de.gempa.tb1.Pick/20250412201206.51302.126490"><time><value>2025-04-12T20:11:59.08Z</value></time><waveformID networkCode="CX" stationCode="PB19" channelCode="HHZ"/><filterID>ITAPER(4)&gt;&gt;BW(4,4,20)</filterID><methodID>AIC</methodID><horizontalSlowness><value>9.636353388896254</value></horizontalSlowness><backazimuth><value>82.51655892176868</value></backazimuth><phaseHint>P</phaseHint><evaluationMode>automatic</evaluationMode><comment><text>125.027343077509</text><id>DFX:rectilinearity</id></comment><comment><text>8.617822118907016</text><id>SNR</id></comment></pick><pick publicID="de.gempa.tb1.Pick/20250412201210.571495.126492"><time><value>2025-04-12T20:12:02.548393Z</value></time><waveformID networkCode="CX" stationCode="PB03" channelCode="HHZ"/><filterID>ITAPER(4)&gt;&gt;BW(4,4,20)</filterID><methodID>AIC</methodID><horizontalSlowness><value>9.098369114059782</value></horizontalSlowness><backazimuth><value>121.43887724322425</value></backazimuth><phaseHint>P</phaseHint><evaluationMode>automatic</evaluationMode><comment><text>280.11224765779514</text><id>DFX:rectilinearity</id></comment><comment><text>41.019162566133424</text><id>SNR</id></comment></pick><pick publicID="de.gempa.tb1.Pick/20250412201210.767145.126494"><time><value>2025-04-12T20:12:04.708393Z</value></time><waveformID networkCode="CX" stationCode="PB07" channelCode="HHZ"/><filterID>ITAPER(4)&gt;&gt;BW(4,4,20)</filterID><methodID>AIC</methodID><horizontalSlowness><value>12.530759054496885</value></horizontalSlowness><backazimuth><value>116.00731081443553</value></backazimuth><phaseHint>P</phaseHint><evaluationMode>automatic</evaluationMode><comment><text>3699.2310285248786</text><id>DFX:rectilinearity</id></comment><comment><text>67.30184823789479</text><id>SNR</id></comment></pick><pick publicID="de.gempa.tb1.Pick/20250412201212.622832.126496"><time><value>2025-04-12T20:12:06.098393Z</value></time><waveformID networkCode="CX" stationCode="PB02" channelCode="HHZ"/><filterID>ITAPER(4)&gt;&gt;BW(4,4,20)</filterID><methodID>AIC</methodID><horizontalSlowness><value>5.78624761665973</value></horizontalSlowness><backazimuth><value>98.13732754063813</value></backazimuth><phaseHint>P</phaseHint><evaluationMode>automatic</evaluationMode><comment><text>420.0500359777252</text><id>DFX:rectilinearity</id></comment><comment><text>16.429211008099657</text><id>SNR</id></comment></pick><pick publicID="de.gempa.tb1.Pick/20250412201214.853518.126498"><time><value>2025-04-12T20:12:07.718393Z</value></time><waveformID networkCode="CX" stationCode="PB08" channelCode="HHZ"/><filterID>ITAPER(4)&gt;&gt;BW(4,4,20)</filterID><methodID>AIC</methodID><horizontalSlowness><value>18.061419900274817</value></horizontalSlowness><backazimuth><value>218.57367638047822</value></backazimuth><phaseHint>P</phaseHint><evaluationMode>automatic</evaluationMode><comment><text>93.26690632890971</text><id>DFX:rectilinearity</id></comment><comment><text>10.989051522437459</text><id>SNR</id></comment></pick><pick publicID="de.gempa.tb1.Pick/20250412201218.284179.126500"><time><value>2025-04-12T20:12:10.899999Z</value></time><waveformID networkCode="CX" stationCode="PATCX" channelCode="HHZ"/><filterID>ITAPER(4)&gt;&gt;BW(4,4,20)</filterID><methodID>AIC</methodID><horizontalSlowness><value>19.440598732239128</value></horizontalSlowness><backazimuth><value>256.50716482617776</value></backazimuth><phaseHint>P</phaseHint><evaluationMode>automatic</evaluationMode><comment><text>280.0627899736465</text><id>DFX:rectilinearity</id></comment><comment><text>16.588178592817666</text><id>SNR</id></comment></pick><origin publicID="de.gempa.tb1.Origin/20250412201218.381669.91161"><time><value>2025-04-12T20:10:59.988917Z</value><uncertainty>6.725236892700195</uncertainty></time><latitude><value>-22.90933036804199</value><uncertainty>20.132404327392578</uncertainty></latitude><longitude><value>-66.31614685058594</value><uncertainty>42.177711486816406</uncertainty></longitude><depth><value>356.6485595703125</value><uncertainty>78.46881866455078</uncertainty></depth><depthType>from location</depthType><methodID>LOCSAT</methodID><earthModelID>iasp91_scanloc</earthModelID><quality><associatedPhaseCount>8</associatedPhaseCount><usedPhaseCount>8</usedPhaseCount><associatedStationCount>8</associatedStationCount><usedStationCount>8</usedStationCount><depthPhaseCount>0</depthPhaseCount><standardError>0.11004868016786079</standardError><azimuthalGap>293.8134002685547</azimuthalGap><maximumDistance>4.1254944801330566</maximumDistance><minimumDistance>2.9066061973571777</minimumDistance><medianDistance>3.5089125633239746</medianDistance></quality><uncertainty><minHorizontalUncertainty>42.6558837890625</minHorizontalUncertainty><maxHorizontalUncertainty>90.68876647949219</maxHorizontalUncertainty><azimuthMaxHorizontalUncertainty>94.76710510253906</azimuthMaxHorizontalUncertainty><preferredDescription>horizontal uncertainty</preferredDescription></uncertainty><evaluationMode>automatic</evaluationMode><evaluationStatus>confirmed</evaluationStatus><comment><text>0.25</text><id>mismatchScore</id></comment><comment><text>mismatchScore</text><id>scevalMethod</id></comment><arrival><pickID>de.gempa.tb1.Pick/20250412201205.529244.126486</pickID><phase>P</phase><azimuth>273.22906494140625</azimuth><distance>3.01094388961792</distance><timeResidual>0.17576980590820312</timeResidual><timeUsed>true</timeUsed><horizontalSlownessUsed>false</horizontalSlownessUsed><backazimuthUsed>false</backazimuthUsed><weight>1</weight></arrival><arrival><pickID>de.gempa.tb1.Pick/20250412201205.680102.126488</pickID><phase>P</phase><azimuth>263.5389404296875</azimuth><distance>2.920830726623535</distance><timeResidual>-0.034423828125</timeResidual><timeUsed>true</timeUsed><horizontalSlownessUsed>false</horizontalSlownessUsed><backazimuthUsed>false</backazimuthUsed><weight>1</weight></arrival><arrival><pickID>de.gempa.tb1.Pick/20250412201206.51302.126490</pickID><phase>P</phase><azimuth>249.48548889160156</azimuth><distance>2.9066061973571777</distance><timeResidual>-0.018787384033203125</timeResidual><timeUsed>true</timeUsed><horizontalSlownessUsed>false</horizontalSlownessUsed><backazimuthUsed>false</backazimuthUsed><weight>1</weight></arrival><arrival><pickID>de.gempa.tb1.Pick/20250412201210.571495.126492</pickID><phase>P</phase><azimuth>284.4258117675781</azimuth><distance>3.2922375202178955</distance><timeResidual>-0.08172225952148438</timeResidual><timeUsed>true</timeUsed><horizontalSlownessUsed>false</horizontalSlownessUsed><backazimuthUsed>false</backazimuthUsed><weight>1</weight></arrival><arrival><pickID>de.gempa.tb1.Pick/20250412201210.767145.126494</pickID><phase>P</phase><azimuth>288.9176940917969</azimuth><distance>3.5089125633239746</distance><timeResidual>0.027019500732421875</timeResidual><timeUsed>true</timeUsed><horizontalSlownessUsed>false</horizontalSlownessUsed><backazimuthUsed>false</backazimuthUsed><weight>1</weight></arrival><arrival><pickID>de.gempa.tb1.Pick/20250412201212.622832.126496</pickID><phase>P</phase><azimuth>294.801513671875</azimuth><distance>3.677112579345703</distance><timeResidual>-0.20944595336914062</timeResidual><timeUsed>true</timeUsed><horizontalSlownessUsed>false</horizontalSlownessUsed><backazimuthUsed>false</backazimuthUsed><weight>1</weight></arrival><arrival><pickID>de.gempa.tb1.Pick/20250412201214.853518.126498</pickID><phase>P</phase><azimuth>315.6720886230469</azimuth><distance>3.81636381149292</distance><timeResidual>0.03127288818359375</timeResidual><timeUsed>true</timeUsed><horizontalSlownessUsed>false</horizontalSlownessUsed><backazimuthUsed>false</backazimuthUsed><weight>1</weight></arrival><arrival><pickID>de.gempa.tb1.Pick/20250412201218.284179.126500</pickID><phase>P</phase><azimuth>299.52874755859375</azimuth><distance>4.1254944801330566</distance><timeResidual>0.11044692993164062</timeResidual><timeUsed>true</timeUsed><horizontalSlownessUsed>false</horizontalSlownessUsed><backazimuthUsed>false</backazimuthUsed><weight>1</weight></arrival><magnitude publicID="de.gempa.tb1.Magnitude/20250412201433.57539.277564"><magnitude><value>3.9161093463094665</value></magnitude><type>M</type><methodID>weighted average</methodID><stationCount>7</stationCount></magnitude></origin><event publicID="gempa2025hgcs"><preferredOriginID>de.gempa.tb1.Origin/20250412201218.381669.91161</preferredOriginID><preferredMagnitudeID>de.gempa.tb1.Magnitude/20250412201433.57539.277564</preferredMagnitudeID><typeCertainty>suspected</typeCertainty><description><text>Jujuy Province, Argentina</text><type>region name</type></description><originReference>de.gempa.tb1.Origin/20250412201218.381669.91161</originReference></event></EventParameters></seiscomp>