<?xml version="1.0" encoding="UTF-8"?>
<seiscomp xmlns="http://geofon.gfz-potsdam.de/ns/seiscomp3-schema/0.13" version="0.13"><EventParameters><pick publicID="de.gempa.tb1.Pick/20250412234052.71628.176273"><time><value>2025-04-12T23:40:50.605Z</value></time><waveformID networkCode="CH" stationCode="MUGIO" channelCode="HHZ"/><filterID>ITAPER(4)&gt;&gt;BW(4,4,20)</filterID><methodID>AIC</methodID><phaseHint>P</phaseHint><evaluationMode>automatic</evaluationMode></pick><pick publicID="de.gempa.tb1.Pick/20250412234057.062125.176275"><time><value>2025-04-12T23:40:55.08Z</value></time><waveformID networkCode="CH" stationCode="VDL" channelCode="HHZ"/><filterID>ITAPER(4)&gt;&gt;BW(4,4,20)</filterID><methodID>AIC</methodID><phaseHint>P</phaseHint><evaluationMode>automatic</evaluationMode></pick><pick publicID="de.gempa.tb1.Pick/20250412234104.996942.176277"><time><value>2025-04-12T23:41:01.995Z</value></time><waveformID networkCode="CH" stationCode="MMK" channelCode="HHZ"/><filterID>ITAPER(4)&gt;&gt;BW(4,4,20)</filterID><methodID>AIC</methodID><phaseHint>P</phaseHint><evaluationMode>automatic</evaluationMode></pick><pick publicID="de.gempa.tb1.Pick/20250412234110.302607.176280"><time><value>2025-04-12T23:41:05.32Z</value></time><waveformID networkCode="CH" stationCode="LAUCH" channelCode="HHZ"/><filterID>ITAPER(4)&gt;&gt;BW(4,4,20)</filterID><methodID>AIC</methodID><phaseHint>P</phaseHint><evaluationMode>automatic</evaluationMode></pick><pick publicID="de.gempa.tb1.Pick/20250412234111.170683.176282"><time><value>2025-04-12T23:41:06.075Z</value></time><waveformID networkCode="CH" stationCode="BNALP" channelCode="HHZ"/><filterID>ITAPER(4)&gt;&gt;BW(4,4,20)</filterID><methodID>AIC</methodID><phaseHint>P</phaseHint><evaluationMode>automatic</evaluationMode></pick><pick publicID="de.gempa.tb1.Pick/20250412234112.209687.176284"><time><value>2025-04-12T23:41:03.548393Z</value></time><waveformID networkCode="CH" stationCode="GRIMS" channelCode="HHZ"/><filterID>ITAPER(4)&gt;&gt;BW(4,4,20)</filterID><methodID>AIC</methodID><phaseHint>P</phaseHint><evaluationMode>automatic</evaluationMode></pick><pick publicID="de.gempa.tb1.Pick/20250412234112.214625.176286"><time><value>2025-04-12T23:41:06.4Z</value></time><waveformID networkCode="CH" stationCode="DIX" channelCode="HHZ"/><filterID>ITAPER(4)&gt;&gt;BW(4,4,20)</filterID><methodID>AIC</methodID><phaseHint>P</phaseHint><evaluationMode>automatic</evaluationMode></pick><pick publicID="de.gempa.tb1.Pick/20250412234113.136654.176288"><time><value>2025-04-12T23:41:09.445Z</value></time><waveformID networkCode="CH" stationCode="SENIN" channelCode="HHZ"/><filterID>ITAPER(4)&gt;&gt;BW(4,4,20)</filterID><methodID>AIC</methodID><phaseHint>P</phaseHint><evaluationMode>automatic</evaluationMode></pick><pick publicID="de.gempa.tb1.Pick/20250412234113.138544.176290"><time><value>2025-04-12T23:41:09.265Z</value></time><waveformID networkCode="CH" stationCode="WIMIS" channelCode="HHZ"/><filterID>ITAPER(4)&gt;&gt;BW(4,4,20)</filterID><methodID>AIC</methodID><phaseHint>P</phaseHint><evaluationMode>automatic</evaluationMode></pick><pick publicID="de.gempa.tb1.Pick/20250412234115.133943.176292"><time><value>2025-04-12T23:41:11.844998Z</value></time><waveformID networkCode="CH" stationCode="SALAN" channelCode="HHZ"/><filterID>ITAPER(4)&gt;&gt;BW(4,4,20)</filterID><methodID>AIC</methodID><phaseHint>P</phaseHint><evaluationMode>automatic</evaluationMode></pick><pick publicID="de.gempa.tb1.Pick/20250412234121.09866.176298"><time><value>2025-04-12T23:41:18.925Z</value></time><waveformID networkCode="CH" stationCode="BRANT" channelCode="HHZ"/><filterID>ITAPER(4)&gt;&gt;BW(4,4,20)</filterID><methodID>AIC</methodID><phaseHint>P</phaseHint><evaluationMode>automatic</evaluationMode></pick><origin publicID="de.gempa.tb1.Origin/20250412234123.84855.111476"><time><value>2025-04-12T23:40:28.4241Z</value><uncertainty>3.678875207901001</uncertainty></time><latitude><value>45.1562385559082</value><uncertainty>19.02472686767578</uncertainty></latitude><longitude><value>10.3291015625</value><uncertainty>24.379425048828125</uncertainty></longitude><depth><value>0</value></depth><depthType>operator assigned</depthType><methodID>LOCSAT</methodID><earthModelID>iasp91</earthModelID><quality><associatedPhaseCount>11</associatedPhaseCount><usedPhaseCount>11</usedPhaseCount><associatedStationCount>11</associatedStationCount><usedStationCount>11</usedStationCount><depthPhaseCount>0</depthPhaseCount><standardError>0.5392152700494103</standardError><azimuthalGap>318.5096740722656</azimuthalGap><maximumDistance>3.2226226329803467</maximumDistance><minimumDistance>1.185302734375</minimumDistance><medianDistance>2.1881608963012695</medianDistance></quality><uncertainty><minHorizontalUncertainty>22.5971736907959</minHorizontalUncertainty><maxHorizontalUncertainty>62.34041213989258</maxHorizontalUncertainty><azimuthMaxHorizontalUncertainty>125.7723388671875</azimuthMaxHorizontalUncertainty><preferredDescription>horizontal uncertainty</preferredDescription></uncertainty><evaluationMode>automatic</evaluationMode><evaluationStatus>confirmed</evaluationStatus><comment><text>0.59</text><id>mismatchScore</id></comment><comment><text>extendedGap</text><id>scevalMethod</id></comment><arrival><pickID>de.gempa.tb1.Pick/20250412234052.71628.176273</pickID><phase>P</phase><azimuth>310.6957702636719</azimuth><distance>1.185302734375</distance><timeResidual>-0.04755592346191406</timeResidual><timeUsed>true</timeUsed><horizontalSlownessUsed>false</horizontalSlownessUsed><backazimuthUsed>false</backazimuthUsed><weight>1</weight></arrival><arrival><pickID>de.gempa.tb1.Pick/20250412234057.062125.176275</pickID><phase>P</phase><azimuth>335.4478454589844</azimuth><distance>1.4627461433410645</distance><timeResidual>-0.03796577453613281</timeResidual><timeUsed>true</timeUsed><horizontalSlownessUsed>false</horizontalSlownessUsed><backazimuthUsed>false</backazimuthUsed><weight>1</weight></arrival><arrival><pickID>de.gempa.tb1.Pick/20250412234104.996942.176277</pickID><phase>P</phase><azimuth>299.14910888671875</azimuth><distance>1.8858075141906738</distance><timeResidual>0.36254119873046875</timeResidual><timeUsed>true</timeUsed><horizontalSlownessUsed>false</horizontalSlownessUsed><backazimuthUsed>false</backazimuthUsed><weight>1</weight></arrival><arrival><pickID>de.gempa.tb1.Pick/20250412234110.302607.176280</pickID><phase>P</phase><azimuth>306.0468444824219</azimuth><distance>2.1881608963012695</distance><timeResidual>-0.5946693420410156</timeResidual><timeUsed>true</timeUsed><horizontalSlownessUsed>false</horizontalSlownessUsed><backazimuthUsed>false</backazimuthUsed><weight>1</weight></arrival><arrival><pickID>de.gempa.tb1.Pick/20250412234111.170683.176282</pickID><phase>P</phase><azimuth>322.9427795410156</azimuth><distance>2.1679725646972656</distance><timeResidual>0.43855857849121094</timeResidual><timeUsed>true</timeUsed><horizontalSlownessUsed>false</horizontalSlownessUsed><backazimuthUsed>false</backazimuthUsed><weight>1</weight></arrival><arrival><pickID>de.gempa.tb1.Pick/20250412234112.209687.176284</pickID><phase>P</phase><azimuth>316.0712890625</azimuth><distance>1.9987410306930542</distance><timeResidual>0.2386474609375</timeResidual><timeUsed>true</timeUsed><horizontalSlownessUsed>false</horizontalSlownessUsed><backazimuthUsed>false</backazimuthUsed><weight>1</weight></arrival><arrival><pickID>de.gempa.tb1.Pick/20250412234112.214625.176286</pickID><phase>P</phase><azimuth>295.2967529296875</azimuth><distance>2.2484254837036133</distance><timeResidual>-0.3434925079345703</timeResidual><timeUsed>true</timeUsed><horizontalSlownessUsed>false</horizontalSlownessUsed><backazimuthUsed>false</backazimuthUsed><weight>1</weight></arrival><arrival><pickID>de.gempa.tb1.Pick/20250412234113.136654.176288</pickID><phase>P</phase><azimuth>300.7239990234375</azimuth><distance>2.4403460025787354</distance><timeResidual>0.0643768310546875</timeResidual><timeUsed>true</timeUsed><horizontalSlownessUsed>false</horizontalSlownessUsed><backazimuthUsed>false</backazimuthUsed><weight>1</weight></arrival><arrival><pickID>de.gempa.tb1.Pick/20250412234113.138544.176290</pickID><phase>P</phase><azimuth>309.58697509765625</azimuth><distance>2.417076110839844</distance><timeResidual>0.204681396484375</timeResidual><timeUsed>true</timeUsed><horizontalSlownessUsed>false</horizontalSlownessUsed><backazimuthUsed>false</backazimuthUsed><weight>1</weight></arrival><arrival><pickID>de.gempa.tb1.Pick/20250412234115.133943.176292</pickID><phase>P</phase><azimuth>293.95751953125</azimuth><distance>2.5527381896972656</distance><timeResidual>0.9194183349609375</timeResidual><timeUsed>true</timeUsed><horizontalSlownessUsed>false</horizontalSlownessUsed><backazimuthUsed>false</backazimuthUsed><weight>1</weight></arrival><arrival><pickID>de.gempa.tb1.Pick/20250412234121.09866.176298</pickID><phase>P</phase><azimuth>304.94024658203125</azimuth><distance>3.2226226329803467</distance><timeResidual>-1.2045211791992188</timeResidual><timeUsed>true</timeUsed><horizontalSlownessUsed>false</horizontalSlownessUsed><backazimuthUsed>false</backazimuthUsed><weight>1</weight></arrival><magnitude publicID="de.gempa.tb1.Magnitude/20250412234217.256136.292896"><magnitude><value>2.6859124972120476</value></magnitude><type>M</type><methodID>weighted average</methodID><stationCount>8</stationCount></magnitude></origin><event publicID="gempa2025hgjp"><preferredOriginID>de.gempa.tb1.Origin/20250412234123.84855.111476</preferredOriginID><preferredMagnitudeID>de.gempa.tb1.Magnitude/20250412234217.256136.292896</preferredMagnitudeID><description><text>Northern Italy</text><type>region name</type></description><originReference>de.gempa.tb1.Origin/20250412234123.84855.111476</originReference></event></EventParameters></seiscomp>