<?xml version="1.0" encoding="UTF-8"?>
<seiscomp xmlns="http://geofon.gfz-potsdam.de/ns/seiscomp3-schema/0.13" version="0.13"><EventParameters><pick publicID="de.gempa.tb1.Pick/20250412061204.627111.122413"><time><value>2025-04-12T06:11:58.188393Z</value></time><waveformID networkCode="CX" stationCode="PB15" channelCode="HHZ"/><filterID>ITAPER(4)&gt;&gt;BW(4,4,20)</filterID><methodID>AIC</methodID><horizontalSlowness><value>23.46650337116396</value></horizontalSlowness><backazimuth><value>110.69868908879933</value></backazimuth><phaseHint>P</phaseHint><evaluationMode>automatic</evaluationMode><comment><text>204.40748858714176</text><id>DFX:rectilinearity</id></comment><comment><text>9.139659230337406</text><id>SNR</id></comment></pick><pick publicID="de.gempa.tb1.Pick/20250412061208.594816.122415"><time><value>2025-04-12T06:12:00.15Z</value></time><waveformID networkCode="CX" stationCode="PB19" channelCode="HHZ"/><filterID>ITAPER(4)&gt;&gt;BW(4,4,20)</filterID><methodID>AIC</methodID><horizontalSlowness><value>13.009126520212726</value></horizontalSlowness><backazimuth><value>186.6012290992198</value></backazimuth><phaseHint>P</phaseHint><evaluationMode>automatic</evaluationMode><comment><text>17.025677750776364</text><id>DFX:rectilinearity</id></comment><comment><text>15.503774460630892</text><id>SNR</id></comment></pick><pick publicID="de.gempa.tb1.Pick/20250412061210.621641.122417"><time><value>2025-04-12T06:12:04.49Z</value></time><waveformID networkCode="CX" stationCode="PB09" channelCode="HHZ"/><filterID>ITAPER(4)&gt;&gt;BW(4,4,20)</filterID><methodID>AIC</methodID><horizontalSlowness><value>21.731861482857965</value></horizontalSlowness><backazimuth><value>122.8740248394461</value></backazimuth><phaseHint>P</phaseHint><evaluationMode>automatic</evaluationMode><comment><text>7.631161439580024</text><id>DFX:rectilinearity</id></comment><comment><text>23.4552248720321</text><id>SNR</id></comment></pick><pick publicID="de.gempa.tb1.Pick/20250412061213.53433.122419"><time><value>2025-04-12T06:12:05.328393Z</value></time><waveformID networkCode="CX" stationCode="PB03" channelCode="HHZ"/><filterID>ITAPER(4)&gt;&gt;BW(4,4,20)</filterID><methodID>AIC</methodID><horizontalSlowness><value>16.833580548451984</value></horizontalSlowness><backazimuth><value>246.60375563029746</value></backazimuth><phaseHint>P</phaseHint><evaluationMode>automatic</evaluationMode><comment><text>8.774949087162291</text><id>DFX:rectilinearity</id></comment><comment><text>9.860647795775176</text><id>SNR</id></comment></pick><pick publicID="de.gempa.tb1.Pick/20250412061226.715696.122427"><time><value>2025-04-12T06:12:15.028393Z</value></time><waveformID networkCode="CX" stationCode="PB15" channelCode="HHN"/><filterID>ITAPER(2)&gt;&gt;BW(3,3,20)</filterID><methodID>L2-AIC-GRID</methodID><horizontalSlowness><value>20.226199704518429</value></horizontalSlowness><backazimuth><value>124.6586220578079</value></backazimuth><phaseHint>S</phaseHint><evaluationMode>automatic</evaluationMode><comment><text>2509.2100906829055</text><id>DFX:rectilinearity</id></comment><comment><text>de.gempa.tb1.Pick/20250412061204.627111.122413</text><id>RefPickID</id></comment><comment><text>10.671785936687169</text><id>SNR</id></comment></pick><pick publicID="de.gempa.tb1.Pick/20250412061228.519067.122428"><time><value>2025-04-12T06:12:18.53Z</value></time><waveformID networkCode="CX" stationCode="PB19" channelCode="HHN"/><filterID>ITAPER(2)&gt;&gt;BW(3,3,20)</filterID><methodID>L2-AIC-GRID</methodID><horizontalSlowness><value>23.21915808600686</value></horizontalSlowness><backazimuth><value>184.8865836326754</value></backazimuth><phaseHint>S</phaseHint><evaluationMode>automatic</evaluationMode><comment><text>18.884744044840648</text><id>DFX:rectilinearity</id></comment><comment><text>de.gempa.tb1.Pick/20250412061208.594816.122415</text><id>RefPickID</id></comment><comment><text>5.400136879722112</text><id>SNR</id></comment></pick><pick publicID="de.gempa.tb1.Pick/20250412061229.645475.122429"><time><value>2025-04-12T06:12:08.958394Z</value></time><waveformID networkCode="CX" stationCode="PB07" channelCode="HHZ"/><filterID>ITAPER(4)&gt;&gt;BW(4,4,20)</filterID><methodID>AIC</methodID><horizontalSlowness><value>22.76883799633733</value></horizontalSlowness><backazimuth><value>120.54239863482445</value></backazimuth><phaseHint>P</phaseHint><evaluationMode>automatic</evaluationMode><comment><text>169.9789233290667</text><id>DFX:rectilinearity</id></comment><comment><text>12.29040238543874</text><id>SNR</id></comment></pick><pick publicID="de.gempa.tb1.Pick/20250412061235.771683.122436"><time><value>2025-04-12T06:12:27.038393Z</value></time><waveformID networkCode="CX" stationCode="PB03" channelCode="HHN"/><filterID>ITAPER(2)&gt;&gt;BW(3,3,20)</filterID><methodID>L2-AIC-GRID</methodID><horizontalSlowness><value>3.3311511607481323</value></horizontalSlowness><backazimuth><value>291.4639217987751</value></backazimuth><phaseHint>S</phaseHint><evaluationMode>automatic</evaluationMode><comment><text>8.384826504395782</text><id>DFX:rectilinearity</id></comment><comment><text>de.gempa.tb1.Pick/20250412061213.53433.122419</text><id>RefPickID</id></comment><comment><text>6.860122057003179</text><id>SNR</id></comment></pick><origin publicID="de.gempa.tb1.Origin/20250412061235.811125.76433"><time><value>2025-04-12T06:11:36.955445Z</value><uncertainty>1.1817797422409058</uncertainty></time><latitude><value>-23.102792739868164</value><uncertainty>8.093269348144531</uncertainty></latitude><longitude><value>-68.60348510742188</value><uncertainty>29.307668685913086</uncertainty></longitude><depth><value>132.51577758789062</value><uncertainty>25.68306541442871</uncertainty></depth><depthType>from location</depthType><methodID>LOCSAT</methodID><earthModelID>iasp91_scanloc</earthModelID><quality><associatedPhaseCount>8</associatedPhaseCount><usedPhaseCount>8</usedPhaseCount><associatedStationCount>5</associatedStationCount><usedStationCount>5</usedStationCount><depthPhaseCount>0</depthPhaseCount><standardError>0.13589688520198662</standardError><azimuthalGap>242.732177734375</azimuthalGap><maximumDistance>1.8122971057891846</maximumDistance><minimumDistance>0.8052566647529602</minimumDistance><medianDistance>1.4280521869659424</medianDistance></quality><uncertainty><minHorizontalUncertainty>10.619527816772461</minHorizontalUncertainty><maxHorizontalUncertainty>64.32819366455078</maxHorizontalUncertainty><azimuthMaxHorizontalUncertainty>77.50505828857422</azimuthMaxHorizontalUncertainty><preferredDescription>horizontal uncertainty</preferredDescription></uncertainty><evaluationMode>automatic</evaluationMode><evaluationStatus>confirmed</evaluationStatus><comment><text>0.16</text><id>mismatchScore</id></comment><comment><text>mismatchScore</text><id>scevalMethod</id></comment><arrival><pickID>de.gempa.tb1.Pick/20250412061204.627111.122413</pickID><phase>P</phase><azimuth>262.33441162109375</azimuth><distance>0.8052566647529602</distance><timeResidual>-0.24062156677246094</timeResidual><timeUsed>true</timeUsed><horizontalSlownessUsed>false</horizontalSlownessUsed><backazimuthUsed>false</backazimuthUsed><weight>1</weight></arrival><arrival><pickID>de.gempa.tb1.Pick/20250412061208.594816.122415</pickID><phase>P</phase><azimuth>218.179931640625</azimuth><distance>1.017461895942688</distance><timeResidual>-0.12427139282226562</timeResidual><timeUsed>true</timeUsed><horizontalSlownessUsed>false</horizontalSlownessUsed><backazimuthUsed>false</backazimuthUsed><weight>1</weight></arrival><arrival><pickID>de.gempa.tb1.Pick/20250412061210.621641.122417</pickID><phase>P</phase><azimuth>335.44775390625</azimuth><distance>1.4280521869659424</distance><timeResidual>0.020029067993164062</timeResidual><timeUsed>true</timeUsed><horizontalSlownessUsed>false</horizontalSlownessUsed><backazimuthUsed>false</backazimuthUsed><weight>1</weight></arrival><arrival><pickID>de.gempa.tb1.Pick/20250412061213.53433.122419</pickID><phase>P</phase><azimuth>314.4200744628906</azimuth><distance>1.493347406387329</distance><timeResidual>0.14165878295898438</timeResidual><timeUsed>true</timeUsed><horizontalSlownessUsed>false</horizontalSlownessUsed><backazimuthUsed>false</backazimuthUsed><weight>1</weight></arrival><arrival><pickID>de.gempa.tb1.Pick/20250412061226.715696.122427</pickID><phase>S</phase><azimuth>262.33441162109375</azimuth><distance>0.8052566647529602</distance><timeResidual>-0.021595001220703125</timeResidual><timeUsed>true</timeUsed><horizontalSlownessUsed>false</horizontalSlownessUsed><backazimuthUsed>false</backazimuthUsed><weight>1</weight></arrival><arrival><pickID>de.gempa.tb1.Pick/20250412061228.519067.122428</pickID><phase>S</phase><azimuth>218.179931640625</azimuth><distance>1.017461895942688</distance><timeResidual>0.18814849853515625</timeResidual><timeUsed>true</timeUsed><horizontalSlownessUsed>false</horizontalSlownessUsed><backazimuthUsed>false</backazimuthUsed><weight>1</weight></arrival><arrival><pickID>de.gempa.tb1.Pick/20250412061229.645475.122429</pickID><phase>P</phase><azimuth>318.8411865234375</azimuth><distance>1.8122971057891846</distance><timeResidual>0.11159324645996094</timeResidual><timeUsed>true</timeUsed><horizontalSlownessUsed>false</horizontalSlownessUsed><backazimuthUsed>false</backazimuthUsed><weight>1</weight></arrival><arrival><pickID>de.gempa.tb1.Pick/20250412061235.771683.122436</pickID><phase>S</phase><azimuth>314.4200744628906</azimuth><distance>1.493347406387329</distance><timeResidual>-0.07492637634277344</timeResidual><timeUsed>true</timeUsed><horizontalSlownessUsed>false</horizontalSlownessUsed><backazimuthUsed>false</backazimuthUsed><weight>1</weight></arrival><magnitude publicID="de.gempa.tb1.Magnitude/20250412061235.816252.186810"><magnitude><value>2.6144762947762703</value></magnitude><type>M</type><methodID>weighted average</methodID><stationCount>3</stationCount></magnitude></origin><event publicID="gempa2025hfap"><preferredOriginID>de.gempa.tb1.Origin/20250412061235.811125.76433</preferredOriginID><preferredMagnitudeID>de.gempa.tb1.Magnitude/20250412061235.816252.186810</preferredMagnitudeID><description><text>Northern Chile</text><type>region name</type></description><originReference>de.gempa.tb1.Origin/20250412061235.811125.76433</originReference></event></EventParameters></seiscomp>