<?xml version="1.0" encoding="UTF-8"?>
<seiscomp xmlns="http://geofon.gfz-potsdam.de/ns/seiscomp3-schema/0.13" version="0.13"><EventParameters><pick publicID="de.gempa.tb1.Pick/20250411153753.103901.118561"><time><value>2025-04-11T15:37:47.368393Z</value></time><waveformID networkCode="CX" stationCode="PB08" channelCode="HHZ"/><filterID>ITAPER(4)&gt;&gt;BW(4,4,20)</filterID><methodID>AIC</methodID><horizontalSlowness><value>15.214311161584908</value></horizontalSlowness><backazimuth><value>82.83528155970562</value></backazimuth><phaseHint>P</phaseHint><evaluationMode>automatic</evaluationMode><comment><text>7.705016790437198</text><id>DFX:rectilinearity</id></comment><comment><text>29.47528940692146</text><id>SNR</id></comment></pick><pick publicID="de.gempa.tb1.Pick/20250411153759.531619.118563"><time><value>2025-04-11T15:37:54.15Z</value></time><waveformID networkCode="CX" stationCode="PSGCX" channelCode="HHZ"/><filterID>ITAPER(4)&gt;&gt;BW(4,4,20)</filterID><methodID>AIC</methodID><horizontalSlowness><value>15.413295155723707</value></horizontalSlowness><backazimuth><value>108.67971354556364</value></backazimuth><phaseHint>P</phaseHint><evaluationMode>automatic</evaluationMode><comment><text>74.60081099349927</text><id>DFX:rectilinearity</id></comment><comment><text>17.19437137269437</text><id>SNR</id></comment></pick><pick publicID="de.gempa.tb1.Pick/20250411153759.581251.118565"><time><value>2025-04-11T15:37:53.438393Z</value></time><waveformID networkCode="CX" stationCode="PB01" channelCode="HHZ"/><filterID>ITAPER(4)&gt;&gt;BW(4,4,20)</filterID><methodID>AIC</methodID><horizontalSlowness><value>17.81291115946627</value></horizontalSlowness><backazimuth><value>18.854736657330704</value></backazimuth><phaseHint>P</phaseHint><evaluationMode>automatic</evaluationMode><comment><text>20.052087460154215</text><id>DFX:rectilinearity</id></comment><comment><text>13.295109270830503</text><id>SNR</id></comment></pick><pick publicID="de.gempa.tb1.Pick/20250411153805.214745.118568"><time><value>2025-04-11T15:37:58.338393Z</value></time><waveformID networkCode="CX" stationCode="PB08" channelCode="HHN"/><filterID>ITAPER(2)&gt;&gt;BW(3,3,20)</filterID><methodID>L2-AIC-GRID</methodID><horizontalSlowness><value>15.9439674512171</value></horizontalSlowness><backazimuth><value>198.9263833799358</value></backazimuth><phaseHint>S</phaseHint><evaluationMode>automatic</evaluationMode><comment><text>29.62441481043643</text><id>DFX:rectilinearity</id></comment><comment><text>de.gempa.tb1.Pick/20250411153753.103901.118561</text><id>RefPickID</id></comment><comment><text>5.581566870506011</text><id>SNR</id></comment></pick><pick publicID="de.gempa.tb1.Pick/20250411153815.562042.118571"><time><value>2025-04-11T15:38:09.8Z</value></time><waveformID networkCode="CX" stationCode="PSGCX" channelCode="HHN"/><filterID>ITAPER(2)&gt;&gt;BW(3,3,20)</filterID><methodID>L2-AIC-GRID</methodID><horizontalSlowness><value>22.78981125414674</value></horizontalSlowness><backazimuth><value>282.11803970484237</value></backazimuth><phaseHint>S</phaseHint><evaluationMode>automatic</evaluationMode><comment><text>84.96020769760231</text><id>DFX:rectilinearity</id></comment><comment><text>de.gempa.tb1.Pick/20250411153759.531619.118563</text><id>RefPickID</id></comment><comment><text>5.89117040953025</text><id>SNR</id></comment></pick><pick publicID="de.gempa.tb1.Pick/20250411153815.612599.118572"><time><value>2025-04-11T15:38:08.828393Z</value></time><waveformID networkCode="CX" stationCode="PB01" channelCode="HHN"/><filterID>ITAPER(2)&gt;&gt;BW(3,3,20)</filterID><methodID>L2-AIC-GRID</methodID><horizontalSlowness><value>21.793680812728585</value></horizontalSlowness><backazimuth><value>105.41867131488975</value></backazimuth><phaseHint>S</phaseHint><evaluationMode>automatic</evaluationMode><comment><text>200.02550192597963</text><id>DFX:rectilinearity</id></comment><comment><text>de.gempa.tb1.Pick/20250411153759.581251.118565</text><id>RefPickID</id></comment><comment><text>7.606990246925585</text><id>SNR</id></comment></pick><origin publicID="de.gempa.tb1.Origin/20250411153816.585954.59733"><time><value>2025-04-11T15:37:33.475264Z</value><uncertainty>1.500008225440979</uncertainty></time><latitude><value>-20.124605178833008</value><uncertainty>5.459273815155029</uncertainty></latitude><longitude><value>-69.21430206298828</value><uncertainty>8.637517929077148</uncertainty></longitude><depth><value>101.14604187011719</value><uncertainty>9.1070556640625</uncertainty></depth><depthType>from location</depthType><methodID>LOCSAT</methodID><earthModelID>iasp91_scanloc</earthModelID><quality><associatedPhaseCount>6</associatedPhaseCount><usedPhaseCount>6</usedPhaseCount><associatedStationCount>3</associatedStationCount><usedStationCount>3</usedStationCount><depthPhaseCount>0</depthPhaseCount><standardError>0.08622533765699145</standardError><azimuthalGap>164.65697479248047</azimuthalGap><maximumDistance>1.0034645795822144</maximumDistance><minimumDistance>0.0595412813127041</minimumDistance><medianDistance>0.94912189245224</medianDistance></quality><uncertainty><minHorizontalUncertainty>9.554126739501953</minHorizontalUncertainty><maxHorizontalUncertainty>19.721158981323242</maxHorizontalUncertainty><azimuthMaxHorizontalUncertainty>66.90630340576172</azimuthMaxHorizontalUncertainty><preferredDescription>horizontal uncertainty</preferredDescription></uncertainty><evaluationMode>automatic</evaluationMode><evaluationStatus>confirmed</evaluationStatus><comment><text>0.00</text><id>mismatchScore</id></comment><comment><text>mismatchScore</text><id>scevalMethod</id></comment><arrival><pickID>de.gempa.tb1.Pick/20250411153753.103901.118561</pickID><phase>P</phase><azimuth>106.02977752685547</azimuth><distance>0.0595412813127041</distance><timeResidual>-0.13138771057128906</timeResidual><timeUsed>true</timeUsed><horizontalSlownessUsed>false</horizontalSlownessUsed><backazimuthUsed>false</backazimuthUsed><weight>1</weight></arrival><arrival><pickID>de.gempa.tb1.Pick/20250411153759.531619.118563</pickID><phase>P</phase><azimuth>301.372802734375</azimuth><distance>1.0034645795822144</distance><timeResidual>0.12920761108398438</timeResidual><timeUsed>true</timeUsed><horizontalSlownessUsed>false</horizontalSlownessUsed><backazimuthUsed>false</backazimuthUsed><weight>1</weight></arrival><arrival><pickID>de.gempa.tb1.Pick/20250411153759.581251.118565</pickID><phase>P</phase><azimuth>195.59210205078125</azimuth><distance>0.94912189245224</distance><timeResidual>0.0028858184814453125</timeResidual><timeUsed>true</timeUsed><horizontalSlownessUsed>false</horizontalSlownessUsed><backazimuthUsed>false</backazimuthUsed><weight>1</weight></arrival><arrival><pickID>de.gempa.tb1.Pick/20250411153805.214745.118568</pickID><phase>S</phase><azimuth>106.02977752685547</azimuth><distance>0.0595412813127041</distance><timeResidual>0.07340335845947266</timeResidual><timeUsed>true</timeUsed><horizontalSlownessUsed>false</horizontalSlownessUsed><backazimuthUsed>false</backazimuthUsed><weight>1</weight></arrival><arrival><pickID>de.gempa.tb1.Pick/20250411153815.562042.118571</pickID><phase>S</phase><azimuth>301.372802734375</azimuth><distance>1.0034645795822144</distance><timeResidual>-0.07247352600097656</timeResidual><timeUsed>true</timeUsed><horizontalSlownessUsed>false</horizontalSlownessUsed><backazimuthUsed>false</backazimuthUsed><weight>1</weight></arrival><arrival><pickID>de.gempa.tb1.Pick/20250411153815.612599.118572</pickID><phase>S</phase><azimuth>195.59210205078125</azimuth><distance>0.94912189245224</distance><timeResidual>-0.0016498565673828125</timeResidual><timeUsed>true</timeUsed><horizontalSlownessUsed>false</horizontalSlownessUsed><backazimuthUsed>false</backazimuthUsed><weight>1</weight></arrival><magnitude publicID="de.gempa.tb1.Magnitude/20250411153909.567024.115493"><magnitude><value>2.2813146066683334</value></magnitude><type>M</type><methodID>weighted average</methodID><stationCount>1</stationCount></magnitude></origin><event publicID="gempa2025hdxm"><preferredOriginID>de.gempa.tb1.Origin/20250411153816.585954.59733</preferredOriginID><preferredMagnitudeID>de.gempa.tb1.Magnitude/20250411153909.567024.115493</preferredMagnitudeID><description><text>Northern Chile</text><type>region name</type></description><originReference>de.gempa.tb1.Origin/20250411153816.585954.59733</originReference></event></EventParameters></seiscomp>