<?xml version="1.0" encoding="UTF-8"?>
<seiscomp xmlns="http://geofon.gfz-potsdam.de/ns/seiscomp3-schema/0.13" version="0.13"><EventParameters><pick publicID="de.gempa.tb1.Pick/20250413202415.077334.124957"><time><value>2025-04-13T20:24:01.794538Z</value></time><waveformID networkCode="GE" stationCode="KBS" locationCode="00" channelCode="BHZ"/><filterID>BW(4,0.7,2)</filterID><methodID>AIC</methodID><horizontalSlowness><value>7.850470152331237</value></horizontalSlowness><backazimuth><value>16.27988685221274</value></backazimuth><phaseHint>P</phaseHint><evaluationMode>automatic</evaluationMode><comment><text>509.6039298233675</text><id>DFX:rectilinearity</id></comment></pick><pick publicID="de.gempa.tb1.Pick/20250413202647.650312.124997"><time><value>2025-04-13T20:26:24.7Z</value></time><waveformID networkCode="PL" stationCode="KWP" channelCode="HHZ"/><methodID>AIC</methodID><horizontalSlowness><value>19.72294178140038</value></horizontalSlowness><backazimuth><value>59.29686417583223</value></backazimuth><phaseHint>P</phaseHint><evaluationMode>automatic</evaluationMode><comment><text>103.6253366374704</text><id>DFX:rectilinearity</id></comment></pick><pick publicID="de.gempa.tb1.Pick/20250413202652.567562.124999"><time><value>2025-04-13T20:26:38.08Z</value></time><waveformID networkCode="TH" stationCode="MORAS" channelCode="HHZ"/><methodID>AIC</methodID><horizontalSlowness><value>6.832821266592918</value></horizontalSlowness><backazimuth><value>345.80585985435675</value></backazimuth><phaseHint>P</phaseHint><evaluationMode>automatic</evaluationMode><comment><text>36.41789087143534</text><id>DFX:rectilinearity</id></comment></pick><pick publicID="de.gempa.tb1.Pick/20250413202653.219123.125001"><time><value>2025-04-13T20:26:37.185Z</value></time><waveformID networkCode="TH" stationCode="FRAU" channelCode="HHZ"/><methodID>AIC</methodID><horizontalSlowness><value>5.961713702563757</value></horizontalSlowness><backazimuth><value>31.89515761411653</value></backazimuth><phaseHint>P</phaseHint><evaluationMode>automatic</evaluationMode><comment><text>478.2115793300863</text><id>DFX:rectilinearity</id></comment></pick><pick publicID="de.gempa.tb1.Pick/20250413202654.09378.125003"><time><value>2025-04-13T20:26:31.663Z</value></time><waveformID networkCode="PL" stationCode="NIE" channelCode="HHZ"/><methodID>AIC</methodID><horizontalSlowness><value>20.874351465232156</value></horizontalSlowness><backazimuth><value>29.56352766648669</value></backazimuth><phaseHint>P</phaseHint><evaluationMode>automatic</evaluationMode><comment><text>60.63643362460334</text><id>DFX:rectilinearity</id></comment></pick><pick publicID="de.gempa.tb1.Pick/20250413202655.251581.125005"><time><value>2025-04-13T20:26:36.030604Z</value></time><waveformID networkCode="SX" stationCode="MEINS" channelCode="HHZ"/><methodID>AIC</methodID><horizontalSlowness><value>6.681163424278986</value></horizontalSlowness><backazimuth><value>13.980950639433672</value></backazimuth><phaseHint>P</phaseHint><evaluationMode>automatic</evaluationMode><comment><text>317.0944273275992</text><id>DFX:rectilinearity</id></comment></pick><pick publicID="de.gempa.tb1.Pick/20250413202655.786133.125007"><time><value>2025-04-13T20:26:36.945Z</value></time><waveformID networkCode="TH" stationCode="GEIDO" channelCode="HHZ"/><methodID>AIC</methodID><horizontalSlowness><value>7.667806603999154</value></horizontalSlowness><backazimuth><value>16.00490118092972</value></backazimuth><phaseHint>P</phaseHint><evaluationMode>automatic</evaluationMode><comment><text>594.0502398231166</text><id>DFX:rectilinearity</id></comment></pick><pick publicID="de.gempa.tb1.Pick/20250413202656.620148.125011"><time><value>2025-04-13T20:26:40.23Z</value></time><waveformID networkCode="BW" stationCode="ROTZ" channelCode="HHZ"/><methodID>AIC</methodID><horizontalSlowness><value>11.222939942764732</value></horizontalSlowness><backazimuth><value>65.15888490157475</value></backazimuth><phaseHint>P</phaseHint><evaluationMode>automatic</evaluationMode><comment><text>19.220602830561695</text><id>DFX:rectilinearity</id></comment></pick><pick publicID="de.gempa.tb1.Pick/20250413202700.921577.125014"><time><value>2025-04-13T20:26:37.619538Z</value></time><waveformID networkCode="GR" stationCode="MOX" channelCode="BHZ"/><filterID>BW(4,0.7,2)</filterID><methodID>AIC</methodID><horizontalSlowness><value>6.268575624312389</value></horizontalSlowness><backazimuth><value>39.306363356189166</value></backazimuth><phaseHint>P</phaseHint><evaluationMode>automatic</evaluationMode><comment><text>8.766005352031492</text><id>DFX:rectilinearity</id></comment></pick><pick publicID="de.gempa.tb1.Pick/20250413202700.998636.125016"><time><value>2025-04-13T20:26:40.494999Z</value></time><waveformID networkCode="TH" stationCode="VITZ" channelCode="HHZ"/><methodID>AIC</methodID><horizontalSlowness><value>13.343693499759798</value></horizontalSlowness><backazimuth><value>74.23986765372717</value></backazimuth><phaseHint>P</phaseHint><evaluationMode>automatic</evaluationMode><comment><text>2970.898201239726</text><id>DFX:rectilinearity</id></comment></pick><pick publicID="de.gempa.tb1.Pick/20250413202704.414218.125018"><time><value>2025-04-13T20:26:37.219999Z</value></time><waveformID networkCode="TH" stationCode="RANIS" channelCode="HHZ"/><methodID>AIC</methodID><horizontalSlowness><value>7.337063948337614</value></horizontalSlowness><backazimuth><value>24.60869277826575</value></backazimuth><phaseHint>P</phaseHint><evaluationMode>automatic</evaluationMode><comment><text>126.3023622619874</text><id>DFX:rectilinearity</id></comment></pick><pick publicID="de.gempa.tb1.Pick/20250413202712.140763.125026"><time><value>2025-04-13T20:26:40.6Z</value></time><waveformID networkCode="GR" stationCode="UBBA" channelCode="BHZ"/><filterID>BW(4,0.7,2)</filterID><methodID>AIC</methodID><horizontalSlowness><value>2.2113559396466647</value></horizontalSlowness><backazimuth><value>51.53828702332569</value></backazimuth><phaseHint>P</phaseHint><evaluationMode>automatic</evaluationMode><comment><text>7.063810778538603</text><id>DFX:rectilinearity</id></comment></pick><origin publicID="de.gempa.tb1.Origin/20250413202727.525324.179673"><time><value>2025-04-13T20:21:26.87779Z</value><uncertainty>2.985828399658203</uncertainty></time><latitude><value>70.57609558105469</value><uncertainty>5.966871738433838</uncertainty></latitude><longitude><value>39.09870147705078</value><uncertainty>48.36409378051758</uncertainty></longitude><depth><value>10</value><uncertainty>0</uncertainty></depth><depthType>from location</depthType><methodID>LOCSAT</methodID><earthModelID>iasp91</earthModelID><quality><associatedPhaseCount>12</associatedPhaseCount><usedPhaseCount>11</usedPhaseCount><associatedStationCount>12</associatedStationCount><usedStationCount>11</usedStationCount><standardError>0.989381393201269</standardError><azimuthalGap>236.79180908203125</azimuthalGap><maximumDistance>23.84868621826172</maximumDistance><minimumDistance>10.772675514221191</minimumDistance><medianDistance>23.392614364624023</medianDistance></quality><evaluationMode>automatic</evaluationMode><evaluationStatus>rejected</evaluationStatus><comment><text>236.79</text><id>maxGap</id></comment><comment><text>0.80</text><id>mismatchScore</id></comment><comment><text>mismatchScore</text><id>scevalMethod</id></comment><arrival><pickID>de.gempa.tb1.Pick/20250413202415.077334.124957</pickID><phase>P</phase><azimuth>331.99591064453125</azimuth><distance>10.772675514221191</distance><timeResidual>0.0778045654296875</timeResidual><timeUsed>true</timeUsed><horizontalSlownessUsed>true</horizontalSlownessUsed><backazimuthUsed>true</backazimuthUsed><weight>1</weight></arrival><arrival><pickID>de.gempa.tb1.Pick/20250413202647.650312.124997</pickID><phase>P</phase><azimuth>208.7877197265625</azimuth><distance>22.30575180053711</distance><timeResidual>-0.147216796875</timeResidual><timeUsed>true</timeUsed><horizontalSlownessUsed>true</horizontalSlownessUsed><backazimuthUsed>true</backazimuthUsed><weight>1</weight></arrival><arrival><pickID>de.gempa.tb1.Pick/20250413202652.567562.124999</pickID><phase>P</phase><azimuth>227.4125061035156</azimuth><distance>23.804208755493164</distance><timeResidual>-2.1776123046875</timeResidual><timeUsed>true</timeUsed><horizontalSlownessUsed>true</horizontalSlownessUsed><backazimuthUsed>true</backazimuthUsed><weight>1</weight></arrival><arrival><pickID>de.gempa.tb1.Pick/20250413202653.219123.125001</pickID><phase>P</phase><azimuth>225.96400451660156</azimuth><distance>23.392614364624023</distance><timeResidual>0.9549407958984375</timeResidual><timeUsed>true</timeUsed><horizontalSlownessUsed>true</horizontalSlownessUsed><backazimuthUsed>true</backazimuthUsed><weight>1</weight></arrival><arrival><pickID>de.gempa.tb1.Pick/20250413202654.09378.125003</pickID><phase>P</phase><azimuth>212.54595947265625</azimuth><distance>22.91704559326172</distance><timeResidual>0.30902099609375</timeResidual><timeUsed>true</timeUsed><horizontalSlownessUsed>true</horizontalSlownessUsed><backazimuthUsed>true</backazimuthUsed><weight>1</weight></arrival><arrival><pickID>de.gempa.tb1.Pick/20250413202655.251581.125005</pickID><phase>P</phase><azimuth>225.16192626953125</azimuth><distance>23.22428512573242</distance><timeResidual>1.4844207763671875</timeResidual><timeUsed>true</timeUsed><horizontalSlownessUsed>true</horizontalSlownessUsed><backazimuthUsed>true</backazimuthUsed><weight>1</weight></arrival><arrival><pickID>de.gempa.tb1.Pick/20250413202655.786133.125007</pickID><phase>P</phase><azimuth>226.17466735839844</azimuth><distance>23.383724212646484</distance><timeResidual>0.8017425537109375</timeResidual><timeUsed>true</timeUsed><horizontalSlownessUsed>true</horizontalSlownessUsed><backazimuthUsed>true</backazimuthUsed><weight>1</weight></arrival><arrival><pickID>de.gempa.tb1.Pick/20250413202656.620148.125011</pickID><phase>P</phase><azimuth>225.27162170410156</azimuth><distance>24.28078842163086</distance><timeResidual>-4.41461181640625</timeResidual><timeUsed>false</timeUsed><horizontalSlownessUsed>false</horizontalSlownessUsed><backazimuthUsed>false</backazimuthUsed><weight>0</weight></arrival><arrival><pickID>de.gempa.tb1.Pick/20250413202700.921577.125014</pickID><phase>P</phase><azimuth>226.94703674316406</azimuth><distance>23.607160568237305</distance><timeResidual>-0.7266693115234375</timeResidual><timeUsed>true</timeUsed><horizontalSlownessUsed>true</horizontalSlownessUsed><backazimuthUsed>true</backazimuthUsed><weight>1</weight></arrival><arrival><pickID>de.gempa.tb1.Pick/20250413202700.998636.125016</pickID><phase>P</phase><azimuth>229.3910217285156</azimuth><distance>23.76270294189453</distance><timeResidual>0.6242218017578125</timeResidual><timeUsed>true</timeUsed><horizontalSlownessUsed>true</horizontalSlownessUsed><backazimuthUsed>true</backazimuthUsed><weight>1</weight></arrival><arrival><pickID>de.gempa.tb1.Pick/20250413202704.414218.125018</pickID><phase>P</phase><azimuth>227.038330078125</azimuth><distance>23.604736328125</distance><timeResidual>-1.1031646728515625</timeResidual><timeUsed>true</timeUsed><horizontalSlownessUsed>true</horizontalSlownessUsed><backazimuthUsed>true</backazimuthUsed><weight>1</weight></arrival><arrival><pickID>de.gempa.tb1.Pick/20250413202712.140763.125026</pickID><phase>P</phase><azimuth>229.45277404785156</azimuth><distance>23.84868621826172</distance><timeResidual>-0.0976409912109375</timeResidual><timeUsed>true</timeUsed><horizontalSlownessUsed>true</horizontalSlownessUsed><backazimuthUsed>true</backazimuthUsed><weight>1</weight></arrival><magnitude publicID="de.gempa.tb1.Magnitude/20250413202727.531501.399985"><magnitude><value>5.219112481122655</value></magnitude><type>M</type><methodID>weighted average</methodID><stationCount>9</stationCount></magnitude></origin><event publicID="gempa2025hhyz"><preferredOriginID>de.gempa.tb1.Origin/20250413202727.525324.179673</preferredOriginID><preferredMagnitudeID>de.gempa.tb1.Magnitude/20250413202727.531501.399985</preferredMagnitudeID><type>not existing</type><typeCertainty>suspected</typeCertainty><description><text>Barents Sea</text><type>region name</type></description><originReference>de.gempa.tb1.Origin/20250413202727.525324.179673</originReference></event></EventParameters></seiscomp>