<?xml version="1.0" encoding="UTF-8"?>
<seiscomp xmlns="http://geofon.gfz-potsdam.de/ns/seiscomp3-schema/0.13" version="0.13"><EventParameters><pick publicID="de.gempa.tb1.Pick/20250414091250.287401.136981"><time><value>2025-04-14T09:12:43.31Z</value></time><waveformID networkCode="CX" stationCode="PB10" channelCode="HHN"/><filterID>ITAPER(2)&gt;&gt;BW(3,3,20)</filterID><methodID>L2-AIC-GRID</methodID><horizontalSlowness><value>14.081470986948487</value></horizontalSlowness><backazimuth><value>156.17104160240473</value></backazimuth><phaseHint>S</phaseHint><evaluationMode>automatic</evaluationMode><comment><text>7182.930890486797</text><id>DFX:rectilinearity</id></comment><comment><text>de.gempa.tb1.Pick/20250414091247.17672.136979</text><id>RefPickID</id></comment><comment><text>9.854533945484938</text><id>SNR</id></comment></pick><pick publicID="de.gempa.tb1.Pick/20250414091251.654081.136982"><time><value>2025-04-14T09:12:46.388393Z</value></time><waveformID networkCode="CX" stationCode="PB15" channelCode="HHZ"/><filterID>ITAPER(4)&gt;&gt;BW(4,4,20)</filterID><methodID>AIC</methodID><horizontalSlowness><value>22.737866328990894</value></horizontalSlowness><backazimuth><value>28.90383971557813</value></backazimuth><phaseHint>P</phaseHint><evaluationMode>automatic</evaluationMode><comment><text>311146.1870177907</text><id>DFX:rectilinearity</id></comment><comment><text>101.45530503776725</text><id>SNR</id></comment></pick><pick publicID="de.gempa.tb1.Pick/20250414091256.532879.136984"><time><value>2025-04-14T09:12:51.988393Z</value></time><waveformID networkCode="CX" stationCode="PB06" channelCode="HHZ"/><filterID>ITAPER(4)&gt;&gt;BW(4,4,20)</filterID><methodID>AIC</methodID><horizontalSlowness><value>11.64301751162022</value></horizontalSlowness><backazimuth><value>173.47329657831546</value></backazimuth><phaseHint>P</phaseHint><evaluationMode>automatic</evaluationMode><comment><text>2108.825243719953</text><id>DFX:rectilinearity</id></comment><comment><text>92.57709962434906</text><id>SNR</id></comment></pick><pick publicID="de.gempa.tb1.Pick/20250414091305.544364.136986"><time><value>2025-04-14T09:12:59.778393Z</value></time><waveformID networkCode="CX" stationCode="PB03" channelCode="HHZ"/><filterID>ITAPER(4)&gt;&gt;BW(4,4,20)</filterID><methodID>AIC</methodID><horizontalSlowness><value>10.526952718370554</value></horizontalSlowness><backazimuth><value>187.85212800381578</value></backazimuth><phaseHint>P</phaseHint><evaluationMode>automatic</evaluationMode><comment><text>665.6719697345756</text><id>DFX:rectilinearity</id></comment><comment><text>51.4177448795642</text><id>SNR</id></comment></pick><pick publicID="de.gempa.tb1.Pick/20250414091314.482579.136991"><time><value>2025-04-14T09:13:09.288393Z</value></time><waveformID networkCode="CX" stationCode="PB02" channelCode="HHZ"/><filterID>ITAPER(4)&gt;&gt;BW(4,4,20)</filterID><methodID>AIC</methodID><horizontalSlowness><value>9.035167654499675</value></horizontalSlowness><backazimuth><value>192.69983048617806</value></backazimuth><phaseHint>P</phaseHint><evaluationMode>automatic</evaluationMode><comment><text>579.9470312043237</text><id>DFX:rectilinearity</id></comment><comment><text>38.02813403428762</text><id>SNR</id></comment></pick><pick publicID="de.gempa.tb1.Pick/20250414091317.50232.136994"><time><value>2025-04-14T09:13:05.05Z</value></time><waveformID networkCode="CX" stationCode="PB09" channelCode="HHZ"/><filterID>ITAPER(4)&gt;&gt;BW(4,4,20)</filterID><methodID>AIC</methodID><horizontalSlowness><value>21.670354514882987</value></horizontalSlowness><backazimuth><value>144.29056870989979</value></backazimuth><phaseHint>P</phaseHint><evaluationMode>automatic</evaluationMode><comment><text>163.96105947924286</text><id>DFX:rectilinearity</id></comment><comment><text>64.13505556350182</text><id>SNR</id></comment></pick><pick publicID="de.gempa.tb1.Pick/20250414091320.583531.136997"><time><value>2025-04-14T09:13:13.148393Z</value></time><waveformID networkCode="CX" stationCode="PB01" channelCode="HHZ"/><filterID>ITAPER(4)&gt;&gt;BW(4,4,20)</filterID><methodID>AIC</methodID><horizontalSlowness><value>14.468275125573534</value></horizontalSlowness><backazimuth><value>211.46996749952774</value></backazimuth><phaseHint>P</phaseHint><evaluationMode>automatic</evaluationMode><comment><text>635.1816668647033</text><id>DFX:rectilinearity</id></comment><comment><text>107.28242294677615</text><id>SNR</id></comment></pick><pick publicID="de.gempa.tb1.Pick/20250414091323.209537.137000"><time><value>2025-04-14T09:13:03.958394Z</value></time><waveformID networkCode="CX" stationCode="PB07" channelCode="HHZ"/><filterID>ITAPER(4)&gt;&gt;BW(4,4,20)</filterID><methodID>AIC</methodID><horizontalSlowness><value>16.569768972562237</value></horizontalSlowness><backazimuth><value>189.38750470281394</value></backazimuth><phaseHint>P</phaseHint><evaluationMode>automatic</evaluationMode><comment><text>2625.623245069628</text><id>DFX:rectilinearity</id></comment><comment><text>33.6500348764289</text><id>SNR</id></comment></pick><pick publicID="de.gempa.tb1.Pick/20250414091323.432508.137002"><time><value>2025-04-14T09:13:15.079999Z</value></time><waveformID networkCode="CX" stationCode="PATCX" channelCode="HHZ"/><filterID>ITAPER(4)&gt;&gt;BW(4,4,20)</filterID><methodID>AIC</methodID><horizontalSlowness><value>21.609418056732228</value></horizontalSlowness><backazimuth><value>19.813078255012016</value></backazimuth><phaseHint>P</phaseHint><evaluationMode>automatic</evaluationMode><comment><text>148.352341684491</text><id>DFX:rectilinearity</id></comment><comment><text>9.301356861441592</text><id>SNR</id></comment></pick><pick publicID="de.gempa.tb1.Pick/20250414091336.517277.137007"><time><value>2025-04-14T09:13:30.72Z</value></time><waveformID networkCode="CX" stationCode="PSGCX" channelCode="HHZ"/><filterID>ITAPER(4)&gt;&gt;BW(4,4,20)</filterID><methodID>AIC</methodID><horizontalSlowness><value>10.553094926031365</value></horizontalSlowness><backazimuth><value>176.46953765390728</value></backazimuth><phaseHint>P</phaseHint><evaluationMode>automatic</evaluationMode><comment><text>27.806485341159185</text><id>DFX:rectilinearity</id></comment><comment><text>16.526364068767013</text><id>SNR</id></comment></pick><origin publicID="de.gempa.tb1.Origin/20250414091342.616831.133500"><time><value>2025-04-14T09:12:21.680552Z</value><uncertainty>1.3780261278152466</uncertainty></time><latitude><value>-24.16042900085449</value><uncertainty>8.025660514831543</uncertainty></latitude><longitude><value>-70.43986511230469</value><uncertainty>10.47553539276123</uncertainty></longitude><depth><value>0</value></depth><depthType>operator assigned</depthType><methodID>LOCSAT</methodID><earthModelID>iasp91_scanloc</earthModelID><quality><associatedPhaseCount>10</associatedPhaseCount><usedPhaseCount>10</usedPhaseCount><associatedStationCount>10</associatedStationCount><usedStationCount>10</usedStationCount><depthPhaseCount>0</depthPhaseCount><standardError>0.4885247609153732</standardError><azimuthalGap>307.414436340332</azimuthalGap><maximumDistance>4.550665855407715</maximumDistance><minimumDistance>0.652507483959198</minimumDistance><medianDistance>2.5990843772888184</medianDistance></quality><uncertainty><minHorizontalUncertainty>11.120247840881348</minHorizontalUncertainty><maxHorizontalUncertainty>26.020591735839844</maxHorizontalUncertainty><azimuthMaxHorizontalUncertainty>56.06117630004883</azimuthMaxHorizontalUncertainty><preferredDescription>horizontal uncertainty</preferredDescription></uncertainty><evaluationMode>automatic</evaluationMode><evaluationStatus>confirmed</evaluationStatus><comment><text>0.11</text><id>mismatchScore</id></comment><comment><text>mismatchScore</text><id>scevalMethod</id></comment><arrival><pickID>de.gempa.tb1.Pick/20250414091250.287401.136981</pickID><phase>S</phase><azimuth>350.7538757324219</azimuth><distance>0.652507483959198</distance><timeResidual>0.025241851806640625</timeResidual><timeUsed>true</timeUsed><horizontalSlownessUsed>false</horizontalSlownessUsed><backazimuthUsed>false</backazimuthUsed><weight>1</weight></arrival><arrival><pickID>de.gempa.tb1.Pick/20250414091251.654081.136982</pickID><phase>P</phase><azimuth>43.339439392089844</azimuth><distance>1.2989542484283447</distance><timeResidual>-0.20636749267578125</timeResidual><timeUsed>true</timeUsed><horizontalSlownessUsed>false</horizontalSlownessUsed><backazimuthUsed>false</backazimuthUsed><weight>1</weight></arrival><arrival><pickID>de.gempa.tb1.Pick/20250414091256.532879.136984</pickID><phase>P</phase><azimuth>29.00999069213867</azimuth><distance>1.6529051065444946</distance><timeResidual>0.038913726806640625</timeResidual><timeUsed>true</timeUsed><horizontalSlownessUsed>false</horizontalSlownessUsed><backazimuthUsed>false</backazimuthUsed><weight>1</weight></arrival><arrival><pickID>de.gempa.tb1.Pick/20250414091305.544364.136986</pickID><phase>P</phase><azimuth>16.876562118530273</azimuth><distance>2.195171356201172</distance><timeResidual>0.36533546447753906</timeResidual><timeUsed>true</timeUsed><horizontalSlownessUsed>false</horizontalSlownessUsed><backazimuthUsed>false</backazimuthUsed><weight>1</weight></arrival><arrival><pickID>de.gempa.tb1.Pick/20250414091314.482579.136991</pickID><phase>P</phase><azimuth>10.17501163482666</azimuth><distance>2.871541738510132</distance><timeResidual>0.5660858154296875</timeResidual><timeUsed>true</timeUsed><horizontalSlownessUsed>false</horizontalSlownessUsed><backazimuthUsed>false</backazimuthUsed><weight>1</weight></arrival><arrival><pickID>de.gempa.tb1.Pick/20250414091317.50232.136994</pickID><phase>P</phase><azimuth>25.37046241760254</azimuth><distance>2.5990843772888184</distance><timeResidual>0.07790946960449219</timeResidual><timeUsed>true</timeUsed><horizontalSlownessUsed>false</horizontalSlownessUsed><backazimuthUsed>false</backazimuthUsed><weight>1</weight></arrival><arrival><pickID>de.gempa.tb1.Pick/20250414091320.583531.136997</pickID><phase>P</phase><azimuth>16.02318572998047</azimuth><distance>3.224848747253418</distance><timeResidual>-0.43601036071777344</timeResidual><timeUsed>true</timeUsed><horizontalSlownessUsed>false</horizontalSlownessUsed><backazimuthUsed>false</backazimuthUsed><weight>1</weight></arrival><arrival><pickID>de.gempa.tb1.Pick/20250414091323.209537.137000</pickID><phase>P</phase><azimuth>12.006623268127441</azimuth><distance>2.475558042526245</distance><timeResidual>0.686197280883789</timeResidual><timeUsed>true</timeUsed><horizontalSlownessUsed>false</horizontalSlownessUsed><backazimuthUsed>false</backazimuthUsed><weight>1</weight></arrival><arrival><pickID>de.gempa.tb1.Pick/20250414091323.432508.137002</pickID><phase>P</phase><azimuth>4.620770454406738</azimuth><distance>3.334437131881714</distance><timeResidual>-0.012533187866210938</timeResidual><timeUsed>true</timeUsed><horizontalSlownessUsed>false</horizontalSlownessUsed><backazimuthUsed>false</backazimuthUsed><weight>1</weight></arrival><arrival><pickID>de.gempa.tb1.Pick/20250414091336.517277.137007</pickID><phase>P</phase><azimuth>3.767355442047119</azimuth><distance>4.550665855407715</distance><timeResidual>-1.1048545837402344</timeResidual><timeUsed>true</timeUsed><horizontalSlownessUsed>false</horizontalSlownessUsed><backazimuthUsed>false</backazimuthUsed><weight>1</weight></arrival><magnitude publicID="de.gempa.tb1.Magnitude/20250414091519.889081.462265"><magnitude><value>3.4768156329023614</value></magnitude><type>M</type><methodID>weighted average</methodID><stationCount>7</stationCount></magnitude></origin><event publicID="gempa2025hiyr"><preferredOriginID>de.gempa.tb1.Origin/20250414091342.616831.133500</preferredOriginID><preferredMagnitudeID>de.gempa.tb1.Magnitude/20250414091519.889081.462265</preferredMagnitudeID><description><text>Near Coast of Northern Chile</text><type>region name</type></description><originReference>de.gempa.tb1.Origin/20250414091342.616831.133500</originReference></event></EventParameters></seiscomp>