<?xml version="1.0" encoding="UTF-8"?>
<seiscomp xmlns="http://geofon.gfz-potsdam.de/ns/seiscomp3-schema/0.13" version="0.13"><EventParameters><pick publicID="de.gempa.tb1.Pick/20250412200829.279982.188370"><time><value>2025-04-12T20:08:24.31Z</value></time><waveformID networkCode="SX" stationCode="ROHR" channelCode="HHZ"/><filterID>ITAPER(2)&gt;&gt;BW(3,3,20)</filterID><methodID>AIC</methodID><horizontalSlowness><value>16.4973895508206</value></horizontalSlowness><backazimuth><value>81.0907310229217</value></backazimuth><phaseHint>P</phaseHint><evaluationMode>automatic</evaluationMode><comment><text>49.28691283740054</text><id>DFX:rectilinearity</id></comment></pick><pick publicID="de.gempa.tb1.Pick/20250412200831.103338.188376"><time><value>2025-04-12T20:08:24.86Z</value></time><waveformID networkCode="SX" stationCode="TRIB" channelCode="HHZ"/><filterID>ITAPER(2)&gt;&gt;BW(3,3,20)</filterID><methodID>AIC</methodID><horizontalSlowness><value>9.64890084843887</value></horizontalSlowness><backazimuth><value>153.51035611120628</value></backazimuth><phaseHint>P</phaseHint><evaluationMode>automatic</evaluationMode><comment><text>3.4642269301669515</text><id>DFX:rectilinearity</id></comment></pick><pick publicID="de.gempa.tb1.Pick/20250412200835.237001.188379"><time><value>2025-04-12T20:08:30.625Z</value></time><waveformID networkCode="TH" stationCode="GRZ1" channelCode="HHZ"/><filterID>ITAPER(2)&gt;&gt;BW(3,3,20)</filterID><methodID>AIC</methodID><horizontalSlowness><value>21.63284854017619</value></horizontalSlowness><backazimuth><value>247.8097110046833</value></backazimuth><phaseHint>P</phaseHint><evaluationMode>automatic</evaluationMode><comment><text>7.371157335418864</text><id>DFX:rectilinearity</id></comment></pick><pick publicID="de.gempa.tb1.Pick/20250412200836.526512.188381"><time><value>2025-04-12T20:08:25.33Z</value></time><waveformID networkCode="SX" stationCode="MULD" channelCode="HHZ"/><filterID>ITAPER(2)&gt;&gt;BW(3,3,20)</filterID><methodID>AIC</methodID><horizontalSlowness><value>22.925643237713743</value></horizontalSlowness><backazimuth><value>160.0130158327388</value></backazimuth><phaseHint>P</phaseHint><evaluationMode>automatic</evaluationMode><comment><text>10.673545593173532</text><id>DFX:rectilinearity</id></comment></pick><pick publicID="de.gempa.tb1.Pick/20250412200836.985191.188385"><time><value>2025-04-12T20:08:28.21Z</value></time><waveformID networkCode="SX" stationCode="TRIB" channelCode="HHN"/><filterID>ITAPER(3)&gt;&gt;BW(4,3,10)</filterID><methodID>L2-AIC-GRID</methodID><horizontalSlowness><value>22.062308349656394</value></horizontalSlowness><backazimuth><value>61.39858889403872</value></backazimuth><phaseHint>S</phaseHint><evaluationMode>automatic</evaluationMode><comment><text>10.866598155908861</text><id>DFX:rectilinearity</id></comment><comment><text>de.gempa.tb1.Pick/20250412200831.103338.188376</text><id>RefPickID</id></comment></pick><pick publicID="de.gempa.tb1.Pick/20250412200838.187244.188386"><time><value>2025-04-12T20:08:34.445Z</value></time><waveformID networkCode="TH" stationCode="HKWD" channelCode="HHZ"/><filterID>ITAPER(2)&gt;&gt;BW(3,3,20)</filterID><methodID>AIC</methodID><horizontalSlowness><value>19.53619052813976</value></horizontalSlowness><backazimuth><value>178.79115923388648</value></backazimuth><phaseHint>P</phaseHint><evaluationMode>automatic</evaluationMode><comment><text>10.830519671651755</text><id>DFX:rectilinearity</id></comment></pick><pick publicID="de.gempa.tb1.Pick/20250412200838.686814.188390"><time><value>2025-04-12T20:08:31.720622Z</value></time><waveformID networkCode="SX" stationCode="MEINS" channelCode="HHZ"/><filterID>ITAPER(2)&gt;&gt;BW(3,3,20)</filterID><methodID>AIC</methodID><horizontalSlowness><value>10.517937319765965</value></horizontalSlowness><backazimuth><value>296.5332294238915</value></backazimuth><phaseHint>P</phaseHint><evaluationMode>automatic</evaluationMode><comment><text>2.493178379319871</text><id>DFX:rectilinearity</id></comment></pick><pick publicID="de.gempa.tb1.Pick/20250412200839.349051.188392"><time><value>2025-04-12T20:08:27.22Z</value></time><waveformID networkCode="SX" stationCode="MULD" channelCode="HHN"/><filterID>ITAPER(3)&gt;&gt;BW(4,3,10)</filterID><methodID>L2-AIC-GRID</methodID><horizontalSlowness><value>23.5839227902374</value></horizontalSlowness><backazimuth><value>328.5911486864725</value></backazimuth><phaseHint>S</phaseHint><evaluationMode>automatic</evaluationMode><comment><text>19.665226182909102</text><id>DFX:rectilinearity</id></comment><comment><text>de.gempa.tb1.Pick/20250412200836.526512.188381</text><id>RefPickID</id></comment></pick><pick publicID="de.gempa.tb1.Pick/20250412200842.887674.188395"><time><value>2025-04-12T20:08:31.8Z</value></time><waveformID networkCode="SX" stationCode="SCHF" channelCode="HHZ"/><filterID>ITAPER(2)&gt;&gt;BW(3,3,20)</filterID><methodID>AIC</methodID><horizontalSlowness><value>20.903235268741938</value></horizontalSlowness><backazimuth><value>18.681725109404198</value></backazimuth><phaseHint>P</phaseHint><evaluationMode>automatic</evaluationMode><comment><text>5.172052173065584</text><id>DFX:rectilinearity</id></comment></pick><pick publicID="de.gempa.tb1.Pick/20250412200847.341163.188401"><time><value>2025-04-12T20:08:39.0000Z</value></time><waveformID networkCode="TH" stationCode="ANNA" channelCode="HHZ"/><filterID>ITAPER(2)&gt;&gt;BW(3,3,20)</filterID><methodID>AIC</methodID><horizontalSlowness><value>20.508529957288854</value></horizontalSlowness><backazimuth><value>273.8072401574352</value></backazimuth><phaseHint>P</phaseHint><evaluationMode>automatic</evaluationMode><comment><text>3.258620466863122</text><id>DFX:rectilinearity</id></comment></pick><origin publicID="de.gempa.tb1.Origin/20250412200848.776728.121723"><time><value>2025-04-12T20:08:22.897826Z</value><uncertainty>0.6719753742218018</uncertainty></time><latitude><value>50.25743865966797</value><uncertainty>3.71110200881958</uncertainty></latitude><longitude><value>12.363579750061035</value><uncertainty>3.4468514919281006</uncertainty></longitude><depth><value>0</value></depth><depthType>operator assigned</depthType><methodID>LOCSAT</methodID><earthModelID>iasp91</earthModelID><quality><associatedPhaseCount>10</associatedPhaseCount><usedPhaseCount>10</usedPhaseCount><associatedStationCount>8</associatedStationCount><usedStationCount>8</usedStationCount><depthPhaseCount>0</depthPhaseCount><standardError>1.4828801650404964</standardError><azimuthalGap>197.29582595825195</azimuthalGap><maximumDistance>0.6573503017425537</maximumDistance><minimumDistance>0.038012847304344177</minimumDistance><medianDistance>0.42104580998420715</medianDistance></quality><uncertainty><minHorizontalUncertainty>5.703860282897949</minHorizontalUncertainty><maxHorizontalUncertainty>9.254714012145996</maxHorizontalUncertainty><azimuthMaxHorizontalUncertainty>139.72129821777344</azimuthMaxHorizontalUncertainty><preferredDescription>horizontal uncertainty</preferredDescription></uncertainty><evaluationMode>automatic</evaluationMode><evaluationStatus>confirmed</evaluationStatus><comment><text>0.66</text><id>mismatchScore</id></comment><comment><text>extendedGap</text><id>scevalMethod</id></comment><arrival><pickID>de.gempa.tb1.Pick/20250412200829.279982.188370</pickID><phase>P</phase><azimuth>231.8979797363281</azimuth><distance>0.038012847304344177</distance><timeResidual>0.54254549741745</timeResidual><timeUsed>true</timeUsed><horizontalSlownessUsed>false</horizontalSlownessUsed><backazimuthUsed>false</backazimuthUsed><weight>1</weight></arrival><arrival><pickID>de.gempa.tb1.Pick/20250412200831.103338.188376</pickID><phase>P</phase><azimuth>303.176513671875</azimuth><distance>0.17341770231723785</distance><timeResidual>-1.4811739921569824</timeResidual><timeUsed>true</timeUsed><horizontalSlownessUsed>false</horizontalSlownessUsed><backazimuthUsed>false</backazimuthUsed><weight>1</weight></arrival><arrival><pickID>de.gempa.tb1.Pick/20250412200835.237001.188379</pickID><phase>P</phase><azimuth>348.08770751953125</azimuth><distance>0.44354504346847534</distance><timeResidual>-0.8504669666290283</timeResidual><timeUsed>true</timeUsed><horizontalSlownessUsed>false</horizontalSlownessUsed><backazimuthUsed>false</backazimuthUsed><weight>1</weight></arrival><arrival><pickID>de.gempa.tb1.Pick/20250412200836.526512.188381</pickID><phase>P</phase><azimuth>9.475911140441895</azimuth><distance>0.15669552981853485</distance><timeResidual>-0.6931993961334229</timeResidual><timeUsed>true</timeUsed><horizontalSlownessUsed>false</horizontalSlownessUsed><backazimuthUsed>false</backazimuthUsed><weight>1</weight></arrival><arrival><pickID>de.gempa.tb1.Pick/20250412200836.985191.188385</pickID><phase>S</phase><azimuth>303.176513671875</azimuth><distance>0.17341770231723785</distance><timeResidual>0.29547953605651855</timeResidual><timeUsed>true</timeUsed><horizontalSlownessUsed>false</horizontalSlownessUsed><backazimuthUsed>false</backazimuthUsed><weight>1</weight></arrival><arrival><pickID>de.gempa.tb1.Pick/20250412200838.187244.188386</pickID><phase>P</phase><azimuth>353.96856689453125</azimuth><distance>0.5762174725532532</distance><timeResidual>0.44779038429260254</timeResidual><timeUsed>true</timeUsed><horizontalSlownessUsed>false</horizontalSlownessUsed><backazimuthUsed>false</backazimuthUsed><weight>1</weight></arrival><arrival><pickID>de.gempa.tb1.Pick/20250412200838.686814.188390</pickID><phase>P</phase><azimuth>34.60215377807617</azimuth><distance>0.5792301893234253</distance><timeResidual>-2.3340203762054443</timeResidual><timeUsed>true</timeUsed><horizontalSlownessUsed>false</horizontalSlownessUsed><backazimuthUsed>false</backazimuthUsed><weight>1</weight></arrival><arrival><pickID>de.gempa.tb1.Pick/20250412200839.349051.188392</pickID><phase>S</phase><azimuth>9.475911140441895</azimuth><distance>0.15669552981853485</distance><timeResidual>-0.14149856567382812</timeResidual><timeUsed>true</timeUsed><horizontalSlownessUsed>false</horizontalSlownessUsed><backazimuthUsed>false</backazimuthUsed><weight>1</weight></arrival><arrival><pickID>de.gempa.tb1.Pick/20250412200842.887674.188395</pickID><phase>P</phase><azimuth>3.4236748218536377</azimuth><distance>0.42104580998420715</distance><timeResidual>0.7521984577178955</timeResidual><timeUsed>true</timeUsed><horizontalSlownessUsed>false</horizontalSlownessUsed><backazimuthUsed>false</backazimuthUsed><weight>1</weight></arrival><arrival><pickID>de.gempa.tb1.Pick/20250412200847.341163.188401</pickID><phase>P</phase><azimuth>15.732759475708008</azimuth><distance>0.6573503017425537</distance><timeResidual>3.4606335163116455</timeResidual><timeUsed>true</timeUsed><horizontalSlownessUsed>false</horizontalSlownessUsed><backazimuthUsed>false</backazimuthUsed><weight>1</weight></arrival><magnitude publicID="de.gempa.tb1.Magnitude/20250412201009.803647.276456"><magnitude><value>0.6572200463846043</value></magnitude><type>M</type><methodID>weighted average</methodID><stationCount>6</stationCount></magnitude></origin><event publicID="gempa2025hgcp"><preferredOriginID>de.gempa.tb1.Origin/20250412200848.776728.121723</preferredOriginID><preferredMagnitudeID>de.gempa.tb1.Magnitude/20250412201009.803647.276456</preferredMagnitudeID><description><text>Germany</text><type>region name</type></description><originReference>de.gempa.tb1.Origin/20250412200848.776728.121723</originReference></event></EventParameters></seiscomp>