<?xml version="1.0" encoding="UTF-8"?>
<seiscomp xmlns="http://geofon.gfz-potsdam.de/ns/seiscomp3-schema/0.13" version="0.13"><EventParameters><pick publicID="de.gempa.tb1.Pick/20250413101628.587962.130537"><time><value>2025-04-13T10:16:23.708393Z</value></time><waveformID networkCode="CX" stationCode="PB03" channelCode="HHZ"/><filterID>ITAPER(4)&gt;&gt;BW(4,4,20)</filterID><methodID>AIC</methodID><horizontalSlowness><value>8.47060127026217</value></horizontalSlowness><backazimuth><value>270.3238406919573</value></backazimuth><phaseHint>P</phaseHint><evaluationMode>automatic</evaluationMode><comment><text>8.30714898589469</text><id>DFX:rectilinearity</id></comment><comment><text>11.218767432319426</text><id>SNR</id></comment></pick><pick publicID="de.gempa.tb1.Pick/20250413101631.536807.130539"><time><value>2025-04-13T10:16:21.928393Z</value></time><waveformID networkCode="CX" stationCode="PB06" channelCode="HHZ"/><filterID>ITAPER(4)&gt;&gt;BW(4,4,20)</filterID><methodID>AIC</methodID><horizontalSlowness><value>13.751775676106083</value></horizontalSlowness><backazimuth><value>116.47921049293203</value></backazimuth><phaseHint>P</phaseHint><evaluationMode>automatic</evaluationMode><comment><text>77.49242131529518</text><id>DFX:rectilinearity</id></comment><comment><text>8.93077159933132</text><id>SNR</id></comment></pick><pick publicID="de.gempa.tb1.Pick/20250413101642.600527.130541"><time><value>2025-04-13T10:16:21.65Z</value></time><waveformID networkCode="CX" stationCode="PB09" channelCode="HHZ"/><filterID>ITAPER(4)&gt;&gt;BW(4,4,20)</filterID><methodID>AIC</methodID><horizontalSlowness><value>20.929721882134082</value></horizontalSlowness><backazimuth><value>266.31766633745553</value></backazimuth><phaseHint>P</phaseHint><evaluationMode>automatic</evaluationMode><comment><text>30.215862573417223</text><id>DFX:rectilinearity</id></comment><comment><text>14.02519216456479</text><id>SNR</id></comment></pick><pick publicID="de.gempa.tb1.Pick/20250413101646.722806.130545"><time><value>2025-04-13T10:16:37.918393Z</value></time><waveformID networkCode="CX" stationCode="PB06" channelCode="HHN"/><filterID>ITAPER(2)&gt;&gt;BW(3,3,20)</filterID><methodID>L2-AIC-GRID</methodID><horizontalSlowness><value>14.353807649283182</value></horizontalSlowness><backazimuth><value>291.87158323114227</value></backazimuth><phaseHint>S</phaseHint><evaluationMode>automatic</evaluationMode><comment><text>88.10872311229818</text><id>DFX:rectilinearity</id></comment><comment><text>de.gempa.tb1.Pick/20250413101631.536807.130539</text><id>RefPickID</id></comment><comment><text>7.058534375091525</text><id>SNR</id></comment></pick><pick publicID="de.gempa.tb1.Pick/20250413101647.395674.130546"><time><value>2025-04-13T10:16:27.038394Z</value></time><waveformID networkCode="CX" stationCode="PB07" channelCode="HHZ"/><filterID>ITAPER(4)&gt;&gt;BW(4,4,20)</filterID><methodID>AIC</methodID><horizontalSlowness><value>21.968717801950714</value></horizontalSlowness><backazimuth><value>296.63877860438527</value></backazimuth><phaseHint>P</phaseHint><evaluationMode>automatic</evaluationMode><comment><text>363.0008262951179</text><id>DFX:rectilinearity</id></comment><comment><text>13.70714471924578</text><id>SNR</id></comment></pick><pick publicID="de.gempa.tb1.Pick/20250413101648.604716.130548"><time><value>2025-04-13T10:16:41.308393Z</value></time><waveformID networkCode="CX" stationCode="PB03" channelCode="HHN"/><filterID>ITAPER(2)&gt;&gt;BW(3,3,20)</filterID><methodID>L2-AIC-GRID</methodID><horizontalSlowness><value>10.141290360924621</value></horizontalSlowness><backazimuth><value>266.5967958037193</value></backazimuth><phaseHint>S</phaseHint><evaluationMode>automatic</evaluationMode><comment><text>26.2234610535443</text><id>DFX:rectilinearity</id></comment><comment><text>de.gempa.tb1.Pick/20250413101628.587962.130537</text><id>RefPickID</id></comment><comment><text>10.940954651413321</text><id>SNR</id></comment></pick><pick publicID="de.gempa.tb1.Pick/20250413101713.377462.130549"><time><value>2025-04-13T10:16:47.088394Z</value></time><waveformID networkCode="CX" stationCode="PB07" channelCode="HHN"/><filterID>ITAPER(2)&gt;&gt;BW(3,3,20)</filterID><methodID>L2-AIC-GRID</methodID><horizontalSlowness><value>20.08246154442282</value></horizontalSlowness><backazimuth><value>56.38747455003707</value></backazimuth><phaseHint>S</phaseHint><evaluationMode>automatic</evaluationMode><comment><text>239.0435400566862</text><id>DFX:rectilinearity</id></comment><comment><text>de.gempa.tb1.Pick/20250413101647.395674.130546</text><id>RefPickID</id></comment><comment><text>5.40211677005741</text><id>SNR</id></comment></pick><origin publicID="de.gempa.tb1.Origin/20250413101713.380193.107207"><time><value>2025-04-13T10:16:01.227728Z</value><uncertainty>1.4738730192184448</uncertainty></time><latitude><value>-22.463794708251953</value><uncertainty>9.40279483795166</uncertainty></latitude><longitude><value>-68.6351318359375</value><uncertainty>19.07238006591797</uncertainty></longitude><depth><value>114.7635269165039</value><uncertainty>24.233619689941406</uncertainty></depth><depthType>from location</depthType><methodID>LOCSAT</methodID><earthModelID>iasp91_scanloc</earthModelID><quality><associatedPhaseCount>7</associatedPhaseCount><usedPhaseCount>7</usedPhaseCount><associatedStationCount>4</associatedStationCount><usedStationCount>4</usedStationCount><depthPhaseCount>0</depthPhaseCount><standardError>0.24098289202440187</standardError><azimuthalGap>294.6552429199219</azimuthalGap><maximumDistance>1.3727022409439087</maximumDistance><minimumDistance>0.8704622387886047</minimumDistance><medianDistance>1.1150985956192017</medianDistance></quality><uncertainty><minHorizontalUncertainty>17.036338806152344</minHorizontalUncertainty><maxHorizontalUncertainty>42.299503326416016</maxHorizontalUncertainty><azimuthMaxHorizontalUncertainty>73.82225036621094</azimuthMaxHorizontalUncertainty><preferredDescription>horizontal uncertainty</preferredDescription></uncertainty><evaluationMode>automatic</evaluationMode><evaluationStatus>confirmed</evaluationStatus><comment><text>0.36</text><id>mismatchScore</id></comment><comment><text>mismatchScore</text><id>scevalMethod</id></comment><arrival><pickID>de.gempa.tb1.Pick/20250413101628.587962.130537</pickID><phase>P</phase><azimuth>291.5458068847656</azimuth><distance>1.1150985956192017</distance><timeResidual>-0.3369731903076172</timeResidual><timeUsed>true</timeUsed><horizontalSlownessUsed>false</horizontalSlownessUsed><backazimuthUsed>false</backazimuthUsed><weight>1</weight></arrival><arrival><pickID>de.gempa.tb1.Pick/20250413101631.536807.130539</pickID><phase>P</phase><azimuth>254.2746887207031</azimuth><distance>0.8986374735832214</distance><timeResidual>0.06957244873046875</timeResidual><timeUsed>true</timeUsed><horizontalSlownessUsed>false</horizontalSlownessUsed><backazimuthUsed>false</backazimuthUsed><weight>1</weight></arrival><arrival><pickID>de.gempa.tb1.Pick/20250413101642.600527.130541</pickID><phase>P</phase><azimuth>319.61944580078125</azimuth><distance>0.8704622387886047</distance><timeResidual>0.05194473266601562</timeResidual><timeUsed>true</timeUsed><horizontalSlownessUsed>false</horizontalSlownessUsed><backazimuthUsed>false</backazimuthUsed><weight>1</weight></arrival><arrival><pickID>de.gempa.tb1.Pick/20250413101646.722806.130545</pickID><phase>S</phase><azimuth>254.2746887207031</azimuth><distance>0.8986374735832214</distance><timeResidual>0.1294574737548828</timeResidual><timeUsed>true</timeUsed><horizontalSlownessUsed>false</horizontalSlownessUsed><backazimuthUsed>false</backazimuthUsed><weight>1</weight></arrival><arrival><pickID>de.gempa.tb1.Pick/20250413101647.395674.130546</pickID><phase>P</phase><azimuth>302.06793212890625</azimuth><distance>1.3727022409439087</distance><timeResidual>0.14843368530273438</timeResidual><timeUsed>true</timeUsed><horizontalSlownessUsed>false</horizontalSlownessUsed><backazimuthUsed>false</backazimuthUsed><weight>1</weight></arrival><arrival><pickID>de.gempa.tb1.Pick/20250413101648.604716.130548</pickID><phase>S</phase><azimuth>291.5458068847656</azimuth><distance>1.1150985956192017</distance><timeResidual>-0.3810272216796875</timeResidual><timeUsed>true</timeUsed><horizontalSlownessUsed>false</horizontalSlownessUsed><backazimuthUsed>false</backazimuthUsed><weight>1</weight></arrival><arrival><pickID>de.gempa.tb1.Pick/20250413101713.377462.130549</pickID><phase>S</phase><azimuth>302.06793212890625</azimuth><distance>1.3727022409439087</distance><timeResidual>0.31850624084472656</timeResidual><timeUsed>true</timeUsed><horizontalSlownessUsed>false</horizontalSlownessUsed><backazimuthUsed>false</backazimuthUsed><weight>1</weight></arrival><magnitude publicID="de.gempa.tb1.Magnitude/20250413101738.118101.346688"><magnitude><value>2.123613862878905</value></magnitude><type>M</type><methodID>weighted average</methodID><stationCount>1</stationCount></magnitude></origin><event publicID="gempa2025hheu"><preferredOriginID>de.gempa.tb1.Origin/20250413101713.380193.107207</preferredOriginID><preferredMagnitudeID>de.gempa.tb1.Magnitude/20250413101738.118101.346688</preferredMagnitudeID><description><text>Northern Chile</text><type>region name</type></description><originReference>de.gempa.tb1.Origin/20250413101713.380193.107207</originReference></event></EventParameters></seiscomp>