<?xml version="1.0" encoding="UTF-8"?>
<seiscomp xmlns="http://geofon.gfz-potsdam.de/ns/seiscomp3-schema/0.13" version="0.13"><EventParameters><pick publicID="de.gempa.tb1.Pick/20250413072846.509914.129788"><time><value>2025-04-13T07:28:38.73Z</value></time><waveformID networkCode="CX" stationCode="PB19" channelCode="HHZ"/><filterID>ITAPER(4)&gt;&gt;BW(4,4,20)</filterID><methodID>AIC</methodID><horizontalSlowness><value>18.497070399990474</value></horizontalSlowness><backazimuth><value>187.21274068907206</value></backazimuth><phaseHint>P</phaseHint><evaluationMode>automatic</evaluationMode><comment><text>17.582777137873897</text><id>DFX:rectilinearity</id></comment><comment><text>12.51477207122265</text><id>SNR</id></comment></pick><pick publicID="de.gempa.tb1.Pick/20250413072854.730566.129790"><time><value>2025-04-13T07:28:46.098393Z</value></time><waveformID networkCode="CX" stationCode="PB06" channelCode="HHZ"/><filterID>ITAPER(4)&gt;&gt;BW(4,4,20)</filterID><methodID>AIC</methodID><horizontalSlowness><value>20.82050722866697</value></horizontalSlowness><backazimuth><value>136.39300404627284</value></backazimuth><phaseHint>P</phaseHint><evaluationMode>automatic</evaluationMode><comment><text>54.67060924793554</text><id>DFX:rectilinearity</id></comment><comment><text>17.46962219223177</text><id>SNR</id></comment></pick><pick publicID="de.gempa.tb1.Pick/20250413072901.640032.129792"><time><value>2025-04-13T07:28:52.458391Z</value></time><waveformID networkCode="CX" stationCode="PB03" channelCode="HHZ"/><filterID>ITAPER(4)&gt;&gt;BW(4,4,20)</filterID><methodID>AIC</methodID><horizontalSlowness><value>16.534178420351076</value></horizontalSlowness><backazimuth><value>173.38331451042038</value></backazimuth><phaseHint>P</phaseHint><evaluationMode>automatic</evaluationMode><comment><text>11.075085724484495</text><id>DFX:rectilinearity</id></comment><comment><text>13.932982219082305</text><id>SNR</id></comment></pick><pick publicID="de.gempa.tb1.Pick/20250413072908.802824.129794"><time><value>2025-04-13T07:28:51.57Z</value></time><waveformID networkCode="CX" stationCode="PB09" channelCode="HHZ"/><filterID>ITAPER(4)&gt;&gt;BW(4,4,20)</filterID><methodID>AIC</methodID><horizontalSlowness><value>15.714502292038556</value></horizontalSlowness><backazimuth><value>30.89518927946719</value></backazimuth><phaseHint>P</phaseHint><evaluationMode>automatic</evaluationMode><comment><text>10.163875055822395</text><id>DFX:rectilinearity</id></comment><comment><text>28.97650105993683</text><id>SNR</id></comment></pick><pick publicID="de.gempa.tb1.Pick/20250413072910.623565.129796"><time><value>2025-04-13T07:28:59.938393Z</value></time><waveformID networkCode="CX" stationCode="PB01" channelCode="HHZ"/><filterID>ITAPER(4)&gt;&gt;BW(4,4,20)</filterID><methodID>AIC</methodID><horizontalSlowness><value>20.168042619891338</value></horizontalSlowness><backazimuth><value>301.61877555158134</value></backazimuth><phaseHint>P</phaseHint><evaluationMode>automatic</evaluationMode><comment><text>9.389151288012149</text><id>DFX:rectilinearity</id></comment><comment><text>10.528732957218912</text><id>SNR</id></comment></pick><pick publicID="de.gempa.tb1.Pick/20250413072915.474279.129800"><time><value>2025-04-13T07:29:07.59Z</value></time><waveformID networkCode="CX" stationCode="PB19" channelCode="HHN"/><filterID>ITAPER(2)&gt;&gt;BW(3,3,20)</filterID><methodID>L2-AIC-GRID</methodID><horizontalSlowness><value>21.61342076023255</value></horizontalSlowness><backazimuth><value>175.57774020580749</value></backazimuth><phaseHint>S</phaseHint><evaluationMode>automatic</evaluationMode><comment><text>76.30346757829552</text><id>DFX:rectilinearity</id></comment><comment><text>de.gempa.tb1.Pick/20250413072846.509914.129788</text><id>RefPickID</id></comment><comment><text>8.931908447039199</text><id>SNR</id></comment></pick><pick publicID="de.gempa.tb1.Pick/20250413072923.374635.129804"><time><value>2025-04-13T07:28:55.998393Z</value></time><waveformID networkCode="CX" stationCode="PB07" channelCode="HHZ"/><filterID>ITAPER(4)&gt;&gt;BW(4,4,20)</filterID><methodID>AIC</methodID><horizontalSlowness><value>22.83220465861054</value></horizontalSlowness><backazimuth><value>289.6287965944277</value></backazimuth><phaseHint>P</phaseHint><evaluationMode>automatic</evaluationMode><comment><text>244.0770415076502</text><id>DFX:rectilinearity</id></comment><comment><text>30.20433636670406</text><id>SNR</id></comment></pick><pick publicID="de.gempa.tb1.Pick/20250413072929.687659.129809"><time><value>2025-04-13T07:29:20.048393Z</value></time><waveformID networkCode="CX" stationCode="PB06" channelCode="HHN"/><filterID>ITAPER(2)&gt;&gt;BW(3,3,20)</filterID><methodID>L2-AIC-GRID</methodID><horizontalSlowness><value>22.042892055110233</value></horizontalSlowness><backazimuth><value>328.8546484631313</value></backazimuth><phaseHint>S</phaseHint><evaluationMode>automatic</evaluationMode><comment><text>57.82497176289552</text><id>DFX:rectilinearity</id></comment><comment><text>de.gempa.tb1.Pick/20250413072854.730566.129790</text><id>RefPickID</id></comment><comment><text>8.054433718848367</text><id>SNR</id></comment></pick><pick publicID="de.gempa.tb1.Pick/20250413072941.566982.129811"><time><value>2025-04-13T07:29:30.838391Z</value></time><waveformID networkCode="CX" stationCode="PB03" channelCode="HHN"/><filterID>ITAPER(2)&gt;&gt;BW(3,3,20)</filterID><methodID>L2-AIC-GRID</methodID><horizontalSlowness><value>1.357824839151339</value></horizontalSlowness><backazimuth><value>143.80833935166856</value></backazimuth><phaseHint>S</phaseHint><evaluationMode>automatic</evaluationMode><comment><text>18.322827812374424</text><id>DFX:rectilinearity</id></comment><comment><text>de.gempa.tb1.Pick/20250413072901.640032.129792</text><id>RefPickID</id></comment><comment><text>6.332887496582633</text><id>SNR</id></comment></pick><origin publicID="de.gempa.tb1.Origin/20250413072941.570435.104219"><time><value>2025-04-13T07:28:03.363022Z</value><uncertainty>1.078961968421936</uncertainty></time><latitude><value>-24.14290237426758</value><uncertainty>12.22843360900879</uncertainty></latitude><longitude><value>-67.7459487915039</value><uncertainty>37.138427734375</uncertainty></longitude><depth><value>227.79774475097656</value><uncertainty>27.99758720397949</uncertainty></depth><depthType>from location</depthType><methodID>LOCSAT</methodID><earthModelID>iasp91_scanloc</earthModelID><quality><associatedPhaseCount>9</associatedPhaseCount><usedPhaseCount>9</usedPhaseCount><associatedStationCount>6</associatedStationCount><usedStationCount>6</usedStationCount><depthPhaseCount>0</depthPhaseCount><standardError>0.19665352106793546</standardError><azimuthalGap>307.10150146484375</azimuthalGap><maximumDistance>3.4794256687164307</maximumDistance><minimumDistance>1.4322012662887573</minimumDistance><medianDistance>2.7120869159698486</medianDistance></quality><uncertainty><minHorizontalUncertainty>17.720287322998047</minHorizontalUncertainty><maxHorizontalUncertainty>81.94729614257812</maxHorizontalUncertainty><azimuthMaxHorizontalUncertainty>76.0209732055664</azimuthMaxHorizontalUncertainty><preferredDescription>horizontal uncertainty</preferredDescription></uncertainty><evaluationMode>automatic</evaluationMode><evaluationStatus>confirmed</evaluationStatus><comment><text>0.05</text><id>mismatchScore</id></comment><comment><text>mismatchScore</text><id>scevalMethod</id></comment><arrival><pickID>de.gempa.tb1.Pick/20250413072846.509914.129788</pickID><phase>P</phase><azimuth>279.21392822265625</azimuth><distance>1.4322012662887573</distance><timeResidual>-0.3618583679199219</timeResidual><timeUsed>true</timeUsed><horizontalSlownessUsed>false</horizontalSlownessUsed><backazimuthUsed>false</backazimuthUsed><weight>1</weight></arrival><arrival><pickID>de.gempa.tb1.Pick/20250413072854.730566.129790</pickID><phase>P</phase><azimuth>310.09686279296875</azimuth><distance>2.2043395042419434</distance><timeResidual>0.003482818603515625</timeResidual><timeUsed>true</timeUsed><horizontalSlownessUsed>false</horizontalSlownessUsed><backazimuthUsed>false</backazimuthUsed><weight>1</weight></arrival><arrival><pickID>de.gempa.tb1.Pick/20250413072901.640032.129792</pickID><phase>P</phase><azimuth>318.0455627441406</azimuth><distance>2.785869359970093</distance><timeResidual>0.241546630859375</timeResidual><timeUsed>true</timeUsed><horizontalSlownessUsed>false</horizontalSlownessUsed><backazimuthUsed>false</backazimuthUsed><weight>1</weight></arrival><arrival><pickID>de.gempa.tb1.Pick/20250413072908.802824.129794</pickID><phase>P</phase><azimuth>329.15179443359375</azimuth><distance>2.7120869159698486</distance><timeResidual>0.15456390380859375</timeResidual><timeUsed>true</timeUsed><horizontalSlownessUsed>false</horizontalSlownessUsed><backazimuthUsed>false</backazimuthUsed><weight>1</weight></arrival><arrival><pickID>de.gempa.tb1.Pick/20250413072910.623565.129796</pickID><phase>P</phase><azimuth>332.1124267578125</azimuth><distance>3.4794256687164307</distance><timeResidual>-0.17800140380859375</timeResidual><timeUsed>true</timeUsed><horizontalSlownessUsed>false</horizontalSlownessUsed><backazimuthUsed>false</backazimuthUsed><weight>1</weight></arrival><arrival><pickID>de.gempa.tb1.Pick/20250413072915.474279.129800</pickID><phase>S</phase><azimuth>279.21392822265625</azimuth><distance>1.4322012662887573</distance><timeResidual>0.17916488647460938</timeResidual><timeUsed>true</timeUsed><horizontalSlownessUsed>false</horizontalSlownessUsed><backazimuthUsed>false</backazimuthUsed><weight>1</weight></arrival><arrival><pickID>de.gempa.tb1.Pick/20250413072923.374635.129804</pickID><phase>P</phase><azimuth>320.2139892578125</azimuth><distance>3.1105706691741943</distance><timeResidual>0.15044021606445312</timeResidual><timeUsed>true</timeUsed><horizontalSlownessUsed>false</horizontalSlownessUsed><backazimuthUsed>false</backazimuthUsed><weight>1</weight></arrival><arrival><pickID>de.gempa.tb1.Pick/20250413072929.687659.129809</pickID><phase>S</phase><azimuth>310.09686279296875</azimuth><distance>2.2043395042419434</distance><timeResidual>0.02790069580078125</timeResidual><timeUsed>true</timeUsed><horizontalSlownessUsed>false</horizontalSlownessUsed><backazimuthUsed>false</backazimuthUsed><weight>1</weight></arrival><arrival><pickID>de.gempa.tb1.Pick/20250413072941.566982.129811</pickID><phase>S</phase><azimuth>318.0455627441406</azimuth><distance>2.785869359970093</distance><timeResidual>-0.21833419799804688</timeResidual><timeUsed>true</timeUsed><horizontalSlownessUsed>false</horizontalSlownessUsed><backazimuthUsed>false</backazimuthUsed><weight>1</weight></arrival><magnitude publicID="de.gempa.tb1.Magnitude/20250413073022.57233.328166"><magnitude><value>3.533902116043788</value></magnitude><type>M</type><methodID>weighted average</methodID><stationCount>4</stationCount></magnitude></origin><event publicID="gempa2025hgze"><preferredOriginID>de.gempa.tb1.Origin/20250413072941.570435.104219</preferredOriginID><preferredMagnitudeID>de.gempa.tb1.Magnitude/20250413073022.57233.328166</preferredMagnitudeID><description><text>Chile-Argentina Border Region</text><type>region name</type></description><originReference>de.gempa.tb1.Origin/20250413072941.570435.104219</originReference></event></EventParameters></seiscomp>