<?xml version="1.0" encoding="UTF-8"?>
<seiscomp xmlns="http://geofon.gfz-potsdam.de/ns/seiscomp3-schema/0.13" version="0.13"><EventParameters><pick publicID="de.gempa.tb1.Pick/20250413050242.881245.128960"><time><value>2025-04-13T05:02:37.428394Z</value></time><waveformID networkCode="CX" stationCode="PB08" channelCode="HHZ"/><filterID>ITAPER(4)&gt;&gt;BW(4,4,20)</filterID><methodID>AIC</methodID><horizontalSlowness><value>16.237649772065222</value></horizontalSlowness><backazimuth><value>85.96913853657593</value></backazimuth><phaseHint>P</phaseHint><evaluationMode>automatic</evaluationMode><comment><text>6.428326568832888</text><id>DFX:rectilinearity</id></comment><comment><text>7.943318067524062</text><id>SNR</id></comment></pick><pick publicID="de.gempa.tb1.Pick/20250413050247.772107.128962"><time><value>2025-04-13T05:02:38.9Z</value></time><waveformID networkCode="CX" stationCode="PSGCX" channelCode="HHZ"/><filterID>ITAPER(4)&gt;&gt;BW(4,4,20)</filterID><methodID>AIC</methodID><horizontalSlowness><value>18.916917908052994</value></horizontalSlowness><backazimuth><value>267.865596077491</value></backazimuth><phaseHint>P</phaseHint><evaluationMode>automatic</evaluationMode><comment><text>19.706092884248338</text><id>DFX:rectilinearity</id></comment><comment><text>21.22585728759494</text><id>SNR</id></comment></pick><pick publicID="de.gempa.tb1.Pick/20250413050252.781605.128964"><time><value>2025-04-13T05:02:47.658393Z</value></time><waveformID networkCode="CX" stationCode="PB16" channelCode="HHZ"/><filterID>ITAPER(4)&gt;&gt;BW(4,4,20)</filterID><methodID>AIC</methodID><horizontalSlowness><value>6.735097074170746</value></horizontalSlowness><backazimuth><value>54.73373424713675</value></backazimuth><phaseHint>P</phaseHint><evaluationMode>automatic</evaluationMode><comment><text>4.1550431217148764</text><id>DFX:rectilinearity</id></comment><comment><text>12.121891035441683</text><id>SNR</id></comment></pick><pick publicID="de.gempa.tb1.Pick/20250413050254.517229.128966"><time><value>2025-04-13T05:02:46.068393Z</value></time><waveformID networkCode="CX" stationCode="PB01" channelCode="HHZ"/><filterID>ITAPER(4)&gt;&gt;BW(4,4,20)</filterID><methodID>AIC</methodID><horizontalSlowness><value>20.336636119215424</value></horizontalSlowness><backazimuth><value>3.5181680246952</value></backazimuth><phaseHint>P</phaseHint><evaluationMode>automatic</evaluationMode><comment><text>10.91652824331933</text><id>DFX:rectilinearity</id></comment><comment><text>8.657641899036616</text><id>SNR</id></comment></pick><pick publicID="de.gempa.tb1.Pick/20250413050259.59158.128970"><time><value>2025-04-13T05:02:52.67Z</value></time><waveformID networkCode="CX" stationCode="PSGCX" channelCode="HHN"/><filterID>ITAPER(2)&gt;&gt;BW(3,3,20)</filterID><methodID>L2-AIC-GRID</methodID><horizontalSlowness><value>20.541445904216257</value></horizontalSlowness><backazimuth><value>357.7485975731921</value></backazimuth><phaseHint>S</phaseHint><evaluationMode>automatic</evaluationMode><comment><text>29.63649215908304</text><id>DFX:rectilinearity</id></comment><comment><text>de.gempa.tb1.Pick/20250413050247.772107.128962</text><id>RefPickID</id></comment><comment><text>6.092749055468141</text><id>SNR</id></comment></pick><pick publicID="de.gempa.tb1.Pick/20250413050301.864893.128971"><time><value>2025-04-13T05:02:48.898394Z</value></time><waveformID networkCode="CX" stationCode="PB08" channelCode="HHN"/><filterID>ITAPER(2)&gt;&gt;BW(3,3,20)</filterID><methodID>L2-AIC-GRID</methodID><horizontalSlowness><value>19.00705650249705</value></horizontalSlowness><backazimuth><value>63.73851553444344</value></backazimuth><phaseHint>S</phaseHint><evaluationMode>automatic</evaluationMode><comment><text>8.046738229018066</text><id>DFX:rectilinearity</id></comment><comment><text>de.gempa.tb1.Pick/20250413050242.881245.128960</text><id>RefPickID</id></comment><comment><text>11.4460171528709</text><id>SNR</id></comment></pick><pick publicID="de.gempa.tb1.Pick/20250413050311.714127.128972"><time><value>2025-04-13T05:03:04.658393Z</value></time><waveformID networkCode="CX" stationCode="PB01" channelCode="HHN"/><filterID>ITAPER(2)&gt;&gt;BW(3,3,20)</filterID><methodID>L2-AIC-GRID</methodID><horizontalSlowness><value>21.18003400907573</value></horizontalSlowness><backazimuth><value>115.72830207439874</value></backazimuth><phaseHint>S</phaseHint><evaluationMode>automatic</evaluationMode><comment><text>31.820189483682107</text><id>DFX:rectilinearity</id></comment><comment><text>de.gempa.tb1.Pick/20250413050254.517229.128966</text><id>RefPickID</id></comment><comment><text>8.248993776549469</text><id>SNR</id></comment></pick><pick publicID="de.gempa.tb1.Pick/20250413050316.344806.128973"><time><value>2025-04-13T05:03:07.428393Z</value></time><waveformID networkCode="CX" stationCode="PB16" channelCode="HHN"/><filterID>ITAPER(2)&gt;&gt;BW(3,3,20)</filterID><methodID>L2-AIC-GRID</methodID><horizontalSlowness><value>11.046393184196132</value></horizontalSlowness><backazimuth><value>15.32324818872911</value></backazimuth><phaseHint>S</phaseHint><evaluationMode>automatic</evaluationMode><comment><text>4.048157380356477</text><id>DFX:rectilinearity</id></comment><comment><text>de.gempa.tb1.Pick/20250413050252.781605.128964</text><id>RefPickID</id></comment><comment><text>5.560944676614197</text><id>SNR</id></comment></pick><origin publicID="de.gempa.tb1.Origin/20250413050316.349265.101196"><time><value>2025-04-13T05:02:22.756388Z</value><uncertainty>0.9292225241661072</uncertainty></time><latitude><value>-19.755022048950195</value><uncertainty>3.1478641033172607</uncertainty></latitude><longitude><value>-69.41273498535156</value><uncertainty>6.064699649810791</uncertainty></longitude><depth><value>94.71231842041016</value><uncertainty>8.173023223876953</uncertainty></depth><depthType>from location</depthType><methodID>LOCSAT</methodID><earthModelID>iasp91_scanloc</earthModelID><quality><associatedPhaseCount>8</associatedPhaseCount><usedPhaseCount>8</usedPhaseCount><associatedStationCount>4</associatedStationCount><usedStationCount>4</usedStationCount><depthPhaseCount>0</depthPhaseCount><standardError>0.3650164066659353</standardError><azimuthalGap>151.27557373046875</azimuthalGap><maximumDistance>1.4152754545211792</maximumDistance><minimumDistance>0.4550397992134094</minimumDistance><medianDistance>1.2835744619369507</medianDistance></quality><uncertainty><minHorizontalUncertainty>6.33954381942749</minHorizontalUncertainty><maxHorizontalUncertainty>13.21077823638916</maxHorizontalUncertainty><azimuthMaxHorizontalUncertainty>78.45635986328125</azimuthMaxHorizontalUncertainty><preferredDescription>horizontal uncertainty</preferredDescription></uncertainty><evaluationMode>automatic</evaluationMode><evaluationStatus>confirmed</evaluationStatus><comment><text>0.05</text><id>mismatchScore</id></comment><comment><text>mismatchScore</text><id>scevalMethod</id></comment><arrival><pickID>de.gempa.tb1.Pick/20250413050242.881245.128960</pickID><phase>P</phase><azimuth>147.6221923828125</azimuth><distance>0.4550397992134094</distance><timeResidual>-0.2308921813964844</timeResidual><timeUsed>true</timeUsed><horizontalSlownessUsed>false</horizontalSlownessUsed><backazimuthUsed>false</backazimuthUsed><weight>1</weight></arrival><arrival><pickID>de.gempa.tb1.Pick/20250413050247.772107.128962</pickID><phase>P</phase><azimuth>283.0841979980469</azimuth><distance>0.6875171065330505</distance><timeResidual>-0.6757831573486328</timeResidual><timeUsed>true</timeUsed><horizontalSlownessUsed>false</horizontalSlownessUsed><backazimuthUsed>false</backazimuthUsed><weight>1</weight></arrival><arrival><pickID>de.gempa.tb1.Pick/20250413050252.781605.128964</pickID><phase>P</phase><azimuth>356.34661865234375</azimuth><distance>1.4152754545211792</distance><timeResidual>-0.037604331970214844</timeResidual><timeUsed>true</timeUsed><horizontalSlownessUsed>false</horizontalSlownessUsed><backazimuthUsed>false</backazimuthUsed><weight>1</weight></arrival><arrival><pickID>de.gempa.tb1.Pick/20250413050254.517229.128966</pickID><phase>P</phase><azimuth>183.1149139404297</azimuth><distance>1.2835744619369507</distance><timeResidual>-0.011202812194824219</timeResidual><timeUsed>true</timeUsed><horizontalSlownessUsed>false</horizontalSlownessUsed><backazimuthUsed>false</backazimuthUsed><weight>1</weight></arrival><arrival><pickID>de.gempa.tb1.Pick/20250413050259.59158.128970</pickID><phase>S</phase><azimuth>283.0841979980469</azimuth><distance>0.6875171065330505</distance><timeResidual>0.16875171661376953</timeResidual><timeUsed>true</timeUsed><horizontalSlownessUsed>false</horizontalSlownessUsed><backazimuthUsed>false</backazimuthUsed><weight>1</weight></arrival><arrival><pickID>de.gempa.tb1.Pick/20250413050301.864893.128971</pickID><phase>S</phase><azimuth>147.6221923828125</azimuth><distance>0.4550397992134094</distance><timeResidual>-0.19431495666503906</timeResidual><timeUsed>true</timeUsed><horizontalSlownessUsed>false</horizontalSlownessUsed><backazimuthUsed>false</backazimuthUsed><weight>1</weight></arrival><arrival><pickID>de.gempa.tb1.Pick/20250413050311.714127.128972</pickID><phase>S</phase><azimuth>183.1149139404297</azimuth><distance>1.2835744619369507</distance><timeResidual>0.5495691299438477</timeResidual><timeUsed>true</timeUsed><horizontalSlownessUsed>false</horizontalSlownessUsed><backazimuthUsed>false</backazimuthUsed><weight>1</weight></arrival><arrival><pickID>de.gempa.tb1.Pick/20250413050316.344806.128973</pickID><phase>S</phase><azimuth>356.34661865234375</azimuth><distance>1.4152754545211792</distance><timeResidual>0.4313936233520508</timeResidual><timeUsed>true</timeUsed><horizontalSlownessUsed>false</horizontalSlownessUsed><backazimuthUsed>false</backazimuthUsed><weight>1</weight></arrival><magnitude publicID="de.gempa.tb1.Magnitude/20250413050337.575227.317527"><magnitude><value>1.9063089655141496</value></magnitude><type>M</type><methodID>weighted average</methodID><stationCount>1</stationCount></magnitude></origin><event publicID="gempa2025hgui"><preferredOriginID>de.gempa.tb1.Origin/20250413050316.349265.101196</preferredOriginID><preferredMagnitudeID>de.gempa.tb1.Magnitude/20250413050337.575227.317527</preferredMagnitudeID><description><text>Northern Chile</text><type>region name</type></description><originReference>de.gempa.tb1.Origin/20250413050316.349265.101196</originReference></event></EventParameters></seiscomp>