<?xml version="1.0" encoding="UTF-8"?>
<seiscomp xmlns="http://geofon.gfz-potsdam.de/ns/seiscomp3-schema/0.13" version="0.13"><EventParameters><pick publicID="de.gempa.tb1.Pick/20250413164441.01157.198964"><time><value>2025-04-13T16:44:37.82Z</value></time><waveformID networkCode="CH" stationCode="LAUCH" channelCode="HHZ"/><filterID>ITAPER(4)&gt;&gt;BW(4,4,20)</filterID><methodID>AIC</methodID><phaseHint>P</phaseHint><evaluationMode>automatic</evaluationMode></pick><pick publicID="de.gempa.tb1.Pick/20250413164442.107931.198966"><time><value>2025-04-13T16:44:40.274998Z</value></time><waveformID networkCode="CH" stationCode="DIX" channelCode="HHZ"/><filterID>ITAPER(4)&gt;&gt;BW(4,4,20)</filterID><methodID>AIC</methodID><phaseHint>P</phaseHint><evaluationMode>automatic</evaluationMode></pick><pick publicID="de.gempa.tb1.Pick/20250413164442.144674.198968"><time><value>2025-04-13T16:44:37.975Z</value></time><waveformID networkCode="CH" stationCode="WIMIS" channelCode="HHZ"/><filterID>ITAPER(4)&gt;&gt;BW(4,4,20)</filterID><methodID>AIC</methodID><phaseHint>P</phaseHint><evaluationMode>automatic</evaluationMode></pick><pick publicID="de.gempa.tb1.Pick/20250413164445.954924.198972"><time><value>2025-04-13T16:44:43.31Z</value></time><waveformID networkCode="CH" stationCode="MMK" channelCode="HHZ"/><filterID>ITAPER(4)&gt;&gt;BW(4,4,20)</filterID><methodID>AIC</methodID><phaseHint>P</phaseHint><evaluationMode>automatic</evaluationMode></pick><pick publicID="de.gempa.tb1.Pick/20250413164447.169493.198974"><time><value>2025-04-13T16:44:44.89Z</value></time><waveformID networkCode="CH" stationCode="SIMPL" channelCode="HHZ"/><filterID>ITAPER(4)&gt;&gt;BW(4,4,20)</filterID><methodID>AIC</methodID><phaseHint>P</phaseHint><evaluationMode>automatic</evaluationMode></pick><pick publicID="de.gempa.tb1.Pick/20250413164502.520262.198978"><time><value>2025-04-13T16:44:58.825Z</value></time><waveformID networkCode="CH" stationCode="MUGIO" channelCode="HHZ"/><filterID>ITAPER(4)&gt;&gt;BW(4,4,20)</filterID><methodID>AIC</methodID><phaseHint>P</phaseHint><evaluationMode>automatic</evaluationMode></pick><pick publicID="de.gempa.tb1.Pick/20250413164631.610434.199004"><time><value>2025-04-13T16:45:21.889999Z</value></time><waveformID networkCode="GR" stationCode="FUR" channelCode="BHZ"/><filterID>ITAPER(4)&gt;&gt;BW_HP(4,4)</filterID><methodID>AIC</methodID><phaseHint>P</phaseHint><evaluationMode>automatic</evaluationMode></pick><origin publicID="de.gempa.tb1.Origin/20250413164631.612963.125258"><time><value>2025-04-13T16:44:30.564407Z</value><uncertainty>1.7742058038711548</uncertainty></time><latitude><value>46.53716278076172</value><uncertainty>5.342974185943604</uncertainty></latitude><longitude><value>7.144540309906006</value><uncertainty>12.493011474609375</uncertainty></longitude><depth><value>0</value></depth><depthType>operator assigned</depthType><methodID>LOCSAT</methodID><earthModelID>iasp91</earthModelID><quality><associatedPhaseCount>7</associatedPhaseCount><usedPhaseCount>7</usedPhaseCount><associatedStationCount>7</associatedStationCount><usedStationCount>7</usedStationCount><depthPhaseCount>0</depthPhaseCount><standardError>1.2128593404810124</standardError><azimuthalGap>260.2940979003906</azimuthalGap><maximumDistance>3.246516227722168</maximumDistance><minimumDistance>0.35453468561172485</minimumDistance><medianDistance>0.6748661994934082</medianDistance></quality><uncertainty><minHorizontalUncertainty>10.310959815979004</minHorizontalUncertainty><maxHorizontalUncertainty>27.26726531982422</maxHorizontalUncertainty><azimuthMaxHorizontalUncertainty>101.4449234008789</azimuthMaxHorizontalUncertainty><preferredDescription>horizontal uncertainty</preferredDescription></uncertainty><evaluationMode>automatic</evaluationMode><evaluationStatus>rejected</evaluationStatus><comment><text>0.88</text><id>mismatchScore</id></comment><comment><text>mismatchScore</text><id>scevalMethod</id></comment><arrival><pickID>de.gempa.tb1.Pick/20250413164441.01157.198964</pickID><phase>P</phase><azimuth>105.45391845703125</azimuth><distance>0.4501429796218872</distance><timeResidual>-1.4499821662902832</timeResidual><timeUsed>true</timeUsed><horizontalSlownessUsed>false</horizontalSlownessUsed><backazimuthUsed>false</backazimuthUsed><weight>1</weight></arrival><arrival><pickID>de.gempa.tb1.Pick/20250413164442.107931.198966</pickID><phase>P</phase><azimuth>158.1203155517578</azimuth><distance>0.4923848509788513</distance><timeResidual>0.2013077735900879</timeResidual><timeUsed>true</timeUsed><horizontalSlownessUsed>false</horizontalSlownessUsed><backazimuthUsed>false</backazimuthUsed><weight>1</weight></arrival><arrival><pickID>de.gempa.tb1.Pick/20250413164442.144674.198968</pickID><phase>P</phase><azimuth>68.70398712158203</azimuth><distance>0.35453468561172485</distance><timeResidual>0.5232062339782715</timeResidual><timeUsed>true</timeUsed><horizontalSlownessUsed>false</horizontalSlownessUsed><backazimuthUsed>false</backazimuthUsed><weight>1</weight></arrival><arrival><pickID>de.gempa.tb1.Pick/20250413164445.954924.198972</pickID><phase>P</phase><azimuth>130.29086303710938</azimuth><distance>0.7481815814971924</distance><timeResidual>-1.6270852088928223</timeResidual><timeUsed>true</timeUsed><horizontalSlownessUsed>false</horizontalSlownessUsed><backazimuthUsed>false</backazimuthUsed><weight>1</weight></arrival><arrival><pickID>de.gempa.tb1.Pick/20250413164447.169493.198974</pickID><phase>P</phase><azimuth>115.85282135009766</azimuth><distance>0.6748661994934082</distance><timeResidual>1.3471550941467285</timeResidual><timeUsed>true</timeUsed><horizontalSlownessUsed>false</horizontalSlownessUsed><backazimuthUsed>false</backazimuthUsed><weight>1</weight></arrival><arrival><pickID>de.gempa.tb1.Pick/20250413164502.520262.198978</pickID><phase>P</phase><azimuth>114.3634262084961</azimuth><distance>1.4536352157592773</distance><timeResidual>1.7094979286193848</timeResidual><timeUsed>true</timeUsed><horizontalSlownessUsed>false</horizontalSlownessUsed><backazimuthUsed>false</backazimuthUsed><weight>1</weight></arrival><arrival><pickID>de.gempa.tb1.Pick/20250413164631.610434.199004</pickID><phase>P</phase><azimuth>58.41441345214844</azimuth><distance>3.246516227722168</distance><timeResidual>-0.7041735649108887</timeResidual><timeUsed>true</timeUsed><horizontalSlownessUsed>false</horizontalSlownessUsed><backazimuthUsed>false</backazimuthUsed><weight>1</weight></arrival><magnitude publicID="de.gempa.tb1.Magnitude/20250413164631.715549.379506"><magnitude><value>1.5880373575251656</value></magnitude><type>M</type><methodID>weighted average</methodID><stationCount>6</stationCount></magnitude></origin><event publicID="gempa2025hhrs"><preferredOriginID>de.gempa.tb1.Origin/20250413164631.612963.125258</preferredOriginID><preferredMagnitudeID>de.gempa.tb1.Magnitude/20250413164631.715549.379506</preferredMagnitudeID><typeCertainty>suspected</typeCertainty><description><text>Switzerland</text><type>region name</type></description><originReference>de.gempa.tb1.Origin/20250413164631.612963.125258</originReference></event></EventParameters></seiscomp>