<?xml version="1.0" encoding="UTF-8"?>
<seiscomp xmlns="http://geofon.gfz-potsdam.de/ns/seiscomp3-schema/0.13" version="0.13"><EventParameters><pick publicID="de.gempa.tb1.Pick/20250414045255.280234.135757"><time><value>2025-04-14T04:52:49.858393Z</value></time><waveformID networkCode="CX" stationCode="PB08" channelCode="HHZ"/><filterID>ITAPER(4)&gt;&gt;BW(4,4,20)</filterID><methodID>AIC</methodID><horizontalSlowness><value>8.522875992368181</value></horizontalSlowness><backazimuth><value>98.58718792005577</value></backazimuth><phaseHint>P</phaseHint><evaluationMode>automatic</evaluationMode><comment><text>9.861541182125286</text><id>DFX:rectilinearity</id></comment><comment><text>41.286110317302835</text><id>SNR</id></comment></pick><pick publicID="de.gempa.tb1.Pick/20250414045259.650679.135759"><time><value>2025-04-14T04:52:54.398393Z</value></time><waveformID networkCode="CX" stationCode="PB01" channelCode="HHZ"/><filterID>ITAPER(4)&gt;&gt;BW(4,4,20)</filterID><methodID>AIC</methodID><horizontalSlowness><value>15.490606659274226</value></horizontalSlowness><backazimuth><value>235.483945646452</value></backazimuth><phaseHint>P</phaseHint><evaluationMode>automatic</evaluationMode><comment><text>16.26389386803442</text><id>DFX:rectilinearity</id></comment><comment><text>52.36437025132643</text><id>SNR</id></comment></pick><pick publicID="de.gempa.tb1.Pick/20250414045304.346519.135761"><time><value>2025-04-14T04:52:57.369999Z</value></time><waveformID networkCode="CX" stationCode="PATCX" channelCode="HHZ"/><filterID>ITAPER(4)&gt;&gt;BW(4,4,20)</filterID><methodID>AIC</methodID><horizontalSlowness><value>16.452850626154188</value></horizontalSlowness><backazimuth><value>196.00103191380805</value></backazimuth><phaseHint>P</phaseHint><evaluationMode>automatic</evaluationMode><comment><text>142.58662984226567</text><id>DFX:rectilinearity</id></comment><comment><text>17.512526693046734</text><id>SNR</id></comment></pick><pick publicID="de.gempa.tb1.Pick/20250414045306.577529.135763"><time><value>2025-04-14T04:52:57.78Z</value></time><waveformID networkCode="CX" stationCode="PSGCX" channelCode="HHZ"/><filterID>ITAPER(4)&gt;&gt;BW(4,4,20)</filterID><methodID>AIC</methodID><horizontalSlowness><value>22.483616314629352</value></horizontalSlowness><backazimuth><value>93.97941119875775</value></backazimuth><phaseHint>P</phaseHint><evaluationMode>automatic</evaluationMode><comment><text>16.303633548611248</text><id>DFX:rectilinearity</id></comment><comment><text>33.48828317699928</text><id>SNR</id></comment></pick><pick publicID="de.gempa.tb1.Pick/20250414045306.705261.135765"><time><value>2025-04-14T04:52:59.918393Z</value></time><waveformID networkCode="CX" stationCode="PB02" channelCode="HHZ"/><filterID>ITAPER(4)&gt;&gt;BW(4,4,20)</filterID><methodID>AIC</methodID><horizontalSlowness><value>17.853243328080858</value></horizontalSlowness><backazimuth><value>265.58010367426687</value></backazimuth><phaseHint>P</phaseHint><evaluationMode>automatic</evaluationMode><comment><text>35.335068973975147</text><id>DFX:rectilinearity</id></comment><comment><text>9.79160783097749</text><id>SNR</id></comment></pick><pick publicID="de.gempa.tb1.Pick/20250414045308.866494.135767"><time><value>2025-04-14T04:53:01.308393Z</value></time><waveformID networkCode="CX" stationCode="PB08" channelCode="HHN"/><filterID>ITAPER(2)&gt;&gt;BW(3,3,20)</filterID><methodID>L2-AIC-GRID</methodID><horizontalSlowness><value>14.296638092896123</value></horizontalSlowness><backazimuth><value>207.29913910080353</value></backazimuth><phaseHint>S</phaseHint><evaluationMode>automatic</evaluationMode><comment><text>258.03225655131763</text><id>DFX:rectilinearity</id></comment><comment><text>de.gempa.tb1.Pick/20250414045255.280234.135757</text><id>RefPickID</id></comment><comment><text>10.019502649810768</text><id>SNR</id></comment></pick><pick publicID="de.gempa.tb1.Pick/20250414045316.431109.135768"><time><value>2025-04-14T04:53:02.530001Z</value></time><waveformID networkCode="CX" stationCode="PB09" channelCode="HHZ"/><filterID>ITAPER(4)&gt;&gt;BW(4,4,20)</filterID><methodID>AIC</methodID><horizontalSlowness><value>20.868456517674918</value></horizontalSlowness><backazimuth><value>119.06097196686648</value></backazimuth><phaseHint>P</phaseHint><evaluationMode>automatic</evaluationMode><comment><text>8.372311892428023</text><id>DFX:rectilinearity</id></comment><comment><text>12.777017979792303</text><id>SNR</id></comment></pick><pick publicID="de.gempa.tb1.Pick/20250414045316.983075.135770"><time><value>2025-04-14T04:53:03.168393Z</value></time><waveformID networkCode="CX" stationCode="PB07" channelCode="HHZ"/><filterID>ITAPER(4)&gt;&gt;BW(4,4,20)</filterID><methodID>AIC</methodID><horizontalSlowness><value>23.55776227595712</value></horizontalSlowness><backazimuth><value>86.60340453474511</value></backazimuth><phaseHint>P</phaseHint><evaluationMode>automatic</evaluationMode><comment><text>168.0086019528982</text><id>DFX:rectilinearity</id></comment><comment><text>9.713658702537808</text><id>SNR</id></comment></pick><pick publicID="de.gempa.tb1.Pick/20250414045317.643843.135772"><time><value>2025-04-14T04:53:09.418393Z</value></time><waveformID networkCode="CX" stationCode="PB01" channelCode="HHN"/><filterID>ITAPER(2)&gt;&gt;BW(3,3,20)</filterID><methodID>L2-AIC-GRID</methodID><horizontalSlowness><value>22.328142963502192</value></horizontalSlowness><backazimuth><value>157.2840917737394</value></backazimuth><phaseHint>S</phaseHint><evaluationMode>automatic</evaluationMode><comment><text>113.969197615457</text><id>DFX:rectilinearity</id></comment><comment><text>de.gempa.tb1.Pick/20250414045259.650679.135759</text><id>RefPickID</id></comment><comment><text>13.064393053697389</text><id>SNR</id></comment></pick><pick publicID="de.gempa.tb1.Pick/20250414045323.589562.135774"><time><value>2025-04-14T04:53:15.48Z</value></time><waveformID networkCode="CX" stationCode="PSGCX" channelCode="HHN"/><filterID>ITAPER(2)&gt;&gt;BW(3,3,20)</filterID><methodID>L2-AIC-GRID</methodID><horizontalSlowness><value>19.765959175967883</value></horizontalSlowness><backazimuth><value>202.4346729544327</value></backazimuth><phaseHint>S</phaseHint><evaluationMode>automatic</evaluationMode><comment><text>60.40946656712473</text><id>DFX:rectilinearity</id></comment><comment><text>de.gempa.tb1.Pick/20250414045306.577529.135763</text><id>RefPickID</id></comment><comment><text>13.097522765690526</text><id>SNR</id></comment></pick><pick publicID="de.gempa.tb1.Pick/20250414045327.519097.135775"><time><value>2025-04-14T04:53:18.448393Z</value></time><waveformID networkCode="CX" stationCode="PB02" channelCode="HHN"/><filterID>ITAPER(2)&gt;&gt;BW(3,3,20)</filterID><methodID>L2-AIC-GRID</methodID><horizontalSlowness><value>16.442440051485281</value></horizontalSlowness><backazimuth><value>258.59923175533987</value></backazimuth><phaseHint>S</phaseHint><evaluationMode>automatic</evaluationMode><comment><text>89.88189627096952</text><id>DFX:rectilinearity</id></comment><comment><text>de.gempa.tb1.Pick/20250414045306.705261.135765</text><id>RefPickID</id></comment><comment><text>6.673178763462131</text><id>SNR</id></comment></pick><pick publicID="de.gempa.tb1.Pick/20250414045341.782883.135776"><time><value>2025-04-14T04:53:24.998393Z</value></time><waveformID networkCode="CX" stationCode="PB07" channelCode="HHN"/><filterID>ITAPER(2)&gt;&gt;BW(3,3,20)</filterID><methodID>L2-AIC-GRID</methodID><horizontalSlowness><value>22.210361854708246</value></horizontalSlowness><backazimuth><value>109.16748920497373</value></backazimuth><phaseHint>S</phaseHint><evaluationMode>automatic</evaluationMode><comment><text>483.0215024052479</text><id>DFX:rectilinearity</id></comment><comment><text>de.gempa.tb1.Pick/20250414045316.983075.135770</text><id>RefPickID</id></comment><comment><text>5.060922944786165</text><id>SNR</id></comment></pick><origin publicID="de.gempa.tb1.Origin/20250414045341.788571.127551"><time><value>2025-04-14T04:52:35.23002Z</value><uncertainty>0.9715925455093384</uncertainty></time><latitude><value>-20.259031295776367</value><uncertainty>3.4650912284851074</uncertainty></latitude><longitude><value>-69.10121154785156</value><uncertainty>6.95061206817627</uncertainty></longitude><depth><value>105.6868667602539</value><uncertainty>6.459126949310303</uncertainty></depth><depthType>from location</depthType><methodID>LOCSAT</methodID><earthModelID>iasp91_scanloc</earthModelID><quality><associatedPhaseCount>12</associatedPhaseCount><usedPhaseCount>12</usedPhaseCount><associatedStationCount>7</associatedStationCount><usedStationCount>7</usedStationCount><depthPhaseCount>0</depthPhaseCount><standardError>0.2947385362966645</standardError><azimuthalGap>207.57208251953125</azimuthalGap><maximumDistance>1.634162187576294</maximumDistance><minimumDistance>0.12713570892810822</minimumDistance><medianDistance>1.1652555465698242</medianDistance></quality><uncertainty><minHorizontalUncertainty>7.361552715301514</minHorizontalUncertainty><maxHorizontalUncertainty>14.935980796813965</maxHorizontalUncertainty><azimuthMaxHorizontalUncertainty>85.58238220214844</azimuthMaxHorizontalUncertainty><preferredDescription>horizontal uncertainty</preferredDescription></uncertainty><evaluationMode>automatic</evaluationMode><evaluationStatus>confirmed</evaluationStatus><comment><text>0.00</text><id>mismatchScore</id></comment><comment><text>mismatchScore</text><id>scevalMethod</id></comment><arrival><pickID>de.gempa.tb1.Pick/20250414045255.280234.135757</pickID><phase>P</phase><azimuth>337.3145446777344</azimuth><distance>0.12713570892810822</distance><timeResidual>-0.0583486557006836</timeResidual><timeUsed>true</timeUsed><horizontalSlownessUsed>false</horizontalSlownessUsed><backazimuthUsed>false</backazimuthUsed><weight>1</weight></arrival><arrival><pickID>de.gempa.tb1.Pick/20250414045259.650679.135759</pickID><phase>P</phase><azimuth>204.80194091796875</azimuth><distance>0.8599904179573059</distance><timeResidual>-0.2786407470703125</timeResidual><timeUsed>true</timeUsed><horizontalSlownessUsed>false</horizontalSlownessUsed><backazimuthUsed>false</backazimuthUsed><weight>1</weight></arrival><arrival><pickID>de.gempa.tb1.Pick/20250414045304.346519.135761</pickID><phase>P</phase><azimuth>240.2646026611328</azimuth><distance>1.1330180168151855</distance><timeResidual>-0.17157840728759766</timeResidual><timeUsed>true</timeUsed><horizontalSlownessUsed>false</horizontalSlownessUsed><backazimuthUsed>false</backazimuthUsed><weight>1</weight></arrival><arrival><pickID>de.gempa.tb1.Pick/20250414045306.577529.135763</pickID><phase>P</phase><azimuth>304.23297119140625</azimuth><distance>1.1652555465698242</distance><timeResidual>-0.12641525268554688</timeResidual><timeUsed>true</timeUsed><horizontalSlownessUsed>false</horizontalSlownessUsed><backazimuthUsed>false</backazimuthUsed><weight>1</weight></arrival><arrival><pickID>de.gempa.tb1.Pick/20250414045306.705261.135765</pickID><phase>P</phase><azimuth>215.03182983398438</azimuth><distance>1.2910714149475098</distance><timeResidual>0.5862245559692383</timeResidual><timeUsed>true</timeUsed><horizontalSlownessUsed>false</horizontalSlownessUsed><backazimuthUsed>false</backazimuthUsed><weight>1</weight></arrival><arrival><pickID>de.gempa.tb1.Pick/20250414045308.866494.135767</pickID><phase>S</phase><azimuth>337.3145446777344</azimuth><distance>0.12713570892810822</distance><timeResidual>0.1030120849609375</timeResidual><timeUsed>true</timeUsed><horizontalSlownessUsed>false</horizontalSlownessUsed><backazimuthUsed>false</backazimuthUsed><weight>1</weight></arrival><arrival><pickID>de.gempa.tb1.Pick/20250414045316.431109.135768</pickID><phase>P</phase><azimuth>184.88662719726562</azimuth><distance>1.5353221893310547</distance><timeResidual>0.2962007522583008</timeResidual><timeUsed>true</timeUsed><horizontalSlownessUsed>false</horizontalSlownessUsed><backazimuthUsed>false</backazimuthUsed><weight>1</weight></arrival><arrival><pickID>de.gempa.tb1.Pick/20250414045316.983075.135770</pickID><phase>P</phase><azimuth>206.53079223632812</azimuth><distance>1.634162187576294</distance><timeResidual>-0.27559757232666016</timeResidual><timeUsed>true</timeUsed><horizontalSlownessUsed>false</horizontalSlownessUsed><backazimuthUsed>false</backazimuthUsed><weight>1</weight></arrival><arrival><pickID>de.gempa.tb1.Pick/20250414045317.643843.135772</pickID><phase>S</phase><azimuth>204.80194091796875</azimuth><distance>0.8599904179573059</distance><timeResidual>-0.25316715240478516</timeResidual><timeUsed>true</timeUsed><horizontalSlownessUsed>false</horizontalSlownessUsed><backazimuthUsed>false</backazimuthUsed><weight>1</weight></arrival><arrival><pickID>de.gempa.tb1.Pick/20250414045323.589562.135774</pickID><phase>S</phase><azimuth>304.23297119140625</azimuth><distance>1.1652555465698242</distance><timeResidual>0.04800701141357422</timeResidual><timeUsed>true</timeUsed><horizontalSlownessUsed>false</horizontalSlownessUsed><backazimuthUsed>false</backazimuthUsed><weight>1</weight></arrival><arrival><pickID>de.gempa.tb1.Pick/20250414045327.519097.135775</pickID><phase>S</phase><azimuth>215.03182983398438</azimuth><distance>1.2910714149475098</distance><timeResidual>0.4672517776489258</timeResidual><timeUsed>true</timeUsed><horizontalSlownessUsed>false</horizontalSlownessUsed><backazimuthUsed>false</backazimuthUsed><weight>1</weight></arrival><arrival><pickID>de.gempa.tb1.Pick/20250414045341.782883.135776</pickID><phase>S</phase><azimuth>206.53079223632812</azimuth><distance>1.634162187576294</distance><timeResidual>-0.336604118347168</timeResidual><timeUsed>true</timeUsed><horizontalSlownessUsed>false</horizontalSlownessUsed><backazimuthUsed>false</backazimuthUsed><weight>1</weight></arrival><magnitude publicID="de.gempa.tb1.Magnitude/20250414045341.794957.430286"><magnitude><value>2.1608784914013515</value></magnitude><type>M</type><methodID>weighted average</methodID><stationCount>6</stationCount></magnitude></origin><event publicID="gempa2025hiqa"><preferredOriginID>de.gempa.tb1.Origin/20250414045341.788571.127551</preferredOriginID><preferredMagnitudeID>de.gempa.tb1.Magnitude/20250414045341.794957.430286</preferredMagnitudeID><description><text>Northern Chile</text><type>region name</type></description><originReference>de.gempa.tb1.Origin/20250414045341.788571.127551</originReference></event></EventParameters></seiscomp>