<?xml version="1.0" encoding="UTF-8"?>
<seiscomp xmlns="http://geofon.gfz-potsdam.de/ns/seiscomp3-schema/0.13" version="0.13"><EventParameters><pick publicID="de.gempa.tb1.Pick/20250414050257.779533.135831"><time><value>2025-04-14T05:02:53.308393Z</value></time><waveformID networkCode="CX" stationCode="PB01" channelCode="HHZ"/><filterID>ITAPER(4)&gt;&gt;BW(4,4,20)</filterID><methodID>AIC</methodID><horizontalSlowness><value>5.225147592455778</value></horizontalSlowness><backazimuth><value>32.33388079051255</value></backazimuth><phaseHint>P</phaseHint><evaluationMode>automatic</evaluationMode><comment><text>1375.1395690978288</text><id>DFX:rectilinearity</id></comment><comment><text>875.4628928827135</text><id>SNR</id></comment></pick><pick publicID="de.gempa.tb1.Pick/20250414050301.518193.135833"><time><value>2025-04-14T05:02:57.298393Z</value></time><waveformID networkCode="CX" stationCode="PB02" channelCode="HHZ"/><filterID>ITAPER(4)&gt;&gt;BW(4,4,20)</filterID><methodID>AIC</methodID><horizontalSlowness><value>7.676469755407405</value></horizontalSlowness><backazimuth><value>50.59849238252863</value></backazimuth><phaseHint>P</phaseHint><evaluationMode>automatic</evaluationMode><comment><text>1914.5021809083373</text><id>DFX:rectilinearity</id></comment><comment><text>166.27571676606644</text><id>SNR</id></comment></pick><pick publicID="de.gempa.tb1.Pick/20250414050302.030469.135835"><time><value>2025-04-14T05:02:56.558393Z</value></time><waveformID networkCode="CX" stationCode="PB08" channelCode="HHZ"/><filterID>ITAPER(4)&gt;&gt;BW(4,4,20)</filterID><methodID>AIC</methodID><horizontalSlowness><value>18.896006443524318</value></horizontalSlowness><backazimuth><value>213.0788281487305</value></backazimuth><phaseHint>P</phaseHint><evaluationMode>automatic</evaluationMode><comment><text>15.17683549319409</text><id>DFX:rectilinearity</id></comment><comment><text>41.454301284062566</text><id>SNR</id></comment></pick><pick publicID="de.gempa.tb1.Pick/20250414050304.260251.135837"><time><value>2025-04-14T05:02:58.229999Z</value></time><waveformID networkCode="CX" stationCode="PATCX" channelCode="HHZ"/><filterID>ITAPER(4)&gt;&gt;BW(4,4,20)</filterID><methodID>AIC</methodID><horizontalSlowness><value>7.741964358427873</value></horizontalSlowness><backazimuth><value>135.81738346542326</value></backazimuth><phaseHint>P</phaseHint><evaluationMode>automatic</evaluationMode><comment><text>270.8701789720271</text><id>DFX:rectilinearity</id></comment><comment><text>116.05612844852752</text><id>SNR</id></comment></pick><pick publicID="de.gempa.tb1.Pick/20250414050307.681806.135839"><time><value>2025-04-14T05:03:02.468393Z</value></time><waveformID networkCode="CX" stationCode="PB03" channelCode="HHZ"/><filterID>ITAPER(4)&gt;&gt;BW(4,4,20)</filterID><methodID>AIC</methodID><horizontalSlowness><value>7.931063407529688</value></horizontalSlowness><backazimuth><value>39.688941823609866</value></backazimuth><phaseHint>P</phaseHint><evaluationMode>automatic</evaluationMode><comment><text>22.536053182834884</text><id>DFX:rectilinearity</id></comment><comment><text>54.62071652594461</text><id>SNR</id></comment></pick><pick publicID="de.gempa.tb1.Pick/20250414050309.221267.135841"><time><value>2025-04-14T05:02:58.72Z</value></time><waveformID networkCode="CX" stationCode="PB09" channelCode="HHZ"/><filterID>ITAPER(4)&gt;&gt;BW(4,4,20)</filterID><methodID>AIC</methodID><horizontalSlowness><value>15.753163903045714</value></horizontalSlowness><backazimuth><value>65.75113476253813</value></backazimuth><phaseHint>P</phaseHint><evaluationMode>automatic</evaluationMode><comment><text>72.0257368245469</text><id>DFX:rectilinearity</id></comment><comment><text>125.41088790666836</text><id>SNR</id></comment></pick><pick publicID="de.gempa.tb1.Pick/20250414050310.189829.135843"><time><value>2025-04-14T05:03:00.038393Z</value></time><waveformID networkCode="CX" stationCode="PB07" channelCode="HHZ"/><filterID>ITAPER(4)&gt;&gt;BW(4,4,20)</filterID><methodID>AIC</methodID><horizontalSlowness><value>11.26826900447296</value></horizontalSlowness><backazimuth><value>48.97448311327162</value></backazimuth><phaseHint>P</phaseHint><evaluationMode>automatic</evaluationMode><comment><text>1189.2349779701576</text><id>DFX:rectilinearity</id></comment><comment><text>159.72423484927353</text><id>SNR</id></comment></pick><pick publicID="de.gempa.tb1.Pick/20250414050312.535888.135845"><time><value>2025-04-14T05:03:04.54Z</value></time><waveformID networkCode="CX" stationCode="PSGCX" channelCode="HHZ"/><filterID>ITAPER(4)&gt;&gt;BW(4,4,20)</filterID><methodID>AIC</methodID><horizontalSlowness><value>8.014282552564918</value></horizontalSlowness><backazimuth><value>151.5358593392417</value></backazimuth><phaseHint>P</phaseHint><evaluationMode>automatic</evaluationMode><comment><text>54.50841976938808</text><id>DFX:rectilinearity</id></comment><comment><text>81.32363626087711</text><id>SNR</id></comment></pick><pick publicID="de.gempa.tb1.Pick/20250414050312.701428.135847"><time><value>2025-04-14T05:03:05.308393Z</value></time><waveformID networkCode="CX" stationCode="PB01" channelCode="HHN"/><filterID>ITAPER(2)&gt;&gt;BW(3,3,20)</filterID><methodID>L2-AIC-GRID</methodID><horizontalSlowness><value>21.139929170948367</value></horizontalSlowness><backazimuth><value>260.5348549636488</value></backazimuth><phaseHint>S</phaseHint><evaluationMode>automatic</evaluationMode><comment><text>58186.68570222275</text><id>DFX:rectilinearity</id></comment><comment><text>de.gempa.tb1.Pick/20250414050257.779533.135831</text><id>RefPickID</id></comment><comment><text>23.669419408783867</text><id>SNR</id></comment></pick><pick publicID="de.gempa.tb1.Pick/20250414050318.204808.135848"><time><value>2025-04-14T05:03:10.548393Z</value></time><waveformID networkCode="CX" stationCode="PB08" channelCode="HHN"/><filterID>ITAPER(2)&gt;&gt;BW(3,3,20)</filterID><methodID>L2-AIC-GRID</methodID><horizontalSlowness><value>17.887269718072456</value></horizontalSlowness><backazimuth><value>198.6513609311554</value></backazimuth><phaseHint>S</phaseHint><evaluationMode>automatic</evaluationMode><comment><text>1886.5078100196747</text><id>DFX:rectilinearity</id></comment><comment><text>de.gempa.tb1.Pick/20250414050302.030469.135835</text><id>RefPickID</id></comment><comment><text>15.223074342365324</text><id>SNR</id></comment></pick><pick publicID="de.gempa.tb1.Pick/20250414050318.519563.135849"><time><value>2025-04-14T05:03:09.838393Z</value></time><waveformID networkCode="CX" stationCode="PB06" channelCode="HHZ"/><filterID>ITAPER(4)&gt;&gt;BW(4,4,20)</filterID><methodID>AIC</methodID><horizontalSlowness><value>11.278668479077224</value></horizontalSlowness><backazimuth><value>311.6632700120089</value></backazimuth><phaseHint>P</phaseHint><evaluationMode>automatic</evaluationMode><comment><text>104.51253513509707</text><id>DFX:rectilinearity</id></comment><comment><text>16.364767231905713</text><id>SNR</id></comment></pick><pick publicID="de.gempa.tb1.Pick/20250414050327.576966.135852"><time><value>2025-04-14T05:03:16.758393Z</value></time><waveformID networkCode="CX" stationCode="PB07" channelCode="HHN"/><filterID>ITAPER(2)&gt;&gt;BW(3,3,20)</filterID><methodID>L2-AIC-GRID</methodID><horizontalSlowness><value>21.409726179363172</value></horizontalSlowness><backazimuth><value>200.61855715734853</value></backazimuth><phaseHint>S</phaseHint><evaluationMode>automatic</evaluationMode><comment><text>34038.7301929047</text><id>DFX:rectilinearity</id></comment><comment><text>de.gempa.tb1.Pick/20250414050310.189829.135843</text><id>RefPickID</id></comment><comment><text>5.375059780071856</text><id>SNR</id></comment></pick><pick publicID="de.gempa.tb1.Pick/20250414050327.777207.135853"><time><value>2025-04-14T05:03:20.718393Z</value></time><waveformID networkCode="CX" stationCode="PB03" channelCode="HHN"/><filterID>ITAPER(2)&gt;&gt;BW(3,3,20)</filterID><methodID>L2-AIC-GRID</methodID><horizontalSlowness><value>23.513377128034886</value></horizontalSlowness><backazimuth><value>130.99736488537553</value></backazimuth><phaseHint>S</phaseHint><evaluationMode>automatic</evaluationMode><comment><text>432.6713228789946</text><id>DFX:rectilinearity</id></comment><comment><text>de.gempa.tb1.Pick/20250414050307.681806.135839</text><id>RefPickID</id></comment><comment><text>8.832504045461592</text><id>SNR</id></comment></pick><pick publicID="de.gempa.tb1.Pick/20250414050333.775628.135857"><time><value>2025-04-14T05:03:24.97Z</value></time><waveformID networkCode="CX" stationCode="PSGCX" channelCode="HHN"/><filterID>ITAPER(2)&gt;&gt;BW(3,3,20)</filterID><methodID>L2-AIC-GRID</methodID><horizontalSlowness><value>16.542772581827204</value></horizontalSlowness><backazimuth><value>146.05018279780003</value></backazimuth><phaseHint>S</phaseHint><evaluationMode>automatic</evaluationMode><comment><text>350.58960224956775</text><id>DFX:rectilinearity</id></comment><comment><text>de.gempa.tb1.Pick/20250414050312.535888.135845</text><id>RefPickID</id></comment><comment><text>6.619646547408443</text><id>SNR</id></comment></pick><pick publicID="de.gempa.tb1.Pick/20250414050341.617014.135861"><time><value>2025-04-14T05:03:32.848393Z</value></time><waveformID networkCode="CX" stationCode="PB06" channelCode="HHN"/><filterID>ITAPER(2)&gt;&gt;BW(3,3,20)</filterID><methodID>L2-AIC-GRID</methodID><horizontalSlowness><value>20.742459461778676</value></horizontalSlowness><backazimuth><value>151.50327881060767</value></backazimuth><phaseHint>S</phaseHint><evaluationMode>automatic</evaluationMode><comment><text>143.61133661945553</text><id>DFX:rectilinearity</id></comment><comment><text>de.gempa.tb1.Pick/20250414050318.519563.135849</text><id>RefPickID</id></comment><comment><text>11.285160591344468</text><id>SNR</id></comment></pick><origin publicID="de.gempa.tb1.Origin/20250414050341.623105.128049"><time><value>2025-04-14T05:02:38.350165Z</value><uncertainty>0.7823704481124878</uncertainty></time><latitude><value>-20.851566314697266</value><uncertainty>2.4023661613464355</uncertainty></latitude><longitude><value>-69.24929809570312</value><uncertainty>7.007146835327148</uncertainty></longitude><depth><value>106.0483169555664</value><uncertainty>6.19800329208374</uncertainty></depth><depthType>from location</depthType><methodID>LOCSAT</methodID><earthModelID>iasp91_scanloc</earthModelID><quality><associatedPhaseCount>15</associatedPhaseCount><usedPhaseCount>15</usedPhaseCount><associatedStationCount>9</associatedStationCount><usedStationCount>9</usedStationCount><depthPhaseCount>0</depthPhaseCount><standardError>0.36771856624117277</standardError><azimuthalGap>172.3168339729309</azimuthalGap><maximumDistance>1.86940860748291</maximumDistance><minimumDistance>0.2930836081504822</minimumDistance><medianDistance>1.0540432929992676</medianDistance></quality><uncertainty><minHorizontalUncertainty>5.134932041168213</minHorizontalUncertainty><maxHorizontalUncertainty>15.027344703674316</maxHorizontalUncertainty><azimuthMaxHorizontalUncertainty>91.6107406616211</azimuthMaxHorizontalUncertainty><preferredDescription>horizontal uncertainty</preferredDescription></uncertainty><evaluationMode>automatic</evaluationMode><evaluationStatus>confirmed</evaluationStatus><comment><text>0.00</text><id>mismatchScore</id></comment><comment><text>mismatchScore</text><id>scevalMethod</id></comment><arrival><pickID>de.gempa.tb1.Pick/20250414050257.779533.135831</pickID><phase>P</phase><azimuth>229.3642883300781</azimuth><distance>0.2930836081504822</distance><timeResidual>-0.30516815185546875</timeResidual><timeUsed>true</timeUsed><horizontalSlownessUsed>false</horizontalSlownessUsed><backazimuthUsed>false</backazimuthUsed><weight>1</weight></arrival><arrival><pickID>de.gempa.tb1.Pick/20250414050301.518193.135833</pickID><phase>P</phase><azimuth>232.2411193847656</azimuth><distance>0.7627264261245728</distance><timeResidual>0.38930225372314453</timeResidual><timeUsed>true</timeUsed><horizontalSlownessUsed>false</horizontalSlownessUsed><backazimuthUsed>false</backazimuthUsed><weight>1</weight></arrival><arrival><pickID>de.gempa.tb1.Pick/20250414050302.030469.135835</pickID><phase>P</phase><azimuth>7.265288829803467</azimuth><distance>0.7125402688980103</distance><timeResidual>0.0937662124633789</timeResidual><timeUsed>true</timeUsed><horizontalSlownessUsed>false</horizontalSlownessUsed><backazimuthUsed>false</backazimuthUsed><weight>1</weight></arrival><arrival><pickID>de.gempa.tb1.Pick/20250414050304.260251.135837</pickID><phase>P</phase><azimuth>271.92059326171875</azimuth><distance>0.8457571268081665</distance><timeResidual>0.5358095169067383</timeResidual><timeUsed>true</timeUsed><horizontalSlownessUsed>false</horizontalSlownessUsed><backazimuthUsed>false</backazimuthUsed><weight>1</weight></arrival><arrival><pickID>de.gempa.tb1.Pick/20250414050307.681806.135839</pickID><phase>P</phase><azimuth>201.41595458984375</azimuth><distance>1.2801456451416016</distance><timeResidual>0.11932086944580078</timeResidual><timeUsed>true</timeUsed><horizontalSlownessUsed>false</horizontalSlownessUsed><backazimuthUsed>false</backazimuthUsed><weight>1</weight></arrival><arrival><pickID>de.gempa.tb1.Pick/20250414050309.221267.135841</pickID><phase>P</phase><azimuth>179.58212280273438</azimuth><distance>0.940172016620636</distance><timeResidual>0.09029960632324219</timeResidual><timeUsed>true</timeUsed><horizontalSlownessUsed>false</horizontalSlownessUsed><backazimuthUsed>false</backazimuthUsed><weight>1</weight></arrival><arrival><pickID>de.gempa.tb1.Pick/20250414050310.189829.135843</pickID><phase>P</phase><azimuth>214.1827850341797</azimuth><distance>1.0540432929992676</distance><timeResidual>0.2135629653930664</timeResidual><timeUsed>true</timeUsed><horizontalSlownessUsed>false</horizontalSlownessUsed><backazimuthUsed>false</backazimuthUsed><weight>1</weight></arrival><arrival><pickID>de.gempa.tb1.Pick/20250414050312.535888.135845</pickID><phase>P</phase><azimuth>326.5245361328125</azimuth><distance>1.493557333946228</distance><timeResidual>-0.34227466583251953</timeResidual><timeUsed>true</timeUsed><horizontalSlownessUsed>false</horizontalSlownessUsed><backazimuthUsed>false</backazimuthUsed><weight>1</weight></arrival><arrival><pickID>de.gempa.tb1.Pick/20250414050312.701428.135847</pickID><phase>S</phase><azimuth>229.3642883300781</azimuth><distance>0.2930836081504822</distance><timeResidual>-0.03619861602783203</timeResidual><timeUsed>true</timeUsed><horizontalSlownessUsed>false</horizontalSlownessUsed><backazimuthUsed>false</backazimuthUsed><weight>1</weight></arrival><arrival><pickID>de.gempa.tb1.Pick/20250414050318.204808.135848</pickID><phase>S</phase><azimuth>7.265288829803467</azimuth><distance>0.7125402688980103</distance><timeResidual>0.13242053985595703</timeResidual><timeUsed>true</timeUsed><horizontalSlownessUsed>false</horizontalSlownessUsed><backazimuthUsed>false</backazimuthUsed><weight>1</weight></arrival><arrival><pickID>de.gempa.tb1.Pick/20250414050318.519563.135849</pickID><phase>P</phase><azimuth>189.17027282714844</azimuth><distance>1.86940860748291</distance><timeResidual>0.3226175308227539</timeResidual><timeUsed>true</timeUsed><horizontalSlownessUsed>false</horizontalSlownessUsed><backazimuthUsed>false</backazimuthUsed><weight>1</weight></arrival><arrival><pickID>de.gempa.tb1.Pick/20250414050327.576966.135852</pickID><phase>S</phase><azimuth>214.1827850341797</azimuth><distance>1.0540432929992676</distance><timeResidual>0.3493642807006836</timeResidual><timeUsed>true</timeUsed><horizontalSlownessUsed>false</horizontalSlownessUsed><backazimuthUsed>false</backazimuthUsed><weight>1</weight></arrival><arrival><pickID>de.gempa.tb1.Pick/20250414050327.777207.135853</pickID><phase>S</phase><azimuth>201.41595458984375</azimuth><distance>1.2801456451416016</distance><timeResidual>-0.1986856460571289</timeResidual><timeUsed>true</timeUsed><horizontalSlownessUsed>false</horizontalSlownessUsed><backazimuthUsed>false</backazimuthUsed><weight>1</weight></arrival><arrival><pickID>de.gempa.tb1.Pick/20250414050333.775628.135857</pickID><phase>S</phase><azimuth>326.5245361328125</azimuth><distance>1.493557333946228</distance><timeResidual>-0.4730749130249023</timeResidual><timeUsed>true</timeUsed><horizontalSlownessUsed>false</horizontalSlownessUsed><backazimuthUsed>false</backazimuthUsed><weight>1</weight></arrival><arrival><pickID>de.gempa.tb1.Pick/20250414050341.617014.135861</pickID><phase>S</phase><azimuth>189.17027282714844</azimuth><distance>1.86940860748291</distance><timeResidual>-0.8912210464477539</timeResidual><timeUsed>true</timeUsed><horizontalSlownessUsed>false</horizontalSlownessUsed><backazimuthUsed>false</backazimuthUsed><weight>1</weight></arrival><magnitude publicID="de.gempa.tb1.Magnitude/20250414050350.940644.431059"><magnitude><value>2.462854797148936</value></magnitude><type>M</type><methodID>weighted average</methodID><stationCount>7</stationCount></magnitude></origin><event publicID="gempa2025hiqi"><preferredOriginID>de.gempa.tb1.Origin/20250414050341.623105.128049</preferredOriginID><preferredMagnitudeID>de.gempa.tb1.Magnitude/20250414050350.940644.431059</preferredMagnitudeID><description><text>Northern Chile</text><type>region name</type></description><originReference>de.gempa.tb1.Origin/20250414050341.623105.128049</originReference></event></EventParameters></seiscomp>