<?xml version="1.0" encoding="UTF-8"?>
<seiscomp xmlns="http://geofon.gfz-potsdam.de/ns/seiscomp3-schema/0.13" version="0.13"><EventParameters><pick publicID="de.gempa.tb1.Pick/20250414124303.592051.138069"><time><value>2025-04-14T12:42:57.998393Z</value></time><waveformID networkCode="CX" stationCode="PB06" channelCode="HHZ"/><filterID>ITAPER(4)&gt;&gt;BW(4,4,20)</filterID><methodID>AIC</methodID><horizontalSlowness><value>11.457186291402857</value></horizontalSlowness><backazimuth><value>233.4857491529201</value></backazimuth><phaseHint>P</phaseHint><evaluationMode>automatic</evaluationMode><comment><text>125.94815773355032</text><id>DFX:rectilinearity</id></comment><comment><text>7.871587537842525</text><id>SNR</id></comment></pick><pick publicID="de.gempa.tb1.Pick/20250414124303.845559.138071"><time><value>2025-04-14T12:42:57.538393Z</value></time><waveformID networkCode="CX" stationCode="PB15" channelCode="HHZ"/><filterID>ITAPER(4)&gt;&gt;BW(4,4,20)</filterID><methodID>AIC</methodID><horizontalSlowness><value>23.48767034948667</value></horizontalSlowness><backazimuth><value>290.0066876028449</value></backazimuth><phaseHint>P</phaseHint><evaluationMode>automatic</evaluationMode><comment><text>196.8732538846227</text><id>DFX:rectilinearity</id></comment><comment><text>8.798766797302859</text><id>SNR</id></comment></pick><pick publicID="de.gempa.tb1.Pick/20250414124309.553762.138075"><time><value>2025-04-14T12:43:04.438393Z</value></time><waveformID networkCode="CX" stationCode="PB03" channelCode="HHZ"/><filterID>ITAPER(4)&gt;&gt;BW(4,4,20)</filterID><methodID>AIC</methodID><horizontalSlowness><value>15.17889278317889</value></horizontalSlowness><backazimuth><value>217.8594604505977</value></backazimuth><phaseHint>P</phaseHint><evaluationMode>automatic</evaluationMode><comment><text>9.384848642223092</text><id>DFX:rectilinearity</id></comment><comment><text>12.487899310129068</text><id>SNR</id></comment></pick><pick publicID="de.gempa.tb1.Pick/20250414124310.501551.138077"><time><value>2025-04-14T12:43:04.77Z</value></time><waveformID networkCode="CX" stationCode="PB19" channelCode="HHZ"/><filterID>ITAPER(4)&gt;&gt;BW(4,4,20)</filterID><methodID>AIC</methodID><horizontalSlowness><value>17.55216369824031</value></horizontalSlowness><backazimuth><value>251.85880899015103</value></backazimuth><phaseHint>P</phaseHint><evaluationMode>automatic</evaluationMode><comment><text>23.85881007358192</text><id>DFX:rectilinearity</id></comment><comment><text>14.682854615368948</text><id>SNR</id></comment></pick><pick publicID="de.gempa.tb1.Pick/20250414124316.784991.138085"><time><value>2025-04-14T12:43:06.918393Z</value></time><waveformID networkCode="CX" stationCode="PB06" channelCode="HHN"/><filterID>ITAPER(2)&gt;&gt;BW(3,3,20)</filterID><methodID>L2-AIC-GRID</methodID><horizontalSlowness><value>12.966018968899585</value></horizontalSlowness><backazimuth><value>72.45494329260188</value></backazimuth><phaseHint>S</phaseHint><evaluationMode>automatic</evaluationMode><comment><text>58.24128108655878</text><id>DFX:rectilinearity</id></comment><comment><text>de.gempa.tb1.Pick/20250414124303.592051.138069</text><id>RefPickID</id></comment><comment><text>13.756682326698082</text><id>SNR</id></comment></pick><pick publicID="de.gempa.tb1.Pick/20250414124317.839473.138086"><time><value>2025-04-14T12:43:06.718393Z</value></time><waveformID networkCode="CX" stationCode="PB15" channelCode="HHN"/><filterID>ITAPER(2)&gt;&gt;BW(3,3,20)</filterID><methodID>L2-AIC-GRID</methodID><horizontalSlowness><value>20.129721858225647</value></horizontalSlowness><backazimuth><value>106.82242479675277</value></backazimuth><phaseHint>S</phaseHint><evaluationMode>automatic</evaluationMode><comment><text>844.7697891706104</text><id>DFX:rectilinearity</id></comment><comment><text>de.gempa.tb1.Pick/20250414124303.845559.138071</text><id>RefPickID</id></comment><comment><text>7.051364425277938</text><id>SNR</id></comment></pick><pick publicID="de.gempa.tb1.Pick/20250414124320.441493.138087"><time><value>2025-04-14T12:43:08.76Z</value></time><waveformID networkCode="CX" stationCode="PB09" channelCode="HHZ"/><filterID>ITAPER(4)&gt;&gt;BW(4,4,20)</filterID><methodID>AIC</methodID><horizontalSlowness><value>3.9442275786137326</value></horizontalSlowness><backazimuth><value>296.41113851597095</value></backazimuth><phaseHint>P</phaseHint><evaluationMode>automatic</evaluationMode><comment><text>4.697293667590305</text><id>DFX:rectilinearity</id></comment><comment><text>43.712844076546943</text><id>SNR</id></comment></pick><pick publicID="de.gempa.tb1.Pick/20250414124324.424618.138089"><time><value>2025-04-14T12:43:08.638393Z</value></time><waveformID networkCode="CX" stationCode="PB07" channelCode="HHZ"/><filterID>ITAPER(4)&gt;&gt;BW(4,4,20)</filterID><methodID>AIC</methodID><horizontalSlowness><value>22.98057595662701</value></horizontalSlowness><backazimuth><value>30.719557252632853</value></backazimuth><phaseHint>P</phaseHint><evaluationMode>automatic</evaluationMode><comment><text>107.67755583010613</text><id>DFX:rectilinearity</id></comment><comment><text>11.658758475042248</text><id>SNR</id></comment></pick><pick publicID="de.gempa.tb1.Pick/20250414124325.776079.138095"><time><value>2025-04-14T12:43:18.718393Z</value></time><waveformID networkCode="CX" stationCode="PB03" channelCode="HHN"/><filterID>ITAPER(2)&gt;&gt;BW(3,3,20)</filterID><methodID>L2-AIC-GRID</methodID><horizontalSlowness><value>19.281662042678846</value></horizontalSlowness><backazimuth><value>204.48504984998587</value></backazimuth><phaseHint>S</phaseHint><evaluationMode>automatic</evaluationMode><comment><text>13.754170193986255</text><id>DFX:rectilinearity</id></comment><comment><text>de.gempa.tb1.Pick/20250414124309.553762.138075</text><id>RefPickID</id></comment><comment><text>10.248068738136404</text><id>SNR</id></comment></pick><pick publicID="de.gempa.tb1.Pick/20250414124327.627059.138096"><time><value>2025-04-14T12:43:19.41Z</value></time><waveformID networkCode="CX" stationCode="PB19" channelCode="HHN"/><filterID>ITAPER(2)&gt;&gt;BW(3,3,20)</filterID><methodID>L2-AIC-GRID</methodID><horizontalSlowness><value>20.872976455357374</value></horizontalSlowness><backazimuth><value>179.9489218370526</value></backazimuth><phaseHint>S</phaseHint><evaluationMode>automatic</evaluationMode><comment><text>33.29278957857133</text><id>DFX:rectilinearity</id></comment><comment><text>de.gempa.tb1.Pick/20250414124310.501551.138077</text><id>RefPickID</id></comment><comment><text>7.496021411050409</text><id>SNR</id></comment></pick><origin publicID="de.gempa.tb1.Origin/20250414124328.692508.138429"><time><value>2025-04-14T12:42:46.451839Z</value><uncertainty>0.7897390723228455</uncertainty></time><latitude><value>-23.01136589050293</value><uncertainty>5.43758487701416</uncertainty></latitude><longitude><value>-69.76121520996094</value><uncertainty>23.00712776184082</uncertainty></longitude><depth><value>71.14389038085938</value><uncertainty>9.478636741638184</uncertainty></depth><depthType>from location</depthType><methodID>LOCSAT</methodID><earthModelID>iasp91_scanloc</earthModelID><quality><associatedPhaseCount>10</associatedPhaseCount><usedPhaseCount>10</usedPhaseCount><associatedStationCount>6</associatedStationCount><usedStationCount>6</usedStationCount><depthPhaseCount>0</depthPhaseCount><standardError>0.2354683509569181</standardError><azimuthalGap>200.62989807128906</azimuthalGap><maximumDistance>1.3011869192123413</maximumDistance><minimumDistance>0.33147358894348145</minimumDistance><medianDistance>0.9583573341369629</medianDistance></quality><uncertainty><minHorizontalUncertainty>5.86407995223999</minHorizontalUncertainty><maxHorizontalUncertainty>50.3507080078125</maxHorizontalUncertainty><azimuthMaxHorizontalUncertainty>78.37454986572266</azimuthMaxHorizontalUncertainty><preferredDescription>horizontal uncertainty</preferredDescription></uncertainty><evaluationMode>automatic</evaluationMode><evaluationStatus>confirmed</evaluationStatus><comment><text>0.17</text><id>mismatchScore</id></comment><comment><text>mismatchScore</text><id>scevalMethod</id></comment><arrival><pickID>de.gempa.tb1.Pick/20250414124303.592051.138069</pickID><phase>P</phase><azimuth>29.902711868286133</azimuth><distance>0.35071077942848206</distance><timeResidual>-0.11349773406982422</timeResidual><timeUsed>true</timeUsed><horizontalSlownessUsed>false</horizontalSlownessUsed><backazimuthUsed>false</backazimuthUsed><weight>1</weight></arrival><arrival><pickID>de.gempa.tb1.Pick/20250414124303.845559.138071</pickID><phase>P</phase><azimuth>126.31745147705078</azimuth><distance>0.33147358894348145</distance><timeResidual>-0.4313192367553711</timeResidual><timeUsed>true</timeUsed><horizontalSlownessUsed>false</horizontalSlownessUsed><backazimuthUsed>false</backazimuthUsed><weight>1</weight></arrival><arrival><pickID>de.gempa.tb1.Pick/20250414124309.553762.138075</pickID><phase>P</phase><azimuth>0.4502747058868408</azimuth><distance>0.9583573341369629</distance><timeResidual>-0.05572605133056641</timeResidual><timeUsed>true</timeUsed><horizontalSlownessUsed>false</horizontalSlownessUsed><backazimuthUsed>false</backazimuthUsed><weight>1</weight></arrival><arrival><pickID>de.gempa.tb1.Pick/20250414124310.501551.138077</pickID><phase>P</phase><azimuth>154.1769256591797</azimuth><distance>0.9887414574623108</distance><timeResidual>-0.08959102630615234</timeResidual><timeUsed>true</timeUsed><horizontalSlownessUsed>false</horizontalSlownessUsed><backazimuthUsed>false</backazimuthUsed><weight>1</weight></arrival><arrival><pickID>de.gempa.tb1.Pick/20250414124316.784991.138085</pickID><phase>S</phase><azimuth>29.902711868286133</azimuth><distance>0.35071077942848206</distance><timeResidual>-0.05244064331054688</timeResidual><timeUsed>true</timeUsed><horizontalSlownessUsed>false</horizontalSlownessUsed><backazimuthUsed>false</backazimuthUsed><weight>1</weight></arrival><arrival><pickID>de.gempa.tb1.Pick/20250414124317.839473.138086</pickID><phase>S</phase><azimuth>126.31745147705078</azimuth><distance>0.33147358894348145</distance><timeResidual>-0.0009374618530273438</timeResidual><timeUsed>true</timeUsed><horizontalSlownessUsed>false</horizontalSlownessUsed><backazimuthUsed>false</backazimuthUsed><weight>1</weight></arrival><arrival><pickID>de.gempa.tb1.Pick/20250414124320.441493.138087</pickID><phase>P</phase><azimuth>21.772974014282227</azimuth><distance>1.3011869192123413</distance><timeResidual>-0.08815288543701172</timeResidual><timeUsed>true</timeUsed><horizontalSlownessUsed>false</horizontalSlownessUsed><backazimuthUsed>false</backazimuthUsed><weight>1</weight></arrival><arrival><pickID>de.gempa.tb1.Pick/20250414124324.424618.138089</pickID><phase>P</phase><azimuth>354.80682373046875</azimuth><distance>1.283789038658142</distance><timeResidual>0.01572895050048828</timeResidual><timeUsed>true</timeUsed><horizontalSlownessUsed>false</horizontalSlownessUsed><backazimuthUsed>false</backazimuthUsed><weight>1</weight></arrival><arrival><pickID>de.gempa.tb1.Pick/20250414124325.776079.138095</pickID><phase>S</phase><azimuth>0.4502747058868408</azimuth><distance>0.9583573341369629</distance><timeResidual>0.38938236236572266</timeResidual><timeUsed>true</timeUsed><horizontalSlownessUsed>false</horizontalSlownessUsed><backazimuthUsed>false</backazimuthUsed><weight>1</weight></arrival><arrival><pickID>de.gempa.tb1.Pick/20250414124327.627059.138096</pickID><phase>S</phase><azimuth>154.1769256591797</azimuth><distance>0.9887414574623108</distance><timeResidual>0.4266328811645508</timeResidual><timeUsed>true</timeUsed><horizontalSlownessUsed>false</horizontalSlownessUsed><backazimuthUsed>false</backazimuthUsed><weight>1</weight></arrival><magnitude publicID="de.gempa.tb1.Magnitude/20250414124405.671334.490123"><magnitude><value>1.8456818746143995</value></magnitude><type>M</type><methodID>weighted average</methodID><stationCount>6</stationCount></magnitude></origin><event publicID="gempa2025hjfr"><preferredOriginID>de.gempa.tb1.Origin/20250414124328.692508.138429</preferredOriginID><preferredMagnitudeID>de.gempa.tb1.Magnitude/20250414124405.671334.490123</preferredMagnitudeID><description><text>Northern Chile</text><type>region name</type></description><originReference>de.gempa.tb1.Origin/20250414124328.692508.138429</originReference></event></EventParameters></seiscomp>