<?xml version="1.0" encoding="UTF-8"?>
<seiscomp xmlns="http://geofon.gfz-potsdam.de/ns/seiscomp3-schema/0.13" version="0.13"><EventParameters><pick publicID="de.gempa.tb1.Pick/20250414173345.894204.274568"><time><value>2025-04-14T17:33:34.56Z</value></time><waveformID networkCode="SX" stationCode="SCHF" channelCode="HHZ"/><filterID>ITAPER(2)&gt;&gt;BW(3,3,20)</filterID><methodID>AIC</methodID><horizontalSlowness><value>23.360694993993384</value></horizontalSlowness><backazimuth><value>225.3200701086323</value></backazimuth><phaseHint>P</phaseHint><evaluationMode>automatic</evaluationMode><comment><text>3.6318187661946237</text><id>DFX:rectilinearity</id></comment></pick><pick publicID="de.gempa.tb1.Pick/20250414173347.331366.274572"><time><value>2025-04-14T17:33:42.05Z</value></time><waveformID networkCode="SX" stationCode="ROHR" channelCode="HHZ"/><filterID>ITAPER(2)&gt;&gt;BW(3,3,20)</filterID><methodID>AIC</methodID><horizontalSlowness><value>4.645481645952107</value></horizontalSlowness><backazimuth><value>275.59804995232685</value></backazimuth><phaseHint>P</phaseHint><evaluationMode>automatic</evaluationMode><comment><text>9.94248854384891</text><id>DFX:rectilinearity</id></comment></pick><pick publicID="de.gempa.tb1.Pick/20250414173349.338808.274575"><time><value>2025-04-14T17:33:41.39Z</value></time><waveformID networkCode="SX" stationCode="MULD" channelCode="HHZ"/><filterID>ITAPER(2)&gt;&gt;BW(3,3,20)</filterID><methodID>AIC</methodID><horizontalSlowness><value>16.905491435857375</value></horizontalSlowness><backazimuth><value>131.21261098305533</value></backazimuth><phaseHint>P</phaseHint><evaluationMode>automatic</evaluationMode><comment><text>3.2628137040501537</text><id>DFX:rectilinearity</id></comment></pick><pick publicID="de.gempa.tb1.Pick/20250414173349.482142.274577"><time><value>2025-04-14T17:33:40.1175Z</value></time><waveformID networkCode="SX" stationCode="WERN" channelCode="HHZ"/><filterID>ITAPER(2)&gt;&gt;BW(3,3,20)</filterID><methodID>AIC</methodID><horizontalSlowness><value>23.43853015251339</value></horizontalSlowness><backazimuth><value>65.14283567269086</value></backazimuth><phaseHint>P</phaseHint><evaluationMode>automatic</evaluationMode><comment><text>56.19848717217175</text><id>DFX:rectilinearity</id></comment></pick><pick publicID="de.gempa.tb1.Pick/20250414173349.628924.274579"><time><value>2025-04-14T17:33:42.39Z</value></time><waveformID networkCode="SX" stationCode="TRIB" channelCode="HHZ"/><filterID>ITAPER(2)&gt;&gt;BW(3,3,20)</filterID><methodID>AIC</methodID><horizontalSlowness><value>10.17869506355785</value></horizontalSlowness><backazimuth><value>192.86753273417492</value></backazimuth><phaseHint>P</phaseHint><evaluationMode>automatic</evaluationMode><comment><text>2.489948308859449</text><id>DFX:rectilinearity</id></comment></pick><pick publicID="de.gempa.tb1.Pick/20250414173353.438937.274584"><time><value>2025-04-14T17:33:42.28Z</value></time><waveformID networkCode="SX" stationCode="WERD" channelCode="HHZ"/><filterID>ITAPER(2)&gt;&gt;BW(3,3,20)</filterID><methodID>AIC</methodID><horizontalSlowness><value>22.227637588658553</value></horizontalSlowness><backazimuth><value>44.2229691212861</value></backazimuth><phaseHint>P</phaseHint><evaluationMode>automatic</evaluationMode><comment><text>12.521474564531276</text><id>DFX:rectilinearity</id></comment></pick><pick publicID="de.gempa.tb1.Pick/20250414173353.45174.274586"><time><value>2025-04-14T17:33:49.315Z</value></time><waveformID networkCode="BW" stationCode="MANZ" channelCode="HHZ"/><filterID>ITAPER(2)&gt;&gt;BW(3,3,20)</filterID><methodID>AIC</methodID><horizontalSlowness><value>19.868560976194718</value></horizontalSlowness><backazimuth><value>103.34525211980258</value></backazimuth><phaseHint>P</phaseHint><evaluationMode>automatic</evaluationMode><comment><text>4.101155980684214</text><id>DFX:rectilinearity</id></comment></pick><pick publicID="de.gempa.tb1.Pick/20250414173353.481506.274590"><time><value>2025-04-14T17:33:45.09Z</value></time><waveformID networkCode="SX" stationCode="WERD" channelCode="HHN"/><filterID>ITAPER(3)&gt;&gt;BW(4,3,10)</filterID><methodID>L2-AIC-GRID</methodID><horizontalSlowness><value>23.108057499320005</value></horizontalSlowness><backazimuth><value>45.46843333360707</value></backazimuth><phaseHint>S</phaseHint><evaluationMode>automatic</evaluationMode><comment><text>11.753500139435033</text><id>DFX:rectilinearity</id></comment><comment><text>de.gempa.tb1.Pick/20250414173353.438937.274584</text><id>RefPickID</id></comment></pick><pick publicID="de.gempa.tb1.Pick/20250414173353.49599.274591"><time><value>2025-04-14T17:33:42.98Z</value></time><waveformID networkCode="SX" stationCode="GUNZ" channelCode="HHZ"/><filterID>ITAPER(2)&gt;&gt;BW(3,3,20)</filterID><methodID>AIC</methodID><horizontalSlowness><value>22.83553105043455</value></horizontalSlowness><backazimuth><value>284.6818527539803</value></backazimuth><phaseHint>P</phaseHint><evaluationMode>automatic</evaluationMode><comment><text>13.992073307285922</text><id>DFX:rectilinearity</id></comment></pick><pick publicID="de.gempa.tb1.Pick/20250414173356.361238.274593"><time><value>2025-04-14T17:33:43.7Z</value></time><waveformID networkCode="SX" stationCode="MULD" channelCode="HHN"/><filterID>ITAPER(3)&gt;&gt;BW(4,3,10)</filterID><methodID>L2-AIC-GRID</methodID><horizontalSlowness><value>20.319206504774094</value></horizontalSlowness><backazimuth><value>134.75221812515645</value></backazimuth><phaseHint>S</phaseHint><evaluationMode>automatic</evaluationMode><comment><text>3.692449735814389</text><id>DFX:rectilinearity</id></comment><comment><text>de.gempa.tb1.Pick/20250414173349.338808.274575</text><id>RefPickID</id></comment></pick><origin publicID="de.gempa.tb1.Origin/20250414173357.767216.241811"><time><value>2025-04-14T17:33:32.561003Z</value><uncertainty>1.2410759925842285</uncertainty></time><latitude><value>50.76847839355469</value><uncertainty>6.392649173736572</uncertainty></latitude><longitude><value>12.633281707763672</value><uncertainty>9.349884986877441</uncertainty></longitude><depth><value>0</value></depth><depthType>operator assigned</depthType><methodID>LOCSAT</methodID><earthModelID>iasp91</earthModelID><quality><associatedPhaseCount>10</associatedPhaseCount><usedPhaseCount>10</usedPhaseCount><associatedStationCount>8</associatedStationCount><usedStationCount>8</usedStationCount><depthPhaseCount>0</depthPhaseCount><standardError>1.451712420382736</standardError><azimuthalGap>320.8206024169922</azimuthalGap><maximumDistance>0.8523168563842773</maximumDistance><minimumDistance>0.17250940203666687</minimumDistance><medianDistance>0.4488219916820526</medianDistance></quality><uncertainty><minHorizontalUncertainty>12.899883270263672</minHorizontalUncertainty><maxHorizontalUncertainty>20.604719161987305</maxHorizontalUncertainty><azimuthMaxHorizontalUncertainty>106.91194915771484</azimuthMaxHorizontalUncertainty><preferredDescription>horizontal uncertainty</preferredDescription></uncertainty><evaluationMode>automatic</evaluationMode><evaluationStatus>confirmed</evaluationStatus><comment><text>0.79</text><id>mismatchScore</id></comment><comment><text>extendedGap</text><id>scevalMethod</id></comment><arrival><pickID>de.gempa.tb1.Pick/20250414173345.894204.274568</pickID><phase>P</phase><azimuth>238.0960388183594</azimuth><distance>0.17250940203666687</distance><timeResidual>-1.4273204803466797</timeResidual><timeUsed>true</timeUsed><horizontalSlownessUsed>false</horizontalSlownessUsed><backazimuthUsed>false</backazimuthUsed><weight>1</weight></arrival><arrival><pickID>de.gempa.tb1.Pick/20250414173347.331366.274572</pickID><phase>P</phase><azimuth>200.79946899414062</azimuth><distance>0.5719968676567078</distance><timeResidual>-1.5317707061767578</timeResidual><timeUsed>true</timeUsed><horizontalSlownessUsed>false</horizontalSlownessUsed><backazimuthUsed>false</backazimuthUsed><weight>1</weight></arrival><arrival><pickID>de.gempa.tb1.Pick/20250414173349.338808.274575</pickID><phase>P</phase><azimuth>202.35240173339844</azimuth><distance>0.3859045207500458</distance><timeResidual>1.34588623046875</timeResidual><timeUsed>true</timeUsed><horizontalSlownessUsed>false</horizontalSlownessUsed><backazimuthUsed>false</backazimuthUsed><weight>1</weight></arrival><arrival><pickID>de.gempa.tb1.Pick/20250414173349.482142.274577</pickID><phase>P</phase><azimuth>198.91664123535156</azimuth><distance>0.5088877081871033</distance><timeResidual>-2.26456356048584</timeResidual><timeUsed>true</timeUsed><horizontalSlownessUsed>false</horizontalSlownessUsed><backazimuthUsed>false</backazimuthUsed><weight>1</weight></arrival><arrival><pickID>de.gempa.tb1.Pick/20250414173349.628924.274579</pickID><phase>P</phase><azimuth>217.39195251464844</azimuth><distance>0.523532509803772</distance><timeResidual>-0.2703285217285156</timeResidual><timeUsed>true</timeUsed><horizontalSlownessUsed>false</horizontalSlownessUsed><backazimuthUsed>false</backazimuthUsed><weight>1</weight></arrival><arrival><pickID>de.gempa.tb1.Pick/20250414173353.438937.274584</pickID><phase>P</phase><azimuth>213.0639190673828</azimuth><distance>0.3823466897010803</distance><timeResidual>2.3035778999328613</timeResidual><timeUsed>true</timeUsed><horizontalSlownessUsed>false</horizontalSlownessUsed><backazimuthUsed>false</backazimuthUsed><weight>1</weight></arrival><arrival><pickID>de.gempa.tb1.Pick/20250414173353.45174.274586</pickID><phase>P</phase><azimuth>203.4285125732422</azimuth><distance>0.8523168563842773</distance><timeResidual>0.40431880950927734</timeResidual><timeUsed>true</timeUsed><horizontalSlownessUsed>false</horizontalSlownessUsed><backazimuthUsed>false</backazimuthUsed><weight>1</weight></arrival><arrival><pickID>de.gempa.tb1.Pick/20250414173353.481506.274590</pickID><phase>S</phase><azimuth>213.0639190673828</azimuth><distance>0.3823466897010803</distance><timeResidual>0.6042146682739258</timeResidual><timeUsed>true</timeUsed><horizontalSlownessUsed>false</horizontalSlownessUsed><backazimuthUsed>false</backazimuthUsed><weight>1</weight></arrival><arrival><pickID>de.gempa.tb1.Pick/20250414173353.49599.274591</pickID><phase>P</phase><azimuth>205.498779296875</azimuth><distance>0.4488219916820526</distance><timeResidual>1.73983097076416</timeResidual><timeUsed>true</timeUsed><horizontalSlownessUsed>false</horizontalSlownessUsed><backazimuthUsed>false</backazimuthUsed><weight>1</weight></arrival><arrival><pickID>de.gempa.tb1.Pick/20250414173356.361238.274593</pickID><phase>S</phase><azimuth>202.35240173339844</azimuth><distance>0.3859045207500458</distance><timeResidual>-0.903524398803711</timeResidual><timeUsed>true</timeUsed><horizontalSlownessUsed>false</horizontalSlownessUsed><backazimuthUsed>false</backazimuthUsed><weight>1</weight></arrival><magnitude publicID="de.gempa.tb1.Magnitude/20250414173445.973445.520640"><magnitude><value>1.2028834695069428</value></magnitude><type>M</type><methodID>weighted average</methodID><stationCount>6</stationCount></magnitude></origin><event publicID="gempa2025hjpk"><preferredOriginID>de.gempa.tb1.Origin/20250414173357.767216.241811</preferredOriginID><preferredMagnitudeID>de.gempa.tb1.Magnitude/20250414173445.973445.520640</preferredMagnitudeID><description><text>Germany</text><type>region name</type></description><originReference>de.gempa.tb1.Origin/20250414173357.767216.241811</originReference></event></EventParameters></seiscomp>