<?xml version="1.0" encoding="UTF-8"?>
<seiscomp xmlns="http://geofon.gfz-potsdam.de/ns/seiscomp3-schema/0.13" version="0.13"><EventParameters><pick publicID="de.gempa.tb1.Pick/20250412045358.636744.122045"><time><value>2025-04-12T04:53:54.24Z</value></time><waveformID networkCode="CX" stationCode="PB19" channelCode="HHZ"/><filterID>ITAPER(4)&gt;&gt;BW(4,4,20)</filterID><methodID>AIC</methodID><horizontalSlowness><value>17.841602121206233</value></horizontalSlowness><backazimuth><value>172.22811002899437</value></backazimuth><phaseHint>P</phaseHint><evaluationMode>automatic</evaluationMode><comment><text>64.73817788657698</text><id>DFX:rectilinearity</id></comment><comment><text>55.74861364335305</text><id>SNR</id></comment></pick><pick publicID="de.gempa.tb1.Pick/20250412045407.620705.122047"><time><value>2025-04-12T04:54:03.118393Z</value></time><waveformID networkCode="CX" stationCode="PB15" channelCode="HHZ"/><filterID>ITAPER(4)&gt;&gt;BW(4,4,20)</filterID><methodID>AIC</methodID><horizontalSlowness><value>20.891904798835558</value></horizontalSlowness><backazimuth><value>80.3218810608191</value></backazimuth><phaseHint>P</phaseHint><evaluationMode>automatic</evaluationMode><comment><text>95.56409861051237</text><id>DFX:rectilinearity</id></comment><comment><text>16.207480358815975</text><id>SNR</id></comment></pick><pick publicID="de.gempa.tb1.Pick/20250412045415.563669.122049"><time><value>2025-04-12T04:54:09.368391Z</value></time><waveformID networkCode="CX" stationCode="PB06" channelCode="HHZ"/><filterID>ITAPER(4)&gt;&gt;BW(4,4,20)</filterID><methodID>AIC</methodID><horizontalSlowness><value>7.754620936194078</value></horizontalSlowness><backazimuth><value>10.312712256364534</value></backazimuth><phaseHint>P</phaseHint><evaluationMode>automatic</evaluationMode><comment><text>39.265328567713574</text><id>DFX:rectilinearity</id></comment><comment><text>7.711670497860519</text><id>SNR</id></comment></pick><pick publicID="de.gempa.tb1.Pick/20250412045415.885067.122051"><time><value>2025-04-12T04:54:09.08Z</value></time><waveformID networkCode="CX" stationCode="PB19" channelCode="HHN"/><filterID>ITAPER(2)&gt;&gt;BW(3,3,20)</filterID><methodID>L2-AIC-GRID</methodID><horizontalSlowness><value>19.61796277355461</value></horizontalSlowness><backazimuth><value>122.27126979739118</value></backazimuth><phaseHint>S</phaseHint><evaluationMode>automatic</evaluationMode><comment><text>3004.4770221691183</text><id>DFX:rectilinearity</id></comment><comment><text>de.gempa.tb1.Pick/20250412045358.636744.122045</text><id>RefPickID</id></comment><comment><text>11.677297215879472</text><id>SNR</id></comment></pick><pick publicID="de.gempa.tb1.Pick/20250412045434.466722.122053"><time><value>2025-04-12T04:54:26.968393Z</value></time><waveformID networkCode="CX" stationCode="PB02" channelCode="HHZ"/><filterID>ITAPER(4)&gt;&gt;BW(4,4,20)</filterID><methodID>AIC</methodID><horizontalSlowness><value>17.140107920056934</value></horizontalSlowness><backazimuth><value>225.50365150109286</value></backazimuth><phaseHint>P</phaseHint><evaluationMode>automatic</evaluationMode><comment><text>16.53224240787528</text><id>DFX:rectilinearity</id></comment><comment><text>8.835939161115977</text><id>SNR</id></comment></pick><pick publicID="de.gempa.tb1.Pick/20250412045436.65579.122055"><time><value>2025-04-12T04:54:25.298393Z</value></time><waveformID networkCode="CX" stationCode="PB15" channelCode="HHN"/><filterID>ITAPER(2)&gt;&gt;BW(3,3,20)</filterID><methodID>L2-AIC-GRID</methodID><horizontalSlowness><value>22.351701926877283</value></horizontalSlowness><backazimuth><value>122.87708796600542</value></backazimuth><phaseHint>S</phaseHint><evaluationMode>automatic</evaluationMode><comment><text>677.7780266247839</text><id>DFX:rectilinearity</id></comment><comment><text>de.gempa.tb1.Pick/20250412045407.620705.122047</text><id>RefPickID</id></comment><comment><text>9.060844343519454</text><id>SNR</id></comment></pick><pick publicID="de.gempa.tb1.Pick/20250412045439.70823.122056"><time><value>2025-04-12T04:54:21.708394Z</value></time><waveformID networkCode="CX" stationCode="PB07" channelCode="HHZ"/><filterID>ITAPER(4)&gt;&gt;BW(4,4,20)</filterID><methodID>AIC</methodID><horizontalSlowness><value>21.390603752410613</value></horizontalSlowness><backazimuth><value>291.1383105028927</value></backazimuth><phaseHint>P</phaseHint><evaluationMode>automatic</evaluationMode><comment><text>210.9465460838484</text><id>DFX:rectilinearity</id></comment><comment><text>14.030905949062907</text><id>SNR</id></comment></pick><pick publicID="de.gempa.tb1.Pick/20250412045440.554797.122058"><time><value>2025-04-12T04:54:30.358393Z</value></time><waveformID networkCode="CX" stationCode="PB01" channelCode="HHZ"/><filterID>ITAPER(4)&gt;&gt;BW(4,4,20)</filterID><methodID>AIC</methodID><horizontalSlowness><value>19.276530193231569</value></horizontalSlowness><backazimuth><value>28.89977988500843</value></backazimuth><phaseHint>P</phaseHint><evaluationMode>automatic</evaluationMode><comment><text>19.893643659167907</text><id>DFX:rectilinearity</id></comment><comment><text>7.240050289317058</text><id>SNR</id></comment></pick><pick publicID="de.gempa.tb1.Pick/20250412045442.138464.122060"><time><value>2025-04-12T04:54:21.73Z</value></time><waveformID networkCode="CX" stationCode="PB09" channelCode="HHZ"/><filterID>ITAPER(4)&gt;&gt;BW(4,4,20)</filterID><methodID>AIC</methodID><horizontalSlowness><value>16.519649908675643</value></horizontalSlowness><backazimuth><value>254.57727368431375</value></backazimuth><phaseHint>P</phaseHint><evaluationMode>automatic</evaluationMode><comment><text>11.290339235903344</text><id>DFX:rectilinearity</id></comment><comment><text>12.232495777437032</text><id>SNR</id></comment></pick><pick publicID="de.gempa.tb1.Pick/20250412045449.626268.122064"><time><value>2025-04-12T04:54:37.238391Z</value></time><waveformID networkCode="CX" stationCode="PB06" channelCode="HHN"/><filterID>ITAPER(2)&gt;&gt;BW(3,3,20)</filterID><methodID>L2-AIC-GRID</methodID><horizontalSlowness><value>8.134964754944418</value></horizontalSlowness><backazimuth><value>276.83847564377</value></backazimuth><phaseHint>S</phaseHint><evaluationMode>automatic</evaluationMode><comment><text>de.gempa.tb1.Pick/20250412045415.563669.122049</text><id>RefPickID</id></comment><comment><text>10.770136125466356</text><id>SNR</id></comment><comment><text>70.99436319314734</text><id>DFX:rectilinearity</id></comment></pick><origin publicID="de.gempa.tb1.Origin/20250412045458.488977.74547"><time><value>2025-04-12T04:53:32.383614Z</value><uncertainty>1.2472721338272095</uncertainty></time><latitude><value>-24.76735496520996</value><uncertainty>9.596206665039062</uncertainty></latitude><longitude><value>-70.07714080810547</value><uncertainty>7.768707275390625</uncertainty></longitude><depth><value>0</value></depth><depthType>operator assigned</depthType><methodID>LOCSAT</methodID><earthModelID>iasp91_scanloc</earthModelID><quality><associatedPhaseCount>10</associatedPhaseCount><usedPhaseCount>10</usedPhaseCount><associatedStationCount>7</associatedStationCount><usedStationCount>7</usedStationCount><depthPhaseCount>0</depthPhaseCount><standardError>0.4933558927550544</standardError><azimuthalGap>322.7809000015259</azimuthalGap><maximumDistance>3.7463538646698</maximumDistance><minimumDistance>1.1189823150634766</minimumDistance><medianDistance>2.103771209716797</medianDistance></quality><uncertainty><minHorizontalUncertainty>10.543837547302246</minHorizontalUncertainty><maxHorizontalUncertainty>24.28473663330078</maxHorizontalUncertainty><azimuthMaxHorizontalUncertainty>143.8759002685547</azimuthMaxHorizontalUncertainty><preferredDescription>horizontal uncertainty</preferredDescription></uncertainty><evaluationMode>automatic</evaluationMode><evaluationStatus>confirmed</evaluationStatus><comment><text>0.34</text><id>mismatchScore</id></comment><comment><text>mismatchScore</text><id>scevalMethod</id></comment><arrival><pickID>de.gempa.tb1.Pick/20250412045358.636744.122045</pickID><phase>P</phase><azimuth>40.038143157958984</azimuth><distance>1.1189823150634766</distance><timeResidual>0.39443016052246094</timeResidual><timeUsed>true</timeUsed><horizontalSlownessUsed>false</horizontalSlownessUsed><backazimuthUsed>false</backazimuthUsed><weight>1</weight></arrival><arrival><pickID>de.gempa.tb1.Pick/20250412045407.620705.122047</pickID><phase>P</phase><azimuth>19.783294677734375</azimuth><distance>1.6480706930160522</distance><timeResidual>0.5329265594482422</timeResidual><timeUsed>true</timeUsed><horizontalSlownessUsed>false</horizontalSlownessUsed><backazimuthUsed>false</backazimuthUsed><weight>1</weight></arrival><arrival><pickID>de.gempa.tb1.Pick/20250412045415.563669.122049</pickID><phase>P</phase><azimuth>12.816235542297363</azimuth><distance>2.103771209716797</distance><timeResidual>0.5110569000244141</timeResidual><timeUsed>true</timeUsed><horizontalSlownessUsed>false</horizontalSlownessUsed><backazimuthUsed>false</backazimuthUsed><weight>1</weight></arrival><arrival><pickID>de.gempa.tb1.Pick/20250412045415.885067.122051</pickID><phase>S</phase><azimuth>40.038143157958984</azimuth><distance>1.1189823150634766</distance><timeResidual>-0.35115623474121094</timeResidual><timeUsed>true</timeUsed><horizontalSlownessUsed>false</horizontalSlownessUsed><backazimuthUsed>false</backazimuthUsed><weight>1</weight></arrival><arrival><pickID>de.gempa.tb1.Pick/20250412045434.466722.122053</pickID><phase>P</phase><azimuth>2.8190431594848633</azimuth><distance>3.4356210231781006</distance><timeResidual>-0.2180919647216797</timeResidual><timeUsed>true</timeUsed><horizontalSlownessUsed>false</horizontalSlownessUsed><backazimuthUsed>false</backazimuthUsed><weight>1</weight></arrival><arrival><pickID>de.gempa.tb1.Pick/20250412045436.65579.122055</pickID><phase>S</phase><azimuth>19.783294677734375</azimuth><distance>1.6480706930160522</distance><timeResidual>-0.1408233642578125</timeResidual><timeUsed>true</timeUsed><horizontalSlownessUsed>false</horizontalSlownessUsed><backazimuthUsed>false</backazimuthUsed><weight>1</weight></arrival><arrival><pickID>de.gempa.tb1.Pick/20250412045439.70823.122056</pickID><phase>P</phase><azimuth>3.35915470123291</azimuth><distance>3.0317184925079346</distance><timeResidual>0.07968521118164062</timeResidual><timeUsed>true</timeUsed><horizontalSlownessUsed>false</horizontalSlownessUsed><backazimuthUsed>false</backazimuthUsed><weight>1</weight></arrival><arrival><pickID>de.gempa.tb1.Pick/20250412045440.554797.122058</pickID><phase>P</phase><azimuth>8.461731910705566</azimuth><distance>3.7463538646698</distance><timeResidual>-1.1033077239990234</timeResidual><timeUsed>true</timeUsed><horizontalSlownessUsed>false</horizontalSlownessUsed><backazimuthUsed>false</backazimuthUsed><weight>1</weight></arrival><arrival><pickID>de.gempa.tb1.Pick/20250412045442.138464.122060</pickID><phase>P</phase><azimuth>14.724271774291992</azimuth><distance>3.0553245544433594</distance><timeResidual>-0.22342681884765625</timeResidual><timeUsed>true</timeUsed><horizontalSlownessUsed>false</horizontalSlownessUsed><backazimuthUsed>false</backazimuthUsed><weight>1</weight></arrival><arrival><pickID>de.gempa.tb1.Pick/20250412045449.626268.122064</pickID><phase>S</phase><azimuth>12.816235542297363</azimuth><distance>2.103771209716797</distance><timeResidual>0.5186252593994141</timeResidual><timeUsed>true</timeUsed><horizontalSlownessUsed>false</horizontalSlownessUsed><backazimuthUsed>false</backazimuthUsed><weight>1</weight></arrival><magnitude publicID="de.gempa.tb1.Magnitude/20250412045458.495596.178375"><magnitude><value>3.1806462777839237</value></magnitude><type>M</type><methodID>weighted average</methodID><stationCount>7</stationCount></magnitude></origin><event publicID="gempa2025hexz"><preferredOriginID>de.gempa.tb1.Origin/20250412045458.488977.74547</preferredOriginID><preferredMagnitudeID>de.gempa.tb1.Magnitude/20250412045458.495596.178375</preferredMagnitudeID><description><text>Near Coast of Northern Chile</text><type>region name</type></description><originReference>de.gempa.tb1.Origin/20250412045458.488977.74547</originReference></event></EventParameters></seiscomp>