<?xml version="1.0" encoding="UTF-8"?>
<seiscomp xmlns="http://geofon.gfz-potsdam.de/ns/seiscomp3-schema/0.13" version="0.13"><EventParameters><pick publicID="de.gempa.tb1.Pick/20250413225403.537668.134147"><time><value>2025-04-13T22:53:58.188393Z</value></time><waveformID networkCode="CX" stationCode="PB02" channelCode="HHZ"/><filterID>ITAPER(4)&gt;&gt;BW(4,4,20)</filterID><methodID>AIC</methodID><horizontalSlowness><value>5.461624730413539</value></horizontalSlowness><backazimuth><value>320.15183653854774</value></backazimuth><phaseHint>P</phaseHint><evaluationMode>automatic</evaluationMode><comment><text>110.33294450974157</text><id>DFX:rectilinearity</id></comment><comment><text>91.25152800069617</text><id>SNR</id></comment></pick><pick publicID="de.gempa.tb1.Pick/20250413225404.462584.134149"><time><value>2025-04-13T22:53:58.519999Z</value></time><waveformID networkCode="CX" stationCode="PATCX" channelCode="HHZ"/><filterID>ITAPER(4)&gt;&gt;BW(4,4,20)</filterID><methodID>AIC</methodID><horizontalSlowness><value>17.870266521366336</value></horizontalSlowness><backazimuth><value>244.24646726499964</value></backazimuth><phaseHint>P</phaseHint><evaluationMode>automatic</evaluationMode><comment><text>324.14101595495407</text><id>DFX:rectilinearity</id></comment><comment><text>62.80972682335432</text><id>SNR</id></comment></pick><pick publicID="de.gempa.tb1.Pick/20250413225407.575066.134151"><time><value>2025-04-13T22:54:03.108393Z</value></time><waveformID networkCode="CX" stationCode="PB01" channelCode="HHZ"/><filterID>ITAPER(4)&gt;&gt;BW(4,4,20)</filterID><methodID>AIC</methodID><horizontalSlowness><value>15.947243310971</value></horizontalSlowness><backazimuth><value>237.7427890426811</value></backazimuth><phaseHint>P</phaseHint><evaluationMode>automatic</evaluationMode><comment><text>30.552832553937964</text><id>DFX:rectilinearity</id></comment><comment><text>86.19314056290727</text><id>SNR</id></comment></pick><pick publicID="de.gempa.tb1.Pick/20250413225408.747696.134153"><time><value>2025-04-13T22:54:01.858391Z</value></time><waveformID networkCode="CX" stationCode="PB07" channelCode="HHZ"/><filterID>ITAPER(4)&gt;&gt;BW(4,4,20)</filterID><methodID>AIC</methodID><horizontalSlowness><value>23.15701839383888</value></horizontalSlowness><backazimuth><value>64.35247679466623</value></backazimuth><phaseHint>P</phaseHint><evaluationMode>automatic</evaluationMode><comment><text>229.82141874482596</text><id>DFX:rectilinearity</id></comment><comment><text>41.98332935966644</text><id>SNR</id></comment></pick><pick publicID="de.gempa.tb1.Pick/20250413225412.445046.134155"><time><value>2025-04-13T22:54:04.969999Z</value></time><waveformID networkCode="CX" stationCode="PATCX" channelCode="HHN"/><filterID>ITAPER(2)&gt;&gt;BW(3,3,20)</filterID><methodID>L2-AIC-GRID</methodID><horizontalSlowness><value>21.918343137552188</value></horizontalSlowness><backazimuth><value>64.20741963036893</value></backazimuth><phaseHint>S</phaseHint><evaluationMode>automatic</evaluationMode><comment><text>1987.6924417446496</text><id>DFX:rectilinearity</id></comment><comment><text>de.gempa.tb1.Pick/20250413225404.462584.134149</text><id>RefPickID</id></comment><comment><text>11.57005095191776</text><id>SNR</id></comment></pick><pick publicID="de.gempa.tb1.Pick/20250413225412.640485.134156"><time><value>2025-04-13T22:54:04.168393Z</value></time><waveformID networkCode="CX" stationCode="PB02" channelCode="HHN"/><filterID>ITAPER(2)&gt;&gt;BW(3,3,20)</filterID><methodID>L2-AIC-GRID</methodID><horizontalSlowness><value>6.906612769448024</value></horizontalSlowness><backazimuth><value>184.2847527793959</value></backazimuth><phaseHint>S</phaseHint><evaluationMode>automatic</evaluationMode><comment><text>7770.683432821859</text><id>DFX:rectilinearity</id></comment><comment><text>de.gempa.tb1.Pick/20250413225403.537668.134147</text><id>RefPickID</id></comment><comment><text>10.724954513716497</text><id>SNR</id></comment></pick><pick publicID="de.gempa.tb1.Pick/20250413225413.505679.134157"><time><value>2025-04-13T22:54:07.028393Z</value></time><waveformID networkCode="CX" stationCode="PB03" channelCode="HHZ"/><filterID>ITAPER(4)&gt;&gt;BW(4,4,20)</filterID><methodID>AIC</methodID><horizontalSlowness><value>8.459705162566909</value></horizontalSlowness><backazimuth><value>229.4884801127159</value></backazimuth><phaseHint>P</phaseHint><evaluationMode>automatic</evaluationMode><comment><text>6.079366795143425</text><id>DFX:rectilinearity</id></comment><comment><text>9.486163418350074</text><id>SNR</id></comment></pick><pick publicID="de.gempa.tb1.Pick/20250413225417.581607.134159"><time><value>2025-04-13T22:54:12.448393Z</value></time><waveformID networkCode="CX" stationCode="PB01" channelCode="HHN"/><filterID>ITAPER(2)&gt;&gt;BW(3,3,20)</filterID><methodID>L2-AIC-GRID</methodID><horizontalSlowness><value>15.310388879733463</value></horizontalSlowness><backazimuth><value>0.2329614206000201</value></backazimuth><phaseHint>S</phaseHint><evaluationMode>automatic</evaluationMode><comment><text>1778.8358981942877</text><id>DFX:rectilinearity</id></comment><comment><text>de.gempa.tb1.Pick/20250413225407.575066.134151</text><id>RefPickID</id></comment><comment><text>12.433060683278718</text><id>SNR</id></comment></pick><pick publicID="de.gempa.tb1.Pick/20250413225418.648674.134160"><time><value>2025-04-13T22:54:10.648391Z</value></time><waveformID networkCode="CX" stationCode="PB07" channelCode="HHN"/><filterID>ITAPER(2)&gt;&gt;BW(3,3,20)</filterID><methodID>L2-AIC-GRID</methodID><horizontalSlowness><value>20.39820303703761</value></horizontalSlowness><backazimuth><value>227.9234568579515</value></backazimuth><phaseHint>S</phaseHint><evaluationMode>automatic</evaluationMode><comment><text>2295.9400943735095</text><id>DFX:rectilinearity</id></comment><comment><text>de.gempa.tb1.Pick/20250413225408.747696.134153</text><id>RefPickID</id></comment><comment><text>5.394064838089712</text><id>SNR</id></comment></pick><pick publicID="de.gempa.tb1.Pick/20250413225423.375418.134161"><time><value>2025-04-13T22:54:09.849998Z</value></time><waveformID networkCode="CX" stationCode="PB09" channelCode="HHZ"/><filterID>ITAPER(4)&gt;&gt;BW(4,4,20)</filterID><methodID>AIC</methodID><horizontalSlowness><value>8.008153702548059</value></horizontalSlowness><backazimuth><value>331.23486277073016</value></backazimuth><phaseHint>P</phaseHint><evaluationMode>automatic</evaluationMode><comment><text>9.663637554955368</text><id>DFX:rectilinearity</id></comment><comment><text>25.354599756125424</text><id>SNR</id></comment></pick><pick publicID="de.gempa.tb1.Pick/20250413225423.555404.134163"><time><value>2025-04-13T22:54:16.56Z</value></time><waveformID networkCode="CX" stationCode="PSGCX" channelCode="HHZ"/><filterID>ITAPER(4)&gt;&gt;BW(4,4,20)</filterID><methodID>AIC</methodID><horizontalSlowness><value>20.968828599183464</value></horizontalSlowness><backazimuth><value>89.97577271146746</value></backazimuth><phaseHint>P</phaseHint><evaluationMode>automatic</evaluationMode><comment><text>30.573552407647703</text><id>DFX:rectilinearity</id></comment><comment><text>13.026810738490042</text><id>SNR</id></comment></pick><pick publicID="de.gempa.tb1.Pick/20250413225426.713218.134165"><time><value>2025-04-13T22:54:19.838393Z</value></time><waveformID networkCode="CX" stationCode="PB03" channelCode="HHN"/><filterID>ITAPER(2)&gt;&gt;BW(3,3,20)</filterID><methodID>L2-AIC-GRID</methodID><horizontalSlowness><value>21.880918537695464</value></horizontalSlowness><backazimuth><value>51.60721961036188</value></backazimuth><phaseHint>S</phaseHint><evaluationMode>automatic</evaluationMode><comment><text>21.28246823310423</text><id>DFX:rectilinearity</id></comment><comment><text>de.gempa.tb1.Pick/20250413225413.505679.134157</text><id>RefPickID</id></comment><comment><text>5.107544573909391</text><id>SNR</id></comment></pick><pick publicID="de.gempa.tb1.Pick/20250413225446.65698.134170"><time><value>2025-04-13T22:54:36.32Z</value></time><waveformID networkCode="CX" stationCode="PSGCX" channelCode="HHN"/><filterID>ITAPER(2)&gt;&gt;BW(3,3,20)</filterID><methodID>L2-AIC-GRID</methodID><horizontalSlowness><value>16.831327756437307</value></horizontalSlowness><backazimuth><value>301.95458281298374</value></backazimuth><phaseHint>S</phaseHint><evaluationMode>automatic</evaluationMode><comment><text>21.8218452089777</text><id>DFX:rectilinearity</id></comment><comment><text>de.gempa.tb1.Pick/20250413225423.555404.134163</text><id>RefPickID</id></comment><comment><text>6.189511225824337</text><id>SNR</id></comment></pick><origin publicID="de.gempa.tb1.Origin/20250413225446.659791.120893"><time><value>2025-04-13T22:53:50.223513Z</value><uncertainty>0.4747673869132996</uncertainty></time><latitude><value>-21.19493293762207</value><uncertainty>2.1817030906677246</uncertainty></latitude><longitude><value>-70.18334197998047</value><uncertainty>4.596683502197266</uncertainty></longitude><depth><value>33.13175582885742</value><uncertainty>3.9380557537078857</uncertainty></depth><depthType>from location</depthType><methodID>LOCSAT</methodID><earthModelID>iasp91_scanloc</earthModelID><quality><associatedPhaseCount>13</associatedPhaseCount><usedPhaseCount>13</usedPhaseCount><associatedStationCount>7</associatedStationCount><usedStationCount>7</usedStationCount><depthPhaseCount>0</depthPhaseCount><standardError>0.4635425692013455</standardError><azimuthalGap>207.20591950416565</azimuthalGap><maximumDistance>1.5906500816345215</maximumDistance><minimumDistance>0.29537388682365417</minimumDistance><medianDistance>0.6670671701431274</medianDistance></quality><uncertainty><minHorizontalUncertainty>4.090658187866211</minHorizontalUncertainty><maxHorizontalUncertainty>10.113676071166992</maxHorizontalUncertainty><azimuthMaxHorizontalUncertainty>75.79934692382812</azimuthMaxHorizontalUncertainty><preferredDescription>horizontal uncertainty</preferredDescription></uncertainty><evaluationMode>automatic</evaluationMode><evaluationStatus>confirmed</evaluationStatus><comment><text>0.02</text><id>mismatchScore</id></comment><comment><text>mismatchScore</text><id>scevalMethod</id></comment><arrival><pickID>de.gempa.tb1.Pick/20250413225403.537668.134147</pickID><phase>P</phase><azimuth>114.91263580322266</azimuth><distance>0.29537388682365417</distance><timeResidual>0.32417964935302734</timeResidual><timeUsed>true</timeUsed><horizontalSlownessUsed>false</horizontalSlownessUsed><backazimuthUsed>false</backazimuthUsed><weight>1</weight></arrival><arrival><pickID>de.gempa.tb1.Pick/20250413225404.462584.134149</pickID><phase>P</phase><azimuth>4.3767337799072266</azimuth><distance>0.3734433650970459</distance><timeResidual>-0.38927793502807617</timeResidual><timeUsed>true</timeUsed><horizontalSlownessUsed>false</horizontalSlownessUsed><backazimuthUsed>false</backazimuthUsed><weight>1</weight></arrival><arrival><pickID>de.gempa.tb1.Pick/20250413225407.575066.134151</pickID><phase>P</phase><azimuth>77.04623413085938</azimuth><distance>0.6670671701431274</distance><timeResidual>-0.2181239128112793</timeResidual><timeUsed>true</timeUsed><horizontalSlownessUsed>false</horizontalSlownessUsed><backazimuthUsed>false</backazimuthUsed><weight>1</weight></arrival><arrival><pickID>de.gempa.tb1.Pick/20250413225408.747696.134153</pickID><phase>P</phase><azimuth>152.4376678466797</azimuth><distance>0.5971536040306091</distance><timeResidual>-0.37718820571899414</timeResidual><timeUsed>true</timeUsed><horizontalSlownessUsed>false</horizontalSlownessUsed><backazimuthUsed>false</backazimuthUsed><weight>1</weight></arrival><arrival><pickID>de.gempa.tb1.Pick/20250413225412.445046.134155</pickID><phase>S</phase><azimuth>4.3767337799072266</azimuth><distance>0.3734433650970459</distance><timeResidual>-0.29714059829711914</timeResidual><timeUsed>true</timeUsed><horizontalSlownessUsed>false</horizontalSlownessUsed><backazimuthUsed>false</backazimuthUsed><weight>1</weight></arrival><arrival><pickID>de.gempa.tb1.Pick/20250413225412.640485.134156</pickID><phase>S</phase><azimuth>114.91263580322266</azimuth><distance>0.29537388682365417</distance><timeResidual>0.7188549041748047</timeResidual><timeUsed>true</timeUsed><horizontalSlownessUsed>false</horizontalSlownessUsed><backazimuthUsed>false</backazimuthUsed><weight>1</weight></arrival><arrival><pickID>de.gempa.tb1.Pick/20250413225413.505679.134157</pickID><phase>P</phase><azimuth>154.8423614501953</azimuth><distance>0.9389771223068237</distance><timeResidual>-0.14412450790405273</timeResidual><timeUsed>true</timeUsed><horizontalSlownessUsed>false</horizontalSlownessUsed><backazimuthUsed>false</backazimuthUsed><weight>1</weight></arrival><arrival><pickID>de.gempa.tb1.Pick/20250413225417.581607.134159</pickID><phase>S</phase><azimuth>77.04623413085938</azimuth><distance>0.6670671701431274</distance><timeResidual>-0.5222697257995605</timeResidual><timeUsed>true</timeUsed><horizontalSlownessUsed>false</horizontalSlownessUsed><backazimuthUsed>false</backazimuthUsed><weight>1</weight></arrival><arrival><pickID>de.gempa.tb1.Pick/20250413225418.648674.134160</pickID><phase>S</phase><azimuth>152.4376678466797</azimuth><distance>0.5971536040306091</distance><timeResidual>-0.417330265045166</timeResidual><timeUsed>true</timeUsed><horizontalSlownessUsed>false</horizontalSlownessUsed><backazimuthUsed>false</backazimuthUsed><weight>1</weight></arrival><arrival><pickID>de.gempa.tb1.Pick/20250413225423.375418.134161</pickID><phase>P</phase><azimuth>124.48992156982422</azimuth><distance>1.0615228414535522</distance><timeResidual>1.0010180473327637</timeResidual><timeUsed>true</timeUsed><horizontalSlownessUsed>false</horizontalSlownessUsed><backazimuthUsed>false</backazimuthUsed><weight>1</weight></arrival><arrival><pickID>de.gempa.tb1.Pick/20250413225423.555404.134163</pickID><phase>P</phase><azimuth>2.048280954360962</azimuth><distance>1.5906500816345215</distance><timeResidual>0.41835641860961914</timeResidual><timeUsed>true</timeUsed><horizontalSlownessUsed>false</horizontalSlownessUsed><backazimuthUsed>false</backazimuthUsed><weight>1</weight></arrival><arrival><pickID>de.gempa.tb1.Pick/20250413225426.713218.134165</pickID><phase>S</phase><azimuth>154.8423614501953</azimuth><distance>0.9389771223068237</distance><timeResidual>-0.2631983757019043</timeResidual><timeUsed>true</timeUsed><horizontalSlownessUsed>false</horizontalSlownessUsed><backazimuthUsed>false</backazimuthUsed><weight>1</weight></arrival><arrival><pickID>de.gempa.tb1.Pick/20250413225446.65698.134170</pickID><phase>S</phase><azimuth>2.048280954360962</azimuth><distance>1.5906500816345215</distance><timeResidual>0.1666550636291504</timeResidual><timeUsed>true</timeUsed><horizontalSlownessUsed>false</horizontalSlownessUsed><backazimuthUsed>false</backazimuthUsed><weight>1</weight></arrival><magnitude publicID="de.gempa.tb1.Magnitude/20250413225446.666271.408946"><magnitude><value>2.1830973866862542</value></magnitude><type>M</type><methodID>weighted average</methodID><stationCount>7</stationCount></magnitude></origin><event publicID="gempa2025hieb"><preferredOriginID>de.gempa.tb1.Origin/20250413225446.659791.120893</preferredOriginID><preferredMagnitudeID>de.gempa.tb1.Magnitude/20250413225446.666271.408946</preferredMagnitudeID><description><text>Near Coast of Northern Chile</text><type>region name</type></description><originReference>de.gempa.tb1.Origin/20250413225446.659791.120893</originReference></event></EventParameters></seiscomp>