<?xml version="1.0" encoding="UTF-8"?>
<seiscomp xmlns="http://geofon.gfz-potsdam.de/ns/seiscomp3-schema/0.13" version="0.13"><EventParameters><pick publicID="de.gempa.tb1.Pick/20250413104324.552906.130617"><time><value>2025-04-13T10:43:16.66Z</value></time><waveformID networkCode="CX" stationCode="PB09" channelCode="HHZ"/><filterID>ITAPER(4)&gt;&gt;BW(4,4,20)</filterID><methodID>AIC</methodID><horizontalSlowness><value>15.484063557418803</value></horizontalSlowness><backazimuth><value>353.30048414814655</value></backazimuth><phaseHint>P</phaseHint><evaluationMode>automatic</evaluationMode><comment><text>13.490346119622346</text><id>DFX:rectilinearity</id></comment><comment><text>29.223790521597707</text><id>SNR</id></comment></pick><pick publicID="de.gempa.tb1.Pick/20250413104326.514608.130619"><time><value>2025-04-13T10:43:21.728393Z</value></time><waveformID networkCode="CX" stationCode="PB02" channelCode="HHZ"/><filterID>ITAPER(4)&gt;&gt;BW(4,4,20)</filterID><methodID>AIC</methodID><horizontalSlowness><value>9.528720843649994</value></horizontalSlowness><backazimuth><value>296.48317769035486</value></backazimuth><phaseHint>P</phaseHint><evaluationMode>automatic</evaluationMode><comment><text>44.09573998551267</text><id>DFX:rectilinearity</id></comment><comment><text>13.013048758486583</text><id>SNR</id></comment></pick><pick publicID="de.gempa.tb1.Pick/20250413104327.510432.130621"><time><value>2025-04-13T10:43:20.168393Z</value></time><waveformID networkCode="CX" stationCode="PB03" channelCode="HHZ"/><filterID>ITAPER(4)&gt;&gt;BW(4,4,20)</filterID><methodID>AIC</methodID><horizontalSlowness><value>15.834756617890498</value></horizontalSlowness><backazimuth><value>250.5966748574316</value></backazimuth><phaseHint>P</phaseHint><evaluationMode>automatic</evaluationMode><comment><text>8.675738660522372</text><id>DFX:rectilinearity</id></comment><comment><text>10.297045050135203</text><id>SNR</id></comment></pick><pick publicID="de.gempa.tb1.Pick/20250413104327.526305.130623"><time><value>2025-04-13T10:43:20.538393Z</value></time><waveformID networkCode="CX" stationCode="PB01" channelCode="HHZ"/><filterID>ITAPER(4)&gt;&gt;BW(4,4,20)</filterID><methodID>AIC</methodID><horizontalSlowness><value>13.156014136892773</value></horizontalSlowness><backazimuth><value>268.35202769450115</value></backazimuth><phaseHint>P</phaseHint><evaluationMode>automatic</evaluationMode><comment><text>11.641028950210918</text><id>DFX:rectilinearity</id></comment><comment><text>12.845763818535325</text><id>SNR</id></comment></pick><pick publicID="de.gempa.tb1.Pick/20250413104329.605308.130625"><time><value>2025-04-13T10:43:24.188393Z</value></time><waveformID networkCode="CX" stationCode="PB06" channelCode="HHZ"/><filterID>ITAPER(4)&gt;&gt;BW(4,4,20)</filterID><methodID>AIC</methodID><horizontalSlowness><value>14.376239474260812</value></horizontalSlowness><backazimuth><value>86.18293309486164</value></backazimuth><phaseHint>P</phaseHint><evaluationMode>automatic</evaluationMode><comment><text>41.34566737429047</text><id>DFX:rectilinearity</id></comment><comment><text>6.053825600409185</text><id>SNR</id></comment></pick><pick publicID="de.gempa.tb1.Pick/20250413104341.579054.130628"><time><value>2025-04-13T10:43:34.288393Z</value></time><waveformID networkCode="CX" stationCode="PB01" channelCode="HHN"/><filterID>ITAPER(2)&gt;&gt;BW(3,3,20)</filterID><methodID>L2-AIC-GRID</methodID><horizontalSlowness><value>18.779727749697614</value></horizontalSlowness><backazimuth><value>13.90543008152315</value></backazimuth><phaseHint>S</phaseHint><evaluationMode>automatic</evaluationMode><comment><text>100.03043762406061</text><id>DFX:rectilinearity</id></comment><comment><text>de.gempa.tb1.Pick/20250413104327.526305.130623</text><id>RefPickID</id></comment><comment><text>9.1823281333498</text><id>SNR</id></comment></pick><pick publicID="de.gempa.tb1.Pick/20250413104341.81143.130629"><time><value>2025-04-13T10:43:33.408393Z</value></time><waveformID networkCode="CX" stationCode="PB03" channelCode="HHN"/><filterID>ITAPER(2)&gt;&gt;BW(3,3,20)</filterID><methodID>L2-AIC-GRID</methodID><horizontalSlowness><value>16.930446204637356</value></horizontalSlowness><backazimuth><value>263.53299364207993</value></backazimuth><phaseHint>S</phaseHint><evaluationMode>automatic</evaluationMode><comment><text>9.415921674350079</text><id>DFX:rectilinearity</id></comment><comment><text>de.gempa.tb1.Pick/20250413104327.510432.130621</text><id>RefPickID</id></comment><comment><text>26.18517818932339</text><id>SNR</id></comment></pick><pick publicID="de.gempa.tb1.Pick/20250413104346.696687.130630"><time><value>2025-04-13T10:43:40.698393Z</value></time><waveformID networkCode="CX" stationCode="PB06" channelCode="HHN"/><filterID>ITAPER(2)&gt;&gt;BW(3,3,20)</filterID><methodID>L2-AIC-GRID</methodID><horizontalSlowness><value>7.641378204859203</value></horizontalSlowness><backazimuth><value>265.7268439101608</value></backazimuth><phaseHint>S</phaseHint><evaluationMode>automatic</evaluationMode><comment><text>73.80234831466494</text><id>DFX:rectilinearity</id></comment><comment><text>de.gempa.tb1.Pick/20250413104329.605308.130625</text><id>RefPickID</id></comment><comment><text>7.20643152263876</text><id>SNR</id></comment></pick><pick publicID="de.gempa.tb1.Pick/20250413104356.702846.130633"><time><value>2025-04-13T10:43:20.868394Z</value></time><waveformID networkCode="CX" stationCode="PB07" channelCode="HHZ"/><filterID>ITAPER(4)&gt;&gt;BW(4,4,20)</filterID><methodID>AIC</methodID><horizontalSlowness><value>22.610195972581216</value></horizontalSlowness><backazimuth><value>44.4622844996054</value></backazimuth><phaseHint>P</phaseHint><evaluationMode>automatic</evaluationMode><comment><text>208.43244240048534</text><id>DFX:rectilinearity</id></comment><comment><text>56.46671466863496</text><id>SNR</id></comment></pick><pick publicID="de.gempa.tb1.Pick/20250413104403.3608.130635"><time><value>2025-04-13T10:43:34.588394Z</value></time><waveformID networkCode="CX" stationCode="PB07" channelCode="HHN"/><filterID>ITAPER(2)&gt;&gt;BW(3,3,20)</filterID><methodID>L2-AIC-GRID</methodID><horizontalSlowness><value>22.487672129742553</value></horizontalSlowness><backazimuth><value>312.36360356378373</value></backazimuth><phaseHint>S</phaseHint><evaluationMode>automatic</evaluationMode><comment><text>326.85508713357405</text><id>DFX:rectilinearity</id></comment><comment><text>de.gempa.tb1.Pick/20250413104356.702846.130633</text><id>RefPickID</id></comment><comment><text>5.162154906808932</text><id>SNR</id></comment></pick><origin publicID="de.gempa.tb1.Origin/20250413104403.364694.107457"><time><value>2025-04-13T10:43:02.918369Z</value><uncertainty>1.1149677038192749</uncertainty></time><latitude><value>-21.70665740966797</value><uncertainty>3.8772287368774414</uncertainty></latitude><longitude><value>-69.04135131835938</value><uncertainty>10.464435577392578</uncertainty></longitude><depth><value>95.07860565185547</value><uncertainty>12.474498748779297</uncertainty></depth><depthType>from location</depthType><methodID>LOCSAT</methodID><earthModelID>iasp91_scanloc</earthModelID><quality><associatedPhaseCount>10</associatedPhaseCount><usedPhaseCount>10</usedPhaseCount><associatedStationCount>6</associatedStationCount><usedStationCount>6</usedStationCount><depthPhaseCount>0</depthPhaseCount><standardError>0.13224131258548746</standardError><azimuthalGap>238.4920654296875</azimuthalGap><maximumDistance>1.1092492341995239</maximumDistance><minimumDistance>0.206733837723732</minimumDistance><medianDistance>0.7858335971832275</medianDistance></quality><uncertainty><minHorizontalUncertainty>8.210755348205566</minHorizontalUncertainty><maxHorizontalUncertainty>22.475217819213867</maxHorizontalUncertainty><azimuthMaxHorizontalUncertainty>93.56903839111328</azimuthMaxHorizontalUncertainty><preferredDescription>horizontal uncertainty</preferredDescription></uncertainty><evaluationMode>automatic</evaluationMode><evaluationStatus>confirmed</evaluationStatus><comment><text>0.00</text><id>mismatchScore</id></comment><comment><text>mismatchScore</text><id>scevalMethod</id></comment><arrival><pickID>de.gempa.tb1.Pick/20250413104324.552906.130617</pickID><phase>P</phase><azimuth>244.3760223388672</azimuth><distance>0.206733837723732</distance><timeResidual>0.1308269500732422</timeResidual><timeUsed>true</timeUsed><horizontalSlownessUsed>false</horizontalSlownessUsed><backazimuthUsed>false</backazimuthUsed><weight>1</weight></arrival><arrival><pickID>de.gempa.tb1.Pick/20250413104326.514608.130619</pickID><phase>P</phase><azimuth>295.6612243652344</azimuth><distance>0.8840891718864441</distance><timeResidual>0.004868507385253906</timeResidual><timeUsed>true</timeUsed><horizontalSlownessUsed>false</horizontalSlownessUsed><backazimuthUsed>false</backazimuthUsed><weight>1</weight></arrival><arrival><pickID>de.gempa.tb1.Pick/20250413104327.510432.130621</pickID><phase>P</phase><azimuth>242.6414489746094</azimuth><distance>0.7434757351875305</distance><timeResidual>-0.12807941436767578</timeResidual><timeUsed>true</timeUsed><horizontalSlownessUsed>false</horizontalSlownessUsed><backazimuthUsed>false</backazimuthUsed><weight>1</weight></arrival><arrival><pickID>de.gempa.tb1.Pick/20250413104327.526305.130623</pickID><phase>P</phase><azimuth>327.7182922363281</azimuth><distance>0.7801518440246582</distance><timeResidual>-0.12187576293945312</timeResidual><timeUsed>true</timeUsed><horizontalSlownessUsed>false</horizontalSlownessUsed><backazimuthUsed>false</backazimuthUsed><weight>1</weight></arrival><arrival><pickID>de.gempa.tb1.Pick/20250413104329.605308.130625</pickID><phase>P</phase><azimuth>206.21035766601562</azimuth><distance>1.1092492341995239</distance><timeResidual>-0.019079208374023438</timeResidual><timeUsed>true</timeUsed><horizontalSlownessUsed>false</horizontalSlownessUsed><backazimuthUsed>false</backazimuthUsed><weight>1</weight></arrival><arrival><pickID>de.gempa.tb1.Pick/20250413104341.579054.130628</pickID><phase>S</phase><azimuth>327.7182922363281</azimuth><distance>0.7801518440246582</distance><timeResidual>-0.018390655517578125</timeResidual><timeUsed>true</timeUsed><horizontalSlownessUsed>false</horizontalSlownessUsed><backazimuthUsed>false</backazimuthUsed><weight>1</weight></arrival><arrival><pickID>de.gempa.tb1.Pick/20250413104341.81143.130629</pickID><phase>S</phase><azimuth>242.6414489746094</azimuth><distance>0.7434757351875305</distance><timeResidual>-0.2515068054199219</timeResidual><timeUsed>true</timeUsed><horizontalSlownessUsed>false</horizontalSlownessUsed><backazimuthUsed>false</backazimuthUsed><weight>1</weight></arrival><arrival><pickID>de.gempa.tb1.Pick/20250413104346.696687.130630</pickID><phase>S</phase><azimuth>206.21035766601562</azimuth><distance>1.1092492341995239</distance><timeResidual>0.06219673156738281</timeResidual><timeUsed>true</timeUsed><horizontalSlownessUsed>false</horizontalSlownessUsed><backazimuthUsed>false</backazimuthUsed><weight>1</weight></arrival><arrival><pickID>de.gempa.tb1.Pick/20250413104356.702846.130633</pickID><phase>P</phase><azimuth>268.39251708984375</azimuth><distance>0.7858335971832275</distance><timeResidual>0.15498828887939453</timeResidual><timeUsed>true</timeUsed><horizontalSlownessUsed>false</horizontalSlownessUsed><backazimuthUsed>false</backazimuthUsed><weight>1</weight></arrival><arrival><pickID>de.gempa.tb1.Pick/20250413104403.3608.130635</pickID><phase>S</phase><azimuth>268.39251708984375</azimuth><distance>0.7858335971832275</distance><timeResidual>0.1860980987548828</timeResidual><timeUsed>true</timeUsed><horizontalSlownessUsed>false</horizontalSlownessUsed><backazimuthUsed>false</backazimuthUsed><weight>1</weight></arrival><magnitude publicID="de.gempa.tb1.Magnitude/20250413104410.980323.348226"><magnitude><value>2.1851769869330764</value></magnitude><type>M</type><methodID>weighted average</methodID><stationCount>4</stationCount></magnitude></origin><event publicID="gempa2025hhfr"><preferredOriginID>de.gempa.tb1.Origin/20250413104403.364694.107457</preferredOriginID><preferredMagnitudeID>de.gempa.tb1.Magnitude/20250413104410.980323.348226</preferredMagnitudeID><description><text>Northern Chile</text><type>region name</type></description><originReference>de.gempa.tb1.Origin/20250413104403.364694.107457</originReference></event></EventParameters></seiscomp>