<?xml version="1.0" encoding="UTF-8"?>
<seiscomp xmlns="http://geofon.gfz-potsdam.de/ns/seiscomp3-schema/0.13" version="0.13"><EventParameters><pick publicID="de.gempa.tb1.Pick/20250412104045.253119.123437"><time><value>2025-04-12T10:40:37.488393Z</value></time><waveformID networkCode="CX" stationCode="PB08" channelCode="HHZ"/><filterID>ITAPER(4)&gt;&gt;BW(4,4,20)</filterID><methodID>AIC</methodID><horizontalSlowness><value>17.354485807661067</value></horizontalSlowness><backazimuth><value>92.07072324184041</value></backazimuth><phaseHint>P</phaseHint><evaluationMode>automatic</evaluationMode><comment><text>7.257856370983158</text><id>DFX:rectilinearity</id></comment><comment><text>10.841269869749862</text><id>SNR</id></comment></pick><pick publicID="de.gempa.tb1.Pick/20250412104049.530929.123439"><time><value>2025-04-12T10:40:41.658393Z</value></time><waveformID networkCode="CX" stationCode="PB01" channelCode="HHZ"/><filterID>ITAPER(4)&gt;&gt;BW(4,4,20)</filterID><methodID>AIC</methodID><horizontalSlowness><value>20.1594036926977</value></horizontalSlowness><backazimuth><value>241.41853078193893</value></backazimuth><phaseHint>P</phaseHint><evaluationMode>automatic</evaluationMode><comment><text>7.25187575036587</text><id>DFX:rectilinearity</id></comment><comment><text>15.408411945087277</text><id>SNR</id></comment></pick><pick publicID="de.gempa.tb1.Pick/20250412104054.554517.123441"><time><value>2025-04-12T10:40:45.07Z</value></time><waveformID networkCode="CX" stationCode="PSGCX" channelCode="HHZ"/><filterID>ITAPER(4)&gt;&gt;BW(4,4,20)</filterID><methodID>AIC</methodID><horizontalSlowness><value>14.25080372773858</value></horizontalSlowness><backazimuth><value>194.78707890502858</value></backazimuth><phaseHint>P</phaseHint><evaluationMode>automatic</evaluationMode><comment><text>14.648388091156772</text><id>DFX:rectilinearity</id></comment><comment><text>16.215372736587248</text><id>SNR</id></comment></pick><pick publicID="de.gempa.tb1.Pick/20250412104055.608276.123443"><time><value>2025-04-12T10:40:47.718393Z</value></time><waveformID networkCode="CX" stationCode="PB08" channelCode="HHN"/><filterID>ITAPER(2)&gt;&gt;BW(3,3,20)</filterID><methodID>L2-AIC-GRID</methodID><horizontalSlowness><value>14.522036328986182</value></horizontalSlowness><backazimuth><value>206.21466927873604</value></backazimuth><phaseHint>S</phaseHint><evaluationMode>automatic</evaluationMode><comment><text>20.679686785225392</text><id>DFX:rectilinearity</id></comment><comment><text>de.gempa.tb1.Pick/20250412104045.253119.123437</text><id>RefPickID</id></comment><comment><text>8.810658866076409</text><id>SNR</id></comment></pick><pick publicID="de.gempa.tb1.Pick/20250412104105.565202.123446"><time><value>2025-04-12T10:40:55.348393Z</value></time><waveformID networkCode="CX" stationCode="PB01" channelCode="HHN"/><filterID>ITAPER(2)&gt;&gt;BW(3,3,20)</filterID><methodID>L2-AIC-GRID</methodID><horizontalSlowness><value>20.403295421525705</value></horizontalSlowness><backazimuth><value>178.25608818782104</value></backazimuth><phaseHint>S</phaseHint><evaluationMode>automatic</evaluationMode><comment><text>17.292586977439793</text><id>DFX:rectilinearity</id></comment><comment><text>de.gempa.tb1.Pick/20250412104049.530929.123439</text><id>RefPickID</id></comment><comment><text>7.780057726985522</text><id>SNR</id></comment></pick><pick publicID="de.gempa.tb1.Pick/20250412104109.572984.123447"><time><value>2025-04-12T10:41:01.18Z</value></time><waveformID networkCode="CX" stationCode="PSGCX" channelCode="HHN"/><filterID>ITAPER(2)&gt;&gt;BW(3,3,20)</filterID><methodID>L2-AIC-GRID</methodID><horizontalSlowness><value>23.494742627974805</value></horizontalSlowness><backazimuth><value>324.5873332471811</value></backazimuth><phaseHint>S</phaseHint><evaluationMode>automatic</evaluationMode><comment><text>32.65540214643377</text><id>DFX:rectilinearity</id></comment><comment><text>de.gempa.tb1.Pick/20250412104054.554517.123441</text><id>RefPickID</id></comment><comment><text>5.980823239016349</text><id>SNR</id></comment></pick><origin publicID="de.gempa.tb1.Origin/20250412104109.578523.80895"><time><value>2025-04-12T10:40:24.05895Z</value><uncertainty>1.4873791933059692</uncertainty></time><latitude><value>-20.2957706451416</value><uncertainty>4.695156574249268</uncertainty></latitude><longitude><value>-69.23706817626953</value><uncertainty>8.812344551086426</uncertainty></longitude><depth><value>94.26754760742188</value><uncertainty>9.546181678771973</uncertainty></depth><depthType>from location</depthType><methodID>LOCSAT</methodID><earthModelID>iasp91_scanloc</earthModelID><quality><associatedPhaseCount>6</associatedPhaseCount><usedPhaseCount>6</usedPhaseCount><associatedStationCount>3</associatedStationCount><usedStationCount>3</usedStationCount><depthPhaseCount>0</depthPhaseCount><standardError>0.03834011215842154</standardError><azimuthalGap>170.38244819641113</azimuthalGap><maximumDistance>1.0852195024490356</maximumDistance><minimumDistance>0.1727639138698578</minimumDistance><medianDistance>0.7797594666481018</medianDistance></quality><uncertainty><minHorizontalUncertainty>9.141392707824707</minHorizontalUncertainty><maxHorizontalUncertainty>19.364490509033203</maxHorizontalUncertainty><azimuthMaxHorizontalUncertainty>75.6823959350586</azimuthMaxHorizontalUncertainty><preferredDescription>horizontal uncertainty</preferredDescription></uncertainty><evaluationMode>automatic</evaluationMode><evaluationStatus>confirmed</evaluationStatus><comment><text>0.00</text><id>mismatchScore</id></comment><comment><text>mismatchScore</text><id>scevalMethod</id></comment><arrival><pickID>de.gempa.tb1.Pick/20250412104045.253119.123437</pickID><phase>P</phase><azimuth>27.06849479675293</azimuth><distance>0.1727639138698578</distance><timeResidual>0.02497386932373047</timeResidual><timeUsed>true</timeUsed><horizontalSlownessUsed>false</horizontalSlownessUsed><backazimuthUsed>false</backazimuthUsed><weight>1</weight></arrival><arrival><pickID>de.gempa.tb1.Pick/20250412104049.530929.123439</pickID><phase>P</phase><azimuth>197.45094299316406</azimuth><distance>0.7797594666481018</distance><timeResidual>-0.06616973876953125</timeResidual><timeUsed>true</timeUsed><horizontalSlownessUsed>false</horizontalSlownessUsed><backazimuthUsed>false</backazimuthUsed><weight>1</weight></arrival><arrival><pickID>de.gempa.tb1.Pick/20250412104054.554517.123441</pickID><phase>P</phase><azimuth>309.6723937988281</azimuth><distance>1.0852195024490356</distance><timeResidual>0.04130840301513672</timeResidual><timeUsed>true</timeUsed><horizontalSlownessUsed>false</horizontalSlownessUsed><backazimuthUsed>false</backazimuthUsed><weight>1</weight></arrival><arrival><pickID>de.gempa.tb1.Pick/20250412104055.608276.123443</pickID><phase>S</phase><azimuth>27.06849479675293</azimuth><distance>0.1727639138698578</distance><timeResidual>-0.01410675048828125</timeResidual><timeUsed>true</timeUsed><horizontalSlownessUsed>false</horizontalSlownessUsed><backazimuthUsed>false</backazimuthUsed><weight>1</weight></arrival><arrival><pickID>de.gempa.tb1.Pick/20250412104105.565202.123446</pickID><phase>S</phase><azimuth>197.45094299316406</azimuth><distance>0.7797594666481018</distance><timeResidual>0.037139892578125</timeResidual><timeUsed>true</timeUsed><horizontalSlownessUsed>false</horizontalSlownessUsed><backazimuthUsed>false</backazimuthUsed><weight>1</weight></arrival><arrival><pickID>de.gempa.tb1.Pick/20250412104109.572984.123447</pickID><phase>S</phase><azimuth>309.6723937988281</azimuth><distance>1.0852195024490356</distance><timeResidual>-0.02308464050292969</timeResidual><timeUsed>true</timeUsed><horizontalSlownessUsed>false</horizontalSlownessUsed><backazimuthUsed>false</backazimuthUsed><weight>1</weight></arrival><magnitude publicID="de.gempa.tb1.Magnitude/20250412104120.778002.212583"><magnitude><value>1.7353327729449302</value></magnitude><type>M</type><methodID>weighted average</methodID><stationCount>2</stationCount></magnitude></origin><event publicID="gempa2025hfjo"><preferredOriginID>de.gempa.tb1.Origin/20250412104109.578523.80895</preferredOriginID><preferredMagnitudeID>de.gempa.tb1.Magnitude/20250412104120.778002.212583</preferredMagnitudeID><description><text>Northern Chile</text><type>region name</type></description><originReference>de.gempa.tb1.Origin/20250412104109.578523.80895</originReference></event></EventParameters></seiscomp>