<?xml version="1.0" encoding="UTF-8"?>
<seiscomp xmlns="http://geofon.gfz-potsdam.de/ns/seiscomp3-schema/0.13" version="0.13"><EventParameters><pick publicID="de.gempa.tb2.Pick/20250414091612.119865.162888"><time><value>2025-04-14T09:16:09.5Z</value></time><waveformID networkCode="CH" stationCode="WIMIS" channelCode="HHZ"/><filterID>ITAPER(4)&gt;&gt;BW(4,4,20)</filterID><methodID>AIC</methodID><phaseHint>P</phaseHint><evaluationMode>automatic</evaluationMode></pick><pick publicID="de.gempa.tb2.Pick/20250414091615.135191.162891"><time><value>2025-04-14T09:16:11.615Z</value></time><waveformID networkCode="CH" stationCode="SENIN" channelCode="HHZ"/><filterID>ITAPER(4)&gt;&gt;BW(4,4,20)</filterID><methodID>AIC</methodID><phaseHint>P</phaseHint><evaluationMode>automatic</evaluationMode></pick><pick publicID="de.gempa.tb2.Pick/20250414091616.124359.162893"><time><value>2025-04-14T09:16:12.475Z</value></time><waveformID networkCode="CH" stationCode="DIX" channelCode="HHZ"/><filterID>ITAPER(4)&gt;&gt;BW(4,4,20)</filterID><methodID>AIC</methodID><phaseHint>P</phaseHint><evaluationMode>automatic</evaluationMode></pick><pick publicID="de.gempa.tb2.Pick/20250414091622.236801.162897"><time><value>2025-04-14T09:16:15.67Z</value></time><waveformID networkCode="CH" stationCode="SENIN" channelCode="HHN"/><filterID>RMHP(1)&gt;&gt;ITAPER(2)&gt;&gt;BW(4,3,20)</filterID><methodID>L2-AIC-GRID</methodID><phaseHint>S</phaseHint><evaluationMode>automatic</evaluationMode><comment><text>de.gempa.tb2.Pick/20250414091615.135191.162891</text><id>RefPickID</id></comment></pick><pick publicID="de.gempa.tb2.Pick/20250414091627.637546.162900"><time><value>2025-04-14T09:16:16.3Z</value></time><waveformID networkCode="CH" stationCode="SIMPL" channelCode="HHZ"/><filterID>ITAPER(4)&gt;&gt;BW(4,4,20)</filterID><methodID>AIC</methodID><phaseHint>P</phaseHint><evaluationMode>automatic</evaluationMode></pick><pick publicID="de.gempa.tb2.Pick/20250414091643.739926.162915"><time><value>2025-04-14T09:16:24.39Z</value></time><waveformID networkCode="CH" stationCode="SIMPL" channelCode="HHN"/><filterID>RMHP(1)&gt;&gt;ITAPER(2)&gt;&gt;BW(4,3,20)</filterID><methodID>L2-AIC-GRID</methodID><phaseHint>S</phaseHint><evaluationMode>automatic</evaluationMode><comment><text>de.gempa.tb2.Pick/20250414091627.637546.162900</text><id>RefPickID</id></comment></pick><origin publicID="de.gempa.tb2.Origin/20250414091643.749757.69159"><time><value>2025-04-14T09:16:02.64995Z</value><uncertainty>1.3176634311676025</uncertainty></time><latitude><value>46.59154891967773</value><uncertainty>6.163381099700928</uncertainty></latitude><longitude><value>7.339676856994629</value><uncertainty>6.957581520080566</uncertainty></longitude><depth><value>26.43227195739746</value><uncertainty>8.827788352966309</uncertainty></depth><depthType>from location</depthType><methodID>LOCSAT</methodID><earthModelID>iasp91</earthModelID><quality><associatedPhaseCount>6</associatedPhaseCount><usedPhaseCount>6</usedPhaseCount><associatedStationCount>4</associatedStationCount><usedStationCount>4</usedStationCount><depthPhaseCount>0</depthPhaseCount><standardError>1.0196521065929023</standardError><azimuthalGap>242.40079498291016</azimuthalGap><maximumDistance>0.5875312685966492</maximumDistance><minimumDistance>0.20934224128723145</minimumDistance><medianDistance>0.5138218998908997</medianDistance></quality><uncertainty><minHorizontalUncertainty>10.432247161865234</minHorizontalUncertainty><maxHorizontalUncertainty>16.99306297302246</maxHorizontalUncertainty><azimuthMaxHorizontalUncertainty>127.2711944580078</azimuthMaxHorizontalUncertainty><preferredDescription>horizontal uncertainty</preferredDescription></uncertainty><evaluationMode>automatic</evaluationMode><arrival><pickID>de.gempa.tb2.Pick/20250414091612.119865.162888</pickID><phase>P</phase><azimuth>69.38439178466797</azimuth><distance>0.20934224128723145</distance><timeResidual>-0.466193675994873</timeResidual><timeUsed>true</timeUsed><horizontalSlownessUsed>false</horizontalSlownessUsed><backazimuthUsed>false</backazimuthUsed><weight>1</weight></arrival><arrival><pickID>de.gempa.tb2.Pick/20250414091615.135191.162891</pickID><phase>P</phase><azimuth>186.9835968017578</azimuth><distance>0.22997193038463593</distance><timeResidual>1.3645882606506348</timeResidual><timeUsed>true</timeUsed><horizontalSlownessUsed>false</horizontalSlownessUsed><backazimuthUsed>false</backazimuthUsed><weight>1</weight></arrival><arrival><pickID>de.gempa.tb2.Pick/20250414091616.124359.162893</pickID><phase>P</phase><azimuth>174.6775360107422</azimuth><distance>0.5138218998908997</distance><timeResidual>-1.674384593963623</timeResidual><timeUsed>true</timeUsed><horizontalSlownessUsed>false</horizontalSlownessUsed><backazimuthUsed>false</backazimuthUsed><weight>1</weight></arrival><arrival><pickID>de.gempa.tb2.Pick/20250414091622.236801.162897</pickID><phase>S</phase><azimuth>186.9835968017578</azimuth><distance>0.22997193038463593</distance><timeResidual>-0.21710920333862305</timeResidual><timeUsed>true</timeUsed><horizontalSlownessUsed>false</horizontalSlownessUsed><backazimuthUsed>false</backazimuthUsed><weight>1</weight></arrival><arrival><pickID>de.gempa.tb2.Pick/20250414091627.637546.162900</pickID><phase>P</phase><azimuth>126.56517028808594</azimuth><distance>0.5875312685966492</distance><timeResidual>1.1348509788513184</timeResidual><timeUsed>true</timeUsed><horizontalSlownessUsed>false</horizontalSlownessUsed><backazimuthUsed>false</backazimuthUsed><weight>1</weight></arrival><arrival><pickID>de.gempa.tb2.Pick/20250414091643.739926.162915</pickID><phase>S</phase><azimuth>126.56517028808594</azimuth><distance>0.5875312685966492</distance><timeResidual>-0.14183759689331055</timeResidual><timeUsed>true</timeUsed><horizontalSlownessUsed>false</horizontalSlownessUsed><backazimuthUsed>false</backazimuthUsed><weight>1</weight></arrival><magnitude publicID="de.gempa.tb2.Magnitude/20250414091643.777603.36144"><magnitude><value>1.4876394751794888</value></magnitude><type>M</type><methodID>weighted average</methodID><stationCount>4</stationCount></magnitude></origin><event publicID="gempa2025hiyu"><preferredOriginID>de.gempa.tb2.Origin/20250414091643.749757.69159</preferredOriginID><preferredMagnitudeID>de.gempa.tb2.Magnitude/20250414091643.777603.36144</preferredMagnitudeID><description><text>Switzerland</text><type>region name</type></description><originReference>de.gempa.tb2.Origin/20250414091643.749757.69159</originReference></event></EventParameters></seiscomp>