<?xml version="1.0" encoding="UTF-8"?>
<seiscomp xmlns="http://geofon.gfz-potsdam.de/ns/seiscomp3-schema/0.13" version="0.13"><EventParameters><pick publicID="de.gempa.tb1.Pick/20250412113028.785994.123560"><time><value>2025-04-12T11:30:23.418393Z</value></time><waveformID networkCode="CX" stationCode="PB01" channelCode="HHZ"/><filterID>ITAPER(4)&gt;&gt;BW(4,4,20)</filterID><methodID>AIC</methodID><horizontalSlowness><value>18.712814860823315</value></horizontalSlowness><backazimuth><value>318.1856512593158</value></backazimuth><phaseHint>P</phaseHint><evaluationMode>automatic</evaluationMode><comment><text>21.52122539511857</text><id>DFX:rectilinearity</id></comment><comment><text>70.16701533225935</text><id>SNR</id></comment></pick><pick publicID="de.gempa.tb1.Pick/20250412113035.688104.123564"><time><value>2025-04-12T11:30:30.088393Z</value></time><waveformID networkCode="CX" stationCode="PB03" channelCode="HHZ"/><filterID>ITAPER(4)&gt;&gt;BW(4,4,20)</filterID><methodID>AIC</methodID><horizontalSlowness><value>14.38826205983534</value></horizontalSlowness><backazimuth><value>85.9473533003946</value></backazimuth><phaseHint>P</phaseHint><evaluationMode>automatic</evaluationMode><comment><text>5.929591798662341</text><id>DFX:rectilinearity</id></comment><comment><text>9.604377292984079</text><id>SNR</id></comment></pick><pick publicID="de.gempa.tb1.Pick/20250412113036.500592.123566"><time><value>2025-04-12T11:30:28.918393Z</value></time><waveformID networkCode="CX" stationCode="PB02" channelCode="HHZ"/><filterID>ITAPER(4)&gt;&gt;BW(4,4,20)</filterID><methodID>AIC</methodID><horizontalSlowness><value>22.291176506412203</value></horizontalSlowness><backazimuth><value>73.61025615641177</value></backazimuth><phaseHint>P</phaseHint><evaluationMode>automatic</evaluationMode><comment><text>39.42428885589466</text><id>DFX:rectilinearity</id></comment><comment><text>13.842255684610393</text><id>SNR</id></comment></pick><pick publicID="de.gempa.tb1.Pick/20250412113039.163709.123568"><time><value>2025-04-12T11:30:31.748397Z</value></time><waveformID networkCode="CX" stationCode="PB07" channelCode="HHZ"/><filterID>ITAPER(4)&gt;&gt;BW(4,4,20)</filterID><methodID>AIC</methodID><horizontalSlowness><value>21.905867676527045</value></horizontalSlowness><backazimuth><value>269.570376132188</value></backazimuth><phaseHint>P</phaseHint><evaluationMode>automatic</evaluationMode><comment><text>394.68473544529257</text><id>DFX:rectilinearity</id></comment><comment><text>37.51697848274749</text><id>SNR</id></comment></pick><pick publicID="de.gempa.tb1.Pick/20250412113039.802334.123570"><time><value>2025-04-12T11:30:32.988393Z</value></time><waveformID networkCode="CX" stationCode="PB08" channelCode="HHZ"/><filterID>ITAPER(4)&gt;&gt;BW(4,4,20)</filterID><methodID>AIC</methodID><horizontalSlowness><value>12.84537601166286</value></horizontalSlowness><backazimuth><value>214.35343180887884</value></backazimuth><phaseHint>P</phaseHint><evaluationMode>automatic</evaluationMode><comment><text>39.455195858453095</text><id>DFX:rectilinearity</id></comment><comment><text>7.639271184266981</text><id>SNR</id></comment></pick><pick publicID="de.gempa.tb1.Pick/20250412113043.769334.123574"><time><value>2025-04-12T11:30:36.798393Z</value></time><waveformID networkCode="CX" stationCode="PB01" channelCode="HHN"/><filterID>ITAPER(2)&gt;&gt;BW(3,3,20)</filterID><methodID>L2-AIC-GRID</methodID><horizontalSlowness><value>21.387795970012633</value></horizontalSlowness><backazimuth><value>205.47446878487628</value></backazimuth><phaseHint>S</phaseHint><evaluationMode>automatic</evaluationMode><comment><text>154.16472095596129</text><id>DFX:rectilinearity</id></comment><comment><text>de.gempa.tb1.Pick/20250412113028.785994.123560</text><id>RefPickID</id></comment><comment><text>10.82796007176359</text><id>SNR</id></comment></pick><pick publicID="de.gempa.tb1.Pick/20250412113056.474682.123575"><time><value>2025-04-12T11:30:45.968393Z</value></time><waveformID networkCode="CX" stationCode="PB02" channelCode="HHN"/><filterID>ITAPER(2)&gt;&gt;BW(3,3,20)</filterID><methodID>L2-AIC-GRID</methodID><horizontalSlowness><value>22.634580264273954</value></horizontalSlowness><backazimuth><value>241.88679703883176</value></backazimuth><phaseHint>S</phaseHint><evaluationMode>automatic</evaluationMode><comment><text>441.918033460181</text><id>DFX:rectilinearity</id></comment><comment><text>de.gempa.tb1.Pick/20250412113036.500592.123566</text><id>RefPickID</id></comment><comment><text>6.54862153782172</text><id>SNR</id></comment></pick><origin publicID="de.gempa.tb1.Origin/20250412113056.477958.81265"><time><value>2025-04-12T11:30:06.880795Z</value><uncertainty>1.034950852394104</uncertainty></time><latitude><value>-21.40898895263672</value><uncertainty>4.693324565887451</uncertainty></latitude><longitude><value>-68.62010955810547</value><uncertainty>5.149735450744629</uncertainty></longitude><depth><value>0</value></depth><depthType>operator assigned</depthType><methodID>LOCSAT</methodID><earthModelID>iasp91_scanloc</earthModelID><quality><associatedPhaseCount>7</associatedPhaseCount><usedPhaseCount>7</usedPhaseCount><associatedStationCount>5</associatedStationCount><usedStationCount>5</usedStationCount><depthPhaseCount>0</depthPhaseCount><standardError>0.7271315406180451</standardError><azimuthalGap>260.3349151611328</azimuthalGap><maximumDistance>1.3566123247146606</maximumDistance><minimumDistance>0.8872359395027161</minimumDistance><medianDistance>1.1926014423370361</medianDistance></quality><uncertainty><minHorizontalUncertainty>9.9017915725708</minHorizontalUncertainty><maxHorizontalUncertainty>11.192398071289062</maxHorizontalUncertainty><azimuthMaxHorizontalUncertainty>110.30860900878906</azimuthMaxHorizontalUncertainty><preferredDescription>horizontal uncertainty</preferredDescription></uncertainty><evaluationMode>automatic</evaluationMode><comment><text>0.58</text><id>mismatchScore</id></comment><arrival><pickID>de.gempa.tb1.Pick/20250412113028.785994.123560</pickID><phase>P</phase><azimuth>294.06097412109375</azimuth><distance>0.8872359395027161</distance><timeResidual>-0.4811286926269531</timeResidual><timeUsed>true</timeUsed><horizontalSlownessUsed>false</horizontalSlownessUsed><backazimuthUsed>false</backazimuthUsed><weight>1</weight></arrival><arrival><pickID>de.gempa.tb1.Pick/20250412113035.688104.123564</pickID><phase>P</phase><azimuth>238.6572723388672</azimuth><distance>1.2307286262512207</distance><timeResidual>-0.39841461181640625</timeResidual><timeUsed>true</timeUsed><horizontalSlownessUsed>false</horizontalSlownessUsed><backazimuthUsed>false</backazimuthUsed><weight>1</weight></arrival><arrival><pickID>de.gempa.tb1.Pick/20250412113036.500592.123566</pickID><phase>P</phase><azimuth>274.0397644042969</azimuth><distance>1.1926014423370361</distance><timeResidual>-0.8379573822021484</timeResidual><timeUsed>true</timeUsed><horizontalSlownessUsed>false</horizontalSlownessUsed><backazimuthUsed>false</backazimuthUsed><weight>1</weight></arrival><arrival><pickID>de.gempa.tb1.Pick/20250412113039.163709.123568</pickID><phase>P</phase><azimuth>254.7533721923828</azimuth><distance>1.220142126083374</distance><timeResidual>1.4642715454101562</timeResidual><timeUsed>true</timeUsed><horizontalSlownessUsed>false</horizontalSlownessUsed><backazimuthUsed>false</backazimuthUsed><weight>1</weight></arrival><arrival><pickID>de.gempa.tb1.Pick/20250412113039.802334.123570</pickID><phase>P</phase><azimuth>338.3223571777344</azimuth><distance>1.3566123247146606</distance><timeResidual>0.11334609985351562</timeResidual><timeUsed>true</timeUsed><horizontalSlownessUsed>false</horizontalSlownessUsed><backazimuthUsed>false</backazimuthUsed><weight>1</weight></arrival><arrival><pickID>de.gempa.tb1.Pick/20250412113043.769334.123574</pickID><phase>S</phase><azimuth>294.06097412109375</azimuth><distance>0.8872359395027161</distance><timeResidual>0.5402097702026367</timeResidual><timeUsed>true</timeUsed><horizontalSlownessUsed>false</horizontalSlownessUsed><backazimuthUsed>false</backazimuthUsed><weight>1</weight></arrival><arrival><pickID>de.gempa.tb1.Pick/20250412113056.474682.123575</pickID><phase>S</phase><azimuth>274.0397644042969</azimuth><distance>1.1926014423370361</distance><timeResidual>-0.3998565673828125</timeResidual><timeUsed>true</timeUsed><horizontalSlownessUsed>false</horizontalSlownessUsed><backazimuthUsed>false</backazimuthUsed><weight>1</weight></arrival><magnitude publicID="de.gempa.tb1.Magnitude/20250412113127.767808.217753"><magnitude><value>2.3088800839692567</value></magnitude><type>M</type><methodID>weighted average</methodID><stationCount>5</stationCount></magnitude></origin><event publicID="gempa2025hflf"><preferredOriginID>de.gempa.tb1.Origin/20250412113056.477958.81265</preferredOriginID><preferredMagnitudeID>de.gempa.tb1.Magnitude/20250412113127.767808.217753</preferredMagnitudeID><description><text>Chile-Bolivia Border Region</text><type>region name</type></description><originReference>de.gempa.tb1.Origin/20250412113056.477958.81265</originReference></event></EventParameters></seiscomp>