<?xml version="1.0" encoding="UTF-8"?>
<seiscomp xmlns="http://geofon.gfz-potsdam.de/ns/seiscomp3-schema/0.13" version="0.13"><EventParameters><pick publicID="de.gempa.tb1.Pick/20250413025407.706301.128404"><time><value>2025-04-13T02:54:01.878394Z</value></time><waveformID networkCode="CX" stationCode="PB08" channelCode="HHZ"/><filterID>ITAPER(4)&gt;&gt;BW(4,4,20)</filterID><methodID>AIC</methodID><horizontalSlowness><value>16.72431176760296</value></horizontalSlowness><backazimuth><value>203.35705643858444</value></backazimuth><phaseHint>P</phaseHint><evaluationMode>automatic</evaluationMode><comment><text>982.256425459679</text><id>DFX:rectilinearity</id></comment><comment><text>155.56014625129325</text><id>SNR</id></comment></pick><pick publicID="de.gempa.tb1.Pick/20250413025414.293944.128408"><time><value>2025-04-13T02:54:08.770001Z</value></time><waveformID networkCode="CX" stationCode="PATCX" channelCode="HHZ"/><filterID>ITAPER(4)&gt;&gt;BW(4,4,20)</filterID><methodID>AIC</methodID><horizontalSlowness><value>2.1442526352739049</value></horizontalSlowness><backazimuth><value>94.43326372730345</value></backazimuth><phaseHint>P</phaseHint><evaluationMode>automatic</evaluationMode><comment><text>1496.5587859134957</text><id>DFX:rectilinearity</id></comment><comment><text>83.11268853225641</text><id>SNR</id></comment></pick><pick publicID="de.gempa.tb1.Pick/20250413025416.770704.128411"><time><value>2025-04-13T02:54:10.7Z</value></time><waveformID networkCode="CX" stationCode="PSGCX" channelCode="HHZ"/><filterID>ITAPER(4)&gt;&gt;BW(4,4,20)</filterID><methodID>AIC</methodID><horizontalSlowness><value>8.55291965165593</value></horizontalSlowness><backazimuth><value>146.10989726140355</value></backazimuth><phaseHint>P</phaseHint><evaluationMode>automatic</evaluationMode><comment><text>163.31367010819594</text><id>DFX:rectilinearity</id></comment><comment><text>149.32867770981068</text><id>SNR</id></comment></pick><pick publicID="de.gempa.tb1.Pick/20250413025422.25745.128413"><time><value>2025-04-13T02:54:13.118394Z</value></time><waveformID networkCode="CX" stationCode="PB08" channelCode="HHN"/><filterID>ITAPER(2)&gt;&gt;BW(3,3,20)</filterID><methodID>L2-AIC-GRID</methodID><horizontalSlowness><value>16.31990273090997</value></horizontalSlowness><backazimuth><value>204.02075042184822</value></backazimuth><phaseHint>S</phaseHint><evaluationMode>automatic</evaluationMode><comment><text>51504.08423317437</text><id>DFX:rectilinearity</id></comment><comment><text>de.gempa.tb1.Pick/20250413025407.706301.128404</text><id>RefPickID</id></comment><comment><text>12.730981125842563</text><id>SNR</id></comment></pick><pick publicID="de.gempa.tb1.Pick/20250413025423.646099.128415"><time><value>2025-04-13T02:54:17.108393Z</value></time><waveformID networkCode="CX" stationCode="PB03" channelCode="HHZ"/><filterID>ITAPER(4)&gt;&gt;BW(4,4,20)</filterID><methodID>AIC</methodID><horizontalSlowness><value>5.871538375958811</value></horizontalSlowness><backazimuth><value>31.339432756094567</value></backazimuth><phaseHint>P</phaseHint><evaluationMode>automatic</evaluationMode><comment><text>115.0140562847066</text><id>DFX:rectilinearity</id></comment><comment><text>27.298253816714073</text><id>SNR</id></comment></pick><pick publicID="de.gempa.tb1.Pick/20250413025426.981603.128417"><time><value>2025-04-13T02:54:12.82Z</value></time><waveformID networkCode="CX" stationCode="PB09" channelCode="HHZ"/><filterID>ITAPER(4)&gt;&gt;BW(4,4,20)</filterID><methodID>AIC</methodID><horizontalSlowness><value>16.490150255831335</value></horizontalSlowness><backazimuth><value>58.52797389827177</value></backazimuth><phaseHint>P</phaseHint><evaluationMode>automatic</evaluationMode><comment><text>403.07957753224406</text><id>DFX:rectilinearity</id></comment><comment><text>25.35275300895633</text><id>SNR</id></comment></pick><pick publicID="de.gempa.tb1.Pick/20250413025429.515244.128419"><time><value>2025-04-13T02:54:23.248393Z</value></time><waveformID networkCode="CX" stationCode="PB16" channelCode="HHZ"/><filterID>ITAPER(4)&gt;&gt;BW(4,4,20)</filterID><methodID>AIC</methodID><horizontalSlowness><value>10.999170848901931</value></horizontalSlowness><backazimuth><value>189.84013863754063</value></backazimuth><phaseHint>P</phaseHint><evaluationMode>automatic</evaluationMode><comment><text>10.801964241565305</text><id>DFX:rectilinearity</id></comment><comment><text>84.56963939929705</text><id>SNR</id></comment></pick><pick publicID="de.gempa.tb1.Pick/20250413025433.24783.128421"><time><value>2025-04-13T02:54:25.590001Z</value></time><waveformID networkCode="CX" stationCode="PATCX" channelCode="HHN"/><filterID>ITAPER(2)&gt;&gt;BW(3,3,20)</filterID><methodID>L2-AIC-GRID</methodID><horizontalSlowness><value>19.480263050445743</value></horizontalSlowness><backazimuth><value>115.36696954715195</value></backazimuth><phaseHint>S</phaseHint><evaluationMode>automatic</evaluationMode><comment><text>28381.789181206546</text><id>DFX:rectilinearity</id></comment><comment><text>de.gempa.tb1.Pick/20250413025414.293944.128408</text><id>RefPickID</id></comment><comment><text>8.305063763287425</text><id>SNR</id></comment></pick><pick publicID="de.gempa.tb1.Pick/20250413025433.692342.128422"><time><value>2025-04-13T02:54:25.098394Z</value></time><waveformID networkCode="CX" stationCode="PB06" channelCode="HHZ"/><filterID>ITAPER(4)&gt;&gt;BW(4,4,20)</filterID><methodID>AIC</methodID><horizontalSlowness><value>10.785294608244993</value></horizontalSlowness><backazimuth><value>329.4677186739082</value></backazimuth><phaseHint>P</phaseHint><evaluationMode>automatic</evaluationMode><comment><text>116.70924264415908</text><id>DFX:rectilinearity</id></comment><comment><text>12.670252831691057</text><id>SNR</id></comment></pick><pick publicID="de.gempa.tb1.Pick/20250413025438.579809.128426"><time><value>2025-04-13T02:54:28.72Z</value></time><waveformID networkCode="CX" stationCode="PSGCX" channelCode="HHN"/><filterID>ITAPER(2)&gt;&gt;BW(3,3,20)</filterID><methodID>L2-AIC-GRID</methodID><horizontalSlowness><value>18.710018028057235</value></horizontalSlowness><backazimuth><value>156.92190667664323</value></backazimuth><phaseHint>S</phaseHint><evaluationMode>automatic</evaluationMode><comment><text>13177.13777129629</text><id>DFX:rectilinearity</id></comment><comment><text>de.gempa.tb1.Pick/20250413025416.770704.128411</text><id>RefPickID</id></comment><comment><text>8.145082704332731</text><id>SNR</id></comment></pick><pick publicID="de.gempa.tb1.Pick/20250413025450.640521.128430"><time><value>2025-04-13T02:54:40.128393Z</value></time><waveformID networkCode="CX" stationCode="PB03" channelCode="HHN"/><filterID>ITAPER(2)&gt;&gt;BW(3,3,20)</filterID><methodID>L2-AIC-GRID</methodID><horizontalSlowness><value>20.73803516963138</value></horizontalSlowness><backazimuth><value>251.09214003388553</value></backazimuth><phaseHint>S</phaseHint><evaluationMode>automatic</evaluationMode><comment><text>2404.810025733671</text><id>DFX:rectilinearity</id></comment><comment><text>de.gempa.tb1.Pick/20250413025423.646099.128415</text><id>RefPickID</id></comment><comment><text>9.593423583742618</text><id>SNR</id></comment></pick><pick publicID="de.gempa.tb1.Pick/20250413025502.636076.128433"><time><value>2025-04-13T02:54:51.778394Z</value></time><waveformID networkCode="CX" stationCode="PB06" channelCode="HHN"/><filterID>ITAPER(2)&gt;&gt;BW(3,3,20)</filterID><methodID>L2-AIC-GRID</methodID><horizontalSlowness><value>20.373795209332158</value></horizontalSlowness><backazimuth><value>117.49829018497286</value></backazimuth><phaseHint>S</phaseHint><evaluationMode>automatic</evaluationMode><comment><text>541.5847100364715</text><id>DFX:rectilinearity</id></comment><comment><text>de.gempa.tb1.Pick/20250413025433.692342.128422</text><id>RefPickID</id></comment><comment><text>9.280388983060561</text><id>SNR</id></comment></pick><origin publicID="de.gempa.tb1.Origin/20250413025502.63946.99084"><time><value>2025-04-13T02:53:48.345131Z</value><uncertainty>0.6910567879676819</uncertainty></time><latitude><value>-20.430458068847656</value><uncertainty>2.72287917137146</uncertainty></latitude><longitude><value>-69.11085510253906</value><uncertainty>5.518273830413818</uncertainty></longitude><depth><value>94.91378784179688</value><uncertainty>6.466351985931396</uncertainty></depth><depthType>from location</depthType><methodID>LOCSAT</methodID><earthModelID>iasp91_scanloc</earthModelID><quality><associatedPhaseCount>12</associatedPhaseCount><usedPhaseCount>12</usedPhaseCount><associatedStationCount>7</associatedStationCount><usedStationCount>7</usedStationCount><depthPhaseCount>0</depthPhaseCount><standardError>0.6410514122562154</standardError><azimuthalGap>193.027099609375</azimuthalGap><maximumDistance>2.3044939041137695</maximumDistance><minimumDistance>0.29061877727508545</minimumDistance><medianDistance>1.3646283149719238</medianDistance></quality><uncertainty><minHorizontalUncertainty>5.827255725860596</minHorizontalUncertainty><maxHorizontalUncertainty>11.839543342590332</maxHorizontalUncertainty><azimuthMaxHorizontalUncertainty>87.93302154541016</azimuthMaxHorizontalUncertainty><preferredDescription>horizontal uncertainty</preferredDescription></uncertainty><evaluationMode>automatic</evaluationMode><evaluationStatus>confirmed</evaluationStatus><comment><text>0.44</text><id>mismatchScore</id></comment><comment><text>mismatchScore</text><id>scevalMethod</id></comment><arrival><pickID>de.gempa.tb1.Pick/20250413025407.706301.128404</pickID><phase>P</phase><azimuth>352.0944519042969</azimuth><distance>0.29061877727508545</distance><timeResidual>-0.412562370300293</timeResidual><timeUsed>true</timeUsed><horizontalSlownessUsed>false</horizontalSlownessUsed><backazimuthUsed>false</backazimuthUsed><weight>1</weight></arrival><arrival><pickID>de.gempa.tb1.Pick/20250413025414.293944.128408</pickID><phase>P</phase><azimuth>248.1248016357422</azimuth><distance>1.0504323244094849</distance><timeResidual>-0.18692493438720703</timeResidual><timeUsed>true</timeUsed><horizontalSlownessUsed>false</horizontalSlownessUsed><backazimuthUsed>false</backazimuthUsed><weight>1</weight></arrival><arrival><pickID>de.gempa.tb1.Pick/20250413025416.770704.128411</pickID><phase>P</phase><azimuth>310.8819885253906</azimuth><distance>1.2622073888778687</distance><timeResidual>-0.7320775985717773</timeResidual><timeUsed>true</timeUsed><horizontalSlownessUsed>false</horizontalSlownessUsed><backazimuthUsed>false</backazimuthUsed><weight>1</weight></arrival><arrival><pickID>de.gempa.tb1.Pick/20250413025422.25745.128413</pickID><phase>S</phase><azimuth>352.0944519042969</azimuth><distance>0.29061877727508545</distance><timeResidual>0.13731861114501953</timeResidual><timeUsed>true</timeUsed><horizontalSlownessUsed>false</horizontalSlownessUsed><backazimuthUsed>false</backazimuthUsed><weight>1</weight></arrival><arrival><pickID>de.gempa.tb1.Pick/20250413025423.646099.128415</pickID><phase>P</phase><azimuth>200.29730224609375</azimuth><distance>1.7178584337234497</distance><timeResidual>0.028227806091308594</timeResidual><timeUsed>true</timeUsed><horizontalSlownessUsed>false</horizontalSlownessUsed><backazimuthUsed>false</backazimuthUsed><weight>1</weight></arrival><arrival><pickID>de.gempa.tb1.Pick/20250413025426.981603.128417</pickID><phase>P</phase><azimuth>185.12155151367188</azimuth><distance>1.3646283149719238</distance><timeResidual>0.15905284881591797</timeResidual><timeUsed>true</timeUsed><horizontalSlownessUsed>false</horizontalSlownessUsed><backazimuthUsed>false</backazimuthUsed><weight>1</weight></arrival><arrival><pickID>de.gempa.tb1.Pick/20250413025429.515244.128419</pickID><phase>P</phase><azimuth>349.74578857421875</azimuth><distance>2.1177842617034912</distance><timeResidual>0.9719038009643555</timeResidual><timeUsed>true</timeUsed><horizontalSlownessUsed>false</horizontalSlownessUsed><backazimuthUsed>false</backazimuthUsed><weight>1</weight></arrival><arrival><pickID>de.gempa.tb1.Pick/20250413025433.24783.128421</pickID><phase>S</phase><azimuth>248.1248016357422</azimuth><distance>1.0504323244094849</distance><timeResidual>0.7373361587524414</timeResidual><timeUsed>true</timeUsed><horizontalSlownessUsed>false</horizontalSlownessUsed><backazimuthUsed>false</backazimuthUsed><weight>1</weight></arrival><arrival><pickID>de.gempa.tb1.Pick/20250413025433.692342.128422</pickID><phase>P</phase><azimuth>190.64833068847656</azimuth><distance>2.3044939041137695</distance><timeResidual>0.387272834777832</timeResidual><timeUsed>true</timeUsed><horizontalSlownessUsed>false</horizontalSlownessUsed><backazimuthUsed>false</backazimuthUsed><weight>1</weight></arrival><arrival><pickID>de.gempa.tb1.Pick/20250413025438.579809.128426</pickID><phase>S</phase><azimuth>310.8819885253906</azimuth><distance>1.2622073888778687</distance><timeResidual>-0.5529451370239258</timeResidual><timeUsed>true</timeUsed><horizontalSlownessUsed>false</horizontalSlownessUsed><backazimuthUsed>false</backazimuthUsed><weight>1</weight></arrival><arrival><pickID>de.gempa.tb1.Pick/20250413025450.640521.128430</pickID><phase>S</phase><azimuth>200.29730224609375</azimuth><distance>1.7178584337234497</distance><timeResidual>0.7457952499389648</timeResidual><timeUsed>true</timeUsed><horizontalSlownessUsed>false</horizontalSlownessUsed><backazimuthUsed>false</backazimuthUsed><weight>1</weight></arrival><arrival><pickID>de.gempa.tb1.Pick/20250413025502.636076.128433</pickID><phase>S</phase><azimuth>190.64833068847656</azimuth><distance>2.3044939041137695</distance><timeResidual>-1.2826242446899414</timeResidual><timeUsed>true</timeUsed><horizontalSlownessUsed>false</horizontalSlownessUsed><backazimuthUsed>false</backazimuthUsed><weight>1</weight></arrival><magnitude publicID="de.gempa.tb1.Magnitude/20250413025516.000179.305255"><magnitude><value>2.9188052296928526</value></magnitude><type>M</type><methodID>weighted average</methodID><stationCount>7</stationCount></magnitude></origin><event publicID="gempa2025hgqa"><preferredOriginID>de.gempa.tb1.Origin/20250413025502.63946.99084</preferredOriginID><preferredMagnitudeID>de.gempa.tb1.Magnitude/20250413025516.000179.305255</preferredMagnitudeID><description><text>Northern Chile</text><type>region name</type></description><originReference>de.gempa.tb1.Origin/20250413025502.63946.99084</originReference></event></EventParameters></seiscomp>