<?xml version="1.0" encoding="UTF-8"?>
<seiscomp xmlns="http://geofon.gfz-potsdam.de/ns/seiscomp3-schema/0.13" version="0.13"><EventParameters><pick publicID="de.gempa.tb1.Pick/20250411142347.597893.118121"><time><value>2025-04-11T14:23:41.398394Z</value></time><waveformID networkCode="CX" stationCode="PB01" channelCode="HHZ"/><filterID>ITAPER(4)&gt;&gt;BW(4,4,20)</filterID><methodID>AIC</methodID><horizontalSlowness><value>18.66813180481579</value></horizontalSlowness><backazimuth><value>358.4736425118665</value></backazimuth><phaseHint>P</phaseHint><evaluationMode>automatic</evaluationMode><comment><text>37.94255542556523</text><id>DFX:rectilinearity</id></comment><comment><text>29.483514859243176</text><id>SNR</id></comment></pick><pick publicID="de.gempa.tb1.Pick/20250411142350.515259.118123"><time><value>2025-04-11T14:23:41.528393Z</value></time><waveformID networkCode="CX" stationCode="PB08" channelCode="HHZ"/><filterID>ITAPER(4)&gt;&gt;BW(4,4,20)</filterID><methodID>AIC</methodID><horizontalSlowness><value>14.902227619874042</value></horizontalSlowness><backazimuth><value>91.60449577493506</value></backazimuth><phaseHint>P</phaseHint><evaluationMode>automatic</evaluationMode><comment><text>13.8815498253534</text><id>DFX:rectilinearity</id></comment><comment><text>9.075348531658488</text><id>SNR</id></comment></pick><pick publicID="de.gempa.tb1.Pick/20250411142403.586568.118127"><time><value>2025-04-11T14:23:54.738394Z</value></time><waveformID networkCode="CX" stationCode="PB01" channelCode="HHN"/><filterID>ITAPER(2)&gt;&gt;BW(3,3,20)</filterID><methodID>L2-AIC-GRID</methodID><horizontalSlowness><value>22.655141052691917</value></horizontalSlowness><backazimuth><value>172.84073058587643</value></backazimuth><phaseHint>S</phaseHint><evaluationMode>automatic</evaluationMode><comment><text>42.13220065245634</text><id>DFX:rectilinearity</id></comment><comment><text>de.gempa.tb1.Pick/20250411142347.597893.118121</text><id>RefPickID</id></comment><comment><text>8.734859484208519</text><id>SNR</id></comment></pick><pick publicID="de.gempa.tb1.Pick/20250411142404.038277.118128"><time><value>2025-04-11T14:23:49.258393Z</value></time><waveformID networkCode="CX" stationCode="PB07" channelCode="HHZ"/><filterID>ITAPER(4)&gt;&gt;BW(4,4,20)</filterID><methodID>AIC</methodID><horizontalSlowness><value>22.81365026347015</value></horizontalSlowness><backazimuth><value>127.55305675285902</value></backazimuth><phaseHint>P</phaseHint><evaluationMode>automatic</evaluationMode><comment><text>144.30803601199585</text><id>DFX:rectilinearity</id></comment><comment><text>12.986147388776475</text><id>SNR</id></comment></pick><pick publicID="de.gempa.tb1.Pick/20250411142404.660905.118130"><time><value>2025-04-11T14:23:54.268393Z</value></time><waveformID networkCode="CX" stationCode="PB08" channelCode="HHN"/><filterID>ITAPER(2)&gt;&gt;BW(3,3,20)</filterID><methodID>L2-AIC-GRID</methodID><horizontalSlowness><value>11.793833125304237</value></horizontalSlowness><backazimuth><value>122.07135571900506</value></backazimuth><phaseHint>S</phaseHint><evaluationMode>automatic</evaluationMode><comment><text>13.620501934254579</text><id>DFX:rectilinearity</id></comment><comment><text>de.gempa.tb1.Pick/20250411142350.515259.118123</text><id>RefPickID</id></comment><comment><text>9.397041827912727</text><id>SNR</id></comment></pick><pick publicID="de.gempa.tb1.Pick/20250411142406.913339.118132"><time><value>2025-04-11T14:23:47.35Z</value></time><waveformID networkCode="CX" stationCode="PB09" channelCode="HHZ"/><filterID>ITAPER(4)&gt;&gt;BW(4,4,20)</filterID><methodID>AIC</methodID><horizontalSlowness><value>12.20630376486813</value></horizontalSlowness><backazimuth><value>313.69146530373496</value></backazimuth><phaseHint>P</phaseHint><evaluationMode>automatic</evaluationMode><comment><text>7.970888249802778</text><id>DFX:rectilinearity</id></comment><comment><text>11.632353881195352</text><id>SNR</id></comment></pick><origin publicID="de.gempa.tb1.Origin/20250411142407.015512.57661"><time><value>2025-04-11T14:23:24.743079Z</value><uncertainty>1.2936023473739624</uncertainty></time><latitude><value>-20.655027389526367</value><uncertainty>9.427340507507324</uncertainty></latitude><longitude><value>-69.07173156738281</value><uncertainty>25.09748077392578</uncertainty></longitude><depth><value>107.30660247802734</value><uncertainty>12.49736499786377</uncertainty></depth><depthType>from location</depthType><methodID>LOCSAT</methodID><earthModelID>iasp91_scanloc</earthModelID><quality><associatedPhaseCount>6</associatedPhaseCount><usedPhaseCount>6</usedPhaseCount><associatedStationCount>4</associatedStationCount><usedStationCount>4</usedStationCount><depthPhaseCount>0</depthPhaseCount><standardError>0.12101165538894217</standardError><azimuthalGap>196.46377563476562</azimuthalGap><maximumDistance>1.309459686279297</maximumDistance><minimumDistance>0.5170019865036011</minimumDistance><medianDistance>0.5480329990386963</medianDistance></quality><uncertainty><minHorizontalUncertainty>11.652827262878418</minHorizontalUncertainty><maxHorizontalUncertainty>56.30228805541992</maxHorizontalUncertainty><azimuthMaxHorizontalUncertainty>107.45407104492188</azimuthMaxHorizontalUncertainty><preferredDescription>horizontal uncertainty</preferredDescription></uncertainty><evaluationMode>automatic</evaluationMode><evaluationStatus>confirmed</evaluationStatus><comment><text>0.10</text><id>mismatchScore</id></comment><comment><text>mismatchScore</text><id>scevalMethod</id></comment><arrival><pickID>de.gempa.tb1.Pick/20250411142347.597893.118121</pickID><phase>P</phase><azimuth>225.11288452148438</azimuth><distance>0.5480329990386963</distance><timeResidual>-0.2571754455566406</timeResidual><timeUsed>true</timeUsed><horizontalSlownessUsed>false</horizontalSlownessUsed><backazimuthUsed>false</backazimuthUsed><weight>1</weight></arrival><arrival><pickID>de.gempa.tb1.Pick/20250411142350.515259.118123</pickID><phase>P</phase><azimuth>351.4646911621094</azimuth><distance>0.5170019865036011</distance><timeResidual>0.0899505615234375</timeResidual><timeUsed>true</timeUsed><horizontalSlownessUsed>false</horizontalSlownessUsed><backazimuthUsed>false</backazimuthUsed><weight>1</weight></arrival><arrival><pickID>de.gempa.tb1.Pick/20250411142403.586568.118127</pickID><phase>S</phase><azimuth>225.11288452148438</azimuth><distance>0.5480329990386963</distance><timeResidual>0.06671333312988281</timeResidual><timeUsed>true</timeUsed><horizontalSlownessUsed>false</horizontalSlownessUsed><backazimuthUsed>false</backazimuthUsed><weight>1</weight></arrival><arrival><pickID>de.gempa.tb1.Pick/20250411142404.038277.118128</pickID><phase>P</phase><azimuth>215.33428955078125</azimuth><distance>1.309459686279297</distance><timeResidual>0.09108161926269531</timeResidual><timeUsed>true</timeUsed><horizontalSlownessUsed>false</horizontalSlownessUsed><backazimuthUsed>false</backazimuthUsed><weight>1</weight></arrival><arrival><pickID>de.gempa.tb1.Pick/20250411142404.660905.118130</pickID><phase>S</phase><azimuth>351.4646911621094</azimuth><distance>0.5170019865036011</distance><timeResidual>-0.01580810546875</timeResidual><timeUsed>true</timeUsed><horizontalSlownessUsed>false</horizontalSlownessUsed><backazimuthUsed>false</backazimuthUsed><weight>1</weight></arrival><arrival><pickID>de.gempa.tb1.Pick/20250411142406.913339.118132</pickID><phase>P</phase><azimuth>187.928466796875</azimuth><distance>1.1467431783676147</distance><timeResidual>0.0252227783203125</timeResidual><timeUsed>true</timeUsed><horizontalSlownessUsed>false</horizontalSlownessUsed><backazimuthUsed>false</backazimuthUsed><weight>1</weight></arrival></origin><event publicID="gempa2025hduz"><preferredOriginID>de.gempa.tb1.Origin/20250411142407.015512.57661</preferredOriginID><description><text>Northern Chile</text><type>region name</type></description><originReference>de.gempa.tb1.Origin/20250411142407.015512.57661</originReference></event></EventParameters></seiscomp>