<?xml version="1.0" encoding="UTF-8"?>
<seiscomp xmlns="http://geofon.gfz-potsdam.de/ns/seiscomp3-schema/0.13" version="0.13"><EventParameters><pick publicID="de.gempa.tb1.Pick/20250412192754.452094.126237"><time><value>2025-04-12T19:27:45.550001Z</value></time><waveformID networkCode="CX" stationCode="PB09" channelCode="HHZ"/><filterID>ITAPER(4)&gt;&gt;BW(4,4,20)</filterID><methodID>AIC</methodID><horizontalSlowness><value>17.381309851228746</value></horizontalSlowness><backazimuth><value>82.8583424143682</value></backazimuth><phaseHint>P</phaseHint><evaluationMode>automatic</evaluationMode><comment><text>67.64883850259874</text><id>DFX:rectilinearity</id></comment><comment><text>143.704360203583</text><id>SNR</id></comment></pick><pick publicID="de.gempa.tb1.Pick/20250412192754.682517.126239"><time><value>2025-04-12T19:27:49.218393Z</value></time><waveformID networkCode="CX" stationCode="PB01" channelCode="HHZ"/><filterID>ITAPER(4)&gt;&gt;BW(4,4,20)</filterID><methodID>AIC</methodID><horizontalSlowness><value>16.1313939790098</value></horizontalSlowness><backazimuth><value>190.85387832002374</value></backazimuth><phaseHint>P</phaseHint><evaluationMode>automatic</evaluationMode><comment><text>25.30090495871609</text><id>DFX:rectilinearity</id></comment><comment><text>69.431193953649</text><id>SNR</id></comment></pick><pick publicID="de.gempa.tb1.Pick/20250412192756.561143.126241"><time><value>2025-04-12T19:27:51.518393Z</value></time><waveformID networkCode="CX" stationCode="PB02" channelCode="HHZ"/><filterID>ITAPER(4)&gt;&gt;BW(4,4,20)</filterID><methodID>AIC</methodID><horizontalSlowness><value>0.9476911197983582</value></horizontalSlowness><backazimuth><value>82.00722402865571</value></backazimuth><phaseHint>P</phaseHint><evaluationMode>automatic</evaluationMode><comment><text>98.13711518009328</text><id>DFX:rectilinearity</id></comment><comment><text>125.94225190865268</text><id>SNR</id></comment></pick><pick publicID="de.gempa.tb1.Pick/20250412192756.6861.126243"><time><value>2025-04-12T19:27:49.958393Z</value></time><waveformID networkCode="CX" stationCode="PB03" channelCode="HHZ"/><filterID>ITAPER(4)&gt;&gt;BW(4,4,20)</filterID><methodID>AIC</methodID><horizontalSlowness><value>10.349087093282341</value></horizontalSlowness><backazimuth><value>81.74336486743495</value></backazimuth><phaseHint>P</phaseHint><evaluationMode>automatic</evaluationMode><comment><text>42.72025674655491</text><id>DFX:rectilinearity</id></comment><comment><text>66.47839922446649</text><id>SNR</id></comment></pick><pick publicID="de.gempa.tb1.Pick/20250412192800.550305.126245"><time><value>2025-04-12T19:27:52.878391Z</value></time><waveformID networkCode="CX" stationCode="PB06" channelCode="HHZ"/><filterID>ITAPER(4)&gt;&gt;BW(4,4,20)</filterID><methodID>AIC</methodID><horizontalSlowness><value>18.21731710509865</value></horizontalSlowness><backazimuth><value>338.47557234059445</value></backazimuth><phaseHint>P</phaseHint><evaluationMode>automatic</evaluationMode><comment><text>44.932265764738965</text><id>DFX:rectilinearity</id></comment><comment><text>11.944615724686981</text><id>SNR</id></comment></pick><pick publicID="de.gempa.tb1.Pick/20250412192802.27088.126247"><time><value>2025-04-12T19:27:56.779999Z</value></time><waveformID networkCode="CX" stationCode="PATCX" channelCode="HHZ"/><filterID>ITAPER(4)&gt;&gt;BW(4,4,20)</filterID><methodID>AIC</methodID><horizontalSlowness><value>7.431691749055433</value></horizontalSlowness><backazimuth><value>204.898614815501</value></backazimuth><phaseHint>P</phaseHint><evaluationMode>automatic</evaluationMode><comment><text>275.2958289645212</text><id>DFX:rectilinearity</id></comment><comment><text>43.082052534759477</text><id>SNR</id></comment></pick><pick publicID="de.gempa.tb1.Pick/20250412192802.588201.126249"><time><value>2025-04-12T19:27:57.728393Z</value></time><waveformID networkCode="CX" stationCode="PB08" channelCode="HHZ"/><filterID>ITAPER(4)&gt;&gt;BW(4,4,20)</filterID><methodID>AIC</methodID><horizontalSlowness><value>15.596033910022918</value></horizontalSlowness><backazimuth><value>87.51957989742152</value></backazimuth><phaseHint>P</phaseHint><evaluationMode>automatic</evaluationMode><comment><text>15.961551159212345</text><id>DFX:rectilinearity</id></comment><comment><text>8.312812700148243</text><id>SNR</id></comment></pick><pick publicID="de.gempa.tb1.Pick/20250412192812.533369.126251"><time><value>2025-04-12T19:28:05.29Z</value></time><waveformID networkCode="CX" stationCode="PB19" channelCode="HHZ"/><filterID>ITAPER(4)&gt;&gt;BW(4,4,20)</filterID><methodID>AIC</methodID><horizontalSlowness><value>20.538296043607282</value></horizontalSlowness><backazimuth><value>236.4227992107663</value></backazimuth><phaseHint>P</phaseHint><evaluationMode>automatic</evaluationMode><comment><text>15.18926710430109</text><id>DFX:rectilinearity</id></comment><comment><text>11.423462503795687</text><id>SNR</id></comment></pick><pick publicID="de.gempa.tb1.Pick/20250412192813.601437.126253"><time><value>2025-04-12T19:28:06.180001Z</value></time><waveformID networkCode="CX" stationCode="PSGCX" channelCode="HHZ"/><filterID>ITAPER(4)&gt;&gt;BW(4,4,20)</filterID><methodID>AIC</methodID><horizontalSlowness><value>17.6838606957038</value></horizontalSlowness><backazimuth><value>132.42151612307492</value></backazimuth><phaseHint>P</phaseHint><evaluationMode>automatic</evaluationMode><comment><text>21.422795973562547</text><id>DFX:rectilinearity</id></comment><comment><text>28.78121560570445</text><id>SNR</id></comment></pick><pick publicID="de.gempa.tb1.Pick/20250412192817.650214.126255"><time><value>2025-04-12T19:28:06.818393Z</value></time><waveformID networkCode="CX" stationCode="PB03" channelCode="HHN"/><filterID>ITAPER(2)&gt;&gt;BW(3,3,20)</filterID><methodID>L2-AIC-GRID</methodID><horizontalSlowness><value>12.980525146588644</value></horizontalSlowness><backazimuth><value>329.56216562675377</value></backazimuth><phaseHint>S</phaseHint><evaluationMode>automatic</evaluationMode><comment><text>545.0753294597509</text><id>DFX:rectilinearity</id></comment><comment><text>de.gempa.tb1.Pick/20250412192756.6861.126243</text><id>RefPickID</id></comment><comment><text>11.325052898205984</text><id>SNR</id></comment></pick><pick publicID="de.gempa.tb1.Pick/20250412192819.65413.126256"><time><value>2025-04-12T19:28:11.968391Z</value></time><waveformID networkCode="CX" stationCode="PB06" channelCode="HHN"/><filterID>ITAPER(2)&gt;&gt;BW(3,3,20)</filterID><methodID>L2-AIC-GRID</methodID><horizontalSlowness><value>23.163569246363977</value></horizontalSlowness><backazimuth><value>292.0512664955059</value></backazimuth><phaseHint>S</phaseHint><evaluationMode>automatic</evaluationMode><comment><text>362.4306148781128</text><id>DFX:rectilinearity</id></comment><comment><text>de.gempa.tb1.Pick/20250412192800.550305.126245</text><id>RefPickID</id></comment><comment><text>13.20613522584934</text><id>SNR</id></comment></pick><pick publicID="de.gempa.tb1.Pick/20250412192823.410443.126260"><time><value>2025-04-12T19:27:50.668393Z</value></time><waveformID networkCode="CX" stationCode="PB07" channelCode="HHZ"/><filterID>ITAPER(4)&gt;&gt;BW(4,4,20)</filterID><methodID>AIC</methodID><horizontalSlowness><value>17.898955823613257</value></horizontalSlowness><backazimuth><value>95.29669732345427</value></backazimuth><phaseHint>P</phaseHint><evaluationMode>automatic</evaluationMode><comment><text>307.50541461854277</text><id>DFX:rectilinearity</id></comment><comment><text>158.20295502197726</text><id>SNR</id></comment></pick><pick publicID="de.gempa.tb1.Pick/20250412192828.26239.126264"><time><value>2025-04-12T19:28:20.138393Z</value></time><waveformID networkCode="CX" stationCode="PB08" channelCode="HHN"/><filterID>ITAPER(2)&gt;&gt;BW(3,3,20)</filterID><methodID>L2-AIC-GRID</methodID><horizontalSlowness><value>12.665173686738427</value></horizontalSlowness><backazimuth><value>220.7376521789561</value></backazimuth><phaseHint>S</phaseHint><evaluationMode>automatic</evaluationMode><comment><text>223.23643991856284</text><id>DFX:rectilinearity</id></comment><comment><text>de.gempa.tb1.Pick/20250412192802.588201.126249</text><id>RefPickID</id></comment><comment><text>6.99045695209831</text><id>SNR</id></comment></pick><origin publicID="de.gempa.tb1.Origin/20250412192828.26546.90395"><time><value>2025-04-12T19:27:28.308126Z</value><uncertainty>0.8484144806861877</uncertainty></time><latitude><value>-21.707868576049805</value><uncertainty>3.2650270462036133</uncertainty></latitude><longitude><value>-68.86699676513672</value><uncertainty>11.279668807983398</uncertainty></longitude><depth><value>127.19992065429688</value><uncertainty>10.043111801147461</uncertainty></depth><depthType>from location</depthType><methodID>LOCSAT</methodID><earthModelID>iasp91_scanloc</earthModelID><quality><associatedPhaseCount>13</associatedPhaseCount><usedPhaseCount>13</usedPhaseCount><associatedStationCount>10</associatedStationCount><usedStationCount>10</usedStationCount><depthPhaseCount>0</depthPhaseCount><standardError>0.5155762638333298</standardError><azimuthalGap>199.8518829345703</azimuthalGap><maximumDistance>2.407013416290283</maximumDistance><minimumDistance>0.35950377583503723</minimumDistance><medianDistance>1.1887013912200928</medianDistance></quality><uncertainty><minHorizontalUncertainty>6.799546718597412</minHorizontalUncertainty><maxHorizontalUncertainty>24.243146896362305</maxHorizontalUncertainty><azimuthMaxHorizontalUncertainty>94.10738372802734</azimuthMaxHorizontalUncertainty><preferredDescription>horizontal uncertainty</preferredDescription></uncertainty><evaluationMode>automatic</evaluationMode><evaluationStatus>confirmed</evaluationStatus><comment><text>0.03</text><id>mismatchScore</id></comment><comment><text>mismatchScore</text><id>scevalMethod</id></comment><arrival><pickID>de.gempa.tb1.Pick/20250412192754.452094.126237</pickID><phase>P</phase><azimuth>255.7489929199219</azimuth><distance>0.35950377583503723</distance><timeResidual>-0.8067073822021484</timeResidual><timeUsed>true</timeUsed><horizontalSlownessUsed>false</horizontalSlownessUsed><backazimuthUsed>false</backazimuthUsed><weight>1</weight></arrival><arrival><pickID>de.gempa.tb1.Pick/20250412192754.682517.126239</pickID><phase>P</phase><azimuth>318.7236022949219</azimuth><distance>0.8784930109977722</distance><timeResidual>-0.6794815063476562</timeResidual><timeUsed>true</timeUsed><horizontalSlownessUsed>false</horizontalSlownessUsed><backazimuthUsed>false</backazimuthUsed><weight>1</weight></arrival><arrival><pickID>de.gempa.tb1.Pick/20250412192756.561143.126241</pickID><phase>P</phase><azimuth>291.7653503417969</azimuth><distance>1.0331060886383057</distance><timeResidual>0.1960296630859375</timeResidual><timeUsed>true</timeUsed><horizontalSlownessUsed>false</horizontalSlownessUsed><backazimuthUsed>false</backazimuthUsed><weight>1</weight></arrival><arrival><pickID>de.gempa.tb1.Pick/20250412192756.6861.126243</pickID><phase>P</phase><azimuth>247.4532928466797</azimuth><distance>0.8901038765907288</distance><timeResidual>-0.0357208251953125</timeResidual><timeUsed>true</timeUsed><horizontalSlownessUsed>false</horizontalSlownessUsed><backazimuthUsed>false</backazimuthUsed><weight>1</weight></arrival><arrival><pickID>de.gempa.tb1.Pick/20250412192800.550305.126245</pickID><phase>P</phase><azimuth>213.2022705078125</azimuth><distance>1.1887013912200928</distance><timeResidual>0.011285781860351562</timeResidual><timeUsed>true</timeUsed><horizontalSlownessUsed>false</horizontalSlownessUsed><backazimuthUsed>false</backazimuthUsed><weight>1</weight></arrival><arrival><pickID>de.gempa.tb1.Pick/20250412192802.27088.126247</pickID><phase>P</phase><azimuth>306.1204528808594</azimuth><distance>1.4892162084579468</distance><timeResidual>0.6475048065185547</timeResidual><timeUsed>true</timeUsed><horizontalSlownessUsed>false</horizontalSlownessUsed><backazimuthUsed>false</backazimuthUsed><weight>1</weight></arrival><arrival><pickID>de.gempa.tb1.Pick/20250412192802.588201.126249</pickID><phase>P</phase><azimuth>350.2034912109375</azimuth><distance>1.5817360877990723</distance><timeResidual>0.5382404327392578</timeResidual><timeUsed>true</timeUsed><horizontalSlownessUsed>false</horizontalSlownessUsed><backazimuthUsed>false</backazimuthUsed><weight>1</weight></arrival><arrival><pickID>de.gempa.tb1.Pick/20250412192812.533369.126251</pickID><phase>P</phase><azimuth>190.0553741455078</azimuth><distance>2.2212538719177246</distance><timeResidual>0.4036998748779297</timeResidual><timeUsed>true</timeUsed><horizontalSlownessUsed>false</horizontalSlownessUsed><backazimuthUsed>false</backazimuthUsed><weight>1</weight></arrival><arrival><pickID>de.gempa.tb1.Pick/20250412192813.601437.126253</pickID><phase>P</phase><azimuth>330.5228271484375</azimuth><distance>2.407013416290283</distance><timeResidual>-1.0637588500976562</timeResidual><timeUsed>true</timeUsed><horizontalSlownessUsed>false</horizontalSlownessUsed><backazimuthUsed>false</backazimuthUsed><weight>1</weight></arrival><arrival><pickID>de.gempa.tb1.Pick/20250412192817.650214.126255</pickID><phase>S</phase><azimuth>247.4532928466797</azimuth><distance>0.8901038765907288</distance><timeResidual>0.04819297790527344</timeResidual><timeUsed>true</timeUsed><horizontalSlownessUsed>false</horizontalSlownessUsed><backazimuthUsed>false</backazimuthUsed><weight>1</weight></arrival><arrival><pickID>de.gempa.tb1.Pick/20250412192819.65413.126256</pickID><phase>S</phase><azimuth>213.2022705078125</azimuth><distance>1.1887013912200928</distance><timeResidual>0.07073783874511719</timeResidual><timeUsed>true</timeUsed><horizontalSlownessUsed>false</horizontalSlownessUsed><backazimuthUsed>false</backazimuthUsed><weight>1</weight></arrival><arrival><pickID>de.gempa.tb1.Pick/20250412192823.410443.126260</pickID><phase>P</phase><azimuth>268.6816101074219</azimuth><distance>0.9478890895843506</distance><timeResidual>0.15056228637695312</timeResidual><timeUsed>true</timeUsed><horizontalSlownessUsed>false</horizontalSlownessUsed><backazimuthUsed>false</backazimuthUsed><weight>1</weight></arrival><arrival><pickID>de.gempa.tb1.Pick/20250412192828.26239.126264</pickID><phase>S</phase><azimuth>350.2034912109375</azimuth><distance>1.5817360877990723</distance><timeResidual>0.5194473266601562</timeResidual><timeUsed>true</timeUsed><horizontalSlownessUsed>false</horizontalSlownessUsed><backazimuthUsed>false</backazimuthUsed><weight>1</weight></arrival><magnitude publicID="de.gempa.tb1.Magnitude/20250412192932.734594.270115"><magnitude><value>2.5553084702390834</value></magnitude><type>M</type><methodID>weighted average</methodID><stationCount>5</stationCount></magnitude></origin><event publicID="gempa2025hgbd"><preferredOriginID>de.gempa.tb1.Origin/20250412192828.26546.90395</preferredOriginID><preferredMagnitudeID>de.gempa.tb1.Magnitude/20250412192932.734594.270115</preferredMagnitudeID><description><text>Chile-Bolivia Border Region</text><type>region name</type></description><originReference>de.gempa.tb1.Origin/20250412192828.26546.90395</originReference></event></EventParameters></seiscomp>