<?xml version="1.0" encoding="UTF-8"?>
<seiscomp xmlns="http://geofon.gfz-potsdam.de/ns/seiscomp3-schema/0.13" version="0.13"><EventParameters><pick publicID="de.gempa.tb1.Pick/20250414191101.801674.140518"><time><value>2025-04-14T19:10:55.868393Z</value></time><waveformID networkCode="CX" stationCode="PB15" channelCode="HHZ"/><filterID>ITAPER(4)&gt;&gt;BW(4,4,20)</filterID><methodID>AIC</methodID><horizontalSlowness><value>23.239454822022264</value></horizontalSlowness><backazimuth><value>122.50967519283583</value></backazimuth><phaseHint>P</phaseHint><evaluationMode>automatic</evaluationMode><comment><text>40892.43197840261</text><id>DFX:rectilinearity</id></comment><comment><text>96.41613490580276</text><id>SNR</id></comment></pick><pick publicID="de.gempa.tb1.Pick/20250414191105.741137.140520"><time><value>2025-04-14T19:10:59.998393Z</value></time><waveformID networkCode="CX" stationCode="PB15" channelCode="HHN"/><filterID>ITAPER(2)&gt;&gt;BW(3,3,20)</filterID><methodID>L2-AIC-GRID</methodID><horizontalSlowness><value>22.0588980543328</value></horizontalSlowness><backazimuth><value>97.83567609993202</value></backazimuth><phaseHint>S</phaseHint><evaluationMode>automatic</evaluationMode><comment><text>1504097.7597921563</text><id>DFX:rectilinearity</id></comment><comment><text>de.gempa.tb1.Pick/20250414191101.801674.140518</text><id>RefPickID</id></comment><comment><text>5.471329103754401</text><id>SNR</id></comment></pick><pick publicID="de.gempa.tb1.Pick/20250414191107.649513.140521"><time><value>2025-04-14T19:11:00.77Z</value></time><waveformID networkCode="CX" stationCode="PB19" channelCode="HHZ"/><filterID>ITAPER(4)&gt;&gt;BW(4,4,20)</filterID><methodID>AIC</methodID><horizontalSlowness><value>5.542958629612464</value></horizontalSlowness><backazimuth><value>352.82762333370766</value></backazimuth><phaseHint>P</phaseHint><evaluationMode>automatic</evaluationMode><comment><text>207.10302434335998</text><id>DFX:rectilinearity</id></comment><comment><text>16.425791629822658</text><id>SNR</id></comment></pick><pick publicID="de.gempa.tb1.Pick/20250414191109.64683.140523"><time><value>2025-04-14T19:11:04.898393Z</value></time><waveformID networkCode="CX" stationCode="PB06" channelCode="HHZ"/><filterID>ITAPER(4)&gt;&gt;BW(4,4,20)</filterID><methodID>AIC</methodID><horizontalSlowness><value>10.95967580136016</value></horizontalSlowness><backazimuth><value>175.5231852261414</value></backazimuth><phaseHint>P</phaseHint><evaluationMode>automatic</evaluationMode><comment><text>275.05758597575885</text><id>DFX:rectilinearity</id></comment><comment><text>23.891519705761326</text><id>SNR</id></comment></pick><pick publicID="de.gempa.tb1.Pick/20250414191115.722494.140528"><time><value>2025-04-14T19:11:06.28Z</value></time><waveformID networkCode="CX" stationCode="PB19" channelCode="HHN"/><filterID>ITAPER(2)&gt;&gt;BW(3,3,20)</filterID><methodID>L2-AIC-GRID</methodID><horizontalSlowness><value>23.418224246161003</value></horizontalSlowness><backazimuth><value>158.848540477986</value></backazimuth><phaseHint>S</phaseHint><evaluationMode>automatic</evaluationMode><comment><text>909.0104877663704</text><id>DFX:rectilinearity</id></comment><comment><text>de.gempa.tb1.Pick/20250414191107.649513.140521</text><id>RefPickID</id></comment><comment><text>5.206969434402643</text><id>SNR</id></comment></pick><pick publicID="de.gempa.tb1.Pick/20250414191121.1975.140529"><time><value>2025-04-14T19:11:12.69Z</value></time><waveformID networkCode="CX" stationCode="PB10" channelCode="HHN"/><filterID>ITAPER(2)&gt;&gt;BW(3,3,20)</filterID><methodID>L2-AIC-GRID</methodID><horizontalSlowness><value>12.897526052101037</value></horizontalSlowness><backazimuth><value>87.17511356583103</value></backazimuth><phaseHint>S</phaseHint><evaluationMode>automatic</evaluationMode><comment><text>246.81551853194335</text><id>DFX:rectilinearity</id></comment><comment><text>de.gempa.tb1.Pick/20250414191114.36887.140525</text><id>RefPickID</id></comment><comment><text>5.711569752240766</text><id>SNR</id></comment></pick><pick publicID="de.gempa.tb1.Pick/20250414191122.601194.140530"><time><value>2025-04-14T19:11:16.078394Z</value></time><waveformID networkCode="CX" stationCode="PB03" channelCode="HHZ"/><filterID>ITAPER(4)&gt;&gt;BW(4,4,20)</filterID><methodID>AIC</methodID><horizontalSlowness><value>10.485821516640078</value></horizontalSlowness><backazimuth><value>177.05579806296177</value></backazimuth><phaseHint>P</phaseHint><evaluationMode>automatic</evaluationMode><comment><text>35.146061157227486</text><id>DFX:rectilinearity</id></comment><comment><text>21.133154835951721</text><id>SNR</id></comment></pick><pick publicID="de.gempa.tb1.Pick/20250414191128.8569.140533"><time><value>2025-04-14T19:11:21.848393Z</value></time><waveformID networkCode="CX" stationCode="PB07" channelCode="HHZ"/><filterID>ITAPER(4)&gt;&gt;BW(4,4,20)</filterID><methodID>AIC</methodID><horizontalSlowness><value>20.72576746192313</value></horizontalSlowness><backazimuth><value>171.18893357735516</value></backazimuth><phaseHint>P</phaseHint><evaluationMode>automatic</evaluationMode><comment><text>578.09873072647</text><id>DFX:rectilinearity</id></comment><comment><text>21.301196857285476</text><id>SNR</id></comment></pick><pick publicID="de.gempa.tb1.Pick/20250414191136.595738.140537"><time><value>2025-04-14T19:11:28.548393Z</value></time><waveformID networkCode="CX" stationCode="PB02" channelCode="HHZ"/><filterID>ITAPER(4)&gt;&gt;BW(4,4,20)</filterID><methodID>AIC</methodID><horizontalSlowness><value>7.959158557986964</value></horizontalSlowness><backazimuth><value>149.14768047582226</value></backazimuth><phaseHint>P</phaseHint><evaluationMode>automatic</evaluationMode><comment><text>33.0313393712947</text><id>DFX:rectilinearity</id></comment><comment><text>14.700618556731355</text><id>SNR</id></comment></pick><pick publicID="de.gempa.tb1.Pick/20250414191137.072212.140539"><time><value>2025-04-14T19:11:22.72Z</value></time><waveformID networkCode="CX" stationCode="PB09" channelCode="HHZ"/><filterID>ITAPER(4)&gt;&gt;BW(4,4,20)</filterID><methodID>AIC</methodID><horizontalSlowness><value>17.048861616102563</value></horizontalSlowness><backazimuth><value>315.8675182171544</value></backazimuth><phaseHint>P</phaseHint><evaluationMode>automatic</evaluationMode><comment><text>6.102543372470564</text><id>DFX:rectilinearity</id></comment><comment><text>12.405268227542555</text><id>SNR</id></comment></pick><origin publicID="de.gempa.tb1.Origin/20250414191137.595629.148548"><time><value>2025-04-14T19:10:48.99264Z</value><uncertainty>0.3760997951030731</uncertainty></time><latitude><value>-23.52071952819824</value><uncertainty>2.44315767288208</uncertainty></latitude><longitude><value>-69.72624969482422</value><uncertainty>2.3643155097961426</uncertainty></longitude><depth><value>0</value></depth><depthType>operator assigned</depthType><methodID>LOCSAT</methodID><earthModelID>iasp91_scanloc</earthModelID><quality><associatedPhaseCount>10</associatedPhaseCount><usedPhaseCount>10</usedPhaseCount><associatedStationCount>8</associatedStationCount><usedStationCount>8</usedStationCount><depthPhaseCount>0</depthPhaseCount><standardError>1.2576146865055022</standardError><azimuthalGap>136.53773498535156</azimuthalGap><maximumDistance>2.1961336135864258</maximumDistance><minimumDistance>0.3895426392555237</minimumDistance><medianDistance>0.8234904408454895</medianDistance></quality><uncertainty><minHorizontalUncertainty>4.805891990661621</minHorizontalUncertainty><maxHorizontalUncertainty>5.48844051361084</maxHorizontalUncertainty><azimuthMaxHorizontalUncertainty>37.80953598022461</azimuthMaxHorizontalUncertainty><preferredDescription>horizontal uncertainty</preferredDescription></uncertainty><evaluationMode>automatic</evaluationMode><evaluationStatus>confirmed</evaluationStatus><comment><text>0.00</text><id>mismatchScore</id></comment><comment><text>mismatchScore</text><id>scevalMethod</id></comment><arrival><pickID>de.gempa.tb1.Pick/20250414191101.801674.140518</pickID><phase>P</phase><azimuth>37.0889778137207</azimuth><distance>0.3895426392555237</distance><timeResidual>-0.5961346626281738</timeResidual><timeUsed>true</timeUsed><horizontalSlownessUsed>false</horizontalSlownessUsed><backazimuthUsed>false</backazimuthUsed><weight>1</weight></arrival><arrival><pickID>de.gempa.tb1.Pick/20250414191105.741137.140520</pickID><phase>S</phase><azimuth>37.0889778137207</azimuth><distance>0.3895426392555237</distance><timeResidual>-1.8918848037719727</timeResidual><timeUsed>true</timeUsed><horizontalSlownessUsed>false</horizontalSlownessUsed><backazimuthUsed>false</backazimuthUsed><weight>1</weight></arrival><arrival><pickID>de.gempa.tb1.Pick/20250414191107.649513.140521</pickID><phase>P</phase><azimuth>133.8451690673828</azimuth><distance>0.5527814626693726</distance><timeResidual>1.175529956817627</timeResidual><timeUsed>true</timeUsed><horizontalSlownessUsed>false</horizontalSlownessUsed><backazimuthUsed>false</backazimuthUsed><weight>1</weight></arrival><arrival><pickID>de.gempa.tb1.Pick/20250414191109.64683.140523</pickID><phase>P</phase><azimuth>9.96877384185791</azimuth><distance>0.8234904408454895</distance><timeResidual>0.11027240753173828</timeResidual><timeUsed>true</timeUsed><horizontalSlownessUsed>false</horizontalSlownessUsed><backazimuthUsed>false</backazimuthUsed><weight>1</weight></arrival><arrival><pickID>de.gempa.tb1.Pick/20250414191115.722494.140528</pickID><phase>S</phase><azimuth>133.8451690673828</azimuth><distance>0.5527814626693726</distance><timeResidual>-1.0130090713500977</timeResidual><timeUsed>true</timeUsed><horizontalSlownessUsed>false</horizontalSlownessUsed><backazimuthUsed>false</backazimuthUsed><weight>1</weight></arrival><arrival><pickID>de.gempa.tb1.Pick/20250414191121.1975.140529</pickID><phase>S</phase><azimuth>270.3829040527344</azimuth><distance>0.7599104046821594</distance><timeResidual>-1.46160888671875</timeResidual><timeUsed>true</timeUsed><horizontalSlownessUsed>false</horizontalSlownessUsed><backazimuthUsed>false</backazimuthUsed><weight>1</weight></arrival><arrival><pickID>de.gempa.tb1.Pick/20250414191122.601194.140530</pickID><phase>P</phase><azimuth>359.02606201171875</azimuth><distance>1.4655367136001587</distance><timeResidual>-0.605203628540039</timeResidual><timeUsed>true</timeUsed><horizontalSlownessUsed>false</horizontalSlownessUsed><backazimuthUsed>false</backazimuthUsed><weight>1</weight></arrival><arrival><pickID>de.gempa.tb1.Pick/20250414191128.8569.140533</pickID><phase>P</phase><azimuth>355.2384033203125</azimuth><distance>1.7916702032089233</distance><timeResidual>0.6759090423583984</timeResidual><timeUsed>true</timeUsed><horizontalSlownessUsed>false</horizontalSlownessUsed><backazimuthUsed>false</backazimuthUsed><weight>1</weight></arrival><arrival><pickID>de.gempa.tb1.Pick/20250414191136.595738.140537</pickID><phase>P</phase><azimuth>355.8655090332031</azimuth><distance>2.1961336135864258</distance><timeResidual>1.808969497680664</timeResidual><timeUsed>true</timeUsed><horizontalSlownessUsed>false</horizontalSlownessUsed><backazimuthUsed>false</backazimuthUsed><weight>1</weight></arrival><arrival><pickID>de.gempa.tb1.Pick/20250414191137.072212.140539</pickID><phase>P</phase><azimuth>14.704458236694336</azimuth><distance>1.77354633808136</distance><timeResidual>1.7970333099365234</timeResidual><timeUsed>true</timeUsed><horizontalSlownessUsed>false</horizontalSlownessUsed><backazimuthUsed>false</backazimuthUsed><weight>1</weight></arrival><magnitude publicID="de.gempa.tb1.Magnitude/20250414191141.781601.532419"><magnitude><value>2.675497125904386</value></magnitude><type>M</type><methodID>weighted average</methodID><stationCount>7</stationCount></magnitude></origin><event publicID="gempa2025hjsq"><preferredOriginID>de.gempa.tb1.Origin/20250414191137.595629.148548</preferredOriginID><preferredMagnitudeID>de.gempa.tb1.Magnitude/20250414191141.781601.532419</preferredMagnitudeID><type>mining explosion</type><description><text>Northern Chile</text><type>region name</type></description><originReference>de.gempa.tb1.Origin/20250414191137.595629.148548</originReference></event></EventParameters></seiscomp>