<?xml version="1.0" encoding="UTF-8"?>
<seiscomp xmlns="http://geofon.gfz-potsdam.de/ns/seiscomp3-schema/0.13" version="0.13"><EventParameters><pick publicID="de.gempa.tb1.Pick/20250414190819.709563.140505"><time><value>2025-04-14T19:08:14.968394Z</value></time><waveformID networkCode="CX" stationCode="PB03" channelCode="HHZ"/><filterID>ITAPER(4)&gt;&gt;BW(4,4,20)</filterID><methodID>AIC</methodID><horizontalSlowness><value>7.45636108578019</value></horizontalSlowness><backazimuth><value>110.06989770083145</value></backazimuth><phaseHint>P</phaseHint><evaluationMode>automatic</evaluationMode><comment><text>18.48401673638838</text><id>DFX:rectilinearity</id></comment><comment><text>12.615949874901968</text><id>SNR</id></comment></pick><pick publicID="de.gempa.tb1.Pick/20250414190823.557707.140507"><time><value>2025-04-14T19:08:16.658393Z</value></time><waveformID networkCode="CX" stationCode="PB06" channelCode="HHZ"/><filterID>ITAPER(4)&gt;&gt;BW(4,4,20)</filterID><methodID>AIC</methodID><horizontalSlowness><value>15.260004447359027</value></horizontalSlowness><backazimuth><value>283.3621884804219</value></backazimuth><phaseHint>P</phaseHint><evaluationMode>automatic</evaluationMode><comment><text>65.12919231749727</text><id>DFX:rectilinearity</id></comment><comment><text>7.554393206125039</text><id>SNR</id></comment></pick><pick publicID="de.gempa.tb1.Pick/20250414190824.539874.140509"><time><value>2025-04-14T19:08:16.658393Z</value></time><waveformID networkCode="CX" stationCode="PB01" channelCode="HHZ"/><filterID>ITAPER(4)&gt;&gt;BW(4,4,20)</filterID><methodID>AIC</methodID><horizontalSlowness><value>16.0139751003185</value></horizontalSlowness><backazimuth><value>255.2231169355923</value></backazimuth><phaseHint>P</phaseHint><evaluationMode>automatic</evaluationMode><comment><text>8.005311406754361</text><id>DFX:rectilinearity</id></comment><comment><text>8.130732069838142</text><id>SNR</id></comment></pick><pick publicID="de.gempa.tb1.Pick/20250414190840.639458.140511"><time><value>2025-04-14T19:08:33.688393Z</value></time><waveformID networkCode="CX" stationCode="PB06" channelCode="HHN"/><filterID>ITAPER(2)&gt;&gt;BW(3,3,20)</filterID><methodID>L2-AIC-GRID</methodID><horizontalSlowness><value>13.037202331178769</value></horizontalSlowness><backazimuth><value>114.49631970750725</value></backazimuth><phaseHint>S</phaseHint><evaluationMode>automatic</evaluationMode><comment><text>139.5599431532124</text><id>DFX:rectilinearity</id></comment><comment><text>de.gempa.tb1.Pick/20250414190823.557707.140507</text><id>RefPickID</id></comment><comment><text>7.803279127545841</text><id>SNR</id></comment></pick><origin publicID="de.gempa.tb1.Origin/20250414190842.507031.148349"><time><value>2025-04-14T19:07:54.616688Z</value><uncertainty>2.5966241359710693</uncertainty></time><latitude><value>-21.906414031982422</value><uncertainty>9.785748481750488</uncertainty></latitude><longitude><value>-68.7574234008789</value><uncertainty>62.6493911743164</uncertainty></longitude><depth><value>107.49528503417969</value><uncertainty>55.71286010742188</uncertainty></depth><depthType>from location</depthType><methodID>LOCSAT</methodID><earthModelID>iasp91_scanloc</earthModelID><quality><associatedPhaseCount>4</associatedPhaseCount><usedPhaseCount>4</usedPhaseCount><associatedStationCount>3</associatedStationCount><usedStationCount>3</usedStationCount><depthPhaseCount>0</depthPhaseCount><standardError>0.0008744304241534215</standardError><azimuthalGap>261.8166809082031</azimuthalGap><maximumDistance>1.096253514289856</maximumDistance><minimumDistance>0.9349316358566284</minimumDistance><medianDistance>1.096253514289856</medianDistance></quality><uncertainty><minHorizontalUncertainty>20.21435546875</minHorizontalUncertainty><maxHorizontalUncertainty>134.48822021484375</maxHorizontalUncertainty><azimuthMaxHorizontalUncertainty>92.43423461914062</azimuthMaxHorizontalUncertainty><preferredDescription>horizontal uncertainty</preferredDescription></uncertainty><evaluationMode>automatic</evaluationMode><arrival><pickID>de.gempa.tb1.Pick/20250414190819.709563.140505</pickID><phase>P</phase><azimuth>261.1180725097656</azimuth><distance>0.9349316358566284</distance><timeResidual>-0.0007190704345703125</timeResidual><timeUsed>true</timeUsed><horizontalSlownessUsed>false</horizontalSlownessUsed><backazimuthUsed>false</backazimuthUsed><weight>1</weight></arrival><arrival><pickID>de.gempa.tb1.Pick/20250414190823.557707.140507</pickID><phase>P</phase><azimuth>223.31939697265625</azimuth><distance>1.096253514289856</distance><timeResidual>-0.00067138671875</timeResidual><timeUsed>true</timeUsed><horizontalSlownessUsed>false</horizontalSlownessUsed><backazimuthUsed>false</backazimuthUsed><weight>1</weight></arrival><arrival><pickID>de.gempa.tb1.Pick/20250414190824.539874.140509</pickID><phase>P</phase><azimuth>321.5027160644531</azimuth><distance>1.0954626798629761</distance><timeResidual>-0.0006313323974609375</timeResidual><timeUsed>true</timeUsed><horizontalSlownessUsed>false</horizontalSlownessUsed><backazimuthUsed>false</backazimuthUsed><weight>1</weight></arrival><arrival><pickID>de.gempa.tb1.Pick/20250414190840.639458.140511</pickID><phase>S</phase><azimuth>223.31939697265625</azimuth><distance>1.096253514289856</distance><timeResidual>-0.001300811767578125</timeResidual><timeUsed>true</timeUsed><horizontalSlownessUsed>false</horizontalSlownessUsed><backazimuthUsed>false</backazimuthUsed><weight>1</weight></arrival><magnitude publicID="de.gempa.tb1.Magnitude/20250414190920.207089.532147"><magnitude><value>2.331930569559838</value></magnitude><type>M</type><methodID>weighted average</methodID><stationCount>3</stationCount></magnitude></origin><event publicID="gempa2025hjso"><preferredOriginID>de.gempa.tb1.Origin/20250414190842.507031.148349</preferredOriginID><preferredMagnitudeID>de.gempa.tb1.Magnitude/20250414190920.207089.532147</preferredMagnitudeID><type>mining explosion</type><typeCertainty>suspected</typeCertainty><description><text>Chile-Bolivia Border Region</text><type>region name</type></description><originReference>de.gempa.tb1.Origin/20250414190842.507031.148349</originReference></event></EventParameters></seiscomp>