<?xml version="1.0" encoding="UTF-8"?>
<seiscomp xmlns="http://geofon.gfz-potsdam.de/ns/seiscomp3-schema/0.13" version="0.13"><EventParameters><pick publicID="de.gempa.tb1.Pick/20250413001258.82582.127698"><time><value>2025-04-13T00:12:52.74Z</value></time><waveformID networkCode="CX" stationCode="PB19" channelCode="HHZ"/><filterID>ITAPER(4)&gt;&gt;BW(4,4,20)</filterID><methodID>AIC</methodID><horizontalSlowness><value>22.277792626384215</value></horizontalSlowness><backazimuth><value>84.97981631991679</value></backazimuth><phaseHint>P</phaseHint><evaluationMode>automatic</evaluationMode><comment><text>20.600381019350174</text><id>DFX:rectilinearity</id></comment><comment><text>17.046563989548918</text><id>SNR</id></comment></pick><pick publicID="de.gempa.tb1.Pick/20250413001306.683416.127700"><time><value>2025-04-13T00:12:59.908393Z</value></time><waveformID networkCode="CX" stationCode="PB06" channelCode="HHZ"/><filterID>ITAPER(4)&gt;&gt;BW(4,4,20)</filterID><methodID>AIC</methodID><horizontalSlowness><value>14.591953638531338</value></horizontalSlowness><backazimuth><value>292.9935225689317</value></backazimuth><phaseHint>P</phaseHint><evaluationMode>automatic</evaluationMode><comment><text>71.22617214709213</text><id>DFX:rectilinearity</id></comment><comment><text>7.843093861702317</text><id>SNR</id></comment></pick><pick publicID="de.gempa.tb1.Pick/20250413001311.758241.127702"><time><value>2025-04-13T00:13:05.808393Z</value></time><waveformID networkCode="CX" stationCode="PB03" channelCode="HHZ"/><filterID>ITAPER(4)&gt;&gt;BW(4,4,20)</filterID><methodID>AIC</methodID><horizontalSlowness><value>23.434843470644203</value></horizontalSlowness><backazimuth><value>87.57838151828642</value></backazimuth><phaseHint>P</phaseHint><evaluationMode>automatic</evaluationMode><comment><text>8.075685344811044</text><id>DFX:rectilinearity</id></comment><comment><text>5.997908439720486</text><id>SNR</id></comment></pick><pick publicID="de.gempa.tb1.Pick/20250413001316.170981.127704"><time><value>2025-04-13T00:13:09.008394Z</value></time><waveformID networkCode="CX" stationCode="PB07" channelCode="HHZ"/><filterID>ITAPER(4)&gt;&gt;BW(4,4,20)</filterID><methodID>AIC</methodID><horizontalSlowness><value>22.477956084997157</value></horizontalSlowness><backazimuth><value>65.49400229296351</value></backazimuth><phaseHint>P</phaseHint><evaluationMode>automatic</evaluationMode><comment><text>270.03711726738044</text><id>DFX:rectilinearity</id></comment><comment><text>29.223912420553884</text><id>SNR</id></comment></pick><pick publicID="de.gempa.tb1.Pick/20250413001321.768932.127706"><time><value>2025-04-13T00:13:12.818393Z</value></time><waveformID networkCode="CX" stationCode="PB02" channelCode="HHZ"/><filterID>ITAPER(4)&gt;&gt;BW(4,4,20)</filterID><methodID>AIC</methodID><horizontalSlowness><value>20.636052320930766</value></horizontalSlowness><backazimuth><value>96.09904918545814</value></backazimuth><phaseHint>P</phaseHint><evaluationMode>automatic</evaluationMode><comment><text>36.119056815148234</text><id>DFX:rectilinearity</id></comment><comment><text>9.232560313969595</text><id>SNR</id></comment></pick><pick publicID="de.gempa.tb1.Pick/20250413001321.934375.127708"><time><value>2025-04-13T00:13:04.53Z</value></time><waveformID networkCode="CX" stationCode="PB09" channelCode="HHZ"/><filterID>ITAPER(4)&gt;&gt;BW(4,4,20)</filterID><methodID>AIC</methodID><horizontalSlowness><value>9.388676565589646</value></horizontalSlowness><backazimuth><value>281.94181199478044</value></backazimuth><phaseHint>P</phaseHint><evaluationMode>automatic</evaluationMode><comment><text>12.253543527832875</text><id>DFX:rectilinearity</id></comment><comment><text>18.304148247419445</text><id>SNR</id></comment></pick><pick publicID="de.gempa.tb1.Pick/20250413001322.01779.127710"><time><value>2025-04-13T00:13:12.348393Z</value></time><waveformID networkCode="CX" stationCode="PB01" channelCode="HHZ"/><filterID>ITAPER(4)&gt;&gt;BW(4,4,20)</filterID><methodID>AIC</methodID><horizontalSlowness><value>8.667633698958779</value></horizontalSlowness><backazimuth><value>20.9591832697605</value></backazimuth><phaseHint>P</phaseHint><evaluationMode>automatic</evaluationMode><comment><text>7.434204431110597</text><id>DFX:rectilinearity</id></comment><comment><text>11.062180447653793</text><id>SNR</id></comment></pick><origin publicID="de.gempa.tb1.Origin/20250413001322.111405.95953"><time><value>2025-04-13T00:12:04.878451Z</value><uncertainty>9.373334884643555</uncertainty></time><latitude><value>-24.502567291259766</value><uncertainty>44.95664596557617</uncertainty></latitude><longitude><value>-66.96665954589844</value><uncertainty>65.51412963867188</uncertainty></longitude><depth><value>292.54937744140625</value><uncertainty>72.78038024902344</uncertainty></depth><depthType>from location</depthType><methodID>LOCSAT</methodID><earthModelID>iasp91_scanloc</earthModelID><quality><associatedPhaseCount>7</associatedPhaseCount><usedPhaseCount>7</usedPhaseCount><associatedStationCount>7</associatedStationCount><usedStationCount>7</usedStationCount><depthPhaseCount>0</depthPhaseCount><standardError>0.1331176550424082</standardError><azimuthalGap>319.73126220703125</azimuthalGap><maximumDistance>4.1627116203308105</maximumDistance><minimumDistance>2.2039093971252441</minimumDistance><medianDistance>3.539900779724121</medianDistance></quality><uncertainty><minHorizontalUncertainty>81.15934753417969</minHorizontalUncertainty><maxHorizontalUncertainty>149.82069396972656</maxHorizontalUncertainty><azimuthMaxHorizontalUncertainty>114.4061508178711</azimuthMaxHorizontalUncertainty><preferredDescription>horizontal uncertainty</preferredDescription></uncertainty><evaluationMode>automatic</evaluationMode><evaluationStatus>confirmed</evaluationStatus><comment><text>0.27</text><id>mismatchScore</id></comment><comment><text>mismatchScore</text><id>scevalMethod</id></comment><arrival><pickID>de.gempa.tb1.Pick/20250413001258.82582.127698</pickID><phase>P</phase><azimuth>285.1898498535156</azimuth><distance>2.2039093971252441</distance><timeResidual>0.028469085693359375</timeResidual><timeUsed>true</timeUsed><horizontalSlownessUsed>false</horizontalSlownessUsed><backazimuthUsed>false</backazimuthUsed><weight>1</weight></arrival><arrival><pickID>de.gempa.tb1.Pick/20250413001306.683416.127700</pickID><phase>P</phase><azimuth>306.2871398925781</azimuth><distance>2.984837770462036</distance><timeResidual>-0.09302520751953125</timeResidual><timeUsed>true</timeUsed><horizontalSlownessUsed>false</horizontalSlownessUsed><backazimuthUsed>false</backazimuthUsed><weight>1</weight></arrival><arrival><pickID>de.gempa.tb1.Pick/20250413001311.758241.127702</pickID><phase>P</phase><azimuth>313.0760192871094</azimuth><distance>3.539900779724121</distance><timeResidual>0.031711578369140625</timeResidual><timeUsed>true</timeUsed><horizontalSlownessUsed>false</horizontalSlownessUsed><backazimuthUsed>false</backazimuthUsed><weight>1</weight></arrival><arrival><pickID>de.gempa.tb1.Pick/20250413001316.170981.127704</pickID><phase>P</phase><azimuth>315.21026611328125</azimuth><distance>3.854428291320801</distance><timeResidual>-0.15422821044921875</timeResidual><timeUsed>true</timeUsed><horizontalSlownessUsed>false</horizontalSlownessUsed><backazimuthUsed>false</backazimuthUsed><weight>1</weight></arrival><arrival><pickID>de.gempa.tb1.Pick/20250413001321.768932.127706</pickID><phase>P</phase><azimuth>318.9719543457031</azimuth><distance>4.1627116203308105</distance><timeResidual>0.23565673828125</timeResidual><timeUsed>true</timeUsed><horizontalSlownessUsed>false</horizontalSlownessUsed><backazimuthUsed>false</backazimuthUsed><weight>1</weight></arrival><arrival><pickID>de.gempa.tb1.Pick/20250413001321.934375.127708</pickID><phase>P</phase><azimuth>321.68487548828125</azimuth><distance>3.4117558002471924</distance><timeResidual>0.10411834716796875</timeResidual><timeUsed>true</timeUsed><horizontalSlownessUsed>false</horizontalSlownessUsed><backazimuthUsed>false</backazimuthUsed><weight>1</weight></arrival><arrival><pickID>de.gempa.tb1.Pick/20250413001322.01779.127710</pickID><phase>P</phase><azimuth>325.4585876464844</azimuth><distance>4.1551194190979</distance><timeResidual>-0.15300750732421875</timeResidual><timeUsed>true</timeUsed><horizontalSlownessUsed>false</horizontalSlownessUsed><backazimuthUsed>false</backazimuthUsed><weight>1</weight></arrival><magnitude publicID="de.gempa.tb1.Magnitude/20250413001449.184032.295215"><magnitude><value>3.622253158903567</value></magnitude><type>M</type><methodID>weighted average</methodID><stationCount>4</stationCount></magnitude></origin><event publicID="gempa2025hgkq"><preferredOriginID>de.gempa.tb1.Origin/20250413001322.111405.95953</preferredOriginID><preferredMagnitudeID>de.gempa.tb1.Magnitude/20250413001449.184032.295215</preferredMagnitudeID><description><text>Salta Province, Argentina</text><type>region name</type></description><originReference>de.gempa.tb1.Origin/20250413001322.111405.95953</originReference></event></EventParameters></seiscomp>