<?xml version="1.0" encoding="UTF-8"?>
<seiscomp xmlns="http://geofon.gfz-potsdam.de/ns/seiscomp3-schema/0.13" version="0.13"><EventParameters><pick publicID="de.gempa.tb1.Pick/20250411125726.657326.117705"><time><value>2025-04-11T12:57:22.348393Z</value></time><waveformID networkCode="CX" stationCode="PB01" channelCode="HHZ"/><filterID>ITAPER(4)&gt;&gt;BW(4,4,20)</filterID><methodID>AIC</methodID><horizontalSlowness><value>9.531991295904975</value></horizontalSlowness><backazimuth><value>38.008883373592425</value></backazimuth><phaseHint>P</phaseHint><evaluationMode>automatic</evaluationMode><comment><text>5603.804580189734</text><id>DFX:rectilinearity</id></comment><comment><text>1116.1361222572405</text><id>SNR</id></comment></pick><pick publicID="de.gempa.tb1.Pick/20250411125727.102809.117707"><time><value>2025-04-11T12:57:20.648393Z</value></time><waveformID networkCode="CX" stationCode="PB08" channelCode="HHZ"/><filterID>ITAPER(4)&gt;&gt;BW(4,4,20)</filterID><methodID>AIC</methodID><horizontalSlowness><value>15.052166770497262</value></horizontalSlowness><backazimuth><value>207.7094290570239</value></backazimuth><phaseHint>P</phaseHint><evaluationMode>automatic</evaluationMode><comment><text>14039.03236860476</text><id>DFX:rectilinearity</id></comment><comment><text>706.8060809951</text><id>SNR</id></comment></pick><pick publicID="de.gempa.tb1.Pick/20250411125732.462814.117709"><time><value>2025-04-11T12:57:26.870001Z</value></time><waveformID networkCode="CX" stationCode="PATCX" channelCode="HHZ"/><filterID>ITAPER(4)&gt;&gt;BW(4,4,20)</filterID><methodID>AIC</methodID><horizontalSlowness><value>3.544107256629247</value></horizontalSlowness><backazimuth><value>50.31319672072163</value></backazimuth><phaseHint>P</phaseHint><evaluationMode>automatic</evaluationMode><comment><text>2043.8594228710579</text><id>DFX:rectilinearity</id></comment><comment><text>48.33612519150952</text><id>SNR</id></comment></pick><pick publicID="de.gempa.tb1.Pick/20250411125732.572373.117711"><time><value>2025-04-11T12:57:27.468393Z</value></time><waveformID networkCode="CX" stationCode="PB02" channelCode="HHZ"/><filterID>ITAPER(4)&gt;&gt;BW(4,4,20)</filterID><methodID>AIC</methodID><horizontalSlowness><value>9.329546753118013</value></horizontalSlowness><backazimuth><value>39.55496605033298</value></backazimuth><phaseHint>P</phaseHint><evaluationMode>automatic</evaluationMode><comment><text>16356.235917774948</text><id>DFX:rectilinearity</id></comment><comment><text>305.7986418210686</text><id>SNR</id></comment></pick><pick publicID="de.gempa.tb1.Pick/20250411125734.700814.117713"><time><value>2025-04-11T12:57:29.75Z</value></time><waveformID networkCode="CX" stationCode="PSGCX" channelCode="HHZ"/><filterID>ITAPER(4)&gt;&gt;BW(4,4,20)</filterID><methodID>AIC</methodID><horizontalSlowness><value>9.999996996413241</value></horizontalSlowness><backazimuth><value>122.05467204373572</value></backazimuth><phaseHint>P</phaseHint><evaluationMode>automatic</evaluationMode><comment><text>5457.811983694662</text><id>DFX:rectilinearity</id></comment><comment><text>569.7499160909483</text><id>SNR</id></comment></pick><pick publicID="de.gempa.tb1.Pick/20250411125739.624375.117715"><time><value>2025-04-11T12:57:33.138393Z</value></time><waveformID networkCode="CX" stationCode="PB03" channelCode="HHZ"/><filterID>ITAPER(4)&gt;&gt;BW(4,4,20)</filterID><methodID>AIC</methodID><horizontalSlowness><value>9.975679037057247</value></horizontalSlowness><backazimuth><value>39.20807065720379</value></backazimuth><phaseHint>P</phaseHint><evaluationMode>automatic</evaluationMode><comment><text>409.09075581617975</text><id>DFX:rectilinearity</id></comment><comment><text>104.00095997434113</text><id>SNR</id></comment></pick><pick publicID="de.gempa.tb1.Pick/20250411125739.664336.117717"><time><value>2025-04-11T12:57:33.008393Z</value></time><waveformID networkCode="CX" stationCode="PB08" channelCode="HHN"/><filterID>ITAPER(2)&gt;&gt;BW(3,3,20)</filterID><methodID>L2-AIC-GRID</methodID><horizontalSlowness><value>17.197789232083842</value></horizontalSlowness><backazimuth><value>200.77276153614164</value></backazimuth><phaseHint>S</phaseHint><evaluationMode>automatic</evaluationMode><comment><text>90276.72439871851</text><id>DFX:rectilinearity</id></comment><comment><text>de.gempa.tb1.Pick/20250411125727.102809.117707</text><id>RefPickID</id></comment><comment><text>10.264259691719859</text><id>SNR</id></comment></pick><pick publicID="de.gempa.tb1.Pick/20250411125742.777315.117718"><time><value>2025-04-11T12:57:36.318393Z</value></time><waveformID networkCode="CX" stationCode="PB01" channelCode="HHN"/><filterID>ITAPER(2)&gt;&gt;BW(3,3,20)</filterID><methodID>L2-AIC-GRID</methodID><horizontalSlowness><value>23.329038900584475</value></horizontalSlowness><backazimuth><value>171.07659969212142</value></backazimuth><phaseHint>S</phaseHint><evaluationMode>automatic</evaluationMode><comment><text>507429.4684782401</text><id>DFX:rectilinearity</id></comment><comment><text>de.gempa.tb1.Pick/20250411125726.657326.117705</text><id>RefPickID</id></comment><comment><text>19.29738669717597</text><id>SNR</id></comment></pick><pick publicID="de.gempa.tb1.Pick/20250411125742.830169.117719"><time><value>2025-04-11T12:57:28.97Z</value></time><waveformID networkCode="CX" stationCode="PB09" channelCode="HHZ"/><filterID>ITAPER(4)&gt;&gt;BW(4,4,20)</filterID><methodID>AIC</methodID><horizontalSlowness><value>16.65056205391432</value></horizontalSlowness><backazimuth><value>60.71356678995915</value></backazimuth><phaseHint>P</phaseHint><evaluationMode>automatic</evaluationMode><comment><text>549.8591408727422</text><id>DFX:rectilinearity</id></comment><comment><text>188.0379657276824</text><id>SNR</id></comment></pick><pick publicID="de.gempa.tb1.Pick/20250411125744.033048.117721"><time><value>2025-04-11T12:57:30.628408Z</value></time><waveformID networkCode="CX" stationCode="PB07" channelCode="HHZ"/><filterID>ITAPER(4)&gt;&gt;BW(4,4,20)</filterID><methodID>AIC</methodID><horizontalSlowness><value>17.023094699675507</value></horizontalSlowness><backazimuth><value>66.61287639280015</value></backazimuth><phaseHint>P</phaseHint><evaluationMode>automatic</evaluationMode><comment><text>5313.343716562091</text><id>DFX:rectilinearity</id></comment><comment><text>224.84506467061436</text><id>SNR</id></comment></pick><pick publicID="de.gempa.tb1.Pick/20250411125746.536223.117723"><time><value>2025-04-11T12:57:40.708393Z</value></time><waveformID networkCode="CX" stationCode="PB06" channelCode="HHZ"/><filterID>ITAPER(4)&gt;&gt;BW(4,4,20)</filterID><methodID>AIC</methodID><horizontalSlowness><value>5.155426839903572</value></horizontalSlowness><backazimuth><value>35.345407168370627</value></backazimuth><phaseHint>P</phaseHint><evaluationMode>automatic</evaluationMode><comment><text>184.88752443370322</text><id>DFX:rectilinearity</id></comment><comment><text>31.10083449494344</text><id>SNR</id></comment></pick><pick publicID="de.gempa.tb1.Pick/20250411125752.457472.117725"><time><value>2025-04-11T12:57:44.570001Z</value></time><waveformID networkCode="CX" stationCode="PATCX" channelCode="HHN"/><filterID>ITAPER(2)&gt;&gt;BW(3,3,20)</filterID><methodID>L2-AIC-GRID</methodID><horizontalSlowness><value>23.39788583741059</value></horizontalSlowness><backazimuth><value>349.15956126936464</value></backazimuth><phaseHint>S</phaseHint><evaluationMode>automatic</evaluationMode><comment><text>34076.003073378153</text><id>DFX:rectilinearity</id></comment><comment><text>de.gempa.tb1.Pick/20250411125732.462814.117709</text><id>RefPickID</id></comment><comment><text>9.774949098104607</text><id>SNR</id></comment></pick><pick publicID="de.gempa.tb1.Pick/20250411125754.770916.117726"><time><value>2025-04-11T12:57:47.988393Z</value></time><waveformID networkCode="CX" stationCode="PB15" channelCode="HHZ"/><filterID>ITAPER(4)&gt;&gt;BW(4,4,20)</filterID><methodID>AIC</methodID><horizontalSlowness><value>18.860519354272554</value></horizontalSlowness><backazimuth><value>28.63178147690789</value></backazimuth><phaseHint>P</phaseHint><evaluationMode>automatic</evaluationMode><comment><text>757.7926808077093</text><id>DFX:rectilinearity</id></comment><comment><text>10.654843534201751</text><id>SNR</id></comment></pick><pick publicID="de.gempa.tb1.Pick/20250411125756.540455.117730"><time><value>2025-04-11T12:57:45.288393Z</value></time><waveformID networkCode="CX" stationCode="PB02" channelCode="HHN"/><filterID>ITAPER(2)&gt;&gt;BW(3,3,20)</filterID><methodID>L2-AIC-GRID</methodID><horizontalSlowness><value>20.808077901433577</value></horizontalSlowness><backazimuth><value>301.5614937034569</value></backazimuth><phaseHint>S</phaseHint><evaluationMode>automatic</evaluationMode><comment><text>518920.5840478069</text><id>DFX:rectilinearity</id></comment><comment><text>de.gempa.tb1.Pick/20250411125732.572373.117711</text><id>RefPickID</id></comment><comment><text>10.650090980065206</text><id>SNR</id></comment></pick><pick publicID="de.gempa.tb1.Pick/20250411125757.055666.117731"><time><value>2025-04-11T12:57:48.87Z</value></time><waveformID networkCode="CX" stationCode="PB09" channelCode="HHN"/><filterID>ITAPER(2)&gt;&gt;BW(3,3,20)</filterID><methodID>L2-AIC-GRID</methodID><horizontalSlowness><value>18.317306243780582</value></horizontalSlowness><backazimuth><value>336.0848288630416</value></backazimuth><phaseHint>S</phaseHint><evaluationMode>automatic</evaluationMode><comment><text>32763.8600294081</text><id>DFX:rectilinearity</id></comment><comment><text>de.gempa.tb1.Pick/20250411125742.830169.117719</text><id>RefPickID</id></comment><comment><text>6.843274116971188</text><id>SNR</id></comment></pick><pick publicID="de.gempa.tb1.Pick/20250411125757.671637.117732"><time><value>2025-04-11T12:57:49.63Z</value></time><waveformID networkCode="CX" stationCode="PSGCX" channelCode="HHN"/><filterID>ITAPER(2)&gt;&gt;BW(3,3,20)</filterID><methodID>L2-AIC-GRID</methodID><horizontalSlowness><value>22.28913858542802</value></horizontalSlowness><backazimuth><value>183.3453885075081</value></backazimuth><phaseHint>S</phaseHint><evaluationMode>automatic</evaluationMode><comment><text>9496.427960727369</text><id>DFX:rectilinearity</id></comment><comment><text>de.gempa.tb1.Pick/20250411125734.700814.117713</text><id>RefPickID</id></comment><comment><text>7.15375328679157</text><id>SNR</id></comment></pick><pick publicID="de.gempa.tb1.Pick/20250411125801.998896.117736"><time><value>2025-04-11T12:57:50.838408Z</value></time><waveformID networkCode="CX" stationCode="PB07" channelCode="HHN"/><filterID>ITAPER(2)&gt;&gt;BW(3,3,20)</filterID><methodID>L2-AIC-GRID</methodID><horizontalSlowness><value>22.680242090717893</value></horizontalSlowness><backazimuth><value>127.76444408175684</value></backazimuth><phaseHint>S</phaseHint><evaluationMode>automatic</evaluationMode><comment><text>594011.8643167486</text><id>DFX:rectilinearity</id></comment><comment><text>de.gempa.tb1.Pick/20250411125744.033048.117721</text><id>RefPickID</id></comment><comment><text>8.218336960905225</text><id>SNR</id></comment></pick><pick publicID="de.gempa.tb1.Pick/20250411125802.521637.117737"><time><value>2025-04-11T12:57:55.68Z</value></time><waveformID networkCode="CX" stationCode="PB19" channelCode="HHZ"/><filterID>ITAPER(4)&gt;&gt;BW(4,4,20)</filterID><methodID>AIC</methodID><horizontalSlowness><value>20.9794875048518</value></horizontalSlowness><backazimuth><value>27.174119237399367</value></backazimuth><phaseHint>P</phaseHint><evaluationMode>automatic</evaluationMode><comment><text>23.641235731971413</text><id>DFX:rectilinearity</id></comment><comment><text>19.824451970948232</text><id>SNR</id></comment></pick><pick publicID="de.gempa.tb1.Pick/20250411125802.816002.117739"><time><value>2025-04-11T12:57:55.138393Z</value></time><waveformID networkCode="CX" stationCode="PB03" channelCode="HHN"/><filterID>ITAPER(2)&gt;&gt;BW(3,3,20)</filterID><methodID>L2-AIC-GRID</methodID><horizontalSlowness><value>12.928399710260965</value></horizontalSlowness><backazimuth><value>275.5853007541837</value></backazimuth><phaseHint>S</phaseHint><evaluationMode>automatic</evaluationMode><comment><text>27834.8690886024</text><id>DFX:rectilinearity</id></comment><comment><text>de.gempa.tb1.Pick/20250411125739.624375.117715</text><id>RefPickID</id></comment><comment><text>12.757081491904191</text><id>SNR</id></comment></pick><pick publicID="de.gempa.tb1.Pick/20250411125814.622374.117743"><time><value>2025-04-11T12:58:07.488393Z</value></time><waveformID networkCode="CX" stationCode="PB06" channelCode="HHN"/><filterID>ITAPER(2)&gt;&gt;BW(3,3,20)</filterID><methodID>L2-AIC-GRID</methodID><horizontalSlowness><value>19.169598580492774</value></horizontalSlowness><backazimuth><value>75.636011569969</value></backazimuth><phaseHint>S</phaseHint><evaluationMode>automatic</evaluationMode><comment><text>1411.285313389001</text><id>DFX:rectilinearity</id></comment><comment><text>de.gempa.tb1.Pick/20250411125746.536223.117723</text><id>RefPickID</id></comment><comment><text>7.271079889128306</text><id>SNR</id></comment></pick><pick publicID="de.gempa.tb1.Pick/20250411125825.846492.117745"><time><value>2025-04-11T12:58:19.528393Z</value></time><waveformID networkCode="CX" stationCode="PB15" channelCode="HHN"/><filterID>ITAPER(2)&gt;&gt;BW(3,3,20)</filterID><methodID>L2-AIC-GRID</methodID><horizontalSlowness><value>21.284083708370357</value></horizontalSlowness><backazimuth><value>104.48412082164253</value></backazimuth><phaseHint>S</phaseHint><evaluationMode>automatic</evaluationMode><comment><text>17839.80636591072</text><id>DFX:rectilinearity</id></comment><comment><text>de.gempa.tb1.Pick/20250411125754.770916.117726</text><id>RefPickID</id></comment><comment><text>7.374241960207812</text><id>SNR</id></comment></pick><pick publicID="de.gempa.tb1.Pick/20250411125845.613929.117747"><time><value>2025-04-11T12:58:34.54Z</value></time><waveformID networkCode="CX" stationCode="PB19" channelCode="HHN"/><filterID>ITAPER(2)&gt;&gt;BW(3,3,20)</filterID><methodID>L2-AIC-GRID</methodID><horizontalSlowness><value>21.702958878239887</value></horizontalSlowness><backazimuth><value>12.45982676720675</value></backazimuth><phaseHint>S</phaseHint><evaluationMode>automatic</evaluationMode><comment><text>269.62853153257583</text><id>DFX:rectilinearity</id></comment><comment><text>de.gempa.tb1.Pick/20250411125802.521637.117737</text><id>RefPickID</id></comment><comment><text>5.850367866470648</text><id>SNR</id></comment></pick><origin publicID="de.gempa.tb1.Origin/20250411125845.618857.56148"><time><value>2025-04-11T12:57:04.566537Z</value><uncertainty>0.6331636905670166</uncertainty></time><latitude><value>-20.523515701293945</value><uncertainty>2.426072597503662</uncertainty></latitude><longitude><value>-69.01577758789062</value><uncertainty>5.40436840057373</uncertainty></longitude><depth><value>109.14592742919922</value><uncertainty>5.429583072662354</uncertainty></depth><depthType>from location</depthType><methodID>LOCSAT</methodID><earthModelID>iasp91_scanloc</earthModelID><quality><associatedPhaseCount>22</associatedPhaseCount><usedPhaseCount>22</usedPhaseCount><associatedStationCount>11</associatedStationCount><usedStationCount>11</usedStationCount><depthPhaseCount>0</depthPhaseCount><standardError>0.5533576762513159</standardError><azimuthalGap>203.0519256591797</azimuthalGap><maximumDistance>3.3746776580810547</maximumDistance><minimumDistance>0.40177077054977417</minimumDistance><medianDistance>1.390247941017151</medianDistance></quality><uncertainty><minHorizontalUncertainty>5.143746852874756</minHorizontalUncertainty><maxHorizontalUncertainty>11.610002517700195</maxHorizontalUncertainty><azimuthMaxHorizontalUncertainty>85.779052734375</azimuthMaxHorizontalUncertainty><preferredDescription>horizontal uncertainty</preferredDescription></uncertainty><evaluationMode>automatic</evaluationMode><evaluationStatus>confirmed</evaluationStatus><comment><text>0.05</text><id>mismatchScore</id></comment><comment><text>mismatchScore</text><id>scevalMethod</id></comment><arrival><pickID>de.gempa.tb1.Pick/20250411125726.657326.117705</pickID><phase>P</phase><azimuth>220.394775390625</azimuth><distance>0.6798093318939209</distance><timeResidual>-0.353271484375</timeResidual><timeUsed>true</timeUsed><horizontalSlownessUsed>false</horizontalSlownessUsed><backazimuthUsed>false</backazimuthUsed><weight>1</weight></arrival><arrival><pickID>de.gempa.tb1.Pick/20250411125727.102809.117707</pickID><phase>P</phase><azimuth>341.2256774902344</azimuth><distance>0.40177077054977417</distance><timeResidual>-0.09105300903320312</timeResidual><timeUsed>true</timeUsed><horizontalSlownessUsed>false</horizontalSlownessUsed><backazimuthUsed>false</backazimuthUsed><weight>1</weight></arrival><arrival><pickID>de.gempa.tb1.Pick/20250411125732.462814.117709</pickID><phase>P</phase><azimuth>254.2806091308594</azimuth><distance>1.1050671339035034</distance><timeResidual>0.033039093017578125</timeResidual><timeUsed>true</timeUsed><horizontalSlownessUsed>false</horizontalSlownessUsed><backazimuthUsed>false</backazimuthUsed><weight>1</weight></arrival><arrival><pickID>de.gempa.tb1.Pick/20250411125732.572373.117711</pickID><phase>P</phase><azimuth>225.93280029296875</azimuth><distance>1.142280101776123</distance><timeResidual>0.228759765625</timeResidual><timeUsed>true</timeUsed><horizontalSlownessUsed>false</horizontalSlownessUsed><backazimuthUsed>false</backazimuthUsed><weight>1</weight></arrival><arrival><pickID>de.gempa.tb1.Pick/20250411125734.700814.117713</pickID><phase>P</phase><azimuth>311.33074951171875</azimuth><distance>1.390247941017151</distance><timeResidual>-0.31311798095703125</timeResidual><timeUsed>true</timeUsed><horizontalSlownessUsed>false</horizontalSlownessUsed><backazimuthUsed>false</backazimuthUsed><weight>1</weight></arrival><arrival><pickID>de.gempa.tb1.Pick/20250411125739.624375.117715</pickID><phase>P</phase><azimuth>204.2457733154297</azimuth><distance>1.6659331321716309</distance><timeResidual>-0.22181129455566406</timeResidual><timeUsed>true</timeUsed><horizontalSlownessUsed>false</horizontalSlownessUsed><backazimuthUsed>false</backazimuthUsed><weight>1</weight></arrival><arrival><pickID>de.gempa.tb1.Pick/20250411125739.664336.117717</pickID><phase>S</phase><azimuth>341.2256774902344</azimuth><distance>0.40177077054977417</distance><timeResidual>-0.17221832275390625</timeResidual><timeUsed>true</timeUsed><horizontalSlownessUsed>false</horizontalSlownessUsed><backazimuthUsed>false</backazimuthUsed><weight>1</weight></arrival><arrival><pickID>de.gempa.tb1.Pick/20250411125742.777315.117718</pickID><phase>S</phase><azimuth>220.394775390625</azimuth><distance>0.6798093318939209</distance><timeResidual>-0.35513877868652344</timeResidual><timeUsed>true</timeUsed><horizontalSlownessUsed>false</horizontalSlownessUsed><backazimuthUsed>false</backazimuthUsed><weight>1</weight></arrival><arrival><pickID>de.gempa.tb1.Pick/20250411125742.830169.117719</pickID><phase>P</phase><azimuth>189.4214324951172</azimuth><distance>1.2840123176574707</distance><timeResidual>0.14654159545898438</timeResidual><timeUsed>true</timeUsed><horizontalSlownessUsed>false</horizontalSlownessUsed><backazimuthUsed>false</backazimuthUsed><weight>1</weight></arrival><arrival><pickID>de.gempa.tb1.Pick/20250411125744.033048.117721</pickID><phase>P</phase><azimuth>214.01263427734375</azimuth><distance>1.446901798248291</distance><timeResidual>-0.09144401550292969</timeResidual><timeUsed>true</timeUsed><horizontalSlownessUsed>false</horizontalSlownessUsed><backazimuthUsed>false</backazimuthUsed><weight>1</weight></arrival><arrival><pickID>de.gempa.tb1.Pick/20250411125746.536223.117723</pickID><phase>P</phase><azimuth>193.30186462402344</azimuth><distance>2.2323992252349854</distance><timeResidual>0.20232582092285156</timeResidual><timeUsed>true</timeUsed><horizontalSlownessUsed>false</horizontalSlownessUsed><backazimuthUsed>false</backazimuthUsed><weight>1</weight></arriva