<?xml version="1.0" encoding="UTF-8"?>
<seiscomp xmlns="http://geofon.gfz-potsdam.de/ns/seiscomp3-schema/0.13" version="0.13"><EventParameters><pick publicID="de.gempa.tb1.Pick/20250414120927.563268.137849"><time><value>2025-04-14T12:09:19.968393Z</value></time><waveformID networkCode="CX" stationCode="PB03" channelCode="HHZ"/><filterID>ITAPER(4)&gt;&gt;BW(4,4,20)</filterID><methodID>AIC</methodID><horizontalSlowness><value>8.699516347362547</value></horizontalSlowness><backazimuth><value>127.48215991593506</value></backazimuth><phaseHint>P</phaseHint><evaluationMode>automatic</evaluationMode><comment><text>3.7083731557871467</text><id>DFX:rectilinearity</id></comment><comment><text>22.69962117792657</text><id>SNR</id></comment></pick><pick publicID="de.gempa.tb1.Pick/20250414120929.138421.137851"><time><value>2025-04-14T12:09:16.6Z</value></time><waveformID networkCode="CX" stationCode="PB09" channelCode="HHZ"/><filterID>ITAPER(4)&gt;&gt;BW(4,4,20)</filterID><methodID>AIC</methodID><horizontalSlowness><value>14.797607034529866</value></horizontalSlowness><backazimuth><value>247.15497778222</value></backazimuth><phaseHint>P</phaseHint><evaluationMode>automatic</evaluationMode><comment><text>10.659186174960748</text><id>DFX:rectilinearity</id></comment><comment><text>36.13654133608131</text><id>SNR</id></comment></pick><pick publicID="de.gempa.tb1.Pick/20250414120929.611516.137853"><time><value>2025-04-14T12:09:20.558393Z</value></time><waveformID networkCode="CX" stationCode="PB06" channelCode="HHZ"/><filterID>ITAPER(4)&gt;&gt;BW(4,4,20)</filterID><methodID>AIC</methodID><horizontalSlowness><value>4.1628488549948104</value></horizontalSlowness><backazimuth><value>289.53949046697647</value></backazimuth><phaseHint>P</phaseHint><evaluationMode>automatic</evaluationMode><comment><text>37.5479961319937</text><id>DFX:rectilinearity</id></comment><comment><text>6.946680939110875</text><id>SNR</id></comment></pick><pick publicID="de.gempa.tb1.Pick/20250414120931.537331.137855"><time><value>2025-04-14T12:09:22.398393Z</value></time><waveformID networkCode="CX" stationCode="PB01" channelCode="HHZ"/><filterID>ITAPER(4)&gt;&gt;BW(4,4,20)</filterID><methodID>AIC</methodID><horizontalSlowness><value>17.095107503732088</value></horizontalSlowness><backazimuth><value>275.16365971118876</value></backazimuth><phaseHint>P</phaseHint><evaluationMode>automatic</evaluationMode><comment><text>3.6321349550159567</text><id>DFX:rectilinearity</id></comment><comment><text>13.021528255453163</text><id>SNR</id></comment></pick><pick publicID="de.gempa.tb1.Pick/20250414120932.55784.137857"><time><value>2025-04-14T12:09:23.958394Z</value></time><waveformID networkCode="CX" stationCode="PB02" channelCode="HHZ"/><filterID>ITAPER(4)&gt;&gt;BW(4,4,20)</filterID><methodID>AIC</methodID><horizontalSlowness><value>6.24826023975054</value></horizontalSlowness><backazimuth><value>313.6552076048307</value></backazimuth><phaseHint>P</phaseHint><evaluationMode>automatic</evaluationMode><comment><text>14.773702182349657</text><id>DFX:rectilinearity</id></comment><comment><text>7.479141387418545</text><id>SNR</id></comment></pick><pick publicID="de.gempa.tb1.Pick/20250414120945.630725.137859"><time><value>2025-04-14T12:09:37.468393Z</value></time><waveformID networkCode="CX" stationCode="PB03" channelCode="HHN"/><filterID>ITAPER(2)&gt;&gt;BW(3,3,20)</filterID><methodID>L2-AIC-GRID</methodID><horizontalSlowness><value>9.972189845903312</value></horizontalSlowness><backazimuth><value>174.5512428622385</value></backazimuth><phaseHint>S</phaseHint><evaluationMode>automatic</evaluationMode><comment><text>9.431351657444688</text><id>DFX:rectilinearity</id></comment><comment><text>de.gempa.tb1.Pick/20250414120927.563268.137849</text><id>RefPickID</id></comment><comment><text>5.329776658576485</text><id>SNR</id></comment></pick><pick publicID="de.gempa.tb1.Pick/20250414120947.058892.137860"><time><value>2025-04-14T12:09:21.668393Z</value></time><waveformID networkCode="CX" stationCode="PB07" channelCode="HHZ"/><filterID>ITAPER(4)&gt;&gt;BW(4,4,20)</filterID><methodID>AIC</methodID><horizontalSlowness><value>22.933416819214916</value></horizontalSlowness><backazimuth><value>224.38530001043384</value></backazimuth><phaseHint>P</phaseHint><evaluationMode>automatic</evaluationMode><comment><text>68.80160089900194</text><id>DFX:rectilinearity</id></comment><comment><text>47.85567067105011</text><id>SNR</id></comment></pick><pick publicID="de.gempa.tb1.Pick/20250414120951.662951.137863"><time><value>2025-04-14T12:09:41.628393Z</value></time><waveformID networkCode="CX" stationCode="PB01" channelCode="HHN"/><filterID>ITAPER(2)&gt;&gt;BW(3,3,20)</filterID><methodID>L2-AIC-GRID</methodID><horizontalSlowness><value>17.430368592343456</value></horizontalSlowness><backazimuth><value>340.73722981336255</value></backazimuth><phaseHint>S</phaseHint><evaluationMode>automatic</evaluationMode><comment><text>6.66667563458311</text><id>DFX:rectilinearity</id></comment><comment><text>de.gempa.tb1.Pick/20250414120931.537331.137855</text><id>RefPickID</id></comment><comment><text>7.785449491352706</text><id>SNR</id></comment></pick><origin publicID="de.gempa.tb1.Origin/20250414120951.665826.136943"><time><value>2025-04-14T12:08:57.676887Z</value><uncertainty>1.277350664138794</uncertainty></time><latitude><value>-22.03533172607422</value><uncertainty>6.637141227722168</uncertainty></latitude><longitude><value>-68.6465072631836</value><uncertainty>18.092706680297852</uncertainty></longitude><depth><value>120.7993392944336</value><uncertainty>19.810588836669922</uncertainty></depth><depthType>from location</depthType><methodID>LOCSAT</methodID><earthModelID>iasp91_scanloc</earthModelID><quality><associatedPhaseCount>8</associatedPhaseCount><usedPhaseCount>8</usedPhaseCount><associatedStationCount>6</associatedStationCount><usedStationCount>6</usedStationCount><depthPhaseCount>0</depthPhaseCount><standardError>0.1579695603907192</standardError><azimuthalGap>270.4750671386719</azimuthalGap><maximumDistance>1.3630086183547974</maximumDistance><minimumDistance>0.6018657088279724</minimumDistance><medianDistance>1.1916933059692383</medianDistance></quality><uncertainty><minHorizontalUncertainty>13.877309799194336</minHorizontalUncertainty><maxHorizontalUncertainty>38.92610549926758</maxHorizontalUncertainty><azimuthMaxHorizontalUncertainty>94.98467254638672</azimuthMaxHorizontalUncertainty><preferredDescription>horizontal uncertainty</preferredDescription></uncertainty><evaluationMode>automatic</evaluationMode><evaluationStatus>confirmed</evaluationStatus><comment><text>0.00</text><id>mismatchScore</id></comment><comment><text>mismatchScore</text><id>scevalMethod</id></comment><arrival><pickID>de.gempa.tb1.Pick/20250414120927.563268.137849</pickID><phase>P</phase><azimuth>269.06396484375</azimuth><distance>1.0267554521560669</distance><timeResidual>-0.11208724975585938</timeResidual><timeUsed>true</timeUsed><horizontalSlownessUsed>false</horizontalSlownessUsed><backazimuthUsed>false</backazimuthUsed><weight>1</weight></arrival><arrival><pickID>de.gempa.tb1.Pick/20250414120929.138421.137851</pickID><phase>P</phase><azimuth>293.1612854003906</azimuth><distance>0.6018657088279724</distance><timeResidual>0.18643569946289062</timeResidual><timeUsed>true</timeUsed><horizontalSlownessUsed>false</horizontalSlownessUsed><backazimuthUsed>false</backazimuthUsed><weight>1</weight></arrival><arrival><pickID>de.gempa.tb1.Pick/20250414120929.611516.137853</pickID><phase>P</phase><azimuth>231.9065856933594</azimuth><distance>1.0857810974121094</distance><timeResidual>-0.11055564880371094</timeResidual><timeUsed>true</timeUsed><horizontalSlownessUsed>false</horizontalSlownessUsed><backazimuthUsed>false</backazimuthUsed><weight>1</weight></arrival><arrival><pickID>de.gempa.tb1.Pick/20250414120931.537331.137855</pickID><phase>P</phase><azimuth>321.4315185546875</azimuth><distance>1.2599594593048096</distance><timeResidual>-0.11322021484375</timeResidual><timeUsed>true</timeUsed><horizontalSlownessUsed>false</horizontalSlownessUsed><backazimuthUsed>false</backazimuthUsed><weight>1</weight></arrival><arrival><pickID>de.gempa.tb1.Pick/20250414120932.55784.137857</pickID><phase>P</phase><azimuth>301.2659606933594</azimuth><distance>1.3630086183547974</distance><timeResidual>0.31362342834472656</timeResidual><timeUsed>true</timeUsed><horizontalSlownessUsed>false</horizontalSlownessUsed><backazimuthUsed>false</backazimuthUsed><weight>1</weight></arrival><arrival><pickID>de.gempa.tb1.Pick/20250414120945.630725.137859</pickID><phase>S</phase><azimuth>269.06396484375</azimuth><distance>1.0267554521560669</distance><timeResidual>0.06038475036621094</timeResidual><timeUsed>true</timeUsed><horizontalSlownessUsed>false</horizontalSlownessUsed><backazimuthUsed>false</backazimuthUsed><weight>1</weight></arrival><arrival><pickID>de.gempa.tb1.Pick/20250414120947.058892.137860</pickID><phase>P</phase><azimuth>284.70660400390625</azimuth><distance>1.1916933059692383</distance><timeResidual>-0.10678291320800781</timeResidual><timeUsed>true</timeUsed><horizontalSlownessUsed>false</horizontalSlownessUsed><backazimuthUsed>false</backazimuthUsed><weight>1</weight></arrival><arrival><pickID>de.gempa.tb1.Pick/20250414120951.662951.137863</pickID><phase>S</phase><azimuth>321.4315185546875</azimuth><distance>1.2599594593048096</distance><timeResidual>-0.11774253845214844</timeResidual><timeUsed>true</timeUsed><horizontalSlownessUsed>false</horizontalSlownessUsed><backazimuthUsed>false</backazimuthUsed><weight>1</weight></arrival><magnitude publicID="de.gempa.tb1.Magnitude/20250414121023.181518.485219"><magnitude><value>2.1962135159714737</value></magnitude><type>M</type><methodID>weighted average</methodID><stationCount>3</stationCount></magnitude></origin><event publicID="gempa2025hjeo"><preferredOriginID>de.gempa.tb1.Origin/20250414120951.665826.136943</preferredOriginID><preferredMagnitudeID>de.gempa.tb1.Magnitude/20250414121023.181518.485219</preferredMagnitudeID><description><text>Northern Chile</text><type>region name</type></description><originReference>de.gempa.tb1.Origin/20250414120951.665826.136943</originReference></event></EventParameters></seiscomp>