<?xml version="1.0" encoding="UTF-8"?>
<seiscomp xmlns="http://geofon.gfz-potsdam.de/ns/seiscomp3-schema/0.13" version="0.13"><EventParameters><pick publicID="de.gempa.tb1.Pick/20250414051043.579063.135871"><time><value>2025-04-14T05:10:36.76Z</value></time><waveformID networkCode="CX" stationCode="PSGCX" channelCode="HHZ"/><filterID>ITAPER(4)&gt;&gt;BW(4,4,20)</filterID><methodID>AIC</methodID><horizontalSlowness><value>4.445090277769592</value></horizontalSlowness><backazimuth><value>71.2087276787138</value></backazimuth><phaseHint>P</phaseHint><evaluationMode>automatic</evaluationMode><comment><text>319.61745583760296</text><id>DFX:rectilinearity</id></comment><comment><text>767.4144394339838</text><id>SNR</id></comment></pick><pick publicID="de.gempa.tb1.Pick/20250414051049.229615.135873"><time><value>2025-04-14T05:10:41.128393Z</value></time><waveformID networkCode="CX" stationCode="PB08" channelCode="HHZ"/><filterID>ITAPER(4)&gt;&gt;BW(4,4,20)</filterID><methodID>AIC</methodID><horizontalSlowness><value>10.255851771113761</value></horizontalSlowness><backazimuth><value>91.17188770953693</value></backazimuth><phaseHint>P</phaseHint><evaluationMode>automatic</evaluationMode><comment><text>8.419007728688925</text><id>DFX:rectilinearity</id></comment><comment><text>43.348135192937654</text><id>SNR</id></comment></pick><pick publicID="de.gempa.tb1.Pick/20250414051055.461028.135875"><time><value>2025-04-14T05:10:49.070001Z</value></time><waveformID networkCode="CX" stationCode="PATCX" channelCode="HHZ"/><filterID>ITAPER(4)&gt;&gt;BW(4,4,20)</filterID><methodID>AIC</methodID><horizontalSlowness><value>21.77274346763587</value></horizontalSlowness><backazimuth><value>349.45073014955744</value></backazimuth><phaseHint>P</phaseHint><evaluationMode>automatic</evaluationMode><comment><text>91.6164346555003</text><id>DFX:rectilinearity</id></comment><comment><text>21.522170704040239</text><id>SNR</id></comment></pick><pick publicID="de.gempa.tb1.Pick/20250414051055.692275.135877"><time><value>2025-04-14T05:10:49.47Z</value></time><waveformID networkCode="CX" stationCode="PSGCX" channelCode="HHN"/><filterID>ITAPER(2)&gt;&gt;BW(3,3,20)</filterID><methodID>L2-AIC-GRID</methodID><horizontalSlowness><value>22.032344493207248</value></horizontalSlowness><backazimuth><value>260.598225338102</value></backazimuth><phaseHint>S</phaseHint><evaluationMode>automatic</evaluationMode><comment><text>13247.4055857007</text><id>DFX:rectilinearity</id></comment><comment><text>de.gempa.tb1.Pick/20250414051043.579063.135871</text><id>RefPickID</id></comment><comment><text>6.557093709360298</text><id>SNR</id></comment></pick><pick publicID="de.gempa.tb1.Pick/20250414051056.592534.135878"><time><value>2025-04-14T05:10:51.148393Z</value></time><waveformID networkCode="CX" stationCode="PB01" channelCode="HHZ"/><filterID>ITAPER(4)&gt;&gt;BW(4,4,20)</filterID><methodID>AIC</methodID><horizontalSlowness><value>17.188957556098202</value></horizontalSlowness><backazimuth><value>21.440349280448032</value></backazimuth><phaseHint>P</phaseHint><evaluationMode>automatic</evaluationMode><comment><text>28.311530345902124</text><id>DFX:rectilinearity</id></comment><comment><text>34.34245236237048</text><id>SNR</id></comment></pick><pick publicID="de.gempa.tb1.Pick/20250414051100.465672.135880"><time><value>2025-04-14T05:10:55.938393Z</value></time><waveformID networkCode="CX" stationCode="PB02" channelCode="HHZ"/><filterID>ITAPER(4)&gt;&gt;BW(4,4,20)</filterID><methodID>AIC</methodID><horizontalSlowness><value>10.201067515501336</value></horizontalSlowness><backazimuth><value>24.031865907480324</value></backazimuth><phaseHint>P</phaseHint><evaluationMode>automatic</evaluationMode><comment><text>94.3913123514909</text><id>DFX:rectilinearity</id></comment><comment><text>20.63678034956357</text><id>SNR</id></comment></pick><pick publicID="de.gempa.tb1.Pick/20250414051103.56231.135882"><time><value>2025-04-14T05:10:56.728393Z</value></time><waveformID networkCode="CX" stationCode="PB08" channelCode="HHN"/><filterID>ITAPER(2)&gt;&gt;BW(3,3,20)</filterID><methodID>L2-AIC-GRID</methodID><horizontalSlowness><value>14.806606599442071</value></horizontalSlowness><backazimuth><value>211.59829694668969</value></backazimuth><phaseHint>S</phaseHint><evaluationMode>automatic</evaluationMode><comment><text>5539.123147175537</text><id>DFX:rectilinearity</id></comment><comment><text>de.gempa.tb1.Pick/20250414051049.229615.135873</text><id>RefPickID</id></comment><comment><text>10.576806970804807</text><id>SNR</id></comment></pick><pick publicID="de.gempa.tb1.Pick/20250414051108.34118.135883"><time><value>2025-04-14T05:11:01.518393Z</value></time><waveformID networkCode="CX" stationCode="PB07" channelCode="HHZ"/><filterID>ITAPER(4)&gt;&gt;BW(4,4,20)</filterID><methodID>AIC</methodID><horizontalSlowness><value>14.37504205180746</value></horizontalSlowness><backazimuth><value>339.23574091329556</value></backazimuth><phaseHint>P</phaseHint><evaluationMode>automatic</evaluationMode><comment><text>609.8557209321878</text><id>DFX:rectilinearity</id></comment><comment><text>37.55754822196578</text><id>SNR</id></comment></pick><pick publicID="de.gempa.tb1.Pick/20250414051112.577888.135886"><time><value>2025-04-14T05:11:06.238393Z</value></time><waveformID networkCode="CX" stationCode="PB03" channelCode="HHZ"/><filterID>ITAPER(4)&gt;&gt;BW(4,4,20)</filterID><methodID>AIC</methodID><horizontalSlowness><value>13.923234861231933</value></horizontalSlowness><backazimuth><value>7.407440865293239</value></backazimuth><phaseHint>P</phaseHint><evaluationMode>automatic</evaluationMode><comment><text>9.471327923852725</text><id>DFX:rectilinearity</id></comment><comment><text>17.728108051690818</text><id>SNR</id></comment></pick><pick publicID="de.gempa.tb1.Pick/20250414051113.437242.135889"><time><value>2025-04-14T05:11:02.86Z</value></time><waveformID networkCode="CX" stationCode="PB09" channelCode="HHZ"/><filterID>ITAPER(4)&gt;&gt;BW(4,4,20)</filterID><methodID>AIC</methodID><horizontalSlowness><value>12.945480617538283</value></horizontalSlowness><backazimuth><value>67.52531012079015</value></backazimuth><phaseHint>P</phaseHint><evaluationMode>automatic</evaluationMode><comment><text>9.716207456197157</text><id>DFX:rectilinearity</id></comment><comment><text>21.22493152000684</text><id>SNR</id></comment></pick><pick publicID="de.gempa.tb1.Pick/20250414051124.452912.135893"><time><value>2025-04-14T05:11:11.650001Z</value></time><waveformID networkCode="CX" stationCode="PATCX" channelCode="HHN"/><filterID>ITAPER(2)&gt;&gt;BW(3,3,20)</filterID><methodID>L2-AIC-GRID</methodID><horizontalSlowness><value>21.78527256086216</value></horizontalSlowness><backazimuth><value>59.4664747676822</value></backazimuth><phaseHint>S</phaseHint><evaluationMode>automatic</evaluationMode><comment><text>1702.7189009012532</text><id>DFX:rectilinearity</id></comment><comment><text>de.gempa.tb1.Pick/20250414051055.461028.135875</text><id>RefPickID</id></comment><comment><text>8.54173776793715</text><id>SNR</id></comment></pick><pick publicID="de.gempa.tb1.Pick/20250414051124.778729.135894"><time><value>2025-04-14T05:11:14.938393Z</value></time><waveformID networkCode="CX" stationCode="PB01" channelCode="HHN"/><filterID>ITAPER(2)&gt;&gt;BW(3,3,20)</filterID><methodID>L2-AIC-GRID</methodID><horizontalSlowness><value>22.600904389463306</value></horizontalSlowness><backazimuth><value>112.95302782140735</value></backazimuth><phaseHint>S</phaseHint><evaluationMode>automatic</evaluationMode><comment><text>660.7476033326699</text><id>DFX:rectilinearity</id></comment><comment><text>de.gempa.tb1.Pick/20250414051056.592534.135878</text><id>RefPickID</id></comment><comment><text>9.34903076583605</text><id>SNR</id></comment></pick><pick publicID="de.gempa.tb1.Pick/20250414051134.64181.135897"><time><value>2025-04-14T05:11:23.338393Z</value></time><waveformID networkCode="CX" stationCode="PB02" channelCode="HHN"/><filterID>ITAPER(2)&gt;&gt;BW(3,3,20)</filterID><methodID>L2-AIC-GRID</methodID><horizontalSlowness><value>14.669656858726487</value></horizontalSlowness><backazimuth><value>20.650010934604495</value></backazimuth><phaseHint>S</phaseHint><evaluationMode>automatic</evaluationMode><comment><text>2520.328299734768</text><id>DFX:rectilinearity</id></comment><comment><text>de.gempa.tb1.Pick/20250414051100.465672.135880</text><id>RefPickID</id></comment><comment><text>9.268708402765931</text><id>SNR</id></comment></pick><origin publicID="de.gempa.tb1.Origin/20250414051134.644714.128169"><time><value>2025-04-14T05:10:21.488263Z</value><uncertainty>0.969027578830719</uncertainty></time><latitude><value>-19.148788452148438</value><uncertainty>6.083628177642822</uncertainty></latitude><longitude><value>-69.57345581054688</value><uncertainty>6.23992109298706</uncertainty></longitude><depth><value>80.53366088867188</value><uncertainty>7.934804439544678</uncertainty></depth><depthType>from location</depthType><methodID>LOCSAT</methodID><earthModelID>iasp91_scanloc</earthModelID><quality><associatedPhaseCount>13</associatedPhaseCount><usedPhaseCount>13</usedPhaseCount><associatedStationCount>8</associatedStationCount><usedStationCount>8</usedStationCount><depthPhaseCount>0</depthPhaseCount><standardError>0.6078492387754713</standardError><azimuthalGap>288.9910583496094</azimuthalGap><maximumDistance>2.8899435997009277</maximumDistance><minimumDistance>0.6842179298400879</minimumDistance><medianDistance>1.8864647150039673</medianDistance></quality><uncertainty><minHorizontalUncertainty>11.572355270385742</minHorizontalUncertainty><maxHorizontalUncertainty>14.673084259033203</maxHorizontalUncertainty><azimuthMaxHorizontalUncertainty>48.12389755249023</azimuthMaxHorizontalUncertainty><preferredDescription>horizontal uncertainty</preferredDescription></uncertainty><evaluationMode>automatic</evaluationMode><evaluationStatus>confirmed</evaluationStatus><comment><text>0.00</text><id>mismatchScore</id></comment><comment><text>mismatchScore</text><id>scevalMethod</id></comment><arrival><pickID>de.gempa.tb1.Pick/20250414051043.579063.135871</pickID><phase>P</phase><azimuth>229.2255554199219</azimuth><distance>0.6842179298400879</distance><timeResidual>-0.28690433502197266</timeResidual><timeUsed>true</timeUsed><horizontalSlownessUsed>false</horizontalSlownessUsed><backazimuthUsed>false</backazimuthUsed><weight>1</weight></arrival><arrival><pickID>de.gempa.tb1.Pick/20250414051049.229615.135873</pickID><phase>P</phase><azimuth>158.21661376953125</azimuth><distance>1.0636065006256104</distance><timeResidual>-0.21361255645751953</timeResidual><timeUsed>true</timeUsed><horizontalSlownessUsed>false</horizontalSlownessUsed><backazimuthUsed>false</backazimuthUsed><weight>1</weight></arrival><arrival><pickID>de.gempa.tb1.Pick/20250414051055.461028.135875</pickID><phase>P</phase><azimuth>198.04270935058594</azimuth><distance>1.7503106594085693</distance><timeResidual>-1.024815559387207</timeResidual><timeUsed>true</timeUsed><horizontalSlownessUsed>false</horizontalSlownessUsed><backazimuthUsed>false</backazimuthUsed><weight>1</weight></arrival><arrival><pickID>de.gempa.tb1.Pick/20250414051055.692275.135877</pickID><phase>S</phase><azimuth>229.2255554199219</azimuth><distance>0.6842179298400879</distance><timeResidual>0.5121421813964844</timeResidual><timeUsed>true</timeUsed><horizontalSlownessUsed>false</horizontalSlownessUsed><backazimuthUsed>false</backazimuthUsed><weight>1</weight></arrival><arrival><pickID>de.gempa.tb1.Pick/20250414051056.592534.135878</pickID><phase>P</phase><azimuth>177.55723571777344</azimuth><distance>1.8864647150039673</distance><timeResidual>-0.7419042587280273</timeResidual><timeUsed>true</timeUsed><horizontalSlownessUsed>false</horizontalSlownessUsed><backazimuthUsed>false</backazimuthUsed><weight>1</weight></arrival><arrival><pickID>de.gempa.tb1.Pick/20250414051100.465672.135880</pickID><phase>P</phase><azimuth>187.9282989501953</azimuth><distance>2.1809923648834229</distance><timeResidual>0.12699031829833984</timeResidual><timeUsed>true</timeUsed><horizontalSlownessUsed>false</horizontalSlownessUsed><backazimuthUsed>false</backazimuthUsed><weight>1</weight></arrival><arrival><pickID>de.gempa.tb1.Pick/20250414051103.56231.135882</pickID><phase>S</phase><azimuth>158.21661376953125</azimuth><distance>1.0636065006256104</distance><timeResidual>0.10925579071044922</timeResidual><timeUsed>true</timeUsed><horizontalSlownessUsed>false</horizontalSlownessUsed><backazimuthUsed>false</backazimuthUsed><weight>1</weight></arrival><arrival><pickID>de.gempa.tb1.Pick/20250414051108.34118.135883</pickID><phase>P</phase><azimuth>186.46946716308594</azimuth><distance>2.581509828567505</distance><timeResidual>0.3329935073852539</timeResidual><timeUsed>true</timeUsed><horizontalSlownessUsed>false</horizontalSlownessUsed><backazimuthUsed>false</backazimuthUsed><weight>1</weight></arrival><arrival><pickID>de.gempa.tb1.Pick/20250414051112.577888.135886</pickID><phase>P</phase><azimuth>183.30743408203125</azimuth><distance>2.8899435997009277</distance><timeResidual>0.8891382217407227</timeResidual><timeUsed>true</timeUsed><horizontalSlownessUsed>false</horizontalSlownessUsed><backazimuthUsed>false</backazimuthUsed><weight>1</weight></arrival><arrival><pickID>de.gempa.tb1.Pick/20250414051113.437242.135889</pickID><phase>P</phase><azimuth>173.326904296875</azimuth><distance>2.652444124221802</distance><timeResidual>0.7178182601928711</timeResidual><timeUsed>true</timeUsed><horizontalSlownessUsed>false</horizontalSlownessUsed><backazimuthUsed>false</backazimuthUsed><weight>1</weight></arrival><arrival><pickID>de.gempa.tb1.Pick/20250414051124.452912.135893</pickID><phase>S</phase><azimuth>198.04270935058594</azimuth><distance>1.7503106594085693</distance><timeResidual>-0.6414213180541992</timeResidual><timeUsed>true</timeUsed><horizontalSlownessUsed>false</horizontalSlownessUsed><backazimuthUsed>false</backazimuthUsed><weight>1</weight></arrival><arrival><pickID>de.gempa.tb1.Pick/20250414051124.778729.135894</pickID><phase>S</phase><azimuth>177.55723571777344</azimuth><distance>1.8864647150039673</distance><timeResidual>-0.5725431442260742</timeResidual><timeUsed>true</timeUsed><horizontalSlownessUsed>false</horizontalSlownessUsed><backazimuthUsed>false</backazimuthUsed><weight>1</weight></arrival><arrival><pickID>de.gempa.tb1.Pick/20250414051134.64181.135897</pickID><phase>S</phase><azimuth>187.9282989501953</azimuth><distance>2.1809923648834229</distance><timeResidual>0.7926797866821289</timeResidual><timeUsed>true</timeUsed><horizontalSlownessUsed>false</horizontalSlownessUsed><backazimuthUsed>false</backazimuthUsed><weight>1</weight></arrival><magnitude publicID="de.gempa.tb1.Magnitude/20250414051140.939039.431751"><magnitude><value>2.97595511194524</value></magnitude><type>M</type><methodID>weighted average</methodID><stationCount>6</stationCount></magnitude></origin><event publicID="gempa2025hiqp"><preferredOriginID>de.gempa.tb1.Origin/20250414051134.644714.128169</preferredOriginID><preferredMagnitudeID>de.gempa.tb1.Magnitude/20250414051140.939039.431751</preferredMagnitudeID><description><text>Northern Chile</text><type>region name</type></description><originReference>de.gempa.tb1.Origin/20250414051134.644714.128169</originReference></event></EventParameters></seiscomp>