<?xml version="1.0" encoding="UTF-8"?>
<seiscomp xmlns="http://geofon.gfz-potsdam.de/ns/seiscomp3-schema/0.13" version="0.13"><EventParameters><pick publicID="de.gempa.tb1.Pick/20250414024741.603143.135106"><time><value>2025-04-14T02:47:35.518393Z</value></time><waveformID networkCode="CX" stationCode="PB06" channelCode="HHZ"/><filterID>ITAPER(4)&gt;&gt;BW(4,4,20)</filterID><methodID>AIC</methodID><horizontalSlowness><value>5.522607038731283</value></horizontalSlowness><backazimuth><value>136.44078597381696</value></backazimuth><phaseHint>P</phaseHint><evaluationMode>automatic</evaluationMode><comment><text>269.750816802163</text><id>DFX:rectilinearity</id></comment><comment><text>78.41864739536439</text><id>SNR</id></comment></pick><pick publicID="de.gempa.tb1.Pick/20250414024741.664114.135108"><time><value>2025-04-14T02:47:37.098393Z</value></time><waveformID networkCode="CX" stationCode="PB03" channelCode="HHZ"/><filterID>ITAPER(4)&gt;&gt;BW(4,4,20)</filterID><methodID>AIC</methodID><horizontalSlowness><value>9.820614496310757</value></horizontalSlowness><backazimuth><value>116.55284344253246</value></backazimuth><phaseHint>P</phaseHint><evaluationMode>automatic</evaluationMode><comment><text>4808.715635836604</text><id>DFX:rectilinearity</id></comment><comment><text>492.9981596410826</text><id>SNR</id></comment></pick><pick publicID="de.gempa.tb1.Pick/20250414024745.575203.135110"><time><value>2025-04-14T02:47:40.1Z</value></time><waveformID networkCode="CX" stationCode="PB19" channelCode="HHZ"/><filterID>ITAPER(4)&gt;&gt;BW(4,4,20)</filterID><methodID>AIC</methodID><horizontalSlowness><value>14.995218138883894</value></horizontalSlowness><backazimuth><value>62.24386521910016</value></backazimuth><phaseHint>P</phaseHint><evaluationMode>automatic</evaluationMode><comment><text>65.00272167255157</text><id>DFX:rectilinearity</id></comment><comment><text>48.97962808328276</text><id>SNR</id></comment></pick><pick publicID="de.gempa.tb1.Pick/20250414024745.699487.135112"><time><value>2025-04-14T02:47:39.538393Z</value></time><waveformID networkCode="CX" stationCode="PB01" channelCode="HHZ"/><filterID>ITAPER(4)&gt;&gt;BW(4,4,20)</filterID><methodID>AIC</methodID><horizontalSlowness><value>5.033001998206886</value></horizontalSlowness><backazimuth><value>143.87818698177628</value></backazimuth><phaseHint>P</phaseHint><evaluationMode>automatic</evaluationMode><comment><text>397.82883425134406</text><id>DFX:rectilinearity</id></comment><comment><text>160.3548817263349</text><id>SNR</id></comment></pick><pick publicID="de.gempa.tb1.Pick/20250414024746.610206.135114"><time><value>2025-04-14T02:47:41.228393Z</value></time><waveformID networkCode="CX" stationCode="PB02" channelCode="HHZ"/><filterID>ITAPER(4)&gt;&gt;BW(4,4,20)</filterID><methodID>AIC</methodID><horizontalSlowness><value>5.086507101869471</value></horizontalSlowness><backazimuth><value>135.70082870902795</value></backazimuth><phaseHint>P</phaseHint><evaluationMode>automatic</evaluationMode><comment><text>475.4630060151523</text><id>DFX:rectilinearity</id></comment><comment><text>186.28163895707104</text><id>SNR</id></comment></pick><pick publicID="de.gempa.tb1.Pick/20250414024749.537318.135116"><time><value>2025-04-14T02:47:33.81Z</value></time><waveformID networkCode="CX" stationCode="PB09" channelCode="HHZ"/><filterID>ITAPER(4)&gt;&gt;BW(4,4,20)</filterID><methodID>AIC</methodID><horizontalSlowness><value>14.830053152704707</value></horizontalSlowness><backazimuth><value>94.06561404348919</value></backazimuth><phaseHint>P</phaseHint><evaluationMode>automatic</evaluationMode><comment><text>1348.053608052821</text><id>DFX:rectilinearity</id></comment><comment><text>554.5288999755284</text><id>SNR</id></comment></pick><pick publicID="de.gempa.tb1.Pick/20250414024751.235362.135118"><time><value>2025-04-14T02:47:46.489999Z</value></time><waveformID networkCode="CX" stationCode="PATCX" channelCode="HHZ"/><filterID>ITAPER(4)&gt;&gt;BW(4,4,20)</filterID><methodID>AIC</methodID><horizontalSlowness><value>5.269106590863506</value></horizontalSlowness><backazimuth><value>225.02233327734214</value></backazimuth><phaseHint>P</phaseHint><evaluationMode>automatic</evaluationMode><comment><text>135.03614848915657</text><id>DFX:rectilinearity</id></comment><comment><text>102.79470569457705</text><id>SNR</id></comment></pick><pick publicID="de.gempa.tb1.Pick/20250414024754.178016.135120"><time><value>2025-04-14T02:47:39.458394Z</value></time><waveformID networkCode="CX" stationCode="PB07" channelCode="HHZ"/><filterID>ITAPER(4)&gt;&gt;BW(4,4,20)</filterID><methodID>AIC</methodID><horizontalSlowness><value>11.921370710572639</value></horizontalSlowness><backazimuth><value>133.00923517318577</value></backazimuth><phaseHint>P</phaseHint><evaluationMode>automatic</evaluationMode><comment><text>9545.627327099946</text><id>DFX:rectilinearity</id></comment><comment><text>1156.507172263698</text><id>SNR</id></comment></pick><pick publicID="de.gempa.tb1.Pick/20250414024754.370173.135122"><time><value>2025-04-14T02:47:47.76Z</value></time><waveformID networkCode="CX" stationCode="PB10" channelCode="HHZ"/><filterID>ITAPER(4)&gt;&gt;BW(4,4,20)</filterID><methodID>AIC</methodID><horizontalSlowness><value>11.87314767775123</value></horizontalSlowness><backazimuth><value>95.99906213761201</value></backazimuth><phaseHint>P</phaseHint><evaluationMode>automatic</evaluationMode><comment><text>52.25869258399303</text><id>DFX:rectilinearity</id></comment><comment><text>21.660095120124247</text><id>SNR</id></comment></pick><pick publicID="de.gempa.tb1.Pick/20250414024755.219064.135124"><time><value>2025-04-14T02:47:46.688393Z</value></time><waveformID networkCode="CX" stationCode="PB08" channelCode="HHZ"/><filterID>ITAPER(4)&gt;&gt;BW(4,4,20)</filterID><methodID>AIC</methodID><horizontalSlowness><value>16.039605317674244</value></horizontalSlowness><backazimuth><value>212.35298172625943</value></backazimuth><phaseHint>P</phaseHint><evaluationMode>automatic</evaluationMode><comment><text>52.80004928732246</text><id>DFX:rectilinearity</id></comment><comment><text>14.255972192480307</text><id>SNR</id></comment></pick><pick publicID="de.gempa.tb1.Pick/20250414024803.523118.135126"><time><value>2025-04-14T02:47:55.81Z</value></time><waveformID networkCode="CX" stationCode="PSGCX" channelCode="HHZ"/><filterID>ITAPER(4)&gt;&gt;BW(4,4,20)</filterID><methodID>AIC</methodID><horizontalSlowness><value>20.71034232191417</value></horizontalSlowness><backazimuth><value>239.00492755732165</value></backazimuth><phaseHint>P</phaseHint><evaluationMode>automatic</evaluationMode><comment><text>24.12531701375221</text><id>DFX:rectilinearity</id></comment><comment><text>32.30145913615045</text><id>SNR</id></comment></pick><pick publicID="de.gempa.tb1.Pick/20250414024807.67066.135128"><time><value>2025-04-14T02:48:00.488393Z</value></time><waveformID networkCode="CX" stationCode="PB06" channelCode="HHN"/><filterID>ITAPER(2)&gt;&gt;BW(3,3,20)</filterID><methodID>L2-AIC-GRID</methodID><horizontalSlowness><value>21.45694446138516</value></horizontalSlowness><backazimuth><value>241.21889767635903</value></backazimuth><phaseHint>S</phaseHint><evaluationMode>automatic</evaluationMode><comment><text>1499.9734207638633</text><id>DFX:rectilinearity</id></comment><comment><text>de.gempa.tb1.Pick/20250414024741.603143.135106</text><id>RefPickID</id></comment><comment><text>9.394559769504074</text><id>SNR</id></comment></pick><pick publicID="de.gempa.tb1.Pick/20250414024809.781794.135131"><time><value>2025-04-14T02:48:02.918393Z</value></time><waveformID networkCode="CX" stationCode="PB03" channelCode="HHN"/><filterID>ITAPER(2)&gt;&gt;BW(3,3,20)</filterID><methodID>L2-AIC-GRID</methodID><horizontalSlowness><value>21.032589698800589</value></horizontalSlowness><backazimuth><value>217.0229307304563</value></backazimuth><phaseHint>S</phaseHint><evaluationMode>automatic</evaluationMode><comment><text>8018.057380552961</text><id>DFX:rectilinearity</id></comment><comment><text>de.gempa.tb1.Pick/20250414024741.664114.135108</text><id>RefPickID</id></comment><comment><text>9.131544119779136</text><id>SNR</id></comment></pick><pick publicID="de.gempa.tb1.Pick/20250414024814.698319.135135"><time><value>2025-04-14T02:48:08.17Z</value></time><waveformID networkCode="CX" stationCode="PB19" channelCode="HHN"/><filterID>ITAPER(2)&gt;&gt;BW(3,3,20)</filterID><methodID>L2-AIC-GRID</methodID><horizontalSlowness><value>22.77572889382065</value></horizontalSlowness><backazimuth><value>48.0142658639283</value></backazimuth><phaseHint>S</phaseHint><evaluationMode>automatic</evaluationMode><comment><text>12726.6129967116</text><id>DFX:rectilinearity</id></comment><comment><text>de.gempa.tb1.Pick/20250414024745.575203.135110</text><id>RefPickID</id></comment><comment><text>11.746396969729059</text><id>SNR</id></comment></pick><pick publicID="de.gempa.tb1.Pick/20250414024814.785568.135136"><time><value>2025-04-14T02:48:07.228393Z</value></time><waveformID networkCode="CX" stationCode="PB01" channelCode="HHN"/><filterID>ITAPER(2)&gt;&gt;BW(3,3,20)</filterID><methodID>L2-AIC-GRID</methodID><horizontalSlowness><value>23.266857414075567</value></horizontalSlowness><backazimuth><value>242.05783734900515</value></backazimuth><phaseHint>S</phaseHint><evaluationMode>automatic</evaluationMode><comment><text>7693.142856940956</text><id>DFX:rectilinearity</id></comment><comment><text>de.gempa.tb1.Pick/20250414024745.699487.135112</text><id>RefPickID</id></comment><comment><text>10.478792879266777</text><id>SNR</id></comment></pick><pick publicID="de.gempa.tb1.Pick/20250414024817.608192.135138"><time><value>2025-04-14T02:48:09.658393Z</value></time><waveformID networkCode="CX" stationCode="PB02" channelCode="HHN"/><filterID>ITAPER(2)&gt;&gt;BW(3,3,20)</filterID><methodID>L2-AIC-GRID</methodID><horizontalSlowness><value>23.555663642577514</value></horizontalSlowness><backazimuth><value>212.45430874673244</value></backazimuth><phaseHint>S</phaseHint><evaluationMode>automatic</evaluationMode><comment><text>27620.70412129958</text><id>DFX:rectilinearity</id></comment><comment><text>de.gempa.tb1.Pick/20250414024746.610206.135114</text><id>RefPickID</id></comment><comment><text>5.52373533588683</text><id>SNR</id></comment></pick><origin publicID="de.gempa.tb1.Origin/20250414024817.613919.124272"><time><value>2025-04-14T02:47:04.124339Z</value><uncertainty>0.7671250700950623</uncertainty></time><latitude><value>-22.34993553161621</value><uncertainty>3.7468996047973633</uncertainty></latitude><longitude><value>-68.1004409790039</value><uncertainty>14.363502502441406</uncertainty></longitude><depth><value>183.07984924316406</value><uncertainty>13.123144149780273</uncertainty></depth><depthType>from location</depthType><methodID>LOCSAT</methodID><earthModelID>iasp91_scanloc</earthModelID><quality><associatedPhaseCount>16</associatedPhaseCount><usedPhaseCount>16</usedPhaseCount><associatedStationCount>11</associatedStationCount><usedStationCount>11</usedStationCount><depthPhaseCount>0</depthPhaseCount><standardError>0.43586005224741103</standardError><azimuthalGap>239.3389587402344</azimuthalGap><maximumDistance>3.3277838230133057</maximumDistance><minimumDistance>1.1935428380966187</minimumDistance><medianDistance>1.8961905241012573</medianDistance></quality><uncertainty><minHorizontalUncertainty>7.754425525665283</minHorizontalUncertainty><maxHorizontalUncertainty>30.86411476135254</maxHorizontalUncertainty><azimuthMaxHorizontalUncertainty>85.97676086425781</azimuthMaxHorizontalUncertainty><preferredDescription>horizontal uncertainty</preferredDescription></uncertainty><evaluationMode>automatic</evaluationMode><evaluationStatus>confirmed</evaluationStatus><comment><text>0.00</text><id>mismatchScore</id></comment><comment><text>mismatchScore</text><id>scevalMethod</id></comment><arrival><pickID>de.gempa.tb1.Pick/20250414024741.603143.135106</pickID><phase>P</phase><azimuth>255.1286163330078</azimuth><distance>1.4058252573013306</distance><timeResidual>0.019922256469726562</timeResidual><timeUsed>true</timeUsed><horizontalSlownessUsed>false</horizontalSlownessUsed><backazimuthUsed>false</backazimuthUsed><weight>1</weight></arrival><arrival><pickID>de.gempa.tb1.Pick/20250414024741.664114.135108</pickID><phase>P</phase><azimuth>280.7718200683594</azimuth><distance>1.5607123374938965</distance><timeResidual>0.14840126037597656</timeResidual><timeUsed>true</timeUsed><horizontalSlownessUsed>false</horizontalSlownessUsed><backazimuthUsed>false</backazimuthUsed><weight>1</weight></arrival><arrival><pickID>de.gempa.tb1.Pick/20250414024745.575203.135110</pickID><phase>P</phase><azimuth>215.06704711914062</azimuth><distance>1.8961905241012573</distance><timeResidual>-0.2105712890625</timeResidual><timeUsed>true</timeUsed><horizontalSlownessUsed>false</horizontalSlownessUsed><backazimuthUsed>false</backazimuthUsed><weight>1</weight></arrival><arrival><pickID>de.gempa.tb1.Pick/20250414024745.699487.135112</pickID><phase>P</phase><azimuth>314.9743957519531</azimuth><distance>1.8315327167510986</distance><timeResidual>-0.12397003173828125</timeResidual><timeUsed>true</timeUsed><horizontalSlownessUsed>false</horizontalSlownessUsed><backazimuthUsed>false</backazimuthUsed><weight>1</weight></arrival><arrival><pickID>de.gempa.tb1.Pick/20250414024746.610206.135114</pickID><phase>P</phase><azimuth>301.23687744140625</azimuth><distance>1.9580999612808228</distance><timeResidual>0.2404060363769531</timeResidual><timeUsed>true</timeUsed><horizontalSlownessUsed>false</horizontalSlownessUsed><backazimuthUsed>false</backazimuthUsed><weight>1</weight></arrival><arrival><pickID>de.gempa.tb1.Pick/20250414024749.537318.135116</pickID><phase>P</phase><azimuth>297.2733459472656</azimuth><distance>1.1935428380966187</distance><timeResidual>0.14066505432128906</timeResidual><timeUsed>true</timeUsed><horizontalSlownessUsed>false</horizontalSlownessUsed><backazimuthUsed>false</backazimuthUsed><weight>1</weight></arrival><arrival><pickID>de.gempa.tb1.Pick/20250414024751.235362.135118</pickID><phase>P</phase><azimuth>308.1625671386719</azimuth><distance>2.442188501358032</distance><timeResidual>0.12917518615722656</timeResidual><timeUsed>true</timeUsed><horizontalSlownessUsed>false</horizontalSlownessUsed><backazimuthUsed>false</backazimuthUsed><weight>1</weight></arrival><arrival><pickID>de.gempa.tb1.Pick/20250414024754.178016.135120</pickID><phase>P</phase><azimuth>290.1895751953125</azimuth><distance>1.7690922021865845</distance><timeResidual>0.4431171417236328</timeResidual><timeUsed>true</timeUsed><horizontalSlownessUsed>false</horizontalSlownessUsed><backazimuthUsed>false</backazimuthUsed><weight>1</weight></arrival><arrival><pickID>de.gempa.tb1.Pick/20250414024754.370173.135122</pickID><phase>P</phase><azimuth>242.4181671142578</azimuth><distance>2.5411458015441895</distance><timeResidual>0.280670166015625</timeResidual><timeUsed>true</timeUsed><horizontalSlownessUsed>false</horizontalSlownessUsed><backazimuthUsed>false</backazimuthUsed><weight>1</weight></arrival><arrival><pickID>de.gempa.tb1.Pick/20250414024755.219064.135124</pickID><phase>P</phase><azimuth>335.72808837890625</azimuth><distance>2.407349109649658</distance><timeResidual>0.7186756134033203</timeResidual><timeUsed>true</timeUsed><horizontalSlownessUsed>false</horizontalSlownessUsed><backazimuthUsed>false</backazimuthUsed><weight>1</weight></arrival><arrival><pickID>de.gempa.tb1.Pick/20250414024803.523118.135126</pickID><phase>P</phase><azimuth>325.0249328613281</azimuth><distance>3.3277838230133057</distance><timeResidual>-1.1642112731933594</timeResidual><timeUsed>true</timeUsed><horizontalSlownessUsed>false</horizontalSlownessUsed><backazimuthUsed>false</backazimuthUsed><weight>1</weight></arrival><arrival><pickID>de.gempa.tb1.Pick/20250414024807.67066.135128</pickID><phase>S</phase><azimuth>255.1286163330078</azimuth><distance>1.4058252573013306</distance><timeResidual>0.3796825408935547</timeResidual><timeUsed>true</timeUsed><horizontalSlownessUsed>false</horizontalSlownessUsed><backazimuthUsed>false</backazimuthUsed><weight>1</weight></arrival><arrival><pickID>de.gempa.tb1.Pick/20250414024809.781794.135131</pickID><phase>S</phase><azimuth>280.7718200683594</azimuth><distance>1.5607123374938965</distance><timeResidual>0.2069835662841797</timeResidual><timeUsed>true</timeUsed><horizontalSlownessUsed>false</horizontalSlownessUsed><backazimuthUsed>false</backazimuthUsed><weight>1</weight></arrival><arrival><pickID>de.gempa.tb1.Pick/20250414024814.698319.135135</pickID><phase>S</phase><azimuth>215.06704711914062</azimuth><distance>1.8961905241012573</distance><timeResidual>-0.567962646484375</timeResidual><timeUsed>true</timeUsed><horizontalSlownessUsed>false</horizontalSlownessUsed><backazimuthUsed>false</backazimuthUsed><weight>1</weight></arrival><arrival><pickID>de.gempa.tb1.Pick/20250414024814.785568.135136</pickID><phase>S</phase><azimuth>314.9743957519531</azimuth><distance>1.8315327167510986</distance><timeResidual>-0.345550537109375</timeResidual><timeUsed>true</timeUsed><horizontalSlownessUsed>false</horizontalSlownessUsed><backazimuthUsed>false</backazimuthUsed><weight>1</weight></arrival><arrival><pickID>de.gempa.tb1.Pick/20250414024817.608192.135138</pickID><phase>S</phase><azimuth>301.23687744140625</azimuth><distance>1.9580999612808228</distance><timeResidual>-0.2952766418457031</timeResidual><timeUsed>true</timeUsed><horizontalSlownessUsed>false</horizontalSlownessUsed><backazimuthUsed>false</backazimuthUsed><weight>1</weight></arrival><magnitude publicID="de.gempa.tb1.Magnitude/20250414024825.939132.421317"><magnitude><value>3.270970703667641</value></magnitude><type>M</type><methodID>weighted average</methodID><stationCount>9</stationCount></magnitude></origin><event publicID="gempa2025hilv"><preferredOriginID>de.gempa.tb1.Origin/20250414024817.613919.124272</preferredOriginID><preferredMagnitudeID>de.gempa.tb1.Magnitude/20250414024825.939132.421317</preferredMagnitudeID><description><text>Northern Chile</text><type>region name</type></description><originReference>de.gempa.tb1.Origin/20250414024817.613919.124272</originReference></event></EventParameters></seiscomp>