<?xml version="1.0" encoding="UTF-8"?>
<seiscomp xmlns="http://geofon.gfz-potsdam.de/ns/seiscomp3-schema/0.13" version="0.13"><EventParameters><pick publicID="de.gempa.tb1.Pick/20250412200642.717633.188148"><time><value>2025-04-12T20:06:41.13Z</value></time><waveformID networkCode="TH" stationCode="FRAU" channelCode="HHZ"/><filterID>ITAPER(2)&gt;&gt;BW(3,3,20)</filterID><methodID>AIC</methodID><horizontalSlowness><value>6.332044828992563</value></horizontalSlowness><backazimuth><value>145.59339649186606</value></backazimuth><phaseHint>P</phaseHint><evaluationMode>automatic</evaluationMode><comment><text>184.69917402524476</text><id>DFX:rectilinearity</id></comment></pick><pick publicID="de.gempa.tb1.Pick/20250412200649.435051.188170"><time><value>2025-04-12T20:06:45.76Z</value></time><waveformID networkCode="TH" stationCode="RANIS" channelCode="HHZ"/><filterID>ITAPER(2)&gt;&gt;BW(3,3,20)</filterID><methodID>AIC</methodID><horizontalSlowness><value>15.847067145843157</value></horizontalSlowness><backazimuth><value>126.94455270163114</value></backazimuth><phaseHint>P</phaseHint><evaluationMode>automatic</evaluationMode><comment><text>699.2580453080229</text><id>DFX:rectilinearity</id></comment></pick><pick publicID="de.gempa.tb1.Pick/20250412200650.85534.188176"><time><value>2025-04-12T20:06:47.055Z</value></time><waveformID networkCode="TH" stationCode="FRAU" channelCode="HHN"/><filterID>ITAPER(3)&gt;&gt;BW(4,3,10)</filterID><methodID>L2-AIC-GRID</methodID><horizontalSlowness><value>22.5682487848346</value></horizontalSlowness><backazimuth><value>62.56707032596013</value></backazimuth><phaseHint>S</phaseHint><evaluationMode>automatic</evaluationMode><comment><text>63465.93255450961</text><id>DFX:rectilinearity</id></comment><comment><text>de.gempa.tb1.Pick/20250412200642.717633.188148</text><id>RefPickID</id></comment></pick><pick publicID="de.gempa.tb1.Pick/20250412200653.520107.188180"><time><value>2025-04-12T20:06:48.989999Z</value></time><waveformID networkCode="TH" stationCode="TAUT" channelCode="HHZ"/><filterID>ITAPER(2)&gt;&gt;BW(3,3,20)</filterID><methodID>AIC</methodID><horizontalSlowness><value>4.3844898943556867</value></horizontalSlowness><backazimuth><value>154.93709347874517</value></backazimuth><phaseHint>P</phaseHint><evaluationMode>automatic</evaluationMode><comment><text>143.56327922679193</text><id>DFX:rectilinearity</id></comment></pick><pick publicID="de.gempa.tb1.Pick/20250412200655.693519.188190"><time><value>2025-04-12T20:06:48.28Z</value></time><waveformID networkCode="TH" stationCode="ZEITZ" channelCode="HHZ"/><filterID>ITAPER(2)&gt;&gt;BW(3,3,20)</filterID><methodID>AIC</methodID><horizontalSlowness><value>23.4027221552152</value></horizontalSlowness><backazimuth><value>25.97147056655979</value></backazimuth><phaseHint>P</phaseHint><evaluationMode>automatic</evaluationMode><comment><text>1316.7484078401626</text><id>DFX:rectilinearity</id></comment></pick><pick publicID="de.gempa.tb1.Pick/20250412200659.465754.188200"><time><value>2025-04-12T20:06:55.91Z</value></time><waveformID networkCode="SX" stationCode="LANDS" channelCode="HHZ"/><filterID>ITAPER(2)&gt;&gt;BW(3,3,20)</filterID><methodID>AIC</methodID><horizontalSlowness><value>20.500075482215685</value></horizontalSlowness><backazimuth><value>65.94473917304997</value></backazimuth><phaseHint>P</phaseHint><evaluationMode>automatic</evaluationMode><comment><text>23.07060507899457</text><id>DFX:rectilinearity</id></comment></pick><pick publicID="de.gempa.tb1.Pick/20250412200700.528452.188208"><time><value>2025-04-12T20:06:59.04Z</value></time><waveformID networkCode="TH" stationCode="MEHR" channelCode="HHZ"/><filterID>ITAPER(2)&gt;&gt;BW(3,3,20)</filterID><methodID>AIC</methodID><horizontalSlowness><value>18.468036120845767</value></horizontalSlowness><backazimuth><value>177.35826505057958</value></backazimuth><phaseHint>P</phaseHint><evaluationMode>automatic</evaluationMode><comment><text>862.5027414062948</text><id>DFX:rectilinearity</id></comment></pick><pick publicID="de.gempa.tb1.Pick/20250412200700.800746.188210"><time><value>2025-04-12T20:06:52.45Z</value></time><waveformID networkCode="SX" stationCode="NEUB" channelCode="HHZ"/><filterID>ITAPER(2)&gt;&gt;BW(3,3,20)</filterID><methodID>AIC</methodID><horizontalSlowness><value>5.66975675246637</value></horizontalSlowness><backazimuth><value>168.83800795865253</value></backazimuth><phaseHint>P</phaseHint><evaluationMode>automatic</evaluationMode><comment><text>2028.8011604894898</text><id>DFX:rectilinearity</id></comment></pick><pick publicID="de.gempa.tb1.Pick/20250412200700.998884.188213"><time><value>2025-04-12T20:06:58.895Z</value></time><waveformID networkCode="TH" stationCode="WARTH" channelCode="HHZ"/><filterID>ITAPER(2)&gt;&gt;BW(3,3,20)</filterID><methodID>AIC</methodID><horizontalSlowness><value>12.8644788576313</value></horizontalSlowness><backazimuth><value>119.31139017839746</value></backazimuth><phaseHint>P</phaseHint><evaluationMode>automatic</evaluationMode><comment><text>319.13604499846326</text><id>DFX:rectilinearity</id></comment></pick><pick publicID="de.gempa.tb1.Pick/20250412200703.361682.188222"><time><value>2025-04-12T20:06:57.848393Z</value></time><waveformID networkCode="CZ" stationCode="PRU" channelCode="HHZ"/><filterID>ITAPER(2)&gt;&gt;BW(3,3,20)</filterID><methodID>AIC</methodID><horizontalSlowness><value>14.429924559989583</value></horizontalSlowness><backazimuth><value>267.28718002703783</value></backazimuth><phaseHint>P</phaseHint><evaluationMode>automatic</evaluationMode><comment><text>21.181643403973546</text><id>DFX:rectilinearity</id></comment></pick><pick publicID="de.gempa.tb1.Pick/20250412200703.547424.188224"><time><value>2025-04-12T20:07:00.245Z</value></time><waveformID networkCode="TH" stationCode="MUEN" channelCode="HHZ"/><filterID>ITAPER(2)&gt;&gt;BW(3,3,20)</filterID><methodID>AIC</methodID><horizontalSlowness><value>3.351453598639504</value></horizontalSlowness><backazimuth><value>135.4139489294283</value></backazimuth><phaseHint>P</phaseHint><evaluationMode>automatic</evaluationMode><comment><text>202.16472755807382</text><id>DFX:rectilinearity</id></comment></pick><pick publicID="de.gempa.tb1.Pick/20250412200703.550527.188226"><time><value>2025-04-12T20:06:55.44Z</value></time><waveformID networkCode="TH" stationCode="RANIS" channelCode="HHN"/><filterID>ITAPER(3)&gt;&gt;BW(4,3,10)</filterID><methodID>L2-AIC-GRID</methodID><horizontalSlowness><value>21.886258816763853</value></horizontalSlowness><backazimuth><value>144.3735263923459</value></backazimuth><phaseHint>S</phaseHint><evaluationMode>automatic</evaluationMode><comment><text>2881.1460098466605</text><id>DFX:rectilinearity</id></comment><comment><text>de.gempa.tb1.Pick/20250412200649.435051.188170</text><id>RefPickID</id></comment></pick><pick publicID="de.gempa.tb1.Pick/20250412200703.790109.188233"><time><value>2025-04-12T20:07:01.27Z</value></time><waveformID networkCode="TH" stationCode="LUHNE" channelCode="HHZ"/><filterID>ITAPER(2)&gt;&gt;BW(3,3,20)</filterID><methodID>AIC</methodID><horizontalSlowness><value>23.389241280598014</value></horizontalSlowness><backazimuth><value>332.4265626277624</value></backazimuth><phaseHint>P</phaseHint><evaluationMode>automatic</evaluationMode><comment><text>176.51142204646638</text><id>DFX:rectilinearity</id></comment></pick><pick publicID="de.gempa.tb1.Pick/20250412200706.228084.188240"><time><value>2025-04-12T20:06:58.795Z</value></time><waveformID networkCode="TH" stationCode="ZEITZ" channelCode="HHN"/><filterID>ITAPER(3)&gt;&gt;BW(4,3,10)</filterID><methodID>L2-AIC-GRID</methodID><horizontalSlowness><value>22.548328042084066</value></horizontalSlowness><backazimuth><value>2.9102271068454684</value></backazimuth><phaseHint>S</phaseHint><evaluationMode>automatic</evaluationMode><comment><text>58767.36505057452</text><id>DFX:rectilinearity</id></comment><comment><text>de.gempa.tb1.Pick/20250412200655.693519.188190</text><id>RefPickID</id></comment></pick><pick publicID="de.gempa.tb1.Pick/20250412200706.367554.188241"><time><value>2025-04-12T20:06:56.68Z</value></time><waveformID networkCode="CZ" stationCode="KHC" channelCode="HHZ"/><filterID>ITAPER(2)&gt;&gt;BW(3,3,20)</filterID><methodID>AIC</methodID><horizontalSlowness><value>16.644730912813998</value></horizontalSlowness><backazimuth><value>314.4586290336979</value></backazimuth><phaseHint>P</phaseHint><evaluationMode>automatic</evaluationMode><comment><text>32.43368918616873</text><id>DFX:rectilinearity</id></comment></pick><pick publicID="de.gempa.tb1.Pick/20250412200706.648185.188243"><time><value>2025-04-12T20:06:53.62Z</value></time><waveformID networkCode="CZ" stationCode="SKAC" channelCode="HHZ"/><filterID>ITAPER(2)&gt;&gt;BW(3,3,20)</filterID><methodID>AIC</methodID><horizontalSlowness><value>20.776657450035295</value></horizontalSlowness><backazimuth><value>97.097853380889</value></backazimuth><phaseHint>P</phaseHint><evaluationMode>automatic</evaluationMode><comment><text>15516.4893252399</text><id>DFX:rectilinearity</id></comment></pick><pick publicID="de.gempa.tb1.Pick/20250412200706.682613.188245"><time><value>2025-04-12T20:06:56.77Z</value></time><waveformID networkCode="SX" stationCode="MUHB" channelCode="HHZ"/><filterID>ITAPER(2)&gt;&gt;BW(3,3,20)</filterID><methodID>AIC</methodID><horizontalSlowness><value>14.470225386316914</value></horizontalSlowness><backazimuth><value>160.86957295374958</value></backazimuth><phaseHint>P</phaseHint><evaluationMode>automatic</evaluationMode><comment><text>131.888419086036</text><id>DFX:rectilinearity</id></comment></pick><pick publicID="de.gempa.tb1.Pick/20250412200708.488677.188254"><time><value>2025-04-12T20:07:01.15Z</value></time><waveformID networkCode="TH" stationCode="CHRS" channelCode="HHZ"/><filterID>ITAPER(2)&gt;&gt;BW(3,3,20)</filterID><methodID>AIC</methodID><horizontalSlowness><value>14.85993384843488</value></horizontalSlowness><backazimuth><value>153.89159310556124</value></backazimuth><phaseHint>P</phaseHint><evaluationMode>automatic</evaluationMode><comment><text>8.629644270614264</text><id>DFX:rectilinearity</id></comment></pick><pick publicID="de.gempa.tb1.Pick/20250412200708.550568.188256"><time><value>2025-04-12T20:07:00.069999Z</value></time><waveformID networkCode="TH" stationCode="TAUT" channelCode="HHN"/><filterID>ITAPER(3)&gt;&gt;BW(4,3,10)</filterID><methodID>L2-AIC-GRID</methodID><horizontalSlowness><value>20.811369874711616</value></horizontalSlowness><backazimuth><value>21.373836980603727</value></backazimuth><phaseHint>S</phaseHint><evaluationMode>automatic</evaluationMode><comment><text>8242.868205794899</text><id>DFX:rectilinearity</id></comment><comment><text>de.gempa.tb1.Pick/20250412200653.520107.188180</text><id>RefPickID</id></comment></pick><pick publicID="de.gempa.tb1.Pick/20250412200708.554302.188257"><time><value>2025-04-12T20:06:58.19Z</value></time><waveformID networkCode="TH" stationCode="POSS" channelCode="HHZ"/><filterID>ITAPER(2)&gt;&gt;BW(3,3,20)</filterID><methodID>AIC</methodID><horizontalSlowness><value>23.559608613339865</value></horizontalSlowness><backazimuth><value>311.6520802857688</value></backazimuth><phaseHint>P</phaseHint><evaluationMode>automatic</evaluationMode><comment><text>1020.451339566868</text><id>DFX:rectilinearity</id></comment></pick><pick publicID="de.gempa.tb1.Pick/20250412200710.255399.188265"><time><value>2025-04-12T20:07:00.555Z</value></time><waveformID networkCode="TH" stationCode="NEUST" channelCode="HHZ"/><filterID>ITAPER(2)&gt;&gt;BW(3,3,20)</filterID><methodID>AIC</methodID><horizontalSlowness><value>21.163482636706092</value><uncertainty>4.679661446866584</uncertainty></horizontalSlowness><backazimuth><value>146.91416714697795</value><uncertainty>12.695174884441174</uncertainty></backazimuth><phaseHint>P</phaseHint><evaluationMode>automatic</evaluationMode><comment><text>0.8257680545765596</text><id>DFX:rectilinearity</id></comment></pick><pick publicID="de.gempa.tb1.Pick/20250412200714.828073.188273"><time><value>2025-04-12T20:07:05.98Z</value></time><waveformID networkCode="SX" stationCode="NEUB" channelCode="HHN"/><filterID>ITAPER(3)&gt;&gt;BW(4,3,10)</filterID><methodID>L2-AIC-GRID</methodID><horizontalSlowness><value>21.958743210126684</value></horizontalSlowness><backazimuth><value>161.59001921980118</value></backazimuth><phaseHint>S</phaseHint><evaluationMode>automatic</evaluationMode><comment><text>67880.06545444047</text><id>DFX:rectilinearity</id></comment><comment><text>de.gempa.tb1.Pick/20250412200700.800746.188210</text><id>RefPickID</id></comment></pick><pick publicID="de.gempa.tb1.Pick/20250412200717.919589.188275"><time><value>2025-04-12T20:07:13.31Z</value></time><waveformID networkCode="SX" stationCode="LANDS" channelCode="HHN"/><filterID>ITAPER(3)&gt;&gt;BW(4,3,10)</filterID><methodID>L2-AIC-GRID</methodID><horizontalSlowness><value>20.119558066301028</value></horizontalSlowness><backazimuth><value>61.04227980430885</value></backazimuth><phaseHint>S</phaseHint><evaluationMode>automatic</evaluationMode><comment><text>3131.021194456965</text><id>DFX:rectilinearity</id></comment><comment><text>de.gempa.tb1.Pick/20250412200659.465754.188200</text><id>RefPickID</id></comment></pick><origin publicID="de.gempa.tb1.Origin/20250412200720.546569.121227"><time><value>2025-04-12T20:06:32.329651Z</value><uncertainty>0.4382857084274292</uncertainty></time><latitude><value>50.27682113647461</value><uncertainty>3.0428154468536377</uncertainty></latitude><longitude><value>12.427523612976074</value><uncertainty>2.8751847743988037</uncertainty></longitude><depth><value>6.956940650939941</value><uncertainty>3.408083438873291</uncertainty></depth><depthType>from location</depthType><methodID>LOCSAT</methodID><earthModelID>iasp91</earthModelID><quality><associatedPhaseCount>23</associatedPhaseCount><usedPhaseCount>23</usedPhaseCount><associatedStationCount>17</associatedStationCount><usedStationCount>17</usedStationCount><depthPhaseCount>0</depthPhaseCount><standardError>0.43527702999708884</standardError><azimuthalGap>147.24972534179688</azimuthalGap><maximumDistance>1.6786277294158936</maximumDistance><minimumDistance>0.4250643253326416</minimumDistance><medianDistance>1.2620322704315186</medianDistance></quality><uncertainty><minHorizontalUncertainty>4.765210628509521</minHorizontalUncertainty><maxHorizontalUncertainty>7.602221965789795</maxHorizontalUncertainty><azimuthMaxHorizontalUncertainty>41.268856048583984</azimuthMaxHorizontalUncertainty><preferredDescription>horizontal uncertainty</preferredDescription></uncertainty><evaluationMode>automatic</evaluationMode><evaluationStatus>confirmed</evaluationStatus><comment><text>0.83</text><id>mismatchScore</id></comment><comment><text>extendedGap</text><id>scevalMethod</id></comment><arrival><pickID>de.gempa.tb1.Pick/20250412200642.717633.188148</pickID><phase>P</phase><azimuth>350.4682922363281</azimuth><distance>0.4250643253326416</distance><timeResidual>-0.020546913146972656</timeResidual><timeUsed>true</timeUsed><horizontalSlownessUsed>false</horizontalSlownessUsed><backazimuthUsed>false</backazimuthUsed><weight>1</weight></arrival><arrival><pickID>de.gempa.tb1.Pick/20250412200649.435051.188170</pickID><phase>P</phase><azimuth>305.31610107421875</azimuth><distance>0.673261284828186</distance><timeResidual>0.1536111831665039</timeResidual><timeUsed>true</timeUsed><horizontalSlownessUsed>false</horizontalSlownessUsed><backazimuthUsed>false</backazimuthUsed><weight>1</weight></arrival><arrival><pickID>de.gempa.tb1.Pick/20250412200650.85534.188176</pickID><phase>S</phase><azimuth>350.4682922363281</azimuth><distance>0.4250643253326416</distance><timeResidual>-0.5313253402709961</timeResidual><timeUsed>true</timeUsed><horizontalSlownessUsed>false</horizontalSlownessUsed><backazimuthUsed>false</backazimuthUsed><weight>1</weight></arrival><arrival><pickID>de.gempa.tb1.Pick/20250412200653.520107.188180</pickID><phase>P</phase><azimuth>327.3775634765625</azimuth><distance>0.8404706120491028</distance><timeResidual>0.37659358978271484</timeResidual><timeUsed>true</timeUsed><horizontalSlownessUsed>false</horizontalSlownessUsed><backazimuthUsed>false</backazimuthUsed><weight>1</weight></arrival><arrival><pickID>de.gempa.tb1.Pick/20250412200655.693519.188190</pickID><phase>P</phase><azimuth>346.2093200683594</azimuth><distance>0.798282265663147</distance><timeResidual>0.4256429672241211</timeResidual><timeUsed>true</timeUsed><horizontalSlownessUsed>false</horizontalSlownessUsed><backazimuthUsed>false</backazimuthUsed><weight>1</weight></arrival><arrival><pickID>de.gempa.tb1.Pick/20250412200659.465754.188200</pickID><phase>P</phase><azimuth>352.4753723144531</azimuth><distance>1.2620322704315186</distance><timeResidual>0.3698101043701172</timeResidual><timeUsed>true</timeUsed><horizontalSlownessUsed>false</horizontalSlownessUsed><backazimuthUsed>false</backazimuthUsed><weight>1</weight></arrival><arrival><pickID>de.gempa.tb1.Pick/20250412200700.528452.188208</pickID><phase>P</phase><azimuth>312.5891418457031</azimuth><distance>1.508752465248108</distance><timeResidual>-0.2328023910522461</timeResidual><timeUsed>true</timeUsed><horizontalSlownessUsed>false</horizontalSlownessUsed><backazimuthUsed>false</backazimuthUsed><weight>1</weight></arrival><arrival><pickID>de.gempa.tb1.Pick/20250412200700.800746.188210</pickID><phase>P</phase><azimuth>335.8564758300781</azimuth><distance>1.0086338520050049</distance><timeResidual>0.8321924209594727</timeResidual><timeUsed>true</timeUsed><horizontalSlownessUsed>false</horizontalSlownessUsed><backazimuthUsed>false</backazimuthUsed><weight>1</weight></arrival><arrival><pickID>de.gempa.tb1.Pick/20250412200700.998884.188213</pickID><phase>P</phase><azimuth>293.736328125</azimuth><distance>1.460768222808838</distance><timeResidual>0.34107303619384766</timeResidual><timeUsed>true</timeUsed><horizontalSlownessUsed>false</horizontalSlownessUsed><backazimuthUsed>false</backazimuthUsed><weight>1</weight></arrival><arrival><pickID>de.gempa.tb1.Pick/20250412200703.361682.188222</pickID><phase>P</phase><azimuth>101.17586517333984</azimuth><distance>1.3908482789993286</distance><timeResidual>0.3465719223022461</timeResidual><timeUsed>true</timeUsed><horizontalSlownessUsed>false</horizontalSlownessUsed><backazimuthUsed>false</backazimuthUsed><weight>1</weight></arrival><arrival><pickID>de.gempa.tb1.Pick/20250412200703.547424.188224</pickID><phase>P</phase><azimuth>316.46405029296875</azimuth><distance>1.6000646352767944</distance><timeResidual>-0.38951778411865234</timeResidual><timeUsed>true</timeUsed><horizontalSlownessUsed>false</horizontalSlownessUsed><backazimuthUsed>false</backazimuthUsed><weight>1</weight></arrival><arrival><pickID>de.gempa.tb1.Pick/20250412200703.550527.188226</pickID><phase>S</phase><azimuth>305.31610107421875</azimuth><distance>0.673261284828186</distance><timeResidual>0.15915203094482422</timeResidual><timeUsed>true</timeUsed><horizontalSlownessUsed>false</horizontalSlownessUsed><backazimuthUsed>false</backazimuthUsed><weight>1</weight></arrival><arrival><pickID>de.gempa.tb1.Pick/20250412200703.790109.188233</pickID><phase>P</phase><azimuth>308.2658386230469</azimuth><distance>1.607198715209961</distance><timeResidual>0.5291128158569336</timeResidual><timeUsed>true</timeUsed><horizontalSlownessUsed>false</horizontalSlownessUsed><backazimuthUsed>false</backazimuthUsed><weight>1</weight></arrival><arrival><pickID>de.gempa.tb1.Pick/20250412200706.228084.188240</pickID><phase>S</phase><azimuth>346.2093200683594</azimuth><distance>0.798282265663147</distance><timeResidual>-0.3599367141723633</timeResidual><timeUsed>true</timeUsed><horizontalSlownessUsed>false</horizontalSlownessUsed><backazimuthUsed>false</backazimuthUsed><weight>1</weight></arrival><arrival><pickID>de.gempa.tb1.Pick/20250412200706.367554.188241</pickID><phase>P</phase><azimuth>146.48660278320312</azimuth><distance>1.3689414262771606</distance><timeResidual>-0.4923686981201172</timeResidual><timeU