<?xml version="1.0" encoding="UTF-8"?>
<seiscomp xmlns="http://geofon.gfz-potsdam.de/ns/seiscomp3-schema/0.13" version="0.13"><EventParameters><pick publicID="de.gempa.tb1.Pick/20250413012616.46438.128002"><time><value>2025-04-13T01:26:10.908393Z</value></time><waveformID networkCode="CX" stationCode="PB16" channelCode="HHZ"/><filterID>ITAPER(4)&gt;&gt;BW(4,4,20)</filterID><methodID>AIC</methodID><horizontalSlowness><value>9.227004733240435</value></horizontalSlowness><backazimuth><value>169.50962594278164</value></backazimuth><phaseHint>P</phaseHint><evaluationMode>automatic</evaluationMode><comment><text>4.349339803928201</text><id>DFX:rectilinearity</id></comment><comment><text>28.830675609829505</text><id>SNR</id></comment></pick><pick publicID="de.gempa.tb1.Pick/20250413012623.531071.128004"><time><value>2025-04-13T01:26:13.76Z</value></time><waveformID networkCode="CX" stationCode="PSGCX" channelCode="HHZ"/><filterID>ITAPER(4)&gt;&gt;BW(4,4,20)</filterID><methodID>AIC</methodID><horizontalSlowness><value>11.191593341539134</value></horizontalSlowness><backazimuth><value>114.51804732052047</value></backazimuth><phaseHint>P</phaseHint><evaluationMode>automatic</evaluationMode><comment><text>17.683632385279516</text><id>DFX:rectilinearity</id></comment><comment><text>25.573580408180703</text><id>SNR</id></comment></pick><pick publicID="de.gempa.tb1.Pick/20250413012625.613804.128006"><time><value>2025-04-13T01:26:17.028393Z</value></time><waveformID networkCode="CX" stationCode="PB01" channelCode="HHZ"/><filterID>ITAPER(4)&gt;&gt;BW(4,4,20)</filterID><methodID>AIC</methodID><horizontalSlowness><value>19.183929771827135</value></horizontalSlowness><backazimuth><value>20.9592394373511</value></backazimuth><phaseHint>P</phaseHint><evaluationMode>automatic</evaluationMode><comment><text>18.418312289102207</text><id>DFX:rectilinearity</id></comment><comment><text>30.222695087375204</text><id>SNR</id></comment></pick><pick publicID="de.gempa.tb1.Pick/20250413012627.471605.128008"><time><value>2025-04-13T01:26:21.968393Z</value></time><waveformID networkCode="CX" stationCode="PB02" channelCode="HHZ"/><filterID>ITAPER(4)&gt;&gt;BW(4,4,20)</filterID><methodID>AIC</methodID><horizontalSlowness><value>7.514316900650408</value></horizontalSlowness><backazimuth><value>32.21602674215805</value></backazimuth><phaseHint>P</phaseHint><evaluationMode>automatic</evaluationMode><comment><text>255.4023820134752</text><id>DFX:rectilinearity</id></comment><comment><text>25.723883263589986</text><id>SNR</id></comment></pick><pick publicID="de.gempa.tb1.Pick/20250413012628.423119.128010"><time><value>2025-04-13T01:26:20.419999Z</value></time><waveformID networkCode="CX" stationCode="PATCX" channelCode="HHZ"/><filterID>ITAPER(4)&gt;&gt;BW(4,4,20)</filterID><methodID>AIC</methodID><horizontalSlowness><value>17.31220321135138</value></horizontalSlowness><backazimuth><value>328.90522256666543</value></backazimuth><phaseHint>P</phaseHint><evaluationMode>automatic</evaluationMode><comment><text>237.3284302106887</text><id>DFX:rectilinearity</id></comment><comment><text>8.63073758191137</text><id>SNR</id></comment></pick><pick publicID="de.gempa.tb1.Pick/20250413012634.566015.128012"><time><value>2025-04-13T01:26:26.638393Z</value></time><waveformID networkCode="CX" stationCode="PB03" channelCode="HHZ"/><filterID>ITAPER(4)&gt;&gt;BW(4,4,20)</filterID><methodID>AIC</methodID><horizontalSlowness><value>19.437550612028502</value></horizontalSlowness><backazimuth><value>320.5206485233924</value></backazimuth><phaseHint>P</phaseHint><evaluationMode>automatic</evaluationMode><comment><text>15.283884537541985</text><id>DFX:rectilinearity</id></comment><comment><text>27.140940249252203</text><id>SNR</id></comment></pick><pick publicID="de.gempa.tb1.Pick/20250413012640.440637.128014"><time><value>2025-04-13T01:26:23.38Z</value></time><waveformID networkCode="CX" stationCode="PB09" channelCode="HHZ"/><filterID>ITAPER(4)&gt;&gt;BW(4,4,20)</filterID><methodID>AIC</methodID><horizontalSlowness><value>22.446648454424004</value></horizontalSlowness><backazimuth><value>244.836759282613</value></backazimuth><phaseHint>P</phaseHint><evaluationMode>automatic</evaluationMode><comment><text>10.437119031481101</text><id>DFX:rectilinearity</id></comment><comment><text>24.536138994707006</text><id>SNR</id></comment></pick><pick publicID="de.gempa.tb1.Pick/20250413012640.547895.128016"><time><value>2025-04-13T01:26:31.788393Z</value></time><waveformID networkCode="CX" stationCode="PB06" channelCode="HHZ"/><filterID>ITAPER(4)&gt;&gt;BW(4,4,20)</filterID><methodID>AIC</methodID><horizontalSlowness><value>5.719126610952125</value></horizontalSlowness><backazimuth><value>299.11044300351983</value></backazimuth><phaseHint>P</phaseHint><evaluationMode>automatic</evaluationMode><comment><text>131.6257799401826</text><id>DFX:rectilinearity</id></comment><comment><text>16.228716131819478</text><id>SNR</id></comment></pick><pick publicID="de.gempa.tb1.Pick/20250413012644.173849.128018"><time><value>2025-04-13T01:26:24.468394Z</value></time><waveformID networkCode="CX" stationCode="PB07" channelCode="HHZ"/><filterID>ITAPER(4)&gt;&gt;BW(4,4,20)</filterID><methodID>AIC</methodID><horizontalSlowness><value>22.98381229957749</value></horizontalSlowness><backazimuth><value>81.76465183134479</value></backazimuth><phaseHint>P</phaseHint><evaluationMode>automatic</evaluationMode><comment><text>206.26666797150185</text><id>DFX:rectilinearity</id></comment><comment><text>44.08392139809105</text><id>SNR</id></comment></pick><pick publicID="de.gempa.tb1.Pick/20250413012659.661464.128022"><time><value>2025-04-13T01:26:49.55Z</value></time><waveformID networkCode="CX" stationCode="PSGCX" channelCode="HHN"/><filterID>ITAPER(2)&gt;&gt;BW(3,3,20)</filterID><methodID>L2-AIC-GRID</methodID><horizontalSlowness><value>21.06979381022295</value></horizontalSlowness><backazimuth><value>187.1312723557611</value></backazimuth><phaseHint>S</phaseHint><evaluationMode>automatic</evaluationMode><comment><text>81.64695211678797</text><id>DFX:rectilinearity</id></comment><comment><text>de.gempa.tb1.Pick/20250413012623.531071.128004</text><id>RefPickID</id></comment><comment><text>16.752088273696657</text><id>SNR</id></comment></pick><pick publicID="de.gempa.tb1.Pick/20250413012701.572756.128023"><time><value>2025-04-13T01:26:53.038393Z</value></time><waveformID networkCode="CX" stationCode="PB01" channelCode="HHN"/><filterID>ITAPER(2)&gt;&gt;BW(3,3,20)</filterID><methodID>L2-AIC-GRID</methodID><horizontalSlowness><value>22.662796063585713</value></horizontalSlowness><backazimuth><value>340.267820050067</value></backazimuth><phaseHint>S</phaseHint><evaluationMode>automatic</evaluationMode><comment><text>94.38491831089178</text><id>DFX:rectilinearity</id></comment><comment><text>de.gempa.tb1.Pick/20250413012625.613804.128006</text><id>RefPickID</id></comment><comment><text>6.13398753006877</text><id>SNR</id></comment></pick><pick publicID="de.gempa.tb1.Pick/20250413012706.447763.128024"><time><value>2025-04-13T01:26:57.829999Z</value></time><waveformID networkCode="CX" stationCode="PATCX" channelCode="HHN"/><filterID>ITAPER(2)&gt;&gt;BW(3,3,20)</filterID><methodID>L2-AIC-GRID</methodID><horizontalSlowness><value>18.954321573701442</value></horizontalSlowness><backazimuth><value>72.17956722451804</value></backazimuth><phaseHint>S</phaseHint><evaluationMode>automatic</evaluationMode><comment><text>419.90592211824105</text><id>DFX:rectilinearity</id></comment><comment><text>de.gempa.tb1.Pick/20250413012628.423119.128010</text><id>RefPickID</id></comment><comment><text>5.281638661480246</text><id>SNR</id></comment></pick><pick publicID="de.gempa.tb1.Pick/20250413012715.523274.128027"><time><value>2025-04-13T01:27:02.508393Z</value></time><waveformID networkCode="CX" stationCode="PB02" channelCode="HHN"/><filterID>ITAPER(2)&gt;&gt;BW(3,3,20)</filterID><methodID>L2-AIC-GRID</methodID><horizontalSlowness><value>17.991762930900407</value></horizontalSlowness><backazimuth><value>336.1446225765465</value></backazimuth><phaseHint>S</phaseHint><evaluationMode>automatic</evaluationMode><comment><text>525.9841281417408</text><id>DFX:rectilinearity</id></comment><comment><text>de.gempa.tb1.Pick/20250413012627.471605.128008</text><id>RefPickID</id></comment><comment><text>5.486629607499251</text><id>SNR</id></comment></pick><pick publicID="de.gempa.tb1.Pick/20250413012718.813809.128028"><time><value>2025-04-13T01:27:10.728393Z</value></time><waveformID networkCode="CX" stationCode="PB03" channelCode="HHN"/><filterID>ITAPER(2)&gt;&gt;BW(3,3,20)</filterID><methodID>L2-AIC-GRID</methodID><horizontalSlowness><value>18.291340798972897</value></horizontalSlowness><backazimuth><value>277.8998949329335</value></backazimuth><phaseHint>S</phaseHint><evaluationMode>automatic</evaluationMode><comment><text>35.4952980784995</text><id>DFX:rectilinearity</id></comment><comment><text>de.gempa.tb1.Pick/20250413012634.566015.128012</text><id>RefPickID</id></comment><comment><text>5.711665449960003</text><id>SNR</id></comment></pick><origin publicID="de.gempa.tb1.Origin/20250413012718.817236.97307"><time><value>2025-04-13T01:25:31.130962Z</value><uncertainty>0.8313845992088318</uncertainty></time><latitude><value>-19.209156036376953</value><uncertainty>5.506269454956055</uncertainty></latitude><longitude><value>-68.00961303710938</value><uncertainty>20.539438247680664</uncertainty></longitude><depth><value>256.28704833984375</value><uncertainty>19.999267578125</uncertainty></depth><depthType>from location</depthType><methodID>LOCSAT</methodID><earthModelID>iasp91_scanloc</earthModelID><quality><associatedPhaseCount>14</associatedPhaseCount><usedPhaseCount>14</usedPhaseCount><associatedStationCount>9</associatedStationCount><usedStationCount>9</usedStationCount><depthPhaseCount>0</depthPhaseCount><standardError>0.6674691935912556</standardError><azimuthalGap>261.24571228027344</azimuthalGap><maximumDistance>3.773040294647217</maximumDistance><minimumDistance>1.6644372940063477</minimumDistance><medianDistance>2.7468817234039307</medianDistance></quality><uncertainty><minHorizontalUncertainty>11.69773006439209</minHorizontalUncertainty><maxHorizontalUncertainty>44.073734283447266</maxHorizontalUncertainty><azimuthMaxHorizontalUncertainty>87.83308410644531</azimuthMaxHorizontalUncertainty><preferredDescription>horizontal uncertainty</preferredDescription></uncertainty><evaluationMode>automatic</evaluationMode><evaluationStatus>confirmed</evaluationStatus><comment><text>0.36</text><id>mismatchScore</id></comment><comment><text>mismatchScore</text><id>scevalMethod</id></comment><arrival><pickID>de.gempa.tb1.Pick/20250413012616.46438.128002</pickID><phase>P</phase><azimuth>301.247802734375</azimuth><distance>1.6644372940063477</distance><timeResidual>-0.4606513977050781</timeResidual><timeUsed>true</timeUsed><horizontalSlownessUsed>false</horizontalSlownessUsed><backazimuthUsed>false</backazimuthUsed><weight>1</weight></arrival><arrival><pickID>de.gempa.tb1.Pick/20250413012623.531071.128004</pickID><phase>P</phase><azimuth>258.70147705078125</azimuth><distance>2.031851053237915</distance><timeResidual>-0.7076225280761719</timeResidual><timeUsed>true</timeUsed><horizontalSlownessUsed>false</horizontalSlownessUsed><backazimuthUsed>false</backazimuthUsed><weight>1</weight></arrival><arrival><pickID>de.gempa.tb1.Pick/20250413012625.613804.128006</pickID><phase>P</phase><azimuth>217.02224731445312</azimuth><distance>2.292933702468872</distance><timeResidual>0.15703582763671875</timeResidual><timeUsed>true</timeUsed><horizontalSlownessUsed>false</horizontalSlownessUsed><backazimuthUsed>false</backazimuthUsed><weight>1</weight></arrival><arrival><pickID>de.gempa.tb1.Pick/20250413012627.471605.128008</pickID><phase>P</phase><azimuth>219.82501220703125</azimuth><distance>2.7468817234039307</distance><timeResidual>0.5828742980957031</timeResidual><timeUsed>true</timeUsed><horizontalSlownessUsed>false</horizontalSlownessUsed><backazimuthUsed>false</backazimuthUsed><weight>1</weight></arrival><arrival><pickID>de.gempa.tb1.Pick/20250413012628.423119.128010</pickID><phase>P</phase><azimuth>231.13677978515625</azimuth><distance>2.575241804122925</distance><timeResidual>0.7830162048339844</timeResidual><timeUsed>true</timeUsed><horizontalSlownessUsed>false</horizontalSlownessUsed><backazimuthUsed>false</backazimuthUsed><weight>1</weight></arrival><arrival><pickID>de.gempa.tb1.Pick/20250413012634.566015.128012</pickID><phase>P</phase><azimuth>209.72999572753906</azimuth><distance>3.2629168033599854</distance><timeResidual>-0.2633094787597656</timeResidual><timeUsed>true</timeUsed><horizontalSlownessUsed>false</horizontalSlownessUsed><backazimuthUsed>false</backazimuthUsed><weight>1</weight></arrival><arrival><pickID>de.gempa.tb1.Pick/20250413012640.440637.128014</pickID><phase>P</phase><azimuth>203.9571990966797</azimuth><distance>2.8213906288146973</distance><timeResidual>1.2274322509765625</timeResidual><timeUsed>true</timeUsed><horizontalSlownessUsed>false</horizontalSlownessUsed><backazimuthUsed>false</backazimuthUsed><weight>1</weight></arrival><arrival><pickID>de.gempa.tb1.Pick/20250413012640.547895.128016</pickID><phase>P</phase><azimuth>202.49351501464844</azimuth><distance>3.773040294647217</distance><timeResidual>-0.8227386474609375</timeResidual><timeUsed>true</timeUsed><horizontalSlownessUsed>false</horizontalSlownessUsed><backazimuthUsed>false</backazimuthUsed><weight>1</weight></arrival><arrival><pickID>de.gempa.tb1.Pick/20250413012644.173849.128018</pickID><phase>P</phase><azimuth>214.76541137695312</azimuth><distance>3.060879707336426</distance><timeResidual>-0.2230224609375</timeResidual><timeUsed>true</timeUsed><horizontalSlownessUsed>false</horizontalSlownessUsed><backazimuthUsed>false</backazimuthUsed><weight>1</weight></arrival><arrival><pickID>de.gempa.tb1.Pick/20250413012659.661464.128022</pickID><phase>S</phase><azimuth>258.70147705078125</azimuth><distance>2.031851053237915</distance><timeResidual>0.4931793212890625</timeResidual><timeUsed>true</timeUsed><horizontalSlownessUsed>false</horizontalSlownessUsed><backazimuthUsed>false</backazimuthUsed><weight>1</weight></arrival><arrival><pickID>de.gempa.tb1.Pick/20250413012701.572756.128023</pickID><phase>S</phase><azimuth>217.02224731445312</azimuth><distance>2.292933702468872</distance><timeResidual>-0.3566436767578125</timeResidual><timeUsed>true</timeUsed><horizontalSlownessUsed>false</horizontalSlownessUsed><backazimuthUsed>false</backazimuthUsed><weight>1</weight></arrival><arrival><pickID>de.gempa.tb1.Pick/20250413012706.447763.128024</pickID><phase>S</phase><azimuth>231.13677978515625</azimuth><distance>2.575241804122925</distance><timeResidual>-0.5639991760253906</timeResidual><timeUsed>true</timeUsed><horizontalSlownessUsed>false</horizontalSlownessUsed><backazimuthUsed>false</backazimuthUsed><weight>1</weight></arrival><arrival><pickID>de.gempa.tb1.Pick/20250413012715.523274.128027</pickID><phase>S</phase><azimuth>219.82501220703125</azimuth><distance>2.7468817234039307</distance><timeResidual>0.9556846618652344</timeResidual><timeUsed>true</timeUsed><horizontalSlownessUsed>false</horizontalSlownessUsed><backazimuthUsed>false</backazimuthUsed><weight>1</weight></arrival><arrival><pickID>de.gempa.tb1.Pick/20250413012718.813809.128028</pickID><phase>S</phase><azimuth>209.72999572753906</azimuth><distance>3.2629168033599854</distance><timeResidual>-0.8014717102050781</timeResidual><timeUsed>true</timeUsed><horizontalSlownessUsed>false</horizontalSlownessUsed><backazimuthUsed>false</backazimuthUsed><weight>1</weight></arrival><magnitude publicID="de.gempa.tb1.Magnitude/20250413012743.575817.298993"><magnitude><value>3.314136850101177</value></magnitude><type>M</type><methodID>weighted average</methodID><stationCount>7</stationCount></magnitude></origin><event publicID="gempa2025hgnc"><preferredOriginID>de.gempa.tb1.Origin/20250413012718.817236.97307</preferredOriginID><preferredMagnitudeID>de.gempa.tb1.Magnitude/20250413012743.575817.298993</preferredMagnitudeID><description><text>Chile-Bolivia Border Region</text><type>region name</type></description><originReference>de.gempa.tb1.Origin/20250413012718.817236.97307</originReference></event></EventParameters></seiscomp>