<?xml version="1.0" encoding="UTF-8"?>
<seiscomp xmlns="http://geofon.gfz-potsdam.de/ns/seiscomp3-schema/0.13" version="0.13"><EventParameters><pick publicID="de.gempa.tb1.Pick/20250414222417.589546.141711"><time><value>2025-04-14T22:24:11.96Z</value></time><waveformID networkCode="CX" stationCode="PB19" channelCode="HHZ"/><filterID>ITAPER(4)&gt;&gt;BW(4,4,20)</filterID><methodID>AIC</methodID><horizontalSlowness><value>16.055022479229159</value></horizontalSlowness><backazimuth><value>183.13165730416907</value></backazimuth><phaseHint>P</phaseHint><evaluationMode>automatic</evaluationMode><comment><text>30.96713679919206</text><id>DFX:rectilinearity</id></comment><comment><text>35.235513613418163</text><id>SNR</id></comment></pick><pick publicID="de.gempa.tb1.Pick/20250414222418.649609.141713"><time><value>2025-04-14T22:24:13.898393Z</value></time><waveformID networkCode="CX" stationCode="PB15" channelCode="HHZ"/><filterID>ITAPER(4)&gt;&gt;BW(4,4,20)</filterID><methodID>AIC</methodID><horizontalSlowness><value>21.233980860439143</value></horizontalSlowness><backazimuth><value>113.51405316193734</value></backazimuth><phaseHint>P</phaseHint><evaluationMode>automatic</evaluationMode><comment><text>621.8230447828955</text><id>DFX:rectilinearity</id></comment><comment><text>19.369256788789421</text><id>SNR</id></comment></pick><pick publicID="de.gempa.tb1.Pick/20250414222424.610735.141715"><time><value>2025-04-14T22:24:17.208393Z</value></time><waveformID networkCode="CX" stationCode="PB06" channelCode="HHZ"/><filterID>ITAPER(4)&gt;&gt;BW(4,4,20)</filterID><methodID>AIC</methodID><horizontalSlowness><value>2.338328749780355</value></horizontalSlowness><backazimuth><value>194.82057288715492</value></backazimuth><phaseHint>P</phaseHint><evaluationMode>automatic</evaluationMode><comment><text>39.2081607034278</text><id>DFX:rectilinearity</id></comment><comment><text>14.24526582899535</text><id>SNR</id></comment></pick><pick publicID="de.gempa.tb1.Pick/20250414222431.581155.141717"><time><value>2025-04-14T22:24:23.358393Z</value></time><waveformID networkCode="CX" stationCode="PB03" channelCode="HHZ"/><filterID>ITAPER(4)&gt;&gt;BW(4,4,20)</filterID><methodID>AIC</methodID><horizontalSlowness><value>12.13707156255199</value></horizontalSlowness><backazimuth><value>144.86504544739267</value></backazimuth><phaseHint>P</phaseHint><evaluationMode>automatic</evaluationMode><comment><text>15.870806578439703</text><id>DFX:rectilinearity</id></comment><comment><text>41.7509759977157</text><id>SNR</id></comment></pick><pick publicID="de.gempa.tb1.Pick/20250414222435.975421.141719"><time><value>2025-04-14T22:24:27.078393Z</value></time><waveformID networkCode="CX" stationCode="PB07" channelCode="HHZ"/><filterID>ITAPER(4)&gt;&gt;BW(4,4,20)</filterID><methodID>AIC</methodID><horizontalSlowness><value>16.802704781115064</value></horizontalSlowness><backazimuth><value>161.15736159712435</value></backazimuth><phaseHint>P</phaseHint><evaluationMode>automatic</evaluationMode><comment><text>648.5147245840994</text><id>DFX:rectilinearity</id></comment><comment><text>77.92503750441554</text><id>SNR</id></comment></pick><pick publicID="de.gempa.tb1.Pick/20250414222436.194178.141721"><time><value>2025-04-14T22:24:26.59Z</value></time><waveformID networkCode="CX" stationCode="PB10" channelCode="HHZ"/><filterID>ITAPER(4)&gt;&gt;BW(4,4,20)</filterID><methodID>AIC</methodID><horizontalSlowness><value>19.999038045818573</value></horizontalSlowness><backazimuth><value>324.03093402921127</value></backazimuth><phaseHint>P</phaseHint><evaluationMode>automatic</evaluationMode><comment><text>112.42794174411418</text><id>DFX:rectilinearity</id></comment><comment><text>8.206226649706887</text><id>SNR</id></comment></pick><pick publicID="de.gempa.tb1.Pick/20250414222438.578311.141723"><time><value>2025-04-14T22:24:31.118393Z</value></time><waveformID networkCode="CX" stationCode="PB01" channelCode="HHZ"/><filterID>ITAPER(4)&gt;&gt;BW(4,4,20)</filterID><methodID>AIC</methodID><horizontalSlowness><value>23.548816538972737</value></horizontalSlowness><backazimuth><value>23.52171859002317</value></backazimuth><phaseHint>P</phaseHint><evaluationMode>automatic</evaluationMode><comment><text>11.085441584103243</text><id>DFX:rectilinearity</id></comment><comment><text>8.955712206801742</text><id>SNR</id></comment></pick><pick publicID="de.gempa.tb1.Pick/20250414222439.518094.141725"><time><value>2025-04-14T22:24:30.718393Z</value></time><waveformID networkCode="CX" stationCode="PB02" channelCode="HHZ"/><filterID>ITAPER(4)&gt;&gt;BW(4,4,20)</filterID><methodID>AIC</methodID><horizontalSlowness><value>4.739166101674998</value></horizontalSlowness><backazimuth><value>271.0129380213417</value></backazimuth><phaseHint>P</phaseHint><evaluationMode>automatic</evaluationMode><comment><text>26.551257893275505</text><id>DFX:rectilinearity</id></comment><comment><text>13.890023472028828</text><id>SNR</id></comment></pick><pick publicID="de.gempa.tb1.Pick/20250414222439.84234.141727"><time><value>2025-04-14T22:24:33.36Z</value></time><waveformID networkCode="CX" stationCode="PB19" channelCode="HHN"/><filterID>ITAPER(2)&gt;&gt;BW(3,3,20)</filterID><methodID>L2-AIC-GRID</methodID><horizontalSlowness><value>21.625793701953196</value></horizontalSlowness><backazimuth><value>107.7160769666376</value></backazimuth><phaseHint>S</phaseHint><evaluationMode>automatic</evaluationMode><comment><text>943.0103804654944</text><id>DFX:rectilinearity</id></comment><comment><text>de.gempa.tb1.Pick/20250414222417.589546.141711</text><id>RefPickID</id></comment><comment><text>10.520426657972262</text><id>SNR</id></comment></pick><pick publicID="de.gempa.tb1.Pick/20250414222440.974342.141728"><time><value>2025-04-14T22:24:22.82Z</value></time><waveformID networkCode="CX" stationCode="PB09" channelCode="HHZ"/><filterID>ITAPER(4)&gt;&gt;BW(4,4,20)</filterID><methodID>AIC</methodID><horizontalSlowness><value>18.663126446534914</value></horizontalSlowness><backazimuth><value>303.58198067475575</value></backazimuth><phaseHint>P</phaseHint><evaluationMode>automatic</evaluationMode><comment><text>24.65844822226798</text><id>DFX:rectilinearity</id></comment><comment><text>50.42812719092247</text><id>SNR</id></comment></pick><pick publicID="de.gempa.tb1.Pick/20250414222446.81366.141732"><time><value>2025-04-14T22:24:37.488393Z</value></time><waveformID networkCode="CX" stationCode="PB15" channelCode="HHN"/><filterID>ITAPER(2)&gt;&gt;BW(3,3,20)</filterID><methodID>L2-AIC-GRID</methodID><horizontalSlowness><value>20.357304190088257</value></horizontalSlowness><backazimuth><value>125.31106225009478</value></backazimuth><phaseHint>S</phaseHint><evaluationMode>automatic</evaluationMode><comment><text>16115.159809959325</text><id>DFX:rectilinearity</id></comment><comment><text>de.gempa.tb1.Pick/20250414222418.649609.141713</text><id>RefPickID</id></comment><comment><text>7.897434333286186</text><id>SNR</id></comment></pick><pick publicID="de.gempa.tb1.Pick/20250414222451.586493.141735"><time><value>2025-04-14T22:24:42.758393Z</value></time><waveformID networkCode="CX" stationCode="PB06" channelCode="HHN"/><filterID>ITAPER(2)&gt;&gt;BW(3,3,20)</filterID><methodID>L2-AIC-GRID</methodID><horizontalSlowness><value>13.923310131316535</value></horizontalSlowness><backazimuth><value>35.252430035272795</value></backazimuth><phaseHint>S</phaseHint><evaluationMode>automatic</evaluationMode><comment><text>192.57518289592886</text><id>DFX:rectilinearity</id></comment><comment><text>de.gempa.tb1.Pick/20250414222424.610735.141715</text><id>RefPickID</id></comment><comment><text>9.388226492371846</text><id>SNR</id></comment></pick><pick publicID="de.gempa.tb1.Pick/20250414222520.774886.141738"><time><value>2025-04-14T22:25:07.728393Z</value></time><waveformID networkCode="CX" stationCode="PB01" channelCode="HHN"/><filterID>ITAPER(2)&gt;&gt;BW(3,3,20)</filterID><methodID>L2-AIC-GRID</methodID><horizontalSlowness><value>23.294719127726633</value></horizontalSlowness><backazimuth><value>199.3504470557138</value></backazimuth><phaseHint>S</phaseHint><evaluationMode>automatic</evaluationMode><comment><text>16.176919590490634</text><id>DFX:rectilinearity</id></comment><comment><text>de.gempa.tb1.Pick/20250414222438.578311.141723</text><id>RefPickID</id></comment><comment><text>5.922727549990798</text><id>SNR</id></comment></pick><origin publicID="de.gempa.tb1.Origin/20250414222520.778108.152929"><time><value>2025-04-14T22:23:43.535794Z</value><uncertainty>1.1134955883026123</uncertainty></time><latitude><value>-23.50784683227539</value><uncertainty>7.474719524383545</uncertainty></latitude><longitude><value>-67.55485534667969</value><uncertainty>16.743358612060547</uncertainty></longitude><depth><value>14.993250846862793</value><uncertainty>21.053359985351562</uncertainty></depth><depthType>from location</depthType><methodID>LOCSAT</methodID><earthModelID>iasp91_scanloc</earthModelID><quality><associatedPhaseCount>13</associatedPhaseCount><usedPhaseCount>13</usedPhaseCount><associatedStationCount>9</associatedStationCount><usedStationCount>9</usedStationCount><depthPhaseCount>0</depthPhaseCount><standardError>0.6129866308633072</standardError><azimuthalGap>292.1974334716797</azimuthalGap><maximumDistance>3.0716006755828857</maximumDistance><minimumDistance>1.6393574476242065</minimumDistance><medianDistance>2.308687686920166</medianDistance></quality><uncertainty><minHorizontalUncertainty>9.194430351257324</minHorizontalUncertainty><maxHorizontalUncertainty>38.22874069213867</maxHorizontalUncertainty><azimuthMaxHorizontalUncertainty>110.72110748291016</azimuthMaxHorizontalUncertainty><preferredDescription>horizontal uncertainty</preferredDescription></uncertainty><evaluationMode>automatic</evaluationMode><evaluationStatus>confirmed</evaluationStatus><comment><text>0.00</text><id>mismatchScore</id></comment><comment><text>mismatchScore</text><id>scevalMethod</id></comment><arrival><pickID>de.gempa.tb1.Pick/20250414222417.589546.141711</pickID><phase>P</phase><azimuth>255.7070770263672</azimuth><distance>1.6393574476242065</distance><timeResidual>0.1417713165283203</timeResidual><timeUsed>true</timeUsed><horizontalSlownessUsed>false</horizontalSlownessUsed><backazimuthUsed>false</backazimuthUsed><weight>1</weight></arrival><arrival><pickID>de.gempa.tb1.Pick/20250414222418.649609.141713</pickID><phase>P</phase><azimuth>279.23089599609375</azimuth><distance>1.7859222888946533</distance><timeResidual>0.06149864196777344</timeResidual><timeUsed>true</timeUsed><horizontalSlownessUsed>false</horizontalSlownessUsed><backazimuthUsed>false</backazimuthUsed><weight>1</weight></arrival><arrival><pickID>de.gempa.tb1.Pick/20250414222424.610735.141715</pickID><phase>P</phase><azimuth>292.8655700683594</azimuth><distance>2.021397352218628</distance><timeResidual>0.12981796264648438</timeResidual><timeUsed>true</timeUsed><horizontalSlownessUsed>false</horizontalSlownessUsed><backazimuthUsed>false</backazimuthUsed><weight>1</weight></arrival><arrival><pickID>de.gempa.tb1.Pick/20250414222431.581155.141717</pickID><phase>P</phase><azimuth>305.1729736328125</azimuth><distance>2.4951045513153076</distance><timeResidual>-0.2407417297363281</timeResidual><timeUsed>true</timeUsed><horizontalSlownessUsed>false</horizontalSlownessUsed><backazimuthUsed>false</backazimuthUsed><weight>1</weight></arrival><arrival><pickID>de.gempa.tb1.Pick/20250414222435.975421.141719</pickID><phase>P</phase><azimuth>309.001708984375</azimuth><distance>2.7896931171417236</distance><timeResidual>-0.5752601623535156</timeResidual><timeUsed>true</timeUsed><horizontalSlownessUsed>false</horizontalSlownessUsed><backazimuthUsed>false</backazimuthUsed><weight>1</weight></arrival><arrival><pickID>de.gempa.tb1.Pick/20250414222436.194178.141721</pickID><phase>P</phase><azimuth>269.2893981933594</azimuth><distance>2.7531254291534424</distance><timeResidual>-0.5562553405761719</timeResidual><timeUsed>true</timeUsed><horizontalSlownessUsed>false</horizontalSlownessUsed><backazimuthUsed>false</backazimuthUsed><weight>1</weight></arrival><arrival><pickID>de.gempa.tb1.Pick/20250414222438.578311.141723</pickID><phase>P</phase><azimuth>323.5096435546875</azimuth><distance>3.0364108085632324</distance><timeResidual>0.06829833984375</timeResidual><timeUsed>true</timeUsed><horizontalSlownessUsed>false</horizontalSlownessUsed><backazimuthUsed>false</backazimuthUsed><weight>1</weight></arrival><arrival><pickID>de.gempa.tb1.Pick/20250414222439.518094.141725</pickID><phase>P</phase><azimuth>314.6992492675781</azimuth><distance>3.0716006755828857</distance><timeResidual>-0.8152084350585938</timeResidual><timeUsed>true</timeUsed><horizontalSlownessUsed>false</horizontalSlownessUsed><backazimuthUsed>false</backazimuthUsed><weight>1</weight></arrival><arrival><pickID>de.gempa.tb1.Pick/20250414222439.84234.141727</pickID><phase>S</phase><azimuth>255.7070770263672</azimuth><distance>1.6393574476242065</distance><timeResidual>-0.05417442321777344</timeResidual><timeUsed>true</timeUsed><horizontalSlownessUsed>false</horizontalSlownessUsed><backazimuthUsed>false</backazimuthUsed><weight>1</weight></arrival><arrival><pickID>de.gempa.tb1.Pick/20250414222440.974342.141728</pickID><phase>P</phase><azimuth>317.2176208496094</azimuth><distance>2.308687686920166</distance><timeResidual>1.785675048828125</timeResidual><timeUsed>true</timeUsed><horizontalSlownessUsed>false</horizontalSlownessUsed><backazimuthUsed>false</backazimuthUsed><weight>1</weight></arrival><arrival><pickID>de.gempa.tb1.Pick/20250414222446.81366.141732</pickID><phase>S</phase><azimuth>279.23089599609375</azimuth><distance>1.7859222888946533</distance><timeResidual>0.4436149597167969</timeResidual><timeUsed>true</timeUsed><horizontalSlownessUsed>false</horizontalSlownessUsed><backazimuthUsed>false</backazimuthUsed><weight>1</weight></arrival><arrival><pickID>de.gempa.tb1.Pick/20250414222451.586493.141735</pickID><phase>S</phase><azimuth>292.8655700683594</azimuth><distance>2.021397352218628</distance><timeResidual>-0.11685943603515625</timeResidual><timeUsed>true</timeUsed><horizontalSlownessUsed>false</horizontalSlownessUsed><backazimuthUsed>false</backazimuthUsed><weight>1</weight></arrival><arrival><pickID>de.gempa.tb1.Pick/20250414222520.774886.141738</pickID><phase>S</phase><azimuth>323.5096435546875</azimuth><distance>3.0364108085632324</distance><timeResidual>-0.2729454040527344</timeResidual><timeUsed>true</timeUsed><horizontalSlownessUsed>false</horizontalSlownessUsed><backazimuthUsed>false</backazimuthUsed><weight>1</weight></arrival><magnitude publicID="de.gempa.tb1.Magnitude/20250414222520.787025.546694"><magnitude><value>2.7398397717188767</value></magnitude><type>M</type><methodID>weighted average</methodID><stationCount>7</stationCount></magnitude></origin><event publicID="gempa2025hjzb"><preferredOriginID>de.gempa.tb1.Origin/20250414222520.778108.152929</preferredOriginID><preferredMagnitudeID>de.gempa.tb1.Magnitude/20250414222520.787025.546694</preferredMagnitudeID><description><text>Chile-Argentina Border Region</text><type>region name</type></description><originReference>de.gempa.tb1.Origin/20250414222520.778108.152929</originReference></event></EventParameters></seiscomp>