<?xml version="1.0" encoding="UTF-8"?>
<seiscomp xmlns="http://geofon.gfz-potsdam.de/ns/seiscomp3-schema/0.13" version="0.13"><EventParameters><pick publicID="de.gempa.tb1.Pick/20250415004058.604408.142473"><time><value>2025-04-15T00:40:52.04Z</value></time><waveformID networkCode="CX" stationCode="PSGCX" channelCode="HHZ"/><filterID>ITAPER(4)&gt;&gt;BW(4,4,20)</filterID><methodID>AIC</methodID><horizontalSlowness><value>13.880237353903786</value></horizontalSlowness><backazimuth><value>326.74698163231346</value></backazimuth><phaseHint>P</phaseHint><evaluationMode>automatic</evaluationMode><comment><text>10263.87248775152</text><id>DFX:rectilinearity</id></comment><comment><text>393.58378690001393</text><id>SNR</id></comment></pick><pick publicID="de.gempa.tb1.Pick/20250415004112.257203.142475"><time><value>2025-04-15T00:41:06.699999Z</value></time><waveformID networkCode="CX" stationCode="PATCX" channelCode="HHZ"/><filterID>ITAPER(4)&gt;&gt;BW(4,4,20)</filterID><methodID>AIC</methodID><horizontalSlowness><value>20.39173759228683</value></horizontalSlowness><backazimuth><value>252.55651286714624</value></backazimuth><phaseHint>P</phaseHint><evaluationMode>automatic</evaluationMode><comment><text>131.01054819603783</text><id>DFX:rectilinearity</id></comment><comment><text>48.58456437605872</text><id>SNR</id></comment></pick><pick publicID="de.gempa.tb1.Pick/20250415004112.629349.142477"><time><value>2025-04-15T00:41:08.048393Z</value></time><waveformID networkCode="CX" stationCode="PB08" channelCode="HHZ"/><filterID>ITAPER(4)&gt;&gt;BW(4,4,20)</filterID><methodID>AIC</methodID><horizontalSlowness><value>11.6135482620523</value></horizontalSlowness><backazimuth><value>226.97185995477165</value></backazimuth><phaseHint>P</phaseHint><evaluationMode>automatic</evaluationMode><comment><text>334.6027488803599</text><id>DFX:rectilinearity</id></comment><comment><text>45.010199000616886</text><id>SNR</id></comment></pick><pick publicID="de.gempa.tb1.Pick/20250415004116.886094.142479"><time><value>2025-04-15T00:41:09.93Z</value></time><waveformID networkCode="CX" stationCode="PSGCX" channelCode="HHN"/><filterID>ITAPER(2)&gt;&gt;BW(3,3,20)</filterID><methodID>L2-AIC-GRID</methodID><horizontalSlowness><value>11.330732238309082</value></horizontalSlowness><backazimuth><value>205.88988835339902</value></backazimuth><phaseHint>S</phaseHint><evaluationMode>automatic</evaluationMode><comment><text>81634.77022537371</text><id>DFX:rectilinearity</id></comment><comment><text>de.gempa.tb1.Pick/20250415004058.604408.142473</text><id>RefPickID</id></comment><comment><text>5.949564543905361</text><id>SNR</id></comment></pick><pick publicID="de.gempa.tb1.Pick/20250415004121.572568.142481"><time><value>2025-04-15T00:41:14.498393Z</value></time><waveformID networkCode="CX" stationCode="PB02" channelCode="HHZ"/><filterID>ITAPER(4)&gt;&gt;BW(4,4,20)</filterID><methodID>AIC</methodID><horizontalSlowness><value>8.562462940406649</value></horizontalSlowness><backazimuth><value>29.6620899798381</value></backazimuth><phaseHint>P</phaseHint><evaluationMode>automatic</evaluationMode><comment><text>289.26109942352736</text><id>DFX:rectilinearity</id></comment><comment><text>185.68741643917068</text><id>SNR</id></comment></pick><pick publicID="de.gempa.tb1.Pick/20250415004121.602443.142483"><time><value>2025-04-15T00:41:13.598393Z</value></time><waveformID networkCode="CX" stationCode="PB01" channelCode="HHZ"/><filterID>ITAPER(4)&gt;&gt;BW(4,4,20)</filterID><methodID>AIC</methodID><horizontalSlowness><value>15.312720229534898</value></horizontalSlowness><backazimuth><value>334.69792059370877</value></backazimuth><phaseHint>P</phaseHint><evaluationMode>automatic</evaluationMode><comment><text>45.86995761404155</text><id>DFX:rectilinearity</id></comment><comment><text>86.96885540952698</text><id>SNR</id></comment></pick><pick publicID="de.gempa.tb1.Pick/20250415004127.361595.142486"><time><value>2025-04-15T00:41:19.398393Z</value></time><waveformID networkCode="CX" stationCode="PB07" channelCode="HHZ"/><filterID>ITAPER(4)&gt;&gt;BW(4,4,20)</filterID><methodID>AIC</methodID><horizontalSlowness><value>18.445306812346196</value></horizontalSlowness><backazimuth><value>21.14621028160181</value></backazimuth><phaseHint>P</phaseHint><evaluationMode>automatic</evaluationMode><comment><text>634.8528934728201</text><id>DFX:rectilinearity</id></comment><comment><text>95.26946665486057</text><id>SNR</id></comment></pick><pick publicID="de.gempa.tb1.Pick/20250415004138.620693.142490"><time><value>2025-04-15T00:41:32.728393Z</value></time><waveformID networkCode="CX" stationCode="PB06" channelCode="HHZ"/><filterID>ITAPER(4)&gt;&gt;BW(4,4,20)</filterID><methodID>AIC</methodID><horizontalSlowness><value>19.914543249146305</value></horizontalSlowness><backazimuth><value>309.3746861252066</value></backazimuth><phaseHint>P</phaseHint><evaluationMode>automatic</evaluationMode><comment><text>75.7939144255247</text><id>DFX:rectilinearity</id></comment><comment><text>22.356779458294913</text><id>SNR</id></comment></pick><pick publicID="de.gempa.tb1.Pick/20250415004141.525594.142493"><time><value>2025-04-15T00:41:24.98Z</value></time><waveformID networkCode="CX" stationCode="PB09" channelCode="HHZ"/><filterID>ITAPER(4)&gt;&gt;BW(4,4,20)</filterID><methodID>AIC</methodID><horizontalSlowness><value>15.914922742884603</value></horizontalSlowness><backazimuth><value>48.61274191750707</value></backazimuth><phaseHint>P</phaseHint><evaluationMode>automatic</evaluationMode><comment><text>36.60580732044541</text><id>DFX:rectilinearity</id></comment><comment><text>76.33626034522598</text><id>SNR</id></comment></pick><pick publicID="de.gempa.tb1.Pick/20250415004144.223551.142496"><time><value>2025-04-15T00:41:39.76Z</value></time><waveformID networkCode="CX" stationCode="PB10" channelCode="HHZ"/><filterID>ITAPER(4)&gt;&gt;BW(4,4,20)</filterID><methodID>AIC</methodID><horizontalSlowness><value>12.196548813656928</value></horizontalSlowness><backazimuth><value>27.96328322967773</value></backazimuth><phaseHint>P</phaseHint><evaluationMode>automatic</evaluationMode><comment><text>139.4646716819493</text><id>DFX:rectilinearity</id></comment><comment><text>21.641307965014583</text><id>SNR</id></comment></pick><pick publicID="de.gempa.tb1.Pick/20250415004144.919702.142498"><time><value>2025-04-15T00:41:38.768393Z</value></time><waveformID networkCode="CX" stationCode="PB15" channelCode="HHZ"/><filterID>ITAPER(4)&gt;&gt;BW(4,4,20)</filterID><methodID>AIC</methodID><horizontalSlowness><value>23.1471560419928</value></horizontalSlowness><backazimuth><value>292.78351225925564</value></backazimuth><phaseHint>P</phaseHint><evaluationMode>automatic</evaluationMode><comment><text>285.59952183910843</text><id>DFX:rectilinearity</id></comment><comment><text>9.050436703500926</text><id>SNR</id></comment></pick><pick publicID="de.gempa.tb1.Pick/20250415004153.579563.142504"><time><value>2025-04-15T00:41:45.528393Z</value></time><waveformID networkCode="CX" stationCode="PB01" channelCode="HHN"/><filterID>ITAPER(2)&gt;&gt;BW(3,3,20)</filterID><methodID>L2-AIC-GRID</methodID><horizontalSlowness><value>21.779224737612097</value></horizontalSlowness><backazimuth><value>243.8271392547213</value></backazimuth><phaseHint>S</phaseHint><evaluationMode>automatic</evaluationMode><comment><text>5300.208240364294</text><id>DFX:rectilinearity</id></comment><comment><text>de.gempa.tb1.Pick/20250415004121.602443.142483</text><id>RefPickID</id></comment><comment><text>9.878075078382032</text><id>SNR</id></comment></pick><pick publicID="de.gempa.tb1.Pick/20250415004155.634275.142505"><time><value>2025-04-15T00:41:46.508393Z</value></time><waveformID networkCode="CX" stationCode="PB02" channelCode="HHN"/><filterID>ITAPER(2)&gt;&gt;BW(3,3,20)</filterID><methodID>L2-AIC-GRID</methodID><horizontalSlowness><value>23.22312410152793</value></horizontalSlowness><backazimuth><value>321.7415753643897</value></backazimuth><phaseHint>S</phaseHint><evaluationMode>automatic</evaluationMode><comment><text>23614.67953566607</text><id>DFX:rectilinearity</id></comment><comment><text>de.gempa.tb1.Pick/20250415004121.572568.142481</text><id>RefPickID</id></comment><comment><text>6.574363273068805</text><id>SNR</id></comment></pick><pick publicID="de.gempa.tb1.Pick/20250415004158.68456.142507"><time><value>2025-04-15T00:41:51.43Z</value></time><waveformID networkCode="CX" stationCode="PB19" channelCode="HHZ"/><filterID>ITAPER(4)&gt;&gt;BW(4,4,20)</filterID><methodID>AIC</methodID><horizontalSlowness><value>6.185606723943565</value></horizontalSlowness><backazimuth><value>103.28675586998531</value></backazimuth><phaseHint>P</phaseHint><evaluationMode>automatic</evaluationMode><comment><text>35.09919594028095</text><id>DFX:rectilinearity</id></comment><comment><text>10.248042610671673</text><id>SNR</id></comment></pick><pick publicID="de.gempa.tb1.Pick/20250415004201.778117.142509"><time><value>2025-04-15T00:41:55.208393Z</value></time><waveformID networkCode="CX" stationCode="PB07" channelCode="HHN"/><filterID>ITAPER(2)&gt;&gt;BW(3,3,20)</filterID><methodID>L2-AIC-GRID</methodID><horizontalSlowness><value>20.07479814793455</value></horizontalSlowness><backazimuth><value>290.4796186095709</value></backazimuth><phaseHint>S</phaseHint><evaluationMode>automatic</evaluationMode><comment><text>70402.75088316415</text><id>DFX:rectilinearity</id></comment><comment><text>de.gempa.tb1.Pick/20250415004127.361595.142486</text><id>RefPickID</id></comment><comment><text>6.539555133444789</text><id>SNR</id></comment></pick><pick publicID="de.gempa.tb1.Pick/20250415004226.677466.142513"><time><value>2025-04-15T00:42:19.208393Z</value></time><waveformID networkCode="CX" stationCode="PB06" channelCode="HHN"/><filterID>ITAPER(2)&gt;&gt;BW(3,3,20)</filterID><methodID>L2-AIC-GRID</methodID><horizontalSlowness><value>18.665432713417154</value></horizontalSlowness><backazimuth><value>104.79537354491958</value></backazimuth><phaseHint>S</phaseHint><evaluationMode>automatic</evaluationMode><comment><text>782.0144558358613</text><id>DFX:rectilinearity</id></comment><comment><text>de.gempa.tb1.Pick/20250415004138.620693.142490</text><id>RefPickID</id></comment><comment><text>7.175692785633305</text><id>SNR</id></comment></pick><origin publicID="de.gempa.tb1.Origin/20250415004226.681297.156878"><time><value>2025-04-15T00:40:32.146154Z</value><uncertainty>0.9250673055648804</uncertainty></time><latitude><value>-19.043516159057617</value><uncertainty>9.77562141418457</uncertainty></latitude><longitude><value>-71.1483154296875</value><uncertainty>6.680108070373535</uncertainty></longitude><depth><value>7.018496036529541</value><uncertainty>7.681930065155029</uncertainty></depth><depthType>from location</depthType><methodID>LOCSAT</methodID><earthModelID>iasp91_scanloc</earthModelID><quality><associatedPhaseCount>16</associatedPhaseCount><usedPhaseCount>16</usedPhaseCount><associatedStationCount>11</associatedStationCount><usedStationCount>11</usedStationCount><depthPhaseCount>0</depthPhaseCount><standardError>0.8649831226940351</standardError><azimuthalGap>306.7970886230469</azimuthalGap><maximumDistance>5.13727331161499</maximumDistance><minimumDistance>1.1139105558395386</minimumDistance><medianDistance>2.9202637672424316</medianDistance></quality><uncertainty><minHorizontalUncertainty>9.635994911193848</minHorizontalUncertainty><maxHorizontalUncertainty>23.49510192871094</maxHorizontalUncertainty><azimuthMaxHorizontalUncertainty>29.657297134399414</azimuthMaxHorizontalUncertainty><preferredDescription>horizontal uncertainty</preferredDescription></uncertainty><evaluationMode>automatic</evaluationMode><evaluationStatus>confirmed</evaluationStatus><comment><text>0.03</text><id>mismatchScore</id></comment><comment><text>mismatchScore</text><id>scevalMethod</id></comment><arrival><pickID>de.gempa.tb1.Pick/20250415004058.604408.142473</pickID><phase>P</phase><azimuth>119.79991149902344</azimuth><distance>1.1139105558395386</distance><timeResidual>-1.4970359802246094</timeResidual><timeUsed>true</timeUsed><horizontalSlownessUsed>false</horizontalSlownessUsed><backazimuthUsed>false</backazimuthUsed><weight>1</weight></arrival><arrival><pickID>de.gempa.tb1.Pick/20250415004112.257203.142475</pickID><phase>P</phase><azimuth>152.2568817138672</azimuth><distance>2.000739574432373</distance><timeResidual>0.33817100524902344</timeResidual><timeUsed>true</timeUsed><horizontalSlownessUsed>false</horizontalSlownessUsed><backazimuthUsed>false</backazimuthUsed><weight>1</weight></arrival><arrival><pickID>de.gempa.tb1.Pick/20250415004112.629349.142477</pickID><phase>P</phase><azimuth>120.46649169921875</azimuth><distance>2.1747567653656006</distance><timeResidual>-0.709768295288086</timeResidual><timeUsed>true</timeUsed><horizontalSlownessUsed>false</horizontalSlownessUsed><backazimuthUsed>false</backazimuthUsed><weight>1</weight></arrival><arrival><pickID>de.gempa.tb1.Pick/20250415004116.886094.142479</pickID><phase>S</phase><azimuth>119.79991149902344</azimuth><distance>1.1139105558395386</distance><timeResidual>0.8567752838134766</timeResidual><timeUsed>true</timeUsed><horizontalSlownessUsed>false</horizontalSlownessUsed><backazimuthUsed>false</backazimuthUsed><weight>1</weight></arrival><arrival><pickID>de.gempa.tb1.Pick/20250415004121.572568.142481</pickID><phase>P</phase><azimuth>152.76266479492188</azimuth><distance>2.551825761795044</distance><timeResidual>0.5516719818115234</timeResidual><timeUsed>true</timeUsed><horizontalSlownessUsed>false</horizontalSlownessUsed><backazimuthUsed>false</backazimuthUsed><weight>1</weight></arrival><arrival><pickID>de.gempa.tb1.Pick/20250415004121.602443.142483</pickID><phase>P</phase><azimuth>142.1507568359375</azimuth><distance>2.529024839401245</distance><timeResidual>-0.034885406494140625</timeResidual><timeUsed>true</timeUsed><horizontalSlownessUsed>false</horizontalSlownessUsed><backazimuthUsed>false</backazimuthUsed><weight>1</weight></arrival><arrival><pickID>de.gempa.tb1.Pick/20250415004127.361595.142486</pickID><phase>P</phase><azimuth>156.29635620117188</azimuth><distance>2.9202637672424316</distance><timeResidual>0.3809623718261719</timeResidual><timeUsed>true</timeUsed><horizontalSlownessUsed>false</horizontalSlownessUsed><backazimuthUsed>false</backazimuthUsed><weight>1</weight></arrival><arrival><pickID>de.gempa.tb1.Pick/20250415004138.620693.142490</pickID><phase>P</phase><azimuth>158.24827575683594</azimuth><distance>3.93072772026062</distance><timeResidual>-0.1925792694091797</timeResidual><timeUsed>true</timeUsed><horizontalSlownessUsed>false</horizontalSlownessUsed><backazimuthUsed>false</backazimuthUsed><weight>1</weight></arrival><arrival><pickID>de.gempa.tb1.Pick/20250415004141.525594.142493</pickID><phase>P</phase><azimuth>147.18780517578125</azimuth><distance>3.2707390785217285</distance><timeResidual>1.1392536163330078</timeResidual><timeUsed>true</timeUsed><horizontalSlownessUsed>false</horizontalSlownessUsed><backazimuthUsed>false</backazimuthUsed><weight>1</weight></arrival><arrival><pickID>de.gempa.tb1.Pick/20250415004144.223551.142496</pickID><phase>P</phase><azimuth>173.00282287597656</azimuth><distance>4.482198715209961</distance><timeResidual>-0.7467937469482422</timeResidual><timeUsed>true</timeUsed><horizontalSlownessUsed>false</horizontalSlownessUsed><backazimuthUsed>false</backazimuthUsed><weight>1</weight></arrival><arrival><pickID>de.gempa.tb1.Pick/20250415004144.919702.142498</pickID><phase>P</phase><azimuth>159.59432983398438</azimuth><distance>4.4299817085266113</distance><timeResidual>-1.0205135345458984</timeResidual><timeUsed>true</timeUsed><horizontalSlownessUsed>false</horizontalSlownessUsed><backazimuthUsed>false</backazimuthUsed><weight>1</weight></arrival><arrival><pickID>de.gempa.tb1.Pick/20250415004153.579563.142504</pickID><phase>S</phase><azimuth>142.1507568359375</azimuth><distance>2.529024839401245</distance><timeResidual>-0.09824562072753906</timeResidual><timeUsed>true</timeUsed><horizontalSlownessUsed>false</horizontalSlownessUsed><backazimuthUsed>false</backazimuthUsed><weight>1</weight></arrival><arrival><pickID>de.gempa.tb1.Pick/20250415004155.634275.142505</pickID><phase>S</phase><azimuth>152.76266479492188</azimuth><distance>2.551825761795044</distance><timeResidual>0.3181018829345703</timeResidual><timeUsed>true</timeUsed><horizontalSlownessUsed>false</horizontalSlownessUsed><backazimuthUsed>false</backazimuthUsed><weight>1</weight></arrival><arrival><pickID>de.gempa.tb1.Pick/20250415004158.68456.142507</pickID><phase>P</phase><azimuth>160.650146484375</azimuth><distance>5.13727331161499</distance><timeResidual>1.9141483306884766</timeResidual><timeUsed>true</timeUsed><horizontalSlownessUsed>false</horizontalSlownessUsed><backazimuthUsed>false</backazimuthUsed><weight>1</weight></arrival><arrival><pickID>de.gempa.tb1.Pick/20250415004201.778117.142509</pickID><phase>S</phase><azimuth>156.29635620117188</azimuth><distance>2.9202637672424316</distance><timeResidual>-0.10013771057128906</timeResidual><timeUsed>true</timeUsed><horizontalSlownessUsed>false</horizontalSlownessUsed><backazimuthUsed>false</backazimuthUsed><weight>1</weight></arrival><arrival><pickID>de.gempa.tb1.Pick/20250415004226.677466.142513</pickID><phase>S</phase><azimuth>158.24827575683594</azimuth><distance>3.93072772026062</distance><timeResidual>-1.0991649627685547</timeResidual><timeUsed>true</timeUsed><horizontalSlownessUsed>false</horizontalSlownessUsed><backazimuthUsed>false</backazimuthUsed><weight>1</weight></arrival><magnitude publicID="de.gempa.tb1.Magnitude/20250415004235.942849.555955"><magnitude><value>3.5283975590999233</value></magnitude><type>M</type><methodID>weighted average</methodID><stationCount>9</stationCount></magnitude></origin><event publicID="gempa2025hkdq"><preferredOriginID>de.gempa.tb1.Origin/20250415004226.681297.156878</preferredOriginID><preferredMagnitudeID>de.gempa.tb1.Magnitude/20250415004235.942849.555955</preferredMagnitudeID><description><text>Off Coast of Northern Chile</text><type>region name</type></description><originReference>de.gempa.tb1.Origin/20250415004226.681297.156878</originReference></event></EventParameters></seiscomp>