<?xml version="1.0" encoding="UTF-8"?>
<seiscomp xmlns="http://geofon.gfz-potsdam.de/ns/seiscomp3-schema/0.13" version="0.13"><EventParameters><pick publicID="de.gempa.tb1.Pick/20250414103046.651239.137363"><time><value>2025-04-14T10:30:42.148393Z</value></time><waveformID networkCode="CX" stationCode="PB06" channelCode="HHZ"/><filterID>ITAPER(4)&gt;&gt;BW(4,4,20)</filterID><methodID>AIC</methodID><horizontalSlowness><value>19.621294356475502</value></horizontalSlowness><backazimuth><value>108.46374053240788</value></backazimuth><phaseHint>P</phaseHint><evaluationMode>automatic</evaluationMode><comment><text>31.808258962691433</text><id>DFX:rectilinearity</id></comment><comment><text>8.154084620872046</text><id>SNR</id></comment></pick><pick publicID="de.gempa.tb1.Pick/20250414103047.408911.137365"><time><value>2025-04-14T10:30:41.848393Z</value></time><waveformID networkCode="CX" stationCode="PB03" channelCode="HHZ"/><filterID>ITAPER(4)&gt;&gt;BW(4,4,20)</filterID><methodID>AIC</methodID><horizontalSlowness><value>22.86731031660552</value></horizontalSlowness><backazimuth><value>84.04592348521588</value></backazimuth><phaseHint>P</phaseHint><evaluationMode>automatic</evaluationMode><comment><text>8.716681840495143</text><id>DFX:rectilinearity</id></comment><comment><text>23.20484197079333</text><id>SNR</id></comment></pick><pick publicID="de.gempa.tb1.Pick/20250414103053.524987.137367"><time><value>2025-04-14T10:30:46.148393Z</value></time><waveformID networkCode="CX" stationCode="PB02" channelCode="HHZ"/><filterID>ITAPER(4)&gt;&gt;BW(4,4,20)</filterID><methodID>AIC</methodID><horizontalSlowness><value>13.90122730248145</value></horizontalSlowness><backazimuth><value>216.863532209734</value></backazimuth><phaseHint>P</phaseHint><evaluationMode>automatic</evaluationMode><comment><text>14.37760730391273</text><id>DFX:rectilinearity</id></comment><comment><text>6.529741507272432</text><id>SNR</id></comment></pick><pick publicID="de.gempa.tb1.Pick/20250414103055.356213.137369"><time><value>2025-04-14T10:30:43.788393Z</value></time><waveformID networkCode="CX" stationCode="PB07" channelCode="HHZ"/><filterID>ITAPER(4)&gt;&gt;BW(4,4,20)</filterID><methodID>AIC</methodID><horizontalSlowness><value>23.29337411336339</value></horizontalSlowness><backazimuth><value>358.94289298693405</value></backazimuth><phaseHint>P</phaseHint><evaluationMode>automatic</evaluationMode><comment><text>105.67396527295942</text><id>DFX:rectilinearity</id></comment><comment><text>44.38899337134015</text><id>SNR</id></comment></pick><pick publicID="de.gempa.tb1.Pick/20250414103105.700533.137371"><time><value>2025-04-14T10:30:58.828393Z</value></time><waveformID networkCode="CX" stationCode="PB06" channelCode="HHN"/><filterID>ITAPER(2)&gt;&gt;BW(3,3,20)</filterID><methodID>L2-AIC-GRID</methodID><horizontalSlowness><value>23.382920096679463</value></horizontalSlowness><backazimuth><value>307.99771793411264</value></backazimuth><phaseHint>S</phaseHint><evaluationMode>automatic</evaluationMode><comment><text>30.787286341333903</text><id>DFX:rectilinearity</id></comment><comment><text>de.gempa.tb1.Pick/20250414103046.651239.137363</text><id>RefPickID</id></comment><comment><text>5.685107236606967</text><id>SNR</id></comment></pick><pick publicID="de.gempa.tb1.Pick/20250414103106.58542.137372"><time><value>2025-04-14T10:30:57.978393Z</value></time><waveformID networkCode="CX" stationCode="PB03" channelCode="HHN"/><filterID>ITAPER(2)&gt;&gt;BW(3,3,20)</filterID><methodID>L2-AIC-GRID</methodID><horizontalSlowness><value>14.921428914303139</value></horizontalSlowness><backazimuth><value>150.22638084715868</value></backazimuth><phaseHint>S</phaseHint><evaluationMode>automatic</evaluationMode><comment><text>6.808917667690127</text><id>DFX:rectilinearity</id></comment><comment><text>de.gempa.tb1.Pick/20250414103047.408911.137365</text><id>RefPickID</id></comment><comment><text>5.920211746489763</text><id>SNR</id></comment></pick><pick publicID="de.gempa.tb1.Pick/20250414103107.839242.137373"><time><value>2025-04-14T10:31:01.658393Z</value></time><waveformID networkCode="CX" stationCode="PB07" channelCode="HHN"/><filterID>ITAPER(2)&gt;&gt;BW(3,3,20)</filterID><methodID>L2-AIC-GRID</methodID><horizontalSlowness><value>22.748234576045665</value></horizontalSlowness><backazimuth><value>226.76835334670875</value></backazimuth><phaseHint>S</phaseHint><evaluationMode>automatic</evaluationMode><comment><text>322.31506184380527</text><id>DFX:rectilinearity</id></comment><comment><text>de.gempa.tb1.Pick/20250414103055.356213.137369</text><id>RefPickID</id></comment><comment><text>6.361446283994137</text><id>SNR</id></comment></pick><origin publicID="de.gempa.tb1.Origin/20250414103107.843305.135111"><time><value>2025-04-14T10:30:20.512955Z</value><uncertainty>1.9609026908874512</uncertainty></time><latitude><value>-22.020208358764648</value><uncertainty>7.49826192855835</uncertainty></latitude><longitude><value>-68.46481323242188</value><uncertainty>24.21331787109375</uncertainty></longitude><depth><value>23.58378219604492</value><uncertainty>46.03283309936523</uncertainty></depth><depthType>from location</depthType><methodID>LOCSAT</methodID><earthModelID>iasp91_scanloc</earthModelID><quality><associatedPhaseCount>7</associatedPhaseCount><usedPhaseCount>7</usedPhaseCount><associatedStationCount>4</associatedStationCount><usedStationCount>4</usedStationCount><depthPhaseCount>0</depthPhaseCount><standardError>0.10859441715341346</standardError><azimuthalGap>298.7629699707031</azimuthalGap><maximumDistance>1.502710461616516</maximumDistance><minimumDistance>1.195637345314026</minimumDistance><medianDistance>1.2311530113220215</medianDistance></quality><uncertainty><minHorizontalUncertainty>13.33317470550537</minHorizontalUncertainty><maxHorizontalUncertainty>52.69701766967773</maxHorizontalUncertainty><azimuthMaxHorizontalUncertainty>79.84569549560547</azimuthMaxHorizontalUncertainty><preferredDescription>horizontal uncertainty</preferredDescription></uncertainty><evaluationMode>automatic</evaluationMode><comment><text>0.62</text><id>mismatchScore</id></comment><arrival><pickID>de.gempa.tb1.Pick/20250414103046.651239.137363</pickID><phase>P</phase><azimuth>236.13543701171875</azimuth><distance>1.2311530113220215</distance><timeResidual>-0.10505294799804688</timeResidual><timeUsed>true</timeUsed><horizontalSlownessUsed>false</horizontalSlownessUsed><backazimuthUsed>false</backazimuthUsed><weight>1</weight></arrival><arrival><pickID>de.gempa.tb1.Pick/20250414103047.408911.137365</pickID><phase>P</phase><azimuth>268.4118957519531</azimuth><distance>1.195637345314026</distance><timeResidual>0.08188819885253906</timeResidual><timeUsed>true</timeUsed><horizontalSlownessUsed>false</horizontalSlownessUsed><backazimuthUsed>false</backazimuthUsed><weight>1</weight></arrival><arrival><pickID>de.gempa.tb1.Pick/20250414103053.524987.137367</pickID><phase>P</phase><azimuth>297.3724670410156</azimuth><distance>1.502710461616516</distance><timeResidual>0.15384674072265625</timeResidual><timeUsed>true</timeUsed><horizontalSlownessUsed>false</horizontalSlownessUsed><backazimuthUsed>false</backazimuthUsed><weight>1</weight></arrival><arrival><pickID>de.gempa.tb1.Pick/20250414103055.356213.137369</pickID><phase>P</phase><azimuth>282.2121276855469</azimuth><distance>1.3521850109100342</distance><timeResidual>-0.13348960876464844</timeResidual><timeUsed>true</timeUsed><horizontalSlownessUsed>false</horizontalSlownessUsed><backazimuthUsed>false</backazimuthUsed><weight>1</weight></arrival><arrival><pickID>de.gempa.tb1.Pick/20250414103105.700533.137371</pickID><phase>S</phase><azimuth>236.13543701171875</azimuth><distance>1.2311530113220215</distance><timeResidual>0.04809951782226562</timeResidual><timeUsed>true</timeUsed><horizontalSlownessUsed>false</horizontalSlownessUsed><backazimuthUsed>false</backazimuthUsed><weight>1</weight></arrival><arrival><pickID>de.gempa.tb1.Pick/20250414103106.58542.137372</pickID><phase>S</phase><azimuth>268.4118957519531</azimuth><distance>1.195637345314026</distance><timeResidual>0.07744407653808594</timeResidual><timeUsed>true</timeUsed><horizontalSlownessUsed>false</horizontalSlownessUsed><backazimuthUsed>false</backazimuthUsed><weight>1</weight></arrival><arrival><pickID>de.gempa.tb1.Pick/20250414103107.839242.137373</pickID><phase>S</phase><azimuth>282.2121276855469</azimuth><distance>1.3521850109100342</distance><timeResidual>-0.12250709533691406</timeResidual><timeUsed>true</timeUsed><horizontalSlownessUsed>false</horizontalSlownessUsed><backazimuthUsed>false</backazimuthUsed><weight>1</weight></arrival><magnitude publicID="de.gempa.tb1.Magnitude/20250414103111.536353.473645"><magnitude><value>2.2776813512761844</value></magnitude><type>M</type><methodID>weighted average</methodID><stationCount>4</stationCount></magnitude></origin><event publicID="gempa2025hjbh"><preferredOriginID>de.gempa.tb1.Origin/20250414103107.843305.135111</preferredOriginID><preferredMagnitudeID>de.gempa.tb1.Magnitude/20250414103111.536353.473645</preferredMagnitudeID><description><text>Northern Chile</text><type>region name</type></description><originReference>de.gempa.tb1.Origin/20250414103107.843305.135111</originReference></event></EventParameters></seiscomp>