<?xml version="1.0" encoding="UTF-8"?>
<seiscomp xmlns="http://geofon.gfz-potsdam.de/ns/seiscomp3-schema/0.13" version="0.13"><EventParameters><pick publicID="de.gempa.tb1.Pick/20250415024256.29446.143030"><time><value>2025-04-15T02:42:50.268393Z</value></time><waveformID networkCode="CX" stationCode="PB08" channelCode="HHZ"/><filterID>ITAPER(4)&gt;&gt;BW(4,4,20)</filterID><methodID>AIC</methodID><horizontalSlowness><value>10.52484530432889</value></horizontalSlowness><backazimuth><value>275.92113368908315</value></backazimuth><phaseHint>P</phaseHint><evaluationMode>automatic</evaluationMode><comment><text>22.384277687888051</text><id>DFX:rectilinearity</id></comment><comment><text>132.47518597624415</text><id>SNR</id></comment></pick><pick publicID="de.gempa.tb1.Pick/20250415024300.574005.143032"><time><value>2025-04-15T02:42:53.65Z</value></time><waveformID networkCode="CX" stationCode="PSGCX" channelCode="HHZ"/><filterID>ITAPER(4)&gt;&gt;BW(4,4,20)</filterID><methodID>AIC</methodID><horizontalSlowness><value>6.518881845579241</value></horizontalSlowness><backazimuth><value>103.64709003922263</value></backazimuth><phaseHint>P</phaseHint><evaluationMode>automatic</evaluationMode><comment><text>14.103221062144758</text><id>DFX:rectilinearity</id></comment><comment><text>52.63787817672884</text><id>SNR</id></comment></pick><pick publicID="de.gempa.tb1.Pick/20250415024304.778657.143034"><time><value>2025-04-15T02:42:58.658393Z</value></time><waveformID networkCode="CX" stationCode="PB01" channelCode="HHZ"/><filterID>ITAPER(4)&gt;&gt;BW(4,4,20)</filterID><methodID>AIC</methodID><horizontalSlowness><value>12.25405282729133</value></horizontalSlowness><backazimuth><value>346.29014481491117</value></backazimuth><phaseHint>P</phaseHint><evaluationMode>automatic</evaluationMode><comment><text>34.508738784108104</text><id>DFX:rectilinearity</id></comment><comment><text>20.05893883275299</text><id>SNR</id></comment></pick><pick publicID="de.gempa.tb1.Pick/20250415024309.102511.143036"><time><value>2025-04-15T02:43:02.258393Z</value></time><waveformID networkCode="CX" stationCode="PB08" channelCode="HHN"/><filterID>ITAPER(2)&gt;&gt;BW(3,3,20)</filterID><methodID>L2-AIC-GRID</methodID><horizontalSlowness><value>17.500984902773226</value></horizontalSlowness><backazimuth><value>203.70283501135216</value></backazimuth><phaseHint>S</phaseHint><evaluationMode>automatic</evaluationMode><comment><text>122.66129986955063</text><id>DFX:rectilinearity</id></comment><comment><text>de.gempa.tb1.Pick/20250415024256.29446.143030</text><id>RefPickID</id></comment><comment><text>7.027061544737313</text><id>SNR</id></comment></pick><pick publicID="de.gempa.tb1.Pick/20250415024315.786964.143037"><time><value>2025-04-15T02:43:08.58Z</value></time><waveformID networkCode="CX" stationCode="PSGCX" channelCode="HHN"/><filterID>ITAPER(2)&gt;&gt;BW(3,3,20)</filterID><methodID>L2-AIC-GRID</methodID><horizontalSlowness><value>23.071237793280897</value></horizontalSlowness><backazimuth><value>33.23298083562591</value></backazimuth><phaseHint>S</phaseHint><evaluationMode>automatic</evaluationMode><comment><text>36.444710070991235</text><id>DFX:rectilinearity</id></comment><comment><text>de.gempa.tb1.Pick/20250415024300.574005.143032</text><id>RefPickID</id></comment><comment><text>9.784450446725021</text><id>SNR</id></comment></pick><pick publicID="de.gempa.tb1.Pick/20250415024324.235216.143039"><time><value>2025-04-15T02:43:08.669998Z</value></time><waveformID networkCode="CX" stationCode="PB09" channelCode="HHZ"/><filterID>ITAPER(4)&gt;&gt;BW(4,4,20)</filterID><methodID>AIC</methodID><horizontalSlowness><value>22.671755560745673</value></horizontalSlowness><backazimuth><value>107.62400765542107</value></backazimuth><phaseHint>P</phaseHint><evaluationMode>automatic</evaluationMode><comment><text>22.253113033727747</text><id>DFX:rectilinearity</id></comment><comment><text>10.09583029153017</text><id>SNR</id></comment></pick><pick publicID="de.gempa.tb1.Pick/20250415024325.624027.143041"><time><value>2025-04-15T02:43:17.218393Z</value></time><waveformID networkCode="CX" stationCode="PB01" channelCode="HHN"/><filterID>ITAPER(2)&gt;&gt;BW(3,3,20)</filterID><methodID>L2-AIC-GRID</methodID><horizontalSlowness><value>15.930649410681582</value></horizontalSlowness><backazimuth><value>143.1755463844982</value></backazimuth><phaseHint>S</phaseHint><evaluationMode>automatic</evaluationMode><comment><text>322.8674175861235</text><id>DFX:rectilinearity</id></comment><comment><text>de.gempa.tb1.Pick/20250415024304.778657.143034</text><id>RefPickID</id></comment><comment><text>8.372684020218374</text><id>SNR</id></comment></pick><pick publicID="de.gempa.tb1.Pick/20250415024327.183932.143042"><time><value>2025-04-15T02:43:08.838393Z</value></time><waveformID networkCode="CX" stationCode="PB07" channelCode="HHZ"/><filterID>ITAPER(4)&gt;&gt;BW(4,4,20)</filterID><methodID>AIC</methodID><horizontalSlowness><value>22.00887849062223</value></horizontalSlowness><backazimuth><value>74.30632952921844</value></backazimuth><phaseHint>P</phaseHint><evaluationMode>automatic</evaluationMode><comment><text>377.26903609270983</text><id>DFX:rectilinearity</id></comment><comment><text>9.302609987076798</text><id>SNR</id></comment></pick><origin publicID="de.gempa.tb1.Origin/20250415024327.186925.158895"><time><value>2025-04-15T02:42:35.336547Z</value><uncertainty>1.2235488891601562</uncertainty></time><latitude><value>-19.76031494140625</value><uncertainty>7.022153854370117</uncertainty></latitude><longitude><value>-69.2624740600586</value><uncertainty>8.310696601867676</uncertainty></longitude><depth><value>100.34050750732422</value><uncertainty>6.881853103637695</uncertainty></depth><depthType>from location</depthType><methodID>LOCSAT</methodID><earthModelID>iasp91_scanloc</earthModelID><quality><associatedPhaseCount>8</associatedPhaseCount><usedPhaseCount>8</usedPhaseCount><associatedStationCount>5</associatedStationCount><usedStationCount>5</usedStationCount><depthPhaseCount>0</depthPhaseCount><standardError>0.3260502424276449</standardError><azimuthalGap>243.6899871826172</azimuthalGap><maximumDistance>2.0416889190673828</maximumDistance><minimumDistance>0.3924954831600189</minimumDistance><medianDistance>1.2937159538269043</medianDistance></quality><uncertainty><minHorizontalUncertainty>9.517362594604492</minHorizontalUncertainty><maxHorizontalUncertainty>21.302623748779297</maxHorizontalUncertainty><azimuthMaxHorizontalUncertainty>52.24287033081055</azimuthMaxHorizontalUncertainty><preferredDescription>horizontal uncertainty</preferredDescription></uncertainty><evaluationMode>automatic</evaluationMode><evaluationStatus>confirmed</evaluationStatus><comment><text>0.11</text><id>mismatchScore</id></comment><comment><text>mismatchScore</text><id>scevalMethod</id></comment><arrival><pickID>de.gempa.tb1.Pick/20250415024256.29446.143030</pickID><phase>P</phase><azimuth>164.86338806152344</azimuth><distance>0.3924954831600189</distance><timeResidual>-0.17626953125</timeResidual><timeUsed>true</timeUsed><horizontalSlownessUsed>false</horizontalSlownessUsed><backazimuthUsed>false</backazimuthUsed><weight>1</weight></arrival><arrival><pickID>de.gempa.tb1.Pick/20250415024300.574005.143032</pickID><phase>P</phase><azimuth>281.17340087890625</azimuth><distance>0.8270058631896973</distance><timeResidual>-0.33351612091064453</timeResidual><timeUsed>true</timeUsed><horizontalSlownessUsed>false</horizontalSlownessUsed><backazimuthUsed>false</backazimuthUsed><weight>1</weight></arrival><arrival><pickID>de.gempa.tb1.Pick/20250415024304.778657.143034</pickID><phase>P</phase><azimuth>189.34715270996094</azimuth><distance>1.2937159538269043</distance><timeResidual>-0.4526739120483398</timeResidual><timeUsed>true</timeUsed><horizontalSlownessUsed>false</horizontalSlownessUsed><backazimuthUsed>false</backazimuthUsed><weight>1</weight></arrival><arrival><pickID>de.gempa.tb1.Pick/20250415024309.102511.143036</pickID><phase>S</phase><azimuth>164.86338806152344</azimuth><distance>0.3924954831600189</distance><timeResidual>0.20861339569091797</timeResidual><timeUsed>true</timeUsed><horizontalSlownessUsed>false</horizontalSlownessUsed><backazimuthUsed>false</backazimuthUsed><weight>1</weight></arrival><arrival><pickID>de.gempa.tb1.Pick/20250415024315.786964.143037</pickID><phase>S</phase><azimuth>281.17340087890625</azimuth><distance>0.8270058631896973</distance><timeResidual>0.23203563690185547</timeResidual><timeUsed>true</timeUsed><horizontalSlownessUsed>false</horizontalSlownessUsed><backazimuthUsed>false</backazimuthUsed><weight>1</weight></arrival><arrival><pickID>de.gempa.tb1.Pick/20250415024324.235216.143039</pickID><phase>P</phase><azimuth>179.45965576171875</azimuth><distance>2.0259292125701904</distance><timeResidual>0.4210481643676758</timeResidual><timeUsed>true</timeUsed><horizontalSlownessUsed>false</horizontalSlownessUsed><backazimuthUsed>false</backazimuthUsed><weight>1</weight></arrival><arrival><pickID>de.gempa.tb1.Pick/20250415024325.624027.143041</pickID><phase>S</phase><azimuth>189.34715270996094</azimuth><distance>1.2937159538269043</distance><timeResidual>-0.2839517593383789</timeResidual><timeUsed>true</timeUsed><horizontalSlownessUsed>false</horizontalSlownessUsed><backazimuthUsed>false</backazimuthUsed><weight>1</weight></arrival><arrival><pickID>de.gempa.tb1.Pick/20250415024327.183932.143042</pickID><phase>P</phase><azimuth>196.50486755371094</azimuth><distance>2.0416889190673828</distance><timeResidual>0.38468456268310547</timeResidual><timeUsed>true</timeUsed><horizontalSlownessUsed>false</horizontalSlownessUsed><backazimuthUsed>false</backazimuthUsed><weight>1</weight></arrival><magnitude publicID="de.gempa.tb1.Magnitude/20250415024337.085163.563734"><magnitude><value>1.679196844958208</value></magnitude><type>M</type><methodID>weighted average</methodID><stationCount>2</stationCount></magnitude></origin><event publicID="gempa2025hkhs"><preferredOriginID>de.gempa.tb1.Origin/20250415024327.186925.158895</preferredOriginID><preferredMagnitudeID>de.gempa.tb1.Magnitude/20250415024337.085163.563734</preferredMagnitudeID><description><text>Northern Chile</text><type>region name</type></description><originReference>de.gempa.tb1.Origin/20250415024327.186925.158895</originReference></event></EventParameters></seiscomp>