<?xml version="1.0" encoding="UTF-8"?>
<seiscomp xmlns="http://geofon.gfz-potsdam.de/ns/seiscomp3-schema/0.13" version="0.13"><EventParameters><pick publicID="de.gempa.tb1.Pick/20250414221703.513206.141660"><time><value>2025-04-14T22:16:56.028393Z</value></time><waveformID networkCode="CX" stationCode="PB08" channelCode="HHZ"/><filterID>ITAPER(4)&gt;&gt;BW(4,4,20)</filterID><methodID>AIC</methodID><horizontalSlowness><value>16.01024147616189</value></horizontalSlowness><backazimuth><value>90.8649681975815</value></backazimuth><phaseHint>P</phaseHint><evaluationMode>automatic</evaluationMode><comment><text>8.171709326062274</text><id>DFX:rectilinearity</id></comment><comment><text>11.18773690572001</text><id>SNR</id></comment></pick><pick publicID="de.gempa.tb1.Pick/20250414221708.571082.141663"><time><value>2025-04-14T22:17:00.278393Z</value></time><waveformID networkCode="CX" stationCode="PB01" channelCode="HHZ"/><filterID>ITAPER(4)&gt;&gt;BW(4,4,20)</filterID><methodID>AIC</methodID><horizontalSlowness><value>13.706042280702793</value></horizontalSlowness><backazimuth><value>347.5231929772216</value></backazimuth><phaseHint>P</phaseHint><evaluationMode>automatic</evaluationMode><comment><text>13.18590263172002</text><id>DFX:rectilinearity</id></comment><comment><text>8.789293203741785</text><id>SNR</id></comment></pick><pick publicID="de.gempa.tb1.Pick/20250414221709.574282.141665"><time><value>2025-04-14T22:17:04.37Z</value></time><waveformID networkCode="CX" stationCode="PSGCX" channelCode="HHZ"/><filterID>ITAPER(4)&gt;&gt;BW(4,4,20)</filterID><methodID>AIC</methodID><horizontalSlowness><value>13.162836546730057</value></horizontalSlowness><backazimuth><value>116.22365073221448</value></backazimuth><phaseHint>P</phaseHint><evaluationMode>automatic</evaluationMode><comment><text>13.913024165316536</text><id>DFX:rectilinearity</id></comment><comment><text>7.85666105961486</text><id>SNR</id></comment></pick><pick publicID="de.gempa.tb1.Pick/20250414221712.779196.141667"><time><value>2025-04-14T22:17:07.488393Z</value></time><waveformID networkCode="CX" stationCode="PB08" channelCode="HHN"/><filterID>ITAPER(2)&gt;&gt;BW(3,3,20)</filterID><methodID>L2-AIC-GRID</methodID><horizontalSlowness><value>11.789031683295855</value></horizontalSlowness><backazimuth><value>222.98861590813777</value></backazimuth><phaseHint>S</phaseHint><evaluationMode>automatic</evaluationMode><comment><text>73.015225903608</text><id>DFX:rectilinearity</id></comment><comment><text>de.gempa.tb1.Pick/20250414221703.513206.141660</text><id>RefPickID</id></comment><comment><text>7.621036708049356</text><id>SNR</id></comment></pick><pick publicID="de.gempa.tb1.Pick/20250414221723.774187.141671"><time><value>2025-04-14T22:17:14.798393Z</value></time><waveformID networkCode="CX" stationCode="PB01" channelCode="HHN"/><filterID>ITAPER(2)&gt;&gt;BW(3,3,20)</filterID><methodID>L2-AIC-GRID</methodID><horizontalSlowness><value>22.99573682409396</value></horizontalSlowness><backazimuth><value>174.14032070240071</value></backazimuth><phaseHint>S</phaseHint><evaluationMode>automatic</evaluationMode><comment><text>48.52817956078415</text><id>DFX:rectilinearity</id></comment><comment><text>de.gempa.tb1.Pick/20250414221708.571082.141663</text><id>RefPickID</id></comment><comment><text>11.680949951518715</text><id>SNR</id></comment></pick><pick publicID="de.gempa.tb1.Pick/20250414221729.607633.141672"><time><value>2025-04-14T22:17:22.41Z</value></time><waveformID networkCode="CX" stationCode="PSGCX" channelCode="HHN"/><filterID>ITAPER(2)&gt;&gt;BW(3,3,20)</filterID><methodID>L2-AIC-GRID</methodID><horizontalSlowness><value>21.449467845549758</value></horizontalSlowness><backazimuth><value>174.7657521527453</value></backazimuth><phaseHint>S</phaseHint><evaluationMode>automatic</evaluationMode><comment><text>23.822928233261923</text><id>DFX:rectilinearity</id></comment><comment><text>de.gempa.tb1.Pick/20250414221709.574282.141665</text><id>RefPickID</id></comment><comment><text>5.702412351737614</text><id>SNR</id></comment></pick><origin publicID="de.gempa.tb1.Origin/20250414221731.709756.152690"><time><value>2025-04-14T22:16:41.198236Z</value><uncertainty>1.4999691247940063</uncertainty></time><latitude><value>-20.320037841796875</value><uncertainty>5.102004528045654</uncertainty></latitude><longitude><value>-69.08448028564453</value><uncertainty>9.408851623535156</uncertainty></longitude><depth><value>105.81611633300781</value><uncertainty>8.858603477478027</uncertainty></depth><depthType>from location</depthType><methodID>LOCSAT</methodID><earthModelID>iasp91_scanloc</earthModelID><quality><associatedPhaseCount>6</associatedPhaseCount><usedPhaseCount>6</usedPhaseCount><associatedStationCount>3</associatedStationCount><usedStationCount>3</usedStationCount><depthPhaseCount>0</depthPhaseCount><standardError>0.04674421259039677</standardError><azimuthalGap>227.5894470214844</azimuthalGap><maximumDistance>1.213087797164917</maximumDistance><minimumDistance>0.18940261006355286</minimumDistance><medianDistance>0.8124507665634155</medianDistance></quality><uncertainty><minHorizontalUncertainty>10.172345161437988</minHorizontalUncertainty><maxHorizontalUncertainty>20.57652473449707</maxHorizontalUncertainty><azimuthMaxHorizontalUncertainty>76.97802734375</azimuthMaxHorizontalUncertainty><preferredDescription>horizontal uncertainty</preferredDescription></uncertainty><evaluationMode>automatic</evaluationMode><evaluationStatus>confirmed</evaluationStatus><comment><text>0.00</text><id>mismatchScore</id></comment><comment><text>mismatchScore</text><id>scevalMethod</id></comment><arrival><pickID>de.gempa.tb1.Pick/20250414221703.513206.141660</pickID><phase>P</phase><azimuth>340.0084533691406</azimuth><distance>0.18940261006355286</distance><timeResidual>-0.026704788208007809</timeResidual><timeUsed>true</timeUsed><horizontalSlownessUsed>false</horizontalSlownessUsed><backazimuthUsed>false</backazimuthUsed><weight>1</weight></arrival><arrival><pickID>de.gempa.tb1.Pick/20250414221708.571082.141663</pickID><phase>P</phase><azimuth>207.597900390625</azimuth><distance>0.8124507665634155</distance><timeResidual>0.0800943374633789</timeResidual><timeUsed>true</timeUsed><horizontalSlownessUsed>false</horizontalSlownessUsed><backazimuthUsed>false</backazimuthUsed><weight>1</weight></arrival><arrival><pickID>de.gempa.tb1.Pick/20250414221709.574282.141665</pickID><phase>P</phase><azimuth>306.1802062988281</azimuth><distance>1.213087797164917</distance><timeResidual>-0.0533294677734375</timeResidual><timeUsed>true</timeUsed><horizontalSlownessUsed>false</horizontalSlownessUsed><backazimuthUsed>false</backazimuthUsed><weight>1</weight></arrival><arrival><pickID>de.gempa.tb1.Pick/20250414221712.779196.141667</pickID><phase>S</phase><azimuth>340.0084533691406</azimuth><distance>0.18940261006355286</distance><timeResidual>0.015027999877929688</timeResidual><timeUsed>true</timeUsed><horizontalSlownessUsed>false</horizontalSlownessUsed><backazimuthUsed>false</backazimuthUsed><weight>1</weight></arrival><arrival><pickID>de.gempa.tb1.Pick/20250414221723.774187.141671</pickID><phase>S</phase><azimuth>207.597900390625</azimuth><distance>0.8124507665634155</distance><timeResidual>-0.044976234436035156</timeResidual><timeUsed>true</timeUsed><horizontalSlownessUsed>false</horizontalSlownessUsed><backazimuthUsed>false</backazimuthUsed><weight>1</weight></arrival><arrival><pickID>de.gempa.tb1.Pick/20250414221729.607633.141672</pickID><phase>S</phase><azimuth>306.1802062988281</azimuth><distance>1.213087797164917</distance><timeResidual>0.02981853485107422</timeResidual><timeUsed>true</timeUsed><horizontalSlownessUsed>false</horizontalSlownessUsed><backazimuthUsed>false</backazimuthUsed><weight>1</weight></arrival><magnitude publicID="de.gempa.tb1.Magnitude/20250414221833.306813.546163"><magnitude><value>1.462532450259373</value></magnitude><type>M</type><methodID>weighted average</methodID><stationCount>3</stationCount></magnitude></origin><event publicID="gempa2025hjyv"><preferredOriginID>de.gempa.tb1.Origin/20250414221731.709756.152690</preferredOriginID><preferredMagnitudeID>de.gempa.tb1.Magnitude/20250414221833.306813.546163</preferredMagnitudeID><description><text>Northern Chile</text><type>region name</type></description><originReference>de.gempa.tb1.Origin/20250414221731.709756.152690</originReference></event></EventParameters></seiscomp>