<?xml version="1.0" encoding="UTF-8"?>
<seiscomp xmlns="http://geofon.gfz-potsdam.de/ns/seiscomp3-schema/0.13" version="0.13"><EventParameters><pick publicID="de.gempa.tb1.Pick/20250413110626.556254.130713"><time><value>2025-04-13T11:06:20.218393Z</value></time><waveformID networkCode="CX" stationCode="PB01" channelCode="HHZ"/><filterID>ITAPER(4)&gt;&gt;BW(4,4,20)</filterID><methodID>AIC</methodID><horizontalSlowness><value>21.291415459247297</value></horizontalSlowness><backazimuth><value>358.3203363640922</value></backazimuth><phaseHint>P</phaseHint><evaluationMode>automatic</evaluationMode><comment><text>8.014857432807311</text><id>DFX:rectilinearity</id></comment><comment><text>17.605704288804592</text><id>SNR</id></comment></pick><pick publicID="de.gempa.tb1.Pick/20250413110629.50398.130715"><time><value>2025-04-13T11:06:23.668393Z</value></time><waveformID networkCode="CX" stationCode="PB02" channelCode="HHZ"/><filterID>ITAPER(4)&gt;&gt;BW(4,4,20)</filterID><methodID>AIC</methodID><horizontalSlowness><value>11.014932377835217</value></horizontalSlowness><backazimuth><value>303.25093920973325</value></backazimuth><phaseHint>P</phaseHint><evaluationMode>automatic</evaluationMode><comment><text>53.43537203767153</text><id>DFX:rectilinearity</id></comment><comment><text>20.255304150229158</text><id>SNR</id></comment></pick><pick publicID="de.gempa.tb1.Pick/20250413110631.548183.130717"><time><value>2025-04-13T11:06:23.928393Z</value></time><waveformID networkCode="CX" stationCode="PB03" channelCode="HHZ"/><filterID>ITAPER(4)&gt;&gt;BW(4,4,20)</filterID><methodID>AIC</methodID><horizontalSlowness><value>8.733512123648515</value></horizontalSlowness><backazimuth><value>122.46435859042253</value></backazimuth><phaseHint>P</phaseHint><evaluationMode>automatic</evaluationMode><comment><text>11.51857494441084</text><id>DFX:rectilinearity</id></comment><comment><text>15.510950071405812</text><id>SNR</id></comment></pick><pick publicID="de.gempa.tb1.Pick/20250413110632.218819.130719"><time><value>2025-04-13T11:06:24.168394Z</value></time><waveformID networkCode="CX" stationCode="PB07" channelCode="HHZ"/><filterID>ITAPER(4)&gt;&gt;BW(4,4,20)</filterID><methodID>AIC</methodID><horizontalSlowness><value>21.405141652008567</value></horizontalSlowness><backazimuth><value>115.19764280804576</value></backazimuth><phaseHint>P</phaseHint><evaluationMode>automatic</evaluationMode><comment><text>226.9234154491081</text><id>DFX:rectilinearity</id></comment><comment><text>62.23189946252506</text><id>SNR</id></comment></pick><pick publicID="de.gempa.tb1.Pick/20250413110633.904758.130721"><time><value>2025-04-13T11:06:19.66Z</value></time><waveformID networkCode="CX" stationCode="PB09" channelCode="HHZ"/><filterID>ITAPER(4)&gt;&gt;BW(4,4,20)</filterID><methodID>AIC</methodID><horizontalSlowness><value>14.669231292671133</value></horizontalSlowness><backazimuth><value>315.8650732790078</value></backazimuth><phaseHint>P</phaseHint><evaluationMode>automatic</evaluationMode><comment><text>12.614827313064142</text><id>DFX:rectilinearity</id></comment><comment><text>12.017560261341824</text><id>SNR</id></comment></pick><pick publicID="de.gempa.tb1.Pick/20250413110635.411391.130723"><time><value>2025-04-13T11:06:26.819999Z</value></time><waveformID networkCode="CX" stationCode="PATCX" channelCode="HHZ"/><filterID>ITAPER(4)&gt;&gt;BW(4,4,20)</filterID><methodID>AIC</methodID><horizontalSlowness><value>22.954078197382067</value></horizontalSlowness><backazimuth><value>238.43050273339594</value></backazimuth><phaseHint>P</phaseHint><evaluationMode>automatic</evaluationMode><comment><text>191.62711788027826</text><id>DFX:rectilinearity</id></comment><comment><text>5.674803573007181</text><id>SNR</id></comment></pick><pick publicID="de.gempa.tb1.Pick/20250413110635.575109.130725"><time><value>2025-04-13T11:06:26.728394Z</value></time><waveformID networkCode="CX" stationCode="PB06" channelCode="HHZ"/><filterID>ITAPER(4)&gt;&gt;BW(4,4,20)</filterID><methodID>AIC</methodID><horizontalSlowness><value>12.34689508335987</value></horizontalSlowness><backazimuth><value>313.51734418004276</value></backazimuth><phaseHint>P</phaseHint><evaluationMode>automatic</evaluationMode><comment><text>120.18035818489258</text><id>DFX:rectilinearity</id></comment><comment><text>8.236303973417243</text><id>SNR</id></comment></pick><pick publicID="de.gempa.tb1.Pick/20250413110640.573949.130727"><time><value>2025-04-13T11:06:31.15Z</value></time><waveformID networkCode="CX" stationCode="PSGCX" channelCode="HHZ"/><filterID>ITAPER(4)&gt;&gt;BW(4,4,20)</filterID><methodID>AIC</methodID><horizontalSlowness><value>16.110115765799115</value></horizontalSlowness><backazimuth><value>166.6292350391156</value></backazimuth><phaseHint>P</phaseHint><evaluationMode>automatic</evaluationMode><comment><text>22.501456562171885</text><id>DFX:rectilinearity</id></comment><comment><text>6.406419865918207</text><id>SNR</id></comment></pick><pick publicID="de.gempa.tb1.Pick/20250413110706.553126.130732"><time><value>2025-04-13T11:06:58.518394Z</value></time><waveformID networkCode="CX" stationCode="PB06" channelCode="HHN"/><filterID>ITAPER(2)&gt;&gt;BW(3,3,20)</filterID><methodID>L2-AIC-GRID</methodID><horizontalSlowness><value>22.68508338416345</value></horizontalSlowness><backazimuth><value>156.92356228028748</value></backazimuth><phaseHint>S</phaseHint><evaluationMode>automatic</evaluationMode><comment><text>49.1324203391906</text><id>DFX:rectilinearity</id></comment><comment><text>de.gempa.tb1.Pick/20250413110635.575109.130725</text><id>RefPickID</id></comment><comment><text>6.401518336555708</text><id>SNR</id></comment></pick><pick publicID="de.gempa.tb1.Pick/20250413110717.584631.130738"><time><value>2025-04-13T11:07:06.4Z</value></time><waveformID networkCode="CX" stationCode="PSGCX" channelCode="HHN"/><filterID>ITAPER(2)&gt;&gt;BW(3,3,20)</filterID><methodID>L2-AIC-GRID</methodID><horizontalSlowness><value>9.505814764156762</value></horizontalSlowness><backazimuth><value>131.07240125658205</value></backazimuth><phaseHint>S</phaseHint><evaluationMode>automatic</evaluationMode><comment><text>30.21987110221861</text><id>DFX:rectilinearity</id></comment><comment><text>de.gempa.tb1.Pick/20250413110640.573949.130727</text><id>RefPickID</id></comment><comment><text>10.407947529088206</text><id>SNR</id></comment></pick><origin publicID="de.gempa.tb1.Origin/20250413110717.589241.107839"><time><value>2025-04-13T11:05:47.013043Z</value><uncertainty>1.3984375</uncertainty></time><latitude><value>-21.16787338256836</value><uncertainty>7.299147605895996</uncertainty></latitude><longitude><value>-68.02328491210938</value><uncertainty>27.611696243286133</uncertainty></longitude><depth><value>205.47080993652344</value><uncertainty>27.625852584838867</uncertainty></depth><depthType>from location</depthType><methodID>LOCSAT</methodID><earthModelID>iasp91_scanloc</earthModelID><quality><associatedPhaseCount>10</associatedPhaseCount><usedPhaseCount>10</usedPhaseCount><associatedStationCount>8</associatedStationCount><usedStationCount>8</usedStationCount><depthPhaseCount>0</depthPhaseCount><standardError>0.27991551582901</standardError><azimuthalGap>274.8691101074219</azimuthalGap><maximumDistance>2.5143892765045166</maximumDistance><minimumDistance>1.2958920001983643</minimumDistance><medianDistance>2.0196678638458252</medianDistance></quality><uncertainty><minHorizontalUncertainty>10.50604248046875</minHorizontalUncertainty><maxHorizontalUncertainty>60.33158874511719</maxHorizontalUncertainty><azimuthMaxHorizontalUncertainty>78.73967742919922</azimuthMaxHorizontalUncertainty><preferredDescription>horizontal uncertainty</preferredDescription></uncertainty><evaluationMode>automatic</evaluationMode><evaluationStatus>confirmed</evaluationStatus><comment><text>0.16</text><id>mismatchScore</id></comment><comment><text>mismatchScore</text><id>scevalMethod</id></comment><arrival><pickID>de.gempa.tb1.Pick/20250413110626.556254.130713</pickID><phase>P</phase><azimuth>274.9214172363281</azimuth><distance>1.372689127922058</distance><timeResidual>0.08520889282226562</timeResidual><timeUsed>true</timeUsed><horizontalSlownessUsed>false</horizontalSlownessUsed><backazimuthUsed>false</backazimuthUsed><weight>1</weight></arrival><arrival><pickID>de.gempa.tb1.Pick/20250413110629.50398.130715</pickID><phase>P</phase><azimuth>264.7196960449219</azimuth><distance>1.7535263299942017</distance><timeResidual>0.14320755004882812</timeResidual><timeUsed>true</timeUsed><horizontalSlownessUsed>false</horizontalSlownessUsed><backazimuthUsed>false</backazimuthUsed><weight>1</weight></arrival><arrival><pickID>de.gempa.tb1.Pick/20250413110631.548183.130717</pickID><phase>P</phase><azimuth>241.12249755859375</azimuth><distance>1.8327382802963257</distance><timeResidual>-0.351531982421875</timeResidual><timeUsed>true</timeUsed><horizontalSlownessUsed>false</horizontalSlownessUsed><backazimuthUsed>false</backazimuthUsed><weight>1</weight></arrival><arrival><pickID>de.gempa.tb1.Pick/20250413110632.218819.130719</pickID><phase>P</phase><azimuth>251.89710998535156</azimuth><distance>1.8223294019699097</distance><timeResidual>-0.01351165771484375</timeResidual><timeUsed>true</timeUsed><horizontalSlownessUsed>false</horizontalSlownessUsed><backazimuthUsed>false</backazimuthUsed><weight>1</weight></arrival><arrival><pickID>de.gempa.tb1.Pick/20250413110633.904758.130721</pickID><phase>P</phase><azimuth>240.9230499267578</azimuth><distance>1.2958920001983643</distance><timeResidual>0.15693283081054688</timeResidual><timeUsed>true</timeUsed><horizontalSlownessUsed>false</horizontalSlownessUsed><backazimuthUsed>false</backazimuthUsed><weight>1</weight></arrival><arrival><pickID>de.gempa.tb1.Pick/20250413110635.411391.130723</pickID><phase>P</phase><azimuth>279.4674072265625</azimuth><distance>2.0196678638458252</distance><timeResidual>0.6660957336425781</timeResidual><timeUsed>true</timeUsed><horizontalSlownessUsed>false</horizontalSlownessUsed><backazimuthUsed>false</backazimuthUsed><weight>1</weight></arrival><arrival><pickID>de.gempa.tb1.Pick/20250413110635.575109.130725</pickID><phase>P</phase><azimuth>222.92666625976562</azimuth><distance>2.0998718738555908</distance><timeResidual>-0.23657989501953125</timeResidual><timeUsed>true</timeUsed><horizontalSlownessUsed>false</horizontalSlownessUsed><backazimuthUsed>false</backazimuthUsed><weight>1</weight></arrival><arrival><pickID>de.gempa.tb1.Pick/20250413110640.573949.130727</pickID><phase>P</phase><azimuth>308.05755615234375</azimuth><distance>2.5143892765045166</distance><timeResidual>-0.2852630615234375</timeResidual><timeUsed>true</timeUsed><horizontalSlownessUsed>false</horizontalSlownessUsed><backazimuthUsed>false</backazimuthUsed><weight>1</weight></arrival><arrival><pickID>de.gempa.tb1.Pick/20250413110706.553126.130732</pickID><phase>S</phase><azimuth>222.92666625976562</azimuth><distance>2.0998718738555908</distance><timeResidual>-0.002025604248046875</timeResidual><timeUsed>true</timeUsed><horizontalSlownessUsed>false</horizontalSlownessUsed><backazimuthUsed>false</backazimuthUsed><weight>1</weight></arrival><arrival><pickID>de.gempa.tb1.Pick/20250413110717.584631.130738</pickID><phase>S</phase><azimuth>308.05755615234375</azimuth><distance>2.5143892765045166</distance><timeResidual>-0.16229629516601562</timeResidual><timeUsed>true</timeUsed><horizontalSlownessUsed>false</horizontalSlownessUsed><backazimuthUsed>false</backazimuthUsed><weight>1</weight></arrival><magnitude publicID="de.gempa.tb1.Magnitude/20250413110740.80556.350167"><magnitude><value>2.9077765850930137</value></magnitude><type>M</type><methodID>weighted average</methodID><stationCount>4</stationCount></magnitude></origin><event publicID="gempa2025hhgl"><preferredOriginID>de.gempa.tb1.Origin/20250413110717.589241.107839</preferredOriginID><preferredMagnitudeID>de.gempa.tb1.Magnitude/20250413110740.80556.350167</preferredMagnitudeID><description><text>Chile-Bolivia Border Region</text><type>region name</type></description><originReference>de.gempa.tb1.Origin/20250413110717.589241.107839</originReference></event></EventParameters></seiscomp>