<?xml version="1.0" encoding="UTF-8"?>
<seiscomp xmlns="http://geofon.gfz-potsdam.de/ns/seiscomp3-schema/0.13" version="0.13"><EventParameters><pick publicID="de.gempa.tb1.Pick/20250413031535.505244.128486"><time><value>2025-04-13T03:15:31.178393Z</value></time><waveformID networkCode="CX" stationCode="PB03" channelCode="HHZ"/><filterID>ITAPER(4)&gt;&gt;BW(4,4,20)</filterID><methodID>AIC</methodID><horizontalSlowness><value>6.588518599216134</value></horizontalSlowness><backazimuth><value>116.20985522735948</value></backazimuth><phaseHint>P</phaseHint><evaluationMode>automatic</evaluationMode><comment><text>50.18564036125691</text><id>DFX:rectilinearity</id></comment><comment><text>90.79399559662153</text><id>SNR</id></comment></pick><pick publicID="de.gempa.tb1.Pick/20250413031535.58789.128488"><time><value>2025-04-13T03:15:28.949998Z</value></time><waveformID networkCode="CX" stationCode="PB09" channelCode="HHZ"/><filterID>ITAPER(4)&gt;&gt;BW(4,4,20)</filterID><methodID>AIC</methodID><horizontalSlowness><value>18.95095597022586</value></horizontalSlowness><backazimuth><value>299.37507734657606</value></backazimuth><phaseHint>P</phaseHint><evaluationMode>automatic</evaluationMode><comment><text>47.60032101070594</text><id>DFX:rectilinearity</id></comment><comment><text>174.00684902168433</text><id>SNR</id></comment></pick><pick publicID="de.gempa.tb1.Pick/20250413031537.656882.128490"><time><value>2025-04-13T03:15:31.498394Z</value></time><waveformID networkCode="CX" stationCode="PB06" channelCode="HHZ"/><filterID>ITAPER(4)&gt;&gt;BW(4,4,20)</filterID><methodID>AIC</methodID><horizontalSlowness><value>1.1640246281446784</value></horizontalSlowness><backazimuth><value>118.26569029826982</value></backazimuth><phaseHint>P</phaseHint><evaluationMode>automatic</evaluationMode><comment><text>338.7306065177738</text><id>DFX:rectilinearity</id></comment><comment><text>76.55381490337513</text><id>SNR</id></comment></pick><pick publicID="de.gempa.tb1.Pick/20250413031539.68923.128492"><time><value>2025-04-13T03:15:35.158393Z</value></time><waveformID networkCode="CX" stationCode="PB01" channelCode="HHZ"/><filterID>ITAPER(4)&gt;&gt;BW(4,4,20)</filterID><methodID>AIC</methodID><horizontalSlowness><value>15.572343258889662</value></horizontalSlowness><backazimuth><value>111.470201843425</value></backazimuth><phaseHint>P</phaseHint><evaluationMode>automatic</evaluationMode><comment><text>24.438353715281924</text><id>DFX:rectilinearity</id></comment><comment><text>63.19004673752195</text><id>SNR</id></comment></pick><pick publicID="de.gempa.tb1.Pick/20250413031542.483959.128494"><time><value>2025-04-13T03:15:35.588393Z</value></time><waveformID networkCode="CX" stationCode="PB02" channelCode="HHZ"/><filterID>ITAPER(4)&gt;&gt;BW(4,4,20)</filterID><methodID>AIC</methodID><horizontalSlowness><value>16.778968229689436</value></horizontalSlowness><backazimuth><value>302.3822559299182</value></backazimuth><phaseHint>P</phaseHint><evaluationMode>automatic</evaluationMode><comment><text>44.591355670259254</text><id>DFX:rectilinearity</id></comment><comment><text>23.452029446220447</text><id>SNR</id></comment></pick><pick publicID="de.gempa.tb1.Pick/20250413031544.455636.128496"><time><value>2025-04-13T03:15:33.308358Z</value></time><waveformID networkCode="CX" stationCode="PB07" channelCode="HHZ"/><filterID>ITAPER(4)&gt;&gt;BW(4,4,20)</filterID><methodID>AIC</methodID><horizontalSlowness><value>21.025497478565924</value></horizontalSlowness><backazimuth><value>104.91027400853652</value></backazimuth><phaseHint>P</phaseHint><evaluationMode>automatic</evaluationMode><comment><text>276.00816276904726</text><id>DFX:rectilinearity</id></comment><comment><text>74.84251514168</text><id>SNR</id></comment></pick><pick publicID="de.gempa.tb1.Pick/20250413031546.621065.128498"><time><value>2025-04-13T03:15:42.080001Z</value></time><waveformID networkCode="CX" stationCode="PB19" channelCode="HHZ"/><filterID>ITAPER(4)&gt;&gt;BW(4,4,20)</filterID><methodID>AIC</methodID><horizontalSlowness><value>7.490893577542788</value></horizontalSlowness><backazimuth><value>25.54161581647895</value></backazimuth><phaseHint>P</phaseHint><evaluationMode>automatic</evaluationMode><comment><text>720.9829139730591</text><id>DFX:rectilinearity</id></comment><comment><text>150.46719199213408</text><id>SNR</id></comment></pick><pick publicID="de.gempa.tb1.Pick/20250413031547.943618.128500"><time><value>2025-04-13T03:15:42.399998Z</value></time><waveformID networkCode="CX" stationCode="PB09" channelCode="HHN"/><filterID>ITAPER(2)&gt;&gt;BW(3,3,20)</filterID><methodID>L2-AIC-GRID</methodID><horizontalSlowness><value>14.841947635794607</value></horizontalSlowness><backazimuth><value>315.4370701418321</value></backazimuth><phaseHint>S</phaseHint><evaluationMode>automatic</evaluationMode><comment><text>2737.2427074874026</text><id>DFX:rectilinearity</id></comment><comment><text>de.gempa.tb1.Pick/20250413031535.58789.128488</text><id>RefPickID</id></comment><comment><text>5.150650242789924</text><id>SNR</id></comment></pick><pick publicID="de.gempa.tb1.Pick/20250413031549.50441.128501"><time><value>2025-04-13T03:15:45.338393Z</value></time><waveformID networkCode="CX" stationCode="PB08" channelCode="HHZ"/><filterID>ITAPER(4)&gt;&gt;BW(4,4,20)</filterID><methodID>AIC</methodID><horizontalSlowness><value>13.705528671098737</value></horizontalSlowness><backazimuth><value>200.97768231116441</value></backazimuth><phaseHint>P</phaseHint><evaluationMode>automatic</evaluationMode><comment><text>7.385047871726611</text><id>DFX:rectilinearity</id></comment><comment><text>9.235409299341706</text><id>SNR</id></comment></pick><pick publicID="de.gempa.tb1.Pick/20250413031552.600125.128504"><time><value>2025-04-13T03:15:47.008394Z</value></time><waveformID networkCode="CX" stationCode="PB06" channelCode="HHN"/><filterID>ITAPER(2)&gt;&gt;BW(3,3,20)</filterID><methodID>L2-AIC-GRID</methodID><horizontalSlowness><value>21.25022823752176</value></horizontalSlowness><backazimuth><value>189.80945535802354</value></backazimuth><phaseHint>S</phaseHint><evaluationMode>automatic</evaluationMode><comment><text>7400.790163496717</text><id>DFX:rectilinearity</id></comment><comment><text>de.gempa.tb1.Pick/20250413031537.656882.128490</text><id>RefPickID</id></comment><comment><text>11.644780965863658</text><id>SNR</id></comment></pick><pick publicID="de.gempa.tb1.Pick/20250413031553.520926.128505"><time><value>2025-04-13T03:15:46.248393Z</value></time><waveformID networkCode="CX" stationCode="PB03" channelCode="HHN"/><filterID>ITAPER(2)&gt;&gt;BW(3,3,20)</filterID><methodID>L2-AIC-GRID</methodID><horizontalSlowness><value>18.266223259913097</value></horizontalSlowness><backazimuth><value>272.5601937574848</value></backazimuth><phaseHint>S</phaseHint><evaluationMode>automatic</evaluationMode><comment><text>427.3859773682644</text><id>DFX:rectilinearity</id></comment><comment><text>de.gempa.tb1.Pick/20250413031535.505244.128486</text><id>RefPickID</id></comment><comment><text>14.258381269621324</text><id>SNR</id></comment></pick><pick publicID="de.gempa.tb1.Pick/20250413031600.597593.128506"><time><value>2025-04-13T03:15:54.278393Z</value></time><waveformID networkCode="CX" stationCode="PB02" channelCode="HHN"/><filterID>ITAPER(2)&gt;&gt;BW(3,3,20)</filterID><methodID>L2-AIC-GRID</methodID><horizontalSlowness><value>17.26164552227326</value></horizontalSlowness><backazimuth><value>287.618611402532</value></backazimuth><phaseHint>S</phaseHint><evaluationMode>automatic</evaluationMode><comment><text>2831.057808030356</text><id>DFX:rectilinearity</id></comment><comment><text>de.gempa.tb1.Pick/20250413031542.483959.128494</text><id>RefPickID</id></comment><comment><text>9.330520335575901</text><id>SNR</id></comment></pick><pick publicID="de.gempa.tb1.Pick/20250413031601.638517.128508"><time><value>2025-04-13T03:15:53.02Z</value></time><waveformID networkCode="CX" stationCode="PSGCX" channelCode="HHZ"/><filterID>ITAPER(4)&gt;&gt;BW(4,4,20)</filterID><methodID>AIC</methodID><horizontalSlowness><value>9.862602652238223</value></horizontalSlowness><backazimuth><value>17.952692985796915</value></backazimuth><phaseHint>P</phaseHint><evaluationMode>automatic</evaluationMode><comment><text>35.1806502481311</text><id>DFX:rectilinearity</id></comment><comment><text>14.277073779350623</text><id>SNR</id></comment></pick><pick publicID="de.gempa.tb1.Pick/20250413031601.839198.128510"><time><value>2025-04-13T03:15:53.818393Z</value></time><waveformID networkCode="CX" stationCode="PB01" channelCode="HHN"/><filterID>ITAPER(2)&gt;&gt;BW(3,3,20)</filterID><methodID>L2-AIC-GRID</methodID><horizontalSlowness><value>20.353097536385217</value></horizontalSlowness><backazimuth><value>19.077035504066743</value></backazimuth><phaseHint>S</phaseHint><evaluationMode>automatic</evaluationMode><comment><text>1763.7466204675295</text><id>DFX:rectilinearity</id></comment><comment><text>de.gempa.tb1.Pick/20250413031539.68923.128492</text><id>RefPickID</id></comment><comment><text>14.524048489679343</text><id>SNR</id></comment></pick><pick publicID="de.gempa.tb1.Pick/20250413031613.702647.128514"><time><value>2025-04-13T03:16:06.370001Z</value></time><waveformID networkCode="CX" stationCode="PB19" channelCode="HHN"/><filterID>ITAPER(2)&gt;&gt;BW(3,3,20)</filterID><methodID>L2-AIC-GRID</methodID><horizontalSlowness><value>22.886169725087626</value></horizontalSlowness><backazimuth><value>60.16530490262315</value></backazimuth><phaseHint>S</phaseHint><evaluationMode>automatic</evaluationMode><comment><text>5393.95944997158</text><id>DFX:rectilinearity</id></comment><comment><text>de.gempa.tb1.Pick/20250413031546.621065.128498</text><id>RefPickID</id></comment><comment><text>8.071965346745861</text><id>SNR</id></comment></pick><pick publicID="de.gempa.tb1.Pick/20250413031617.569785.128516"><time><value>2025-04-13T03:16:09.348393Z</value></time><waveformID networkCode="CX" stationCode="PB16" channelCode="HHZ"/><filterID>ITAPER(4)&gt;&gt;BW(4,4,20)</filterID><methodID>AIC</methodID><horizontalSlowness><value>20.745644235719947</value></horizontalSlowness><backazimuth><value>33.845451276787657</value></backazimuth><phaseHint>P</phaseHint><evaluationMode>automatic</evaluationMode><comment><text>3.545568297235135</text><id>DFX:rectilinearity</id></comment><comment><text>12.711918846042343</text><id>SNR</id></comment></pick><pick publicID="de.gempa.tb1.Pick/20250413031619.67617.128520"><time><value>2025-04-13T03:16:12.418393Z</value></time><waveformID networkCode="CX" stationCode="PB08" channelCode="HHN"/><filterID>ITAPER(2)&gt;&gt;BW(3,3,20)</filterID><methodID>L2-AIC-GRID</methodID><horizontalSlowness><value>17.872536987114344</value></horizontalSlowness><backazimuth><value>190.16724365730656</value></backazimuth><phaseHint>S</phaseHint><evaluationMode>automatic</evaluationMode><comment><text>38.919070797175934</text><id>DFX:rectilinearity</id></comment><comment><text>de.gempa.tb1.Pick/20250413031549.50441.128501</text><id>RefPickID</id></comment><comment><text>6.775479457624622</text><id>SNR</id></comment></pick><pick publicID="de.gempa.tb1.Pick/20250413031635.571924.128522"><time><value>2025-04-13T03:16:26.84Z</value></time><waveformID networkCode="CX" stationCode="PSGCX" channelCode="HHN"/><filterID>ITAPER(2)&gt;&gt;BW(3,3,20)</filterID><methodID>L2-AIC-GRID</methodID><horizontalSlowness><value>21.389601490031875</value></horizontalSlowness><backazimuth><value>325.1066346932412</value></backazimuth><phaseHint>S</phaseHint><evaluationMode>automatic</evaluationMode><comment><text>92.74425278057078</text><id>DFX:rectilinearity</id></comment><comment><text>de.gempa.tb1.Pick/20250413031601.638517.128508</text><id>RefPickID</id></comment><comment><text>11.038787106511782</text><id>SNR</id></comment></pick><pick publicID="de.gempa.tb1.Pick/20250413031641.400774.128523"><time><value>2025-04-13T03:15:50.098358Z</value></time><waveformID networkCode="CX" stationCode="PB07" channelCode="HHN"/><filterID>ITAPER(2)&gt;&gt;BW(3,3,20)</filterID><methodID>L2-AIC-GRID</methodID><horizontalSlowness><value>21.4437023677835</value></horizontalSlowness><backazimuth><value>297.13758354623747</value></backazimuth><phaseHint>S</phaseHint><evaluationMode>automatic</evaluationMode><comment><text>15593.230947290036</text><id>DFX:rectilinearity</id></comment><comment><text>de.gempa.tb1.Pick/20250413031544.455636.128496</text><id>RefPickID</id></comment><comment><text>6.433161869160697</text><id>SNR</id></comment></pick><origin publicID="de.gempa.tb1.Origin/20250413031641.406188.99568"><time><value>2025-04-13T03:15:11.33624Z</value><uncertainty>0.5708931088447571</uncertainty></time><latitude><value>-22.144298553466797</value><uncertainty>2.3261587619781494</uncertainty></latitude><longitude><value>-69.02719116210938</value><uncertainty>7.701083660125732</uncertainty></longitude><depth><value>124.22834014892578</value><uncertainty>5.807914733886719</uncertainty></depth><depthType>from location</depthType><methodID>LOCSAT</methodID><earthModelID>iasp91_scanloc</earthModelID><quality><associatedPhaseCount>19</associatedPhaseCount><usedPhaseCount>19</usedPhaseCount><associatedStationCount>10</associatedStationCount><usedStationCount>10</usedStationCount><depthPhaseCount>0</depthPhaseCount><standardError>0.6075836834380235</standardError><azimuthalGap>191.24069213867188</azimuthalGap><maximumDistance>3.816511631011963</maximumDistance><minimumDistance>0.39951083064079285</minimumDistance><medianDistance>1.15146005153656</medianDistance></quality><uncertainty><minHorizontalUncertainty>4.899578094482422</minHorizontalUncertainty><maxHorizontalUncertainty>16.536787033081055</maxHorizontalUncertainty><azimuthMaxHorizontalUncertainty>86.62308502197266</azimuthMaxHorizontalUncertainty><preferredDescription>horizontal uncertainty</preferredDescription></uncertainty><evaluationMode>automatic</evaluationMode><evaluationStatus>confirmed</evaluationStatus><comment><text>0.14</text><id>mismatchScore</id></comment><comment><text>mismatchScore</text><id>scevalMethod</id></comment><arrival><pickID>de.gempa.tb1.Pick/20250413031535.505244.128486</pickID><phase>P</phase><azimuth>277.9268798828125</azimuth><distance>0.6799466609954834</distance><timeResidual>0.176483154296875</timeResidual><timeUsed>true</timeUsed><horizontalSlownessUsed>false</horizontalSlownessUsed><backazimuthUsed>false</backazimuthUsed><weight>1</weight></arrival><arrival><pickID>de.gempa.tb1.Pick/20250413031535.58789.128488</pickID><phase>P</phase><azimuth>330.0318603515625</azimuth><distance>0.39951083064079285</distance><timeResidual>-0.27886009216308594</timeResidual><timeUsed>true</timeUsed><horizontalSlownessUsed>false</horizontalSlownessUsed><backazimuthUsed>false</backazimuthUsed><weight>1</weight></arrival><arrival><pickID>de.gempa.tb1.Pick/20250413031537.656882.128490</pickID><phase>P</phase><azimuth>221.94317626953125</azimuth><distance>0.7525193691253662</distance><timeResidual>-0.06874847412109375</timeResidual><timeUsed>true</timeUsed><horizontalSlownessUsed>false</horizontalSlownessUsed><backazimuthUsed>false</backazimuthUsed><weight>1</weight></arrival><arrival><pickID>de.gempa.tb1.Pick/20250413031539.68923.128492</pickID><phase>P</phase><azimuth>338.565185546875</azimuth><distance>1.1764085292816162</distance><timeResidual>-0.38729095458984375</timeResidual><timeUsed>true</timeUsed><horizontalSlownessUsed>false</horizontalSlownessUsed><backazimuthUsed>false</backazimuthUsed><weight>1</weight></arrival><arrival><pickID>de.gempa.tb1.Pick/20250413031542.483959.128494</pickID><phase>P</phase><azimuth>315.28704833984375</azimuth><distance>1.15146005153656</distance><timeResidual>0.3022804260253906</timeResidual><timeUsed>true</timeUsed><horizontalSlownessUsed>false</horizontalSlownessUsed><backazimuthUsed>false</backazimuthUsed><weight>1</weight></arrival><arrival><pickID>de.gempa.tb1.Pick/20250413031544.455636.128496</pickID><phase>P</phase><azimuth>297.36444091796875</azimuth><distance>0.8993319272994995</distance><timeResidual>0.4735546112060547</timeResidual><timeUsed>true</timeUsed><horizontalSlownessUsed>false</horizontalSlownessUsed><backazimuthUsed>false</backazimuthUsed><weight>1</weight></arrival><arrival><pickID>de.gempa.tb1.Pick/20250413031546.621065.128498</pickID><phase>P</phase><azimuth>187.83529663085938</azimuth><distance>1.7690019607543945</distance><timeResidual>-0.1366100311279297</timeResidual><timeUsed>true</timeUsed><horizontalSlownessUsed>false</horizontalSlownessUsed><backazimuthUsed>false</backazimuthUsed><weight>1</weight></arrival><arrival><pickID>de.gempa.tb1.Pick/20250413031547.943618.128500</pickID><phase>S</phase><azimuth>330.0318603515625</azimuth><distance>0.39951083064079285</distance><timeResidual>-0.6332206726074219</timeResidual><timeUsed>true</timeUsed><horizontalSlownessUsed>false</horizontalSlownessUsed><backazimuthUsed>false</backazimuthUsed><weight>1</weight></arrival><arrival><pickID>de.gempa.tb1.Pick/20250413031549.50441.128501</pickID><phase>P</phase><azimuth>356.5946044921875</azimuth><distance>1.9967079162597656</distance><timeResidual>0.3348369598388672</timeResidual><timeUsed>true</timeUsed><horizontalSlownessUsed>false</horizontalSlownessUsed><backazimuthUsed>false</backazimuthUsed><weight>1</weight></arrival><arrival><pickID>de.gempa.tb1.Pick/20250413031552.600125.128504</pickID><phase>S</phase><azimuth>221.94317626953125</azimuth><distance>0.7525193691253662</distance><timeResidual>-0.19032669067382812</timeResidual><timeUsed>true</timeUsed><horizontalSlownessUsed>false</horizontalSlownessUsed><backazimuthUsed>false</backazimuthUsed><weight>1</weight></arrival><arrival><pickID>de.gempa.tb1.Pick/20250413031553.520926.128505</pickID><phase>S</phase><azimuth>277.9268798828125</azimuth><distance>0.6799466609954834</distance><timeResidual>0.05744743347167969</timeResidual><timeUsed>true</timeUsed><horizontalSlownessUsed>false</horizontalSlownessUsed><backazimuthUsed>false</backazimuthUsed><weight>1</weight></arrival><arrival><pickID>de.gempa.tb1.Pick/20250413031600.597593.128506</pickID><phase>S</phase><azimuth>315.28704833984375</azimuth><distance>1.15146005153656</distance><timeResidual>0.44699859619140625</timeResidual><timeUsed>true</timeUsed><horizontalSlownessUsed>false</horizontalSlownessUsed><backazimuthUsed>false</backazimuthUsed><weight>1</weight></arrival><arrival><pickID>de.gempa.tb1.Pick/20250413031601.638517.128508</pickID><phase>P</phase><azimuth>337.78680419921875</azimuth><distance>2.733689069747925</distance><timeResidual>-1.3211612701416016</timeResidual><timeUsed>true</timeUsed><horizontalSlownessUsed>false</horizontalSlownessUsed><backazimuthUsed>false</backazimuthUsed><weight>1</weight></arrival><arrival><pickID>de.gempa.tb1.Pick/20250413031601.839198.128510</pickID><phase>S</phase><azimuth>338.565185546875</azimuth><distance>1.1764085292816162</distance><timeResidual>-0.4757900238037109</timeResidual><timeUsed>true</timeUsed><horizontalSlownessUsed>false</horizontalSlownessUsed><backazimuthUsed>false</backazimuthUsed><weight>1</weight></arrival><arrival><pickID>de.gempa.tb1.Pick/20250413031613.702647.128514</pickID><phase>S</phase><azimuth>187.83529663085938</azimuth><distance>1.7690019607543945</distance><timeResidual>0.14877700805664062</timeResidual><timeUsed>true</timeUsed><horizontalSlownessUsed>false</horizontalSlownessUsed><backazimuthUsed>false</backazimuthUsed><weight>1</weight></arrival><arrival><pickID>de.gempa.tb1.Pick/20250413031617.569785.128516</pickID><phase>P</phase><azimuth>353.12701416015625</azimuth><distance>3.816511631011963</distance><timeResidual>0.7807655334472656</timeResidual><timeUsed>true</timeUsed><horizontalSlownessUsed>false</horizontalSlownessUsed><backazimuthUsed>false</backazimuthUsed><weight>1</weight></arrival><arrival><pickID>de.gempa.tb1.Pick/20250413031619.67617.128520</pickID><phase>S</phase><azimuth>356.5946044921875</azimuth><distance>1.9967079162597656</distance><timeResidual>1.2141647338867188</timeResi