<?xml version="1.0" encoding="UTF-8"?>
<seiscomp xmlns="http://geofon.gfz-potsdam.de/ns/seiscomp3-schema/0.13" version="0.13"><EventParameters><pick publicID="de.gempa.tb1.Pick/20250413125312.550078.131299"><time><value>2025-04-13T12:53:08.128385Z</value></time><waveformID networkCode="CX" stationCode="PB07" channelCode="HHZ"/><filterID>ITAPER(4)&gt;&gt;BW(4,4,20)</filterID><methodID>AIC</methodID><horizontalSlowness><value>22.844787956839316</value></horizontalSlowness><backazimuth><value>248.9425524334855</value></backazimuth><phaseHint>P</phaseHint><evaluationMode>automatic</evaluationMode><comment><text>201.86932248675797</text><id>DFX:rectilinearity</id></comment><comment><text>31.33922077214382</text><id>SNR</id></comment></pick><pick publicID="de.gempa.tb1.Pick/20250413125314.998435.131301"><time><value>2025-04-13T12:52:59.33Z</value></time><waveformID networkCode="CX" stationCode="PB09" channelCode="HHZ"/><filterID>ITAPER(4)&gt;&gt;BW(4,4,20)</filterID><methodID>AIC</methodID><horizontalSlowness><value>5.7915236987158</value></horizontalSlowness><backazimuth><value>312.5030314264102</value></backazimuth><phaseHint>P</phaseHint><evaluationMode>automatic</evaluationMode><comment><text>15.075416594271207</text><id>DFX:rectilinearity</id></comment><comment><text>14.217277274698128</text><id>SNR</id></comment></pick><pick publicID="de.gempa.tb1.Pick/20250413125315.421895.131303"><time><value>2025-04-13T12:53:03.2Z</value></time><waveformID networkCode="CX" stationCode="PB09" channelCode="HHN"/><filterID>ITAPER(2)&gt;&gt;BW(3,3,20)</filterID><methodID>L2-AIC-GRID</methodID><horizontalSlowness><value>8.188490098243445</value></horizontalSlowness><backazimuth><value>257.84246996367216</value></backazimuth><phaseHint>S</phaseHint><evaluationMode>automatic</evaluationMode><comment><text>10.893719332251422</text><id>DFX:rectilinearity</id></comment><comment><text>de.gempa.tb1.Pick/20250413125314.998435.131301</text><id>RefPickID</id></comment><comment><text>5.141065630586006</text><id>SNR</id></comment></pick><pick publicID="de.gempa.tb1.Pick/20250413125315.535432.131304"><time><value>2025-04-13T12:53:06.778393Z</value></time><waveformID networkCode="CX" stationCode="PB03" channelCode="HHZ"/><filterID>ITAPER(4)&gt;&gt;BW(4,4,20)</filterID><methodID>AIC</methodID><horizontalSlowness><value>8.564864567201813</value></horizontalSlowness><backazimuth><value>161.56310180148927</value></backazimuth><phaseHint>P</phaseHint><evaluationMode>automatic</evaluationMode><comment><text>9.665222796300418</text><id>DFX:rectilinearity</id></comment><comment><text>8.66797249247316</text><id>SNR</id></comment></pick><pick publicID="de.gempa.tb1.Pick/20250413125315.542907.131306"><time><value>2025-04-13T12:53:06.558394Z</value></time><waveformID networkCode="CX" stationCode="PB01" channelCode="HHZ"/><filterID>ITAPER(4)&gt;&gt;BW(4,4,20)</filterID><methodID>AIC</methodID><horizontalSlowness><value>18.208583020381656</value></horizontalSlowness><backazimuth><value>309.41401684541563</value></backazimuth><phaseHint>P</phaseHint><evaluationMode>automatic</evaluationMode><comment><text>14.91324154991297</text><id>DFX:rectilinearity</id></comment><comment><text>8.817435830403712</text><id>SNR</id></comment></pick><pick publicID="de.gempa.tb1.Pick/20250413125319.54778.131308"><time><value>2025-04-13T12:53:09.138394Z</value></time><waveformID networkCode="CX" stationCode="PB02" channelCode="HHZ"/><filterID>ITAPER(4)&gt;&gt;BW(4,4,20)</filterID><methodID>AIC</methodID><horizontalSlowness><value>10.88486291424052</value></horizontalSlowness><backazimuth><value>46.20218298730904</value></backazimuth><phaseHint>P</phaseHint><evaluationMode>automatic</evaluationMode><comment><text>56.75861210198597</text><id>DFX:rectilinearity</id></comment><comment><text>8.213419478285418</text><id>SNR</id></comment></pick><origin publicID="de.gempa.tb1.Origin/20250413125319.550636.110451"><time><value>2025-04-13T12:52:52.612944Z</value><uncertainty>2.3122732639312744</uncertainty></time><latitude><value>-21.65578269958496</value><uncertainty>7.916356563568115</uncertainty></latitude><longitude><value>-69.03787994384766</value><uncertainty>17.906307220458984</uncertainty></longitude><depth><value>26.21229362487793</value><uncertainty>7.612838745117188</uncertainty></depth><depthType>from location</depthType><methodID>LOCSAT</methodID><earthModelID>iasp91_scanloc</earthModelID><quality><associatedPhaseCount>6</associatedPhaseCount><usedPhaseCount>6</usedPhaseCount><associatedStationCount>5</associatedStationCount><usedStationCount>5</usedStationCount><depthPhaseCount>0</depthPhaseCount><standardError>0.3925370017697447</standardError><azimuthalGap>268.14451599121094</azimuthalGap><maximumDistance>0.8663537502288818</maximumDistance><minimumDistance>0.2357301115989685</minimumDistance><medianDistance>0.7708366513252258</medianDistance></quality><uncertainty><minHorizontalUncertainty>13.708464622497559</minHorizontalUncertainty><maxHorizontalUncertainty>39.687931060791016</maxHorizontalUncertainty><azimuthMaxHorizontalUncertainty>105.60079193115234</azimuthMaxHorizontalUncertainty><preferredDescription>horizontal uncertainty</preferredDescription></uncertainty><evaluationMode>automatic</evaluationMode><evaluationStatus>confirmed</evaluationStatus><comment><text>0.00</text><id>mismatchScore</id></comment><comment><text>mismatchScore</text><id>scevalMethod</id></comment><arrival><pickID>de.gempa.tb1.Pick/20250413125312.550078.131299</pickID><phase>P</phase><azimuth>264.7349548339844</azimuth><distance>0.7920941710472107</distance><timeResidual>0.394716739654541</timeResidual><timeUsed>true</timeUsed><horizontalSlownessUsed>false</horizontalSlownessUsed><backazimuthUsed>false</backazimuthUsed><weight>1</weight></arrival><arrival><pickID>de.gempa.tb1.Pick/20250413125314.998435.131301</pickID><phase>P</phase><azimuth>233.55516052246094</azimuth><distance>0.2357301115989685</distance><timeResidual>0.4894747734069824</timeResidual><timeUsed>true</timeUsed><horizontalSlownessUsed>false</horizontalSlownessUsed><backazimuthUsed>false</backazimuthUsed><weight>1</weight></arrival><arrival><pickID>de.gempa.tb1.Pick/20250413125315.421895.131303</pickID><phase>S</phase><azimuth>233.55516052246094</azimuth><distance>0.2357301115989685</distance><timeResidual>-0.17223691940307617</timeResidual><timeUsed>true</timeUsed><horizontalSlownessUsed>false</horizontalSlownessUsed><backazimuthUsed>false</backazimuthUsed><weight>1</weight></arrival><arrival><pickID>de.gempa.tb1.Pick/20250413125315.535432.131304</pickID><phase>P</phase><azimuth>239.4068298339844</azimuth><distance>0.7708366513252258</distance><timeResidual>-0.6027770042419434</timeResidual><timeUsed>true</timeUsed><horizontalSlownessUsed>false</horizontalSlownessUsed><backazimuthUsed>false</backazimuthUsed><weight>1</weight></arrival><arrival><pickID>de.gempa.tb1.Pick/20250413125315.542907.131306</pickID><phase>P</phase><azimuth>325.41064453125</azimuth><distance>0.7396746873855591</distance><timeResidual>-0.30968570709228516</timeResidual><timeUsed>true</timeUsed><horizontalSlownessUsed>false</horizontalSlownessUsed><backazimuthUsed>false</backazimuthUsed><weight>1</weight></arrival><arrival><pickID>de.gempa.tb1.Pick/20250413125319.54778.131308</pickID><phase>P</phase><azimuth>292.54827880859375</azimuth><distance>0.8663537502288818</distance><timeResidual>0.20053434371948242</timeResidual><timeUsed>true</timeUsed><horizontalSlownessUsed>false</horizontalSlownessUsed><backazimuthUsed>false</backazimuthUsed><weight>1</weight></arrival><magnitude publicID="de.gempa.tb1.Magnitude/20250413125350.991331.358946"><magnitude><value>2.517815258416152</value></magnitude><type>M</type><methodID>weighted average</methodID><stationCount>5</stationCount></magnitude></origin><event publicID="gempa2025hhka"><preferredOriginID>de.gempa.tb1.Origin/20250413125319.550636.110451</preferredOriginID><preferredMagnitudeID>de.gempa.tb1.Magnitude/20250413125350.991331.358946</preferredMagnitudeID><description><text>Northern Chile</text><type>region name</type></description><originReference>de.gempa.tb1.Origin/20250413125319.550636.110451</originReference></event></EventParameters></seiscomp>