<?xml version="1.0" encoding="UTF-8"?>
<seiscomp xmlns="http://geofon.gfz-potsdam.de/ns/seiscomp3-schema/0.13" version="0.13"><EventParameters><pick publicID="de.gempa.tb1.Pick/20250411224909.64733.120451"><time><value>2025-04-11T22:49:03.588391Z</value></time><waveformID networkCode="CX" stationCode="PB01" channelCode="HHZ"/><filterID>ITAPER(4)&gt;&gt;BW(4,4,20)</filterID><methodID>AIC</methodID><horizontalSlowness><value>9.235004986572708</value></horizontalSlowness><backazimuth><value>349.69173522873473</value></backazimuth><phaseHint>P</phaseHint><evaluationMode>automatic</evaluationMode><comment><text>12.307685301158726</text><id>DFX:rectilinearity</id></comment><comment><text>12.437411032788106</text><id>SNR</id></comment></pick><pick publicID="de.gempa.tb1.Pick/20250411224912.408718.120453"><time><value>2025-04-11T22:49:04.59Z</value></time><waveformID networkCode="CX" stationCode="PB09" channelCode="HHZ"/><filterID>ITAPER(4)&gt;&gt;BW(4,4,20)</filterID><methodID>AIC</methodID><horizontalSlowness><value>15.68311185578931</value></horizontalSlowness><backazimuth><value>70.92879751192436</value></backazimuth><phaseHint>P</phaseHint><evaluationMode>automatic</evaluationMode><comment><text>65.01934825188597</text><id>DFX:rectilinearity</id></comment><comment><text>36.140272803778757</text><id>SNR</id></comment></pick><pick publicID="de.gempa.tb1.Pick/20250411224915.534498.120455"><time><value>2025-04-11T22:49:07.678393Z</value></time><waveformID networkCode="CX" stationCode="PB02" channelCode="HHZ"/><filterID>ITAPER(4)&gt;&gt;BW(4,4,20)</filterID><methodID>AIC</methodID><horizontalSlowness><value>15.988632436083732</value></horizontalSlowness><backazimuth><value>80.05157802794716</value></backazimuth><phaseHint>P</phaseHint><evaluationMode>automatic</evaluationMode><comment><text>18.78116844546652</text><id>DFX:rectilinearity</id></comment><comment><text>13.86549686719959</text><id>SNR</id></comment></pick><pick publicID="de.gempa.tb1.Pick/20250411224916.542072.120457"><time><value>2025-04-11T22:49:09.328393Z</value></time><waveformID networkCode="CX" stationCode="PB03" channelCode="HHZ"/><filterID>ITAPER(4)&gt;&gt;BW(4,4,20)</filterID><methodID>AIC</methodID><horizontalSlowness><value>2.563937698200813</value></horizontalSlowness><backazimuth><value>151.02100927281586</value></backazimuth><phaseHint>P</phaseHint><evaluationMode>automatic</evaluationMode><comment><text>9.174344619779797</text><id>DFX:rectilinearity</id></comment><comment><text>12.388536559256943</text><id>SNR</id></comment></pick><pick publicID="de.gempa.tb1.Pick/20250411224926.573474.120459"><time><value>2025-04-11T22:49:17.72Z</value></time><waveformID networkCode="CX" stationCode="PSGCX" channelCode="HHZ"/><filterID>ITAPER(4)&gt;&gt;BW(4,4,20)</filterID><methodID>AIC</methodID><horizontalSlowness><value>12.703592752867497</value></horizontalSlowness><backazimuth><value>135.75028445604852</value></backazimuth><phaseHint>P</phaseHint><evaluationMode>automatic</evaluationMode><comment><text>27.979872854868987</text><id>DFX:rectilinearity</id></comment><comment><text>13.538825672907796</text><id>SNR</id></comment></pick><pick publicID="de.gempa.tb1.Pick/20250411224927.776336.120461"><time><value>2025-04-11T22:49:18.538391Z</value></time><waveformID networkCode="CX" stationCode="PB01" channelCode="HHN"/><filterID>ITAPER(2)&gt;&gt;BW(3,3,20)</filterID><methodID>L2-AIC-GRID</methodID><horizontalSlowness><value>20.637994965308014</value></horizontalSlowness><backazimuth><value>9.569817790842905</value></backazimuth><phaseHint>S</phaseHint><evaluationMode>automatic</evaluationMode><comment><text>50.14572876189871</text><id>DFX:rectilinearity</id></comment><comment><text>de.gempa.tb1.Pick/20250411224909.64733.120451</text><id>RefPickID</id></comment><comment><text>8.326469678340944</text><id>SNR</id></comment></pick><pick publicID="de.gempa.tb1.Pick/20250411224934.038307.120462"><time><value>2025-04-11T22:49:25.788393Z</value></time><waveformID networkCode="CX" stationCode="PB02" channelCode="HHN"/><filterID>ITAPER(2)&gt;&gt;BW(3,3,20)</filterID><methodID>L2-AIC-GRID</methodID><horizontalSlowness><value>14.852738252948487</value></horizontalSlowness><backazimuth><value>249.02199861419047</value></backazimuth><phaseHint>S</phaseHint><evaluationMode>automatic</evaluationMode><comment><text>164.18460082255223</text><id>DFX:rectilinearity</id></comment><comment><text>de.gempa.tb1.Pick/20250411224915.534498.120455</text><id>RefPickID</id></comment><comment><text>5.385272326013887</text><id>SNR</id></comment></pick><pick publicID="de.gempa.tb1.Pick/20250411224938.074087.120465"><time><value>2025-04-11T22:49:29.238393Z</value></time><waveformID networkCode="CX" stationCode="PB03" channelCode="HHN"/><filterID>ITAPER(2)&gt;&gt;BW(3,3,20)</filterID><methodID>L2-AIC-GRID</methodID><horizontalSlowness><value>20.673249462183882</value></horizontalSlowness><backazimuth><value>352.4412017596337</value></backazimuth><phaseHint>S</phaseHint><evaluationMode>automatic</evaluationMode><comment><text>20.629389601959506</text><id>DFX:rectilinearity</id></comment><comment><text>de.gempa.tb1.Pick/20250411224916.542072.120457</text><id>RefPickID</id></comment><comment><text>5.773228574522443</text><id>SNR</id></comment></pick><pick publicID="de.gempa.tb1.Pick/20250411224940.726212.120466"><time><value>2025-04-11T22:49:08.498393Z</value></time><waveformID networkCode="CX" stationCode="PB07" channelCode="HHZ"/><filterID>ITAPER(4)&gt;&gt;BW(4,4,20)</filterID><methodID>AIC</methodID><horizontalSlowness><value>23.48946691080093</value></horizontalSlowness><backazimuth><value>286.3158557054631</value></backazimuth><phaseHint>P</phaseHint><evaluationMode>automatic</evaluationMode><comment><text>158.9261356580989</text><id>DFX:rectilinearity</id></comment><comment><text>27.293279564601693</text><id>SNR</id></comment></pick><origin publicID="de.gempa.tb1.Origin/20250411224941.955208.67489"><time><value>2025-04-11T22:48:43.918931Z</value><uncertainty>1.0248376131057739</uncertainty></time><latitude><value>-21.132625579833984</value><uncertainty>5.938469886779785</uncertainty></latitude><longitude><value>-68.673828125</value><uncertainty>13.97046184539795</uncertainty></longitude><depth><value>117.292236328125</value><uncertainty>13.635381698608398</uncertainty></depth><depthType>from location</depthType><methodID>LOCSAT</methodID><earthModelID>iasp91_scanloc</earthModelID><quality><associatedPhaseCount>9</associatedPhaseCount><usedPhaseCount>9</usedPhaseCount><associatedStationCount>6</associatedStationCount><usedStationCount>6</usedStationCount><depthPhaseCount>0</depthPhaseCount><standardError>0.22359932165325522</standardError><azimuthalGap>260.52256774902344</azimuthalGap><maximumDistance>2.045095443725586</maximumDistance><minimumDistance>0.7649279832839966</minimumDistance><medianDistance>1.1553759574890137</medianDistance></quality><uncertainty><minHorizontalUncertainty>12.733855247497559</minHorizontalUncertainty><maxHorizontalUncertainty>29.95684814453125</maxHorizontalUncertainty><azimuthMaxHorizontalUncertainty>90.00165557861328</azimuthMaxHorizontalUncertainty><preferredDescription>horizontal uncertainty</preferredDescription></uncertainty><evaluationMode>automatic</evaluationMode><evaluationStatus>confirmed</evaluationStatus><comment><text>0.17</text><id>mismatchScore</id></comment><comment><text>mismatchScore</text><id>scevalMethod</id></comment><arrival><pickID>de.gempa.tb1.Pick/20250411224909.64733.120451</pickID><phase>P</phase><azimuth>276.5321960449219</azimuth><distance>0.7649279832839966</distance><timeResidual>0.009412765502929688</timeResidual><timeUsed>true</timeUsed><horizontalSlownessUsed>false</horizontalSlownessUsed><backazimuthUsed>false</backazimuthUsed><weight>1</weight></arrival><arrival><pickID>de.gempa.tb1.Pick/20250411224912.408718.120453</pickID><phase>P</phase><azimuth>218.5977020263672</azimuth><distance>0.8463202714920044</distance><timeResidual>0.29670143127441406</timeResidual><timeUsed>true</timeUsed><horizontalSlownessUsed>false</horizontalSlownessUsed><backazimuthUsed>false</backazimuthUsed><weight>1</weight></arrival><arrival><pickID>de.gempa.tb1.Pick/20250411224915.534498.120455</pickID><phase>P</phase><azimuth>260.5072937011719</azimuth><distance>1.1553759574890137</distance><timeResidual>0.3186531066894531</timeResidual><timeUsed>true</timeUsed><horizontalSlownessUsed>false</horizontalSlownessUsed><backazimuthUsed>false</backazimuthUsed><weight>1</weight></arrival><arrival><pickID>de.gempa.tb1.Pick/20250411224916.542072.120457</pickID><phase>P</phase><azimuth>227.58563232421875</azimuth><distance>1.3562692403793335</distance><timeResidual>-0.2316627502441406</timeResidual><timeUsed>true</timeUsed><horizontalSlownessUsed>false</horizontalSlownessUsed><backazimuthUsed>false</backazimuthUsed><weight>1</weight></arrival><arrival><pickID>de.gempa.tb1.Pick/20250411224926.573474.120459</pickID><phase>P</phase><azimuth>318.07513427734375</azimuth><distance>2.045095443725586</distance><timeResidual>-0.1282176971435547</timeResidual><timeUsed>true</timeUsed><horizontalSlownessUsed>false</horizontalSlownessUsed><backazimuthUsed>false</backazimuthUsed><weight>1</weight></arrival><arrival><pickID>de.gempa.tb1.Pick/20250411224927.776336.120461</pickID><phase>S</phase><azimuth>276.5321960449219</azimuth><distance>0.7649279832839966</distance><timeResidual>-0.21382904052734375</timeResidual><timeUsed>true</timeUsed><horizontalSlownessUsed>false</horizontalSlownessUsed><backazimuthUsed>false</backazimuthUsed><weight>1</weight></arrival><arrival><pickID>de.gempa.tb1.Pick/20250411224934.038307.120462</pickID><phase>S</phase><azimuth>260.5072937011719</azimuth><distance>1.1553759574890137</distance><timeResidual>0.2917308807373047</timeResidual><timeUsed>true</timeUsed><horizontalSlownessUsed>false</horizontalSlownessUsed><backazimuthUsed>false</backazimuthUsed><weight>1</weight></arrival><arrival><pickID>de.gempa.tb1.Pick/20250411224938.074087.120465</pickID><phase>S</phase><azimuth>227.58563232421875</azimuth><distance>1.3562692403793335</distance><timeResidual>-0.18881607055664062</timeResidual><timeUsed>true</timeUsed><horizontalSlownessUsed>false</horizontalSlownessUsed><backazimuthUsed>false</backazimuthUsed><weight>1</weight></arrival><arrival><pickID>de.gempa.tb1.Pick/20250411224940.726212.120466</pickID><phase>P</phase><azimuth>242.15650939941406</azimuth><distance>1.2748587131500244</distance><timeResidual>-0.15401649475097656</timeResidual><timeUsed>true</timeUsed><horizontalSlownessUsed>false</horizontalSlownessUsed><backazimuthUsed>false</backazimuthUsed><weight>1</weight></arrival><magnitude publicID="de.gempa.tb1.Magnitude/20250411225007.828041.150323"><magnitude><value>2.0667385488110255</value></magnitude><type>M</type><methodID>weighted average</methodID><stationCount>4</stationCount></magnitude></origin><event publicID="gempa2025helv"><preferredOriginID>de.gempa.tb1.Origin/20250411224941.955208.67489</preferredOriginID><preferredMagnitudeID>de.gempa.tb1.Magnitude/20250411225007.828041.150323</preferredMagnitudeID><description><text>Chile-Bolivia Border Region</text><type>region name</type></description><originReference>de.gempa.tb1.Origin/20250411224941.955208.67489</originReference></event></EventParameters></seiscomp>