<?xml version="1.0" encoding="UTF-8"?>
<seiscomp xmlns="http://geofon.gfz-potsdam.de/ns/seiscomp3-schema/0.13" version="0.13"><EventParameters><pick publicID="de.gempa.tb1.Pick/20250413121918.637879.131097"><time><value>2025-04-13T12:19:13.648393Z</value></time><waveformID networkCode="CX" stationCode="PB01" channelCode="HHZ"/><filterID>ITAPER(4)&gt;&gt;BW(4,4,20)</filterID><methodID>AIC</methodID><horizontalSlowness><value>7.986567746080431</value></horizontalSlowness><backazimuth><value>139.38419925261104</value></backazimuth><phaseHint>P</phaseHint><evaluationMode>automatic</evaluationMode><comment><text>62.75244188035096</text><id>DFX:rectilinearity</id></comment><comment><text>150.346560412602</text><id>SNR</id></comment></pick><pick publicID="de.gempa.tb1.Pick/20250413121919.840126.131099"><time><value>2025-04-13T12:19:12.73Z</value></time><waveformID networkCode="CX" stationCode="PB09" channelCode="HHZ"/><filterID>ITAPER(4)&gt;&gt;BW(4,4,20)</filterID><methodID>AIC</methodID><horizontalSlowness><value>15.622007046008207</value></horizontalSlowness><backazimuth><value>75.55686244417726</value></backazimuth><phaseHint>P</phaseHint><evaluationMode>automatic</evaluationMode><comment><text>856.8781235970343</text><id>DFX:rectilinearity</id></comment><comment><text>156.8762929680733</text><id>SNR</id></comment></pick><pick publicID="de.gempa.tb1.Pick/20250413121922.676907.131101"><time><value>2025-04-13T12:19:17.638393Z</value></time><waveformID networkCode="CX" stationCode="PB03" channelCode="HHZ"/><filterID>ITAPER(4)&gt;&gt;BW(4,4,20)</filterID><methodID>AIC</methodID><horizontalSlowness><value>8.43925393820613</value></horizontalSlowness><backazimuth><value>59.35404711761686</value></backazimuth><phaseHint>P</phaseHint><evaluationMode>automatic</evaluationMode><comment><text>125.295069386108</text><id>DFX:rectilinearity</id></comment><comment><text>101.81552388842005</text><id>SNR</id></comment></pick><pick publicID="de.gempa.tb1.Pick/20250413121923.5434.131103"><time><value>2025-04-13T12:19:17.218393Z</value></time><waveformID networkCode="CX" stationCode="PB02" channelCode="HHZ"/><filterID>ITAPER(4)&gt;&gt;BW(4,4,20)</filterID><methodID>AIC</methodID><horizontalSlowness><value>7.401836042782122</value></horizontalSlowness><backazimuth><value>78.45895462334735</value></backazimuth><phaseHint>P</phaseHint><evaluationMode>automatic</evaluationMode><comment><text>361.64331827420347</text><id>DFX:rectilinearity</id></comment><comment><text>183.34280472670505</text><id>SNR</id></comment></pick><pick publicID="de.gempa.tb1.Pick/20250413121926.499932.131105"><time><value>2025-04-13T12:19:21.068393Z</value></time><waveformID networkCode="CX" stationCode="PB06" channelCode="HHZ"/><filterID>ITAPER(4)&gt;&gt;BW(4,4,20)</filterID><methodID>AIC</methodID><horizontalSlowness><value>12.867328348456653</value></horizontalSlowness><backazimuth><value>76.67346890955666</value></backazimuth><phaseHint>P</phaseHint><evaluationMode>automatic</evaluationMode><comment><text>37.360536800731523</text><id>DFX:rectilinearity</id></comment><comment><text>34.375861065779873</text><id>SNR</id></comment></pick><pick publicID="de.gempa.tb1.Pick/20250413121929.270335.131107"><time><value>2025-04-13T12:19:20.979999Z</value></time><waveformID networkCode="CX" stationCode="PATCX" channelCode="HHZ"/><filterID>ITAPER(4)&gt;&gt;BW(4,4,20)</filterID><methodID>AIC</methodID><horizontalSlowness><value>21.624305032476215</value></horizontalSlowness><backazimuth><value>247.2942199452162</value></backazimuth><phaseHint>P</phaseHint><evaluationMode>automatic</evaluationMode><comment><text>276.6753383766242</text><id>DFX:rectilinearity</id></comment><comment><text>46.95340294517164</text><id>SNR</id></comment></pick><pick publicID="de.gempa.tb1.Pick/20250413121931.668066.131109"><time><value>2025-04-13T12:19:26.748393Z</value></time><waveformID networkCode="CX" stationCode="PB15" channelCode="HHZ"/><filterID>ITAPER(4)&gt;&gt;BW(4,4,20)</filterID><methodID>AIC</methodID><horizontalSlowness><value>23.090349774921677</value></horizontalSlowness><backazimuth><value>139.35174869410963</value></backazimuth><phaseHint>P</phaseHint><evaluationMode>automatic</evaluationMode><comment><text>141.9304528440865</text><id>DFX:rectilinearity</id></comment><comment><text>8.608177846769443</text><id>SNR</id></comment></pick><pick publicID="de.gempa.tb1.Pick/20250413121937.522723.131111"><time><value>2025-04-13T12:19:28.12Z</value></time><waveformID networkCode="CX" stationCode="PSGCX" channelCode="HHZ"/><filterID>ITAPER(4)&gt;&gt;BW(4,4,20)</filterID><methodID>AIC</methodID><horizontalSlowness><value>12.739089622228457</value></horizontalSlowness><backazimuth><value>178.85329795914438</value></backazimuth><phaseHint>P</phaseHint><evaluationMode>automatic</evaluationMode><comment><text>47.19156580055513</text><id>DFX:rectilinearity</id></comment><comment><text>17.106338073982542</text><id>SNR</id></comment></pick><pick publicID="de.gempa.tb1.Pick/20250413121938.540355.131113"><time><value>2025-04-13T12:19:33.27Z</value></time><waveformID networkCode="CX" stationCode="PB19" channelCode="HHZ"/><filterID>ITAPER(4)&gt;&gt;BW(4,4,20)</filterID><methodID>AIC</methodID><horizontalSlowness><value>4.128508890562924</value></horizontalSlowness><backazimuth><value>251.84406789012036</value></backazimuth><phaseHint>P</phaseHint><evaluationMode>automatic</evaluationMode><comment><text>33.645940471573283</text><id>DFX:rectilinearity</id></comment><comment><text>9.148417798023532</text><id>SNR</id></comment></pick><pick publicID="de.gempa.tb1.Pick/20250413121940.781793.131115"><time><value>2025-04-13T12:19:32.278393Z</value></time><waveformID networkCode="CX" stationCode="PB01" channelCode="HHN"/><filterID>ITAPER(2)&gt;&gt;BW(3,3,20)</filterID><methodID>L2-AIC-GRID</methodID><horizontalSlowness><value>22.82898960697097</value></horizontalSlowness><backazimuth><value>31.94319894482362</value></backazimuth><phaseHint>S</phaseHint><evaluationMode>automatic</evaluationMode><comment><text>298.4250511922063</text><id>DFX:rectilinearity</id></comment><comment><text>de.gempa.tb1.Pick/20250413121918.637879.131097</text><id>RefPickID</id></comment><comment><text>6.037387418015049</text><id>SNR</id></comment></pick><pick publicID="de.gempa.tb1.Pick/20250413121944.583611.131116"><time><value>2025-04-13T12:19:38.688393Z</value></time><waveformID networkCode="CX" stationCode="PB03" channelCode="HHN"/><filterID>ITAPER(2)&gt;&gt;BW(3,3,20)</filterID><methodID>L2-AIC-GRID</methodID><horizontalSlowness><value>17.907562084061315</value></horizontalSlowness><backazimuth><value>317.44311883472744</value></backazimuth><phaseHint>S</phaseHint><evaluationMode>automatic</evaluationMode><comment><text>189.64228365538995</text><id>DFX:rectilinearity</id></comment><comment><text>de.gempa.tb1.Pick/20250413121922.676907.131101</text><id>RefPickID</id></comment><comment><text>8.778003689443466</text><id>SNR</id></comment></pick><pick publicID="de.gempa.tb1.Pick/20250413121950.39463.131120"><time><value>2025-04-13T12:19:44.399999Z</value></time><waveformID networkCode="CX" stationCode="PATCX" channelCode="HHN"/><filterID>ITAPER(2)&gt;&gt;BW(3,3,20)</filterID><methodID>L2-AIC-GRID</methodID><horizontalSlowness><value>23.39755515547622</value></horizontalSlowness><backazimuth><value>106.98026386366702</value></backazimuth><phaseHint>S</phaseHint><evaluationMode>automatic</evaluationMode><comment><text>2674.7819573323454</text><id>DFX:rectilinearity</id></comment><comment><text>de.gempa.tb1.Pick/20250413121929.270335.131107</text><id>RefPickID</id></comment><comment><text>12.290920313115924</text><id>SNR</id></comment></pick><pick publicID="de.gempa.tb1.Pick/20250413121951.514287.131122"><time><value>2025-04-13T12:19:44.688393Z</value></time><waveformID networkCode="CX" stationCode="PB06" channelCode="HHN"/><filterID>ITAPER(2)&gt;&gt;BW(3,3,20)</filterID><methodID>L2-AIC-GRID</methodID><horizontalSlowness><value>20.744929376820103</value></horizontalSlowness><backazimuth><value>293.73499879348316</value></backazimuth><phaseHint>S</phaseHint><evaluationMode>automatic</evaluationMode><comment><text>679.7231462554909</text><id>DFX:rectilinearity</id></comment><comment><text>de.gempa.tb1.Pick/20250413121926.499932.131105</text><id>RefPickID</id></comment><comment><text>14.900295960907249</text><id>SNR</id></comment></pick><pick publicID="de.gempa.tb1.Pick/20250413122002.504661.131126"><time><value>2025-04-13T12:19:52.978393Z</value></time><waveformID networkCode="CX" stationCode="PB15" channelCode="HHN"/><filterID>ITAPER(2)&gt;&gt;BW(3,3,20)</filterID><methodID>L2-AIC-GRID</methodID><horizontalSlowness><value>20.568998425278537</value></horizontalSlowness><backazimuth><value>101.21904904085933</value></backazimuth><phaseHint>S</phaseHint><evaluationMode>automatic</evaluationMode><comment><text>5201.492169828694</text><id>DFX:rectilinearity</id></comment><comment><text>de.gempa.tb1.Pick/20250413121931.668066.131109</text><id>RefPickID</id></comment><comment><text>14.698901913437087</text><id>SNR</id></comment></pick><pick publicID="de.gempa.tb1.Pick/20250413122006.590619.131127"><time><value>2025-04-13T12:19:56.63Z</value></time><waveformID networkCode="CX" stationCode="PSGCX" channelCode="HHN"/><filterID>ITAPER(2)&gt;&gt;BW(3,3,20)</filterID><methodID>L2-AIC-GRID</methodID><horizontalSlowness><value>22.14416693698362</value></horizontalSlowness><backazimuth><value>81.4077465863003</value></backazimuth><phaseHint>S</phaseHint><evaluationMode>automatic</evaluationMode><comment><text>150.63333941726378</text><id>DFX:rectilinearity</id></comment><comment><text>de.gempa.tb1.Pick/20250413121937.522723.131111</text><id>RefPickID</id></comment><comment><text>10.554500083183164</text><id>SNR</id></comment></pick><pick publicID="de.gempa.tb1.Pick/20250413122012.642916.131129"><time><value>2025-04-13T12:20:05.2Z</value></time><waveformID networkCode="CX" stationCode="PB19" channelCode="HHN"/><filterID>ITAPER(2)&gt;&gt;BW(3,3,20)</filterID><methodID>L2-AIC-GRID</methodID><horizontalSlowness><value>18.115388183417554</value></horizontalSlowness><backazimuth><value>49.27477098303788</value></backazimuth><phaseHint>S</phaseHint><evaluationMode>automatic</evaluationMode><comment><text>48.01847053027628</text><id>DFX:rectilinearity</id></comment><comment><text>de.gempa.tb1.Pick/20250413121938.540355.131113</text><id>RefPickID</id></comment><comment><text>11.910644842702746</text><id>SNR</id></comment></pick><pick publicID="de.gempa.tb1.Pick/20250413122021.171402.131130"><time><value>2025-04-13T12:19:17.548394Z</value></time><waveformID networkCode="CX" stationCode="PB07" channelCode="HHZ"/><filterID>ITAPER(4)&gt;&gt;BW(4,4,20)</filterID><methodID>AIC</methodID><horizontalSlowness><value>14.739316873075182</value></horizontalSlowness><backazimuth><value>100.03413158590674</value></backazimuth><phaseHint>P</phaseHint><evaluationMode>automatic</evaluationMode><comment><text>1232.148667465191</text><id>DFX:rectilinearity</id></comment><comment><text>313.8560702332113</text><id>SNR</id></comment></pick><origin publicID="de.gempa.tb1.Origin/20250413122021.314841.109594"><time><value>2025-04-13T12:18:50.426968Z</value><uncertainty>0.7883599996566772</uncertainty></time><latitude><value>-21.334304809570312</value><uncertainty>3.280240535736084</uncertainty></latitude><longitude><value>-68.5306625366211</value><uncertainty>12.584115028381348</uncertainty></longitude><depth><value>140.3859100341797</value><uncertainty>12.638954162597656</uncertainty></depth><depthType>from location</depthType><methodID>LOCSAT</methodID><earthModelID>iasp91_scanloc</earthModelID><quality><associatedPhaseCount>17</associatedPhaseCount><usedPhaseCount>17</usedPhaseCount><associatedStationCount>10</associatedStationCount><usedStationCount>10</usedStationCount><depthPhaseCount>0</depthPhaseCount><standardError>0.5989630747195568</standardError><azimuthalGap>236.30816650390625</azimuthalGap><maximumDistance>2.652921676635742</maximumDistance><minimumDistance>0.8060723543167114</minimumDistance><medianDistance>1.5988463163375854</medianDistance></quality><uncertainty><minHorizontalUncertainty>5.465769290924072</minHorizontalUncertainty><maxHorizontalUncertainty>27.34153747558594</maxHorizontalUncertainty><azimuthMaxHorizontalUncertainty>80.49066162109375</azimuthMaxHorizontalUncertainty><preferredDescription>horizontal uncertainty</preferredDescription></uncertainty><evaluationMode>automatic</evaluationMode><evaluationStatus>confirmed</evaluationStatus><comment><text>0.09</text><id>mismatchScore</id></comment><comment><text>mismatchScore</text><id>scevalMethod</id></comment><arrival><pickID>de.gempa.tb1.Pick/20250413121918.637879.131097</pickID><phase>P</phase><azimuth>287.800537109375</azimuth><distance>0.9386321306228638</distance><timeResidual>-0.11924362182617188</timeResidual><timeUsed>true</timeUsed><horizontalSlownessUsed>false</horizontalSlownessUsed><backazimuthUsed>false</backazimuthUsed><weight>1</weight></arrival><arrival><pickID>de.gempa.tb1.Pick/20250413121919.840126.131099</pickID><phase>P</phase><azimuth>235.09019470214844</azimuth><distance>0.8060723543167114</distance><timeResidual>0.04592132568359375</timeResidual><timeUsed>true</timeUsed><horizontalSlownessUsed>false</horizontalSlownessUsed><backazimuthUsed>false</backazimuthUsed><weight>1</weight></arrival><arrival><pickID>de.gempa.tb1.Pick/20250413121922.676907.131101</pickID><phase>P</phase><azimuth>237.76710510253906</azimuth><distance>1.3407444953918457</distance><timeResidual>0.05214309692382812</timeResidual><timeUsed>true</timeUsed><horizontalSlownessUsed>false</horizontalSlownessUsed><backazimuthUsed>false</backazimuthUsed><weight>1</weight></arrival><arrival><pickID>de.gempa.tb1.Pick/20250413121923.5434.131103</pickID><phase>P</phase><azimuth>270.40582275390625</azimuth><distance>1.2730662822723389</distance><timeResidual>0.3192863464355469</timeResidual><timeUsed>true</timeUsed><horizontalSlownessUsed>false</horizontalSlownessUsed><backazimuthUsed>false</backazimuthUsed><weight>1</weight></arrival><arrival><pickID>de.gempa.tb1.Pick/20250413121926.499932.131105</pickID><phase>P</phase><azimuth>215.10121154785156</azimuth><distance>1.6722108125686646</distance><timeResidual>-0.10622787475585938</timeResidual><timeUsed>true</timeUsed><horizontalSlownessUsed>false</horizontalSlownessUsed><backazimuthUsed>false</backazimuthUsed><weight>1</weight></arrival><arrival><pickID>de.gempa.tb1.Pick/20250413121929.270335.131107</pickID><phase>P</phase><azimuth>288.3491516113281</azimuth><distance>1.5988463163375854</distance><timeResidual>0.6137504577636719</timeResidual><timeUsed>true</timeUsed><horizontalSlownessUsed>false</horizontalSlownessUsed><backazimuthUsed>false</backazimuthUsed><weight>1</weight></arrival><arrival><pickID>de.gempa.tb1.Pick/20250413121931.668066.131109</pickID><phase>P</phase><azimuth>204.85589599609375</azimuth><distance>2.0583727359771729</distance><timeResidual>1.072275161743164</timeResidual><timeUsed>true</timeUsed><horizontalSlownessUsed>false</horizontalSlownessUsed><backazimuthUsed>false</backazimuthUsed><weight>1</weight></arrival><arrival><pickID>de.gempa.tb1.Pick/20250413121937.522723.131111</pickID><phase>P</phase><azimuth>318.896728515625</azimuth><distance>2.2838966846466064</distance><timeResidual>-0.3172492980957031</timeResidual><timeUsed>true</timeUsed><horizontalSlownessUsed>false</horizontalSlownessUsed><backazimuthUsed>false</backazimuthUsed><weight>1</weight></arrival><arrival><pickID>de.gempa.tb1.Pick/20250413121938.540355.131113</pickID><phase>P</phase><azimuth>195.20489501953125</azimuth><distance>2.652921676635742</distance><timeResidual>0.2694816589355469</timeResidual><timeUsed>true</timeUsed><horizontalSlownessUsed>false</horizontalSlownessUsed><backazimuthUsed>false</backazimuthUsed><weight>1</weight></arrival><arrival><pickID>de.gempa.tb1.Pick/20250413121940.781793.131115</pickID><phase>S</phase><azimuth>287.800537109375</azimuth><distance>0.9386321306228638</distance><timeResidual>0.40771484375</timeResidual><timeUsed>true</timeUsed><horizontalSlownessUsed>false</horizontalSlownessUsed><backazimuthUsed>false</backazimuthUsed><weight>1</weight></arrival><arrival><pickID>de.gempa.tb1.Pick/20250413121944.583611.131116</pickID><phase>S</phase><azimuth>237.76710510253906</azimuth><distance>1.3407444953918457</distance><timeResidual>-0.00063323974609375</timeResidual><timeUsed>true</timeUsed><horizontalSlownessUsed>false</horizontalSlownessUsed><backazimuthUsed>false</backazimuthUsed><weight>1</weight></arrival><arrival><pickID>de.gempa.tb1.Pick/20250413121950.39463.131120</pickID><phase>S</phase><azimuth>288.3491516113281</azimuth><distance>1.5988463163375854</distance><timeResidual>0.7421302795410156</timeResidual><timeUsed>true</timeUsed><horizontalSlownessUsed>false</horizontalSlownessUsed><backazimuthUsed>false</backazimuthUsed><weight>1</weight></arrival><arrival><pickID>de.gempa.tb1.Pick/20250413121951.514287.131122</pickID><phase>S</phase><azimuth>215.10121154785156</azimuth><distance>1.6722108125686646</distance><timeResidual>-0.4164314270019531</timeResidual><timeUsed>true</timeUsed><horizontalSlownessUsed>false</horizontalSlownessUsed><backazimuthUsed>false</backazimuthUsed><weight>1</weight></arrival><arrival><pickID>de.gempa.tb1.Pick/20250413122002.504661.131126</pickID><phase>S</phase><azimuth>204.85589599609375</azimuth><distance>2.0583727359771729</distance><timeResidual>-0.18091201782226562</timeResidual><timeUsed>true</timeUsed><horizontalSlownessUsed>false</horizontalSlownessUsed><backazimuthUsed>false</backazimuthUsed><weight>1</weight></arrival><arrival><pickID>de.gempa.tb1.Pick/20250413122006.590619.131127</pickID><phase>S</phase><azimuth>318.896728515625</azimuth><distance>2.2838966846466064</distance><timeResidual>-1.4708099365234375</timeResidual><timeUsed>true</timeUsed><horizontalSlownessUsed>false</horizontalSlownessUsed><backazimuthUsed>false</backazimuthUsed><weight>1</weight></arrival><arrival><pickID>de.gempa.tb1.Pick/20250413122012.642916.131129</pickID><phase>S</phase><azimuth>195.20489501953125</azimuth><distance>2.652921676635742</distance><timeResidual>-1.0742034912109375</timeResidual><timeUsed>true</timeUsed><horizontalSlownessUsed>false</horizontalSlownessUsed><backazimuthUsed>false</backazimuthUsed><weight>1</weight></arrival><arrival><pickID>de.gempa.tb1.Pick/20250413122021.171402.131130</pickID><phase>P</phase><azimuth>252.5632019042969</azimuth><distance>1.321071982383728</distance><timeResidual>0.16288185119628906</timeResidual><timeUsed>true</timeUsed><horizontalSlownessUsed>false</horizontalSlownessUsed><backazimuthUsed>false</backazimuthUsed><weight>1</weight></arrival><magnitude publicID="de.gempa.tb1.Magnitude/20250413122030.939964.355963"><magnitude><value>2.611812395171466</value></magnitude><type>M</type><methodID>weighted average</methodID><stationCount>7</stationCount></magnitude></origin><event publicID="gempa2025hhiw"><preferredOriginID>de.gempa.tb1.Origin/20250413122021.314841.109594</preferredOriginID><preferredMagnitudeID>de.gempa.tb1.Magnitude/20250413122030.939964.355963</preferredMagnitudeID><description><text>Chile-Bolivia Border Region</text><type>region name</type></description><originReference>de.gempa.tb1.Origin/20250413122021.314841.109594</originReference></event></EventParameters></seiscomp>