<?xml version="1.0" encoding="UTF-8"?>
<seiscomp xmlns="http://geofon.gfz-potsdam.de/ns/seiscomp3-schema/0.13" version="0.13"><EventParameters><pick publicID="de.gempa.tb1.Pick/20250412163019.33245.125246"><time><value>2025-04-12T16:30:12.060001Z</value></time><waveformID networkCode="CX" stationCode="PB09" channelCode="HHZ"/><filterID>ITAPER(4)&gt;&gt;BW(4,4,20)</filterID><methodID>AIC</methodID><horizontalSlowness><value>17.59251858234915</value></horizontalSlowness><backazimuth><value>316.65205468821785</value></backazimuth><phaseHint>P</phaseHint><evaluationMode>automatic</evaluationMode><comment><text>9.849814835019332</text><id>DFX:rectilinearity</id></comment><comment><text>63.62234193431664</text><id>SNR</id></comment></pick><pick publicID="de.gempa.tb1.Pick/20250412163019.470309.125248"><time><value>2025-04-12T16:30:14.818393Z</value></time><waveformID networkCode="CX" stationCode="PB03" channelCode="HHZ"/><filterID>ITAPER(4)&gt;&gt;BW(4,4,20)</filterID><methodID>AIC</methodID><horizontalSlowness><value>12.080590834488516</value></horizontalSlowness><backazimuth><value>199.4682341357782</value></backazimuth><phaseHint>P</phaseHint><evaluationMode>automatic</evaluationMode><comment><text>8.022361013889729</text><id>DFX:rectilinearity</id></comment><comment><text>37.11947114662025</text><id>SNR</id></comment></pick><pick publicID="de.gempa.tb1.Pick/20250412163022.062974.125250"><time><value>2025-04-12T16:30:15.178393Z</value></time><waveformID networkCode="CX" stationCode="PB06" channelCode="HHZ"/><filterID>ITAPER(4)&gt;&gt;BW(4,4,20)</filterID><methodID>AIC</methodID><horizontalSlowness><value>20.639411403967216</value></horizontalSlowness><backazimuth><value>287.86683544548055</value></backazimuth><phaseHint>P</phaseHint><evaluationMode>automatic</evaluationMode><comment><text>76.67949464683227</text><id>DFX:rectilinearity</id></comment><comment><text>10.835157613665181</text><id>SNR</id></comment></pick><pick publicID="de.gempa.tb1.Pick/20250412163022.541422.125252"><time><value>2025-04-12T16:30:16.858393Z</value></time><waveformID networkCode="CX" stationCode="PB07" channelCode="HHZ"/><filterID>ITAPER(4)&gt;&gt;BW(4,4,20)</filterID><methodID>AIC</methodID><horizontalSlowness><value>21.915397278648392</value></horizontalSlowness><backazimuth><value>311.54962427210376</value></backazimuth><phaseHint>P</phaseHint><evaluationMode>automatic</evaluationMode><comment><text>188.24741354897242</text><id>DFX:rectilinearity</id></comment><comment><text>28.324335246663235</text><id>SNR</id></comment></pick><pick publicID="de.gempa.tb1.Pick/20250412163026.722402.125254"><time><value>2025-04-12T16:30:18.328393Z</value></time><waveformID networkCode="CX" stationCode="PB01" channelCode="HHZ"/><filterID>ITAPER(4)&gt;&gt;BW(4,4,20)</filterID><methodID>AIC</methodID><horizontalSlowness><value>20.33857526131163</value></horizontalSlowness><backazimuth><value>224.8005649211641</value></backazimuth><phaseHint>P</phaseHint><evaluationMode>automatic</evaluationMode><comment><text>22.14666210030391</text><id>DFX:rectilinearity</id></comment><comment><text>39.64990761191268</text><id>SNR</id></comment></pick><pick publicID="de.gempa.tb1.Pick/20250412163027.457468.125256"><time><value>2025-04-12T16:30:19.288394Z</value></time><waveformID networkCode="CX" stationCode="PB02" channelCode="HHZ"/><filterID>ITAPER(4)&gt;&gt;BW(4,4,20)</filterID><methodID>AIC</methodID><horizontalSlowness><value>13.456196382824446</value></horizontalSlowness><backazimuth><value>294.85722400961674</value></backazimuth><phaseHint>P</phaseHint><evaluationMode>automatic</evaluationMode><comment><text>33.13326283746585</text><id>DFX:rectilinearity</id></comment><comment><text>11.741644399353577</text><id>SNR</id></comment></pick><pick publicID="de.gempa.tb1.Pick/20250412163032.468675.125260"><time><value>2025-04-12T16:30:25.950001Z</value></time><waveformID networkCode="CX" stationCode="PB09" channelCode="HHN"/><filterID>ITAPER(2)&gt;&gt;BW(3,3,20)</filterID><methodID>L2-AIC-GRID</methodID><horizontalSlowness><value>10.658499441995364</value></horizontalSlowness><backazimuth><value>298.9927408122465</value></backazimuth><phaseHint>S</phaseHint><evaluationMode>automatic</evaluationMode><comment><text>350.0712691443351</text><id>DFX:rectilinearity</id></comment><comment><text>de.gempa.tb1.Pick/20250412163019.33245.125246</text><id>RefPickID</id></comment><comment><text>5.795291590900022</text><id>SNR</id></comment></pick><pick publicID="de.gempa.tb1.Pick/20250412163033.643855.125261"><time><value>2025-04-12T16:30:25.69Z</value></time><waveformID networkCode="CX" stationCode="PB19" channelCode="HHZ"/><filterID>ITAPER(4)&gt;&gt;BW(4,4,20)</filterID><methodID>AIC</methodID><horizontalSlowness><value>23.175809058234563</value></horizontalSlowness><backazimuth><value>200.81241261394158</value></backazimuth><phaseHint>P</phaseHint><evaluationMode>automatic</evaluationMode><comment><text>36.68175028978017</text><id>DFX:rectilinearity</id></comment><comment><text>7.56574483247438</text><id>SNR</id></comment></pick><pick publicID="de.gempa.tb1.Pick/20250412163038.575696.125263"><time><value>2025-04-12T16:30:31.048393Z</value></time><waveformID networkCode="CX" stationCode="PB03" channelCode="HHN"/><filterID>ITAPER(2)&gt;&gt;BW(3,3,20)</filterID><methodID>L2-AIC-GRID</methodID><horizontalSlowness><value>15.423732121746834</value></horizontalSlowness><backazimuth><value>310.56284357160393</value></backazimuth><phaseHint>S</phaseHint><evaluationMode>automatic</evaluationMode><comment><text>91.94603638780045</text><id>DFX:rectilinearity</id></comment><comment><text>de.gempa.tb1.Pick/20250412163019.470309.125248</text><id>RefPickID</id></comment><comment><text>13.807085034862293</text><id>SNR</id></comment></pick><pick publicID="de.gempa.tb1.Pick/20250412163039.695213.125264"><time><value>2025-04-12T16:30:31.998393Z</value></time><waveformID networkCode="CX" stationCode="PB06" channelCode="HHN"/><filterID>ITAPER(2)&gt;&gt;BW(3,3,20)</filterID><methodID>L2-AIC-GRID</methodID><horizontalSlowness><value>21.985152215688743</value></horizontalSlowness><backazimuth><value>169.23763679941706</value></backazimuth><phaseHint>S</phaseHint><evaluationMode>automatic</evaluationMode><comment><text>224.8903345775887</text><id>DFX:rectilinearity</id></comment><comment><text>de.gempa.tb1.Pick/20250412163022.062974.125250</text><id>RefPickID</id></comment><comment><text>15.689826643434648</text><id>SNR</id></comment></pick><pick publicID="de.gempa.tb1.Pick/20250412163048.555745.125269"><time><value>2025-04-12T16:30:38.498394Z</value></time><waveformID networkCode="CX" stationCode="PB02" channelCode="HHN"/><filterID>ITAPER(2)&gt;&gt;BW(3,3,20)</filterID><methodID>L2-AIC-GRID</methodID><horizontalSlowness><value>11.32339628588444</value></horizontalSlowness><backazimuth><value>358.8079427572186</value></backazimuth><phaseHint>S</phaseHint><evaluationMode>automatic</evaluationMode><comment><text>83.50361087878103</text><id>DFX:rectilinearity</id></comment><comment><text>de.gempa.tb1.Pick/20250412163027.457468.125256</text><id>RefPickID</id></comment><comment><text>6.23431361890522</text><id>SNR</id></comment></pick><pick publicID="de.gempa.tb1.Pick/20250412163057.664573.125273"><time><value>2025-04-12T16:30:49.48Z</value></time><waveformID networkCode="CX" stationCode="PB19" channelCode="HHN"/><filterID>ITAPER(2)&gt;&gt;BW(3,3,20)</filterID><methodID>L2-AIC-GRID</methodID><horizontalSlowness><value>23.46266779974671</value></horizontalSlowness><backazimuth><value>98.37718823368064</value></backazimuth><phaseHint>S</phaseHint><evaluationMode>automatic</evaluationMode><comment><text>123.39663972908907</text><id>DFX:rectilinearity</id></comment><comment><text>de.gempa.tb1.Pick/20250412163033.643855.125261</text><id>RefPickID</id></comment><comment><text>13.71458261508401</text><id>SNR</id></comment></pick><pick publicID="de.gempa.tb1.Pick/20250412163114.640893.125275"><time><value>2025-04-12T16:30:34.438393Z</value></time><waveformID networkCode="CX" stationCode="PB07" channelCode="HHN"/><filterID>ITAPER(2)&gt;&gt;BW(3,3,20)</filterID><methodID>L2-AIC-GRID</methodID><horizontalSlowness><value>23.45671962438915</value></horizontalSlowness><backazimuth><value>185.79007888452216</value></backazimuth><phaseHint>S</phaseHint><evaluationMode>automatic</evaluationMode><comment><text>2345.6442031123047</text><id>DFX:rectilinearity</id></comment><comment><text>de.gempa.tb1.Pick/20250412163022.541422.125252</text><id>RefPickID</id></comment><comment><text>7.222751445493275</text><id>SNR</id></comment></pick><origin publicID="de.gempa.tb1.Origin/20250412163115.254657.87062"><time><value>2025-04-12T16:29:53.967481Z</value><uncertainty>0.8444005846977234</uncertainty></time><latitude><value>-22.117786407470703</value><uncertainty>3.5243372917175293</uncertainty></latitude><longitude><value>-68.79692077636719</value><uncertainty>9.639122009277344</uncertainty></longitude><depth><value>119.33768463134766</value><uncertainty>8.857895851135254</uncertainty></depth><depthType>from location</depthType><methodID>LOCSAT</methodID><earthModelID>iasp91_scanloc</earthModelID><quality><associatedPhaseCount>13</associatedPhaseCount><usedPhaseCount>13</usedPhaseCount><associatedStationCount>7</associatedStationCount><usedStationCount>7</usedStationCount><depthPhaseCount>0</depthPhaseCount><standardError>0.17897167308636852</standardError><azimuthalGap>225.3841247558594</azimuthalGap><maximumDistance>1.8359026908874512</maximumDistance><minimumDistance>0.5224576592445374</minimumDistance><medianDistance>1.0837364196777344</medianDistance></quality><uncertainty><minHorizontalUncertainty>7.006903648376465</minHorizontalUncertainty><maxHorizontalUncertainty>20.857471466064453</maxHorizontalUncertainty><azimuthMaxHorizontalUncertainty>81.7262191772461</azimuthMaxHorizontalUncertainty><preferredDescription>horizontal uncertainty</preferredDescription></uncertainty><evaluationMode>automatic</evaluationMode><evaluationStatus>confirmed</evaluationStatus><comment><text>0.05</text><id>mismatchScore</id></comment><comment><text>mismatchScore</text><id>scevalMethod</id></comment><arrival><pickID>de.gempa.tb1.Pick/20250412163019.33245.125246</pickID><phase>P</phase><azimuth>307.66632080078125</azimuth><distance>0.5224576592445374</distance><timeResidual>0.04957199096679688</timeResidual><timeUsed>true</timeUsed><horizontalSlownessUsed>false</horizontalSlownessUsed><backazimuthUsed>false</backazimuthUsed><weight>1</weight></arrival><arrival><pickID>de.gempa.tb1.Pick/20250412163019.470309.125248</pickID><phase>P</phase><azimuth>274.26885986328125</azimuth><distance>0.8895450830459595</distance><timeResidual>-0.10979080200195312</timeResidual><timeUsed>true</timeUsed><horizontalSlownessUsed>false</horizontalSlownessUsed><backazimuthUsed>false</backazimuthUsed><weight>1</weight></arrival><arrival><pickID>de.gempa.tb1.Pick/20250412163022.062974.125250</pickID><phase>P</phase><azimuth>230.6371154785156</azimuth><distance>0.9255926609039307</distance><timeResidual>-0.08318519592285156</timeResidual><timeUsed>true</timeUsed><horizontalSlownessUsed>false</horizontalSlownessUsed><backazimuthUsed>false</backazimuthUsed><weight>1</weight></arrival><arrival><pickID>de.gempa.tb1.Pick/20250412163022.541422.125252</pickID><phase>P</phase><azimuth>290.8450622558594</azimuth><distance>1.0837364196777344</distance><timeResidual>0.03296852111816406</timeResidual><timeUsed>true</timeUsed><horizontalSlownessUsed>false</horizontalSlownessUsed><backazimuthUsed>false</backazimuthUsed><weight>1</weight></arrival><arrival><pickID>de.gempa.tb1.Pick/20250412163026.722402.125254</pickID><phase>P</phase><azimuth>328.8668518066406</azimuth><distance>1.2475475072860718</distance><timeResidual>-0.2311267852783203</timeResidual><timeUsed>true</timeUsed><horizontalSlownessUsed>false</horizontalSlownessUsed><backazimuthUsed>false</backazimuthUsed><weight>1</weight></arrival><arrival><pickID>de.gempa.tb1.Pick/20250412163027.457468.125256</pickID><phase>P</phase><azimuth>307.6459655761719</azimuth><distance>1.2942893505096436</distance><timeResidual>0.2191905975341797</timeResidual><timeUsed>true</timeUsed><horizontalSlownessUsed>false</horizontalSlownessUsed><backazimuthUsed>false</backazimuthUsed><weight>1</weight></arrival><arrival><pickID>de.gempa.tb1.Pick/20250412163032.468675.125260</pickID><phase>S</phase><azimuth>307.66632080078125</azimuth><distance>0.5224576592445374</distance><timeResidual>0.026521682739257809</timeResidual><timeUsed>true</timeUsed><horizontalSlownessUsed>false</horizontalSlownessUsed><backazimuthUsed>false</backazimuthUsed><weight>1</weight></arrival><arrival><pickID>de.gempa.tb1.Pick/20250412163033.643855.125261</pickID><phase>P</phase><azimuth>194.2509765625</azimuth><distance>1.8359026908874512</distance><timeResidual>0.3031044006347656</timeResidual><timeUsed>true</timeUsed><horizontalSlownessUsed>false</horizontalSlownessUsed><backazimuthUsed>false</backazimuthUsed><weight>1</weight></arrival><arrival><pickID>de.gempa.tb1.Pick/20250412163038.575696.125263</pickID><phase>S</phase><azimuth>274.26885986328125</azimuth><distance>0.8895450830459595</distance><timeResidual>-0.07389640808105469</timeResidual><timeUsed>true</timeUsed><horizontalSlownessUsed>false</horizontalSlownessUsed><backazimuthUsed>false</backazimuthUsed><weight>1</weight></arrival><arrival><pickID>de.gempa.tb1.Pick/20250412163039.695213.125264</pickID><phase>S</phase><azimuth>230.6371154785156</azimuth><distance>0.9255926609039307</distance><timeResidual>0.28092002868652344</timeResidual><timeUsed>true</timeUsed><horizontalSlownessUsed>false</horizontalSlownessUsed><backazimuthUsed>false</backazimuthUsed><weight>1</weight></arrival><arrival><pickID>de.gempa.tb1.Pick/20250412163048.555745.125269</pickID><phase>S</phase><azimuth>307.6459655761719</azimuth><distance>1.2942893505096436</distance><timeResidual>-0.013738632202148438</timeResidual><timeUsed>true</timeUsed><horizontalSlownessUsed>false</horizontalSlownessUsed><backazimuthUsed>false</backazimuthUsed><weight>1</weight></arrival><arrival><pickID>de.gempa.tb1.Pick/20250412163057.664573.125273</pickID><phase>S</phase><azimuth>194.2509765625</azimuth><distance>1.8359026908874512</distance><timeResidual>-0.33257102966308594</timeResidual><timeUsed>true</timeUsed><horizontalSlownessUsed>false</horizontalSlownessUsed><backazimuthUsed>false</backazimuthUsed><weight>1</weight></arrival><arrival><pickID>de.gempa.tb1.Pick/20250412163114.640893.125275</pickID><phase>S</phase><azimuth>290.8450622558594</azimuth><distance>1.0837364196777344</distance><timeResidual>-0.06836891174316406</timeResidual><timeUsed>true</timeUsed><horizontalSlownessUsed>false</horizontalSlownessUsed><backazimuthUsed>false</backazimuthUsed><weight>1</weight></arrival><magnitude publicID="de.gempa.tb1.Magnitude/20250412163125.939129.252770"><magnitude><value>2.37917877450541</value></magnitude><type>M</type><methodID>weighted average</methodID><stationCount>3</stationCount></magnitude></origin><event publicID="gempa2025hfvf"><preferredOriginID>de.gempa.tb1.Origin/20250412163115.254657.87062</preferredOriginID><preferredMagnitudeID>de.gempa.tb1.Magnitude/20250412163125.939129.252770</preferredMagnitudeID><description><text>Northern Chile</text><type>region name</type></description><originReference>de.gempa.tb1.Origin/20250412163115.254657.87062</originReference></event></EventParameters></seiscomp>