<?xml version="1.0" encoding="UTF-8"?>
<seiscomp xmlns="http://geofon.gfz-potsdam.de/ns/seiscomp3-schema/0.13" version="0.13"><EventParameters><pick publicID="de.gempa.tb1.Pick/20250414180000.576311.139925"><time><value>2025-04-14T17:59:54.058393Z</value></time><waveformID networkCode="CX" stationCode="PB02" channelCode="HHZ"/><filterID>ITAPER(4)&gt;&gt;BW(4,4,20)</filterID><methodID>AIC</methodID><horizontalSlowness><value>2.2050723957572131</value></horizontalSlowness><backazimuth><value>262.2762887659692</value></backazimuth><phaseHint>P</phaseHint><evaluationMode>automatic</evaluationMode><comment><text>127.98792881536416</text><id>DFX:rectilinearity</id></comment><comment><text>242.8300902597844</text><id>SNR</id></comment></pick><pick publicID="de.gempa.tb1.Pick/20250414180004.576342.139927"><time><value>2025-04-14T17:59:57.938393Z</value></time><waveformID networkCode="CX" stationCode="PB01" channelCode="HHZ"/><filterID>ITAPER(4)&gt;&gt;BW(4,4,20)</filterID><methodID>AIC</methodID><horizontalSlowness><value>15.68931510158708</value></horizontalSlowness><backazimuth><value>234.67454508386027</value></backazimuth><phaseHint>P</phaseHint><evaluationMode>automatic</evaluationMode><comment><text>7.397857400519067</text><id>DFX:rectilinearity</id></comment><comment><text>48.37354847798435</text><id>SNR</id></comment></pick><pick publicID="de.gempa.tb1.Pick/20250414180005.482878.139929"><time><value>2025-04-14T17:59:58.639999Z</value></time><waveformID networkCode="CX" stationCode="PATCX" channelCode="HHZ"/><filterID>ITAPER(4)&gt;&gt;BW(4,4,20)</filterID><methodID>AIC</methodID><horizontalSlowness><value>22.74948142635404</value></horizontalSlowness><backazimuth><value>58.63927106459117</value></backazimuth><phaseHint>P</phaseHint><evaluationMode>automatic</evaluationMode><comment><text>83.83186798347593</text><id>DFX:rectilinearity</id></comment><comment><text>7.989246308321737</text><id>SNR</id></comment></pick><pick publicID="de.gempa.tb1.Pick/20250414180005.60611.139931"><time><value>2025-04-14T17:59:59.248393Z</value></time><waveformID networkCode="CX" stationCode="PB02" channelCode="HHN"/><filterID>ITAPER(2)&gt;&gt;BW(3,3,20)</filterID><methodID>L2-AIC-GRID</methodID><horizontalSlowness><value>23.58388869515764</value></horizontalSlowness><backazimuth><value>100.95928068489945</value></backazimuth><phaseHint>S</phaseHint><evaluationMode>automatic</evaluationMode><comment><text>288.042994974283</text><id>DFX:rectilinearity</id></comment><comment><text>de.gempa.tb1.Pick/20250414180000.576311.139925</text><id>RefPickID</id></comment><comment><text>8.042078889874777</text><id>SNR</id></comment></pick><pick publicID="de.gempa.tb1.Pick/20250414180005.657176.139932"><time><value>2025-04-14T18:00:00.508393Z</value></time><waveformID networkCode="CX" stationCode="PB03" channelCode="HHZ"/><filterID>ITAPER(4)&gt;&gt;BW(4,4,20)</filterID><methodID>AIC</methodID><horizontalSlowness><value>11.685351648476468</value></horizontalSlowness><backazimuth><value>348.19499211109644</value></backazimuth><phaseHint>P</phaseHint><evaluationMode>automatic</evaluationMode><comment><text>18.512306555668648</text><id>DFX:rectilinearity</id></comment><comment><text>49.78190887009411</text><id>SNR</id></comment></pick><pick publicID="de.gempa.tb1.Pick/20250414180015.464023.139936"><time><value>2025-04-14T18:00:07.439999Z</value></time><waveformID networkCode="CX" stationCode="PATCX" channelCode="HHN"/><filterID>ITAPER(2)&gt;&gt;BW(3,3,20)</filterID><methodID>L2-AIC-GRID</methodID><horizontalSlowness><value>21.92242122117185</value></horizontalSlowness><backazimuth><value>34.78052152643454</value></backazimuth><phaseHint>S</phaseHint><evaluationMode>automatic</evaluationMode><comment><text>117.71559957703032</text><id>DFX:rectilinearity</id></comment><comment><text>de.gempa.tb1.Pick/20250414180005.482878.139929</text><id>RefPickID</id></comment><comment><text>9.524339916422772</text><id>SNR</id></comment></pick><pick publicID="de.gempa.tb1.Pick/20250414180015.870282.139937"><time><value>2025-04-14T18:00:05.998393Z</value></time><waveformID networkCode="CX" stationCode="PB01" channelCode="HHN"/><filterID>ITAPER(2)&gt;&gt;BW(3,3,20)</filterID><methodID>L2-AIC-GRID</methodID><horizontalSlowness><value>19.51093509316058</value></horizontalSlowness><backazimuth><value>69.22395521878347</value></backazimuth><phaseHint>S</phaseHint><evaluationMode>automatic</evaluationMode><comment><text>214.69159046897633</text><id>DFX:rectilinearity</id></comment><comment><text>de.gempa.tb1.Pick/20250414180004.576342.139927</text><id>RefPickID</id></comment><comment><text>22.405234995153723</text><id>SNR</id></comment></pick><pick publicID="de.gempa.tb1.Pick/20250414180017.552937.139938"><time><value>2025-04-14T18:00:01.82Z</value></time><waveformID networkCode="CX" stationCode="PB09" channelCode="HHZ"/><filterID>ITAPER(4)&gt;&gt;BW(4,4,20)</filterID><methodID>AIC</methodID><horizontalSlowness><value>7.4202363689254</value></horizontalSlowness><backazimuth><value>312.76089867930506</value></backazimuth><phaseHint>P</phaseHint><evaluationMode>automatic</evaluationMode><comment><text>8.193803632133076</text><id>DFX:rectilinearity</id></comment><comment><text>60.71707654174865</text><id>SNR</id></comment></pick><pick publicID="de.gempa.tb1.Pick/20250414180017.695214.139940"><time><value>2025-04-14T18:00:10.358393Z</value></time><waveformID networkCode="CX" stationCode="PB03" channelCode="HHN"/><filterID>ITAPER(2)&gt;&gt;BW(3,3,20)</filterID><methodID>L2-AIC-GRID</methodID><horizontalSlowness><value>20.408873085972878</value></horizontalSlowness><backazimuth><value>239.76283515461353</value></backazimuth><phaseHint>S</phaseHint><evaluationMode>automatic</evaluationMode><comment><text>14.667404579613315</text><id>DFX:rectilinearity</id></comment><comment><text>de.gempa.tb1.Pick/20250414180005.657176.139932</text><id>RefPickID</id></comment><comment><text>5.300529742501578</text><id>SNR</id></comment></pick><pick publicID="de.gempa.tb1.Pick/20250414180021.665107.139941"><time><value>2025-04-14T18:00:15.95Z</value></time><waveformID networkCode="CX" stationCode="PSGCX" channelCode="HHZ"/><filterID>ITAPER(4)&gt;&gt;BW(4,4,20)</filterID><methodID>AIC</methodID><horizontalSlowness><value>16.319379742280368</value></horizontalSlowness><backazimuth><value>70.02133348981465</value></backazimuth><phaseHint>P</phaseHint><evaluationMode>automatic</evaluationMode><comment><text>12.35378207504186</text><id>DFX:rectilinearity</id></comment><comment><text>6.702807803725949</text><id>SNR</id></comment></pick><pick publicID="de.gempa.tb1.Pick/20250414180032.184346.139945"><time><value>2025-04-14T17:59:56.238393Z</value></time><waveformID networkCode="CX" stationCode="PB07" channelCode="HHZ"/><filterID>ITAPER(4)&gt;&gt;BW(4,4,20)</filterID><methodID>AIC</methodID><horizontalSlowness><value>22.195777055973451</value></horizontalSlowness><backazimuth><value>281.4057692670179</value></backazimuth><phaseHint>P</phaseHint><evaluationMode>automatic</evaluationMode><comment><text>109.01227442656891</text><id>DFX:rectilinearity</id></comment><comment><text>37.61516390102954</text><id>SNR</id></comment></pick><pick publicID="de.gempa.tb1.Pick/20250414180032.748535.139948"><time><value>2025-04-14T18:00:12.64Z</value></time><waveformID networkCode="CX" stationCode="PB09" channelCode="HHN"/><filterID>ITAPER(2)&gt;&gt;BW(3,3,20)</filterID><methodID>L2-AIC-GRID</methodID><horizontalSlowness><value>14.951064053533017</value></horizontalSlowness><backazimuth><value>319.99789359572537</value></backazimuth><phaseHint>S</phaseHint><evaluationMode>automatic</evaluationMode><comment><text>29.219300874199075</text><id>DFX:rectilinearity</id></comment><comment><text>de.gempa.tb1.Pick/20250414180017.552937.139938</text><id>RefPickID</id></comment><comment><text>5.279572732744615</text><id>SNR</id></comment></pick><pick publicID="de.gempa.tb1.Pick/20250414180035.980417.139949"><time><value>2025-04-14T18:00:02.948393Z</value></time><waveformID networkCode="CX" stationCode="PB07" channelCode="HHN"/><filterID>ITAPER(2)&gt;&gt;BW(3,3,20)</filterID><methodID>L2-AIC-GRID</methodID><horizontalSlowness><value>21.938482082083624</value></horizontalSlowness><backazimuth><value>106.3882087295311</value></backazimuth><phaseHint>S</phaseHint><evaluationMode>automatic</evaluationMode><comment><text>3181.6060282926187</text><id>DFX:rectilinearity</id></comment><comment><text>de.gempa.tb1.Pick/20250414180032.184346.139945</text><id>RefPickID</id></comment><comment><text>10.541274195199195</text><id>SNR</id></comment></pick><origin publicID="de.gempa.tb1.Origin/20250414180035.990496.145971"><time><value>2025-04-14T17:59:47.036413Z</value><uncertainty>0.494195967912674</uncertainty></time><latitude><value>-21.36241912841797</value><uncertainty>2.2854716777801514</uncertainty></latitude><longitude><value>-69.92697143554688</value><uncertainty>4.036242961883545</uncertainty></longitude><depth><value>42.922176361083984</value><uncertainty>4.958450317382812</uncertainty></depth><depthType>from location</depthType><methodID>LOCSAT</methodID><earthModelID>iasp91_scanloc</earthModelID><quality><associatedPhaseCount>13</associatedPhaseCount><usedPhaseCount>13</usedPhaseCount><associatedStationCount>7</associatedStationCount><usedStationCount>7</usedStationCount><depthPhaseCount>0</depthPhaseCount><standardError>0.36142453235740535</standardError><azimuthalGap>164.5596923828125</azimuthalGap><maximumDistance>1.7658957242965698</maximumDistance><minimumDistance>0.05134768784046173</minimumDistance><medianDistance>0.5788249969482422</medianDistance></quality><uncertainty><minHorizontalUncertainty>4.583579540252686</minHorizontalUncertainty><maxHorizontalUncertainty>8.825436592102051</maxHorizontalUncertainty><azimuthMaxHorizontalUncertainty>76.7198257446289</azimuthMaxHorizontalUncertainty><preferredDescription>horizontal uncertainty</preferredDescription></uncertainty><evaluationMode>automatic</evaluationMode><evaluationStatus>confirmed</evaluationStatus><comment><text>0.05</text><id>mismatchScore</id></comment><comment><text>mismatchScore</text><id>scevalMethod</id></comment><arrival><pickID>de.gempa.tb1.Pick/20250414180000.576311.139925</pickID><phase>P</phase><azimuth>34.18775939941406</azimuth><distance>0.05134768784046173</distance><timeResidual>0.2133922576904297</timeResidual><timeUsed>true</timeUsed><horizontalSlownessUsed>false</horizontalSlownessUsed><backazimuthUsed>false</backazimuthUsed><weight>1</weight></arrival><arrival><pickID>de.gempa.tb1.Pick/20250414180004.576342.139927</pickID><phase>P</phase><azimuth>52.32798767089844</azimuth><distance>0.5187660455703735</distance><timeResidual>-0.21274662017822266</timeResidual><timeUsed>true</timeUsed><horizontalSlownessUsed>false</horizontalSlownessUsed><backazimuthUsed>false</backazimuthUsed><weight>1</weight></arrival><arrival><pickID>de.gempa.tb1.Pick/20250414180005.482878.139929</pickID><phase>P</phase><azimuth>338.5856018066406</azimuth><distance>0.5788249969482422</distance><timeResidual>-0.2950439453125</timeResidual><timeUsed>true</timeUsed><horizontalSlownessUsed>false</horizontalSlownessUsed><backazimuthUsed>false</backazimuthUsed><weight>1</weight></arrival><arrival><pickID>de.gempa.tb1.Pick/20250414180005.60611.139931</pickID><phase>S</phase><azimuth>34.18775939941406</azimuth><distance>0.05134768784046173</distance><timeResidual>0.3717184066772461</timeResidual><timeUsed>true</timeUsed><horizontalSlownessUsed>false</horizontalSlownessUsed><backazimuthUsed>false</backazimuthUsed><weight>1</weight></arrival><arrival><pickID>de.gempa.tb1.Pick/20250414180005.657176.139932</pickID><phase>P</phase><azimuth>166.7073211669922</azimuth><distance>0.7015901803970337</distance><timeResidual>-0.05597114562988281</timeResidual><timeUsed>true</timeUsed><horizontalSlownessUsed>false</horizontalSlownessUsed><backazimuthUsed>false</backazimuthUsed><weight>1</weight></arrival><arrival><pickID>de.gempa.tb1.Pick/20250414180015.464023.139936</pickID><phase>S</phase><azimuth>338.5856018066406</azimuth><distance>0.5788249969482422</distance><timeResidual>-0.4020090103149414</timeResidual><timeUsed>true</timeUsed><horizontalSlownessUsed>false</horizontalSlownessUsed><backazimuthUsed>false</backazimuthUsed><weight>1</weight></arrival><arrival><pickID>de.gempa.tb1.Pick/20250414180015.870282.139937</pickID><phase>S</phase><azimuth>52.32798767089844</azimuth><distance>0.5187660455703735</distance><timeResidual>-0.4476137161254883</timeResidual><timeUsed>true</timeUsed><horizontalSlownessUsed>false</horizontalSlownessUsed><backazimuthUsed>false</backazimuthUsed><weight>1</weight></arrival><arrival><pickID>de.gempa.tb1.Pick/20250414180017.552937.139938</pickID><phase>P</phase><azimuth>124.23345947265625</azimuth><distance>0.7700809836387634</distance><timeResidual>0.33068180084228516</timeResidual><timeUsed>true</timeUsed><horizontalSlownessUsed>false</horizontalSlownessUsed><backazimuthUsed>false</backazimuthUsed><weight>1</weight></arrival><arrival><pickID>de.gempa.tb1.Pick/20250414180017.695214.139940</pickID><phase>S</phase><azimuth>166.7073211669922</azimuth><distance>0.7015901803970337</distance><timeResidual>-0.3975200653076172</timeResidual><timeUsed>true</timeUsed><horizontalSlownessUsed>false</horizontalSlownessUsed><backazimuthUsed>false</backazimuthUsed><weight>1</weight></arrival><arrival><pickID>de.gempa.tb1.Pick/20250414180021.665107.139941</pickID><phase>P</phase><azimuth>353.990234375</azimuth><distance>1.7658957242965698</distance><timeResidual>0.8236675262451172</timeResidual><timeUsed>true</timeUsed><horizontalSlownessUsed>false</horizontalSlownessUsed><backazimuthUsed>false</backazimuthUsed><weight>1</weight></arrival><arrival><pickID>de.gempa.tb1.Pick/20250414180032.184346.139945</pickID><phase>P</phase><azimuth>174.02590942382812</azimuth><distance>0.3644481897354126</distance><timeResidual>-0.015026569366455078</timeResidual><timeUsed>true</timeUsed><horizontalSlownessUsed>false</horizontalSlownessUsed><backazimuthUsed>false</backazimuthUsed><weight>1</weight></arrival><arrival><pickID>de.gempa.tb1.Pick/20250414180032.748535.139948</pickID><phase>S</phase><azimuth>124.23345947265625</azimuth><distance>0.7700809836387634</distance><timeResidual>0.22653770446777344</timeResidual><timeUsed>true</timeUsed><horizontalSlownessUsed>false</horizontalSlownessUsed><backazimuthUsed>false</backazimuthUsed><weight>1</weight></arrival><arrival><pickID>de.gempa.tb1.Pick/20250414180035.980417.139949</pickID><phase>S</phase><azimuth>174.02590942382812</azimuth><distance>0.3644481897354126</distance><timeResidual>-0.1403179168701172</timeResidual><timeUsed>true</timeUsed><horizontalSlownessUsed>false</horizontalSlownessUsed><backazimuthUsed>false</backazimuthUsed><weight>1</weight></arrival><magnitude publicID="de.gempa.tb1.Magnitude/20250414180040.939089.524166"><magnitude><value>1.9063010646135323</value></magnitude><type>M</type><methodID>weighted average</methodID><stationCount>7</stationCount></magnitude></origin><event publicID="gempa2025hjqg"><preferredOriginID>de.gempa.tb1.Origin/20250414180035.990496.145971</preferredOriginID><preferredMagnitudeID>de.gempa.tb1.Magnitude/20250414180040.939089.524166</preferredMagnitudeID><description><text>Northern Chile</text><type>region name</type></description><originReference>de.gempa.tb1.Origin/20250414180035.990496.145971</originReference></event></EventParameters></seiscomp>