<?xml version="1.0" encoding="UTF-8"?>
<seiscomp xmlns="http://geofon.gfz-potsdam.de/ns/seiscomp3-schema/0.13" version="0.13"><EventParameters><pick publicID="de.gempa.tb1.Pick/20250413170549.575614.132562"><time><value>2025-04-13T17:05:45.528393Z</value></time><waveformID networkCode="CX" stationCode="PB03" channelCode="HHZ"/><filterID>ITAPER(4)&gt;&gt;BW(4,4,20)</filterID><methodID>AIC</methodID><horizontalSlowness><value>8.704050695535733</value></horizontalSlowness><backazimuth><value>91.21410220833647</value></backazimuth><phaseHint>P</phaseHint><evaluationMode>automatic</evaluationMode><comment><text>1864.8750435421075</text><id>DFX:rectilinearity</id></comment><comment><text>96.41436925772938</text><id>SNR</id></comment></pick><pick publicID="de.gempa.tb1.Pick/20250413170549.654048.132564"><time><value>2025-04-13T17:05:45.028393Z</value></time><waveformID networkCode="CX" stationCode="PB01" channelCode="HHZ"/><filterID>ITAPER(4)&gt;&gt;BW(4,4,20)</filterID><methodID>AIC</methodID><horizontalSlowness><value>23.290345833395996</value></horizontalSlowness><backazimuth><value>48.44440110016757</value></backazimuth><phaseHint>P</phaseHint><evaluationMode>automatic</evaluationMode><comment><text>214.0579369957183</text><id>DFX:rectilinearity</id></comment><comment><text>36.524207848051375</text><id>SNR</id></comment></pick><pick publicID="de.gempa.tb1.Pick/20250413170551.096543.132566"><time><value>2025-04-13T17:05:41.41Z</value></time><waveformID networkCode="CX" stationCode="PB09" channelCode="HHZ"/><filterID>ITAPER(4)&gt;&gt;BW(4,4,20)</filterID><methodID>AIC</methodID><horizontalSlowness><value>21.299390108253782</value></horizontalSlowness><backazimuth><value>264.74795708197183</value></backazimuth><phaseHint>P</phaseHint><evaluationMode>automatic</evaluationMode><comment><text>593.6198543906662</text><id>DFX:rectilinearity</id></comment><comment><text>93.70502844724602</text><id>SNR</id></comment></pick><pick publicID="de.gempa.tb1.Pick/20250413170551.664309.132568"><time><value>2025-04-13T17:05:47.148393Z</value></time><waveformID networkCode="CX" stationCode="PB02" channelCode="HHZ"/><filterID>ITAPER(4)&gt;&gt;BW(4,4,20)</filterID><methodID>AIC</methodID><horizontalSlowness><value>9.909128424288994</value></horizontalSlowness><backazimuth><value>55.58219581478311</value></backazimuth><phaseHint>P</phaseHint><evaluationMode>automatic</evaluationMode><comment><text>419.43232600920675</text><id>DFX:rectilinearity</id></comment><comment><text>27.019174995144624</text><id>SNR</id></comment></pick><pick publicID="de.gempa.tb1.Pick/20250413170553.607809.132570"><time><value>2025-04-13T17:05:47.838393Z</value></time><waveformID networkCode="CX" stationCode="PB06" channelCode="HHZ"/><filterID>ITAPER(4)&gt;&gt;BW(4,4,20)</filterID><methodID>AIC</methodID><horizontalSlowness><value>5.237324673308775</value></horizontalSlowness><backazimuth><value>73.0498219095702</value></backazimuth><phaseHint>P</phaseHint><evaluationMode>automatic</evaluationMode><comment><text>3948.9515194769406</text><id>DFX:rectilinearity</id></comment><comment><text>218.34672474489287</text><id>SNR</id></comment></pick><pick publicID="de.gempa.tb1.Pick/20250413170558.6997.132572"><time><value>2025-04-13T17:05:52.098393Z</value></time><waveformID networkCode="CX" stationCode="PB15" channelCode="HHZ"/><filterID>ITAPER(4)&gt;&gt;BW(4,4,20)</filterID><methodID>AIC</methodID><horizontalSlowness><value>17.926372913636936</value></horizontalSlowness><backazimuth><value>66.96320936021756</value></backazimuth><phaseHint>P</phaseHint><evaluationMode>automatic</evaluationMode><comment><text>4161.107334144838</text><id>DFX:rectilinearity</id></comment><comment><text>50.82151960734314</text><id>SNR</id></comment></pick><pick publicID="de.gempa.tb1.Pick/20250413170559.316817.132574"><time><value>2025-04-13T17:05:52.419999Z</value></time><waveformID networkCode="CX" stationCode="PATCX" channelCode="HHZ"/><filterID>ITAPER(4)&gt;&gt;BW(4,4,20)</filterID><methodID>AIC</methodID><horizontalSlowness><value>19.895848282048473</value></horizontalSlowness><backazimuth><value>107.46517081302464</value></backazimuth><phaseHint>P</phaseHint><evaluationMode>automatic</evaluationMode><comment><text>429.79527757727845</text><id>DFX:rectilinearity</id></comment><comment><text>14.0830269293653</text><id>SNR</id></comment></pick><pick publicID="de.gempa.tb1.Pick/20250413170600.624473.132576"><time><value>2025-04-13T17:05:46.438391Z</value></time><waveformID networkCode="CX" stationCode="PB07" channelCode="HHZ"/><filterID>ITAPER(4)&gt;&gt;BW(4,4,20)</filterID><methodID>AIC</methodID><horizontalSlowness><value>17.572397308806515</value></horizontalSlowness><backazimuth><value>100.00215504220084</value></backazimuth><phaseHint>P</phaseHint><evaluationMode>automatic</evaluationMode><comment><text>6912.74955680339</text><id>DFX:rectilinearity</id></comment><comment><text>251.6939666903355</text><id>SNR</id></comment></pick><pick publicID="de.gempa.tb1.Pick/20250413170606.475819.132578"><time><value>2025-04-13T17:05:59.22Z</value></time><waveformID networkCode="CX" stationCode="PB19" channelCode="HHZ"/><filterID>ITAPER(4)&gt;&gt;BW(4,4,20)</filterID><methodID>AIC</methodID><horizontalSlowness><value>5.455126928123487</value></horizontalSlowness><backazimuth><value>44.29868727233935</value></backazimuth><phaseHint>P</phaseHint><evaluationMode>automatic</evaluationMode><comment><text>481.9552653033703</text><id>DFX:rectilinearity</id></comment><comment><text>43.07626772767045</text><id>SNR</id></comment></pick><pick publicID="de.gempa.tb1.Pick/20250413170608.771211.132580"><time><value>2025-04-13T17:06:02.648393Z</value></time><waveformID networkCode="CX" stationCode="PB01" channelCode="HHN"/><filterID>ITAPER(2)&gt;&gt;BW(3,3,20)</filterID><methodID>L2-AIC-GRID</methodID><horizontalSlowness><value>18.991323034413554</value></horizontalSlowness><backazimuth><value>6.660808292139194</value></backazimuth><phaseHint>S</phaseHint><evaluationMode>automatic</evaluationMode><comment><text>4611.379338629499</text><id>DFX:rectilinearity</id></comment><comment><text>de.gempa.tb1.Pick/20250413170549.654048.132564</text><id>RefPickID</id></comment><comment><text>10.657685565889851</text><id>SNR</id></comment></pick><pick publicID="de.gempa.tb1.Pick/20250413170609.374694.132581"><time><value>2025-04-13T17:06:01.36Z</value></time><waveformID networkCode="CX" stationCode="PB10" channelCode="HHZ"/><filterID>ITAPER(4)&gt;&gt;BW(4,4,20)</filterID><methodID>AIC</methodID><horizontalSlowness><value>19.103230877574152</value></horizontalSlowness><backazimuth><value>300.44439715858675</value></backazimuth><phaseHint>P</phaseHint><evaluationMode>automatic</evaluationMode><comment><text>58.81857199982154</text><id>DFX:rectilinearity</id></comment><comment><text>13.746325692915113</text><id>SNR</id></comment></pick><pick publicID="de.gempa.tb1.Pick/20250413170609.566467.132583"><time><value>2025-04-13T17:06:02.34Z</value></time><waveformID networkCode="CX" stationCode="PSGCX" channelCode="HHZ"/><filterID>ITAPER(4)&gt;&gt;BW(4,4,20)</filterID><methodID>AIC</methodID><horizontalSlowness><value>22.039955667833052</value></horizontalSlowness><backazimuth><value>17.324904556125887</value></backazimuth><phaseHint>P</phaseHint><evaluationMode>automatic</evaluationMode><comment><text>18.961672521633702</text><id>DFX:rectilinearity</id></comment><comment><text>9.495826051065748</text><id>SNR</id></comment></pick><pick publicID="de.gempa.tb1.Pick/20250413170609.776817.132585"><time><value>2025-04-13T17:06:03.298393Z</value></time><waveformID networkCode="CX" stationCode="PB03" channelCode="HHN"/><filterID>ITAPER(2)&gt;&gt;BW(3,3,20)</filterID><methodID>L2-AIC-GRID</methodID><horizontalSlowness><value>13.123682338183805</value></horizontalSlowness><backazimuth><value>284.8630901236171</value></backazimuth><phaseHint>S</phaseHint><evaluationMode>automatic</evaluationMode><comment><text>11094.090006232173</text><id>DFX:rectilinearity</id></comment><comment><text>de.gempa.tb1.Pick/20250413170549.575614.132562</text><id>RefPickID</id></comment><comment><text>7.688266854609973</text><id>SNR</id></comment></pick><pick publicID="de.gempa.tb1.Pick/20250413170613.568507.132586"><time><value>2025-04-13T17:06:06.168393Z</value></time><waveformID networkCode="CX" stationCode="PB02" channelCode="HHN"/><filterID>ITAPER(2)&gt;&gt;BW(3,3,20)</filterID><methodID>L2-AIC-GRID</methodID><horizontalSlowness><value>11.587615823947957</value></horizontalSlowness><backazimuth><value>59.43994887817864</value></backazimuth><phaseHint>S</phaseHint><evaluationMode>automatic</evaluationMode><comment><text>30356.942789246023</text><id>DFX:rectilinearity</id></comment><comment><text>de.gempa.tb1.Pick/20250413170551.664309.132568</text><id>RefPickID</id></comment><comment><text>8.624887483922002</text><id>SNR</id></comment></pick><pick publicID="de.gempa.tb1.Pick/20250413170617.67528.132589"><time><value>2025-04-13T17:06:08.178393Z</value></time><waveformID networkCode="CX" stationCode="PB06" channelCode="HHN"/><filterID>ITAPER(2)&gt;&gt;BW(3,3,20)</filterID><methodID>L2-AIC-GRID</methodID><horizontalSlowness><value>22.992704197914694</value></horizontalSlowness><backazimuth><value>95.85286877030293</value></backazimuth><phaseHint>S</phaseHint><evaluationMode>automatic</evaluationMode><comment><text>3612.721935012668</text><id>DFX:rectilinearity</id></comment><comment><text>de.gempa.tb1.Pick/20250413170553.607809.132570</text><id>RefPickID</id></comment><comment><text>5.241538535932544</text><id>SNR</id></comment></pick><pick publicID="de.gempa.tb1.Pick/20250413170622.457973.132593"><time><value>2025-04-13T17:06:14.579999Z</value></time><waveformID networkCode="CX" stationCode="PATCX" channelCode="HHN"/><filterID>ITAPER(2)&gt;&gt;BW(3,3,20)</filterID><methodID>L2-AIC-GRID</methodID><horizontalSlowness><value>22.947737058574187</value></horizontalSlowness><backazimuth><value>85.41506782689257</value></backazimuth><phaseHint>S</phaseHint><evaluationMode>automatic</evaluationMode><comment><text>3240.3354433416243</text><id>DFX:rectilinearity</id></comment><comment><text>de.gempa.tb1.Pick/20250413170559.316817.132574</text><id>RefPickID</id></comment><comment><text>9.95421526685968</text><id>SNR</id></comment></pick><pick publicID="de.gempa.tb1.Pick/20250413170628.976119.132596"><time><value>2025-04-13T17:06:04.908391Z</value></time><waveformID networkCode="CX" stationCode="PB07" channelCode="HHN"/><filterID>ITAPER(2)&gt;&gt;BW(3,3,20)</filterID><methodID>L2-AIC-GRID</methodID><horizontalSlowness><value>22.792289503407595</value></horizontalSlowness><backazimuth><value>238.80078703733545</value></backazimuth><phaseHint>S</phaseHint><evaluationMode>automatic</evaluationMode><comment><text>650503.5441281538</text><id>DFX:rectilinearity</id></comment><comment><text>de.gempa.tb1.Pick/20250413170600.624473.132576</text><id>RefPickID</id></comment><comment><text>6.227348184418319</text><id>SNR</id></comment></pick><pick publicID="de.gempa.tb1.Pick/20250413170634.589242.132599"><time><value>2025-04-13T17:06:27.55Z</value></time><waveformID networkCode="CX" stationCode="PB19" channelCode="HHN"/><filterID>ITAPER(2)&gt;&gt;BW(3,3,20)</filterID><methodID>L2-AIC-GRID</methodID><horizontalSlowness><value>21.725879007527325</value></horizontalSlowness><backazimuth><value>25.91551181124845</value></backazimuth><phaseHint>S</phaseHint><evaluationMode>automatic</evaluationMode><comment><text>2240.1793635357003</text><id>DFX:rectilinearity</id></comment><comment><text>de.gempa.tb1.Pick/20250413170606.475819.132578</text><id>RefPickID</id></comment><comment><text>6.872215018060723</text><id>SNR</id></comment></pick><pick publicID="de.gempa.tb1.Pick/20250413170641.782566.132601"><time><value>2025-04-13T17:06:32.53Z</value></time><waveformID networkCode="CX" stationCode="PSGCX" channelCode="HHN"/><filterID>ITAPER(2)&gt;&gt;BW(3,3,20)</filterID><methodID>L2-AIC-GRID</methodID><horizontalSlowness><value>18.163383222016112</value></horizontalSlowness><backazimuth><value>144.19047059312484</value></backazimuth><phaseHint>S</phaseHint><evaluationMode>automatic</evaluationMode><comment><text>92.1215148484221</text><id>DFX:rectilinearity</id></comment><comment><text>de.gempa.tb1.Pick/20250413170609.566467.132583</text><id>RefPickID</id></comment><comment><text>5.246685433900448</text><id>SNR</id></comment></pick><origin publicID="de.gempa.tb1.Origin/20250413170641.786453.115356"><time><value>2025-04-13T17:05:22.005432Z</value><uncertainty>0.665016770362854</uncertainty></time><latitude><value>-21.712846755981445</value><uncertainty>2.877715826034546</uncertainty></latitude><longitude><value>-68.71349334716797</value><uncertainty>9.95280933380127</uncertainty></longitude><depth><value>132.9344482421875</value><uncertainty>9.266929626464844</uncertainty></depth><depthType>from location</depthType><methodID>LOCSAT</methodID><earthModelID>iasp91_scanloc</earthModelID><quality><associatedPhaseCount>19</associatedPhaseCount><usedPhaseCount>19</usedPhaseCount><associatedStationCount>11</associatedStationCount><usedStationCount>11</usedStationCount><depthPhaseCount>0</depthPhaseCount><standardError>0.39411199549155163</standardError><azimuthalGap>225.9494323730469</azimuthalGap><maximumDistance>2.4846127033233643</maximumDistance><minimumDistance>0.4982259273529053</minimumDistance><medianDistance>1.2685604095458984</medianDistance></quality><uncertainty><minHorizontalUncertainty>5.261236667633057</minHorizontalUncertainty><maxHorizontalUncertainty>21.575441360473633</maxHorizontalUncertainty><azimuthMaxHorizontalUncertainty>81.14768981933594</azimuthMaxHorizontalUncertainty><preferredDescription>horizontal uncertainty</preferredDescription></uncertainty><evaluationMode>automatic</evaluationMode><evaluationStatus>confirmed</evaluationStatus><comment><text>0.02</text><id>mismatchScore</id></comment><comment><text>mismatchScore</text><id>scevalMethod</id></comment><arrival><pickID>de.gempa.tb1.Pick/20250413170549.575614.132562</pickID><phase>P</phase><azimuth>250.7278747558594</azimuth><distance>1.0217362642288208</distance><timeResidual>0.12207412719726562</timeResidual><timeUsed>true</timeUsed><horizontalSlownessUsed>false</horizontalSlownessUsed><backazimuthUsed>false</backazimuthUsed><weight>1</weight></arrival><arrival><pickID>de.gempa.tb1.Pick/20250413170549.654048.132564</pickID><phase>P</phase><azimuth>312.5902099609375</azimuth><distance>0.9819535613059998</distance><timeResidual>-0.0177764892578125</timeResidual><timeUsed>true</timeUsed><horizontalSlownessUsed>false</horizontalSlownessUsed><backazimuthUsed>false</backazimuthUsed><weight>1</weight></arrival><arrival><pickID>de.gempa.tb1.Pick/20250413170551.096543.132566</pickID><phase>P</phase><azimuth>260.29840087890625</azimuth><distance>0.4982259273529053</distance><timeResidual>0.0034961700439453125</timeResidual><timeUsed>true</timeUsed><horizontalSlownessUsed>false</horizontalSlownessUsed><backazimuthUsed>false</backazimuthUsed><weight>1</weight></arrival><arrival><pickID>de.gempa.tb1.Pick/20250413170551.664309.132568</pickID><phase>P</phase><azimuth>289.3420104980469</azimuth><distance>1.1685327291488647</distance><timeResidual>0.31951141357421875</timeResidual><timeUsed>true</timeUsed><horizontalSlownessUsed>false</horizontalSlownessUsed><backazimuthUsed>false</backazimuthUsed><weight>1</weight></arrival><arrival><pickID>de.gempa.tb1.Pick/20250413170553.607809.132570</pickID><phase>P</phase><azimuth>218.67239379882812</azimuth><distance>1.2685604095458984</distance><timeResidual>-0.00078582763671875</timeResidual><timeUsed>true</timeUsed><horizontalSlownessUsed>false</horizontalSlownessUsed><backazimuthUsed>false</backazimuthUsed><weight>1</weight></arrival><arrival><pickID>de.gempa.tb1.Pick/20250413170558.6997.132572</pickID><phase>P</phase><azimuth>205.06565856933594</azimuth><distance>1.6450332403182983</distance><timeResidual>0.13707351684570312</timeResidual><timeUsed>true</timeUsed><horizontalSlownessUsed>false</horizontalSlownessUsed><backazimuthUsed>false</backazimuthUsed><weight>1</weight></arrival><arrival><pickID>de.gempa.tb1.Pick/20250413170559.316817.132574</pickID><phase>P</phase><azimuth>303.2124938964844</azimuth><distance>1.6094757318496704</distance><timeResidual>0.8494377136230469</timeResidual><timeUsed>true</timeUsed><horizontalSlownessUsed>false</horizontalSlownessUsed><backazimuthUsed>false</backazimuthUsed><weight>1</weight></arrival><arrival><pickID>de.gempa.tb1.Pick/20250413170600.624473.132576</pickID><phase>P</phase><azimuth>269.06158447265625</azimuth><distance>1.0905100107192993</distance><timeResidual>0.3782463073730469</timeResidual><timeUsed>true</timeUsed><horizontalSlownessUsed>false</horizontalSlownessUsed><backazimuthUsed>false</backazimuthUsed><weight>1</weight></arrival><arrival><pickID>de.gempa.tb1.Pick/20250413170606.475819.132578</pickID><phase>P</phase><azimuth>193.60781860351562</azimuth><distance>2.245685338973999</distance><timeResidual>0.06281089782714844</timeResidual><timeUsed>true</timeUsed><horizontalSlownessUsed>false</horizontalSlownessUsed><backazimuthUsed>false</backazimuthUsed><weight>1</weight></arrival><arrival><pickID>de.gempa.tb1.Pick/20250413170608.771211.132580</pickID><phase>S</phase><azimuth>312.5902099609375</azimuth><distance>0.9819535613059998</distance><timeResidual>-0.24657630920410156</timeResidual><timeUsed>true</timeUsed><horizontalSlownessUsed>false</horizontalSlownessUsed><backazimuthUsed>false</backazimuthUsed><weight>1</weight></arrival><arrival><pickID>de.gempa.tb1.Pick/20250413170609.374694.132581</pickID><phase>P</phase><azimuth>223.15431213378906</azimuth><distance>2.4705657958984375</distance><timeResidual>-0.6030197143554688</timeResidual><timeUsed>true</timeUsed><horizontalSlownessUsed>false</horizontalSlownessUsed><backazimuthUsed>false</backazimuthUsed><weight>1</weight></arrival><arrival><pickID>de.gempa.tb1.Pick/20250413170609.566467.132583</pickID><phase>P</phase><azimuth>327.65838623046875</azimuth><distance>2.4846127033233643</distance><timeResidual>0.17576980590820312</timeResidual><timeUsed>true</timeUsed><horizontalSlownessUsed>false</horizontalSlownessUsed><backazimuthUsed>false</backazimuthUsed><weight>1</weight></arrival><arrival><pickID>de.gempa.tb1.Pick/20250413170609.776817.132585</pickID><phase>S</phase><azimuth>250.7278747558594</azimuth><distance>1.0217362642288208</distance><timeResidual>-0.24068450927734375</timeResidual><timeUsed>true</timeUsed><horizontalSlownessUsed>false</horizontalSlownessUsed><backazimuthUsed>false</backazimuthUsed><weight>1</weight></arrival><arrival><pickID>de.gempa.tb1.Pick/20250413170613.568507.132586</pickID><phase>S</phase><azimuth>289.3420104980469</azimuth><distance>1.1685327291488647</distance><timeResidual>0.09048080444335938</timeResidual><timeUsed>true</timeUsed><horizontalSlownessUsed>false</horizontalSlownessUsed><backazimuthUsed>false</backazimuthUsed><weight>1</weight></arrival><arrival><pickID>de.gempa.tb1.Pick/20250413170617.67528.132589</pickID><phase>S</phase><azimuth>218.67239379882812</azimuth><distance>1.2685604095458984</distance><timeResidual>0.29634666442871094</timeResidual><timeUsed>true</timeUsed><horizontalSlownessUsed>false</horizontalSlownessUsed><backazimuthUsed>false</backazimuthUsed><weight>1</weight></arrival><arrival><pickID>de.gempa.tb1.Pick/20250413170622.457973.132593</pickID><phase>S</phase><azimuth>303.2124938964844</azimuth><distance>1.6094757318496704</distance><timeResidual>0.03037261962890625</timeResidual><timeUsed>true</timeUsed><horizontalSlownessUsed>false</horizontalSlownessUsed><backazimuthUsed>false</backazimuthUsed><weight>1</weight></arrival><arrival><pickID>de.gempa.tb1.Pick/20250413170628.976119.132596</pickID><phase>S</phase><azimuth>269.06158447265625</azimuth><distance>1.0905100107192993</distance><timeResidual>0.20244598388671875</timeResidual><timeUsed>true</timeUsed><horizontalSlownessUsed>false</horizontalSlownessUsed><backazimuthUsed>f