<?xml version="1.0" encoding="UTF-8"?>
<seiscomp xmlns="http://geofon.gfz-potsdam.de/ns/seiscomp3-schema/0.13" version="0.13"><EventParameters><pick publicID="de.gempa.tb1.Pick/20250414141134.687319.265403"><time><value>2025-04-14T14:11:27.810594Z</value></time><waveformID networkCode="SX" stationCode="BURZL" channelCode="HHZ"/><filterID>ITAPER(2)&gt;&gt;BW(3,3,20)</filterID><methodID>AIC</methodID><horizontalSlowness><value>10.618558417161092</value></horizontalSlowness><backazimuth><value>323.5053672807423</value></backazimuth><phaseHint>P</phaseHint><evaluationMode>automatic</evaluationMode><comment><text>382.76018036152</text><id>DFX:rectilinearity</id></comment></pick><pick publicID="de.gempa.tb1.Pick/20250414141140.25624.265412"><time><value>2025-04-14T14:11:36.228396Z</value></time><waveformID networkCode="CZ" stationCode="HSKC" channelCode="HHZ"/><filterID>ITAPER(2)&gt;&gt;BW(3,3,20)</filterID><methodID>AIC</methodID><horizontalSlowness><value>14.929504613690874</value></horizontalSlowness><backazimuth><value>314.6123578173918</value></backazimuth><phaseHint>P</phaseHint><evaluationMode>automatic</evaluationMode><comment><text>11.319958461255242</text><id>DFX:rectilinearity</id></comment></pick><pick publicID="de.gempa.tb1.Pick/20250414141141.27693.265415"><time><value>2025-04-14T14:11:34.940598Z</value></time><waveformID networkCode="SX" stationCode="MEINS" channelCode="HHZ"/><filterID>ITAPER(2)&gt;&gt;BW(3,3,20)</filterID><methodID>AIC</methodID><horizontalSlowness><value>19.466763739990103</value></horizontalSlowness><backazimuth><value>8.634158311609269</value></backazimuth><phaseHint>P</phaseHint><evaluationMode>automatic</evaluationMode><comment><text>5.455985336041214</text><id>DFX:rectilinearity</id></comment></pick><pick publicID="de.gempa.tb1.Pick/20250414141141.713233.265417"><time><value>2025-04-14T14:11:38.385Z</value></time><waveformID networkCode="TH" stationCode="HKWD" channelCode="HHZ"/><filterID>ITAPER(2)&gt;&gt;BW(3,3,20)</filterID><methodID>AIC</methodID><horizontalSlowness><value>21.554928148452284</value></horizontalSlowness><backazimuth><value>107.54893151284503</value></backazimuth><phaseHint>P</phaseHint><evaluationMode>automatic</evaluationMode><comment><text>59.51298349516583</text><id>DFX:rectilinearity</id></comment></pick><pick publicID="de.gempa.tb1.Pick/20250414141142.791037.265420"><time><value>2025-04-14T14:11:33.879999Z</value></time><waveformID networkCode="TH" stationCode="ABG1" channelCode="HHZ"/><filterID>ITAPER(2)&gt;&gt;BW(3,3,20)</filterID><methodID>AIC</methodID><horizontalSlowness><value>22.233668013080084</value></horizontalSlowness><backazimuth><value>209.2160855937499</value></backazimuth><phaseHint>P</phaseHint><evaluationMode>automatic</evaluationMode><comment><text>602.7634121557456</text><id>DFX:rectilinearity</id></comment></pick><pick publicID="de.gempa.tb1.Pick/20250414141146.405745.265424"><time><value>2025-04-14T14:11:35.079999Z</value></time><waveformID networkCode="TH" stationCode="MODW" channelCode="HHZ"/><filterID>ITAPER(2)&gt;&gt;BW(3,3,20)</filterID><methodID>AIC</methodID><horizontalSlowness><value>3.880365288517458</value></horizontalSlowness><backazimuth><value>178.42551103598268</value></backazimuth><phaseHint>P</phaseHint><evaluationMode>automatic</evaluationMode><comment><text>14.626544511651803</text><id>DFX:rectilinearity</id></comment></pick><pick publicID="de.gempa.tb1.Pick/20250414141153.861651.265435"><time><value>2025-04-14T14:11:43.75Z</value></time><waveformID networkCode="SX" stationCode="TANN" channelCode="HHZ"/><filterID>ITAPER(2)&gt;&gt;BW(3,3,20)</filterID><methodID>AIC</methodID><horizontalSlowness><value>18.640408320791945</value></horizontalSlowness><backazimuth><value>32.525282913380693</value></backazimuth><phaseHint>P</phaseHint><evaluationMode>automatic</evaluationMode><comment><text>2.494964937388356</text><id>DFX:rectilinearity</id></comment></pick><pick publicID="de.gempa.tb1.Pick/20250414141156.833413.265443"><time><value>2025-04-14T14:11:45.03Z</value></time><waveformID networkCode="SX" stationCode="GUNZ" channelCode="HHZ"/><filterID>ITAPER(2)&gt;&gt;BW(3,3,20)</filterID><methodID>AIC</methodID><horizontalSlowness><value>11.947330940658416</value></horizontalSlowness><backazimuth><value>292.4396361825511</value></backazimuth><phaseHint>P</phaseHint><evaluationMode>automatic</evaluationMode><comment><text>2.5331034761970073</text><id>DFX:rectilinearity</id></comment></pick><origin publicID="de.gempa.tb1.Origin/20250414141156.87369.236351"><time><value>2025-04-14T14:11:21.42615Z</value><uncertainty>2.2464802265167236</uncertainty></time><latitude><value>51.39985275268555</value><uncertainty>11.188913345336914</uncertainty></latitude><longitude><value>13.353853225708008</value><uncertainty>11.23214340209961</uncertainty></longitude><depth><value>0</value></depth><depthType>operator assigned</depthType><methodID>LOCSAT</methodID><earthModelID>iasp91</earthModelID><quality><associatedPhaseCount>8</associatedPhaseCount><usedPhaseCount>8</usedPhaseCount><associatedStationCount>8</associatedStationCount><usedStationCount>8</usedStationCount><depthPhaseCount>0</depthPhaseCount><standardError>0.5008346468614906</standardError><azimuthalGap>261.0135955810547</azimuthalGap><maximumDistance>1.223194718360901</maximumDistance><minimumDistance>0.3388340473175049</minimumDistance><medianDistance>0.7952656745910645</medianDistance></quality><uncertainty><minHorizontalUncertainty>10.738615036010742</minHorizontalUncertainty><maxHorizontalUncertainty>32.25813293457031</maxHorizontalUncertainty><azimuthMaxHorizontalUncertainty>45.13800811767578</azimuthMaxHorizontalUncertainty><preferredDescription>horizontal uncertainty</preferredDescription></uncertainty><evaluationMode>automatic</evaluationMode><evaluationStatus>confirmed</evaluationStatus><comment><text>0.04</text><id>mismatchScore</id></comment><comment><text>mismatchScore</text><id>scevalMethod</id></comment><arrival><pickID>de.gempa.tb1.Pick/20250414141134.687319.265403</pickID><phase>P</phase><azimuth>275.41033935546875</azimuth><distance>0.3388340473175049</distance><timeResidual>-0.2030653953552246</timeResidual><timeUsed>true</timeUsed><horizontalSlownessUsed>false</horizontalSlownessUsed><backazimuthUsed>false</backazimuthUsed><weight>1</weight></arrival><arrival><pickID>de.gempa.tb1.Pick/20250414141140.25624.265412</pickID><phase>P</phase><azimuth>176.42393493652344</azimuth><distance>0.7952656745910645</distance><timeResidual>-0.462519645690918</timeResidual><timeUsed>true</timeUsed><horizontalSlownessUsed>false</horizontalSlownessUsed><backazimuthUsed>false</backazimuthUsed><weight>1</weight></arrival><arrival><pickID>de.gempa.tb1.Pick/20250414141141.27693.265415</pickID><phase>P</phase><azimuth>204.23326110839844</azimuth><distance>0.7318347096443176</distance><timeResidual>-0.5444059371948242</timeResidual><timeUsed>true</timeUsed><horizontalSlownessUsed>false</horizontalSlownessUsed><backazimuthUsed>false</backazimuthUsed><weight>1</weight></arrival><arrival><pickID>de.gempa.tb1.Pick/20250414141141.713233.265417</pickID><phase>P</phase><azimuth>230.5846862792969</azimuth><distance>0.8912382125854492</distance><timeResidual>-0.12977886199951172</timeResidual><timeUsed>true</timeUsed><horizontalSlownessUsed>false</horizontalSlownessUsed><backazimuthUsed>false</backazimuthUsed><weight>1</weight></arrival><arrival><pickID>de.gempa.tb1.Pick/20250414141142.791037.265420</pickID><phase>P</phase><azimuth>228.8090057373047</azimuth><distance>0.6533827185630798</distance><timeResidual>-0.1133885383605957</timeResidual><timeUsed>true</timeUsed><horizontalSlownessUsed>false</horizontalSlownessUsed><backazimuthUsed>false</backazimuthUsed><weight>1</weight></arrival><arrival><pickID>de.gempa.tb1.Pick/20250414141146.405745.265424</pickID><phase>P</phase><azimuth>230.94793701171875</azimuth><distance>0.7213057279586792</distance><timeResidual>-0.20451068878173828</timeResidual><timeUsed>true</timeUsed><horizontalSlownessUsed>false</horizontalSlownessUsed><backazimuthUsed>false</backazimuthUsed><weight>1</weight></arrival><arrival><pickID>de.gempa.tb1.Pick/20250414141153.861651.265435</pickID><phase>P</phase><azimuth>210.16793823242188</azimuth><distance>1.1366902589797974</distance><timeResidual>0.897481918334961</timeResidual><timeUsed>true</timeUsed><horizontalSlownessUsed>false</horizontalSlownessUsed><backazimuthUsed>false</backazimuthUsed><weight>1</weight></arrival><arrival><pickID>de.gempa.tb1.Pick/20250414141156.833413.265443</pickID><phase>P</phase><azimuth>212.3612060546875</azimuth><distance>1.223194718360901</distance><timeResidual>0.7603597640991211</timeResidual><timeUsed>true</timeUsed><horizontalSlownessUsed>false</horizontalSlownessUsed><backazimuthUsed>false</backazimuthUsed><weight>1</weight></arrival><magnitude publicID="de.gempa.tb1.Magnitude/20250414141200.418563.498574"><magnitude><value>1.649362702953262</value></magnitude><type>M</type><methodID>weighted average</methodID><stationCount>6</stationCount></magnitude></origin><event publicID="gempa2025hjiq"><preferredOriginID>de.gempa.tb1.Origin/20250414141156.87369.236351</preferredOriginID><preferredMagnitudeID>de.gempa.tb1.Magnitude/20250414141200.418563.498574</preferredMagnitudeID><description><text>Germany</text><type>region name</type></description><originReference>de.gempa.tb1.Origin/20250414141156.87369.236351</originReference></event></EventParameters></seiscomp>