<?xml version="1.0" encoding="UTF-8"?>
<seiscomp xmlns="http://geofon.gfz-potsdam.de/ns/seiscomp3-schema/0.13" version="0.13"><EventParameters><pick publicID="de.gempa.tb1.Pick/20250413070505.495802.129666"><time><value>2025-04-13T07:04:59.648393Z</value></time><waveformID networkCode="CX" stationCode="PB06" channelCode="HHZ"/><filterID>ITAPER(4)&gt;&gt;BW(4,4,20)</filterID><methodID>AIC</methodID><horizontalSlowness><value>20.799422233066757</value></horizontalSlowness><backazimuth><value>129.47240105120403</value></backazimuth><phaseHint>P</phaseHint><evaluationMode>automatic</evaluationMode><comment><text>37.597247231755176</text><id>DFX:rectilinearity</id></comment><comment><text>42.142584258981834</text><id>SNR</id></comment></pick><pick publicID="de.gempa.tb1.Pick/20250413070511.77202.129668"><time><value>2025-04-13T07:05:04.158394Z</value></time><waveformID networkCode="CX" stationCode="PB03" channelCode="HHZ"/><filterID>ITAPER(4)&gt;&gt;BW(4,4,20)</filterID><methodID>AIC</methodID><horizontalSlowness><value>13.97612279988796</value></horizontalSlowness><backazimuth><value>169.16351690113322</value></backazimuth><phaseHint>P</phaseHint><evaluationMode>automatic</evaluationMode><comment><text>14.12852684596066</text><id>DFX:rectilinearity</id></comment><comment><text>15.894348132738104</text><id>SNR</id></comment></pick><pick publicID="de.gempa.tb1.Pick/20250413070512.477197.129670"><time><value>2025-04-13T07:05:05.06Z</value></time><waveformID networkCode="CX" stationCode="PB19" channelCode="HHZ"/><filterID>ITAPER(4)&gt;&gt;BW(4,4,20)</filterID><methodID>AIC</methodID><horizontalSlowness><value>7.121924736122679</value></horizontalSlowness><backazimuth><value>15.042842462110713</value></backazimuth><phaseHint>P</phaseHint><evaluationMode>automatic</evaluationMode><comment><text>18.298363518676869</text><id>DFX:rectilinearity</id></comment><comment><text>18.923868041668367</text><id>SNR</id></comment></pick><pick publicID="de.gempa.tb1.Pick/20250413070517.249581.129672"><time><value>2025-04-13T07:05:03.38Z</value></time><waveformID networkCode="CX" stationCode="PB09" channelCode="HHZ"/><filterID>ITAPER(4)&gt;&gt;BW(4,4,20)</filterID><methodID>AIC</methodID><horizontalSlowness><value>8.515225263359078</value></horizontalSlowness><backazimuth><value>240.0828676071697</value></backazimuth><phaseHint>P</phaseHint><evaluationMode>automatic</evaluationMode><comment><text>15.752084039905625</text><id>DFX:rectilinearity</id></comment><comment><text>26.087463566008225</text><id>SNR</id></comment></pick><pick publicID="de.gempa.tb1.Pick/20250413070520.78088.129674"><time><value>2025-04-13T07:05:11.698393Z</value></time><waveformID networkCode="CX" stationCode="PB02" channelCode="HHZ"/><filterID>ITAPER(4)&gt;&gt;BW(4,4,20)</filterID><methodID>AIC</methodID><horizontalSlowness><value>19.331712318064746</value></horizontalSlowness><backazimuth><value>262.04697105164797</value></backazimuth><phaseHint>P</phaseHint><evaluationMode>automatic</evaluationMode><comment><text>52.47290102096357</text><id>DFX:rectilinearity</id></comment><comment><text>7.180068161788907</text><id>SNR</id></comment></pick><pick publicID="de.gempa.tb1.Pick/20250413070522.605925.129676"><time><value>2025-04-13T07:05:14.188393Z</value></time><waveformID networkCode="CX" stationCode="PB06" channelCode="HHN"/><filterID>ITAPER(2)&gt;&gt;BW(3,3,20)</filterID><methodID>L2-AIC-GRID</methodID><horizontalSlowness><value>23.55963951277516</value></horizontalSlowness><backazimuth><value>195.49240350104327</value></backazimuth><phaseHint>S</phaseHint><evaluationMode>automatic</evaluationMode><comment><text>186.60887831548877</text><id>DFX:rectilinearity</id></comment><comment><text>de.gempa.tb1.Pick/20250413070505.495802.129666</text><id>RefPickID</id></comment><comment><text>10.323357877081516</text><id>SNR</id></comment></pick><pick publicID="de.gempa.tb1.Pick/20250413070529.772073.129677"><time><value>2025-04-13T07:05:21.548394Z</value></time><waveformID networkCode="CX" stationCode="PB03" channelCode="HHN"/><filterID>ITAPER(2)&gt;&gt;BW(3,3,20)</filterID><methodID>L2-AIC-GRID</methodID><horizontalSlowness><value>22.22553544306227</value></horizontalSlowness><backazimuth><value>22.909847873113506</value></backazimuth><phaseHint>S</phaseHint><evaluationMode>automatic</evaluationMode><comment><text>32.66620911024926</text><id>DFX:rectilinearity</id></comment><comment><text>de.gempa.tb1.Pick/20250413070511.77202.129668</text><id>RefPickID</id></comment><comment><text>12.343518761541937</text><id>SNR</id></comment></pick><pick publicID="de.gempa.tb1.Pick/20250413070530.809452.129678"><time><value>2025-04-13T07:05:23.47Z</value></time><waveformID networkCode="CX" stationCode="PB19" channelCode="HHN"/><filterID>ITAPER(2)&gt;&gt;BW(3,3,20)</filterID><methodID>L2-AIC-GRID</methodID><horizontalSlowness><value>22.238205992933619</value></horizontalSlowness><backazimuth><value>74.3241303733108</value></backazimuth><phaseHint>S</phaseHint><evaluationMode>automatic</evaluationMode><comment><text>294.51646596221764</text><id>DFX:rectilinearity</id></comment><comment><text>de.gempa.tb1.Pick/20250413070512.477197.129670</text><id>RefPickID</id></comment><comment><text>9.982846150291973</text><id>SNR</id></comment></pick><pick publicID="de.gempa.tb1.Pick/20250413070534.341349.129679"><time><value>2025-04-13T07:05:07.838393Z</value></time><waveformID networkCode="CX" stationCode="PB07" channelCode="HHZ"/><filterID>ITAPER(4)&gt;&gt;BW(4,4,20)</filterID><methodID>AIC</methodID><horizontalSlowness><value>21.982878151162645</value></horizontalSlowness><backazimuth><value>6.195246117436966</value></backazimuth><phaseHint>P</phaseHint><evaluationMode>automatic</evaluationMode><comment><text>355.9067098831129</text><id>DFX:rectilinearity</id></comment><comment><text>23.80173681445177</text><id>SNR</id></comment></pick><pick publicID="de.gempa.tb1.Pick/20250413070541.449344.129682"><time><value>2025-04-13T07:05:28.628393Z</value></time><waveformID networkCode="CX" stationCode="PB07" channelCode="HHN"/><filterID>ITAPER(2)&gt;&gt;BW(3,3,20)</filterID><methodID>L2-AIC-GRID</methodID><horizontalSlowness><value>22.25162366430211</value></horizontalSlowness><backazimuth><value>285.281168676255</value></backazimuth><phaseHint>S</phaseHint><evaluationMode>automatic</evaluationMode><comment><text>1375.9945184706198</text><id>DFX:rectilinearity</id></comment><comment><text>de.gempa.tb1.Pick/20250413070534.341349.129679</text><id>RefPickID</id></comment><comment><text>6.583700317035143</text><id>SNR</id></comment></pick><pick publicID="de.gempa.tb1.Pick/20250413070541.640622.129683"><time><value>2025-04-13T07:05:35.258393Z</value></time><waveformID networkCode="CX" stationCode="PB02" channelCode="HHN"/><filterID>ITAPER(2)&gt;&gt;BW(3,3,20)</filterID><methodID>L2-AIC-GRID</methodID><horizontalSlowness><value>12.63508807685993</value></horizontalSlowness><backazimuth><value>7.309907483273832</value></backazimuth><phaseHint>S</phaseHint><evaluationMode>automatic</evaluationMode><comment><text>56.25217168393254</text><id>DFX:rectilinearity</id></comment><comment><text>de.gempa.tb1.Pick/20250413070520.78088.129674</text><id>RefPickID</id></comment><comment><text>6.331127048873419</text><id>SNR</id></comment></pick><origin publicID="de.gempa.tb1.Origin/20250413070542.493589.103807"><time><value>2025-04-13T07:04:41.633523Z</value><uncertainty>0.9555782675743103</uncertainty></time><latitude><value>-22.76841926574707</value><uncertainty>5.559377670288086</uncertainty></latitude><longitude><value>-68.7645034790039</value><uncertainty>19.750123977661133</uncertainty></longitude><depth><value>106.1881103515625</value><uncertainty>19.795637130737305</uncertainty></depth><depthType>from location</depthType><methodID>LOCSAT</methodID><earthModelID>iasp91_scanloc</earthModelID><quality><associatedPhaseCount>11</associatedPhaseCount><usedPhaseCount>11</usedPhaseCount><associatedStationCount>6</associatedStationCount><usedStationCount>6</usedStationCount><depthPhaseCount>0</depthPhaseCount><standardError>0.235731728879097</standardError><azimuthalGap>227.7013397216797</azimuthalGap><maximumDistance>1.783387303352356</maximumDistance><minimumDistance>0.7479739189147949</minimumDistance><medianDistance>1.230163812637329</medianDistance></quality><uncertainty><minHorizontalUncertainty>6.655256271362305</minHorizontalUncertainty><maxHorizontalUncertainty>43.48561477661133</maxHorizontalUncertainty><azimuthMaxHorizontalUncertainty>76.69598388671875</azimuthMaxHorizontalUncertainty><preferredDescription>horizontal uncertainty</preferredDescription></uncertainty><evaluationMode>automatic</evaluationMode><evaluationStatus>confirmed</evaluationStatus><comment><text>0.00</text><id>mismatchScore</id></comment><comment><text>mismatchScore</text><id>scevalMethod</id></comment><arrival><pickID>de.gempa.tb1.Pick/20250413070505.495802.129666</pickID><phase>P</phase><azimuth>274.62451171875</azimuth><distance>0.7479739189147949</distance><timeResidual>-0.42356109619140625</timeResidual><timeUsed>true</timeUsed><horizontalSlownessUsed>false</horizontalSlownessUsed><backazimuthUsed>false</backazimuthUsed><weight>1</weight></arrival><arrival><pickID>de.gempa.tb1.Pick/20250413070511.77202.129668</pickID><phase>P</phase><azimuth>307.8807067871094</azimuth><distance>1.162023901939392</distance><timeResidual>-0.14946365356445312</timeResidual><timeUsed>true</timeUsed><horizontalSlownessUsed>false</horizontalSlownessUsed><backazimuthUsed>false</backazimuthUsed><weight>1</weight></arrival><arrival><pickID>de.gempa.tb1.Pick/20250413070512.477197.129670</pickID><phase>P</phase><azimuth>203.0459442138672</azimuth><distance>1.230163812637329</distance><timeResidual>-0.0063629150390625</timeResidual><timeUsed>true</timeUsed><horizontalSlownessUsed>false</horizontalSlownessUsed><backazimuthUsed>false</backazimuthUsed><weight>1</weight></arrival><arrival><pickID>de.gempa.tb1.Pick/20250413070517.249581.129672</pickID><phase>P</phase><azimuth>335.3446044921875</azimuth><distance>1.0636574029922485</distance><timeResidual>0.15063858032226562</timeResidual><timeUsed>true</timeUsed><horizontalSlownessUsed>false</horizontalSlownessUsed><backazimuthUsed>false</backazimuthUsed><weight>1</weight></arrival><arrival><pickID>de.gempa.tb1.Pick/20250413070520.78088.129674</pickID><phase>P</phase><azimuth>323.7265930175781</azimuth><distance>1.783387303352356</distance><timeResidual>-0.039638519287109375</timeResidual><timeUsed>true</timeUsed><horizontalSlownessUsed>false</horizontalSlownessUsed><backazimuthUsed>false</backazimuthUsed><weight>1</weight></arrival><arrival><pickID>de.gempa.tb1.Pick/20250413070522.605925.129676</pickID><phase>S</phase><azimuth>274.62451171875</azimuth><distance>0.7479739189147949</distance><timeResidual>-0.08938980102539062</timeResidual><timeUsed>true</timeUsed><horizontalSlownessUsed>false</horizontalSlownessUsed><backazimuthUsed>false</backazimuthUsed><weight>1</weight></arrival><arrival><pickID>de.gempa.tb1.Pick/20250413070529.772073.129677</pickID><phase>S</phase><azimuth>307.8807067871094</azimuth><distance>1.162023901939392</distance><timeResidual>-0.2838134765625</timeResidual><timeUsed>true</timeUsed><horizontalSlownessUsed>false</horizontalSlownessUsed><backazimuthUsed>false</backazimuthUsed><weight>1</weight></arrival><arrival><pickID>de.gempa.tb1.Pick/20250413070530.809452.129678</pickID><phase>S</phase><azimuth>203.0459442138672</azimuth><distance>1.230163812637329</distance><timeResidual>0.28066444396972656</timeResidual><timeUsed>true</timeUsed><horizontalSlownessUsed>false</horizontalSlownessUsed><backazimuthUsed>false</backazimuthUsed><weight>1</weight></arrival><arrival><pickID>de.gempa.tb1.Pick/20250413070534.341349.129679</pickID><phase>P</phase><azimuth>314.72113037109375</azimuth><distance>1.4678857326507568</distance><timeResidual>-0.023380279541015625</timeResidual><timeUsed>true</timeUsed><horizontalSlownessUsed>false</horizontalSlownessUsed><backazimuthUsed>false</backazimuthUsed><weight>1</weight></arrival><arrival><pickID>de.gempa.tb1.Pick/20250413070541.449344.129682</pickID><phase>S</phase><azimuth>314.72113037109375</azimuth><distance>1.4678857326507568</distance><timeResidual>0.4448966979980469</timeResidual><timeUsed>true</timeUsed><horizontalSlownessUsed>false</horizontalSlownessUsed><backazimuthUsed>false</backazimuthUsed><weight>1</weight></arrival><arrival><pickID>de.gempa.tb1.Pick/20250413070541.640622.129683</pickID><phase>S</phase><azimuth>323.7265930175781</azimuth><distance>1.783387303352356</distance><timeResidual>0.13936996459960938</timeResidual><timeUsed>true</timeUsed><horizontalSlownessUsed>false</horizontalSlownessUsed><backazimuthUsed>false</backazimuthUsed><weight>1</weight></arrival><magnitude publicID="de.gempa.tb1.Magnitude/20250413070545.937783.326406"><magnitude><value>2.6001451201120727</value></magnitude><type>M</type><methodID>weighted average</methodID><stationCount>3</stationCount></magnitude></origin><event publicID="gempa2025hgyk"><preferredOriginID>de.gempa.tb1.Origin/20250413070542.493589.103807</preferredOriginID><preferredMagnitudeID>de.gempa.tb1.Magnitude/20250413070545.937783.326406</preferredMagnitudeID><description><text>Northern Chile</text><type>region name</type></description><originReference>de.gempa.tb1.Origin/20250413070542.493589.103807</originReference></event></EventParameters></seiscomp>