<?xml version="1.0" encoding="UTF-8"?>
<seiscomp xmlns="http://geofon.gfz-potsdam.de/ns/seiscomp3-schema/0.13" version="0.13"><EventParameters><pick publicID="de.gempa.tb1.Pick/20250411205137.557744.120024"><time><value>2025-04-11T20:51:32.088393Z</value></time><waveformID networkCode="CX" stationCode="PB01" channelCode="HHZ"/><filterID>ITAPER(4)&gt;&gt;BW(4,4,20)</filterID><methodID>AIC</methodID><horizontalSlowness><value>22.80530388912459</value></horizontalSlowness><backazimuth><value>178.3560668287768</value></backazimuth><phaseHint>P</phaseHint><evaluationMode>automatic</evaluationMode><comment><text>19.447042090974442</text><id>DFX:rectilinearity</id></comment><comment><text>42.09642974016129</text><id>SNR</id></comment></pick><pick publicID="de.gempa.tb1.Pick/20250411205141.451146.120026"><time><value>2025-04-11T20:51:35.658393Z</value></time><waveformID networkCode="CX" stationCode="PB02" channelCode="HHZ"/><filterID>ITAPER(4)&gt;&gt;BW(4,4,20)</filterID><methodID>AIC</methodID><horizontalSlowness><value>7.944527438603692</value></horizontalSlowness><backazimuth><value>86.38769380651767</value></backazimuth><phaseHint>P</phaseHint><evaluationMode>automatic</evaluationMode><comment><text>20.20128919676186</text><id>DFX:rectilinearity</id></comment><comment><text>27.8867202673222</text><id>SNR</id></comment></pick><pick publicID="de.gempa.tb1.Pick/20250411205144.550995.120028"><time><value>2025-04-11T20:51:38.108394Z</value></time><waveformID networkCode="CX" stationCode="PB03" channelCode="HHZ"/><filterID>ITAPER(4)&gt;&gt;BW(4,4,20)</filterID><methodID>AIC</methodID><horizontalSlowness><value>12.751128859806483</value></horizontalSlowness><backazimuth><value>287.2974416326063</value></backazimuth><phaseHint>P</phaseHint><evaluationMode>automatic</evaluationMode><comment><text>7.407982751539481</text><id>DFX:rectilinearity</id></comment><comment><text>8.314005017813038</text><id>SNR</id></comment></pick><pick publicID="de.gempa.tb1.Pick/20250411205149.530845.120031"><time><value>2025-04-11T20:51:33.549998Z</value></time><waveformID networkCode="CX" stationCode="PB09" channelCode="HHZ"/><filterID>ITAPER(4)&gt;&gt;BW(4,4,20)</filterID><methodID>AIC</methodID><horizontalSlowness><value>13.836333783102436</value></horizontalSlowness><backazimuth><value>275.9838382087844</value></backazimuth><phaseHint>P</phaseHint><evaluationMode>automatic</evaluationMode><comment><text>16.974506607176266</text><id>DFX:rectilinearity</id></comment><comment><text>17.361765977155628</text><id>SNR</id></comment></pick><pick publicID="de.gempa.tb1.Pick/20250411205149.577434.120033"><time><value>2025-04-11T20:51:43.638393Z</value></time><waveformID networkCode="CX" stationCode="PB06" channelCode="HHZ"/><filterID>ITAPER(4)&gt;&gt;BW(4,4,20)</filterID><methodID>AIC</methodID><horizontalSlowness><value>9.420532754632081</value></horizontalSlowness><backazimuth><value>272.0453539566575</value></backazimuth><phaseHint>P</phaseHint><evaluationMode>automatic</evaluationMode><comment><text>86.53100533792667</text><id>DFX:rectilinearity</id></comment><comment><text>10.237573080519553</text><id>SNR</id></comment></pick><pick publicID="de.gempa.tb1.Pick/20250411205153.736101.120035"><time><value>2025-04-11T20:51:45.658393Z</value></time><waveformID networkCode="CX" stationCode="PB01" channelCode="HHN"/><filterID>ITAPER(2)&gt;&gt;BW(3,3,20)</filterID><methodID>L2-AIC-GRID</methodID><horizontalSlowness><value>20.432827958076935</value></horizontalSlowness><backazimuth><value>290.48841909268157</value></backazimuth><phaseHint>S</phaseHint><evaluationMode>automatic</evaluationMode><comment><text>511.403860136353</text><id>DFX:rectilinearity</id></comment><comment><text>de.gempa.tb1.Pick/20250411205137.557744.120024</text><id>RefPickID</id></comment><comment><text>13.422806211874912</text><id>SNR</id></comment></pick><pick publicID="de.gempa.tb1.Pick/20250411205154.11303.120036"><time><value>2025-04-11T20:51:36.898389Z</value></time><waveformID networkCode="CX" stationCode="PB07" channelCode="HHZ"/><filterID>ITAPER(4)&gt;&gt;BW(4,4,20)</filterID><methodID>AIC</methodID><horizontalSlowness><value>17.384567019335528</value></horizontalSlowness><backazimuth><value>66.04278010395443</value></backazimuth><phaseHint>P</phaseHint><evaluationMode>automatic</evaluationMode><comment><text>160.25007815438343</text><id>DFX:rectilinearity</id></comment><comment><text>55.12442134761965</text><id>SNR</id></comment></pick><pick publicID="de.gempa.tb1.Pick/20250411205155.674269.120038"><time><value>2025-04-11T20:51:46.12Z</value></time><waveformID networkCode="CX" stationCode="PSGCX" channelCode="HHZ"/><filterID>ITAPER(4)&gt;&gt;BW(4,4,20)</filterID><methodID>AIC</methodID><horizontalSlowness><value>5.462774692620463</value></horizontalSlowness><backazimuth><value>144.52392703265596</value></backazimuth><phaseHint>P</phaseHint><evaluationMode>automatic</evaluationMode><comment><text>13.50150629769212</text><id>DFX:rectilinearity</id></comment><comment><text>14.94663429793442</text><id>SNR</id></comment></pick><pick publicID="de.gempa.tb1.Pick/20250411205158.484667.120040"><time><value>2025-04-11T20:51:51.498393Z</value></time><waveformID networkCode="CX" stationCode="PB02" channelCode="HHN"/><filterID>ITAPER(2)&gt;&gt;BW(3,3,20)</filterID><methodID>L2-AIC-GRID</methodID><horizontalSlowness><value>15.75833160658876</value></horizontalSlowness><backazimuth><value>359.7238659716611</value></backazimuth><phaseHint>S</phaseHint><evaluationMode>automatic</evaluationMode><comment><text>1072.1406497389742</text><id>DFX:rectilinearity</id></comment><comment><text>de.gempa.tb1.Pick/20250411205141.451146.120026</text><id>RefPickID</id></comment><comment><text>11.015089133112596</text><id>SNR</id></comment></pick><pick publicID="de.gempa.tb1.Pick/20250411205202.268662.120043"><time><value>2025-04-11T20:51:48.639998Z</value></time><waveformID networkCode="CX" stationCode="PB09" channelCode="HHN"/><filterID>ITAPER(2)&gt;&gt;BW(3,3,20)</filterID><methodID>L2-AIC-GRID</methodID><horizontalSlowness><value>16.32542124345087</value></horizontalSlowness><backazimuth><value>312.64406798490904</value></backazimuth><phaseHint>S</phaseHint><evaluationMode>automatic</evaluationMode><comment><text>240.96680470856663</text><id>DFX:rectilinearity</id></comment><comment><text>de.gempa.tb1.Pick/20250411205149.530845.120031</text><id>RefPickID</id></comment><comment><text>5.821066808864165</text><id>SNR</id></comment></pick><pick publicID="de.gempa.tb1.Pick/20250411205202.635984.120044"><time><value>2025-04-11T20:51:57.67Z</value></time><waveformID networkCode="CX" stationCode="PB19" channelCode="HHZ"/><filterID>ITAPER(4)&gt;&gt;BW(4,4,20)</filterID><methodID>AIC</methodID><horizontalSlowness><value>17.80490034920139</value></horizontalSlowness><backazimuth><value>53.88160339466616</value></backazimuth><phaseHint>P</phaseHint><evaluationMode>automatic</evaluationMode><comment><text>24.11057733327271</text><id>DFX:rectilinearity</id></comment><comment><text>9.396483670712403</text><id>SNR</id></comment></pick><pick publicID="de.gempa.tb1.Pick/20250411205202.75733.120046"><time><value>2025-04-11T20:51:55.648394Z</value></time><waveformID networkCode="CX" stationCode="PB03" channelCode="HHN"/><filterID>ITAPER(2)&gt;&gt;BW(3,3,20)</filterID><methodID>L2-AIC-GRID</methodID><horizontalSlowness><value>15.89440826370924</value></horizontalSlowness><backazimuth><value>211.89793001929664</value></backazimuth><phaseHint>S</phaseHint><evaluationMode>automatic</evaluationMode><comment><text>95.65953343059266</text><id>DFX:rectilinearity</id></comment><comment><text>de.gempa.tb1.Pick/20250411205144.550995.120028</text><id>RefPickID</id></comment><comment><text>16.344602268740179</text><id>SNR</id></comment></pick><pick publicID="de.gempa.tb1.Pick/20250411205202.964566.120047"><time><value>2025-04-11T20:51:53.748389Z</value></time><waveformID networkCode="CX" stationCode="PB07" channelCode="HHN"/><filterID>ITAPER(2)&gt;&gt;BW(3,3,20)</filterID><methodID>L2-AIC-GRID</methodID><horizontalSlowness><value>21.241329540524514</value></horizontalSlowness><backazimuth><value>251.64763048827115</value></backazimuth><phaseHint>S</phaseHint><evaluationMode>automatic</evaluationMode><comment><text>2964.5084453221284</text><id>DFX:rectilinearity</id></comment><comment><text>de.gempa.tb1.Pick/20250411205154.11303.120036</text><id>RefPickID</id></comment><comment><text>12.285736476022148</text><id>SNR</id></comment></pick><pick publicID="de.gempa.tb1.Pick/20250411205220.686219.120055"><time><value>2025-04-11T20:52:11.58Z</value></time><waveformID networkCode="CX" stationCode="PSGCX" channelCode="HHN"/><filterID>ITAPER(2)&gt;&gt;BW(3,3,20)</filterID><methodID>L2-AIC-GRID</methodID><horizontalSlowness><value>15.940591093923626</value></horizontalSlowness><backazimuth><value>330.45805441898563</value></backazimuth><phaseHint>S</phaseHint><evaluationMode>automatic</evaluationMode><comment><text>14.51895023500301</text><id>DFX:rectilinearity</id></comment><comment><text>de.gempa.tb1.Pick/20250411205155.674269.120038</text><id>RefPickID</id></comment><comment><text>5.532633432265105</text><id>SNR</id></comment></pick><origin publicID="de.gempa.tb1.Origin/20250411205220.689118.65824"><time><value>2025-04-11T20:51:14.580575Z</value><uncertainty>0.7178354263305664</uncertainty></time><latitude><value>-21.149560928344727</value><uncertainty>3.546483039855957</uncertainty></latitude><longitude><value>-68.96949005126953</value><uncertainty>8.994847297668457</uncertainty></longitude><depth><value>117.4105453491211</value><uncertainty>7.061531066894531</uncertainty></depth><depthType>from location</depthType><methodID>LOCSAT</methodID><earthModelID>iasp91_scanloc</earthModelID><quality><associatedPhaseCount>14</associatedPhaseCount><usedPhaseCount>14</usedPhaseCount><associatedStationCount>8</associatedStationCount><usedStationCount>8</usedStationCount><depthPhaseCount>0</depthPhaseCount><standardError>0.24608781657160494</standardError><azimuthalGap>221.34115600585938</azimuthalGap><maximumDistance>2.75817608833313</maximumDistance><minimumDistance>0.4950501620769501</minimumDistance><medianDistance>1.0291420221328735</medianDistance></quality><uncertainty><minHorizontalUncertainty>6.798073768615723</minHorizontalUncertainty><maxHorizontalUncertainty>19.581459045410156</maxHorizontalUncertainty><azimuthMaxHorizontalUncertainty>79.31551361083984</azimuthMaxHorizontalUncertainty><preferredDescription>horizontal uncertainty</preferredDescription></uncertainty><evaluationMode>automatic</evaluationMode><evaluationStatus>confirmed</evaluationStatus><comment><text>0.19</text><id>mismatchScore</id></comment><comment><text>mismatchScore</text><id>scevalMethod</id></comment><arrival><pickID>de.gempa.tb1.Pick/20250411205137.557744.120024</pickID><phase>P</phase><azimuth>282.2476806640625</azimuth><distance>0.4950501620769501</distance><timeResidual>-0.14848709106445312</timeResidual><timeUsed>true</timeUsed><horizontalSlownessUsed>false</horizontalSlownessUsed><backazimuthUsed>false</backazimuthUsed><weight>1</weight></arrival><arrival><pickID>de.gempa.tb1.Pick/20250411205141.451146.120026</pickID><phase>P</phase><azimuth>258.74993896484375</azimuth><distance>0.8808134198188782</distance><timeResidual>0.3731880187988281</timeResidual><timeUsed>true</timeUsed><horizontalSlownessUsed>false</horizontalSlownessUsed><backazimuthUsed>false</backazimuthUsed><weight>1</weight></arrival><arrival><pickID>de.gempa.tb1.Pick/20250411205144.550995.120028</pickID><phase>P</phase><azimuth>219.0458221435547</azimuth><distance>1.1540908813476562</distance><timeResidual>0.09535598754882812</timeResidual><timeUsed>true</timeUsed><horizontalSlownessUsed>false</horizontalSlownessUsed><backazimuthUsed>false</backazimuthUsed><weight>1</weight></arrival><arrival><pickID>de.gempa.tb1.Pick/20250411205149.530845.120031</pickID><phase>P</phase><azimuth>201.46688842773438</azimuth><distance>0.6918513178825378</distance><timeResidual>-0.09276199340820312</timeResidual><timeUsed>true</timeUsed><horizontalSlownessUsed>false</horizontalSlownessUsed><backazimuthUsed>false</backazimuthUsed><weight>1</weight></arrival><arrival><pickID>de.gempa.tb1.Pick/20250411205149.577434.120033</pickID><phase>P</phase><azimuth>199.74652099609375</azimuth><distance>1.6466023921966553</distance><timeResidual>0.031141281127929691</timeResidual><timeUsed>true</timeUsed><horizontalSlownessUsed>false</horizontalSlownessUsed><backazimuthUsed>false</backazimuthUsed><weight>1</weight></arrival><arrival><pickID>de.gempa.tb1.Pick/20250411205153.736101.120035</pickID><phase>S</phase><azimuth>282.2476806640625</azimuth><distance>0.4950501620769501</distance><timeResidual>-0.18712425231933594</timeResidual><timeUsed>true</timeUsed><horizontalSlownessUsed>false</horizontalSlownessUsed><backazimuthUsed>false</backazimuthUsed><weight>1</weight></arrival><arrival><pickID>de.gempa.tb1.Pick/20250411205154.11303.120036</pickID><phase>P</phase><azimuth>235.9162292480469</azimuth><distance>1.0291420221328735</distance><timeResidual>0.17695045471191406</timeResidual><timeUsed>true</timeUsed><horizontalSlownessUsed>false</horizontalSlownessUsed><backazimuthUsed>false</backazimuthUsed><weight>1</weight></arrival><arrival><pickID>de.gempa.tb1.Pick/20250411205155.674269.120038</pickID><phase>P</phase><azimuth>324.7786865234375</azimuth><distance>1.8859151601791382</distance><timeResidual>-0.4131965637207031</timeResidual><timeUsed>true</timeUsed><horizontalSlownessUsed>false</horizontalSlownessUsed><backazimuthUsed>false</backazimuthUsed><weight>1</weight></arrival><arrival><pickID>de.gempa.tb1.Pick/20250411205158.484667.120040</pickID><phase>S</phase><azimuth>258.74993896484375</azimuth><distance>0.8808134198188782</distance><timeResidual>0.22225379943847656</timeResidual><timeUsed>true</timeUsed><horizontalSlownessUsed>false</horizontalSlownessUsed><backazimuthUsed>false</backazimuthUsed><weight>1</weight></arrival><arrival><pickID>de.gempa.tb1.Pick/20250411205202.268662.120043</pickID><phase>S</phase><azimuth>201.46688842773438</azimuth><distance>0.6918513178825378</distance><timeResidual>0.2907695770263672</timeResidual><timeUsed>true</timeUsed><horizontalSlownessUsed>false</horizontalSlownessUsed><backazimuthUsed>false</backazimuthUsed><weight>1</weight></arrival><arrival><pickID>de.gempa.tb1.Pick/20250411205202.635984.120044</pickID><phase>P</phase><azimuth>186.11984252929688</azimuth><distance>2.75817608833313</distance><timeResidual>0.03252220153808594</timeResidual><timeUsed>true</timeUsed><horizontalSlownessUsed>false</horizontalSlownessUsed><backazimuthUsed>false</backazimuthUsed><weight>1</weight></arrival><arrival><pickID>de.gempa.tb1.Pick/20250411205202.75733.120046</pickID><phase>S</phase><azimuth>219.0458221435547</azimuth><distance>1.1540908813476562</distance><timeResidual>-0.4956264495849609</timeResidual><timeUsed>true</timeUsed><horizontalSlownessUsed>false</horizontalSlownessUsed><backazimuthUsed>false</backazimuthUsed><weight>1</weight></arrival><arrival><pickID>de.gempa.tb1.Pick/20250411205202.964566.120047</pickID><phase>S</phase><azimuth>235.9162292480469</azimuth><distance>1.0291420221328735</distance><timeResidual>-0.09012794494628906</timeResidual><timeUsed>true</timeUsed><horizontalSlownessUsed>false</horizontalSlownessUsed><backazimuthUsed>false</backazimuthUsed><weight>1</weight></arrival><arrival><pickID>de.gempa.tb1.Pick/20250411205220.686219.120055</pickID><phase>S</phase><azimuth>324.7786865234375</azimuth><distance>1.8859151601791382</distance><timeResidual>0.20497703552246094</timeResidual><timeUsed>true</timeUsed><horizontalSlownessUsed>false</horizontalSlownessUsed><backazimuthUsed>false</backazimuthUsed><weight>1</weight></arrival><magnitude publicID="de.gempa.tb1.Magnitude/20250411205225.938522.142093"><magnitude><value>2.3199396210356427</value></magnitude><type>M</type><methodID>weighted average</methodID><stationCount>4</stationCount></magnitude></origin><event publicID="gempa2025hehx"><preferredOriginID>de.gempa.tb1.Origin/20250411205220.689118.65824</preferredOriginID><preferredMagnitudeID>de.gempa.tb1.Magnitude/20250411205225.938522.142093</preferredMagnitudeID><description><text>Chile-Bolivia Border Region</text><type>region name</type></description><originReference>de.gempa.tb1.Origin/20250411205220.689118.65824</originReference></event></EventParameters></seiscomp>