<?xml version="1.0" encoding="UTF-8"?>
<seiscomp xmlns="http://geofon.gfz-potsdam.de/ns/seiscomp3-schema/0.13" version="0.13"><EventParameters><pick publicID="de.gempa.tb1.Pick/20250412192528.283979.186785"><time><value>2025-04-12T19:25:21.58Z</value></time><waveformID networkCode="SX" stationCode="ROHR" channelCode="HHZ"/><filterID>ITAPER(2)&gt;&gt;BW(3,3,20)</filterID><methodID>AIC</methodID><horizontalSlowness><value>6.93817486180345</value></horizontalSlowness><backazimuth><value>226.30109361421836</value></backazimuth><phaseHint>P</phaseHint><evaluationMode>automatic</evaluationMode><comment><text>3.862264173767566</text><id>DFX:rectilinearity</id></comment></pick><pick publicID="de.gempa.tb1.Pick/20250412192533.561937.186787"><time><value>2025-04-12T19:25:21.3275Z</value></time><waveformID networkCode="SX" stationCode="WERN" channelCode="HHZ"/><filterID>ITAPER(2)&gt;&gt;BW(3,3,20)</filterID><methodID>AIC</methodID><horizontalSlowness><value>22.97803463558632</value></horizontalSlowness><backazimuth><value>48.75573480148373</value></backazimuth><phaseHint>P</phaseHint><evaluationMode>automatic</evaluationMode><comment><text>29.112818099386086</text><id>DFX:rectilinearity</id></comment></pick><pick publicID="de.gempa.tb1.Pick/20250412192533.568869.186789"><time><value>2025-04-12T19:25:23.47Z</value></time><waveformID networkCode="SX" stationCode="WERD" channelCode="HHZ"/><filterID>ITAPER(2)&gt;&gt;BW(3,3,20)</filterID><methodID>AIC</methodID><horizontalSlowness><value>22.38798810074568</value></horizontalSlowness><backazimuth><value>242.48898753377694</value></backazimuth><phaseHint>P</phaseHint><evaluationMode>automatic</evaluationMode><comment><text>3.1024578781808856</text><id>DFX:rectilinearity</id></comment></pick><pick publicID="de.gempa.tb1.Pick/20250412192533.571358.186791"><time><value>2025-04-12T19:25:22.8175Z</value></time><waveformID networkCode="SX" stationCode="WERN" channelCode="HHN"/><filterID>ITAPER(3)&gt;&gt;BW(4,3,10)</filterID><methodID>L2-AIC-GRID</methodID><horizontalSlowness><value>23.106899900376963</value></horizontalSlowness><backazimuth><value>50.68085025754604</value></backazimuth><phaseHint>S</phaseHint><evaluationMode>automatic</evaluationMode><comment><text>25.68164621629566</text><id>DFX:rectilinearity</id></comment><comment><text>de.gempa.tb1.Pick/20250412192533.561937.186787</text><id>RefPickID</id></comment></pick><pick publicID="de.gempa.tb1.Pick/20250412192533.586409.186794"><time><value>2025-04-12T19:25:22.59Z</value></time><waveformID networkCode="SX" stationCode="TANN" channelCode="HHZ"/><filterID>ITAPER(2)&gt;&gt;BW(3,3,20)</filterID><methodID>AIC</methodID><horizontalSlowness><value>20.227756974116136</value></horizontalSlowness><backazimuth><value>103.99985487592336</value></backazimuth><phaseHint>P</phaseHint><evaluationMode>automatic</evaluationMode><comment><text>1.2887998787996555</text><id>DFX:rectilinearity</id></comment></pick><pick publicID="de.gempa.tb1.Pick/20250412192533.60484.186796"><time><value>2025-04-12T19:25:22.61Z</value></time><waveformID networkCode="SX" stationCode="MULD" channelCode="HHZ"/><filterID>ITAPER(2)&gt;&gt;BW(3,3,20)</filterID><methodID>AIC</methodID><horizontalSlowness><value>22.414168271379474</value></horizontalSlowness><backazimuth><value>326.94272870953023</value></backazimuth><phaseHint>P</phaseHint><evaluationMode>automatic</evaluationMode><comment><text>1.5700511946659184</text><id>DFX:rectilinearity</id></comment></pick><pick publicID="de.gempa.tb1.Pick/20250412192534.454141.186798"><time><value>2025-04-12T19:25:23.6Z</value></time><waveformID networkCode="SX" stationCode="TRIB" channelCode="HHZ"/><filterID>ITAPER(2)&gt;&gt;BW(3,3,20)</filterID><methodID>AIC</methodID><horizontalSlowness><value>20.924610177088883</value></horizontalSlowness><backazimuth><value>115.65404735107973</value></backazimuth><phaseHint>P</phaseHint><evaluationMode>automatic</evaluationMode><comment><text>1.5756374897189367</text><id>DFX:rectilinearity</id></comment></pick><pick publicID="de.gempa.tb1.Pick/20250412192535.861697.186804"><time><value>2025-04-12T19:25:24.97Z</value></time><waveformID networkCode="SX" stationCode="TANN" channelCode="HHN"/><filterID>ITAPER(3)&gt;&gt;BW(4,3,10)</filterID><methodID>L2-AIC-GRID</methodID><horizontalSlowness><value>21.23595839403954</value></horizontalSlowness><backazimuth><value>107.11827357274431</value></backazimuth><phaseHint>S</phaseHint><evaluationMode>automatic</evaluationMode><comment><text>1.2859462153305476</text><id>DFX:rectilinearity</id></comment><comment><text>de.gempa.tb1.Pick/20250412192533.586409.186794</text><id>RefPickID</id></comment></pick><pick publicID="de.gempa.tb1.Pick/20250412192536.369171.186805"><time><value>2025-04-12T19:25:24.93Z</value></time><waveformID networkCode="SX" stationCode="MULD" channelCode="HHN"/><filterID>ITAPER(3)&gt;&gt;BW(4,3,10)</filterID><methodID>L2-AIC-GRID</methodID><horizontalSlowness><value>21.3627408544873</value></horizontalSlowness><backazimuth><value>318.4890475574525</value></backazimuth><phaseHint>S</phaseHint><evaluationMode>automatic</evaluationMode><comment><text>1.6269297240534262</text><id>DFX:rectilinearity</id></comment><comment><text>de.gempa.tb1.Pick/20250412192533.60484.186796</text><id>RefPickID</id></comment></pick><origin publicID="de.gempa.tb1.Origin/20250412192543.431874.116953"><time><value>2025-04-12T19:25:18.725937Z</value><uncertainty>1.1457403898239136</uncertainty></time><latitude><value>50.27991485595703</value><uncertainty>7.090056419372559</uncertainty></latitude><longitude><value>12.465543746948242</value><uncertainty>8.8513822555542</uncertainty></longitude><depth><value>7.148369312286377</value><uncertainty>9.627580642700195</uncertainty></depth><depthType>from location</depthType><methodID>LOCSAT</methodID><earthModelID>iasp91</earthModelID><quality><associatedPhaseCount>9</associatedPhaseCount><usedPhaseCount>9</usedPhaseCount><associatedStationCount>6</associatedStationCount><usedStationCount>6</usedStationCount><depthPhaseCount>0</depthPhaseCount><standardError>0.22481634901595374</standardError><azimuthalGap>245.54840087890625</azimuthalGap><maximumDistance>0.22264903783798218</maximumDistance><minimumDistance>0.05786788463592529</minimumDistance><medianDistance>0.13528291881084442</medianDistance></quality><uncertainty><minHorizontalUncertainty>5.728023529052734</minHorizontalUncertainty><maxHorizontalUncertainty>23.63404846191406</maxHorizontalUncertainty><azimuthMaxHorizontalUncertainty>127.8926239013672</azimuthMaxHorizontalUncertainty><preferredDescription>horizontal uncertainty</preferredDescription></uncertainty><evaluationMode>automatic</evaluationMode><evaluationStatus>confirmed</evaluationStatus><comment><text>0.02</text><id>mismatchScore</id></comment><comment><text>mismatchScore</text><id>scevalMethod</id></comment><arrival><pickID>de.gempa.tb1.Pick/20250412192528.283979.186785</pickID><phase>P</phase><azimuth>244.3172607421875</azimuth><distance>0.10585024207830429</distance><timeResidual>-0.27155447006225586</timeResidual><timeUsed>true</timeUsed><horizontalSlownessUsed>false</horizontalSlownessUsed><backazimuthUsed>false</backazimuthUsed><weight>1</weight></arrival><arrival><pickID>de.gempa.tb1.Pick/20250412192533.561937.186787</pickID><phase>P</phase><azimuth>277.474609375</azimuth><distance>0.05786788463592529</distance><timeResidual>0.33495426177978516</timeResidual><timeUsed>true</timeUsed><horizontalSlownessUsed>false</horizontalSlownessUsed><backazimuthUsed>false</backazimuthUsed><weight>1</weight></arrival><arrival><pickID>de.gempa.tb1.Pick/20250412192533.568869.186789</pickID><phase>P</phase><azimuth>328.9564514160156</azimuth><distance>0.19655242562294006</distance><timeResidual>-0.004603385925292969</timeResidual><timeUsed>true</timeUsed><horizontalSlownessUsed>false</horizontalSlownessUsed><backazimuthUsed>false</backazimuthUsed><weight>1</weight></arrival><arrival><pickID>de.gempa.tb1.Pick/20250412192533.571358.186791</pickID><phase>S</phase><azimuth>277.474609375</azimuth><distance>0.05786788463592529</distance><timeResidual>0.16218996047973633</timeResidual><timeUsed>true</timeUsed><horizontalSlownessUsed>false</horizontalSlownessUsed><backazimuthUsed>false</backazimuthUsed><weight>1</weight></arrival><arrival><pickID>de.gempa.tb1.Pick/20250412192533.586409.186794</pickID><phase>P</phase><azimuth>358.76885986328125</azimuth><distance>0.13528291881084442</distance><timeResidual>0.2120373249053955</timeResidual><timeUsed>true</timeUsed><horizontalSlownessUsed>false</horizontalSlownessUsed><backazimuthUsed>false</backazimuthUsed><weight>1</weight></arrival><arrival><pickID>de.gempa.tb1.Pick/20250412192533.60484.186796</pickID><phase>P</phase><azimuth>343.3720703125</azimuth><distance>0.13782687485218048</distance><timeResidual>0.1864931583404541</timeResidual><timeUsed>true</timeUsed><horizontalSlownessUsed>false</horizontalSlownessUsed><backazimuthUsed>false</backazimuthUsed><weight>1</weight></arrival><arrival><pickID>de.gempa.tb1.Pick/20250412192534.454141.186798</pickID><phase>P</phase><azimuth>289.040771484375</azimuth><distance>0.22264903783798218</distance><timeResidual>-0.34195971488952637</timeResidual><timeUsed>true</timeUsed><horizontalSlownessUsed>false</horizontalSlownessUsed><backazimuthUsed>false</backazimuthUsed><weight>1</weight></arrival><arrival><pickID>de.gempa.tb1.Pick/20250412192535.861697.186804</pickID><phase>S</phase><azimuth>358.76885986328125</azimuth><distance>0.13528291881084442</distance><timeResidual>-0.08008861541748047</timeResidual><timeUsed>true</timeUsed><horizontalSlownessUsed>false</horizontalSlownessUsed><backazimuthUsed>false</backazimuthUsed><weight>1</weight></arrival><arrival><pickID>de.gempa.tb1.Pick/20250412192536.369171.186805</pickID><phase>S</phase><azimuth>343.3720703125</azimuth><distance>0.13782687485218048</distance><timeResidual>-0.19881749153137207</timeResidual><timeUsed>true</timeUsed><horizontalSlownessUsed>false</horizontalSlownessUsed><backazimuthUsed>false</backazimuthUsed><weight>1</weight></arrival><magnitude publicID="de.gempa.tb1.Magnitude/20250412192559.470466.269514"><magnitude><value>0.2653314045421228</value></magnitude><type>M</type><methodID>weighted average</methodID><stationCount>6</stationCount></magnitude></origin><event publicID="gempa2025hgbb"><preferredOriginID>de.gempa.tb1.Origin/20250412192543.431874.116953</preferredOriginID><preferredMagnitudeID>de.gempa.tb1.Magnitude/20250412192559.470466.269514</preferredMagnitudeID><description><text>Germany</text><type>region name</type></description><originReference>de.gempa.tb1.Origin/20250412192543.431874.116953</originReference></event></EventParameters></seiscomp>