<?xml version="1.0" encoding="UTF-8"?>
<seiscomp xmlns="http://geofon.gfz-potsdam.de/ns/seiscomp3-schema/0.13" version="0.13"><EventParameters><pick publicID="de.gempa.tb1.Pick/20250412182059.680192.125892"><time><value>2025-04-12T18:20:54.098393Z</value></time><waveformID networkCode="CX" stationCode="PB02" channelCode="HHZ"/><filterID>ITAPER(4)&gt;&gt;BW(4,4,20)</filterID><methodID>AIC</methodID><horizontalSlowness><value>3.634209576285575</value></horizontalSlowness><backazimuth><value>53.10560696782953</value></backazimuth><phaseHint>P</phaseHint><evaluationMode>automatic</evaluationMode><comment><text>60.90628686430254</text><id>DFX:rectilinearity</id></comment><comment><text>190.40097151676343</text><id>SNR</id></comment></pick><pick publicID="de.gempa.tb1.Pick/20250412182101.06121.125894"><time><value>2025-04-12T18:20:55.698393Z</value></time><waveformID networkCode="CX" stationCode="PB07" channelCode="HHZ"/><filterID>ITAPER(4)&gt;&gt;BW(4,4,20)</filterID><methodID>AIC</methodID><horizontalSlowness><value>21.07401215780894</value></horizontalSlowness><backazimuth><value>293.6203947453517</value></backazimuth><phaseHint>P</phaseHint><evaluationMode>automatic</evaluationMode><comment><text>409.08007488542665</text><id>DFX:rectilinearity</id></comment><comment><text>26.576802394595983</text><id>SNR</id></comment></pick><pick publicID="de.gempa.tb1.Pick/20250412182102.569305.125896"><time><value>2025-04-12T18:20:56.958393Z</value></time><waveformID networkCode="CX" stationCode="PB01" channelCode="HHZ"/><filterID>ITAPER(4)&gt;&gt;BW(4,4,20)</filterID><methodID>AIC</methodID><horizontalSlowness><value>23.0988339654056</value></horizontalSlowness><backazimuth><value>337.460854464609</value></backazimuth><phaseHint>P</phaseHint><evaluationMode>automatic</evaluationMode><comment><text>4.689379429006103</text><id>DFX:rectilinearity</id></comment><comment><text>19.576503328792192</text><id>SNR</id></comment></pick><pick publicID="de.gempa.tb1.Pick/20250412182103.623819.125898"><time><value>2025-04-12T18:20:59.358393Z</value></time><waveformID networkCode="CX" stationCode="PB03" channelCode="HHZ"/><filterID>ITAPER(4)&gt;&gt;BW(4,4,20)</filterID><methodID>AIC</methodID><horizontalSlowness><value>9.090718832311225</value></horizontalSlowness><backazimuth><value>6.433029996887967</value></backazimuth><phaseHint>P</phaseHint><evaluationMode>automatic</evaluationMode><comment><text>19.183164989267528</text><id>DFX:rectilinearity</id></comment><comment><text>43.47392201611423</text><id>SNR</id></comment></pick><pick publicID="de.gempa.tb1.Pick/20250412182109.615654.125900"><time><value>2025-04-12T18:20:59.638393Z</value></time><waveformID networkCode="CX" stationCode="PB02" channelCode="HHN"/><filterID>ITAPER(2)&gt;&gt;BW(3,3,20)</filterID><methodID>L2-AIC-GRID</methodID><horizontalSlowness><value>20.36709099717035</value></horizontalSlowness><backazimuth><value>307.3958361531961</value></backazimuth><phaseHint>S</phaseHint><evaluationMode>automatic</evaluationMode><comment><text>722.8437253240513</text><id>DFX:rectilinearity</id></comment><comment><text>de.gempa.tb1.Pick/20250412182059.680192.125892</text><id>RefPickID</id></comment><comment><text>7.01139783672246</text><id>SNR</id></comment></pick><pick publicID="de.gempa.tb1.Pick/20250412182111.772476.125901"><time><value>2025-04-12T18:21:02.218393Z</value></time><waveformID networkCode="CX" stationCode="PB07" channelCode="HHN"/><filterID>ITAPER(2)&gt;&gt;BW(3,3,20)</filterID><methodID>L2-AIC-GRID</methodID><horizontalSlowness><value>22.603090547615793</value></horizontalSlowness><backazimuth><value>142.65931482028645</value></backazimuth><phaseHint>S</phaseHint><evaluationMode>automatic</evaluationMode><comment><text>8839.247546908053</text><id>DFX:rectilinearity</id></comment><comment><text>de.gempa.tb1.Pick/20250412182101.06121.125894</text><id>RefPickID</id></comment><comment><text>14.150470092209384</text><id>SNR</id></comment></pick><pick publicID="de.gempa.tb1.Pick/20250412182112.534822.125902"><time><value>2025-04-12T18:20:59.95Z</value></time><waveformID networkCode="CX" stationCode="PB09" channelCode="HHZ"/><filterID>ITAPER(4)&gt;&gt;BW(4,4,20)</filterID><methodID>AIC</methodID><horizontalSlowness><value>11.60006691616792</value></horizontalSlowness><backazimuth><value>315.3898795190081</value></backazimuth><phaseHint>P</phaseHint><evaluationMode>automatic</evaluationMode><comment><text>22.760663072171965</text><id>DFX:rectilinearity</id></comment><comment><text>40.20089384218825</text><id>SNR</id></comment></pick><pick publicID="de.gempa.tb1.Pick/20250412182115.632327.125906"><time><value>2025-04-12T18:21:04.628393Z</value></time><waveformID networkCode="CX" stationCode="PB01" channelCode="HHN"/><filterID>ITAPER(2)&gt;&gt;BW(3,3,20)</filterID><methodID>L2-AIC-GRID</methodID><horizontalSlowness><value>19.697707767057302</value></horizontalSlowness><backazimuth><value>330.95459180437285</value></backazimuth><phaseHint>S</phaseHint><evaluationMode>automatic</evaluationMode><comment><text>75.86065385603314</text><id>DFX:rectilinearity</id></comment><comment><text>de.gempa.tb1.Pick/20250412182102.569305.125896</text><id>RefPickID</id></comment><comment><text>14.24340132614139</text><id>SNR</id></comment></pick><pick publicID="de.gempa.tb1.Pick/20250412182115.770714.125907"><time><value>2025-04-12T18:21:08.818393Z</value></time><waveformID networkCode="CX" stationCode="PB03" channelCode="HHN"/><filterID>ITAPER(2)&gt;&gt;BW(3,3,20)</filterID><methodID>L2-AIC-GRID</methodID><horizontalSlowness><value>19.036732312476047</value></horizontalSlowness><backazimuth><value>275.13021120990686</value></backazimuth><phaseHint>S</phaseHint><evaluationMode>automatic</evaluationMode><comment><text>25.461092721871285</text><id>DFX:rectilinearity</id></comment><comment><text>de.gempa.tb1.Pick/20250412182103.623819.125898</text><id>RefPickID</id></comment><comment><text>10.141719214180549</text><id>SNR</id></comment></pick><pick publicID="de.gempa.tb1.Pick/20250412182124.514277.125908"><time><value>2025-04-12T18:21:16.590001Z</value></time><waveformID networkCode="CX" stationCode="PSGCX" channelCode="HHZ"/><filterID>ITAPER(4)&gt;&gt;BW(4,4,20)</filterID><methodID>AIC</methodID><horizontalSlowness><value>10.061566333606248</value></horizontalSlowness><backazimuth><value>287.6426257848176</value></backazimuth><phaseHint>P</phaseHint><evaluationMode>automatic</evaluationMode><comment><text>14.92698330645887</text><id>DFX:rectilinearity</id></comment><comment><text>10.26709578064996</text><id>SNR</id></comment></pick><pick publicID="de.gempa.tb1.Pick/20250412182125.058969.125910"><time><value>2025-04-12T18:21:09.62Z</value></time><waveformID networkCode="CX" stationCode="PB09" channelCode="HHN"/><filterID>ITAPER(2)&gt;&gt;BW(3,3,20)</filterID><methodID>L2-AIC-GRID</methodID><horizontalSlowness><value>17.948856956557876</value></horizontalSlowness><backazimuth><value>287.1945225080155</value></backazimuth><phaseHint>S</phaseHint><evaluationMode>automatic</evaluationMode><comment><text>72.69562622483222</text><id>DFX:rectilinearity</id></comment><comment><text>de.gempa.tb1.Pick/20250412182112.534822.125902</text><id>RefPickID</id></comment><comment><text>5.655790412528185</text><id>SNR</id></comment></pick><origin publicID="de.gempa.tb1.Origin/20250412182125.063657.89520"><time><value>2025-04-12T18:20:47.078292Z</value><uncertainty>0.6274917125701904</uncertainty></time><latitude><value>-21.411928176879883</value><uncertainty>2.46913743019104</uncertainty></latitude><longitude><value>-69.78485870361328</value><uncertainty>4.4365968704223633</uncertainty></longitude><depth><value>41.84416961669922</value><uncertainty>6.034121513366699</uncertainty></depth><depthType>from location</depthType><methodID>LOCSAT</methodID><earthModelID>iasp91_scanloc</earthModelID><quality><associatedPhaseCount>11</associatedPhaseCount><usedPhaseCount>11</usedPhaseCount><associatedStationCount>6</associatedStationCount><usedStationCount>6</usedStationCount><depthPhaseCount>0</depthPhaseCount><standardError>0.33767750767867916</standardError><azimuthalGap>114.7616424560547</azimuthalGap><maximumDistance>1.833184003829956</maximumDistance><minimumDistance>0.1383969634771347</minimumDistance><medianDistance>0.4600142240524292</medianDistance></quality><uncertainty><minHorizontalUncertainty>5.26029109954834</minHorizontalUncertainty><maxHorizontalUncertainty>9.531643867492676</maxHorizontalUncertainty><azimuthMaxHorizontalUncertainty>94.3196792602539</azimuthMaxHorizontalUncertainty><preferredDescription>horizontal uncertainty</preferredDescription></uncertainty><evaluationMode>automatic</evaluationMode><evaluationStatus>confirmed</evaluationStatus><comment><text>0.13</text><id>mismatchScore</id></comment><comment><text>mismatchScore</text><id>scevalMethod</id></comment><arrival><pickID>de.gempa.tb1.Pick/20250412182059.680192.125892</pickID><phase>P</phase><azimuth>311.50091552734375</azimuth><distance>0.1383969634771347</distance><timeResidual>-0.024277210235595703</timeResidual><timeUsed>true</timeUsed><horizontalSlownessUsed>false</horizontalSlownessUsed><backazimuthUsed>false</backazimuthUsed><weight>1</weight></arrival><arrival><pickID>de.gempa.tb1.Pick/20250412182101.06121.125894</pickID><phase>P</phase><azimuth>196.73927307128906</azimuth><distance>0.3270896375179291</distance><timeResidual>-0.09485292434692383</timeResidual><timeUsed>true</timeUsed><horizontalSlownessUsed>false</horizontalSlownessUsed><backazimuthUsed>false</backazimuthUsed><weight>1</weight></arrival><arrival><pickID>de.gempa.tb1.Pick/20250412182102.569305.125896</pickID><phase>P</phase><azimuth>37.1595573425293</azimuth><distance>0.4600142240524292</distance><timeResidual>-0.4302558898925781</timeResidual><timeUsed>true</timeUsed><horizontalSlownessUsed>false</horizontalSlownessUsed><backazimuthUsed>false</backazimuthUsed><weight>1</weight></arrival><arrival><pickID>de.gempa.tb1.Pick/20250412182103.623819.125898</pickID><phase>P</phase><azimuth>177.33660888671875</azimuth><distance>0.6341267228126526</distance><timeResidual>-0.31301307678222656</timeResidual><timeUsed>true</timeUsed><horizontalSlownessUsed>false</horizontalSlownessUsed><backazimuthUsed>false</backazimuthUsed><weight>1</weight></arrival><arrival><pickID>de.gempa.tb1.Pick/20250412182109.615654.125900</pickID><phase>S</phase><azimuth>311.50091552734375</azimuth><distance>0.1383969634771347</distance><timeResidual>0.31612586975097656</timeResidual><timeUsed>true</timeUsed><horizontalSlownessUsed>false</horizontalSlownessUsed><backazimuthUsed>false</backazimuthUsed><weight>1</weight></arrival><arrival><pickID>de.gempa.tb1.Pick/20250412182111.772476.125901</pickID><phase>S</phase><azimuth>196.73927307128906</azimuth><distance>0.3270896375179291</distance><timeResidual>-0.021886825561523438</timeResidual><timeUsed>true</timeUsed><horizontalSlownessUsed>false</horizontalSlownessUsed><backazimuthUsed>false</backazimuthUsed><weight>1</weight></arrival><arrival><pickID>de.gempa.tb1.Pick/20250412182112.534822.125902</pickID><phase>P</phase><azimuth>127.23147583007812</azimuth><distance>0.6337500214576721</distance><timeResidual>0.28262948989868164</timeResidual><timeUsed>true</timeUsed><horizontalSlownessUsed>false</horizontalSlownessUsed><backazimuthUsed>false</backazimuthUsed><weight>1</weight></arrival><arrival><pickID>de.gempa.tb1.Pick/20250412182115.632327.125906</pickID><phase>S</phase><azimuth>37.1595573425293</azimuth><distance>0.4600142240524292</distance><timeResidual>-0.4245719909667969</timeResidual><timeUsed>true</timeUsed><horizontalSlownessUsed>false</horizontalSlownessUsed><backazimuthUsed>false</backazimuthUsed><weight>1</weight></arrival><arrival><pickID>de.gempa.tb1.Pick/20250412182115.770714.125907</pickID><phase>S</phase><azimuth>177.33660888671875</azimuth><distance>0.6341267228126526</distance><timeResidual>-0.30049705505371094</timeResidual><timeUsed>true</timeUsed><horizontalSlownessUsed>false</horizontalSlownessUsed><backazimuthUsed>false</backazimuthUsed><weight>1</weight></arrival><arrival><pickID>de.gempa.tb1.Pick/20250412182124.514277.125908</pickID><phase>P</phase><azimuth>349.982177734375</azimuth><distance>1.833184003829956</distance><timeResidual>0.5022592544555664</timeResidual><timeUsed>true</timeUsed><horizontalSlownessUsed>false</horizontalSlownessUsed><backazimuthUsed>false</backazimuthUsed><weight>1</weight></arrival><arrival><pickID>de.gempa.tb1.Pick/20250412182125.058969.125910</pickID><phase>S</phase><azimuth>127.23147583007812</azimuth><distance>0.6337500214576721</distance><timeResidual>0.5084142684936523</timeResidual><timeUsed>true</timeUsed><horizontalSlownessUsed>false</horizontalSlownessUsed><backazimuthUsed>false</backazimuthUsed><weight>1</weight></arrival><magnitude publicID="de.gempa.tb1.Magnitude/20250412182125.937697.263678"><magnitude><value>1.8098472657104798</value></magnitude><type>M</type><methodID>weighted average</methodID><stationCount>5</stationCount></magnitude></origin><event publicID="gempa2025hfyx"><preferredOriginID>de.gempa.tb1.Origin/20250412182125.063657.89520</preferredOriginID><preferredMagnitudeID>de.gempa.tb1.Magnitude/20250412182125.937697.263678</preferredMagnitudeID><description><text>Northern Chile</text><type>region name</type></description><originReference>de.gempa.tb1.Origin/20250412182125.063657.89520</originReference></event></EventParameters></seiscomp>