<?xml version="1.0" encoding="UTF-8"?>
<seiscomp xmlns="http://geofon.gfz-potsdam.de/ns/seiscomp3-schema/0.13" version="0.13"><EventParameters><pick publicID="de.gempa.tb1.Pick/20250412231930.425966.127427"><time><value>2025-04-12T23:19:23.82Z</value></time><waveformID networkCode="CX" stationCode="PB09" channelCode="HHZ"/><filterID>ITAPER(4)&gt;&gt;BW(4,4,20)</filterID><methodID>AIC</methodID><horizontalSlowness><value>13.914410295082467</value></horizontalSlowness><backazimuth><value>72.36347191743448</value></backazimuth><phaseHint>P</phaseHint><evaluationMode>automatic</evaluationMode><comment><text>49.37968664931124</text><id>DFX:rectilinearity</id></comment><comment><text>99.19185353061158</text><id>SNR</id></comment></pick><pick publicID="de.gempa.tb1.Pick/20250412231933.576296.127429"><time><value>2025-04-12T23:19:27.528391Z</value></time><waveformID networkCode="CX" stationCode="PB03" channelCode="HHZ"/><filterID>ITAPER(4)&gt;&gt;BW(4,4,20)</filterID><methodID>AIC</methodID><horizontalSlowness><value>3.3682138750256807</value></horizontalSlowness><backazimuth><value>68.20779660083464</value></backazimuth><phaseHint>P</phaseHint><evaluationMode>automatic</evaluationMode><comment><text>51.8229262148175</text><id>DFX:rectilinearity</id></comment><comment><text>60.84768985443894</text><id>SNR</id></comment></pick><pick publicID="de.gempa.tb1.Pick/20250412231934.508529.127431"><time><value>2025-04-12T23:19:29.108393Z</value></time><waveformID networkCode="CX" stationCode="PB06" channelCode="HHZ"/><filterID>ITAPER(4)&gt;&gt;BW(4,4,20)</filterID><methodID>AIC</methodID><horizontalSlowness><value>6.652280578635604</value></horizontalSlowness><backazimuth><value>145.4751744477177</value></backazimuth><phaseHint>P</phaseHint><evaluationMode>automatic</evaluationMode><comment><text>108.11518415108598</text><id>DFX:rectilinearity</id></comment><comment><text>16.626280349503535</text><id>SNR</id></comment></pick><pick publicID="de.gempa.tb1.Pick/20250412231936.462485.127434"><time><value>2025-04-12T23:19:30.438393Z</value></time><waveformID networkCode="CX" stationCode="PB02" channelCode="HHZ"/><filterID>ITAPER(4)&gt;&gt;BW(4,4,20)</filterID><methodID>AIC</methodID><horizontalSlowness><value>5.872248113825018</value></horizontalSlowness><backazimuth><value>313.02899000323555</value></backazimuth><phaseHint>P</phaseHint><evaluationMode>automatic</evaluationMode><comment><text>64.45204854091651</text><id>DFX:rectilinearity</id></comment><comment><text>23.3353029453704</text><id>SNR</id></comment></pick><pick publicID="de.gempa.tb1.Pick/20250412231936.577506.127436"><time><value>2025-04-12T23:19:28.478393Z</value></time><waveformID networkCode="CX" stationCode="PB01" channelCode="HHZ"/><filterID>ITAPER(4)&gt;&gt;BW(4,4,20)</filterID><methodID>AIC</methodID><horizontalSlowness><value>19.41814472331808</value></horizontalSlowness><backazimuth><value>276.9881288031769</value></backazimuth><phaseHint>P</phaseHint><evaluationMode>automatic</evaluationMode><comment><text>19.815525015805143</text><id>DFX:rectilinearity</id></comment><comment><text>44.26268477244608</text><id>SNR</id></comment></pick><pick publicID="de.gempa.tb1.Pick/20250412231954.735817.127438"><time><value>2025-04-12T23:19:45.158391Z</value></time><waveformID networkCode="CX" stationCode="PB03" channelCode="HHN"/><filterID>ITAPER(2)&gt;&gt;BW(3,3,20)</filterID><methodID>L2-AIC-GRID</methodID><horizontalSlowness><value>11.348071446490081</value></horizontalSlowness><backazimuth><value>246.42041455831264</value></backazimuth><phaseHint>S</phaseHint><evaluationMode>automatic</evaluationMode><comment><text>286.4917716652507</text><id>DFX:rectilinearity</id></comment><comment><text>de.gempa.tb1.Pick/20250412231933.576296.127429</text><id>RefPickID</id></comment><comment><text>10.111676163155453</text><id>SNR</id></comment></pick><pick publicID="de.gempa.tb1.Pick/20250412231956.547976.127439"><time><value>2025-04-12T23:19:50.008393Z</value></time><waveformID networkCode="CX" stationCode="PB02" channelCode="HHN"/><filterID>ITAPER(2)&gt;&gt;BW(3,3,20)</filterID><methodID>L2-AIC-GRID</methodID><horizontalSlowness><value>15.431142704565428</value></horizontalSlowness><backazimuth><value>241.19451280543177</value></backazimuth><phaseHint>S</phaseHint><evaluationMode>automatic</evaluationMode><comment><text>424.5151122705097</text><id>DFX:rectilinearity</id></comment><comment><text>de.gempa.tb1.Pick/20250412231936.462485.127434</text><id>RefPickID</id></comment><comment><text>6.153006404680722</text><id>SNR</id></comment></pick><pick publicID="de.gempa.tb1.Pick/20250412231956.576339.127440"><time><value>2025-04-12T23:19:47.028393Z</value></time><waveformID networkCode="CX" stationCode="PB01" channelCode="HHN"/><filterID>ITAPER(2)&gt;&gt;BW(3,3,20)</filterID><methodID>L2-AIC-GRID</methodID><horizontalSlowness><value>19.364387028872727</value></horizontalSlowness><backazimuth><value>4.4213911465797935</value></backazimuth><phaseHint>S</phaseHint><evaluationMode>automatic</evaluationMode><comment><text>258.90639670907655</text><id>DFX:rectilinearity</id></comment><comment><text>de.gempa.tb1.Pick/20250412231936.577506.127436</text><id>RefPickID</id></comment><comment><text>8.255743765123565</text><id>SNR</id></comment></pick><pick publicID="de.gempa.tb1.Pick/20250412231956.649162.127441"><time><value>2025-04-12T23:19:47.698393Z</value></time><waveformID networkCode="CX" stationCode="PB06" channelCode="HHN"/><filterID>ITAPER(2)&gt;&gt;BW(3,3,20)</filterID><methodID>L2-AIC-GRID</methodID><horizontalSlowness><value>22.84259005774033</value></horizontalSlowness><backazimuth><value>312.96485955375283</value></backazimuth><phaseHint>S</phaseHint><evaluationMode>automatic</evaluationMode><comment><text>361.9991109871658</text><id>DFX:rectilinearity</id></comment><comment><text>de.gempa.tb1.Pick/20250412231934.508529.127431</text><id>RefPickID</id></comment><comment><text>10.046895408864907</text><id>SNR</id></comment></pick><pick publicID="de.gempa.tb1.Pick/20250412232000.710042.127443"><time><value>2025-04-12T23:19:29.028394Z</value></time><waveformID networkCode="CX" stationCode="PB07" channelCode="HHZ"/><filterID>ITAPER(4)&gt;&gt;BW(4,4,20)</filterID><methodID>AIC</methodID><horizontalSlowness><value>23.19711991385684</value></horizontalSlowness><backazimuth><value>265.9222854936208</value></backazimuth><phaseHint>P</phaseHint><evaluationMode>automatic</evaluationMode><comment><text>446.0962671984283</text><id>DFX:rectilinearity</id></comment><comment><text>163.789327257019</text><id>SNR</id></comment></pick><origin publicID="de.gempa.tb1.Origin/20250412232002.230311.94839"><time><value>2025-04-12T23:19:05.018752Z</value><uncertainty>1.168904185295105</uncertainty></time><latitude><value>-21.88599967956543</value><uncertainty>4.635169506072998</uncertainty></latitude><longitude><value>-68.63613891601562</value><uncertainty>14.356639862060547</uncertainty></longitude><depth><value>121.0295867919922</value><uncertainty>16.79022216796875</uncertainty></depth><depthType>from location</depthType><methodID>LOCSAT</methodID><earthModelID>iasp91_scanloc</earthModelID><quality><associatedPhaseCount>10</associatedPhaseCount><usedPhaseCount>10</usedPhaseCount><associatedStationCount>6</associatedStationCount><usedStationCount>6</usedStationCount><depthPhaseCount>0</depthPhaseCount><standardError>0.1429044815207084</standardError><azimuthalGap>270.1027069091797</azimuthalGap><maximumDistance>1.3008259534835815</maximumDistance><minimumDistance>0.5698397159576416</minimumDistance><medianDistance>1.1724284887313843</medianDistance></quality><uncertainty><minHorizontalUncertainty>9.912748336791992</minHorizontalUncertainty><maxHorizontalUncertainty>30.79133987426758</maxHorizontalUncertainty><azimuthMaxHorizontalUncertainty>88.59268188476562</azimuthMaxHorizontalUncertainty><preferredDescription>horizontal uncertainty</preferredDescription></uncertainty><evaluationMode>automatic</evaluationMode><evaluationStatus>confirmed</evaluationStatus><comment><text>0.00</text><id>mismatchScore</id></comment><comment><text>mismatchScore</text><id>scevalMethod</id></comment><arrival><pickID>de.gempa.tb1.Pick/20250412231930.425966.127427</pickID><phase>P</phase><azimuth>278.8922424316406</azimuth><distance>0.5698397159576416</distance><timeResidual>0.2624931335449219</timeResidual><timeUsed>true</timeUsed><horizontalSlownessUsed>false</horizontalSlownessUsed><backazimuthUsed>false</backazimuthUsed><weight>1</weight></arrival><arrival><pickID>de.gempa.tb1.Pick/20250412231933.576296.127429</pickID><phase>P</phase><azimuth>260.9292297363281</azimuth><distance>1.0493617057800293</distance><timeResidual>-0.137603759765625</timeResidual><timeUsed>true</timeUsed><horizontalSlownessUsed>false</horizontalSlownessUsed><backazimuthUsed>false</backazimuthUsed><weight>1</weight></arrival><arrival><pickID>de.gempa.tb1.Pick/20250412231934.508529.127431</pickID><phase>P</phase><azimuth>226.55152893066406</azimuth><distance>1.1902318000793457</distance><timeResidual>-0.004634857177734375</timeResidual><timeUsed>true</timeUsed><horizontalSlownessUsed>false</horizontalSlownessUsed><backazimuthUsed>false</backazimuthUsed><weight>1</weight></arrival><arrival><pickID>de.gempa.tb1.Pick/20250412231936.462485.127434</pickID><phase>P</phase><azimuth>295.4380187988281</azimuth><distance>1.3008259534835815</distance><timeResidual>0.12473297119140625</timeResidual><timeUsed>true</timeUsed><horizontalSlownessUsed>false</horizontalSlownessUsed><backazimuthUsed>false</backazimuthUsed><weight>1</weight></arrival><arrival><pickID>de.gempa.tb1.Pick/20250412231936.577506.127436</pickID><phase>P</phase><azimuth>316.4488220214844</azimuth><distance>1.1541264057159424</distance><timeResidual>-0.26476097106933594</timeResidual><timeUsed>true</timeUsed><horizontalSlownessUsed>false</horizontalSlownessUsed><backazimuthUsed>false</backazimuthUsed><weight>1</weight></arrival><arrival><pickID>de.gempa.tb1.Pick/20250412231954.735817.127438</pickID><phase>S</phase><azimuth>260.9292297363281</azimuth><distance>1.0493617057800293</distance><timeResidual>-0.026746749877929691</timeResidual><timeUsed>true</timeUsed><horizontalSlownessUsed>false</horizontalSlownessUsed><backazimuthUsed>false</backazimuthUsed><weight>1</weight></arrival><arrival><pickID>de.gempa.tb1.Pick/20250412231956.547976.127439</pickID><phase>S</phase><azimuth>295.4380187988281</azimuth><distance>1.3008259534835815</distance><timeResidual>0.09737205505371094</timeResidual><timeUsed>true</timeUsed><horizontalSlownessUsed>false</horizontalSlownessUsed><backazimuthUsed>false</backazimuthUsed><weight>1</weight></arrival><arrival><pickID>de.gempa.tb1.Pick/20250412231956.576339.127440</pickID><phase>S</phase><azimuth>316.4488220214844</azimuth><distance>1.1541264057159424</distance><timeResidual>-0.07794761657714844</timeResidual><timeUsed>true</timeUsed><horizontalSlownessUsed>false</horizontalSlownessUsed><backazimuthUsed>false</backazimuthUsed><weight>1</weight></arrival><arrival><pickID>de.gempa.tb1.Pick/20250412231956.649162.127441</pickID><phase>S</phase><azimuth>226.55152893066406</azimuth><distance>1.1902318000793457</distance><timeResidual>-0.07023239135742188</timeResidual><timeUsed>true</timeUsed><horizontalSlownessUsed>false</horizontalSlownessUsed><backazimuthUsed>false</backazimuthUsed><weight>1</weight></arrival><arrival><pickID>de.gempa.tb1.Pick/20250412232000.710042.127443</pickID><phase>P</phase><azimuth>277.5411376953125</azimuth><distance>1.1724284887313843</distance><timeResidual>0.09744834899902344</timeResidual><timeUsed>true</timeUsed><horizontalSlownessUsed>false</horizontalSlownessUsed><backazimuthUsed>false</backazimuthUsed><weight>1</weight></arrival><magnitude publicID="de.gempa.tb1.Magnitude/20250412232005.938001.291800"><magnitude><value>2.3923185109676974</value></magnitude><type>M</type><methodID>weighted average</methodID><stationCount>4</stationCount></magnitude></origin><event publicID="gempa2025hgiw"><preferredOriginID>de.gempa.tb1.Origin/20250412232002.230311.94839</preferredOriginID><preferredMagnitudeID>de.gempa.tb1.Magnitude/20250412232005.938001.291800</preferredMagnitudeID><description><text>Chile-Bolivia Border Region</text><type>region name</type></description><originReference>de.gempa.tb1.Origin/20250412232002.230311.94839</originReference></event></EventParameters></seiscomp>