<?xml version="1.0" encoding="UTF-8"?>
<seiscomp xmlns="http://geofon.gfz-potsdam.de/ns/seiscomp3-schema/0.13" version="0.13"><EventParameters><pick publicID="de.gempa.tb1.Pick/20250415054408.536681.143799"><time><value>2025-04-15T05:44:03.848393Z</value></time><waveformID networkCode="CX" stationCode="PB01" channelCode="HHZ"/><filterID>ITAPER(4)&gt;&gt;BW(4,4,20)</filterID><methodID>AIC</methodID><horizontalSlowness><value>22.385491977751506</value></horizontalSlowness><backazimuth><value>162.39757730363993</value></backazimuth><phaseHint>P</phaseHint><evaluationMode>automatic</evaluationMode><comment><text>18.266090789696413</text><id>DFX:rectilinearity</id></comment><comment><text>45.83651411120545</text><id>SNR</id></comment></pick><pick publicID="de.gempa.tb1.Pick/20250415054408.718441.143801"><time><value>2025-04-15T05:44:03.658393Z</value></time><waveformID networkCode="CX" stationCode="PB06" channelCode="HHZ"/><filterID>ITAPER(4)&gt;&gt;BW(4,4,20)</filterID><methodID>AIC</methodID><horizontalSlowness><value>1.4279667384859944</value></horizontalSlowness><backazimuth><value>49.15476368505051</value></backazimuth><phaseHint>P</phaseHint><evaluationMode>automatic</evaluationMode><comment><text>69.74352294814483</text><id>DFX:rectilinearity</id></comment><comment><text>35.27358143160666</text><id>SNR</id></comment></pick><pick publicID="de.gempa.tb1.Pick/20250415054408.776917.143803"><time><value>2025-04-15T05:44:02.478393Z</value></time><waveformID networkCode="CX" stationCode="PB03" channelCode="HHZ"/><filterID>ITAPER(4)&gt;&gt;BW(4,4,20)</filterID><methodID>AIC</methodID><horizontalSlowness><value>7.70359543079649</value></horizontalSlowness><backazimuth><value>103.59622878017065</value></backazimuth><phaseHint>P</phaseHint><evaluationMode>automatic</evaluationMode><comment><text>17.334987066344034</text><id>DFX:rectilinearity</id></comment><comment><text>127.07274940600136</text><id>SNR</id></comment></pick><pick publicID="de.gempa.tb1.Pick/20250415054410.016547.143805"><time><value>2025-04-15T05:43:58.74Z</value></time><waveformID networkCode="CX" stationCode="PB09" channelCode="HHZ"/><filterID>ITAPER(4)&gt;&gt;BW(4,4,20)</filterID><methodID>AIC</methodID><horizontalSlowness><value>19.035788964863649</value></horizontalSlowness><backazimuth><value>109.98321199117201</value></backazimuth><phaseHint>P</phaseHint><evaluationMode>automatic</evaluationMode><comment><text>90.02426777716231</text><id>DFX:rectilinearity</id></comment><comment><text>213.24752350409014</text><id>SNR</id></comment></pick><pick publicID="de.gempa.tb1.Pick/20250415054410.857206.143807"><time><value>2025-04-15T05:44:04.218393Z</value></time><waveformID networkCode="CX" stationCode="PB07" channelCode="HHZ"/><filterID>ITAPER(4)&gt;&gt;BW(4,4,20)</filterID><methodID>AIC</methodID><horizontalSlowness><value>22.363702229598857</value></horizontalSlowness><backazimuth><value>103.41880162559887</value></backazimuth><phaseHint>P</phaseHint><evaluationMode>automatic</evaluationMode><comment><text>274.11279156961137</text><id>DFX:rectilinearity</id></comment><comment><text>139.62768205042</text><id>SNR</id></comment></pick><pick publicID="de.gempa.tb1.Pick/20250415054412.514396.143809"><time><value>2025-04-15T05:44:05.418393Z</value></time><waveformID networkCode="CX" stationCode="PB02" channelCode="HHZ"/><filterID>ITAPER(4)&gt;&gt;BW(4,4,20)</filterID><methodID>AIC</methodID><horizontalSlowness><value>23.425218595983544</value></horizontalSlowness><backazimuth><value>71.62114505156342</value></backazimuth><phaseHint>P</phaseHint><evaluationMode>automatic</evaluationMode><comment><text>30.312434482891764</text><id>DFX:rectilinearity</id></comment><comment><text>55.57957196308448</text><id>SNR</id></comment></pick><pick publicID="de.gempa.tb1.Pick/20250415054413.615645.143811"><time><value>2025-04-15T05:44:07.898393Z</value></time><waveformID networkCode="CX" stationCode="PB15" channelCode="HHZ"/><filterID>ITAPER(4)&gt;&gt;BW(4,4,20)</filterID><methodID>AIC</methodID><horizontalSlowness><value>22.117507566099903</value></horizontalSlowness><backazimuth><value>91.23462317703967</value></backazimuth><phaseHint>P</phaseHint><evaluationMode>automatic</evaluationMode><comment><text>257.0710017678442</text><id>DFX:rectilinearity</id></comment><comment><text>13.410849776581948</text><id>SNR</id></comment></pick><pick publicID="de.gempa.tb1.Pick/20250415054420.433571.143813"><time><value>2025-04-15T05:44:11.689999Z</value></time><waveformID networkCode="CX" stationCode="PATCX" channelCode="HHZ"/><filterID>ITAPER(4)&gt;&gt;BW(4,4,20)</filterID><methodID>AIC</methodID><horizontalSlowness><value>16.928838036099474</value></horizontalSlowness><backazimuth><value>119.32653630183891</value></backazimuth><phaseHint>P</phaseHint><evaluationMode>automatic</evaluationMode><comment><text>135.05762175699346</text><id>DFX:rectilinearity</id></comment><comment><text>14.931998485385694</text><id>SNR</id></comment></pick><pick publicID="de.gempa.tb1.Pick/20250415054421.501983.143815"><time><value>2025-04-15T05:44:14.170001Z</value></time><waveformID networkCode="CX" stationCode="PB19" channelCode="HHZ"/><filterID>ITAPER(4)&gt;&gt;BW(4,4,20)</filterID><methodID>AIC</methodID><horizontalSlowness><value>21.020445055652186</value></horizontalSlowness><backazimuth><value>97.01069849456906</value></backazimuth><phaseHint>P</phaseHint><evaluationMode>automatic</evaluationMode><comment><text>42.15031148318404</text><id>DFX:rectilinearity</id></comment><comment><text>19.999965123076944</text><id>SNR</id></comment></pick><pick publicID="de.gempa.tb1.Pick/20250415054429.588327.143817"><time><value>2025-04-15T05:44:20.408393Z</value></time><waveformID networkCode="CX" stationCode="PB03" channelCode="HHN"/><filterID>ITAPER(2)&gt;&gt;BW(3,3,20)</filterID><methodID>L2-AIC-GRID</methodID><horizontalSlowness><value>22.301329707636164</value></horizontalSlowness><backazimuth><value>322.0554661334076</value></backazimuth><phaseHint>S</phaseHint><evaluationMode>automatic</evaluationMode><comment><text>864.9955453134919</text><id>DFX:rectilinearity</id></comment><comment><text>de.gempa.tb1.Pick/20250415054408.776917.143803</text><id>RefPickID</id></comment><comment><text>20.961602233326872</text><id>SNR</id></comment></pick><pick publicID="de.gempa.tb1.Pick/20250415054430.008922.143818"><time><value>2025-04-15T05:44:23.148393Z</value></time><waveformID networkCode="CX" stationCode="PB07" channelCode="HHN"/><filterID>ITAPER(2)&gt;&gt;BW(3,3,20)</filterID><methodID>L2-AIC-GRID</methodID><horizontalSlowness><value>20.486931790883656</value></horizontalSlowness><backazimuth><value>278.3183732698118</value></backazimuth><phaseHint>S</phaseHint><evaluationMode>automatic</evaluationMode><comment><text>30095.32751719605</text><id>DFX:rectilinearity</id></comment><comment><text>de.gempa.tb1.Pick/20250415054410.857206.143807</text><id>RefPickID</id></comment><comment><text>12.669580139216077</text><id>SNR</id></comment></pick><pick publicID="de.gempa.tb1.Pick/20250415054430.65103.143819"><time><value>2025-04-15T05:44:22.358393Z</value></time><waveformID networkCode="CX" stationCode="PB06" channelCode="HHN"/><filterID>ITAPER(2)&gt;&gt;BW(3,3,20)</filterID><methodID>L2-AIC-GRID</methodID><horizontalSlowness><value>21.199407927271796</value></horizontalSlowness><backazimuth><value>336.103277329517</value></backazimuth><phaseHint>S</phaseHint><evaluationMode>automatic</evaluationMode><comment><text>1309.0250333621523</text><id>DFX:rectilinearity</id></comment><comment><text>de.gempa.tb1.Pick/20250415054408.718441.143801</text><id>RefPickID</id></comment><comment><text>13.14508725731441</text><id>SNR</id></comment></pick><pick publicID="de.gempa.tb1.Pick/20250415054431.522663.143820"><time><value>2025-04-15T05:44:22.52Z</value></time><waveformID networkCode="CX" stationCode="PSGCX" channelCode="HHZ"/><filterID>ITAPER(4)&gt;&gt;BW(4,4,20)</filterID><methodID>AIC</methodID><horizontalSlowness><value>18.193374187661323</value></horizontalSlowness><backazimuth><value>114.1100647721869</value></backazimuth><phaseHint>P</phaseHint><evaluationMode>automatic</evaluationMode><comment><text>10.445097277542684</text><id>DFX:rectilinearity</id></comment><comment><text>8.238309312652639</text><id>SNR</id></comment></pick><pick publicID="de.gempa.tb1.Pick/20250415054432.577804.143822"><time><value>2025-04-15T05:44:23.278393Z</value></time><waveformID networkCode="CX" stationCode="PB01" channelCode="HHN"/><filterID>ITAPER(2)&gt;&gt;BW(3,3,20)</filterID><methodID>L2-AIC-GRID</methodID><horizontalSlowness><value>20.918981139631168</value></horizontalSlowness><backazimuth><value>284.5053313239024</value></backazimuth><phaseHint>S</phaseHint><evaluationMode>automatic</evaluationMode><comment><text>237.6431829884731</text><id>DFX:rectilinearity</id></comment><comment><text>de.gempa.tb1.Pick/20250415054408.536681.143799</text><id>RefPickID</id></comment><comment><text>10.596548451190776</text><id>SNR</id></comment></pick><pick publicID="de.gempa.tb1.Pick/20250415054433.63894.143823"><time><value>2025-04-15T05:44:25.808393Z</value></time><waveformID networkCode="CX" stationCode="PB02" channelCode="HHN"/><filterID>ITAPER(2)&gt;&gt;BW(3,3,20)</filterID><methodID>L2-AIC-GRID</methodID><horizontalSlowness><value>12.925300303199911</value></horizontalSlowness><backazimuth><value>7.067614515702502</value></backazimuth><phaseHint>S</phaseHint><evaluationMode>automatic</evaluationMode><comment><text>936.6432628687587</text><id>DFX:rectilinearity</id></comment><comment><text>de.gempa.tb1.Pick/20250415054412.514396.143809</text><id>RefPickID</id></comment><comment><text>9.28068595816371</text><id>SNR</id></comment></pick><pick publicID="de.gempa.tb1.Pick/20250415054435.861433.143827"><time><value>2025-04-15T05:44:29.038393Z</value></time><waveformID networkCode="CX" stationCode="PB15" channelCode="HHN"/><filterID>ITAPER(2)&gt;&gt;BW(3,3,20)</filterID><methodID>L2-AIC-GRID</methodID><horizontalSlowness><value>21.32589937115695</value></horizontalSlowness><backazimuth><value>117.68600228829987</value></backazimuth><phaseHint>S</phaseHint><evaluationMode>automatic</evaluationMode><comment><text>7723.397060517488</text><id>DFX:rectilinearity</id></comment><comment><text>de.gempa.tb1.Pick/20250415054413.615645.143811</text><id>RefPickID</id></comment><comment><text>10.628123413159342</text><id>SNR</id></comment></pick><origin publicID="de.gempa.tb1.Origin/20250415054435.86807.162300"><time><value>2025-04-15T05:43:39.835503Z</value><uncertainty>0.7161348462104797</uncertainty></time><latitude><value>-21.930898666381836</value><uncertainty>3.341294050216675</uncertainty></latitude><longitude><value>-68.5984115600586</value><uncertainty>12.39754581451416</uncertainty></longitude><depth><value>121.20879364013672</value><uncertainty>13.802098274230957</uncertainty></depth><depthType>from location</depthType><methodID>LOCSAT</methodID><earthModelID>iasp91_scanloc</earthModelID><quality><associatedPhaseCount>16</associatedPhaseCount><usedPhaseCount>16</usedPhaseCount><associatedStationCount>10</associatedStationCount><usedStationCount>10</usedStationCount><depthPhaseCount>0</depthPhaseCount><standardError>0.2459159195079273</standardError><azimuthalGap>229.7056121826172</azimuthalGap><maximumDistance>2.725262403488159</maximumDistance><minimumDistance>0.6125816702842712</minimumDistance><medianDistance>1.2136693000793457</medianDistance></quality><uncertainty><minHorizontalUncertainty>6.465012550354004</minHorizontalUncertainty><maxHorizontalUncertainty>26.75364875793457</maxHorizontalUncertainty><azimuthMaxHorizontalUncertainty>83.1800765991211</azimuthMaxHorizontalUncertainty><preferredDescription>horizontal uncertainty</preferredDescription></uncertainty><evaluationMode>automatic</evaluationMode><evaluationStatus>confirmed</evaluationStatus><comment><text>0.06</text><id>mismatchScore</id></comment><comment><text>mismatchScore</text><id>scevalMethod</id></comment><arrival><pickID>de.gempa.tb1.Pick/20250415054408.536681.143799</pickID><phase>P</phase><azimuth>316.69036865234375</azimuth><distance>1.210660457611084</distance><timeResidual>-0.32196998596191406</timeResidual><timeUsed>true</timeUsed><horizontalSlownessUsed>false</horizontalSlownessUsed><backazimuthUsed>false</backazimuthUsed><weight>1</weight></arrival><arrival><pickID>de.gempa.tb1.Pick/20250415054408.718441.143801</pickID><phase>P</phase><azimuth>229.2685852050781</azimuth><distance>1.186280369758606</distance><timeResidual>-0.24364662170410156</timeResidual><timeUsed>true</timeUsed><horizontalSlownessUsed>false</horizontalSlownessUsed><backazimuthUsed>false</backazimuthUsed><weight>1</weight></arrival><arrival><pickID>de.gempa.tb1.Pick/20250415054408.776917.143803</pickID><phase>P</phase><azimuth>263.55462646484375</azimuth><distance>1.078052282333374</distance><timeResidual>-0.3077678680419922</timeResidual><timeUsed>true</timeUsed><horizontalSlownessUsed>false</horizontalSlownessUsed><backazimuthUsed>false</backazimuthUsed><weight>1</weight></arrival><arrival><pickID>de.gempa.tb1.Pick/20250415054410.016547.143805</pickID><phase>P</phase><azimuth>282.50335693359375</azimuth><distance>0.6125816702842712</distance><timeResidual>0.04839515686035156</timeResidual><timeUsed>true</timeUsed><horizontalSlownessUsed>false</horizontalSlownessUsed><backazimuthUsed>false</backazimuthUsed><weight>1</weight></arrival><arrival><pickID>de.gempa.tb1.Pick/20250415054410.857206.143807</pickID><phase>P</phase><azimuth>279.4014892578125</azimuth><distance>1.2136693000793457</distance><timeResidual>0.019891738891601562</timeResidual><timeUsed>true</timeUsed><horizontalSlownessUsed>false</horizontalSlownessUsed><backazimuthUsed>false</backazimuthUsed><weight>1</weight></arrival><arrival><pickID>de.gempa.tb1.Pick/20250415054412.514396.143809</pickID><phase>P</phase><azimuth>296.4964599609375</azimuth><distance>1.3518905639648438</distance><timeResidual>-0.2893810272216797</timeResidual><timeUsed>true</timeUsed><horizontalSlownessUsed>false</horizontalSlownessUsed><backazimuthUsed>false</backazimuthUsed><weight>1</weight></arrival><arrival><pickID>de.gempa.tb1.Pick/20250415054413.615645.143811</pickID><phase>P</phase><azimuth>212.22267150878906</azimuth><distance>1.5055835247039795</distance><timeResidual>0.4599018096923828</timeResidual><timeUsed>true</timeUsed><horizontalSlownessUsed>false</horizontalSlownessUsed><backazimuthUsed>false</backazimuthUsed><weight>1</weight></arrival><arrival><pickID>de.gempa.tb1.Pick/20250415054420.433571.143813</pickID><phase>P</phase><azimuth>307.04150390625</azimuth><distance>1.8219115734100342</distance><timeResidual>0.4875221252441406</timeResidual><timeUsed>true</timeUsed><horizontalSlownessUsed>false</horizontalSlownessUsed><backazimuthUsed>false</backazimuthUsed><weight>1</weight></arrival><arrival><pickID>de.gempa.tb1.Pick/20250415054421.501983.143815</pickID><phase>P</phase><azimuth>197.8640899658203</azimuth><distance>2.065699815750122</distance><timeResidual>-0.018758773803710938</timeResidual><timeUsed>true</timeUsed><horizontalSlownessUsed>false</horizontalSlownessUsed><backazimuthUsed>false</backazimuthUsed><weight>1</weight></arrival><arrival><pickID>de.gempa.tb1.Pick/20250415054429.588327.143817</pickID><phase>S</phase><azimuth>263.55462646484375</azimuth><distance>1.078052282333374</distance><timeResidual>-0.13521766662597656</timeResidual><timeUsed>true</timeUsed><horizontalSlownessUsed>false</horizontalSlownessUsed><backazimuthUsed>false</backazimuthUsed><weight>1</weight></arrival><arrival><pickID>de.gempa.tb1.Pick/20250415054430.008922.143818</pickID><phase>S</phase><azimuth>279.4014892578125</azimuth><distance>1.2136693000793457</distance><timeResidual>0.08389472961425781</timeResidual><timeUsed>true</timeUsed><horizontalSlownessUsed>false</horizontalSlownessUsed><backazimuthUsed>false</backazimuthUsed><weight>1</weight></arrival><arrival><pickID>de.gempa.tb1.Pick/20250415054430.65103.143819</pickID><phase>S</phase><azimuth>229.2685852050781</azimuth><distance>1.186280369758606</distance><timeResidual>-0.17770957946777344</timeResidual><timeUsed>true</timeUsed><horizontalSlownessUsed>false</horizontalSlownessUsed><backazimuthUsed>false</backazimuthUsed><weight>1</weight></arrival><arrival><pickID>de.gempa.tb1.Pick/20250415054431.522663.143820</pickID><phase>P</phase><azimuth>328.1584777832031</azimuth><distance>2.725262403488159</distance><timeResidual>-0.10231399536132812</timeResidual><timeUsed>true</timeUsed><horizontalSlownessUsed>false</horizontalSlownessUsed><backazimuthUsed>false</backazimuthUsed><weight>1</weight></arrival><arrival><pickID>de.gempa.tb1.Pick/20250415054432.577804.143822</pickID><phase>S</phase><azimuth>316.69036865234375</azimuth><distance>1.210660457611084</distance><timeResidual>0.2652854919433594</timeResidual><timeUsed>true</timeUsed><horizontalSlownessUsed>false</horizontalSlownessUsed><backazimuthUsed>false</backazimuthUsed><weight>1</weight></arrival><arrival><pickID>de.gempa.tb1.Pick/20250415054433.63894.143823</pickID><phase>S</phase><azimuth>296.4964599609375</azimuth><distance>1.3518905639648438</distance><timeResidual>0.04872703552246094</timeResidual><timeUsed>true</timeUsed><horizontalSlownessUsed>false</horizontalSlownessUsed><backazimuthUsed>false</backazimuthUsed><weight>1</weight></arrival><arrival><pickID>de.gempa.tb1.Pick/20250415054435.861433.143827</pickID><phase>S</phase><azimuth>212.22267150878906</azimuth><distance>1.5055835247039795</distance><timeResidual>0.18358802795410156</timeResidual><timeUsed>true</timeUsed><horizontalSlownessUsed>false</horizontalSlownessUsed><backazimuthUsed>false</backazimuthUsed><weight>1</weight></arrival><magnitude publicID="de.gempa.tb1.Magnitude/20250415054440.940157.577942"><magnitude><value>2.5897877776759155</value></magnitude><type>M</type><methodID>weighted average</methodID><stationCount>7</stationCount></magnitude></origin><event publicID="gempa2025hknt"><preferredOriginID>de.gempa.tb1.Origin/20250415054435.86807.162300</preferredOriginID><preferredMagnitudeID>de.gempa.tb1.Magnitude/20250415054440.940157.577942</preferredMagnitudeID><description><text>Chile-Bolivia Border Region</text><type>region name</type></description><originReference>de.gempa.tb1.Origin/20250415054435.86807.162300</originReference></event></EventParameters></seiscomp>