<?xml version="1.0" encoding="UTF-8"?>
<seiscomp xmlns="http://geofon.gfz-potsdam.de/ns/seiscomp3-schema/0.13" version="0.13"><EventParameters><pick publicID="de.gempa.tb1.Pick/20250411215307.924484.120287"><time><value>2025-04-11T21:52:59.888394Z</value></time><waveformID networkCode="CX" stationCode="PB08" channelCode="HHZ"/><filterID>ITAPER(4)&gt;&gt;BW(4,4,20)</filterID><methodID>AIC</methodID><horizontalSlowness><value>19.37471017255989</value></horizontalSlowness><backazimuth><value>75.03394615322631</value></backazimuth><phaseHint>P</phaseHint><evaluationMode>automatic</evaluationMode><comment><text>5.63818735553001</text><id>DFX:rectilinearity</id></comment><comment><text>26.98863279106621</text><id>SNR</id></comment></pick><pick publicID="de.gempa.tb1.Pick/20250411215310.555411.120289"><time><value>2025-04-11T21:53:04.638393Z</value></time><waveformID networkCode="CX" stationCode="PB01" channelCode="HHZ"/><filterID>ITAPER(4)&gt;&gt;BW(4,4,20)</filterID><methodID>AIC</methodID><horizontalSlowness><value>15.704850758255574</value></horizontalSlowness><backazimuth><value>345.7533081894144</value></backazimuth><phaseHint>P</phaseHint><evaluationMode>automatic</evaluationMode><comment><text>25.57410142143273</text><id>DFX:rectilinearity</id></comment><comment><text>51.78822530589961</text><id>SNR</id></comment></pick><pick publicID="de.gempa.tb1.Pick/20250411215314.672226.120291"><time><value>2025-04-11T21:53:06.98Z</value></time><waveformID networkCode="CX" stationCode="PSGCX" channelCode="HHZ"/><filterID>ITAPER(4)&gt;&gt;BW(4,4,20)</filterID><methodID>AIC</methodID><horizontalSlowness><value>16.28436495459847</value></horizontalSlowness><backazimuth><value>72.15954063529303</value></backazimuth><phaseHint>P</phaseHint><evaluationMode>automatic</evaluationMode><comment><text>20.425981370776118</text><id>DFX:rectilinearity</id></comment><comment><text>30.84329403151248</text><id>SNR</id></comment></pick><pick publicID="de.gempa.tb1.Pick/20250411215318.259436.120293"><time><value>2025-04-11T21:53:10.178394Z</value></time><waveformID networkCode="CX" stationCode="PB08" channelCode="HHN"/><filterID>ITAPER(2)&gt;&gt;BW(3,3,20)</filterID><methodID>L2-AIC-GRID</methodID><horizontalSlowness><value>13.598717234299235</value></horizontalSlowness><backazimuth><value>214.076767858687</value></backazimuth><phaseHint>S</phaseHint><evaluationMode>automatic</evaluationMode><comment><text>1283.1706314521384</text><id>DFX:rectilinearity</id></comment><comment><text>de.gempa.tb1.Pick/20250411215307.924484.120287</text><id>RefPickID</id></comment><comment><text>33.421537031023654</text><id>SNR</id></comment></pick><pick publicID="de.gempa.tb1.Pick/20250411215318.636804.120294"><time><value>2025-04-11T21:53:10.058393Z</value></time><waveformID networkCode="CX" stationCode="PB02" channelCode="HHZ"/><filterID>ITAPER(4)&gt;&gt;BW(4,4,20)</filterID><methodID>AIC</methodID><horizontalSlowness><value>22.768101655441725</value></horizontalSlowness><backazimuth><value>292.0883898837733</value></backazimuth><phaseHint>P</phaseHint><evaluationMode>automatic</evaluationMode><comment><text>39.52899402414665</text><id>DFX:rectilinearity</id></comment><comment><text>10.853501408696593</text><id>SNR</id></comment></pick><pick publicID="de.gempa.tb1.Pick/20250411215327.777169.120296"><time><value>2025-04-11T21:53:19.018393Z</value></time><waveformID networkCode="CX" stationCode="PB01" channelCode="HHN"/><filterID>ITAPER(2)&gt;&gt;BW(3,3,20)</filterID><methodID>L2-AIC-GRID</methodID><horizontalSlowness><value>22.591984927205683</value></horizontalSlowness><backazimuth><value>155.51940904604263</value></backazimuth><phaseHint>S</phaseHint><evaluationMode>automatic</evaluationMode><comment><text>202.3990818987177</text><id>DFX:rectilinearity</id></comment><comment><text>de.gempa.tb1.Pick/20250411215310.555411.120289</text><id>RefPickID</id></comment><comment><text>7.741018520341693</text><id>SNR</id></comment></pick><pick publicID="de.gempa.tb1.Pick/20250411215331.971.120297"><time><value>2025-04-11T21:53:14.178389Z</value></time><waveformID networkCode="CX" stationCode="PB07" channelCode="HHZ"/><filterID>ITAPER(4)&gt;&gt;BW(4,4,20)</filterID><methodID>AIC</methodID><horizontalSlowness><value>20.344204982864696</value></horizontalSlowness><backazimuth><value>91.44487056635349</value></backazimuth><phaseHint>P</phaseHint><evaluationMode>automatic</evaluationMode><comment><text>303.0796728091163</text><id>DFX:rectilinearity</id></comment><comment><text>11.596579418211626</text><id>SNR</id></comment></pick><pick publicID="de.gempa.tb1.Pick/20250411215332.612008.120299"><time><value>2025-04-11T21:53:23.15Z</value></time><waveformID networkCode="CX" stationCode="PSGCX" channelCode="HHN"/><filterID>ITAPER(2)&gt;&gt;BW(3,3,20)</filterID><methodID>L2-AIC-GRID</methodID><horizontalSlowness><value>23.15776086490329</value></horizontalSlowness><backazimuth><value>89.77055304907205</value></backazimuth><phaseHint>S</phaseHint><evaluationMode>automatic</evaluationMode><comment><text>53.04586792124092</text><id>DFX:rectilinearity</id></comment><comment><text>de.gempa.tb1.Pick/20250411215314.672226.120291</text><id>RefPickID</id></comment><comment><text>5.347457208777648</text><id>SNR</id></comment></pick><pick publicID="de.gempa.tb1.Pick/20250411215343.646903.120303"><time><value>2025-04-11T21:53:28.338393Z</value></time><waveformID networkCode="CX" stationCode="PB02" channelCode="HHN"/><filterID>ITAPER(2)&gt;&gt;BW(3,3,20)</filterID><methodID>L2-AIC-GRID</methodID><horizontalSlowness><value>14.383688262738053</value></horizontalSlowness><backazimuth><value>167.7528510908145</value></backazimuth><phaseHint>S</phaseHint><evaluationMode>automatic</evaluationMode><comment><text>88.0794251306852</text><id>DFX:rectilinearity</id></comment><comment><text>de.gempa.tb1.Pick/20250411215318.636804.120294</text><id>RefPickID</id></comment><comment><text>7.507390532444766</text><id>SNR</id></comment></pick><pick publicID="de.gempa.tb1.Pick/20250411215345.815897.120304"><time><value>2025-04-11T21:53:36.878389Z</value></time><waveformID networkCode="CX" stationCode="PB07" channelCode="HHN"/><filterID>ITAPER(2)&gt;&gt;BW(3,3,20)</filterID><methodID>L2-AIC-GRID</methodID><horizontalSlowness><value>22.261412623613356</value></horizontalSlowness><backazimuth><value>129.9760524360885</value></backazimuth><phaseHint>S</phaseHint><evaluationMode>automatic</evaluationMode><comment><text>606.2356456614112</text><id>DFX:rectilinearity</id></comment><comment><text>de.gempa.tb1.Pick/20250411215331.971.120297</text><id>RefPickID</id></comment><comment><text>7.401870543990401</text><id>SNR</id></comment></pick><origin publicID="de.gempa.tb1.Origin/20250411215345.820087.66931"><time><value>2025-04-11T21:52:46.140849Z</value><uncertainty>1.135655164718628</uncertainty></time><latitude><value>-20.191810607910156</value><uncertainty>3.4886269569396973</uncertainty></latitude><longitude><value>-69.17889404296875</value><uncertainty>7.415839672088623</uncertainty></longitude><depth><value>96.68877410888672</value><uncertainty>7.190181255340576</uncertainty></depth><depthType>from location</depthType><methodID>LOCSAT</methodID><earthModelID>iasp91_scanloc</earthModelID><quality><associatedPhaseCount>10</associatedPhaseCount><usedPhaseCount>10</usedPhaseCount><associatedStationCount>5</associatedStationCount><usedStationCount>5</usedStationCount><depthPhaseCount>0</depthPhaseCount><standardError>0.42502975004743604</standardError><azimuthalGap>173.37141036987305</azimuthalGap><maximumDistance>1.664110779762268</maximumDistance><minimumDistance>0.05582991987466812</minimumDistance><medianDistance>1.06741201877594</medianDistance></quality><uncertainty><minHorizontalUncertainty>7.298566341400146</minHorizontalUncertainty><maxHorizontalUncertainty>15.986519813537598</maxHorizontalUncertainty><azimuthMaxHorizontalUncertainty>83.37435913085938</azimuthMaxHorizontalUncertainty><preferredDescription>horizontal uncertainty</preferredDescription></uncertainty><evaluationMode>automatic</evaluationMode><evaluationStatus>confirmed</evaluationStatus><comment><text>0.09</text><id>mismatchScore</id></comment><comment><text>mismatchScore</text><id>scevalMethod</id></comment><arrival><pickID>de.gempa.tb1.Pick/20250411215307.924484.120287</pickID><phase>P</phase><azimuth>25.411075592041016</azimuth><distance>0.05582991987466812</distance><timeResidual>0.27899169921875</timeResidual><timeUsed>true</timeUsed><horizontalSlownessUsed>false</horizontalSlownessUsed><backazimuthUsed>false</backazimuthUsed><weight>1</weight></arrival><arrival><pickID>de.gempa.tb1.Pick/20250411215310.555411.120289</pickID><phase>P</phase><azimuth>198.78248596191406</azimuth><distance>0.8950549364089966</distance><timeResidual>-0.5432462692260742</timeResidual><timeUsed>true</timeUsed><horizontalSlownessUsed>false</horizontalSlownessUsed><backazimuthUsed>false</backazimuthUsed><weight>1</weight></arrival><arrival><pickID>de.gempa.tb1.Pick/20250411215314.672226.120291</pickID><phase>P</phase><azimuth>303.4959411621094</azimuth><distance>1.06741201877594</distance><timeResidual>-0.08941650390625</timeResidual><timeUsed>true</timeUsed><horizontalSlownessUsed>false</horizontalSlownessUsed><backazimuthUsed>false</backazimuthUsed><weight>1</weight></arrival><arrival><pickID>de.gempa.tb1.Pick/20250411215318.259436.120293</pickID><phase>S</phase><azimuth>25.411075592041016</azimuth><distance>0.05582991987466812</distance><timeResidual>0.2445077896118164</timeResidual><timeUsed>true</timeUsed><horizontalSlownessUsed>false</horizontalSlownessUsed><backazimuthUsed>false</backazimuthUsed><weight>1</weight></arrival><arrival><pickID>de.gempa.tb1.Pick/20250411215318.636804.120294</pickID><phase>P</phase><azimuth>210.75559997558594</azimuth><distance>1.3076202869415283</distance><timeResidual>0.19263744354248047</timeResidual><timeUsed>true</timeUsed><horizontalSlownessUsed>false</horizontalSlownessUsed><backazimuthUsed>false</backazimuthUsed><weight>1</weight></arrival><arrival><pickID>de.gempa.tb1.Pick/20250411215327.777169.120296</pickID><phase>S</phase><azimuth>198.78248596191406</azimuth><distance>0.8950549364089966</distance><timeResidual>-0.8305091857910156</timeResidual><timeUsed>true</timeUsed><horizontalSlownessUsed>false</horizontalSlownessUsed><backazimuthUsed>false</backazimuthUsed><weight>1</weight></arrival><arrival><pickID>de.gempa.tb1.Pick/20250411215331.971.120297</pickID><phase>P</phase><azimuth>203.2806396484375</azimuth><distance>1.664110779762268</distance><timeResidual>-0.0932159423828125</timeResidual><timeUsed>true</timeUsed><horizontalSlownessUsed>false</horizontalSlownessUsed><backazimuthUsed>false</backazimuthUsed><weight>1</weight></arrival><arrival><pickID>de.gempa.tb1.Pick/20250411215332.612008.120299</pickID><phase>S</phase><azimuth>303.4959411621094</azimuth><distance>1.06741201877594</distance><timeResidual>-0.0655059814453125</timeResidual><timeUsed>true</timeUsed><horizontalSlownessUsed>false</horizontalSlownessUsed><backazimuthUsed>false</backazimuthUsed><weight>1</weight></arrival><arrival><pickID>de.gempa.tb1.Pick/20250411215343.646903.120303</pickID><phase>S</phase><azimuth>210.75559997558594</azimuth><distance>1.3076202869415283</distance><timeResidual>0.1244659423828125</timeResidual><timeUsed>true</timeUsed><horizontalSlownessUsed>false</horizontalSlownessUsed><backazimuthUsed>false</backazimuthUsed><weight>1</weight></arrival><arrival><pickID>de.gempa.tb1.Pick/20250411215345.815897.120304</pickID><phase>S</phase><azimuth>203.2806396484375</azimuth><distance>1.664110779762268</distance><timeResidual>0.7813091278076172</timeResidual><timeUsed>true</timeUsed><horizontalSlownessUsed>false</horizontalSlownessUsed><backazimuthUsed>false</backazimuthUsed><weight>1</weight></arrival><magnitude publicID="de.gempa.tb1.Magnitude/20250411215350.938799.146213"><magnitude><value>1.9824857102911544</value></magnitude><type>M</type><methodID>weighted average</methodID><stationCount>3</stationCount></magnitude></origin><event publicID="gempa2025hejz"><preferredOriginID>de.gempa.tb1.Origin/20250411215345.820087.66931</preferredOriginID><preferredMagnitudeID>de.gempa.tb1.Magnitude/20250411215350.938799.146213</preferredMagnitudeID><description><text>Northern Chile</text><type>region name</type></description><originReference>de.gempa.tb1.Origin/20250411215345.820087.66931</originReference></event></EventParameters></seiscomp>