<?xml version="1.0" encoding="UTF-8"?>
<seiscomp xmlns="http://geofon.gfz-potsdam.de/ns/seiscomp3-schema/0.13" version="0.13"><EventParameters><pick publicID="de.gempa.tb1.Pick/20250414085507.580846.136880"><time><value>2025-04-14T08:55:02.948393Z</value></time><waveformID networkCode="CX" stationCode="PB01" channelCode="HHZ"/><filterID>ITAPER(4)&gt;&gt;BW(4,4,20)</filterID><methodID>AIC</methodID><horizontalSlowness><value>8.161760376629932</value></horizontalSlowness><backazimuth><value>108.17100591732704</value></backazimuth><phaseHint>P</phaseHint><evaluationMode>automatic</evaluationMode><comment><text>291.7068717425205</text><id>DFX:rectilinearity</id></comment><comment><text>329.12458674226616</text><id>SNR</id></comment></pick><pick publicID="de.gempa.tb1.Pick/20250414085508.537203.136882"><time><value>2025-04-14T08:55:01.69Z</value></time><waveformID networkCode="CX" stationCode="PB09" channelCode="HHZ"/><filterID>ITAPER(4)&gt;&gt;BW(4,4,20)</filterID><methodID>AIC</methodID><horizontalSlowness><value>15.196897889305383</value></horizontalSlowness><backazimuth><value>69.4876509418451</value></backazimuth><phaseHint>P</phaseHint><evaluationMode>automatic</evaluationMode><comment><text>1750.6142307238194</text><id>DFX:rectilinearity</id></comment><comment><text>786.9932574662402</text><id>SNR</id></comment></pick><pick publicID="de.gempa.tb1.Pick/20250414085510.706774.136884"><time><value>2025-04-14T08:55:06.278393Z</value></time><waveformID networkCode="CX" stationCode="PB03" channelCode="HHZ"/><filterID>ITAPER(4)&gt;&gt;BW(4,4,20)</filterID><methodID>AIC</methodID><horizontalSlowness><value>7.623620241976605</value></horizontalSlowness><backazimuth><value>56.64749805707821</value></backazimuth><phaseHint>P</phaseHint><evaluationMode>automatic</evaluationMode><comment><text>420.17596098166416</text><id>DFX:rectilinearity</id></comment><comment><text>150.15629924732622</text><id>SNR</id></comment></pick><pick publicID="de.gempa.tb1.Pick/20250414085510.907115.136886"><time><value>2025-04-14T08:55:06.068394Z</value></time><waveformID networkCode="CX" stationCode="PB07" channelCode="HHZ"/><filterID>ITAPER(4)&gt;&gt;BW(4,4,20)</filterID><methodID>AIC</methodID><horizontalSlowness><value>14.50661563899789</value></horizontalSlowness><backazimuth><value>90.56750600822984</value></backazimuth><phaseHint>P</phaseHint><evaluationMode>automatic</evaluationMode><comment><text>4965.20445077256</text><id>DFX:rectilinearity</id></comment><comment><text>521.4637697645608</text><id>SNR</id></comment></pick><pick publicID="de.gempa.tb1.Pick/20250414085512.649511.136888"><time><value>2025-04-14T08:55:05.688393Z</value></time><waveformID networkCode="CX" stationCode="PB02" channelCode="HHZ"/><filterID>ITAPER(4)&gt;&gt;BW(4,4,20)</filterID><methodID>AIC</methodID><horizontalSlowness><value>7.11726937582272</value></horizontalSlowness><backazimuth><value>78.06719637392317</value></backazimuth><phaseHint>P</phaseHint><evaluationMode>automatic</evaluationMode><comment><text>555.093420718582</text><id>DFX:rectilinearity</id></comment><comment><text>172.12708713473535</text><id>SNR</id></comment></pick><pick publicID="de.gempa.tb1.Pick/20250414085516.495454.136890"><time><value>2025-04-14T08:55:10.509999Z</value></time><waveformID networkCode="CX" stationCode="PATCX" channelCode="HHZ"/><filterID>ITAPER(4)&gt;&gt;BW(4,4,20)</filterID><methodID>AIC</methodID><horizontalSlowness><value>5.913318370570933</value></horizontalSlowness><backazimuth><value>155.44814471665802</value></backazimuth><phaseHint>P</phaseHint><evaluationMode>automatic</evaluationMode><comment><text>881.5845561201021</text><id>DFX:rectilinearity</id></comment><comment><text>187.5127761922208</text><id>SNR</id></comment></pick><pick publicID="de.gempa.tb1.Pick/20250414085517.627832.136892"><time><value>2025-04-14T08:55:10.778393Z</value></time><waveformID networkCode="CX" stationCode="PB06" channelCode="HHZ"/><filterID>ITAPER(4)&gt;&gt;BW(4,4,20)</filterID><methodID>AIC</methodID><horizontalSlowness><value>8.223521874384149</value></horizontalSlowness><backazimuth><value>166.85026790569265</value></backazimuth><phaseHint>P</phaseHint><evaluationMode>automatic</evaluationMode><comment><text>69.72600445406837</text><id>DFX:rectilinearity</id></comment><comment><text>42.65269648290684</text><id>SNR</id></comment></pick><pick publicID="de.gempa.tb1.Pick/20250414085518.57524.136894"><time><value>2025-04-14T08:55:10.788393Z</value></time><waveformID networkCode="CX" stationCode="PB08" channelCode="HHZ"/><filterID>ITAPER(4)&gt;&gt;BW(4,4,20)</filterID><methodID>AIC</methodID><horizontalSlowness><value>13.658363176463066</value></horizontalSlowness><backazimuth><value>193.25491303308195</value></backazimuth><phaseHint>P</phaseHint><evaluationMode>automatic</evaluationMode><comment><text>22.0264726907607</text><id>DFX:rectilinearity</id></comment><comment><text>13.890760901953152</text><id>SNR</id></comment></pick><pick publicID="de.gempa.tb1.Pick/20250414085523.579191.136896"><time><value>2025-04-14T08:55:19.42Z</value></time><waveformID networkCode="CX" stationCode="PSGCX" channelCode="HHZ"/><filterID>ITAPER(4)&gt;&gt;BW(4,4,20)</filterID><methodID>AIC</methodID><horizontalSlowness><value>10.694277658728613</value></horizontalSlowness><backazimuth><value>278.14751287842887</value></backazimuth><phaseHint>P</phaseHint><evaluationMode>automatic</evaluationMode><comment><text>18.213329728290041</text><id>DFX:rectilinearity</id></comment><comment><text>50.57366842825176</text><id>SNR</id></comment></pick><pick publicID="de.gempa.tb1.Pick/20250414085524.792698.136898"><time><value>2025-04-14T08:55:16.958393Z</value></time><waveformID networkCode="CX" stationCode="PB01" channelCode="HHN"/><filterID>ITAPER(2)&gt;&gt;BW(3,3,20)</filterID><methodID>L2-AIC-GRID</methodID><horizontalSlowness><value>21.767888376554186</value></horizontalSlowness><backazimuth><value>322.5136816634978</value></backazimuth><phaseHint>S</phaseHint><evaluationMode>automatic</evaluationMode><comment><text>9810.456713551783</text><id>DFX:rectilinearity</id></comment><comment><text>de.gempa.tb1.Pick/20250414085507.580846.136880</text><id>RefPickID</id></comment><comment><text>9.20723723219429</text><id>SNR</id></comment></pick><pick publicID="de.gempa.tb1.Pick/20250414085530.78589.136899"><time><value>2025-04-14T08:55:22.768393Z</value></time><waveformID networkCode="CX" stationCode="PB03" channelCode="HHN"/><filterID>ITAPER(2)&gt;&gt;BW(3,3,20)</filterID><methodID>L2-AIC-GRID</methodID><horizontalSlowness><value>15.725677435097195</value></horizontalSlowness><backazimuth><value>236.97200086253696</value></backazimuth><phaseHint>S</phaseHint><evaluationMode>automatic</evaluationMode><comment><text>9328.645351191284</text><id>DFX:rectilinearity</id></comment><comment><text>de.gempa.tb1.Pick/20250414085510.706774.136884</text><id>RefPickID</id></comment><comment><text>9.109229408145</text><id>SNR</id></comment></pick><pick publicID="de.gempa.tb1.Pick/20250414085535.73734.136900"><time><value>2025-04-14T08:55:30.628393Z</value></time><waveformID networkCode="CX" stationCode="PB06" channelCode="HHN"/><filterID>ITAPER(2)&gt;&gt;BW(3,3,20)</filterID><methodID>L2-AIC-GRID</methodID><horizontalSlowness><value>22.348409094115983</value></horizontalSlowness><backazimuth><value>252.46632373681774</value></backazimuth><phaseHint>S</phaseHint><evaluationMode>automatic</evaluationMode><comment><text>897.2819121083595</text><id>DFX:rectilinearity</id></comment><comment><text>de.gempa.tb1.Pick/20250414085517.627832.136892</text><id>RefPickID</id></comment><comment><text>13.358760224714745</text><id>SNR</id></comment></pick><pick publicID="de.gempa.tb1.Pick/20250414085537.423155.136902"><time><value>2025-04-14T08:55:30.089999Z</value></time><waveformID networkCode="CX" stationCode="PATCX" channelCode="HHN"/><filterID>ITAPER(2)&gt;&gt;BW(3,3,20)</filterID><methodID>L2-AIC-GRID</methodID><horizontalSlowness><value>22.75309861462585</value></horizontalSlowness><backazimuth><value>313.259109285102</value></backazimuth><phaseHint>S</phaseHint><evaluationMode>automatic</evaluationMode><comment><text>2446.1944383225214</text><id>DFX:rectilinearity</id></comment><comment><text>de.gempa.tb1.Pick/20250414085516.495454.136890</text><id>RefPickID</id></comment><comment><text>5.243626844301714</text><id>SNR</id></comment></pick><pick publicID="de.gempa.tb1.Pick/20250414085537.565968.136903"><time><value>2025-04-14T08:55:30.318393Z</value></time><waveformID networkCode="CX" stationCode="PB08" channelCode="HHN"/><filterID>ITAPER(2)&gt;&gt;BW(3,3,20)</filterID><methodID>L2-AIC-GRID</methodID><horizontalSlowness><value>20.46686185891</value></horizontalSlowness><backazimuth><value>192.3062368269845</value></backazimuth><phaseHint>S</phaseHint><evaluationMode>automatic</evaluationMode><comment><text>262.8610749337824</text><id>DFX:rectilinearity</id></comment><comment><text>de.gempa.tb1.Pick/20250414085518.57524.136894</text><id>RefPickID</id></comment><comment><text>7.3374528851614</text><id>SNR</id></comment></pick><pick publicID="de.gempa.tb1.Pick/20250414085556.761428.136911"><time><value>2025-04-14T08:55:47.59Z</value></time><waveformID networkCode="CX" stationCode="PSGCX" channelCode="HHN"/><filterID>ITAPER(2)&gt;&gt;BW(3,3,20)</filterID><methodID>L2-AIC-GRID</methodID><horizontalSlowness><value>19.094123150017676</value></horizontalSlowness><backazimuth><value>36.704465170600457</value></backazimuth><phaseHint>S</phaseHint><evaluationMode>automatic</evaluationMode><comment><text>112.45131886756569</text><id>DFX:rectilinearity</id></comment><comment><text>de.gempa.tb1.Pick/20250414085523.579191.136896</text><id>RefPickID</id></comment><comment><text>6.564621960298621</text><id>SNR</id></comment></pick><origin publicID="de.gempa.tb1.Origin/20250414085556.766776.133016"><time><value>2025-04-14T08:54:45.053274Z</value><uncertainty>0.8371726274490356</uncertainty></time><latitude><value>-21.461833953857422</value><uncertainty>2.6035728454589844</uncertainty></latitude><longitude><value>-68.90916442871094</value><uncertainty>7.492151260375977</uncertainty></longitude><depth><value>112.51893615722656</value><uncertainty>8.157842636108398</uncertainty></depth><depthType>from location</depthType><methodID>LOCSAT</methodID><earthModelID>iasp91_scanloc</earthModelID><quality><associatedPhaseCount>15</associatedPhaseCount><usedPhaseCount>15</usedPhaseCount><associatedStationCount>9</associatedStationCount><usedStationCount>9</usedStationCount><depthPhaseCount>0</depthPhaseCount><standardError>0.5300190501664542</standardError><azimuthalGap>216.18971252441406</azimuthalGap><maximumDistance>2.176262617111206</maximumDistance><minimumDistance>0.4546258747577667</minimumDistance><medianDistance>1.3247225284576416</medianDistance></quality><uncertainty><minHorizontalUncertainty>5.582215309143066</minHorizontalUncertainty><maxHorizontalUncertainty>16.06361961364746</maxHorizontalUncertainty><azimuthMaxHorizontalUncertainty>89.99290466308594</azimuthMaxHorizontalUncertainty><preferredDescription>horizontal uncertainty</preferredDescription></uncertainty><evaluationMode>automatic</evaluationMode><evaluationStatus>confirmed</evaluationStatus><comment><text>0.03</text><id>mismatchScore</id></comment><comment><text>mismatchScore</text><id>scevalMethod</id></comment><arrival><pickID>de.gempa.tb1.Pick/20250414085507.580846.136880</pickID><phase>P</phase><azimuth>307.57232666015625</azimuth><distance>0.6814894080162048</distance><timeResidual>-0.5960960388183594</timeResidual><timeUsed>true</timeUsed><horizontalSlownessUsed>false</horizontalSlownessUsed><backazimuthUsed>false</backazimuthUsed><weight>1</weight></arrival><arrival><pickID>de.gempa.tb1.Pick/20250414085508.537203.136882</pickID><phase>P</phase><azimuth>222.8621368408203</azimuth><distance>0.4546258747577667</distance><timeResidual>-0.22269630432128906</timeResidual><timeUsed>true</timeUsed><horizontalSlownessUsed>false</horizontalSlownessUsed><backazimuthUsed>false</backazimuthUsed><weight>1</weight></arrival><arrival><pickID>de.gempa.tb1.Pick/20250414085510.706774.136884</pickID><phase>P</phase><azimuth>233.1922302246094</azimuth><distance>0.9779048562049866</distance><timeResidual>0.012584686279296875</timeResidual><timeUsed>true</timeUsed><horizontalSlownessUsed>false</horizontalSlownessUsed><backazimuthUsed>false</backazimuthUsed><weight>1</weight></arrival><arrival><pickID>de.gempa.tb1.Pick/20250414085510.907115.136886</pickID><phase>P</phase><azimuth>253.6580352783203</azimuth><distance>0.9466807246208191</distance><timeResidual>0.11257171630859375</timeResidual><timeUsed>true</timeUsed><horizontalSlownessUsed>false</horizontalSlownessUsed><backazimuthUsed>false</backazimuthUsed><weight>1</weight></arrival><arrival><pickID>de.gempa.tb1.Pick/20250414085512.649511.136888</pickID><phase>P</phase><azimuth>278.56158447265625</azimuth><distance>0.9305033087730408</distance><timeResidual>-0.10995101928710938</timeResidual><timeUsed>true</timeUsed><horizontalSlownessUsed>false</horizontalSlownessUsed><backazimuthUsed>false</backazimuthUsed><weight>1</weight></arrival><arrival><pickID>de.gempa.tb1.Pick/20250414085516.495454.136890</pickID><phase>P</phase><azimuth>298.5633544921875</azimuth><distance>1.3247225284576416</distance><timeResidual>0.4941825866699219</timeResidual><timeUsed>true</timeUsed><horizontalSlownessUsed>false</horizontalSlownessUsed><backazimuthUsed>false</backazimuthUsed><weight>1</weight></arrival><arrival><pickID>de.gempa.tb1.Pick/20250414085517.627832.136892</pickID><phase>P</phase><azimuth>206.2819061279297</azimuth><distance>1.3821635246276855</distance><timeResidual>0.113525390625</timeResidual><timeUsed>true</timeUsed><horizontalSlownessUsed>false</horizontalSlownessUsed><backazimuthUsed>false</backazimuthUsed><weight>1</weight></arrival><arrival><pickID>de.gempa.tb1.Pick/20250414085518.57524.136894</pickID><phase>P</phase><azimuth>350.0921936035156</azimuth><distance>1.3338016271591187</distance><timeResidual>0.6653604507446289</timeResidual><timeUsed>true</timeUsed><horizontalSlownessUsed>false</horizontalSlownessUsed><backazimuthUsed>false</backazimuthUsed><weight>1</weight></arrival><arrival><pickID>de.gempa.tb1.Pick/20250414085523.579191.136896</pickID><phase>P</phase><azimuth>328.2674560546875</azimuth><distance>2.176262617111206</distance><timeResidual>-1.01190185546875</timeResidual><timeUsed>true</timeUsed><horizontalSlownessUsed>false</horizontalSlownessUsed><backazimuthUsed>false</backazimuthUsed><weight>1</weight></arrival><arrival><pickID>de.gempa.tb1.Pick/20250414085524.792698.136898</pickID><phase>S</phase><azimuth>307.57232666015625</azimuth><distance>0.6814894080162048</distance><timeResidual>-0.8389034271240234</timeResidual><timeUsed>true</timeUsed><horizontalSlownessUsed>false</horizontalSlownessUsed><backazimuthUsed>false</backazimuthUsed><weight>1</weight></arrival><arrival><pickID>de.gempa.tb1.Pick/20250414085530.78589.136899</pickID><phase>S</phase><azimuth>233.1922302246094</azimuth><distance>0.9779048562049866</distance><timeResidual>0.11897850036621094</timeResidual><timeUsed>true</timeUsed><horizontalSlownessUsed>false</horizontalSlownessUsed><backazimuthUsed>false</backazimuthUsed><weight>1</weight></arrival><arrival><pickID>de.gempa.tb1.Pick/20250414085535.73734.136900</pickID><phase>S</phase><azimuth>206.2819061279297</azimuth><distance>1.3821635246276855</distance><timeResidual>0.12290573120117188</timeResidual><timeUsed>true</timeUsed><horizontalSlownessUsed>false</horizontalSlownessUsed><backazimuthUsed>false</backazimuthUsed><weight>1</weight></arrival><arrival><pickID>de.gempa.tb1.Pick/20250414085537.423155.136902</pickID><phase>S</phase><azimuth>298.5633544921875</azimuth><distance>1.3247225284576416</distance><timeResidual>0.7467174530029297</timeResidual><timeUsed>true</timeUsed><horizontalSlownessUsed>false</horizontalSlownessUsed><backazimuthUsed>false</backazimuthUsed><weight>1</weight></arrival><arrival><pickID>de.gempa.tb1.Pick/20250414085537.565968.136903</pickID><phase>S</phase><azimuth>350.0921936035156</azimuth><distance>1.3338016271591187</distance><timeResidual>0.7846698760986328</timeResidual><timeUsed>true</timeUsed><horizontalSlownessUsed>false</horizontalSlownessUsed><backazimuthUsed>false</backazimuthUsed><weight>1</weight></arrival><arrival><pickID>de.gempa.tb1.Pick/20250414085556.761428.136911</pickID><phase>S</phase><azimuth>328.2674560546875</azimuth><distance>2.176262617111206</distance><timeResidual>-0.3922882080078125</timeResidual><timeUsed>true</timeUsed><horizontalSlownessUsed>false</horizontalSlownessUsed><backazimuthUsed>false</backazimuthUsed><weight>1</weight></arrival><magnitude publicID="de.gempa.tb1.Magnitude/20250414085605.939975.459996"><magnitude><value>2.449141370182251</value></magnitude><type>M</type><methodID>weighted average</methodID><stationCount>6</stationCount></magnitude></origin><event publicID="gempa2025hiyc"><preferredOriginID>de.gempa.tb1.Origin/20250414085556.766776.133016</preferredOriginID><preferredMagnitudeID>de.gempa.tb1.Magnitude/20250414085605.939975.459996</preferredMagnitudeID><description><text>Chile-Bolivia Border Region</text><type>region name</type></description><originReference>de.gempa.tb1.Origin/20250414085556.766776.133016</originReference></event></EventParameters></seiscomp>