<?xml version="1.0" encoding="UTF-8"?>
<seiscomp xmlns="http://geofon.gfz-potsdam.de/ns/seiscomp3-schema/0.13" version="0.13"><EventParameters><pick publicID="de.gempa.tb1.Pick/20250413180011.983485.132945"><time><value>2025-04-13T18:00:02.558393Z</value></time><waveformID networkCode="CX" stationCode="PB06" channelCode="HHZ"/><filterID>ITAPER(4)&gt;&gt;BW(4,4,20)</filterID><methodID>AIC</methodID><horizontalSlowness><value>11.620385535325227</value></horizontalSlowness><backazimuth><value>280.1836867318309</value></backazimuth><phaseHint>P</phaseHint><evaluationMode>automatic</evaluationMode><comment><text>59.42672610278348</text><id>DFX:rectilinearity</id></comment><comment><text>8.947704712947582</text><id>SNR</id></comment></pick><pick publicID="de.gempa.tb1.Pick/20250413180022.474171.132947"><time><value>2025-04-13T18:00:16.858393Z</value></time><waveformID networkCode="CX" stationCode="PB02" channelCode="HHZ"/><filterID>ITAPER(4)&gt;&gt;BW(4,4,20)</filterID><methodID>AIC</methodID><horizontalSlowness><value>9.991617394750273</value></horizontalSlowness><backazimuth><value>216.65728033593564</value></backazimuth><phaseHint>P</phaseHint><evaluationMode>automatic</evaluationMode><comment><text>69.94497507491583</text><id>DFX:rectilinearity</id></comment><comment><text>13.630084094090858</text><id>SNR</id></comment></pick><pick publicID="de.gempa.tb1.Pick/20250413180023.775431.132949"><time><value>2025-04-13T18:00:14.91Z</value></time><waveformID networkCode="CX" stationCode="PB09" channelCode="HHZ"/><filterID>ITAPER(4)&gt;&gt;BW(4,4,20)</filterID><methodID>AIC</methodID><horizontalSlowness><value>2.748702689018123</value></horizontalSlowness><backazimuth><value>23.961373486294804</value></backazimuth><phaseHint>P</phaseHint><evaluationMode>automatic</evaluationMode><comment><text>12.897681350383447</text><id>DFX:rectilinearity</id></comment><comment><text>11.942974529373458</text><id>SNR</id></comment></pick><pick publicID="de.gempa.tb1.Pick/20250413180027.664464.132951"><time><value>2025-04-13T18:00:19.85Z</value></time><waveformID networkCode="CX" stationCode="PB19" channelCode="HHZ"/><filterID>ITAPER(4)&gt;&gt;BW(4,4,20)</filterID><methodID>AIC</methodID><horizontalSlowness><value>4.611657893122938</value></horizontalSlowness><backazimuth><value>171.44353686681134</value></backazimuth><phaseHint>P</phaseHint><evaluationMode>automatic</evaluationMode><comment><text>15.336222665497374</text><id>DFX:rectilinearity</id></comment><comment><text>8.804660555014234</text><id>SNR</id></comment></pick><pick publicID="de.gempa.tb1.Pick/20250413180031.01524.132953"><time><value>2025-04-13T18:00:22.958393Z</value></time><waveformID networkCode="CX" stationCode="PB01" channelCode="HHZ"/><filterID>ITAPER(4)&gt;&gt;BW(4,4,20)</filterID><methodID>AIC</methodID><horizontalSlowness><value>7.211697388997641</value></horizontalSlowness><backazimuth><value>249.33063514422213</value></backazimuth><phaseHint>P</phaseHint><evaluationMode>automatic</evaluationMode><comment><text>10.641355353492582</text><id>DFX:rectilinearity</id></comment><comment><text>11.027392434014395</text><id>SNR</id></comment></pick><pick publicID="de.gempa.tb1.Pick/20250413180044.771582.132957"><time><value>2025-04-13T18:00:10.228391Z</value></time><waveformID networkCode="CX" stationCode="PB07" channelCode="HHZ"/><filterID>ITAPER(4)&gt;&gt;BW(4,4,20)</filterID><methodID>AIC</methodID><horizontalSlowness><value>19.266113390308345</value></horizontalSlowness><backazimuth><value>178.20291778305335</value></backazimuth><phaseHint>P</phaseHint><evaluationMode>automatic</evaluationMode><comment><text>202.66948954215482</text><id>DFX:rectilinearity</id></comment><comment><text>18.2042602116858</text><id>SNR</id></comment></pick><origin publicID="de.gempa.tb1.Origin/20250413180044.77533.116854"><time><value>2025-04-13T17:59:51.597464Z</value><uncertainty>2.3296713829040527</uncertainty></time><latitude><value>-22.64103317260742</value><uncertainty>6.980950355529785</uncertainty></latitude><longitude><value>-70.18995666503906</value><uncertainty>15.65906810760498</uncertainty></longitude><depth><value>0</value></depth><depthType>operator assigned</depthType><methodID>LOCSAT</methodID><earthModelID>iasp91_scanloc</earthModelID><quality><associatedPhaseCount>6</associatedPhaseCount><usedPhaseCount>6</usedPhaseCount><associatedStationCount>6</associatedStationCount><usedStationCount>6</usedStationCount><depthPhaseCount>0</depthPhaseCount><standardError>0.256812397504026</standardError><azimuthalGap>224.923264503479</azimuthalGap><maximumDistance>1.718794584274292</maximumDistance><minimumDistance>0.5745065808296204</minimumDistance><medianDistance>1.342918038368225</medianDistance></quality><uncertainty><minHorizontalUncertainty>8.836030960083008</minHorizontalUncertainty><maxHorizontalUncertainty>35.69124221801758</maxHorizontalUncertainty><azimuthMaxHorizontalUncertainty>69.54304504394531</azimuthMaxHorizontalUncertainty><preferredDescription>horizontal uncertainty</preferredDescription></uncertainty><evaluationMode>automatic</evaluationMode><evaluationStatus>confirmed</evaluationStatus><comment><text>0.42</text><id>mismatchScore</id></comment><comment><text>mismatchScore</text><id>scevalMethod</id></comment><arrival><pickID>de.gempa.tb1.Pick/20250413180011.983485.132945</pickID><phase>P</phase><azimuth>96.56058502197266</azimuth><distance>0.5745065808296204</distance><timeResidual>-0.05832481384277344</timeResidual><timeUsed>true</timeUsed><horizontalSlownessUsed>false</horizontalSlownessUsed><backazimuthUsed>false</backazimuthUsed><weight>1</weight></arrival><arrival><pickID>de.gempa.tb1.Pick/20250413180022.474171.132947</pickID><phase>P</phase><azimuth>11.77644443511963</azimuth><distance>1.342918038368225</distance><timeResidual>-0.4785041809082031</timeResidual><timeUsed>true</timeUsed><horizontalSlownessUsed>false</horizontalSlownessUsed><backazimuthUsed>false</backazimuthUsed><weight>1</weight></arrival><arrival><pickID>de.gempa.tb1.Pick/20250413180023.775431.132949</pickID><phase>P</phase><azimuth>46.44132995605469</azimuth><distance>1.2158613204956055</distance><timeResidual>-0.009112358093261719</timeResidual><timeUsed>true</timeUsed><horizontalSlownessUsed>false</horizontalSlownessUsed><backazimuthUsed>false</backazimuthUsed><weight>1</weight></arrival><arrival><pickID>de.gempa.tb1.Pick/20250413180027.664464.132951</pickID><phase>P</phase><azimuth>146.85317993164062</azimuth><distance>1.5053924322128296</distance><timeResidual>0.01557636260986328</timeResidual><timeUsed>true</timeUsed><horizontalSlownessUsed>false</horizontalSlownessUsed><backazimuthUsed>false</backazimuthUsed><weight>1</weight></arrival><arrival><pickID>de.gempa.tb1.Pick/20250413180031.01524.132953</pickID><phase>P</phase><azimuth>22.449462890625</azimuth><distance>1.718794584274292</distance><timeResidual>0.18330860137939453</timeResidual><timeUsed>true</timeUsed><horizontalSlownessUsed>false</horizontalSlownessUsed><backazimuthUsed>false</backazimuthUsed><weight>1</weight></arrival><arrival><pickID>de.gempa.tb1.Pick/20250413180044.771582.132957</pickID><phase>P</phase><azimuth>17.250154495239258</azimuth><distance>0.952536940574646</distance><timeResidual>0.35974979400634766</timeResidual><timeUsed>true</timeUsed><horizontalSlownessUsed>false</horizontalSlownessUsed><backazimuthUsed>false</backazimuthUsed><weight>1</weight></arrival><magnitude publicID="de.gempa.tb1.Magnitude/20250413180050.93623.386291"><magnitude><value>2.4014500822266696</value></magnitude><type>M</type><methodID>weighted average</methodID><stationCount>6</stationCount></magnitude></origin><event publicID="gempa2025hhug"><preferredOriginID>de.gempa.tb1.Origin/20250413180044.77533.116854</preferredOriginID><preferredMagnitudeID>de.gempa.tb1.Magnitude/20250413180050.93623.386291</preferredMagnitudeID><description><text>Near Coast of Northern Chile</text><type>region name</type></description><originReference>de.gempa.tb1.Origin/20250413180044.77533.116854</originReference></event></EventParameters></seiscomp>