<?xml version="1.0" encoding="UTF-8"?>
<seiscomp xmlns="http://geofon.gfz-potsdam.de/ns/seiscomp3-schema/0.13" version="0.13"><EventParameters><pick publicID="de.gempa.tb1.Pick/20250413182222.03284.133057"><time><value>2025-04-13T18:22:16.398391Z</value></time><waveformID networkCode="CX" stationCode="PB15" channelCode="HHZ"/><filterID>ITAPER(4)&gt;&gt;BW(4,4,20)</filterID><methodID>AIC</methodID><horizontalSlowness><value>22.816721490537674</value></horizontalSlowness><backazimuth><value>40.55755676911997</value></backazimuth><phaseHint>P</phaseHint><evaluationMode>automatic</evaluationMode><comment><text>1587.488238400415</text><id>DFX:rectilinearity</id></comment><comment><text>15.508534578695128</text><id>SNR</id></comment></pick><pick publicID="de.gempa.tb1.Pick/20250413182224.487175.133060"><time><value>2025-04-13T18:22:17.398393Z</value></time><waveformID networkCode="CX" stationCode="PB06" channelCode="HHZ"/><filterID>ITAPER(4)&gt;&gt;BW(4,4,20)</filterID><methodID>AIC</methodID><horizontalSlowness><value>11.48159964042073</value></horizontalSlowness><backazimuth><value>134.1838290968368</value></backazimuth><phaseHint>P</phaseHint><evaluationMode>automatic</evaluationMode><comment><text>228.9295504276799</text><id>DFX:rectilinearity</id></comment><comment><text>12.737229212072487</text><id>SNR</id></comment></pick><pick publicID="de.gempa.tb1.Pick/20250413182231.587112.133064"><time><value>2025-04-13T18:22:25.69Z</value></time><waveformID networkCode="CX" stationCode="PB19" channelCode="HHZ"/><filterID>ITAPER(4)&gt;&gt;BW(4,4,20)</filterID><methodID>AIC</methodID><horizontalSlowness><value>18.774251384560106</value></horizontalSlowness><backazimuth><value>57.79219955800853</value></backazimuth><phaseHint>P</phaseHint><evaluationMode>automatic</evaluationMode><comment><text>30.46528139588001</text><id>DFX:rectilinearity</id></comment><comment><text>20.693586348953293</text><id>SNR</id></comment></pick><pick publicID="de.gempa.tb1.Pick/20250413182233.504959.133066"><time><value>2025-04-13T18:22:28.348394Z</value></time><waveformID networkCode="CX" stationCode="PB03" channelCode="HHZ"/><filterID>ITAPER(4)&gt;&gt;BW(4,4,20)</filterID><methodID>AIC</methodID><horizontalSlowness><value>12.775938212325883</value></horizontalSlowness><backazimuth><value>171.39518191118637</value></backazimuth><phaseHint>P</phaseHint><evaluationMode>automatic</evaluationMode><comment><text>40.130073126546513</text><id>DFX:rectilinearity</id></comment><comment><text>19.638441717738075</text><id>SNR</id></comment></pick><pick publicID="de.gempa.tb1.Pick/20250413182238.713012.133068"><time><value>2025-04-13T18:22:33.818391Z</value></time><waveformID networkCode="CX" stationCode="PB07" channelCode="HHZ"/><filterID>ITAPER(4)&gt;&gt;BW(4,4,20)</filterID><methodID>AIC</methodID><horizontalSlowness><value>15.970282686844993</value></horizontalSlowness><backazimuth><value>142.02681800249147</value></backazimuth><phaseHint>P</phaseHint><evaluationMode>automatic</evaluationMode><comment><text>640.0937419871528</text><id>DFX:rectilinearity</id></comment><comment><text>27.475251691771795</text><id>SNR</id></comment></pick><pick publicID="de.gempa.tb1.Pick/20250413182245.583155.133074"><time><value>2025-04-13T18:22:40.118394Z</value></time><waveformID networkCode="CX" stationCode="PB02" channelCode="HHZ"/><filterID>ITAPER(4)&gt;&gt;BW(4,4,20)</filterID><methodID>AIC</methodID><horizontalSlowness><value>11.74484294235386</value></horizontalSlowness><backazimuth><value>108.84796231290507</value></backazimuth><phaseHint>P</phaseHint><evaluationMode>automatic</evaluationMode><comment><text>95.04951057340125</text><id>DFX:rectilinearity</id></comment><comment><text>23.567677739333163</text><id>SNR</id></comment></pick><pick publicID="de.gempa.tb1.Pick/20250413182245.976797.133076"><time><value>2025-04-13T18:22:29.56Z</value></time><waveformID networkCode="CX" stationCode="PB09" channelCode="HHZ"/><filterID>ITAPER(4)&gt;&gt;BW(4,4,20)</filterID><methodID>AIC</methodID><horizontalSlowness><value>17.1935121453428</value></horizontalSlowness><backazimuth><value>137.72071546162837</value></backazimuth><phaseHint>P</phaseHint><evaluationMode>automatic</evaluationMode><comment><text>58.7912248513635</text><id>DFX:rectilinearity</id></comment><comment><text>26.01508837643402</text><id>SNR</id></comment></pick><pick publicID="de.gempa.tb1.Pick/20250413182246.714456.133078"><time><value>2025-04-13T18:22:38.868394Z</value></time><waveformID networkCode="CX" stationCode="PB01" channelCode="HHZ"/><filterID>ITAPER(4)&gt;&gt;BW(4,4,20)</filterID><methodID>AIC</methodID><horizontalSlowness><value>20.108667024090028</value></horizontalSlowness><backazimuth><value>241.3118406741258</value></backazimuth><phaseHint>P</phaseHint><evaluationMode>automatic</evaluationMode><comment><text>6.731760819646722</text><id>DFX:rectilinearity</id></comment><comment><text>14.116364400790625</text><id>SNR</id></comment></pick><origin publicID="de.gempa.tb1.Origin/20250413182247.652951.117135"><time><value>2025-04-13T18:22:06.757995Z</value><uncertainty>0.942203938961029</uncertainty></time><latitude><value>-22.94922637939453</value><uncertainty>3.4743051528930664</uncertainty></latitude><longitude><value>-69.01010131835938</value><uncertainty>8.803474426269531</uncertainty></longitude><depth><value>5.435351371765137</value><uncertainty>7.079109191894531</uncertainty></depth><depthType>from location</depthType><methodID>LOCSAT</methodID><earthModelID>iasp91_scanloc</earthModelID><quality><associatedPhaseCount>8</associatedPhaseCount><usedPhaseCount>8</usedPhaseCount><associatedStationCount>8</associatedStationCount><usedStationCount>8</usedStationCount><depthPhaseCount>0</depthPhaseCount><standardError>0.7858045136512583</standardError><azimuthalGap>205.7408447265625</azimuthalGap><maximumDistance>1.9478195905685425</maximumDistance><minimumDistance>0.4965921342372894</minimumDistance><medianDistance>1.1672396659851074</medianDistance></quality><uncertainty><minHorizontalUncertainty>7.451700687408447</minHorizontalUncertainty><maxHorizontalUncertainty>18.882579803466797</maxHorizontalUncertainty><azimuthMaxHorizontalUncertainty>90.21847534179688</azimuthMaxHorizontalUncertainty><preferredDescription>horizontal uncertainty</preferredDescription></uncertainty><evaluationMode>automatic</evaluationMode><evaluationStatus>confirmed</evaluationStatus><comment><text>0.06</text><id>mismatchScore</id></comment><comment><text>mismatchScore</text><id>scevalMethod</id></comment><arrival><pickID>de.gempa.tb1.Pick/20250413182222.03284.133057</pickID><phase>P</phase><azimuth>238.6219177246094</azimuth><distance>0.4965921342372894</distance><timeResidual>0.07261466979980469</timeResidual><timeUsed>true</timeUsed><horizontalSlownessUsed>false</horizontalSlownessUsed><backazimuthUsed>false</backazimuthUsed><weight>1</weight></arrival><arrival><pickID>de.gempa.tb1.Pick/20250413182224.487175.133060</pickID><phase>P</phase><azimuth>294.94580078125</azimuth><distance>0.5721288919448853</distance><timeResidual>-0.3701601028442383</timeResidual><timeUsed>true</timeUsed><horizontalSlownessUsed>false</horizontalSlownessUsed><backazimuthUsed>false</backazimuthUsed><weight>1</weight></arrival><arrival><pickID>de.gempa.tb1.Pick/20250413182231.587112.133064</pickID><phase>P</phase><azimuth>195.10369873046875</azimuth><distance>0.9854511022567749</distance><timeResidual>0.015302658081054688</timeResidual><timeUsed>true</timeUsed><horizontalSlownessUsed>false</horizontalSlownessUsed><backazimuthUsed>false</backazimuthUsed><weight>1</weight></arrival><arrival><pickID>de.gempa.tb1.Pick/20250413182233.504959.133066</pickID><phase>P</phase><azimuth>322.3891906738281</azimuth><distance>1.1295075416564941</distance><timeResidual>-0.08878707885742188</timeResidual><timeUsed>true</timeUsed><horizontalSlownessUsed>false</horizontalSlownessUsed><backazimuthUsed>false</backazimuthUsed><weight>1</weight></arrival><arrival><pickID>de.gempa.tb1.Pick/20250413182238.713012.133068</pickID><phase>P</phase><azimuth>326.14434814453125</azimuth><distance>1.4622834920883179</distance><timeResidual>0.06571578979492188</timeResidual><timeUsed>true</timeUsed><horizontalSlownessUsed>false</horizontalSlownessUsed><backazimuthUsed>false</backazimuthUsed><weight>1</weight></arrival><arrival><pickID>de.gempa.tb1.Pick/20250413182245.583155.133074</pickID><phase>P</phase><azimuth>332.96942138671875</azimuth><distance>1.8178093433380127</distance><timeResidual>1.4721107482910156</timeResidual><timeUsed>true</timeUsed><horizontalSlownessUsed>false</horizontalSlownessUsed><backazimuthUsed>false</backazimuthUsed><weight>1</weight></arrival><arrival><pickID>de.gempa.tb1.Pick/20250413182245.976797.133076</pickID><phase>P</phase><azimuth>349.36285400390625</azimuth><distance>1.1672396659851074</distance><timeResidual>0.40064525604248047</timeResidual><timeUsed>true</timeUsed><horizontalSlownessUsed>false</horizontalSlownessUsed><backazimuthUsed>false</backazimuthUsed><weight>1</weight></arrival><arrival><pickID>de.gempa.tb1.Pick/20250413182246.714456.133078</pickID><phase>P</phase><azimuth>346.7655029296875</azimuth><distance>1.9478195905685425</distance><timeResidual>-1.5676593780517578</timeResidual><timeUsed>true</timeUsed><horizontalSlownessUsed>false</horizontalSlownessUsed><backazimuthUsed>false</backazimuthUsed><weight>1</weight></arrival><magnitude publicID="de.gempa.tb1.Magnitude/20250413182250.936977.388360"><magnitude><value>2.645123947304093</value></magnitude><type>M</type><methodID>weighted average</methodID><stationCount>6</stationCount></magnitude></origin><event publicID="gempa2025hhuz"><preferredOriginID>de.gempa.tb1.Origin/20250413182247.652951.117135</preferredOriginID><preferredMagnitudeID>de.gempa.tb1.Magnitude/20250413182250.936977.388360</preferredMagnitudeID><description><text>Northern Chile</text><type>region name</type></description><originReference>de.gempa.tb1.Origin/20250413182247.652951.117135</originReference></event></EventParameters></seiscomp>