<?xml version="1.0" encoding="UTF-8"?>
<seiscomp xmlns="http://geofon.gfz-potsdam.de/ns/seiscomp3-schema/0.13" version="0.13"><EventParameters><pick publicID="de.gempa.tb1.Pick/20250414210226.39248.141179"><time><value>2025-04-14T21:02:18.79Z</value></time><waveformID networkCode="CX" stationCode="PB09" channelCode="HHZ"/><filterID>ITAPER(4)&gt;&gt;BW(4,4,20)</filterID><methodID>AIC</methodID><horizontalSlowness><value>15.57808770752128</value></horizontalSlowness><backazimuth><value>84.92941396577056</value></backazimuth><phaseHint>P</phaseHint><evaluationMode>automatic</evaluationMode><comment><text>25.65092541405655</text><id>DFX:rectilinearity</id></comment><comment><text>78.32931896297637</text><id>SNR</id></comment></pick><pick publicID="de.gempa.tb1.Pick/20250414210229.560526.141181"><time><value>2025-04-14T21:02:23.018393Z</value></time><waveformID networkCode="CX" stationCode="PB03" channelCode="HHZ"/><filterID>ITAPER(4)&gt;&gt;BW(4,4,20)</filterID><methodID>AIC</methodID><horizontalSlowness><value>3.1117219008565793</value></horizontalSlowness><backazimuth><value>99.26241889345097</value></backazimuth><phaseHint>P</phaseHint><evaluationMode>automatic</evaluationMode><comment><text>17.271427898180633</text><id>DFX:rectilinearity</id></comment><comment><text>16.087263945676415</text><id>SNR</id></comment></pick><pick publicID="de.gempa.tb1.Pick/20250414210231.577896.141183"><time><value>2025-04-14T21:02:24.208393Z</value></time><waveformID networkCode="CX" stationCode="PB01" channelCode="HHZ"/><filterID>ITAPER(4)&gt;&gt;BW(4,4,20)</filterID><methodID>AIC</methodID><horizontalSlowness><value>20.18328651546296</value></horizontalSlowness><backazimuth><value>341.62993034134104</value></backazimuth><phaseHint>P</phaseHint><evaluationMode>automatic</evaluationMode><comment><text>18.646438828727902</text><id>DFX:rectilinearity</id></comment><comment><text>9.846617213481641</text><id>SNR</id></comment></pick><pick publicID="de.gempa.tb1.Pick/20250414210232.487771.141185"><time><value>2025-04-14T21:02:26.008393Z</value></time><waveformID networkCode="CX" stationCode="PB02" channelCode="HHZ"/><filterID>ITAPER(4)&gt;&gt;BW(4,4,20)</filterID><methodID>AIC</methodID><horizontalSlowness><value>18.700072289295264</value></horizontalSlowness><backazimuth><value>101.99839440548212</value></backazimuth><phaseHint>P</phaseHint><evaluationMode>automatic</evaluationMode><comment><text>27.64786628439612</text><id>DFX:rectilinearity</id></comment><comment><text>19.161883731134253</text><id>SNR</id></comment></pick><pick publicID="de.gempa.tb1.Pick/20250414210232.492226.141187"><time><value>2025-04-14T21:02:24.388393Z</value></time><waveformID networkCode="CX" stationCode="PB06" channelCode="HHZ"/><filterID>ITAPER(4)&gt;&gt;BW(4,4,20)</filterID><methodID>AIC</methodID><horizontalSlowness><value>6.561872814617266</value></horizontalSlowness><backazimuth><value>69.32761524568024</value></backazimuth><phaseHint>P</phaseHint><evaluationMode>automatic</evaluationMode><comment><text>75.25102894967222</text><id>DFX:rectilinearity</id></comment><comment><text>24.88432140943525</text><id>SNR</id></comment></pick><pick publicID="de.gempa.tb1.Pick/20250414210234.683705.141189"><time><value>2025-04-14T21:02:28.588393Z</value></time><waveformID networkCode="CX" stationCode="PB15" channelCode="HHZ"/><filterID>ITAPER(4)&gt;&gt;BW(4,4,20)</filterID><methodID>AIC</methodID><horizontalSlowness><value>23.250401884362237</value></horizontalSlowness><backazimuth><value>10.693264446243546</value></backazimuth><phaseHint>P</phaseHint><evaluationMode>automatic</evaluationMode><comment><text>585.9884377550521</text><id>DFX:rectilinearity</id></comment><comment><text>12.502811721452812</text><id>SNR</id></comment></pick><pick publicID="de.gempa.tb1.Pick/20250414210243.582217.141191"><time><value>2025-04-14T21:02:35.39Z</value></time><waveformID networkCode="CX" stationCode="PB19" channelCode="HHZ"/><filterID>ITAPER(4)&gt;&gt;BW(4,4,20)</filterID><methodID>AIC</methodID><horizontalSlowness><value>17.567975122293738</value></horizontalSlowness><backazimuth><value>174.49499597173497</value></backazimuth><phaseHint>P</phaseHint><evaluationMode>automatic</evaluationMode><comment><text>16.271562927873791</text><id>DFX:rectilinearity</id></comment><comment><text>11.25129351958874</text><id>SNR</id></comment></pick><pick publicID="de.gempa.tb1.Pick/20250414210247.733928.141193"><time><value>2025-04-14T21:02:41.578393Z</value></time><waveformID networkCode="CX" stationCode="PB03" channelCode="HHN"/><filterID>ITAPER(2)&gt;&gt;BW(3,3,20)</filterID><methodID>L2-AIC-GRID</methodID><horizontalSlowness><value>12.257300974636065</value></horizontalSlowness><backazimuth><value>236.75166830444735</value></backazimuth><phaseHint>S</phaseHint><evaluationMode>automatic</evaluationMode><comment><text>73.74132355694616</text><id>DFX:rectilinearity</id></comment><comment><text>de.gempa.tb1.Pick/20250414210229.560526.141181</text><id>RefPickID</id></comment><comment><text>6.878182935302642</text><id>SNR</id></comment></pick><pick publicID="de.gempa.tb1.Pick/20250414210247.971085.141194"><time><value>2025-04-14T21:02:24.678393Z</value></time><waveformID networkCode="CX" stationCode="PB07" channelCode="HHZ"/><filterID>ITAPER(4)&gt;&gt;BW(4,4,20)</filterID><methodID>AIC</methodID><horizontalSlowness><value>22.60641072403075</value></horizontalSlowness><backazimuth><value>117.38306746025548</value></backazimuth><phaseHint>P</phaseHint><evaluationMode>automatic</evaluationMode><comment><text>158.22631347136405</text><id>DFX:rectilinearity</id></comment><comment><text>70.39881757286001</text><id>SNR</id></comment></pick><pick publicID="de.gempa.tb1.Pick/20250414210253.575152.141197"><time><value>2025-04-14T21:02:42.27Z</value></time><waveformID networkCode="CX" stationCode="PSGCX" channelCode="HHZ"/><filterID>ITAPER(4)&gt;&gt;BW(4,4,20)</filterID><methodID>AIC</methodID><horizontalSlowness><value>19.410646127126107</value></horizontalSlowness><backazimuth><value>64.3525839721942</value></backazimuth><phaseHint>P</phaseHint><evaluationMode>automatic</evaluationMode><comment><text>28.841017900944877</text><id>DFX:rectilinearity</id></comment><comment><text>7.225497144835656</text><id>SNR</id></comment></pick><pick publicID="de.gempa.tb1.Pick/20250414210254.548773.141199"><time><value>2025-04-14T21:02:46.208393Z</value></time><waveformID networkCode="CX" stationCode="PB02" channelCode="HHN"/><filterID>ITAPER(2)&gt;&gt;BW(3,3,20)</filterID><methodID>L2-AIC-GRID</methodID><horizontalSlowness><value>8.089088475617377</value></horizontalSlowness><backazimuth><value>302.10216185343006</value></backazimuth><phaseHint>S</phaseHint><evaluationMode>automatic</evaluationMode><comment><text>105.4120365015519</text><id>DFX:rectilinearity</id></comment><comment><text>de.gempa.tb1.Pick/20250414210232.487771.141185</text><id>RefPickID</id></comment><comment><text>5.476520373691137</text><id>SNR</id></comment></pick><pick publicID="de.gempa.tb1.Pick/20250414210522.048773.141241"><time><value>2025-04-14T21:02:31.360001Z</value></time><waveformID networkCode="CX" stationCode="PATCX" channelCode="HHZ"/><filterID>ITAPER(4)&gt;&gt;BW(4,4,20)</filterID><methodID>AIC</methodID><horizontalSlowness><value>17.664571671391517</value></horizontalSlowness><backazimuth><value>73.31521211587928</value></backazimuth><phaseHint>P</phaseHint><evaluationMode>automatic</evaluationMode><comment><text>125.82959884665748</text><id>DFX:rectilinearity</id></comment><comment><text>7.997412188102555</text><id>SNR</id></comment></pick><origin publicID="de.gempa.tb1.Origin/20250414210522.073288.150838"><time><value>2025-04-14T21:01:59.944518Z</value><uncertainty>0.8155623078346252</uncertainty></time><latitude><value>-21.86613655090332</value><uncertainty>5.192671775817871</uncertainty></latitude><longitude><value>-68.52861022949219</value><uncertainty>15.262569427490234</uncertainty></longitude><depth><value>117.88237762451172</value><uncertainty>19.162290573120117</uncertainty></depth><depthType>from location</depthType><methodID>LOCSAT</methodID><earthModelID>iasp91_scanloc</earthModelID><quality><associatedPhaseCount>12</associatedPhaseCount><usedPhaseCount>12</usedPhaseCount><associatedStationCount>10</associatedStationCount><usedStationCount>10</usedStationCount><depthPhaseCount>0</depthPhaseCount><standardError>0.18689246427181505</standardError><azimuthalGap>232.7092742919922</azimuthalGap><maximumDistance>2.706198453903198</maximumDistance><minimumDistance>0.6663905382156372</minimumDistance><medianDistance>1.3838844299316406</medianDistance></quality><uncertainty><minHorizontalUncertainty>9.356656074523926</minHorizontalUncertainty><maxHorizontalUncertainty>33.2740364074707</maxHorizontalUncertainty><azimuthMaxHorizontalUncertainty>79.1094970703125</azimuthMaxHorizontalUncertainty><preferredDescription>horizontal uncertainty</preferredDescription></uncertainty><evaluationMode>automatic</evaluationMode><evaluationStatus>confirmed</evaluationStatus><comment><text>0.05</text><id>mismatchScore</id></comment><comment><text>mismatchScore</text><id>scevalMethod</id></comment><arrival><pickID>de.gempa.tb1.Pick/20250414210226.39248.141179</pickID><phase>P</phase><azimuth>275.8474426269531</azimuth><distance>0.6663905382156372</distance><timeResidual>-0.06707191467285156</timeResidual><timeUsed>true</timeUsed><horizontalSlownessUsed>false</horizontalSlownessUsed><backazimuthUsed>false</backazimuthUsed><weight>1</weight></arrival><arrival><pickID>de.gempa.tb1.Pick/20250414210229.560526.141181</pickID><phase>P</phase><azimuth>260.703369140625</azimuth><distance>1.151114583015442</distance><timeResidual>-0.36655426025390625</timeResidual><timeUsed>true</timeUsed><horizontalSlownessUsed>false</horizontalSlownessUsed><backazimuthUsed>false</backazimuthUsed><weight>1</weight></arrival><arrival><pickID>de.gempa.tb1.Pick/20250414210231.577896.141183</pickID><phase>P</phase><azimuth>312.34014892578125</azimuth><distance>1.2117010354995728</distance><timeResidual>0.17019271850585938</timeResidual><timeUsed>true</timeUsed><horizontalSlownessUsed>false</horizontalSlownessUsed><backazimuthUsed>false</backazimuthUsed><weight>1</weight></arrival><arrival><pickID>de.gempa.tb1.Pick/20250414210232.487771.141185</pickID><phase>P</phase><azimuth>292.8837585449219</azimuth><distance>1.3838844299316406</distance><timeResidual>0.06303596496582031</timeResidual><timeUsed>true</timeUsed><horizontalSlownessUsed>false</horizontalSlownessUsed><backazimuthUsed>false</backazimuthUsed><weight>1</weight></arrival><arrival><pickID>de.gempa.tb1.Pick/20250414210232.492226.141187</pickID><phase>P</phase><azimuth>228.95042419433594</azimuth><distance>1.2774747610092163</distance><timeResidual>-0.35854530334472656</timeResidual><timeUsed>true</timeUsed><horizontalSlownessUsed>false</horizontalSlownessUsed><backazimuthUsed>false</backazimuthUsed><weight>1</weight></arrival><arrival><pickID>de.gempa.tb1.Pick/20250414210234.683705.141189</pickID><phase>P</phase><azimuth>212.93301391601562</azimuth><distance>1.594797968864441</distance><timeResidual>0.2061634063720703</timeResidual><timeUsed>true</timeUsed><horizontalSlownessUsed>false</horizontalSlownessUsed><backazimuthUsed>false</backazimuthUsed><weight>1</weight></arrival><arrival><pickID>de.gempa.tb1.Pick/20250414210243.582217.141191</pickID><phase>P</phase><azimuth>198.95704650878906</azimuth><distance>2.1473267078399658</distance><timeResidual>0.2210369110107422</timeResidual><timeUsed>true</timeUsed><horizontalSlownessUsed>false</horizontalSlownessUsed><backazimuthUsed>false</backazimuthUsed><weight>1</weight></arrival><arrival><pickID>de.gempa.tb1.Pick/20250414210247.733928.141193</pickID><phase>S</phase><azimuth>260.703369140625</azimuth><distance>1.151114583015442</distance><timeResidual>0.05600547790527344</timeResidual><timeUsed>true</timeUsed><horizontalSlownessUsed>false</horizontalSlownessUsed><backazimuthUsed>false</backazimuthUsed><weight>1</weight></arrival><arrival><pickID>de.gempa.tb1.Pick/20250414210247.971085.141194</pickID><phase>P</phase><azimuth>276.026611328125</azimuth><distance>1.2692805528640747</distance><timeResidual>0.016164779663085938</timeResidual><timeUsed>true</timeUsed><horizontalSlownessUsed>false</horizontalSlownessUsed><backazimuthUsed>false</backazimuthUsed><weight>1</weight></arrival><arrival><pickID>de.gempa.tb1.Pick/20250414210253.575152.141197</pickID><phase>P</phase><azimuth>326.2477722167969</azimuth><distance>2.706198453903198</distance><timeResidual>-0.09665679931640625</timeResidual><timeUsed>true</timeUsed><horizontalSlownessUsed>false</horizontalSlownessUsed><backazimuthUsed>false</backazimuthUsed><weight>1</weight></arrival><arrival><pickID>de.gempa.tb1.Pick/20250414210254.548773.141199</pickID><phase>S</phase><azimuth>292.8837585449219</azimuth><distance>1.3838844299316406</distance><timeResidual>0.11352920532226562</timeResidual><timeUsed>true</timeUsed><horizontalSlownessUsed>false</horizontalSlownessUsed><backazimuthUsed>false</backazimuthUsed><weight>1</weight></arrival><arrival><pickID>de.gempa.tb1.Pick/20250414210522.048773.141241</pickID><phase>P</phase><azimuth>304.1932067871094</azimuth><distance>1.8370814323425293</distance><timeResidual>0.042438507080078125</timeResidual><timeUsed>true</timeUsed><horizontalSlownessUsed>false</horizontalSlownessUsed><backazimuthUsed>false</backazimuthUsed><weight>1</weight></arrival><magnitude publicID="de.gempa.tb1.Magnitude/20250414210530.939895.540655"><magnitude><value>2.3764869724204165</value></magnitude><type>M</type><methodID>weighted average</methodID><stationCount>7</stationCount></magnitude></origin><event publicID="gempa2025hjwi"><preferredOriginID>de.gempa.tb1.Origin/20250414210522.073288.150838</preferredOriginID><preferredMagnitudeID>de.gempa.tb1.Magnitude/20250414210530.939895.540655</preferredMagnitudeID><description><text>Chile-Bolivia Border Region</text><type>region name</type></description><originReference>de.gempa.tb1.Origin/20250414210522.073288.150838</originReference></event></EventParameters></seiscomp>