<?xml version="1.0" encoding="UTF-8"?>
<seiscomp xmlns="http://geofon.gfz-potsdam.de/ns/seiscomp3-schema/0.13" version="0.13"><EventParameters><pick publicID="de.gempa.tb1.Pick/20250413052624.824078.129106"><time><value>2025-04-13T05:26:18.268393Z</value></time><waveformID networkCode="CX" stationCode="PB08" channelCode="HHZ"/><filterID>ITAPER(4)&gt;&gt;BW(4,4,20)</filterID><methodID>AIC</methodID><horizontalSlowness><value>19.270749545735644</value></horizontalSlowness><backazimuth><value>79.566301232932</value></backazimuth><phaseHint>P</phaseHint><evaluationMode>automatic</evaluationMode><comment><text>10.546301393124766</text><id>DFX:rectilinearity</id></comment><comment><text>31.98888836100326</text><id>SNR</id></comment></pick><pick publicID="de.gempa.tb1.Pick/20250413052630.518105.129108"><time><value>2025-04-13T05:26:25.168393Z</value></time><waveformID networkCode="CX" stationCode="PB01" channelCode="HHZ"/><filterID>ITAPER(4)&gt;&gt;BW(4,4,20)</filterID><methodID>AIC</methodID><horizontalSlowness><value>12.51761371035814</value></horizontalSlowness><backazimuth><value>30.42467787944375</value></backazimuth><phaseHint>P</phaseHint><evaluationMode>automatic</evaluationMode><comment><text>24.581210222398056</text><id>DFX:rectilinearity</id></comment><comment><text>22.08762810037902</text><id>SNR</id></comment></pick><pick publicID="de.gempa.tb1.Pick/20250413052631.576477.129110"><time><value>2025-04-13T05:26:23.89Z</value></time><waveformID networkCode="CX" stationCode="PSGCX" channelCode="HHZ"/><filterID>ITAPER(4)&gt;&gt;BW(4,4,20)</filterID><methodID>AIC</methodID><horizontalSlowness><value>9.657349155986326</value></horizontalSlowness><backazimuth><value>254.16983212446027</value></backazimuth><phaseHint>P</phaseHint><evaluationMode>automatic</evaluationMode><comment><text>28.251363349402553</text><id>DFX:rectilinearity</id></comment><comment><text>51.75291693444687</text><id>SNR</id></comment></pick><pick publicID="de.gempa.tb1.Pick/20250413052637.223897.129112"><time><value>2025-04-13T05:26:29.028393Z</value></time><waveformID networkCode="CX" stationCode="PB08" channelCode="HHN"/><filterID>ITAPER(2)&gt;&gt;BW(3,3,20)</filterID><methodID>L2-AIC-GRID</methodID><horizontalSlowness><value>16.26049007761208</value></horizontalSlowness><backazimuth><value>204.83648639617064</value></backazimuth><phaseHint>S</phaseHint><evaluationMode>automatic</evaluationMode><comment><text>208.96572473382943</text><id>DFX:rectilinearity</id></comment><comment><text>de.gempa.tb1.Pick/20250413052624.824078.129106</text><id>RefPickID</id></comment><comment><text>10.797200805642255</text><id>SNR</id></comment></pick><pick publicID="de.gempa.tb1.Pick/20250413052638.663953.129113"><time><value>2025-04-13T05:26:30.058393Z</value></time><waveformID networkCode="CX" stationCode="PB02" channelCode="HHZ"/><filterID>ITAPER(4)&gt;&gt;BW(4,4,20)</filterID><methodID>AIC</methodID><horizontalSlowness><value>11.83595899616845</value></horizontalSlowness><backazimuth><value>292.11030072540046</value></backazimuth><phaseHint>P</phaseHint><evaluationMode>automatic</evaluationMode><comment><text>28.961996040123864</text><id>DFX:rectilinearity</id></comment><comment><text>14.9718377608485</text><id>SNR</id></comment></pick><pick publicID="de.gempa.tb1.Pick/20250413052641.749528.129115"><time><value>2025-04-13T05:26:34.588393Z</value></time><waveformID networkCode="CX" stationCode="PB16" channelCode="HHZ"/><filterID>ITAPER(4)&gt;&gt;BW(4,4,20)</filterID><methodID>AIC</methodID><horizontalSlowness><value>6.093662380744742</value></horizontalSlowness><backazimuth><value>249.67336381841795</value></backazimuth><phaseHint>P</phaseHint><evaluationMode>automatic</evaluationMode><comment><text>1.520260206736441</text><id>DFX:rectilinearity</id></comment><comment><text>7.917503457073017</text><id>SNR</id></comment></pick><pick publicID="de.gempa.tb1.Pick/20250413052642.813318.129117"><time><value>2025-04-13T05:26:35.138394Z</value></time><waveformID networkCode="CX" stationCode="PB07" channelCode="HHZ"/><filterID>ITAPER(4)&gt;&gt;BW(4,4,20)</filterID><methodID>AIC</methodID><horizontalSlowness><value>21.886306555306653</value></horizontalSlowness><backazimuth><value>202.93167097670988</value></backazimuth><phaseHint>P</phaseHint><evaluationMode>automatic</evaluationMode><comment><text>263.93966329476586</text><id>DFX:rectilinearity</id></comment><comment><text>11.41952621953222</text><id>SNR</id></comment></pick><pick publicID="de.gempa.tb1.Pick/20250413052644.592525.129119"><time><value>2025-04-13T05:26:38.9Z</value></time><waveformID networkCode="CX" stationCode="PSGCX" channelCode="HHN"/><filterID>ITAPER(2)&gt;&gt;BW(3,3,20)</filterID><methodID>L2-AIC-GRID</methodID><horizontalSlowness><value>19.19037521976847</value></horizontalSlowness><backazimuth><value>21.291049297445198</value></backazimuth><phaseHint>S</phaseHint><evaluationMode>automatic</evaluationMode><comment><text>123.65362378318731</text><id>DFX:rectilinearity</id></comment><comment><text>de.gempa.tb1.Pick/20250413052631.576477.129110</text><id>RefPickID</id></comment><comment><text>7.874149360362313</text><id>SNR</id></comment></pick><pick publicID="de.gempa.tb1.Pick/20250413052648.57347.129120"><time><value>2025-04-13T05:26:41.328393Z</value></time><waveformID networkCode="CX" stationCode="PB01" channelCode="HHN"/><filterID>ITAPER(2)&gt;&gt;BW(3,3,20)</filterID><methodID>L2-AIC-GRID</methodID><horizontalSlowness><value>19.93501925903999</value></horizontalSlowness><backazimuth><value>251.80279402599035</value></backazimuth><phaseHint>S</phaseHint><evaluationMode>automatic</evaluationMode><comment><text>46.23749615042762</text><id>DFX:rectilinearity</id></comment><comment><text>de.gempa.tb1.Pick/20250413052630.518105.129108</text><id>RefPickID</id></comment><comment><text>7.342125568776069</text><id>SNR</id></comment></pick><pick publicID="de.gempa.tb1.Pick/20250413052656.494974.129122"><time><value>2025-04-13T05:26:35.77Z</value></time><waveformID networkCode="CX" stationCode="PB09" channelCode="HHZ"/><filterID>ITAPER(4)&gt;&gt;BW(4,4,20)</filterID><methodID>AIC</methodID><horizontalSlowness><value>18.104283415564964</value></horizontalSlowness><backazimuth><value>302.8648914633806</value></backazimuth><phaseHint>P</phaseHint><evaluationMode>automatic</evaluationMode><comment><text>9.876312973983387</text><id>DFX:rectilinearity</id></comment><comment><text>10.136097238040122</text><id>SNR</id></comment></pick><pick publicID="de.gempa.tb1.Pick/20250413052708.785958.129127"><time><value>2025-04-13T05:26:59.888394Z</value></time><waveformID networkCode="CX" stationCode="PB07" channelCode="HHN"/><filterID>ITAPER(2)&gt;&gt;BW(3,3,20)</filterID><methodID>L2-AIC-GRID</methodID><horizontalSlowness><value>22.056305924021988</value></horizontalSlowness><backazimuth><value>256.91095568742583</value></backazimuth><phaseHint>S</phaseHint><evaluationMode>automatic</evaluationMode><comment><text>335.29673786292523</text><id>DFX:rectilinearity</id></comment><comment><text>de.gempa.tb1.Pick/20250413052642.813318.129117</text><id>RefPickID</id></comment><comment><text>5.875416941999983</text><id>SNR</id></comment></pick><origin publicID="de.gempa.tb1.Origin/20250413052708.789716.101650"><time><value>2025-04-13T05:26:05.755848Z</value><uncertainty>0.7352466583251953</uncertainty></time><latitude><value>-20.006608963012695</value><uncertainty>3.1782782077789307</uncertainty></latitude><longitude><value>-69.2701644897461</value><uncertainty>6.180622100830078</uncertainty></longitude><depth><value>90.71337890625</value><uncertainty>5.872825145721436</uncertainty></depth><depthType>from location</depthType><methodID>LOCSAT</methodID><earthModelID>iasp91_scanloc</earthModelID><quality><associatedPhaseCount>11</associatedPhaseCount><usedPhaseCount>11</usedPhaseCount><associatedStationCount>7</associatedStationCount><usedStationCount>7</usedStationCount><depthPhaseCount>0</depthPhaseCount><standardError>0.6796274683091145</standardError><azimuthalGap>148.3897247314453</azimuthalGap><maximumDistance>1.805794358253479</maximumDistance><minimumDistance>0.1730770766735077</minimumDistance><medianDistance>1.0512784719467163</medianDistance></quality><uncertainty><minHorizontalUncertainty>6.491966247558594</minHorizontalUncertainty><maxHorizontalUncertainty>13.416565895080566</maxHorizontalUncertainty><azimuthMaxHorizontalUncertainty>79.81173706054688</azimuthMaxHorizontalUncertainty><preferredDescription>horizontal uncertainty</preferredDescription></uncertainty><evaluationMode>automatic</evaluationMode><evaluationStatus>confirmed</evaluationStatus><comment><text>0.09</text><id>mismatchScore</id></comment><comment><text>mismatchScore</text><id>scevalMethod</id></comment><arrival><pickID>de.gempa.tb1.Pick/20250413052624.824078.129106</pickID><phase>P</phase><azimuth>140.6613006591797</azimuth><distance>0.1730770766735077</distance><timeResidual>-0.461909294128418</timeResidual><timeUsed>true</timeUsed><horizontalSlownessUsed>false</horizontalSlownessUsed><backazimuthUsed>false</backazimuthUsed><weight>1</weight></arrival><arrival><pickID>de.gempa.tb1.Pick/20250413052630.518105.129108</pickID><phase>P</phase><azimuth>191.1297607421875</azimuth><distance>1.0512784719467163</distance><timeResidual>-0.9271078109741211</timeResidual><timeUsed>true</timeUsed><horizontalSlownessUsed>false</horizontalSlownessUsed><backazimuthUsed>false</backazimuthUsed><weight>1</weight></arrival><arrival><pickID>de.gempa.tb1.Pick/20250413052631.576477.129110</pickID><phase>P</phase><azimuth>296.75042724609375</azimuth><distance>0.9004562497138977</distance><timeResidual>-0.5188455581665039</timeResidual><timeUsed>true</timeUsed><horizontalSlownessUsed>false</horizontalSlownessUsed><backazimuthUsed>false</backazimuthUsed><weight>1</weight></arrival><arrival><pickID>de.gempa.tb1.Pick/20250413052637.223897.129112</pickID><phase>S</phase><azimuth>140.6613006591797</azimuth><distance>0.1730770766735077</distance><timeResidual>0.36998844146728516</timeResidual><timeUsed>true</timeUsed><horizontalSlownessUsed>false</horizontalSlownessUsed><backazimuthUsed>false</backazimuthUsed><weight>1</weight></arrival><arrival><pickID>de.gempa.tb1.Pick/20250413052638.663953.129113</pickID><phase>P</phase><azimuth>204.05157470703125</azimuth><distance>1.4319310188293457</distance><timeResidual>-0.6297340393066406</timeResidual><timeUsed>true</timeUsed><horizontalSlownessUsed>false</horizontalSlownessUsed><backazimuthUsed>false</backazimuthUsed><weight>1</weight></arrival><arrival><pickID>de.gempa.tb1.Pick/20250413052641.749528.129115</pickID><phase>P</phase><azimuth>352.2715759277344</azimuth><distance>1.67779803276062</distance><timeResidual>0.7713766098022461</timeResidual><timeUsed>true</timeUsed><horizontalSlownessUsed>false</horizontalSlownessUsed><backazimuthUsed>false</backazimuthUsed><weight>1</weight></arrival><arrival><pickID>de.gempa.tb1.Pick/20250413052642.813318.129117</pickID><phase>P</phase><azimuth>198.49571228027344</azimuth><distance>1.805794358253479</distance><timeResidual>-0.3139772415161133</timeResidual><timeUsed>true</timeUsed><horizontalSlownessUsed>false</horizontalSlownessUsed><backazimuthUsed>false</backazimuthUsed><weight>1</weight></arrival><arrival><pickID>de.gempa.tb1.Pick/20250413052644.592525.129119</pickID><phase>S</phase><azimuth>296.75042724609375</azimuth><distance>0.9004562497138977</distance><timeResidual>0.14037609100341797</timeResidual><timeUsed>true</timeUsed><horizontalSlownessUsed>false</horizontalSlownessUsed><backazimuthUsed>false</backazimuthUsed><weight>1</weight></arrival><arrival><pickID>de.gempa.tb1.Pick/20250413052648.57347.129120</pickID><phase>S</phase><azimuth>191.1297607421875</azimuth><distance>1.0512784719467163</distance><timeResidual>-0.4428243637084961</timeResidual><timeUsed>true</timeUsed><horizontalSlownessUsed>false</horizontalSlownessUsed><backazimuthUsed>false</backazimuthUsed><weight>1</weight></arrival><arrival><pickID>de.gempa.tb1.Pick/20250413052656.494974.129122</pickID><phase>P</phase><azimuth>179.1553955078125</azimuth><distance>1.7810102701187134</distance><timeResidual>0.6386213302612305</timeResidual><timeUsed>true</timeUsed><horizontalSlownessUsed>false</horizontalSlownessUsed><backazimuthUsed>false</backazimuthUsed><weight>1</weight></arrival><arrival><pickID>de.gempa.tb1.Pick/20250413052708.785958.129127</pickID><phase>S</phase><azimuth>198.49571228027344</azimuth><distance>1.805794358253479</distance><timeResidual>1.3740606307983398</timeResidual><timeUsed>true</timeUsed><horizontalSlownessUsed>false</horizontalSlownessUsed><backazimuthUsed>false</backazimuthUsed><weight>1</weight></arrival><magnitude publicID="de.gempa.tb1.Magnitude/20250413052708.79563.319373"><magnitude><value>2.1161990126831385</value></magnitude><type>M</type><methodID>weighted average</methodID><stationCount>4</stationCount></magnitude></origin><event publicID="gempa2025hgvc"><preferredOriginID>de.gempa.tb1.Origin/20250413052708.789716.101650</preferredOriginID><preferredMagnitudeID>de.gempa.tb1.Magnitude/20250413052708.79563.319373</preferredMagnitudeID><description><text>Northern Chile</text><type>region name</type></description><originReference>de.gempa.tb1.Origin/20250413052708.789716.101650</originReference></event></EventParameters></seiscomp>