<?xml version="1.0" encoding="UTF-8"?>
<seiscomp xmlns="http://geofon.gfz-potsdam.de/ns/seiscomp3-schema/0.13" version="0.13"><EventParameters><pick publicID="de.gempa.tb1.Pick/20250414114140.673305.137711"><time><value>2025-04-14T11:41:31.76Z</value></time><waveformID networkCode="CX" stationCode="PSGCX" channelCode="HHZ"/><filterID>ITAPER(4)&gt;&gt;BW(4,4,20)</filterID><methodID>AIC</methodID><horizontalSlowness><value>16.798206237825998</value></horizontalSlowness><backazimuth><value>45.1513788438335</value></backazimuth><phaseHint>P</phaseHint><evaluationMode>automatic</evaluationMode><comment><text>28.10477512171101</text><id>DFX:rectilinearity</id></comment><comment><text>73.38418688254791</text><id>SNR</id></comment></pick><pick publicID="de.gempa.tb1.Pick/20250414114146.510776.137713"><time><value>2025-04-14T11:41:40.258393Z</value></time><waveformID networkCode="CX" stationCode="PB01" channelCode="HHZ"/><filterID>ITAPER(4)&gt;&gt;BW(4,4,20)</filterID><methodID>AIC</methodID><horizontalSlowness><value>20.629164478478707</value></horizontalSlowness><backazimuth><value>188.09913212525421</value></backazimuth><phaseHint>P</phaseHint><evaluationMode>automatic</evaluationMode><comment><text>11.569739007600555</text><id>DFX:rectilinearity</id></comment><comment><text>47.08742517092527</text><id>SNR</id></comment></pick><pick publicID="de.gempa.tb1.Pick/20250414114148.431003.137715"><time><value>2025-04-14T11:41:41.889999Z</value></time><waveformID networkCode="CX" stationCode="PATCX" channelCode="HHZ"/><filterID>ITAPER(4)&gt;&gt;BW(4,4,20)</filterID><methodID>AIC</methodID><horizontalSlowness><value>23.24073318582335</value></horizontalSlowness><backazimuth><value>58.10981164746624</value></backazimuth><phaseHint>P</phaseHint><evaluationMode>automatic</evaluationMode><comment><text>119.36105215904472</text><id>DFX:rectilinearity</id></comment><comment><text>11.533491146722296</text><id>SNR</id></comment></pick><pick publicID="de.gempa.tb1.Pick/20250414114150.681947.137717"><time><value>2025-04-14T11:41:45.958394Z</value></time><waveformID networkCode="CX" stationCode="PB02" channelCode="HHZ"/><filterID>ITAPER(4)&gt;&gt;BW(4,4,20)</filterID><methodID>AIC</methodID><horizontalSlowness><value>14.446078828909409</value></horizontalSlowness><backazimuth><value>63.34997269228042</value></backazimuth><phaseHint>P</phaseHint><evaluationMode>automatic</evaluationMode><comment><text>22.702509778509583</text><id>DFX:rectilinearity</id></comment><comment><text>48.99495029499182</text><id>SNR</id></comment></pick><pick publicID="de.gempa.tb1.Pick/20250414114157.911082.137719"><time><value>2025-04-14T11:41:49.448393Z</value></time><waveformID networkCode="CX" stationCode="PB07" channelCode="HHZ"/><filterID>ITAPER(4)&gt;&gt;BW(4,4,20)</filterID><methodID>AIC</methodID><horizontalSlowness><value>23.17248417275155</value></horizontalSlowness><backazimuth><value>105.25175042042258</value></backazimuth><phaseHint>P</phaseHint><evaluationMode>automatic</evaluationMode><comment><text>129.81211969512174</text><id>DFX:rectilinearity</id></comment><comment><text>45.01087699902733</text><id>SNR</id></comment></pick><pick publicID="de.gempa.tb1.Pick/20250414114158.393497.137721"><time><value>2025-04-14T11:41:48.72Z</value></time><waveformID networkCode="CX" stationCode="PB09" channelCode="HHZ"/><filterID>ITAPER(4)&gt;&gt;BW(4,4,20)</filterID><methodID>AIC</methodID><horizontalSlowness><value>15.317400117130997</value></horizontalSlowness><backazimuth><value>300.51619610731984</value></backazimuth><phaseHint>P</phaseHint><evaluationMode>automatic</evaluationMode><comment><text>7.944609843650319</text><id>DFX:rectilinearity</id></comment><comment><text>35.722248807339334</text><id>SNR</id></comment></pick><pick publicID="de.gempa.tb1.Pick/20250414114200.555591.137723"><time><value>2025-04-14T11:41:52.438393Z</value></time><waveformID networkCode="CX" stationCode="PB03" channelCode="HHZ"/><filterID>ITAPER(4)&gt;&gt;BW(4,4,20)</filterID><methodID>AIC</methodID><horizontalSlowness><value>7.229581104539319</value></horizontalSlowness><backazimuth><value>60.65030015091521</value></backazimuth><phaseHint>P</phaseHint><evaluationMode>automatic</evaluationMode><comment><text>46.02595124447789</text><id>DFX:rectilinearity</id></comment><comment><text>29.691384757243373</text><id>SNR</id></comment></pick><pick publicID="de.gempa.tb1.Pick/20250414114206.519604.137725"><time><value>2025-04-14T11:41:58.888393Z</value></time><waveformID networkCode="CX" stationCode="PB06" channelCode="HHZ"/><filterID>ITAPER(4)&gt;&gt;BW(4,4,20)</filterID><methodID>AIC</methodID><horizontalSlowness><value>4.3105362109433223</value></horizontalSlowness><backazimuth><value>317.4470737866435</value></backazimuth><phaseHint>P</phaseHint><evaluationMode>automatic</evaluationMode><comment><text>149.13591312224327</text><id>DFX:rectilinearity</id></comment><comment><text>15.30176332549807</text><id>SNR</id></comment></pick><pick publicID="de.gempa.tb1.Pick/20250414114210.667563.137727"><time><value>2025-04-14T11:42:05.188393Z</value></time><waveformID networkCode="CX" stationCode="PB15" channelCode="HHZ"/><filterID>ITAPER(4)&gt;&gt;BW(4,4,20)</filterID><methodID>AIC</methodID><horizontalSlowness><value>21.901759045143958</value></horizontalSlowness><backazimuth><value>102.20404364401693</value></backazimuth><phaseHint>P</phaseHint><evaluationMode>automatic</evaluationMode><comment><text>168.5882721926839</text><id>DFX:rectilinearity</id></comment><comment><text>9.701722434606724</text><id>SNR</id></comment></pick><pick publicID="de.gempa.tb1.Pick/20250414114218.550072.137730"><time><value>2025-04-14T11:42:12.23Z</value></time><waveformID networkCode="CX" stationCode="PB19" channelCode="HHZ"/><filterID>ITAPER(4)&gt;&gt;BW(4,4,20)</filterID><methodID>AIC</methodID><horizontalSlowness><value>6.730408913784711</value></horizontalSlowness><backazimuth><value>32.83803139374845</value></backazimuth><phaseHint>P</phaseHint><evaluationMode>automatic</evaluationMode><comment><text>29.3588379374403</text><id>DFX:rectilinearity</id></comment><comment><text>16.134621525827644</text><id>SNR</id></comment></pick><origin publicID="de.gempa.tb1.Origin/20250414114220.551952.136445"><time><value>2025-04-14T11:40:38.054777Z</value><uncertainty>6.759186267852783</uncertainty></time><latitude><value>-17.533531188964844</value><uncertainty>49.11734008789062</uncertainty></latitude><longitude><value>-67.99508666992188</value><uncertainty>53.8454475402832</uncertainty></longitude><depth><value>286.0542907714844</value><uncertainty>48.53250122070312</uncertainty></depth><depthType>from location</depthType><methodID>LOCSAT</methodID><earthModelID>iasp91_scanloc</earthModelID><quality><associatedPhaseCount>10</associatedPhaseCount><usedPhaseCount>10</usedPhaseCount><associatedStationCount>10</associatedStationCount><usedStationCount>10</usedStationCount><depthPhaseCount>0</depthPhaseCount><standardError>0.3983418904212413</standardError><azimuthalGap>326.4188690185547</azimuthalGap><maximumDistance>6.45405101776123</maximumDistance><minimumDistance>2.878757953643799</minimumDistance><medianDistance>4.536048412322998</medianDistance></quality><uncertainty><minHorizontalUncertainty>77.08206176757812</minHorizontalUncertainty><maxHorizontalUncertainty>135.950927734375</maxHorizontalUncertainty><azimuthMaxHorizontalUncertainty>50.1408805847168</azimuthMaxHorizontalUncertainty><preferredDescription>horizontal uncertainty</preferredDescription></uncertainty><evaluationMode>automatic</evaluationMode><evaluationStatus>confirmed</evaluationStatus><comment><text>0.21</text><id>mismatchScore</id></comment><comment><text>mismatchScore</text><id>scevalMethod</id></comment><arrival><pickID>de.gempa.tb1.Pick/20250414114140.673305.137711</pickID><phase>P</phase><azimuth>224.1893310546875</azimuth><distance>2.878757953643799</distance><timeResidual>0.09954071044921875</timeResidual><timeUsed>true</timeUsed><horizontalSlownessUsed>false</horizontalSlownessUsed><backazimuthUsed>false</backazimuthUsed><weight>1</weight></arrival><arrival><pickID>de.gempa.tb1.Pick/20250414114146.510776.137713</pickID><phase>P</phase><azimuth>201.74484252929688</azimuth><distance>3.764995813369751</distance><timeResidual>-0.7092552185058594</timeResidual><timeUsed>true</timeUsed><horizontalSlownessUsed>false</horizontalSlownessUsed><backazimuthUsed>false</backazimuthUsed><weight>1</weight></arrival><arrival><pickID>de.gempa.tb1.Pick/20250414114148.431003.137715</pickID><phase>P</phase><azimuth>211.60694885253906</azimuth><distance>3.853598356246948</distance><timeResidual>-0.0496978759765625</timeResidual><timeUsed>true</timeUsed><horizontalSlownessUsed>false</horizontalSlownessUsed><backazimuthUsed>false</backazimuthUsed><weight>1</weight></arrival><arrival><pickID>de.gempa.tb1.Pick/20250414114150.681947.137717</pickID><phase>P</phase><azimuth>205.16116333007812</azimuth><distance>4.1716814041137695</distance><timeResidual>0.4685821533203125</timeResidual><timeUsed>true</timeUsed><horizontalSlownessUsed>false</horizontalSlownessUsed><backazimuthUsed>false</backazimuthUsed><weight>1</weight></arrival><arrival><pickID>de.gempa.tb1.Pick/20250414114157.911082.137719</pickID><phase>P</phase><azimuth>202.82858276367188</azimuth><distance>4.536048412322998</distance><timeResidual>-0.200347900390625</timeResidual><timeUsed>true</timeUsed><horizontalSlownessUsed>false</horizontalSlownessUsed><backazimuthUsed>false</backazimuthUsed><weight>1</weight></arrival><arrival><pickID>de.gempa.tb1.Pick/20250414114158.393497.137721</pickID><phase>P</phase><azimuth>195.2819366455078</azimuth><distance>4.4004111289978027</distance><timeResidual>0.6292724609375</timeResidual><timeUsed>true</timeUsed><horizontalSlownessUsed>false</horizontalSlownessUsed><backazimuthUsed>false</backazimuthUsed><weight>1</weight></arrival><arrival><pickID>de.gempa.tb1.Pick/20250414114200.555591.137723</pickID><phase>P</phase><azimuth>199.9420623779297</azimuth><distance>4.786756992340088</distance><timeResidual>-0.109161376953125</timeResidual><timeUsed>true</timeUsed><horizontalSlownessUsed>false</horizontalSlownessUsed><backazimuthUsed>false</backazimuthUsed><weight>1</weight></arrival><arrival><pickID>de.gempa.tb1.Pick/20250414114206.519604.137725</pickID><phase>P</phase><azimuth>195.79995727539062</azimuth><distance>5.354693412780762</distance><timeResidual>-0.345184326171875</timeResidual><timeUsed>true</timeUsed><horizontalSlownessUsed>false</horizontalSlownessUsed><backazimuthUsed>false</backazimuthUsed><weight>1</weight></arrival><arrival><pickID>de.gempa.tb1.Pick/20250414114210.667563.137727</pickID><phase>P</phase><azimuth>193.52989196777344</azimuth><distance>5.8131103515625</distance><timeResidual>0.4694252014160156</timeResidual><timeUsed>true</timeUsed><horizontalSlownessUsed>false</horizontalSlownessUsed><backazimuthUsed>false</backazimuthUsed><weight>1</weight></arrival><arrival><pickID>de.gempa.tb1.Pick/20250414114218.550072.137730</pickID><phase>P</phase><azimuth>190.6082000732422</azimuth><distance>6.45405101776123</distance><timeResidual>-0.25341796875</timeResidual><timeUsed>true</timeUsed><horizontalSlownessUsed>false</horizontalSlownessUsed><backazimuthUsed>false</backazimuthUsed><weight>1</weight></arrival><magnitude publicID="de.gempa.tb1.Magnitude/20250414114231.499503.481171"><magnitude><value>3.814175976048336</value></magnitude><type>M</type><methodID>weighted average</methodID><stationCount>6</stationCount></magnitude></origin><event publicID="gempa2025hjdq"><preferredOriginID>de.gempa.tb1.Origin/20250414114220.551952.136445</preferredOriginID><preferredMagnitudeID>de.gempa.tb1.Magnitude/20250414114231.499503.481171</preferredMagnitudeID><description><text>Central Bolivia</text><type>region name</type></description><originReference>de.gempa.tb1.Origin/20250414114220.551952.136445</originReference></event></EventParameters></seiscomp>