<?xml version="1.0" encoding="UTF-8"?>
<seiscomp xmlns="http://geofon.gfz-potsdam.de/ns/seiscomp3-schema/0.13" version="0.13"><EventParameters><pick publicID="de.gempa.tb1.Pick/20250414172023.579669.139566"><time><value>2025-04-14T17:20:15.488393Z</value></time><waveformID networkCode="CX" stationCode="PB03" channelCode="HHZ"/><filterID>ITAPER(4)&gt;&gt;BW(4,4,20)</filterID><methodID>AIC</methodID><horizontalSlowness><value>10.233188071319264</value></horizontalSlowness><backazimuth><value>207.56399079547987</value></backazimuth><phaseHint>P</phaseHint><evaluationMode>automatic</evaluationMode><comment><text>15.57262346133648</text><id>DFX:rectilinearity</id></comment><comment><text>22.91552443035703</text><id>SNR</id></comment></pick><pick publicID="de.gempa.tb1.Pick/20250414172025.311179.139571"><time><value>2025-04-14T17:20:17.948393Z</value></time><waveformID networkCode="CX" stationCode="PB07" channelCode="HHZ"/><filterID>ITAPER(4)&gt;&gt;BW(4,4,20)</filterID><methodID>AIC</methodID><horizontalSlowness><value>20.437749398467606</value></horizontalSlowness><backazimuth><value>314.27470779781027</value></backazimuth><phaseHint>P</phaseHint><evaluationMode>automatic</evaluationMode><comment><text>174.31543135563078</text><id>DFX:rectilinearity</id></comment><comment><text>77.35607068138596</text><id>SNR</id></comment></pick><pick publicID="de.gempa.tb1.Pick/20250414172027.734218.139573"><time><value>2025-04-14T17:20:20.978393Z</value></time><waveformID networkCode="CX" stationCode="PB02" channelCode="HHZ"/><filterID>ITAPER(4)&gt;&gt;BW(4,4,20)</filterID><methodID>AIC</methodID><horizontalSlowness><value>5.296053203672317</value></horizontalSlowness><backazimuth><value>100.76645517913826</value></backazimuth><phaseHint>P</phaseHint><evaluationMode>automatic</evaluationMode><comment><text>26.16474113299909</text><id>DFX:rectilinearity</id></comment><comment><text>6.264195787814372</text><id>SNR</id></comment></pick><pick publicID="de.gempa.tb1.Pick/20250414172028.809397.139575"><time><value>2025-04-14T17:20:20.658393Z</value></time><waveformID networkCode="CX" stationCode="PB03" channelCode="HHN"/><filterID>ITAPER(2)&gt;&gt;BW(3,3,20)</filterID><methodID>L2-AIC-GRID</methodID><horizontalSlowness><value>19.16845009130902</value></horizontalSlowness><backazimuth><value>93.53639240610534</value></backazimuth><phaseHint>S</phaseHint><evaluationMode>automatic</evaluationMode><comment><text>34.051986488115006</text><id>DFX:rectilinearity</id></comment><comment><text>de.gempa.tb1.Pick/20250414172023.579669.139566</text><id>RefPickID</id></comment><comment><text>19.015355738256396</text><id>SNR</id></comment></pick><pick publicID="de.gempa.tb1.Pick/20250414172030.72705.139578"><time><value>2025-04-14T17:20:24.378393Z</value></time><waveformID networkCode="CX" stationCode="PB01" channelCode="HHZ"/><filterID>ITAPER(4)&gt;&gt;BW(4,4,20)</filterID><methodID>AIC</methodID><horizontalSlowness><value>17.387138053570776</value></horizontalSlowness><backazimuth><value>331.13741947069587</value></backazimuth><phaseHint>P</phaseHint><evaluationMode>automatic</evaluationMode><comment><text>8.549832065278064</text><id>DFX:rectilinearity</id></comment><comment><text>8.366788839779497</text><id>SNR</id></comment></pick><pick publicID="de.gempa.tb1.Pick/20250414172044.52061.139582"><time><value>2025-04-14T17:20:38.22Z</value></time><waveformID networkCode="CX" stationCode="PB19" channelCode="HHZ"/><filterID>ITAPER(4)&gt;&gt;BW(4,4,20)</filterID><methodID>AIC</methodID><horizontalSlowness><value>12.43311942557663</value></horizontalSlowness><backazimuth><value>356.2130730238476</value></backazimuth><phaseHint>P</phaseHint><evaluationMode>automatic</evaluationMode><comment><text>25.03650695750188</text><id>DFX:rectilinearity</id></comment><comment><text>12.559931587676576</text><id>SNR</id></comment></pick><pick publicID="de.gempa.tb1.Pick/20250414172051.503925.139586"><time><value>2025-04-14T17:20:44.87Z</value></time><waveformID networkCode="CX" stationCode="PSGCX" channelCode="HHZ"/><filterID>ITAPER(4)&gt;&gt;BW(4,4,20)</filterID><methodID>AIC</methodID><horizontalSlowness><value>17.131066022179322</value></horizontalSlowness><backazimuth><value>260.10915910368107</value></backazimuth><phaseHint>P</phaseHint><evaluationMode>automatic</evaluationMode><comment><text>16.421240976999002</text><id>DFX:rectilinearity</id></comment><comment><text>8.42277480766742</text><id>SNR</id></comment></pick><pick publicID="de.gempa.tb1.Pick/20250414172057.814026.139589"><time><value>2025-04-14T17:20:23.158393Z</value></time><waveformID networkCode="CX" stationCode="PB07" channelCode="HHN"/><filterID>ITAPER(2)&gt;&gt;BW(3,3,20)</filterID><methodID>L2-AIC-GRID</methodID><horizontalSlowness><value>22.275145609341926</value></horizontalSlowness><backazimuth><value>95.19267526890047</value></backazimuth><phaseHint>S</phaseHint><evaluationMode>automatic</evaluationMode><comment><text>236.829260496498</text><id>DFX:rectilinearity</id></comment><comment><text>de.gempa.tb1.Pick/20250414172025.311179.139571</text><id>RefPickID</id></comment><comment><text>11.949986898869748</text><id>SNR</id></comment></pick><pick publicID="de.gempa.tb1.Pick/20250414172106.811707.139592"><time><value>2025-04-14T17:21:00.79Z</value></time><waveformID networkCode="CX" stationCode="PB19" channelCode="HHN"/><filterID>ITAPER(2)&gt;&gt;BW(3,3,20)</filterID><methodID>L2-AIC-GRID</methodID><horizontalSlowness><value>5.014231583774446</value></horizontalSlowness><backazimuth><value>69.5773084675662</value></backazimuth><phaseHint>S</phaseHint><evaluationMode>automatic</evaluationMode><comment><text>963.9714539925217</text><id>DFX:rectilinearity</id></comment><comment><text>de.gempa.tb1.Pick/20250414172044.52061.139582</text><id>RefPickID</id></comment><comment><text>13.17247730625705</text><id>SNR</id></comment></pick><origin publicID="de.gempa.tb1.Origin/20250414172108.554802.144289"><time><value>2025-04-14T17:20:07.53043Z</value><uncertainty>0.479464054107666</uncertainty></time><latitude><value>-21.994611740112305</value><uncertainty>4.208854675292969</uncertainty></latitude><longitude><value>-69.63201141357422</value><uncertainty>16.424072265625</uncertainty></longitude><depth><value>46.65944290161133</value><uncertainty>9.183359146118164</uncertainty></depth><depthType>from location</depthType><methodID>LOCSAT</methodID><earthModelID>iasp91_scanloc</earthModelID><quality><associatedPhaseCount>9</associatedPhaseCount><usedPhaseCount>9</usedPhaseCount><associatedStationCount>6</associatedStationCount><usedStationCount>6</usedStationCount><depthPhaseCount>0</depthPhaseCount><standardError>0.5317250893837652</standardError><azimuthalGap>162.54662799835205</azimuthalGap><maximumDistance>2.429239511489868</maximumDistance><minimumDistance>0.12448664754629135</minimumDistance><medianDistance>0.7150828838348389</medianDistance></quality><uncertainty><minHorizontalUncertainty>5.965073108673096</minHorizontalUncertainty><maxHorizontalUncertainty>35.867286682128906</maxHorizontalUncertainty><azimuthMaxHorizontalUncertainty>78.9579849243164</azimuthMaxHorizontalUncertainty><preferredDescription>horizontal uncertainty</preferredDescription></uncertainty><evaluationMode>automatic</evaluationMode><evaluationStatus>confirmed</evaluationStatus><comment><text>0.35</text><id>mismatchScore</id></comment><comment><text>mismatchScore</text><id>scevalMethod</id></comment><arrival><pickID>de.gempa.tb1.Pick/20250414172023.579669.139566</pickID><phase>P</phase><azimuth>244.4749298095703</azimuth><distance>0.12448664754629135</distance><timeResidual>0.4352564811706543</timeResidual><timeUsed>true</timeUsed><horizontalSlownessUsed>false</horizontalSlownessUsed><backazimuthUsed>false</backazimuthUsed><weight>1</weight></arrival><arrival><pickID>de.gempa.tb1.Pick/20250414172025.311179.139571</pickID><phase>P</phase><azimuth>318.4284362792969</azimuth><distance>0.3561525344848633</distance><timeResidual>1.0139737129211426</timeResidual><timeUsed>true</timeUsed><horizontalSlownessUsed>false</horizontalSlownessUsed><backazimuthUsed>false</backazimuthUsed><weight>1</weight></arrival><arrival><pickID>de.gempa.tb1.Pick/20250414172027.734218.139573</pickID><phase>P</phase><azimuth>339.86370849609375</azimuth><distance>0.7150828838348389</distance><timeResidual>-0.37398290634155273</timeResidual><timeUsed>true</timeUsed><horizontalSlownessUsed>false</horizontalSlownessUsed><backazimuthUsed>false</backazimuthUsed><weight>1</weight></arrival><arrival><pickID>de.gempa.tb1.Pick/20250414172028.809397.139575</pickID><phase>S</phase><azimuth>244.4749298095703</azimuth><distance>0.12448664754629135</distance><timeResidual>0.015546321868896484</timeResidual><timeUsed>true</timeUsed><horizontalSlownessUsed>false</horizontalSlownessUsed><backazimuthUsed>false</backazimuthUsed><weight>1</weight></arrival><arrival><pickID>de.gempa.tb1.Pick/20250414172030.72705.139578</pickID><phase>P</phase><azimuth>8.1216459274292</azimuth><distance>0.9562407732009888</distance><timeResidual>-0.20714807510375977</timeResidual><timeUsed>true</timeUsed><horizontalSlownessUsed>false</horizontalSlownessUsed><backazimuthUsed>false</backazimuthUsed><weight>1</weight></arrival><arrival><pickID>de.gempa.tb1.Pick/20250414172044.52061.139582</pickID><phase>P</phase><azimuth>170.66827392578125</azimuth><distance>1.927098274230957</distance><timeResidual>0.38277482986450195</timeResidual><timeUsed>true</timeUsed><horizontalSlownessUsed>false</horizontalSlownessUsed><backazimuthUsed>false</backazimuthUsed><weight>1</weight></arrival><arrival><pickID>de.gempa.tb1.Pick/20250414172051.503925.139586</pickID><phase>P</phase><azimuth>349.0107727050781</azimuth><distance>2.429239511489868</distance><timeResidual>0.12299394607543945</timeResidual><timeUsed>true</timeUsed><horizontalSlownessUsed>false</horizontalSlownessUsed><backazimuthUsed>false</backazimuthUsed><weight>1</weight></arrival><arrival><pickID>de.gempa.tb1.Pick/20250414172057.814026.139589</pickID><phase>S</phase><azimuth>318.4284362792969</azimuth><distance>0.3561525344848633</distance><timeResidual>-0.7827906608581543</timeResidual><timeUsed>true</timeUsed><horizontalSlownessUsed>false</horizontalSlownessUsed><backazimuthUsed>false</backazimuthUsed><weight>1</weight></arrival><arrival><pickID>de.gempa.tb1.Pick/20250414172106.811707.139592</pickID><phase>S</phase><azimuth>170.66827392578125</azimuth><distance>1.927098274230957</distance><timeResidual>-0.6079249382019043</timeResidual><timeUsed>true</timeUsed><horizontalSlownessUsed>false</horizontalSlownessUsed><backazimuthUsed>false</backazimuthUsed><weight>1</weight></arrival><magnitude publicID="de.gempa.tb1.Magnitude/20250414172115.938798.519343"><magnitude><value>2.429483167826026</value></magnitude><type>M</type><methodID>weighted average</methodID><stationCount>6</stationCount></magnitude></origin><event publicID="gempa2025hjoy"><preferredOriginID>de.gempa.tb1.Origin/20250414172108.554802.144289</preferredOriginID><preferredMagnitudeID>de.gempa.tb1.Magnitude/20250414172115.938798.519343</preferredMagnitudeID><description><text>Northern Chile</text><type>region name</type></description><originReference>de.gempa.tb1.Origin/20250414172108.554802.144289</originReference></event></EventParameters></seiscomp>