<?xml version="1.0" encoding="UTF-8"?>
<seiscomp xmlns="http://geofon.gfz-potsdam.de/ns/seiscomp3-schema/0.13" version="0.13"><EventParameters><pick publicID="de.gempa.tb1.Pick/20250414190721.728338.140474"><time><value>2025-04-14T19:07:14.778393Z</value></time><waveformID networkCode="CX" stationCode="PB01" channelCode="HHZ"/><filterID>ITAPER(4)&gt;&gt;BW(4,4,20)</filterID><methodID>AIC</methodID><horizontalSlowness><value>2.7713262768886575</value></horizontalSlowness><backazimuth><value>13.51956133907379</value></backazimuth><phaseHint>P</phaseHint><evaluationMode>automatic</evaluationMode><comment><text>32.37971600585879</text><id>DFX:rectilinearity</id></comment><comment><text>99.59267644615527</text><id>SNR</id></comment></pick><pick publicID="de.gempa.tb1.Pick/20250414190722.6561.140476"><time><value>2025-04-14T19:07:16.938393Z</value></time><waveformID networkCode="CX" stationCode="PB08" channelCode="HHZ"/><filterID>ITAPER(4)&gt;&gt;BW(4,4,20)</filterID><methodID>AIC</methodID><horizontalSlowness><value>11.684850015393716</value></horizontalSlowness><backazimuth><value>140.09161308248656</value></backazimuth><phaseHint>P</phaseHint><evaluationMode>automatic</evaluationMode><comment><text>15.091468504456808</text><id>DFX:rectilinearity</id></comment><comment><text>8.413760916185339</text><id>SNR</id></comment></pick><pick publicID="de.gempa.tb1.Pick/20250414190725.453262.140478"><time><value>2025-04-14T19:07:19.578391Z</value></time><waveformID networkCode="CX" stationCode="PB02" channelCode="HHZ"/><filterID>ITAPER(4)&gt;&gt;BW(4,4,20)</filterID><methodID>AIC</methodID><horizontalSlowness><value>10.756611212946238</value></horizontalSlowness><backazimuth><value>355.90308115991024</value></backazimuth><phaseHint>P</phaseHint><evaluationMode>automatic</evaluationMode><comment><text>44.18098777823068</text><id>DFX:rectilinearity</id></comment><comment><text>57.11685812038655</text><id>SNR</id></comment></pick><pick publicID="de.gempa.tb1.Pick/20250414190728.616943.140480"><time><value>2025-04-14T19:07:22.008393Z</value></time><waveformID networkCode="CX" stationCode="PB07" channelCode="HHZ"/><filterID>ITAPER(4)&gt;&gt;BW(4,4,20)</filterID><methodID>AIC</methodID><horizontalSlowness><value>11.97332801441273</value></horizontalSlowness><backazimuth><value>61.33357502593807</value></backazimuth><phaseHint>P</phaseHint><evaluationMode>automatic</evaluationMode><comment><text>943.5358390612535</text><id>DFX:rectilinearity</id></comment><comment><text>90.19216228067597</text><id>SNR</id></comment></pick><pick publicID="de.gempa.tb1.Pick/20250414190730.456973.140482"><time><value>2025-04-14T19:07:24.008394Z</value></time><waveformID networkCode="CX" stationCode="PB03" channelCode="HHZ"/><filterID>ITAPER(4)&gt;&gt;BW(4,4,20)</filterID><methodID>AIC</methodID><horizontalSlowness><value>6.671042672692205</value></horizontalSlowness><backazimuth><value>59.17542849529396</value></backazimuth><phaseHint>P</phaseHint><evaluationMode>automatic</evaluationMode><comment><text>23.44036148525359</text><id>DFX:rectilinearity</id></comment><comment><text>14.401628368040983</text><id>SNR</id></comment></pick><pick publicID="de.gempa.tb1.Pick/20250414190734.908157.140484"><time><value>2025-04-14T19:07:19.15Z</value></time><waveformID networkCode="CX" stationCode="PB09" channelCode="HHZ"/><filterID>ITAPER(4)&gt;&gt;BW(4,4,20)</filterID><methodID>AIC</methodID><horizontalSlowness><value>13.052057724894123</value></horizontalSlowness><backazimuth><value>73.4079129195772</value></backazimuth><phaseHint>P</phaseHint><evaluationMode>automatic</evaluationMode><comment><text>16.649679781981554</text><id>DFX:rectilinearity</id></comment><comment><text>61.1232989506809</text><id>SNR</id></comment></pick><pick publicID="de.gempa.tb1.Pick/20250414190735.544358.140486"><time><value>2025-04-14T19:07:27.18Z</value></time><waveformID networkCode="CX" stationCode="PSGCX" channelCode="HHZ"/><filterID>ITAPER(4)&gt;&gt;BW(4,4,20)</filterID><methodID>AIC</methodID><horizontalSlowness><value>16.147572775723042</value></horizontalSlowness><backazimuth><value>197.61292418574092</value></backazimuth><phaseHint>P</phaseHint><evaluationMode>automatic</evaluationMode><comment><text>17.510431165199503</text><id>DFX:rectilinearity</id></comment><comment><text>52.98669750866316</text><id>SNR</id></comment></pick><pick publicID="de.gempa.tb1.Pick/20250414190735.676867.140488"><time><value>2025-04-14T19:07:28.368393Z</value></time><waveformID networkCode="CX" stationCode="PB01" channelCode="HHN"/><filterID>ITAPER(2)&gt;&gt;BW(3,3,20)</filterID><methodID>L2-AIC-GRID</methodID><horizontalSlowness><value>23.45639470765976</value></horizontalSlowness><backazimuth><value>100.1502600145889</value></backazimuth><phaseHint>S</phaseHint><evaluationMode>automatic</evaluationMode><comment><text>1811.7498806441865</text><id>DFX:rectilinearity</id></comment><comment><text>de.gempa.tb1.Pick/20250414190721.728338.140474</text><id>RefPickID</id></comment><comment><text>19.125010104757607</text><id>SNR</id></comment></pick><pick publicID="de.gempa.tb1.Pick/20250414190737.537279.140489"><time><value>2025-04-14T19:07:30.738393Z</value></time><waveformID networkCode="CX" stationCode="PB06" channelCode="HHZ"/><filterID>ITAPER(4)&gt;&gt;BW(4,4,20)</filterID><methodID>AIC</methodID><horizontalSlowness><value>8.420802927196128</value></horizontalSlowness><backazimuth><value>313.7451083199154</value></backazimuth><phaseHint>P</phaseHint><evaluationMode>automatic</evaluationMode><comment><text>60.28338656473114</text><id>DFX:rectilinearity</id></comment><comment><text>9.12761554320338</text><id>SNR</id></comment></pick><pick publicID="de.gempa.tb1.Pick/20250414190739.223093.140493"><time><value>2025-04-14T19:07:31.638393Z</value></time><waveformID networkCode="CX" stationCode="PB08" channelCode="HHN"/><filterID>ITAPER(2)&gt;&gt;BW(3,3,20)</filterID><methodID>L2-AIC-GRID</methodID><horizontalSlowness><value>15.115399742805375</value></horizontalSlowness><backazimuth><value>209.1480552208163</value></backazimuth><phaseHint>S</phaseHint><evaluationMode>automatic</evaluationMode><comment><text>219.8654699764103</text><id>DFX:rectilinearity</id></comment><comment><text>de.gempa.tb1.Pick/20250414190722.6561.140476</text><id>RefPickID</id></comment><comment><text>7.43029420853133</text><id>SNR</id></comment></pick><pick publicID="de.gempa.tb1.Pick/20250414190748.79965.140495"><time><value>2025-04-14T19:07:41.328393Z</value></time><waveformID networkCode="CX" stationCode="PB07" channelCode="HHN"/><filterID>ITAPER(2)&gt;&gt;BW(3,3,20)</filterID><methodID>L2-AIC-GRID</methodID><horizontalSlowness><value>22.543899419693734</value></horizontalSlowness><backazimuth><value>276.133654196345</value></backazimuth><phaseHint>S</phaseHint><evaluationMode>automatic</evaluationMode><comment><text>6548.843248776729</text><id>DFX:rectilinearity</id></comment><comment><text>de.gempa.tb1.Pick/20250414190728.616943.140480</text><id>RefPickID</id></comment><comment><text>6.04066388206122</text><id>SNR</id></comment></pick><pick publicID="de.gempa.tb1.Pick/20250414190753.621877.140498"><time><value>2025-04-14T19:07:44.808394Z</value></time><waveformID networkCode="CX" stationCode="PB03" channelCode="HHN"/><filterID>ITAPER(2)&gt;&gt;BW(3,3,20)</filterID><methodID>L2-AIC-GRID</methodID><horizontalSlowness><value>17.33931545209316</value></horizontalSlowness><backazimuth><value>264.12428874692415</value></backazimuth><phaseHint>S</phaseHint><evaluationMode>automatic</evaluationMode><comment><text>98.6056636140722</text><id>DFX:rectilinearity</id></comment><comment><text>de.gempa.tb1.Pick/20250414190730.456973.140482</text><id>RefPickID</id></comment><comment><text>5.686346304444851</text><id>SNR</id></comment></pick><pick publicID="de.gempa.tb1.Pick/20250414190758.653686.140501"><time><value>2025-04-14T19:07:50.08Z</value></time><waveformID networkCode="CX" stationCode="PSGCX" channelCode="HHN"/><filterID>ITAPER(2)&gt;&gt;BW(3,3,20)</filterID><methodID>L2-AIC-GRID</methodID><horizontalSlowness><value>15.209141206267628</value></horizontalSlowness><backazimuth><value>237.44446066955803</value></backazimuth><phaseHint>S</phaseHint><evaluationMode>automatic</evaluationMode><comment><text>32.947376516199604</text><id>DFX:rectilinearity</id></comment><comment><text>de.gempa.tb1.Pick/20250414190735.544358.140486</text><id>RefPickID</id></comment><comment><text>6.53499544347947</text><id>SNR</id></comment></pick><pick publicID="de.gempa.tb1.Pick/20250414190803.582908.140502"><time><value>2025-04-14T19:07:55.518393Z</value></time><waveformID networkCode="CX" stationCode="PB06" channelCode="HHN"/><filterID>ITAPER(2)&gt;&gt;BW(3,3,20)</filterID><methodID>L2-AIC-GRID</methodID><horizontalSlowness><value>19.922655893035078</value></horizontalSlowness><backazimuth><value>153.61123018753233</value></backazimuth><phaseHint>S</phaseHint><evaluationMode>automatic</evaluationMode><comment><text>105.92852554368926</text><id>DFX:rectilinearity</id></comment><comment><text>de.gempa.tb1.Pick/20250414190737.537279.140489</text><id>RefPickID</id></comment><comment><text>5.351518545180061</text><id>SNR</id></comment></pick><origin publicID="de.gempa.tb1.Origin/20250414190803.586842.148317"><time><value>2025-04-14T19:06:58.039111Z</value><uncertainty>0.8342125415802002</uncertainty></time><latitude><value>-20.849040985107422</value><uncertainty>2.641584634780884</uncertainty></latitude><longitude><value>-68.88838195800781</value><uncertainty>8.132367134094238</uncertainty></longitude><depth><value>109.19322967529297</value><uncertainty>7.38287878036499</uncertainty></depth><depthType>from location</depthType><methodID>LOCSAT</methodID><earthModelID>iasp91_scanloc</earthModelID><quality><associatedPhaseCount>14</associatedPhaseCount><usedPhaseCount>14</usedPhaseCount><associatedStationCount>8</associatedStationCount><usedStationCount>8</usedStationCount><depthPhaseCount>0</depthPhaseCount><standardError>0.34220997763327204</standardError><azimuthalGap>218.32508850097656</azimuthalGap><maximumDistance>1.953876495361328</maximumDistance><minimumDistance>0.5923079252243042</minimumDistance><medianDistance>1.2761259078979492</medianDistance></quality><uncertainty><minHorizontalUncertainty>5.629150867462158</minHorizontalUncertainty><maxHorizontalUncertainty>17.445955276489258</maxHorizontalUncertainty><azimuthMaxHorizontalUncertainty>92.15422821044922</azimuthMaxHorizontalUncertainty><preferredDescription>horizontal uncertainty</preferredDescription></uncertainty><evaluationMode>automatic</evaluationMode><evaluationStatus>confirmed</evaluationStatus><comment><text>0.06</text><id>mismatchScore</id></comment><comment><text>mismatchScore</text><id>scevalMethod</id></comment><arrival><pickID>de.gempa.tb1.Pick/20250414190721.728338.140474</pickID><phase>P</phase><azimuth>250.8546600341797</azimuth><distance>0.5923079252243042</distance><timeResidual>-0.7029266357421875</timeResidual><timeUsed>true</timeUsed><horizontalSlownessUsed>false</horizontalSlownessUsed><backazimuthUsed>false</backazimuthUsed><weight>1</weight></arrival><arrival><pickID>de.gempa.tb1.Pick/20250414190722.6561.140476</pickID><phase>P</phase><azimuth>340.5242004394531</azimuth><distance>0.7468655109405518</distance><timeResidual>0.1761322021484375</timeResidual><timeUsed>true</timeUsed><horizontalSlownessUsed>false</horizontalSlownessUsed><backazimuthUsed>false</backazimuthUsed><weight>1</weight></arrival><arrival><pickID>de.gempa.tb1.Pick/20250414190725.453262.140478</pickID><phase>P</phase><azimuth>243.36029052734375</azimuth><distance>1.0511019229888916</distance><timeResidual>-0.15666961669921875</timeResidual><timeUsed>true</timeUsed><horizontalSlownessUsed>false</horizontalSlownessUsed><backazimuthUsed>false</backazimuthUsed><weight>1</weight></arrival><arrival><pickID>de.gempa.tb1.Pick/20250414190728.616943.140480</pickID><phase>P</phase><azimuth>226.6385498046875</azimuth><distance>1.2761259078979492</distance><timeResidual>-0.20244216918945312</timeResidual><timeUsed>true</timeUsed><horizontalSlownessUsed>false</horizontalSlownessUsed><backazimuthUsed>false</backazimuthUsed><weight>1</weight></arrival><arrival><pickID>de.gempa.tb1.Pick/20250414190730.456973.140482</pickID><phase>P</phase><azimuth>213.86038208007812</azimuth><distance>1.4399250745773315</distance><timeResidual>-0.10390663146972656</timeResidual><timeUsed>true</timeUsed><horizontalSlownessUsed>false</horizontalSlownessUsed><backazimuthUsed>false</backazimuthUsed><weight>1</weight></arrival><arrival><pickID>de.gempa.tb1.Pick/20250414190734.908157.140484</pickID><phase>P</phase><azimuth>199.2100372314453</azimuth><distance>0.9986282587051392</distance><timeResidual>-0.03318214416503906</timeResidual><timeUsed>true</timeUsed><horizontalSlownessUsed>false</horizontalSlownessUsed><backazimuthUsed>false</backazimuthUsed><weight>1</weight></arrival><arrival><pickID>de.gempa.tb1.Pick/20250414190735.544358.140486</pickID><phase>P</phase><azimuth>316.83416748046875</azimuth><distance>1.701622486114502</distance><timeResidual>-0.10708045959472656</timeResidual><timeUsed>true</timeUsed><horizontalSlownessUsed>false</horizontalSlownessUsed><backazimuthUsed>false</backazimuthUsed><weight>1</weight></arrival><arrival><pickID>de.gempa.tb1.Pick/20250414190735.676867.140488</pickID><phase>S</phase><azimuth>250.8546600341797</azimuth><distance>0.5923079252243042</distance><timeResidual>-0.5439300537109375</timeResidual><timeUsed>true</timeUsed><horizontalSlownessUsed>false</horizontalSlownessUsed><backazimuthUsed>false</backazimuthUsed><weight>1</weight></arrival><arrival><pickID>de.gempa.tb1.Pick/20250414190737.537279.140489</pickID><phase>P</phase><azimuth>198.8492889404297</azimuth><distance>1.953876495361328</distance><timeResidual>0.31809043884277344</timeResidual><timeUsed>true</timeUsed><horizontalSlownessUsed>false</horizontalSlownessUsed><backazimuthUsed>false</backazimuthUsed><weight>1</weight></arrival><arrival><pickID>de.gempa.tb1.Pick/20250414190739.223093.140493</pickID><phase>S</phase><azimuth>340.5242004394531</azimuth><distance>0.7468655109405518</distance><timeResidual>0.44623756408691406</timeResidual><timeUsed>true</timeUsed><horizontalSlownessUsed>false</horizontalSlownessUsed><backazimuthUsed>false</backazimuthUsed><weight>1</weight></arrival><arrival><pickID>de.gempa.tb1.Pick/20250414190748.79965.140495</pickID><phase>S</phase><azimuth>226.6385498046875</azimuth><distance>1.2761259078979492</distance><timeResidual>0.41275978088378906</timeResidual><timeUsed>true</timeUsed><horizontalSlownessUsed>false</horizontalSlownessUsed><backazimuthUsed>false</backazimuthUsed><weight>1</weight></arrival><arrival><pickID>de.gempa.tb1.Pick/20250414190753.621877.140498</pickID><phase>S</phase><azimuth>213.86038208007812</azimuth><distance>1.4399250745773315</distance><timeResidual>0.4935111999511719</timeResidual><timeUsed>true</timeUsed><horizontalSlownessUsed>false</horizontalSlownessUsed><backazimuthUsed>false</backazimuthUsed><weight>1</weight></arrival><arrival><pickID>de.gempa.tb1.Pick/20250414190758.653686.140501</pickID><phase>S</phase><azimuth>316.83416748046875</azimuth><distance>1.701622486114502</distance><timeResidual>0.08958244323730469</timeResidual><timeUsed>true</timeUsed><horizontalSlownessUsed>false</horizontalSlownessUsed><backazimuthUsed>false</backazimuthUsed><weight>1</weight></arrival><arrival><pickID>de.gempa.tb1.Pick/20250414190803.582908.140502</pickID><phase>S</phase><azimuth>198.8492889404297</azimuth><distance>1.953876495361328</distance><timeResidual>-0.08584022521972656</timeResidual><timeUsed>true</timeUsed><horizontalSlownessUsed>false</horizontalSlownessUsed><backazimuthUsed>false</backazimuthUsed><weight>1</weight></arrival><magnitude publicID="de.gempa.tb1.Magnitude/20250414190805.940863.531967"><magnitude><value>2.361261322736705</value></magnitude><type>M</type><methodID>weighted average</methodID><stationCount>7</stationCount></magnitude></origin><event publicID="gempa2025hjsn"><preferredOriginID>de.gempa.tb1.Origin/20250414190803.586842.148317</preferredOriginID><preferredMagnitudeID>de.gempa.tb1.Magnitude/20250414190805.940863.531967</preferredMagnitudeID><description><text>Chile-Bolivia Border Region</text><type>region name</type></description><originReference>de.gempa.tb1.Origin/20250414190803.586842.148317</originReference></event></EventParameters></seiscomp>