<?xml version="1.0" encoding="UTF-8"?>
<seiscomp xmlns="http://geofon.gfz-potsdam.de/ns/seiscomp3-schema/0.13" version="0.13"><EventParameters><pick publicID="de.gempa.tb1.Pick/20250411154536.213119.123805"><time><value>2025-04-11T15:45:34.11Z</value></time><waveformID networkCode="CH" stationCode="DIX" channelCode="HHZ"/><filterID>ITAPER(4)&gt;&gt;BW(4,4,20)</filterID><methodID>AIC</methodID><phaseHint>P</phaseHint><evaluationMode>automatic</evaluationMode></pick><pick publicID="de.gempa.tb1.Pick/20250411154539.859139.123810"><time><value>2025-04-11T15:45:37.185Z</value></time><waveformID networkCode="CH" stationCode="MMK" channelCode="HHZ"/><filterID>ITAPER(4)&gt;&gt;BW(4,4,20)</filterID><methodID>AIC</methodID><phaseHint>P</phaseHint><evaluationMode>automatic</evaluationMode></pick><pick publicID="de.gempa.tb1.Pick/20250411154540.375089.123812"><time><value>2025-04-11T15:45:36.71Z</value></time><waveformID networkCode="CH" stationCode="VANNI" channelCode="HHZ"/><filterID>ITAPER(4)&gt;&gt;BW(4,4,20)</filterID><methodID>AIC</methodID><phaseHint>P</phaseHint><evaluationMode>automatic</evaluationMode></pick><pick publicID="de.gempa.tb1.Pick/20250411154542.255617.123814"><time><value>2025-04-11T15:45:39.955Z</value></time><waveformID networkCode="CH" stationCode="SIMPL" channelCode="HHZ"/><filterID>ITAPER(4)&gt;&gt;BW(4,4,20)</filterID><methodID>AIC</methodID><phaseHint>P</phaseHint><evaluationMode>automatic</evaluationMode></pick><pick publicID="de.gempa.tb1.Pick/20250411154542.95463.123816"><time><value>2025-04-11T15:45:37.98Z</value></time><waveformID networkCode="CH" stationCode="EMBD" channelCode="HHZ"/><filterID>ITAPER(4)&gt;&gt;BW(4,4,20)</filterID><methodID>AIC</methodID><phaseHint>P</phaseHint><evaluationMode>automatic</evaluationMode></pick><pick publicID="de.gempa.tb1.Pick/20250411154543.330606.123818"><time><value>2025-04-11T15:45:37.835Z</value></time><waveformID networkCode="CH" stationCode="DIX" channelCode="HHN"/><filterID>RMHP(1)&gt;&gt;ITAPER(2)&gt;&gt;BW(4,3,20)</filterID><methodID>L2-AIC-GRID</methodID><phaseHint>S</phaseHint><evaluationMode>automatic</evaluationMode><comment><text>de.gempa.tb1.Pick/20250411154536.213119.123805</text><id>RefPickID</id></comment></pick><pick publicID="de.gempa.tb1.Pick/20250411154547.143466.123825"><time><value>2025-04-11T15:45:43.54Z</value></time><waveformID networkCode="CH" stationCode="FIESA" channelCode="HHZ"/><filterID>ITAPER(4)&gt;&gt;BW(4,4,20)</filterID><methodID>AIC</methodID><phaseHint>P</phaseHint><evaluationMode>automatic</evaluationMode></pick><pick publicID="de.gempa.tb1.Pick/20250411154548.354343.123829"><time><value>2025-04-11T15:45:42.725Z</value></time><waveformID networkCode="CH" stationCode="MMK" channelCode="HHN"/><filterID>RMHP(1)&gt;&gt;ITAPER(2)&gt;&gt;BW(4,3,20)</filterID><methodID>L2-AIC-GRID</methodID><phaseHint>S</phaseHint><evaluationMode>automatic</evaluationMode><comment><text>de.gempa.tb1.Pick/20250411154539.859139.123810</text><id>RefPickID</id></comment></pick><pick publicID="de.gempa.tb1.Pick/20250411154549.391854.123831"><time><value>2025-04-11T15:45:44.28Z</value></time><waveformID networkCode="CH" stationCode="EMBD" channelCode="HHN"/><filterID>RMHP(1)&gt;&gt;ITAPER(2)&gt;&gt;BW(4,3,20)</filterID><methodID>L2-AIC-GRID</methodID><phaseHint>S</phaseHint><evaluationMode>automatic</evaluationMode><comment><text>de.gempa.tb1.Pick/20250411154542.95463.123816</text><id>RefPickID</id></comment></pick><origin publicID="de.gempa.tb1.Origin/20250411154549.394863.58814"><time><value>2025-04-11T15:45:29.098197Z</value><uncertainty>2.0576050281524658</uncertainty></time><latitude><value>45.84325408935547</value><uncertainty>15.12983798980713</uncertainty></latitude><longitude><value>7.476685523986816</value><uncertainty>6.01801347732544</uncertainty></longitude><depth><value>3.690382719039917</value><uncertainty>6.37717342376709</uncertainty></depth><depthType>from location</depthType><methodID>LOCSAT</methodID><earthModelID>iasp91</earthModelID><quality><associatedPhaseCount>9</associatedPhaseCount><usedPhaseCount>9</usedPhaseCount><associatedStationCount>6</associatedStationCount><usedStationCount>6</usedStationCount><depthPhaseCount>0</depthPhaseCount><standardError>0.0788052633761745</standardError><azimuthalGap>290.16041564941406</azimuthalGap><maximumDistance>0.7381213307380676</maximumDistance><minimumDistance>0.24164073169231415</minimumDistance><medianDistance>0.3982277810573578</medianDistance></quality><uncertainty><minHorizontalUncertainty>7.647825241088867</minHorizontalUncertainty><maxHorizontalUncertainty>34.066532135009766</maxHorizontalUncertainty><azimuthMaxHorizontalUncertainty>18.24559211730957</azimuthMaxHorizontalUncertainty><preferredDescription>horizontal uncertainty</preferredDescription></uncertainty><evaluationMode>automatic</evaluationMode><evaluationStatus>confirmed</evaluationStatus><comment><text>0.16</text><id>mismatchScore</id></comment><comment><text>mismatchScore</text><id>scevalMethod</id></comment><arrival><pickID>de.gempa.tb1.Pick/20250411154536.213119.123805</pickID><phase>P</phase><azimuth>348.6137390136719</azimuth><distance>0.24164073169231415</distance><timeResidual>-0.1310710906982422</timeResidual><timeUsed>true</timeUsed><horizontalSlownessUsed>false</horizontalSlownessUsed><backazimuthUsed>false</backazimuthUsed><weight>1</weight></arrival><arrival><pickID>de.gempa.tb1.Pick/20250411154539.859139.123810</pickID><phase>P</phase><azimuth>58.45332336425781</azimuth><distance>0.3982277810573578</distance><timeResidual>0.04774379730224609</timeResidual><timeUsed>true</timeUsed><horizontalSlownessUsed>false</horizontalSlownessUsed><backazimuthUsed>false</backazimuthUsed><weight>1</weight></arrival><arrival><pickID>de.gempa.tb1.Pick/20250411154540.375089.123812</pickID><phase>P</phase><azimuth>12.804387092590332</azimuth><distance>0.37630653381347656</distance><timeResidual>-0.021483421325683594</timeResidual><timeUsed>true</timeUsed><horizontalSlownessUsed>false</horizontalSlownessUsed><backazimuthUsed>false</backazimuthUsed><weight>1</weight></arrival><arrival><pickID>de.gempa.tb1.Pick/20250411154542.255617.123814</pickID><phase>P</phase><azimuth>43.45209503173828</azimuth><distance>0.5478801727294922</distance><timeResidual>0.05027484893798828</timeResidual><timeUsed>true</timeUsed><horizontalSlownessUsed>false</horizontalSlownessUsed><backazimuthUsed>false</backazimuthUsed><weight>1</weight></arrival><arrival><pickID>de.gempa.tb1.Pick/20250411154542.95463.123816</pickID><phase>P</phase><azimuth>33.435916900634766</azimuth><distance>0.4480452537536621</distance><timeResidual>-0.07829856872558594</timeResidual><timeUsed>true</timeUsed><horizontalSlownessUsed>false</horizontalSlownessUsed><backazimuthUsed>false</backazimuthUsed><weight>1</weight></arrival><arrival><pickID>de.gempa.tb1.Pick/20250411154543.330606.123818</pickID><phase>S</phase><azimuth>348.6137390136719</azimuth><distance>0.24164073169231415</distance><timeResidual>0.09755420684814453</timeResidual><timeUsed>true</timeUsed><horizontalSlownessUsed>false</horizontalSlownessUsed><backazimuthUsed>false</backazimuthUsed><weight>1</weight></arrival><arrival><pickID>de.gempa.tb1.Pick/20250411154547.143466.123825</pickID><phase>P</phase><azimuth>36.42758560180664</azimuth><distance>0.7381213307380676</distance><timeResidual>0.11711692810058594</timeResidual><timeUsed>true</timeUsed><horizontalSlownessUsed>false</horizontalSlownessUsed><backazimuthUsed>false</backazimuthUsed><weight>1</weight></arrival><arrival><pickID>de.gempa.tb1.Pick/20250411154548.354343.123829</pickID><phase>S</phase><azimuth>58.45332336425781</azimuth><distance>0.3982277810573578</distance><timeResidual>-0.021942138671875</timeResidual><timeUsed>true</timeUsed><horizontalSlownessUsed>false</horizontalSlownessUsed><backazimuthUsed>false</backazimuthUsed><weight>1</weight></arrival><arrival><pickID>de.gempa.tb1.Pick/20250411154549.391854.123831</pickID><phase>S</phase><azimuth>33.435916900634766</azimuth><distance>0.4480452537536621</distance><timeResidual>-0.05999088287353516</timeResidual><timeUsed>true</timeUsed><horizontalSlownessUsed>false</horizontalSlownessUsed><backazimuthUsed>false</backazimuthUsed><weight>1</weight></arrival><magnitude publicID="de.gempa.tb1.Magnitude/20250411154556.062348.116082"><magnitude><value>1.2347086202708182</value></magnitude><type>M</type><methodID>weighted average</methodID><stationCount>6</stationCount></magnitude></origin><event publicID="gempa2025hdxs"><preferredOriginID>de.gempa.tb1.Origin/20250411154549.394863.58814</preferredOriginID><preferredMagnitudeID>de.gempa.tb1.Magnitude/20250411154556.062348.116082</preferredMagnitudeID><description><text>Northern Italy</text><type>region name</type></description><originReference>de.gempa.tb1.Origin/20250411154549.394863.58814</originReference></event></EventParameters></seiscomp>