<?xml version="1.0" encoding="UTF-8"?>
<seiscomp xmlns="http://geofon.gfz-potsdam.de/ns/seiscomp3-schema/0.13" version="0.13"><EventParameters><pick publicID="de.gempa.tb1.Pick/20250415014714.279739.129118"><time><value>2025-04-15T01:46:44.775Z</value></time><waveformID networkCode="GE" stationCode="DAG" channelCode="BHZ"/><filterID>BW(4,0.7,2)</filterID><methodID>AIC</methodID><horizontalSlowness><value>13.249570381420924</value></horizontalSlowness><backazimuth><value>168.93805407001832</value></backazimuth><phaseHint>P</phaseHint><evaluationMode>automatic</evaluationMode><comment><text>12.536629607071763</text><id>DFX:rectilinearity</id></comment></pick><pick publicID="de.gempa.tb1.Pick/20250415014850.223166.129123"><time><value>2025-04-15T01:48:33.345Z</value></time><waveformID networkCode="GE" stationCode="STU" channelCode="BHZ"/><filterID>BW(4,0.7,2)</filterID><methodID>AIC</methodID><horizontalSlowness><value>10.491305828957728</value></horizontalSlowness><backazimuth><value>302.29947261546454</value></backazimuth><phaseHint>P</phaseHint><evaluationMode>automatic</evaluationMode><comment><text>986.3031125262986</text><id>DFX:rectilinearity</id></comment></pick><pick publicID="de.gempa.tb1.Pick/20250415014904.347205.129128"><time><value>2025-04-15T01:48:44.088393Z</value></time><waveformID networkCode="CZ" stationCode="PRU" channelCode="HHZ"/><filterID>BW(4,0.7,2)</filterID><methodID>AIC</methodID><horizontalSlowness><value>10.10545528054226</value></horizontalSlowness><backazimuth><value>324.1770451731798</value></backazimuth><phaseHint>P</phaseHint><evaluationMode>automatic</evaluationMode><comment><text>1.2575365158515437</text><id>DFX:rectilinearity</id></comment></pick><pick publicID="de.gempa.tb1.Pick/20250415014929.549741.129136"><time><value>2025-04-15T01:48:24.319538Z</value></time><waveformID networkCode="GR" stationCode="MOX" channelCode="BHZ"/><filterID>BW(4,0.7,2)</filterID><methodID>AIC</methodID><horizontalSlowness><value>8.765138246977957</value></horizontalSlowness><backazimuth><value>335.29922938346544</value></backazimuth><phaseHint>P</phaseHint><evaluationMode>automatic</evaluationMode><comment><text>1.2793222729559837</text><id>DFX:rectilinearity</id></comment></pick><pick publicID="de.gempa.tb1.Pick/20250415014938.50725.129140"><time><value>2025-04-15T01:49:18.895Z</value></time><waveformID networkCode="GE" stationCode="PSZ" channelCode="BHZ"/><filterID>BW(4,0.7,2)</filterID><methodID>AIC</methodID><horizontalSlowness><value>7.724525507942018</value></horizontalSlowness><backazimuth><value>9.891271003715957</value></backazimuth><phaseHint>P</phaseHint><evaluationMode>automatic</evaluationMode><comment><text>14.716063056290624</text><id>DFX:rectilinearity</id></comment></pick><pick publicID="de.gempa.tb1.Pick/20250415015015.002944.129151"><time><value>2025-04-15T01:48:39.0975Z</value></time><waveformID networkCode="SX" stationCode="WERN" channelCode="HHZ"/><methodID>AIC</methodID><horizontalSlowness><value>13.57488779984658</value></horizontalSlowness><backazimuth><value>312.7420666721133</value></backazimuth><phaseHint>P</phaseHint><evaluationMode>automatic</evaluationMode><comment><text>78.31832198330461</text><id>DFX:rectilinearity</id></comment></pick><pick publicID="de.gempa.tb1.Pick/20250415015015.005499.129153"><time><value>2025-04-15T01:48:34.13Z</value></time><waveformID networkCode="SX" stationCode="TANN" channelCode="HHZ"/><methodID>AIC</methodID><horizontalSlowness><value>13.586378278275388</value></horizontalSlowness><backazimuth><value>325.74182696702786</value></backazimuth><phaseHint>P</phaseHint><evaluationMode>automatic</evaluationMode><comment><text>32.204539430812673</text><id>DFX:rectilinearity</id></comment></pick><pick publicID="de.gempa.tb1.Pick/20250415015015.154399.129163"><time><value>2025-04-15T01:48:20.7Z</value></time><waveformID networkCode="BW" stationCode="MANZ" channelCode="HHZ"/><methodID>AIC</methodID><horizontalSlowness><value>19.46289863493271</value></horizontalSlowness><backazimuth><value>253.81467523074537</value></backazimuth><phaseHint>P</phaseHint><evaluationMode>automatic</evaluationMode><comment><text>2.76759163079005</text><id>DFX:rectilinearity</id></comment></pick><pick publicID="de.gempa.tb1.Pick/20250415015015.190013.129171"><time><value>2025-04-15T01:48:26.49Z</value></time><waveformID networkCode="TH" stationCode="FRAU" channelCode="HHZ"/><methodID>AIC</methodID><horizontalSlowness><value>2.7687473171090664</value></horizontalSlowness><backazimuth><value>266.8545155372826</value></backazimuth><phaseHint>P</phaseHint><evaluationMode>automatic</evaluationMode><comment><text>19.485365046216614</text><id>DFX:rectilinearity</id></comment></pick><pick publicID="de.gempa.tb1.Pick/20250415015015.193753.129173"><time><value>2025-04-15T01:48:28.179999Z</value></time><waveformID networkCode="TH" stationCode="GEIDO" channelCode="HHZ"/><methodID>AIC</methodID><horizontalSlowness><value>10.45440139324135</value></horizontalSlowness><backazimuth><value>310.8741267976704</value></backazimuth><phaseHint>P</phaseHint><evaluationMode>automatic</evaluationMode><comment><text>24.021691368624417</text><id>DFX:rectilinearity</id></comment></pick><pick publicID="de.gempa.tb1.Pick/20250415015045.211164.129180"><time><value>2025-04-15T01:48:32.573858Z</value></time><waveformID networkCode="SX" stationCode="MEINS" channelCode="HHZ"/><methodID>AIC</methodID><horizontalSlowness><value>10.046329756020652</value></horizontalSlowness><backazimuth><value>310.76928103052614</value></backazimuth><phaseHint>P</phaseHint><evaluationMode>automatic</evaluationMode><comment><text>28.72692565145942</text><id>DFX:rectilinearity</id></comment></pick><origin publicID="de.gempa.tb1.Origin/20250415015711.125342.248951"><time><value>2025-04-15T01:43:45.348044Z</value><uncertainty>3.741878032684326</uncertainty></time><latitude><value>64.21061706542969</value><uncertainty>31.07351875305176</uncertainty></latitude><longitude><value>-18.24959373474121</value><uncertainty>58.4504508972168</uncertainty></longitude><depth><value>10</value><uncertainty>0</uncertainty></depth><methodID>LOCSAT</methodID><earthModelID>iasp91</earthModelID><quality><associatedPhaseCount>11</associatedPhaseCount><usedPhaseCount>9</usedPhaseCount><associatedStationCount>11</associatedStationCount><usedStationCount>9</usedStationCount><standardError>1.4859428264126986</standardError><azimuthalGap>236.2874298095703</azimuthalGap><maximumDistance>26.15812873840332</maximumDistance><minimumDistance>12.561339378356934</minimumDistance><medianDistance>21.12400245666504</medianDistance></quality><evaluationMode>automatic</evaluationMode><comment><text>236.29</text><id>maxGap</id></comment><arrival><pickID>de.gempa.tb1.Pick/20250415014714.279739.129118</pickID><phase>P</phase><azimuth>359.57342529296875</azimuth><distance>12.561339378356934</distance><timeResidual>0.13525390625</timeResidual><timeUsed>true</timeUsed><horizontalSlownessUsed>true</horizontalSlownessUsed><backazimuthUsed>true</backazimuthUsed><weight>1</weight></arrival><arrival><pickID>de.gempa.tb1.Pick/20250415014850.223166.129123</pickID><phase>P</phase><azimuth>123.28599548339844</azimuth><distance>21.307140350341797</distance><timeResidual>0.6722564697265625</timeResidual><timeUsed>true</timeUsed><horizontalSlownessUsed>true</horizontalSlownessUsed><backazimuthUsed>true</backazimuthUsed><weight>1</weight></arrival><arrival><pickID>de.gempa.tb1.Pick/20250415014904.347205.129128</pickID><phase>P</phase><azimuth>113.78050231933594</azimuth><distance>22.36543846130371</distance><timeResidual>-0.0122222900390625</timeResidual><timeUsed>true</timeUsed><horizontalSlownessUsed>true</horizontalSlownessUsed><backazimuthUsed>true</backazimuthUsed><weight>1</weight></arrival><arrival><pickID>de.gempa.tb1.Pick/20250415014929.549741.129136</pickID><phase>P</phase><azimuth>116.6856918334961</azimuth><distance>20.69603729248047</distance><timeResidual>-1.80615234375</timeResidual><timeUsed>true</timeUsed><horizontalSlownessUsed>true</horizontalSlownessUsed><backazimuthUsed>true</backazimuthUsed><weight>1</weight></arrival><arrival><pickID>de.gempa.tb1.Pick/20250415014938.50725.129140</pickID><phase>P</phase><azimuth>110.12444305419922</azimuth><distance>26.15812873840332</distance><timeResidual>-1.3959808349609375</timeResidual><timeUsed>true</timeUsed><horizontalSlownessUsed>true</horizontalSlownessUsed><backazimuthUsed>true</backazimuthUsed><weight>1</weight></arrival><arrival><pickID>de.gempa.tb1.Pick/20250415015015.002944.129151</pickID><phase>P</phase><azimuth>116.2302017211914</azimuth><distance>21.275758743286133</distance><timeResidual>6.699172973632812</timeResidual><timeUsed>false</timeUsed><horizontalSlownessUsed>false</horizontalSlownessUsed><backazimuthUsed>false</backazimuthUsed><weight>0</weight></arrival><arrival><pickID>de.gempa.tb1.Pick/20250415015015.005499.129153</pickID><phase>P</phase><azimuth>115.89629364013672</azimuth><distance>21.208074569702148</distance><timeResidual>2.4586639404296875</timeResidual><timeUsed>true</timeUsed><horizontalSlownessUsed>true</horizontalSlownessUsed><backazimuthUsed>true</backazimuthUsed><weight>1</weight></arrival><arrival><pickID>de.gempa.tb1.Pick/20250415015015.154399.129163</pickID><phase>P</phase><azimuth>117.10713958740234</azimuth><distance>21.411109924316406</distance><timeResidual>-13.148590087890625</timeResidual><timeUsed>false</timeUsed><horizontalSlownessUsed>false</horizontalSlownessUsed><backazimuthUsed>false</backazimuthUsed><weight>0</weight></arrival><arrival><pickID>de.gempa.tb1.Pick/20250415015015.190013.129171</pickID><phase>P</phase><azimuth>115.6156997680664</azimuth><distance>20.93083953857422</distance><timeResidual>-2.1891021728515625</timeResidual><timeUsed>true</timeUsed><horizontalSlownessUsed>true</horizontalSlownessUsed><backazimuthUsed>true</backazimuthUsed><weight>1</weight></arrival><arrival><pickID>de.gempa.tb1.Pick/20250415015015.193753.129173</pickID><phase>P</phase><azimuth>115.70950317382812</azimuth><distance>20.853683471679688</distance><timeResidual>0.3372039794921875</timeResidual><timeUsed>true</timeUsed><horizontalSlownessUsed>true</horizontalSlownessUsed><backazimuthUsed>true</backazimuthUsed><weight>1</weight></arrival><arrival><pickID>de.gempa.tb1.Pick/20250415015045.211164.129180</pickID><phase>P</phase><azimuth>114.77153778076172</azimuth><distance>21.12400245666504</distance><timeResidual>1.8000030517578125</timeResidual><timeUsed>true</timeUsed><horizontalSlownessUsed>true</horizontalSlownessUsed><backazimuthUsed>true</backazimuthUsed><weight>1</weight></arrival><magnitude publicID="de.gempa.tb1.Magnitude/20250415015711.13396.560522"><magnitude><value>4.462717294322495</value></magnitude><type>M</type><methodID>weighted average</methodID><stationCount>7</stationCount></magnitude></origin><event publicID="gempa2025hkft"><preferredOriginID>de.gempa.tb1.Origin/20250415015711.125342.248951</preferredOriginID><preferredMagnitudeID>de.gempa.tb1.Magnitude/20250415015711.13396.560522</preferredMagnitudeID><type>not locatable</type><description><text>Iceland</text><type>region name</type></description><originReference>de.gempa.tb1.Origin/20250415015711.125342.248951</originReference></event></EventParameters></seiscomp>