<?xml version="1.0" encoding="UTF-8"?>
<seiscomp xmlns="http://geofon.gfz-potsdam.de/ns/seiscomp3-schema/0.13" version="0.13"><EventParameters><pick publicID="de.gempa.tb1.Pick/20250414100220.23947.220808"><time><value>2025-04-14T10:02:17.12Z</value></time><waveformID networkCode="CH" stationCode="EMBD" channelCode="HHZ"/><filterID>ITAPER(4)&gt;&gt;BW(4,4,20)</filterID><methodID>AIC</methodID><phaseHint>P</phaseHint><evaluationMode>automatic</evaluationMode></pick><pick publicID="de.gempa.tb1.Pick/20250414100220.926654.220810"><time><value>2025-04-14T10:02:17.475Z</value></time><waveformID networkCode="CH" stationCode="SIMPL" channelCode="HHZ"/><filterID>ITAPER(4)&gt;&gt;BW(4,4,20)</filterID><methodID>AIC</methodID><phaseHint>P</phaseHint><evaluationMode>automatic</evaluationMode></pick><pick publicID="de.gempa.tb1.Pick/20250414100221.122336.220812"><time><value>2025-04-14T10:02:18.045Z</value></time><waveformID networkCode="CH" stationCode="FIESA" channelCode="HHZ"/><filterID>ITAPER(4)&gt;&gt;BW(4,4,20)</filterID><methodID>AIC</methodID><phaseHint>P</phaseHint><evaluationMode>automatic</evaluationMode></pick><pick publicID="de.gempa.tb1.Pick/20250414100225.113809.220816"><time><value>2025-04-14T10:02:22.215Z</value></time><waveformID networkCode="CH" stationCode="DIX" channelCode="HHZ"/><filterID>ITAPER(4)&gt;&gt;BW(4,4,20)</filterID><methodID>AIC</methodID><phaseHint>P</phaseHint><evaluationMode>automatic</evaluationMode></pick><pick publicID="de.gempa.tb1.Pick/20250414100238.39984.220825"><time><value>2025-04-14T10:02:30.475Z</value></time><waveformID networkCode="CH" stationCode="ZUR" channelCode="HHZ"/><filterID>ITAPER(4)&gt;&gt;BW(4,4,20)</filterID><methodID>AIC</methodID><phaseHint>P</phaseHint><evaluationMode>automatic</evaluationMode></pick><pick publicID="de.gempa.tb1.Pick/20250414100309.221062.220844"><time><value>2025-04-14T10:02:52.695Z</value></time><waveformID networkCode="GE" stationCode="STU" channelCode="BHZ"/><filterID>ITAPER(4)&gt;&gt;BW_HP(4,4)</filterID><methodID>AIC</methodID><phaseHint>P</phaseHint><evaluationMode>automatic</evaluationMode></pick><origin publicID="de.gempa.tb1.Origin/20250414100309.223745.138011"><time><value>2025-04-14T10:02:11.526438Z</value><uncertainty>0.5062379837036133</uncertainty></time><latitude><value>46.34227752685547</value><uncertainty>9.039483070373535</uncertainty></latitude><longitude><value>7.92062759399414</value><uncertainty>8.305429458618164</uncertainty></longitude><depth><value>23.78812599182129</value><uncertainty>8.163342475891113</uncertainty></depth><depthType>from location</depthType><methodID>LOCSAT</methodID><earthModelID>iasp91</earthModelID><quality><associatedPhaseCount>6</associatedPhaseCount><usedPhaseCount>6</usedPhaseCount><associatedStationCount>6</associatedStationCount><usedStationCount>6</usedStationCount><depthPhaseCount>0</depthPhaseCount><standardError>0.6540047902220931</standardError><azimuthalGap>145.2862319946289</azimuthalGap><maximumDistance>2.5796098709106445</maximumDistance><minimumDistance>0.12350096553564072</minimumDistance><medianDistance>0.44207942485809326</medianDistance></quality><uncertainty><minHorizontalUncertainty>9.330231666564941</minHorizontalUncertainty><maxHorizontalUncertainty>24.620885848999023</maxHorizontalUncertainty><azimuthMaxHorizontalUncertainty>138.23915100097656</azimuthMaxHorizontalUncertainty><preferredDescription>horizontal uncertainty</preferredDescription></uncertainty><evaluationMode>automatic</evaluationMode><evaluationStatus>rejected</evaluationStatus><comment><text>0.83</text><id>mismatchScore</id></comment><comment><text>mismatchScore</text><id>scevalMethod</id></comment><arrival><pickID>de.gempa.tb1.Pick/20250414100220.23947.220808</pickID><phase>P</phase><azimuth>206.0154571533203</azimuth><distance>0.13993911445140839</distance><timeResidual>-0.4419236183166504</timeResidual><timeUsed>true</timeUsed><horizontalSlownessUsed>false</horizontalSlownessUsed><backazimuthUsed>false</backazimuthUsed><weight>1</weight></arrival><arrival><pickID>de.gempa.tb1.Pick/20250414100220.926654.220810</pickID><phase>P</phase><azimuth>146.2133026123047</azimuth><distance>0.12350096553564072</distance><timeResidual>0.1481475830078125</timeResidual><timeUsed>true</timeUsed><horizontalSlownessUsed>false</horizontalSlownessUsed><backazimuthUsed>false</backazimuthUsed><weight>1</weight></arrival><arrival><pickID>de.gempa.tb1.Pick/20250414100221.122336.220812</pickID><phase>P</phase><azimuth>54.63215637207031</azimuth><distance>0.1609746664762497</distance><timeResidual>0.1832747459411621</timeResidual><timeUsed>true</timeUsed><horizontalSlownessUsed>false</horizontalSlownessUsed><backazimuthUsed>false</backazimuthUsed><weight>1</weight></arrival><arrival><pickID>de.gempa.tb1.Pick/20250414100225.113809.220816</pickID><phase>P</phase><azimuth>233.7948303222656</azimuth><distance>0.44207942485809326</distance><timeResidual>0.3335385322570801</timeResidual><timeUsed>true</timeUsed><horizontalSlownessUsed>false</horizontalSlownessUsed><backazimuthUsed>false</backazimuthUsed><weight>1</weight></arrival><arrival><pickID>de.gempa.tb1.Pick/20250414100238.39984.220825</pickID><phase>P</phase><azimuth>23.56039047241211</azimuth><distance>1.122830867767334</distance><timeResidual>-1.1554369926452637</timeResidual><timeUsed>true</timeUsed><horizontalSlownessUsed>false</horizontalSlownessUsed><backazimuthUsed>false</backazimuthUsed><weight>1</weight></arrival><arrival><pickID>de.gempa.tb1.Pick/20250414100309.221062.220844</pickID><phase>P</phase><azimuth>19.08106231689453</azimuth><distance>2.5796098709106445</distance><timeResidual>0.9323182106018066</timeResidual><timeUsed>true</timeUsed><horizontalSlownessUsed>false</horizontalSlownessUsed><backazimuthUsed>false</backazimuthUsed><weight>1</weight></arrival><magnitude publicID="de.gempa.tb1.Magnitude/20250414100316.062892.470425"><magnitude><value>1.460491881698624</value></magnitude><type>M</type><methodID>weighted average</methodID><stationCount>5</stationCount></magnitude></origin><event publicID="gempa2025hjai"><preferredOriginID>de.gempa.tb1.Origin/20250414100309.223745.138011</preferredOriginID><preferredMagnitudeID>de.gempa.tb1.Magnitude/20250414100316.062892.470425</preferredMagnitudeID><type>not existing</type><typeCertainty>suspected</typeCertainty><description><text>Switzerland</text><type>region name</type></description><originReference>de.gempa.tb1.Origin/20250414100309.223745.138011</originReference></event></EventParameters></seiscomp>