<?xml version="1.0" encoding="UTF-8"?>
<seiscomp xmlns="http://geofon.gfz-potsdam.de/ns/seiscomp3-schema/0.13" version="0.13"><EventParameters><pick publicID="de.gempa.tb1.Pick/20250411201252.366997.119882"><time><value>2025-04-11T20:12:44.23Z</value></time><waveformID networkCode="CX" stationCode="PB09" channelCode="HHZ"/><filterID>ITAPER(4)&gt;&gt;BW(4,4,20)</filterID><methodID>AIC</methodID><horizontalSlowness><value>16.806206622837497</value></horizontalSlowness><backazimuth><value>100.99851982236213</value></backazimuth><phaseHint>P</phaseHint><evaluationMode>automatic</evaluationMode><comment><text>1803827.0313125516</text><id>DFX:rectilinearity</id></comment><comment><text>19024.366232591114</text><id>SNR</id></comment></pick><pick publicID="de.gempa.tb1.Pick/20250411201253.582833.119884"><time><value>2025-04-11T20:12:47.878394Z</value></time><waveformID networkCode="CX" stationCode="PB03" channelCode="HHZ"/><filterID>ITAPER(4)&gt;&gt;BW(4,4,20)</filterID><methodID>AIC</methodID><horizontalSlowness><value>9.685196252865413</value></horizontalSlowness><backazimuth><value>105.36936759928663</value></backazimuth><phaseHint>P</phaseHint><evaluationMode>automatic</evaluationMode><comment><text>1409537.7357859323</text><id>DFX:rectilinearity</id></comment><comment><text>8024.95149125672</text><id>SNR</id></comment></pick><pick publicID="de.gempa.tb1.Pick/20250411201254.71081.119886"><time><value>2025-04-11T20:12:49.148393Z</value></time><waveformID networkCode="CX" stationCode="PB06" channelCode="HHZ"/><filterID>ITAPER(4)&gt;&gt;BW(4,4,20)</filterID><methodID>AIC</methodID><horizontalSlowness><value>7.607104760828747</value></horizontalSlowness><backazimuth><value>85.31506277708857</value></backazimuth><phaseHint>P</phaseHint><evaluationMode>automatic</evaluationMode><comment><text>734192.9225760489</text><id>DFX:rectilinearity</id></comment><comment><text>3775.3315014924983</text><id>SNR</id></comment></pick><pick publicID="de.gempa.tb1.Pick/20250411201254.821362.119888"><time><value>2025-04-11T20:12:49.478389Z</value></time><waveformID networkCode="CX" stationCode="PB07" channelCode="HHZ"/><filterID>ITAPER(4)&gt;&gt;BW(4,4,20)</filterID><methodID>AIC</methodID><horizontalSlowness><value>14.1541584697163</value></horizontalSlowness><backazimuth><value>115.3524242041266</value></backazimuth><phaseHint>P</phaseHint><evaluationMode>automatic</evaluationMode><comment><text>7617544.892197647</text><id>DFX:rectilinearity</id></comment><comment><text>11171.578647101966</text><id>SNR</id></comment></pick><pick publicID="de.gempa.tb1.Pick/20250411201255.606346.119890"><time><value>2025-04-11T20:12:49.328391Z</value></time><waveformID networkCode="CX" stationCode="PB01" channelCode="HHZ"/><filterID>ITAPER(4)&gt;&gt;BW(4,4,20)</filterID><methodID>AIC</methodID><horizontalSlowness><value>5.70014940593196</value></horizontalSlowness><backazimuth><value>95.65490047589185</value></backazimuth><phaseHint>P</phaseHint><evaluationMode>automatic</evaluationMode><comment><text>44981.72621830358</text><id>DFX:rectilinearity</id></comment><comment><text>4530.514386551903</text><id>SNR</id></comment></pick><pick publicID="de.gempa.tb1.Pick/20250411201256.628568.119892"><time><value>2025-04-11T20:12:50.908393Z</value></time><waveformID networkCode="CX" stationCode="PB02" channelCode="HHZ"/><filterID>ITAPER(4)&gt;&gt;BW(4,4,20)</filterID><methodID>AIC</methodID><horizontalSlowness><value>8.223755395468048</value></horizontalSlowness><backazimuth><value>106.47937590719455</value></backazimuth><phaseHint>P</phaseHint><evaluationMode>automatic</evaluationMode><comment><text>237631.3787618827</text><id>DFX:rectilinearity</id></comment><comment><text>821.8804251157063</text><id>SNR</id></comment></pick><pick publicID="de.gempa.tb1.Pick/20250411201257.812517.119894"><time><value>2025-04-11T20:12:52.858393Z</value></time><waveformID networkCode="CX" stationCode="PB15" channelCode="HHZ"/><filterID>ITAPER(4)&gt;&gt;BW(4,4,20)</filterID><methodID>AIC</methodID><horizontalSlowness><value>19.7833192748434</value></horizontalSlowness><backazimuth><value>104.89805004156068</value></backazimuth><phaseHint>P</phaseHint><evaluationMode>automatic</evaluationMode><comment><text>226385.8664764798</text><id>DFX:rectilinearity</id></comment><comment><text>550.267337011237</text><id>SNR</id></comment></pick><pick publicID="de.gempa.tb1.Pick/20250411201302.406062.119896"><time><value>2025-04-11T20:12:56.229999Z</value></time><waveformID networkCode="CX" stationCode="PATCX" channelCode="HHZ"/><filterID>ITAPER(4)&gt;&gt;BW(4,4,20)</filterID><methodID>AIC</methodID><horizontalSlowness><value>5.073371132989565</value></horizontalSlowness><backazimuth><value>143.09755861239174</value></backazimuth><phaseHint>P</phaseHint><evaluationMode>automatic</evaluationMode><comment><text>19276.767573437231</text><id>DFX:rectilinearity</id></comment><comment><text>284.2882660372828</text><id>SNR</id></comment></pick><pick publicID="de.gempa.tb1.Pick/20250411201304.571103.119898"><time><value>2025-04-11T20:12:57.988393Z</value></time><waveformID networkCode="CX" stationCode="PB08" channelCode="HHZ"/><filterID>ITAPER(4)&gt;&gt;BW(4,4,20)</filterID><methodID>AIC</methodID><horizontalSlowness><value>15.25553365891084</value></horizontalSlowness><backazimuth><value>208.5516690967465</value></backazimuth><phaseHint>P</phaseHint><evaluationMode>automatic</evaluationMode><comment><text>329738.5001601753</text><id>DFX:rectilinearity</id></comment><comment><text>452.0891531369313</text><id>SNR</id></comment></pick><pick publicID="de.gempa.tb1.Pick/20250411201305.499966.119900"><time><value>2025-04-11T20:12:59.75Z</value></time><waveformID networkCode="CX" stationCode="PB19" channelCode="HHZ"/><filterID>ITAPER(4)&gt;&gt;BW(4,4,20)</filterID><methodID>AIC</methodID><horizontalSlowness><value>5.872496304246776</value></horizontalSlowness><backazimuth><value>40.023982542024356</value></backazimuth><phaseHint>P</phaseHint><evaluationMode>automatic</evaluationMode><comment><text>14144.516466822239</text><id>DFX:rectilinearity</id></comment><comment><text>381.015556805973</text><id>SNR</id></comment></pick><pick publicID="de.gempa.tb1.Pick/20250411201308.184379.119902"><time><value>2025-04-11T20:13:02.63Z</value></time><waveformID networkCode="CX" stationCode="PB10" channelCode="HHZ"/><filterID>ITAPER(4)&gt;&gt;BW(4,4,20)</filterID><methodID>AIC</methodID><horizontalSlowness><value>10.34350947782872</value></horizontalSlowness><backazimuth><value>55.05680822483843</value></backazimuth><phaseHint>P</phaseHint><evaluationMode>automatic</evaluationMode><comment><text>1719.2403411149594</text><id>DFX:rectilinearity</id></comment><comment><text>105.92098770198513</text><id>SNR</id></comment></pick><pick publicID="de.gempa.tb1.Pick/20250411201310.590583.119904"><time><value>2025-04-11T20:13:06.11Z</value></time><waveformID networkCode="CX" stationCode="PSGCX" channelCode="HHZ"/><filterID>ITAPER(4)&gt;&gt;BW(4,4,20)</filterID><methodID>AIC</methodID><horizontalSlowness><value>10.85221207392413</value></horizontalSlowness><backazimuth><value>130.98525929702373</value></backazimuth><phaseHint>P</phaseHint><evaluationMode>automatic</evaluationMode><comment><text>1752.8738200153462</text><id>DFX:rectilinearity</id></comment><comment><text>417.3214819916334</text><id>SNR</id></comment></pick><pick publicID="de.gempa.tb1.Pick/20250411201312.538001.119906"><time><value>2025-04-11T20:13:05.708394Z</value></time><waveformID networkCode="CX" stationCode="PB03" channelCode="HHN"/><filterID>ITAPER(2)&gt;&gt;BW(3,3,20)</filterID><methodID>L2-AIC-GRID</methodID><horizontalSlowness><value>19.494708796365934</value></horizontalSlowness><backazimuth><value>306.12544767099536</value></backazimuth><phaseHint>S</phaseHint><evaluationMode>automatic</evaluationMode><comment><text>2242782.518278113</text><id>DFX:rectilinearity</id></comment><comment><text>de.gempa.tb1.Pick/20250411201253.582833.119884</text><id>RefPickID</id></comment><comment><text>7.280073436470053</text><id>SNR</id></comment></pick><pick publicID="de.gempa.tb1.Pick/20250411201314.005649.119907"><time><value>2025-04-11T20:13:08.248389Z</value></time><waveformID networkCode="CX" stationCode="PB07" channelCode="HHN"/><filterID>ITAPER(2)&gt;&gt;BW(3,3,20)</filterID><methodID>L2-AIC-GRID</methodID><horizontalSlowness><value>23.52841108519396</value></horizontalSlowness><backazimuth><value>212.3110377002032</value></backazimuth><phaseHint>S</phaseHint><evaluationMode>automatic</evaluationMode><comment><text>106367856.59601638</text><id>DFX:rectilinearity</id></comment><comment><text>de.gempa.tb1.Pick/20250411201254.821362.119888</text><id>RefPickID</id></comment><comment><text>8.812874654834074</text><id>SNR</id></comment></pick><pick publicID="de.gempa.tb1.Pick/20250411201314.604293.119908"><time><value>2025-04-11T20:13:08.138391Z</value></time><waveformID networkCode="CX" stationCode="PB01" channelCode="HHN"/><filterID>ITAPER(2)&gt;&gt;BW(3,3,20)</filterID><methodID>L2-AIC-GRID</methodID><horizontalSlowness><value>22.834313916008767</value></horizontalSlowness><backazimuth><value>79.8460633732105</value></backazimuth><phaseHint>S</phaseHint><evaluationMode>automatic</evaluationMode><comment><text>9319871.355501005</text><id>DFX:rectilinearity</id></comment><comment><text>de.gempa.tb1.Pick/20250411201255.606346.119890</text><id>RefPickID</id></comment><comment><text>20.736797134945093</text><id>SNR</id></comment></pick><pick publicID="de.gempa.tb1.Pick/20250411201317.62965.119910"><time><value>2025-04-11T20:13:10.858393Z</value></time><waveformID networkCode="CX" stationCode="PB02" channelCode="HHN"/><filterID>ITAPER(2)&gt;&gt;BW(3,3,20)</filterID><methodID>L2-AIC-GRID</methodID><horizontalSlowness><value>23.511713262504223</value></horizontalSlowness><backazimuth><value>24.358497214604313</value></backazimuth><phaseHint>S</phaseHint><evaluationMode>automatic</evaluationMode><comment><text>22734489.01685854</text><id>DFX:rectilinearity</id></comment><comment><text>de.gempa.tb1.Pick/20250411201256.628568.119892</text><id>RefPickID</id></comment><comment><text>9.78616306323644</text><id>SNR</id></comment></pick><pick publicID="de.gempa.tb1.Pick/20250411201320.584774.119913"><time><value>2025-04-11T20:13:07.878393Z</value></time><waveformID networkCode="CX" stationCode="PB06" channelCode="HHN"/><filterID>ITAPER(2)&gt;&gt;BW(3,3,20)</filterID><methodID>L2-AIC-GRID</methodID><horizontalSlowness><value>22.358446586216516</value></horizontalSlowness><backazimuth><value>164.34485564207807</value></backazimuth><phaseHint>S</phaseHint><evaluationMode>automatic</evaluationMode><comment><text>22722984.557599135</text><id>DFX:rectilinearity</id></comment><comment><text>de.gempa.tb1.Pick/20250411201254.71081.119886</text><id>RefPickID</id></comment><comment><text>12.959476270207595</text><id>SNR</id></comment></pick><pick publicID="de.gempa.tb1.Pick/20250411201323.40794.119917"><time><value>2025-04-11T20:13:14.868393Z</value></time><waveformID networkCode="CX" stationCode="PB15" channelCode="HHN"/><filterID>ITAPER(2)&gt;&gt;BW(3,3,20)</filterID><methodID>L2-AIC-GRID</methodID><horizontalSlowness><value>23.08428532907347</value></horizontalSlowness><backazimuth><value>117.59268057226045</value></backazimuth><phaseHint>S</phaseHint><evaluationMode>automatic</evaluationMode><comment><text>1360164268.4772897</text><id>DFX:rectilinearity</id></comment><comment><text>de.gempa.tb1.Pick/20250411201257.812517.119894</text><id>RefPickID</id></comment><comment><text>12.627051911088207</text><id>SNR</id></comment></pick><pick publicID="de.gempa.tb1.Pick/20250411201328.188813.119919"><time><value>2025-04-11T20:13:20.479999Z</value></time><waveformID networkCode="CX" stationCode="PATCX" channelCode="HHN"/><filterID>ITAPER(2)&gt;&gt;BW(3,3,20)</filterID><methodID>L2-AIC-GRID</methodID><horizontalSlowness><value>23.40517194134297</value></horizontalSlowness><backazimuth><value>63.6813621231696</value></backazimuth><phaseHint>S</phaseHint><evaluationMode>automatic</evaluationMode><comment><text>1493908.7444461384</text><id>DFX:rectilinearity</id></comment><comment><text>de.gempa.tb1.Pick/20250411201302.406062.119896</text><id>RefPickID</id></comment><comment><text>19.002685534747446</text><id>SNR</id></comment></pick><pick publicID="de.gempa.tb1.Pick/20250411201331.897658.119924"><time><value>2025-04-11T20:13:23.378393Z</value></time><waveformID networkCode="CX" stationCode="PB08" channelCode="HHN"/><filterID>ITAPER(2)&gt;&gt;BW(3,3,20)</filterID><methodID>L2-AIC-GRID</methodID><horizontalSlowness><value>13.830684336226932</value></horizontalSlowness><backazimuth><value>215.29331642557435</value></backazimuth><phaseHint>S</phaseHint><evaluationMode>automatic</evaluationMode><comment><text>332727.3980336339</text><id>DFX:rectilinearity</id></comment><comment><text>de.gempa.tb1.Pick/20250411201304.571103.119898</text><id>RefPickID</id></comment><comment><text>7.494245082633864</text><id>SNR</id></comment></pick><pick publicID="de.gempa.tb1.Pick/20250411201332.65409.119925"><time><value>2025-04-11T20:13:26.32Z</value></time><waveformID networkCode="CX" stationCode="PB19" channelCode="HHN"/><filterID>ITAPER(2)&gt;&gt;BW(3,3,20)</filterID><methodID>L2-AIC-GRID</methodID><horizontalSlowness><value>22.81687943244003</value></horizontalSlowness><backazimuth><value>48.77706598392209</value></backazimuth><phaseHint>S</phaseHint><evaluationMode>automatic</evaluationMode><comment><text>2544309.9322220655</text><id>DFX:rectilinearity</id></comment><comment><text>de.gempa.tb1.Pick/20250411201305.499966.119900</text><id>RefPickID</id></comment><comment><text>13.496011178245118</text><id>SNR</id></comment></pick><pick publicID="de.gempa.tb1.Pick/20250411201339.199205.119928"><time><value>2025-04-11T20:13:30.72Z</value></time><waveformID networkCode="CX" stationCode="PB10" channelCode="HHN"/><filterID>ITAPER(2)&gt;&gt;BW(3,3,20)</filterID><methodID>L2-AIC-GRID</methodID><horizontalSlowness><value>23.15841332579029</value></horizontalSlowness><backazimuth><value>118.78697241792258</value></backazimuth><phaseHint>S</phaseHint><evaluationMode>automatic</evaluationMode><comment><text>202628.33505259515</text><id>DFX:rectilinearity</id></comment><comment><text>de.gempa.tb1.Pick/20250411201308.184379.119902</text><id>RefPickID</id></comment><comment><text>5.669767513482649</text><id>SNR</id></comment></pick><origin publicID="de.gempa.tb1.Origin/20250411201339.210961.65250"><time><value>2025-04-11T20:12:24.821681Z</value><uncertainty>0.61977219581604</uncertainty></time><latitude><value>-21.948944091796875</value><uncertainty>2.0993361473083496</uncertainty></latitude><longitude><value>-68.81538391113281</value><uncertainty>6.886945247650146</uncertainty></longitude><depth><value>142.6116180419922</value><uncertainty>6.873048782348633</uncertainty></depth><depthType>from location</depthType><methodID>LOCSAT</methodID><earthModelID>iasp91_scanloc</earthModelID><quality><associatedPhaseCount>22</associatedPhaseCount><usedPhaseCount>22</usedPhaseCount><associatedStationCount>12</associatedStationCount><usedStationCount>12</usedStationCount><depthPhaseCount>0</depthPhaseCount><standardError>0.5267113752635557</standardError><azimuthalGap>202.60971069335938</azimuthalGap><maximumDistance>2.6405513286590576</maximumDistance><minimumDistance>0.42429259419441223</minimumDistance><medianDistance>1.3921754360198975</medianDistance></quality><uncertainty><minHorizontalUncertainty>4.499825954437256</minHorizontalUncertainty><maxHorizontalUncertainty>14.76229476928711</maxHorizontalUncertainty><azimuthMaxHorizontalUncertainty>90.13848114013672</azimuthMaxHorizontalUncertainty><preferredDescription>horizontal uncertainty</preferredDescription></uncertainty><evaluationMode>automatic</evaluationMode><evaluationStatus>confirmed</evaluationStatus><comment><text>0.00</text><id>mismatchScore</id></comment><comment><text>mismatchScore</text><id>scevalMethod</id></comment><arrival><pickID>de.gempa.tb1.Pick/20250411201252.366997.119882</pickID><phase>P</phase><azimuth>290.8879089355469</azimuth><distance>0.42429259419441223</distance><timeResidual>-0.7205047607421875</timeResidual><timeUsed>true</timeUsed><horizontalSlownessUsed>false</horizontalSlownessUsed><backazimuthUsed>false</backazimuthUsed><weight>1</weight></arrival><arrival><pickID>de.gempa.tb1.Pick/20250411201253.582833.119884</pickID><phase>P</phase><azimuth>263.33258056640625</azimuth><distance>0.8758724927902222</distance><timeResidual>0.028665542602539059</timeResidual><timeUsed>true</timeUsed><horizontalSlownessUsed>false</horizontalSlownessUsed><backazimuthUsed>false</backazimuthUsed><weight>1</weight></arrival><arrival><pickID>de.gempa.tb1.Pick/20250411201254.71081.119886</pickID><phase>P</phase><azimuth>222.77810668945312</azimuth><distance>1.0285865068435669</distance><timeResidual>0.0040416717529296875</timeResidual><timeUsed>true</timeUsed><horizontalSlownessUsed>false</horizontalSlownessUsed><backazimuthUsed>false</backazimuthUsed><weight>1</weight></arrival><arrival><pickID>de.gempa.tb1.Pick/20250411201254.821362.119888</pickID><phase>P</phase><azimuth>282.33660888671875</azimuth><distance>1.0191628932952881</distance><timeResidual>0.41130638122558594</timeResidual><timeUsed>true</timeUsed><horizontalSlownessUsed>false</horizontalSlownessUsed><backazimuthUsed>false</backazimuthUsed><weight>1</weight></arrival><arrival><pickID>de.gempa.tb1.Pick/20250411201255.606346.119890</pickID><phase>P</phase><azimuth>325.1012878417969</azimuth><distance>1.0972377061843872</distance><timeResidual>-0.4513778686523438</timeResidual><timeUsed>true</timeUsed><horizontalSlownessUsed>false</horizontalSlownessUsed><backazimuthUsed>false</backazimuthUsed><weight>1</weight></arrival><arrival><pickID>de.gempa.tb1.Pick/20250411201256.628568.119892</pickID><phase>P</phase><azimuth>301.7138671875</azimuth><distance>1.1844482421875</distance><timeResidual>0.3053131103515625</timeResidual><timeUsed>true</timeUsed><horizontalSlownessUsed>false</horizontalSlownessUsed><backazimuthUsed>false</backazimuthUsed><weight>1</weight></arrival><arrival><pickID>de.gempa.tb1.Pick/20250411201257.812517.119894</pickID><phase>P</phase><azimuth>205.67385864257812</azimuth><distance>1.3921754360198975</distance><timeResidual>0.17824363708496094</timeResidual><timeUsed>true</timeUsed><horizontalSlownessUsed>false</horizontalSlownessUsed><backazimuthUsed>false</backazimuthUsed><weight>1</weight></arrival><arrival><pickID>de.gempa.tb1.Pick/20250411201302.406062.119896</pickID><phase>P</phase><azimuth>311.7635498046875</azimuth><distance>1.677533745765686</distance><timeResidual>0.4387950897216797</timeResidual><timeUsed>true</timeUsed><horizontalSlownessUsed>false</horizontalSlownessUsed><backazimuthUsed>false</backazimuthUsed><weight>1</weight></arrival><arrival><pickID>de.gempa.tb1.Pick/20250411201304.571103.119898</pickID><phase>P</phase><azimuth>349.9837646484375</azimuth><distance>1.8263142108917236</distance><timeResidual>0.4994220733642578</timeResidual><timeUsed>true</timeUsed><horizontalSlownessUsed>false</horizontalSlownessUsed><backazimuthUsed>false</backazimuthUsed><weight>1</weight></arrival><arrival><pickID>de.gempa.tb1.Pick/20250411201305.499966.119900</pickID><phase>P</phase><azimuth>192.59347534179688</azimuth><distance>1.995380997657776</distance><timeResidual>0.31118202209472656</timeResidual><timeUsed>true</timeUsed><horizontalSlownessUsed>false</horizontalSlownessUsed><backazimuthUsed>false</backazimuthUsed><weight>1</weight></arrival><arrival><pickID>de.gempa.tb1.Pick/20250411201308.184379.119902</pickID><phase>P</phase><azimuth>225.54095458984375</azimuth><distance>2.2363247871398926</distance><timeResidual>0.2895469665527344</timeResidual><timeUsed>true</timeUsed><horizontalSlownessUsed>false</horizontalSlownessUsed><backazimuthUsed>false</backazimuthUsed><weight>1</weight></arrival><arrival><pickID>de.gempa.tb1.Pick/20250411201310.590583.119904</pickID><phase>P</phase><azimuth>332.159