<?xml version="1.0" encoding="UTF-8"?>
<seiscomp xmlns="http://geofon.gfz-potsdam.de/ns/seiscomp3-schema/0.13" version="0.13"><EventParameters><pick publicID="de.gempa.tb1.Pick/20250412140408.81646.124431"><time><value>2025-04-12T14:04:03.918394Z</value></time><waveformID networkCode="CX" stationCode="PB01" channelCode="HHZ"/><filterID>ITAPER(4)&gt;&gt;BW(4,4,20)</filterID><methodID>AIC</methodID><horizontalSlowness><value>5.027541036693023</value></horizontalSlowness><backazimuth><value>23.868424999761544</value></backazimuth><phaseHint>P</phaseHint><evaluationMode>automatic</evaluationMode><comment><text>626.3419319455437</text><id>DFX:rectilinearity</id></comment><comment><text>652.6860912379176</text><id>SNR</id></comment></pick><pick publicID="de.gempa.tb1.Pick/20250412140413.859165.124433"><time><value>2025-04-12T14:04:06.128393Z</value></time><waveformID networkCode="CX" stationCode="PB08" channelCode="HHZ"/><filterID>ITAPER(4)&gt;&gt;BW(4,4,20)</filterID><methodID>AIC</methodID><horizontalSlowness><value>11.250373298978934</value></horizontalSlowness><backazimuth><value>176.58109653583642</value></backazimuth><phaseHint>P</phaseHint><evaluationMode>automatic</evaluationMode><comment><text>10.283558109240357</text><id>DFX:rectilinearity</id></comment><comment><text>34.59771627205267</text><id>SNR</id></comment></pick><pick publicID="de.gempa.tb1.Pick/20250412140414.682486.124435"><time><value>2025-04-12T14:04:08.018393Z</value></time><waveformID networkCode="CX" stationCode="PB02" channelCode="HHZ"/><filterID>ITAPER(4)&gt;&gt;BW(4,4,20)</filterID><methodID>AIC</methodID><horizontalSlowness><value>5.88377642295213</value></horizontalSlowness><backazimuth><value>28.992878825097335</value></backazimuth><phaseHint>P</phaseHint><evaluationMode>automatic</evaluationMode><comment><text>385.59055359146657</text><id>DFX:rectilinearity</id></comment><comment><text>144.53528383982916</text><id>SNR</id></comment></pick><pick publicID="de.gempa.tb1.Pick/20250412140416.462429.124437"><time><value>2025-04-12T14:04:08.559999Z</value></time><waveformID networkCode="CX" stationCode="PATCX" channelCode="HHZ"/><filterID>ITAPER(4)&gt;&gt;BW(4,4,20)</filterID><methodID>AIC</methodID><horizontalSlowness><value>18.83760269532403</value></horizontalSlowness><backazimuth><value>278.4488349313399</value></backazimuth><phaseHint>P</phaseHint><evaluationMode>automatic</evaluationMode><comment><text>270.0189479751309</text><id>DFX:rectilinearity</id></comment><comment><text>17.157308183971704</text><id>SNR</id></comment></pick><pick publicID="de.gempa.tb1.Pick/20250412140418.534193.124439"><time><value>2025-04-12T14:04:10.0000Z</value></time><waveformID networkCode="CX" stationCode="PB09" channelCode="HHZ"/><filterID>ITAPER(4)&gt;&gt;BW(4,4,20)</filterID><methodID>AIC</methodID><horizontalSlowness><value>15.63170249596559</value></horizontalSlowness><backazimuth><value>63.31616678046984</value></backazimuth><phaseHint>P</phaseHint><evaluationMode>automatic</evaluationMode><comment><text>21.355178030013963</text><id>DFX:rectilinearity</id></comment><comment><text>52.71684363534806</text><id>SNR</id></comment></pick><pick publicID="de.gempa.tb1.Pick/20250412140419.576189.124441"><time><value>2025-04-12T14:04:14.13Z</value></time><waveformID networkCode="CX" stationCode="PSGCX" channelCode="HHZ"/><filterID>ITAPER(4)&gt;&gt;BW(4,4,20)</filterID><methodID>AIC</methodID><horizontalSlowness><value>8.746431770404353</value></horizontalSlowness><backazimuth><value>134.9025167282952</value></backazimuth><phaseHint>P</phaseHint><evaluationMode>automatic</evaluationMode><comment><text>58.39357312749609</text><id>DFX:rectilinearity</id></comment><comment><text>101.81926762747138</text><id>SNR</id></comment></pick><pick publicID="de.gempa.tb1.Pick/20250412140419.644288.124443"><time><value>2025-04-12T14:04:13.648393Z</value></time><waveformID networkCode="CX" stationCode="PB03" channelCode="HHZ"/><filterID>ITAPER(4)&gt;&gt;BW(4,4,20)</filterID><methodID>AIC</methodID><horizontalSlowness><value>1.4891948697991948</value></horizontalSlowness><backazimuth><value>278.095442373085</value></backazimuth><phaseHint>P</phaseHint><evaluationMode>automatic</evaluationMode><comment><text>13.98955360918264</text><id>DFX:rectilinearity</id></comment><comment><text>35.775771714329387</text><id>SNR</id></comment></pick><pick publicID="de.gempa.tb1.Pick/20250412140423.777635.124445"><time><value>2025-04-12T14:04:15.928394Z</value></time><waveformID networkCode="CX" stationCode="PB01" channelCode="HHN"/><filterID>ITAPER(2)&gt;&gt;BW(3,3,20)</filterID><methodID>L2-AIC-GRID</methodID><horizontalSlowness><value>20.95784761977422</value></horizontalSlowness><backazimuth><value>304.637478251723</value></backazimuth><phaseHint>S</phaseHint><evaluationMode>automatic</evaluationMode><comment><text>23983.65308613378</text><id>DFX:rectilinearity</id></comment><comment><text>de.gempa.tb1.Pick/20250412140408.81646.124431</text><id>RefPickID</id></comment><comment><text>19.364575861649271</text><id>SNR</id></comment></pick><pick publicID="de.gempa.tb1.Pick/20250412140427.179011.124446"><time><value>2025-04-12T14:04:19.728393Z</value></time><waveformID networkCode="CX" stationCode="PB08" channelCode="HHN"/><filterID>ITAPER(2)&gt;&gt;BW(3,3,20)</filterID><methodID>L2-AIC-GRID</methodID><horizontalSlowness><value>17.06452875033654</value></horizontalSlowness><backazimuth><value>200.6168941590287</value></backazimuth><phaseHint>S</phaseHint><evaluationMode>automatic</evaluationMode><comment><text>316.37924015665527</text><id>DFX:rectilinearity</id></comment><comment><text>de.gempa.tb1.Pick/20250412140413.859165.124433</text><id>RefPickID</id></comment><comment><text>10.454028909367734</text><id>SNR</id></comment></pick><pick publicID="de.gempa.tb1.Pick/20250412140430.653939.124447"><time><value>2025-04-12T14:04:23.418393Z</value></time><waveformID networkCode="CX" stationCode="PB02" channelCode="HHN"/><filterID>ITAPER(2)&gt;&gt;BW(3,3,20)</filterID><methodID>L2-AIC-GRID</methodID><horizontalSlowness><value>1.6361972285839472</value></horizontalSlowness><backazimuth><value>60.00194765184685</value></backazimuth><phaseHint>S</phaseHint><evaluationMode>automatic</evaluationMode><comment><text>705.8258254798372</text><id>DFX:rectilinearity</id></comment><comment><text>de.gempa.tb1.Pick/20250412140414.682486.124435</text><id>RefPickID</id></comment><comment><text>5.412158444750752</text><id>SNR</id></comment></pick><pick publicID="de.gempa.tb1.Pick/20250412140431.265114.124448"><time><value>2025-04-12T14:04:24.109999Z</value></time><waveformID networkCode="CX" stationCode="PATCX" channelCode="HHN"/><filterID>ITAPER(2)&gt;&gt;BW(3,3,20)</filterID><methodID>L2-AIC-GRID</methodID><horizontalSlowness><value>21.97745703416845</value></horizontalSlowness><backazimuth><value>175.94962382663905</value></backazimuth><phaseHint>S</phaseHint><evaluationMode>automatic</evaluationMode><comment><text>1680.392398419285</text><id>DFX:rectilinearity</id></comment><comment><text>de.gempa.tb1.Pick/20250412140416.462429.124437</text><id>RefPickID</id></comment><comment><text>10.087262464803224</text><id>SNR</id></comment></pick><pick publicID="de.gempa.tb1.Pick/20250412140431.818044.124449"><time><value>2025-04-12T14:04:26.21Z</value></time><waveformID networkCode="CX" stationCode="PB09" channelCode="HHN"/><filterID>ITAPER(2)&gt;&gt;BW(3,3,20)</filterID><methodID>L2-AIC-GRID</methodID><horizontalSlowness><value>19.936971600557253</value></horizontalSlowness><backazimuth><value>330.83613493598023</value></backazimuth><phaseHint>S</phaseHint><evaluationMode>automatic</evaluationMode><comment><text>3447.8379883826715</text><id>DFX:rectilinearity</id></comment><comment><text>de.gempa.tb1.Pick/20250412140418.534193.124439</text><id>RefPickID</id></comment><comment><text>6.757841437719654</text><id>SNR</id></comment></pick><pick publicID="de.gempa.tb1.Pick/20250412140433.790196.124450"><time><value>2025-04-12T14:04:28.588393Z</value></time><waveformID networkCode="CX" stationCode="PB16" channelCode="HHZ"/><filterID>ITAPER(4)&gt;&gt;BW(4,4,20)</filterID><methodID>AIC</methodID><horizontalSlowness><value>9.884313845633795</value></horizontalSlowness><backazimuth><value>166.98523793928322</value></backazimuth><phaseHint>P</phaseHint><evaluationMode>automatic</evaluationMode><comment><text>2.020083404779962</text><id>DFX:rectilinearity</id></comment><comment><text>34.18916537238453</text><id>SNR</id></comment></pick><pick publicID="de.gempa.tb1.Pick/20250412140437.672656.124453"><time><value>2025-04-12T14:04:32.298393Z</value></time><waveformID networkCode="CX" stationCode="PB03" channelCode="HHN"/><filterID>ITAPER(2)&gt;&gt;BW(3,3,20)</filterID><methodID>L2-AIC-GRID</methodID><horizontalSlowness><value>17.914856849549057</value></horizontalSlowness><backazimuth><value>301.2943417621522</value></backazimuth><phaseHint>S</phaseHint><evaluationMode>automatic</evaluationMode><comment><text>294.22922775490895</text><id>DFX:rectilinearity</id></comment><comment><text>de.gempa.tb1.Pick/20250412140419.644288.124443</text><id>RefPickID</id></comment><comment><text>12.838477339424562</text><id>SNR</id></comment></pick><pick publicID="de.gempa.tb1.Pick/20250412140441.623965.124455"><time><value>2025-04-12T14:04:34.24Z</value></time><waveformID networkCode="CX" stationCode="PSGCX" channelCode="HHN"/><filterID>ITAPER(2)&gt;&gt;BW(3,3,20)</filterID><methodID>L2-AIC-GRID</methodID><horizontalSlowness><value>21.715307492476846</value></horizontalSlowness><backazimuth><value>80.65153061414767</value></backazimuth><phaseHint>S</phaseHint><evaluationMode>automatic</evaluationMode><comment><text>192.7360657808511</text><id>DFX:rectilinearity</id></comment><comment><text>de.gempa.tb1.Pick/20250412140419.576189.124441</text><id>RefPickID</id></comment><comment><text>5.854161613800119</text><id>SNR</id></comment></pick><pick publicID="de.gempa.tb1.Pick/20250412140444.869306.124457"><time><value>2025-04-12T14:04:10.968391Z</value></time><waveformID networkCode="CX" stationCode="PB07" channelCode="HHZ"/><filterID>ITAPER(4)&gt;&gt;BW(4,4,20)</filterID><methodID>AIC</methodID><horizontalSlowness><value>21.658302261719605</value></horizontalSlowness><backazimuth><value>73.12220235741685</value></backazimuth><phaseHint>P</phaseHint><evaluationMode>automatic</evaluationMode><comment><text>422.60706414887744</text><id>DFX:rectilinearity</id></comment><comment><text>58.78251615121907</text><id>SNR</id></comment></pick><pick publicID="de.gempa.tb1.Pick/20250412140532.599616.124467"><time><value>2025-04-12T14:04:27.948391Z</value></time><waveformID networkCode="CX" stationCode="PB07" channelCode="HHN"/><filterID>ITAPER(2)&gt;&gt;BW(3,3,20)</filterID><methodID>L2-AIC-GRID</methodID><horizontalSlowness><value>21.66130511272486</value></horizontalSlowness><backazimuth><value>257.28453038624423</value></backazimuth><phaseHint>S</phaseHint><evaluationMode>automatic</evaluationMode><comment><text>6639.77601107254</text><id>DFX:rectilinearity</id></comment><comment><text>de.gempa.tb1.Pick/20250412140444.869306.124457</text><id>RefPickID</id></comment><comment><text>5.030563043748931</text><id>SNR</id></comment></pick><origin publicID="de.gempa.tb1.Origin/20250412140532.602515.84257"><time><value>2025-04-12T14:03:48.904864Z</value><uncertainty>0.6805648803710938</uncertainty></time><latitude><value>-20.780794143676758</value><uncertainty>2.3464367389678955</uncertainty></latitude><longitude><value>-69.22054290771484</value><uncertainty>5.172342777252197</uncertainty></longitude><depth><value>104.7593765258789</value><uncertainty>5.574898719787598</uncertainty></depth><depthType>from location</depthType><methodID>LOCSAT</methodID><earthModelID>iasp91_scanloc</earthModelID><quality><associatedPhaseCount>17</associatedPhaseCount><usedPhaseCount>17</usedPhaseCount><associatedStationCount>9</associatedStationCount><usedStationCount>9</usedStationCount><depthPhaseCount>0</depthPhaseCount><standardError>0.4917599999764462</standardError><azimuthalGap>175.4648003578186</azimuthalGap><maximumDistance>2.4479801654815674</maximumDistance><minimumDistance>0.3611498177051544</minimumDistance><medianDistance>1.0107605457305908</medianDistance></quality><uncertainty><minHorizontalUncertainty>5.014688491821289</minHorizontalUncertainty><maxHorizontalUncertainty>11.095748901367188</maxHorizontalUncertainty><azimuthMaxHorizontalUncertainty>92.29827880859375</azimuthMaxHorizontalUncertainty><preferredDescription>horizontal uncertainty</preferredDescription></uncertainty><evaluationMode>automatic</evaluationMode><evaluationStatus>confirmed</evaluationStatus><comment><text>0.05</text><id>mismatchScore</id></comment><comment><text>mismatchScore</text><id>scevalMethod</id></comment><arrival><pickID>de.gempa.tb1.Pick/20250412140408.81646.124431</pickID><phase>P</phase><azimuth>223.64736938476562</azimuth><distance>0.3611498177051544</distance><timeResidual>-0.4278879165649414</timeResidual><timeUsed>true</timeUsed><horizontalSlownessUsed>false</horizontalSlownessUsed><backazimuthUsed>false</backazimuthUsed><weight>1</weight></arrival><arrival><pickID>de.gempa.tb1.Pick/20250412140413.859165.124433</pickID><phase>P</phase><azimuth>5.661542415618896</azimuth><distance>0.6395354866981506</distance><timeResidual>-0.1397848129272461</timeResidual><timeUsed>true</timeUsed><horizontalSlownessUsed>false</horizontalSlownessUsed><backazimuthUsed>false</backazimuthUsed><weight>1</weight></arrival><arrival><pickID>de.gempa.tb1.Pick/20250412140414.682486.124435</pickID><phase>P</phase><azimuth>229.51817321777344</azimuth><distance>0.8280447721481323</distance><timeResidual>0.06043052673339844</timeResidual><timeUsed>true</timeUsed><horizontalSlownessUsed>false</horizontalSlownessUsed><backazimuthUsed>false</backazimuthUsed><weight>1</weight></arrival><arrival><pickID>de.gempa.tb1.Pick/20250412140416.462429.124437</pickID><phase>P</phase><azimuth>267.2286682128906</azimuth><distance>0.873202919960022</distance><timeResidual>0.1576852798461914</timeResidual><timeUsed>true</timeUsed><horizontalSlownessUsed>false</horizontalSlownessUsed><backazimuthUsed>false</backazimuthUsed><weight>1</weight></arrival><arrival><pickID>de.gempa.tb1.Pick/20250412140418.534193.124439</pickID><phase>P</phase><azimuth>181.1263427734375</azimuth><distance>1.0107605457305908</distance><timeResidual>0.18731021881103516</timeResidual><timeUsed>true</timeUsed><horizontalSlownessUsed>false</horizontalSlownessUsed><backazimuthUsed>false</backazimuthUsed><weight>1</weight></arrival><arrival><pickID>de.gempa.tb1.Pick/20250412140419.576189.124441</pickID><phase>P</phase><azimuth>324.09423828125</azimuth><distance>1.4509588479995728</distance><timeResidual>-0.7160282135009766</timeResidual><timeUsed>true</timeUsed><horizontalSlownessUsed>false</horizontalSlownessUsed><backazimuthUsed>false</backazimuthUsed><weight>1</weight></arrival><arrival><pickID>de.gempa.tb1.Pick/20250412140419.644288.124443</pickID><phase>P</phase><azimuth>201.37783813476562</azimuth><distance>1.3555233478546143</distance><timeResidual>-0.04918766021728516</timeResidual><timeUsed>true</timeUsed><horizontalSlownessUsed>false</horizontalSlownessUsed><backazimuthUsed>false</backazimuthUsed><weight>1</weight></arrival><arrival><pickID>de.gempa.tb1.Pick/20250412140423.777635.124445</pickID><phase>S</phase><azimuth>223.64736938476562</azimuth><distance>0.3611498177051544</distance><timeResidual>-0.28613948822021484</timeResidual><timeUsed>true</timeUsed><horizontalSlownessUsed>false</horizontalSlownessUsed><backazimuthUsed>false</backazimuthUsed><weight>1</weight></arrival><arrival><pickID>de.gempa.tb1.Pick/20250412140427.179011.124446</pickID><phase>S</phase><azimuth>5.661542415618896</azimuth><distance>0.6395354866981506</distance><timeResidual>0.09626102447509766</timeResidual><timeUsed>true</timeUsed><horizontalSlownessUsed>false</horizontalSlownessUsed><backazimuthUsed>false</backazimuthUsed><weight>1</weight></arrival><arrival><pickID>de.gempa.tb1.Pick/20250412140430.653939.124447</pickID><phase>S</phase><azimuth>229.51817321777344</azimuth><distance>0.8280447721481323</distance><timeResidual>0.7748136520385742</timeResidual><timeUsed>true</timeUsed><horizontalSlownessUsed>false</horizontalSlownessUsed><backazimuthUsed>false</backazimuthUsed><weight>1</weight></arrival><arrival><pickID>de.gempa.tb1.Pick/20250412140431.265114.124448</pickID><phase>S</phase><azimuth>267.2286682128906</azimuth><distance>0.873202919960022</distance><timeResidual>0.6750555038452148</timeResidual><timeUsed>true</timeUsed><horizontalSlownessUsed>false</horizontalSlownessUsed><backazimuthUsed>false</backazimuthUsed><weight>1</weight></arrival><arrival><pickID>de.gempa.tb1.Pick/20250412140431.818044.124449</pickID><phase>S</phase><azimuth>181.1263427734375</azimuth><distance>1.0107605457305908</distance><timeResidual>0.25817012786865234</timeResidual><timeUsed>true</timeUsed><horizontalSlownessUsed>false</horizontalSlownessUsed><backazimuthUsed>false</backazimuthUsed><weight>1</weight></arrival><arrival><pickID>de.gempa.tb1.Pick/20250412140433.790196.124450</pickID><phase>P</phase><azimuth>353.60150146484375</azimuth><distance>2.4479801654815674</distance><timeResidual>1.0892782211303711</timeResidual><timeUsed>true</timeUsed><horizontalSlownessUsed>false</horizontalSlownessUsed><backazimuthUsed>false</backazimuthUsed><weight>1</weight></arrival><arrival><pickID>de.gempa.tb1.Pick/20250412140437.672656.124453</pickID><phase>S</phase><azimuth>201.37783813476562</azimuth><distance>1.3555233478546143</distance><timeResidual>-0.5925703048706055</timeResidual><timeUsed>true</timeUsed><horizontalSlownessUsed>false</horizontalSlownessUsed><backazimuthUsed>false</backazimuthUsed><weight>1</weight></arrival><arrival><pickID>de.gempa.tb1.Pick/20250412140441.623965.124455</pickID><phase>S</phase><azimuth>324.09423828125</azimuth><distance>1.4509588479995728</distance><timeResidual>-0.7011270523071289</timeResidual><timeUsed>true</timeUsed><horizontalSlownessUsed>false</horizontalSlownessUsed><backazimuthUsed>false</backazimuthUsed><weight>1</weight></arrival><arrival><pickID>de.gempa.tb1.Pick/20250412140444.869306.124457</pickID><phase>P</phase><azimuth>213.29347229003906</azimuth><distance>1.1275439262390137</distance><timeResidual>-0.11494731903076172</timeResidual><timeUsed>true</timeUsed><horizontalSlownessUsed>false</horizontalSlownessUsed><backazimuthUsed>false</backazimuthUsed><weight>1</weight></arrival><arrival><pickID>de.gempa.tb1.Pick/20250412140532.599616.124467</pickID><phase>S</phase><azimuth>213.29347229003906</azimuth><distance>1.1275439262390137</distance><timeResidual>-0.2709989547729492</timeResidual><timeUsed>true</timeUsed><horizontalSlownessUsed>false</horizontalSlownessUsed><backazimuthUsed>false</backazimuthUsed><weight>1</weight></arrival><magnitude publicID="de.gempa.tb1.Magnitude/20250412140532.611278.236233"><magnitude><value>2.284435862684022</value></magnitude><type>M</type><methodID>weighted average</methodID><stationCount>5</stationCount></magnitude></origin><event publicID="gempa2025hfqj"><preferredOriginID>de.gempa.tb1.Origin/20250412140532.602515.84257</preferredOriginID><preferredMagnitudeID>de.gempa.tb1.Magnitude/20250412140532.611278.236233</preferredMagnitudeID><description><text>Northern Chile</text><type>region name</type></description><originReference>de.gempa.tb1.Origin/20250412140532.602515.84257</originReference></event></EventParameters></seiscomp>