<?xml version="1.0" encoding="UTF-8"?>
<seiscomp xmlns="http://geofon.gfz-potsdam.de/ns/seiscomp3-schema/0.13" version="0.13"><EventParameters><pick publicID="de.gempa.tb1.Pick/20250413153101.724884.132102"><time><value>2025-04-13T15:30:56.108393Z</value></time><waveformID networkCode="CX" stationCode="PB06" channelCode="HHZ"/><filterID>ITAPER(4)&gt;&gt;BW(4,4,20)</filterID><methodID>AIC</methodID><horizontalSlowness><value>12.662429878962882</value></horizontalSlowness><backazimuth><value>294.2170003555476</value></backazimuth><phaseHint>P</phaseHint><evaluationMode>automatic</evaluationMode><comment><text>69.98759969622816</text><id>DFX:rectilinearity</id></comment><comment><text>94.29598588938728</text><id>SNR</id></comment></pick><pick publicID="de.gempa.tb1.Pick/20250413153102.803227.132104"><time><value>2025-04-13T15:30:58.298393Z</value></time><waveformID networkCode="CX" stationCode="PB15" channelCode="HHZ"/><filterID>ITAPER(4)&gt;&gt;BW(4,4,20)</filterID><methodID>AIC</methodID><horizontalSlowness><value>23.488041614633925</value></horizontalSlowness><backazimuth><value>2.906351879033508</value></backazimuth><phaseHint>P</phaseHint><evaluationMode>automatic</evaluationMode><comment><text>336.50497034760247</text><id>DFX:rectilinearity</id></comment><comment><text>22.32744552029489</text><id>SNR</id></comment></pick><pick publicID="de.gempa.tb1.Pick/20250413153107.497178.132106"><time><value>2025-04-13T15:31:02.298393Z</value></time><waveformID networkCode="CX" stationCode="PB03" channelCode="HHZ"/><filterID>ITAPER(4)&gt;&gt;BW(4,4,20)</filterID><methodID>AIC</methodID><horizontalSlowness><value>10.231986698528456</value></horizontalSlowness><backazimuth><value>192.79265823261534</value></backazimuth><phaseHint>P</phaseHint><evaluationMode>automatic</evaluationMode><comment><text>45.3791605002589</text><id>DFX:rectilinearity</id></comment><comment><text>40.223915908641565</text><id>SNR</id></comment></pick><pick publicID="de.gempa.tb1.Pick/20250413153108.714561.132108"><time><value>2025-04-13T15:31:02.548393Z</value></time><waveformID networkCode="CX" stationCode="PB06" channelCode="HHN"/><filterID>ITAPER(2)&gt;&gt;BW(3,3,20)</filterID><methodID>L2-AIC-GRID</methodID><horizontalSlowness><value>17.649778432686027</value></horizontalSlowness><backazimuth><value>8.421440228483249</value></backazimuth><phaseHint>S</phaseHint><evaluationMode>automatic</evaluationMode><comment><text>1059.7850307909068</text><id>DFX:rectilinearity</id></comment><comment><text>de.gempa.tb1.Pick/20250413153101.724884.132102</text><id>RefPickID</id></comment><comment><text>7.744345800677633</text><id>SNR</id></comment></pick><pick publicID="de.gempa.tb1.Pick/20250413153112.52118.132109"><time><value>2025-04-13T15:31:06.188393Z</value></time><waveformID networkCode="CX" stationCode="PB15" channelCode="HHN"/><filterID>ITAPER(2)&gt;&gt;BW(3,3,20)</filterID><methodID>L2-AIC-GRID</methodID><horizontalSlowness><value>20.789606562476639</value></horizontalSlowness><backazimuth><value>98.73767801588288</value></backazimuth><phaseHint>S</phaseHint><evaluationMode>automatic</evaluationMode><comment><text>65575.08056920147</text><id>DFX:rectilinearity</id></comment><comment><text>de.gempa.tb1.Pick/20250413153102.803227.132104</text><id>RefPickID</id></comment><comment><text>12.93763679718934</text><id>SNR</id></comment></pick><pick publicID="de.gempa.tb1.Pick/20250413153115.544523.132110"><time><value>2025-04-13T15:31:08.38Z</value></time><waveformID networkCode="CX" stationCode="PB19" channelCode="HHZ"/><filterID>ITAPER(4)&gt;&gt;BW(4,4,20)</filterID><methodID>AIC</methodID><horizontalSlowness><value>8.561235700417901</value></horizontalSlowness><backazimuth><value>15.757433434743405</value></backazimuth><phaseHint>P</phaseHint><evaluationMode>automatic</evaluationMode><comment><text>35.639057361289773</text><id>DFX:rectilinearity</id></comment><comment><text>33.32023760673849</text><id>SNR</id></comment></pick><pick publicID="de.gempa.tb1.Pick/20250413153118.423733.132112"><time><value>2025-04-13T15:31:09.0000Z</value></time><waveformID networkCode="CX" stationCode="PB09" channelCode="HHZ"/><filterID>ITAPER(4)&gt;&gt;BW(4,4,20)</filterID><methodID>AIC</methodID><horizontalSlowness><value>11.287583783966436</value></horizontalSlowness><backazimuth><value>230.70010730713827</value></backazimuth><phaseHint>P</phaseHint><evaluationMode>automatic</evaluationMode><comment><text>13.147227803334737</text><id>DFX:rectilinearity</id></comment><comment><text>41.498321313375826</text><id>SNR</id></comment></pick><origin publicID="de.gempa.tb1.Origin/20250413153118.577323.113477"><time><value>2025-04-13T15:30:46.295044Z</value><uncertainty>1.2130945920944214</uncertainty></time><latitude><value>-22.884790420532227</value><uncertainty>3.8745977878570557</uncertainty></latitude><longitude><value>-70.02152252197266</value><uncertainty>7.975908279418945</uncertainty></longitude><depth><value>21.21532440185547</value><uncertainty>10.762694358825684</uncertainty></depth><depthType>from location</depthType><methodID>LOCSAT</methodID><earthModelID>iasp91_scanloc</earthModelID><quality><associatedPhaseCount>7</associatedPhaseCount><usedPhaseCount>7</usedPhaseCount><associatedStationCount>5</associatedStationCount><usedStationCount>5</usedStationCount><depthPhaseCount>0</depthPhaseCount><standardError>0.3673334491101632</standardError><azimuthalGap>229.99757385253906</azimuthalGap><maximumDistance>1.3016513586044312</maximumDistance><minimumDistance>0.4515684545040131</minimumDistance><medianDistance>0.6007810235023499</medianDistance></quality><uncertainty><minHorizontalUncertainty>7.258543014526367</minHorizontalUncertainty><maxHorizontalUncertainty>17.576547622680664</maxHorizontalUncertainty><azimuthMaxHorizontalUncertainty>75.3648452758789</azimuthMaxHorizontalUncertainty><preferredDescription>horizontal uncertainty</preferredDescription></uncertainty><evaluationMode>automatic</evaluationMode><evaluationStatus>confirmed</evaluationStatus><comment><text>0.11</text><id>mismatchScore</id></comment><comment><text>mismatchScore</text><id>scevalMethod</id></comment><arrival><pickID>de.gempa.tb1.Pick/20250413153101.724884.132102</pickID><phase>P</phase><azimuth>66.85110473632812</azimuth><distance>0.4515684545040131</distance><timeResidual>0.5080051422119141</timeResidual><timeUsed>true</timeUsed><horizontalSlownessUsed>false</horizontalSlownessUsed><backazimuthUsed>false</backazimuthUsed><weight>1</weight></arrival><arrival><pickID>de.gempa.tb1.Pick/20250413153102.803227.132104</pickID><phase>P</phase><azimuth>122.52081298828125</azimuth><distance>0.6007810235023499</distance><timeResidual>0.17282676696777344</timeResidual><timeUsed>true</timeUsed><horizontalSlownessUsed>false</horizontalSlownessUsed><backazimuthUsed>false</backazimuthUsed><weight>1</weight></arrival><arrival><pickID>de.gempa.tb1.Pick/20250413153107.497178.132106</pickID><phase>P</phase><azimuth>16.661376953125</azimuth><distance>0.8685880899429321</distance><timeResidual>-0.39501380920410156</timeResidual><timeUsed>true</timeUsed><horizontalSlownessUsed>false</horizontalSlownessUsed><backazimuthUsed>false</backazimuthUsed><weight>1</weight></arrival><arrival><pickID>de.gempa.tb1.Pick/20250413153108.714561.132108</pickID><phase>S</phase><azimuth>66.85110473632812</azimuth><distance>0.4515684545040131</distance><timeResidual>0.17742347717285156</timeResidual><timeUsed>true</timeUsed><horizontalSlownessUsed>false</horizontalSlownessUsed><backazimuthUsed>false</backazimuthUsed><weight>1</weight></arrival><arrival><pickID>de.gempa.tb1.Pick/20250413153112.52118.132109</pickID><phase>S</phase><azimuth>122.52081298828125</azimuth><distance>0.6007810235023499</distance><timeResidual>-0.5609264373779297</timeResidual><timeUsed>true</timeUsed><horizontalSlownessUsed>false</horizontalSlownessUsed><backazimuthUsed>false</backazimuthUsed><weight>1</weight></arrival><arrival><pickID>de.gempa.tb1.Pick/20250413153115.544523.132110</pickID><phase>P</phase><azimuth>146.66380310058594</azimuth><distance>1.2172569036483765</distance><timeResidual>0.32227516174316406</timeResidual><timeUsed>true</timeUsed><horizontalSlownessUsed>false</horizontalSlownessUsed><backazimuthUsed>false</backazimuthUsed><weight>1</weight></arrival><arrival><pickID>de.gempa.tb1.Pick/20250413153118.423733.132112</pickID><phase>P</phase><azimuth>33.824981689453125</azimuth><distance>1.3016513586044312</distance><timeResidual>-0.22490882873535156</timeResidual><timeUsed>true</timeUsed><horizontalSlownessUsed>false</horizontalSlownessUsed><backazimuthUsed>false</backazimuthUsed><weight>1</weight></arrival><magnitude publicID="de.gempa.tb1.Magnitude/20250413153120.936316.373438"><magnitude><value>2.432046317862997</value></magnitude><type>M</type><methodID>weighted average</methodID><stationCount>5</stationCount></magnitude></origin><event publicID="gempa2025hhpg"><preferredOriginID>de.gempa.tb1.Origin/20250413153118.577323.113477</preferredOriginID><preferredMagnitudeID>de.gempa.tb1.Magnitude/20250413153120.936316.373438</preferredMagnitudeID><description><text>Near Coast of Northern Chile</text><type>region name</type></description><originReference>de.gempa.tb1.Origin/20250413153118.577323.113477</originReference></event></EventParameters></seiscomp>