<?xml version="1.0" encoding="UTF-8"?>
<seiscomp xmlns="http://geofon.gfz-potsdam.de/ns/seiscomp3-schema/0.13" version="0.13"><EventParameters><pick publicID="de.gempa.tb1.Pick/20250412141645.547879.124514"><time><value>2025-04-12T14:16:37.458394Z</value></time><waveformID networkCode="CX" stationCode="PB01" channelCode="HHZ"/><filterID>ITAPER(4)&gt;&gt;BW(4,4,20)</filterID><methodID>AIC</methodID><horizontalSlowness><value>22.240198951391523</value></horizontalSlowness><backazimuth><value>308.87399342388176</value></backazimuth><phaseHint>P</phaseHint><evaluationMode>automatic</evaluationMode><comment><text>15.62584195905396</text><id>DFX:rectilinearity</id></comment><comment><text>27.19183580421218</text><id>SNR</id></comment></pick><pick publicID="de.gempa.tb1.Pick/20250412141647.588357.124516"><time><value>2025-04-12T14:16:41.978393Z</value></time><waveformID networkCode="CX" stationCode="PB02" channelCode="HHZ"/><filterID>ITAPER(4)&gt;&gt;BW(4,4,20)</filterID><methodID>AIC</methodID><horizontalSlowness><value>10.298234276637167</value></horizontalSlowness><backazimuth><value>54.59169763911315</value></backazimuth><phaseHint>P</phaseHint><evaluationMode>automatic</evaluationMode><comment><text>59.1920296679469</text><id>DFX:rectilinearity</id></comment><comment><text>19.949614152784754</text><id>SNR</id></comment></pick><pick publicID="de.gempa.tb1.Pick/20250412141648.534087.124518"><time><value>2025-04-12T14:16:41.269999Z</value></time><waveformID networkCode="CX" stationCode="PATCX" channelCode="HHZ"/><filterID>ITAPER(4)&gt;&gt;BW(4,4,20)</filterID><methodID>AIC</methodID><horizontalSlowness><value>22.632442054777783</value></horizontalSlowness><backazimuth><value>64.16676111102436</value></backazimuth><phaseHint>P</phaseHint><evaluationMode>automatic</evaluationMode><comment><text>194.15859571842122</text><id>DFX:rectilinearity</id></comment><comment><text>6.49305462631316</text><id>SNR</id></comment></pick><pick publicID="de.gempa.tb1.Pick/20250412141649.540219.124520"><time><value>2025-04-12T14:16:44.71Z</value></time><waveformID networkCode="CX" stationCode="PSGCX" channelCode="HHZ"/><filterID>ITAPER(4)&gt;&gt;BW(4,4,20)</filterID><methodID>AIC</methodID><horizontalSlowness><value>21.855348596005033</value></horizontalSlowness><backazimuth><value>244.91731469674107</value></backazimuth><phaseHint>P</phaseHint><evaluationMode>automatic</evaluationMode><comment><text>9.567206886621705</text><id>DFX:rectilinearity</id></comment><comment><text>12.249522529352246</text><id>SNR</id></comment></pick><pick publicID="de.gempa.tb1.Pick/20250412141655.660165.124522"><time><value>2025-04-12T14:16:45.118391Z</value></time><waveformID networkCode="CX" stationCode="PB07" channelCode="HHZ"/><filterID>ITAPER(4)&gt;&gt;BW(4,4,20)</filterID><methodID>AIC</methodID><horizontalSlowness><value>22.58171163717673</value></horizontalSlowness><backazimuth><value>295.8832672264122</value></backazimuth><phaseHint>P</phaseHint><evaluationMode>automatic</evaluationMode><comment><text>243.70577688843684</text><id>DFX:rectilinearity</id></comment><comment><text>9.22162869639021</text><id>SNR</id></comment></pick><pick publicID="de.gempa.tb1.Pick/20250412141657.664831.124524"><time><value>2025-04-12T14:16:50.248393Z</value></time><waveformID networkCode="CX" stationCode="PB08" channelCode="HHN"/><filterID>ITAPER(2)&gt;&gt;BW(3,3,20)</filterID><methodID>L2-AIC-GRID</methodID><horizontalSlowness><value>15.857078637593826</value></horizontalSlowness><backazimuth><value>203.66838904852506</value></backazimuth><phaseHint>S</phaseHint><evaluationMode>automatic</evaluationMode><comment><text>109.50296218463023</text><id>DFX:rectilinearity</id></comment><comment><text>de.gempa.tb1.Pick/20250412141639.223182.124512</text><id>RefPickID</id></comment><comment><text>10.55466073108421</text><id>SNR</id></comment></pick><pick publicID="de.gempa.tb1.Pick/20250412141657.790078.124525"><time><value>2025-04-12T14:16:50.428394Z</value></time><waveformID networkCode="CX" stationCode="PB01" channelCode="HHN"/><filterID>ITAPER(2)&gt;&gt;BW(3,3,20)</filterID><methodID>L2-AIC-GRID</methodID><horizontalSlowness><value>20.839450651339536</value></horizontalSlowness><backazimuth><value>47.18612591784739</value></backazimuth><phaseHint>S</phaseHint><evaluationMode>automatic</evaluationMode><comment><text>81.17191737427328</text><id>DFX:rectilinearity</id></comment><comment><text>de.gempa.tb1.Pick/20250412141645.547879.124514</text><id>RefPickID</id></comment><comment><text>11.01546986834131</text><id>SNR</id></comment></pick><pick publicID="de.gempa.tb1.Pick/20250412141704.527417.124528"><time><value>2025-04-12T14:16:57.738393Z</value></time><waveformID networkCode="CX" stationCode="PB02" channelCode="HHN"/><filterID>ITAPER(2)&gt;&gt;BW(3,3,20)</filterID><methodID>L2-AIC-GRID</methodID><horizontalSlowness><value>19.851326326187817</value></horizontalSlowness><backazimuth><value>185.58968966359814</value></backazimuth><phaseHint>S</phaseHint><evaluationMode>automatic</evaluationMode><comment><text>267.4964110891381</text><id>DFX:rectilinearity</id></comment><comment><text>de.gempa.tb1.Pick/20250412141647.588357.124516</text><id>RefPickID</id></comment><comment><text>6.40633643249457</text><id>SNR</id></comment></pick><pick publicID="de.gempa.tb1.Pick/20250412141711.575769.124530"><time><value>2025-04-12T14:17:03.41Z</value></time><waveformID networkCode="CX" stationCode="PSGCX" channelCode="HHN"/><filterID>ITAPER(2)&gt;&gt;BW(3,3,20)</filterID><methodID>L2-AIC-GRID</methodID><horizontalSlowness><value>23.0616530254804</value></horizontalSlowness><backazimuth><value>271.7368579222964</value></backazimuth><phaseHint>S</phaseHint><evaluationMode>automatic</evaluationMode><comment><text>15.5383846184412</text><id>DFX:rectilinearity</id></comment><comment><text>de.gempa.tb1.Pick/20250412141649.540219.124520</text><id>RefPickID</id></comment><comment><text>6.434802179979727</text><id>SNR</id></comment></pick><pick publicID="de.gempa.tb1.Pick/20250412141735.775837.124536"><time><value>2025-04-12T14:17:03.198391Z</value></time><waveformID networkCode="CX" stationCode="PB07" channelCode="HHN"/><filterID>ITAPER(2)&gt;&gt;BW(3,3,20)</filterID><methodID>L2-AIC-GRID</methodID><horizontalSlowness><value>22.768457376468113</value></horizontalSlowness><backazimuth><value>275.13581395689897</value></backazimuth><phaseHint>S</phaseHint><evaluationMode>automatic</evaluationMode><comment><text>219.89591127115466</text><id>DFX:rectilinearity</id></comment><comment><text>de.gempa.tb1.Pick/20250412141655.660165.124522</text><id>RefPickID</id></comment><comment><text>5.176306628616789</text><id>SNR</id></comment></pick><origin publicID="de.gempa.tb1.Origin/20250412141735.951618.84531"><time><value>2025-04-12T14:16:21.032134Z</value><uncertainty>1.234523892402649</uncertainty></time><latitude><value>-20.581789016723633</value><uncertainty>3.197089672088623</uncertainty></latitude><longitude><value>-69.27213287353516</value><uncertainty>8.685832977294922</uncertainty></longitude><depth><value>108.55762481689453</value><uncertainty>7.423101425170898</uncertainty></depth><depthType>from location</depthType><methodID>LOCSAT</methodID><earthModelID>iasp91_scanloc</earthModelID><quality><associatedPhaseCount>10</associatedPhaseCount><usedPhaseCount>10</usedPhaseCount><associatedStationCount>6</associatedStationCount><usedStationCount>6</usedStationCount><depthPhaseCount>0</depthPhaseCount><standardError>0.3741598768882119</standardError><azimuthalGap>189.36773872375488</azimuthalGap><maximumDistance>1.275252103805542</maximumDistance><minimumDistance>0.452359527349472</minimumDistance><medianDistance>0.9376459717750549</medianDistance></quality><uncertainty><minHorizontalUncertainty>6.808167934417725</minHorizontalUncertainty><maxHorizontalUncertainty>18.642332077026367</maxHorizontalUncertainty><azimuthMaxHorizontalUncertainty>92.65595245361328</azimuthMaxHorizontalUncertainty><preferredDescription>horizontal uncertainty</preferredDescription></uncertainty><evaluationMode>automatic</evaluationMode><evaluationStatus>confirmed</evaluationStatus><comment><text>0.00</text><id>mismatchScore</id></comment><comment><text>mismatchScore</text><id>scevalMethod</id></comment><arrival><pickID>de.gempa.tb1.Pick/20250412141645.547879.124514</pickID><phase>P</phase><azimuth>203.64581298828125</azimuth><distance>0.5013505816459656</distance><timeResidual>-0.2931232452392578</timeResidual><timeUsed>true</timeUsed><horizontalSlownessUsed>false</horizontalSlownessUsed><backazimuthUsed>false</backazimuthUsed><weight>1</weight></arrival><arrival><pickID>de.gempa.tb1.Pick/20250412141647.588357.124516</pickID><phase>P</phase><azimuth>218.34616088867188</azimuth><distance>0.9376459717750549</distance><timeResidual>0.4763545989990234</timeResidual><timeUsed>true</timeUsed><horizontalSlownessUsed>false</horizontalSlownessUsed><backazimuthUsed>false</backazimuthUsed><weight>1</weight></arrival><arrival><pickID>de.gempa.tb1.Pick/20250412141648.534087.124518</pickID><phase>P</phase><azimuth>253.76365661621094</azimuth><distance>0.858148992061615</distance><timeResidual>0.5486869812011719</timeResidual><timeUsed>true</timeUsed><horizontalSlownessUsed>false</horizontalSlownessUsed><backazimuthUsed>false</backazimuthUsed><weight>1</weight></arrival><arrival><pickID>de.gempa.tb1.Pick/20250412141649.540219.124520</pickID><phase>P</phase><azimuth>320.6238708496094</azimuth><distance>1.2645827531814575</distance><timeResidual>-0.3276691436767578</timeResidual><timeUsed>true</timeUsed><horizontalSlownessUsed>false</horizontalSlownessUsed><backazimuthUsed>false</backazimuthUsed><weight>1</weight></arrival><arrival><pickID>de.gempa.tb1.Pick/20250412141655.660165.124522</pickID><phase>P</phase><azimuth>206.59877014160156</azimuth><distance>1.275252103805542</distance><timeResidual>-0.030385971069335941</timeResidual><timeUsed>true</timeUsed><horizontalSlownessUsed>false</horizontalSlownessUsed><backazimuthUsed>false</backazimuthUsed><weight>1</weight></arrival><arrival><pickID>de.gempa.tb1.Pick/20250412141657.664831.124524</pickID><phase>S</phase><azimuth>14.278074264526367</azimuth><distance>0.452359527349472</distance><timeResidual>0.18848800659179688</timeResidual><timeUsed>true</timeUsed><horizontalSlownessUsed>false</horizontalSlownessUsed><backazimuthUsed>false</backazimuthUsed><weight>1</weight></arrival><arrival><pickID>de.gempa.tb1.Pick/20250412141657.790078.124525</pickID><phase>S</phase><azimuth>203.64581298828125</azimuth><distance>0.5013505816459656</distance><timeResidual>-0.1901111602783203</timeResidual><timeUsed>true</timeUsed><horizontalSlownessUsed>false</horizontalSlownessUsed><backazimuthUsed>false</backazimuthUsed><weight>1</weight></arrival><arrival><pickID>de.gempa.tb1.Pick/20250412141704.527417.124528</pickID><phase>S</phase><azimuth>218.34616088867188</azimuth><distance>0.9376459717750549</distance><timeResidual>0.43846702575683594</timeResidual><timeUsed>true</timeUsed><horizontalSlownessUsed>false</horizontalSlownessUsed><backazimuthUsed>false</backazimuthUsed><weight>1</weight></arrival><arrival><pickID>de.gempa.tb1.Pick/20250412141711.575769.124530</pickID><phase>S</phase><azimuth>320.6238708496094</azimuth><distance>1.2645827531814575</distance><timeResidual>-0.19907569885253906</timeResidual><timeUsed>true</timeUsed><horizontalSlownessUsed>false</horizontalSlownessUsed><backazimuthUsed>false</backazimuthUsed><weight>1</weight></arrival><arrival><pickID>de.gempa.tb1.Pick/20250412141735.775837.124536</pickID><phase>S</phase><azimuth>206.59877014160156</azimuth><distance>1.275252103805542</distance><timeResidual>-0.611734390258789</timeResidual><timeUsed>true</timeUsed><horizontalSlownessUsed>false</horizontalSlownessUsed><backazimuthUsed>false</backazimuthUsed><weight>1</weight></arrival><magnitude publicID="de.gempa.tb1.Magnitude/20250412141758.61065.237771"><magnitude><value>2.3356542009638486</value></magnitude><type>M</type><methodID>weighted average</methodID><stationCount>2</stationCount></magnitude></origin><event publicID="gempa2025hfqt"><preferredOriginID>de.gempa.tb1.Origin/20250412141735.951618.84531</preferredOriginID><preferredMagnitudeID>de.gempa.tb1.Magnitude/20250412141758.61065.237771</preferredMagnitudeID><description><text>Northern Chile</text><type>region name</type></description><originReference>de.gempa.tb1.Origin/20250412141735.951618.84531</originReference></event></EventParameters></seiscomp>