<?xml version="1.0" encoding="UTF-8"?>
<seiscomp xmlns="http://geofon.gfz-potsdam.de/ns/seiscomp3-schema/0.13" version="0.13"><EventParameters><pick publicID="de.gempa.tb1.Pick/20250414142046.528772.138525"><time><value>2025-04-14T14:20:38.898393Z</value></time><waveformID networkCode="CX" stationCode="PB08" channelCode="HHZ"/><filterID>ITAPER(4)&gt;&gt;BW(4,4,20)</filterID><methodID>AIC</methodID><horizontalSlowness><value>14.800638168117123</value></horizontalSlowness><backazimuth><value>87.24401837023056</value></backazimuth><phaseHint>P</phaseHint><evaluationMode>automatic</evaluationMode><comment><text>4.4453586064626123</text><id>DFX:rectilinearity</id></comment><comment><text>6.120446443314136</text><id>SNR</id></comment></pick><pick publicID="de.gempa.tb1.Pick/20250414142048.768359.138527"><time><value>2025-04-14T14:20:41.678393Z</value></time><waveformID networkCode="CX" stationCode="PB01" channelCode="HHZ"/><filterID>ITAPER(4)&gt;&gt;BW(4,4,20)</filterID><methodID>AIC</methodID><horizontalSlowness><value>16.510348132093533</value></horizontalSlowness><backazimuth><value>29.9614026187202</value></backazimuth><phaseHint>P</phaseHint><evaluationMode>automatic</evaluationMode><comment><text>14.05653342212973</text><id>DFX:rectilinearity</id></comment><comment><text>34.795152829789913</text><id>SNR</id></comment></pick><pick publicID="de.gempa.tb1.Pick/20250414142054.726329.138529"><time><value>2025-04-14T14:20:48.5Z</value></time><waveformID networkCode="CX" stationCode="PSGCX" channelCode="HHZ"/><filterID>ITAPER(4)&gt;&gt;BW(4,4,20)</filterID><methodID>AIC</methodID><horizontalSlowness><value>14.935761668698543</value></horizontalSlowness><backazimuth><value>114.38769154579593</value></backazimuth><phaseHint>P</phaseHint><evaluationMode>automatic</evaluationMode><comment><text>9.830853973347724</text><id>DFX:rectilinearity</id></comment><comment><text>15.453405252026082</text><id>SNR</id></comment></pick><pick publicID="de.gempa.tb1.Pick/20250414142055.490904.138531"><time><value>2025-04-14T14:20:47.518393Z</value></time><waveformID networkCode="CX" stationCode="PB02" channelCode="HHZ"/><filterID>ITAPER(4)&gt;&gt;BW(4,4,20)</filterID><methodID>AIC</methodID><horizontalSlowness><value>20.568127763860286</value></horizontalSlowness><backazimuth><value>72.76066697002271</value></backazimuth><phaseHint>P</phaseHint><evaluationMode>automatic</evaluationMode><comment><text>17.862236997224784</text><id>DFX:rectilinearity</id></comment><comment><text>16.459572999019528</text><id>SNR</id></comment></pick><pick publicID="de.gempa.tb1.Pick/20250414142101.543987.138536"><time><value>2025-04-14T14:20:54.038394Z</value></time><waveformID networkCode="CX" stationCode="PB03" channelCode="HHZ"/><filterID>ITAPER(4)&gt;&gt;BW(4,4,20)</filterID><methodID>AIC</methodID><horizontalSlowness><value>6.456000839012193</value></horizontalSlowness><backazimuth><value>192.4059108006282</value></backazimuth><phaseHint>P</phaseHint><evaluationMode>automatic</evaluationMode><comment><text>4.736454626058435</text><id>DFX:rectilinearity</id></comment><comment><text>7.479723466007733</text><id>SNR</id></comment></pick><pick publicID="de.gempa.tb1.Pick/20250414142102.65429.138538"><time><value>2025-04-14T14:20:56.268393Z</value></time><waveformID networkCode="CX" stationCode="PB01" channelCode="HHN"/><filterID>ITAPER(2)&gt;&gt;BW(3,3,20)</filterID><methodID>L2-AIC-GRID</methodID><horizontalSlowness><value>23.129752278101183</value></horizontalSlowness><backazimuth><value>203.69740567655165</value></backazimuth><phaseHint>S</phaseHint><evaluationMode>automatic</evaluationMode><comment><text>470.6270786220563</text><id>DFX:rectilinearity</id></comment><comment><text>de.gempa.tb1.Pick/20250414142048.768359.138527</text><id>RefPickID</id></comment><comment><text>12.602314017286947</text><id>SNR</id></comment></pick><pick publicID="de.gempa.tb1.Pick/20250414142105.083806.138539"><time><value>2025-04-14T14:20:49.19Z</value></time><waveformID networkCode="CX" stationCode="PB09" channelCode="HHZ"/><filterID>ITAPER(4)&gt;&gt;BW(4,4,20)</filterID><methodID>AIC</methodID><horizontalSlowness><value>14.753486962454287</value></horizontalSlowness><backazimuth><value>298.325116880279</value></backazimuth><phaseHint>P</phaseHint><evaluationMode>automatic</evaluationMode><comment><text>7.635196555334924</text><id>DFX:rectilinearity</id></comment><comment><text>10.227331949392239</text><id>SNR</id></comment></pick><pick publicID="de.gempa.tb1.Pick/20250414142108.073977.138541"><time><value>2025-04-14T14:20:50.668396Z</value></time><waveformID networkCode="CX" stationCode="PB07" channelCode="HHZ"/><filterID>ITAPER(4)&gt;&gt;BW(4,4,20)</filterID><methodID>AIC</methodID><horizontalSlowness><value>22.772529870815145</value></horizontalSlowness><backazimuth><value>93.70212278658586</value></backazimuth><phaseHint>P</phaseHint><evaluationMode>automatic</evaluationMode><comment><text>138.37610610984947</text><id>DFX:rectilinearity</id></comment><comment><text>12.022316725211315</text><id>SNR</id></comment></pick><pick publicID="de.gempa.tb1.Pick/20250414142113.513967.138543"><time><value>2025-04-14T14:21:06.078393Z</value></time><waveformID networkCode="CX" stationCode="PB02" channelCode="HHN"/><filterID>ITAPER(2)&gt;&gt;BW(3,3,20)</filterID><methodID>L2-AIC-GRID</methodID><horizontalSlowness><value>20.950677540699516</value></horizontalSlowness><backazimuth><value>248.25527660257015</value></backazimuth><phaseHint>S</phaseHint><evaluationMode>automatic</evaluationMode><comment><text>522.4574247688554</text><id>DFX:rectilinearity</id></comment><comment><text>de.gempa.tb1.Pick/20250414142055.490904.138531</text><id>RefPickID</id></comment><comment><text>5.774081065659961</text><id>SNR</id></comment></pick><pick publicID="de.gempa.tb1.Pick/20250414142115.582832.138546"><time><value>2025-04-14T14:21:08.26Z</value></time><waveformID networkCode="CX" stationCode="PSGCX" channelCode="HHN"/><filterID>ITAPER(2)&gt;&gt;BW(3,3,20)</filterID><methodID>L2-AIC-GRID</methodID><horizontalSlowness><value>20.64884400315993</value></horizontalSlowness><backazimuth><value>136.03906204731882</value></backazimuth><phaseHint>S</phaseHint><evaluationMode>automatic</evaluationMode><comment><text>17.533324019796591</text><id>DFX:rectilinearity</id></comment><comment><text>de.gempa.tb1.Pick/20250414142054.726329.138529</text><id>RefPickID</id></comment><comment><text>6.08891166347465</text><id>SNR</id></comment></pick><pick publicID="de.gempa.tb1.Pick/20250414142123.68387.138548"><time><value>2025-04-14T14:21:15.788394Z</value></time><waveformID networkCode="CX" stationCode="PB03" channelCode="HHN"/><filterID>ITAPER(2)&gt;&gt;BW(3,3,20)</filterID><methodID>L2-AIC-GRID</methodID><horizontalSlowness><value>8.446849171132563</value></horizontalSlowness><backazimuth><value>268.420153875206</value></backazimuth><phaseHint>S</phaseHint><evaluationMode>automatic</evaluationMode><comment><text>9.944371150718423</text><id>DFX:rectilinearity</id></comment><comment><text>de.gempa.tb1.Pick/20250414142101.543987.138536</text><id>RefPickID</id></comment><comment><text>5.593930551828807</text><id>SNR</id></comment></pick><origin publicID="de.gempa.tb1.Origin/20250414142124.526677.140578"><time><value>2025-04-14T14:20:23.824339Z</value><uncertainty>0.9408897757530212</uncertainty></time><latitude><value>-20.435518264770508</value><uncertainty>3.4506921768188477</uncertainty></latitude><longitude><value>-68.93324279785156</value><uncertainty>8.700788497924805</uncertainty></longitude><depth><value>100.82320404052734</value><uncertainty>10.082056999206543</uncertainty></depth><depthType>from location</depthType><methodID>LOCSAT</methodID><earthModelID>iasp91_scanloc</earthModelID><quality><associatedPhaseCount>11</associatedPhaseCount><usedPhaseCount>11</usedPhaseCount><associatedStationCount>7</associatedStationCount><usedStationCount>7</usedStationCount><depthPhaseCount>0</depthPhaseCount><standardError>0.4687132379187147</standardError><azimuthalGap>227.2042999267578</azimuthalGap><maximumDistance>1.7778671979904175</maximumDistance><minimumDistance>0.3584648370742798</minimumDistance><medianDistance>1.384424328804016</medianDistance></quality><uncertainty><minHorizontalUncertainty>7.201669216156006</minHorizontalUncertainty><maxHorizontalUncertainty>18.73423957824707</maxHorizontalUncertainty><azimuthMaxHorizontalUncertainty>84.36319732666016</azimuthMaxHorizontalUncertainty><preferredDescription>horizontal uncertainty</preferredDescription></uncertainty><evaluationMode>automatic</evaluationMode><evaluationStatus>confirmed</evaluationStatus><comment><text>0.11</text><id>mismatchScore</id></comment><comment><text>mismatchScore</text><id>scevalMethod</id></comment><arrival><pickID>de.gempa.tb1.Pick/20250414142046.528772.138525</pickID><phase>P</phase><azimuth>324.75604248046875</azimuth><distance>0.3584648370742798</distance><timeResidual>0.10136985778808594</timeResidual><timeUsed>true</timeUsed><horizontalSlownessUsed>false</horizontalSlownessUsed><backazimuthUsed>false</backazimuthUsed><weight>1</weight></arrival><arrival><pickID>de.gempa.tb1.Pick/20250414142048.768359.138527</pickID><phase>P</phase><azimuth>220.52610778808594</azimuth><distance>0.7966379523277283</distance><timeResidual>-0.5347766876220703</timeResidual><timeUsed>true</timeUsed><horizontalSlownessUsed>false</horizontalSlownessUsed><backazimuthUsed>false</backazimuthUsed><weight>1</weight></arrival><arrival><pickID>de.gempa.tb1.Pick/20250414142054.726329.138529</pickID><phase>P</phase><azimuth>306.49981689453125</azimuth><distance>1.3954641819000244</distance><timeResidual>-0.35368919372558594</timeResidual><timeUsed>true</timeUsed><horizontalSlownessUsed>false</horizontalSlownessUsed><backazimuthUsed>false</backazimuthUsed><weight>1</weight></arrival><arrival><pickID>de.gempa.tb1.Pick/20250414142055.490904.138531</pickID><phase>P</phase><azimuth>225.4917907714844</azimuth><distance>1.25880765914917</distance><timeResidual>0.2971630096435547</timeResidual><timeUsed>true</timeUsed><horizontalSlownessUsed>false</horizontalSlownessUsed><backazimuthUsed>false</backazimuthUsed><weight>1</weight></arrival><arrival><pickID>de.gempa.tb1.Pick/20250414142101.543987.138536</pickID><phase>P</phase><azimuth>205.33287048339844</azimuth><distance>1.7778671979904175</distance><timeResidual>0.4559164047241211</timeResidual><timeUsed>true</timeUsed><horizontalSlownessUsed>false</horizontalSlownessUsed><backazimuthUsed>false</backazimuthUsed><weight>1</weight></arrival><arrival><pickID>de.gempa.tb1.Pick/20250414142102.65429.138538</pickID><phase>S</phase><azimuth>220.52610778808594</azimuth><distance>0.7966379523277283</distance><timeResidual>-0.1088094711303711</timeResidual><timeUsed>true</timeUsed><horizontalSlownessUsed>false</horizontalSlownessUsed><backazimuthUsed>false</backazimuthUsed><weight>1</weight></arrival><arrival><pickID>de.gempa.tb1.Pick/20250414142105.083806.138539</pickID><phase>P</phase><azimuth>191.96034240722656</azimuth><distance>1.384424328804016</distance><timeResidual>0.4791593551635742</timeResidual><timeUsed>true</timeUsed><horizontalSlownessUsed>false</horizontalSlownessUsed><backazimuthUsed>false</backazimuthUsed><weight>1</weight></arrival><arrival><pickID>de.gempa.tb1.Pick/20250414142108.073977.138541</pickID><phase>P</phase><azimuth>214.54098510742188</azimuth><distance>1.5628297328948975</distance><timeResidual>-0.2207660675048828</timeResidual><timeUsed>true</timeUsed><horizontalSlownessUsed>false</horizontalSlownessUsed><backazimuthUsed>false</backazimuthUsed><weight>1</weight></arrival><arrival><pickID>de.gempa.tb1.Pick/20250414142113.513967.138543</pickID><phase>S</phase><azimuth>225.4917907714844</azimuth><distance>1.25880765914917</distance><timeResidual>0.7637701034545898</timeResidual><timeUsed>true</timeUsed><horizontalSlownessUsed>false</horizontalSlownessUsed><backazimuthUsed>false</backazimuthUsed><weight>1</weight></arrival><arrival><pickID>de.gempa.tb1.Pick/20250414142115.582832.138546</pickID><phase>S</phase><azimuth>306.49981689453125</azimuth><distance>1.3954641819000244</distance><timeResidual>0.028433799743652344</timeResidual><timeUsed>true</timeUsed><horizontalSlownessUsed>false</horizontalSlownessUsed><backazimuthUsed>false</backazimuthUsed><weight>1</weight></arrival><arrival><pickID>de.gempa.tb1.Pick/20250414142123.68387.138548</pickID><phase>S</phase><azimuth>205.33287048339844</azimuth><distance>1.7778671979904175</distance><timeResidual>-0.9081659317016602</timeResidual><timeUsed>true</timeUsed><horizontalSlownessUsed>false</horizontalSlownessUsed><backazimuthUsed>false</backazimuthUsed><weight>1</weight></arrival><magnitude publicID="de.gempa.tb1.Magnitude/20250414142130.939039.499755"><magnitude><value>1.9525021688239814</value></magnitude><type>M</type><methodID>weighted average</methodID><stationCount>6</stationCount></magnitude></origin><event publicID="gempa2025hjiy"><preferredOriginID>de.gempa.tb1.Origin/20250414142124.526677.140578</preferredOriginID><preferredMagnitudeID>de.gempa.tb1.Magnitude/20250414142130.939039.499755</preferredMagnitudeID><description><text>Chile-Bolivia Border Region</text><type>region name</type></description><originReference>de.gempa.tb1.Origin/20250414142124.526677.140578</originReference></event></EventParameters></seiscomp>