<?xml version="1.0" encoding="UTF-8"?>
<seiscomp xmlns="http://geofon.gfz-potsdam.de/ns/seiscomp3-schema/0.13" version="0.13"><EventParameters><pick publicID="de.gempa.tb1.Pick/20250414152249.444547.138870"><time><value>2025-04-14T15:22:43.778393Z</value></time><waveformID networkCode="CX" stationCode="PB03" channelCode="HHZ"/><filterID>ITAPER(4)&gt;&gt;BW(4,4,20)</filterID><methodID>AIC</methodID><horizontalSlowness><value>1.955849905138186</value></horizontalSlowness><backazimuth><value>46.44145431466171</value></backazimuth><phaseHint>P</phaseHint><evaluationMode>automatic</evaluationMode><comment><text>10.071965404357865</text><id>DFX:rectilinearity</id></comment><comment><text>18.73457023442453</text><id>SNR</id></comment></pick><pick publicID="de.gempa.tb1.Pick/20250414152250.164508.138872"><time><value>2025-04-14T15:22:39.04Z</value></time><waveformID networkCode="CX" stationCode="PB09" channelCode="HHZ"/><filterID>ITAPER(4)&gt;&gt;BW(4,4,20)</filterID><methodID>AIC</methodID><horizontalSlowness><value>17.273604303603367</value></horizontalSlowness><backazimuth><value>87.6438284623382</value></backazimuth><phaseHint>P</phaseHint><evaluationMode>automatic</evaluationMode><comment><text>29.956498121552844</text><id>DFX:rectilinearity</id></comment><comment><text>40.141635316863933</text><id>SNR</id></comment></pick><pick publicID="de.gempa.tb1.Pick/20250414152250.625318.138874"><time><value>2025-04-14T15:22:42.098393Z</value></time><waveformID networkCode="CX" stationCode="PB01" channelCode="HHZ"/><filterID>ITAPER(4)&gt;&gt;BW(4,4,20)</filterID><methodID>AIC</methodID><horizontalSlowness><value>19.97277685076147</value></horizontalSlowness><backazimuth><value>353.0143935363176</value></backazimuth><phaseHint>P</phaseHint><evaluationMode>automatic</evaluationMode><comment><text>17.414097999085623</text><id>DFX:rectilinearity</id></comment><comment><text>11.80546410977898</text><id>SNR</id></comment></pick><pick publicID="de.gempa.tb1.Pick/20250414152252.478877.138876"><time><value>2025-04-14T15:22:45.268393Z</value></time><waveformID networkCode="CX" stationCode="PB02" channelCode="HHZ"/><filterID>ITAPER(4)&gt;&gt;BW(4,4,20)</filterID><methodID>AIC</methodID><horizontalSlowness><value>7.365269480549963</value></horizontalSlowness><backazimuth><value>358.49185124997035</value></backazimuth><phaseHint>P</phaseHint><evaluationMode>automatic</evaluationMode><comment><text>15.434598108306014</text><id>DFX:rectilinearity</id></comment><comment><text>18.389677552963924</text><id>SNR</id></comment></pick><pick publicID="de.gempa.tb1.Pick/20250414152254.680154.138878"><time><value>2025-04-14T15:22:46.378393Z</value></time><waveformID networkCode="CX" stationCode="PB06" channelCode="HHZ"/><filterID>ITAPER(4)&gt;&gt;BW(4,4,20)</filterID><methodID>AIC</methodID><horizontalSlowness><value>4.901066373550425</value></horizontalSlowness><backazimuth><value>286.62900979270574</value></backazimuth><phaseHint>P</phaseHint><evaluationMode>automatic</evaluationMode><comment><text>79.90758631350094</text><id>DFX:rectilinearity</id></comment><comment><text>9.906439972310658</text><id>SNR</id></comment></pick><pick publicID="de.gempa.tb1.Pick/20250414152303.124093.138880"><time><value>2025-04-14T15:22:44.448396Z</value></time><waveformID networkCode="CX" stationCode="PB07" channelCode="HHZ"/><filterID>ITAPER(4)&gt;&gt;BW(4,4,20)</filterID><methodID>AIC</methodID><horizontalSlowness><value>17.720142889314548</value></horizontalSlowness><backazimuth><value>91.94613220528188</value></backazimuth><phaseHint>P</phaseHint><evaluationMode>automatic</evaluationMode><comment><text>254.0354470236132</text><id>DFX:rectilinearity</id></comment><comment><text>29.18400646300707</text><id>SNR</id></comment></pick><pick publicID="de.gempa.tb1.Pick/20250414152307.727769.138882"><time><value>2025-04-14T15:23:00.028393Z</value></time><waveformID networkCode="CX" stationCode="PB01" channelCode="HHN"/><filterID>ITAPER(2)&gt;&gt;BW(3,3,20)</filterID><methodID>L2-AIC-GRID</methodID><horizontalSlowness><value>20.136963940491317</value></horizontalSlowness><backazimuth><value>354.8227887454285</value></backazimuth><phaseHint>S</phaseHint><evaluationMode>automatic</evaluationMode><comment><text>138.52485341661762</text><id>DFX:rectilinearity</id></comment><comment><text>de.gempa.tb1.Pick/20250414152250.625318.138874</text><id>RefPickID</id></comment><comment><text>8.675913036610622</text><id>SNR</id></comment></pick><pick publicID="de.gempa.tb1.Pick/20250414152311.640268.138883"><time><value>2025-04-14T15:23:02.928393Z</value></time><waveformID networkCode="CX" stationCode="PB03" channelCode="HHN"/><filterID>ITAPER(2)&gt;&gt;BW(3,3,20)</filterID><methodID>L2-AIC-GRID</methodID><horizontalSlowness><value>13.589591959386611</value></horizontalSlowness><backazimuth><value>262.9252777033477</value></backazimuth><phaseHint>S</phaseHint><evaluationMode>automatic</evaluationMode><comment><text>56.74878134391022</text><id>DFX:rectilinearity</id></comment><comment><text>de.gempa.tb1.Pick/20250414152249.444547.138870</text><id>RefPickID</id></comment><comment><text>6.374198248182772</text><id>SNR</id></comment></pick><pick publicID="de.gempa.tb1.Pick/20250414152313.549424.138884"><time><value>2025-04-14T15:23:05.018393Z</value></time><waveformID networkCode="CX" stationCode="PB02" channelCode="HHN"/><filterID>ITAPER(2)&gt;&gt;BW(3,3,20)</filterID><methodID>L2-AIC-GRID</methodID><horizontalSlowness><value>23.21149480061151</value></horizontalSlowness><backazimuth><value>213.56216699995483</value></backazimuth><phaseHint>S</phaseHint><evaluationMode>automatic</evaluationMode><comment><text>203.18656650026443</text><id>DFX:rectilinearity</id></comment><comment><text>de.gempa.tb1.Pick/20250414152252.478877.138876</text><id>RefPickID</id></comment><comment><text>5.723710669515365</text><id>SNR</id></comment></pick><pick publicID="de.gempa.tb1.Pick/20250414152323.812409.138895"><time><value>2025-04-14T15:23:04.068396Z</value></time><waveformID networkCode="CX" stationCode="PB07" channelCode="HHN"/><filterID>ITAPER(2)&gt;&gt;BW(3,3,20)</filterID><methodID>L2-AIC-GRID</methodID><horizontalSlowness><value>22.23387841267548</value></horizontalSlowness><backazimuth><value>4.34219357484082</value></backazimuth><phaseHint>S</phaseHint><evaluationMode>automatic</evaluationMode><comment><text>1859.9497331541843</text><id>DFX:rectilinearity</id></comment><comment><text>de.gempa.tb1.Pick/20250414152303.124093.138880</text><id>RefPickID</id></comment><comment><text>5.465880146949403</text><id>SNR</id></comment></pick><origin publicID="de.gempa.tb1.Origin/20250414152323.817546.141881"><time><value>2025-04-14T15:22:19.299834Z</value><uncertainty>1.1801457405090332</uncertainty></time><latitude><value>-21.624860763549805</value><uncertainty>6.967817306518555</uncertainty></latitude><longitude><value>-68.4849624633789</value><uncertainty>13.637892723083496</uncertainty></longitude><depth><value>119.22272491455078</value><uncertainty>20.310264587402344</uncertainty></depth><depthType>from location</depthType><methodID>LOCSAT</methodID><earthModelID>iasp91_scanloc</earthModelID><quality><associatedPhaseCount>10</associatedPhaseCount><usedPhaseCount>10</usedPhaseCount><associatedStationCount>6</associatedStationCount><usedStationCount>6</usedStationCount><depthPhaseCount>0</depthPhaseCount><standardError>0.14812848681857677</standardError><azimuthalGap>281.3354187011719</azimuthalGap><maximumDistance>1.473883032798767</maximumDistance><minimumDistance>0.7243021130561829</minimumDistance><medianDistance>1.3072470426559448</medianDistance></quality><uncertainty><minHorizontalUncertainty>14.654033660888672</minHorizontalUncertainty><maxHorizontalUncertainty>29.386356353759766</maxHorizontalUncertainty><azimuthMaxHorizontalUncertainty>96.5599136352539</azimuthMaxHorizontalUncertainty><preferredDescription>horizontal uncertainty</preferredDescription></uncertainty><evaluationMode>automatic</evaluationMode><evaluationStatus>confirmed</evaluationStatus><comment><text>0.00</text><id>mismatchScore</id></comment><comment><text>mismatchScore</text><id>scevalMethod</id></comment><arrival><pickID>de.gempa.tb1.Pick/20250414152249.444547.138870</pickID><phase>P</phase><azimuth>250.07994079589844</azimuth><distance>1.2513668537139893</distance><timeResidual>-0.13869857788085938</timeResidual><timeUsed>true</timeUsed><horizontalSlownessUsed>false</horizontalSlownessUsed><backazimuthUsed>false</backazimuthUsed><weight>1</weight></arrival><arrival><pickID>de.gempa.tb1.Pick/20250414152250.164508.138872</pickID><phase>P</phase><azimuth>256.2310791015625</azimuth><distance>0.7243021130561829</distance><timeResidual>0.23199462890625</timeResidual><timeUsed>true</timeUsed><horizontalSlownessUsed>false</horizontalSlownessUsed><backazimuthUsed>false</backazimuthUsed><weight>1</weight></arrival><arrival><pickID>de.gempa.tb1.Pick/20250414152250.625318.138874</pickID><phase>P</phase><azimuth>301.5870361328125</azimuth><distance>1.0992568731307983</distance><timeResidual>-0.21102333068847656</timeResidual><timeUsed>true</timeUsed><horizontalSlownessUsed>false</horizontalSlownessUsed><backazimuthUsed>false</backazimuthUsed><weight>1</weight></arrival><arrival><pickID>de.gempa.tb1.Pick/20250414152252.478877.138876</pickID><phase>P</phase><azimuth>282.7508239746094</azimuth><distance>1.3489142656326294</distance><timeResidual>0.2701454162597656</timeResidual><timeUsed>true</timeUsed><horizontalSlownessUsed>false</horizontalSlownessUsed><backazimuthUsed>false</backazimuthUsed><weight>1</weight></arrival><arrival><pickID>de.gempa.tb1.Pick/20250414152254.680154.138878</pickID><phase>P</phase><azimuth>222.92245483398438</azimuth><distance>1.473883032798767</distance><timeResidual>-0.032123565673828125</timeResidual><timeUsed>true</timeUsed><horizontalSlownessUsed>false</horizontalSlownessUsed><backazimuthUsed>false</backazimuthUsed><weight>1</weight></arrival><arrival><pickID>de.gempa.tb1.Pick/20250414152303.124093.138880</pickID><phase>P</phase><azimuth>265.298095703125</azimuth><distance>1.3072470426559448</distance><timeResidual>-0.08365440368652344</timeResidual><timeUsed>true</timeUsed><horizontalSlownessUsed>false</horizontalSlownessUsed><backazimuthUsed>false</backazimuthUsed><weight>1</weight></arrival><arrival><pickID>de.gempa.tb1.Pick/20250414152307.727769.138882</pickID><phase>S</phase><azimuth>301.5870361328125</azimuth><distance>1.0992568731307983</distance><timeResidual>-0.08085441589355469</timeResidual><timeUsed>true</timeUsed><horizontalSlownessUsed>false</horizontalSlownessUsed><backazimuthUsed>false</backazimuthUsed><weight>1</weight></arrival><arrival><pickID>de.gempa.tb1.Pick/20250414152311.640268.138883</pickID><phase>S</phase><azimuth>250.07994079589844</azimuth><distance>1.2513668537139893</distance><timeResidual>-0.05226516723632812</timeResidual><timeUsed>true</timeUsed><horizontalSlownessUsed>false</horizontalSlownessUsed><backazimuthUsed>false</backazimuthUsed><weight>1</weight></arrival><arrival><pickID>de.gempa.tb1.Pick/20250414152313.549424.138884</pickID><phase>S</phase><azimuth>282.7508239746094</azimuth><distance>1.3489142656326294</distance><timeResidual>0.10698318481445312</timeResidual><timeUsed>true</timeUsed><horizontalSlownessUsed>false</horizontalSlownessUsed><backazimuthUsed>false</backazimuthUsed><weight>1</weight></arrival><arrival><pickID>de.gempa.tb1.Pick/20250414152323.812409.138895</pickID><phase>S</phase><azimuth>265.298095703125</azimuth><distance>1.3072470426559448</distance><timeResidual>-0.01038360595703125</timeResidual><timeUsed>true</timeUsed><horizontalSlownessUsed>false</horizontalSlownessUsed><backazimuthUsed>false</backazimuthUsed><weight>1</weight></arrival><magnitude publicID="de.gempa.tb1.Magnitude/20250414152330.937039.506783"><magnitude><value>2.197882099913799</value></magnitude><type>M</type><methodID>weighted average</methodID><stationCount>3</stationCount></magnitude></origin><event publicID="gempa2025hjla"><preferredOriginID>de.gempa.tb1.Origin/20250414152323.817546.141881</preferredOriginID><preferredMagnitudeID>de.gempa.tb1.Magnitude/20250414152330.937039.506783</preferredMagnitudeID><description><text>Chile-Bolivia Border Region</text><type>region name</type></description><originReference>de.gempa.tb1.Origin/20250414152323.817546.141881</originReference></event></EventParameters></seiscomp>