<?xml version="1.0" encoding="UTF-8"?>
<seiscomp xmlns="http://geofon.gfz-potsdam.de/ns/seiscomp3-schema/0.13" version="0.13"><EventParameters><pick publicID="de.gempa.tb1.Pick/20250412202212.102631.189042"><time><value>2025-04-12T20:22:09.935Z</value></time><waveformID networkCode="BW" stationCode="MANZ" channelCode="HHZ"/><filterID>ITAPER(2)&gt;&gt;BW(3,3,20)</filterID><methodID>AIC</methodID><horizontalSlowness><value>12.785866452452868</value></horizontalSlowness><backazimuth><value>92.42899851804832</value></backazimuth><phaseHint>P</phaseHint><evaluationMode>automatic</evaluationMode><comment><text>1.9073310305800824</text><id>DFX:rectilinearity</id></comment></pick><pick publicID="de.gempa.tb1.Pick/20250412202214.875444.189056"><time><value>2025-04-12T20:22:03.62Z</value></time><waveformID networkCode="SX" stationCode="GUNZ" channelCode="HHZ"/><filterID>ITAPER(2)&gt;&gt;BW(3,3,20)</filterID><methodID>AIC</methodID><horizontalSlowness><value>23.174508081302076</value></horizontalSlowness><backazimuth><value>292.20248260803504</value></backazimuth><phaseHint>P</phaseHint><evaluationMode>automatic</evaluationMode><comment><text>10.933827338793563</text><id>DFX:rectilinearity</id></comment></pick><pick publicID="de.gempa.tb1.Pick/20250412202212.026067.189040"><time><value>2025-04-12T20:22:05.44Z</value></time><waveformID networkCode="SX" stationCode="LEUT" channelCode="HHZ"/><filterID>ITAPER(2)&gt;&gt;BW(3,3,20)</filterID><methodID>AIC</methodID><horizontalSlowness><value>23.585927194125016</value></horizontalSlowness><backazimuth><value>338.3798395915817</value></backazimuth><phaseHint>P</phaseHint><evaluationMode>automatic</evaluationMode><comment><text>2.3783330056579883</text><id>DFX:rectilinearity</id></comment></pick><pick publicID="de.gempa.tb1.Pick/20250412202211.317029.189034"><time><value>2025-04-12T20:22:02.04Z</value></time><waveformID networkCode="SX" stationCode="MULD" channelCode="HHZ"/><filterID>ITAPER(2)&gt;&gt;BW(3,3,20)</filterID><methodID>AIC</methodID><horizontalSlowness><value>22.80262182535238</value></horizontalSlowness><backazimuth><value>346.8196225584285</value></backazimuth><phaseHint>P</phaseHint><evaluationMode>automatic</evaluationMode><comment><text>10.454772742092736</text><id>DFX:rectilinearity</id></comment></pick><pick publicID="de.gempa.tb1.Pick/20250412202208.782297.189029"><time><value>2025-04-12T20:22:02.65Z</value></time><waveformID networkCode="SX" stationCode="ROHR" channelCode="HHZ"/><filterID>ITAPER(2)&gt;&gt;BW(3,3,20)</filterID><methodID>AIC</methodID><horizontalSlowness><value>11.91342901927153</value></horizontalSlowness><backazimuth><value>58.14777735559532</value></backazimuth><phaseHint>P</phaseHint><evaluationMode>automatic</evaluationMode><comment><text>6.133643587745981</text><id>DFX:rectilinearity</id></comment></pick><pick publicID="de.gempa.tb1.Pick/20250412202209.850968.189031"><time><value>2025-04-12T20:22:02.02Z</value></time><waveformID networkCode="SX" stationCode="TANN" channelCode="HHZ"/><filterID>ITAPER(2)&gt;&gt;BW(3,3,20)</filterID><methodID>AIC</methodID><horizontalSlowness><value>18.526311042435413</value></horizontalSlowness><backazimuth><value>2.0584509649771974</value></backazimuth><phaseHint>P</phaseHint><evaluationMode>automatic</evaluationMode><comment><text>1.8685217914691368</text><id>DFX:rectilinearity</id></comment></pick><pick publicID="de.gempa.tb1.Pick/20250412202211.887016.189038"><time><value>2025-04-12T20:22:06.06Z</value></time><waveformID networkCode="SX" stationCode="TRIB" channelCode="HHZ"/><filterID>ITAPER(2)&gt;&gt;BW(3,3,20)</filterID><methodID>AIC</methodID><horizontalSlowness><value>23.53804282144582</value></horizontalSlowness><backazimuth><value>357.22346542936566</value></backazimuth><phaseHint>P</phaseHint><evaluationMode>automatic</evaluationMode><comment><text>2.3502099593320245</text><id>DFX:rectilinearity</id></comment></pick><pick publicID="de.gempa.tb1.Pick/20250412202207.480205.189025"><time><value>2025-04-12T20:22:00.7775Z</value></time><waveformID networkCode="SX" stationCode="WERN" channelCode="HHZ"/><filterID>ITAPER(2)&gt;&gt;BW(3,3,20)</filterID><methodID>AIC</methodID><horizontalSlowness><value>22.795698728282744</value></horizontalSlowness><backazimuth><value>51.41568507526407</value></backazimuth><phaseHint>P</phaseHint><evaluationMode>automatic</evaluationMode><comment><text>35.454309173985017</text><id>DFX:rectilinearity</id></comment></pick><pick publicID="de.gempa.tb1.Pick/20250412202212.465013.189051"><time><value>2025-04-12T20:22:02.2675Z</value></time><waveformID networkCode="SX" stationCode="WERN" channelCode="HHN"/><filterID>ITAPER(3)&gt;&gt;BW(4,3,10)</filterID><methodID>L2-AIC-GRID</methodID><horizontalSlowness><value>22.798574927814805</value></horizontalSlowness><backazimuth><value>56.4168647757043</value></backazimuth><phaseHint>S</phaseHint><evaluationMode>automatic</evaluationMode><comment><text>28.7295883198677</text><id>DFX:rectilinearity</id></comment><comment><text>de.gempa.tb1.Pick/20250412202207.480205.189025</text><id>RefPickID</id></comment></pick><pick publicID="de.gempa.tb1.Pick/20250412202214.852624.189055"><time><value>2025-04-12T20:22:04.39Z</value></time><waveformID networkCode="SX" stationCode="TANN" channelCode="HHN"/><filterID>ITAPER(3)&gt;&gt;BW(4,3,10)</filterID><methodID>L2-AIC-GRID</methodID><horizontalSlowness><value>17.2285396399989</value></horizontalSlowness><backazimuth><value>352.1330529364818</value></backazimuth><phaseHint>S</phaseHint><evaluationMode>automatic</evaluationMode><comment><text>1.479104470501296</text><id>DFX:rectilinearity</id></comment><comment><text>de.gempa.tb1.Pick/20250412202209.850968.189031</text><id>RefPickID</id></comment></pick><pick publicID="de.gempa.tb1.Pick/20250412202216.33003.189060"><time><value>2025-04-12T20:22:04.36Z</value></time><waveformID networkCode="SX" stationCode="MULD" channelCode="HHN"/><filterID>ITAPER(3)&gt;&gt;BW(4,3,10)</filterID><methodID>L2-AIC-GRID</methodID><horizontalSlowness><value>23.257172808983714</value></horizontalSlowness><backazimuth><value>345.85611657536526</value></backazimuth><phaseHint>S</phaseHint><evaluationMode>automatic</evaluationMode><comment><text>9.787074819662104</text><id>DFX:rectilinearity</id></comment><comment><text>de.gempa.tb1.Pick/20250412202211.317029.189034</text><id>RefPickID</id></comment></pick><origin publicID="de.gempa.tb1.Origin/20250412202222.996876.157922"><time><value>2025-04-12T20:22:00.24831Z</value><uncertainty>0.7466183304786682</uncertainty></time><latitude><value>50.31808471679688</value><uncertainty>3.588254928588867</uncertainty></latitude><longitude><value>12.48482894897461</value><uncertainty>7.048692226409912</uncertainty></longitude><depth><value>2.606959104537964</value><uncertainty>3.3752710819244385</uncertainty></depth><depthType>from location</depthType><methodID>LOCSAT</methodID><earthModelID>iasp91</earthModelID><quality><associatedPhaseCount>11</associatedPhaseCount><usedPhaseCount>11</usedPhaseCount><associatedStationCount>8</associatedStationCount><usedStationCount>8</usedStationCount><depthPhaseCount>0</depthPhaseCount><standardError>0.9087123340147648</standardError><azimuthalGap>211.42072916030884</azimuthalGap><maximumDistance>0.41118869185447693</maximumDistance><minimumDistance>0.07619336247444153</minimumDistance><medianDistance>0.1071939468383789</medianDistance></quality><uncertainty><minHorizontalUncertainty>4.3502373695373535</minHorizontalUncertainty><maxHorizontalUncertainty>16.398658752441406</maxHorizontalUncertainty><azimuthMaxHorizontalUncertainty>113.6774444580078</azimuthMaxHorizontalUncertainty><preferredDescription>horizontal uncertainty</preferredDescription></uncertainty><evaluationMode>automatic</evaluationMode><evaluationStatus>confirmed</evaluationStatus><comment><text>0.21</text><id>mismatchScore</id></comment><comment><text>mismatchScore</text><id>scevalMethod</id></comment><arrival><pickID>de.gempa.tb1.Pick/20250412202212.102631.189042</pickID><phase>P</phase><azimuth>216.23463439941406</azimuth><distance>0.41118869185447693</distance><timeResidual>1.5009394884109497</timeResidual><timeUsed>true</timeUsed><horizontalSlownessUsed>false</horizontalSlownessUsed><backazimuthUsed>false</backazimuthUsed><weight>1</weight></arrival><arrival><pickID>de.gempa.tb1.Pick/20250412202214.875444.189056</pickID><phase>P</phase><azimuth>294.9082336425781</azimuth><distance>0.1082003265619278</distance><timeResidual>0.83535897731781</timeResidual><timeUsed>true</timeUsed><horizontalSlownessUsed>false</horizontalSlownessUsed><backazimuthUsed>false</backazimuthUsed><weight>1</weight></arrival><arrival><pickID>de.gempa.tb1.Pick/20250412202212.026067.189040</pickID><phase>P</phase><azimuth>4.813905239105225</azimuth><distance>0.2905089259147644</distance><timeResidual>-0.7429856061935425</timeResidual><timeUsed>true</timeUsed><horizontalSlownessUsed>false</horizontalSlownessUsed><backazimuthUsed>false</backazimuthUsed><weight>1</weight></arrival><arrival><pickID>de.gempa.tb1.Pick/20250412202211.317029.189034</pickID><phase>P</phase><azimuth>331.11602783203125</azimuth><distance>0.1071939468383789</distance><timeResidual>-0.725784420967102</timeResidual><timeUsed>true</timeUsed><horizontalSlownessUsed>false</horizontalSlownessUsed><backazimuthUsed>false</backazimuthUsed><weight>1</weight></arrival><arrival><pickID>de.gempa.tb1.Pick/20250412202208.782297.189029</pickID><phase>P</phase><azimuth>232.046630859375</azimuth><distance>0.13668516278266907</distance><timeResidual>-0.6659442186355591</timeResidual><timeUsed>true</timeUsed><horizontalSlownessUsed>false</horizontalSlownessUsed><backazimuthUsed>false</backazimuthUsed><weight>1</weight></arrival><arrival><pickID>de.gempa.tb1.Pick/20250412202209.850968.189031</pickID><phase>P</phase><azimuth>351.07183837890625</azimuth><distance>0.09822799265384674</distance><timeResidual>-0.5786236524581909</timeResidual><timeUsed>true</timeUsed><horizontalSlownessUsed>false</horizontalSlownessUsed><backazimuthUsed>false</backazimuthUsed><weight>1</weight></arrival><arrival><pickID>de.gempa.tb1.Pick/20250412202211.887016.189038</pickID><phase>P</phase><azimuth>278.7956237792969</azimuth><distance>0.2254728227853775</distance><timeResidual>1.0889993906021118</timeResidual><timeUsed>true</timeUsed><horizontalSlownessUsed>false</horizontalSlownessUsed><backazimuthUsed>false</backazimuthUsed><weight>1</weight></arrival><arrival><pickID>de.gempa.tb1.Pick/20250412202207.480205.189025</pickID><phase>P</phase><azimuth>246.26206970214844</azimuth><distance>0.07619336247444153</distance><timeResidual>-1.4105768203735352</timeResidual><timeUsed>true</timeUsed><horizontalSlownessUsed>false</horizontalSlownessUsed><backazimuthUsed>false</backazimuthUsed><weight>1</weight></arrival><arrival><pickID>de.gempa.tb1.Pick/20250412202212.465013.189051</pickID><phase>S</phase><azimuth>246.26206970214844</azimuth><distance>0.07619336247444153</distance><timeResidual>-0.8742159605026245</timeResidual><timeUsed>true</timeUsed><horizontalSlownessUsed>false</horizontalSlownessUsed><backazimuthUsed>false</backazimuthUsed><weight>1</weight></arrival><arrival><pickID>de.gempa.tb1.Pick/20250412202214.852624.189055</pickID><phase>S</phase><azimuth>351.07183837890625</azimuth><distance>0.09822799265384674</distance><timeResidual>0.5370591878890991</timeResidual><timeUsed>true</timeUsed><horizontalSlownessUsed>false</horizontalSlownessUsed><backazimuthUsed>false</backazimuthUsed><weight>1</weight></arrival><arrival><pickID>de.gempa.tb1.Pick/20250412202216.33003.189060</pickID><phase>S</phase><azimuth>331.11602783203125</azimuth><distance>0.1071939468383789</distance><timeResidual>0.21745073795318604</timeResidual><timeUsed>true</timeUsed><horizontalSlownessUsed>false</horizontalSlownessUsed><backazimuthUsed>false</backazimuthUsed><weight>1</weight></arrival><magnitude publicID="de.gempa.tb1.Magnitude/20250412202252.675109.278975"><magnitude><value>0.21329188586304931</value></magnitude><type>M</type><methodID>weighted average</methodID><stationCount>7</stationCount></magnitude></origin><event publicID="gempa2025hgcy"><preferredOriginID>de.gempa.tb1.Origin/20250412202222.996876.157922</preferredOriginID><preferredMagnitudeID>de.gempa.tb1.Magnitude/20250412202252.675109.278975</preferredMagnitudeID><description><text>Germany</text><type>region name</type></description><originReference>de.gempa.tb1.Origin/20250412202222.996876.157922</originReference></event></EventParameters></seiscomp>