<?xml version="1.0" encoding="UTF-8"?>
<seiscomp xmlns="http://geofon.gfz-potsdam.de/ns/seiscomp3-schema/0.13" version="0.13"><EventParameters><pick publicID="de.gempa.tb1.Pick/20250414125516.651152.138128"><time><value>2025-04-14T12:55:09.360001Z</value></time><waveformID networkCode="CX" stationCode="PB09" channelCode="HHZ"/><filterID>ITAPER(4)&gt;&gt;BW(4,4,20)</filterID><methodID>AIC</methodID><horizontalSlowness><value>11.742291855148732</value></horizontalSlowness><backazimuth><value>40.704896914499813</value></backazimuth><phaseHint>P</phaseHint><evaluationMode>automatic</evaluationMode><comment><text>5.833363688195908</text><id>DFX:rectilinearity</id></comment><comment><text>16.896468191630035</text><id>SNR</id></comment></pick><pick publicID="de.gempa.tb1.Pick/20250414125517.452869.138130"><time><value>2025-04-14T12:55:11.668393Z</value></time><waveformID networkCode="CX" stationCode="PB02" channelCode="HHZ"/><filterID>ITAPER(4)&gt;&gt;BW(4,4,20)</filterID><methodID>AIC</methodID><horizontalSlowness><value>14.06467546383814</value></horizontalSlowness><backazimuth><value>72.4205477717539</value></backazimuth><phaseHint>P</phaseHint><evaluationMode>automatic</evaluationMode><comment><text>23.4914141016542</text><id>DFX:rectilinearity</id></comment><comment><text>29.895670253930376</text><id>SNR</id></comment></pick><pick publicID="de.gempa.tb1.Pick/20250414125517.657544.138132"><time><value>2025-04-14T12:55:11.698393Z</value></time><waveformID networkCode="CX" stationCode="PB08" channelCode="HHZ"/><filterID>ITAPER(4)&gt;&gt;BW(4,4,20)</filterID><methodID>AIC</methodID><horizontalSlowness><value>14.42068696962178</value></horizontalSlowness><backazimuth><value>94.63633972261779</value></backazimuth><phaseHint>P</phaseHint><evaluationMode>automatic</evaluationMode><comment><text>5.335768755479996</text><id>DFX:rectilinearity</id></comment><comment><text>7.00711659529958</text><id>SNR</id></comment></pick><pick publicID="de.gempa.tb1.Pick/20250414125520.319953.138134"><time><value>2025-04-14T12:55:14.660001Z</value></time><waveformID networkCode="CX" stationCode="PATCX" channelCode="HHZ"/><filterID>ITAPER(4)&gt;&gt;BW(4,4,20)</filterID><methodID>AIC</methodID><horizontalSlowness><value>14.283755950244627</value></horizontalSlowness><backazimuth><value>18.867114772268735</value></backazimuth><phaseHint>P</phaseHint><evaluationMode>automatic</evaluationMode><comment><text>73.93009722802508</text><id>DFX:rectilinearity</id></comment><comment><text>10.32665439127211</text><id>SNR</id></comment></pick><pick publicID="de.gempa.tb1.Pick/20250414125530.580607.138136"><time><value>2025-04-14T12:55:21.200001Z</value></time><waveformID networkCode="CX" stationCode="PSGCX" channelCode="HHZ"/><filterID>ITAPER(4)&gt;&gt;BW(4,4,20)</filterID><methodID>AIC</methodID><horizontalSlowness><value>9.39430812743224</value></horizontalSlowness><backazimuth><value>169.06083945795376</value></backazimuth><phaseHint>P</phaseHint><evaluationMode>automatic</evaluationMode><comment><text>8.163375355771112</text><id>DFX:rectilinearity</id></comment><comment><text>11.93240026129832</text><id>SNR</id></comment></pick><pick publicID="de.gempa.tb1.Pick/20250414125536.69332.138138"><time><value>2025-04-14T12:55:29.968393Z</value></time><waveformID networkCode="CX" stationCode="PB02" channelCode="HHN"/><filterID>ITAPER(2)&gt;&gt;BW(3,3,20)</filterID><methodID>L2-AIC-GRID</methodID><horizontalSlowness><value>23.547365527965685</value></horizontalSlowness><backazimuth><value>39.947912431734693</value></backazimuth><phaseHint>S</phaseHint><evaluationMode>automatic</evaluationMode><comment><text>133.0797982690974</text><id>DFX:rectilinearity</id></comment><comment><text>de.gempa.tb1.Pick/20250414125517.452869.138130</text><id>RefPickID</id></comment><comment><text>5.231347301428996</text><id>SNR</id></comment></pick><pick publicID="de.gempa.tb1.Pick/20250414125539.973933.138139"><time><value>2025-04-14T12:55:12.978357Z</value></time><waveformID networkCode="CX" stationCode="PB07" channelCode="HHZ"/><filterID>ITAPER(4)&gt;&gt;BW(4,4,20)</filterID><methodID>AIC</methodID><horizontalSlowness><value>23.230336747436663</value></horizontalSlowness><backazimuth><value>244.75425052974165</value></backazimuth><phaseHint>P</phaseHint><evaluationMode>automatic</evaluationMode><comment><text>195.4634131846648</text><id>DFX:rectilinearity</id></comment><comment><text>17.748316628151816</text><id>SNR</id></comment></pick><pick publicID="de.gempa.tb1.Pick/20250414125554.509021.138145"><time><value>2025-04-14T12:55:31.908357Z</value></time><waveformID networkCode="CX" stationCode="PB07" channelCode="HHN"/><filterID>ITAPER(2)&gt;&gt;BW(3,3,20)</filterID><methodID>L2-AIC-GRID</methodID><horizontalSlowness><value>20.14545385482431</value></horizontalSlowness><backazimuth><value>247.5585386962609</value></backazimuth><phaseHint>S</phaseHint><evaluationMode>automatic</evaluationMode><comment><text>473.9332926311789</text><id>DFX:rectilinearity</id></comment><comment><text>de.gempa.tb1.Pick/20250414125539.973933.138139</text><id>RefPickID</id></comment><comment><text>8.042876755344251</text><id>SNR</id></comment></pick><pick publicID="de.gempa.tb1.Pick/20250414125943.31697.138158"><time><value>2025-04-14T12:55:07.768393Z</value></time><waveformID networkCode="CX" stationCode="PB01" channelCode="HHZ"/><filterID>ITAPER(4)&gt;&gt;BW(4,4,20)</filterID><methodID>AIC</methodID><horizontalSlowness><value>22.585361565444106</value></horizontalSlowness><backazimuth><value>313.8952660571722</value></backazimuth><phaseHint>P</phaseHint><evaluationMode>automatic</evaluationMode><comment><text>16.512513909025088</text><id>DFX:rectilinearity</id></comment><comment><text>33.17481025410474</text><id>SNR</id></comment></pick><origin publicID="de.gempa.tb1.Origin/20250414125944.956306.139080"><time><value>2025-04-14T12:54:48.076886Z</value><uncertainty>1.3666222095489502</uncertainty></time><latitude><value>-21.118341445922852</value><uncertainty>7.510541439056396</uncertainty></latitude><longitude><value>-68.79103088378906</value><uncertainty>11.700912475585938</uncertainty></longitude><depth><value>130.90708923339844</value><uncertainty>16.71446418762207</uncertainty></depth><depthType>from location</depthType><methodID>LOCSAT</methodID><earthModelID>iasp91_scanloc</earthModelID><quality><associatedPhaseCount>9</associatedPhaseCount><usedPhaseCount>9</usedPhaseCount><associatedStationCount>7</associatedStationCount><usedStationCount>7</usedStationCount><depthPhaseCount>0</depthPhaseCount><standardError>0.32073514519466723</standardError><azimuthalGap>231.1282501220703</azimuthalGap><maximumDistance>1.9627552032470703</maximumDistance><minimumDistance>0.65460205078125</minimumDistance><medianDistance>1.050274133682251</medianDistance></quality><uncertainty><minHorizontalUncertainty>15.995999336242676</minHorizontalUncertainty><maxHorizontalUncertainty>25.160633087158203</maxHorizontalUncertainty><azimuthMaxHorizontalUncertainty>95.53292083740234</azimuthMaxHorizontalUncertainty><preferredDescription>horizontal uncertainty</preferredDescription></uncertainty><evaluationMode>automatic</evaluationMode><evaluationStatus>confirmed</evaluationStatus><comment><text>0.07</text><id>mismatchScore</id></comment><comment><text>mismatchScore</text><id>scevalMethod</id></comment><arrival><pickID>de.gempa.tb1.Pick/20250414125516.651152.138128</pickID><phase>P</phase><azimuth>211.8212127685547</azimuth><distance>0.7947534322738647</distance><timeResidual>0.05254745483398438</timeResidual><timeUsed>true</timeUsed><horizontalSlownessUsed>false</horizontalSlownessUsed><backazimuthUsed>false</backazimuthUsed><weight>1</weight></arrival><arrival><pickID>de.gempa.tb1.Pick/20250414125517.452869.138130</pickID><phase>P</phase><azimuth>258.8021240234375</azimuth><distance>1.050274133682251</distance><timeResidual>0.09626007080078125</timeResidual><timeUsed>true</timeUsed><horizontalSlownessUsed>false</horizontalSlownessUsed><backazimuthUsed>false</backazimuthUsed><weight>1</weight></arrival><arrival><pickID>de.gempa.tb1.Pick/20250414125517.657544.138132</pickID><phase>P</phase><azimuth>340.6929626464844</azimuth><distance>1.029826283454895</distance><timeResidual>0.31325531005859375</timeResidual><timeUsed>true</timeUsed><horizontalSlownessUsed>false</horizontalSlownessUsed><backazimuthUsed>false</backazimuthUsed><weight>1</weight></arrival><arrival><pickID>de.gempa.tb1.Pick/20250414125520.319953.138134</pickID><phase>P</phase><azimuth>282.8558349609375</azimuth><distance>1.3067353963851929</distance><timeResidual>0.4950618743896484</timeResidual><timeUsed>true</timeUsed><horizontalSlownessUsed>false</horizontalSlownessUsed><backazimuthUsed>false</backazimuthUsed><weight>1</weight></arrival><arrival><pickID>de.gempa.tb1.Pick/20250414125530.580607.138136</pickID><phase>P</phase><azimuth>320.2169189453125</azimuth><distance>1.9627552032470703</distance><timeResidual>-0.4791412353515625</timeResidual><timeUsed>true</timeUsed><horizontalSlownessUsed>false</horizontalSlownessUsed><backazimuthUsed>false</backazimuthUsed><weight>1</weight></arrival><arrival><pickID>de.gempa.tb1.Pick/20250414125536.69332.138138</pickID><phase>S</phase><azimuth>258.8021240234375</azimuth><distance>1.050274133682251</distance><timeResidual>0.1939258575439453</timeResidual><timeUsed>true</timeUsed><horizontalSlownessUsed>false</horizontalSlownessUsed><backazimuthUsed>false</backazimuthUsed><weight>1</weight></arrival><arrival><pickID>de.gempa.tb1.Pick/20250414125539.973933.138139</pickID><phase>P</phase><azimuth>239.1241455078125</azimuth><distance>1.1864287853240967</distance><timeResidual>0.06727409362792969</timeResidual><timeUsed>true</timeUsed><horizontalSlownessUsed>false</horizontalSlownessUsed><backazimuthUsed>false</backazimuthUsed><weight>1</weight></arrival><arrival><pickID>de.gempa.tb1.Pick/20250414125554.509021.138145</pickID><phase>S</phase><azimuth>239.1241455078125</azimuth><distance>1.1864287853240967</distance><timeResidual>-0.25661468505859375</timeResidual><timeUsed>true</timeUsed><horizontalSlownessUsed>false</horizontalSlownessUsed><backazimuthUsed>false</backazimuthUsed><weight>1</weight></arrival><arrival><pickID>de.gempa.tb1.Pick/20250414125943.31697.138158</pickID><phase>P</phase><azimuth>276.4313049316406</azimuth><distance>0.65460205078125</distance><timeResidual>-0.4827384948730469</timeResidual><timeUsed>true</timeUsed><horizontalSlownessUsed>false</horizontalSlownessUsed><backazimuthUsed>false</backazimuthUsed><weight>1</weight></arrival><magnitude publicID="de.gempa.tb1.Magnitude/20250414125944.963448.491706"><magnitude><value>2.181146338507331</value></magnitude><type>M</type><methodID>weighted average</methodID><stationCount>4</stationCount></magnitude></origin><event publicID="gempa2025hjgc"><preferredOriginID>de.gempa.tb1.Origin/20250414125944.956306.139080</preferredOriginID><preferredMagnitudeID>de.gempa.tb1.Magnitude/20250414125944.963448.491706</preferredMagnitudeID><description><text>Chile-Bolivia Border Region</text><type>region name</type></description><originReference>de.gempa.tb1.Origin/20250414125944.956306.139080</originReference></event></EventParameters></seiscomp>