<?xml version="1.0" encoding="UTF-8"?>
<seiscomp xmlns="http://geofon.gfz-potsdam.de/ns/seiscomp3-schema/0.13" version="0.13"><EventParameters><pick publicID="de.gempa.tb1.Pick/20250412104730.67493.123464"><time><value>2025-04-12T10:47:25.188391Z</value></time><waveformID networkCode="CX" stationCode="PB03" channelCode="HHZ"/><filterID>ITAPER(4)&gt;&gt;BW(4,4,20)</filterID><methodID>AIC</methodID><horizontalSlowness><value>1.3717335639800385</value></horizontalSlowness><backazimuth><value>216.98582937166736</value></backazimuth><phaseHint>P</phaseHint><evaluationMode>automatic</evaluationMode><comment><text>52.27309071464773</text><id>DFX:rectilinearity</id></comment><comment><text>206.56837898777297</text><id>SNR</id></comment></pick><pick publicID="de.gempa.tb1.Pick/20250412104731.712133.123466"><time><value>2025-04-12T10:47:26.328397Z</value></time><waveformID networkCode="CX" stationCode="PB07" channelCode="HHZ"/><filterID>ITAPER(4)&gt;&gt;BW(4,4,20)</filterID><methodID>AIC</methodID><horizontalSlowness><value>15.039467487518454</value></horizontalSlowness><backazimuth><value>190.85983080318547</value></backazimuth><phaseHint>P</phaseHint><evaluationMode>automatic</evaluationMode><comment><text>248.7540939312615</text><id>DFX:rectilinearity</id></comment><comment><text>151.65506318461806</text><id>SNR</id></comment></pick><pick publicID="de.gempa.tb1.Pick/20250412104734.530272.123468"><time><value>2025-04-12T10:47:29.538393Z</value></time><waveformID networkCode="CX" stationCode="PB02" channelCode="HHZ"/><filterID>ITAPER(4)&gt;&gt;BW(4,4,20)</filterID><methodID>AIC</methodID><horizontalSlowness><value>16.494864913086435</value></horizontalSlowness><backazimuth><value>48.05931065407788</value></backazimuth><phaseHint>P</phaseHint><evaluationMode>automatic</evaluationMode><comment><text>29.71067327834983</text><id>DFX:rectilinearity</id></comment><comment><text>52.87289044603665</text><id>SNR</id></comment></pick><pick publicID="de.gempa.tb1.Pick/20250412104736.209965.123470"><time><value>2025-04-12T10:47:26.29Z</value></time><waveformID networkCode="CX" stationCode="PB09" channelCode="HHZ"/><filterID>ITAPER(4)&gt;&gt;BW(4,4,20)</filterID><methodID>AIC</methodID><horizontalSlowness><value>18.219627700583484</value></horizontalSlowness><backazimuth><value>125.44596738250186</value></backazimuth><phaseHint>P</phaseHint><evaluationMode>automatic</evaluationMode><comment><text>149.98308233737154</text><id>DFX:rectilinearity</id></comment><comment><text>504.9689341838427</text><id>SNR</id></comment></pick><pick publicID="de.gempa.tb1.Pick/20250412104737.4988.123472"><time><value>2025-04-12T10:47:31.948393Z</value></time><waveformID networkCode="CX" stationCode="PB01" channelCode="HHZ"/><filterID>ITAPER(4)&gt;&gt;BW(4,4,20)</filterID><methodID>AIC</methodID><horizontalSlowness><value>22.782096978190214</value></horizontalSlowness><backazimuth><value>3.968663553651936</value></backazimuth><phaseHint>P</phaseHint><evaluationMode>automatic</evaluationMode><comment><text>8.419810546957647</text><id>DFX:rectilinearity</id></comment><comment><text>63.20269027924516</text><id>SNR</id></comment></pick><pick publicID="de.gempa.tb1.Pick/20250412104737.529621.123474"><time><value>2025-04-12T10:47:29.868393Z</value></time><waveformID networkCode="CX" stationCode="PB06" channelCode="HHZ"/><filterID>ITAPER(4)&gt;&gt;BW(4,4,20)</filterID><methodID>AIC</methodID><horizontalSlowness><value>21.71713374485556</value></horizontalSlowness><backazimuth><value>81.1276268116023</value></backazimuth><phaseHint>P</phaseHint><evaluationMode>automatic</evaluationMode><comment><text>64.8491640280767</text><id>DFX:rectilinearity</id></comment><comment><text>22.63291412852851</text><id>SNR</id></comment></pick><pick publicID="de.gempa.tb1.Pick/20250412104740.606443.123476"><time><value>2025-04-12T10:47:33.438391Z</value></time><waveformID networkCode="CX" stationCode="PB03" channelCode="HHN"/><filterID>ITAPER(2)&gt;&gt;BW(3,3,20)</filterID><methodID>L2-AIC-GRID</methodID><horizontalSlowness><value>19.262351195723756</value></horizontalSlowness><backazimuth><value>242.3685317510021</value></backazimuth><phaseHint>S</phaseHint><evaluationMode>automatic</evaluationMode><comment><text>2587.3389874118325</text><id>DFX:rectilinearity</id></comment><comment><text>de.gempa.tb1.Pick/20250412104730.67493.123464</text><id>RefPickID</id></comment><comment><text>38.13363800462885</text><id>SNR</id></comment></pick><pick publicID="de.gempa.tb1.Pick/20250412104741.974758.123477"><time><value>2025-04-12T10:47:35.578397Z</value></time><waveformID networkCode="CX" stationCode="PB07" channelCode="HHN"/><filterID>ITAPER(2)&gt;&gt;BW(3,3,20)</filterID><methodID>L2-AIC-GRID</methodID><horizontalSlowness><value>22.12952979999676</value></horizontalSlowness><backazimuth><value>272.32222528842374</value></backazimuth><phaseHint>S</phaseHint><evaluationMode>automatic</evaluationMode><comment><text>17921.693963506568</text><id>DFX:rectilinearity</id></comment><comment><text>de.gempa.tb1.Pick/20250412104731.712133.123466</text><id>RefPickID</id></comment><comment><text>9.067126476051316</text><id>SNR</id></comment></pick><pick publicID="de.gempa.tb1.Pick/20250412104743.666335.123478"><time><value>2025-04-12T10:47:36.888394Z</value></time><waveformID networkCode="CX" stationCode="PB15" channelCode="HHZ"/><filterID>ITAPER(4)&gt;&gt;BW(4,4,20)</filterID><methodID>AIC</methodID><horizontalSlowness><value>22.066113339237262</value></horizontalSlowness><backazimuth><value>124.95751095046593</value></backazimuth><phaseHint>P</phaseHint><evaluationMode>automatic</evaluationMode><comment><text>237.0826159134709</text><id>DFX:rectilinearity</id></comment><comment><text>8.958442508177175</text><id>SNR</id></comment></pick><pick publicID="de.gempa.tb1.Pick/20250412104747.561332.123480"><time><value>2025-04-12T10:47:41.168393Z</value></time><waveformID networkCode="CX" stationCode="PB02" channelCode="HHN"/><filterID>ITAPER(2)&gt;&gt;BW(3,3,20)</filterID><methodID>L2-AIC-GRID</methodID><horizontalSlowness><value>21.146955524504104</value></horizontalSlowness><backazimuth><value>1.62599879244749</value></backazimuth><phaseHint>S</phaseHint><evaluationMode>automatic</evaluationMode><comment><text>325.0568580473808</text><id>DFX:rectilinearity</id></comment><comment><text>de.gempa.tb1.Pick/20250412104734.530272.123468</text><id>RefPickID</id></comment><comment><text>5.831824879097511</text><id>SNR</id></comment></pick><pick publicID="de.gempa.tb1.Pick/20250412104747.702861.123481"><time><value>2025-04-12T10:47:41.908393Z</value></time><waveformID networkCode="CX" stationCode="PB06" channelCode="HHN"/><filterID>ITAPER(2)&gt;&gt;BW(3,3,20)</filterID><methodID>L2-AIC-GRID</methodID><horizontalSlowness><value>20.662829806793155</value></horizontalSlowness><backazimuth><value>191.4066199842288</value></backazimuth><phaseHint>S</phaseHint><evaluationMode>automatic</evaluationMode><comment><text>1387.552174593006</text><id>DFX:rectilinearity</id></comment><comment><text>de.gempa.tb1.Pick/20250412104737.529621.123474</text><id>RefPickID</id></comment><comment><text>13.812837266272924</text><id>SNR</id></comment></pick><pick publicID="de.gempa.tb1.Pick/20250412104750.69491.123482"><time><value>2025-04-12T10:47:45.208393Z</value></time><waveformID networkCode="CX" stationCode="PB01" channelCode="HHN"/><filterID>ITAPER(2)&gt;&gt;BW(3,3,20)</filterID><methodID>L2-AIC-GRID</methodID><horizontalSlowness><value>15.543141281609188</value></horizontalSlowness><backazimuth><value>16.06117147565982</value></backazimuth><phaseHint>S</phaseHint><evaluationMode>automatic</evaluationMode><comment><text>349.80585511005944</text><id>DFX:rectilinearity</id></comment><comment><text>de.gempa.tb1.Pick/20250412104737.4988.123472</text><id>RefPickID</id></comment><comment><text>18.162654279470747</text><id>SNR</id></comment></pick><pick publicID="de.gempa.tb1.Pick/20250412104804.505982.123487"><time><value>2025-04-12T10:47:50.85Z</value></time><waveformID networkCode="CX" stationCode="PSGCX" channelCode="HHZ"/><filterID>ITAPER(4)&gt;&gt;BW(4,4,20)</filterID><methodID>AIC</methodID><horizontalSlowness><value>18.544470855525983</value></horizontalSlowness><backazimuth><value>98.73514207527315</value></backazimuth><phaseHint>P</phaseHint><evaluationMode>automatic</evaluationMode><comment><text>32.80802303791612</text><id>DFX:rectilinearity</id></comment><comment><text>8.160457937161311</text><id>SNR</id></comment></pick><pick publicID="de.gempa.tb1.Pick/20250412104806.861818.123491"><time><value>2025-04-12T10:47:54.128394Z</value></time><waveformID networkCode="CX" stationCode="PB15" channelCode="HHN"/><filterID>ITAPER(2)&gt;&gt;BW(3,3,20)</filterID><methodID>L2-AIC-GRID</methodID><horizontalSlowness><value>22.71865754009832</value></horizontalSlowness><backazimuth><value>155.3667044077803</value></backazimuth><phaseHint>S</phaseHint><evaluationMode>automatic</evaluationMode><comment><text>17961.073620347091</text><id>DFX:rectilinearity</id></comment><comment><text>de.gempa.tb1.Pick/20250412104743.666335.123478</text><id>RefPickID</id></comment><comment><text>10.340497301017493</text><id>SNR</id></comment></pick><origin publicID="de.gempa.tb1.Origin/20250412104806.864846.81088"><time><value>2025-04-12T10:47:14.483446Z</value><uncertainty>0.6236676573753357</uncertainty></time><latitude><value>-21.93894386291504</value><uncertainty>2.330853223800659</uncertainty></latitude><longitude><value>-69.57926177978516</value><uncertainty>8.053690910339355</uncertainty></longitude><depth><value>72.79936981201172</value><uncertainty>6.275903224945068</uncertainty></depth><depthType>from location</depthType><methodID>LOCSAT</methodID><earthModelID>iasp91_scanloc</earthModelID><quality><associatedPhaseCount>14</associatedPhaseCount><usedPhaseCount>14</usedPhaseCount><associatedStationCount>8</associatedStationCount><usedStationCount>8</usedStationCount><depthPhaseCount>0</depthPhaseCount><standardError>0.33846775368413046</standardError><azimuthalGap>109.78456115722656</azimuthalGap><maximumDistance>2.3849213123321533</maximumDistance><minimumDistance>0.1947035789489746</minimumDistance><medianDistance>0.7632214426994324</medianDistance></quality><uncertainty><minHorizontalUncertainty>4.696278095245361</minHorizontalUncertainty><maxHorizontalUncertainty>17.35043716430664</maxHorizontalUncertainty><azimuthMaxHorizontalUncertainty>84.13219451904297</azimuthMaxHorizontalUncertainty><preferredDescription>horizontal uncertainty</preferredDescription></uncertainty><evaluationMode>automatic</evaluationMode><evaluationStatus>confirmed</evaluationStatus><comment><text>0.11</text><id>mismatchScore</id></comment><comment><text>mismatchScore</text><id>scevalMethod</id></comment><arrival><pickID>de.gempa.tb1.Pick/20250412104730.67493.123464</pickID><phase>P</phase><azimuth>235.9252014160156</azimuth><distance>0.1947035789489746</distance><timeResidual>-0.2028970718383789</timeResidual><timeUsed>true</timeUsed><horizontalSlownessUsed>false</horizontalSlownessUsed><backazimuthUsed>false</backazimuthUsed><weight>1</weight></arrival><arrival><pickID>de.gempa.tb1.Pick/20250412104731.712133.123466</pickID><phase>P</phase><azimuth>306.473388671875</azimuth><distance>0.3548835813999176</distance><timeResidual>-0.016529083251953125</timeResidual><timeUsed>true</timeUsed><horizontalSlownessUsed>false</horizontalSlownessUsed><backazimuthUsed>false</backazimuthUsed><weight>1</weight></arrival><arrival><pickID>de.gempa.tb1.Pick/20250412104734.530272.123468</pickID><phase>P</phase><azimuth>334.3794860839844</azimuth><distance>0.6830426454544067</distance><timeResidual>0.1250448226928711</timeResidual><timeUsed>true</timeUsed><horizontalSlownessUsed>false</horizontalSlownessUsed><backazimuthUsed>false</backazimuthUsed><weight>1</weight></arrival><arrival><pickID>de.gempa.tb1.Pick/20250412104736.209965.123470</pickID><phase>P</phase><azimuth>65.70390319824219</azimuth><distance>0.3439788818359375</distance><timeResidual>0.024428367614746094</timeResidual><timeUsed>true</timeUsed><horizontalSlownessUsed>false</horizontalSlownessUsed><backazimuthUsed>false</backazimuthUsed><weight>1</weight></arrival><arrival><pickID>de.gempa.tb1.Pick/20250412104737.4988.123472</pickID><phase>P</phase><azimuth>5.499679565429688</azimuth><distance>0.8954105377197266</distance><timeResidual>0.0957498550415039</timeResidual><timeUsed>true</timeUsed><horizontalSlownessUsed>false</horizontalSlownessUsed><backazimuthUsed>false</backazimuthUsed><weight>1</weight></arrival><arrival><pickID>de.gempa.tb1.Pick/20250412104737.529621.123474</pickID><phase>P</phase><azimuth>179.48802185058594</azimuth><distance>0.7632214426994324</distance><timeResidual>-0.43109703063964844</timeResidual><timeUsed>true</timeUsed><horizontalSlownessUsed>false</horizontalSlownessUsed><backazimuthUsed>false</backazimuthUsed><weight>1</weight></arrival><arrival><pickID>de.gempa.tb1.Pick/20250412104740.606443.123476</pickID><phase>S</phase><azimuth>235.9252014160156</azimuth><distance>0.1947035789489746</distance><timeResidual>-0.2385435104370117</timeResidual><timeUsed>true</timeUsed><horizontalSlownessUsed>false</horizontalSlownessUsed><backazimuthUsed>false</backazimuthUsed><weight>1</weight></arrival><arrival><pickID>de.gempa.tb1.Pick/20250412104741.974758.123477</pickID><phase>S</phase><azimuth>306.473388671875</azimuth><distance>0.3548835813999176</distance><timeResidual>0.21326637268066406</timeResidual><timeUsed>true</timeUsed><horizontalSlownessUsed>false</horizontalSlownessUsed><backazimuthUsed>false</backazimuthUsed><weight>1</weight></arrival><arrival><pickID>de.gempa.tb1.Pick/20250412104743.666335.123478</pickID><phase>P</phase><azimuth>175.48846435546875</azimuth><distance>1.2673412561416626</distance><timeResidual>0.392878532409668</timeResidual><timeUsed>true</timeUsed><horizontalSlownessUsed>false</horizontalSlownessUsed><backazimuthUsed>false</backazimuthUsed><weight>1</weight></arrival><arrival><pickID>de.gempa.tb1.Pick/20250412104747.561332.123480</pickID><phase>S</phase><azimuth>334.3794860839844</azimuth><distance>0.6830426454544067</distance><timeResidual>0.3543367385864258</timeResidual><timeUsed>true</timeUsed><horizontalSlownessUsed>false</horizontalSlownessUsed><backazimuthUsed>false</backazimuthUsed><weight>1</weight></arrival><arrival><pickID>de.gempa.tb1.Pick/20250412104747.702861.123481</pickID><phase>S</phase><azimuth>179.48802185058594</azimuth><distance>0.7632214426994324</distance><timeResidual>-0.4848356246948242</timeResidual><timeUsed>true</timeUsed><horizontalSlownessUsed>false</horizontalSlownessUsed><backazimuthUsed>false</backazimuthUsed><weight>1</weight></arrival><arrival><pickID>de.gempa.tb1.Pick/20250412104750.69491.123482</pickID><phase>S</phase><azimuth>5.499679565429688</azimuth><distance>0.8954105377197266</distance><timeResidual>0.04637813568115234</timeResidual><timeUsed>true</timeUsed><horizontalSlownessUsed>false</horizontalSlownessUsed><backazimuthUsed>false</backazimuthUsed><weight>1</weight></arrival><arrival><pickID>de.gempa.tb1.Pick/20250412104804.505982.123487</pickID><phase>P</phase><azimuth>347.5831604003906</azimuth><distance>2.3849213123321533</distance><timeResidual>-0.5408201217651367</timeResidual><timeUsed>true</timeUsed><horizontalSlownessUsed>false</horizontalSlownessUsed><backazimuthUsed>false</backazimuthUsed><weight>1</weight></arrival><arrival><pickID>de.gempa.tb1.Pick/20250412104806.861818.123491</pickID><phase>S</phase><azimuth>175.48846435546875</azimuth><distance>1.2673412561416626</distance><timeResidual>0.662693977355957</timeResidual><timeUsed>true</timeUsed><horizontalSlownessUsed>false</horizontalSlownessUsed><backazimuthUsed>false</backazimuthUsed><weight>1</weight></arrival><magnitude publicID="de.gempa.tb1.Magnitude/20250412104815.940927.213123"><magnitude><value>2.2190298111941211</value></magnitude><type>M</type><methodID>weighted average</methodID><stationCount>7</stationCount></magnitude></origin><event publicID="gempa2025hfju"><preferredOriginID>de.gempa.tb1.Origin/20250412104806.864846.81088</preferredOriginID><preferredMagnitudeID>de.gempa.tb1.Magnitude/20250412104815.940927.213123</preferredMagnitudeID><description><text>Northern Chile</text><type>region name</type></description><originReference>de.gempa.tb1.Origin/20250412104806.864846.81088</originReference></event></EventParameters></seiscomp>