<?xml version="1.0" encoding="UTF-8"?>
<seiscomp xmlns="http://geofon.gfz-potsdam.de/ns/seiscomp3-schema/0.13" version="0.13"><EventParameters><pick publicID="de.gempa.tb1.Pick/20250414013351.280041.125356"><time><value>2025-04-14T01:33:35.819538Z</value></time><waveformID networkCode="GE" stationCode="TNTI" channelCode="BHZ"/><filterID>BW(4,0.7,2)</filterID><methodID>AIC</methodID><horizontalSlowness><value>15.61668936384228</value></horizontalSlowness><backazimuth><value>268.3967864117094</value></backazimuth><phaseHint>P</phaseHint><evaluationMode>automatic</evaluationMode><comment><text>67159666.13480194</text><id>DFX:rectilinearity</id></comment></pick><pick publicID="de.gempa.tb1.Pick/20250414013427.658228.125361"><time><value>2025-04-14T01:34:11.369538Z</value></time><waveformID networkCode="GE" stationCode="LUWI" channelCode="BHZ"/><filterID>BW(4,0.7,2)</filterID><methodID>AIC</methodID><horizontalSlowness><value>2.6567273674550456</value></horizontalSlowness><backazimuth><value>222.54855212075356</value></backazimuth><phaseHint>P</phaseHint><evaluationMode>automatic</evaluationMode><comment><text>203760.19389681448</text><id>DFX:rectilinearity</id></comment></pick><pick publicID="de.gempa.tb1.Pick/20250414013504.717816.125368"><time><value>2025-04-14T01:34:46.919538Z</value></time><waveformID networkCode="GE" stationCode="BNDI" channelCode="BHZ"/><filterID>BW(4,0.7,2)</filterID><methodID>AIC</methodID><horizontalSlowness><value>4.506177399334849</value></horizontalSlowness><backazimuth><value>310.31020348403024</value></backazimuth><phaseHint>P</phaseHint><evaluationMode>automatic</evaluationMode><comment><text>161241.65422152582</text><id>DFX:rectilinearity</id></comment></pick><pick publicID="de.gempa.tb1.Pick/20250414013524.300872.125370"><time><value>2025-04-14T01:34:57.669538Z</value></time><waveformID networkCode="GE" stationCode="FAKI" channelCode="BHZ"/><filterID>BW(4,0.7,2)</filterID><methodID>AIC</methodID><horizontalSlowness><value>9.416420584050657</value></horizontalSlowness><backazimuth><value>284.0588973701082</value></backazimuth><phaseHint>P</phaseHint><evaluationMode>automatic</evaluationMode><comment><text>18246.82995120814</text><id>DFX:rectilinearity</id></comment></pick><pick publicID="de.gempa.tb1.Pick/20250414013558.297503.125379"><time><value>2025-04-14T01:35:30.37186Z</value></time><waveformID networkCode="GE" stationCode="BKB" channelCode="BHZ"/><filterID>BW(4,0.7,2)</filterID><methodID>AIC</methodID><horizontalSlowness><value>19.72526315059146</value></horizontalSlowness><backazimuth><value>182.03625457006947</value></backazimuth><phaseHint>P</phaseHint><evaluationMode>automatic</evaluationMode><comment><text>11165.33795997069</text><id>DFX:rectilinearity</id></comment></pick><pick publicID="de.gempa.tb1.Pick/20250414013600.297906.125383"><time><value>2025-04-14T01:35:37.669538Z</value></time><waveformID networkCode="GE" stationCode="MMRI" channelCode="BHZ"/><filterID>BW(4,0.7,2)</filterID><methodID>AIC</methodID><horizontalSlowness><value>12.75576621303996</value></horizontalSlowness><backazimuth><value>285.5193163278308</value></backazimuth><phaseHint>P</phaseHint><evaluationMode>automatic</evaluationMode><comment><text>4162.202970073504</text><id>DFX:rectilinearity</id></comment></pick><pick publicID="de.gempa.tb1.Pick/20250414013602.294992.125385"><time><value>2025-04-14T01:35:47.87186Z</value></time><waveformID networkCode="GE" stationCode="SOEI" channelCode="BHZ"/><filterID>BW(4,0.7,2)</filterID><methodID>AIC</methodID><horizontalSlowness><value>12.352643319094446</value></horizontalSlowness><backazimuth><value>127.65234686198045</value></backazimuth><phaseHint>P</phaseHint><evaluationMode>automatic</evaluationMode><comment><text>24688.674438281814</text><id>DFX:rectilinearity</id></comment></pick><pick publicID="de.gempa.tb1.Pick/20250414013714.249983.125393"><time><value>2025-04-14T01:36:49.019538Z</value></time><waveformID networkCode="GE" stationCode="JAGI" channelCode="BHZ"/><filterID>BW(4,0.7,2)</filterID><methodID>AIC</methodID><horizontalSlowness><value>1.3402467946314987</value></horizontalSlowness><backazimuth><value>33.70157497575704</value></backazimuth><phaseHint>P</phaseHint><evaluationMode>automatic</evaluationMode><comment><text>2029.6759440002854</text><id>DFX:rectilinearity</id></comment></pick><pick publicID="de.gempa.tb1.Pick/20250414013737.284247.125396"><time><value>2025-04-14T01:37:18.42186Z</value></time><waveformID networkCode="GE" stationCode="SMRI" channelCode="BHZ"/><filterID>BW(4,0.7,2)</filterID><methodID>AIC</methodID><horizontalSlowness><value>4.4182416930171406</value></horizontalSlowness><backazimuth><value>74.98593981317106</value></backazimuth><phaseHint>P</phaseHint><evaluationMode>automatic</evaluationMode><comment><text>15937.481503502579</text><id>DFX:rectilinearity</id></comment></pick><pick publicID="de.gempa.tb1.Pick/20250414013900.869949.125399"><time><value>2025-04-14T01:38:19.044536Z</value></time><waveformID networkCode="GE" stationCode="PMG" locationCode="00" channelCode="BHZ"/><filterID>BW(4,0.7,2)</filterID><methodID>AIC</methodID><horizontalSlowness><value>6.819137569978778</value></horizontalSlowness><backazimuth><value>293.971581122726</value></backazimuth><phaseHint>P</phaseHint><evaluationMode>automatic</evaluationMode><comment><text>6297.735766331837</text><id>DFX:rectilinearity</id></comment></pick><pick publicID="de.gempa.tb1.Pick/20250414014540.404454.125402"><time><value>2025-04-14T01:45:24.3Z</value></time><waveformID networkCode="GE" stationCode="VOI" channelCode="BHZ"/><filterID>BW(4,0.7,2)</filterID><methodID>AIC</methodID><horizontalSlowness><value>5.645593593723863</value></horizontalSlowness><backazimuth><value>101.64268919077495</value></backazimuth><phaseHint>P</phaseHint><evaluationMode>automatic</evaluationMode><comment><text>293.27084240553665</text><id>DFX:rectilinearity</id></comment></pick><pick publicID="de.gempa.tb1.Pick/20250414014704.43162.125407"><time><value>2025-04-14T01:46:20.0000Z</value></time><waveformID networkCode="GE" stationCode="CSS" channelCode="BHZ"/><filterID>BW(4,0.7,2)</filterID><methodID>AIC</methodID><horizontalSlowness><value>4.163378611737702</value></horizontalSlowness><backazimuth><value>26.439809258132073</value></backazimuth><phaseHint>P</phaseHint><evaluationMode>automatic</evaluationMode><comment><text>78.06429100917379</text><id>DFX:rectilinearity</id></comment></pick><pick publicID="de.gempa.tb1.Pick/20250414014720.711036.125410"><time><value>2025-04-14T01:46:07.844538Z</value></time><waveformID networkCode="GE" stationCode="KMBO" locationCode="00" channelCode="BHZ"/><filterID>BW(4,0.7,2)</filterID><methodID>AIC</methodID><horizontalSlowness><value>3.3834497901941227</value></horizontalSlowness><backazimuth><value>297.7496008574776</value></backazimuth><phaseHint>P</phaseHint><evaluationMode>automatic</evaluationMode><comment><text>23.71237494485176</text><id>DFX:rectilinearity</id></comment></pick><pick publicID="de.gempa.tb1.Pick/20250414014746.945777.125417"><time><value>2025-04-14T01:46:56.625Z</value></time><waveformID networkCode="GE" stationCode="DAG" channelCode="BHZ"/><filterID>BW(4,0.7,2)</filterID><methodID>AIC</methodID><horizontalSlowness><value>5.792834186909876</value></horizontalSlowness><backazimuth><value>265.11891917740797</value></backazimuth><phaseHint>P</phaseHint><evaluationMode>automatic</evaluationMode><comment><text>12.157139349809142</text><id>DFX:rectilinearity</id></comment></pick><origin publicID="de.gempa.tb1.Origin/20250414015357.812058.163643"><time><value>2025-04-14T01:33:15.65856Z</value><uncertainty>1.0280766487121582</uncertainty></time><latitude><value>0.8065430521965027</value><uncertainty>8.096641540527344</uncertainty></latitude><longitude><value>126.2127227783203</value><uncertainty>3.4357964992523193</uncertainty></longitude><depth><value>37.83935546875</value><uncertainty>9.95830249786377</uncertainty></depth><depthType>from location</depthType><methodID>LOCSAT</methodID><earthModelID>iasp91</earthModelID><quality><associatedPhaseCount>14</associatedPhaseCount><usedPhaseCount>14</usedPhaseCount><associatedStationCount>14</associatedStationCount><usedStationCount>14</usedStationCount><depthPhaseCount>0</depthPhaseCount><standardError>1.110094970136634</standardError><azimuthalGap>99.44064331054688</azimuthalGap><maximumDistance>100.06236267089844</maximumDistance><minimumDistance>1.1543843746185303</minimumDistance><medianDistance>15.146717071533203</medianDistance></quality><uncertainty><minHorizontalUncertainty>7.292966842651367</minHorizontalUncertainty><maxHorizontalUncertainty>17.405071258544922</maxHorizontalUncertainty><azimuthMaxHorizontalUncertainty>176.1007537841797</azimuthMaxHorizontalUncertainty><preferredDescription>horizontal uncertainty</preferredDescription></uncertainty><evaluationMode>automatic</evaluationMode><evaluationStatus>confirmed</evaluationStatus><comment><text>0.15</text><id>mismatchScore</id></comment><comment><text>mismatchScore</text><id>scevalMethod</id></comment><arrival><pickID>de.gempa.tb1.Pick/20250414013351.280041.125356</pickID><phase>P</phase><azimuth>91.70516967773438</azimuth><distance>1.1543843746185303</distance><timeResidual>0.4095478057861328</timeResidual><timeUsed>true</timeUsed><horizontalSlownessUsed>false</horizontalSlownessUsed><backazimuthUsed>false</backazimuthUsed><weight>1</weight></arrival><arrival><pickID>de.gempa.tb1.Pick/20250414013427.658228.125361</pickID><phase>P</phase><azimuth>241.92230224609375</azimuth><distance>3.9000487327575684</distance><timeResidual>-1.7951030731201172</timeResidual><timeUsed>true</timeUsed><horizontalSlownessUsed>false</horizontalSlownessUsed><backazimuthUsed>false</backazimuthUsed><weight>1</weight></arrival><arrival><pickID>de.gempa.tb1.Pick/20250414013504.717816.125368</pickID><phase>P</phase><azimuth>145.16152954101562</azimuth><distance>6.451770305633545</distance><timeResidual>-1.3291034698486328</timeResidual><timeUsed>true</timeUsed><horizontalSlownessUsed>false</horizontalSlownessUsed><backazimuthUsed>false</backazimuthUsed><weight>1</weight></arrival><arrival><pickID>de.gempa.tb1.Pick/20250414013524.300872.125370</pickID><phase>P</phase><azimuth>121.54480743408203</azimuth><distance>7.078623294830322</distance><timeResidual>0.8063945770263672</timeResidual><timeUsed>true</timeUsed><horizontalSlownessUsed>false</horizontalSlownessUsed><backazimuthUsed>false</backazimuthUsed><weight>1</weight></arrival><arrival><pickID>de.gempa.tb1.Pick/20250414013558.297503.125379</pickID><phase>P</phase><azimuth>258.46978759765625</azimuth><distance>9.499621391296387</distance><timeResidual>0.2744121551513672</timeResidual><timeUsed>true</timeUsed><horizontalSlownessUsed>false</horizontalSlownessUsed><backazimuthUsed>false</backazimuthUsed><weight>1</weight></arrival><arrival><pickID>de.gempa.tb1.Pick/20250414013600.297906.125383</pickID><phase>P</phase><azimuth>202.81532287597656</azimuth><distance>10.182125091552734</distance><timeResidual>-1.771677017211914</timeResidual><timeUsed>true</timeUsed><horizontalSlownessUsed>false</horizontalSlownessUsed><backazimuthUsed>false</backazimuthUsed><weight>1</weight></arrival><arrival><pickID>de.gempa.tb1.Pick/20250414013602.294992.125385</pickID><phase>P</phase><azimuth>190.413330078125</azimuth><distance>10.669659614562988</distance><timeResidual>1.7547588348388672</timeResidual><timeUsed>true</timeUsed><horizontalSlownessUsed>false</horizontalSlownessUsed><backazimuthUsed>false</backazimuthUsed><weight>1</weight></arrival><arrival><pickID>de.gempa.tb1.Pick/20250414013714.249983.125393</pickID><phase>P</phase><azimuth>232.28468322753906</azimuth><distance>15.146717071533203</distance><timeResidual>1.9418773651123047</timeResidual><timeUsed>true</timeUsed><horizontalSlownessUsed>false</horizontalSlownessUsed><backazimuthUsed>false</backazimuthUsed><weight>1</weight></arrival><arrival><pickID>de.gempa.tb1.Pick/20250414013737.284247.125396</pickID><phase>P</phase><azimuth>243.373291015625</azimuth><distance>17.565128326416016</distance><timeResidual>0.6308116912841797</timeResidual><timeUsed>true</timeUsed><horizontalSlownessUsed>false</horizontalSlownessUsed><backazimuthUsed>false</backazimuthUsed><weight>1</weight></arrival><arrival><pickID>de.gempa.tb1.Pick/20250414013900.869949.125399</pickID><phase>P</phase><azimuth>116.42925262451172</azimuth><distance>23.19266700744629</distance><timeResidual>-0.3020038604736328</timeResidual><timeUsed>true</timeUsed><horizontalSlownessUsed>false</horizontalSlownessUsed><backazimuthUsed>false</backazimuthUsed><weight>1</weight></arrival><arrival><pickID>de.gempa.tb1.Pick/20250414014540.404454.125402</pickID><phase>P</phase><azimuth>247.64605712890625</azimuth><distance>80.57508850097656</distance><timeResidual>-0.5578937530517578</timeResidual><timeUsed>true</timeUsed><horizontalSlownessUsed>false</horizontalSlownessUsed><backazimuthUsed>false</backazimuthUsed><weight>1</weight></arrival><arrival><pickID>de.gempa.tb1.Pick/20250414014704.43162.125407</pickID><phase>P</phase><azimuth>304.839111328125</azimuth><distance>91.90901947021484</distance><timeResidual>-0.4613971710205078</timeResidual><timeUsed>true</timeUsed><horizontalSlownessUsed>false</horizontalSlownessUsed><backazimuthUsed>false</backazimuthUsed><weight>1</weight></arrival><arrival><pickID>de.gempa.tb1.Pick/20250414014720.711036.125410</pickID><phase>P</phase><azimuth>268.86614990234375</azimuth><distance>88.97637176513672</distance><timeResidual>0.5793132781982422</timeResidual><timeUsed>true</timeUsed><horizontalSlownessUsed>false</horizontalSlownessUsed><backazimuthUsed>false</backazimuthUsed><weight>1</weight></arrival><arrival><pickID>de.gempa.tb1.Pick/20250414014746.945777.125417</pickID><phase>P</phase><azimuth>352.2645263671875</azimuth><distance>100.06236267089844</distance><timeResidual>-0.1799030303955078</timeResidual><timeUsed>true</timeUsed><horizontalSlownessUsed>false</horizontalSlownessUsed><backazimuthUsed>false</backazimuthUsed><weight>1</weight></arrival><magnitude publicID="de.gempa.tb1.Magnitude/20250414015357.835992.418428"><magnitude><value>5.14145238167216</value></magnitude><type>M</type><methodID>weighted average</methodID><stationCount>10</stationCount></magnitude></origin><event publicID="gempa2025hijj"><preferredOriginID>de.gempa.tb1.Origin/20250414015357.812058.163643</preferredOriginID><preferredMagnitudeID>de.gempa.tb1.Magnitude/20250414015357.835992.418428</preferredMagnitudeID><preferredFocalMechanismID>de.gempa.tb1.FocalMechanism/20250414020950.739472.245457</preferredFocalMechanismID><description><text>Northern Molucca Sea</text><type>region name</type></description><originReference>de.gempa.tb1.Origin/20250414015357.812058.163643</originReference></event></EventParameters></seiscomp>