<?xml version="1.0" encoding="UTF-8"?>
<seiscomp xmlns="http://geofon.gfz-potsdam.de/ns/seiscomp3-schema/0.13" version="0.13"><EventParameters><pick publicID="de.gempa.tb1.Pick/20250412040025.569716.121750"><time><value>2025-04-12T04:00:19.028393Z</value></time><waveformID networkCode="CX" stationCode="PB02" channelCode="HHZ"/><filterID>ITAPER(4)&gt;&gt;BW(4,4,20)</filterID><methodID>AIC</methodID><horizontalSlowness><value>23.397445529347074</value></horizontalSlowness><backazimuth><value>33.801966451286177</value></backazimuth><phaseHint>P</phaseHint><evaluationMode>automatic</evaluationMode><comment><text>21.365616751489586</text><id>DFX:rectilinearity</id></comment><comment><text>12.036094129120604</text><id>SNR</id></comment></pick><pick publicID="de.gempa.tb1.Pick/20250412040027.573296.121752"><time><value>2025-04-12T04:00:21.618394Z</value></time><waveformID networkCode="CX" stationCode="PB07" channelCode="HHZ"/><filterID>ITAPER(4)&gt;&gt;BW(4,4,20)</filterID><methodID>AIC</methodID><horizontalSlowness><value>22.401214633754435</value></horizontalSlowness><backazimuth><value>68.0281748071715</value></backazimuth><phaseHint>P</phaseHint><evaluationMode>automatic</evaluationMode><comment><text>232.11983279044884</text><id>DFX:rectilinearity</id></comment><comment><text>10.651020326969087</text><id>SNR</id></comment></pick><pick publicID="de.gempa.tb1.Pick/20250412040030.573172.121754"><time><value>2025-04-12T04:00:21.708393Z</value></time><waveformID networkCode="CX" stationCode="PB01" channelCode="HHZ"/><filterID>ITAPER(4)&gt;&gt;BW(4,4,20)</filterID><methodID>AIC</methodID><horizontalSlowness><value>21.892513428003642</value></horizontalSlowness><backazimuth><value>356.85699276741536</value></backazimuth><phaseHint>P</phaseHint><evaluationMode>automatic</evaluationMode><comment><text>20.487440170055475</text><id>DFX:rectilinearity</id></comment><comment><text>10.741202219558602</text><id>SNR</id></comment></pick><pick publicID="de.gempa.tb1.Pick/20250412040038.512975.121760"><time><value>2025-04-12T04:00:25.428393Z</value></time><waveformID networkCode="CX" stationCode="PB02" channelCode="HHN"/><filterID>ITAPER(2)&gt;&gt;BW(3,3,20)</filterID><methodID>L2-AIC-GRID</methodID><horizontalSlowness><value>11.924424590109812</value></horizontalSlowness><backazimuth><value>353.1871900509022</value></backazimuth><phaseHint>S</phaseHint><evaluationMode>automatic</evaluationMode><comment><text>44.08601263893901</text><id>DFX:rectilinearity</id></comment><comment><text>de.gempa.tb1.Pick/20250412040025.569716.121750</text><id>RefPickID</id></comment><comment><text>8.237073955887581</text><id>SNR</id></comment></pick><pick publicID="de.gempa.tb1.Pick/20250412040038.645746.121761"><time><value>2025-04-12T04:00:30.068393Z</value></time><waveformID networkCode="CX" stationCode="PB01" channelCode="HHN"/><filterID>ITAPER(2)&gt;&gt;BW(3,3,20)</filterID><methodID>L2-AIC-GRID</methodID><horizontalSlowness><value>20.775270072004052</value></horizontalSlowness><backazimuth><value>86.75645273377602</value></backazimuth><phaseHint>S</phaseHint><evaluationMode>automatic</evaluationMode><comment><text>19.43274860546617</text><id>DFX:rectilinearity</id></comment><comment><text>de.gempa.tb1.Pick/20250412040030.573172.121754</text><id>RefPickID</id></comment><comment><text>14.338724134557916</text><id>SNR</id></comment></pick><pick publicID="de.gempa.tb1.Pick/20250412040041.88981.121762"><time><value>2025-04-12T04:00:30.188394Z</value></time><waveformID networkCode="CX" stationCode="PB07" channelCode="HHN"/><filterID>ITAPER(2)&gt;&gt;BW(3,3,20)</filterID><methodID>L2-AIC-GRID</methodID><horizontalSlowness><value>23.119589063183827</value></horizontalSlowness><backazimuth><value>90.17638416907525</value></backazimuth><phaseHint>S</phaseHint><evaluationMode>automatic</evaluationMode><comment><text>357.2561088904877</text><id>DFX:rectilinearity</id></comment><comment><text>de.gempa.tb1.Pick/20250412040027.573296.121752</text><id>RefPickID</id></comment><comment><text>5.437947902144727</text><id>SNR</id></comment></pick><origin publicID="de.gempa.tb1.Origin/20250412040041.900131.73258"><time><value>2025-04-12T04:00:10.460833Z</value><uncertainty>1.4815890789031982</uncertainty></time><latitude><value>-21.2758846282959</value><uncertainty>7.417203426361084</uncertainty></latitude><longitude><value>-69.89517211914062</value><uncertainty>11.553014755249023</uncertainty></longitude><depth><value>57.12741088867188</value><uncertainty>8.7313871383667</uncertainty></depth><depthType>from location</depthType><methodID>LOCSAT</methodID><earthModelID>iasp91_scanloc</earthModelID><quality><associatedPhaseCount>6</associatedPhaseCount><usedPhaseCount>6</usedPhaseCount><associatedStationCount>3</associatedStationCount><usedStationCount>3</usedStationCount><depthPhaseCount>0</depthPhaseCount><standardError>0.0405583432752335</standardError><azimuthalGap>237.71806716918945</azimuthalGap><maximumDistance>0.44864925742149353</maximumDistance><minimumDistance>0.043636683374643326</minimumDistance><medianDistance>0.44548720121383667</medianDistance></quality><uncertainty><minHorizontalUncertainty>9.163362503051758</minHorizontalUncertainty><maxHorizontalUncertainty>27.980737686157227</maxHorizontalUncertainty><azimuthMaxHorizontalUncertainty>119.45923614501953</azimuthMaxHorizontalUncertainty><preferredDescription>horizontal uncertainty</preferredDescription></uncertainty><evaluationMode>automatic</evaluationMode><evaluationStatus>confirmed</evaluationStatus><comment><text>0.00</text><id>mismatchScore</id></comment><comment><text>mismatchScore</text><id>scevalMethod</id></comment><arrival><pickID>de.gempa.tb1.Pick/20250412040025.569716.121750</pickID><phase>P</phase><azimuth>181.04615783691406</azimuth><distance>0.043636683374643326</distance><timeResidual>0.015016555786132812</timeResidual><timeUsed>true</timeUsed><horizontalSlownessUsed>false</horizontalSlownessUsed><backazimuthUsed>false</backazimuthUsed><weight>1</weight></arrival><arrival><pickID>de.gempa.tb1.Pick/20250412040027.573296.121752</pickID><phase>P</phase><azimuth>178.93182373046875</azimuth><distance>0.44864925742149353</distance><timeResidual>-0.06721878051757812</timeResidual><timeUsed>true</timeUsed><horizontalSlownessUsed>false</horizontalSlownessUsed><backazimuthUsed>false</backazimuthUsed><weight>1</weight></arrival><arrival><pickID>de.gempa.tb1.Pick/20250412040030.573172.121754</pickID><phase>P</phase><azimuth>58.76422500610352</azimuth><distance>0.44548720121383667</distance><timeResidual>0.05232429504394531</timeResidual><timeUsed>true</timeUsed><horizontalSlownessUsed>false</horizontalSlownessUsed><backazimuthUsed>false</backazimuthUsed><weight>1</weight></arrival><arrival><pickID>de.gempa.tb1.Pick/20250412040038.512975.121760</pickID><phase>S</phase><azimuth>181.04615783691406</azimuth><distance>0.043636683374643326</distance><timeResidual>-0.008538246154785156</timeResidual><timeUsed>true</timeUsed><horizontalSlownessUsed>false</horizontalSlownessUsed><backazimuthUsed>false</backazimuthUsed><weight>1</weight></arrival><arrival><pickID>de.gempa.tb1.Pick/20250412040038.645746.121761</pickID><phase>S</phase><azimuth>58.76422500610352</azimuth><distance>0.44548720121383667</distance><timeResidual>-0.029572486877441406</timeResidual><timeUsed>true</timeUsed><horizontalSlownessUsed>false</horizontalSlownessUsed><backazimuthUsed>false</backazimuthUsed><weight>1</weight></arrival><arrival><pickID>de.gempa.tb1.Pick/20250412040041.88981.121762</pickID><phase>S</phase><azimuth>178.93182373046875</azimuth><distance>0.44864925742149353</distance><timeResidual>0.037957191467285156</timeResidual><timeUsed>true</timeUsed><horizontalSlownessUsed>false</horizontalSlownessUsed><backazimuthUsed>false</backazimuthUsed><weight>1</weight></arrival><magnitude publicID="de.gempa.tb1.Magnitude/20250412040054.573685.172523"><magnitude><value>1.677110720796173</value></magnitude><type>M</type><methodID>weighted average</methodID><stationCount>3</stationCount></magnitude></origin><event publicID="gempa2025hewf"><preferredOriginID>de.gempa.tb1.Origin/20250412040041.900131.73258</preferredOriginID><preferredMagnitudeID>de.gempa.tb1.Magnitude/20250412040054.573685.172523</preferredMagnitudeID><description><text>Northern Chile</text><type>region name</type></description><originReference>de.gempa.tb1.Origin/20250412040041.900131.73258</originReference></event></EventParameters></seiscomp>