<?xml version="1.0" encoding="UTF-8"?>
<seiscomp xmlns="http://geofon.gfz-potsdam.de/ns/seiscomp3-schema/0.13" version="0.13"><EventParameters><pick publicID="de.gempa.tb2.Pick/20250411232726.139665.66946"><time><value>2025-04-11T23:27:23.375Z</value></time><waveformID networkCode="CH" stationCode="FUORN" channelCode="HHZ"/><filterID>ITAPER(4)&gt;&gt;BW(4,4,20)</filterID><methodID>AIC</methodID><phaseHint>P</phaseHint><evaluationMode>automatic</evaluationMode></pick><pick publicID="de.gempa.tb2.Pick/20250411232728.063688.66949"><time><value>2025-04-11T23:27:23.795Z</value></time><waveformID networkCode="CH" stationCode="DAVOX" channelCode="HHZ"/><filterID>ITAPER(4)&gt;&gt;BW(4,4,20)</filterID><methodID>AIC</methodID><phaseHint>P</phaseHint><evaluationMode>automatic</evaluationMode></pick><pick publicID="de.gempa.tb2.Pick/20250411232730.893385.66952"><time><value>2025-04-11T23:27:25.945Z</value></time><waveformID networkCode="CH" stationCode="FUORN" channelCode="HHN"/><filterID>RMHP(1)&gt;&gt;ITAPER(2)&gt;&gt;BW(4,3,20)</filterID><methodID>L2-AIC-GRID</methodID><phaseHint>S</phaseHint><evaluationMode>automatic</evaluationMode><comment><text>de.gempa.tb2.Pick/20250411232726.139665.66946</text><id>RefPickID</id></comment></pick><pick publicID="de.gempa.tb2.Pick/20250411232733.096559.66953"><time><value>2025-04-11T23:27:26.855Z</value></time><waveformID networkCode="CH" stationCode="DAVOX" channelCode="HHN"/><filterID>RMHP(1)&gt;&gt;ITAPER(2)&gt;&gt;BW(4,3,20)</filterID><methodID>L2-AIC-GRID</methodID><phaseHint>S</phaseHint><evaluationMode>automatic</evaluationMode><comment><text>de.gempa.tb2.Pick/20250411232728.063688.66949</text><id>RefPickID</id></comment></pick><pick publicID="de.gempa.tb2.Pick/20250411232735.192871.66960"><time><value>2025-04-11T23:27:30.865Z</value></time><waveformID networkCode="CH" stationCode="VDL" channelCode="HHZ"/><filterID>ITAPER(4)&gt;&gt;BW(4,4,20)</filterID><methodID>AIC</methodID><phaseHint>P</phaseHint><evaluationMode>automatic</evaluationMode></pick><pick publicID="de.gempa.tb2.Pick/20250411232743.524696.66962"><time><value>2025-04-11T23:27:27.35Z</value></time><waveformID networkCode="CH" stationCode="BERNI" channelCode="HHZ"/><filterID>BW(4,4,8)</filterID><methodID>AIC</methodID><phaseHint>P</phaseHint><evaluationMode>automatic</evaluationMode></pick><pick publicID="de.gempa.tb2.Pick/20250411232743.529798.66964"><time><value>2025-04-11T23:27:32.405Z</value></time><waveformID networkCode="CH" stationCode="BERNI" channelCode="HHN"/><filterID>RMHP(1)&gt;&gt;ITAPER(2)&gt;&gt;BW(2,3,9.0)</filterID><methodID>L2-AIC-GRID</methodID><phaseHint>S</phaseHint><evaluationMode>automatic</evaluationMode><comment><text>de.gempa.tb2.Pick/20250411232743.524696.66962</text><id>RefPickID</id></comment></pick><origin publicID="de.gempa.tb2.Origin/20250411232743.545863.39005"><time><value>2025-04-11T23:27:19.608399Z</value><uncertainty>1.096962571144104</uncertainty></time><latitude><value>46.77448272705078</value><uncertainty>6.319175720214844</uncertainty></latitude><longitude><value>10.164220809936523</value><uncertainty>5.010074138641357</uncertainty></longitude><depth><value>3.717733383178711</value><uncertainty>3.161034345626831</uncertainty></depth><depthType>from location</depthType><methodID>LOCSAT</methodID><earthModelID>iasp91</earthModelID><quality><associatedPhaseCount>7</associatedPhaseCount><usedPhaseCount>7</usedPhaseCount><associatedStationCount>4</associatedStationCount><usedStationCount>4</usedStationCount><depthPhaseCount>0</depthPhaseCount><standardError>0.0821262591709645</standardError><azimuthalGap>244.2108917236328</azimuthalGap><maximumDistance>0.5722607374191284</maximumDistance><minimumDistance>0.16877810657024384</minimumDistance><medianDistance>0.19575923681259155</medianDistance></quality><uncertainty><minHorizontalUncertainty>5.15996789932251</minHorizontalUncertainty><maxHorizontalUncertainty>16.505895614624023</maxHorizontalUncertainty><azimuthMaxHorizontalUncertainty>36.945701599121094</azimuthMaxHorizontalUncertainty><preferredDescription>horizontal uncertainty</preferredDescription></uncertainty><evaluationMode>automatic</evaluationMode><arrival><pickID>de.gempa.tb2.Pick/20250411232726.139665.66946</pickID><phase>P</phase><azimuth>156.0760040283203</azimuth><distance>0.16877810657024384</distance><timeResidual>-0.032538414001464844</timeResidual><timeUsed>true</timeUsed><horizontalSlownessUsed>false</horizontalSlownessUsed><backazimuthUsed>false</backazimuthUsed><weight>1</weight></arrival><arrival><pickID>de.gempa.tb2.Pick/20250411232728.063688.66949</pickID><phase>P</phase><azimuth>271.8651123046875</azimuth><distance>0.19575923681259155</distance><timeResidual>-0.1110999584197998</timeResidual><timeUsed>true</timeUsed><horizontalSlownessUsed>false</horizontalSlownessUsed><backazimuthUsed>false</backazimuthUsed><weight>1</weight></arrival><arrival><pickID>de.gempa.tb2.Pick/20250411232730.893385.66952</pickID><phase>S</phase><azimuth>156.0760040283203</azimuth><distance>0.16877810657024384</distance><timeResidual>0.01635909080505371</timeResidual><timeUsed>true</timeUsed><horizontalSlownessUsed>false</horizontalSlownessUsed><backazimuthUsed>false</backazimuthUsed><weight>1</weight></arrival><arrival><pickID>de.gempa.tb2.Pick/20250411232733.096559.66953</pickID><phase>S</phase><azimuth>271.8651123046875</azimuth><distance>0.19575923681259155</distance><timeResidual>0.06410360336303711</timeResidual><timeUsed>true</timeUsed><horizontalSlownessUsed>false</horizontalSlownessUsed><backazimuthUsed>false</backazimuthUsed><weight>1</weight></arrival><arrival><pickID>de.gempa.tb2.Pick/20250411232735.192871.66960</pickID><phase>P</phase><azimuth>239.6476287841797</azimuth><distance>0.5722607374191284</distance><timeResidual>-0.0034618377685546875</timeResidual><timeUsed>true</timeUsed><horizontalSlownessUsed>false</horizontalSlownessUsed><backazimuthUsed>false</backazimuthUsed><weight>1</weight></arrival><arrival><pickID>de.gempa.tb2.Pick/20250411232743.524696.66962</pickID><phase>P</phase><azimuth>195.13949584960938</azimuth><distance>0.37386271357536316</distance><timeResidual>0.1498889923095703</timeResidual><timeUsed>true</timeUsed><horizontalSlownessUsed>false</horizontalSlownessUsed><backazimuthUsed>false</backazimuthUsed><weight>1</weight></arrival><arrival><pickID>de.gempa.tb2.Pick/20250411232743.529798.66964</pickID><phase>S</phase><azimuth>195.13949584960938</azimuth><distance>0.37386271357536316</distance><timeResidual>-0.08339977264404297</timeResidual><timeUsed>true</timeUsed><horizontalSlownessUsed>false</horizontalSlownessUsed><backazimuthUsed>false</backazimuthUsed><weight>1</weight></arrival><magnitude publicID="de.gempa.tb2.Magnitude/20250411232801.201854.31816"><magnitude><value>0.8548621985235942</value></magnitude><type>M</type><methodID>weighted average</methodID><stationCount>4</stationCount></magnitude></origin><event publicID="gempa2025hend"><preferredOriginID>de.gempa.tb2.Origin/20250411232743.545863.39005</preferredOriginID><preferredMagnitudeID>de.gempa.tb2.Magnitude/20250411232801.201854.31816</preferredMagnitudeID><description><text>Northern Italy</text><type>region name</type></description><originReference>de.gempa.tb2.Origin/20250411232743.545863.39005</originReference></event></EventParameters></seiscomp>