<?xml version="1.0" encoding="UTF-8"?>
<seiscomp xmlns="http://geofon.gfz-potsdam.de/ns/seiscomp3-schema/0.13" version="0.13"><EventParameters><pick publicID="de.gempa.tb1.Pick/20250413154135.61943.132178"><time><value>2025-04-13T15:41:29.578393Z</value></time><waveformID networkCode="CX" stationCode="PB06" channelCode="HHZ"/><filterID>ITAPER(4)&gt;&gt;BW(4,4,20)</filterID><methodID>AIC</methodID><horizontalSlowness><value>22.306235949159046</value></horizontalSlowness><backazimuth><value>106.46270205564673</value></backazimuth><phaseHint>P</phaseHint><evaluationMode>automatic</evaluationMode><comment><text>106.35651106961268</text><id>DFX:rectilinearity</id></comment><comment><text>10.982035154685692</text><id>SNR</id></comment></pick><pick publicID="de.gempa.tb1.Pick/20250413154136.571219.132180"><time><value>2025-04-13T15:41:29.798393Z</value></time><waveformID networkCode="CX" stationCode="PB03" channelCode="HHZ"/><filterID>ITAPER(4)&gt;&gt;BW(4,4,20)</filterID><methodID>AIC</methodID><horizontalSlowness><value>9.349723072747887</value></horizontalSlowness><backazimuth><value>307.7182490236213</value></backazimuth><phaseHint>P</phaseHint><evaluationMode>automatic</evaluationMode><comment><text>7.819825540290354</text><id>DFX:rectilinearity</id></comment><comment><text>13.918267456863322</text><id>SNR</id></comment></pick><pick publicID="de.gempa.tb1.Pick/20250413154142.002708.132182"><time><value>2025-04-13T15:41:26.9Z</value></time><waveformID networkCode="CX" stationCode="PB09" channelCode="HHZ"/><filterID>ITAPER(4)&gt;&gt;BW(4,4,20)</filterID><methodID>AIC</methodID><horizontalSlowness><value>19.004832850114884</value></horizontalSlowness><backazimuth><value>311.52177801664885</value></backazimuth><phaseHint>P</phaseHint><evaluationMode>automatic</evaluationMode><comment><text>10.979164091303767</text><id>DFX:rectilinearity</id></comment><comment><text>17.11119909072811</text><id>SNR</id></comment></pick><pick publicID="de.gempa.tb1.Pick/20250413154153.609333.132186"><time><value>2025-04-13T15:41:46.228393Z</value></time><waveformID networkCode="CX" stationCode="PB06" channelCode="HHN"/><filterID>ITAPER(2)&gt;&gt;BW(3,3,20)</filterID><methodID>L2-AIC-GRID</methodID><horizontalSlowness><value>10.428404714989291</value></horizontalSlowness><backazimuth><value>319.2218857746136</value></backazimuth><phaseHint>S</phaseHint><evaluationMode>automatic</evaluationMode><comment><text>85.89433095347621</text><id>DFX:rectilinearity</id></comment><comment><text>de.gempa.tb1.Pick/20250413154135.61943.132178</text><id>RefPickID</id></comment><comment><text>6.178668300574782</text><id>SNR</id></comment></pick><pick publicID="de.gempa.tb1.Pick/20250413154153.7711.132187"><time><value>2025-04-13T15:41:46.768393Z</value></time><waveformID networkCode="CX" stationCode="PB03" channelCode="HHN"/><filterID>ITAPER(2)&gt;&gt;BW(3,3,20)</filterID><methodID>L2-AIC-GRID</methodID><horizontalSlowness><value>8.718759393076914</value></horizontalSlowness><backazimuth><value>240.7331233405588</value></backazimuth><phaseHint>S</phaseHint><evaluationMode>automatic</evaluationMode><comment><text>45.46712865782405</text><id>DFX:rectilinearity</id></comment><comment><text>de.gempa.tb1.Pick/20250413154136.571219.132180</text><id>RefPickID</id></comment><comment><text>8.763300914571587</text><id>SNR</id></comment></pick><pick publicID="de.gempa.tb1.Pick/20250413154206.147864.132191"><time><value>2025-04-13T15:41:32.038394Z</value></time><waveformID networkCode="CX" stationCode="PB07" channelCode="HHZ"/><filterID>ITAPER(4)&gt;&gt;BW(4,4,20)</filterID><methodID>AIC</methodID><horizontalSlowness><value>23.38590858727857</value></horizontalSlowness><backazimuth><value>107.86497486957946</value></backazimuth><phaseHint>P</phaseHint><evaluationMode>automatic</evaluationMode><comment><text>222.93995646323498</text><id>DFX:rectilinearity</id></comment><comment><text>26.20482764502517</text><id>SNR</id></comment></pick><origin publicID="de.gempa.tb1.Origin/20250413154206.155251.113884"><time><value>2025-04-13T15:41:08.009575Z</value><uncertainty>1.547350287437439</uncertainty></time><latitude><value>-22.193662643432617</value><uncertainty>9.598287582397461</uncertainty></latitude><longitude><value>-68.71188354492188</value><uncertainty>19.79116439819336</uncertainty></longitude><depth><value>120.204345703125</value><uncertainty>21.908334732055664</uncertainty></depth><depthType>from location</depthType><methodID>LOCSAT</methodID><earthModelID>iasp91_scanloc</earthModelID><quality><associatedPhaseCount>6</associatedPhaseCount><usedPhaseCount>6</usedPhaseCount><associatedStationCount>4</associatedStationCount><usedStationCount>4</usedStationCount><depthPhaseCount>0</depthPhaseCount><standardError>0.03478557580871145</standardError><azimuthalGap>288.50099182128906</azimuthalGap><maximumDistance>1.1850318908691406</maximumDistance><minimumDistance>0.6311068534851074</minimumDistance><medianDistance>0.9762347936630249</medianDistance></quality><uncertainty><minHorizontalUncertainty>20.40694808959961</minHorizontalUncertainty><maxHorizontalUncertainty>42.52912139892578</maxHorizontalUncertainty><azimuthMaxHorizontalUncertainty>85.85699462890625</azimuthMaxHorizontalUncertainty><preferredDescription>horizontal uncertainty</preferredDescription></uncertainty><evaluationMode>automatic</evaluationMode><evaluationStatus>confirmed</evaluationStatus><comment><text>0.00</text><id>mismatchScore</id></comment><comment><text>mismatchScore</text><id>scevalMethod</id></comment><arrival><pickID>de.gempa.tb1.Pick/20250413154135.61943.132178</pickID><phase>P</phase><azimuth>237.1914825439453</azimuth><distance>0.9448565244674683</distance><timeResidual>0.014842987060546875</timeResidual><timeUsed>true</timeUsed><horizontalSlownessUsed>false</horizontalSlownessUsed><backazimuthUsed>false</backazimuthUsed><weight>1</weight></arrival><arrival><pickID>de.gempa.tb1.Pick/20250413154136.571219.132180</pickID><phase>P</phase><azimuth>278.3165588378906</azimuth><distance>0.9762347936630249</distance><timeResidual>-0.06978607177734375</timeResidual><timeUsed>true</timeUsed><horizontalSlownessUsed>false</horizontalSlownessUsed><backazimuthUsed>false</backazimuthUsed><weight>1</weight></arrival><arrival><pickID>de.gempa.tb1.Pick/20250413154142.002708.132182</pickID><phase>P</phase><azimuth>308.69049072265625</azimuth><distance>0.6311068534851074</distance><timeResidual>0.0036487579345703125</timeResidual><timeUsed>true</timeUsed><horizontalSlownessUsed>false</horizontalSlownessUsed><backazimuthUsed>false</backazimuthUsed><weight>1</weight></arrival><arrival><pickID>de.gempa.tb1.Pick/20250413154153.609333.132186</pickID><phase>S</phase><azimuth>237.1914825439453</azimuth><distance>0.9448565244674683</distance><timeResidual>0.0039997100830078125</timeResidual><timeUsed>true</timeUsed><horizontalSlownessUsed>false</horizontalSlownessUsed><backazimuthUsed>false</backazimuthUsed><weight>1</weight></arrival><arrival><pickID>de.gempa.tb1.Pick/20250413154153.7711.132187</pickID><phase>S</phase><azimuth>278.3165588378906</azimuth><distance>0.9762347936630249</distance><timeResidual>0.0011463165283203125</timeResidual><timeUsed>true</timeUsed><horizontalSlownessUsed>false</horizontalSlownessUsed><backazimuthUsed>false</backazimuthUsed><weight>1</weight></arrival><arrival><pickID>de.gempa.tb1.Pick/20250413154206.147864.132191</pickID><phase>P</phase><azimuth>292.8703918457031</azimuth><distance>1.1850318908691406</distance><timeResidual>0.04625129699707031</timeResidual><timeUsed>true</timeUsed><horizontalSlownessUsed>false</horizontalSlownessUsed><backazimuthUsed>false</backazimuthUsed><weight>1</weight></arrival><magnitude publicID="de.gempa.tb1.Magnitude/20250413154314.286969.374950"><magnitude><value>2.612943516760607</value></magnitude><type>M</type><methodID>weighted average</methodID><stationCount>1</stationCount></magnitude></origin><event publicID="gempa2025hhpp"><preferredOriginID>de.gempa.tb1.Origin/20250413154206.155251.113884</preferredOriginID><preferredMagnitudeID>de.gempa.tb1.Magnitude/20250413154314.286969.374950</preferredMagnitudeID><description><text>Northern Chile</text><type>region name</type></description><originReference>de.gempa.tb1.Origin/20250413154206.155251.113884</originReference></event></EventParameters></seiscomp>