<?xml version="1.0" encoding="UTF-8"?>
<seiscomp xmlns="http://geofon.gfz-potsdam.de/ns/seiscomp3-schema/0.13" version="0.13"><EventParameters><pick publicID="de.gempa.tb1.Pick/20250414032921.517761.135345"><time><value>2025-04-14T03:29:16.698393Z</value></time><waveformID networkCode="CX" stationCode="PB08" channelCode="HHZ"/><filterID>ITAPER(4)&gt;&gt;BW(4,4,20)</filterID><methodID>AIC</methodID><horizontalSlowness><value>14.79214405483071</value></horizontalSlowness><backazimuth><value>208.57849470327096</value></backazimuth><phaseHint>P</phaseHint><evaluationMode>automatic</evaluationMode><comment><text>173.24145490084723</text><id>DFX:rectilinearity</id></comment><comment><text>143.93710368152705</text><id>SNR</id></comment></pick><pick publicID="de.gempa.tb1.Pick/20250414032923.623792.135347"><time><value>2025-04-14T03:29:18.298393Z</value></time><waveformID networkCode="CX" stationCode="PB01" channelCode="HHZ"/><filterID>ITAPER(4)&gt;&gt;BW(4,4,20)</filterID><methodID>AIC</methodID><horizontalSlowness><value>9.088250758702255</value></horizontalSlowness><backazimuth><value>6.256371171024199</value></backazimuth><phaseHint>P</phaseHint><evaluationMode>automatic</evaluationMode><comment><text>204.73044489525128</text><id>DFX:rectilinearity</id></comment><comment><text>389.86594564456936</text><id>SNR</id></comment></pick><pick publicID="de.gempa.tb1.Pick/20250414032929.460996.135349"><time><value>2025-04-14T03:29:22.119999Z</value></time><waveformID networkCode="CX" stationCode="PATCX" channelCode="HHZ"/><filterID>ITAPER(4)&gt;&gt;BW(4,4,20)</filterID><methodID>AIC</methodID><horizontalSlowness><value>23.118770898568343</value></horizontalSlowness><backazimuth><value>105.30342923955044</value></backazimuth><phaseHint>P</phaseHint><evaluationMode>automatic</evaluationMode><comment><text>171.49074786932457</text><id>DFX:rectilinearity</id></comment><comment><text>19.747480867519904</text><id>SNR</id></comment></pick><pick publicID="de.gempa.tb1.Pick/20250414032929.521692.135351"><time><value>2025-04-14T03:29:23.288393Z</value></time><waveformID networkCode="CX" stationCode="PB02" channelCode="HHZ"/><filterID>ITAPER(4)&gt;&gt;BW(4,4,20)</filterID><methodID>AIC</methodID><horizontalSlowness><value>12.10375943555836</value></horizontalSlowness><backazimuth><value>39.83572508539095</value></backazimuth><phaseHint>P</phaseHint><evaluationMode>automatic</evaluationMode><comment><text>155.41738478694774</text><id>DFX:rectilinearity</id></comment><comment><text>61.22717216908217</text><id>SNR</id></comment></pick><pick publicID="de.gempa.tb1.Pick/20250414032929.577876.135353"><time><value>2025-04-14T03:29:24.49Z</value></time><waveformID networkCode="CX" stationCode="PSGCX" channelCode="HHZ"/><filterID>ITAPER(4)&gt;&gt;BW(4,4,20)</filterID><methodID>AIC</methodID><horizontalSlowness><value>10.842462592563214</value></horizontalSlowness><backazimuth><value>118.79439225520454</value></backazimuth><phaseHint>P</phaseHint><evaluationMode>automatic</evaluationMode><comment><text>92.25728405564857</text><id>DFX:rectilinearity</id></comment><comment><text>646.7187538100546</text><id>SNR</id></comment></pick><pick publicID="de.gempa.tb1.Pick/20250414032931.730289.135355"><time><value>2025-04-14T03:29:25.72Z</value></time><waveformID networkCode="CX" stationCode="PB09" channelCode="HHZ"/><filterID>ITAPER(4)&gt;&gt;BW(4,4,20)</filterID><methodID>AIC</methodID><horizontalSlowness><value>15.654773965792486</value></horizontalSlowness><backazimuth><value>57.26648722982203</value></backazimuth><phaseHint>P</phaseHint><evaluationMode>automatic</evaluationMode><comment><text>356.05992395338205</text><id>DFX:rectilinearity</id></comment><comment><text>158.81834178856093</text><id>SNR</id></comment></pick><pick publicID="de.gempa.tb1.Pick/20250414032935.65167.135357"><time><value>2025-04-14T03:29:29.528393Z</value></time><waveformID networkCode="CX" stationCode="PB03" channelCode="HHZ"/><filterID>ITAPER(4)&gt;&gt;BW(4,4,20)</filterID><methodID>AIC</methodID><horizontalSlowness><value>13.3783592510843</value></horizontalSlowness><backazimuth><value>46.44753197881585</value></backazimuth><phaseHint>P</phaseHint><evaluationMode>automatic</evaluationMode><comment><text>15.708994742604956</text><id>DFX:rectilinearity</id></comment><comment><text>56.86221682059072</text><id>SNR</id></comment></pick><pick publicID="de.gempa.tb1.Pick/20250414032936.807099.135359"><time><value>2025-04-14T03:29:28.498393Z</value></time><waveformID networkCode="CX" stationCode="PB08" channelCode="HHN"/><filterID>ITAPER(2)&gt;&gt;BW(3,3,20)</filterID><methodID>L2-AIC-GRID</methodID><horizontalSlowness><value>15.110159495747117</value></horizontalSlowness><backazimuth><value>208.65648267061158</value></backazimuth><phaseHint>S</phaseHint><evaluationMode>automatic</evaluationMode><comment><text>7905.383310909641</text><id>DFX:rectilinearity</id></comment><comment><text>de.gempa.tb1.Pick/20250414032921.517761.135345</text><id>RefPickID</id></comment><comment><text>15.90635868380229</text><id>SNR</id></comment></pick><pick publicID="de.gempa.tb1.Pick/20250414032938.777406.135360"><time><value>2025-04-14T03:29:31.868393Z</value></time><waveformID networkCode="CX" stationCode="PB01" channelCode="HHN"/><filterID>ITAPER(2)&gt;&gt;BW(3,3,20)</filterID><methodID>L2-AIC-GRID</methodID><horizontalSlowness><value>21.238164243689575</value></horizontalSlowness><backazimuth><value>165.69523763818358</value></backazimuth><phaseHint>S</phaseHint><evaluationMode>automatic</evaluationMode><comment><text>16927.014641980662</text><id>DFX:rectilinearity</id></comment><comment><text>de.gempa.tb1.Pick/20250414032923.623792.135347</text><id>RefPickID</id></comment><comment><text>14.25883581259285</text><id>SNR</id></comment></pick><pick publicID="de.gempa.tb1.Pick/20250414032944.557094.135361"><time><value>2025-04-14T03:29:37.268393Z</value></time><waveformID networkCode="CX" stationCode="PB06" channelCode="HHZ"/><filterID>ITAPER(4)&gt;&gt;BW(4,4,20)</filterID><methodID>AIC</methodID><horizontalSlowness><value>4.501298625329749</value></horizontalSlowness><backazimuth><value>73.30977047524664</value></backazimuth><phaseHint>P</phaseHint><evaluationMode>automatic</evaluationMode><comment><text>71.29535838016852</text><id>DFX:rectilinearity</id></comment><comment><text>18.78544202111645</text><id>SNR</id></comment></pick><pick publicID="de.gempa.tb1.Pick/20250414032946.479798.135363"><time><value>2025-04-14T03:29:38.169999Z</value></time><waveformID networkCode="CX" stationCode="PATCX" channelCode="HHN"/><filterID>ITAPER(2)&gt;&gt;BW(3,3,20)</filterID><methodID>L2-AIC-GRID</methodID><horizontalSlowness><value>22.03867247417793</value></horizontalSlowness><backazimuth><value>112.07389183046804</value></backazimuth><phaseHint>S</phaseHint><evaluationMode>automatic</evaluationMode><comment><text>1252.3162072590758</text><id>DFX:rectilinearity</id></comment><comment><text>de.gempa.tb1.Pick/20250414032929.460996.135349</text><id>RefPickID</id></comment><comment><text>7.700070079615108</text><id>SNR</id></comment></pick><pick publicID="de.gempa.tb1.Pick/20250414032947.69024.135364"><time><value>2025-04-14T03:29:39.958393Z</value></time><waveformID networkCode="CX" stationCode="PB02" channelCode="HHN"/><filterID>ITAPER(2)&gt;&gt;BW(3,3,20)</filterID><methodID>L2-AIC-GRID</methodID><horizontalSlowness><value>22.231044809240316</value></horizontalSlowness><backazimuth><value>213.098891481188</value></backazimuth><phaseHint>S</phaseHint><evaluationMode>automatic</evaluationMode><comment><text>10480.346822097628</text><id>DFX:rectilinearity</id></comment><comment><text>de.gempa.tb1.Pick/20250414032929.521692.135351</text><id>RefPickID</id></comment><comment><text>9.874790509398341</text><id>SNR</id></comment></pick><pick publicID="de.gempa.tb1.Pick/20250414032950.861769.135366"><time><value>2025-04-14T03:29:44.178393Z</value></time><waveformID networkCode="CX" stationCode="PB15" channelCode="HHZ"/><filterID>ITAPER(4)&gt;&gt;BW(4,4,20)</filterID><methodID>AIC</methodID><horizontalSlowness><value>22.13080017849665</value></horizontalSlowness><backazimuth><value>41.54305714581213</value></backazimuth><phaseHint>P</phaseHint><evaluationMode>automatic</evaluationMode><comment><text>194.69526245130353</text><id>DFX:rectilinearity</id></comment><comment><text>9.46326241848799</text><id>SNR</id></comment></pick><pick publicID="de.gempa.tb1.Pick/20250414032953.753915.135369"><time><value>2025-04-14T03:29:42.76Z</value></time><waveformID networkCode="CX" stationCode="PSGCX" channelCode="HHN"/><filterID>ITAPER(2)&gt;&gt;BW(3,3,20)</filterID><methodID>L2-AIC-GRID</methodID><horizontalSlowness><value>17.32695206283693</value></horizontalSlowness><backazimuth><value>76.16494555886216</value></backazimuth><phaseHint>S</phaseHint><evaluationMode>automatic</evaluationMode><comment><text>1038.7359032248014</text><id>DFX:rectilinearity</id></comment><comment><text>de.gempa.tb1.Pick/20250414032929.577876.135353</text><id>RefPickID</id></comment><comment><text>5.685916675209566</text><id>SNR</id></comment></pick><pick publicID="de.gempa.tb1.Pick/20250414032955.619447.135371"><time><value>2025-04-14T03:29:26.648393Z</value></time><waveformID networkCode="CX" stationCode="PB07" channelCode="HHZ"/><filterID>ITAPER(4)&gt;&gt;BW(4,4,20)</filterID><methodID>AIC</methodID><horizontalSlowness><value>19.372261988622846</value></horizontalSlowness><backazimuth><value>289.02439932882044</value></backazimuth><phaseHint>P</phaseHint><evaluationMode>automatic</evaluationMode><comment><text>289.8122910416663</text><id>DFX:rectilinearity</id></comment><comment><text>76.86470779244591</text><id>SNR</id></comment></pick><pick publicID="de.gempa.tb1.Pick/20250414032956.732481.135374"><time><value>2025-04-14T03:29:51.028393Z</value></time><waveformID networkCode="CX" stationCode="PB03" channelCode="HHN"/><filterID>ITAPER(2)&gt;&gt;BW(3,3,20)</filterID><methodID>L2-AIC-GRID</methodID><horizontalSlowness><value>5.454850800441715</value></horizontalSlowness><backazimuth><value>346.4396817544041</value></backazimuth><phaseHint>S</phaseHint><evaluationMode>automatic</evaluationMode><comment><text>852.1025449794265</text><id>DFX:rectilinearity</id></comment><comment><text>de.gempa.tb1.Pick/20250414032935.65167.135357</text><id>RefPickID</id></comment><comment><text>8.420122277439763</text><id>SNR</id></comment></pick><pick publicID="de.gempa.tb1.Pick/20250414032957.127691.135375"><time><value>2025-04-14T03:29:44.83Z</value></time><waveformID networkCode="CX" stationCode="PB09" channelCode="HHN"/><filterID>ITAPER(2)&gt;&gt;BW(3,3,20)</filterID><methodID>L2-AIC-GRID</methodID><horizontalSlowness><value>21.139765859585836</value></horizontalSlowness><backazimuth><value>150.92076897742453</value></backazimuth><phaseHint>S</phaseHint><evaluationMode>automatic</evaluationMode><comment><text>9133.71617269865</text><id>DFX:rectilinearity</id></comment><comment><text>de.gempa.tb1.Pick/20250414032931.730289.135355</text><id>RefPickID</id></comment><comment><text>5.047976069796118</text><id>SNR</id></comment></pick><pick publicID="de.gempa.tb1.Pick/20250414032959.622065.135377"><time><value>2025-04-14T03:29:52.61Z</value></time><waveformID networkCode="CX" stationCode="PB19" channelCode="HHZ"/><filterID>ITAPER(4)&gt;&gt;BW(4,4,20)</filterID><methodID>AIC</methodID><horizontalSlowness><value>16.163789128033706</value></horizontalSlowness><backazimuth><value>176.8240082482773</value></backazimuth><phaseHint>P</phaseHint><evaluationMode>automatic</evaluationMode><comment><text>18.009697680551643</text><id>DFX:rectilinearity</id></comment><comment><text>10.215067247258805</text><id>SNR</id></comment></pick><pick publicID="de.gempa.tb1.Pick/20250414033010.746526.135380"><time><value>2025-04-14T03:30:03.548393Z</value></time><waveformID networkCode="CX" stationCode="PB06" channelCode="HHN"/><filterID>ITAPER(2)&gt;&gt;BW(3,3,20)</filterID><methodID>L2-AIC-GRID</methodID><horizontalSlowness><value>18.815437460941737</value></horizontalSlowness><backazimuth><value>289.27801098642203</value></backazimuth><phaseHint>S</phaseHint><evaluationMode>automatic</evaluationMode><comment><text>156.4591447151787</text><id>DFX:rectilinearity</id></comment><comment><text>de.gempa.tb1.Pick/20250414032944.557094.135361</text><id>RefPickID</id></comment><comment><text>6.605806429487266</text><id>SNR</id></comment></pick><pick publicID="de.gempa.tb1.Pick/20250414033011.763012.135382"><time><value>2025-04-14T03:29:45.938393Z</value></time><waveformID networkCode="CX" stationCode="PB07" channelCode="HHN"/><filterID>ITAPER(2)&gt;&gt;BW(3,3,20)</filterID><methodID>L2-AIC-GRID</methodID><horizontalSlowness><value>17.025516951899512</value></horizontalSlowness><backazimuth><value>168.22821901677915</value></backazimuth><phaseHint>S</phaseHint><evaluationMode>automatic</evaluationMode><comment><text>13684.050506704109</text><id>DFX:rectilinearity</id></comment><comment><text>de.gempa.tb1.Pick/20250414032955.619447.135371</text><id>RefPickID</id></comment><comment><text>6.532961600277322</text><id>SNR</id></comment></pick><pick publicID="de.gempa.tb1.Pick/20250414033025.863174.135384"><time><value>2025-04-14T03:30:15.788393Z</value></time><waveformID networkCode="CX" stationCode="PB15" channelCode="HHN"/><filterID>ITAPER(2)&gt;&gt;BW(3,3,20)</filterID><methodID>L2-AIC-GRID</methodID><horizontalSlowness><value>20.587432752397344</value></horizontalSlowness><backazimuth><value>100.04375552665238</value></backazimuth><phaseHint>S</phaseHint><evaluationMode>automatic</evaluationMode><comment><text>2800.227692647122</text><id>DFX:rectilinearity</id></comment><comment><text>de.gempa.tb1.Pick/20250414032950.861769.135366</text><id>RefPickID</id></comment><comment><text>5.255802810903635</text><id>SNR</id></comment></pick><origin publicID="de.gempa.tb1.Origin/20250414033025.868692.125614"><time><value>2025-04-14T03:29:01.210579Z</value><uncertainty>0.627043604850769</uncertainty></time><latitude><value>-20.48987579345703</value><uncertainty>2.436453342437744</uncertainty></latitude><longitude><value>-69.17833709716797</value><uncertainty>5.1236891746521</uncertainty></longitude><depth><value>105.87752532958984</value><uncertainty>5.062258243560791</uncertainty></depth><depthType>from location</depthType><methodID>LOCSAT</methodID><earthModelID>iasp91_scanloc</earthModelID><quality><associatedPhaseCount>21</associatedPhaseCount><usedPhaseCount>21</usedPhaseCount><associatedStationCount>11</associatedStationCount><usedStationCount>11</usedStationCount><depthPhaseCount>0</depthPhaseCount><standardError>0.5000502944940594</standardError><azimuthalGap>177.86965465545654</azimuthalGap><maximumDistance>3.400117874145508</maximumDistance><minimumDistance>0.3477669358253479</minimumDistance><medianDistance>1.3013685941696167</medianDistance></quality><uncertainty><minHorizontalUncertainty>5.192749977111816</minHorizontalUncertainty><maxHorizontalUncertainty>10.996922492980957</maxHorizontalUncertainty><azimuthMaxHorizontalUncertainty>86.70209503173828</azimuthMaxHorizontalUncertainty><preferredDescription>horizontal uncertainty</preferredDescription></uncertainty><evaluationMode>automatic</evaluationMode><evaluationStatus>confirmed</evaluationStatus><comment><text>0.00</text><id>mismatchScore</id></comment><comment><text>mismatchScore</text><id>scevalMethod</id></comment><arrival><pickID>de.gempa.tb1.Pick/20250414032921.517761.135345</pickID><phase>P</phase><azimuth>3.8637590408325195</azimuth><distance>0.3477669358253479</distance><timeResidual>-0.017296791076660156</timeResidual><timeUsed>true</timeUsed><horizontalSlownessUsed>false</horizontalSlownessUsed><backazimuthUsed>false</backazimuthUsed><weight>1</weight></arrival><arrival><pickID>de.gempa.tb1.Pick/20250414032923.623792.135347</pickID><phase>P</phase><azimuth>207.6591796875</azimuth><distance>0.6219165921211243</distance><timeResidual>-0.24066734313964844</timeResidual><timeUsed>true</timeUsed><horizontalSlownessUsed>false</horizontalSlownessUsed><backazimuthUsed>false</backazimuthUsed><weight>1</weight></arrival><arrival><pickID>de.gempa.tb1.Pick/20250414032929.460996.135349</pickID><phase>P</phase><azimuth>249.99684143066406</azimuth><distance>0.970197319984436</distance><timeResidual>0.33182334899902344</timeResidual><timeUsed>true</timeUsed><horizontalSlownessUsed>false</horizontalSlownessUsed><backazimuthUsed>false</backazimuthUsed><weight>1</weight></arrival><arrival><pickID>de.gempa.tb1.Pick/20250414032929.521692.135351</pickID><phase>P</phase><azimuth>218.9727783203125</azimuth><distance>1.0639723539352417</distance><timeResidual>0.5089130401611328</timeResidual><timeUsed>true</timeUsed><horizontalSlownessUsed>false</horizontalSlownessUsed><backazimuthUsed>false</backazimuthUsed><weight>1</weight></arrival><arrival><pickID>de.gempa.tb1.Pick/20250414032929.577876.135353</pickID><phase>P</phase><azimuth>314.83599853515625</azimuth><distance>1.256030797958374</distance><timeResidual>-0.4408607482910156</timeResidual><timeUsed>true</timeUsed><horizontalSlownessUsed>false</horizontalSlownessUsed><backazimuthUsed>false</backazimuthUsed><weight>1</weight></arrival><arrival><pickID>de.gempa.tb1.Pick/20250414032931.730289.135355</pickID><phase>P</phase><azimuth>182.602783203125</azimuth><distance>1.3013685941696167</distance><timeResidual>0.27651309967041016</timeResidual><timeUsed>true</timeUsed><horizontalSlownessUsed>false</horizontalSlownessUsed><backazimuthUsed>false</backazimuthUsed><weight>1</weight></arrival><arrival><pickID>de.gempa.tb1.Pick/20250414032935.65167.135357</pickID><phase>P</phase><azimuth>198.9653778076172</azimuth><distance>1.6409142017364502</distance><timeResidual>0.011003494262695312</timeResidual><timeUsed>true</timeUsed><horizontalSlownessUsed>false</horizontalSlownessUsed><backazimuthUsed>false</backazimuthUsed><weight>1</weight></arrival><arrival><pickID>de.gempa.tb1.Pick/20250414032936.807099.135359</pickID><phase>S</phase><azimuth>3.8637590408325195</azimuth><distance>0.3477669358253479</distance><timeResidual>-0.1354532241821289</timeResidual><timeUsed>true</timeUsed><horizontalSlownessUsed>false</horizontalSlownessUsed><backazimuthUsed>false</backazimuthUsed><weight>1</weight></arrival><arrival><pickID>de.gempa.tb1.Pick/20250414032938.777406.135360</pickID><phase>S</phase><azimuth>207.6591796875</azimuth><distance>0.6219165921211243</distance><timeResidual>-0.00988006591796875</timeResidual><timeUsed>true</timeUsed><horizontalSlownessUsed>false</horizontalSlownessUsed><backazimuthUsed>false</backazimuthUsed><weight>1</weight></arrival><arrival><pickID>de.gempa.tb1.Pick/20250414032944.557094.135361</pickID><phase>P</phase><azimuth>189.3587188720703</azimuth><distance>2.2352802753448486</distance><timeResidual>0.2110881805419922</timeResidual><timeUsed>true</timeUsed><horizontalSlownessUsed>false</horizontalSlownessUsed><backazimuthUsed>false</backazimuthUsed><weight>1</weight></arrival><arrival><pickID>de.gempa.tb1.Pick/20250414032946.479798.135363</pickID><phase>S</phase><azimuth>249.99684143066406</azimuth><distance>0.970197319984436</distance><timeResidual>0.5017318725585938</timeResidual><timeUsed>true</timeUsed><horizontalSlownessUsed>false</horizontalSlownessUsed><backazimuthUsed>false</backazimuthUsed><weight>1</weight></arrival><arrival><pickID>de.gempa.tb1.Pick/20250414032947.69024.135364</pickID><phase>S</phase><azimuth>218.9727783203125</azimuth><distance>1.0639723539352417</distance><timeResidual>0.5209846496582031</timeResidual><timeUsed>true</timeUsed><horizontalSlownessUsed>false</horizontalSlownessUsed><backazimuthUsed>false</backazimuthUsed><weight>1</weight></arrival><arrival><pickID>de.gempa.tb1.Pick/20250414032950.861769.135366</pickID><phase>P</phase><azimuth>185.68397521972656</azimuth><distance>2.718883514404297</distance><timeResidual>0.796346664428711</timeResidual><timeUsed>true</timeUsed><horizontalSlownessUsed>false</horizontalSlownessUsed><backazimuthUsed>false</backazimuthUsed><weight>1<