<?xml version="1.0" encoding="UTF-8"?>
<seiscomp xmlns="http://geofon.gfz-potsdam.de/ns/seiscomp3-schema/0.13" version="0.13"><EventParameters><pick publicID="de.gempa.tb1.Pick/20250412075048.499431.122823"><time><value>2025-04-12T07:50:41.8Z</value></time><waveformID networkCode="CX" stationCode="PB19" channelCode="HHZ"/><filterID>ITAPER(4)&gt;&gt;BW(4,4,20)</filterID><methodID>AIC</methodID><horizontalSlowness><value>5.72762373159037</value></horizontalSlowness><backazimuth><value>19.961021882132087</value></backazimuth><phaseHint>P</phaseHint><evaluationMode>automatic</evaluationMode><comment><text>100.720411979081</text><id>DFX:rectilinearity</id></comment><comment><text>50.61394294491198</text><id>SNR</id></comment></pick><pick publicID="de.gempa.tb1.Pick/20250412075050.583609.122825"><time><value>2025-04-12T07:50:46.068393Z</value></time><waveformID networkCode="CX" stationCode="PB15" channelCode="HHZ"/><filterID>ITAPER(4)&gt;&gt;BW(4,4,20)</filterID><methodID>AIC</methodID><horizontalSlowness><value>21.445502967781938</value></horizontalSlowness><backazimuth><value>112.2520010658636</value></backazimuth><phaseHint>P</phaseHint><evaluationMode>automatic</evaluationMode><comment><text>1912.71757270663</text><id>DFX:rectilinearity</id></comment><comment><text>25.248320980265124</text><id>SNR</id></comment></pick><pick publicID="de.gempa.tb1.Pick/20250412075054.727442.122827"><time><value>2025-04-12T07:50:49.728393Z</value></time><waveformID networkCode="CX" stationCode="PB06" channelCode="HHZ"/><filterID>ITAPER(4)&gt;&gt;BW(4,4,20)</filterID><methodID>AIC</methodID><horizontalSlowness><value>11.797262566836416</value></horizontalSlowness><backazimuth><value>136.55761931535483</value></backazimuth><phaseHint>P</phaseHint><evaluationMode>automatic</evaluationMode><comment><text>71.4711757156559</text><id>DFX:rectilinearity</id></comment><comment><text>27.63724951859155</text><id>SNR</id></comment></pick><pick publicID="de.gempa.tb1.Pick/20250412075101.507239.122829"><time><value>2025-04-12T07:50:56.168394Z</value></time><waveformID networkCode="CX" stationCode="PB03" channelCode="HHZ"/><filterID>ITAPER(4)&gt;&gt;BW(4,4,20)</filterID><methodID>AIC</methodID><horizontalSlowness><value>6.336656824119017</value></horizontalSlowness><backazimuth><value>170.59043219636726</value></backazimuth><phaseHint>P</phaseHint><evaluationMode>automatic</evaluationMode><comment><text>27.08541271861729</text><id>DFX:rectilinearity</id></comment><comment><text>32.59201357849919</text><id>SNR</id></comment></pick><pick publicID="de.gempa.tb1.Pick/20250412075105.511457.122831"><time><value>2025-04-12T07:50:59.848391Z</value></time><waveformID networkCode="CX" stationCode="PB07" channelCode="HHZ"/><filterID>ITAPER(4)&gt;&gt;BW(4,4,20)</filterID><methodID>AIC</methodID><horizontalSlowness><value>18.3948299051233</value></horizontalSlowness><backazimuth><value>176.98832613635781</value></backazimuth><phaseHint>P</phaseHint><evaluationMode>automatic</evaluationMode><comment><text>460.1699369421638</text><id>DFX:rectilinearity</id></comment><comment><text>47.19065515249751</text><id>SNR</id></comment></pick><pick publicID="de.gempa.tb1.Pick/20250412075108.364629.122833"><time><value>2025-04-12T07:50:55.57Z</value></time><waveformID networkCode="CX" stationCode="PB09" channelCode="HHZ"/><filterID>ITAPER(4)&gt;&gt;BW(4,4,20)</filterID><methodID>AIC</methodID><horizontalSlowness><value>12.473559819658192</value></horizontalSlowness><backazimuth><value>111.10788446952968</value></backazimuth><phaseHint>P</phaseHint><evaluationMode>automatic</evaluationMode><comment><text>33.69857137720249</text><id>DFX:rectilinearity</id></comment><comment><text>38.80967578698401</text><id>SNR</id></comment></pick><pick publicID="de.gempa.tb1.Pick/20250412075108.565678.122835"><time><value>2025-04-12T07:51:03.948393Z</value></time><waveformID networkCode="CX" stationCode="PB01" channelCode="HHZ"/><filterID>ITAPER(4)&gt;&gt;BW(4,4,20)</filterID><methodID>AIC</methodID><horizontalSlowness><value>12.379009774808354</value></horizontalSlowness><backazimuth><value>34.37382528862682</value></backazimuth><phaseHint>P</phaseHint><evaluationMode>automatic</evaluationMode><comment><text>8.593507553454053</text><id>DFX:rectilinearity</id></comment><comment><text>17.193012332312524</text><id>SNR</id></comment></pick><pick publicID="de.gempa.tb1.Pick/20250412075109.481907.122837"><time><value>2025-04-12T07:51:03.938393Z</value></time><waveformID networkCode="CX" stationCode="PB02" channelCode="HHZ"/><filterID>ITAPER(4)&gt;&gt;BW(4,4,20)</filterID><methodID>AIC</methodID><horizontalSlowness><value>22.588250731612497</value></horizontalSlowness><backazimuth><value>93.78526161282555</value></backazimuth><phaseHint>P</phaseHint><evaluationMode>automatic</evaluationMode><comment><text>51.11574379277077</text><id>DFX:rectilinearity</id></comment><comment><text>17.333847118382518</text><id>SNR</id></comment></pick><pick publicID="de.gempa.tb1.Pick/20250412075116.62747.122841"><time><value>2025-04-12T07:51:09.21Z</value></time><waveformID networkCode="CX" stationCode="PB19" channelCode="HHN"/><filterID>ITAPER(2)&gt;&gt;BW(3,3,20)</filterID><methodID>L2-AIC-GRID</methodID><horizontalSlowness><value>20.82440118478013</value></horizontalSlowness><backazimuth><value>18.232494634191852</value></backazimuth><phaseHint>S</phaseHint><evaluationMode>automatic</evaluationMode><comment><text>338.22507230737386</text><id>DFX:rectilinearity</id></comment><comment><text>de.gempa.tb1.Pick/20250412075048.499431.122823</text><id>RefPickID</id></comment><comment><text>10.053993603186651</text><id>SNR</id></comment></pick><pick publicID="de.gempa.tb1.Pick/20250412075123.899052.122844"><time><value>2025-04-12T07:51:16.318393Z</value></time><waveformID networkCode="CX" stationCode="PB15" channelCode="HHN"/><filterID>ITAPER(2)&gt;&gt;BW(3,3,20)</filterID><methodID>L2-AIC-GRID</methodID><horizontalSlowness><value>18.849528215436948</value></horizontalSlowness><backazimuth><value>100.74704416454132</value></backazimuth><phaseHint>S</phaseHint><evaluationMode>automatic</evaluationMode><comment><text>3937.0492476665763</text><id>DFX:rectilinearity</id></comment><comment><text>de.gempa.tb1.Pick/20250412075050.583609.122825</text><id>RefPickID</id></comment><comment><text>5.457922809336432</text><id>SNR</id></comment></pick><pick publicID="de.gempa.tb1.Pick/20250412075130.649414.122845"><time><value>2025-04-12T07:51:22.608393Z</value></time><waveformID networkCode="CX" stationCode="PB06" channelCode="HHN"/><filterID>ITAPER(2)&gt;&gt;BW(3,3,20)</filterID><methodID>L2-AIC-GRID</methodID><horizontalSlowness><value>19.925185654182222</value></horizontalSlowness><backazimuth><value>72.69763211240617</value></backazimuth><phaseHint>S</phaseHint><evaluationMode>automatic</evaluationMode><comment><text>97.91070582153635</text><id>DFX:rectilinearity</id></comment><comment><text>de.gempa.tb1.Pick/20250412075054.727442.122827</text><id>RefPickID</id></comment><comment><text>16.28713058286593</text><id>SNR</id></comment></pick><pick publicID="de.gempa.tb1.Pick/20250412075141.781665.122849"><time><value>2025-04-12T07:51:33.668394Z</value></time><waveformID networkCode="CX" stationCode="PB03" channelCode="HHN"/><filterID>ITAPER(2)&gt;&gt;BW(3,3,20)</filterID><methodID>L2-AIC-GRID</methodID><horizontalSlowness><value>3.216663973499449</value></horizontalSlowness><backazimuth><value>275.90014871143006</value></backazimuth><phaseHint>S</phaseHint><evaluationMode>automatic</evaluationMode><comment><text>23.421312632595303</text><id>DFX:rectilinearity</id></comment><comment><text>de.gempa.tb1.Pick/20250412075101.507239.122829</text><id>RefPickID</id></comment><comment><text>10.831041716105975</text><id>SNR</id></comment></pick><origin publicID="de.gempa.tb1.Origin/20250412075141.785246.78120"><time><value>2025-04-12T07:50:08.064301Z</value><uncertainty>0.9456570148468018</uncertainty></time><latitude><value>-24.17356872558594</value><uncertainty>11.171627044677734</uncertainty></latitude><longitude><value>-67.79286193847656</value><uncertainty>33.901126861572266</uncertainty></longitude><depth><value>214.6952362060547</value><uncertainty>25.036909103393555</uncertainty></depth><depthType>from location</depthType><methodID>LOCSAT</methodID><earthModelID>iasp91_scanloc</earthModelID><quality><associatedPhaseCount>12</associatedPhaseCount><usedPhaseCount>12</usedPhaseCount><associatedStationCount>8</associatedStationCount><usedStationCount>8</usedStationCount><depthPhaseCount>0</depthPhaseCount><standardError>0.260638032815955</standardError><azimuthalGap>307.7648620605469</azimuthalGap><maximumDistance>3.486764192581177</maximumDistance><minimumDistance>1.395287036895752</minimumDistance><medianDistance>2.716838598251343</medianDistance></quality><uncertainty><minHorizontalUncertainty>16.51114273071289</minHorizontalUncertainty><maxHorizontalUncertainty>74.72708892822266</maxHorizontalUncertainty><azimuthMaxHorizontalUncertainty>76.22628784179688</azimuthMaxHorizontalUncertainty><preferredDescription>horizontal uncertainty</preferredDescription></uncertainty><evaluationMode>automatic</evaluationMode><evaluationStatus>confirmed</evaluationStatus><comment><text>0.03</text><id>mismatchScore</id></comment><comment><text>mismatchScore</text><id>scevalMethod</id></comment><arrival><pickID>de.gempa.tb1.Pick/20250412075048.499431.122823</pickID><phase>P</phase><azimuth>280.75238037109375</azimuth><distance>1.395287036895752</distance><timeResidual>-0.4477043151855469</timeResidual><timeUsed>true</timeUsed><horizontalSlownessUsed>false</horizontalSlownessUsed><backazimuthUsed>false</backazimuthUsed><weight>1</weight></arrival><arrival><pickID>de.gempa.tb1.Pick/20250412075050.583609.122825</pickID><phase>P</phase><azimuth>301.6520690917969</azimuth><distance>1.8136860132217407</distance><timeResidual>0.13549423217773438</timeResidual><timeUsed>true</timeUsed><horizontalSlownessUsed>false</horizontalSlownessUsed><backazimuthUsed>false</backazimuthUsed><weight>1</weight></arrival><arrival><pickID>de.gempa.tb1.Pick/20250412075054.727442.122827</pickID><phase>P</phase><azimuth>311.44744873046875</azimuth><distance>2.1918234825134277</distance><timeResidual>0.0434417724609375</timeResidual><timeUsed>true</timeUsed><horizontalSlownessUsed>false</horizontalSlownessUsed><backazimuthUsed>false</backazimuthUsed><weight>1</weight></arrival><arrival><pickID>de.gempa.tb1.Pick/20250412075101.507239.122829</pickID><phase>P</phase><azimuth>319.14117431640625</azimuth><distance>2.7804245948791504</distance><timeResidual>0.12163162231445312</timeResidual><timeUsed>true</timeUsed><horizontalSlownessUsed>false</horizontalSlownessUsed><backazimuthUsed>false</backazimuthUsed><weight>1</weight></arrival><arrival><pickID>de.gempa.tb1.Pick/20250412075105.511457.122831</pickID><phase>P</phase><azimuth>321.19970703125</azimuth><distance>3.1070597171783447</distance><timeResidual>0.06636428833007812</timeResidual><timeUsed>true</timeUsed><horizontalSlownessUsed>false</horizontalSlownessUsed><backazimuthUsed>false</backazimuthUsed><weight>1</weight></arrival><arrival><pickID>de.gempa.tb1.Pick/20250412075108.364629.122833</pickID><phase>P</phase><azimuth>330.276123046875</azimuth><distance>2.716838598251343</distance><timeResidual>0.2311668395996094</timeResidual><timeUsed>true</timeUsed><horizontalSlownessUsed>false</horizontalSlownessUsed><backazimuthUsed>false</backazimuthUsed><weight>1</weight></arrival><arrival><pickID>de.gempa.tb1.Pick/20250412075108.565678.122835</pickID><phase>P</phase><azimuth>332.9875183105469</azimuth><distance>3.486764192581177</distance><timeResidual>-0.3164176940917969</timeResidual><timeUsed>true</timeUsed><horizontalSlownessUsed>false</horizontalSlownessUsed><backazimuthUsed>false</backazimuthUsed><weight>1</weight></arrival><arrival><pickID>de.gempa.tb1.Pick/20250412075109.481907.122837</pickID><phase>P</phase><azimuth>325.2357482910156</azimuth><distance>3.4403746128082275</distance><timeResidual>0.22757720947265625</timeResidual><timeUsed>true</timeUsed><horizontalSlownessUsed>false</horizontalSlownessUsed><backazimuthUsed>false</backazimuthUsed><weight>1</weight></arrival><arrival><pickID>de.gempa.tb1.Pick/20250412075116.62747.122841</pickID><phase>S</phase><azimuth>280.75238037109375</azimuth><distance>1.395287036895752</distance><timeResidual>-0.04844284057617188</timeResidual><timeUsed>true</timeUsed><horizontalSlownessUsed>false</horizontalSlownessUsed><backazimuthUsed>false</backazimuthUsed><weight>1</weight></arrival><arrival><pickID>de.gempa.tb1.Pick/20250412075123.899052.122844</pickID><phase>S</phase><azimuth>301.6520690917969</azimuth><distance>1.8136860132217407</distance><timeResidual>0.4343528747558594</timeResidual><timeUsed>true</timeUsed><horizontalSlownessUsed>false</horizontalSlownessUsed><backazimuthUsed>false</backazimuthUsed><weight>1</weight></arrival><arrival><pickID>de.gempa.tb1.Pick/20250412075130.649414.122845</pickID><phase>S</phase><azimuth>311.44744873046875</azimuth><distance>2.1918234825134277</distance><timeResidual>-0.02605438232421875</timeResidual><timeUsed>true</timeUsed><horizontalSlownessUsed>false</horizontalSlownessUsed><backazimuthUsed>false</backazimuthUsed><weight>1</weight></arrival><arrival><pickID>de.gempa.tb1.Pick/20250412075141.781665.122849</pickID><phase>S</phase><azimuth>319.14117431640625</azimuth><distance>2.7804245948791504</distance><timeResidual>-0.4222145080566406</timeResidual><timeUsed>true</timeUsed><horizontalSlownessUsed>false</horizontalSlownessUsed><backazimuthUsed>false</backazimuthUsed><weight>1</weight></arrival><magnitude publicID="de.gempa.tb1.Magnitude/20250412075318.650139.195188"><magnitude><value>3.767045775407889</value></magnitude><type>M</type><methodID>weighted average</methodID><stationCount>5</stationCount></magnitude></origin><event publicID="gempa2025hfdx"><preferredOriginID>de.gempa.tb1.Origin/20250412075141.785246.78120</preferredOriginID><preferredMagnitudeID>de.gempa.tb1.Magnitude/20250412075318.650139.195188</preferredMagnitudeID><description><text>Chile-Argentina Border Region</text><type>region name</type></description><originReference>de.gempa.tb1.Origin/20250412075141.785246.78120</originReference></event></EventParameters></seiscomp>