<?xml version="1.0" encoding="UTF-8"?>
<seiscomp xmlns="http://geofon.gfz-potsdam.de/ns/seiscomp3-schema/0.13" version="0.13"><EventParameters><pick publicID="de.gempa.tb1.Pick/20250413231524.729454.134255"><time><value>2025-04-13T23:15:18.16Z</value></time><waveformID networkCode="CX" stationCode="PB19" channelCode="HHZ"/><filterID>ITAPER(4)&gt;&gt;BW(4,4,20)</filterID><methodID>AIC</methodID><horizontalSlowness><value>10.747293153783774</value></horizontalSlowness><backazimuth><value>102.00194448825485</value></backazimuth><phaseHint>P</phaseHint><evaluationMode>automatic</evaluationMode><comment><text>1085.9551969795114</text><id>DFX:rectilinearity</id></comment><comment><text>208.7558634372433</text><id>SNR</id></comment></pick><pick publicID="de.gempa.tb1.Pick/20250413231528.224321.134257"><time><value>2025-04-13T23:15:20.868393Z</value></time><waveformID networkCode="CX" stationCode="PB15" channelCode="HHZ"/><filterID>ITAPER(4)&gt;&gt;BW(4,4,20)</filterID><methodID>AIC</methodID><horizontalSlowness><value>22.57460160583816</value></horizontalSlowness><backazimuth><value>100.99136121811</value></backazimuth><phaseHint>P</phaseHint><evaluationMode>automatic</evaluationMode><comment><text>8466.804630841054</text><id>DFX:rectilinearity</id></comment><comment><text>132.8757494272426</text><id>SNR</id></comment></pick><pick publicID="de.gempa.tb1.Pick/20250413231531.62905.134259"><time><value>2025-04-13T23:15:24.358393Z</value></time><waveformID networkCode="CX" stationCode="PB06" channelCode="HHZ"/><filterID>ITAPER(4)&gt;&gt;BW(4,4,20)</filterID><methodID>AIC</methodID><horizontalSlowness><value>8.371632780530017</value></horizontalSlowness><backazimuth><value>138.16621837440957</value></backazimuth><phaseHint>P</phaseHint><evaluationMode>automatic</evaluationMode><comment><text>328.23504087404064</text><id>DFX:rectilinearity</id></comment><comment><text>67.86595264136051</text><id>SNR</id></comment></pick><pick publicID="de.gempa.tb1.Pick/20250413231535.58778.134261"><time><value>2025-04-13T23:15:30.558394Z</value></time><waveformID networkCode="CX" stationCode="PB03" channelCode="HHZ"/><filterID>ITAPER(4)&gt;&gt;BW(4,4,20)</filterID><methodID>AIC</methodID><horizontalSlowness><value>7.236747849261361</value></horizontalSlowness><backazimuth><value>155.13565020787206</value></backazimuth><phaseHint>P</phaseHint><evaluationMode>automatic</evaluationMode><comment><text>183.59757333862757</text><id>DFX:rectilinearity</id></comment><comment><text>99.60508278929095</text><id>SNR</id></comment></pick><pick publicID="de.gempa.tb1.Pick/20250413231536.368466.134263"><time><value>2025-04-13T23:15:30.76Z</value></time><waveformID networkCode="CX" stationCode="PB10" channelCode="HHZ"/><filterID>ITAPER(4)&gt;&gt;BW(4,4,20)</filterID><methodID>AIC</methodID><horizontalSlowness><value>11.47154687752601</value></horizontalSlowness><backazimuth><value>104.03273402099686</value></backazimuth><phaseHint>P</phaseHint><evaluationMode>automatic</evaluationMode><comment><text>201.9318925741002</text><id>DFX:rectilinearity</id></comment><comment><text>62.48434598664902</text><id>SNR</id></comment></pick><pick publicID="de.gempa.tb1.Pick/20250413231539.110883.134265"><time><value>2025-04-13T23:15:30.27Z</value></time><waveformID networkCode="CX" stationCode="PB09" channelCode="HHZ"/><filterID>ITAPER(4)&gt;&gt;BW(4,4,20)</filterID><methodID>AIC</methodID><horizontalSlowness><value>17.970522095684103</value></horizontalSlowness><backazimuth><value>132.64429727245218</value></backazimuth><phaseHint>P</phaseHint><evaluationMode>automatic</evaluationMode><comment><text>88.61492177764288</text><id>DFX:rectilinearity</id></comment><comment><text>194.923972325866</text><id>SNR</id></comment></pick><pick publicID="de.gempa.tb1.Pick/20250413231539.511066.134267"><time><value>2025-04-13T23:15:34.398391Z</value></time><waveformID networkCode="CX" stationCode="PB07" channelCode="HHZ"/><filterID>ITAPER(4)&gt;&gt;BW(4,4,20)</filterID><methodID>AIC</methodID><horizontalSlowness><value>16.72119694560391</value></horizontalSlowness><backazimuth><value>167.83835128792285</value></backazimuth><phaseHint>P</phaseHint><evaluationMode>automatic</evaluationMode><comment><text>5381.858821213099</text><id>DFX:rectilinearity</id></comment><comment><text>476.7035059829438</text><id>SNR</id></comment></pick><pick publicID="de.gempa.tb1.Pick/20250413231543.471466.134271"><time><value>2025-04-13T23:15:38.098393Z</value></time><waveformID networkCode="CX" stationCode="PB02" channelCode="HHZ"/><filterID>ITAPER(4)&gt;&gt;BW(4,4,20)</filterID><methodID>AIC</methodID><horizontalSlowness><value>5.448163385730412</value></horizontalSlowness><backazimuth><value>213.73504621646688</value></backazimuth><phaseHint>P</phaseHint><evaluationMode>automatic</evaluationMode><comment><text>50.84964634439488</text><id>DFX:rectilinearity</id></comment><comment><text>28.402174556484557</text><id>SNR</id></comment></pick><pick publicID="de.gempa.tb1.Pick/20250413231544.739096.134273"><time><value>2025-04-13T23:15:38.618391Z</value></time><waveformID networkCode="CX" stationCode="PB01" channelCode="HHZ"/><filterID>ITAPER(4)&gt;&gt;BW(4,4,20)</filterID><methodID>AIC</methodID><horizontalSlowness><value>22.070880480607173</value></horizontalSlowness><backazimuth><value>24.911454613578286</value></backazimuth><phaseHint>P</phaseHint><evaluationMode>automatic</evaluationMode><comment><text>13.65801615757623</text><id>DFX:rectilinearity</id></comment><comment><text>95.29586558201719</text><id>SNR</id></comment></pick><pick publicID="de.gempa.tb1.Pick/20250413231547.822957.134275"><time><value>2025-04-13T23:15:39.21Z</value></time><waveformID networkCode="CX" stationCode="PB19" channelCode="HHN"/><filterID>ITAPER(2)&gt;&gt;BW(3,3,20)</filterID><methodID>L2-AIC-GRID</methodID><horizontalSlowness><value>22.55607548116385</value></horizontalSlowness><backazimuth><value>267.28226942641</value></backazimuth><phaseHint>S</phaseHint><evaluationMode>automatic</evaluationMode><comment><text>9486.75840501825</text><id>DFX:rectilinearity</id></comment><comment><text>de.gempa.tb1.Pick/20250413231524.729454.134255</text><id>RefPickID</id></comment><comment><text>6.417146344187484</text><id>SNR</id></comment></pick><pick publicID="de.gempa.tb1.Pick/20250413231549.300986.134276"><time><value>2025-04-13T23:15:43.069999Z</value></time><waveformID networkCode="CX" stationCode="PATCX" channelCode="HHZ"/><filterID>ITAPER(4)&gt;&gt;BW(4,4,20)</filterID><methodID>AIC</methodID><horizontalSlowness><value>19.500091701646152</value></horizontalSlowness><backazimuth><value>103.71886653093506</value></backazimuth><phaseHint>P</phaseHint><evaluationMode>automatic</evaluationMode><comment><text>342.01291352700196</text><id>DFX:rectilinearity</id></comment><comment><text>12.60038601833032</text><id>SNR</id></comment></pick><pick publicID="de.gempa.tb1.Pick/20250413231556.807375.134282"><time><value>2025-04-13T23:15:49.668393Z</value></time><waveformID networkCode="CX" stationCode="PB06" channelCode="HHN"/><filterID>ITAPER(2)&gt;&gt;BW(3,3,20)</filterID><methodID>L2-AIC-GRID</methodID><horizontalSlowness><value>20.991896126849927</value></horizontalSlowness><backazimuth><value>12.539728336510365</value></backazimuth><phaseHint>S</phaseHint><evaluationMode>automatic</evaluationMode><comment><text>2575.1275303511957</text><id>DFX:rectilinearity</id></comment><comment><text>de.gempa.tb1.Pick/20250413231531.62905.134259</text><id>RefPickID</id></comment><comment><text>10.9013036403209</text><id>SNR</id></comment></pick><pick publicID="de.gempa.tb1.Pick/20250413231607.540624.134286"><time><value>2025-04-13T23:16:00.668394Z</value></time><waveformID networkCode="CX" stationCode="PB03" channelCode="HHN"/><filterID>ITAPER(2)&gt;&gt;BW(3,3,20)</filterID><methodID>L2-AIC-GRID</methodID><horizontalSlowness><value>16.39267369649009</value></horizontalSlowness><backazimuth><value>265.57566695588855</value></backazimuth><phaseHint>S</phaseHint><evaluationMode>automatic</evaluationMode><comment><text>1155.5278584746225</text><id>DFX:rectilinearity</id></comment><comment><text>de.gempa.tb1.Pick/20250413231535.58778.134261</text><id>RefPickID</id></comment><comment><text>9.812340138469478</text><id>SNR</id></comment></pick><origin publicID="de.gempa.tb1.Origin/20250413231608.422376.121178"><time><value>2025-04-13T23:14:51.350218Z</value><uncertainty>0.992225706577301</uncertainty></time><latitude><value>-23.712392807006836</value><uncertainty>6.406648635864258</uncertainty></latitude><longitude><value>-68.13441467285156</value><uncertainty>17.98930549621582</uncertainty></longitude><depth><value>167.9687957763672</value><uncertainty>14.075104713439941</uncertainty></depth><depthType>from location</depthType><methodID>LOCSAT</methodID><earthModelID>iasp91_scanloc</earthModelID><quality><associatedPhaseCount>13</associatedPhaseCount><usedPhaseCount>13</usedPhaseCount><associatedStationCount>10</associatedStationCount><usedStationCount>10</usedStationCount><depthPhaseCount>0</depthPhaseCount><standardError>0.620809536412196</standardError><azimuthalGap>285.0166931152344</azimuthalGap><maximumDistance>3.4317283630371094</maximumDistance><minimumDistance>1.0761648416519165</minimumDistance><medianDistance>2.228238821029663</medianDistance></quality><uncertainty><minHorizontalUncertainty>13.154114723205566</minHorizontalUncertainty><maxHorizontalUncertainty>38.77857971191406</maxHorizontalUncertainty><azimuthMaxHorizontalUncertainty>83.76309204101562</azimuthMaxHorizontalUncertainty><preferredDescription>horizontal uncertainty</preferredDescription></uncertainty><evaluationMode>automatic</evaluationMode><evaluationStatus>confirmed</evaluationStatus><comment><text>0.00</text><id>mismatchScore</id></comment><comment><text>mismatchScore</text><id>scevalMethod</id></comment><arrival><pickID>de.gempa.tb1.Pick/20250413231524.729454.134255</pickID><phase>P</phase><azimuth>259.5173034667969</azimuth><distance>1.0761648416519165</distance><timeResidual>-0.3230152130126953</timeResidual><timeUsed>true</timeUsed><horizontalSlownessUsed>false</horizontalSlownessUsed><backazimuthUsed>false</backazimuthUsed><weight>1</weight></arrival><arrival><pickID>de.gempa.tb1.Pick/20250413231528.224321.134257</pickID><phase>P</phase><azimuth>291.9698486328125</azimuth><distance>1.325908899307251</distance><timeResidual>0.19277572631835938</timeResidual><timeUsed>true</timeUsed><horizontalSlownessUsed>false</horizontalSlownessUsed><backazimuthUsed>false</backazimuthUsed><weight>1</weight></arrival><arrival><pickID>de.gempa.tb1.Pick/20250413231531.62905.134259</pickID><phase>P</phase><azimuth>306.86419677734375</azimuth><distance>1.6591559648513794</distance><timeResidual>0.3974266052246094</timeResidual><timeUsed>true</timeUsed><horizontalSlownessUsed>false</horizontalSlownessUsed><backazimuthUsed>false</backazimuthUsed><weight>1</weight></arrival><arrival><pickID>de.gempa.tb1.Pick/20250413231535.58778.134261</pickID><phase>P</phase><azimuth>317.6527404785156</azimuth><distance>2.2295806407928467</distance><timeResidual>0.3096504211425781</timeResidual><timeUsed>true</timeUsed><horizontalSlownessUsed>false</horizontalSlownessUsed><backazimuthUsed>false</backazimuthUsed><weight>1</weight></arrival><arrival><pickID>de.gempa.tb1.Pick/20250413231536.368466.134263</pickID><phase>P</phase><azimuth>274.6166687011719</azimuth><distance>2.228238821029663</distance><timeResidual>0.5392913818359375</timeResidual><timeUsed>true</timeUsed><horizontalSlownessUsed>false</horizontalSlownessUsed><backazimuthUsed>false</backazimuthUsed><weight>1</weight></arrival><arrival><pickID>de.gempa.tb1.Pick/20250413231539.110883.134265</pickID><phase>P</phase><azimuth>331.5896301269531</azimuth><distance>2.1637098789215088</distance><timeResidual>0.7749881744384766</timeResidual><timeUsed>true</timeUsed><horizontalSlownessUsed>false</horizontalSlownessUsed><backazimuthUsed>false</backazimuthUsed><weight>1</weight></arrival><arrival><pickID>de.gempa.tb1.Pick/20250413231539.511066.134267</pickID><phase>P</phase><azimuth>320.36328125</azimuth><distance>2.5537681579589844</distance><timeResidual>0.34447288513183594</timeResidual><timeUsed>true</timeUsed><horizontalSlownessUsed>false</horizontalSlownessUsed><backazimuthUsed>false</backazimuthUsed><weight>1</weight></arrival><arrival><pickID>de.gempa.tb1.Pick/20250413231543.471466.134271</pickID><phase>P</phase><azimuth>325.28662109375</azimuth><distance>2.88503098487854</distance><timeResidual>0.026750564575195309</timeResidual><timeUsed>true</timeUsed><horizontalSlownessUsed>false</horizontalSlownessUsed><backazimuthUsed>false</backazimuthUsed><weight>1</weight></arrival><arrival><pickID>de.gempa.tb1.Pick/20250413231544.739096.134273</pickID><phase>P</phase><azimuth>334.5006103515625</azimuth><distance>2.9367475509643555</distance><timeResidual>-0.08887863159179688</timeResidual><timeUsed>true</timeUsed><horizontalSlownessUsed>false</horizontalSlownessUsed><backazimuthUsed>false</backazimuthUsed><weight>1</weight></arrival><arrival><pickID>de.gempa.tb1.Pick/20250413231547.822957.134275</pickID><phase>S</phase><azimuth>259.5173034667969</azimuth><distance>1.0761648416519165</distance><timeResidual>-0.4619960784912109</timeResidual><timeUsed>true</timeUsed><horizontalSlownessUsed>false</horizontalSlownessUsed><backazimuthUsed>false</backazimuthUsed><weight>1</weight></arrival><arrival><pickID>de.gempa.tb1.Pick/20250413231549.300986.134276</pickID><phase>P</phase><azimuth>326.60235595703125</azimuth><distance>3.4317283630371094</distance><timeResidual>-1.827524185180664</timeResidual><timeUsed>true</timeUsed><horizontalSlownessUsed>false</horizontalSlownessUsed><backazimuthUsed>false</backazimuthUsed><weight>1</weight></arrival><arrival><pickID>de.gempa.tb1.Pick/20250413231556.807375.134282</pickID><phase>S</phase><azimuth>306.86419677734375</azimuth><distance>1.6591559648513794</distance><timeResidual>0.1925830841064453</timeResidual><timeUsed>true</timeUsed><horizontalSlownessUsed>false</horizontalSlownessUsed><backazimuthUsed>false</backazimuthUsed><weight>1</weight></arrival><arrival><pickID>de.gempa.tb1.Pick/20250413231607.540624.134286</pickID><phase>S</phase><azimuth>317.6527404785156</azimuth><distance>2.2295806407928467</distance><timeResidual>-0.07637977600097656</timeResidual><timeUsed>true</timeUsed><horizontalSlownessUsed>false</horizontalSlownessUsed><backazimuthUsed>false</backazimuthUsed><weight>1</weight></arrival><magnitude publicID="de.gempa.tb1.Magnitude/20250413231615.938509.409980"><magnitude><value>3.0851605649853044</value></magnitude><type>M</type><methodID>weighted average</methodID><stationCount>6</stationCount></magnitude></origin><event publicID="gempa2025hiet"><preferredOriginID>de.gempa.tb1.Origin/20250413231608.422376.121178</preferredOriginID><preferredMagnitudeID>de.gempa.tb1.Magnitude/20250413231615.938509.409980</preferredMagnitudeID><description><text>Northern Chile</text><type>region name</type></description><originReference>de.gempa.tb1.Origin/20250413231608.422376.121178</originReference></event></EventParameters></seiscomp>