<?xml version="1.0" encoding="UTF-8"?>
<seiscomp xmlns="http://geofon.gfz-potsdam.de/ns/seiscomp3-schema/0.13" version="0.13"><EventParameters><pick publicID="de.gempa.tb1.Pick/20250412034254.47526.121648"><time><value>2025-04-12T03:42:48.919999Z</value></time><waveformID networkCode="CX" stationCode="PATCX" channelCode="HHZ"/><filterID>ITAPER(4)&gt;&gt;BW(4,4,20)</filterID><methodID>AIC</methodID><horizontalSlowness><value>12.693138772481364</value></horizontalSlowness><backazimuth><value>266.77716891868505</value></backazimuth><phaseHint>P</phaseHint><evaluationMode>automatic</evaluationMode><comment><text>486.0951618671942</text><id>DFX:rectilinearity</id></comment><comment><text>134.90911947840098</text><id>SNR</id></comment></pick><pick publicID="de.gempa.tb1.Pick/20250412034256.516001.121650"><time><value>2025-04-12T03:42:52.448393Z</value></time><waveformID networkCode="CX" stationCode="PB02" channelCode="HHZ"/><filterID>ITAPER(4)&gt;&gt;BW(4,4,20)</filterID><methodID>AIC</methodID><horizontalSlowness><value>2.59243754722149</value></horizontalSlowness><backazimuth><value>312.8228538372337</value></backazimuth><phaseHint>P</phaseHint><evaluationMode>automatic</evaluationMode><comment><text>798.7527870310186</text><id>DFX:rectilinearity</id></comment><comment><text>236.15715696369824</text><id>SNR</id></comment></pick><pick publicID="de.gempa.tb1.Pick/20250412034301.612493.121652"><time><value>2025-04-12T03:42:56.038393Z</value></time><waveformID networkCode="CX" stationCode="PB01" channelCode="HHZ"/><filterID>ITAPER(4)&gt;&gt;BW(4,4,20)</filterID><methodID>AIC</methodID><horizontalSlowness><value>12.605532958681701</value></horizontalSlowness><backazimuth><value>302.8798872193237</value></backazimuth><phaseHint>P</phaseHint><evaluationMode>automatic</evaluationMode><comment><text>142.82689612431508</text><id>DFX:rectilinearity</id></comment><comment><text>116.43363956561691</text><id>SNR</id></comment></pick><pick publicID="de.gempa.tb1.Pick/20250412034306.429754.121654"><time><value>2025-04-12T03:42:56.059999Z</value></time><waveformID networkCode="CX" stationCode="PATCX" channelCode="HHN"/><filterID>ITAPER(2)&gt;&gt;BW(3,3,20)</filterID><methodID>L2-AIC-GRID</methodID><horizontalSlowness><value>21.70864356682923</value></horizontalSlowness><backazimuth><value>58.01409185613431</value></backazimuth><phaseHint>S</phaseHint><evaluationMode>automatic</evaluationMode><comment><text>395321.86193123407</text><id>DFX:rectilinearity</id></comment><comment><text>de.gempa.tb1.Pick/20250412034254.47526.121648</text><id>RefPickID</id></comment><comment><text>23.22364673059542</text><id>SNR</id></comment></pick><pick publicID="de.gempa.tb1.Pick/20250412034307.627326.121655"><time><value>2025-04-12T03:43:00.798393Z</value></time><waveformID networkCode="CX" stationCode="PB03" channelCode="HHZ"/><filterID>ITAPER(4)&gt;&gt;BW(4,4,20)</filterID><methodID>AIC</methodID><horizontalSlowness><value>10.088661338950947</value></horizontalSlowness><backazimuth><value>347.2139475563474</value></backazimuth><phaseHint>P</phaseHint><evaluationMode>automatic</evaluationMode><comment><text>5.292644306439089</text><id>DFX:rectilinearity</id></comment><comment><text>20.536757263233739</text><id>SNR</id></comment></pick><pick publicID="de.gempa.tb1.Pick/20250412034308.584703.121657"><time><value>2025-04-12T03:43:02.188393Z</value></time><waveformID networkCode="CX" stationCode="PB02" channelCode="HHN"/><filterID>ITAPER(2)&gt;&gt;BW(3,3,20)</filterID><methodID>L2-AIC-GRID</methodID><horizontalSlowness><value>9.201851272792016</value></horizontalSlowness><backazimuth><value>280.60821197415555</value></backazimuth><phaseHint>S</phaseHint><evaluationMode>automatic</evaluationMode><comment><text>38391.631557767956</text><id>DFX:rectilinearity</id></comment><comment><text>de.gempa.tb1.Pick/20250412034256.516001.121650</text><id>RefPickID</id></comment><comment><text>12.281319352170495</text><id>SNR</id></comment></pick><pick publicID="de.gempa.tb1.Pick/20250412034309.742017.121658"><time><value>2025-04-12T03:43:02.1Z</value></time><waveformID networkCode="CX" stationCode="PSGCX" channelCode="HHZ"/><filterID>ITAPER(4)&gt;&gt;BW(4,4,20)</filterID><methodID>AIC</methodID><horizontalSlowness><value>11.497360724950065</value></horizontalSlowness><backazimuth><value>213.04747428013047</value></backazimuth><phaseHint>P</phaseHint><evaluationMode>automatic</evaluationMode><comment><text>56.7409773666457</text><id>DFX:rectilinearity</id></comment><comment><text>241.5118033075815</text><id>SNR</id></comment></pick><pick publicID="de.gempa.tb1.Pick/20250412034310.569747.121660"><time><value>2025-04-12T03:43:03.56Z</value></time><waveformID networkCode="CX" stationCode="PB09" channelCode="HHZ"/><filterID>ITAPER(4)&gt;&gt;BW(4,4,20)</filterID><methodID>AIC</methodID><horizontalSlowness><value>12.41712681752728</value></horizontalSlowness><backazimuth><value>351.80534628059053</value></backazimuth><phaseHint>P</phaseHint><evaluationMode>automatic</evaluationMode><comment><text>10.755635104957499</text><id>DFX:rectilinearity</id></comment><comment><text>42.47338423850129</text><id>SNR</id></comment></pick><pick publicID="de.gempa.tb1.Pick/20250412034312.056778.121662"><time><value>2025-04-12T03:43:03.908393Z</value></time><waveformID networkCode="CX" stationCode="PB08" channelCode="HHZ"/><filterID>ITAPER(4)&gt;&gt;BW(4,4,20)</filterID><methodID>AIC</methodID><horizontalSlowness><value>16.136359865973475</value></horizontalSlowness><backazimuth><value>210.45975898962774</value></backazimuth><phaseHint>P</phaseHint><evaluationMode>automatic</evaluationMode><comment><text>74.34381357841551</text><id>DFX:rectilinearity</id></comment><comment><text>29.886001403088866</text><id>SNR</id></comment></pick><pick publicID="de.gempa.tb1.Pick/20250412034313.034271.121664"><time><value>2025-04-12T03:42:56.098394Z</value></time><waveformID networkCode="CX" stationCode="PB07" channelCode="HHZ"/><filterID>ITAPER(4)&gt;&gt;BW(4,4,20)</filterID><methodID>AIC</methodID><horizontalSlowness><value>18.716730191360906</value></horizontalSlowness><backazimuth><value>316.73654399574855</value></backazimuth><phaseHint>P</phaseHint><evaluationMode>automatic</evaluationMode><comment><text>480.9662276233713</text><id>DFX:rectilinearity</id></comment><comment><text>92.01537929603133</text><id>SNR</id></comment></pick><pick publicID="de.gempa.tb1.Pick/20250412034316.624043.121666"><time><value>2025-04-12T03:43:08.558393Z</value></time><waveformID networkCode="CX" stationCode="PB01" channelCode="HHN"/><filterID>ITAPER(2)&gt;&gt;BW(3,3,20)</filterID><methodID>L2-AIC-GRID</methodID><horizontalSlowness><value>21.274989792366632</value></horizontalSlowness><backazimuth><value>107.0750361759414</value></backazimuth><phaseHint>S</phaseHint><evaluationMode>automatic</evaluationMode><comment><text>14444.272391477461</text><id>DFX:rectilinearity</id></comment><comment><text>de.gempa.tb1.Pick/20250412034301.612493.121652</text><id>RefPickID</id></comment><comment><text>12.594465960088446</text><id>SNR</id></comment></pick><pick publicID="de.gempa.tb1.Pick/20250412034318.925415.121667"><time><value>2025-04-12T03:43:08.598394Z</value></time><waveformID networkCode="CX" stationCode="PB07" channelCode="HHN"/><filterID>ITAPER(2)&gt;&gt;BW(3,3,20)</filterID><methodID>L2-AIC-GRID</methodID><horizontalSlowness><value>22.543564652121674</value></horizontalSlowness><backazimuth><value>259.44313669460365</value></backazimuth><phaseHint>S</phaseHint><evaluationMode>automatic</evaluationMode><comment><text>26002.1673194212</text><id>DFX:rectilinearity</id></comment><comment><text>de.gempa.tb1.Pick/20250412034313.034271.121664</text><id>RefPickID</id></comment><comment><text>6.394108213087214</text><id>SNR</id></comment></pick><pick publicID="de.gempa.tb1.Pick/20250412034326.566062.121671"><time><value>2025-04-12T03:43:18.79Z</value></time><waveformID networkCode="CX" stationCode="PSGCX" channelCode="HHN"/><filterID>ITAPER(2)&gt;&gt;BW(3,3,20)</filterID><methodID>L2-AIC-GRID</methodID><horizontalSlowness><value>17.71689119160052</value></horizontalSlowness><backazimuth><value>58.18252781446638</value></backazimuth><phaseHint>S</phaseHint><evaluationMode>automatic</evaluationMode><comment><text>1514.623960959855</text><id>DFX:rectilinearity</id></comment><comment><text>de.gempa.tb1.Pick/20250412034309.742017.121658</text><id>RefPickID</id></comment><comment><text>7.455809909931856</text><id>SNR</id></comment></pick><origin publicID="de.gempa.tb1.Origin/20250412034326.570065.72882"><time><value>2025-04-12T03:42:39.167108Z</value><uncertainty>0.6932783126831055</uncertainty></time><latitude><value>-20.943035125732422</value><uncertainty>2.892576217651367</uncertainty></latitude><longitude><value>-70.47364807128906</value><uncertainty>7.168179512023926</uncertainty></longitude><depth><value>51.24838638305664</value><uncertainty>7.288115501403809</uncertainty></depth><depthType>from location</depthType><methodID>LOCSAT</methodID><earthModelID>iasp91_scanloc</earthModelID><quality><associatedPhaseCount>13</associatedPhaseCount><usedPhaseCount>13</usedPhaseCount><associatedStationCount>8</associatedStationCount><usedStationCount>8</usedStationCount><depthPhaseCount>0</depthPhaseCount><standardError>0.4625710234247766</standardError><azimuthalGap>225.12510776519775</azimuthalGap><maximumDistance>1.4722405672073364</maximumDistance><minimumDistance>0.32370883226394653</minimumDistance><medianDistance>0.952889084815979</medianDistance></quality><uncertainty><minHorizontalUncertainty>5.589773178100586</minHorizontalUncertainty><maxHorizontalUncertainty>15.602542877197266</maxHorizontalUncertainty><azimuthMaxHorizontalUncertainty>79.37061309814453</azimuthMaxHorizontalUncertainty><preferredDescription>horizontal uncertainty</preferredDescription></uncertainty><evaluationMode>automatic</evaluationMode><evaluationStatus>confirmed</evaluationStatus><comment><text>0.00</text><id>mismatchScore</id></comment><comment><text>mismatchScore</text><id>scevalMethod</id></comment><arrival><pickID>de.gempa.tb1.Pick/20250412034254.47526.121648</pickID><phase>P</phase><azimuth>67.97099304199219</azimuth><distance>0.32370883226394653</distance><timeResidual>0.28865814208984375</timeResidual><timeUsed>true</timeUsed><horizontalSlownessUsed>false</horizontalSlownessUsed><backazimuthUsed>false</backazimuthUsed><weight>1</weight></arrival><arrival><pickID>de.gempa.tb1.Pick/20250412034256.516001.121650</pickID><phase>P</phase><azimuth>124.9058837890625</azimuth><distance>0.6567186117172241</distance><timeResidual>0.03070831298828125</timeResidual><timeUsed>true</timeUsed><horizontalSlownessUsed>false</horizontalSlownessUsed><backazimuthUsed>false</backazimuthUsed><weight>1</weight></arrival><arrival><pickID>de.gempa.tb1.Pick/20250412034301.612493.121652</pickID><phase>P</phase><azimuth>96.34964752197266</azimuth><distance>0.9269524216651917</distance><timeResidual>0.09373092651367188</timeResidual><timeUsed>true</timeUsed><horizontalSlownessUsed>false</horizontalSlownessUsed><backazimuthUsed>false</backazimuthUsed><weight>1</weight></arrival><arrival><pickID>de.gempa.tb1.Pick/20250412034306.429754.121654</pickID><phase>S</phase><azimuth>67.97099304199219</azimuth><distance>0.32370883226394653</distance><timeResidual>0.3421649932861328</timeResidual><timeUsed>true</timeUsed><horizontalSlownessUsed>false</horizontalSlownessUsed><backazimuthUsed>false</backazimuthUsed><weight>1</weight></arrival><arrival><pickID>de.gempa.tb1.Pick/20250412034307.627326.121655</pickID><phase>P</phase><azimuth>148.74618530273438</azimuth><distance>1.2885173559188843</distance><timeResidual>-0.010374069213867188</timeResidual><timeUsed>true</timeUsed><horizontalSlownessUsed>false</horizontalSlownessUsed><backazimuthUsed>false</backazimuthUsed><weight>1</weight></arrival><arrival><pickID>de.gempa.tb1.Pick/20250412034308.584703.121657</pickID><phase>S</phase><azimuth>124.9058837890625</azimuth><distance>0.6567186117172241</distance><timeResidual>-0.23980045318603516</timeResidual><timeUsed>true</timeUsed><horizontalSlownessUsed>false</horizontalSlownessUsed><backazimuthUsed>false</backazimuthUsed><weight>1</weight></arrival><arrival><pickID>de.gempa.tb1.Pick/20250412034309.742017.121658</pickID><phase>P</phase><azimuth>13.87129306793213</azimuth><distance>1.378860592842102</distance><timeResidual>0.05303001403808594</timeResidual><timeUsed>true</timeUsed><horizontalSlownessUsed>false</horizontalSlownessUsed><backazimuthUsed>false</backazimuthUsed><weight>1</weight></arrival><arrival><pickID>de.gempa.tb1.Pick/20250412034310.569747.121660</pickID><phase>P</phase><azimuth>126.70938873291016</azimuth><distance>1.4279483556747437</distance><timeResidual>0.8553571701049805</timeResidual><timeUsed>true</timeUsed><horizontalSlownessUsed>false</horizontalSlownessUsed><backazimuthUsed>false</backazimuthUsed><weight>1</weight></arrival><arrival><pickID>de.gempa.tb1.Pick/20250412034312.056778.121662</pickID><phase>P</phase><azimuth>57.4166488647461</azimuth><distance>1.4722405672073364</distance><timeResidual>0.5930662155151367</timeResidual><timeUsed>true</timeUsed><horizontalSlownessUsed>false</horizontalSlownessUsed><backazimuthUsed>false</backazimuthUsed><weight>1</weight></arrival><arrival><pickID>de.gempa.tb1.Pick/20250412034313.034271.121664</pickID><phase>P</phase><azimuth>145.0221710205078</azimuth><distance>0.952889084815979</distance><timeResidual>-0.18885040283203125</timeResidual><timeUsed>true</timeUsed><horizontalSlownessUsed>false</horizontalSlownessUsed><backazimuthUsed>false</backazimuthUsed><weight>1</weight></arrival><arrival><pickID>de.gempa.tb1.Pick/20250412034316.624043.121666</pickID><phase>S</phase><azimuth>96.34964752197266</azimuth><distance>0.9269524216651917</distance><timeResidual>-0.17403125762939453</timeResidual><timeUsed>true</timeUsed><horizontalSlownessUsed>false</horizontalSlownessUsed><backazimuthUsed>false</backazimuthUsed><weight>1</weight></arrival><arrival><pickID>de.gempa.tb1.Pick/20250412034318.925415.121667</pickID><phase>S</phase><azimuth>145.0221710205078</azimuth><distance>0.952889084815979</distance><timeResidual>-0.7481756210327148</timeResidual><timeUsed>true</timeUsed><horizontalSlownessUsed>false</horizontalSlownessUsed><backazimuthUsed>false</backazimuthUsed><weight>1</weight></arrival><arrival><pickID>de.gempa.tb1.Pick/20250412034326.566062.121671</pickID><phase>S</phase><azimuth>13.87129306793213</azimuth><distance>1.378860592842102</distance><timeResidual>-0.8955450057983398</timeResidual><timeUsed>true</timeUsed><horizontalSlownessUsed>false</horizontalSlownessUsed><backazimuthUsed>false</backazimuthUsed><weight>1</weight></arrival><magnitude publicID="de.gempa.tb1.Magnitude/20250412034335.940086.170022"><magnitude><value>2.6626961659896957</value></magnitude><type>M</type><methodID>weighted average</methodID><stationCount>6</stationCount></magnitude></origin><event publicID="gempa2025hevq"><preferredOriginID>de.gempa.tb1.Origin/20250412034326.570065.72882</preferredOriginID><preferredMagnitudeID>de.gempa.tb1.Magnitude/20250412034335.940086.170022</preferredMagnitudeID><description><text>Near Coast of Northern Chile</text><type>region name</type></description><originReference>de.gempa.tb1.Origin/20250412034326.570065.72882</originReference></event></EventParameters></seiscomp>