<?xml version="1.0" encoding="UTF-8"?>
<seiscomp xmlns="http://geofon.gfz-potsdam.de/ns/seiscomp3-schema/0.13" version="0.13"><EventParameters><pick publicID="de.gempa.tb1.Pick/20250411094549.573191.118147"><time><value>2025-04-11T09:45:43.608393Z</value></time><waveformID networkCode="CX" stationCode="PB03" channelCode="HHZ"/><filterID>ITAPER(4)&gt;&gt;BW(4,4,20)</filterID><methodID>AIC</methodID><horizontalSlowness><value>16.461635577571844</value></horizontalSlowness><backazimuth><value>222.01591650737927</value></backazimuth><phaseHint>P</phaseHint><evaluationMode>automatic</evaluationMode><comment><text>16.330262148461184</text><id>DFX:rectilinearity</id></comment><comment><text>36.28536749804755</text><id>SNR</id></comment></pick><pick publicID="de.gempa.tb1.Pick/20250411094551.506324.118149"><time><value>2025-04-11T09:45:46.138393Z</value></time><waveformID networkCode="CX" stationCode="PB02" channelCode="HHZ"/><filterID>ITAPER(4)&gt;&gt;BW(4,4,20)</filterID><methodID>AIC</methodID><horizontalSlowness><value>12.811447440341462</value></horizontalSlowness><backazimuth><value>268.43899298423133</value></backazimuth><phaseHint>P</phaseHint><evaluationMode>automatic</evaluationMode><comment><text>43.78916665493936</text><id>DFX:rectilinearity</id></comment><comment><text>19.108486654040348</text><id>SNR</id></comment></pick><pick publicID="de.gempa.tb1.Pick/20250411094552.123449.118151"><time><value>2025-04-11T09:45:44.19Z</value></time><waveformID networkCode="CX" stationCode="PB09" channelCode="HHZ"/><filterID>ITAPER(4)&gt;&gt;BW(4,4,20)</filterID><methodID>AIC</methodID><horizontalSlowness><value>16.646624799069226</value></horizontalSlowness><backazimuth><value>111.89392441948813</value></backazimuth><phaseHint>P</phaseHint><evaluationMode>automatic</evaluationMode><comment><text>47.69336330215754</text><id>DFX:rectilinearity</id></comment><comment><text>286.57555406032816</text><id>SNR</id></comment></pick><pick publicID="de.gempa.tb1.Pick/20250411094555.573821.118153"><time><value>2025-04-11T09:45:48.068393Z</value></time><waveformID networkCode="CX" stationCode="PB01" channelCode="HHZ"/><filterID>ITAPER(4)&gt;&gt;BW(4,4,20)</filterID><methodID>AIC</methodID><horizontalSlowness><value>17.49633459904727</value></horizontalSlowness><backazimuth><value>348.0889565037445</value></backazimuth><phaseHint>P</phaseHint><evaluationMode>automatic</evaluationMode><comment><text>13.149423658912822</text><id>DFX:rectilinearity</id></comment><comment><text>26.00255700468093</text><id>SNR</id></comment></pick><pick publicID="de.gempa.tb1.Pick/20250411094557.594089.118155"><time><value>2025-04-11T09:45:49.668393Z</value></time><waveformID networkCode="CX" stationCode="PB06" channelCode="HHZ"/><filterID>ITAPER(4)&gt;&gt;BW(4,4,20)</filterID><methodID>AIC</methodID><horizontalSlowness><value>10.70891893455528</value></horizontalSlowness><backazimuth><value>55.86734768084499</value></backazimuth><phaseHint>P</phaseHint><evaluationMode>automatic</evaluationMode><comment><text>54.76724904569764</text><id>DFX:rectilinearity</id></comment><comment><text>8.415003706492904</text><id>SNR</id></comment></pick><pick publicID="de.gempa.tb1.Pick/20250411094558.213891.118157"><time><value>2025-04-11T09:45:43.928369Z</value></time><waveformID networkCode="CX" stationCode="PB07" channelCode="HHZ"/><filterID>ITAPER(4)&gt;&gt;BW(4,4,20)</filterID><methodID>AIC</methodID><horizontalSlowness><value>22.575257980192283</value></horizontalSlowness><backazimuth><value>130.83659797715347</value></backazimuth><phaseHint>P</phaseHint><evaluationMode>automatic</evaluationMode><comment><text>398.29073764672427</text><id>DFX:rectilinearity</id></comment><comment><text>77.74686349855244</text><id>SNR</id></comment></pick><pick publicID="de.gempa.tb1.Pick/20250411094559.531393.118159"><time><value>2025-04-11T09:45:52.138393Z</value></time><waveformID networkCode="CX" stationCode="PB03" channelCode="HHN"/><filterID>ITAPER(2)&gt;&gt;BW(3,3,20)</filterID><methodID>L2-AIC-GRID</methodID><horizontalSlowness><value>19.434995106217038</value></horizontalSlowness><backazimuth><value>255.96851817544854</value></backazimuth><phaseHint>S</phaseHint><evaluationMode>automatic</evaluationMode><comment><text>30.69030792456385</text><id>DFX:rectilinearity</id></comment><comment><text>de.gempa.tb1.Pick/20250411094549.573191.118147</text><id>RefPickID</id></comment><comment><text>12.014106802662212</text><id>SNR</id></comment></pick><pick publicID="de.gempa.tb1.Pick/20250411094601.37546.118162"><time><value>2025-04-11T09:45:52.778369Z</value></time><waveformID networkCode="CX" stationCode="PB07" channelCode="HHN"/><filterID>ITAPER(2)&gt;&gt;BW(3,3,20)</filterID><methodID>L2-AIC-GRID</methodID><horizontalSlowness><value>21.988179473895098</value></horizontalSlowness><backazimuth><value>281.5258166232324</value></backazimuth><phaseHint>S</phaseHint><evaluationMode>automatic</evaluationMode><comment><text>2957.982334327546</text><id>DFX:rectilinearity</id></comment><comment><text>de.gempa.tb1.Pick/20250411094558.213891.118157</text><id>RefPickID</id></comment><comment><text>7.122399333567638</text><id>SNR</id></comment></pick><pick publicID="de.gempa.tb1.Pick/20250411094603.52932.118163"><time><value>2025-04-11T09:45:56.658393Z</value></time><waveformID networkCode="CX" stationCode="PB02" channelCode="HHN"/><filterID>ITAPER(2)&gt;&gt;BW(3,3,20)</filterID><methodID>L2-AIC-GRID</methodID><horizontalSlowness><value>12.570067430903649</value></horizontalSlowness><backazimuth><value>343.52967445770946</value></backazimuth><phaseHint>S</phaseHint><evaluationMode>automatic</evaluationMode><comment><text>265.50706861316786</text><id>DFX:rectilinearity</id></comment><comment><text>de.gempa.tb1.Pick/20250411094551.506324.118149</text><id>RefPickID</id></comment><comment><text>8.143619442775304</text><id>SNR</id></comment></pick><pick publicID="de.gempa.tb1.Pick/20250411094605.637551.118164"><time><value>2025-04-11T09:46:00.308393Z</value></time><waveformID networkCode="CX" stationCode="PB01" channelCode="HHN"/><filterID>ITAPER(2)&gt;&gt;BW(3,3,20)</filterID><methodID>L2-AIC-GRID</methodID><horizontalSlowness><value>16.730066306025712</value></horizontalSlowness><backazimuth><value>9.457283280667951</value></backazimuth><phaseHint>S</phaseHint><evaluationMode>automatic</evaluationMode><comment><text>142.40122656324388</text><id>DFX:rectilinearity</id></comment><comment><text>de.gempa.tb1.Pick/20250411094555.573821.118153</text><id>RefPickID</id></comment><comment><text>18.25521336306948</text><id>SNR</id></comment></pick><pick publicID="de.gempa.tb1.Pick/20250411094613.667711.118167"><time><value>2025-04-11T09:46:02.998393Z</value></time><waveformID networkCode="CX" stationCode="PB06" channelCode="HHN"/><filterID>ITAPER(2)&gt;&gt;BW(3,3,20)</filterID><methodID>L2-AIC-GRID</methodID><horizontalSlowness><value>21.183218733473154</value></horizontalSlowness><backazimuth><value>156.37825139785312</value></backazimuth><phaseHint>S</phaseHint><evaluationMode>automatic</evaluationMode><comment><text>396.60291144236976</text><id>DFX:rectilinearity</id></comment><comment><text>de.gempa.tb1.Pick/20250411094557.594089.118155</text><id>RefPickID</id></comment><comment><text>25.30257455337866</text><id>SNR</id></comment></pick><origin publicID="de.gempa.tb1.Origin/20250411094613.670754.57526"><time><value>2025-04-11T09:45:32.349242Z</value><uncertainty>0.9563902020454407</uncertainty></time><latitude><value>-21.810771942138672</value><uncertainty>2.8199222087860107</uncertainty></latitude><longitude><value>-69.57978057861328</value><uncertainty>8.275903701782227</uncertainty></longitude><depth><value>72.9537353515625</value><uncertainty>8.604378700256348</uncertainty></depth><depthType>from location</depthType><methodID>LOCSAT</methodID><earthModelID>iasp91_scanloc</earthModelID><quality><associatedPhaseCount>11</associatedPhaseCount><usedPhaseCount>11</usedPhaseCount><associatedStationCount>6</associatedStationCount><usedStationCount>6</usedStationCount><depthPhaseCount>0</depthPhaseCount><standardError>0.15883808023788418</standardError><azimuthalGap>92.07997131347656</azimuthalGap><maximumDistance>0.8907710313796997</maximumDistance><minimumDistance>0.2860969305038452</minimumDistance><medianDistance>0.5704553723335266</medianDistance></quality><uncertainty><minHorizontalUncertainty>6.016101837158203</minHorizontalUncertainty><maxHorizontalUncertainty>17.75428009033203</maxHorizontalUncertainty><azimuthMaxHorizontalUncertainty>87.93622589111328</azimuthMaxHorizontalUncertainty><preferredDescription>horizontal uncertainty</preferredDescription></uncertainty><evaluationMode>automatic</evaluationMode><evaluationStatus>confirmed</evaluationStatus><comment><text>0.00</text><id>mismatchScore</id></comment><comment><text>mismatchScore</text><id>scevalMethod</id></comment><arrival><pickID>de.gempa.tb1.Pick/20250411094549.573191.118147</pickID><phase>P</phase><azimuth>214.19589233398438</azimuth><distance>0.2860969305038452</distance><timeResidual>-0.151611328125</timeResidual><timeUsed>true</timeUsed><horizontalSlownessUsed>false</horizontalSlownessUsed><backazimuthUsed>false</backazimuthUsed><weight>1</weight></arrival><arrival><pickID>de.gempa.tb1.Pick/20250411094551.506324.118149</pickID><phase>P</phase><azimuth>328.87554931640625</azimuth><distance>0.5704553723335266</distance><timeResidual>0.022864341735839844</timeResidual><timeUsed>true</timeUsed><horizontalSlownessUsed>false</horizontalSlownessUsed><backazimuthUsed>false</backazimuthUsed><weight>1</weight></arrival><arrival><pickID>de.gempa.tb1.Pick/20250411094552.123449.118151</pickID><phase>P</phase><azimuth>87.45053100585938</azimuth><distance>0.3143060803413391</distance><timeResidual>0.24774932861328125</timeResidual><timeUsed>true</timeUsed><horizontalSlownessUsed>false</horizontalSlownessUsed><backazimuthUsed>false</backazimuthUsed><weight>1</weight></arrival><arrival><pickID>de.gempa.tb1.Pick/20250411094555.573821.118153</pickID><phase>P</phase><azimuth>6.446896076202393</azimuth><distance>0.768598735332489</distance><timeResidual>-0.17567920684814453</timeResidual><timeUsed>true</timeUsed><horizontalSlownessUsed>false</horizontalSlownessUsed><backazimuthUsed>false</backazimuthUsed><weight>1</weight></arrival><arrival><pickID>de.gempa.tb1.Pick/20250411094557.594089.118155</pickID><phase>P</phase><azimuth>179.53050231933594</azimuth><distance>0.8907710313796997</distance><timeResidual>0.004871368408203125</timeResidual><timeUsed>true</timeUsed><horizontalSlownessUsed>false</horizontalSlownessUsed><backazimuthUsed>false</backazimuthUsed><weight>1</weight></arrival><arrival><pickID>de.gempa.tb1.Pick/20250411094558.213891.118157</pickID><phase>P</phase><azimuth>286.3193359375</azimuth><distance>0.29685065150260925</distance><timeResidual>0.09960269927978516</timeResidual><timeUsed>true</timeUsed><horizontalSlownessUsed>false</horizontalSlownessUsed><backazimuthUsed>false</backazimuthUsed><weight>1</weight></arrival><arrival><pickID>de.gempa.tb1.Pick/20250411094559.531393.118159</pickID><phase>S</phase><azimuth>214.19589233398438</azimuth><distance>0.2860969305038452</distance><timeResidual>-0.2949838638305664</timeResidual><timeUsed>true</timeUsed><horizontalSlownessUsed>false</horizontalSlownessUsed><backazimuthUsed>false</backazimuthUsed><weight>1</weight></arrival><arrival><pickID>de.gempa.tb1.Pick/20250411094601.37546.118162</pickID><phase>S</phase><azimuth>286.3193359375</azimuth><distance>0.29685065150260925</distance><timeResidual>0.22345829010009766</timeResidual><timeUsed>true</timeUsed><horizontalSlownessUsed>false</horizontalSlownessUsed><backazimuthUsed>false</backazimuthUsed><weight>1</weight></arrival><arrival><pickID>de.gempa.tb1.Pick/20250411094603.52932.118163</pickID><phase>S</phase><azimuth>328.87554931640625</azimuth><distance>0.5704553723335266</distance><timeResidual>0.04717159271240234</timeResidual><timeUsed>true</timeUsed><horizontalSlownessUsed>false</horizontalSlownessUsed><backazimuthUsed>false</backazimuthUsed><weight>1</weight></arrival><arrival><pickID>de.gempa.tb1.Pick/20250411094605.637551.118164</pickID><phase>S</phase><azimuth>6.446896076202393</azimuth><distance>0.768598735332489</distance><timeResidual>-0.09038352966308594</timeResidual><timeUsed>true</timeUsed><horizontalSlownessUsed>false</horizontalSlownessUsed><backazimuthUsed>false</backazimuthUsed><weight>1</weight></arrival><arrival><pickID>de.gempa.tb1.Pick/20250411094613.667711.118167</pickID><phase>S</phase><azimuth>179.53050231933594</azimuth><distance>0.8907710313796997</distance><timeResidual>0.06697273254394531</timeResidual><timeUsed>true</timeUsed><horizontalSlownessUsed>false</horizontalSlownessUsed><backazimuthUsed>false</backazimuthUsed><weight>1</weight></arrival><magnitude publicID="de.gempa.tb1.Magnitude/20250411094626.532039.113540"><magnitude><value>1.91600928360181</value></magnitude><type>M</type><methodID>weighted average</methodID><stationCount>6</stationCount></magnitude></origin><event publicID="gempa2025hdls"><preferredOriginID>de.gempa.tb1.Origin/20250411094613.670754.57526</preferredOriginID><preferredMagnitudeID>de.gempa.tb1.Magnitude/20250411094626.532039.113540</preferredMagnitudeID><description><text>Northern Chile</text><type>region name</type></description><originReference>de.gempa.tb1.Origin/20250411094613.670754.57526</originReference></event></EventParameters></seiscomp>