<?xml version="1.0" encoding="UTF-8"?>
<seiscomp xmlns="http://geofon.gfz-potsdam.de/ns/seiscomp3-schema/0.13" version="0.13"><EventParameters><pick publicID="de.gempa.tb1.Pick/20250413211704.773488.133773"><time><value>2025-04-13T21:16:58.168393Z</value></time><waveformID networkCode="CX" stationCode="PB01" channelCode="HHZ"/><filterID>ITAPER(4)&gt;&gt;BW(4,4,20)</filterID><methodID>AIC</methodID><horizontalSlowness><value>6.645618525279559</value></horizontalSlowness><backazimuth><value>34.724180852738783</value></backazimuth><phaseHint>P</phaseHint><evaluationMode>automatic</evaluationMode><comment><text>236.70083282812033</text><id>DFX:rectilinearity</id></comment><comment><text>531.0896640000334</text><id>SNR</id></comment></pick><pick publicID="de.gempa.tb1.Pick/20250413211707.062375.133776"><time><value>2025-04-13T21:17:01.498393Z</value></time><waveformID networkCode="CX" stationCode="PB08" channelCode="HHZ"/><filterID>ITAPER(4)&gt;&gt;BW(4,4,20)</filterID><methodID>AIC</methodID><horizontalSlowness><value>14.84210612612351</value></horizontalSlowness><backazimuth><value>88.911811702748</value></backazimuth><phaseHint>P</phaseHint><evaluationMode>automatic</evaluationMode><comment><text>10.79143028959832</text><id>DFX:rectilinearity</id></comment><comment><text>6.853006781246208</text><id>SNR</id></comment></pick><pick publicID="de.gempa.tb1.Pick/20250413211707.573996.133778"><time><value>2025-04-13T21:17:02.028394Z</value></time><waveformID networkCode="CX" stationCode="PB02" channelCode="HHZ"/><filterID>ITAPER(4)&gt;&gt;BW(4,4,20)</filterID><methodID>AIC</methodID><horizontalSlowness><value>8.944071657832774</value></horizontalSlowness><backazimuth><value>34.51211026286944</value></backazimuth><phaseHint>P</phaseHint><evaluationMode>automatic</evaluationMode><comment><text>54.86508322241404</text><id>DFX:rectilinearity</id></comment><comment><text>34.038551210406865</text><id>SNR</id></comment></pick><pick publicID="de.gempa.tb1.Pick/20250413211711.414119.133780"><time><value>2025-04-13T21:17:02.879999Z</value></time><waveformID networkCode="CX" stationCode="PATCX" channelCode="HHZ"/><filterID>ITAPER(4)&gt;&gt;BW(4,4,20)</filterID><methodID>AIC</methodID><horizontalSlowness><value>23.17194604578076</value></horizontalSlowness><backazimuth><value>53.65506567511459</value></backazimuth><phaseHint>P</phaseHint><evaluationMode>automatic</evaluationMode><comment><text>932.3996278934196</text><id>DFX:rectilinearity</id></comment><comment><text>16.94594389843634</text><id>SNR</id></comment></pick><pick publicID="de.gempa.tb1.Pick/20250413211712.474143.133782"><time><value>2025-04-13T21:17:03.93Z</value></time><waveformID networkCode="CX" stationCode="PB09" channelCode="HHZ"/><filterID>ITAPER(4)&gt;&gt;BW(4,4,20)</filterID><methodID>AIC</methodID><horizontalSlowness><value>20.088073885376417</value></horizontalSlowness><backazimuth><value>281.69309839158387</value></backazimuth><phaseHint>P</phaseHint><evaluationMode>automatic</evaluationMode><comment><text>10.521974676305248</text><id>DFX:rectilinearity</id></comment><comment><text>20.711510462403552</text><id>SNR</id></comment></pick><pick publicID="de.gempa.tb1.Pick/20250413211717.573444.133784"><time><value>2025-04-13T21:17:09.988393Z</value></time><waveformID networkCode="CX" stationCode="PB01" channelCode="HHN"/><filterID>ITAPER(2)&gt;&gt;BW(3,3,20)</filterID><methodID>L2-AIC-GRID</methodID><horizontalSlowness><value>22.314506550863495</value></horizontalSlowness><backazimuth><value>207.06630453683678</value></backazimuth><phaseHint>S</phaseHint><evaluationMode>automatic</evaluationMode><comment><text>848.4719261412895</text><id>DFX:rectilinearity</id></comment><comment><text>de.gempa.tb1.Pick/20250413211704.773488.133773</text><id>RefPickID</id></comment><comment><text>7.8524000267865</text><id>SNR</id></comment></pick><pick publicID="de.gempa.tb1.Pick/20250413211718.57463.133785"><time><value>2025-04-13T21:17:09.51Z</value></time><waveformID networkCode="CX" stationCode="PSGCX" channelCode="HHZ"/><filterID>ITAPER(4)&gt;&gt;BW(4,4,20)</filterID><methodID>AIC</methodID><horizontalSlowness><value>8.577504059275517</value></horizontalSlowness><backazimuth><value>78.46294472032325</value></backazimuth><phaseHint>P</phaseHint><evaluationMode>automatic</evaluationMode><comment><text>14.531319178251454</text><id>DFX:rectilinearity</id></comment><comment><text>11.46946017595653</text><id>SNR</id></comment></pick><pick publicID="de.gempa.tb1.Pick/20250413211724.253152.133789"><time><value>2025-04-13T21:17:18.509999Z</value></time><waveformID networkCode="CX" stationCode="PATCX" channelCode="HHN"/><filterID>ITAPER(2)&gt;&gt;BW(3,3,20)</filterID><methodID>L2-AIC-GRID</methodID><horizontalSlowness><value>22.308705556725045</value></horizontalSlowness><backazimuth><value>19.596214935450348</value></backazimuth><phaseHint>S</phaseHint><evaluationMode>automatic</evaluationMode><comment><text>652.3340613792715</text><id>DFX:rectilinearity</id></comment><comment><text>de.gempa.tb1.Pick/20250413211711.414119.133780</text><id>RefPickID</id></comment><comment><text>12.112227548893753</text><id>SNR</id></comment></pick><pick publicID="de.gempa.tb1.Pick/20250413211724.519122.133790"><time><value>2025-04-13T21:17:16.968394Z</value></time><waveformID networkCode="CX" stationCode="PB02" channelCode="HHN"/><filterID>ITAPER(2)&gt;&gt;BW(3,3,20)</filterID><methodID>L2-AIC-GRID</methodID><horizontalSlowness><value>20.148710317988023</value></horizontalSlowness><backazimuth><value>287.42141261131013</value></backazimuth><phaseHint>S</phaseHint><evaluationMode>automatic</evaluationMode><comment><text>415.29303169053765</text><id>DFX:rectilinearity</id></comment><comment><text>de.gempa.tb1.Pick/20250413211707.573996.133778</text><id>RefPickID</id></comment><comment><text>6.558758610647335</text><id>SNR</id></comment></pick><pick publicID="de.gempa.tb1.Pick/20250413211726.20595.133793"><time><value>2025-04-13T21:17:15.238393Z</value></time><waveformID networkCode="CX" stationCode="PB08" channelCode="HHN"/><filterID>ITAPER(2)&gt;&gt;BW(3,3,20)</filterID><methodID>L2-AIC-GRID</methodID><horizontalSlowness><value>14.2594034651825</value></horizontalSlowness><backazimuth><value>201.68346837764219</value></backazimuth><phaseHint>S</phaseHint><evaluationMode>automatic</evaluationMode><comment><text>116.51010999522272</text><id>DFX:rectilinearity</id></comment><comment><text>de.gempa.tb1.Pick/20250413211707.062375.133776</text><id>RefPickID</id></comment><comment><text>11.096819390379173</text><id>SNR</id></comment></pick><pick publicID="de.gempa.tb1.Pick/20250413211738.576488.133798"><time><value>2025-04-13T21:17:29.36Z</value></time><waveformID networkCode="CX" stationCode="PSGCX" channelCode="HHN"/><filterID>ITAPER(2)&gt;&gt;BW(3,3,20)</filterID><methodID>L2-AIC-GRID</methodID><horizontalSlowness><value>23.023031729426293</value></horizontalSlowness><backazimuth><value>231.70372862107433</value></backazimuth><phaseHint>S</phaseHint><evaluationMode>automatic</evaluationMode><comment><text>40.419348091978236</text><id>DFX:rectilinearity</id></comment><comment><text>de.gempa.tb1.Pick/20250413211718.57463.133785</text><id>RefPickID</id></comment><comment><text>5.705533914203848</text><id>SNR</id></comment></pick><origin publicID="de.gempa.tb1.Origin/20250413211738.579421.119379"><time><value>2025-04-13T21:16:43.158306Z</value><uncertainty>0.9355496168136597</uncertainty></time><latitude><value>-20.819501876831055</value><uncertainty>3.55815315246582</uncertainty></latitude><longitude><value>-69.22942352294922</value><uncertainty>5.763700485229492</uncertainty></longitude><depth><value>106.90740966796875</value><uncertainty>6.838388442993164</uncertainty></depth><depthType>from location</depthType><methodID>LOCSAT</methodID><earthModelID>iasp91_scanloc</earthModelID><quality><associatedPhaseCount>11</associatedPhaseCount><usedPhaseCount>11</usedPhaseCount><associatedStationCount>6</associatedStationCount><usedStationCount>6</usedStationCount><depthPhaseCount>0</depthPhaseCount><standardError>0.41700149434988387</standardError><azimuthalGap>174.64274835586548</azimuthalGap><maximumDistance>1.4775729179382324</maximumDistance><minimumDistance>0.32819244265556335</minimumDistance><medianDistance>0.7970808744430542</medianDistance></quality><uncertainty><minHorizontalUncertainty>7.554108142852783</minHorizontalUncertainty><maxHorizontalUncertainty>12.405017852783203</maxHorizontalUncertainty><azimuthMaxHorizontalUncertainty>96.24404907226562</azimuthMaxHorizontalUncertainty><preferredDescription>horizontal uncertainty</preferredDescription></uncertainty><evaluationMode>automatic</evaluationMode><evaluationStatus>confirmed</evaluationStatus><comment><text>0.11</text><id>mismatchScore</id></comment><comment><text>mismatchScore</text><id>scevalMethod</id></comment><arrival><pickID>de.gempa.tb1.Pick/20250413211704.773488.133773</pickID><phase>P</phase><azimuth>227.24415588378906</azimuth><distance>0.32819244265556335</distance><timeResidual>-0.5158405303955078</timeResidual><timeUsed>true</timeUsed><horizontalSlownessUsed>false</horizontalSlownessUsed><backazimuthUsed>false</backazimuthUsed><weight>1</weight></arrival><arrival><pickID>de.gempa.tb1.Pick/20250413211707.062375.133776</pickID><phase>P</phase><azimuth>6.041837215423584</azimuth><distance>0.678695559501648</distance><timeResidual>0.432682991027832</timeResidual><timeUsed>true</timeUsed><horizontalSlownessUsed>false</horizontalSlownessUsed><backazimuthUsed>false</backazimuthUsed><weight>1</weight></arrival><arrival><pickID>de.gempa.tb1.Pick/20250413211707.573996.133778</pickID><phase>P</phase><azimuth>231.2394714355469</azimuth><distance>0.7970808744430542</distance><timeResidual>-0.08649730682373047</timeResidual><timeUsed>true</timeUsed><horizontalSlownessUsed>false</horizontalSlownessUsed><backazimuthUsed>false</backazimuthUsed><weight>1</weight></arrival><arrival><pickID>de.gempa.tb1.Pick/20250413211711.414119.133780</pickID><phase>P</phase><azimuth>269.7571716308594</azimuth><distance>0.8638818264007568</distance><timeResidual>0.12445068359375</timeResidual><timeUsed>true</timeUsed><horizontalSlownessUsed>false</horizontalSlownessUsed><backazimuthUsed>false</backazimuthUsed><weight>1</weight></arrival><arrival><pickID>de.gempa.tb1.Pick/20250413211712.474143.133782</pickID><phase>P</phase><azimuth>180.68458557128906</azimuth><distance>0.9721203446388245</distance><timeResidual>0.09170341491699219</timeResidual><timeUsed>true</timeUsed><horizontalSlownessUsed>false</horizontalSlownessUsed><backazimuthUsed>false</backazimuthUsed><weight>1</weight></arrival><arrival><pickID>de.gempa.tb1.Pick/20250413211717.573444.133784</pickID><phase>S</phase><azimuth>227.24415588378906</azimuth><distance>0.32819244265556335</distance><timeResidual>-0.6320428848266602</timeResidual><timeUsed>true</timeUsed><horizontalSlownessUsed>false</horizontalSlownessUsed><backazimuthUsed>false</backazimuthUsed><weight>1</weight></arrival><arrival><pickID>de.gempa.tb1.Pick/20250413211718.57463.133785</pickID><phase>P</phase><azimuth>325.2339782714844</azimuth><distance>1.4775729179382324</distance><timeResidual>-0.04014015197753906</timeResidual><timeUsed>true</timeUsed><horizontalSlownessUsed>false</horizontalSlownessUsed><backazimuthUsed>false</backazimuthUsed><weight>1</weight></arrival><arrival><pickID>de.gempa.tb1.Pick/20250413211724.253152.133789</pickID><phase>S</phase><azimuth>269.7571716308594</azimuth><distance>0.8638818264007568</distance><timeResidual>0.6421709060668945</timeResidual><timeUsed>true</timeUsed><horizontalSlownessUsed>false</horizontalSlownessUsed><backazimuthUsed>false</backazimuthUsed><weight>1</weight></arrival><arrival><pickID>de.gempa.tb1.Pick/20250413211724.519122.133790</pickID><phase>S</phase><azimuth>231.2394714355469</azimuth><distance>0.7970808744430542</distance><timeResidual>0.2416219711303711</timeResidual><timeUsed>true</timeUsed><horizontalSlownessUsed>false</horizontalSlownessUsed><backazimuthUsed>false</backazimuthUsed><weight>1</weight></arrival><arrival><pickID>de.gempa.tb1.Pick/20250413211726.20595.133793</pickID><phase>S</phase><azimuth>6.041837215423584</azimuth><distance>0.678695559501648</distance><timeResidual>0.38226985931396484</timeResidual><timeUsed>true</timeUsed><horizontalSlownessUsed>false</horizontalSlownessUsed><backazimuthUsed>false</backazimuthUsed><weight>1</weight></arrival><arrival><pickID>de.gempa.tb1.Pick/20250413211738.576488.133798</pickID><phase>S</phase><azimuth>325.2339782714844</azimuth><distance>1.4775729179382324</distance><timeResidual>-0.6404085159301758</timeResidual><timeUsed>true</timeUsed><horizontalSlownessUsed>false</horizontalSlownessUsed><backazimuthUsed>false</backazimuthUsed><weight>1</weight></arrival><magnitude publicID="de.gempa.tb1.Magnitude/20250413211738.588608.403724"><magnitude><value>2.0423445236775293</value></magnitude><type>M</type><methodID>weighted average</methodID><stationCount>4</stationCount></magnitude></origin><event publicID="gempa2025hiau"><preferredOriginID>de.gempa.tb1.Origin/20250413211738.579421.119379</preferredOriginID><preferredMagnitudeID>de.gempa.tb1.Magnitude/20250413211738.588608.403724</preferredMagnitudeID><description><text>Northern Chile</text><type>region name</type></description><originReference>de.gempa.tb1.Origin/20250413211738.579421.119379</originReference></event></EventParameters></seiscomp>