<?xml version="1.0" encoding="UTF-8"?>
<seiscomp xmlns="http://geofon.gfz-potsdam.de/ns/seiscomp3-schema/0.13" version="0.13"><EventParameters><pick publicID="de.gempa.tb1.Pick/20250413161801.562615.132351"><time><value>2025-04-13T16:17:53.668393Z</value></time><waveformID networkCode="CX" stationCode="PB01" channelCode="HHZ"/><filterID>ITAPER(4)&gt;&gt;BW(4,4,20)</filterID><methodID>AIC</methodID><horizontalSlowness><value>12.871061844475326</value></horizontalSlowness><backazimuth><value>317.8478977857162</value></backazimuth><phaseHint>P</phaseHint><evaluationMode>automatic</evaluationMode><comment><text>9.416165885855598</text><id>DFX:rectilinearity</id></comment><comment><text>17.237513462514553</text><id>SNR</id></comment></pick><pick publicID="de.gempa.tb1.Pick/20250413161803.474692.132353"><time><value>2025-04-13T16:17:57.608393Z</value></time><waveformID networkCode="CX" stationCode="PB02" channelCode="HHZ"/><filterID>ITAPER(4)&gt;&gt;BW(4,4,20)</filterID><methodID>AIC</methodID><horizontalSlowness><value>21.194245464643814</value></horizontalSlowness><backazimuth><value>265.8069160673728</value></backazimuth><phaseHint>P</phaseHint><evaluationMode>automatic</evaluationMode><comment><text>51.07553690309871</text><id>DFX:rectilinearity</id></comment><comment><text>29.817022936991034</text><id>SNR</id></comment></pick><pick publicID="de.gempa.tb1.Pick/20250413161804.579363.132355"><time><value>2025-04-13T16:17:57.748393Z</value></time><waveformID networkCode="CX" stationCode="PB03" channelCode="HHZ"/><filterID>ITAPER(4)&gt;&gt;BW(4,4,20)</filterID><methodID>AIC</methodID><horizontalSlowness><value>16.057552256024973</value></horizontalSlowness><backazimuth><value>236.90988178126753</value></backazimuth><phaseHint>P</phaseHint><evaluationMode>automatic</evaluationMode><comment><text>10.298937837736004</text><id>DFX:rectilinearity</id></comment><comment><text>22.03291660083957</text><id>SNR</id></comment></pick><pick publicID="de.gempa.tb1.Pick/20250413161806.466805.132357"><time><value>2025-04-13T16:18:00.669999Z</value></time><waveformID networkCode="CX" stationCode="PATCX" channelCode="HHZ"/><filterID>ITAPER(4)&gt;&gt;BW(4,4,20)</filterID><methodID>AIC</methodID><horizontalSlowness><value>23.12197620321774</value></horizontalSlowness><backazimuth><value>281.70569775497586</value></backazimuth><phaseHint>P</phaseHint><evaluationMode>automatic</evaluationMode><comment><text>123.35193268288698</text><id>DFX:rectilinearity</id></comment><comment><text>7.3679990499829</text><id>SNR</id></comment></pick><pick publicID="de.gempa.tb1.Pick/20250413161806.573553.132359"><time><value>2025-04-13T16:18:00.388393Z</value></time><waveformID networkCode="CX" stationCode="PB06" channelCode="HHZ"/><filterID>ITAPER(4)&gt;&gt;BW(4,4,20)</filterID><methodID>AIC</methodID><horizontalSlowness><value>12.487529271675346</value></horizontalSlowness><backazimuth><value>235.80238772762667</value></backazimuth><phaseHint>P</phaseHint><evaluationMode>automatic</evaluationMode><comment><text>68.94035831163535</text><id>DFX:rectilinearity</id></comment><comment><text>20.756440271228588</text><id>SNR</id></comment></pick><pick publicID="de.gempa.tb1.Pick/20250413161808.376752.132361"><time><value>2025-04-13T16:17:57.868391Z</value></time><waveformID networkCode="CX" stationCode="PB07" channelCode="HHZ"/><filterID>ITAPER(4)&gt;&gt;BW(4,4,20)</filterID><methodID>AIC</methodID><horizontalSlowness><value>19.336572948759198</value></horizontalSlowness><backazimuth><value>28.78773818834844</value></backazimuth><phaseHint>P</phaseHint><evaluationMode>automatic</evaluationMode><comment><text>142.72128082503562</text><id>DFX:rectilinearity</id></comment><comment><text>47.66871817896671</text><id>SNR</id></comment></pick><pick publicID="de.gempa.tb1.Pick/20250413161814.031127.132364"><time><value>2025-04-13T16:17:52.73Z</value></time><waveformID networkCode="CX" stationCode="PB09" channelCode="HHZ"/><filterID>ITAPER(4)&gt;&gt;BW(4,4,20)</filterID><methodID>AIC</methodID><horizontalSlowness><value>9.121439528019348</value></horizontalSlowness><backazimuth><value>324.4106819552663</value></backazimuth><phaseHint>P</phaseHint><evaluationMode>automatic</evaluationMode><comment><text>11.893268693850315</text><id>DFX:rectilinearity</id></comment><comment><text>16.054619260899852</text><id>SNR</id></comment></pick><pick publicID="de.gempa.tb1.Pick/20250413161815.497256.132366"><time><value>2025-04-13T16:18:05.260001Z</value></time><waveformID networkCode="CX" stationCode="PSGCX" channelCode="HHZ"/><filterID>ITAPER(4)&gt;&gt;BW(4,4,20)</filterID><methodID>AIC</methodID><horizontalSlowness><value>11.676323987266779</value></horizontalSlowness><backazimuth><value>206.20986097542328</value></backazimuth><phaseHint>P</phaseHint><evaluationMode>automatic</evaluationMode><comment><text>32.22047908960821</text><id>DFX:rectilinearity</id></comment><comment><text>10.112515209604435</text><id>SNR</id></comment></pick><pick publicID="de.gempa.tb1.Pick/20250413161829.629946.132370"><time><value>2025-04-13T16:18:19.968393Z</value></time><waveformID networkCode="CX" stationCode="PB01" channelCode="HHN"/><filterID>ITAPER(2)&gt;&gt;BW(3,3,20)</filterID><methodID>L2-AIC-GRID</methodID><horizontalSlowness><value>20.791284107131695</value></horizontalSlowness><backazimuth><value>6.787492402447327</value></backazimuth><phaseHint>S</phaseHint><evaluationMode>automatic</evaluationMode><comment><text>40.747953352925236</text><id>DFX:rectilinearity</id></comment><comment><text>de.gempa.tb1.Pick/20250413161801.562615.132351</text><id>RefPickID</id></comment><comment><text>9.507552400085771</text><id>SNR</id></comment></pick><pick publicID="de.gempa.tb1.Pick/20250413161833.641046.132375"><time><value>2025-04-13T16:18:25.928393Z</value></time><waveformID networkCode="CX" stationCode="PB02" channelCode="HHN"/><filterID>ITAPER(2)&gt;&gt;BW(3,3,20)</filterID><methodID>L2-AIC-GRID</methodID><horizontalSlowness><value>13.602564099513696</value></horizontalSlowness><backazimuth><value>40.62740782951056</value></backazimuth><phaseHint>S</phaseHint><evaluationMode>automatic</evaluationMode><comment><text>198.79172419210065</text><id>DFX:rectilinearity</id></comment><comment><text>de.gempa.tb1.Pick/20250413161803.474692.132353</text><id>RefPickID</id></comment><comment><text>8.369899912890212</text><id>SNR</id></comment></pick><pick publicID="de.gempa.tb1.Pick/20250413161834.643118.132376"><time><value>2025-04-13T16:18:26.278393Z</value></time><waveformID networkCode="CX" stationCode="PB03" channelCode="HHN"/><filterID>ITAPER(2)&gt;&gt;BW(3,3,20)</filterID><methodID>L2-AIC-GRID</methodID><horizontalSlowness><value>11.694428921081245</value></horizontalSlowness><backazimuth><value>283.84207084963413</value></backazimuth><phaseHint>S</phaseHint><evaluationMode>automatic</evaluationMode><comment><text>13.601396398142887</text><id>DFX:rectilinearity</id></comment><comment><text>de.gempa.tb1.Pick/20250413161804.579363.132355</text><id>RefPickID</id></comment><comment><text>7.749182464142036</text><id>SNR</id></comment></pick><pick publicID="de.gempa.tb1.Pick/20250413161838.45679.132377"><time><value>2025-04-13T16:18:31.209999Z</value></time><waveformID networkCode="CX" stationCode="PATCX" channelCode="HHN"/><filterID>ITAPER(2)&gt;&gt;BW(3,3,20)</filterID><methodID>L2-AIC-GRID</methodID><horizontalSlowness><value>21.769161439722708</value></horizontalSlowness><backazimuth><value>288.15922711052423</value></backazimuth><phaseHint>S</phaseHint><evaluationMode>automatic</evaluationMode><comment><text>520.4209862659214</text><id>DFX:rectilinearity</id></comment><comment><text>de.gempa.tb1.Pick/20250413161806.466805.132357</text><id>RefPickID</id></comment><comment><text>7.866977352993273</text><id>SNR</id></comment></pick><pick publicID="de.gempa.tb1.Pick/20250413161846.576868.132378"><time><value>2025-04-13T16:18:40.290001Z</value></time><waveformID networkCode="CX" stationCode="PSGCX" channelCode="HHN"/><filterID>ITAPER(2)&gt;&gt;BW(3,3,20)</filterID><methodID>L2-AIC-GRID</methodID><horizontalSlowness><value>8.269148161746024</value></horizontalSlowness><backazimuth><value>107.56025575999259</value></backazimuth><phaseHint>S</phaseHint><evaluationMode>automatic</evaluationMode><comment><text>27.2472233811661</text><id>DFX:rectilinearity</id></comment><comment><text>de.gempa.tb1.Pick/20250413161815.497256.132366</text><id>RefPickID</id></comment><comment><text>10.4990877128698</text><id>SNR</id></comment></pick><origin publicID="de.gempa.tb1.Origin/20250413161848.540101.114788"><time><value>2025-04-13T16:17:20.971236Z</value><uncertainty>0.9252457022666931</uncertainty></time><latitude><value>-21.203763961791992</value><uncertainty>6.46324396133423</uncertainty></latitude><longitude><value>-67.9651870727539</value><uncertainty>17.234865188598633</uncertainty></longitude><depth><value>196.69354248046875</value><uncertainty>18.387840270996094</uncertainty></depth><depthType>from location</depthType><methodID>LOCSAT</methodID><earthModelID>iasp91_scanloc</earthModelID><quality><associatedPhaseCount>13</associatedPhaseCount><usedPhaseCount>13</usedPhaseCount><associatedStationCount>8</associatedStationCount><usedStationCount>8</usedStationCount><depthPhaseCount>0</depthPhaseCount><standardError>0.33879760005832915</standardError><azimuthalGap>276.72332763671875</azimuthalGap><maximumDistance>2.579101800918579</maximumDistance><minimumDistance>1.327159881591797</minimumDistance><medianDistance>1.8638430833816528</medianDistance></quality><uncertainty><minHorizontalUncertainty>11.345913887023926</minHorizontalUncertainty><maxHorizontalUncertainty>37.79793167114258</maxHorizontalUncertainty><azimuthMaxHorizontalUncertainty>77.2529067993164</azimuthMaxHorizontalUncertainty><preferredDescription>horizontal uncertainty</preferredDescription></uncertainty><evaluationMode>automatic</evaluationMode><evaluationStatus>confirmed</evaluationStatus><comment><text>0.16</text><id>mismatchScore</id></comment><comment><text>mismatchScore</text><id>scevalMethod</id></comment><arrival><pickID>de.gempa.tb1.Pick/20250413161801.562615.132351</pickID><phase>P</phase><azimuth>276.1399841308594</azimuth><distance>1.430100440979004</distance><timeResidual>-0.09492683410644531</timeResidual><timeUsed>true</timeUsed><horizontalSlownessUsed>false</horizontalSlownessUsed><backazimuthUsed>false</backazimuthUsed><weight>1</weight></arrival><arrival><pickID>de.gempa.tb1.Pick/20250413161803.474692.132353</pickID><phase>P</phase><azimuth>265.9862365722656</azimuth><distance>1.8046764135360718</distance><timeResidual>0.34963226318359375</timeResidual><timeUsed>true</timeUsed><horizontalSlownessUsed>false</horizontalSlownessUsed><backazimuthUsed>false</backazimuthUsed><weight>1</weight></arrival><arrival><pickID>de.gempa.tb1.Pick/20250413161804.579363.132355</pickID><phase>P</phase><azimuth>242.8677062988281</azimuth><distance>1.8638430833816528</distance><timeResidual>-0.09344482421875</timeResidual><timeUsed>true</timeUsed><horizontalSlownessUsed>false</horizontalSlownessUsed><backazimuthUsed>false</backazimuthUsed><weight>1</weight></arrival><arrival><pickID>de.gempa.tb1.Pick/20250413161806.466805.132357</pickID><phase>P</phase><azimuth>280.1715087890625</azimuth><distance>2.07918381690979</distance><timeResidual>0.5936298370361328</timeResidual><timeUsed>true</timeUsed><horizontalSlownessUsed>false</horizontalSlownessUsed><backazimuthUsed>false</backazimuthUsed><weight>1</weight></arrival><arrival><pickID>de.gempa.tb1.Pick/20250413161806.573553.132359</pickID><phase>P</phase><azimuth>224.64251708984375</azimuth><distance>2.1116070747375488</distance><timeResidual>-0.014966964721679688</timeResidual><timeUsed>true</timeUsed><horizontalSlownessUsed>false</horizontalSlownessUsed><backazimuthUsed>false</backazimuthUsed><weight>1</weight></arrival><arrival><pickID>de.gempa.tb1.Pick/20250413161808.376752.132361</pickID><phase>P</phase><azimuth>253.4378356933594</azimuth><distance>1.863450288772583</distance><timeResidual>0.027568817138671875</timeResidual><timeUsed>true</timeUsed><horizontalSlownessUsed>false</horizontalSlownessUsed><backazimuthUsed>false</backazimuthUsed><weight>1</weight></arrival><arrival><pickID>de.gempa.tb1.Pick/20250413161814.031127.132364</pickID><phase>P</phase><azimuth>243.3877716064453</azimuth><distance>1.327159881591797</distance><timeResidual>-0.1480560302734375</timeResidual><timeUsed>true</timeUsed><horizontalSlownessUsed>false</horizontalSlownessUsed><backazimuthUsed>false</backazimuthUsed><weight>1</weight></arrival><arrival><pickID>de.gempa.tb1.Pick/20250413161815.497256.132366</pickID><phase>P</phase><azimuth>307.919189453125</azimuth><distance>2.579101800918579</distance><timeResidual>-0.31315040588378906</timeResidual><timeUsed>true</timeUsed><horizontalSlownessUsed>false</horizontalSlownessUsed><backazimuthUsed>false</backazimuthUsed><weight>1</weight></arrival><arrival><pickID>de.gempa.tb1.Pick/20250413161829.629946.132370</pickID><phase>S</phase><azimuth>276.1399841308594</azimuth><distance>1.430100440979004</distance><timeResidual>0.4028797149658203</timeResidual><timeUsed>true</timeUsed><horizontalSlownessUsed>false</horizontalSlownessUsed><backazimuthUsed>false</backazimuthUsed><weight>1</weight></arrival><arrival><pickID>de.gempa.tb1.Pick/20250413161833.641046.132375</pickID><phase>S</phase><azimuth>265.9862365722656</azimuth><distance>1.8046764135360718</distance><timeResidual>0.08662986755371094</timeResidual><timeUsed>true</timeUsed><horizontalSlownessUsed>false</horizontalSlownessUsed><backazimuthUsed>false</backazimuthUsed><weight>1</weight></arrival><arrival><pickID>de.gempa.tb1.Pick/20250413161834.643118.132376</pickID><phase>S</phase><azimuth>242.8677062988281</azimuth><distance>1.8638430833816528</distance><timeResidual>-0.6101627349853516</timeResidual><timeUsed>true</timeUsed><horizontalSlownessUsed>false</horizontalSlownessUsed><backazimuthUsed>false</backazimuthUsed><weight>1</weight></arrival><arrival><pickID>de.gempa.tb1.Pick/20250413161838.45679.132377</pickID><phase>S</phase><azimuth>280.1715087890625</azimuth><distance>2.07918381690979</distance><timeResidual>0.30665016174316406</timeResidual><timeUsed>true</timeUsed><horizontalSlownessUsed>false</horizontalSlownessUsed><backazimuthUsed>false</backazimuthUsed><weight>1</weight></arrival><arrival><pickID>de.gempa.tb1.Pick/20250413161846.576868.132378</pickID><phase>S</phase><azimuth>307.919189453125</azimuth><distance>2.579101800918579</distance><timeResidual>-0.4926357269287109</timeResidual><timeUsed>true</timeUsed><horizontalSlownessUsed>false</horizontalSlownessUsed><backazimuthUsed>false</backazimuthUsed><weight>1</weight></arrival><magnitude publicID="de.gempa.tb1.Magnitude/20250413161939.738493.377920"><magnitude><value>3.0421837640553817</value></magnitude><type>M</type><methodID>weighted average</methodID><stationCount>3</stationCount></magnitude></origin><event publicID="gempa2025hhqv"><preferredOriginID>de.gempa.tb1.Origin/20250413161848.540101.114788</preferredOriginID><preferredMagnitudeID>de.gempa.tb1.Magnitude/20250413161939.738493.377920</preferredMagnitudeID><description><text>Chile-Bolivia Border Region</text><type>region name</type></description><originReference>de.gempa.tb1.Origin/20250413161848.540101.114788</originReference></event></EventParameters></seiscomp>