<?xml version="1.0" encoding="UTF-8"?>
<seiscomp xmlns="http://geofon.gfz-potsdam.de/ns/seiscomp3-schema/0.13" version="0.13"><EventParameters><pick publicID="de.gempa.tb1.Pick/20250414174519.72807.139763"><time><value>2025-04-14T17:45:14.508393Z</value></time><waveformID networkCode="CX" stationCode="PB15" channelCode="HHZ"/><filterID>ITAPER(4)&gt;&gt;BW(4,4,20)</filterID><methodID>AIC</methodID><horizontalSlowness><value>20.850524046481539</value></horizontalSlowness><backazimuth><value>104.23662043313284</value></backazimuth><phaseHint>P</phaseHint><evaluationMode>automatic</evaluationMode><comment><text>1873.5807304871823</text><id>DFX:rectilinearity</id></comment><comment><text>27.44980824072624</text><id>SNR</id></comment></pick><pick publicID="de.gempa.tb1.Pick/20250414174520.53908.139765"><time><value>2025-04-14T17:45:14.038394Z</value></time><waveformID networkCode="CX" stationCode="PB06" channelCode="HHZ"/><filterID>ITAPER(4)&gt;&gt;BW(4,4,20)</filterID><methodID>AIC</methodID><horizontalSlowness><value>15.099939899567731</value></horizontalSlowness><backazimuth><value>161.4005135957859</value></backazimuth><phaseHint>P</phaseHint><evaluationMode>automatic</evaluationMode><comment><text>38.30049920735867</text><id>DFX:rectilinearity</id></comment><comment><text>30.8568520002053</text><id>SNR</id></comment></pick><pick publicID="de.gempa.tb1.Pick/20250414174520.576319.139767"><time><value>2025-04-14T17:45:15.768393Z</value></time><waveformID networkCode="CX" stationCode="PB03" channelCode="HHZ"/><filterID>ITAPER(4)&gt;&gt;BW(4,4,20)</filterID><methodID>AIC</methodID><horizontalSlowness><value>8.018221479884744</value></horizontalSlowness><backazimuth><value>105.13564022509692</value></backazimuth><phaseHint>P</phaseHint><evaluationMode>automatic</evaluationMode><comment><text>23.12927002149179</text><id>DFX:rectilinearity</id></comment><comment><text>48.10984968602472</text><id>SNR</id></comment></pick><pick publicID="de.gempa.tb1.Pick/20250414174522.676816.139769"><time><value>2025-04-14T17:45:17.52Z</value></time><waveformID networkCode="CX" stationCode="PB19" channelCode="HHZ"/><filterID>ITAPER(4)&gt;&gt;BW(4,4,20)</filterID><methodID>AIC</methodID><horizontalSlowness><value>7.283277981297458</value></horizontalSlowness><backazimuth><value>85.76009686976768</value></backazimuth><phaseHint>P</phaseHint><evaluationMode>automatic</evaluationMode><comment><text>342.5525982539836</text><id>DFX:rectilinearity</id></comment><comment><text>64.84325240878339</text><id>SNR</id></comment></pick><pick publicID="de.gempa.tb1.Pick/20250414174524.852647.139771"><time><value>2025-04-14T17:45:18.748393Z</value></time><waveformID networkCode="CX" stationCode="PB01" channelCode="HHZ"/><filterID>ITAPER(4)&gt;&gt;BW(4,4,20)</filterID><methodID>AIC</methodID><horizontalSlowness><value>5.247851844735655</value></horizontalSlowness><backazimuth><value>50.37272206244066</value></backazimuth><phaseHint>P</phaseHint><evaluationMode>automatic</evaluationMode><comment><text>6.985746568976131</text><id>DFX:rectilinearity</id></comment><comment><text>42.749652731648354</text><id>SNR</id></comment></pick><pick publicID="de.gempa.tb1.Pick/20250414174528.428948.139775"><time><value>2025-04-14T17:45:20.298393Z</value></time><waveformID networkCode="CX" stationCode="PB02" channelCode="HHZ"/><filterID>ITAPER(4)&gt;&gt;BW(4,4,20)</filterID><methodID>AIC</methodID><horizontalSlowness><value>11.905870461277784</value></horizontalSlowness><backazimuth><value>97.7796593010636</value></backazimuth><phaseHint>P</phaseHint><evaluationMode>automatic</evaluationMode><comment><text>12.95655395194532</text><id>DFX:rectilinearity</id></comment><comment><text>24.59120430358231</text><id>SNR</id></comment></pick><pick publicID="de.gempa.tb1.Pick/20250414174528.780678.139777"><time><value>2025-04-14T17:45:12.51Z</value></time><waveformID networkCode="CX" stationCode="PB09" channelCode="HHZ"/><filterID>ITAPER(4)&gt;&gt;BW(4,4,20)</filterID><methodID>AIC</methodID><horizontalSlowness><value>11.986072530145977</value></horizontalSlowness><backazimuth><value>108.68583752015054</value></backazimuth><phaseHint>P</phaseHint><evaluationMode>automatic</evaluationMode><comment><text>12.859852154792572</text><id>DFX:rectilinearity</id></comment><comment><text>37.413826900610253</text><id>SNR</id></comment></pick><pick publicID="de.gempa.tb1.Pick/20250414174531.060076.139779"><time><value>2025-04-14T17:45:25.808393Z</value></time><waveformID networkCode="CX" stationCode="PB08" channelCode="HHZ"/><filterID>ITAPER(4)&gt;&gt;BW(4,4,20)</filterID><methodID>AIC</methodID><horizontalSlowness><value>13.4734510942109</value></horizontalSlowness><backazimuth><value>186.34427403953995</value></backazimuth><phaseHint>P</phaseHint><evaluationMode>automatic</evaluationMode><comment><text>23.734350353860634</text><id>DFX:rectilinearity</id></comment><comment><text>6.432513876459058</text><id>SNR</id></comment></pick><pick publicID="de.gempa.tb1.Pick/20250414174531.175212.139781"><time><value>2025-04-14T17:45:25.51Z</value></time><waveformID networkCode="CX" stationCode="PB10" channelCode="HHZ"/><filterID>ITAPER(4)&gt;&gt;BW(4,4,20)</filterID><methodID>AIC</methodID><horizontalSlowness><value>8.555082541709712</value></horizontalSlowness><backazimuth><value>76.82283276643861</value></backazimuth><phaseHint>P</phaseHint><evaluationMode>automatic</evaluationMode><comment><text>42.675374082944906</text><id>DFX:rectilinearity</id></comment><comment><text>22.080164807152624</text><id>SNR</id></comment></pick><pick publicID="de.gempa.tb1.Pick/20250414174536.2286.139783"><time><value>2025-04-14T17:45:26.239999Z</value></time><waveformID networkCode="CX" stationCode="PATCX" channelCode="HHZ"/><filterID>ITAPER(4)&gt;&gt;BW(4,4,20)</filterID><methodID>AIC</methodID><horizontalSlowness><value>19.3383411499486</value></horizontalSlowness><backazimuth><value>261.14617216607826</value></backazimuth><phaseHint>P</phaseHint><evaluationMode>automatic</evaluationMode><comment><text>34.066401790940965</text><id>DFX:rectilinearity</id></comment><comment><text>11.065211427398802</text><id>SNR</id></comment></pick><pick publicID="de.gempa.tb1.Pick/20250414174544.997493.139788"><time><value>2025-04-14T17:45:37.918394Z</value></time><waveformID networkCode="CX" stationCode="PB06" channelCode="HHN"/><filterID>ITAPER(2)&gt;&gt;BW(3,3,20)</filterID><methodID>L2-AIC-GRID</methodID><horizontalSlowness><value>17.836869556600753</value></horizontalSlowness><backazimuth><value>165.73264492061017</value></backazimuth><phaseHint>S</phaseHint><evaluationMode>automatic</evaluationMode><comment><text>2733.752669331148</text><id>DFX:rectilinearity</id></comment><comment><text>de.gempa.tb1.Pick/20250414174520.53908.139765</text><id>RefPickID</id></comment><comment><text>13.098681273033623</text><id>SNR</id></comment></pick><pick publicID="de.gempa.tb1.Pick/20250414174549.466864.139792"><time><value>2025-04-14T17:45:41.458393Z</value></time><waveformID networkCode="CX" stationCode="PB03" channelCode="HHN"/><filterID>ITAPER(2)&gt;&gt;BW(3,3,20)</filterID><methodID>L2-AIC-GRID</methodID><horizontalSlowness><value>17.977831669407102</value></horizontalSlowness><backazimuth><value>233.0723823913558</value></backazimuth><phaseHint>S</phaseHint><evaluationMode>automatic</evaluationMode><comment><text>3702.921905027725</text><id>DFX:rectilinearity</id></comment><comment><text>de.gempa.tb1.Pick/20250414174520.576319.139767</text><id>RefPickID</id></comment><comment><text>18.9281678084475</text><id>SNR</id></comment></pick><pick publicID="de.gempa.tb1.Pick/20250414174552.138903.139796"><time><value>2025-04-14T17:45:39.818393Z</value></time><waveformID networkCode="CX" stationCode="PB15" channelCode="HHN"/><filterID>ITAPER(2)&gt;&gt;BW(3,3,20)</filterID><methodID>L2-AIC-GRID</methodID><horizontalSlowness><value>20.165542850437166</value></horizontalSlowness><backazimuth><value>139.5507405689261</value></backazimuth><phaseHint>S</phaseHint><evaluationMode>automatic</evaluationMode><comment><text>396955.5393284638</text><id>DFX:rectilinearity</id></comment><comment><text>de.gempa.tb1.Pick/20250414174519.72807.139763</text><id>RefPickID</id></comment><comment><text>12.311887664690964</text><id>SNR</id></comment></pick><pick publicID="de.gempa.tb1.Pick/20250414174552.798512.139797"><time><value>2025-04-14T17:45:47.578393Z</value></time><waveformID networkCode="CX" stationCode="PB16" channelCode="HHZ"/><filterID>ITAPER(4)&gt;&gt;BW(4,4,20)</filterID><methodID>AIC</methodID><horizontalSlowness><value>6.231637108175119</value></horizontalSlowness><backazimuth><value>184.81392854330409</value></backazimuth><phaseHint>P</phaseHint><evaluationMode>automatic</evaluationMode><comment><text>7.261437720702195</text><id>DFX:rectilinearity</id></comment><comment><text>15.588116306425272</text><id>SNR</id></comment></pick><pick publicID="de.gempa.tb1.Pick/20250414174552.829812.139799"><time><value>2025-04-14T17:45:45.29Z</value></time><waveformID networkCode="CX" stationCode="PB19" channelCode="HHN"/><filterID>ITAPER(2)&gt;&gt;BW(3,3,20)</filterID><methodID>L2-AIC-GRID</methodID><horizontalSlowness><value>22.10269174960721</value></horizontalSlowness><backazimuth><value>356.19775417138584</value></backazimuth><phaseHint>S</phaseHint><evaluationMode>automatic</evaluationMode><comment><text>8434.467903299061</text><id>DFX:rectilinearity</id></comment><comment><text>de.gempa.tb1.Pick/20250414174522.676816.139769</text><id>RefPickID</id></comment><comment><text>10.99405514145243</text><id>SNR</id></comment></pick><pick publicID="de.gempa.tb1.Pick/20250414174553.589967.139800"><time><value>2025-04-14T17:45:35.91Z</value></time><waveformID networkCode="CX" stationCode="PB09" channelCode="HHN"/><filterID>ITAPER(2)&gt;&gt;BW(3,3,20)</filterID><methodID>L2-AIC-GRID</methodID><horizontalSlowness><value>12.28936111155762</value></horizontalSlowness><backazimuth><value>223.73284853723695</value></backazimuth><phaseHint>S</phaseHint><evaluationMode>automatic</evaluationMode><comment><text>1056.441846224229</text><id>DFX:rectilinearity</id></comment><comment><text>de.gempa.tb1.Pick/20250414174528.780678.139777</text><id>RefPickID</id></comment><comment><text>5.213833794098036</text><id>SNR</id></comment></pick><pick publicID="de.gempa.tb1.Pick/20250414174553.692284.139801"><time><value>2025-04-14T17:45:46.428393Z</value></time><waveformID networkCode="CX" stationCode="PB01" channelCode="HHN"/><filterID>ITAPER(2)&gt;&gt;BW(3,3,20)</filterID><methodID>L2-AIC-GRID</methodID><horizontalSlowness><value>17.783984806497937</value></horizontalSlowness><backazimuth><value>29.814501884260267</value></backazimuth><phaseHint>S</phaseHint><evaluationMode>automatic</evaluationMode><comment><text>2612.35735664593</text><id>DFX:rectilinearity</id></comment><comment><text>de.gempa.tb1.Pick/20250414174524.852647.139771</text><id>RefPickID</id></comment><comment><text>13.50889843400185</text><id>SNR</id></comment></pick><pick publicID="de.gempa.tb1.Pick/20250414174556.502111.139805"><time><value>2025-04-14T17:45:48.698393Z</value></time><waveformID networkCode="CX" stationCode="PB02" channelCode="HHN"/><filterID>ITAPER(2)&gt;&gt;BW(3,3,20)</filterID><methodID>L2-AIC-GRID</methodID><horizontalSlowness><value>21.834248066913108</value></horizontalSlowness><backazimuth><value>22.226379636190387</value></backazimuth><phaseHint>S</phaseHint><evaluationMode>automatic</evaluationMode><comment><text>1769.5244124085486</text><id>DFX:rectilinearity</id></comment><comment><text>de.gempa.tb1.Pick/20250414174528.428948.139775</text><id>RefPickID</id></comment><comment><text>8.668368040958464</text><id>SNR</id></comment></pick><origin publicID="de.gempa.tb1.Origin/20250414174557.495708.145276"><time><value>2025-04-14T17:44:42.954161Z</value><uncertainty>0.6930906772613525</uncertainty></time><latitude><value>-22.44267463684082</value><uncertainty>3.2561047077178955</uncertainty></latitude><longitude><value>-68.0941390991211</value><uncertainty>12.846247673034668</uncertainty></longitude><depth><value>178.20852661132812</value><uncertainty>11.157572746276855</uncertainty></depth><depthType>from location</depthType><methodID>LOCSAT</methodID><earthModelID>iasp91_scanloc</earthModelID><quality><associatedPhaseCount>18</associatedPhaseCount><usedPhaseCount>18</usedPhaseCount><associatedStationCount>11</associatedStationCount><usedStationCount>11</usedStationCount><depthPhaseCount>0</depthPhaseCount><standardError>0.3359632711954705</standardError><azimuthalGap>235.10540771484375</azimuthalGap><maximumDistance>4.2963414192199707</maximumDistance><minimumDistance>1.243553638458252</minimumDistance><medianDistance>1.8249119520187378</medianDistance></quality><uncertainty><minHorizontalUncertainty>6.90354585647583</minHorizontalUncertainty><maxHorizontalUncertainty>27.555126190185547</maxHorizontalUncertainty><azimuthMaxHorizontalUncertainty>87.79426574707031</azimuthMaxHorizontalUncertainty><preferredDescription>horizontal uncertainty</preferredDescription></uncertainty><evaluationMode>automatic</evaluationMode><evaluationStatus>confirmed</evaluationStatus><comment><text>0.11</text><id>mismatchScore</id></comment><comment><text>mismatchScore</text><id>scevalMethod</id></comment><arrival><pickID>de.gempa.tb1.Pick/20250414174519.72807.139763</pickID><phase>P</phase><azimuth>238.77467346191406</azimuth><distance>1.4812843799591064</distance><timeResidual>-0.09942817687988281</timeResidual><timeUsed>true</timeUsed><horizontalSlownessUsed>false</horizontalSlownessUsed><backazimuthUsed>false</backazimuthUsed><weight>1</weight></arrival><arrival><pickID>de.gempa.tb1.Pick/20250414174520.53908.139765</pickID><phase>P</phase><azimuth>258.8648986816406</azimuth><distance>1.3907324075698853</distance><timeResidual>0.27106666564941406</timeResidual><timeUsed>true</timeUsed><horizontalSlownessUsed>false</horizontalSlownessUsed><backazimuthUsed>false</backazimuthUsed><weight>1</weight></arrival><arrival><pickID>de.gempa.tb1.Pick/20250414174520.576319.139767</pickID><phase>P</phase><azimuth>284.006103515625</azimuth><distance>1.5862209796905518</distance><timeResidual>0.13714599609375</timeResidual><timeUsed>true</timeUsed><horizontalSlownessUsed>false</horizontalSlownessUsed><backazimuthUsed>false</backazimuthUsed><weight>1</weight></arrival><arrival><pickID>de.gempa.tb1.Pick/20250414174522.676816.139769</pickID><phase>P</phase><azimuth>216.8790283203125</azimuth><distance>1.8249119520187378</distance><timeResidual>-0.5195903778076172</timeResidual><timeUsed>true</timeUsed><horizontalSlownessUsed>false</horizontalSlownessUsed><backazimuthUsed>false</backazimuthUsed><weight>1</weight></arrival><arrival><pickID>de.gempa.tb1.Pick/20250414174524.852647.139771</pickID><phase>P</phase><azimuth>316.8145446777344</azimuth><distance>1.9018757343292236</distance><timeResidual>-0.128448486328125</timeResidual><timeUsed>true</timeUsed><horizontalSlownessUsed>false</horizontalSlownessUsed><backazimuthUsed>false</backazimuthUsed><weight>1</weight></arrival><arrival><pickID>de.gempa.tb1.Pick/20250414174528.428948.139775</pickID><phase>P</phase><azimuth>303.39495849609375</azimuth><distance>2.0123791694641113</distance><timeResidual>0.2331409454345703</timeResidual><timeUsed>true</timeUsed><horizontalSlownessUsed>false</horizontalSlownessUsed><backazimuthUsed>false</backazimuthUsed><weight>1</weight></arrival><arrival><pickID>de.gempa.tb1.Pick/20250414174528.780678.139777</pickID><phase>P</phase><azimuth>300.9295959472656</azimuth><distance>1.243553638458252</distance><timeResidual>0.043079376220703125</timeResidual><timeUsed>true</timeUsed><horizontalSlownessUsed>false</horizontalSlownessUsed><backazimuthUsed>false</backazimuthUsed><weight>1</weight></arrival><arrival><pickID>de.gempa.tb1.Pick/20250414174531.060076.139779</pickID><phase>P</phase><azimuth>336.4747619628906</azimuth><distance>2.4940974712371826</distance><timeResidual>0.2934913635253906</timeResidual><timeUsed>true</timeUsed><horizontalSlownessUsed>false</horizontalSlownessUsed><backazimuthUsed>false</backazimuthUsed><weight>1</weight></arrival><arrival><pickID>de.gempa.tb1.Pick/20250414174531.175212.139781</pickID><phase>P</phase><azimuth>244.3477783203125</azimuth><distance>2.5050034523010254</distance><timeResidual>-0.10284042358398438</timeResidual><timeUsed>true</timeUsed><horizontalSlownessUsed>false</horizontalSlownessUsed><backazimuthUsed>false</backazimuthUsed><weight>1</weight></arrival><arrival><pickID>de.gempa.tb1.Pick/20250414174536.2286.139783</pickID><phase>P</phase><azimuth>309.7370300292969</azimuth><distance>2.504751443862915</distance><timeResidual>0.6067237854003906</timeResidual><timeUsed>true</timeUsed><horizontalSlownessUsed>false</horizontalSlownessUsed><backazimuthUsed>false</backazimuthUsed><weight>1</weight></arrival><arrival><pickID>de.gempa.tb1.Pick/20250414174544.997493.139788</pickID><phase>S</phase><azimuth>258.8648986816406</azimuth><distance>1.3907324075698853</distance><timeResidual>0.0084381103515625</timeResidual><timeUsed>true</timeUsed><horizontalSlownessUsed>false</horizontalSlownessUsed><backazimuthUsed>false</backazimuthUsed><weight>1</weight></arrival><arrival><pickID>de.gempa.tb1.Pick/20250414174549.466864.139792</pickID><phase>S</phase><azimuth>284.006103515625</azimuth><distance>1.5862209796905518</distance><timeResidual>0.20789146423339844</timeResidual><timeUsed>true</timeUsed><horizontalSlownessUsed>false</horizontalSlownessUsed><backazimuthUsed>false</backazimuthUsed><weight>1</weight></arrival><arrival><pickID>de.gempa.tb1.Pick/20250414174552.138903.139796</pickID><phase>S</phase><azimuth>238.77467346191406</azimuth><distance>1.4812843799591064</distance><timeResidual>0.40221214294433594</timeResidual><timeUsed>true</timeUsed><horizontalSlownessUsed>false</horizontalSlownessUsed><backazimuthUsed>false</backazimuthUsed><weight>1</weight></arrival><arrival><pickID>de.gempa.tb1.Pick/20250414174552.798512.139797</pickID><phase>P</phase><azimuth>341.77362060546875</azimuth><distance>4.2963414192199707</distance><timeResidual>-0.2642784118652344</timeResidual><timeUsed>true</timeUsed><horizontalSlownessUsed>false</horizontalSlownessUsed><backazimuthUsed>false</backazimuthUsed><weight>1</weight></arrival><arrival><pickID>de.gempa.tb1.Pick/20250414174552.829812.139799</pickID><phase>S</phase><azimuth>216.8790283203125</azimuth><distance>1.8249119520187378</distance><timeResidual>-0.2775230407714844</timeResidual><timeUsed>true</timeUsed><horizontalSlownessUsed>false</horizontalSlownessUsed><backazimuthUsed>false</backazimuthUsed><weight>1</weight></arrival><arrival><pickID>de.gempa.tb1.Pick/20250414174553.589967.139800</pickID><phase>S</phase><azimuth>300.9295959472656</azimuth><distance>1.243553638458252</distance><timeResidual>0.3301830291748047</timeResidual><timeUsed>true</timeUsed><horizontalSlownessUsed>false</horizontalSlownessUsed><backazimuthUsed>false</backazimuthUsed><weight>1</weight></arrival><arrival><pickID>de.gempa.tb1.Pick/20250414174553.692284.139801</pickID><phase>S</phase><azimuth>316.8145446777344</azimuth><distance>1.9018757343292236</distance><timeResidual>-0.6394386291503906</timeResidual><timeUsed>true</timeUsed><horizontalSlownessUsed>false</horizontalSlownessUsed><backazimuthUsed>false</backazimuthUsed><weight>1</weight></arrival><arrival><pickID>de.gempa.tb1.Pick/20250414174556.502111.139805</pickID><phase>S</phase><azimuth>303.39495849609375</azimuth><distance>2.0123791694641113</distance><timeResidual>-0.502166748046875</timeResidual><timeUsed>true</timeUsed><horizontalSlownessUsed>false</horizontalSlownessUsed><backazimuthUsed>false</backazimuthUsed><weight>1</weight></arrival><magnitude publicID="de.gempa.tb1.Magnitude/20250414174605.940517.521754"><magnitude><value>3.128232403300912</value></magnitude><type>M</type><methodID>weighted average</methodID><stationCount>9</stationCount></magnitude></origin><event publicID="gempa2025hjpt"><preferredOriginID>de.gempa.tb1.Origin/20250414174557.49