<?xml version="1.0" encoding="UTF-8"?>
<seiscomp xmlns="http://geofon.gfz-potsdam.de/ns/seiscomp3-schema/0.13" version="0.13"><EventParameters><pick publicID="de.gempa.tb1.Pick/20250414115311.695081.137755"><time><value>2025-04-14T11:53:04.798393Z</value></time><waveformID networkCode="CX" stationCode="PB15" channelCode="HHZ"/><filterID>ITAPER(4)&gt;&gt;BW(4,4,20)</filterID><methodID>AIC</methodID><horizontalSlowness><value>21.514579738790214</value></horizontalSlowness><backazimuth><value>109.347630628586</value></backazimuth><phaseHint>P</phaseHint><evaluationMode>automatic</evaluationMode><comment><text>282.0428169834886</text><id>DFX:rectilinearity</id></comment><comment><text>15.424362909692018</text><id>SNR</id></comment></pick><pick publicID="de.gempa.tb1.Pick/20250414115317.177211.137757"><time><value>2025-04-14T11:53:08.388393Z</value></time><waveformID networkCode="CX" stationCode="PB06" channelCode="HHZ"/><filterID>ITAPER(4)&gt;&gt;BW(4,4,20)</filterID><methodID>AIC</methodID><horizontalSlowness><value>1.1186717971967126</value></horizontalSlowness><backazimuth><value>54.5465380147651</value></backazimuth><phaseHint>P</phaseHint><evaluationMode>automatic</evaluationMode><comment><text>44.24632730229213</text><id>DFX:rectilinearity</id></comment><comment><text>6.698101268491611</text><id>SNR</id></comment></pick><pick publicID="de.gempa.tb1.Pick/20250414115319.384676.137759"><time><value>2025-04-14T11:53:14.11Z</value></time><waveformID networkCode="CX" stationCode="PB10" channelCode="HHZ"/><filterID>ITAPER(4)&gt;&gt;BW(4,4,20)</filterID><methodID>AIC</methodID><horizontalSlowness><value>3.93348223142499</value></horizontalSlowness><backazimuth><value>48.04259003969207</value></backazimuth><phaseHint>P</phaseHint><evaluationMode>automatic</evaluationMode><comment><text>18.848124801330481</text><id>DFX:rectilinearity</id></comment><comment><text>12.146351007189734</text><id>SNR</id></comment></pick><pick publicID="de.gempa.tb1.Pick/20250414115323.577686.137761"><time><value>2025-04-14T11:53:14.248393Z</value></time><waveformID networkCode="CX" stationCode="PB03" channelCode="HHZ"/><filterID>ITAPER(4)&gt;&gt;BW(4,4,20)</filterID><methodID>AIC</methodID><horizontalSlowness><value>14.270277910920454</value></horizontalSlowness><backazimuth><value>146.45055857478798</value></backazimuth><phaseHint>P</phaseHint><evaluationMode>automatic</evaluationMode><comment><text>3.505088395122245</text><id>DFX:rectilinearity</id></comment><comment><text>13.464157822034897</text><id>SNR</id></comment></pick><pick publicID="de.gempa.tb1.Pick/20250414115332.04148.137763"><time><value>2025-04-14T11:53:14.42Z</value></time><waveformID networkCode="CX" stationCode="PB09" channelCode="HHZ"/><filterID>ITAPER(4)&gt;&gt;BW(4,4,20)</filterID><methodID>AIC</methodID><horizontalSlowness><value>22.640412356005875</value></horizontalSlowness><backazimuth><value>238.6052574962342</value></backazimuth><phaseHint>P</phaseHint><evaluationMode>automatic</evaluationMode><comment><text>5.597632992440871</text><id>DFX:rectilinearity</id></comment><comment><text>9.723819556521995</text><id>SNR</id></comment></pick><pick publicID="de.gempa.tb1.Pick/20250414115342.117976.137766"><time><value>2025-04-14T11:53:17.588393Z</value></time><waveformID networkCode="CX" stationCode="PB07" channelCode="HHZ"/><filterID>ITAPER(4)&gt;&gt;BW(4,4,20)</filterID><methodID>AIC</methodID><horizontalSlowness><value>23.439925710341466</value></horizontalSlowness><backazimuth><value>194.13946874935874</value></backazimuth><phaseHint>P</phaseHint><evaluationMode>automatic</evaluationMode><comment><text>77.38598351929006</text><id>DFX:rectilinearity</id></comment><comment><text>34.48575089020086</text><id>SNR</id></comment></pick><origin publicID="de.gempa.tb1.Origin/20250414115343.180315.136505"><time><value>2025-04-14T11:52:40.656759Z</value><uncertainty>6.304466724395752</uncertainty></time><latitude><value>-23.52012252807617</value><uncertainty>26.476449966430664</uncertainty></latitude><longitude><value>-68.59895324707031</value><uncertainty>41.883853912353516</uncertainty></longitude><depth><value>158.23304748535156</value><uncertainty>35.76972198486328</uncertainty></depth><depthType>from location</depthType><methodID>LOCSAT</methodID><earthModelID>iasp91_scanloc</earthModelID><quality><associatedPhaseCount>6</associatedPhaseCount><usedPhaseCount>6</usedPhaseCount><associatedStationCount>6</associatedStationCount><usedStationCount>6</usedStationCount><depthPhaseCount>0</depthPhaseCount><standardError>0.2739061438082808</standardError><azimuthalGap>289.0442810058594</azimuthalGap><maximumDistance>2.1448776721954346</maximumDistance><minimumDistance>0.8593045473098755</minimumDistance><medianDistance>1.8110469579696655</medianDistance></quality><uncertainty><minHorizontalUncertainty>22.88990783691406</minHorizontalUncertainty><maxHorizontalUncertainty>103.7726821899414</maxHorizontalUncertainty><azimuthMaxHorizontalUncertainty>120.8900375366211</azimuthMaxHorizontalUncertainty><preferredDescription>horizontal uncertainty</preferredDescription></uncertainty><evaluationMode>automatic</evaluationMode><evaluationStatus>confirmed</evaluationStatus><comment><text>0.31</text><id>mismatchScore</id></comment><comment><text>mismatchScore</text><id>scevalMethod</id></comment><arrival><pickID>de.gempa.tb1.Pick/20250414115311.695081.137755</pickID><phase>P</phase><azimuth>290.9993591308594</azimuth><distance>0.8593045473098755</distance><timeResidual>-0.332916259765625</timeResidual><timeUsed>true</timeUsed><horizontalSlownessUsed>false</horizontalSlownessUsed><backazimuthUsed>false</backazimuthUsed><weight>1</weight></arrival><arrival><pickID>de.gempa.tb1.Pick/20250414115317.177211.137757</pickID><phase>P</phase><azimuth>311.9502258300781</azimuth><distance>1.2080227136611938</distance><timeResidual>0.3586254119873047</timeResidual><timeUsed>true</timeUsed><horizontalSlownessUsed>false</horizontalSlownessUsed><backazimuthUsed>false</backazimuthUsed><weight>1</weight></arrival><arrival><pickID>de.gempa.tb1.Pick/20250414115319.384676.137759</pickID><phase>P</phase><azimuth>269.82476806640625</azimuth><distance>1.7946438789367676</distance><timeResidual>0.1195850372314453</timeResidual><timeUsed>true</timeUsed><horizontalSlownessUsed>false</horizontalSlownessUsed><backazimuthUsed>false</backazimuthUsed><weight>1</weight></arrival><arrival><pickID>de.gempa.tb1.Pick/20250414115323.577686.137761</pickID><phase>P</phase><azimuth>323.75152587890625</azimuth><distance>1.8110469579696655</distance><timeResidual>0.06553459167480469</timeResidual><timeUsed>true</timeUsed><horizontalSlownessUsed>false</horizontalSlownessUsed><backazimuthUsed>false</backazimuthUsed><weight>1</weight></arrival><arrival><pickID>de.gempa.tb1.Pick/20250414115332.04148.137763</pickID><phase>P</phase><azimuth>340.7804870605469</azimuth><distance>1.8154902458190918</distance><timeResidual>0.1860504150390625</timeResidual><timeUsed>true</timeUsed><horizontalSlownessUsed>false</horizontalSlownessUsed><backazimuthUsed>false</backazimuthUsed><weight>1</weight></arrival><arrival><pickID>de.gempa.tb1.Pick/20250414115342.117976.137766</pickID><phase>P</phase><azimuth>326.0755920410156</azimuth><distance>2.1448776721954346</distance><timeResidual>-0.3968524932861328</timeResidual><timeUsed>true</timeUsed><horizontalSlownessUsed>false</horizontalSlownessUsed><backazimuthUsed>false</backazimuthUsed><weight>1</weight></arrival><magnitude publicID="de.gempa.tb1.Magnitude/20250414115440.741692.483495"><magnitude><value>2.3867655335425857</value></magnitude><type>M</type><methodID>weighted average</methodID><stationCount>3</stationCount></magnitude></origin><event publicID="gempa2025hjea"><preferredOriginID>de.gempa.tb1.Origin/20250414115343.180315.136505</preferredOriginID><preferredMagnitudeID>de.gempa.tb1.Magnitude/20250414115440.741692.483495</preferredMagnitudeID><description><text>Northern Chile</text><type>region name</type></description><originReference>de.gempa.tb1.Origin/20250414115343.180315.136505</originReference></event></EventParameters></seiscomp>