<?xml version="1.0" encoding="UTF-8"?>
<seiscomp xmlns="http://geofon.gfz-potsdam.de/ns/seiscomp3-schema/0.13" version="0.13"><EventParameters><pick publicID="de.gempa.tb1.Pick/20250411112406.559818.118548"><time><value>2025-04-11T11:23:57.658394Z</value></time><waveformID networkCode="CX" stationCode="PB01" channelCode="HHZ"/><filterID>ITAPER(4)&gt;&gt;BW(4,4,20)</filterID><methodID>AIC</methodID><horizontalSlowness><value>21.758174636896324</value></horizontalSlowness><backazimuth><value>161.9974155573207</value></backazimuth><phaseHint>P</phaseHint><evaluationMode>automatic</evaluationMode><comment><text>12.242516060866826</text><id>DFX:rectilinearity</id></comment><comment><text>14.682412831170463</text><id>SNR</id></comment></pick><pick publicID="de.gempa.tb1.Pick/20250411112409.520645.118550"><time><value>2025-04-11T11:24:02.178393Z</value></time><waveformID networkCode="CX" stationCode="PB02" channelCode="HHZ"/><filterID>ITAPER(4)&gt;&gt;BW(4,4,20)</filterID><methodID>AIC</methodID><horizontalSlowness><value>20.280668132710765</value></horizontalSlowness><backazimuth><value>101.0108468145686</value></backazimuth><phaseHint>P</phaseHint><evaluationMode>automatic</evaluationMode><comment><text>44.32475482996801</text><id>DFX:rectilinearity</id></comment><comment><text>8.095124132488264</text><id>SNR</id></comment></pick><pick publicID="de.gempa.tb1.Pick/20250411112414.373576.118554"><time><value>2025-04-11T11:24:03.748396Z</value></time><waveformID networkCode="CX" stationCode="PB07" channelCode="HHZ"/><filterID>ITAPER(4)&gt;&gt;BW(4,4,20)</filterID><methodID>AIC</methodID><horizontalSlowness><value>22.974133182398205</value></horizontalSlowness><backazimuth><value>229.16688164818024</value></backazimuth><phaseHint>P</phaseHint><evaluationMode>automatic</evaluationMode><comment><text>229.7823352459148</text><id>DFX:rectilinearity</id></comment><comment><text>10.267628326447706</text><id>SNR</id></comment></pick><pick publicID="de.gempa.tb1.Pick/20250411112415.606485.118556"><time><value>2025-04-11T11:24:09.84Z</value></time><waveformID networkCode="CX" stationCode="PSGCX" channelCode="HHZ"/><filterID>ITAPER(4)&gt;&gt;BW(4,4,20)</filterID><methodID>AIC</methodID><horizontalSlowness><value>19.56342399720285</value></horizontalSlowness><backazimuth><value>108.5716030734887</value></backazimuth><phaseHint>P</phaseHint><evaluationMode>automatic</evaluationMode><comment><text>42.352936190626814</text><id>DFX:rectilinearity</id></comment><comment><text>10.506612819932254</text><id>SNR</id></comment></pick><pick publicID="de.gempa.tb1.Pick/20250411112420.618899.118558"><time><value>2025-04-11T11:24:13.398394Z</value></time><waveformID networkCode="CX" stationCode="PB01" channelCode="HHN"/><filterID>ITAPER(2)&gt;&gt;BW(3,3,20)</filterID><methodID>L2-AIC-GRID</methodID><horizontalSlowness><value>18.181301502476774</value></horizontalSlowness><backazimuth><value>10.826073728215306</value></backazimuth><phaseHint>S</phaseHint><evaluationMode>automatic</evaluationMode><comment><text>50.60900863715953</text><id>DFX:rectilinearity</id></comment><comment><text>de.gempa.tb1.Pick/20250411112406.559818.118548</text><id>RefPickID</id></comment><comment><text>8.698857049603507</text><id>SNR</id></comment></pick><pick publicID="de.gempa.tb1.Pick/20250411112428.518887.118560"><time><value>2025-04-11T11:24:20.518393Z</value></time><waveformID networkCode="CX" stationCode="PB02" channelCode="HHN"/><filterID>ITAPER(2)&gt;&gt;BW(3,3,20)</filterID><methodID>L2-AIC-GRID</methodID><horizontalSlowness><value>17.372090338602643</value></horizontalSlowness><backazimuth><value>327.7180191558017</value></backazimuth><phaseHint>S</phaseHint><evaluationMode>automatic</evaluationMode><comment><text>437.07168729572953</text><id>DFX:rectilinearity</id></comment><comment><text>de.gempa.tb1.Pick/20250411112409.520645.118550</text><id>RefPickID</id></comment><comment><text>12.196852310495716</text><id>SNR</id></comment></pick><pick publicID="de.gempa.tb1.Pick/20250411112435.174301.118562"><time><value>2025-04-11T11:24:23.348396Z</value></time><waveformID networkCode="CX" stationCode="PB07" channelCode="HHN"/><filterID>ITAPER(2)&gt;&gt;BW(3,3,20)</filterID><methodID>L2-AIC-GRID</methodID><horizontalSlowness><value>22.33610970485466</value></horizontalSlowness><backazimuth><value>177.25866132510407</value></backazimuth><phaseHint>S</phaseHint><evaluationMode>automatic</evaluationMode><comment><text>341.11374309505425</text><id>DFX:rectilinearity</id></comment><comment><text>de.gempa.tb1.Pick/20250411112414.373576.118554</text><id>RefPickID</id></comment><comment><text>7.207304193284357</text><id>SNR</id></comment></pick><pick publicID="de.gempa.tb1.Pick/20250411112442.617594.118563"><time><value>2025-04-11T11:24:35.75Z</value></time><waveformID networkCode="CX" stationCode="PSGCX" channelCode="HHN"/><filterID>ITAPER(2)&gt;&gt;BW(3,3,20)</filterID><methodID>L2-AIC-GRID</methodID><horizontalSlowness><value>20.60698996795966</value></horizontalSlowness><backazimuth><value>287.81746613021136</value></backazimuth><phaseHint>S</phaseHint><evaluationMode>automatic</evaluationMode><comment><text>19.651503810272771</text><id>DFX:rectilinearity</id></comment><comment><text>de.gempa.tb1.Pick/20250411112415.606485.118556</text><id>RefPickID</id></comment><comment><text>5.167091637673867</text><id>SNR</id></comment></pick><origin publicID="de.gempa.tb1.Origin/20250411112443.584164.58882"><time><value>2025-04-11T11:23:37.630013Z</value><uncertainty>1.281020998954773</uncertainty></time><latitude><value>-20.969266891479492</value><uncertainty>5.199410438537598</uncertainty></latitude><longitude><value>-68.70346069335938</value><uncertainty>15.249459266662598</uncertainty></longitude><depth><value>124.7256622314453</value><uncertainty>13.80079746246338</uncertainty></depth><depthType>from location</depthType><methodID>LOCSAT</methodID><earthModelID>iasp91_scanloc</earthModelID><quality><associatedPhaseCount>8</associatedPhaseCount><usedPhaseCount>8</usedPhaseCount><associatedStationCount>4</associatedStationCount><usedStationCount>4</usedStationCount><depthPhaseCount>0</depthPhaseCount><standardError>0.25111966724224377</standardError><azimuthalGap>279.9888458251953</azimuthalGap><maximumDistance>1.9076863527297974</maximumDistance><minimumDistance>0.73615163564682</minimumDistance><medianDistance>1.3355064392089844</medianDistance></quality><uncertainty><minHorizontalUncertainty>10.93306827545166</minHorizontalUncertainty><maxHorizontalUncertainty>32.7741813659668</maxHorizontalUncertainty><azimuthMaxHorizontalUncertainty>85.9408187866211</azimuthMaxHorizontalUncertainty><preferredDescription>horizontal uncertainty</preferredDescription></uncertainty><evaluationMode>automatic</evaluationMode><comment><text>0.54</text><id>mismatchScore</id></comment><arrival><pickID>de.gempa.tb1.Pick/20250411112406.559818.118548</pickID><phase>P</phase><azimuth>264.12286376953125</azimuth><distance>0.73615163564682</distance><timeResidual>-0.1249561309814453</timeResidual><timeUsed>true</timeUsed><horizontalSlownessUsed>false</horizontalSlownessUsed><backazimuthUsed>false</backazimuthUsed><weight>1</weight></arrival><arrival><pickID>de.gempa.tb1.Pick/20250411112409.520645.118550</pickID><phase>P</phase><azimuth>252.3936004638672</azimuth><distance>1.1665778160095215</distance><timeResidual>0.4082794189453125</timeResidual><timeUsed>true</timeUsed><horizontalSlownessUsed>false</horizontalSlownessUsed><backazimuthUsed>false</backazimuthUsed><weight>1</weight></arrival><arrival><pickID>de.gempa.tb1.Pick/20250411112414.373576.118554</pickID><phase>P</phase><azimuth>235.43174743652344</azimuth><distance>1.3355064392089844</distance><timeResidual>0.18234825134277344</timeResidual><timeUsed>true</timeUsed><horizontalSlownessUsed>false</horizontalSlownessUsed><backazimuthUsed>false</backazimuthUsed><weight>1</weight></arrival><arrival><pickID>de.gempa.tb1.Pick/20250411112415.606485.118556</pickID><phase>P</phase><azimuth>315.4429016113281</azimuth><distance>1.9076863527297974</distance><timeResidual>-0.39188385009765625</timeResidual><timeUsed>true</timeUsed><horizontalSlownessUsed>false</horizontalSlownessUsed><backazimuthUsed>false</backazimuthUsed><weight>1</weight></arrival><arrival><pickID>de.gempa.tb1.Pick/20250411112420.618899.118558</pickID><phase>S</phase><azimuth>264.12286376953125</azimuth><distance>0.73615163564682</distance><timeResidual>0.04361915588378906</timeResidual><timeUsed>true</timeUsed><horizontalSlownessUsed>false</horizontalSlownessUsed><backazimuthUsed>false</backazimuthUsed><weight>1</weight></arrival><arrival><pickID>de.gempa.tb1.Pick/20250411112428.518887.118560</pickID><phase>S</phase><azimuth>252.3936004638672</azimuth><distance>1.1665778160095215</distance><timeResidual>0.05124473571777344</timeResidual><timeUsed>true</timeUsed><horizontalSlownessUsed>false</horizontalSlownessUsed><backazimuthUsed>false</backazimuthUsed><weight>1</weight></arrival><arrival><pickID>de.gempa.tb1.Pick/20250411112435.174301.118562</pickID><phase>S</phase><azimuth>235.43174743652344</azimuth><distance>1.3355064392089844</distance><timeResidual>-0.3258628845214844</timeResidual><timeUsed>true</timeUsed><horizontalSlownessUsed>false</horizontalSlownessUsed><backazimuthUsed>false</backazimuthUsed><weight>1</weight></arrival><arrival><pickID>de.gempa.tb1.Pick/20250411112442.617594.118563</pickID><phase>S</phase><azimuth>315.4429016113281</azimuth><distance>1.9076863527297974</distance><timeResidual>0.156982421875</timeResidual><timeUsed>true</timeUsed><horizontalSlownessUsed>false</horizontalSlownessUsed><backazimuthUsed>false</backazimuthUsed><weight>1</weight></arrival><magnitude publicID="de.gempa.tb1.Magnitude/20250411112443.591059.123684"><magnitude><value>1.8477467044275422</value></magnitude><type>M</type><methodID>weighted average</methodID><stationCount>1</stationCount></magnitude></origin><event publicID="gempa2025hdoz"><preferredOriginID>de.gempa.tb1.Origin/20250411112443.584164.58882</preferredOriginID><preferredMagnitudeID>de.gempa.tb1.Magnitude/20250411112443.591059.123684</preferredMagnitudeID><type>mining explosion</type><description><text>Chile-Bolivia Border Region</text><type>region name</type></description><originReference>de.gempa.tb1.Origin/20250411112443.584164.58882</originReference></event></EventParameters></seiscomp>