<?xml version="1.0" encoding="UTF-8"?>
<seiscomp xmlns="http://geofon.gfz-potsdam.de/ns/seiscomp3-schema/0.13" version="0.13"><EventParameters><pick publicID="de.gempa.tb1.Pick/20250413120928.512668.131023"><time><value>2025-04-13T12:09:23.878394Z</value></time><waveformID networkCode="CX" stationCode="PB01" channelCode="HHZ"/><filterID>ITAPER(4)&gt;&gt;BW(4,4,20)</filterID><methodID>AIC</methodID><horizontalSlowness><value>21.295687811084665</value></horizontalSlowness><backazimuth><value>234.977186247169</value></backazimuth><phaseHint>P</phaseHint><evaluationMode>automatic</evaluationMode><comment><text>11.069063426074873</text><id>DFX:rectilinearity</id></comment><comment><text>17.691754403635766</text><id>SNR</id></comment></pick><pick publicID="de.gempa.tb1.Pick/20250413120930.718227.131025"><time><value>2025-04-13T12:09:23.698394Z</value></time><waveformID networkCode="CX" stationCode="PB07" channelCode="HHZ"/><filterID>ITAPER(4)&gt;&gt;BW(4,4,20)</filterID><methodID>AIC</methodID><horizontalSlowness><value>20.79215617052802</value></horizontalSlowness><backazimuth><value>292.5211618792835</value></backazimuth><phaseHint>P</phaseHint><evaluationMode>automatic</evaluationMode><comment><text>248.34971443451053</text><id>DFX:rectilinearity</id></comment><comment><text>6.920178602101615</text><id>SNR</id></comment></pick><pick publicID="de.gempa.tb1.Pick/20250413120931.633058.131027"><time><value>2025-04-13T12:09:26.5Z</value></time><waveformID networkCode="CX" stationCode="PSGCX" channelCode="HHZ"/><filterID>ITAPER(4)&gt;&gt;BW(4,4,20)</filterID><methodID>AIC</methodID><horizontalSlowness><value>17.20380016997784</value></horizontalSlowness><backazimuth><value>282.09169207470967</value></backazimuth><phaseHint>P</phaseHint><evaluationMode>automatic</evaluationMode><comment><text>19.641412751326243</text><id>DFX:rectilinearity</id></comment><comment><text>15.810715074713917</text><id>SNR</id></comment></pick><pick publicID="de.gempa.tb1.Pick/20250413120937.65815.131031"><time><value>2025-04-13T12:09:30.218393Z</value></time><waveformID networkCode="CX" stationCode="PB08" channelCode="HHZ"/><filterID>ITAPER(4)&gt;&gt;BW(4,4,20)</filterID><methodID>AIC</methodID><horizontalSlowness><value>12.468059954223804</value></horizontalSlowness><backazimuth><value>220.67302993787752</value></backazimuth><phaseHint>P</phaseHint><evaluationMode>automatic</evaluationMode><comment><text>63.48980213349661</text><id>DFX:rectilinearity</id></comment><comment><text>9.689926891920383</text><id>SNR</id></comment></pick><origin publicID="de.gempa.tb1.Origin/20250413120939.08399.108964"><time><value>2025-04-13T12:09:03.585544Z</value><uncertainty>5.403463363647461</uncertainty></time><latitude><value>-20.858320236206055</value><uncertainty>11.487361907958984</uncertainty></latitude><longitude><value>-70.74969482421875</value><uncertainty>22.344093322753906</uncertainty></longitude><depth><value>48.12422561645508</value><uncertainty>290.3859558105469</uncertainty></depth><depthType>from location</depthType><methodID>LOCSAT</methodID><earthModelID>iasp91_scanloc</earthModelID><quality><associatedPhaseCount>4</associatedPhaseCount><usedPhaseCount>4</usedPhaseCount><associatedStationCount>4</associatedStationCount><usedStationCount>4</usedStationCount><depthPhaseCount>0</depthPhaseCount><standardError>0.012078110783609158</standardError><azimuthalGap>248.0638084411621</azimuthalGap><maximumDistance>1.6578413248062134</maximumDistance><minimumDistance>1.1811234951019287</minimumDistance><medianDistance>1.3858472108840942</medianDistance></quality><uncertainty><minHorizontalUncertainty>19.549089431762695</minHorizontalUncertainty><maxHorizontalUncertainty>50.214599609375</maxHorizontalUncertainty><azimuthMaxHorizontalUncertainty>71.08267974853516</azimuthMaxHorizontalUncertainty><preferredDescription>horizontal uncertainty</preferredDescription></uncertainty><evaluationMode>automatic</evaluationMode><arrival><pickID>de.gempa.tb1.Pick/20250413120928.512668.131023</pickID><phase>P</phase><azimuth>99.08731079101562</azimuth><distance>1.1941078901290894</distance><timeResidual>-0.013097763061523438</timeResidual><timeUsed>true</timeUsed><horizontalSlownessUsed>false</horizontalSlownessUsed><backazimuthUsed>false</backazimuthUsed><weight>1</weight></arrival><arrival><pickID>de.gempa.tb1.Pick/20250413120930.718227.131025</pickID><phase>P</phase><azimuth>137.17152404785156</azimuth><distance>1.1811234951019287</distance><timeResidual>-0.01345062255859375</timeResidual><timeUsed>true</timeUsed><horizontalSlownessUsed>false</horizontalSlownessUsed><backazimuthUsed>false</backazimuthUsed><weight>1</weight></arrival><arrival><pickID>de.gempa.tb1.Pick/20250413120931.633058.131027</pickID><phase>P</phase><azimuth>25.23533248901367</azimuth><distance>1.3858472108840942</distance><timeResidual>-0.0115203857421875</timeResidual><timeUsed>true</timeUsed><horizontalSlownessUsed>false</horizontalSlownessUsed><backazimuthUsed>false</backazimuthUsed><weight>1</weight></arrival><arrival><pickID>de.gempa.tb1.Pick/20250413120937.65815.131031</pickID><phase>P</phase><azimuth>64.78562927246094</azimuth><distance>1.6578413248062134</distance><timeResidual>-0.009916305541992188</timeResidual><timeUsed>true</timeUsed><horizontalSlownessUsed>false</horizontalSlownessUsed><backazimuthUsed>false</backazimuthUsed><weight>1</weight></arrival><magnitude publicID="de.gempa.tb1.Magnitude/20250413121041.788062.354739"><magnitude><value>2.466531060012774</value></magnitude><type>M</type><methodID>weighted average</methodID><stationCount>4</stationCount></magnitude></origin><event publicID="gempa2025hhio"><preferredOriginID>de.gempa.tb1.Origin/20250413120939.08399.108964</preferredOriginID><preferredMagnitudeID>de.gempa.tb1.Magnitude/20250413121041.788062.354739</preferredMagnitudeID><typeCertainty>suspected</typeCertainty><description><text>Near Coast of Northern Chile</text><type>region name</type></description><originReference>de.gempa.tb1.Origin/20250413120939.08399.108964</originReference></event></EventParameters></seiscomp>