<?xml version="1.0" encoding="UTF-8"?>
<seiscomp xmlns="http://geofon.gfz-potsdam.de/ns/seiscomp3-schema/0.13" version="0.13"><EventParameters><pick publicID="de.gempa.tb1.Pick/20250415063959.566102.117660"><time><value>2025-04-15T06:39:53.748391Z</value></time><waveformID networkCode="CX" stationCode="PB01" channelCode="HHZ"/><filterID>ITAPER(4)&gt;&gt;BW(4,4,20)</filterID><methodID>AIC</methodID><horizontalSlowness><value>16.228076583190585</value></horizontalSlowness><backazimuth><value>243.713593162313</value></backazimuth><phaseHint>P</phaseHint><evaluationMode>automatic</evaluationMode><comment><text>14.372467854356566</text><id>DFX:rectilinearity</id></comment><comment><text>29.72808707868738</text><id>SNR</id></comment></pick><pick publicID="de.gempa.tb1.Pick/20250415064000.839977.117662"><time><value>2025-04-15T06:39:54.828394Z</value></time><waveformID networkCode="CX" stationCode="PB08" channelCode="HHZ"/><filterID>ITAPER(4)&gt;&gt;BW(4,4,20)</filterID><methodID>AIC</methodID><horizontalSlowness><value>14.540644629135624</value></horizontalSlowness><backazimuth><value>91.99860662860719</value></backazimuth><phaseHint>P</phaseHint><evaluationMode>automatic</evaluationMode><comment><text>12.638294567327478</text><id>DFX:rectilinearity</id></comment><comment><text>5.994681137787397</text><id>SNR</id></comment></pick><pick publicID="de.gempa.tb1.Pick/20250415064003.542875.117664"><time><value>2025-04-15T06:39:56.728393Z</value></time><waveformID networkCode="CX" stationCode="PB03" channelCode="HHZ"/><filterID>ITAPER(4)&gt;&gt;BW(4,4,20)</filterID><methodID>AIC</methodID><horizontalSlowness><value>6.072106409089146</value></horizontalSlowness><backazimuth><value>156.71080797644004</value></backazimuth><phaseHint>P</phaseHint><evaluationMode>automatic</evaluationMode><comment><text>14.662398204990344</text><id>DFX:rectilinearity</id></comment><comment><text>16.989281756042253</text><id>SNR</id></comment></pick><pick publicID="de.gempa.tb1.Pick/20250415064004.541099.117666"><time><value>2025-04-15T06:39:57.098393Z</value></time><waveformID networkCode="CX" stationCode="PB02" channelCode="HHZ"/><filterID>ITAPER(4)&gt;&gt;BW(4,4,20)</filterID><methodID>AIC</methodID><horizontalSlowness><value>22.983010930973865</value></horizontalSlowness><backazimuth><value>260.34223767367564</value></backazimuth><phaseHint>P</phaseHint><evaluationMode>automatic</evaluationMode><comment><text>29.444328536987076</text><id>DFX:rectilinearity</id></comment><comment><text>27.142629042775454</text><id>SNR</id></comment></pick><pick publicID="de.gempa.tb1.Pick/20250415064007.270819.117669"><time><value>2025-04-15T06:40:00.159999Z</value></time><waveformID networkCode="CX" stationCode="PATCX" channelCode="HHZ"/><filterID>ITAPER(4)&gt;&gt;BW(4,4,20)</filterID><methodID>AIC</methodID><horizontalSlowness><value>20.0022327012027</value></horizontalSlowness><backazimuth><value>129.77276504536712</value></backazimuth><phaseHint>P</phaseHint><evaluationMode>automatic</evaluationMode><comment><text>199.90284804459657</text><id>DFX:rectilinearity</id></comment><comment><text>15.805871427337243</text><id>SNR</id></comment></pick><pick publicID="de.gempa.tb1.Pick/20250415064009.136458.117671"><time><value>2025-04-15T06:39:52.84Z</value></time><waveformID networkCode="CX" stationCode="PB09" channelCode="HHZ"/><filterID>ITAPER(4)&gt;&gt;BW(4,4,20)</filterID><methodID>AIC</methodID><horizontalSlowness><value>8.982312836422592</value></horizontalSlowness><backazimuth><value>325.71721079626047</value></backazimuth><phaseHint>P</phaseHint><evaluationMode>automatic</evaluationMode><comment><text>14.999719363725944</text><id>DFX:rectilinearity</id></comment><comment><text>9.831655786641624</text><id>SNR</id></comment></pick><pick publicID="de.gempa.tb1.Pick/20250415064009.58936.117673"><time><value>2025-04-15T06:40:03.91Z</value></time><waveformID networkCode="CX" stationCode="PSGCX" channelCode="HHZ"/><filterID>ITAPER(4)&gt;&gt;BW(4,4,20)</filterID><methodID>AIC</methodID><horizontalSlowness><value>9.431453635189877</value></horizontalSlowness><backazimuth><value>132.2799801309045</value></backazimuth><phaseHint>P</phaseHint><evaluationMode>automatic</evaluationMode><comment><text>5.65012195697224</text><id>DFX:rectilinearity</id></comment><comment><text>16.397930266626187</text><id>SNR</id></comment></pick><pick publicID="de.gempa.tb1.Pick/20250415064024.918108.117675"><time><value>2025-04-15T06:39:57.228396Z</value></time><waveformID networkCode="CX" stationCode="PB07" channelCode="HHZ"/><filterID>ITAPER(4)&gt;&gt;BW(4,4,20)</filterID><methodID>AIC</methodID><horizontalSlowness><value>21.529587863115804</value></horizontalSlowness><backazimuth><value>270.5393284127466</value></backazimuth><phaseHint>P</phaseHint><evaluationMode>automatic</evaluationMode><comment><text>341.8089856610226</text><id>DFX:rectilinearity</id></comment><comment><text>16.699823234728289</text><id>SNR</id></comment></pick><pick publicID="de.gempa.tb1.Pick/20250415064043.55013.117686"><time><value>2025-04-15T06:40:34.138393Z</value></time><waveformID networkCode="CX" stationCode="PB03" channelCode="HHN"/><filterID>ITAPER(2)&gt;&gt;BW(3,3,20)</filterID><methodID>L2-AIC-GRID</methodID><horizontalSlowness><value>11.497451050604813</value></horizontalSlowness><backazimuth><value>258.28814265496</value></backazimuth><phaseHint>S</phaseHint><evaluationMode>automatic</evaluationMode><comment><text>40.246636500163483</text><id>DFX:rectilinearity</id></comment><comment><text>de.gempa.tb1.Pick/20250415064003.542875.117664</text><id>RefPickID</id></comment><comment><text>19.355462049997872</text><id>SNR</id></comment></pick><pick publicID="de.gempa.tb1.Pick/20250415064045.342802.117689"><time><value>2025-04-15T06:40:35.378396Z</value></time><waveformID networkCode="CX" stationCode="PB07" channelCode="HHN"/><filterID>ITAPER(2)&gt;&gt;BW(3,3,20)</filterID><methodID>L2-AIC-GRID</methodID><horizontalSlowness><value>22.339713011676817</value></horizontalSlowness><backazimuth><value>344.3526780153093</value></backazimuth><phaseHint>S</phaseHint><evaluationMode>automatic</evaluationMode><comment><text>687.189459052431</text><id>DFX:rectilinearity</id></comment><comment><text>de.gempa.tb1.Pick/20250415064024.918108.117675</text><id>RefPickID</id></comment><comment><text>8.376786028865272</text><id>SNR</id></comment></pick><pick publicID="de.gempa.tb1.Pick/20250415064045.534755.117691"><time><value>2025-04-15T06:40:35.358393Z</value></time><waveformID networkCode="CX" stationCode="PB02" channelCode="HHN"/><filterID>ITAPER(2)&gt;&gt;BW(3,3,20)</filterID><methodID>L2-AIC-GRID</methodID><horizontalSlowness><value>20.177600027047326</value></horizontalSlowness><backazimuth><value>358.13971166126834</value></backazimuth><phaseHint>S</phaseHint><evaluationMode>automatic</evaluationMode><comment><text>157.58971871138797</text><id>DFX:rectilinearity</id></comment><comment><text>de.gempa.tb1.Pick/20250415064004.541099.117666</text><id>RefPickID</id></comment><comment><text>5.24587218261747</text><id>SNR</id></comment></pick><origin publicID="de.gempa.tb1.Origin/20250415064045.538038.55774"><time><value>2025-04-15T06:39:09.654316Z</value><uncertainty>1.1834218502044678</uncertainty></time><latitude><value>-21.344375610351562</value><uncertainty>12.2559232711792</uncertainty></latitude><longitude><value>-67.52429962158203</value><uncertainty>24.357519149780273</uncertainty></longitude><depth><value>285.8906555175781</value><uncertainty>25.28676986694336</uncertainty></depth><depthType>from location</depthType><methodID>LOCSAT</methodID><earthModelID>iasp91_scanloc</earthModelID><quality><associatedPhaseCount>11</associatedPhaseCount><usedPhaseCount>11</usedPhaseCount><associatedStationCount>8</associatedStationCount><usedStationCount>8</usedStationCount><depthPhaseCount>0</depthPhaseCount><standardError>0.30640695247293964</standardError><azimuthalGap>303.06739807128906</azimuthalGap><maximumDistance>2.9930310249328613</maximumDistance><minimumDistance>1.6608247756958008</minimumDistance><medianDistance>2.211303472518921</medianDistance></quality><uncertainty><minHorizontalUncertainty>26.18132019042969</minHorizontalUncertainty><maxHorizontalUncertainty>52.27489852905273</maxHorizontalUncertainty><azimuthMaxHorizontalUncertainty>87.13953399658203</azimuthMaxHorizontalUncertainty><preferredDescription>horizontal uncertainty</preferredDescription></uncertainty><evaluationMode>automatic</evaluationMode><evaluationStatus>confirmed</evaluationStatus><comment><text>0.09</text><id>mismatchScore</id></comment><comment><text>mismatchScore</text><id>scevalMethod</id></comment><arrival><pickID>de.gempa.tb1.Pick/20250415063959.566102.117660</pickID><phase>P</phase><azimuth>278.9360656738281</azimuth><distance>1.8562480211257935</distance><timeResidual>-0.3118553161621094</timeResidual><timeUsed>true</timeUsed><horizontalSlownessUsed>false</horizontalSlownessUsed><backazimuthUsed>false</backazimuthUsed><weight>1</weight></arrival><arrival><pickID>de.gempa.tb1.Pick/20250415064000.839977.117662</pickID><phase>P</phase><azimuth>307.8486328125</azimuth><distance>1.9385812282562256</distance><timeResidual>0.10328292846679688</timeResidual><timeUsed>true</timeUsed><horizontalSlownessUsed>false</horizontalSlownessUsed><backazimuthUsed>false</backazimuthUsed><weight>1</weight></arrival><arrival><pickID>de.gempa.tb1.Pick/20250415064003.542875.117664</pickID><phase>P</phase><azimuth>250.91603088378906</azimuth><distance>2.1879746913909912</distance><timeResidual>-0.06685638427734375</timeResidual><timeUsed>true</timeUsed><horizontalSlownessUsed>false</horizontalSlownessUsed><backazimuthUsed>false</backazimuthUsed><weight>1</weight></arrival><arrival><pickID>de.gempa.tb1.Pick/20250415064004.541099.117666</pickID><phase>P</phase><azimuth>270.2063903808594</azimuth><distance>2.211303472518921</distance><timeResidual>0.09149932861328125</timeResidual><timeUsed>true</timeUsed><horizontalSlownessUsed>false</horizontalSlownessUsed><backazimuthUsed>false</backazimuthUsed><weight>1</weight></arrival><arrival><pickID>de.gempa.tb1.Pick/20250415064007.270819.117669</pickID><phase>P</phase><azimuth>281.51190185546875</azimuth><distance>2.5094032287597656</distance><timeResidual>0.4643440246582031</timeResidual><timeUsed>true</timeUsed><horizontalSlownessUsed>false</horizontalSlownessUsed><backazimuthUsed>false</backazimuthUsed><weight>1</weight></arrival><arrival><pickID>de.gempa.tb1.Pick/20250415064009.136458.117671</pickID><phase>P</phase><azimuth>253.97413635253906</azimuth><distance>1.6608247756958008</distance><timeResidual>0.26418304443359375</timeResidual><timeUsed>true</timeUsed><horizontalSlownessUsed>false</horizontalSlownessUsed><backazimuthUsed>false</backazimuthUsed><weight>1</weight></arrival><arrival><pickID>de.gempa.tb1.Pick/20250415064009.58936.117673</pickID><phase>P</phase><azimuth>305.0473937988281</azimuth><distance>2.9930310249328613</distance><timeResidual>-0.5116386413574219</timeResidual><timeUsed>true</timeUsed><horizontalSlownessUsed>false</horizontalSlownessUsed><backazimuthUsed>false</backazimuthUsed><weight>1</weight></arrival><arrival><pickID>de.gempa.tb1.Pick/20250415064024.918108.117675</pickID><phase>P</phase><azimuth>259.75543212890625</azimuth><distance>2.2316100597381592</distance><timeResidual>0.049285888671875</timeResidual><timeUsed>true</timeUsed><horizontalSlownessUsed>false</horizontalSlownessUsed><backazimuthUsed>false</backazimuthUsed><weight>1</weight></arrival><arrival><pickID>de.gempa.tb1.Pick/20250415064043.55013.117686</pickID><phase>S</phase><azimuth>250.91603088378906</azimuth><distance>2.1879746913909912</distance><timeResidual>-0.4874267578125</timeResidual><timeUsed>true</timeUsed><horizontalSlownessUsed>false</horizontalSlownessUsed><backazimuthUsed>false</backazimuthUsed><weight>1</weight></arrival><arrival><pickID>de.gempa.tb1.Pick/20250415064045.342802.117689</pickID><phase>S</phase><azimuth>259.75543212890625</azimuth><distance>2.2316100597381592</distance><timeResidual>0.05695724487304688</timeResidual><timeUsed>true</timeUsed><horizontalSlownessUsed>false</horizontalSlownessUsed><backazimuthUsed>false</backazimuthUsed><weight>1</weight></arrival><arrival><pickID>de.gempa.tb1.Pick/20250415064045.534755.117691</pickID><phase>S</phase><azimuth>270.2063903808594</azimuth><distance>2.211303472518921</distance><timeResidual>0.3486175537109375</timeResidual><timeUsed>true</timeUsed><horizontalSlownessUsed>false</horizontalSlownessUsed><backazimuthUsed>false</backazimuthUsed><weight>1</weight></arrival><magnitude publicID="de.gempa.tb1.Magnitude/20250415064117.558498.98332"><magnitude><value>2.830997827372507</value></magnitude><type>M</type><methodID>weighted average</methodID><stationCount>3</stationCount></magnitude></origin><event publicID="gempa2025hkpp"><preferredOriginID>de.gempa.tb1.Origin/20250415064045.538038.55774</preferredOriginID><preferredMagnitudeID>de.gempa.tb1.Magnitude/20250415064117.558498.98332</preferredMagnitudeID><description><text>Chile-Bolivia Border Region</text><type>region name</type></description><originReference>de.gempa.tb1.Origin/20250415064045.538038.55774</originReference></event></EventParameters></seiscomp>