<?xml version="1.0" encoding="UTF-8"?>
<seiscomp xmlns="http://geofon.gfz-potsdam.de/ns/seiscomp3-schema/0.13" version="0.13"><EventParameters><pick publicID="de.gempa.tb1.Pick/20250413210548.656977.133715"><time><value>2025-04-13T21:05:42.068393Z</value></time><waveformID networkCode="CX" stationCode="PB01" channelCode="HHZ"/><filterID>ITAPER(4)&gt;&gt;BW(4,4,20)</filterID><methodID>AIC</methodID><horizontalSlowness><value>19.739207769871026</value></horizontalSlowness><backazimuth><value>169.67040940716444</value></backazimuth><phaseHint>P</phaseHint><evaluationMode>automatic</evaluationMode><comment><text>6.411145530528736</text><id>DFX:rectilinearity</id></comment><comment><text>21.882686476369585</text><id>SNR</id></comment></pick><pick publicID="de.gempa.tb1.Pick/20250413210549.69924.133717"><time><value>2025-04-13T21:05:43.098393Z</value></time><waveformID networkCode="CX" stationCode="PB03" channelCode="HHZ"/><filterID>ITAPER(4)&gt;&gt;BW(4,4,20)</filterID><methodID>AIC</methodID><horizontalSlowness><value>4.34481810606831</value></horizontalSlowness><backazimuth><value>52.50295550103253</value></backazimuth><phaseHint>P</phaseHint><evaluationMode>automatic</evaluationMode><comment><text>15.305855470613038</text><id>DFX:rectilinearity</id></comment><comment><text>18.801816313318714</text><id>SNR</id></comment></pick><pick publicID="de.gempa.tb1.Pick/20250413210550.642323.133719"><time><value>2025-04-13T21:05:45.048393Z</value></time><waveformID networkCode="CX" stationCode="PB02" channelCode="HHZ"/><filterID>ITAPER(4)&gt;&gt;BW(4,4,20)</filterID><methodID>AIC</methodID><horizontalSlowness><value>16.62969630661539</value></horizontalSlowness><backazimuth><value>81.61145264988095</value></backazimuth><phaseHint>P</phaseHint><evaluationMode>automatic</evaluationMode><comment><text>38.513591056035217</text><id>DFX:rectilinearity</id></comment><comment><text>17.131107727436337</text><id>SNR</id></comment></pick><pick publicID="de.gempa.tb1.Pick/20250413210550.695092.133721"><time><value>2025-04-13T21:05:43.968396Z</value></time><waveformID networkCode="CX" stationCode="PB07" channelCode="HHZ"/><filterID>ITAPER(4)&gt;&gt;BW(4,4,20)</filterID><methodID>AIC</methodID><horizontalSlowness><value>21.913734881824109</value></horizontalSlowness><backazimuth><value>77.46157901357114</value></backazimuth><phaseHint>P</phaseHint><evaluationMode>automatic</evaluationMode><comment><text>177.34690581223018</text><id>DFX:rectilinearity</id></comment><comment><text>43.23808784001528</text><id>SNR</id></comment></pick><pick publicID="de.gempa.tb1.Pick/20250413210552.566581.133723"><time><value>2025-04-13T21:05:45.438393Z</value></time><waveformID networkCode="CX" stationCode="PB06" channelCode="HHZ"/><filterID>ITAPER(4)&gt;&gt;BW(4,4,20)</filterID><methodID>AIC</methodID><horizontalSlowness><value>14.276058858013483</value></horizontalSlowness><backazimuth><value>140.7342903556426</value></backazimuth><phaseHint>P</phaseHint><evaluationMode>automatic</evaluationMode><comment><text>42.03794215024206</text><id>DFX:rectilinearity</id></comment><comment><text>23.30497346324419</text><id>SNR</id></comment></pick><pick publicID="de.gempa.tb1.Pick/20250413210558.539624.133725"><time><value>2025-04-13T21:05:49.589998Z</value></time><waveformID networkCode="CX" stationCode="PATCX" channelCode="HHZ"/><filterID>ITAPER(4)&gt;&gt;BW(4,4,20)</filterID><methodID>AIC</methodID><horizontalSlowness><value>17.762206230363358</value></horizontalSlowness><backazimuth><value>163.88353622196294</value></backazimuth><phaseHint>P</phaseHint><evaluationMode>automatic</evaluationMode><comment><text>180.10113864514466</text><id>DFX:rectilinearity</id></comment><comment><text>8.319418146977414</text><id>SNR</id></comment></pick><pick publicID="de.gempa.tb1.Pick/20250413210604.591136.133727"><time><value>2025-04-13T21:05:57.24Z</value></time><waveformID networkCode="CX" stationCode="PB19" channelCode="HHZ"/><filterID>ITAPER(4)&gt;&gt;BW(4,4,20)</filterID><methodID>AIC</methodID><horizontalSlowness><value>15.294128952227137</value></horizontalSlowness><backazimuth><value>312.21317811626864</value></backazimuth><phaseHint>P</phaseHint><evaluationMode>automatic</evaluationMode><comment><text>9.062019277750109</text><id>DFX:rectilinearity</id></comment><comment><text>10.312016857374582</text><id>SNR</id></comment></pick><pick publicID="de.gempa.tb1.Pick/20250413210608.573812.133729"><time><value>2025-04-13T21:06:00.318393Z</value></time><waveformID networkCode="CX" stationCode="PB01" channelCode="HHN"/><filterID>ITAPER(2)&gt;&gt;BW(3,3,20)</filterID><methodID>L2-AIC-GRID</methodID><horizontalSlowness><value>18.892143947845472</value></horizontalSlowness><backazimuth><value>4.205802189297515</value></backazimuth><phaseHint>S</phaseHint><evaluationMode>automatic</evaluationMode><comment><text>60.97853328955792</text><id>DFX:rectilinearity</id></comment><comment><text>de.gempa.tb1.Pick/20250413210548.656977.133715</text><id>RefPickID</id></comment><comment><text>7.835618416063835</text><id>SNR</id></comment></pick><pick publicID="de.gempa.tb1.Pick/20250413210609.555553.133730"><time><value>2025-04-13T21:05:59.99Z</value></time><waveformID networkCode="CX" stationCode="PSGCX" channelCode="HHZ"/><filterID>ITAPER(4)&gt;&gt;BW(4,4,20)</filterID><methodID>AIC</methodID><horizontalSlowness><value>23.36496655254678</value></horizontalSlowness><backazimuth><value>250.66594612766954</value></backazimuth><phaseHint>P</phaseHint><evaluationMode>automatic</evaluationMode><comment><text>18.238165555860324</text><id>DFX:rectilinearity</id></comment><comment><text>6.963977950224094</text><id>SNR</id></comment></pick><pick publicID="de.gempa.tb1.Pick/20250413210610.673748.133732"><time><value>2025-04-13T21:06:02.228393Z</value></time><waveformID networkCode="CX" stationCode="PB03" channelCode="HHN"/><filterID>ITAPER(2)&gt;&gt;BW(3,3,20)</filterID><methodID>L2-AIC-GRID</methodID><horizontalSlowness><value>20.39632174387178</value></horizontalSlowness><backazimuth><value>193.57460103331115</value></backazimuth><phaseHint>S</phaseHint><evaluationMode>automatic</evaluationMode><comment><text>199.16676983521248</text><id>DFX:rectilinearity</id></comment><comment><text>de.gempa.tb1.Pick/20250413210549.69924.133717</text><id>RefPickID</id></comment><comment><text>8.656209050360253</text><id>SNR</id></comment></pick><pick publicID="de.gempa.tb1.Pick/20250413210611.757355.133733"><time><value>2025-04-13T21:06:03.828396Z</value></time><waveformID networkCode="CX" stationCode="PB07" channelCode="HHN"/><filterID>ITAPER(2)&gt;&gt;BW(3,3,20)</filterID><methodID>L2-AIC-GRID</methodID><horizontalSlowness><value>20.95900337822557</value></horizontalSlowness><backazimuth><value>239.7041744742088</value></backazimuth><phaseHint>S</phaseHint><evaluationMode>automatic</evaluationMode><comment><text>2774.696174256019</text><id>DFX:rectilinearity</id></comment><comment><text>de.gempa.tb1.Pick/20250413210550.695092.133721</text><id>RefPickID</id></comment><comment><text>5.146568687470412</text><id>SNR</id></comment></pick><pick publicID="de.gempa.tb1.Pick/20250413210612.64298.133734"><time><value>2025-04-13T21:06:05.088393Z</value></time><waveformID networkCode="CX" stationCode="PB02" channelCode="HHN"/><filterID>ITAPER(2)&gt;&gt;BW(3,3,20)</filterID><methodID>L2-AIC-GRID</methodID><horizontalSlowness><value>19.858981086109832</value></horizontalSlowness><backazimuth><value>217.0119744712023</value></backazimuth><phaseHint>S</phaseHint><evaluationMode>automatic</evaluationMode><comment><text>256.02800393645146</text><id>DFX:rectilinearity</id></comment><comment><text>de.gempa.tb1.Pick/20250413210550.642323.133719</text><id>RefPickID</id></comment><comment><text>7.037669775604486</text><id>SNR</id></comment></pick><pick publicID="de.gempa.tb1.Pick/20250413210614.633549.133735"><time><value>2025-04-13T21:06:06.558393Z</value></time><waveformID networkCode="CX" stationCode="PB06" channelCode="HHN"/><filterID>ITAPER(2)&gt;&gt;BW(3,3,20)</filterID><methodID>L2-AIC-GRID</methodID><horizontalSlowness><value>15.104353213283737</value></horizontalSlowness><backazimuth><value>274.51859771391446</value></backazimuth><phaseHint>S</phaseHint><evaluationMode>automatic</evaluationMode><comment><text>50.5373809700765</text><id>DFX:rectilinearity</id></comment><comment><text>de.gempa.tb1.Pick/20250413210552.566581.133723</text><id>RefPickID</id></comment><comment><text>5.142716465402092</text><id>SNR</id></comment></pick><origin publicID="de.gempa.tb1.Origin/20250413210614.637817.119166"><time><value>2025-04-13T21:05:16.412353Z</value><uncertainty>0.6694531440734863</uncertainty></time><latitude><value>-21.706371307373047</value><uncertainty>3.272782325744629</uncertainty></latitude><longitude><value>-68.3126220703125</value><uncertainty>3.8154802322387695</uncertainty></longitude><depth><value>0</value></depth><depthType>operator assigned</depthType><methodID>LOCSAT</methodID><earthModelID>iasp91_scanloc</earthModelID><quality><associatedPhaseCount>13</associatedPhaseCount><usedPhaseCount>13</usedPhaseCount><associatedStationCount>8</associatedStationCount><usedStationCount>8</usedStationCount><depthPhaseCount>0</depthPhaseCount><standardError>0.8347183101318575</standardError><azimuthalGap>241.4840850830078</azimuthalGap><maximumDistance>2.697814702987671</maximumDistance><minimumDistance>1.2783968448638916</minimumDistance><medianDistance>1.5237804651260376</medianDistance></quality><uncertainty><minHorizontalUncertainty>6.783401012420654</minHorizontalUncertainty><maxHorizontalUncertainty>8.37942123413086</maxHorizontalUncertainty><azimuthMaxHorizontalUncertainty>68.49146270751953</azimuthMaxHorizontalUncertainty><preferredDescription>horizontal uncertainty</preferredDescription></uncertainty><evaluationMode>automatic</evaluationMode><evaluationStatus>confirmed</evaluationStatus><comment><text>0.44</text><id>mismatchScore</id></comment><comment><text>mismatchScore</text><id>scevalMethod</id></comment><arrival><pickID>de.gempa.tb1.Pick/20250413210548.656977.133715</pickID><phase>P</phase><azimuth>300.86163330078125</azimuth><distance>1.2783968448638916</distance><timeResidual>1.1344223022460938</timeResidual><timeUsed>true</timeUsed><horizontalSlownessUsed>false</horizontalSlownessUsed><backazimuthUsed>false</backazimuthUsed><weight>1</weight></arrival><arrival><pickID>de.gempa.tb1.Pick/20250413210549.69924.133717</pickID><phase>P</phase><azimuth>255.4583282470703</azimuth><distance>1.3806015253067017</distance><timeResidual>0.25214195251464844</timeResidual><timeUsed>true</timeUsed><horizontalSlownessUsed>false</horizontalSlownessUsed><backazimuthUsed>false</backazimuthUsed><weight>1</weight></arrival><arrival><pickID>de.gempa.tb1.Pick/20250413210550.642323.133719</pickID><phase>P</phase><azimuth>284.3353576660156</azimuth><distance>1.5237804651260376</distance><timeResidual>0.14306640625</timeResidual><timeUsed>true</timeUsed><horizontalSlownessUsed>false</horizontalSlownessUsed><backazimuthUsed>false</backazimuthUsed><weight>1</weight></arrival><arrival><pickID>de.gempa.tb1.Pick/20250413210550.695092.133721</pickID><phase>P</phase><azimuth>268.9197082519531</azimuth><distance>1.4633437395095825</distance><timeResidual>-0.10462188720703125</timeResidual><timeUsed>true</timeUsed><horizontalSlownessUsed>false</horizontalSlownessUsed><backazimuthUsed>false</backazimuthUsed><weight>1</weight></arrival><arrival><pickID>de.gempa.tb1.Pick/20250413210552.566581.133723</pickID><phase>P</phase><azimuth>229.3231964111328</azimuth><distance>1.5333141088485718</distance><timeResidual>0.4034881591796875</timeResidual><timeUsed>true</timeUsed><horizontalSlownessUsed>false</horizontalSlownessUsed><backazimuthUsed>false</backazimuthUsed><weight>1</weight></arrival><arrival><pickID>de.gempa.tb1.Pick/20250413210558.539624.133725</pickID><phase>P</phase><azimuth>296.84295654296875</azimuth><distance>1.9294681549072266</distance><timeResidual>-0.8997478485107422</timeResidual><timeUsed>true</timeUsed><horizontalSlownessUsed>false</horizontalSlownessUsed><backazimuthUsed>false</backazimuthUsed><weight>1</weight></arrival><arrival><pickID>de.gempa.tb1.Pick/20250413210604.591136.133727</pickID><phase>P</phase><azimuth>202.22694396972656</azimuth><distance>2.366854667663574</distance><timeResidual>0.7338104248046875</timeResidual><timeUsed>true</timeUsed><horizontalSlownessUsed>false</horizontalSlownessUsed><backazimuthUsed>false</backazimuthUsed><weight>1</weight></arrival><arrival><pickID>de.gempa.tb1.Pick/20250413210608.573812.133729</pickID><phase>S</phase><azimuth>300.86163330078125</azimuth><distance>1.2783968448638916</distance><timeResidual>1.5769805908203125</timeResidual><timeUsed>true</timeUsed><horizontalSlownessUsed>false</horizontalSlownessUsed><backazimuthUsed>false</backazimuthUsed><weight>1</weight></arrival><arrival><pickID>de.gempa.tb1.Pick/20250413210609.555553.133730</pickID><phase>P</phase><azimuth>320.74285888671875</azimuth><distance>2.697814702987671</distance><timeResidual>-1.0765571594238281</timeResidual><timeUsed>true</timeUsed><horizontalSlownessUsed>false</horizontalSlownessUsed><backazimuthUsed>false</backazimuthUsed><weight>1</weight></arrival><arrival><pickID>de.gempa.tb1.Pick/20250413210610.673748.133732</pickID><phase>S</phase><azimuth>255.4583282470703</azimuth><distance>1.3806015253067017</distance><timeResidual>0.1053619384765625</timeResidual><timeUsed>true</timeUsed><horizontalSlownessUsed>false</horizontalSlownessUsed><backazimuthUsed>false</backazimuthUsed><weight>1</weight></arrival><arrival><pickID>de.gempa.tb1.Pick/20250413210611.757355.133733</pickID><phase>S</phase><azimuth>268.9197082519531</azimuth><distance>1.4633437395095825</distance><timeResidual>-0.8938827514648438</timeResidual><timeUsed>true</timeUsed><horizontalSlownessUsed>false</horizontalSlownessUsed><backazimuthUsed>false</backazimuthUsed><weight>1</weight></arrival><arrival><pickID>de.gempa.tb1.Pick/20250413210612.64298.133734</pickID><phase>S</phase><azimuth>284.3353576660156</azimuth><distance>1.5237804651260376</distance><timeResidual>-1.3055458068847656</timeResidual><timeUsed>true</timeUsed><horizontalSlownessUsed>false</horizontalSlownessUsed><backazimuthUsed>false</backazimuthUsed><weight>1</weight></arrival><arrival><pickID>de.gempa.tb1.Pick/20250413210614.633549.133735</pickID><phase>S</phase><azimuth>229.3231964111328</azimuth><distance>1.5333141088485718</distance><timeResidual>-0.06826591491699219</timeResidual><timeUsed>true</timeUsed><horizontalSlownessUsed>false</horizontalSlownessUsed><backazimuthUsed>false</backazimuthUsed><weight>1</weight></arrival><magnitude publicID="de.gempa.tb1.Magnitude/20250413210614.651837.403125"><magnitude><value>2.613489324195843</value></magnitude><type>M</type><methodID>weighted average</methodID><stationCount>7</stationCount></magnitude></origin><event publicID="gempa2025hial"><preferredOriginID>de.gempa.tb1.Origin/20250413210614.637817.119166</preferredOriginID><preferredMagnitudeID>de.gempa.tb1.Magnitude/20250413210614.651837.403125</preferredMagnitudeID><description><text>Chile-Bolivia Border Region</text><type>region name</type></description><originReference>de.gempa.tb1.Origin/20250413210614.637817.119166</originReference></event></EventParameters></seiscomp>