<?xml version="1.0" encoding="UTF-8"?>
<seiscomp xmlns="http://geofon.gfz-potsdam.de/ns/seiscomp3-schema/0.13" version="0.13"><EventParameters><pick publicID="de.gempa.tb1.Pick/20250411103403.639438.118341"><time><value>2025-04-11T10:33:56.568393Z</value></time><waveformID networkCode="CX" stationCode="PB01" channelCode="HHZ"/><filterID>ITAPER(4)&gt;&gt;BW(4,4,20)</filterID><methodID>AIC</methodID><horizontalSlowness><value>10.521016579838983</value></horizontalSlowness><backazimuth><value>356.75853885364484</value></backazimuth><phaseHint>P</phaseHint><evaluationMode>automatic</evaluationMode><comment><text>14.376514679072866</text><id>DFX:rectilinearity</id></comment><comment><text>32.389641474727405</text><id>SNR</id></comment></pick><pick publicID="de.gempa.tb1.Pick/20250411103407.288016.118343"><time><value>2025-04-11T10:34:00.309999Z</value></time><waveformID networkCode="CX" stationCode="PATCX" channelCode="HHZ"/><filterID>ITAPER(4)&gt;&gt;BW(4,4,20)</filterID><methodID>AIC</methodID><horizontalSlowness><value>22.797403555404166</value></horizontalSlowness><backazimuth><value>233.2224179121262</value></backazimuth><phaseHint>P</phaseHint><evaluationMode>automatic</evaluationMode><comment><text>301.83226631869906</text><id>DFX:rectilinearity</id></comment><comment><text>7.585996413910535</text><id>SNR</id></comment></pick><pick publicID="de.gempa.tb1.Pick/20250411103407.565322.118345"><time><value>2025-04-11T10:34:02.118393Z</value></time><waveformID networkCode="CX" stationCode="PB02" channelCode="HHZ"/><filterID>ITAPER(4)&gt;&gt;BW(4,4,20)</filterID><methodID>AIC</methodID><horizontalSlowness><value>13.446452806340572</value></horizontalSlowness><backazimuth><value>23.708268725845755</value></backazimuth><phaseHint>P</phaseHint><evaluationMode>automatic</evaluationMode><comment><text>58.37128107649747</text><id>DFX:rectilinearity</id></comment><comment><text>14.062198935867626</text><id>SNR</id></comment></pick><pick publicID="de.gempa.tb1.Pick/20250411103408.566185.118347"><time><value>2025-04-11T10:34:01.51Z</value></time><waveformID networkCode="CX" stationCode="PSGCX" channelCode="HHZ"/><filterID>ITAPER(4)&gt;&gt;BW(4,4,20)</filterID><methodID>AIC</methodID><horizontalSlowness><value>21.263170213935911</value></horizontalSlowness><backazimuth><value>210.41029364433047</value></backazimuth><phaseHint>P</phaseHint><evaluationMode>automatic</evaluationMode><comment><text>25.69700678135067</text><id>DFX:rectilinearity</id></comment><comment><text>14.880798970376068</text><id>SNR</id></comment></pick><pick publicID="de.gempa.tb1.Pick/20250411103420.172336.118349"><time><value>2025-04-11T10:34:04.57Z</value></time><waveformID networkCode="CX" stationCode="PB09" channelCode="HHZ"/><filterID>ITAPER(4)&gt;&gt;BW(4,4,20)</filterID><methodID>AIC</methodID><horizontalSlowness><value>21.55230391502043</value></horizontalSlowness><backazimuth><value>295.24813366058396</value></backazimuth><phaseHint>P</phaseHint><evaluationMode>automatic</evaluationMode><comment><text>10.880181955257823</text><id>DFX:rectilinearity</id></comment><comment><text>14.358775301952976</text><id>SNR</id></comment></pick><pick publicID="de.gempa.tb1.Pick/20250411103422.780372.118351"><time><value>2025-04-11T10:34:11.438393Z</value></time><waveformID networkCode="CX" stationCode="PB01" channelCode="HHN"/><filterID>ITAPER(2)&gt;&gt;BW(3,3,20)</filterID><methodID>L2-AIC-GRID</methodID><horizontalSlowness><value>20.630878415375296</value></horizontalSlowness><backazimuth><value>140.88289978476334</value></backazimuth><phaseHint>S</phaseHint><evaluationMode>automatic</evaluationMode><comment><text>49.84397922141424</text><id>DFX:rectilinearity</id></comment><comment><text>de.gempa.tb1.Pick/20250411103403.639438.118341</text><id>RefPickID</id></comment><comment><text>6.233499048376758</text><id>SNR</id></comment></pick><pick publicID="de.gempa.tb1.Pick/20250411103428.547302.118352"><time><value>2025-04-11T10:34:19.55Z</value></time><waveformID networkCode="CX" stationCode="PSGCX" channelCode="HHN"/><filterID>ITAPER(2)&gt;&gt;BW(3,3,20)</filterID><methodID>L2-AIC-GRID</methodID><horizontalSlowness><value>18.029514779402</value></horizontalSlowness><backazimuth><value>183.94860912735032</value></backazimuth><phaseHint>S</phaseHint><evaluationMode>automatic</evaluationMode><comment><text>93.11616352383527</text><id>DFX:rectilinearity</id></comment><comment><text>de.gempa.tb1.Pick/20250411103408.566185.118347</text><id>RefPickID</id></comment><comment><text>7.196291768742279</text><id>SNR</id></comment></pick><pick publicID="de.gempa.tb1.Pick/20250411103442.941131.118355"><time><value>2025-04-11T10:34:05.468396Z</value></time><waveformID networkCode="CX" stationCode="PB07" channelCode="HHZ"/><filterID>ITAPER(4)&gt;&gt;BW(4,4,20)</filterID><methodID>AIC</methodID><horizontalSlowness><value>22.09929181736583</value></horizontalSlowness><backazimuth><value>14.113050572451925</value></backazimuth><phaseHint>P</phaseHint><evaluationMode>automatic</evaluationMode><comment><text>286.1561282551382</text><id>DFX:rectilinearity</id></comment><comment><text>15.624819333080675</text><id>SNR</id></comment></pick><origin publicID="de.gempa.tb1.Origin/20250411103443.949376.58292"><time><value>2025-04-11T10:33:38.242963Z</value><uncertainty>1.3727151155471802</uncertainty></time><latitude><value>-20.326488494873047</value><uncertainty>8.379414558410645</uncertainty></latitude><longitude><value>-69.05294799804688</value><uncertainty>20.213666915893555</uncertainty></longitude><depth><value>101.8488540649414</value><uncertainty>14.329812049865723</uncertainty></depth><depthType>from location</depthType><methodID>LOCSAT</methodID><earthModelID>iasp91_scanloc</earthModelID><quality><associatedPhaseCount>8</associatedPhaseCount><usedPhaseCount>8</usedPhaseCount><associatedStationCount>6</associatedStationCount><usedStationCount>6</usedStationCount><depthPhaseCount>0</depthPhaseCount><standardError>0.2420364282926107</standardError><azimuthalGap>241.2454833984375</azimuthalGap><maximumDistance>1.595900297164917</maximumDistance><minimumDistance>0.8209892511367798</minimumDistance><medianDistance>1.2408249378204346</medianDistance></quality><uncertainty><minHorizontalUncertainty>8.682443618774414</minHorizontalUncertainty><maxHorizontalUncertainty>46.11293029785156</maxHorizontalUncertainty><azimuthMaxHorizontalUncertainty>69.67311096191406</azimuthMaxHorizontalUncertainty><preferredDescription>horizontal uncertainty</preferredDescription></uncertainty><evaluationMode>automatic</evaluationMode><comment><text>0.58</text><id>mismatchScore</id></comment><arrival><pickID>de.gempa.tb1.Pick/20250411103403.639438.118341</pickID><phase>P</phase><azimuth>209.62513732910156</azimuth><distance>0.8209892511367798</distance><timeResidual>-0.3941631317138672</timeResidual><timeUsed>true</timeUsed><horizontalSlownessUsed>false</horizontalSlownessUsed><backazimuthUsed>false</backazimuthUsed><weight>1</weight></arrival><arrival><pickID>de.gempa.tb1.Pick/20250411103407.288016.118343</pickID><phase>P</phase><azimuth>244.30235290527344</azimuth><distance>1.1419154405593872</distance><timeResidual>-0.05871772766113281</timeResidual><timeUsed>true</timeUsed><horizontalSlownessUsed>false</horizontalSlownessUsed><backazimuthUsed>false</backazimuthUsed><weight>1</weight></arrival><arrival><pickID>de.gempa.tb1.Pick/20250411103407.565322.118345</pickID><phase>P</phase><azimuth>218.4433135986328</azimuth><distance>1.2643747329711914</distance><timeResidual>0.3441638946533203</timeResidual><timeUsed>true</timeUsed><horizontalSlownessUsed>false</horizontalSlownessUsed><backazimuthUsed>false</backazimuthUsed><weight>1</weight></arrival><arrival><pickID>de.gempa.tb1.Pick/20250411103408.566185.118347</pickID><phase>P</phase><azimuth>305.6020202636719</azimuth><distance>1.2408249378204346</distance><timeResidual>0.0021381378173828125</timeResidual><timeUsed>true</timeUsed><horizontalSlownessUsed>false</horizontalSlownessUsed><backazimuthUsed>false</backazimuthUsed><weight>1</weight></arrival><arrival><pickID>de.gempa.tb1.Pick/20250411103420.172336.118349</pickID><phase>P</phase><azimuth>186.84750366210938</azimuth><distance>1.473182201385498</distance><timeResidual>0.30417823791503906</timeResidual><timeUsed>true</timeUsed><horizontalSlownessUsed>false</horizontalSlownessUsed><backazimuthUsed>false</backazimuthUsed><weight>1</weight></arrival><arrival><pickID>de.gempa.tb1.Pick/20250411103422.780372.118351</pickID><phase>S</phase><azimuth>209.62513732910156</azimuth><distance>0.8209892511367798</distance><timeResidual>0.05267143249511719</timeResidual><timeUsed>true</timeUsed><horizontalSlownessUsed>false</horizontalSlownessUsed><backazimuthUsed>false</backazimuthUsed><weight>1</weight></arrival><arrival><pickID>de.gempa.tb1.Pick/20250411103428.547302.118352</pickID><phase>S</phase><azimuth>305.6020202636719</azimuth><distance>1.2408249378204346</distance><timeResidual>0.05476760864257812</timeResidual><timeUsed>true</timeUsed><horizontalSlownessUsed>false</horizontalSlownessUsed><backazimuthUsed>false</backazimuthUsed><weight>1</weight></arrival><arrival><pickID>de.gempa.tb1.Pick/20250411103442.941131.118355</pickID><phase>P</phase><azimuth>209.04559326171875</azimuth><distance>1.595900297164917</distance><timeResidual>-0.30510520935058594</timeResidual><timeUsed>true</timeUsed><horizontalSlownessUsed>false</horizontalSlownessUsed><backazimuthUsed>false</backazimuthUsed><weight>1</weight></arrival><magnitude publicID="de.gempa.tb1.Magnitude/20250411103450.315409.118967"><magnitude><value>2.635625600245804</value></magnitude><type>M</type><methodID>weighted average</methodID><stationCount>2</stationCount></magnitude></origin><event publicID="gempa2025hdni"><preferredOriginID>de.gempa.tb1.Origin/20250411103443.949376.58292</preferredOriginID><preferredMagnitudeID>de.gempa.tb1.Magnitude/20250411103450.315409.118967</preferredMagnitudeID><description><text>Northern Chile</text><type>region name</type></description><originReference>de.gempa.tb1.Origin/20250411103443.949376.58292</originReference></event></EventParameters></seiscomp>