<?xml version="1.0" encoding="UTF-8"?>
<seiscomp xmlns="http://geofon.gfz-potsdam.de/ns/seiscomp3-schema/0.13" version="0.13"><EventParameters><pick publicID="de.gempa.tb1.Pick/20250413013934.553396.128087"><time><value>2025-04-13T01:39:26.418393Z</value></time><waveformID networkCode="CX" stationCode="PB01" channelCode="HHZ"/><filterID>ITAPER(4)&gt;&gt;BW(4,4,20)</filterID><methodID>AIC</methodID><horizontalSlowness><value>17.239016987860083</value></horizontalSlowness><backazimuth><value>214.43760854857</value></backazimuth><phaseHint>P</phaseHint><evaluationMode>automatic</evaluationMode><comment><text>13.916105947785047</text><id>DFX:rectilinearity</id></comment><comment><text>39.329275940573183</text><id>SNR</id></comment></pick><pick publicID="de.gempa.tb1.Pick/20250413013935.466475.128089"><time><value>2025-04-13T01:39:30.958393Z</value></time><waveformID networkCode="CX" stationCode="PB02" channelCode="HHZ"/><filterID>ITAPER(4)&gt;&gt;BW(4,4,20)</filterID><methodID>AIC</methodID><horizontalSlowness><value>17.200369790271804</value></horizontalSlowness><backazimuth><value>91.3794620806762</value></backazimuth><phaseHint>P</phaseHint><evaluationMode>automatic</evaluationMode><comment><text>47.37023974782655</text><id>DFX:rectilinearity</id></comment><comment><text>12.798865576586708</text><id>SNR</id></comment></pick><pick publicID="de.gempa.tb1.Pick/20250413013942.78787.128091"><time><value>2025-04-13T01:39:32.938393Z</value></time><waveformID networkCode="CX" stationCode="PB03" channelCode="HHZ"/><filterID>ITAPER(4)&gt;&gt;BW(4,4,20)</filterID><methodID>AIC</methodID><horizontalSlowness><value>8.519788097738923</value></horizontalSlowness><backazimuth><value>339.54074992519764</value></backazimuth><phaseHint>P</phaseHint><evaluationMode>automatic</evaluationMode><comment><text>10.288027698350147</text><id>DFX:rectilinearity</id></comment><comment><text>7.391796591736769</text><id>SNR</id></comment></pick><pick publicID="de.gempa.tb1.Pick/20250413013943.584521.128093"><time><value>2025-04-13T01:39:37.648393Z</value></time><waveformID networkCode="CX" stationCode="PB06" channelCode="HHZ"/><filterID>ITAPER(4)&gt;&gt;BW(4,4,20)</filterID><methodID>AIC</methodID><horizontalSlowness><value>14.640757125842066</value></horizontalSlowness><backazimuth><value>294.5748448351235</value></backazimuth><phaseHint>P</phaseHint><evaluationMode>automatic</evaluationMode><comment><text>80.61015074060664</text><id>DFX:rectilinearity</id></comment><comment><text>6.125964103175068</text><id>SNR</id></comment></pick><pick publicID="de.gempa.tb1.Pick/20250413013944.412889.128095"><time><value>2025-04-13T01:39:32.198394Z</value></time><waveformID networkCode="CX" stationCode="PB07" channelCode="HHZ"/><filterID>ITAPER(4)&gt;&gt;BW(4,4,20)</filterID><methodID>AIC</methodID><horizontalSlowness><value>22.895591318163905</value></horizontalSlowness><backazimuth><value>329.60338966038347</value></backazimuth><phaseHint>P</phaseHint><evaluationMode>automatic</evaluationMode><comment><text>299.69309492054003</text><id>DFX:rectilinearity</id></comment><comment><text>12.835417588977407</text><id>SNR</id></comment></pick><pick publicID="de.gempa.tb1.Pick/20250413013946.547146.128097"><time><value>2025-04-13T01:39:38.79Z</value></time><waveformID networkCode="CX" stationCode="PSGCX" channelCode="HHZ"/><filterID>ITAPER(4)&gt;&gt;BW(4,4,20)</filterID><methodID>AIC</methodID><horizontalSlowness><value>20.828728323184947</value></horizontalSlowness><backazimuth><value>325.44782635651944</value></backazimuth><phaseHint>P</phaseHint><evaluationMode>automatic</evaluationMode><comment><text>20.917485207953373</text><id>DFX:rectilinearity</id></comment><comment><text>8.59225560967038</text><id>SNR</id></comment></pick><pick publicID="de.gempa.tb1.Pick/20250413013948.507764.128099"><time><value>2025-04-13T01:39:28.24Z</value></time><waveformID networkCode="CX" stationCode="PB09" channelCode="HHZ"/><filterID>ITAPER(4)&gt;&gt;BW(4,4,20)</filterID><methodID>AIC</methodID><horizontalSlowness><value>10.694722297780963</value></horizontalSlowness><backazimuth><value>78.27533664093886</value></backazimuth><phaseHint>P</phaseHint><evaluationMode>automatic</evaluationMode><comment><text>14.91964661928932</text><id>DFX:rectilinearity</id></comment><comment><text>17.517820956196985</text><id>SNR</id></comment></pick><pick publicID="de.gempa.tb1.Pick/20250413013950.626188.128101"><time><value>2025-04-13T01:39:42.608393Z</value></time><waveformID networkCode="CX" stationCode="PB01" channelCode="HHN"/><filterID>ITAPER(2)&gt;&gt;BW(3,3,20)</filterID><methodID>L2-AIC-GRID</methodID><horizontalSlowness><value>20.158765743300087</value></horizontalSlowness><backazimuth><value>275.3531441698605</value></backazimuth><phaseHint>S</phaseHint><evaluationMode>automatic</evaluationMode><comment><text>76.74401710684776</text><id>DFX:rectilinearity</id></comment><comment><text>de.gempa.tb1.Pick/20250413013934.553396.128087</text><id>RefPickID</id></comment><comment><text>13.151351104235308</text><id>SNR</id></comment></pick><pick publicID="de.gempa.tb1.Pick/20250413013954.61166.128102"><time><value>2025-04-13T01:39:49.788393Z</value></time><waveformID networkCode="CX" stationCode="PB02" channelCode="HHN"/><filterID>ITAPER(2)&gt;&gt;BW(3,3,20)</filterID><methodID>L2-AIC-GRID</methodID><horizontalSlowness><value>12.107208475569157</value></horizontalSlowness><backazimuth><value>260.60114328722415</value></backazimuth><phaseHint>S</phaseHint><evaluationMode>automatic</evaluationMode><comment><text>478.5065751230149</text><id>DFX:rectilinearity</id></comment><comment><text>de.gempa.tb1.Pick/20250413013935.466475.128089</text><id>RefPickID</id></comment><comment><text>7.879034613303869</text><id>SNR</id></comment></pick><pick publicID="de.gempa.tb1.Pick/20250413013959.65627.128105"><time><value>2025-04-13T01:39:53.748393Z</value></time><waveformID networkCode="CX" stationCode="PB03" channelCode="HHN"/><filterID>ITAPER(2)&gt;&gt;BW(3,3,20)</filterID><methodID>L2-AIC-GRID</methodID><horizontalSlowness><value>20.990597376489688</value></horizontalSlowness><backazimuth><value>150.19147440360996</value></backazimuth><phaseHint>S</phaseHint><evaluationMode>automatic</evaluationMode><comment><text>98.67990356135265</text><id>DFX:rectilinearity</id></comment><comment><text>de.gempa.tb1.Pick/20250413013942.78787.128091</text><id>RefPickID</id></comment><comment><text>11.989986349220084</text><id>SNR</id></comment></pick><pick publicID="de.gempa.tb1.Pick/20250413014003.891992.128107"><time><value>2025-04-13T01:39:46.15Z</value></time><waveformID networkCode="CX" stationCode="PB09" channelCode="HHN"/><filterID>ITAPER(2)&gt;&gt;BW(3,3,20)</filterID><methodID>L2-AIC-GRID</methodID><horizontalSlowness><value>20.858220395718671</value></horizontalSlowness><backazimuth><value>158.60375108123998</value></backazimuth><phaseHint>S</phaseHint><evaluationMode>automatic</evaluationMode><comment><text>109.31559850398718</text><id>DFX:rectilinearity</id></comment><comment><text>de.gempa.tb1.Pick/20250413013948.507764.128099</text><id>RefPickID</id></comment><comment><text>5.954098064156683</text><id>SNR</id></comment></pick><pick publicID="de.gempa.tb1.Pick/20250413014012.650732.128108"><time><value>2025-04-13T01:40:02.698393Z</value></time><waveformID networkCode="CX" stationCode="PB06" channelCode="HHN"/><filterID>ITAPER(2)&gt;&gt;BW(3,3,20)</filterID><methodID>L2-AIC-GRID</methodID><horizontalSlowness><value>9.059673701068606</value></horizontalSlowness><backazimuth><value>345.1373465195462</value></backazimuth><phaseHint>S</phaseHint><evaluationMode>automatic</evaluationMode><comment><text>112.26550093179802</text><id>DFX:rectilinearity</id></comment><comment><text>de.gempa.tb1.Pick/20250413013943.584521.128093</text><id>RefPickID</id></comment><comment><text>6.627701195567471</text><id>SNR</id></comment></pick><pick publicID="de.gempa.tb1.Pick/20250413014013.578407.128109"><time><value>2025-04-13T01:40:04.97Z</value></time><waveformID networkCode="CX" stationCode="PSGCX" channelCode="HHN"/><filterID>ITAPER(2)&gt;&gt;BW(3,3,20)</filterID><methodID>L2-AIC-GRID</methodID><horizontalSlowness><value>13.098408550145555</value></horizontalSlowness><backazimuth><value>154.66836024946866</value></backazimuth><phaseHint>S</phaseHint><evaluationMode>automatic</evaluationMode><comment><text>28.02299483615345</text><id>DFX:rectilinearity</id></comment><comment><text>de.gempa.tb1.Pick/20250413013946.547146.128097</text><id>RefPickID</id></comment><comment><text>8.105411895749029</text><id>SNR</id></comment></pick><pick publicID="de.gempa.tb1.Pick/20250413014023.091061.128110"><time><value>2025-04-13T01:39:52.368394Z</value></time><waveformID networkCode="CX" stationCode="PB07" channelCode="HHN"/><filterID>ITAPER(2)&gt;&gt;BW(3,3,20)</filterID><methodID>L2-AIC-GRID</methodID><horizontalSlowness><value>20.71816717968483</value></horizontalSlowness><backazimuth><value>217.08885814427293</value></backazimuth><phaseHint>S</phaseHint><evaluationMode>automatic</evaluationMode><comment><text>1165.8084539902284</text><id>DFX:rectilinearity</id></comment><comment><text>de.gempa.tb1.Pick/20250413013944.412889.128095</text><id>RefPickID</id></comment><comment><text>11.573018960477404</text><id>SNR</id></comment></pick><origin publicID="de.gempa.tb1.Origin/20250413014023.097964.97717"><time><value>2025-04-13T01:39:05.412652Z</value><uncertainty>0.8773350119590759</uncertainty></time><latitude><value>-21.027116775512695</value><uncertainty>3.7321150302886963</uncertainty></latitude><longitude><value>-68.72126007080078</value><uncertainty>10.756701469421387</uncertainty></longitude><depth><value>136.51412963867188</value><uncertainty>9.37293815612793</uncertainty></depth><depthType>from location</depthType><methodID>LOCSAT</methodID><earthModelID>iasp91_scanloc</earthModelID><quality><associatedPhaseCount>14</associatedPhaseCount><usedPhaseCount>14</usedPhaseCount><associatedStationCount>7</associatedStationCount><usedStationCount>7</usedStationCount><depthPhaseCount>0</depthPhaseCount><standardError>0.39087041438700104</standardError><azimuthalGap>248.16407775878906</azimuthalGap><maximumDistance>1.9377394914627075</maximumDistance><minimumDistance>0.7158754467964172</minimumDistance><medianDistance>1.2897125482559204</medianDistance></quality><uncertainty><minHorizontalUncertainty>7.198864936828613</minHorizontalUncertainty><maxHorizontalUncertainty>23.32476806640625</maxHorizontalUncertainty><azimuthMaxHorizontalUncertainty>80.94216918945312</azimuthMaxHorizontalUncertainty><preferredDescription>horizontal uncertainty</preferredDescription></uncertainty><evaluationMode>automatic</evaluationMode><evaluationStatus>confirmed</evaluationStatus><comment><text>0.14</text><id>mismatchScore</id></comment><comment><text>mismatchScore</text><id>scevalMethod</id></comment><arrival><pickID>de.gempa.tb1.Pick/20250413013934.553396.128087</pickID><phase>P</phase><azimuth>268.5799865722656</azimuth><distance>0.7158754467964172</distance><timeResidual>-0.1877918243408203</timeResidual><timeUsed>true</timeUsed><horizontalSlownessUsed>false</horizontalSlownessUsed><backazimuthUsed>false</backazimuthUsed><weight>1</weight></arrival><arrival><pickID>de.gempa.tb1.Pick/20250413013935.466475.128089</pickID><phase>P</phase><azimuth>254.91748046875</azimuth><distance>1.134412169456482</distance><timeResidual>0.764556884765625</timeResidual><timeUsed>true</timeUsed><horizontalSlownessUsed>false</horizontalSlownessUsed><backazimuthUsed>false</backazimuthUsed><weight>1</weight></arrival><arrival><pickID>de.gempa.tb1.Pick/20250413013942.78787.128091</pickID><phase>P</phase><azimuth>223.19932556152344</azimuth><distance>1.398488998413086</distance><timeResidual>0.05258941650390625</timeResidual><timeUsed>true</timeUsed><horizontalSlownessUsed>false</horizontalSlownessUsed><backazimuthUsed>false</backazimuthUsed><weight>1</weight></arrival><arrival><pickID>de.gempa.tb1.Pick/20250413013943.584521.128093</pickID><phase>P</phase><azimuth>205.1574249267578</azimuth><distance>1.8479626178741455</distance><timeResidual>-0.2946624755859375</timeResidual><timeUsed>true</timeUsed><horizontalSlownessUsed>false</horizontalSlownessUsed><backazimuthUsed>false</backazimuthUsed><weight>1</weight></arrival><arrival><pickID>de.gempa.tb1.Pick/20250413013944.412889.128095</pickID><phase>P</phase><azimuth>237.1246337890625</azimuth><distance>1.2897125482559204</distance><timeResidual>0.4525184631347656</timeResidual><timeUsed>true</timeUsed><horizontalSlownessUsed>false</horizontalSlownessUsed><backazimuthUsed>false</backazimuthUsed><weight>1</weight></arrival><arrival><pickID>de.gempa.tb1.Pick/20250413013946.547146.128097</pickID><phase>P</phase><azimuth>316.99334716796875</azimuth><distance>1.9377394914627075</distance><timeResidual>-0.2343425750732422</timeResidual><timeUsed>true</timeUsed><horizontalSlownessUsed>false</horizontalSlownessUsed><backazimuthUsed>false</backazimuthUsed><weight>1</weight></arrival><arrival><pickID>de.gempa.tb1.Pick/20250413013948.507764.128099</pickID><phase>P</phase><azimuth>212.27235412597656</azimuth><distance>0.906268060207367</distance><timeResidual>0.13258743286132812</timeResidual><timeUsed>true</timeUsed><horizontalSlownessUsed>false</horizontalSlownessUsed><backazimuthUsed>false</backazimuthUsed><weight>1</weight></arrival><arrival><pickID>de.gempa.tb1.Pick/20250413013950.626188.128101</pickID><phase>S</phase><azimuth>268.5799865722656</azimuth><distance>0.7158754467964172</distance><timeResidual>-0.40854835510253906</timeResidual><timeUsed>true</timeUsed><horizontalSlownessUsed>false</horizontalSlownessUsed><backazimuthUsed>false</backazimuthUsed><weight>1</weight></arrival><arrival><pickID>de.gempa.tb1.Pick/20250413013954.61166.128102</pickID><phase>S</phase><azimuth>254.91748046875</azimuth><distance>1.134412169456482</distance><timeResidual>0.36972618103027344</timeResidual><timeUsed>true</timeUsed><horizontalSlownessUsed>false</horizontalSlownessUsed><backazimuthUsed>false</backazimuthUsed><weight>1</weight></arrival><arrival><pickID>de.gempa.tb1.Pick/20250413013959.65627.128105</pickID><phase>S</phase><azimuth>223.19932556152344</azimuth><distance>1.398488998413086</distance><timeResidual>-0.4775257110595703</timeResidual><timeUsed>true</timeUsed><horizontalSlownessUsed>false</horizontalSlownessUsed><backazimuthUsed>false</backazimuthUsed><weight>1</weight></arrival><arrival><pickID>de.gempa.tb1.Pick/20250413014003.891992.128107</pickID><phase>S</phase><azimuth>212.27235412597656</azimuth><distance>0.906268060207367</distance><timeResidual>0.4556484222412109</timeResidual><timeUsed>true</timeUsed><horizontalSlownessUsed>false</horizontalSlownessUsed><backazimuthUsed>false</backazimuthUsed><weight>1</weight></arrival><arrival><pickID>de.gempa.tb1.Pick/20250413014012.650732.128108</pickID><phase>S</phase><azimuth>205.1574249267578</azimuth><distance>1.8479626178741455</distance><timeResidual>-0.5717811584472656</timeResidual><timeUsed>true</timeUsed><horizontalSlownessUsed>false</horizontalSlownessUsed><backazimuthUsed>false</backazimuthUsed><weight>1</weight></arrival><arrival><pickID>de.gempa.tb1.Pick/20250413014013.578407.128109</pickID><phase>S</phase><azimuth>316.99334716796875</azimuth><distance>1.9377394914627075</distance><timeResidual>-0.2323951721191406</timeResidual><timeUsed>true</timeUsed><horizontalSlownessUsed>false</horizontalSlownessUsed><backazimuthUsed>false</backazimuthUsed><weight>1</weight></arrival><arrival><pickID>de.gempa.tb1.Pick/20250413014023.091061.128110</pickID><phase>S</phase><azimuth>237.1246337890625</azimuth><distance>1.2897125482559204</distance><timeResidual>0.17901229858398438</timeResidual><timeUsed>true</timeUsed><horizontalSlownessUsed>false</horizontalSlownessUsed><backazimuthUsed>false</backazimuthUsed><weight>1</weight></arrival><magnitude publicID="de.gempa.tb1.Magnitude/20250413014030.939978.299748"><magnitude><value>2.767912019881809</value></magnitude><type>M</type><methodID>weighted average</methodID><stationCount>4</stationCount></magnitude></origin><event publicID="gempa2025hgnn"><preferredOriginID>de.gempa.tb1.Origin/20250413014023.097964.97717</preferredOriginID><preferredMagnitudeID>de.gempa.tb1.Magnitude/20250413014030.939978.299748</preferredMagnitudeID><description><text>Chile-Bolivia Border Region</text><type>region name</type></description><originReference>de.gempa.tb1.Origin/20250413014023.097964.97717</originReference></event></EventParameters></seiscomp>