<?xml version="1.0" encoding="UTF-8"?>
<seiscomp xmlns="http://geofon.gfz-potsdam.de/ns/seiscomp3-schema/0.13" version="0.13"><EventParameters><pick publicID="de.gempa.tb1.Pick/20250412190716.170572.126151"><time><value>2025-04-12T19:07:09.42Z</value></time><waveformID networkCode="CX" stationCode="PB10" channelCode="HHZ"/><filterID>ITAPER(4)&gt;&gt;BW(4,4,20)</filterID><methodID>AIC</methodID><horizontalSlowness><value>21.276033845640576</value></horizontalSlowness><backazimuth><value>144.29049611513548</value></backazimuth><phaseHint>P</phaseHint><evaluationMode>automatic</evaluationMode><comment><text>519.5572067731648</text><id>DFX:rectilinearity</id></comment><comment><text>7.895234977927902</text><id>SNR</id></comment></pick><pick publicID="de.gempa.tb1.Pick/20250412190719.571356.126153"><time><value>2025-04-12T19:07:14.718393Z</value></time><waveformID networkCode="CX" stationCode="PB03" channelCode="HHZ"/><filterID>ITAPER(4)&gt;&gt;BW(4,4,20)</filterID><methodID>AIC</methodID><horizontalSlowness><value>14.832189382223788</value></horizontalSlowness><backazimuth><value>253.2588277040786</value></backazimuth><phaseHint>P</phaseHint><evaluationMode>automatic</evaluationMode><comment><text>1110.5258572675134</text><id>DFX:rectilinearity</id></comment><comment><text>78.18007161944611</text><id>SNR</id></comment></pick><pick publicID="de.gempa.tb1.Pick/20250412190729.059106.126157"><time><value>2025-04-12T19:07:17.438393Z</value></time><waveformID networkCode="CX" stationCode="PB07" channelCode="HHZ"/><filterID>ITAPER(4)&gt;&gt;BW(4,4,20)</filterID><methodID>AIC</methodID><horizontalSlowness><value>19.289577298833581</value></horizontalSlowness><backazimuth><value>209.0703580042927</value></backazimuth><phaseHint>P</phaseHint><evaluationMode>automatic</evaluationMode><comment><text>4232.3182201684285</text><id>DFX:rectilinearity</id></comment><comment><text>35.729574421846273</text><id>SNR</id></comment></pick><pick publicID="de.gempa.tb1.Pick/20250412190731.571052.126159"><time><value>2025-04-12T19:07:24.358393Z</value></time><waveformID networkCode="CX" stationCode="PB02" channelCode="HHZ"/><filterID>ITAPER(4)&gt;&gt;BW(4,4,20)</filterID><methodID>AIC</methodID><horizontalSlowness><value>8.517888899456462</value></horizontalSlowness><backazimuth><value>191.05883225527032</value></backazimuth><phaseHint>P</phaseHint><evaluationMode>automatic</evaluationMode><comment><text>104.30391068532252</text><id>DFX:rectilinearity</id></comment><comment><text>25.384419460616645</text><id>SNR</id></comment></pick><pick publicID="de.gempa.tb1.Pick/20250412190735.647837.126163"><time><value>2025-04-12T19:07:30.768393Z</value></time><waveformID networkCode="CX" stationCode="PB01" channelCode="HHZ"/><filterID>ITAPER(4)&gt;&gt;BW(4,4,20)</filterID><methodID>AIC</methodID><horizontalSlowness><value>14.782956516045925</value></horizontalSlowness><backazimuth><value>194.66735578748475</value></backazimuth><phaseHint>P</phaseHint><evaluationMode>automatic</evaluationMode><comment><text>86.95819589121619</text><id>DFX:rectilinearity</id></comment><comment><text>28.023800539074713</text><id>SNR</id></comment></pick><pick publicID="de.gempa.tb1.Pick/20250412190738.05593.126165"><time><value>2025-04-12T19:07:24.73Z</value></time><waveformID networkCode="CX" stationCode="PB09" channelCode="HHZ"/><filterID>ITAPER(4)&gt;&gt;BW(4,4,20)</filterID><methodID>AIC</methodID><horizontalSlowness><value>12.575197379348445</value></horizontalSlowness><backazimuth><value>265.7915257921839</value></backazimuth><phaseHint>P</phaseHint><evaluationMode>automatic</evaluationMode><comment><text>79.86140797698735</text><id>DFX:rectilinearity</id></comment><comment><text>58.18588981912978</text><id>SNR</id></comment></pick><pick publicID="de.gempa.tb1.Pick/20250412190744.470968.126171"><time><value>2025-04-12T19:07:31.809999Z</value></time><waveformID networkCode="CX" stationCode="PATCX" channelCode="HHZ"/><filterID>ITAPER(4)&gt;&gt;BW(4,4,20)</filterID><methodID>AIC</methodID><horizontalSlowness><value>22.982788351012985</value></horizontalSlowness><backazimuth><value>257.5014292266423</value></backazimuth><phaseHint>P</phaseHint><evaluationMode>automatic</evaluationMode><comment><text>522.5603572721977</text><id>DFX:rectilinearity</id></comment><comment><text>12.199440961582544</text><id>SNR</id></comment></pick><origin publicID="de.gempa.tb1.Origin/20250412190744.474415.90196"><time><value>2025-04-12T19:06:55.958712Z</value><uncertainty>0.5846705436706543</uncertainty></time><latitude><value>-22.804813385009766</value><uncertainty>5.288412094116211</uncertainty></latitude><longitude><value>-70.42736053466797</value><uncertainty>12.58019256591797</uncertainty></longitude><depth><value>0</value></depth><depthType>operator assigned</depthType><methodID>LOCSAT</methodID><earthModelID>iasp91_scanloc</earthModelID><quality><associatedPhaseCount>7</associatedPhaseCount><usedPhaseCount>7</usedPhaseCount><associatedStationCount>7</associatedStationCount><usedStationCount>7</usedStationCount><depthPhaseCount>0</depthPhaseCount><standardError>0.7064090471605019</standardError><azimuthalGap>178.04775476455688</azimuthalGap><maximumDistance>1.9908655881881714</maximumDistance><minimumDistance>0.7149050831794739</minimumDistance><medianDistance>1.487419843673706</medianDistance></quality><uncertainty><minHorizontalUncertainty>7.453857421875</minHorizontalUncertainty><maxHorizontalUncertainty>28.30315589904785</maxHorizontalUncertainty><azimuthMaxHorizontalUncertainty>108.24650573730469</azimuthMaxHorizontalUncertainty><preferredDescription>horizontal uncertainty</preferredDescription></uncertainty><evaluationMode>automatic</evaluationMode><evaluationStatus>confirmed</evaluationStatus><comment><text>0.38</text><id>mismatchScore</id></comment><comment><text>mismatchScore</text><id>scevalMethod</id></comment><arrival><pickID>de.gempa.tb1.Pick/20250412190716.170572.126151</pickID><phase>P</phase><azimuth>189.36416625976562</azimuth><distance>0.7149050831794739</distance><timeResidual>-0.2499542236328125</timeResidual><timeUsed>true</timeUsed><horizontalSlownessUsed>false</horizontalSlownessUsed><backazimuthUsed>false</backazimuthUsed><weight>1</weight></arrival><arrival><pickID>de.gempa.tb1.Pick/20250412190719.571356.126153</pickID><phase>P</phase><azimuth>39.78038024902344</azimuth><distance>0.977665901184082</distance><timeResidual>0.006827354431152344</timeResidual><timeUsed>true</timeUsed><horizontalSlownessUsed>false</horizontalSlownessUsed><backazimuthUsed>false</backazimuthUsed><weight>1</weight></arrival><arrival><pickID>de.gempa.tb1.Pick/20250412190729.059106.126157</pickID><phase>P</phase><azimuth>25.14501953125</azimuth><distance>1.1843111515045166</distance><timeResidual>-1.2370004653930664</timeResidual><timeUsed>true</timeUsed><horizontalSlownessUsed>false</horizontalSlownessUsed><backazimuthUsed>false</backazimuthUsed><weight>1</weight></arrival><arrival><pickID>de.gempa.tb1.Pick/20250412190731.571052.126159</pickID><phase>P</phase><azimuth>18.543506622314453</azimuth><distance>1.5579413175582886</distance><timeResidual>-0.5637197494506836</timeResidual><timeUsed>true</timeUsed><horizontalSlownessUsed>false</horizontalSlownessUsed><backazimuthUsed>false</backazimuthUsed><weight>1</weight></arrival><arrival><pickID>de.gempa.tb1.Pick/20250412190735.647837.126163</pickID><phase>P</phase><azimuth>26.643369674682617</azimuth><distance>1.9582849740982056</distance><timeResidual>0.3359556198120117</timeResidual><timeUsed>true</timeUsed><horizontalSlownessUsed>false</horizontalSlownessUsed><backazimuthUsed>false</backazimuthUsed><weight>1</weight></arrival><arrival><pickID>de.gempa.tb1.Pick/20250412190738.05593.126165</pickID><phase>P</phase><azimuth>47.79218673706055</azimuth><distance>1.487419843673706</distance><timeResidual>0.7790603637695312</timeResidual><timeUsed>true</timeUsed><horizontalSlownessUsed>false</horizontalSlownessUsed><backazimuthUsed>false</backazimuthUsed><weight>1</weight></arrival><arrival><pickID>de.gempa.tb1.Pick/20250412190744.470968.126171</pickID><phase>P</phase><azimuth>7.41192102432251</azimuth><distance>1.9908655881881714</distance><timeResidual>0.9288816452026367</timeResidual><timeUsed>true</timeUsed><horizontalSlownessUsed>false</horizontalSlownessUsed><backazimuthUsed>false</backazimuthUsed><weight>1</weight></arrival><magnitude publicID="de.gempa.tb1.Magnitude/20250412190744.47881.267798"><magnitude><value>2.836185925833926</value></magnitude><type>M</type><methodID>weighted average</methodID><stationCount>7</stationCount></magnitude></origin><event publicID="gempa2025hgal"><preferredOriginID>de.gempa.tb1.Origin/20250412190744.474415.90196</preferredOriginID><preferredMagnitudeID>de.gempa.tb1.Magnitude/20250412190744.47881.267798</preferredMagnitudeID><description><text>Near Coast of Northern Chile</text><type>region name</type></description><originReference>de.gempa.tb1.Origin/20250412190744.474415.90196</originReference></event></EventParameters></seiscomp>