<?xml version="1.0" encoding="UTF-8"?>
<seiscomp xmlns="http://geofon.gfz-potsdam.de/ns/seiscomp3-schema/0.13" version="0.13"><EventParameters><pick publicID="de.gempa.tb1.Pick/20250412155721.956824.125108"><time><value>2025-04-12T15:57:16.44Z</value></time><waveformID networkCode="CX" stationCode="PB09" channelCode="HHZ"/><filterID>ITAPER(4)&gt;&gt;BW(4,4,20)</filterID><methodID>AIC</methodID><horizontalSlowness><value>20.594450303077508</value></horizontalSlowness><backazimuth><value>79.39003021627563</value></backazimuth><phaseHint>P</phaseHint><evaluationMode>automatic</evaluationMode><comment><text>18.307545441643207</text><id>DFX:rectilinearity</id></comment><comment><text>30.603203852268525</text><id>SNR</id></comment></pick><pick publicID="de.gempa.tb1.Pick/20250412155725.612374.125110"><time><value>2025-04-12T15:57:20.798394Z</value></time><waveformID networkCode="CX" stationCode="PB03" channelCode="HHZ"/><filterID>ITAPER(4)&gt;&gt;BW(4,4,20)</filterID><methodID>AIC</methodID><horizontalSlowness><value>8.243649514464884</value></horizontalSlowness><backazimuth><value>84.79881061994655</value></backazimuth><phaseHint>P</phaseHint><evaluationMode>automatic</evaluationMode><comment><text>54.45604769251042</text><id>DFX:rectilinearity</id></comment><comment><text>36.283569847801196</text><id>SNR</id></comment></pick><pick publicID="de.gempa.tb1.Pick/20250412155727.573332.125112"><time><value>2025-04-12T15:57:22.608393Z</value></time><waveformID networkCode="CX" stationCode="PB02" channelCode="HHZ"/><filterID>ITAPER(4)&gt;&gt;BW(4,4,20)</filterID><methodID>AIC</methodID><horizontalSlowness><value>4.0707023058214924</value></horizontalSlowness><backazimuth><value>69.46714290124088</value></backazimuth><phaseHint>P</phaseHint><evaluationMode>automatic</evaluationMode><comment><text>40.129746049690645</text><id>DFX:rectilinearity</id></comment><comment><text>28.21737921429332</text><id>SNR</id></comment></pick><pick publicID="de.gempa.tb1.Pick/20250412155728.53597.125114"><time><value>2025-04-12T15:57:20.198394Z</value></time><waveformID networkCode="CX" stationCode="PB01" channelCode="HHZ"/><filterID>ITAPER(4)&gt;&gt;BW(4,4,20)</filterID><methodID>AIC</methodID><horizontalSlowness><value>10.157339881795435</value></horizontalSlowness><backazimuth><value>141.062262098191</value></backazimuth><phaseHint>P</phaseHint><evaluationMode>automatic</evaluationMode><comment><text>51.85007408443425</text><id>DFX:rectilinearity</id></comment><comment><text>28.388920070955216</text><id>SNR</id></comment></pick><pick publicID="de.gempa.tb1.Pick/20250412155730.611773.125116"><time><value>2025-04-12T15:57:23.068393Z</value></time><waveformID networkCode="CX" stationCode="PB06" channelCode="HHZ"/><filterID>ITAPER(4)&gt;&gt;BW(4,4,20)</filterID><methodID>AIC</methodID><horizontalSlowness><value>18.335528609697015</value></horizontalSlowness><backazimuth><value>323.5794278306917</value></backazimuth><phaseHint>P</phaseHint><evaluationMode>automatic</evaluationMode><comment><text>82.44238841888193</text><id>DFX:rectilinearity</id></comment><comment><text>10.770705338159566</text><id>SNR</id></comment></pick><pick publicID="de.gempa.tb1.Pick/20250412155734.079145.125118"><time><value>2025-04-12T15:57:27.638393Z</value></time><waveformID networkCode="CX" stationCode="PB08" channelCode="HHZ"/><filterID>ITAPER(4)&gt;&gt;BW(4,4,20)</filterID><methodID>AIC</methodID><horizontalSlowness><value>14.646405272856082</value></horizontalSlowness><backazimuth><value>200.63254177392076</value></backazimuth><phaseHint>P</phaseHint><evaluationMode>automatic</evaluationMode><comment><text>17.090934808545626</text><id>DFX:rectilinearity</id></comment><comment><text>8.576496392426581</text><id>SNR</id></comment></pick><pick publicID="de.gempa.tb1.Pick/20250412155734.245828.125120"><time><value>2025-04-12T15:57:27.639999Z</value></time><waveformID networkCode="CX" stationCode="PATCX" channelCode="HHZ"/><filterID>ITAPER(4)&gt;&gt;BW(4,4,20)</filterID><methodID>AIC</methodID><horizontalSlowness><value>17.143271421391617</value></horizontalSlowness><backazimuth><value>52.64976223043217</value></backazimuth><phaseHint>P</phaseHint><evaluationMode>automatic</evaluationMode><comment><text>271.7407830008799</text><id>DFX:rectilinearity</id></comment><comment><text>8.859814465348157</text><id>SNR</id></comment></pick><pick publicID="de.gempa.tb1.Pick/20250412155741.514561.125124"><time><value>2025-04-12T15:57:36.59Z</value></time><waveformID networkCode="CX" stationCode="PB19" channelCode="HHZ"/><filterID>ITAPER(4)&gt;&gt;BW(4,4,20)</filterID><methodID>AIC</methodID><horizontalSlowness><value>9.40461630536573</value></horizontalSlowness><backazimuth><value>261.2408851511493</value></backazimuth><phaseHint>P</phaseHint><evaluationMode>automatic</evaluationMode><comment><text>117922.81680092636</text><id>DFX:rectilinearity</id></comment><comment><text>318.4352495018717</text><id>SNR</id></comment></pick><pick publicID="de.gempa.tb1.Pick/20250412155745.72283.125130"><time><value>2025-04-12T15:57:38.258394Z</value></time><waveformID networkCode="CX" stationCode="PB01" channelCode="HHN"/><filterID>ITAPER(2)&gt;&gt;BW(3,3,20)</filterID><methodID>L2-AIC-GRID</methodID><horizontalSlowness><value>19.883810434842609</value></horizontalSlowness><backazimuth><value>359.1895108902222</value></backazimuth><phaseHint>S</phaseHint><evaluationMode>automatic</evaluationMode><comment><text>1219.1489122232451</text><id>DFX:rectilinearity</id></comment><comment><text>de.gempa.tb1.Pick/20250412155728.53597.125114</text><id>RefPickID</id></comment><comment><text>11.067014824510117</text><id>SNR</id></comment></pick><pick publicID="de.gempa.tb1.Pick/20250412155746.587453.125131"><time><value>2025-04-12T15:57:39.308394Z</value></time><waveformID networkCode="CX" stationCode="PB03" channelCode="HHN"/><filterID>ITAPER(2)&gt;&gt;BW(3,3,20)</filterID><methodID>L2-AIC-GRID</methodID><horizontalSlowness><value>12.175660275326644</value></horizontalSlowness><backazimuth><value>274.00965268930014</value></backazimuth><phaseHint>S</phaseHint><evaluationMode>automatic</evaluationMode><comment><text>193.2410626243662</text><id>DFX:rectilinearity</id></comment><comment><text>de.gempa.tb1.Pick/20250412155725.612374.125110</text><id>RefPickID</id></comment><comment><text>10.522286080846524</text><id>SNR</id></comment></pick><pick publicID="de.gempa.tb1.Pick/20250412155749.601621.125132"><time><value>2025-04-12T15:57:43.288393Z</value></time><waveformID networkCode="CX" stationCode="PB06" channelCode="HHN"/><filterID>ITAPER(2)&gt;&gt;BW(3,3,20)</filterID><methodID>L2-AIC-GRID</methodID><horizontalSlowness><value>20.035159038815177</value></horizontalSlowness><backazimuth><value>14.369002167202524</value></backazimuth><phaseHint>S</phaseHint><evaluationMode>automatic</evaluationMode><comment><text>208.82692363150315</text><id>DFX:rectilinearity</id></comment><comment><text>de.gempa.tb1.Pick/20250412155730.611773.125116</text><id>RefPickID</id></comment><comment><text>14.04822523870945</text><id>SNR</id></comment></pick><pick publicID="de.gempa.tb1.Pick/20250412155750.658811.125134"><time><value>2025-04-12T15:57:42.248393Z</value></time><waveformID networkCode="CX" stationCode="PB02" channelCode="HHN"/><filterID>ITAPER(2)&gt;&gt;BW(3,3,20)</filterID><methodID>L2-AIC-GRID</methodID><horizontalSlowness><value>19.92889596995893</value></horizontalSlowness><backazimuth><value>18.707814181792287</value></backazimuth><phaseHint>S</phaseHint><evaluationMode>automatic</evaluationMode><comment><text>1573.2822092155134</text><id>DFX:rectilinearity</id></comment><comment><text>de.gempa.tb1.Pick/20250412155727.573332.125112</text><id>RefPickID</id></comment><comment><text>7.04880611049804</text><id>SNR</id></comment></pick><pick publicID="de.gempa.tb1.Pick/20250412155756.679656.125138"><time><value>2025-04-12T15:57:51.078393Z</value></time><waveformID networkCode="CX" stationCode="PB08" channelCode="HHN"/><filterID>ITAPER(2)&gt;&gt;BW(3,3,20)</filterID><methodID>L2-AIC-GRID</methodID><horizontalSlowness><value>17.293045265022947</value></horizontalSlowness><backazimuth><value>211.94981937414602</value></backazimuth><phaseHint>S</phaseHint><evaluationMode>automatic</evaluationMode><comment><text>45.0965749209693</text><id>DFX:rectilinearity</id></comment><comment><text>de.gempa.tb1.Pick/20250412155734.079145.125118</text><id>RefPickID</id></comment><comment><text>5.628462023920022</text><id>SNR</id></comment></pick><pick publicID="de.gempa.tb1.Pick/20250412155757.072648.125139"><time><value>2025-04-12T15:57:21.758391Z</value></time><waveformID networkCode="CX" stationCode="PB07" channelCode="HHZ"/><filterID>ITAPER(4)&gt;&gt;BW(4,4,20)</filterID><methodID>AIC</methodID><horizontalSlowness><value>13.986997468770138</value></horizontalSlowness><backazimuth><value>84.82276302516667</value></backazimuth><phaseHint>P</phaseHint><evaluationMode>automatic</evaluationMode><comment><text>544.3118363579085</text><id>DFX:rectilinearity</id></comment><comment><text>98.30581789580685</text><id>SNR</id></comment></pick><pick publicID="de.gempa.tb1.Pick/20250412155759.26489.125142"><time><value>2025-04-12T15:57:50.519999Z</value></time><waveformID networkCode="CX" stationCode="PATCX" channelCode="HHN"/><filterID>ITAPER(2)&gt;&gt;BW(3,3,20)</filterID><methodID>L2-AIC-GRID</methodID><horizontalSlowness><value>21.816108505183863</value></horizontalSlowness><backazimuth><value>42.246662385565486</value></backazimuth><phaseHint>S</phaseHint><evaluationMode>automatic</evaluationMode><comment><text>575.1397011687059</text><id>DFX:rectilinearity</id></comment><comment><text>de.gempa.tb1.Pick/20250412155734.245828.125120</text><id>RefPickID</id></comment><comment><text>8.294305630147145</text><id>SNR</id></comment></pick><origin publicID="de.gempa.tb1.Origin/20250412155800.75547.86527"><time><value>2025-04-12T15:56:58.374034Z</value><uncertainty>0.803996205329895</uncertainty></time><latitude><value>-21.718542098999023</value><uncertainty>3.0083296298980713</uncertainty></latitude><longitude><value>-68.6889419555664</value><uncertainty>8.754289627075195</uncertainty></longitude><depth><value>124.95773315429688</value><uncertainty>11.019789695739746</uncertainty></depth><depthType>from location</depthType><methodID>LOCSAT</methodID><earthModelID>iasp91_scanloc</earthModelID><quality><associatedPhaseCount>15</associatedPhaseCount><usedPhaseCount>15</usedPhaseCount><associatedStationCount>9</associatedStationCount><usedStationCount>9</usedStationCount><depthPhaseCount>0</depthPhaseCount><standardError>0.5457042212585903</standardError><azimuthalGap>209.74465942382812</azimuthalGap><maximumDistance>2.2456693649291992</maximumDistance><minimumDistance>0.5198591351509094</minimumDistance><medianDistance>1.191953420639038</medianDistance></quality><uncertainty><minHorizontalUncertainty>6.439682006835938</minHorizontalUncertainty><maxHorizontalUncertainty>18.773542404174805</maxHorizontalUncertainty><azimuthMaxHorizontalUncertainty>91.19186401367188</azimuthMaxHorizontalUncertainty><preferredDescription>horizontal uncertainty</preferredDescription></uncertainty><evaluationMode>automatic</evaluationMode><evaluationStatus>confirmed</evaluationStatus><comment><text>0.03</text><id>mismatchScore</id></comment><comment><text>mismatchScore</text><id>scevalMethod</id></comment><arrival><pickID>de.gempa.tb1.Pick/20250412155721.956824.125108</pickID><phase>P</phase><azimuth>261.3293151855469</azimuth><distance>0.5198591351509094</distance><timeResidual>-0.5765113830566406</timeResidual><timeUsed>true</timeUsed><horizontalSlownessUsed>false</horizontalSlownessUsed><backazimuthUsed>false</backazimuthUsed><weight>1</weight></arrival><arrival><pickID>de.gempa.tb1.Pick/20250412155725.612374.125110</pickID><phase>P</phase><azimuth>251.42771911621094</azimuth><distance>1.0414948463439941</distance><timeResidual>-0.4753341674804688</timeResidual><timeUsed>true</timeUsed><horizontalSlownessUsed>false</horizontalSlownessUsed><backazimuthUsed>false</backazimuthUsed><weight>1</weight></arrival><arrival><pickID>de.gempa.tb1.Pick/20250412155727.573332.125112</pickID><phase>P</phase><azimuth>289.2266540527344</azimuth><distance>1.191953420639038</distance><timeResidual>-0.19037437438964844</timeResidual><timeUsed>true</timeUsed><horizontalSlownessUsed>false</horizontalSlownessUsed><backazimuthUsed>false</backazimuthUsed><weight>1</weight></arrival><arrival><pickID>de.gempa.tb1.Pick/20250412155728.53597.125114</pickID><phase>P</phase><azimuth>311.9368896484375</azimuth><distance>1.0026609897613525</distance><timeResidual>-0.7050247192382812</timeResidual><timeUsed>true</timeUsed><horizontalSlownessUsed>false</horizontalSlownessUsed><backazimuthUsed>false</backazimuthUsed><weight>1</weight></arrival><arrival><pickID>de.gempa.tb1.Pick/20250412155730.611773.125116</pickID><phase>P</phase><azimuth>219.6207275390625</azimuth><distance>1.2785780429840088</distance><timeResidual>-0.6390628814697266</timeResidual><timeUsed>true</timeUsed><horizontalSlownessUsed>false</horizontalSlownessUsed><backazimuthUsed>false</backazimuthUsed><weight>1</weight></arrival><arrival><pickID>de.gempa.tb1.Pick/20250412155734.079145.125118</pickID><phase>P</phase><azimuth>344.4539794921875</azimuth><distance>1.6284759044647217</distance><timeResidual>-0.01831817626953125</timeResidual><timeUsed>true</timeUsed><horizontalSlownessUsed>false</horizontalSlownessUsed><backazimuthUsed>false</backazimuthUsed><weight>1</weight></arrival><arrival><pickID>de.gempa.tb1.Pick/20250412155734.245828.125120</pickID><phase>P</phase><azimuth>302.9309997558594</azimuth><distance>1.6316996812820435</distance><timeResidual>-0.05030632019042969</timeResidual><timeUsed>true</timeUsed><horizontalSlownessUsed>false</horizontalSlownessUsed><backazimuthUsed>false</backazimuthUsed><weight>1</weight></arrival><arrival><pickID>de.gempa.tb1.Pick/20250412155741.514561.125124</pickID><phase>P</phase><azimuth>194.19863891601562</azimuth><distance>2.2456693649291992</distance><timeResidual>1.4348716735839844</timeResidual><timeUsed>true</timeUsed><horizontalSlownessUsed>false</horizontalSlownessUsed><backazimuthUsed>false</backazimuthUsed><weight>1</weight></arrival><arrival><pickID>de.gempa.tb1.Pick/20250412155745.72283.125130</pickID><phase>S</phase><azimuth>311.9368896484375</azimuth><distance>1.0026609897613525</distance><timeResidual>-0.07687568664550781</timeResidual><timeUsed>true</timeUsed><horizontalSlownessUsed>false</horizontalSlownessUsed><backazimuthUsed>false</backazimuthUsed><weight>1</weight></arrival><arrival><pickID>de.gempa.tb1.Pick/20250412155746.587453.125131</pickID><phase>S</phase><azimuth>251.42771911621094</azimuth><distance>1.0414948463439941</distance><timeResidual>0.3109626770019531</timeResidual><timeUsed>true</timeUsed><horizontalSlownessUsed>false</horizontalSlownessUsed><backazimuthUsed>false</backazimuthUsed><weight>1</weight></arrival><arrival><pickID>de.gempa.tb1.Pick/20250412155749.601621.125132</pickID><phase>S</phase><azimuth>219.6207275390625</azimuth><distance>1.2785780429840088</distance><timeResidual>-0.05379676818847656</timeResidual><timeUsed>true</timeUsed><horizontalSlownessUsed>false</horizontalSlownessUsed><backazimuthUsed>false</backazimuthUsed><weight>1</weight></arrival><arrival><pickID>de.gempa.tb1.Pick/20250412155750.658811.125134</pickID><phase>S</phase><azimuth>289.2266540527344</azimuth><distance>1.191953420639038</distance><timeResidual>0.5294265747070312</timeResidual><timeUsed>true</timeUsed><horizontalSlownessUsed>false</horizontalSlownessUsed><backazimuthUsed>false</backazimuthUsed><weight>1</weight></arrival><arrival><pickID>de.gempa.tb1.Pick/20250412155756.679656.125138</pickID><phase>S</phase><azimuth>344.4539794921875</azimuth><distance>1.6284759044647217</distance><timeResidual>0.680196762084961</timeResidual><timeUsed>true</timeUsed><horizontalSlownessUsed>false</horizontalSlownessUsed><backazimuthUsed>false</backazimuthUsed><weight>1</weight></arrival><arrival><pickID>de.gempa.tb1.Pick/20250412155757.072648.125139</pickID><phase>P</phase><azimuth>269.3634948730469</azimuth><distance>1.1132599115371704</distance><timeResidual>-0.23038673400878906</timeResidual><timeUsed>true</timeUsed><horizontalSlownessUsed>false</horizontalSlownessUsed><backazimuthUsed>false</backazimuthUsed><weight>1</weight></arrival><arrival><pickID>de.gempa.tb1.Pick/20250412155759.26489.125142</pickID><phase>S</phase><azimuth>302.9309997558594</azimuth><distance>1.6316996812820435</distance><timeResidual>0.06018257141113281</timeResidual><timeUsed>true</timeUsed><horizontalSlownessUsed>false</horizontalSlownessUsed><backazimuthUsed>false</backazimuthUsed><weight>1</weight></arrival><magnitude publicID="de.gempa.tb1.Magnitude/20250412155851.403694.249652"><magnitude><value>2.631737712084604</value></magnitude><type>M</type><methodID>weighted average</methodID><stationCount>6</stationCount></magnitude></origin><event publicID="gempa2025hfud"><preferredOriginID>de.gempa.tb1.Origin/20250412155800.75547.86527</preferredOriginID><preferredMagnitudeID>de.gempa.tb1.Magnitude/20250412155851.403694.249652</preferredMagnitudeID><description><text>Chile-Bolivia Border Region</text><type>region name</type></description><originReference>de.gempa.tb1.Origin/20250412155800.75547.86527</originReference></event></EventParameters></seiscomp>