<?xml version="1.0" encoding="UTF-8"?>
<seiscomp xmlns="http://geofon.gfz-potsdam.de/ns/seiscomp3-schema/0.13" version="0.13"><EventParameters><pick publicID="de.gempa.tb1.Pick/20250415051425.08447.143710"><time><value>2025-04-15T05:14:18.218393Z</value></time><waveformID networkCode="CX" stationCode="PB08" channelCode="HHZ"/><filterID>ITAPER(4)&gt;&gt;BW(4,4,20)</filterID><methodID>AIC</methodID><horizontalSlowness><value>14.194295476566472</value></horizontalSlowness><backazimuth><value>195.00171866548308</value></backazimuth><phaseHint>P</phaseHint><evaluationMode>automatic</evaluationMode><comment><text>12.120640969115954</text><id>DFX:rectilinearity</id></comment><comment><text>26.539941342010483</text><id>SNR</id></comment></pick><pick publicID="de.gempa.tb1.Pick/20250415051426.57561.143712"><time><value>2025-04-15T05:14:19.818393Z</value></time><waveformID networkCode="CX" stationCode="PB01" channelCode="HHZ"/><filterID>ITAPER(4)&gt;&gt;BW(4,4,20)</filterID><methodID>AIC</methodID><horizontalSlowness><value>6.559077099346178</value></horizontalSlowness><backazimuth><value>34.9246499344589</value></backazimuth><phaseHint>P</phaseHint><evaluationMode>automatic</evaluationMode><comment><text>17.415623113305255</text><id>DFX:rectilinearity</id></comment><comment><text>195.32704151677567</text><id>SNR</id></comment></pick><pick publicID="de.gempa.tb1.Pick/20250415051431.265447.143714"><time><value>2025-04-15T05:14:24.589999Z</value></time><waveformID networkCode="CX" stationCode="PATCX" channelCode="HHZ"/><filterID>ITAPER(4)&gt;&gt;BW(4,4,20)</filterID><methodID>AIC</methodID><horizontalSlowness><value>22.69021974190145</value></horizontalSlowness><backazimuth><value>93.75082481999839</value></backazimuth><phaseHint>P</phaseHint><evaluationMode>automatic</evaluationMode><comment><text>346.85991183181096</text><id>DFX:rectilinearity</id></comment><comment><text>45.74604884271768</text><id>SNR</id></comment></pick><pick publicID="de.gempa.tb1.Pick/20250415051431.45818.143716"><time><value>2025-04-15T05:14:25.298393Z</value></time><waveformID networkCode="CX" stationCode="PB02" channelCode="HHZ"/><filterID>ITAPER(4)&gt;&gt;BW(4,4,20)</filterID><methodID>AIC</methodID><horizontalSlowness><value>7.194384581434741</value></horizontalSlowness><backazimuth><value>29.3131488904811</value></backazimuth><phaseHint>P</phaseHint><evaluationMode>automatic</evaluationMode><comment><text>324.32996105708725</text><id>DFX:rectilinearity</id></comment><comment><text>65.63348964892594</text><id>SNR</id></comment></pick><pick publicID="de.gempa.tb1.Pick/20250415051432.661735.143718"><time><value>2025-04-15T05:14:27.000001Z</value></time><waveformID networkCode="CX" stationCode="PB09" channelCode="HHZ"/><filterID>ITAPER(4)&gt;&gt;BW(4,4,20)</filterID><methodID>AIC</methodID><horizontalSlowness><value>7.618507837360035</value></horizontalSlowness><backazimuth><value>319.19730383072454</value></backazimuth><phaseHint>P</phaseHint><evaluationMode>automatic</evaluationMode><comment><text>17.071946683997606</text><id>DFX:rectilinearity</id></comment><comment><text>56.67839888411778</text><id>SNR</id></comment></pick><pick publicID="de.gempa.tb1.Pick/20250415051436.58017.143720"><time><value>2025-04-15T05:14:27.82Z</value></time><waveformID networkCode="CX" stationCode="PSGCX" channelCode="HHZ"/><filterID>ITAPER(4)&gt;&gt;BW(4,4,20)</filterID><methodID>AIC</methodID><horizontalSlowness><value>12.052488062260595</value></horizontalSlowness><backazimuth><value>104.4331285176884</value></backazimuth><phaseHint>P</phaseHint><evaluationMode>automatic</evaluationMode><comment><text>11.791361186282204</text><id>DFX:rectilinearity</id></comment><comment><text>58.7190720065089</text><id>SNR</id></comment></pick><pick publicID="de.gempa.tb1.Pick/20250415051436.638461.143722"><time><value>2025-04-15T05:14:28.508393Z</value></time><waveformID networkCode="CX" stationCode="PB07" channelCode="HHZ"/><filterID>ITAPER(4)&gt;&gt;BW(4,4,20)</filterID><methodID>AIC</methodID><horizontalSlowness><value>22.047738248270218</value></horizontalSlowness><backazimuth><value>243.41470827922697</value></backazimuth><phaseHint>P</phaseHint><evaluationMode>automatic</evaluationMode><comment><text>253.67595213971617</text><id>DFX:rectilinearity</id></comment><comment><text>70.94309138261275</text><id>SNR</id></comment></pick><pick publicID="de.gempa.tb1.Pick/20250415051436.775892.143724"><time><value>2025-04-15T05:14:30.058393Z</value></time><waveformID networkCode="CX" stationCode="PB08" channelCode="HHN"/><filterID>ITAPER(2)&gt;&gt;BW(3,3,20)</filterID><methodID>L2-AIC-GRID</methodID><horizontalSlowness><value>12.75705264025313</value></horizontalSlowness><backazimuth><value>226.7895185768635</value></backazimuth><phaseHint>S</phaseHint><evaluationMode>automatic</evaluationMode><comment><text>767.320964861161</text><id>DFX:rectilinearity</id></comment><comment><text>de.gempa.tb1.Pick/20250415051425.08447.143710</text><id>RefPickID</id></comment><comment><text>20.220821903527447</text><id>SNR</id></comment></pick><pick publicID="de.gempa.tb1.Pick/20250415051438.539593.143725"><time><value>2025-04-15T05:14:31.658393Z</value></time><waveformID networkCode="CX" stationCode="PB03" channelCode="HHZ"/><filterID>ITAPER(4)&gt;&gt;BW(4,4,20)</filterID><methodID>AIC</methodID><horizontalSlowness><value>18.825675284610245</value></horizontalSlowness><backazimuth><value>182.21043661556416</value></backazimuth><phaseHint>P</phaseHint><evaluationMode>automatic</evaluationMode><comment><text>15.238023093034636</text><id>DFX:rectilinearity</id></comment><comment><text>41.148691824606836</text><id>SNR</id></comment></pick><pick publicID="de.gempa.tb1.Pick/20250415051440.787514.143727"><time><value>2025-04-15T05:14:33.388393Z</value></time><waveformID networkCode="CX" stationCode="PB01" channelCode="HHN"/><filterID>ITAPER(2)&gt;&gt;BW(3,3,20)</filterID><methodID>L2-AIC-GRID</methodID><horizontalSlowness><value>21.876683170929592</value></horizontalSlowness><backazimuth><value>209.98343328461436</value></backazimuth><phaseHint>S</phaseHint><evaluationMode>automatic</evaluationMode><comment><text>318.66772027468664</text><id>DFX:rectilinearity</id></comment><comment><text>de.gempa.tb1.Pick/20250415051426.57561.143712</text><id>RefPickID</id></comment><comment><text>6.268253811104397</text><id>SNR</id></comment></pick><pick publicID="de.gempa.tb1.Pick/20250415051449.412595.143728"><time><value>2025-04-15T05:14:42.999999Z</value></time><waveformID networkCode="CX" stationCode="PATCX" channelCode="HHN"/><filterID>ITAPER(2)&gt;&gt;BW(3,3,20)</filterID><methodID>L2-AIC-GRID</methodID><horizontalSlowness><value>23.15502365909018</value></horizontalSlowness><backazimuth><value>20.789135819611545</value></backazimuth><phaseHint>S</phaseHint><evaluationMode>automatic</evaluationMode><comment><text>575.1910428258542</text><id>DFX:rectilinearity</id></comment><comment><text>de.gempa.tb1.Pick/20250415051431.265447.143714</text><id>RefPickID</id></comment><comment><text>7.393708649030258</text><id>SNR</id></comment></pick><pick publicID="de.gempa.tb1.Pick/20250415051450.462308.143729"><time><value>2025-04-15T05:14:37.418391Z</value></time><waveformID networkCode="CX" stationCode="PB06" channelCode="HHZ"/><filterID>ITAPER(4)&gt;&gt;BW(4,4,20)</filterID><methodID>AIC</methodID><horizontalSlowness><value>9.424508973214518</value></horizontalSlowness><backazimuth><value>91.18258574742241</value></backazimuth><phaseHint>P</phaseHint><evaluationMode>automatic</evaluationMode><comment><text>76.38088945437514</text><id>DFX:rectilinearity</id></comment><comment><text>14.078564295512733</text><id>SNR</id></comment></pick><pick publicID="de.gempa.tb1.Pick/20250415051455.600555.143733"><time><value>2025-04-15T05:14:47.47Z</value></time><waveformID networkCode="CX" stationCode="PSGCX" channelCode="HHN"/><filterID>ITAPER(2)&gt;&gt;BW(3,3,20)</filterID><methodID>L2-AIC-GRID</methodID><horizontalSlowness><value>23.32753878055154</value></horizontalSlowness><backazimuth><value>211.56191039350338</value></backazimuth><phaseHint>S</phaseHint><evaluationMode>automatic</evaluationMode><comment><text>37.547513090208483</text><id>DFX:rectilinearity</id></comment><comment><text>de.gempa.tb1.Pick/20250415051436.58017.143720</text><id>RefPickID</id></comment><comment><text>6.113676049136215</text><id>SNR</id></comment></pick><pick publicID="de.gempa.tb1.Pick/20250415051505.407832.143736"><time><value>2025-04-15T05:14:49.848393Z</value></time><waveformID networkCode="CX" stationCode="PB07" channelCode="HHN"/><filterID>ITAPER(2)&gt;&gt;BW(3,3,20)</filterID><methodID>L2-AIC-GRID</methodID><horizontalSlowness><value>22.88473954179331</value></horizontalSlowness><backazimuth><value>79.73676897097447</value></backazimuth><phaseHint>S</phaseHint><evaluationMode>automatic</evaluationMode><comment><text>2760.1392921433853</text><id>DFX:rectilinearity</id></comment><comment><text>de.gempa.tb1.Pick/20250415051436.638461.143722</text><id>RefPickID</id></comment><comment><text>5.012218364847756</text><id>SNR</id></comment></pick><pick publicID="de.gempa.tb1.Pick/20250415051505.608465.143737"><time><value>2025-04-15T05:14:53.628393Z</value></time><waveformID networkCode="CX" stationCode="PB03" channelCode="HHN"/><filterID>ITAPER(2)&gt;&gt;BW(3,3,20)</filterID><methodID>L2-AIC-GRID</methodID><horizontalSlowness><value>9.077497148788755</value></horizontalSlowness><backazimuth><value>221.1210710019355</value></backazimuth><phaseHint>S</phaseHint><evaluationMode>automatic</evaluationMode><comment><text>99.6895583602735</text><id>DFX:rectilinearity</id></comment><comment><text>de.gempa.tb1.Pick/20250415051438.539593.143725</text><id>RefPickID</id></comment><comment><text>7.530461793080292</text><id>SNR</id></comment></pick><pick publicID="de.gempa.tb1.Pick/20250415051519.743017.143739"><time><value>2025-04-15T05:15:08.598391Z</value></time><waveformID networkCode="CX" stationCode="PB06" channelCode="HHN"/><filterID>ITAPER(2)&gt;&gt;BW(3,3,20)</filterID><methodID>L2-AIC-GRID</methodID><horizontalSlowness><value>19.613970828000149</value></horizontalSlowness><backazimuth><value>139.12882741066548</value></backazimuth><phaseHint>S</phaseHint><evaluationMode>automatic</evaluationMode><comment><text>79.37120466581167</text><id>DFX:rectilinearity</id></comment><comment><text>de.gempa.tb1.Pick/20250415051450.462308.143729</text><id>RefPickID</id></comment><comment><text>9.117877992001729</text><id>SNR</id></comment></pick><origin publicID="de.gempa.tb1.Origin/20250415051519.746061.161989"><time><value>2025-04-15T05:14:02.177509Z</value><uncertainty>0.790294349193573</uncertainty></time><latitude><value>-20.488569259643555</value><uncertainty>2.879382610321045</uncertainty></latitude><longitude><value>-68.9428939819336</value><uncertainty>6.120630264282227</uncertainty></longitude><depth><value>104.04063415527344</value><uncertainty>6.399178981781006</uncertainty></depth><depthType>from location</depthType><methodID>LOCSAT</methodID><earthModelID>iasp91_scanloc</earthModelID><quality><associatedPhaseCount>16</associatedPhaseCount><usedPhaseCount>16</usedPhaseCount><associatedStationCount>9</associatedStationCount><usedStationCount>9</usedStationCount><depthPhaseCount>0</depthPhaseCount><standardError>0.6702648707651592</standardError><azimuthalGap>221.83949279785156</azimuthalGap><maximumDistance>2.282691478729248</maximumDistance><minimumDistance>0.3981538712978363</minimumDistance><medianDistance>1.4203914403915405</medianDistance></quality><uncertainty><minHorizontalUncertainty>6.158106327056885</minHorizontalUncertainty><maxHorizontalUncertainty>13.131841659545898</maxHorizontalUncertainty><azimuthMaxHorizontalUncertainty>87.8001937866211</azimuthMaxHorizontalUncertainty><preferredDescription>horizontal uncertainty</preferredDescription></uncertainty><evaluationMode>automatic</evaluationMode><evaluationStatus>confirmed</evaluationStatus><comment><text>0.00</text><id>mismatchScore</id></comment><comment><text>mismatchScore</text><id>scevalMethod</id></comment><arrival><pickID>de.gempa.tb1.Pick/20250415051425.08447.143710</pickID><phase>P</phase><azimuth>330.2140197753906</azimuth><distance>0.3981538712978363</distance><timeResidual>0.4733753204345703</timeResidual><timeUsed>true</timeUsed><horizontalSlownessUsed>false</horizontalSlownessUsed><backazimuthUsed>false</backazimuthUsed><weight>1</weight></arrival><arrival><pickID>de.gempa.tb1.Pick/20250415051426.57561.143712</pickID><phase>P</phase><azimuth>222.62135314941406</azimuth><distance>0.7511389255523682</distance><timeResidual>-0.6210517883300781</timeResidual><timeUsed>true</timeUsed><horizontalSlownessUsed>false</horizontalSlownessUsed><backazimuthUsed>false</backazimuthUsed><weight>1</weight></arrival><arrival><pickID>de.gempa.tb1.Pick/20250415051431.265447.143714</pickID><phase>P</phase><azimuth>253.52996826171875</azimuth><distance>1.1803510189056396</distance><timeResidual>-0.3084850311279297</timeResidual><timeUsed>true</timeUsed><horizontalSlownessUsed>false</horizontalSlownessUsed><backazimuthUsed>false</backazimuthUsed><weight>1</weight></arrival><arrival><pickID>de.gempa.tb1.Pick/20250415051431.45818.143716</pickID><phase>P</phase><azimuth>226.9701232910156</azimuth><distance>1.2157570123672485</distance><timeResidual>-0.000743865966796875</timeResidual><timeUsed>true</timeUsed><horizontalSlownessUsed>false</horizontalSlownessUsed><backazimuthUsed>false</backazimuthUsed><weight>1</weight></arrival><arrival><pickID>de.gempa.tb1.Pick/20250415051432.661735.143718</pickID><phase>P</phase><azimuth>192.0535125732422</azimuth><distance>1.3309144973754883</distance><timeResidual>0.366363525390625</timeResidual><timeUsed>true</timeUsed><horizontalSlownessUsed>false</horizontalSlownessUsed><backazimuthUsed>false</backazimuthUsed><weight>1</weight></arrival><arrival><pickID>de.gempa.tb1.Pick/20250415051436.58017.143720</pickID><phase>P</phase><azimuth>308.4317626953125</azimuth><distance>1.4203914403915405</distance><timeResidual>0.1134805679321289</timeResidual><timeUsed>true</timeUsed><horizontalSlownessUsed>false</horizontalSlownessUsed><backazimuthUsed>false</backazimuthUsed><weight>1</weight></arrival><arrival><pickID>de.gempa.tb1.Pick/20250415051436.638461.143722</pickID><phase>P</phase><azimuth>215.3944549560547</azimuth><distance>1.5143884420394897</distance><timeResidual>-0.32323646545410156</timeResidual><timeUsed>true</timeUsed><horizontalSlownessUsed>false</horizontalSlownessUsed><backazimuthUsed>false</backazimuthUsed><weight>1</weight></arrival><arrival><pickID>de.gempa.tb1.Pick/20250415051436.775892.143724</pickID><phase>S</phase><azimuth>330.2140197753906</azimuth><distance>0.3981538712978363</distance><timeResidual>0.3486461639404297</timeResidual><timeUsed>true</timeUsed><horizontalSlownessUsed>false</horizontalSlownessUsed><backazimuthUsed>false</backazimuthUsed><weight>1</weight></arrival><arrival><pickID>de.gempa.tb1.Pick/20250415051438.539593.143725</pickID><phase>P</phase><azimuth>205.814208984375</azimuth><distance>1.7263493537902832</distance><timeResidual>0.2102069854736328</timeResidual><timeUsed>true</timeUsed><horizontalSlownessUsed>false</horizontalSlownessUsed><backazimuthUsed>false</backazimuthUsed><weight>1</weight></arrival><arrival><pickID>de.gempa.tb1.Pick/20250415051440.787514.143727</pickID><phase>S</phase><azimuth>222.62135314941406</azimuth><distance>0.7511389255523682</distance><timeResidual>-1.117706298828125</timeResidual><timeUsed>true</timeUsed><horizontalSlownessUsed>false</horizontalSlownessUsed><backazimuthUsed>false</backazimuthUsed><weight>1</weight></arrival><arrival><pickID>de.gempa.tb1.Pick/20250415051449.412595.143728</pickID><phase>S</phase><azimuth>253.52996826171875</azimuth><distance>1.1803510189056396</distance><timeResidual>0.5402183532714844</timeResidual><timeUsed>true</timeUsed><horizontalSlownessUsed>false</horizontalSlownessUsed><backazimuthUsed>false</backazimuthUsed><weight>1</weight></arrival><arrival><pickID>de.gempa.tb1.Pick/20250415051450.462308.143729</pickID><phase>P</phase><azimuth>194.74423217773438</azimuth><distance>2.282691478729248</distance><timeResidual>-1.1505050659179688</timeResidual><timeUsed>true</timeUsed><horizontalSlownessUsed>false</horizontalSlownessUsed><backazimuthUsed>false</backazimuthUsed><weight>1</weight></arrival><arrival><pickID>de.gempa.tb1.Pick/20250415051455.600555.143733</pickID><phase>S</phase><azimuth>308.4317626953125</azimuth><distance>1.4203914403915405</distance><timeResidual>-0.007358551025390625</timeResidual><timeUsed>true</timeUsed><horizontalSlownessUsed>false</horizontalSlownessUsed><backazimuthUsed>false</backazimuthUsed><weight>1</weight></arrival><arrival><pickID>de.gempa.tb1.Pick/20250415051505.407832.143736</pickID><phase>S</phase><azimuth>215.3944549560547</azimuth><distance>1.5143884420394897</distance><timeResidual>0.35613441467285156</timeResidual><timeUsed>true</timeUsed><horizontalSlownessUsed>false</horizontalSlownessUsed><backazimuthUsed>false</backazimuthUsed><weight>1</weight></arrival><arrival><pickID>de.gempa.tb1.Pick/20250415051505.608465.143737</pickID><phase>S</phase><azimuth>205.814208984375</azimuth><distance>1.7263493537902832</distance><timeResidual>-0.5458164215087891</timeResidual><timeUsed>true</timeUsed><horizontalSlownessUsed>false</horizontalSlownessUsed><backazimuthUsed>false</backazimuthUsed><weight>1</weight></arrival><arrival><pickID>de.gempa.tb1.Pick/20250415051519.743017.143739</pickID><phase>S</phase><azimuth>194.74423217773438</azimuth><distance>2.282691478729248</distance><timeResidual>1.6662044525146484</timeResidual><timeUsed>true</timeUsed><horizontalSlownessUsed>false</horizontalSlownessUsed><backazimuthUsed>false</backazimuthUsed><weight>1</weight></arrival><magnitude publicID="de.gempa.tb1.Magnitude/20250415051525.940034.574618"><magnitude><value>2.2797778398035193</value></magnitude><type>M</type><methodID>weighted average</methodID><stationCount>6</stationCount></magnitude></origin><event publicID="gempa2025hkmt"><preferredOriginID>de.gempa.tb1.Origin/20250415051519.746061.161989</preferredOriginID><preferredMagnitudeID>de.gempa.tb1.Magnitude/20250415051525.940034.574618</preferredMagnitudeID><description><text>Chile-Bolivia Border Region</text><type>region name</type></description><originReference>de.gempa.tb1.Origin/20250415051519.746061.161989</originReference></event></EventParameters></seiscomp>