<?xml version="1.0" encoding="UTF-8"?>
<seiscomp xmlns="http://geofon.gfz-potsdam.de/ns/seiscomp3-schema/0.13" version="0.13"><EventParameters><pick publicID="de.gempa.tb1.Pick/20250414143148.534606.138581"><time><value>2025-04-14T14:31:44.358393Z</value></time><waveformID networkCode="CX" stationCode="PB02" channelCode="HHZ"/><filterID>ITAPER(4)&gt;&gt;BW(4,4,20)</filterID><methodID>AIC</methodID><horizontalSlowness><value>21.552531448667285</value></horizontalSlowness><backazimuth><value>280.914332859741</value></backazimuth><phaseHint>P</phaseHint><evaluationMode>automatic</evaluationMode><comment><text>11.592951196481357</text><id>DFX:rectilinearity</id></comment><comment><text>8.50454417924176</text><id>SNR</id></comment></pick><pick publicID="de.gempa.tb1.Pick/20250414143149.718597.138583"><time><value>2025-04-14T14:31:41.818393Z</value></time><waveformID networkCode="CX" stationCode="PB01" channelCode="HHZ"/><filterID>ITAPER(4)&gt;&gt;BW(4,4,20)</filterID><methodID>AIC</methodID><horizontalSlowness><value>22.795096473017466</value></horizontalSlowness><backazimuth><value>309.06686163700374</value></backazimuth><phaseHint>P</phaseHint><evaluationMode>automatic</evaluationMode><comment><text>13.852305104579056</text><id>DFX:rectilinearity</id></comment><comment><text>7.20539404539485</text><id>SNR</id></comment></pick><pick publicID="de.gempa.tb1.Pick/20250414143153.13057.138587"><time><value>2025-04-14T14:31:32.68Z</value></time><waveformID networkCode="CX" stationCode="PB09" channelCode="HHZ"/><filterID>ITAPER(4)&gt;&gt;BW(4,4,20)</filterID><methodID>AIC</methodID><horizontalSlowness><value>17.507930848093196</value></horizontalSlowness><backazimuth><value>299.6816095947137</value></backazimuth><phaseHint>P</phaseHint><evaluationMode>automatic</evaluationMode><comment><text>6.348841167568053</text><id>DFX:rectilinearity</id></comment><comment><text>22.823381918249147</text><id>SNR</id></comment></pick><pick publicID="de.gempa.tb1.Pick/20250414143154.530405.138590"><time><value>2025-04-14T14:31:44.048396Z</value></time><waveformID networkCode="CX" stationCode="PB07" channelCode="HHZ"/><filterID>ITAPER(4)&gt;&gt;BW(4,4,20)</filterID><methodID>AIC</methodID><horizontalSlowness><value>22.694457099248496</value></horizontalSlowness><backazimuth><value>131.2873299350612</value></backazimuth><phaseHint>P</phaseHint><evaluationMode>automatic</evaluationMode><comment><text>86.81214411065002</text><id>DFX:rectilinearity</id></comment><comment><text>9.97014600932563</text><id>SNR</id></comment></pick><pick publicID="de.gempa.tb1.Pick/20250414143211.62591.138601"><time><value>2025-04-14T14:32:00.288393Z</value></time><waveformID networkCode="CX" stationCode="PB01" channelCode="HHN"/><filterID>ITAPER(2)&gt;&gt;BW(3,3,20)</filterID><methodID>L2-AIC-GRID</methodID><horizontalSlowness><value>21.361769043808717</value></horizontalSlowness><backazimuth><value>170.39882659727053</value></backazimuth><phaseHint>S</phaseHint><evaluationMode>automatic</evaluationMode><comment><text>13.087987821414027</text><id>DFX:rectilinearity</id></comment><comment><text>de.gempa.tb1.Pick/20250414143149.718597.138583</text><id>RefPickID</id></comment><comment><text>12.340630448515208</text><id>SNR</id></comment></pick><pick publicID="de.gempa.tb1.Pick/20250414143229.774899.138615"><time><value>2025-04-14T14:32:02.088396Z</value></time><waveformID networkCode="CX" stationCode="PB07" channelCode="HHN"/><filterID>ITAPER(2)&gt;&gt;BW(3,3,20)</filterID><methodID>L2-AIC-GRID</methodID><horizontalSlowness><value>18.919609225628758</value></horizontalSlowness><backazimuth><value>286.31232848800386</value></backazimuth><phaseHint>S</phaseHint><evaluationMode>automatic</evaluationMode><comment><text>114.83633495769296</text><id>DFX:rectilinearity</id></comment><comment><text>de.gempa.tb1.Pick/20250414143154.530405.138590</text><id>RefPickID</id></comment><comment><text>15.774675565397974</text><id>SNR</id></comment></pick><origin publicID="de.gempa.tb1.Origin/20250414143229.781312.140879"><time><value>2025-04-14T14:31:18.038128Z</value><uncertainty>1.465027928352356</uncertainty></time><latitude><value>-21.857694625854492</value><uncertainty>7.857256412506104</uncertainty></latitude><longitude><value>-68.42337799072266</value><uncertainty>8.73672103881836</uncertainty></longitude><depth><value>8.881838798522949</value><uncertainty>7.06014633178711</uncertainty></depth><depthType>from location</depthType><methodID>LOCSAT</methodID><earthModelID>iasp91_scanloc</earthModelID><quality><associatedPhaseCount>6</associatedPhaseCount><usedPhaseCount>6</usedPhaseCount><associatedStationCount>4</associatedStationCount><usedStationCount>4</usedStationCount><depthPhaseCount>0</depthPhaseCount><standardError>0.39261754244914626</standardError><azimuthalGap>325.3587341308594</azimuthalGap><maximumDistance>1.4714046716690063</maximumDistance><minimumDistance>0.7630061507225037</minimumDistance><medianDistance>1.3657459020614624</medianDistance></quality><uncertainty><minHorizontalUncertainty>16.372451782226562</minHorizontalUncertainty><maxHorizontalUncertainty>19.15716552734375</maxHorizontalUncertainty><azimuthMaxHorizontalUncertainty>66.36139678955078</azimuthMaxHorizontalUncertainty><preferredDescription>horizontal uncertainty</preferredDescription></uncertainty><evaluationMode>automatic</evaluationMode><evaluationStatus>confirmed</evaluationStatus><comment><text>0.09</text><id>mismatchScore</id></comment><comment><text>mismatchScore</text><id>scevalMethod</id></comment><arrival><pickID>de.gempa.tb1.Pick/20250414143148.534606.138581</pickID><phase>P</phase><azimuth>291.0644226074219</azimuth><distance>1.4714046716690063</distance><timeResidual>-0.3867216110229492</timeResidual><timeUsed>true</timeUsed><horizontalSlownessUsed>false</horizontalSlownessUsed><backazimuthUsed>false</backazimuthUsed><weight>1</weight></arrival><arrival><pickID>de.gempa.tb1.Pick/20250414143149.718597.138583</pickID><phase>P</phase><azimuth>309.07672119140625</azimuth><distance>1.280350923538208</distance><timeResidual>-0.2917060852050781</timeResidual><timeUsed>true</timeUsed><horizontalSlownessUsed>false</horizontalSlownessUsed><backazimuthUsed>false</backazimuthUsed><weight>1</weight></arrival><arrival><pickID>de.gempa.tb1.Pick/20250414143153.13057.138587</pickID><phase>P</phase><azimuth>274.4354553222656</azimuth><distance>0.7630061507225037</distance><timeResidual>-0.0655984878540039</timeResidual><timeUsed>true</timeUsed><horizontalSlownessUsed>false</horizontalSlownessUsed><backazimuthUsed>false</backazimuthUsed><weight>1</weight></arrival><arrival><pickID>de.gempa.tb1.Pick/20250414143154.530405.138590</pickID><phase>P</phase><azimuth>275.2080993652344</azimuth><distance>1.3657459020614624</distance><timeResidual>0.758183479309082</timeResidual><timeUsed>true</timeUsed><horizontalSlownessUsed>false</horizontalSlownessUsed><backazimuthUsed>false</backazimuthUsed><weight>1</weight></arrival><arrival><pickID>de.gempa.tb1.Pick/20250414143211.62591.138601</pickID><phase>S</phase><azimuth>309.07672119140625</azimuth><distance>1.280350923538208</distance><timeResidual>0.22832298278808594</timeResidual><timeUsed>true</timeUsed><horizontalSlownessUsed>false</horizontalSlownessUsed><backazimuthUsed>false</backazimuthUsed><weight>1</weight></arrival><arrival><pickID>de.gempa.tb1.Pick/20250414143229.774899.138615</pickID><phase>S</phase><azimuth>275.2080993652344</azimuth><distance>1.3657459020614624</distance><timeResidual>-0.24283409118652344</timeResidual><timeUsed>true</timeUsed><horizontalSlownessUsed>false</horizontalSlownessUsed><backazimuthUsed>false</backazimuthUsed><weight>1</weight></arrival><magnitude publicID="de.gempa.tb1.Magnitude/20250414143229.786502.500930"><magnitude><value>2.6923874072083107</value></magnitude><type>M</type><methodID>weighted average</methodID><stationCount>4</stationCount></magnitude></origin><event publicID="gempa2025hjji"><preferredOriginID>de.gempa.tb1.Origin/20250414143229.781312.140879</preferredOriginID><preferredMagnitudeID>de.gempa.tb1.Magnitude/20250414143229.786502.500930</preferredMagnitudeID><description><text>Chile-Bolivia Border Region</text><type>region name</type></description><originReference>de.gempa.tb1.Origin/20250414143229.781312.140879</originReference></event></EventParameters></seiscomp>