<?xml version="1.0" encoding="UTF-8"?>
<seiscomp xmlns="http://geofon.gfz-potsdam.de/ns/seiscomp3-schema/0.13" version="0.13"><EventParameters><pick publicID="de.gempa.tb1.Pick/20250412235645.011504.194442"><time><value>2025-04-12T23:56:37.81Z</value></time><waveformID networkCode="SX" stationCode="GUNZ" channelCode="HHZ"/><filterID>ITAPER(2)&gt;&gt;BW(3,3,20)</filterID><methodID>AIC</methodID><horizontalSlowness><value>22.621596642689735</value></horizontalSlowness><backazimuth><value>83.29620851191719</value></backazimuth><phaseHint>P</phaseHint><evaluationMode>automatic</evaluationMode><comment><text>7.586072276212398</text><id>DFX:rectilinearity</id></comment></pick><pick publicID="de.gempa.tb1.Pick/20250412235645.498967.194444"><time><value>2025-04-12T23:56:36.8675Z</value></time><waveformID networkCode="SX" stationCode="WERN" channelCode="HHZ"/><filterID>ITAPER(2)&gt;&gt;BW(3,3,20)</filterID><methodID>AIC</methodID><horizontalSlowness><value>21.708816425552445</value></horizontalSlowness><backazimuth><value>346.291363140116</value></backazimuth><phaseHint>P</phaseHint><evaluationMode>automatic</evaluationMode><comment><text>307.3314895582086</text><id>DFX:rectilinearity</id></comment></pick><pick publicID="de.gempa.tb1.Pick/20250412235645.605033.194446"><time><value>2025-04-12T23:56:39.05Z</value></time><waveformID networkCode="SX" stationCode="WERD" channelCode="HHZ"/><filterID>ITAPER(2)&gt;&gt;BW(3,3,20)</filterID><methodID>AIC</methodID><horizontalSlowness><value>20.97384703352682</value></horizontalSlowness><backazimuth><value>249.7243590077104</value></backazimuth><phaseHint>P</phaseHint><evaluationMode>automatic</evaluationMode><comment><text>20.092531570099414</text><id>DFX:rectilinearity</id></comment></pick><pick publicID="de.gempa.tb1.Pick/20250412235646.327202.194448"><time><value>2025-04-12T23:56:38.15Z</value></time><waveformID networkCode="SX" stationCode="MULD" channelCode="HHZ"/><filterID>ITAPER(2)&gt;&gt;BW(3,3,20)</filterID><methodID>AIC</methodID><horizontalSlowness><value>23.352518026366713</value></horizontalSlowness><backazimuth><value>172.55672519080213</value></backazimuth><phaseHint>P</phaseHint><evaluationMode>automatic</evaluationMode><comment><text>34.09761454605273</text><id>DFX:rectilinearity</id></comment></pick><pick publicID="de.gempa.tb1.Pick/20250412235646.857663.194452"><time><value>2025-04-12T23:56:38.13Z</value></time><waveformID networkCode="SX" stationCode="TANN" channelCode="HHZ"/><filterID>ITAPER(2)&gt;&gt;BW(3,3,20)</filterID><methodID>AIC</methodID><horizontalSlowness><value>18.432404479098693</value></horizontalSlowness><backazimuth><value>318.8544835274886</value></backazimuth><phaseHint>P</phaseHint><evaluationMode>automatic</evaluationMode><comment><text>61.09352414225164</text><id>DFX:rectilinearity</id></comment></pick><pick publicID="de.gempa.tb1.Pick/20250412235647.49181.194454"><time><value>2025-04-12T23:56:38.3675Z</value></time><waveformID networkCode="SX" stationCode="WERN" channelCode="HHN"/><filterID>ITAPER(3)&gt;&gt;BW(4,3,10)</filterID><methodID>L2-AIC-GRID</methodID><horizontalSlowness><value>21.596766164685963</value></horizontalSlowness><backazimuth><value>345.6307063450565</value></backazimuth><phaseHint>S</phaseHint><evaluationMode>automatic</evaluationMode><comment><text>294.7261955602842</text><id>DFX:rectilinearity</id></comment><comment><text>de.gempa.tb1.Pick/20250412235645.498967.194444</text><id>RefPickID</id></comment></pick><pick publicID="de.gempa.tb1.Pick/20250412235648.065495.194455"><time><value>2025-04-12T23:56:44.49Z</value></time><waveformID networkCode="BW" stationCode="ROTZ" channelCode="HHZ"/><filterID>ITAPER(2)&gt;&gt;BW(3,3,20)</filterID><methodID>AIC</methodID><horizontalSlowness><value>21.61127798073725</value><uncertainty>6.100221891934475</uncertainty></horizontalSlowness><backazimuth><value>54.59664408433339</value><uncertainty>16.22707552938104</uncertainty></backazimuth><phaseHint>P</phaseHint><evaluationMode>automatic</evaluationMode><comment><text>0.5780642751082318</text><id>DFX:rectilinearity</id></comment></pick><pick publicID="de.gempa.tb1.Pick/20250412235649.434166.194457"><time><value>2025-04-12T23:56:40.469999Z</value></time><waveformID networkCode="TH" stationCode="PLN" channelCode="HHZ"/><filterID>ITAPER(2)&gt;&gt;BW(3,3,20)</filterID><methodID>AIC</methodID><horizontalSlowness><value>0.9397914999741785</value></horizontalSlowness><backazimuth><value>86.21928061275885</value></backazimuth><phaseHint>P</phaseHint><evaluationMode>automatic</evaluationMode><comment><text>3.0219422391095647</text><id>DFX:rectilinearity</id></comment></pick><pick publicID="de.gempa.tb1.Pick/20250412235650.649302.194460"><time><value>2025-04-12T23:56:41.85Z</value></time><waveformID networkCode="SX" stationCode="WERD" channelCode="HHN"/><filterID>ITAPER(3)&gt;&gt;BW(4,3,10)</filterID><methodID>L2-AIC-GRID</methodID><horizontalSlowness><value>20.532969343570734</value></horizontalSlowness><backazimuth><value>248.3517715102485</value></backazimuth><phaseHint>S</phaseHint><evaluationMode>automatic</evaluationMode><comment><text>19.364108272816345</text><id>DFX:rectilinearity</id></comment><comment><text>de.gempa.tb1.Pick/20250412235645.605033.194446</text><id>RefPickID</id></comment></pick><pick publicID="de.gempa.tb1.Pick/20250412235650.83997.194463"><time><value>2025-04-12T23:56:40.43Z</value></time><waveformID networkCode="SX" stationCode="TANN" channelCode="HHN"/><filterID>ITAPER(3)&gt;&gt;BW(4,3,10)</filterID><methodID>L2-AIC-GRID</methodID><horizontalSlowness><value>19.077952149763078</value></horizontalSlowness><backazimuth><value>317.4719176695519</value></backazimuth><phaseHint>S</phaseHint><evaluationMode>automatic</evaluationMode><comment><text>68.85822561993352</text><id>DFX:rectilinearity</id></comment><comment><text>de.gempa.tb1.Pick/20250412235646.857663.194452</text><id>RefPickID</id></comment></pick><pick publicID="de.gempa.tb1.Pick/20250412235651.373969.194464"><time><value>2025-04-12T23:56:40.4Z</value></time><waveformID networkCode="SX" stationCode="MULD" channelCode="HHN"/><filterID>ITAPER(3)&gt;&gt;BW(4,3,10)</filterID><methodID>L2-AIC-GRID</methodID><horizontalSlowness><value>23.07269200077293</value></horizontalSlowness><backazimuth><value>336.4250317733645</value></backazimuth><phaseHint>S</phaseHint><evaluationMode>automatic</evaluationMode><comment><text>38.779816483278424</text><id>DFX:rectilinearity</id></comment><comment><text>de.gempa.tb1.Pick/20250412235646.327202.194448</text><id>RefPickID</id></comment></pick><origin publicID="de.gempa.tb1.Origin/20250412235653.74164.191761"><time><value>2025-04-12T23:56:34.212903Z</value><uncertainty>0.7237298488616943</uncertainty></time><latitude><value>50.25944519042969</value><uncertainty>3.7565598487854</uncertainty></latitude><longitude><value>12.512415885925293</value><uncertainty>6.121737480163574</uncertainty></longitude><depth><value>3.665849447250366</value><uncertainty>3.5704731941223145</uncertainty></depth><depthType>from location</depthType><methodID>LOCSAT</methodID><earthModelID>iasp91</earthModelID><quality><associatedPhaseCount>11</associatedPhaseCount><usedPhaseCount>11</usedPhaseCount><associatedStationCount>7</associatedStationCount><usedStationCount>7</usedStationCount><depthPhaseCount>0</depthPhaseCount><standardError>0.28924746414802427</standardError><azimuthalGap>213.82225036621094</azimuthalGap><maximumDistance>0.5310192108154297</maximumDistance><minimumDistance>0.09183759987354279</minimumDistance><medianDistance>0.16764454543590546</medianDistance></quality><uncertainty><minHorizontalUncertainty>6.782017707824707</minHorizontalUncertainty><maxHorizontalUncertainty>13.826346397399902</maxHorizontalUncertainty><azimuthMaxHorizontalUncertainty>111.13898468017578</azimuthMaxHorizontalUncertainty><preferredDescription>horizontal uncertainty</preferredDescription></uncertainty><evaluationMode>automatic</evaluationMode><evaluationStatus>confirmed</evaluationStatus><comment><text>0.34</text><id>mismatchScore</id></comment><comment><text>mismatchScore</text><id>scevalMethod</id></comment><arrival><pickID>de.gempa.tb1.Pick/20250412235645.011504.194442</pickID><phase>P</phase><azimuth>312.01361083984375</azimuth><distance>0.15586315095424652</distance><timeResidual>0.044262170791625977</timeResidual><timeUsed>true</timeUsed><horizontalSlownessUsed>false</horizontalSlownessUsed><backazimuthUsed>false</backazimuthUsed><weight>1</weight></arrival><arrival><pickID>de.gempa.tb1.Pick/20250412235645.498967.194444</pickID><phase>P</phase><azimuth>287.7956237792969</azimuth><distance>0.09183759987354279</distance><timeResidual>0.2857391834259033</timeResidual><timeUsed>true</timeUsed><horizontalSlownessUsed>false</horizontalSlownessUsed><backazimuthUsed>false</backazimuthUsed><weight>1</weight></arrival><arrival><pickID>de.gempa.tb1.Pick/20250412235645.605033.194446</pickID><phase>P</phase><azimuth>325.2021179199219</azimuth><distance>0.2301212102174759</distance><timeResidual>-0.08894491195678711</timeResidual><timeUsed>true</timeUsed><horizontalSlownessUsed>false</horizontalSlownessUsed><backazimuthUsed>false</backazimuthUsed><weight>1</weight></arrival><arrival><pickID>de.gempa.tb1.Pick/20250412235646.327202.194448</pickID><phase>P</phase><azimuth>335.5345458984375</azimuth><distance>0.16764454543590546</distance><timeResidual>0.16646790504455566</timeResidual><timeUsed>true</timeUsed><horizontalSlownessUsed>false</horizontalSlownessUsed><backazimuthUsed>false</backazimuthUsed><weight>1</weight></arrival><arrival><pickID>de.gempa.tb1.Pick/20250412235646.857663.194452</pickID><phase>P</phase><azimuth>348.0751647949219</azimuth><distance>0.1591927707195282</distance><timeResidual>0.30278754234313965</timeResidual><timeUsed>true</timeUsed><horizontalSlownessUsed>false</horizontalSlownessUsed><backazimuthUsed>false</backazimuthUsed><weight>1</weight></arrival><arrival><pickID>de.gempa.tb1.Pick/20250412235647.49181.194454</pickID><phase>S</phase><azimuth>287.7956237792969</azimuth><distance>0.09183759987354279</distance><timeResidual>0.3180234432220459</timeResidual><timeUsed>true</timeUsed><horizontalSlownessUsed>false</horizontalSlownessUsed><backazimuthUsed>false</backazimuthUsed><weight>1</weight></arrival><arrival><pickID>de.gempa.tb1.Pick/20250412235648.065495.194455</pickID><phase>P</phase><azimuth>201.8974151611328</azimuth><distance>0.5310192108154297</distance><timeResidual>-0.21536946296691895</timeResidual><timeUsed>true</timeUsed><horizontalSlownessUsed>false</horizontalSlownessUsed><backazimuthUsed>false</backazimuthUsed><weight>1</weight></arrival><arrival><pickID>de.gempa.tb1.Pick/20250412235649.434166.194457</pickID><phase>P</phase><azimuth>314.9695129394531</azimuth><distance>0.32062339782714844</distance><timeResidual>-0.3426806926727295</timeResidual><timeUsed>true</timeUsed><horizontalSlownessUsed>false</horizontalSlownessUsed><backazimuthUsed>false</backazimuthUsed><weight>1</weight></arrival><arrival><pickID>de.gempa.tb1.Pick/20250412235650.649302.194460</pickID><phase>S</phase><azimuth>325.2021179199219</azimuth><distance>0.2301212102174759</distance><timeResidual>-0.6226999759674072</timeResidual><timeUsed>true</timeUsed><horizontalSlownessUsed>false</horizontalSlownessUsed><backazimuthUsed>false</backazimuthUsed><weight>1</weight></arrival><arrival><pickID>de.gempa.tb1.Pick/20250412235650.83997.194463</pickID><phase>S</phase><azimuth>348.0751647949219</azimuth><distance>0.1591927707195282</distance><timeResidual>0.2262542247772217</timeResidual><timeUsed>true</timeUsed><horizontalSlownessUsed>false</horizontalSlownessUsed><backazimuthUsed>false</backazimuthUsed><weight>1</weight></arrival><arrival><pickID>de.gempa.tb1.Pick/20250412235651.373969.194464</pickID><phase>S</phase><azimuth>335.5345458984375</azimuth><distance>0.16764454543590546</distance><timeResidual>-0.07414007186889648</timeResidual><timeUsed>true</timeUsed><horizontalSlownessUsed>false</horizontalSlownessUsed><backazimuthUsed>false</backazimuthUsed><weight>1</weight></arrival><magnitude publicID="de.gempa.tb1.Magnitude/20250412235745.962359.293922"><magnitude><value>0.591931723310622</value></magnitude><type>M</type><methodID>weighted average</methodID><stationCount>7</stationCount></magnitude></origin><event publicID="gempa2025hgkd"><preferredOriginID>de.gempa.tb1.Origin/20250412235653.74164.191761</preferredOriginID><preferredMagnitudeID>de.gempa.tb1.Magnitude/20250412235745.962359.293922</preferredMagnitudeID><description><text>Germany</text><type>region name</type></description><originReference>de.gempa.tb1.Origin/20250412235653.74164.191761</originReference></event></EventParameters></seiscomp>