<?xml version="1.0" encoding="UTF-8"?>
<seiscomp xmlns="http://geofon.gfz-potsdam.de/ns/seiscomp3-schema/0.13" version="0.13"><EventParameters><pick publicID="de.gempa.tb1.Pick/20250415033020.32648.143185"><time><value>2025-04-15T03:30:13.42Z</value></time><waveformID networkCode="CX" stationCode="PB09" channelCode="HHZ"/><filterID>ITAPER(4)&gt;&gt;BW(4,4,20)</filterID><methodID>AIC</methodID><horizontalSlowness><value>22.82460105961496</value></horizontalSlowness><backazimuth><value>100.03776031202543</value></backazimuth><phaseHint>P</phaseHint><evaluationMode>automatic</evaluationMode><comment><text>25.60512033974646</text><id>DFX:rectilinearity</id></comment><comment><text>134.52726493476771</text><id>SNR</id></comment></pick><pick publicID="de.gempa.tb1.Pick/20250415033022.49085.143187"><time><value>2025-04-15T03:30:17.038393Z</value></time><waveformID networkCode="CX" stationCode="PB03" channelCode="HHZ"/><filterID>ITAPER(4)&gt;&gt;BW(4,4,20)</filterID><methodID>AIC</methodID><horizontalSlowness><value>14.976251241125455</value></horizontalSlowness><backazimuth><value>356.14208341094366</value></backazimuth><phaseHint>P</phaseHint><evaluationMode>automatic</evaluationMode><comment><text>8.47582525472693</text><id>DFX:rectilinearity</id></comment><comment><text>29.527000890250445</text><id>SNR</id></comment></pick><pick publicID="de.gempa.tb1.Pick/20250415033024.70575.143189"><time><value>2025-04-15T03:30:17.488393Z</value></time><waveformID networkCode="CX" stationCode="PB06" channelCode="HHZ"/><filterID>ITAPER(4)&gt;&gt;BW(4,4,20)</filterID><methodID>AIC</methodID><horizontalSlowness><value>22.205626326945023</value></horizontalSlowness><backazimuth><value>134.5113406939878</value></backazimuth><phaseHint>P</phaseHint><evaluationMode>automatic</evaluationMode><comment><text>81.31892019400836</text><id>DFX:rectilinearity</id></comment><comment><text>28.930503183123943</text><id>SNR</id></comment></pick><pick publicID="de.gempa.tb1.Pick/20250415033025.54708.143191"><time><value>2025-04-15T03:30:21.288393Z</value></time><waveformID networkCode="CX" stationCode="PB02" channelCode="HHZ"/><filterID>ITAPER(4)&gt;&gt;BW(4,4,20)</filterID><methodID>AIC</methodID><horizontalSlowness><value>22.091185998802505</value></horizontalSlowness><backazimuth><value>74.57648103031171</value></backazimuth><phaseHint>P</phaseHint><evaluationMode>automatic</evaluationMode><comment><text>45.66505195529948</text><id>DFX:rectilinearity</id></comment><comment><text>39.16519614056295</text><id>SNR</id></comment></pick><pick publicID="de.gempa.tb1.Pick/20250415033026.973836.143193"><time><value>2025-04-15T03:30:21.478393Z</value></time><waveformID networkCode="CX" stationCode="PB15" channelCode="HHZ"/><filterID>ITAPER(4)&gt;&gt;BW(4,4,20)</filterID><methodID>AIC</methodID><horizontalSlowness><value>22.99739027840682</value></horizontalSlowness><backazimuth><value>107.10838926106793</value></backazimuth><phaseHint>P</phaseHint><evaluationMode>automatic</evaluationMode><comment><text>255.3845697254811</text><id>DFX:rectilinearity</id></comment><comment><text>13.822567178067356</text><id>SNR</id></comment></pick><pick publicID="de.gempa.tb1.Pick/20250415033028.16922.143195"><time><value>2025-04-15T03:30:20.068393Z</value></time><waveformID networkCode="CX" stationCode="PB01" channelCode="HHZ"/><filterID>ITAPER(4)&gt;&gt;BW(4,4,20)</filterID><methodID>AIC</methodID><horizontalSlowness><value>20.801573538406434</value></horizontalSlowness><backazimuth><value>137.17144971715055</value></backazimuth><phaseHint>P</phaseHint><evaluationMode>automatic</evaluationMode><comment><text>13.002592871474931</text><id>DFX:rectilinearity</id></comment><comment><text>35.31934086556268</text><id>SNR</id></comment></pick><pick publicID="de.gempa.tb1.Pick/20250415033033.4316.143197"><time><value>2025-04-15T03:30:27.029999Z</value></time><waveformID networkCode="CX" stationCode="PATCX" channelCode="HHZ"/><filterID>ITAPER(4)&gt;&gt;BW(4,4,20)</filterID><methodID>AIC</methodID><horizontalSlowness><value>20.669008815296102</value></horizontalSlowness><backazimuth><value>47.91919415621035</value></backazimuth><phaseHint>P</phaseHint><evaluationMode>automatic</evaluationMode><comment><text>344.04841666839957</text><id>DFX:rectilinearity</id></comment><comment><text>11.365109539222594</text><id>SNR</id></comment></pick><pick publicID="de.gempa.tb1.Pick/20250415033035.700685.143199"><time><value>2025-04-15T03:30:28.59Z</value></time><waveformID networkCode="CX" stationCode="PB19" channelCode="HHZ"/><filterID>ITAPER(4)&gt;&gt;BW(4,4,20)</filterID><methodID>AIC</methodID><horizontalSlowness><value>22.95117976265958</value></horizontalSlowness><backazimuth><value>183.03492510629872</value></backazimuth><phaseHint>P</phaseHint><evaluationMode>automatic</evaluationMode><comment><text>19.804625257845476</text><id>DFX:rectilinearity</id></comment><comment><text>11.246405163595098</text><id>SNR</id></comment></pick><pick publicID="de.gempa.tb1.Pick/20250415033045.773989.143201"><time><value>2025-04-15T03:30:35.468393Z</value></time><waveformID networkCode="CX" stationCode="PB06" channelCode="HHN"/><filterID>ITAPER(2)&gt;&gt;BW(3,3,20)</filterID><methodID>L2-AIC-GRID</methodID><horizontalSlowness><value>17.49418011751468</value></horizontalSlowness><backazimuth><value>68.70069930388563</value></backazimuth><phaseHint>S</phaseHint><evaluationMode>automatic</evaluationMode><comment><text>365.6733878809918</text><id>DFX:rectilinearity</id></comment><comment><text>de.gempa.tb1.Pick/20250415033024.70575.143189</text><id>RefPickID</id></comment><comment><text>9.806863412397153</text><id>SNR</id></comment></pick><pick publicID="de.gempa.tb1.Pick/20250415033046.545295.143202"><time><value>2025-04-15T03:30:34.598393Z</value></time><waveformID networkCode="CX" stationCode="PB03" channelCode="HHN"/><filterID>ITAPER(2)&gt;&gt;BW(3,3,20)</filterID><methodID>L2-AIC-GRID</methodID><horizontalSlowness><value>15.452048275069048</value></horizontalSlowness><backazimuth><value>278.4741633236004</value></backazimuth><phaseHint>S</phaseHint><evaluationMode>automatic</evaluationMode><comment><text>137.28536212431328</text><id>DFX:rectilinearity</id></comment><comment><text>de.gempa.tb1.Pick/20250415033022.49085.143187</text><id>RefPickID</id></comment><comment><text>9.698562880200779</text><id>SNR</id></comment></pick><pick publicID="de.gempa.tb1.Pick/20250415033046.746282.143203"><time><value>2025-04-15T03:30:38.75Z</value></time><waveformID networkCode="CX" stationCode="PSGCX" channelCode="HHZ"/><filterID>ITAPER(4)&gt;&gt;BW(4,4,20)</filterID><methodID>AIC</methodID><horizontalSlowness><value>19.44945976512314</value></horizontalSlowness><backazimuth><value>58.94237164009837</value></backazimuth><phaseHint>P</phaseHint><evaluationMode>automatic</evaluationMode><comment><text>9.554415141372028</text><id>DFX:rectilinearity</id></comment><comment><text>18.030289353456425</text><id>SNR</id></comment></pick><pick publicID="de.gempa.tb1.Pick/20250415033047.754297.143205"><time><value>2025-04-15T03:30:40.158393Z</value></time><waveformID networkCode="CX" stationCode="PB01" channelCode="HHN"/><filterID>ITAPER(2)&gt;&gt;BW(3,3,20)</filterID><methodID>L2-AIC-GRID</methodID><horizontalSlowness><value>22.333788969135107</value></horizontalSlowness><backazimuth><value>18.162746285409327</value></backazimuth><phaseHint>S</phaseHint><evaluationMode>automatic</evaluationMode><comment><text>192.69758435298212</text><id>DFX:rectilinearity</id></comment><comment><text>de.gempa.tb1.Pick/20250415033028.16922.143195</text><id>RefPickID</id></comment><comment><text>10.851788490294695</text><id>SNR</id></comment></pick><pick publicID="de.gempa.tb1.Pick/20250415033050.025653.143209"><time><value>2025-04-15T03:30:42.088393Z</value></time><waveformID networkCode="CX" stationCode="PB15" channelCode="HHN"/><filterID>ITAPER(2)&gt;&gt;BW(3,3,20)</filterID><methodID>L2-AIC-GRID</methodID><horizontalSlowness><value>21.181790395546923</value></horizontalSlowness><backazimuth><value>138.00499971519773</value></backazimuth><phaseHint>S</phaseHint><evaluationMode>automatic</evaluationMode><comment><text>36240.731357324956</text><id>DFX:rectilinearity</id></comment><comment><text>de.gempa.tb1.Pick/20250415033026.973836.143193</text><id>RefPickID</id></comment><comment><text>15.412468048310762</text><id>SNR</id></comment></pick><pick publicID="de.gempa.tb1.Pick/20250415033050.416996.143210"><time><value>2025-04-15T03:30:41.508393Z</value></time><waveformID networkCode="CX" stationCode="PB02" channelCode="HHN"/><filterID>ITAPER(2)&gt;&gt;BW(3,3,20)</filterID><methodID>L2-AIC-GRID</methodID><horizontalSlowness><value>5.789700135507331</value></horizontalSlowness><backazimuth><value>330.77051901074185</value></backazimuth><phaseHint>S</phaseHint><evaluationMode>automatic</evaluationMode><comment><text>519.1882925061063</text><id>DFX:rectilinearity</id></comment><comment><text>de.gempa.tb1.Pick/20250415033025.54708.143191</text><id>RefPickID</id></comment><comment><text>5.353019659695009</text><id>SNR</id></comment></pick><pick publicID="de.gempa.tb1.Pick/20250415033052.803931.143213"><time><value>2025-04-15T03:30:19.018393Z</value></time><waveformID networkCode="CX" stationCode="PB07" channelCode="HHZ"/><filterID>ITAPER(4)&gt;&gt;BW(4,4,20)</filterID><methodID>AIC</methodID><horizontalSlowness><value>23.07682850698354</value></horizontalSlowness><backazimuth><value>56.06002034121826</value></backazimuth><phaseHint>P</phaseHint><evaluationMode>automatic</evaluationMode><comment><text>398.7760432620915</text><id>DFX:rectilinearity</id></comment><comment><text>85.05013347383942</text><id>SNR</id></comment></pick><pick publicID="de.gempa.tb1.Pick/20250415033101.403101.143219"><time><value>2025-04-15T03:30:52.429999Z</value></time><waveformID networkCode="CX" stationCode="PATCX" channelCode="HHN"/><filterID>ITAPER(2)&gt;&gt;BW(3,3,20)</filterID><methodID>L2-AIC-GRID</methodID><horizontalSlowness><value>23.09271309503885</value></horizontalSlowness><backazimuth><value>286.5317147869328</value></backazimuth><phaseHint>S</phaseHint><evaluationMode>automatic</evaluationMode><comment><text>233.10138808182614</text><id>DFX:rectilinearity</id></comment><comment><text>de.gempa.tb1.Pick/20250415033033.4316.143197</text><id>RefPickID</id></comment><comment><text>10.242575556540736</text><id>SNR</id></comment></pick><pick publicID="de.gempa.tb1.Pick/20250415033104.589187.143220"><time><value>2025-04-15T03:30:54.16Z</value></time><waveformID networkCode="CX" stationCode="PB19" channelCode="HHN"/><filterID>ITAPER(2)&gt;&gt;BW(3,3,20)</filterID><methodID>L2-AIC-GRID</methodID><horizontalSlowness><value>22.000128892723612</value></horizontalSlowness><backazimuth><value>354.72432049818894</value></backazimuth><phaseHint>S</phaseHint><evaluationMode>automatic</evaluationMode><comment><text>108.00074837971849</text><id>DFX:rectilinearity</id></comment><comment><text>de.gempa.tb1.Pick/20250415033035.700685.143199</text><id>RefPickID</id></comment><comment><text>6.557662760068294</text><id>SNR</id></comment></pick><pick publicID="de.gempa.tb1.Pick/20250415033108.527476.143221"><time><value>2025-04-15T03:30:38.128393Z</value></time><waveformID networkCode="CX" stationCode="PB07" channelCode="HHN"/><filterID>ITAPER(2)&gt;&gt;BW(3,3,20)</filterID><methodID>L2-AIC-GRID</methodID><horizontalSlowness><value>21.064918897895506</value></horizontalSlowness><backazimuth><value>271.30201981255777</value></backazimuth><phaseHint>S</phaseHint><evaluationMode>automatic</evaluationMode><comment><text>2948.2914206602104</text><id>DFX:rectilinearity</id></comment><comment><text>de.gempa.tb1.Pick/20250415033052.803931.143213</text><id>RefPickID</id></comment><comment><text>5.961496030232104</text><id>SNR</id></comment></pick><pick publicID="de.gempa.tb1.Pick/20250415033124.784723.143223"><time><value>2025-04-15T03:31:12.57Z</value></time><waveformID networkCode="CX" stationCode="PSGCX" channelCode="HHN"/><filterID>ITAPER(2)&gt;&gt;BW(3,3,20)</filterID><methodID>L2-AIC-GRID</methodID><horizontalSlowness><value>14.91747651842113</value></horizontalSlowness><backazimuth><value>24.76982246412774</value></backazimuth><phaseHint>S</phaseHint><evaluationMode>automatic</evaluationMode><comment><text>15.804577522536906</text><id>DFX:rectilinearity</id></comment><comment><text>de.gempa.tb1.Pick/20250415033046.746282.143203</text><id>RefPickID</id></comment><comment><text>5.048483161867392</text><id>SNR</id></comment></pick><origin publicID="de.gempa.tb1.Origin/20250415033124.792644.159757"><time><value>2025-04-15T03:29:55.110739Z</value><uncertainty>0.6877800226211548</uncertainty></time><latitude><value>-22.03982162475586</value><uncertainty>2.959681987762451</uncertainty></latitude><longitude><value>-68.63519287109375</value><uncertainty>11.260981559753418</uncertainty></longitude><depth><value>120.54129028320312</value><uncertainty>12.45201587677002</uncertainty></depth><depthType>from location</depthType><methodID>LOCSAT</methodID><earthModelID>iasp91_scanloc</earthModelID><quality><associatedPhaseCount>19</associatedPhaseCount><usedPhaseCount>19</usedPhaseCount><associatedStationCount>10</associatedStationCount><usedStationCount>10</usedStationCount><depthPhaseCount>0</depthPhaseCount><standardError>0.43511896526033916</standardError><azimuthalGap>227.96630859375</azimuthalGap><maximumDistance>2.8006715774536133</maximumDistance><minimumDistance>0.6132746934890747</minimumDistance><medianDistance>1.374301791191101</medianDistance></quality><uncertainty><minHorizontalUncertainty>4.798712253570557</minHorizontalUncertainty><maxHorizontalUncertainty>24.492788314819336</maxHorizontalUncertainty><azimuthMaxHorizontalUncertainty>80.05023956298828</azimuthMaxHorizontalUncertainty><preferredDescription>horizontal uncertainty</preferredDescription></uncertainty><evaluationMode>automatic</evaluationMode><evaluationStatus>confirmed</evaluationStatus><comment><text>0.06</text><id>mismatchScore</id></comment><comment><text>mismatchScore</text><id>scevalMethod</id></comment><arrival><pickID>de.gempa.tb1.Pick/20250415033020.32648.143185</pickID><phase>P</phase><azimuth>293.1551513671875</azimuth><distance>0.6132746934890747</distance><timeResidual>-0.4819984436035156</timeResidual><timeUsed>true</timeUsed><horizontalSlownessUsed>false</horizontalSlownessUsed><backazimuthUsed>false</backazimuthUsed><weight>1</weight></arrival><arrival><pickID>de.gempa.tb1.Pick/20250415033022.49085.143187</pickID><phase>P</phase><azimuth>269.3160095214844</azimuth><distance>1.0371888875961304</distance><timeResidual>-0.5578765869140625</timeResidual><timeUsed>true</timeUsed><horizontalSlownessUsed>false</horizontalSlownessUsed><backazimuthUsed>false</backazimuthUsed><weight>1</weight></arrival><arrival><pickID>de.gempa.tb1.Pick/20250415033024.70575.143189</pickID><phase>P</phase><azimuth>232.4269561767578</azimuth><distance>1.0913314819335938</distance><timeResidual>-0.6498756408691406</timeResidual><timeUsed>true</timeUsed><horizontalSlownessUsed>false</horizontalSlownessUsed><backazimuthUsed>false</backazimuthUsed><weight>1</weight></arrival><arrival><pickID>de.gempa.tb1.Pick/20250415033025.54708.143191</pickID><phase>P</phase><azimuth>301.19384765625</azimuth><distance>1.374301791191101</distance><timeResidual>0.10138130187988281</timeResidual><timeUsed>true</timeUsed><horizontalSlownessUsed>false</horizontalSlownessUsed><backazimuthUsed>false</backazimuthUsed><weight>1</weight></arrival><arrival><pickID>de.gempa.tb1.Pick/20250415033026.973836.143193</pickID><phase>P</phase><azimuth>213.42359924316406</azimuth><distance>1.3959821462631226</distance><timeResidual>0.05865859985351562</timeResidual><timeUsed>true</timeUsed><horizontalSlownessUsed>false</horizontalSlownessUsed><backazimuthUsed>false</backazimuthUsed><weight>1</weight></arrival><arrival><pickID>de.gempa.tb1.Pick/20250415033028.16922.143195</pickID><phase>P</phase><azimuth>321.1827392578125</azimuth><distance>1.2700095176696777</distance><timeResidual>0.03278160095214844</timeResidual><timeUsed>true</timeUsed><horizontalSlownessUsed>false</horizontalSlownessUsed><backazimuthUsed>false</backazimuthUsed><weight>1</weight></arrival><arrival><pickID>de.gempa.tb1.Pick/20250415033033.4316.143197</pickID><phase>P</phase><azimuth>310.3490905761719</azimuth><distance>1.8630512952804565</distance><timeResidual>0.08683204650878906</timeResidual><timeUsed>true</timeUsed><horizontalSlownessUsed>false</horizontalSlownessUsed><backazimuthUsed>false</backazimuthUsed><weight>1</weight></arrival><arrival><pickID>de.gempa.tb1.Pick/20250415033035.700685.143199</pickID><phase>P</phase><azimuth>197.90045166015625</azimuth><distance>1.9520573616027832</distance><timeResidual>0.5714130401611328</timeResidual><timeUsed>true</timeUsed><horizontalSlownessUsed>false</horizontalSlownessUsed><backazimuthUsed>false</backazimuthUsed><weight>1</weight></arrival><arrival><pickID>de.gempa.tb1.Pick/20250415033045.773989.143201</pickID><phase>S</phase><azimuth>232.4269561767578</azimuth><distance>1.0913314819335938</distance><timeResidual>-0.4870681762695312</timeResidual><timeUsed>true</timeUsed><horizontalSlownessUsed>false</horizontalSlownessUsed><backazimuthUsed>false</backazimuthUsed><weight>1</weight></arrival><arrival><pickID>de.gempa.tb1.Pick/20250415033046.545295.143202</pickID><phase>S</phase><azimuth>269.3160095214844</azimuth><distance>1.0371888875961304</distance><timeResidual>-0.3892841339111328</timeResidual><timeUsed>true</timeUsed><horizontalSlownessUsed>false</horizontalSlownessUsed><backazimuthUsed>false</backazimuthUsed><weight>1</weight></arrival><arrival><pickID>de.gempa.tb1.Pick/20250415033046.746282.143203</pickID><phase>P</phase><azimuth>329.93414306640625</azimuth><distance>2.8006715774536133</distance><timeResidual>-0.10413551330566406</timeResidual><timeUsed>true</timeUsed><horizontalSlownessUsed>false</horizontalSlownessUsed><backazimuthUsed>false</backazimuthUsed><weight>1</weight></arrival><arrival><pickID>de.gempa.tb1.Pick/20250415033047.754297.143205</pickID><phase>S</phase><azimuth>321.1827392578125</azimuth><distance>1.2700095176696777</distance><timeResidual>0.8177738189697266</timeResidual><timeUsed>true</timeUsed><horizontalSlownessUsed>false</horizontalSlownessUsed><backazimuthUsed>false</backazimuthUsed><weight>1</weight></arrival><arrival><pickID>de.gempa.tb1.Pick/20250415033050.025653.143209</pickID><phase>S</phase><azimuth>213.42359924316406</azimuth><distance>1.3959821462631226</distance><timeResidual>0.2721443176269531</timeResidual><timeUsed>true</timeUsed><horizontalSlownessUsed>false</horizontalSlownessUsed><backazimuthUsed>false</backazimuthUsed><weight>1</weight></arrival><arrival><pickID>de.gempa.tb1.Pick/20250415033050.416996.143210</pickID><phase>S</phase><azimuth>301.19384765625</azimuth><distance>1.374301791191101</distance><timeResidual>0.10989952087402344</timeResidual><timeUsed>true</timeUsed><horizontalSlownessUsed>false</horizontalSlownessUsed><backazimuthUsed>false</backazimuthUsed><weight>1</weight></arrival><arrival><pickID>de.gempa.tb1.Pick/20250415033052.803931.143213</pickID><phase>P</phase><azimuth>284.78131103515625</azimuth><distance>1.2029824256896973</distance><timeResidual>-0.29082489013671875</timeResidual><timeUsed>true</timeUsed><horizontalSlownessUsed>false</horizontalSlownessUsed><backazimuthUsed>false</backazimuthUsed><weight>1</weight></arrival><arrival><pickID>de.gempa.tb1.Pick/20250415033101.403101.143219</pickID><phase>S</phase><azimuth>310.3490905761719</azimuth><distance>1.8630512952804565</distance><timeResidual>0.73712158203125</timeResidual><timeUsed>true</timeUsed><horizontalSlownessUsed>false</horizontalSlownessUsed><backazimuthUsed>false</backazimuthUsed><weight>1</weight></arrival><arrival><pickID>de.gempa.tb1.Pick/20250415033104.589187.143220</pickID><phase>S</phase><azimuth>197.90045166015625</azimuth><distance>1.9520573616027832</distance><timeResidual>0.5392036437988281</timeResidual><timeUsed>t