<?xml version="1.0" encoding="UTF-8"?>
<seiscomp xmlns="http://geofon.gfz-potsdam.de/ns/seiscomp3-schema/0.13" version="0.13"><EventParameters><pick publicID="de.gempa.tb1.Pick/20250412032157.895364.118982"><time><value>2025-04-12T03:21:45.34Z</value></time><waveformID networkCode="NZ" stationCode="TRVZ" locationCode="10" channelCode="HHZ"/><filterID>BW(4,0.7,2)</filterID><methodID>AIC</methodID><horizontalSlowness><value>2.734792319182777</value></horizontalSlowness><backazimuth><value>249.52536576297797</value></backazimuth><phaseHint>P</phaseHint><evaluationMode>automatic</evaluationMode><comment><text>474.9308196689764</text><id>DFX:rectilinearity</id></comment></pick><pick publicID="de.gempa.tb1.Pick/20250412032158.896801.118984"><time><value>2025-04-12T03:21:45.84Z</value></time><waveformID networkCode="NZ" stationCode="FWVZ" locationCode="10" channelCode="HHZ"/><filterID>BW(4,0.7,2)</filterID><methodID>AIC</methodID><horizontalSlowness><value>14.753911823462197</value></horizontalSlowness><backazimuth><value>170.85981068467197</value></backazimuth><phaseHint>P</phaseHint><evaluationMode>automatic</evaluationMode><comment><text>498.3062241417169</text><id>DFX:rectilinearity</id></comment></pick><pick publicID="de.gempa.tb1.Pick/20250412032159.398166.118986"><time><value>2025-04-12T03:21:44.36313Z</value></time><waveformID networkCode="NZ" stationCode="TMVZ" locationCode="10" channelCode="HHZ"/><filterID>BW(4,0.7,2)</filterID><methodID>AIC</methodID><horizontalSlowness><value>3.457761888958926</value></horizontalSlowness><backazimuth><value>289.0122078001608</value></backazimuth><phaseHint>P</phaseHint><evaluationMode>automatic</evaluationMode><comment><text>1745.5313813977607</text><id>DFX:rectilinearity</id></comment></pick><pick publicID="de.gempa.tb1.Pick/20250412032200.399847.118988"><time><value>2025-04-12T03:21:45.58Z</value></time><waveformID networkCode="NZ" stationCode="OTVZ" locationCode="10" channelCode="HHZ"/><filterID>BW(4,0.7,2)</filterID><methodID>AIC</methodID><horizontalSlowness><value>1.7223057941482942</value></horizontalSlowness><backazimuth><value>315.20139792613134</value></backazimuth><phaseHint>P</phaseHint><evaluationMode>automatic</evaluationMode><comment><text>4071.06954459288</text><id>DFX:rectilinearity</id></comment></pick><pick publicID="de.gempa.tb1.Pick/20250412032459.856372.118998"><time><value>2025-04-12T03:23:53.719536Z</value></time><waveformID networkCode="GE" stationCode="PMG" locationCode="00" channelCode="BHZ"/><filterID>BW(4,0.7,2)</filterID><methodID>AIC</methodID><horizontalSlowness><value>9.73987785683744</value></horizontalSlowness><backazimuth><value>97.05576339304417</value></backazimuth><phaseHint>P</phaseHint><evaluationMode>automatic</evaluationMode><comment><text>874.3996635241562</text><id>DFX:rectilinearity</id></comment></pick><pick publicID="de.gempa.tb1.Pick/20250412032700.316696.119004"><time><value>2025-04-12T03:26:39.87186Z</value></time><waveformID networkCode="GE" stationCode="SOEI" channelCode="BHZ"/><filterID>BW(4,0.7,2)</filterID><methodID>AIC</methodID><horizontalSlowness><value>19.994755698005196</value></horizontalSlowness><backazimuth><value>74.64951630480738</value></backazimuth><phaseHint>P</phaseHint><evaluationMode>automatic</evaluationMode><comment><text>23829.3919923624</text><id>DFX:rectilinearity</id></comment></pick><pick publicID="de.gempa.tb1.Pick/20250412032700.75325.119006"><time><value>2025-04-12T03:26:40.919536Z</value></time><waveformID networkCode="GE" stationCode="SANI" channelCode="BHZ"/><filterID>BW(4,0.7,2)</filterID><methodID>AIC</methodID><horizontalSlowness><value>8.899679395538257</value></horizontalSlowness><backazimuth><value>39.66757721002895</value></backazimuth><phaseHint>P</phaseHint><evaluationMode>automatic</evaluationMode><comment><text>271.4455333682605</text><id>DFX:rectilinearity</id></comment></pick><pick publicID="de.gempa.tb1.Pick/20250412032723.060546.119009"><time><value>2025-04-12T03:27:05.069538Z</value></time><waveformID networkCode="GE" stationCode="LUWI" channelCode="BHZ"/><filterID>BW(4,0.7,2)</filterID><methodID>AIC</methodID><horizontalSlowness><value>11.90261605608234</value></horizontalSlowness><backazimuth><value>173.48608659297776</value></backazimuth><phaseHint>P</phaseHint><evaluationMode>automatic</evaluationMode><comment><text>533.9783006436692</text><id>DFX:rectilinearity</id></comment></pick><pick publicID="de.gempa.tb1.Pick/20250412033617.758576.119027"><time><value>2025-04-12T03:36:07.81Z</value></time><waveformID networkCode="PL" stationCode="KWP" channelCode="HHZ"/><methodID>AIC</methodID><horizontalSlowness><value>22.431083984693153</value></horizontalSlowness><backazimuth><value>209.35020608334256</value></backazimuth><phaseHint>P</phaseHint><evaluationMode>automatic</evaluationMode><comment><text>98.04831347050205</text><id>DFX:rectilinearity</id></comment></pick><pick publicID="de.gempa.tb1.Pick/20250412033627.193937.119035"><time><value>2025-04-12T03:36:06.75Z</value></time><waveformID networkCode="GE" stationCode="MORC" channelCode="BHZ"/><filterID>BW(4,0.7,2)</filterID><methodID>AIC</methodID><horizontalSlowness><value>3.3982093137645037</value></horizontalSlowness><backazimuth><value>59.35174451819022</value></backazimuth><phaseHint>P</phaseHint><evaluationMode>automatic</evaluationMode><comment><text>93.197985881473</text><id>DFX:rectilinearity</id></comment></pick><origin publicID="de.gempa.tb1.Origin/20250412033645.286082.80500"><time><value>2025-04-12T03:16:21.343965Z</value><uncertainty>4.844064712524414</uncertainty></time><latitude><value>-16.399545669555664</value><uncertainty>33.52217483520508</uncertainty></latitude><longitude><value>-172.9069061279297</value><uncertainty>78.2050552368164</uncertainty></longitude><depth><value>0</value></depth><depthType>operator assigned</depthType><methodID>LOCSAT</methodID><earthModelID>iasp91</earthModelID><quality><associatedPhaseCount>10</associatedPhaseCount><usedPhaseCount>8</usedPhaseCount><associatedStationCount>10</associatedStationCount><usedStationCount>8</usedStationCount><depthPhaseCount>0</depthPhaseCount><standardError>0.6521188861828375</standardError><azimuthalGap>284.9336242675781</azimuthalGap><maximumDistance>65.10767364501953</maximumDistance><minimumDistance>24.729345321655273</minimumDistance><medianDistance>39.49083709716797</medianDistance></quality><uncertainty><minHorizontalUncertainty>17.3250675201416</minHorizontalUncertainty><maxHorizontalUncertainty>181.6542205810547</maxHorizontalUncertainty><azimuthMaxHorizontalUncertainty>67.30291748046875</azimuthMaxHorizontalUncertainty><preferredDescription>horizontal uncertainty</preferredDescription></uncertainty><evaluationMode>automatic</evaluationMode><comment><text>213.57</text><id>maxGap</id></comment><arrival><pickID>de.gempa.tb1.Pick/20250412032157.895364.118982</pickID><phase>P</phase><azimuth>201.6038818359375</azimuth><distance>24.94748306274414</distance><timeResidual>-0.912506103515625</timeResidual><timeUsed>true</timeUsed><horizontalSlownessUsed>false</horizontalSlownessUsed><backazimuthUsed>false</backazimuthUsed><weight>1</weight></arrival><arrival><pickID>de.gempa.tb1.Pick/20250412032158.896801.118984</pickID><phase>P</phase><azimuth>201.64285278320312</azimuth><distance>24.90666961669922</distance><timeResidual>-0.04132080078125</timeResidual><timeUsed>true</timeUsed><horizontalSlownessUsed>false</horizontalSlownessUsed><backazimuthUsed>false</backazimuthUsed><weight>1</weight></arrival><arrival><pickID>de.gempa.tb1.Pick/20250412032159.398166.118986</pickID><phase>P</phase><azimuth>201.54428100585938</azimuth><distance>24.729345321655273</distance><timeResidual>0.095977783203125</timeResidual><timeUsed>true</timeUsed><horizontalSlownessUsed>false</horizontalSlownessUsed><backazimuthUsed>false</backazimuthUsed><weight>1</weight></arrival><arrival><pickID>de.gempa.tb1.Pick/20250412032200.399847.118988</pickID><phase>P</phase><azimuth>201.55747985839844</azimuth><distance>24.78537940979004</distance><timeResidual>0.802703857421875</timeResidual><timeUsed>true</timeUsed><horizontalSlownessUsed>false</horizontalSlownessUsed><backazimuthUsed>false</backazimuthUsed><weight>1</weight></arrival><arrival><pickID>de.gempa.tb1.Pick/20250412032459.856372.118998</pickID><phase>P</phase><azimuth>275.08685302734375</azimuth><distance>39.49083709716797</distance><timeResidual>-0.02410888671875</timeResidual><timeUsed>true</timeUsed><horizontalSlownessUsed>false</horizontalSlownessUsed><backazimuthUsed>false</backazimuthUsed><weight>1</weight></arrival><arrival><pickID>de.gempa.tb1.Pick/20250412032700.316696.119004</pickID><phase>P</phase><azimuth>267.6975402832031</azimuth><distance>61.35847854614258</distance><timeResidual>0.45904541015625</timeResidual><timeUsed>true</timeUsed><horizontalSlownessUsed>false</horizontalSlownessUsed><backazimuthUsed>false</backazimuthUsed><weight>1</weight></arrival><arrival><pickID>de.gempa.tb1.Pick/20250412032700.75325.119006</pickID><phase>P</phase><azimuth>276.61065673828125</azimuth><distance>61.74024963378906</distance><timeResidual>-1.09283447265625</timeResidual><timeUsed>true</timeUsed><horizontalSlownessUsed>false</horizontalSlownessUsed><backazimuthUsed>false</backazimuthUsed><weight>1</weight></arrival><arrival><pickID>de.gempa.tb1.Pick/20250412032723.060546.119009</pickID><phase>P</phase><azimuth>276.5982971191406</azimuth><distance>65.10767364501953</distance><timeResidual>0.713134765625</timeResidual><timeUsed>true</timeUsed><horizontalSlownessUsed>false</horizontalSlownessUsed><backazimuthUsed>false</backazimuthUsed><weight>1</weight></arrival><arrival><pickID>de.gempa.tb1.Pick/20250412033617.758576.119027</pickID><phase>PKP</phase><azimuth>342.4532470703125</azimuth><distance>144.5132293701172</distance><timeResidual>7.8773193359375</timeResidual><timeUsed>false</timeUsed><horizontalSlownessUsed>false</horizontalSlownessUsed><backazimuthUsed>false</backazimuthUsed><weight>0</weight></arrival><arrival><pickID>de.gempa.tb1.Pick/20250412033627.193937.119035</pickID><phase>PKP</phase><azimuth>347.9731140136719</azimuth><distance>145.64651489257812</distance><timeResidual>4.8253173828125</timeResidual><timeUsed>false</timeUsed><horizontalSlownessUsed>false</horizontalSlownessUsed><backazimuthUsed>false</backazimuthUsed><weight>0</weight></arrival><magnitude publicID="de.gempa.tb1.Magnitude/20250412033645.297804.169638"><magnitude><value>5.035167009149369</value></magnitude><type>M</type><methodID>weighted average</methodID><stationCount>6</stationCount></magnitude></origin><event publicID="gempa2025heut"><preferredOriginID>de.gempa.tb1.Origin/20250412033645.286082.80500</preferredOriginID><preferredMagnitudeID>de.gempa.tb1.Magnitude/20250412033645.297804.169638</preferredMagnitudeID><type>not locatable</type><description><text>Samoa Islands Region</text><type>region name</type></description><originReference>de.gempa.tb1.Origin/20250412033645.286082.80500</originReference></event></EventParameters></seiscomp>