<?xml version="1.0" encoding="UTF-8"?>
<seiscomp xmlns="http://geofon.gfz-potsdam.de/ns/seiscomp3-schema/0.13" version="0.13"><EventParameters><pick publicID="de.gempa.tb1.Pick/20250415070957.251319.117885"><time><value>2025-04-15T07:09:49.689999Z</value></time><waveformID networkCode="CX" stationCode="PATCX" channelCode="HHZ"/><filterID>ITAPER(4)&gt;&gt;BW(4,4,20)</filterID><methodID>AIC</methodID><horizontalSlowness><value>22.811985725755935</value></horizontalSlowness><backazimuth><value>277.68067734410965</value></backazimuth><phaseHint>P</phaseHint><evaluationMode>automatic</evaluationMode><comment><text>144.7356708916067</text><id>DFX:rectilinearity</id></comment><comment><text>12.0615549649357</text><id>SNR</id></comment></pick><pick publicID="de.gempa.tb1.Pick/20250415070958.544151.117887"><time><value>2025-04-15T07:09:53.208393Z</value></time><waveformID networkCode="CX" stationCode="PB03" channelCode="HHZ"/><filterID>ITAPER(4)&gt;&gt;BW(4,4,20)</filterID><methodID>AIC</methodID><horizontalSlowness><value>9.7763564142821</value></horizontalSlowness><backazimuth><value>73.38005626445974</value></backazimuth><phaseHint>P</phaseHint><evaluationMode>automatic</evaluationMode><comment><text>9.113913959963771</text><id>DFX:rectilinearity</id></comment><comment><text>8.653381084588105</text><id>SNR</id></comment></pick><pick publicID="de.gempa.tb1.Pick/20250415071004.531104.117890"><time><value>2025-04-15T07:09:58.218393Z</value></time><waveformID networkCode="CX" stationCode="PB01" channelCode="HHZ"/><filterID>ITAPER(4)&gt;&gt;BW(4,4,20)</filterID><methodID>AIC</methodID><horizontalSlowness><value>20.890587842353948</value></horizontalSlowness><backazimuth><value>300.56674714343444</value></backazimuth><phaseHint>P</phaseHint><evaluationMode>automatic</evaluationMode><comment><text>10.992195892600133</text><id>DFX:rectilinearity</id></comment><comment><text>11.614814555803868</text><id>SNR</id></comment></pick><pick publicID="de.gempa.tb1.Pick/20250415071010.193245.117896"><time><value>2025-04-15T07:10:02.65Z</value></time><waveformID networkCode="CX" stationCode="PB10" channelCode="HHZ"/><filterID>ITAPER(4)&gt;&gt;BW(4,4,20)</filterID><methodID>AIC</methodID><horizontalSlowness><value>22.013639152601538</value></horizontalSlowness><backazimuth><value>36.1268185329663</value></backazimuth><phaseHint>P</phaseHint><evaluationMode>automatic</evaluationMode><comment><text>78.35127763337641</text><id>DFX:rectilinearity</id></comment><comment><text>8.603872560143778</text><id>SNR</id></comment></pick><pick publicID="de.gempa.tb1.Pick/20250415071012.888027.117898"><time><value>2025-04-15T07:09:52.708396Z</value></time><waveformID networkCode="CX" stationCode="PB07" channelCode="HHZ"/><filterID>ITAPER(4)&gt;&gt;BW(4,4,20)</filterID><methodID>AIC</methodID><horizontalSlowness><value>18.083883224351478</value></horizontalSlowness><backazimuth><value>331.18521159393157</value></backazimuth><phaseHint>P</phaseHint><evaluationMode>automatic</evaluationMode><comment><text>233.87049606817627</text><id>DFX:rectilinearity</id></comment><comment><text>13.58225249766385</text><id>SNR</id></comment></pick><pick publicID="de.gempa.tb1.Pick/20250415071016.434095.117901"><time><value>2025-04-15T07:10:06.369999Z</value></time><waveformID networkCode="CX" stationCode="PATCX" channelCode="HHN"/><filterID>ITAPER(2)&gt;&gt;BW(3,3,20)</filterID><methodID>L2-AIC-GRID</methodID><horizontalSlowness><value>23.323147588307</value></horizontalSlowness><backazimuth><value>256.1352784422021</value></backazimuth><phaseHint>S</phaseHint><evaluationMode>automatic</evaluationMode><comment><text>357.5494882622124</text><id>DFX:rectilinearity</id></comment><comment><text>de.gempa.tb1.Pick/20250415070957.251319.117885</text><id>RefPickID</id></comment><comment><text>5.840551924296757</text><id>SNR</id></comment></pick><pick publicID="de.gempa.tb1.Pick/20250415071025.616914.117904"><time><value>2025-04-15T07:10:17.568393Z</value></time><waveformID networkCode="CX" stationCode="PB03" channelCode="HHN"/><filterID>ITAPER(2)&gt;&gt;BW(3,3,20)</filterID><methodID>L2-AIC-GRID</methodID><horizontalSlowness><value>14.200779857325895</value></horizontalSlowness><backazimuth><value>186.21956546242615</value></backazimuth><phaseHint>S</phaseHint><evaluationMode>automatic</evaluationMode><comment><text>560.908280490693</text><id>DFX:rectilinearity</id></comment><comment><text>de.gempa.tb1.Pick/20250415070958.544151.117887</text><id>RefPickID</id></comment><comment><text>5.175540430294027</text><id>SNR</id></comment></pick><pick publicID="de.gempa.tb1.Pick/20250415071027.581979.117906"><time><value>2025-04-15T07:10:20.468393Z</value></time><waveformID networkCode="CX" stationCode="PB01" channelCode="HHN"/><filterID>ITAPER(2)&gt;&gt;BW(3,3,20)</filterID><methodID>L2-AIC-GRID</methodID><horizontalSlowness><value>19.50658918936588</value></horizontalSlowness><backazimuth><value>37.08117344638592</value></backazimuth><phaseHint>S</phaseHint><evaluationMode>automatic</evaluationMode><comment><text>212.88541004787143</text><id>DFX:rectilinearity</id></comment><comment><text>de.gempa.tb1.Pick/20250415071004.531104.117890</text><id>RefPickID</id></comment><comment><text>7.8344657054947</text><id>SNR</id></comment></pick><origin publicID="de.gempa.tb1.Origin/20250415071027.588885.56863"><time><value>2025-04-15T07:09:25.284785Z</value><uncertainty>1.1906218528747559</uncertainty></time><latitude><value>-21.416767120361328</value><uncertainty>8.733322143554688</uncertainty></latitude><longitude><value>-71.33885955810547</value><uncertainty>8.572568893432617</uncertainty></longitude><depth><value>1.0641144514083862</value><uncertainty>7.661756992340088</uncertainty></depth><depthType>from location</depthType><methodID>LOCSAT</methodID><earthModelID>iasp91_scanloc</earthModelID><quality><associatedPhaseCount>8</associatedPhaseCount><usedPhaseCount>8</usedPhaseCount><associatedStationCount>5</associatedStationCount><usedStationCount>5</usedStationCount><depthPhaseCount>0</depthPhaseCount><standardError>0.8671580741374701</standardError><azimuthalGap>261.0728416442871</azimuthalGap><maximumDistance>2.2093405723571777</maximumDistance><minimumDistance>1.2561137676239014</minimumDistance><medianDistance>1.602799892425537</medianDistance></quality><uncertainty><minHorizontalUncertainty>8.857890129089355</minHorizontalUncertainty><maxHorizontalUncertainty>24.7100887298584</maxHorizontalUncertainty><azimuthMaxHorizontalUncertainty>135.68917846679688</azimuthMaxHorizontalUncertainty><preferredDescription>horizontal uncertainty</preferredDescription></uncertainty><evaluationMode>automatic</evaluationMode><evaluationStatus>confirmed</evaluationStatus><comment><text>0.22</text><id>mismatchScore</id></comment><comment><text>mismatchScore</text><id>scevalMethod</id></comment><arrival><pickID>de.gempa.tb1.Pick/20250415070957.251319.117885</pickID><phase>P</phase><azimuth>62.03855514526367</azimuth><distance>1.2561137676239014</distance><timeResidual>0.31096649169921875</timeResidual><timeUsed>true</timeUsed><horizontalSlownessUsed>false</horizontalSlownessUsed><backazimuthUsed>false</backazimuthUsed><weight>1</weight></arrival><arrival><pickID>de.gempa.tb1.Pick/20250415070958.544151.117887</pickID><phase>P</phase><azimuth>113.3819122314453</azimuth><distance>1.602799892425537</distance><timeResidual>-1.528301239013672</timeResidual><timeUsed>true</timeUsed><horizontalSlownessUsed>false</horizontalSlownessUsed><backazimuthUsed>false</backazimuthUsed><weight>1</weight></arrival><arrival><pickID>de.gempa.tb1.Pick/20250415071004.531104.117890</pickID><phase>P</phase><azimuth>78.19056701660156</azimuth><distance>1.7668479681015015</distance><timeResidual>1.222482681274414</timeResidual><timeUsed>true</timeUsed><horizontalSlownessUsed>false</horizontalSlownessUsed><backazimuthUsed>false</backazimuthUsed><weight>1</weight></arrival><arrival><pickID>de.gempa.tb1.Pick/20250415071010.193245.117896</pickID><phase>P</phase><azimuth>160.96571350097656</azimuth><distance>2.2093405723571777</distance><timeResidual>-0.43328094482421875</timeResidual><timeUsed>true</timeUsed><horizontalSlownessUsed>false</horizontalSlownessUsed><backazimuthUsed>false</backazimuthUsed><weight>1</weight></arrival><arrival><pickID>de.gempa.tb1.Pick/20250415071012.888027.117898</pickID><phase>P</phase><azimuth>103.1124496459961</azimuth><distance>1.3868674039840698</distance><timeResidual>0.9828529357910156</timeResidual><timeUsed>true</timeUsed><horizontalSlownessUsed>false</horizontalSlownessUsed><backazimuthUsed>false</backazimuthUsed><weight>1</weight></arrival><arrival><pickID>de.gempa.tb1.Pick/20250415071016.434095.117901</pickID><phase>S</phase><azimuth>62.03855514526367</azimuth><distance>1.2561137676239014</distance><timeResidual>-0.5071048736572266</timeResidual><timeUsed>true</timeUsed><horizontalSlownessUsed>false</horizontalSlownessUsed><backazimuthUsed>false</backazimuthUsed><weight>1</weight></arrival><arrival><pickID>de.gempa.tb1.Pick/20250415071025.616914.117904</pickID><phase>S</phase><azimuth>113.3819122314453</azimuth><distance>1.602799892425537</distance><timeResidual>0.5580883026123047</timeResidual><timeUsed>true</timeUsed><horizontalSlownessUsed>false</horizontalSlownessUsed><backazimuthUsed>false</backazimuthUsed><weight>1</weight></arrival><arrival><pickID>de.gempa.tb1.Pick/20250415071027.581979.117906</pickID><phase>S</phase><azimuth>78.19056701660156</azimuth><distance>1.7668479681015015</distance><timeResidual>-0.6053810119628906</timeResidual><timeUsed>true</timeUsed><horizontalSlownessUsed>false</horizontalSlownessUsed><backazimuthUsed>false</backazimuthUsed><weight>1</weight></arrival><magnitude publicID="de.gempa.tb1.Magnitude/20250415071207.178629.102065"><magnitude><value>2.349473127516604</value></magnitude><type>M</type><methodID>weighted average</methodID><stationCount>5</stationCount></magnitude></origin><event publicID="gempa2025hkqp"><preferredOriginID>de.gempa.tb1.Origin/20250415071027.588885.56863</preferredOriginID><preferredMagnitudeID>de.gempa.tb1.Magnitude/20250415071207.178629.102065</preferredMagnitudeID><description><text>Off Coast of Northern Chile</text><type>region name</type></description><originReference>de.gempa.tb1.Origin/20250415071027.588885.56863</originReference></event></EventParameters></seiscomp>