<?xml version="1.0" encoding="UTF-8"?>
<seiscomp xmlns="http://geofon.gfz-potsdam.de/ns/seiscomp3-schema/0.13" version="0.13"><EventParameters><pick publicID="de.gempa.tb1.Pick/20250411085712.131112.120726"><time><value>2025-04-11T08:57:09.955Z</value></time><waveformID networkCode="CH" stationCode="FIESA" channelCode="HHZ"/><filterID>ITAPER(4)&gt;&gt;BW(4,4,20)</filterID><methodID>AIC</methodID><phaseHint>P</phaseHint><evaluationMode>automatic</evaluationMode></pick><pick publicID="de.gempa.tb1.Pick/20250411085714.133201.120728"><time><value>2025-04-11T08:57:12.058393Z</value></time><waveformID networkCode="CH" stationCode="GRIMS" channelCode="HHZ"/><filterID>ITAPER(4)&gt;&gt;BW(4,4,20)</filterID><methodID>AIC</methodID><phaseHint>P</phaseHint><evaluationMode>automatic</evaluationMode></pick><pick publicID="de.gempa.tb1.Pick/20250411085715.170636.120730"><time><value>2025-04-11T08:57:10.35Z</value></time><waveformID networkCode="CH" stationCode="WIMIS" channelCode="HHZ"/><filterID>ITAPER(4)&gt;&gt;BW(4,4,20)</filterID><methodID>AIC</methodID><phaseHint>P</phaseHint><evaluationMode>automatic</evaluationMode></pick><pick publicID="de.gempa.tb1.Pick/20250411085715.792442.120732"><time><value>2025-04-11T08:57:12.245Z</value></time><waveformID networkCode="CH" stationCode="SIMPL" channelCode="HHZ"/><filterID>ITAPER(4)&gt;&gt;BW(4,4,20)</filterID><methodID>AIC</methodID><phaseHint>P</phaseHint><evaluationMode>automatic</evaluationMode></pick><pick publicID="de.gempa.tb1.Pick/20250411085718.195504.120735"><time><value>2025-04-11T08:57:15.37Z</value></time><waveformID networkCode="CH" stationCode="MMK" channelCode="HHZ"/><filterID>ITAPER(4)&gt;&gt;BW(4,4,20)</filterID><methodID>AIC</methodID><phaseHint>P</phaseHint><evaluationMode>automatic</evaluationMode></pick><pick publicID="de.gempa.tb1.Pick/20250411085718.262784.120738"><time><value>2025-04-11T08:57:13.265Z</value></time><waveformID networkCode="CH" stationCode="WIMIS" channelCode="HHN"/><filterID>RMHP(1)&gt;&gt;ITAPER(2)&gt;&gt;BW(4,3,20)</filterID><methodID>L2-AIC-GRID</methodID><phaseHint>S</phaseHint><evaluationMode>automatic</evaluationMode><comment><text>de.gempa.tb1.Pick/20250411085715.170636.120730</text><id>RefPickID</id></comment></pick><pick publicID="de.gempa.tb1.Pick/20250411085719.280519.120739"><time><value>2025-04-11T08:57:12.89Z</value></time><waveformID networkCode="CH" stationCode="FIESA" channelCode="HHN"/><filterID>RMHP(1)&gt;&gt;ITAPER(2)&gt;&gt;BW(4,3,20)</filterID><methodID>L2-AIC-GRID</methodID><phaseHint>S</phaseHint><evaluationMode>automatic</evaluationMode><comment><text>de.gempa.tb1.Pick/20250411085712.131112.120726</text><id>RefPickID</id></comment></pick><pick publicID="de.gempa.tb1.Pick/20250411085721.781217.120742"><time><value>2025-04-11T08:57:16.665Z</value></time><waveformID networkCode="CH" stationCode="SIMPL" channelCode="HHN"/><filterID>RMHP(1)&gt;&gt;ITAPER(2)&gt;&gt;BW(4,3,20)</filterID><methodID>L2-AIC-GRID</methodID><phaseHint>S</phaseHint><evaluationMode>automatic</evaluationMode><comment><text>de.gempa.tb1.Pick/20250411085715.792442.120732</text><id>RefPickID</id></comment></pick><pick publicID="de.gempa.tb1.Pick/20250411085723.130192.120743"><time><value>2025-04-11T08:57:16.228393Z</value></time><waveformID networkCode="CH" stationCode="GRIMS" channelCode="HHN"/><filterID>RMHP(1)&gt;&gt;ITAPER(2)&gt;&gt;BW(4,3,20)</filterID><methodID>L2-AIC-GRID</methodID><phaseHint>S</phaseHint><evaluationMode>automatic</evaluationMode><comment><text>de.gempa.tb1.Pick/20250411085714.133201.120728</text><id>RefPickID</id></comment></pick><pick publicID="de.gempa.tb1.Pick/20250411085731.335221.120749"><time><value>2025-04-11T08:57:21.825Z</value></time><waveformID networkCode="CH" stationCode="MMK" channelCode="HHN"/><filterID>RMHP(1)&gt;&gt;ITAPER(2)&gt;&gt;BW(4,3,20)</filterID><methodID>L2-AIC-GRID</methodID><phaseHint>S</phaseHint><evaluationMode>automatic</evaluationMode><comment><text>de.gempa.tb1.Pick/20250411085718.195504.120735</text><id>RefPickID</id></comment></pick><pick publicID="de.gempa.tb1.Pick/20250411085927.485444.120817"><time><value>2025-04-11T08:59:00.239999Z</value></time><waveformID networkCode="GR" stationCode="BSEG" channelCode="BHZ"/><filterID>ITAPER(4)&gt;&gt;BW_HP(4,4)</filterID><methodID>AIC</methodID><phaseHint>P</phaseHint><evaluationMode>automatic</evaluationMode></pick><origin publicID="de.gempa.tb1.Origin/20250411085927.488136.58239"><time><value>2025-04-11T08:57:06.788181Z</value><uncertainty>0.4970642924308777</uncertainty></time><latitude><value>46.52153396606445</value><uncertainty>2.0784358978271484</uncertainty></latitude><longitude><value>7.86310625076294</value><uncertainty>2.2234203815460205</uncertainty></longitude><depth><value>0</value></depth><depthType>operator assigned</depthType><methodID>LOCSAT</methodID><earthModelID>iasp91</earthModelID><quality><associatedPhaseCount>11</associatedPhaseCount><usedPhaseCount>11</usedPhaseCount><associatedStationCount>6</associatedStationCount><usedStationCount>6</usedStationCount><depthPhaseCount>0</depthPhaseCount><standardError>0.7736914027879755</standardError><azimuthalGap>139.60227966308594</azimuthalGap><maximumDistance>7.587424278259277</maximumDistance><minimumDistance>0.19146357476711273</minimumDistance><medianDistance>0.30208849906921387</medianDistance></quality><uncertainty><minHorizontalUncertainty>3.70736289024353</minHorizontalUncertainty><maxHorizontalUncertainty>5.372782707214355</maxHorizontalUncertainty><azimuthMaxHorizontalUncertainty>50.46818923950195</azimuthMaxHorizontalUncertainty><preferredDescription>horizontal uncertainty</preferredDescription></uncertainty><evaluationMode>automatic</evaluationMode><evaluationStatus>confirmed</evaluationStatus><comment><text>0.94</text><id>mismatchScore</id></comment><comment><text>extendedGap</text><id>scevalMethod</id></comment><arrival><pickID>de.gempa.tb1.Pick/20250411085712.131112.120726</pickID><phase>P</phase><azimuth>116.699462890625</azimuth><distance>0.19146357476711273</distance><timeResidual>-0.6205437183380127</timeResidual><timeUsed>true</timeUsed><horizontalSlownessUsed>false</horizontalSlownessUsed><backazimuthUsed>false</backazimuthUsed><weight>1</weight></arrival><arrival><pickID>de.gempa.tb1.Pick/20250411085714.133201.120728</pickID><phase>P</phase><azimuth>79.62844848632812</azimuth><distance>0.3196004033088684</distance><timeResidual>-0.9531118869781494</timeResidual><timeUsed>true</timeUsed><horizontalSlownessUsed>false</horizontalSlownessUsed><backazimuthUsed>false</backazimuthUsed><weight>1</weight></arrival><arrival><pickID>de.gempa.tb1.Pick/20250411085715.170636.120730</pickID><phase>P</phase><azimuth>311.1195373535156</azimuth><distance>0.21842540800571442</distance><timeResidual>-0.7377598285675049</timeResidual><timeUsed>true</timeUsed><horizontalSlownessUsed>false</horizontalSlownessUsed><backazimuthUsed>false</backazimuthUsed><weight>1</weight></arrival><arrival><pickID>de.gempa.tb1.Pick/20250411085715.792442.120732</pickID><phase>P</phase><azimuth>158.9300537109375</azimuth><distance>0.30208849906921387</distance><timeResidual>-0.4341461658477783</timeResidual><timeUsed>true</timeUsed><horizontalSlownessUsed>false</horizontalSlownessUsed><backazimuthUsed>false</backazimuthUsed><weight>1</weight></arrival><arrival><pickID>de.gempa.tb1.Pick/20250411085718.195504.120735</pickID><phase>P</phase><azimuth>171.5172576904297</azimuth><distance>0.4763018488883972</distance><timeResidual>-0.6217176914215088</timeResidual><timeUsed>true</timeUsed><horizontalSlownessUsed>false</horizontalSlownessUsed><backazimuthUsed>false</backazimuthUsed><weight>1</weight></arrival><arrival><pickID>de.gempa.tb1.Pick/20250411085718.262784.120738</pickID><phase>S</phase><azimuth>311.1195373535156</azimuth><distance>0.21842540800571442</distance><timeResidual>-0.028926610946655273</timeResidual><timeUsed>true</timeUsed><horizontalSlownessUsed>false</horizontalSlownessUsed><backazimuthUsed>false</backazimuthUsed><weight>1</weight></arrival><arrival><pickID>de.gempa.tb1.Pick/20250411085719.280519.120739</pickID><phase>S</phase><azimuth>116.699462890625</azimuth><distance>0.19146357476711273</distance><timeResidual>0.4867727756500244</timeResidual><timeUsed>true</timeUsed><horizontalSlownessUsed>false</horizontalSlownessUsed><backazimuthUsed>false</backazimuthUsed><weight>1</weight></arrival><arrival><pickID>de.gempa.tb1.Pick/20250411085721.781217.120742</pickID><phase>S</phase><azimuth>158.9300537109375</azimuth><distance>0.30208849906921387</distance><timeResidual>0.6032779216766357</timeResidual><timeUsed>true</timeUsed><horizontalSlownessUsed>false</horizontalSlownessUsed><backazimuthUsed>false</backazimuthUsed><weight>1</weight></arrival><arrival><pickID>de.gempa.tb1.Pick/20250411085723.130192.120743</pickID><phase>S</phase><azimuth>79.62844848632812</azimuth><distance>0.3196004033088684</distance><timeResidual>-0.41118741035461426</timeResidual><timeUsed>true</timeUsed><horizontalSlownessUsed>false</horizontalSlownessUsed><backazimuthUsed>false</backazimuthUsed><weight>1</weight></arrival><arrival><pickID>de.gempa.tb1.Pick/20250411085731.335221.120749</pickID><phase>S</phase><azimuth>171.5172576904297</azimuth><distance>0.4763018488883972</distance><timeResidual>0.002253293991088867</timeResidual><timeUsed>true</timeUsed><horizontalSlownessUsed>false</horizontalSlownessUsed><backazimuthUsed>false</backazimuthUsed><weight>1</weight></arrival><arrival><pickID>de.gempa.tb1.Pick/20250411085927.485444.120817</pickID><phase>P</phase><azimuth>11.050934791564941</azimuth><distance>7.587424278259277</distance><timeResidual>1.8441722393035889</timeResidual><timeUsed>true</timeUsed><horizontalSlownessUsed>false</horizontalSlownessUsed><backazimuthUsed>false</backazimuthUsed><weight>1</weight></arrival><magnitude publicID="de.gempa.tb1.Magnitude/20250411085927.503828.109176"><magnitude><value>0.6978535627675104</value></magnitude><type>M</type><methodID>weighted average</methodID><stationCount>5</stationCount></magnitude></origin><event publicID="gempa2025hdkc"><preferredOriginID>de.gempa.tb1.Origin/20250411085927.488136.58239</preferredOriginID><preferredMagnitudeID>de.gempa.tb1.Magnitude/20250411085927.503828.109176</preferredMagnitudeID><description><text>Switzerland</text><type>region name</type></description><originReference>de.gempa.tb1.Origin/20250411085927.488136.58239</originReference></event></EventParameters></seiscomp>