<?xml version="1.0" encoding="UTF-8"?>
<seiscomp xmlns="http://geofon.gfz-potsdam.de/ns/seiscomp3-schema/0.13" version="0.13"><EventParameters><pick publicID="de.gempa.tb1.Pick/20250413173049.515742.132674"><time><value>2025-04-13T17:30:43.278393Z</value></time><waveformID networkCode="CX" stationCode="PB06" channelCode="HHZ"/><filterID>ITAPER(4)&gt;&gt;BW(4,4,20)</filterID><methodID>AIC</methodID><horizontalSlowness><value>10.820536750814068</value></horizontalSlowness><backazimuth><value>93.20481263249128</value></backazimuth><phaseHint>P</phaseHint><evaluationMode>automatic</evaluationMode><comment><text>238.88249990942927</text><id>DFX:rectilinearity</id></comment><comment><text>53.53896157635765</text><id>SNR</id></comment></pick><pick publicID="de.gempa.tb1.Pick/20250413173050.770802.132676"><time><value>2025-04-13T17:30:46.538393Z</value></time><waveformID networkCode="CX" stationCode="PB01" channelCode="HHZ"/><filterID>ITAPER(4)&gt;&gt;BW(4,4,20)</filterID><methodID>AIC</methodID><horizontalSlowness><value>11.102944116373076</value></horizontalSlowness><backazimuth><value>163.2642791316846</value></backazimuth><phaseHint>P</phaseHint><evaluationMode>automatic</evaluationMode><comment><text>149.62768418452367</text><id>DFX:rectilinearity</id></comment><comment><text>273.4301542992227</text><id>SNR</id></comment></pick><pick publicID="de.gempa.tb1.Pick/20250413173052.513809.132678"><time><value>2025-04-13T17:30:47.228393Z</value></time><waveformID networkCode="CX" stationCode="PB02" channelCode="HHZ"/><filterID>ITAPER(4)&gt;&gt;BW(4,4,20)</filterID><methodID>AIC</methodID><horizontalSlowness><value>6.320135468730232</value></horizontalSlowness><backazimuth><value>112.63451876038573</value></backazimuth><phaseHint>P</phaseHint><evaluationMode>automatic</evaluationMode><comment><text>976.3490756724391</text><id>DFX:rectilinearity</id></comment><comment><text>221.28964994653816</text><id>SNR</id></comment></pick><pick publicID="de.gempa.tb1.Pick/20250413173054.775362.132680"><time><value>2025-04-13T17:30:40.04Z</value></time><waveformID networkCode="CX" stationCode="PB09" channelCode="HHZ"/><filterID>ITAPER(4)&gt;&gt;BW(4,4,20)</filterID><methodID>AIC</methodID><horizontalSlowness><value>17.041344674522687</value></horizontalSlowness><backazimuth><value>104.28960595332863</value></backazimuth><phaseHint>P</phaseHint><evaluationMode>automatic</evaluationMode><comment><text>600.1637768440431</text><id>DFX:rectilinearity</id></comment><comment><text>725.0607918566857</text><id>SNR</id></comment></pick><pick publicID="de.gempa.tb1.Pick/20250413173054.837264.132682"><time><value>2025-04-13T17:30:48.178394Z</value></time><waveformID networkCode="CX" stationCode="PB15" channelCode="HHZ"/><filterID>ITAPER(4)&gt;&gt;BW(4,4,20)</filterID><methodID>AIC</methodID><horizontalSlowness><value>20.863958613613292</value></horizontalSlowness><backazimuth><value>96.73568201819343</value></backazimuth><phaseHint>P</phaseHint><evaluationMode>automatic</evaluationMode><comment><text>378.54487548351915</text><id>DFX:rectilinearity</id></comment><comment><text>24.578735547388785</text><id>SNR</id></comment></pick><pick publicID="de.gempa.tb1.Pick/20250413173059.250153.132684"><time><value>2025-04-13T17:30:53.099999Z</value></time><waveformID networkCode="CX" stationCode="PATCX" channelCode="HHZ"/><filterID>ITAPER(4)&gt;&gt;BW(4,4,20)</filterID><methodID>AIC</methodID><horizontalSlowness><value>20.1767275257763</value></horizontalSlowness><backazimuth><value>69.65507399731277</value></backazimuth><phaseHint>P</phaseHint><evaluationMode>automatic</evaluationMode><comment><text>353.0377129536302</text><id>DFX:rectilinearity</id></comment><comment><text>48.4226252365501</text><id>SNR</id></comment></pick><pick publicID="de.gempa.tb1.Pick/20250413173101.618121.132686"><time><value>2025-04-13T17:30:55.15Z</value></time><waveformID networkCode="CX" stationCode="PB19" channelCode="HHZ"/><filterID>ITAPER(4)&gt;&gt;BW(4,4,20)</filterID><methodID>AIC</methodID><horizontalSlowness><value>20.491717718544276</value></horizontalSlowness><backazimuth><value>67.76558487153491</value></backazimuth><phaseHint>P</phaseHint><evaluationMode>automatic</evaluationMode><comment><text>36.22965272043181</text><id>DFX:rectilinearity</id></comment><comment><text>14.276483360682727</text><id>SNR</id></comment></pick><pick publicID="de.gempa.tb1.Pick/20250413173102.563197.132688"><time><value>2025-04-13T17:30:57.218393Z</value></time><waveformID networkCode="CX" stationCode="PB08" channelCode="HHZ"/><filterID>ITAPER(4)&gt;&gt;BW(4,4,20)</filterID><methodID>AIC</methodID><horizontalSlowness><value>17.400578158456</value></horizontalSlowness><backazimuth><value>212.0637339573091</value></backazimuth><phaseHint>P</phaseHint><evaluationMode>automatic</evaluationMode><comment><text>23.982813635823614</text><id>DFX:rectilinearity</id></comment><comment><text>9.640475011832935</text><id>SNR</id></comment></pick><pick publicID="de.gempa.tb1.Pick/20250413173104.561947.132690"><time><value>2025-04-13T17:30:58.768393Z</value></time><waveformID networkCode="CX" stationCode="PB06" channelCode="HHN"/><filterID>ITAPER(2)&gt;&gt;BW(3,3,20)</filterID><methodID>L2-AIC-GRID</methodID><horizontalSlowness><value>22.30039155432414</value></horizontalSlowness><backazimuth><value>317.62273718722815</value></backazimuth><phaseHint>S</phaseHint><evaluationMode>automatic</evaluationMode><comment><text>7884.945838723846</text><id>DFX:rectilinearity</id></comment><comment><text>de.gempa.tb1.Pick/20250413173049.515742.132674</text><id>RefPickID</id></comment><comment><text>8.522909501983802</text><id>SNR</id></comment></pick><pick publicID="de.gempa.tb1.Pick/20250413173110.652345.132691"><time><value>2025-04-13T17:31:04.878393Z</value></time><waveformID networkCode="CX" stationCode="PB01" channelCode="HHN"/><filterID>ITAPER(2)&gt;&gt;BW(3,3,20)</filterID><methodID>L2-AIC-GRID</methodID><horizontalSlowness><value>22.065039340839967</value></horizontalSlowness><backazimuth><value>20.783735488280058</value></backazimuth><phaseHint>S</phaseHint><evaluationMode>automatic</evaluationMode><comment><text>1309.6105766848625</text><id>DFX:rectilinearity</id></comment><comment><text>de.gempa.tb1.Pick/20250413173050.770802.132676</text><id>RefPickID</id></comment><comment><text>6.21274638843891</text><id>SNR</id></comment></pick><pick publicID="de.gempa.tb1.Pick/20250413173111.989917.132692"><time><value>2025-04-13T17:31:06.248394Z</value></time><waveformID networkCode="CX" stationCode="PB15" channelCode="HHN"/><filterID>ITAPER(2)&gt;&gt;BW(3,3,20)</filterID><methodID>L2-AIC-GRID</methodID><horizontalSlowness><value>21.9614895488213</value></horizontalSlowness><backazimuth><value>117.8879843915817</value></backazimuth><phaseHint>S</phaseHint><evaluationMode>automatic</evaluationMode><comment><text>14319.732981894495</text><id>DFX:rectilinearity</id></comment><comment><text>de.gempa.tb1.Pick/20250413173054.837264.132682</text><id>RefPickID</id></comment><comment><text>5.78921358754422</text><id>SNR</id></comment></pick><pick publicID="de.gempa.tb1.Pick/20250413173112.536514.132693"><time><value>2025-04-13T17:31:04.970001Z</value></time><waveformID networkCode="CX" stationCode="PSGCX" channelCode="HHZ"/><filterID>ITAPER(4)&gt;&gt;BW(4,4,20)</filterID><methodID>AIC</methodID><horizontalSlowness><value>21.525719083320212</value></horizontalSlowness><backazimuth><value>184.70185103385188</value></backazimuth><phaseHint>P</phaseHint><evaluationMode>automatic</evaluationMode><comment><text>21.254727568398348</text><id>DFX:rectilinearity</id></comment><comment><text>23.76781097419797</text><id>SNR</id></comment></pick><pick publicID="de.gempa.tb1.Pick/20250413173115.182871.132697"><time><value>2025-04-13T17:30:44.788391Z</value></time><waveformID networkCode="CX" stationCode="PB07" channelCode="HHZ"/><filterID>ITAPER(4)&gt;&gt;BW(4,4,20)</filterID><methodID>AIC</methodID><horizontalSlowness><value>12.460695660589424</value></horizontalSlowness><backazimuth><value>131.53318140048412</value></backazimuth><phaseHint>P</phaseHint><evaluationMode>automatic</evaluationMode><comment><text>5386.532035073355</text><id>DFX:rectilinearity</id></comment><comment><text>1134.721182497387</text><id>SNR</id></comment></pick><pick publicID="de.gempa.tb1.Pick/20250413173125.476388.132703"><time><value>2025-04-13T17:31:18.47Z</value></time><waveformID networkCode="CX" stationCode="PB19" channelCode="HHN"/><filterID>ITAPER(2)&gt;&gt;BW(3,3,20)</filterID><methodID>L2-AIC-GRID</methodID><horizontalSlowness><value>21.691773382127781</value></horizontalSlowness><backazimuth><value>49.70602015763797</value></backazimuth><phaseHint>S</phaseHint><evaluationMode>automatic</evaluationMode><comment><text>967.4294969139859</text><id>DFX:rectilinearity</id></comment><comment><text>de.gempa.tb1.Pick/20250413173101.618121.132686</text><id>RefPickID</id></comment><comment><text>6.824628554780642</text><id>SNR</id></comment></pick><pick publicID="de.gempa.tb1.Pick/20250413173156.154811.132706"><time><value>2025-04-13T17:31:01.458391Z</value></time><waveformID networkCode="CX" stationCode="PB07" channelCode="HHN"/><filterID>ITAPER(2)&gt;&gt;BW(3,3,20)</filterID><methodID>L2-AIC-GRID</methodID><horizontalSlowness><value>21.338633964913807</value></horizontalSlowness><backazimuth><value>275.54618242964546</value></backazimuth><phaseHint>S</phaseHint><evaluationMode>automatic</evaluationMode><comment><text>72625.11564121928</text><id>DFX:rectilinearity</id></comment><comment><text>de.gempa.tb1.Pick/20250413173115.182871.132697</text><id>RefPickID</id></comment><comment><text>6.313168548110607</text><id>SNR</id></comment></pick><origin publicID="de.gempa.tb1.Origin/20250413173156.158227.115655"><time><value>2025-04-13T17:30:23.65437Z</value><uncertainty>0.6811671257019043</uncertainty></time><latitude><value>-22.091503143310547</value><uncertainty>2.618464946746826</uncertainty></latitude><longitude><value>-68.9463882446289</value><uncertainty>11.362747192382812</uncertainty></longitude><depth><value>114.3292007446289</value><uncertainty>9.989028930664062</uncertainty></depth><depthType>from location</depthType><methodID>LOCSAT</methodID><earthModelID>iasp91_scanloc</earthModelID><quality><associatedPhaseCount>15</associatedPhaseCount><usedPhaseCount>15</usedPhaseCount><associatedStationCount>10</associatedStationCount><usedStationCount>10</usedStationCount><depthPhaseCount>0</depthPhaseCount><standardError>0.5201725301519926</standardError><azimuthalGap>195.6270294189453</azimuthalGap><maximumDistance>2.7148633003234863</maximumDistance><minimumDistance>0.4019196629524231</minimumDistance><medianDistance>1.1703429222106934</medianDistance></quality><uncertainty><minHorizontalUncertainty>5.17454719543457</minHorizontalUncertainty><maxHorizontalUncertainty>24.459352493286133</maxHorizontalUncertainty><azimuthMaxHorizontalUncertainty>84.77347564697266</azimuthMaxHorizontalUncertainty><preferredDescription>horizontal uncertainty</preferredDescription></uncertainty><evaluationMode>automatic</evaluationMode><evaluationStatus>confirmed</evaluationStatus><comment><text>0.26</text><id>mismatchScore</id></comment><comment><text>mismatchScore</text><id>scevalMethod</id></comment><arrival><pickID>de.gempa.tb1.Pick/20250413173049.515742.132674</pickID><phase>P</phase><azimuth>223.31739807128906</azimuth><distance>0.8419286608695984</distance><timeResidual>-0.4349498748779297</timeResidual><timeUsed>true</timeUsed><horizontalSlownessUsed>false</horizontalSlownessUsed><backazimuthUsed>false</backazimuthUsed><weight>1</weight></arrival><arrival><pickID>de.gempa.tb1.Pick/20250413173050.770802.132676</pickID><phase>P</phase><azimuth>334.13128662109375</azimuth><distance>1.158326506614685</distance><timeResidual>-0.36540794372558594</timeResidual><timeUsed>true</timeUsed><horizontalSlownessUsed>false</horizontalSlownessUsed><backazimuthUsed>false</backazimuthUsed><weight>1</weight></arrival><arrival><pickID>de.gempa.tb1.Pick/20250413173052.513809.132678</pickID><phase>P</phase><azimuth>310.83673095703125</azimuth><distance>1.1703429222106934</distance><timeResidual>0.19654083251953125</timeResidual><timeUsed>true</timeUsed><horizontalSlownessUsed>false</horizontalSlownessUsed><backazimuthUsed>false</backazimuthUsed><weight>1</weight></arrival><arrival><pickID>de.gempa.tb1.Pick/20250413173054.775362.132680</pickID><phase>P</phase><azimuth>316.89276123046875</azimuth><distance>0.4019196629524231</distance><timeResidual>-0.38027191162109375</timeResidual><timeUsed>true</timeUsed><horizontalSlownessUsed>false</horizontalSlownessUsed><backazimuthUsed>false</backazimuthUsed><weight>1</weight></arrival><arrival><pickID>de.gempa.tb1.Pick/20250413173054.837264.132682</pickID><phase>P</phase><azimuth>203.45358276367188</azimuth><distance>1.2125749588012695</distance><timeResidual>0.6971569061279297</timeResidual><timeUsed>true</timeUsed><horizontalSlownessUsed>false</horizontalSlownessUsed><backazimuthUsed>false</backazimuthUsed><weight>1</weight></arrival><arrival><pickID>de.gempa.tb1.Pick/20250413173059.250153.132684</pickID><phase>P</phase><azimuth>318.1494445800781</azimuth><distance>1.691774606704712</distance><timeResidual>0.03726768493652344</timeResidual><timeUsed>true</timeUsed><horizontalSlownessUsed>false</horizontalSlownessUsed><backazimuthUsed>false</backazimuthUsed><weight>1</weight></arrival><arrival><pickID>de.gempa.tb1.Pick/20250413173101.618121.132686</pickID><phase>P</phase><azimuth>189.9022674560547</azimuth><distance>1.832477569580078</distance><timeResidual>0.38134193420410156</timeResidual><timeUsed>true</timeUsed><horizontalSlownessUsed>false</horizontalSlownessUsed><backazimuthUsed>false</backazimuthUsed><weight>1</weight></arrival><arrival><pickID>de.gempa.tb1.Pick/20250413173102.563197.132688</pickID><phase>P</phase><azimuth>354.2752380371094</azimuth><distance>1.9502875804901123</distance><timeResidual>0.9651412963867188</timeResidual><timeUsed>true</timeUsed><horizontalSlownessUsed>false</horizontalSlownessUsed><backazimuthUsed>false</backazimuthUsed><weight>1</weight></arrival><arrival><pickID>de.gempa.tb1.Pick/20250413173104.561947.132690</pickID><phase>S</phase><azimuth>223.31739807128906</azimuth><distance>0.8419286608695984</distance><timeResidual>-0.4269275665283203</timeResidual><timeUsed>true</timeUsed><horizontalSlownessUsed>false</horizontalSlownessUsed><backazimuthUsed>false</backazimuthUsed><weight>1</weight></arrival><arrival><pickID>de.gempa.tb1.Pick/20250413173110.652345.132691</pickID><phase>S</phase><azimuth>334.13128662109375</azimuth><distance>1.158326506614685</distance><timeResidual>-0.006927490234375</timeResidual><timeUsed>true</timeUsed><horizontalSlownessUsed>false</horizontalSlownessUsed><backazimuthUsed>false</backazimuthUsed><weight>1</weight></arrival><arrival><pickID>de.gempa.tb1.Pick/20250413173111.989917.132692</pickID><phase>S</phase><azimuth>203.45358276367188</azimuth><distance>1.2125749588012695</distance><timeResidual>0.3294506072998047</timeResidual><timeUsed>true</timeUsed><horizontalSlownessUsed>false</horizontalSlownessUsed><backazimuthUsed>false</backazimuthUsed><weight>1</weight></arrival><arrival><pickID>de.gempa.tb1.Pick/20250413173112.536514.132693</pickID><phase>P</phase><azimuth>335.8743591308594</azimuth><distance>2.7148633003234863</distance><timeResidual>-1.0989513397216797</timeResidual><timeUsed>true</timeUsed><horizontalSlownessUsed>false</horizontalSlownessUsed><backazimuthUsed>false</backazimuthUsed><weight>1</weight></arrival><arrival><pickID>de.gempa.tb1.Pick/20250413173115.182871.132697</pickID><phase>P</phase><azimuth>292.4131774902344</azimuth><distance>0.9452305436134338</distance><timeResidual>0.08633995056152344</timeResidual><timeUsed>true</timeUsed><horizontalSlownessUsed>false</horizontalSlownessUsed><backazimuthUsed>false</backazimuthUsed><weight>1</weight></arrival><arrival><pickID>de.gempa.tb1.Pick/20250413173125.476388.132703</pickID><phase>S</phase><azimuth>189.9022674560547</azimuth><distance>1.832477569580078</distance><timeResidual>-0.4810199737548828</timeResidual><timeUsed>true</timeUsed><horizontalSlownessUsed>false</horizontalSlownessUsed><backazimuthUsed>false</backazimuthUsed><weight>1</weight></arrival><arrival><pickID>de.gempa.tb1.Pick/20250413173156.154811.132706</pickID><phase>S</phase><azimuth>292.4131774902344</azimuth><distance>0.9452305436134338</distance><timeResidual>0.5010337829589844</timeResidual><timeUsed>true</timeUsed><horizontalSlownessUsed>false</horizontalSlownessUsed><backazimuthUsed>false</backazimuthUsed><weight>1</weight></arrival><magnitude publicID="de.gempa.tb1.Magnitude/20250413173205.942428.383377"><magnitude><value>2.6312899530322436</value></magnitude><type>M</type><methodID>weighted average</methodID><stationCount>6</stationCount></magnitude></origin><event publicID="gempa2025hhtg"><preferredOriginID>de.gempa.tb1.Origin/20250413173156.158227.115655</preferredOriginID><preferredMagnitudeID>de.gempa.tb1.Magnitude/20250413173205.942428.383377</preferredMagnitudeID><description><text>Northern Chile</text><type>region name</type></description><originReference>de.gempa.tb1.Origin/20250413173156.158227.115655</originReference></event></EventParameters></seiscomp>