<?xml version="1.0" encoding="UTF-8"?>
<seiscomp xmlns="http://geofon.gfz-potsdam.de/ns/seiscomp3-schema/0.13" version="0.13"><EventParameters><pick publicID="de.gempa.tb1.Pick/20250413011919.662786.127953"><time><value>2025-04-13T01:19:14.288393Z</value></time><waveformID networkCode="CX" stationCode="PB03" channelCode="HHZ"/><filterID>ITAPER(4)&gt;&gt;BW(4,4,20)</filterID><methodID>AIC</methodID><horizontalSlowness><value>9.279586569558184</value></horizontalSlowness><backazimuth><value>5.797898494645267</value></backazimuth><phaseHint>P</phaseHint><evaluationMode>automatic</evaluationMode><comment><text>23.087886486339816</text><id>DFX:rectilinearity</id></comment><comment><text>10.027607597971501</text><id>SNR</id></comment></pick><pick publicID="de.gempa.tb1.Pick/20250413011920.495406.127955"><time><value>2025-04-13T01:19:13.538391Z</value></time><waveformID networkCode="CX" stationCode="PB01" channelCode="HHZ"/><filterID>ITAPER(4)&gt;&gt;BW(4,4,20)</filterID><methodID>AIC</methodID><horizontalSlowness><value>18.845848190818081</value></horizontalSlowness><backazimuth><value>354.36651036564763</value></backazimuth><phaseHint>P</phaseHint><evaluationMode>automatic</evaluationMode><comment><text>19.855664194764653</text><id>DFX:rectilinearity</id></comment><comment><text>15.96955737013242</text><id>SNR</id></comment></pick><pick publicID="de.gempa.tb1.Pick/20250413011920.500971.127957"><time><value>2025-04-13T01:19:15.648393Z</value></time><waveformID networkCode="CX" stationCode="PB02" channelCode="HHZ"/><filterID>ITAPER(4)&gt;&gt;BW(4,4,20)</filterID><methodID>AIC</methodID><horizontalSlowness><value>18.258382091794537</value></horizontalSlowness><backazimuth><value>255.9521044362462</value></backazimuth><phaseHint>P</phaseHint><evaluationMode>automatic</evaluationMode><comment><text>94.94149050391383</text><id>DFX:rectilinearity</id></comment><comment><text>14.702895065143647</text><id>SNR</id></comment></pick><pick publicID="de.gempa.tb1.Pick/20250413011922.732557.127959"><time><value>2025-04-13T01:19:14.908394Z</value></time><waveformID networkCode="CX" stationCode="PB07" channelCode="HHZ"/><filterID>ITAPER(4)&gt;&gt;BW(4,4,20)</filterID><methodID>AIC</methodID><horizontalSlowness><value>21.315015145156103</value></horizontalSlowness><backazimuth><value>271.2603611869638</value></backazimuth><phaseHint>P</phaseHint><evaluationMode>automatic</evaluationMode><comment><text>195.8163846481504</text><id>DFX:rectilinearity</id></comment><comment><text>31.791258969950277</text><id>SNR</id></comment></pick><pick publicID="de.gempa.tb1.Pick/20250413011929.500842.127961"><time><value>2025-04-13T01:19:09.99Z</value></time><waveformID networkCode="CX" stationCode="PB09" channelCode="HHZ"/><filterID>ITAPER(4)&gt;&gt;BW(4,4,20)</filterID><methodID>AIC</methodID><horizontalSlowness><value>19.50004802931273</value></horizontalSlowness><backazimuth><value>273.3010058463626</value></backazimuth><phaseHint>P</phaseHint><evaluationMode>automatic</evaluationMode><comment><text>12.44340275531956</text><id>DFX:rectilinearity</id></comment><comment><text>20.585059250069651</text><id>SNR</id></comment></pick><pick publicID="de.gempa.tb1.Pick/20250413011931.781791.127963"><time><value>2025-04-13T01:19:23.26Z</value></time><waveformID networkCode="CX" stationCode="PB09" channelCode="HHN"/><filterID>ITAPER(2)&gt;&gt;BW(3,3,20)</filterID><methodID>L2-AIC-GRID</methodID><horizontalSlowness><value>22.98722237104051</value></horizontalSlowness><backazimuth><value>139.95480307720285</value></backazimuth><phaseHint>S</phaseHint><evaluationMode>automatic</evaluationMode><comment><text>18.376856555591793</text><id>DFX:rectilinearity</id></comment><comment><text>de.gempa.tb1.Pick/20250413011929.500842.127961</text><id>RefPickID</id></comment><comment><text>5.260189481176516</text><id>SNR</id></comment></pick><pick publicID="de.gempa.tb1.Pick/20250413011936.719074.127966"><time><value>2025-04-13T01:19:30.608393Z</value></time><waveformID networkCode="CX" stationCode="PB03" channelCode="HHN"/><filterID>ITAPER(2)&gt;&gt;BW(3,3,20)</filterID><methodID>L2-AIC-GRID</methodID><horizontalSlowness><value>14.24292973213202</value></horizontalSlowness><backazimuth><value>235.51929661358704</value></backazimuth><phaseHint>S</phaseHint><evaluationMode>automatic</evaluationMode><comment><text>17.61348458816349</text><id>DFX:rectilinearity</id></comment><comment><text>de.gempa.tb1.Pick/20250413011919.662786.127953</text><id>RefPickID</id></comment><comment><text>13.268378221061145</text><id>SNR</id></comment></pick><pick publicID="de.gempa.tb1.Pick/20250413011953.720202.127972"><time><value>2025-04-13T01:19:32.138394Z</value></time><waveformID networkCode="CX" stationCode="PB07" channelCode="HHN"/><filterID>ITAPER(2)&gt;&gt;BW(3,3,20)</filterID><methodID>L2-AIC-GRID</methodID><horizontalSlowness><value>23.408097836636994</value></horizontalSlowness><backazimuth><value>284.8245197035504</value></backazimuth><phaseHint>S</phaseHint><evaluationMode>automatic</evaluationMode><comment><text>593.3355325011072</text><id>DFX:rectilinearity</id></comment><comment><text>de.gempa.tb1.Pick/20250413011922.732557.127959</text><id>RefPickID</id></comment><comment><text>6.494459577396836</text><id>SNR</id></comment></pick><origin publicID="de.gempa.tb1.Origin/20250413012006.094749.97097"><time><value>2025-04-13T01:18:52.682017Z</value><uncertainty>1.3921962976455688</uncertainty></time><latitude><value>-21.6926326751709</value><uncertainty>12.21910858154297</uncertainty></latitude><longitude><value>-68.76570892333984</value><uncertainty>11.194254875183105</uncertainty></longitude><depth><value>115.88422393798828</value><uncertainty>10.3106689453125</uncertainty></depth><depthType>from location</depthType><methodID>LOCSAT</methodID><earthModelID>iasp91_scanloc</earthModelID><quality><associatedPhaseCount>8</associatedPhaseCount><usedPhaseCount>8</usedPhaseCount><associatedStationCount>5</associatedStationCount><usedStationCount>5</usedStationCount><depthPhaseCount>0</depthPhaseCount><standardError>0.14721061881784026</standardError><azimuthalGap>294.9878692626953</azimuthalGap><maximumDistance>1.1160558462142944</maximumDistance><minimumDistance>0.4546101689338684</minimumDistance><medianDistance>0.983155608177185</medianDistance></quality><uncertainty><minHorizontalUncertainty>21.138734817504883</minHorizontalUncertainty><maxHorizontalUncertainty>28.56473159790039</maxHorizontalUncertainty><azimuthMaxHorizontalUncertainty>143.69703674316406</azimuthMaxHorizontalUncertainty><preferredDescription>horizontal uncertainty</preferredDescription></uncertainty><evaluationMode>automatic</evaluationMode><evaluationStatus>confirmed</evaluationStatus><comment><text>0.00</text><id>mismatchScore</id></comment><comment><text>mismatchScore</text><id>scevalMethod</id></comment><arrival><pickID>de.gempa.tb1.Pick/20250413011919.662786.127953</pickID><phase>P</phase><azimuth>248.70664978027344</azimuth><distance>0.983155608177185</distance><timeResidual>0.054168701171875</timeResidual><timeUsed>true</timeUsed><horizontalSlownessUsed>false</horizontalSlownessUsed><backazimuthUsed>false</backazimuthUsed><weight>1</weight></arrival><arrival><pickID>de.gempa.tb1.Pick/20250413011920.495406.127955</pickID><phase>P</phase><azimuth>313.7187805175781</azimuth><distance>0.9327688217163086</distance><timeResidual>-0.2080821990966797</timeResidual><timeUsed>true</timeUsed><horizontalSlownessUsed>false</horizontalSlownessUsed><backazimuthUsed>false</backazimuthUsed><weight>1</weight></arrival><arrival><pickID>de.gempa.tb1.Pick/20250413011920.500971.127957</pickID><phase>P</phase><azimuth>289.21295166015625</azimuth><distance>1.1160558462142944</distance><timeResidual>0.04941940307617188</timeResidual><timeUsed>true</timeUsed><horizontalSlownessUsed>false</horizontalSlownessUsed><backazimuthUsed>false</backazimuthUsed><weight>1</weight></arrival><arrival><pickID>de.gempa.tb1.Pick/20250413011922.732557.127959</pickID><phase>P</phase><azimuth>267.9321594238281</azimuth><distance>1.042493462562561</distance><timeResidual>0.07456588745117188</timeResidual><timeUsed>true</timeUsed><horizontalSlownessUsed>false</horizontalSlownessUsed><backazimuthUsed>false</backazimuthUsed><weight>1</weight></arrival><arrival><pickID>de.gempa.tb1.Pick/20250413011929.500842.127961</pickID><phase>P</phase><azimuth>256.7861022949219</azimuth><distance>0.4546101689338684</distance><timeResidual>0.06953239440917969</timeResidual><timeUsed>true</timeUsed><horizontalSlownessUsed>false</horizontalSlownessUsed><backazimuthUsed>false</backazimuthUsed><weight>1</weight></arrival><arrival><pickID>de.gempa.tb1.Pick/20250413011931.781791.127963</pickID><phase>S</phase><azimuth>256.7861022949219</azimuth><distance>0.4546101689338684</distance><timeResidual>0.05867767333984375</timeResidual><timeUsed>true</timeUsed><horizontalSlownessUsed>false</horizontalSlownessUsed><backazimuthUsed>false</backazimuthUsed><weight>1</weight></arrival><arrival><pickID>de.gempa.tb1.Pick/20250413011936.719074.127966</pickID><phase>S</phase><azimuth>248.70664978027344</azimuth><distance>0.983155608177185</distance><timeResidual>-0.2793235778808594</timeResidual><timeUsed>true</timeUsed><horizontalSlownessUsed>false</horizontalSlownessUsed><backazimuthUsed>false</backazimuthUsed><weight>1</weight></arrival><arrival><pickID>de.gempa.tb1.Pick/20250413011953.720202.127972</pickID><phase>S</phase><azimuth>267.9321594238281</azimuth><distance>1.042493462562561</distance><timeResidual>0.1812000274658203</timeResidual><timeUsed>true</timeUsed><horizontalSlownessUsed>false</horizontalSlownessUsed><backazimuthUsed>false</backazimuthUsed><weight>1</weight></arrival><magnitude publicID="de.gempa.tb1.Magnitude/20250413012027.582427.298404"><magnitude><value>2.443549118414013</value></magnitude><type>M</type><methodID>weighted average</methodID><stationCount>2</stationCount></magnitude></origin><event publicID="gempa2025hgmw"><preferredOriginID>de.gempa.tb1.Origin/20250413012006.094749.97097</preferredOriginID><preferredMagnitudeID>de.gempa.tb1.Magnitude/20250413012027.582427.298404</preferredMagnitudeID><description><text>Chile-Bolivia Border Region</text><type>region name</type></description><originReference>de.gempa.tb1.Origin/20250413012006.094749.97097</originReference></event></EventParameters></seiscomp>