<?xml version="1.0" encoding="UTF-8"?>
<seiscomp xmlns="http://geofon.gfz-potsdam.de/ns/seiscomp3-schema/0.13" version="0.13"><EventParameters><pick publicID="de.gempa.tb1.Pick/20250413060703.57882.129326"><time><value>2025-04-13T06:06:56.658394Z</value></time><waveformID networkCode="CX" stationCode="PB01" channelCode="HHZ"/><filterID>ITAPER(4)&gt;&gt;BW(4,4,20)</filterID><methodID>AIC</methodID><horizontalSlowness><value>21.961398429230812</value></horizontalSlowness><backazimuth><value>70.32685597562462</value></backazimuth><phaseHint>P</phaseHint><evaluationMode>automatic</evaluationMode><comment><text>12.53860100914413</text><id>DFX:rectilinearity</id></comment><comment><text>11.745647284996503</text><id>SNR</id></comment></pick><pick publicID="de.gempa.tb1.Pick/20250413060703.622072.129328"><time><value>2025-04-13T06:06:59.018393Z</value></time><waveformID networkCode="CX" stationCode="PB02" channelCode="HHZ"/><filterID>ITAPER(4)&gt;&gt;BW(4,4,20)</filterID><methodID>AIC</methodID><horizontalSlowness><value>14.628344339546054</value></horizontalSlowness><backazimuth><value>324.5918306129164</value></backazimuth><phaseHint>P</phaseHint><evaluationMode>automatic</evaluationMode><comment><text>23.15562772462008</text><id>DFX:rectilinearity</id></comment><comment><text>15.64643912492524</text><id>SNR</id></comment></pick><pick publicID="de.gempa.tb1.Pick/20250413060704.335791.129330"><time><value>2025-04-13T06:06:52.49Z</value></time><waveformID networkCode="CX" stationCode="PB09" channelCode="HHZ"/><filterID>ITAPER(4)&gt;&gt;BW(4,4,20)</filterID><methodID>AIC</methodID><horizontalSlowness><value>15.72535116364133</value></horizontalSlowness><backazimuth><value>287.3338010923196</value></backazimuth><phaseHint>P</phaseHint><evaluationMode>automatic</evaluationMode><comment><text>16.591364834918252</text><id>DFX:rectilinearity</id></comment><comment><text>37.575287123721623</text><id>SNR</id></comment></pick><pick publicID="de.gempa.tb1.Pick/20250413060704.529974.129332"><time><value>2025-04-13T06:06:56.878393Z</value></time><waveformID networkCode="CX" stationCode="PB03" channelCode="HHZ"/><filterID>ITAPER(4)&gt;&gt;BW(4,4,20)</filterID><methodID>AIC</methodID><horizontalSlowness><value>7.813863483395308</value></horizontalSlowness><backazimuth><value>179.28908167639776</value></backazimuth><phaseHint>P</phaseHint><evaluationMode>automatic</evaluationMode><comment><text>10.039094906111409</text><id>DFX:rectilinearity</id></comment><comment><text>12.49178801329662</text><id>SNR</id></comment></pick><pick publicID="de.gempa.tb1.Pick/20250413060707.571436.129334"><time><value>2025-04-13T06:06:58.878393Z</value></time><waveformID networkCode="CX" stationCode="PB06" channelCode="HHZ"/><filterID>ITAPER(4)&gt;&gt;BW(4,4,20)</filterID><methodID>AIC</methodID><horizontalSlowness><value>17.777919034091418</value></horizontalSlowness><backazimuth><value>303.83777452540477</value></backazimuth><phaseHint>P</phaseHint><evaluationMode>automatic</evaluationMode><comment><text>77.34728208498336</text><id>DFX:rectilinearity</id></comment><comment><text>9.220194905434436</text><id>SNR</id></comment></pick><pick publicID="de.gempa.tb1.Pick/20250413060722.442408.129338"><time><value>2025-04-13T06:06:58.168394Z</value></time><waveformID networkCode="CX" stationCode="PB07" channelCode="HHZ"/><filterID>ITAPER(4)&gt;&gt;BW(4,4,20)</filterID><methodID>AIC</methodID><horizontalSlowness><value>22.653572553353914</value></horizontalSlowness><backazimuth><value>68.12152110059863</value></backazimuth><phaseHint>P</phaseHint><evaluationMode>automatic</evaluationMode><comment><text>685.0576871487798</text><id>DFX:rectilinearity</id></comment><comment><text>32.651636518086086</text><id>SNR</id></comment></pick><pick publicID="de.gempa.tb1.Pick/20250413060724.654762.129340"><time><value>2025-04-13T06:07:14.998394Z</value></time><waveformID networkCode="CX" stationCode="PB01" channelCode="HHN"/><filterID>ITAPER(2)&gt;&gt;BW(3,3,20)</filterID><methodID>L2-AIC-GRID</methodID><horizontalSlowness><value>17.114832909701647</value></horizontalSlowness><backazimuth><value>354.6425649359327</value></backazimuth><phaseHint>S</phaseHint><evaluationMode>automatic</evaluationMode><comment><text>20.503768283386826</text><id>DFX:rectilinearity</id></comment><comment><text>de.gempa.tb1.Pick/20250413060703.57882.129326</text><id>RefPickID</id></comment><comment><text>6.629426686873448</text><id>SNR</id></comment></pick><pick publicID="de.gempa.tb1.Pick/20250413060725.681363.129341"><time><value>2025-04-13T06:07:19.608393Z</value></time><waveformID networkCode="CX" stationCode="PB02" channelCode="HHN"/><filterID>ITAPER(2)&gt;&gt;BW(3,3,20)</filterID><methodID>L2-AIC-GRID</methodID><horizontalSlowness><value>20.219173393225944</value></horizontalSlowness><backazimuth><value>355.59874105436745</value></backazimuth><phaseHint>S</phaseHint><evaluationMode>automatic</evaluationMode><comment><text>51.69638332427009</text><id>DFX:rectilinearity</id></comment><comment><text>de.gempa.tb1.Pick/20250413060703.622072.129328</text><id>RefPickID</id></comment><comment><text>5.249477937972649</text><id>SNR</id></comment></pick><pick publicID="de.gempa.tb1.Pick/20250413060728.572086.129342"><time><value>2025-04-13T06:07:15.808393Z</value></time><waveformID networkCode="CX" stationCode="PB03" channelCode="HHN"/><filterID>ITAPER(2)&gt;&gt;BW(3,3,20)</filterID><methodID>L2-AIC-GRID</methodID><horizontalSlowness><value>11.968814361902997</value></horizontalSlowness><backazimuth><value>310.1755337855334</value></backazimuth><phaseHint>S</phaseHint><evaluationMode>automatic</evaluationMode><comment><text>20.713903068289785</text><id>DFX:rectilinearity</id></comment><comment><text>de.gempa.tb1.Pick/20250413060704.529974.129332</text><id>RefPickID</id></comment><comment><text>7.0234247422838</text><id>SNR</id></comment></pick><pick publicID="de.gempa.tb1.Pick/20250413060731.567092.129343"><time><value>2025-04-13T06:07:17.918394Z</value></time><waveformID networkCode="CX" stationCode="PB07" channelCode="HHN"/><filterID>ITAPER(2)&gt;&gt;BW(3,3,20)</filterID><methodID>L2-AIC-GRID</methodID><horizontalSlowness><value>21.465336655821211</value></horizontalSlowness><backazimuth><value>237.5504857206186</value></backazimuth><phaseHint>S</phaseHint><evaluationMode>automatic</evaluationMode><comment><text>541.6065473904598</text><id>DFX:rectilinearity</id></comment><comment><text>de.gempa.tb1.Pick/20250413060722.442408.129338</text><id>RefPickID</id></comment><comment><text>10.441848705653852</text><id>SNR</id></comment></pick><origin publicID="de.gempa.tb1.Origin/20250413060731.569798.102433"><time><value>2025-04-13T06:06:32.742314Z</value><uncertainty>1.1811500787734985</uncertainty></time><latitude><value>-21.760517120361328</value><uncertainty>6.779316425323486</uncertainty></latitude><longitude><value>-68.46192169189453</value><uncertainty>13.749029159545898</uncertainty></longitude><depth><value>118.56937408447266</value><uncertainty>21.151342391967773</uncertainty></depth><depthType>from location</depthType><methodID>LOCSAT</methodID><earthModelID>iasp91_scanloc</earthModelID><quality><associatedPhaseCount>10</associatedPhaseCount><usedPhaseCount>10</usedPhaseCount><associatedStationCount>6</associatedStationCount><usedStationCount>6</usedStationCount><depthPhaseCount>0</depthPhaseCount><standardError>0.1655242374177574</standardError><azimuthalGap>280.7720184326172</azimuthalGap><maximumDistance>1.4053434133529663</maximumDistance><minimumDistance>0.7258699536323547</minimumDistance><medianDistance>1.3245576620101929</medianDistance></quality><uncertainty><minHorizontalUncertainty>14.387093544006348</minHorizontalUncertainty><maxHorizontalUncertainty>29.55326843261719</maxHorizontalUncertainty><azimuthMaxHorizontalUncertainty>94.61149597167969</azimuthMaxHorizontalUncertainty><preferredDescription>horizontal uncertainty</preferredDescription></uncertainty><evaluationMode>automatic</evaluationMode><evaluationStatus>confirmed</evaluationStatus><comment><text>0.00</text><id>mismatchScore</id></comment><comment><text>mismatchScore</text><id>scevalMethod</id></comment><arrival><pickID>de.gempa.tb1.Pick/20250413060703.57882.129326</pickID><phase>P</phase><azimuth>306.56939697265625</azimuth><distance>1.1927348375320435</distance><timeResidual>-0.02513885498046875</timeResidual><timeUsed>true</timeUsed><horizontalSlownessUsed>false</horizontalSlownessUsed><backazimuthUsed>false</backazimuthUsed><weight>1</weight></arrival><arrival><pickID>de.gempa.tb1.Pick/20250413060703.622072.129328</pickID><phase>P</phase><azimuth>287.92376708984375</azimuth><distance>1.4053434133529663</distance><timeResidual>-0.014623641967773438</timeResidual><timeUsed>true</timeUsed><horizontalSlownessUsed>false</horizontalSlownessUsed><backazimuthUsed>false</backazimuthUsed><weight>1</weight></arrival><arrival><pickID>de.gempa.tb1.Pick/20250413060704.335791.129330</pickID><phase>P</phase><azimuth>267.0380859375</azimuth><distance>0.7258699536323547</distance><timeResidual>0.2909965515136719</timeResidual><timeUsed>true</timeUsed><horizontalSlownessUsed>false</horizontalSlownessUsed><backazimuthUsed>false</backazimuthUsed><weight>1</weight></arrival><arrival><pickID>de.gempa.tb1.Pick/20250413060704.529974.129332</pickID><phase>P</phase><azimuth>256.320556640625</azimuth><distance>1.2328362464904785</distance><timeResidual>-0.2318878173828125</timeResidual><timeUsed>true</timeUsed><horizontalSlownessUsed>false</horizontalSlownessUsed><backazimuthUsed>false</backazimuthUsed><weight>1</weight></arrival><arrival><pickID>de.gempa.tb1.Pick/20250413060707.571436.129334</pickID><phase>P</phase><azimuth>227.34141540527344</azimuth><distance>1.3937749862670898</distance><timeResidual>-0.015392303466796875</timeResidual><timeUsed>true</timeUsed><horizontalSlownessUsed>false</horizontalSlownessUsed><backazimuthUsed>false</backazimuthUsed><weight>1</weight></arrival><arrival><pickID>de.gempa.tb1.Pick/20250413060722.442408.129338</pickID><phase>P</phase><azimuth>271.1947937011719</azimuth><distance>1.3245576620101929</distance><timeResidual>0.04739761352539062</timeResidual><timeUsed>true</timeUsed><horizontalSlownessUsed>false</horizontalSlownessUsed><backazimuthUsed>false</backazimuthUsed><weight>1</weight></arrival><arrival><pickID>de.gempa.tb1.Pick/20250413060724.654762.129340</pickID><phase>S</phase><azimuth>306.56939697265625</azimuth><distance>1.1927348375320435</distance><timeResidual>-0.21548843383789062</timeResidual><timeUsed>true</timeUsed><horizontalSlownessUsed>false</horizontalSlownessUsed><backazimuthUsed>false</backazimuthUsed><weight>1</weight></arrival><arrival><pickID>de.gempa.tb1.Pick/20250413060725.681363.129341</pickID><phase>S</phase><azimuth>287.92376708984375</azimuth><distance>1.4053434133529663</distance><timeResidual>0.19683265686035156</timeResidual><timeUsed>true</timeUsed><horizontalSlownessUsed>false</horizontalSlownessUsed><backazimuthUsed>false</backazimuthUsed><weight>1</weight></arrival><arrival><pickID>de.gempa.tb1.Pick/20250413060728.572086.129342</pickID><phase>S</phase><azimuth>256.320556640625</azimuth><distance>1.2328362464904785</distance><timeResidual>-0.1687030792236328</timeResidual><timeUsed>true</timeUsed><horizontalSlownessUsed>false</horizontalSlownessUsed><backazimuthUsed>false</backazimuthUsed><weight>1</weight></arrival><arrival><pickID>de.gempa.tb1.Pick/20250413060731.567092.129343</pickID><phase>S</phase><azimuth>271.1947937011719</azimuth><distance>1.3245576620101929</distance><timeResidual>0.1362476348876953</timeResidual><timeUsed>true</timeUsed><horizontalSlownessUsed>false</horizontalSlownessUsed><backazimuthUsed>false</backazimuthUsed><weight>1</weight></arrival><magnitude publicID="de.gempa.tb1.Magnitude/20250413060816.565122.321400"><magnitude><value>2.3686998240612827</value></magnitude><type>M</type><methodID>weighted average</methodID><stationCount>1</stationCount></magnitude></origin><event publicID="gempa2025hgwl"><preferredOriginID>de.gempa.tb1.Origin/20250413060731.569798.102433</preferredOriginID><preferredMagnitudeID>de.gempa.tb1.Magnitude/20250413060816.565122.321400</preferredMagnitudeID><description><text>Chile-Bolivia Border Region</text><type>region name</type></description><originReference>de.gempa.tb1.Origin/20250413060731.569798.102433</originReference></event></EventParameters></seiscomp>