<?xml version="1.0" encoding="UTF-8"?>
<seiscomp xmlns="http://geofon.gfz-potsdam.de/ns/seiscomp3-schema/0.13" version="0.13"><EventParameters><pick publicID="de.gempa.tb1.Pick/20250414131958.527515.138242"><time><value>2025-04-14T13:19:53.478393Z</value></time><waveformID networkCode="CX" stationCode="PB03" channelCode="HHZ"/><filterID>ITAPER(4)&gt;&gt;BW(4,4,20)</filterID><methodID>AIC</methodID><horizontalSlowness><value>15.018377476146032</value></horizontalSlowness><backazimuth><value>168.47084878991024</value></backazimuth><phaseHint>P</phaseHint><evaluationMode>automatic</evaluationMode><comment><text>5.930904851079348</text><id>DFX:rectilinearity</id></comment><comment><text>8.760713913256575</text><id>SNR</id></comment></pick><pick publicID="de.gempa.tb1.Pick/20250414132005.551546.138248"><time><value>2025-04-14T13:19:58.43Z</value></time><waveformID networkCode="CX" stationCode="PB19" channelCode="HHZ"/><filterID>ITAPER(4)&gt;&gt;BW(4,4,20)</filterID><methodID>AIC</methodID><horizontalSlowness><value>19.7694377887114</value></horizontalSlowness><backazimuth><value>7.528321009275942</value></backazimuth><phaseHint>P</phaseHint><evaluationMode>automatic</evaluationMode><comment><text>94.96541861046273</text><id>DFX:rectilinearity</id></comment><comment><text>8.755404055324961</text><id>SNR</id></comment></pick><pick publicID="de.gempa.tb1.Pick/20250414132009.613037.138250"><time><value>2025-04-14T13:20:02.448393Z</value></time><waveformID networkCode="CX" stationCode="PB06" channelCode="HHN"/><filterID>ITAPER(2)&gt;&gt;BW(3,3,20)</filterID><methodID>L2-AIC-GRID</methodID><horizontalSlowness><value>23.4366770338918</value></horizontalSlowness><backazimuth><value>49.31257979479437</value></backazimuth><phaseHint>S</phaseHint><evaluationMode>automatic</evaluationMode><comment><text>150.53162949475347</text><id>DFX:rectilinearity</id></comment><comment><text>de.gempa.tb1.Pick/20250414131951.705142.138240</text><id>RefPickID</id></comment><comment><text>26.23882439664686</text><id>SNR</id></comment></pick><pick publicID="de.gempa.tb1.Pick/20250414132013.717834.138251"><time><value>2025-04-14T13:19:57.218396Z</value></time><waveformID networkCode="CX" stationCode="PB07" channelCode="HHZ"/><filterID>ITAPER(4)&gt;&gt;BW(4,4,20)</filterID><methodID>AIC</methodID><horizontalSlowness><value>23.39253477449591</value></horizontalSlowness><backazimuth><value>211.87007908690916</value></backazimuth><phaseHint>P</phaseHint><evaluationMode>automatic</evaluationMode><comment><text>177.88916671524856</text><id>DFX:rectilinearity</id></comment><comment><text>15.010305483398987</text><id>SNR</id></comment></pick><pick publicID="de.gempa.tb1.Pick/20250414132035.555969.138258"><time><value>2025-04-14T13:20:16.61Z</value></time><waveformID networkCode="CX" stationCode="PB09" channelCode="HHN"/><filterID>ITAPER(2)&gt;&gt;BW(3,3,20)</filterID><methodID>L2-AIC-GRID</methodID><horizontalSlowness><value>17.85126812873428</value></horizontalSlowness><backazimuth><value>316.34108027408746</value></backazimuth><phaseHint>S</phaseHint><evaluationMode>automatic</evaluationMode><comment><text>22.482153401066675</text><id>DFX:rectilinearity</id></comment><comment><text>de.gempa.tb1.Pick/20250414132000.674914.138244</text><id>RefPickID</id></comment><comment><text>6.936601843787932</text><id>SNR</id></comment></pick><origin publicID="de.gempa.tb1.Origin/20250414132036.411686.139526"><time><value>2025-04-14T13:19:35.11823Z</value><uncertainty>1.1286009550094604</uncertainty></time><latitude><value>-22.83909606933594</value><uncertainty>5.371710300445557</uncertainty></latitude><longitude><value>-69.99504852294922</value><uncertainty>16.372394561767578</uncertainty></longitude><depth><value>102.12969970703125</value><uncertainty>12.66947364807129</uncertainty></depth><depthType>from location</depthType><methodID>LOCSAT</methodID><earthModelID>iasp91_scanloc</earthModelID><quality><associatedPhaseCount>5</associatedPhaseCount><usedPhaseCount>5</usedPhaseCount><associatedStationCount>5</associatedStationCount><usedStationCount>5</usedStationCount><depthPhaseCount>0</depthPhaseCount><standardError>0.20775951892364442</standardError><azimuthalGap>216.47804355621338</azimuthalGap><maximumDistance>1.2502858638763428</maximumDistance><minimumDistance>0.41249337792396545</minimumDistance><medianDistance>1.1116865873336792</medianDistance></quality><uncertainty><minHorizontalUncertainty>11.517084121704102</minHorizontalUncertainty><maxHorizontalUncertainty>35.115116119384766</maxHorizontalUncertainty><azimuthMaxHorizontalUncertainty>89.49994659423828</azimuthMaxHorizontalUncertainty><preferredDescription>horizontal uncertainty</preferredDescription></uncertainty><evaluationMode>automatic</evaluationMode><evaluationStatus>confirmed</evaluationStatus><comment><text>0.41</text><id>mismatchScore</id></comment><comment><text>mismatchScore</text><id>scevalMethod</id></comment><arrival><pickID>de.gempa.tb1.Pick/20250414131958.527515.138242</pickID><phase>P</phase><azimuth>15.925715446472168</azimuth><distance>0.8180826902389526</distance><timeResidual>-0.36066436767578125</timeResidual><timeUsed>true</timeUsed><horizontalSlownessUsed>false</horizontalSlownessUsed><backazimuthUsed>false</backazimuthUsed><weight>1</weight></arrival><arrival><pickID>de.gempa.tb1.Pick/20250414132005.551546.138248</pickID><phase>P</phase><azimuth>148.74685668945312</azimuth><distance>1.242659568786621</distance><timeResidual>0.018510818481445312</timeResidual><timeUsed>true</timeUsed><horizontalSlownessUsed>false</horizontalSlownessUsed><backazimuthUsed>false</backazimuthUsed><weight>1</weight></arrival><arrival><pickID>de.gempa.tb1.Pick/20250414132009.613037.138250</pickID><phase>S</phase><azimuth>71.32005310058594</azimuth><distance>0.41249337792396545</distance><timeResidual>0.04130363464355469</timeResidual><timeUsed>true</timeUsed><horizontalSlownessUsed>false</horizontalSlownessUsed><backazimuthUsed>false</backazimuthUsed><weight>1</weight></arrival><arrival><pickID>de.gempa.tb1.Pick/20250414132013.717834.138251</pickID><phase>P</phase><azimuth>5.224900245666504</azimuth><distance>1.1116865873336792</distance><timeResidual>0.2890586853027344</timeResidual><timeUsed>true</timeUsed><horizontalSlownessUsed>false</horizontalSlownessUsed><backazimuthUsed>false</backazimuthUsed><weight>1</weight></arrival><arrival><pickID>de.gempa.tb1.Pick/20250414132035.555969.138258</pickID><phase>S</phase><azimuth>34.04505920410156</azimuth><distance>1.2502858638763428</distance><timeResidual>0.011735916137695312</timeResidual><timeUsed>true</timeUsed><horizontalSlownessUsed>false</horizontalSlownessUsed><backazimuthUsed>false</backazimuthUsed><weight>1</weight></arrival><magnitude publicID="de.gempa.tb1.Magnitude/20250414132113.576251.494058"><magnitude><value>2.4634025469301943</value></magnitude><type>M</type><methodID>weighted average</methodID><stationCount>2</stationCount></magnitude></origin><event publicID="gempa2025hjgx"><preferredOriginID>de.gempa.tb1.Origin/20250414132036.411686.139526</preferredOriginID><preferredMagnitudeID>de.gempa.tb1.Magnitude/20250414132113.576251.494058</preferredMagnitudeID><typeCertainty>suspected</typeCertainty><description><text>Northern Chile</text><type>region name</type></description><originReference>de.gempa.tb1.Origin/20250414132036.411686.139526</originReference></event></EventParameters></seiscomp>