<?xml version="1.0" encoding="UTF-8"?>
<seiscomp xmlns="http://geofon.gfz-potsdam.de/ns/seiscomp3-schema/0.13" version="0.13"><EventParameters><pick publicID="de.gempa.tb1.Pick/20250411213616.578746.120156"><time><value>2025-04-11T21:36:11.128394Z</value></time><waveformID networkCode="CX" stationCode="PB03" channelCode="HHZ"/><filterID>ITAPER(4)&gt;&gt;BW(4,4,20)</filterID><methodID>AIC</methodID><horizontalSlowness><value>9.966284527568561</value></horizontalSlowness><backazimuth><value>127.04138082347316</value></backazimuth><phaseHint>P</phaseHint><evaluationMode>automatic</evaluationMode><comment><text>7.072067570563304</text><id>DFX:rectilinearity</id></comment><comment><text>9.520668467876495</text><id>SNR</id></comment></pick><pick publicID="de.gempa.tb1.Pick/20250411213617.623859.120158"><time><value>2025-04-11T21:36:08.758393Z</value></time><waveformID networkCode="CX" stationCode="PB06" channelCode="HHZ"/><filterID>ITAPER(4)&gt;&gt;BW(4,4,20)</filterID><methodID>AIC</methodID><horizontalSlowness><value>6.398931298116096</value></horizontalSlowness><backazimuth><value>234.4673827478933</value></backazimuth><phaseHint>P</phaseHint><evaluationMode>automatic</evaluationMode><comment><text>77.43186614311946</text><id>DFX:rectilinearity</id></comment><comment><text>6.439225149317013</text><id>SNR</id></comment></pick><pick publicID="de.gempa.tb1.Pick/20250411213621.176059.120160"><time><value>2025-04-11T21:36:09.68Z</value></time><waveformID networkCode="CX" stationCode="PB09" channelCode="HHZ"/><filterID>ITAPER(4)&gt;&gt;BW(4,4,20)</filterID><methodID>AIC</methodID><horizontalSlowness><value>12.908571811766754</value></horizontalSlowness><backazimuth><value>273.35929334054316</value></backazimuth><phaseHint>P</phaseHint><evaluationMode>automatic</evaluationMode><comment><text>11.332021642856319</text><id>DFX:rectilinearity</id></comment><comment><text>13.4780079958364</text><id>SNR</id></comment></pick><pick publicID="de.gempa.tb1.Pick/20250411213624.552901.120162"><time><value>2025-04-11T21:36:17.778393Z</value></time><waveformID networkCode="CX" stationCode="PB02" channelCode="HHZ"/><filterID>ITAPER(4)&gt;&gt;BW(4,4,20)</filterID><methodID>AIC</methodID><horizontalSlowness><value>7.199394085520383</value></horizontalSlowness><backazimuth><value>103.14914987396718</value></backazimuth><phaseHint>P</phaseHint><evaluationMode>automatic</evaluationMode><comment><text>27.12925581801628</text><id>DFX:rectilinearity</id></comment><comment><text>9.601054599776027</text><id>SNR</id></comment></pick><pick publicID="de.gempa.tb1.Pick/20250411213625.566701.120164"><time><value>2025-04-11T21:36:18.058393Z</value></time><waveformID networkCode="CX" stationCode="PB01" channelCode="HHZ"/><filterID>ITAPER(4)&gt;&gt;BW(4,4,20)</filterID><methodID>AIC</methodID><horizontalSlowness><value>19.082700625244016</value></horizontalSlowness><backazimuth><value>327.08689317957044</value></backazimuth><phaseHint>P</phaseHint><evaluationMode>automatic</evaluationMode><comment><text>4.1339854546358765</text><id>DFX:rectilinearity</id></comment><comment><text>9.569584169580532</text><id>SNR</id></comment></pick><pick publicID="de.gempa.tb1.Pick/20250411213632.647273.120168"><time><value>2025-04-11T21:36:23.798393Z</value></time><waveformID networkCode="CX" stationCode="PB06" channelCode="HHN"/><filterID>ITAPER(2)&gt;&gt;BW(3,3,20)</filterID><methodID>L2-AIC-GRID</methodID><horizontalSlowness><value>13.750618486235714</value></horizontalSlowness><backazimuth><value>27.371888841396384</value></backazimuth><phaseHint>S</phaseHint><evaluationMode>automatic</evaluationMode><comment><text>62.19114612949327</text><id>DFX:rectilinearity</id></comment><comment><text>de.gempa.tb1.Pick/20250411213617.623859.120158</text><id>RefPickID</id></comment><comment><text>7.253356958227957</text><id>SNR</id></comment></pick><pick publicID="de.gempa.tb1.Pick/20250411213636.643218.120171"><time><value>2025-04-11T21:36:27.608394Z</value></time><waveformID networkCode="CX" stationCode="PB03" channelCode="HHN"/><filterID>ITAPER(2)&gt;&gt;BW(3,3,20)</filterID><methodID>L2-AIC-GRID</methodID><horizontalSlowness><value>12.60236614451133</value></horizontalSlowness><backazimuth><value>260.84012284374694</value></backazimuth><phaseHint>S</phaseHint><evaluationMode>automatic</evaluationMode><comment><text>161.18019178448515</text><id>DFX:rectilinearity</id></comment><comment><text>de.gempa.tb1.Pick/20250411213616.578746.120156</text><id>RefPickID</id></comment><comment><text>12.329133232074494</text><id>SNR</id></comment></pick><pick publicID="de.gempa.tb1.Pick/20250411213646.996119.120177"><time><value>2025-04-11T21:36:14.618389Z</value></time><waveformID networkCode="CX" stationCode="PB07" channelCode="HHZ"/><filterID>ITAPER(4)&gt;&gt;BW(4,4,20)</filterID><methodID>AIC</methodID><horizontalSlowness><value>19.464571298687488</value></horizontalSlowness><backazimuth><value>306.86951775302066</value></backazimuth><phaseHint>P</phaseHint><evaluationMode>automatic</evaluationMode><comment><text>106.11767297768019</text><id>DFX:rectilinearity</id></comment><comment><text>21.794471176215271</text><id>SNR</id></comment></pick><pick publicID="de.gempa.tb1.Pick/20250411213650.780117.120181"><time><value>2025-04-11T21:36:40.188393Z</value></time><waveformID networkCode="CX" stationCode="PB01" channelCode="HHN"/><filterID>ITAPER(2)&gt;&gt;BW(3,3,20)</filterID><methodID>L2-AIC-GRID</methodID><horizontalSlowness><value>22.750257982642555</value></horizontalSlowness><backazimuth><value>58.22217816462715</value></backazimuth><phaseHint>S</phaseHint><evaluationMode>automatic</evaluationMode><comment><text>13.006530350846555</text><id>DFX:rectilinearity</id></comment><comment><text>de.gempa.tb1.Pick/20250411213625.566701.120164</text><id>RefPickID</id></comment><comment><text>7.968810273928177</text><id>SNR</id></comment></pick><origin publicID="de.gempa.tb1.Origin/20250411213650.810655.66478"><time><value>2025-04-11T21:35:49.885796Z</value><uncertainty>1.2185437679290771</uncertainty></time><latitude><value>-22.519182205200195</value><uncertainty>5.999163150787354</uncertainty></latitude><longitude><value>-68.8183364868164</value><uncertainty>18.434246063232422</uncertainty></longitude><depth><value>114.44701385498047</value><uncertainty>16.382402420043945</uncertainty></depth><depthType>from location</depthType><methodID>LOCSAT</methodID><earthModelID>iasp91_scanloc</earthModelID><quality><associatedPhaseCount>9</associatedPhaseCount><usedPhaseCount>9</usedPhaseCount><associatedStationCount>6</associatedStationCount><usedStationCount>6</usedStationCount><depthPhaseCount>0</depthPhaseCount><standardError>0.19261104298854978</standardError><azimuthalGap>277.9922332763672</azimuthalGap><maximumDistance>1.594983458518982</maximumDistance><minimumDistance>0.7206448316574097</minimumDistance><medianDistance>0.9843898415565491</medianDistance></quality><uncertainty><minHorizontalUncertainty>12.8601655960083</minHorizontalUncertainty><maxHorizontalUncertainty>39.52953338623047</maxHorizontalUncertainty><azimuthMaxHorizontalUncertainty>90.47672271728516</azimuthMaxHorizontalUncertainty><preferredDescription>horizontal uncertainty</preferredDescription></uncertainty><evaluationMode>automatic</evaluationMode><evaluationStatus>confirmed</evaluationStatus><comment><text>0.15</text><id>mismatchScore</id></comment><comment><text>mismatchScore</text><id>scevalMethod</id></comment><arrival><pickID>de.gempa.tb1.Pick/20250411213616.578746.120156</pickID><phase>P</phase><azimuth>298.24029541015625</azimuth><distance>0.9843898415565491</distance><timeResidual>-0.2028522491455078</timeResidual><timeUsed>true</timeUsed><horizontalSlownessUsed>false</horizontalSlownessUsed><backazimuthUsed>false</backazimuthUsed><weight>1</weight></arrival><arrival><pickID>de.gempa.tb1.Pick/20250411213617.623859.120158</pickID><phase>P</phase><azimuth>254.9206085205078</azimuth><distance>0.7206448316574097</distance><timeResidual>-0.13065338134765625</timeResidual><timeUsed>true</timeUsed><horizontalSlownessUsed>false</horizontalSlownessUsed><backazimuthUsed>false</backazimuthUsed><weight>1</weight></arrival><arrival><pickID>de.gempa.tb1.Pick/20250411213621.176059.120160</pickID><phase>P</phase><azimuth>331.2906494140625</azimuth><distance>0.8195276856422424</distance><timeResidual>-0.0775604248046875</timeResidual><timeUsed>true</timeUsed><horizontalSlownessUsed>false</horizontalSlownessUsed><backazimuthUsed>false</backazimuthUsed><weight>1</weight></arrival><arrival><pickID>de.gempa.tb1.Pick/20250411213624.552901.120162</pickID><phase>P</phase><azimuth>319.82318115234375</azimuth><distance>1.5576108694076538</distance><timeResidual>0.09030532836914062</timeResidual><timeUsed>true</timeUsed><horizontalSlownessUsed>false</horizontalSlownessUsed><backazimuthUsed>false</backazimuthUsed><weight>1</weight></arrival><arrival><pickID>de.gempa.tb1.Pick/20250411213625.566701.120164</pickID><phase>P</phase><azimuth>336.9283752441406</azimuth><distance>1.594983458518982</distance><timeResidual>-0.07659530639648438</timeResidual><timeUsed>true</timeUsed><horizontalSlownessUsed>false</horizontalSlownessUsed><backazimuthUsed>false</backazimuthUsed><weight>1</weight></arrival><arrival><pickID>de.gempa.tb1.Pick/20250411213632.647273.120168</pickID><phase>S</phase><azimuth>254.9206085205078</azimuth><distance>0.7206448316574097</distance><timeResidual>0.2530708312988281</timeResidual><timeUsed>true</timeUsed><horizontalSlownessUsed>false</horizontalSlownessUsed><backazimuthUsed>false</backazimuthUsed><weight>1</weight></arrival><arrival><pickID>de.gempa.tb1.Pick/20250411213636.643218.120171</pickID><phase>S</phase><azimuth>298.24029541015625</azimuth><distance>0.9843898415565491</distance><timeResidual>-0.29001808166503906</timeResidual><timeUsed>true</timeUsed><horizontalSlownessUsed>false</horizontalSlownessUsed><backazimuthUsed>false</backazimuthUsed><weight>1</weight></arrival><arrival><pickID>de.gempa.tb1.Pick/20250411213646.996119.120177</pickID><phase>P</phase><azimuth>308.3376770019531</azimuth><distance>1.2658753395080566</distance><timeResidual>0.29819488525390625</timeResidual><timeUsed>true</timeUsed><horizontalSlownessUsed>false</horizontalSlownessUsed><backazimuthUsed>false</backazimuthUsed><weight>1</weight></arrival><arrival><pickID>de.gempa.tb1.Pick/20250411213650.780117.120181</pickID><phase>S</phase><azimuth>336.9283752441406</azimuth><distance>1.594983458518982</distance><timeResidual>0.13623046875</timeResidual><timeUsed>true</timeUsed><horizontalSlownessUsed>false</horizontalSlownessUsed><backazimuthUsed>false</backazimuthUsed><weight>1</weight></arrival><magnitude publicID="de.gempa.tb1.Magnitude/20250411213655.945555.144864"><magnitude><value>2.1711294492497668</value></magnitude><type>M</type><methodID>weighted average</methodID><stationCount>3</stationCount></magnitude></origin><event publicID="gempa2025hejk"><preferredOriginID>de.gempa.tb1.Origin/20250411213650.810655.66478</preferredOriginID><preferredMagnitudeID>de.gempa.tb1.Magnitude/20250411213655.945555.144864</preferredMagnitudeID><description><text>Northern Chile</text><type>region name</type></description><originReference>de.gempa.tb1.Origin/20250411213650.810655.66478</originReference></event></EventParameters></seiscomp>