<?xml version="1.0" encoding="UTF-8"?>
<seiscomp xmlns="http://geofon.gfz-potsdam.de/ns/seiscomp3-schema/0.13" version="0.13"><EventParameters><pick publicID="de.gempa.tb1.Pick/20250415062616.519523.143966"><time><value>2025-04-15T06:26:10.918393Z</value></time><waveformID networkCode="CX" stationCode="PB06" channelCode="HHZ"/><filterID>ITAPER(4)&gt;&gt;BW(4,4,20)</filterID><methodID>AIC</methodID><horizontalSlowness><value>16.397572817088154</value></horizontalSlowness><backazimuth><value>303.2730807585986</value></backazimuth><phaseHint>P</phaseHint><evaluationMode>automatic</evaluationMode><comment><text>69.0400047364195</text><id>DFX:rectilinearity</id></comment><comment><text>13.293005159764839</text><id>SNR</id></comment></pick><pick publicID="de.gempa.tb1.Pick/20250415062617.687677.143968"><time><value>2025-04-15T06:26:12.758393Z</value></time><waveformID networkCode="CX" stationCode="PB15" channelCode="HHZ"/><filterID>ITAPER(4)&gt;&gt;BW(4,4,20)</filterID><methodID>AIC</methodID><horizontalSlowness><value>21.2927909474559</value></horizontalSlowness><backazimuth><value>97.29882107672796</value></backazimuth><phaseHint>P</phaseHint><evaluationMode>automatic</evaluationMode><comment><text>256.7276918886547</text><id>DFX:rectilinearity</id></comment><comment><text>13.899250033933786</text><id>SNR</id></comment></pick><pick publicID="de.gempa.tb1.Pick/20250415062619.519873.143970"><time><value>2025-04-15T06:26:13.378393Z</value></time><waveformID networkCode="CX" stationCode="PB03" channelCode="HHZ"/><filterID>ITAPER(4)&gt;&gt;BW(4,4,20)</filterID><methodID>AIC</methodID><horizontalSlowness><value>22.051756922918258</value></horizontalSlowness><backazimuth><value>306.35740956433045</value></backazimuth><phaseHint>P</phaseHint><evaluationMode>automatic</evaluationMode><comment><text>10.044204554488125</text><id>DFX:rectilinearity</id></comment><comment><text>21.009119177855428</text><id>SNR</id></comment></pick><pick publicID="de.gempa.tb1.Pick/20250415062623.58274.143974"><time><value>2025-04-15T06:26:16.548363Z</value></time><waveformID networkCode="CX" stationCode="PB07" channelCode="HHZ"/><filterID>ITAPER(4)&gt;&gt;BW(4,4,20)</filterID><methodID>AIC</methodID><horizontalSlowness><value>23.546490703681</value></horizontalSlowness><backazimuth><value>65.11803384367727</value></backazimuth><phaseHint>P</phaseHint><evaluationMode>automatic</evaluationMode><comment><text>210.59367719682615</text><id>DFX:rectilinearity</id></comment><comment><text>19.034407914855816</text><id>SNR</id></comment></pick><pick publicID="de.gempa.tb1.Pick/20250415062625.584513.143976"><time><value>2025-04-15T06:26:20.098393Z</value></time><waveformID networkCode="CX" stationCode="PB01" channelCode="HHZ"/><filterID>ITAPER(4)&gt;&gt;BW(4,4,20)</filterID><methodID>AIC</methodID><horizontalSlowness><value>21.76977542963342</value></horizontalSlowness><backazimuth><value>305.95840090412287</value></backazimuth><phaseHint>P</phaseHint><evaluationMode>automatic</evaluationMode><comment><text>7.850634141293919</text><id>DFX:rectilinearity</id></comment><comment><text>4.559942512346193</text><id>SNR</id></comment></pick><pick publicID="de.gempa.tb1.Pick/20250415062628.969272.143978"><time><value>2025-04-15T06:26:11.9Z</value></time><waveformID networkCode="CX" stationCode="PB09" channelCode="HHZ"/><filterID>ITAPER(4)&gt;&gt;BW(4,4,20)</filterID><methodID>AIC</methodID><horizontalSlowness><value>15.877749147590908</value></horizontalSlowness><backazimuth><value>278.95843780886537</value></backazimuth><phaseHint>P</phaseHint><evaluationMode>automatic</evaluationMode><comment><text>22.167998982287216</text><id>DFX:rectilinearity</id></comment><comment><text>15.555022167601173</text><id>SNR</id></comment></pick><pick publicID="de.gempa.tb1.Pick/20250415062633.59864.143982"><time><value>2025-04-15T06:26:26.778393Z</value></time><waveformID networkCode="CX" stationCode="PB06" channelCode="HHN"/><filterID>ITAPER(2)&gt;&gt;BW(3,3,20)</filterID><methodID>L2-AIC-GRID</methodID><horizontalSlowness><value>3.0825864240430976</value></horizontalSlowness><backazimuth><value>128.86817997069903</value></backazimuth><phaseHint>S</phaseHint><evaluationMode>automatic</evaluationMode><comment><text>58.53862848837295</text><id>DFX:rectilinearity</id></comment><comment><text>de.gempa.tb1.Pick/20250415062616.519523.143966</text><id>RefPickID</id></comment><comment><text>5.223076098305452</text><id>SNR</id></comment></pick><pick publicID="de.gempa.tb1.Pick/20250415062636.72806.143985"><time><value>2025-04-15T06:26:30.238393Z</value></time><waveformID networkCode="CX" stationCode="PB03" channelCode="HHN"/><filterID>ITAPER(2)&gt;&gt;BW(3,3,20)</filterID><methodID>L2-AIC-GRID</methodID><horizontalSlowness><value>16.497354123856606</value></horizontalSlowness><backazimuth><value>228.71974542732005</value></backazimuth><phaseHint>S</phaseHint><evaluationMode>automatic</evaluationMode><comment><text>49.55398373475239</text><id>DFX:rectilinearity</id></comment><comment><text>de.gempa.tb1.Pick/20250415062619.519873.143970</text><id>RefPickID</id></comment><comment><text>12.442929881751047</text><id>SNR</id></comment></pick><pick publicID="de.gempa.tb1.Pick/20250415062649.572274.143989"><time><value>2025-04-15T06:26:41.748393Z</value></time><waveformID networkCode="CX" stationCode="PB01" channelCode="HHN"/><filterID>ITAPER(2)&gt;&gt;BW(3,3,20)</filterID><methodID>L2-AIC-GRID</methodID><horizontalSlowness><value>22.91223259602096</value></horizontalSlowness><backazimuth><value>248.40086130097444</value></backazimuth><phaseHint>S</phaseHint><evaluationMode>automatic</evaluationMode><comment><text>17.835984182871243</text><id>DFX:rectilinearity</id></comment><comment><text>de.gempa.tb1.Pick/20250415062625.584513.143976</text><id>RefPickID</id></comment><comment><text>6.116944925093646</text><id>SNR</id></comment></pick><pick publicID="de.gempa.tb1.Pick/20250415062722.113022.143990"><time><value>2025-04-15T06:26:35.678363Z</value></time><waveformID networkCode="CX" stationCode="PB07" channelCode="HHN"/><filterID>ITAPER(2)&gt;&gt;BW(3,3,20)</filterID><methodID>L2-AIC-GRID</methodID><horizontalSlowness><value>23.02309912502035</value></horizontalSlowness><backazimuth><value>37.29678491104815</value></backazimuth><phaseHint>S</phaseHint><evaluationMode>automatic</evaluationMode><comment><text>451.4842220766336</text><id>DFX:rectilinearity</id></comment><comment><text>de.gempa.tb1.Pick/20250415062623.58274.143974</text><id>RefPickID</id></comment><comment><text>7.878316216001537</text><id>SNR</id></comment></pick><origin publicID="de.gempa.tb1.Origin/20250415062722.118543.163163"><time><value>2025-04-15T06:25:51.421071Z</value><uncertainty>1.113698959350586</uncertainty></time><latitude><value>-22.49846649169922</value><uncertainty>4.749510288238525</uncertainty></latitude><longitude><value>-68.79546356201172</value><uncertainty>16.52189826965332</uncertainty></longitude><depth><value>120.10531616210938</value><uncertainty>17.486492156982422</uncertainty></depth><depthType>from location</depthType><methodID>LOCSAT</methodID><earthModelID>iasp91_scanloc</earthModelID><quality><associatedPhaseCount>10</associatedPhaseCount><usedPhaseCount>10</usedPhaseCount><associatedStationCount>6</associatedStationCount><usedStationCount>6</usedStationCount><depthPhaseCount>0</depthPhaseCount><standardError>0.21097151881540324</standardError><azimuthalGap>245.35333251953125</azimuthalGap><maximumDistance>1.5845452547073364</maximumDistance><minimumDistance>0.7465714812278748</minimumDistance><medianDistance>0.9936693906784058</medianDistance></quality><uncertainty><minHorizontalUncertainty>9.770302772521973</minHorizontalUncertainty><maxHorizontalUncertainty>35.54239273071289</maxHorizontalUncertainty><azimuthMaxHorizontalUncertainty>85.17791748046875</azimuthMaxHorizontalUncertainty><preferredDescription>horizontal uncertainty</preferredDescription></uncertainty><evaluationMode>automatic</evaluationMode><evaluationStatus>confirmed</evaluationStatus><comment><text>0.00</text><id>mismatchScore</id></comment><comment><text>mismatchScore</text><id>scevalMethod</id></comment><arrival><pickID>de.gempa.tb1.Pick/20250415062616.519523.143966</pickID><phase>P</phase><azimuth>253.80653381347656</azimuth><distance>0.7465714812278748</distance><timeResidual>-0.27976036071777344</timeResidual><timeUsed>true</timeUsed><horizontalSlownessUsed>false</horizontalSlownessUsed><backazimuthUsed>false</backazimuthUsed><weight>1</weight></arrival><arrival><pickID>de.gempa.tb1.Pick/20250415062617.687677.143968</pickID><phase>P</phase><azimuth>221.27740478515625</azimuth><distance>0.9420146346092224</distance><timeResidual>-0.17925453186035156</timeResidual><timeUsed>true</timeUsed><horizontalSlownessUsed>false</horizontalSlownessUsed><backazimuthUsed>false</backazimuthUsed><weight>1</weight></arrival><arrival><pickID>de.gempa.tb1.Pick/20250415062619.519873.143970</pickID><phase>P</phase><azimuth>296.607177734375</azimuth><distance>0.9936693906784058</distance><timeResidual>-0.06338882446289062</timeResidual><timeUsed>true</timeUsed><horizontalSlownessUsed>false</horizontalSlownessUsed><backazimuthUsed>false</backazimuthUsed><weight>1</weight></arrival><arrival><pickID>de.gempa.tb1.Pick/20250415062623.58274.143974</pickID><phase>P</phase><azimuth>307.0075988769531</azimuth><distance>1.2700167894363403</distance><timeResidual>0.23635292053222656</timeResidual><timeUsed>true</timeUsed><horizontalSlownessUsed>false</horizontalSlownessUsed><backazimuthUsed>false</backazimuthUsed><weight>1</weight></arrival><arrival><pickID>de.gempa.tb1.Pick/20250415062625.584513.143976</pickID><phase>P</phase><azimuth>335.924072265625</azimuth><distance>1.5845452547073364</distance><timeResidual>0.21004486083984375</timeResidual><timeUsed>true</timeUsed><horizontalSlownessUsed>false</horizontalSlownessUsed><backazimuthUsed>false</backazimuthUsed><weight>1</weight></arrival><arrival><pickID>de.gempa.tb1.Pick/20250415062628.969272.143978</pickID><phase>P</phase><azimuth>329.2740783691406</azimuth><distance>0.8121060132980347</distance><timeResidual>0.13962936401367188</timeResidual><timeUsed>true</timeUsed><horizontalSlownessUsed>false</horizontalSlownessUsed><backazimuthUsed>false</backazimuthUsed><weight>1</weight></arrival><arrival><pickID>de.gempa.tb1.Pick/20250415062633.59864.143982</pickID><phase>S</phase><azimuth>253.80653381347656</azimuth><distance>0.7465714812278748</distance><timeResidual>0.3107490539550781</timeResidual><timeUsed>true</timeUsed><horizontalSlownessUsed>false</horizontalSlownessUsed><backazimuthUsed>false</backazimuthUsed><weight>1</weight></arrival><arrival><pickID>de.gempa.tb1.Pick/20250415062636.72806.143985</pickID><phase>S</phase><azimuth>296.607177734375</azimuth><distance>0.9936693906784058</distance><timeResidual>-0.22899627685546875</timeResidual><timeUsed>true</timeUsed><horizontalSlownessUsed>false</horizontalSlownessUsed><backazimuthUsed>false</backazimuthUsed><weight>1</weight></arrival><arrival><pickID>de.gempa.tb1.Pick/20250415062649.572274.143989</pickID><phase>S</phase><azimuth>335.924072265625</azimuth><distance>1.5845452547073364</distance><timeResidual>-0.23330116271972656</timeResidual><timeUsed>true</timeUsed><horizontalSlownessUsed>false</horizontalSlownessUsed><backazimuthUsed>false</backazimuthUsed><weight>1</weight></arrival><arrival><pickID>de.gempa.tb1.Pick/20250415062722.113022.143990</pickID><phase>S</phase><azimuth>307.0075988769531</azimuth><distance>1.2700167894363403</distance><timeResidual>0.08810234069824219</timeResidual><timeUsed>true</timeUsed><horizontalSlownessUsed>false</horizontalSlownessUsed><backazimuthUsed>false</backazimuthUsed><weight>1</weight></arrival></origin><event publicID="gempa2025hkpd"><preferredOriginID>de.gempa.tb1.Origin/20250415062722.118543.163163</preferredOriginID><description><text>Northern Chile</text><type>region name</type></description><originReference>de.gempa.tb1.Origin/20250415062722.118543.163163</originReference></event></EventParameters></seiscomp>