<?xml version="1.0" encoding="UTF-8"?>
<seiscomp xmlns="http://geofon.gfz-potsdam.de/ns/seiscomp3-schema/0.13" version="0.13"><EventParameters><pick publicID="de.gempa.tb1.Pick/20250415031524.527844.143130"><time><value>2025-04-15T03:15:19.388393Z</value></time><waveformID networkCode="CX" stationCode="PB02" channelCode="HHZ"/><filterID>ITAPER(4)&gt;&gt;BW(4,4,20)</filterID><methodID>AIC</methodID><horizontalSlowness><value>15.1674154026282</value></horizontalSlowness><backazimuth><value>235.51028600288137</value></backazimuth><phaseHint>P</phaseHint><evaluationMode>automatic</evaluationMode><comment><text>32.060911839945604</text><id>DFX:rectilinearity</id></comment><comment><text>35.036597070181195</text><id>SNR</id></comment></pick><pick publicID="de.gempa.tb1.Pick/20250415031528.626855.143132"><time><value>2025-04-15T03:15:21.388393Z</value></time><waveformID networkCode="CX" stationCode="PB03" channelCode="HHZ"/><filterID>ITAPER(4)&gt;&gt;BW(4,4,20)</filterID><methodID>AIC</methodID><horizontalSlowness><value>22.393794682883733</value></horizontalSlowness><backazimuth><value>229.7279801588457</value></backazimuth><phaseHint>P</phaseHint><evaluationMode>automatic</evaluationMode><comment><text>10.519491200084325</text><id>DFX:rectilinearity</id></comment><comment><text>18.270059679347657</text><id>SNR</id></comment></pick><pick publicID="de.gempa.tb1.Pick/20250415031529.012454.143134"><time><value>2025-04-15T03:15:17.998385Z</value></time><waveformID networkCode="CX" stationCode="PB07" channelCode="HHZ"/><filterID>ITAPER(4)&gt;&gt;BW(4,4,20)</filterID><methodID>AIC</methodID><horizontalSlowness><value>22.82667243057764</value></horizontalSlowness><backazimuth><value>75.24711858219413</value></backazimuth><phaseHint>P</phaseHint><evaluationMode>automatic</evaluationMode><comment><text>348.369398057941</text><id>DFX:rectilinearity</id></comment><comment><text>55.73985746900673</text><id>SNR</id></comment></pick><pick publicID="de.gempa.tb1.Pick/20250415031530.587121.143136"><time><value>2025-04-15T03:15:27.41Z</value></time><waveformID networkCode="CX" stationCode="PB09" channelCode="HHZ"/><filterID>ITAPER(4)&gt;&gt;BW(4,4,20)</filterID><methodID>AIC</methodID><horizontalSlowness><value>14.907829931557307</value></horizontalSlowness><backazimuth><value>327.80249678188284</value></backazimuth><phaseHint>P</phaseHint><evaluationMode>automatic</evaluationMode><comment><text>16.334659282632447</text><id>DFX:rectilinearity</id></comment><comment><text>30.12085508770634</text><id>SNR</id></comment></pick><pick publicID="de.gempa.tb1.Pick/20250415031539.672739.143138"><time><value>2025-04-15T03:15:27.398393Z</value></time><waveformID networkCode="CX" stationCode="PB02" channelCode="HHN"/><filterID>ITAPER(2)&gt;&gt;BW(3,3,20)</filterID><methodID>L2-AIC-GRID</methodID><horizontalSlowness><value>5.527517670400948</value></horizontalSlowness><backazimuth><value>45.67259200050771</value></backazimuth><phaseHint>S</phaseHint><evaluationMode>automatic</evaluationMode><comment><text>342.7549645641943</text><id>DFX:rectilinearity</id></comment><comment><text>de.gempa.tb1.Pick/20250415031524.527844.143130</text><id>RefPickID</id></comment><comment><text>10.236289005525324</text><id>SNR</id></comment></pick><pick publicID="de.gempa.tb1.Pick/20250415031539.856786.143139"><time><value>2025-04-15T03:15:30.698393Z</value></time><waveformID networkCode="CX" stationCode="PB03" channelCode="HHN"/><filterID>ITAPER(2)&gt;&gt;BW(3,3,20)</filterID><methodID>L2-AIC-GRID</methodID><horizontalSlowness><value>16.430945631104688</value></horizontalSlowness><backazimuth><value>42.331191128263015</value></backazimuth><phaseHint>S</phaseHint><evaluationMode>automatic</evaluationMode><comment><text>36.435401707082534</text><id>DFX:rectilinearity</id></comment><comment><text>de.gempa.tb1.Pick/20250415031528.626855.143132</text><id>RefPickID</id></comment><comment><text>8.821208393781227</text><id>SNR</id></comment></pick><pick publicID="de.gempa.tb1.Pick/20250415031553.114475.143143"><time><value>2025-04-15T03:15:25.198385Z</value></time><waveformID networkCode="CX" stationCode="PB07" channelCode="HHN"/><filterID>ITAPER(2)&gt;&gt;BW(3,3,20)</filterID><methodID>L2-AIC-GRID</methodID><horizontalSlowness><value>22.831309729750146</value></horizontalSlowness><backazimuth><value>155.84206335066946</value></backazimuth><phaseHint>S</phaseHint><evaluationMode>automatic</evaluationMode><comment><text>1124.6289435439148</text><id>DFX:rectilinearity</id></comment><comment><text>de.gempa.tb1.Pick/20250415031529.012454.143134</text><id>RefPickID</id></comment><comment><text>7.536198245621551</text><id>SNR</id></comment></pick><pick publicID="de.gempa.tb1.Pick/20250415031602.865643.143145"><time><value>2025-04-15T03:15:41.0000Z</value></time><waveformID networkCode="CX" stationCode="PB09" channelCode="HHN"/><filterID>ITAPER(2)&gt;&gt;BW(3,3,20)</filterID><methodID>L2-AIC-GRID</methodID><horizontalSlowness><value>15.738848515457837</value></horizontalSlowness><backazimuth><value>306.6700967731332</value></backazimuth><phaseHint>S</phaseHint><evaluationMode>automatic</evaluationMode><comment><text>78.29521704801606</text><id>DFX:rectilinearity</id></comment><comment><text>de.gempa.tb1.Pick/20250415031530.587121.143136</text><id>RefPickID</id></comment><comment><text>5.740864322658826</text><id>SNR</id></comment></pick><origin publicID="de.gempa.tb1.Origin/20250415031602.868348.159157"><time><value>2025-04-15T03:15:08.396057Z</value><uncertainty>1.3087139129638672</uncertainty></time><latitude><value>-21.669391632080078</value><uncertainty>4.013692855834961</uncertainty></latitude><longitude><value>-70.35052490234375</value><uncertainty>7.384180545806885</uncertainty></longitude><depth><value>28.823427200317383</value><uncertainty>4.57811975479126</uncertainty></depth><depthType>from location</depthType><methodID>LOCSAT</methodID><earthModelID>iasp91_scanloc</earthModelID><quality><associatedPhaseCount>8</associatedPhaseCount><usedPhaseCount>8</usedPhaseCount><associatedStationCount>4</associatedStationCount><usedStationCount>4</usedStationCount><depthPhaseCount>0</depthPhaseCount><standardError>0.3557382278739329</standardError><azimuthalGap>286.34627532958984</azimuthalGap><maximumDistance>1.0384633541107178</maximumDistance><minimumDistance>0.43558576703071594</minimumDistance><medianDistance>0.671057403087616</medianDistance></quality><uncertainty><minHorizontalUncertainty>8.407873153686523</minHorizontalUncertainty><maxHorizontalUncertainty>15.941875457763672</maxHorizontalUncertainty><azimuthMaxHorizontalUncertainty>82.18473815917969</azimuthMaxHorizontalUncertainty><preferredDescription>horizontal uncertainty</preferredDescription></uncertainty><evaluationMode>automatic</evaluationMode><evaluationStatus>confirmed</evaluationStatus><comment><text>0.07</text><id>mismatchScore</id></comment><comment><text>mismatchScore</text><id>scevalMethod</id></comment><arrival><pickID>de.gempa.tb1.Pick/20250415031524.527844.143130</pickID><phase>P</phase><azimuth>50.66140747070312</azimuth><distance>0.5479231476783752</distance><timeResidual>-0.1634235382080078</timeResidual><timeUsed>true</timeUsed><horizontalSlownessUsed>false</horizontalSlownessUsed><backazimuthUsed>false</backazimuthUsed><weight>1</weight></arrival><arrival><pickID>de.gempa.tb1.Pick/20250415031528.626855.143132</pickID><phase>P</phase><azimuth>124.31513214111328</azimuth><distance>0.671057403087616</distance><timeResidual>-0.1904592514038086</timeResidual><timeUsed>true</timeUsed><horizontalSlownessUsed>false</horizontalSlownessUsed><backazimuthUsed>false</backazimuthUsed><weight>1</weight></arrival><arrival><pickID>de.gempa.tb1.Pick/20250415031529.012454.143134</pickID><phase>P</phase><azimuth>97.604248046875</azimuth><distance>0.43558576703071594</distance><timeResidual>0.2452430725097656</timeResidual><timeUsed>true</timeUsed><horizontalSlownessUsed>false</horizontalSlownessUsed><backazimuthUsed>false</backazimuthUsed><weight>1</weight></arrival><arrival><pickID>de.gempa.tb1.Pick/20250415031530.587121.143136</pickID><phase>P</phase><azimuth>97.19336700439453</azimuth><distance>1.0384633541107178</distance><timeResidual>0.3985872268676758</timeResidual><timeUsed>true</timeUsed><horizontalSlownessUsed>false</horizontalSlownessUsed><backazimuthUsed>false</backazimuthUsed><weight>1</weight></arrival><arrival><pickID>de.gempa.tb1.Pick/20250415031539.672739.143138</pickID><phase>S</phase><azimuth>50.66140747070312</azimuth><distance>0.5479231476783752</distance><timeResidual>-0.2870979309082031</timeResidual><timeUsed>true</timeUsed><horizontalSlownessUsed>false</horizontalSlownessUsed><backazimuthUsed>false</backazimuthUsed><weight>1</weight></arrival><arrival><pickID>de.gempa.tb1.Pick/20250415031539.856786.143139</pickID><phase>S</phase><azimuth>124.31513214111328</azimuth><distance>0.671057403087616</distance><timeResidual>-0.4963674545288086</timeResidual><timeUsed>true</timeUsed><horizontalSlownessUsed>false</horizontalSlownessUsed><backazimuthUsed>false</backazimuthUsed><weight>1</weight></arrival><arrival><pickID>de.gempa.tb1.Pick/20250415031553.114475.143143</pickID><phase>S</phase><azimuth>97.604248046875</azimuth><distance>0.43558576703071594</distance><timeResidual>0.6207466125488281</timeResidual><timeUsed>true</timeUsed><horizontalSlownessUsed>false</horizontalSlownessUsed><backazimuthUsed>false</backazimuthUsed><weight>1</weight></arrival><arrival><pickID>de.gempa.tb1.Pick/20250415031602.865643.143145</pickID><phase>S</phase><azimuth>97.19336700439453</azimuth><distance>1.0384633541107178</distance><timeResidual>-0.12754344940185547</timeResidual><timeUsed>true</timeUsed><horizontalSlownessUsed>false</horizontalSlownessUsed><backazimuthUsed>false</backazimuthUsed><weight>1</weight></arrival><magnitude publicID="de.gempa.tb1.Magnitude/20250415031602.874004.565827"><magnitude><value>2.0047895408815717</value></magnitude><type>M</type><methodID>weighted average</methodID><stationCount>4</stationCount></magnitude></origin><event publicID="gempa2025hkiu"><preferredOriginID>de.gempa.tb1.Origin/20250415031602.868348.159157</preferredOriginID><preferredMagnitudeID>de.gempa.tb1.Magnitude/20250415031602.874004.565827</preferredMagnitudeID><description><text>Near Coast of Northern Chile</text><type>region name</type></description><originReference>de.gempa.tb1.Origin/20250415031602.868348.159157</originReference></event></EventParameters></seiscomp>