<?xml version="1.0" encoding="UTF-8"?>
<seiscomp xmlns="http://geofon.gfz-potsdam.de/ns/seiscomp3-schema/0.13" version="0.13"><EventParameters><pick publicID="de.gempa.tb1.Pick/20250413174820.022262.132830"><time><value>2025-04-13T17:48:13.058393Z</value></time><waveformID networkCode="CX" stationCode="PB08" channelCode="HHZ"/><filterID>ITAPER(4)&gt;&gt;BW(4,4,20)</filterID><methodID>AIC</methodID><horizontalSlowness><value>16.498098731237768</value></horizontalSlowness><backazimuth><value>84.99761301540703</value></backazimuth><phaseHint>P</phaseHint><evaluationMode>automatic</evaluationMode><comment><text>9.312586062519857</text><id>DFX:rectilinearity</id></comment><comment><text>17.239722821500138</text><id>SNR</id></comment></pick><pick publicID="de.gempa.tb1.Pick/20250413174826.542739.132836"><time><value>2025-04-13T17:48:18.008393Z</value></time><waveformID networkCode="CX" stationCode="PB01" channelCode="HHZ"/><filterID>ITAPER(4)&gt;&gt;BW(4,4,20)</filterID><methodID>AIC</methodID><horizontalSlowness><value>23.26931701187111</value></horizontalSlowness><backazimuth><value>1.2234293121515805</value></backazimuth><phaseHint>P</phaseHint><evaluationMode>automatic</evaluationMode><comment><text>9.979779444217584</text><id>DFX:rectilinearity</id></comment><comment><text>22.547309711468134</text><id>SNR</id></comment></pick><pick publicID="de.gempa.tb1.Pick/20250413174832.469285.132838"><time><value>2025-04-13T17:48:23.638393Z</value></time><waveformID networkCode="CX" stationCode="PB02" channelCode="HHZ"/><filterID>ITAPER(4)&gt;&gt;BW(4,4,20)</filterID><methodID>AIC</methodID><horizontalSlowness><value>22.92579404123874</value></horizontalSlowness><backazimuth><value>84.90304506373296</value></backazimuth><phaseHint>P</phaseHint><evaluationMode>automatic</evaluationMode><comment><text>28.85399447784137</text><id>DFX:rectilinearity</id></comment><comment><text>8.984471732130162</text><id>SNR</id></comment></pick><pick publicID="de.gempa.tb1.Pick/20250413174834.627098.132840"><time><value>2025-04-13T17:48:23.568393Z</value></time><waveformID networkCode="CX" stationCode="PB08" channelCode="HHN"/><filterID>ITAPER(2)&gt;&gt;BW(3,3,20)</filterID><methodID>L2-AIC-GRID</methodID><horizontalSlowness><value>13.514215442758578</value></horizontalSlowness><backazimuth><value>216.32287942628463</value></backazimuth><phaseHint>S</phaseHint><evaluationMode>automatic</evaluationMode><comment><text>266.1198658351456</text><id>DFX:rectilinearity</id></comment><comment><text>de.gempa.tb1.Pick/20250413174820.022262.132830</text><id>RefPickID</id></comment><comment><text>17.383660875998</text><id>SNR</id></comment></pick><pick publicID="de.gempa.tb1.Pick/20250413174839.770367.132846"><time><value>2025-04-13T17:48:27.358391Z</value></time><waveformID networkCode="CX" stationCode="PB07" channelCode="HHZ"/><filterID>ITAPER(4)&gt;&gt;BW(4,4,20)</filterID><methodID>AIC</methodID><horizontalSlowness><value>21.97211877277413</value></horizontalSlowness><backazimuth><value>66.63735744964134</value></backazimuth><phaseHint>P</phaseHint><evaluationMode>automatic</evaluationMode><comment><text>273.9450857683263</text><id>DFX:rectilinearity</id></comment><comment><text>8.003523474440202</text><id>SNR</id></comment></pick><pick publicID="de.gempa.tb1.Pick/20250413174842.569288.132848"><time><value>2025-04-13T17:48:32.488393Z</value></time><waveformID networkCode="CX" stationCode="PB01" channelCode="HHN"/><filterID>ITAPER(2)&gt;&gt;BW(3,3,20)</filterID><methodID>L2-AIC-GRID</methodID><horizontalSlowness><value>23.3056374194447</value></horizontalSlowness><backazimuth><value>232.14277685088274</value></backazimuth><phaseHint>S</phaseHint><evaluationMode>automatic</evaluationMode><comment><text>42.326186940809606</text><id>DFX:rectilinearity</id></comment><comment><text>de.gempa.tb1.Pick/20250413174826.542739.132836</text><id>RefPickID</id></comment><comment><text>7.913797972723018</text><id>SNR</id></comment></pick><pick publicID="de.gempa.tb1.Pick/20250413174851.640714.132852"><time><value>2025-04-13T17:48:42.488393Z</value></time><waveformID networkCode="CX" stationCode="PB02" channelCode="HHN"/><filterID>ITAPER(2)&gt;&gt;BW(3,3,20)</filterID><methodID>L2-AIC-GRID</methodID><horizontalSlowness><value>8.988190874458562</value></horizontalSlowness><backazimuth><value>58.59767883104527</value></backazimuth><phaseHint>S</phaseHint><evaluationMode>automatic</evaluationMode><comment><text>72.69542137111969</text><id>DFX:rectilinearity</id></comment><comment><text>de.gempa.tb1.Pick/20250413174832.469285.132838</text><id>RefPickID</id></comment><comment><text>6.662168063256318</text><id>SNR</id></comment></pick><origin publicID="de.gempa.tb1.Origin/20250413174851.643584.116342"><time><value>2025-04-13T17:47:59.245763Z</value><uncertainty>1.2753173112869263</uncertainty></time><latitude><value>-20.37091827392578</value><uncertainty>14.825652122497559</uncertainty></latitude><longitude><value>-68.7867202758789</value><uncertainty>28.094778060913086</uncertainty></longitude><depth><value>86.9460678100586</value><uncertainty>18.71318244934082</uncertainty></depth><depthType>from location</depthType><methodID>LOCSAT</methodID><earthModelID>iasp91_scanloc</earthModelID><quality><associatedPhaseCount>7</associatedPhaseCount><usedPhaseCount>7</usedPhaseCount><associatedStationCount>4</associatedStationCount><usedStationCount>4</usedStationCount><depthPhaseCount>0</depthPhaseCount><standardError>0.014882355228942023</standardError><azimuthalGap>273.5628662109375</azimuthalGap><maximumDistance>1.695407748222351</maximumDistance><minimumDistance>0.41327232122421265</minimumDistance><medianDistance>0.9368773698806763</medianDistance></quality><uncertainty><minHorizontalUncertainty>12.331132888793945</minHorizontalUncertainty><maxHorizontalUncertainty>66.99700927734375</maxHorizontalUncertainty><azimuthMaxHorizontalUncertainty>116.42334747314453</azimuthMaxHorizontalUncertainty><preferredDescription>horizontal uncertainty</preferredDescription></uncertainty><evaluationMode>automatic</evaluationMode><evaluationStatus>confirmed</evaluationStatus><comment><text>0.15</text><id>mismatchScore</id></comment><comment><text>mismatchScore</text><id>scevalMethod</id></comment><arrival><pickID>de.gempa.tb1.Pick/20250413174820.022262.132830</pickID><phase>P</phase><azimuth>303.52398681640625</azimuth><distance>0.41327232122421265</distance><timeResidual>0.02416801452636719</timeResidual><timeUsed>true</timeUsed><horizontalSlownessUsed>false</horizontalSlownessUsed><backazimuthUsed>false</backazimuthUsed><weight>1</weight></arrival><arrival><pickID>de.gempa.tb1.Pick/20250413174826.542739.132836</pickID><phase>P</phase><azimuth>224.3166046142578</azimuth><distance>0.9368773698806763</distance><timeResidual>-0.01906299591064453</timeResidual><timeUsed>true</timeUsed><horizontalSlownessUsed>false</horizontalSlownessUsed><backazimuthUsed>false</backazimuthUsed><weight>1</weight></arrival><arrival><pickID>de.gempa.tb1.Pick/20250413174832.469285.132838</pickID><phase>P</phase><azimuth>227.5068817138672</azimuth><distance>1.402768850326538</distance><timeResidual>0.007097244262695312</timeResidual><timeUsed>true</timeUsed><horizontalSlownessUsed>false</horizontalSlownessUsed><backazimuthUsed>false</backazimuthUsed><weight>1</weight></arrival><arrival><pickID>de.gempa.tb1.Pick/20250413174834.627098.132840</pickID><phase>S</phase><azimuth>303.52398681640625</azimuth><distance>0.41327232122421265</distance><timeResidual>-0.015171051025390625</timeResidual><timeUsed>true</timeUsed><horizontalSlownessUsed>false</horizontalSlownessUsed><backazimuthUsed>false</backazimuthUsed><weight>1</weight></arrival><arrival><pickID>de.gempa.tb1.Pick/20250413174839.770367.132846</pickID><phase>P</phase><azimuth>217.08685302734375</azimuth><distance>1.695407748222351</distance><timeResidual>-0.010040283203125</timeResidual><timeUsed>true</timeUsed><horizontalSlownessUsed>false</horizontalSlownessUsed><backazimuthUsed>false</backazimuthUsed><weight>1</weight></arrival><arrival><pickID>de.gempa.tb1.Pick/20250413174842.569288.132848</pickID><phase>S</phase><azimuth>224.3166046142578</azimuth><distance>0.9368773698806763</distance><timeResidual>0.014789581298828125</timeResidual><timeUsed>true</timeUsed><horizontalSlownessUsed>false</horizontalSlownessUsed><backazimuthUsed>false</backazimuthUsed><weight>1</weight></arrival><arrival><pickID>de.gempa.tb1.Pick/20250413174851.640714.132852</pickID><phase>S</phase><azimuth>227.5068817138672</azimuth><distance>1.402768850326538</distance><timeResidual>-0.001682281494140625</timeResidual><timeUsed>true</timeUsed><horizontalSlownessUsed>false</horizontalSlownessUsed><backazimuthUsed>false</backazimuthUsed><weight>1</weight></arrival><magnitude publicID="de.gempa.tb1.Magnitude/20250413174851.647658.384874"><magnitude><value>2.1731444325536473</value></magnitude><type>M</type><methodID>weighted average</methodID><stationCount>2</stationCount></magnitude></origin><event publicID="gempa2025hhtv"><preferredOriginID>de.gempa.tb1.Origin/20250413174851.643584.116342</preferredOriginID><preferredMagnitudeID>de.gempa.tb1.Magnitude/20250413174851.647658.384874</preferredMagnitudeID><description><text>Chile-Bolivia Border Region</text><type>region name</type></description><originReference>de.gempa.tb1.Origin/20250413174851.643584.116342</originReference></event></EventParameters></seiscomp>