<?xml version="1.0" encoding="UTF-8"?>
<seiscomp xmlns="http://geofon.gfz-potsdam.de/ns/seiscomp3-schema/0.13" version="0.13"><EventParameters><pick publicID="de.gempa.tb1.Pick/20250411194444.586308.119783"><time><value>2025-04-11T19:44:38.71Z</value></time><waveformID networkCode="CX" stationCode="PB19" channelCode="HHZ"/><filterID>ITAPER(4)&gt;&gt;BW(4,4,20)</filterID><methodID>AIC</methodID><horizontalSlowness><value>12.870111512405316</value></horizontalSlowness><backazimuth><value>69.66560890689986</value></backazimuth><phaseHint>P</phaseHint><evaluationMode>automatic</evaluationMode><comment><text>13.205252686116038</text><id>DFX:rectilinearity</id></comment><comment><text>9.701892106736132</text><id>SNR</id></comment></pick><pick publicID="de.gempa.tb1.Pick/20250411194451.570724.119785"><time><value>2025-04-11T19:44:45.448393Z</value></time><waveformID networkCode="CX" stationCode="PB06" channelCode="HHZ"/><filterID>ITAPER(4)&gt;&gt;BW(4,4,20)</filterID><methodID>AIC</methodID><horizontalSlowness><value>5.551038003787673</value></horizontalSlowness><backazimuth><value>247.1326460007791</value></backazimuth><phaseHint>P</phaseHint><evaluationMode>automatic</evaluationMode><comment><text>130.55710599835999</text><id>DFX:rectilinearity</id></comment><comment><text>7.1325088393267</text><id>SNR</id></comment></pick><pick publicID="de.gempa.tb1.Pick/20250411194457.633359.119787"><time><value>2025-04-11T19:44:51.188394Z</value></time><waveformID networkCode="CX" stationCode="PB03" channelCode="HHZ"/><filterID>ITAPER(4)&gt;&gt;BW(4,4,20)</filterID><methodID>AIC</methodID><horizontalSlowness><value>14.984874039244044</value></horizontalSlowness><backazimuth><value>218.50669976288123</value></backazimuth><phaseHint>P</phaseHint><evaluationMode>automatic</evaluationMode><comment><text>9.499132313468285</text><id>DFX:rectilinearity</id></comment><comment><text>13.268850645618096</text><id>SNR</id></comment></pick><pick publicID="de.gempa.tb1.Pick/20250411194458.588994.119789"><time><value>2025-04-11T19:44:50.08Z</value></time><waveformID networkCode="CX" stationCode="PB09" channelCode="HHZ"/><filterID>ITAPER(4)&gt;&gt;BW(4,4,20)</filterID><methodID>AIC</methodID><horizontalSlowness><value>10.203679406485076</value></horizontalSlowness><backazimuth><value>287.92784095046363</value></backazimuth><phaseHint>P</phaseHint><evaluationMode>automatic</evaluationMode><comment><text>12.608984142321471</text><id>DFX:rectilinearity</id></comment><comment><text>7.722127446682983</text><id>SNR</id></comment></pick><pick publicID="de.gempa.tb1.Pick/20250411194501.683611.119791"><time><value>2025-04-11T19:44:54.508389Z</value></time><waveformID networkCode="CX" stationCode="PB07" channelCode="HHZ"/><filterID>ITAPER(4)&gt;&gt;BW(4,4,20)</filterID><methodID>AIC</methodID><horizontalSlowness><value>23.309646841336964</value></horizontalSlowness><backazimuth><value>281.77859082702957</value></backazimuth><phaseHint>P</phaseHint><evaluationMode>automatic</evaluationMode><comment><text>157.61357329557802</text><id>DFX:rectilinearity</id></comment><comment><text>13.84790233908649</text><id>SNR</id></comment></pick><pick publicID="de.gempa.tb1.Pick/20250411194515.531713.119795"><time><value>2025-04-11T19:45:07.86Z</value></time><waveformID networkCode="CX" stationCode="PB19" channelCode="HHN"/><filterID>ITAPER(2)&gt;&gt;BW(3,3,20)</filterID><methodID>L2-AIC-GRID</methodID><horizontalSlowness><value>23.17978845684546</value></horizontalSlowness><backazimuth><value>132.633654624956</value></backazimuth><phaseHint>S</phaseHint><evaluationMode>automatic</evaluationMode><comment><text>51.58559427979708</text><id>DFX:rectilinearity</id></comment><comment><text>de.gempa.tb1.Pick/20250411194444.586308.119783</text><id>RefPickID</id></comment><comment><text>10.531132565888333</text><id>SNR</id></comment></pick><pick publicID="de.gempa.tb1.Pick/20250411194526.569533.119799"><time><value>2025-04-11T19:45:19.018393Z</value></time><waveformID networkCode="CX" stationCode="PB06" channelCode="HHN"/><filterID>ITAPER(2)&gt;&gt;BW(3,3,20)</filterID><methodID>L2-AIC-GRID</methodID><horizontalSlowness><value>11.76431233694237</value></horizontalSlowness><backazimuth><value>260.13592563052373</value></backazimuth><phaseHint>S</phaseHint><evaluationMode>automatic</evaluationMode><comment><text>82.32609602730402</text><id>DFX:rectilinearity</id></comment><comment><text>de.gempa.tb1.Pick/20250411194451.570724.119785</text><id>RefPickID</id></comment><comment><text>7.996743334086874</text><id>SNR</id></comment></pick><pick publicID="de.gempa.tb1.Pick/20250411194543.706504.119804"><time><value>2025-04-11T19:45:29.348394Z</value></time><waveformID networkCode="CX" stationCode="PB03" channelCode="HHN"/><filterID>ITAPER(2)&gt;&gt;BW(3,3,20)</filterID><methodID>L2-AIC-GRID</methodID><horizontalSlowness><value>13.603545500775207</value></horizontalSlowness><backazimuth><value>117.73438146022164</value></backazimuth><phaseHint>S</phaseHint><evaluationMode>automatic</evaluationMode><comment><text>13.14351647510503</text><id>DFX:rectilinearity</id></comment><comment><text>de.gempa.tb1.Pick/20250411194457.633359.119787</text><id>RefPickID</id></comment><comment><text>6.465554254180913</text><id>SNR</id></comment></pick><origin publicID="de.gempa.tb1.Origin/20250411194543.712866.64467"><time><value>2025-04-11T19:44:02.743264Z</value><uncertainty>1.1208701133728027</uncertainty></time><latitude><value>-24.017826080322266</value><uncertainty>12.90173625946045</uncertainty></latitude><longitude><value>-67.73519134521484</value><uncertainty>39.16326141357422</uncertainty></longitude><depth><value>233.6148986816406</value><uncertainty>28.919857025146484</uncertainty></depth><depthType>from location</depthType><methodID>LOCSAT</methodID><earthModelID>iasp91_scanloc</earthModelID><quality><associatedPhaseCount>8</associatedPhaseCount><usedPhaseCount>8</usedPhaseCount><associatedStationCount>5</associatedStationCount><usedStationCount>5</usedStationCount><depthPhaseCount>0</depthPhaseCount><standardError>0.15082851696751098</standardError><azimuthalGap>306.6453857421875</azimuthalGap><maximumDistance>3.0224411487579346</maximumDistance><minimumDistance>1.4274110794067383</minimumDistance><medianDistance>2.611231327056885</medianDistance></quality><uncertainty><minHorizontalUncertainty>17.696638107299805</minHorizontalUncertainty><maxHorizontalUncertainty>86.63155364990234</maxHorizontalUncertainty><azimuthMaxHorizontalUncertainty>75.4771957397461</azimuthMaxHorizontalUncertainty><preferredDescription>horizontal uncertainty</preferredDescription></uncertainty><evaluationMode>automatic</evaluationMode><evaluationStatus>confirmed</evaluationStatus><comment><text>0.34</text><id>mismatchScore</id></comment><comment><text>mismatchScore</text><id>scevalMethod</id></comment><arrival><pickID>de.gempa.tb1.Pick/20250411194444.586308.119783</pickID><phase>P</phase><azimuth>274.20751953125</azimuth><distance>1.4274110794067383</distance><timeResidual>-0.2792625427246094</timeResidual><timeUsed>true</timeUsed><horizontalSlownessUsed>false</horizontalSlownessUsed><backazimuthUsed>false</backazimuthUsed><weight>1</weight></arrival><arrival><pickID>de.gempa.tb1.Pick/20250411194451.570724.119785</pickID><phase>P</phase><azimuth>307.3654479980469</azimuth><distance>2.1340844631195068</distance><timeResidual>0.22122573852539062</timeResidual><timeUsed>true</timeUsed><horizontalSlownessUsed>false</horizontalSlownessUsed><backazimuthUsed>false</backazimuthUsed><weight>1</weight></arrival><arrival><pickID>de.gempa.tb1.Pick/20250411194457.633359.119787</pickID><phase>P</phase><azimuth>316.12158203125</azimuth><distance>2.701363801956177</distance><timeResidual>0.1361236572265625</timeResidual><timeUsed>true</timeUsed><horizontalSlownessUsed>false</horizontalSlownessUsed><backazimuthUsed>false</backazimuthUsed><weight>1</weight></arrival><arrival><pickID>de.gempa.tb1.Pick/20250411194458.588994.119789</pickID><phase>P</phase><azimuth>327.5621337890625</azimuth><distance>2.611231327056885</distance><timeResidual>-0.012401580810546875</timeResidual><timeUsed>true</timeUsed><horizontalSlownessUsed>false</horizontalSlownessUsed><backazimuthUsed>false</backazimuthUsed><weight>1</weight></arrival><arrival><pickID>de.gempa.tb1.Pick/20250411194501.683611.119791</pickID><phase>P</phase><azimuth>318.5572204589844</azimuth><distance>3.0224411487579346</distance><timeResidual>-0.05207443237304688</timeResidual><timeUsed>true</timeUsed><horizontalSlownessUsed>false</horizontalSlownessUsed><backazimuthUsed>false</backazimuthUsed><weight>1</weight></arrival><arrival><pickID>de.gempa.tb1.Pick/20250411194515.531713.119795</pickID><phase>S</phase><azimuth>274.20751953125</azimuth><distance>1.4274110794067383</distance><timeResidual>0.1057891845703125</timeResidual><timeUsed>true</timeUsed><horizontalSlownessUsed>false</horizontalSlownessUsed><backazimuthUsed>false</backazimuthUsed><weight>1</weight></arrival><arrival><pickID>de.gempa.tb1.Pick/20250411194526.569533.119799</pickID><phase>S</phase><azimuth>307.3654479980469</azimuth><distance>2.1340844631195068</distance><timeResidual>0.027324676513671875</timeResidual><timeUsed>true</timeUsed><horizontalSlownessUsed>false</horizontalSlownessUsed><backazimuthUsed>false</backazimuthUsed><weight>1</weight></arrival><arrival><pickID>de.gempa.tb1.Pick/20250411194543.706504.119804</pickID><phase>S</phase><azimuth>316.12158203125</azimuth><distance>2.701363801956177</distance><timeResidual>-0.14741897583007812</timeResidual><timeUsed>true</timeUsed><horizontalSlownessUsed>false</horizontalSlownessUsed><backazimuthUsed>false</backazimuthUsed><weight>1</weight></arrival><magnitude publicID="de.gempa.tb1.Magnitude/20250411194653.63453.136937"><magnitude><value>3.345925326338468</value></magnitude><type>M</type><methodID>weighted average</methodID><stationCount>2</stationCount></magnitude></origin><event publicID="gempa2025hefr"><preferredOriginID>de.gempa.tb1.Origin/20250411194543.712866.64467</preferredOriginID><preferredMagnitudeID>de.gempa.tb1.Magnitude/20250411194653.63453.136937</preferredMagnitudeID><description><text>Chile-Argentina Border Region</text><type>region name</type></description><originReference>de.gempa.tb1.Origin/20250411194543.712866.64467</originReference></event></EventParameters></seiscomp>