<?xml version="1.0" encoding="UTF-8"?>
<seiscomp xmlns="http://geofon.gfz-potsdam.de/ns/seiscomp3-schema/0.13" version="0.13"><EventParameters><pick publicID="de.gempa.tb1.Pick/20250413202947.455615.133630"><time><value>2025-04-13T20:29:39.22Z</value></time><waveformID networkCode="CX" stationCode="PB09" channelCode="HHZ"/><filterID>ITAPER(4)&gt;&gt;BW(4,4,20)</filterID><methodID>AIC</methodID><horizontalSlowness><value>21.556831849212905</value></horizontalSlowness><backazimuth><value>289.62200200212783</value></backazimuth><phaseHint>P</phaseHint><evaluationMode>automatic</evaluationMode><comment><text>23.80107619980107</text><id>DFX:rectilinearity</id></comment><comment><text>8.097040554232176</text><id>SNR</id></comment></pick><pick publicID="de.gempa.tb1.Pick/20250413202948.583856.133632"><time><value>2025-04-13T20:29:42.098393Z</value></time><waveformID networkCode="CX" stationCode="PB01" channelCode="HHZ"/><filterID>ITAPER(4)&gt;&gt;BW(4,4,20)</filterID><methodID>AIC</methodID><horizontalSlowness><value>15.999233507393383</value></horizontalSlowness><backazimuth><value>30.365888568097404</value></backazimuth><phaseHint>P</phaseHint><evaluationMode>automatic</evaluationMode><comment><text>14.974717970995053</text><id>DFX:rectilinearity</id></comment><comment><text>16.709605637917427</text><id>SNR</id></comment></pick><pick publicID="de.gempa.tb1.Pick/20250413202949.528635.133634"><time><value>2025-04-13T20:29:45.018393Z</value></time><waveformID networkCode="CX" stationCode="PB02" channelCode="HHZ"/><filterID>ITAPER(4)&gt;&gt;BW(4,4,20)</filterID><methodID>AIC</methodID><horizontalSlowness><value>2.144007100834275</value></horizontalSlowness><backazimuth><value>49.93948619366512</value></backazimuth><phaseHint>P</phaseHint><evaluationMode>automatic</evaluationMode><comment><text>18.699898108900793</text><id>DFX:rectilinearity</id></comment><comment><text>21.491644778017292</text><id>SNR</id></comment></pick><pick publicID="de.gempa.tb1.Pick/20250413202956.229583.133636"><time><value>2025-04-13T20:29:49.459999Z</value></time><waveformID networkCode="CX" stationCode="PATCX" channelCode="HHZ"/><filterID>ITAPER(4)&gt;&gt;BW(4,4,20)</filterID><methodID>AIC</methodID><horizontalSlowness><value>21.688984009182391</value></horizontalSlowness><backazimuth><value>269.79648976924693</value></backazimuth><phaseHint>P</phaseHint><evaluationMode>automatic</evaluationMode><comment><text>243.9000096727404</text><id>DFX:rectilinearity</id></comment><comment><text>8.467216652260776</text><id>SNR</id></comment></pick><pick publicID="de.gempa.tb1.Pick/20250413203007.796157.133641"><time><value>2025-04-13T20:30:00.538393Z</value></time><waveformID networkCode="CX" stationCode="PB01" channelCode="HHN"/><filterID>ITAPER(2)&gt;&gt;BW(3,3,20)</filterID><methodID>L2-AIC-GRID</methodID><horizontalSlowness><value>22.0157184117062</value></horizontalSlowness><backazimuth><value>54.31476487565992</value></backazimuth><phaseHint>S</phaseHint><evaluationMode>automatic</evaluationMode><comment><text>21.572851621487246</text><id>DFX:rectilinearity</id></comment><comment><text>de.gempa.tb1.Pick/20250413202948.583856.133632</text><id>RefPickID</id></comment><comment><text>7.373311180303091</text><id>SNR</id></comment></pick><pick publicID="de.gempa.tb1.Pick/20250413203011.01907.133642"><time><value>2025-04-13T20:29:44.538396Z</value></time><waveformID networkCode="CX" stationCode="PB07" channelCode="HHZ"/><filterID>ITAPER(4)&gt;&gt;BW(4,4,20)</filterID><methodID>AIC</methodID><horizontalSlowness><value>21.522054602246548</value></horizontalSlowness><backazimuth><value>203.03750129420337</value></backazimuth><phaseHint>P</phaseHint><evaluationMode>automatic</evaluationMode><comment><text>205.47827980755741</text><id>DFX:rectilinearity</id></comment><comment><text>10.563859612815806</text><id>SNR</id></comment></pick><pick publicID="de.gempa.tb1.Pick/20250413203012.435465.133644"><time><value>2025-04-13T20:30:05.658393Z</value></time><waveformID networkCode="CX" stationCode="PB02" channelCode="HHN"/><filterID>ITAPER(2)&gt;&gt;BW(3,3,20)</filterID><methodID>L2-AIC-GRID</methodID><horizontalSlowness><value>22.179760040494813</value></horizontalSlowness><backazimuth><value>239.2324333934353</value></backazimuth><phaseHint>S</phaseHint><evaluationMode>automatic</evaluationMode><comment><text>72.47587488784883</text><id>DFX:rectilinearity</id></comment><comment><text>de.gempa.tb1.Pick/20250413202949.528635.133634</text><id>RefPickID</id></comment><comment><text>5.15956691854922</text><id>SNR</id></comment></pick><pick publicID="de.gempa.tb1.Pick/20250413203021.374688.133645"><time><value>2025-04-13T20:30:04.798396Z</value></time><waveformID networkCode="CX" stationCode="PB07" channelCode="HHN"/><filterID>ITAPER(2)&gt;&gt;BW(3,3,20)</filterID><methodID>L2-AIC-GRID</methodID><horizontalSlowness><value>22.141402782427576</value></horizontalSlowness><backazimuth><value>292.3209250493927</value></backazimuth><phaseHint>S</phaseHint><evaluationMode>automatic</evaluationMode><comment><text>309.94778818455006</text><id>DFX:rectilinearity</id></comment><comment><text>de.gempa.tb1.Pick/20250413203011.01907.133642</text><id>RefPickID</id></comment><comment><text>6.20496515867725</text><id>SNR</id></comment></pick><origin publicID="de.gempa.tb1.Origin/20250413203021.378012.118886"><time><value>2025-04-13T20:29:18.488841Z</value><uncertainty>1.2196017503738403</uncertainty></time><latitude><value>-21.588022232055664</value><uncertainty>10.618141174316406</uncertainty></latitude><longitude><value>-68.45902252197266</value><uncertainty>13.68815517425537</uncertainty></longitude><depth><value>127.67339324951172</value><uncertainty>17.216379165649414</uncertainty></depth><depthType>from location</depthType><methodID>LOCSAT</methodID><earthModelID>iasp91_scanloc</earthModelID><quality><associatedPhaseCount>8</associatedPhaseCount><usedPhaseCount>8</usedPhaseCount><associatedStationCount>5</associatedStationCount><usedStationCount>5</usedStationCount><depthPhaseCount>0</depthPhaseCount><standardError>0.1003672958666604</standardError><azimuthalGap>314.66627502441406</azimuthalGap><maximumDistance>1.7552844285964966</maximumDistance><minimumDistance>0.7570639252662659</minimumDistance><medianDistance>1.334760069847107</medianDistance></quality><uncertainty><minHorizontalUncertainty>22.68344306945801</minHorizontalUncertainty><maxHorizontalUncertainty>29.418739318847656</maxHorizontalUncertainty><azimuthMaxHorizontalUncertainty>96.04936981201172</azimuthMaxHorizontalUncertainty><preferredDescription>horizontal uncertainty</preferredDescription></uncertainty><evaluationMode>automatic</evaluationMode><evaluationStatus>confirmed</evaluationStatus><comment><text>0.13</text><id>mismatchScore</id></comment><comment><text>mismatchScore</text><id>scevalMethod</id></comment><arrival><pickID>de.gempa.tb1.Pick/20250413202947.455615.133630</pickID><phase>P</phase><azimuth>253.9615020751953</azimuth><distance>0.7570639252662659</distance><timeResidual>0.1195049285888672</timeResidual><timeUsed>true</timeUsed><horizontalSlownessUsed>false</horizontalSlownessUsed><backazimuthUsed>false</backazimuthUsed><weight>1</weight></arrival><arrival><pickID>de.gempa.tb1.Pick/20250413202948.583856.133632</pickID><phase>P</phase><azimuth>299.29522705078125</azimuth><distance>1.1014958620071411</distance><timeResidual>-0.11435890197753906</timeResidual><timeUsed>true</timeUsed><horizontalSlownessUsed>false</horizontalSlownessUsed><backazimuthUsed>false</backazimuthUsed><weight>1</weight></arrival><arrival><pickID>de.gempa.tb1.Pick/20250413202949.528635.133634</pickID><phase>P</phase><azimuth>281.0169982910156</azimuth><distance>1.3649888038635254</distance><timeResidual>0.05415534973144531</timeResidual><timeUsed>true</timeUsed><horizontalSlownessUsed>false</horizontalSlownessUsed><backazimuthUsed>false</backazimuthUsed><weight>1</weight></arrival><arrival><pickID>de.gempa.tb1.Pick/20250413202956.229583.133636</pickID><phase>P</phase><azimuth>295.4771423339844</azimuth><distance>1.7552844285964966</distance><timeResidual>0.0387420654296875</timeResidual><timeUsed>true</timeUsed><horizontalSlownessUsed>false</horizontalSlownessUsed><backazimuthUsed>false</backazimuthUsed><weight>1</weight></arrival><arrival><pickID>de.gempa.tb1.Pick/20250413203007.796157.133641</pickID><phase>S</phase><azimuth>299.29522705078125</azimuth><distance>1.1014958620071411</distance><timeResidual>-0.048797607421875</timeResidual><timeUsed>true</timeUsed><horizontalSlownessUsed>false</horizontalSlownessUsed><backazimuthUsed>false</backazimuthUsed><weight>1</weight></arrival><arrival><pickID>de.gempa.tb1.Pick/20250413203011.01907.133642</pickID><phase>P</phase><azimuth>263.805419921875</azimuth><distance>1.334760069847107</distance><timeResidual>-0.09514045715332031</timeResidual><timeUsed>true</timeUsed><horizontalSlownessUsed>false</horizontalSlownessUsed><backazimuthUsed>false</backazimuthUsed><weight>1</weight></arrival><arrival><pickID>de.gempa.tb1.Pick/20250413203012.435465.133644</pickID><phase>S</phase><azimuth>281.0169982910156</azimuth><distance>1.3649888038635254</distance><timeResidual>0.15753173828125</timeResidual><timeUsed>true</timeUsed><horizontalSlownessUsed>false</horizontalSlownessUsed><backazimuthUsed>false</backazimuthUsed><weight>1</weight></arrival><arrival><pickID>de.gempa.tb1.Pick/20250413203021.374688.133645</pickID><phase>S</phase><azimuth>263.805419921875</azimuth><distance>1.334760069847107</distance><timeResidual>-0.11201095581054688</timeResidual><timeUsed>true</timeUsed><horizontalSlownessUsed>false</horizontalSlownessUsed><backazimuthUsed>false</backazimuthUsed><weight>1</weight></arrival><magnitude publicID="de.gempa.tb1.Magnitude/20250413203514.457125.401022"><magnitude><value>2.4101470104697253</value></magnitude><type>M</type><methodID>weighted average</methodID><stationCount>3</stationCount></magnitude></origin><event publicID="gempa2025hhzg"><preferredOriginID>de.gempa.tb1.Origin/20250413203021.378012.118886</preferredOriginID><preferredMagnitudeID>de.gempa.tb1.Magnitude/20250413203514.457125.401022</preferredMagnitudeID><description><text>Chile-Bolivia Border Region</text><type>region name</type></description><originReference>de.gempa.tb1.Origin/20250413203021.378012.118886</originReference></event></EventParameters></seiscomp>