<?xml version="1.0" encoding="UTF-8"?>
<seiscomp xmlns="http://geofon.gfz-potsdam.de/ns/seiscomp3-schema/0.13" version="0.13"><EventParameters><pick publicID="de.gempa.tb1.Pick/20250414090550.502174.136951"><time><value>2025-04-14T09:05:43.478393Z</value></time><waveformID networkCode="CX" stationCode="PB01" channelCode="HHZ"/><filterID>ITAPER(4)&gt;&gt;BW(4,4,20)</filterID><methodID>AIC</methodID><horizontalSlowness><value>17.23524460035438</value></horizontalSlowness><backazimuth><value>354.50060176713816</value></backazimuth><phaseHint>P</phaseHint><evaluationMode>automatic</evaluationMode><comment><text>44.821905171571</text><id>DFX:rectilinearity</id></comment><comment><text>136.19523332746803</text><id>SNR</id></comment></pick><pick publicID="de.gempa.tb1.Pick/20250414090555.413704.136953"><time><value>2025-04-14T09:05:49.168394Z</value></time><waveformID networkCode="CX" stationCode="PB07" channelCode="HHZ"/><filterID>ITAPER(4)&gt;&gt;BW(4,4,20)</filterID><methodID>AIC</methodID><horizontalSlowness><value>20.88929059131112</value></horizontalSlowness><backazimuth><value>78.19541523409168</value></backazimuth><phaseHint>P</phaseHint><evaluationMode>automatic</evaluationMode><comment><text>171.00638813409506</text><id>DFX:rectilinearity</id></comment><comment><text>19.170253231298886</text><id>SNR</id></comment></pick><pick publicID="de.gempa.tb1.Pick/20250414090555.511725.136955"><time><value>2025-04-14T09:05:47.448393Z</value></time><waveformID networkCode="CX" stationCode="PB02" channelCode="HHZ"/><filterID>ITAPER(4)&gt;&gt;BW(4,4,20)</filterID><methodID>AIC</methodID><horizontalSlowness><value>12.945406121183279</value></horizontalSlowness><backazimuth><value>59.36064272536289</value></backazimuth><phaseHint>P</phaseHint><evaluationMode>automatic</evaluationMode><comment><text>34.72691032183076</text><id>DFX:rectilinearity</id></comment><comment><text>39.37342277547218</text><id>SNR</id></comment></pick><pick publicID="de.gempa.tb1.Pick/20250414090556.510921.136957"><time><value>2025-04-14T09:05:51.098393Z</value></time><waveformID networkCode="CX" stationCode="PB03" channelCode="HHZ"/><filterID>ITAPER(4)&gt;&gt;BW(4,4,20)</filterID><methodID>AIC</methodID><horizontalSlowness><value>12.65409951439688</value></horizontalSlowness><backazimuth><value>95.14693702968739</value></backazimuth><phaseHint>P</phaseHint><evaluationMode>automatic</evaluationMode><comment><text>5.67913500430535</text><id>DFX:rectilinearity</id></comment><comment><text>8.168495997456768</text><id>SNR</id></comment></pick><pick publicID="de.gempa.tb1.Pick/20250414090558.260806.136959"><time><value>2025-04-14T09:05:50.079998Z</value></time><waveformID networkCode="CX" stationCode="PATCX" channelCode="HHZ"/><filterID>ITAPER(4)&gt;&gt;BW(4,4,20)</filterID><methodID>AIC</methodID><horizontalSlowness><value>22.73943306379561</value></horizontalSlowness><backazimuth><value>358.7573800993555</value></backazimuth><phaseHint>P</phaseHint><evaluationMode>automatic</evaluationMode><comment><text>110.52620247656567</text><id>DFX:rectilinearity</id></comment><comment><text>30.49568940945498</text><id>SNR</id></comment></pick><pick publicID="de.gempa.tb1.Pick/20250414090601.769906.136961"><time><value>2025-04-14T09:05:46.6Z</value></time><waveformID networkCode="CX" stationCode="PB09" channelCode="HHZ"/><filterID>ITAPER(4)&gt;&gt;BW(4,4,20)</filterID><methodID>AIC</methodID><horizontalSlowness><value>18.042993385649286</value></horizontalSlowness><backazimuth><value>279.4568619238204</value></backazimuth><phaseHint>P</phaseHint><evaluationMode>automatic</evaluationMode><comment><text>16.29787084091933</text><id>DFX:rectilinearity</id></comment><comment><text>26.4754672747879</text><id>SNR</id></comment></pick><pick publicID="de.gempa.tb1.Pick/20250414090606.533281.136963"><time><value>2025-04-14T09:05:57.35Z</value></time><waveformID networkCode="CX" stationCode="PSGCX" channelCode="HHZ"/><filterID>ITAPER(4)&gt;&gt;BW(4,4,20)</filterID><methodID>AIC</methodID><horizontalSlowness><value>15.78563926843884</value></horizontalSlowness><backazimuth><value>179.0314826570196</value></backazimuth><phaseHint>P</phaseHint><evaluationMode>automatic</evaluationMode><comment><text>6.486520520686835</text><id>DFX:rectilinearity</id></comment><comment><text>16.96555231500237</text><id>SNR</id></comment></pick><pick publicID="de.gempa.tb1.Pick/20250414090609.577011.136965"><time><value>2025-04-14T09:05:56.298393Z</value></time><waveformID networkCode="CX" stationCode="PB01" channelCode="HHN"/><filterID>ITAPER(2)&gt;&gt;BW(3,3,20)</filterID><methodID>L2-AIC-GRID</methodID><horizontalSlowness><value>20.271346385925032</value></horizontalSlowness><backazimuth><value>328.9746845336791</value></backazimuth><phaseHint>S</phaseHint><evaluationMode>automatic</evaluationMode><comment><text>61.79187098946398</text><id>DFX:rectilinearity</id></comment><comment><text>de.gempa.tb1.Pick/20250414090550.502174.136951</text><id>RefPickID</id></comment><comment><text>6.613623578630817</text><id>SNR</id></comment></pick><pick publicID="de.gempa.tb1.Pick/20250414090610.495755.136966"><time><value>2025-04-14T09:06:03.118393Z</value></time><waveformID networkCode="CX" stationCode="PB02" channelCode="HHN"/><filterID>ITAPER(2)&gt;&gt;BW(3,3,20)</filterID><methodID>L2-AIC-GRID</methodID><horizontalSlowness><value>15.335416438648474</value></horizontalSlowness><backazimuth><value>284.04043959785537</value></backazimuth><phaseHint>S</phaseHint><evaluationMode>automatic</evaluationMode><comment><text>621.6104240946767</text><id>DFX:rectilinearity</id></comment><comment><text>de.gempa.tb1.Pick/20250414090555.511725.136955</text><id>RefPickID</id></comment><comment><text>8.167018836332332</text><id>SNR</id></comment></pick><pick publicID="de.gempa.tb1.Pick/20250414090614.420233.136969"><time><value>2025-04-14T09:06:01.37Z</value></time><waveformID networkCode="CX" stationCode="PB09" channelCode="HHN"/><filterID>ITAPER(2)&gt;&gt;BW(3,3,20)</filterID><methodID>L2-AIC-GRID</methodID><horizontalSlowness><value>22.912114416137765</value></horizontalSlowness><backazimuth><value>326.8994360139655</value></backazimuth><phaseHint>S</phaseHint><evaluationMode>automatic</evaluationMode><comment><text>38.41154272780164</text><id>DFX:rectilinearity</id></comment><comment><text>de.gempa.tb1.Pick/20250414090601.769906.136961</text><id>RefPickID</id></comment><comment><text>5.104828810471576</text><id>SNR</id></comment></pick><pick publicID="de.gempa.tb1.Pick/20250414090616.439613.136970"><time><value>2025-04-14T09:06:07.769998Z</value></time><waveformID networkCode="CX" stationCode="PATCX" channelCode="HHN"/><filterID>ITAPER(2)&gt;&gt;BW(3,3,20)</filterID><methodID>L2-AIC-GRID</methodID><horizontalSlowness><value>22.69686870626707</value></horizontalSlowness><backazimuth><value>59.05869540659425</value></backazimuth><phaseHint>S</phaseHint><evaluationMode>automatic</evaluationMode><comment><text>310.67075973093677</text><id>DFX:rectilinearity</id></comment><comment><text>de.gempa.tb1.Pick/20250414090558.260806.136959</text><id>RefPickID</id></comment><comment><text>5.632831254511299</text><id>SNR</id></comment></pick><pick publicID="de.gempa.tb1.Pick/20250414090616.790449.136972"><time><value>2025-04-14T09:06:08.398393Z</value></time><waveformID networkCode="CX" stationCode="PB03" channelCode="HHN"/><filterID>ITAPER(2)&gt;&gt;BW(3,3,20)</filterID><methodID>L2-AIC-GRID</methodID><horizontalSlowness><value>21.97870706684024</value></horizontalSlowness><backazimuth><value>133.94231064381927</value></backazimuth><phaseHint>S</phaseHint><evaluationMode>automatic</evaluationMode><comment><text>56.54506179237764</text><id>DFX:rectilinearity</id></comment><comment><text>de.gempa.tb1.Pick/20250414090556.510921.136957</text><id>RefPickID</id></comment><comment><text>16.012717577476863</text><id>SNR</id></comment></pick><pick publicID="de.gempa.tb1.Pick/20250414090630.57214.136974"><time><value>2025-04-14T09:06:20.69Z</value></time><waveformID networkCode="CX" stationCode="PSGCX" channelCode="HHN"/><filterID>ITAPER(2)&gt;&gt;BW(3,3,20)</filterID><methodID>L2-AIC-GRID</methodID><horizontalSlowness><value>16.622335068027503</value></horizontalSlowness><backazimuth><value>88.886283877323</value></backazimuth><phaseHint>S</phaseHint><evaluationMode>automatic</evaluationMode><comment><text>26.35639329338836</text><id>DFX:rectilinearity</id></comment><comment><text>de.gempa.tb1.Pick/20250414090606.533281.136963</text><id>RefPickID</id></comment><comment><text>6.843370545624932</text><id>SNR</id></comment></pick><pick publicID="de.gempa.tb1.Pick/20250414090639.766636.136976"><time><value>2025-04-14T09:06:06.118394Z</value></time><waveformID networkCode="CX" stationCode="PB07" channelCode="HHN"/><filterID>ITAPER(2)&gt;&gt;BW(3,3,20)</filterID><methodID>L2-AIC-GRID</methodID><horizontalSlowness><value>21.95332575000423</value></horizontalSlowness><backazimuth><value>265.91283472436777</value></backazimuth><phaseHint>S</phaseHint><evaluationMode>automatic</evaluationMode><comment><text>742.5505308644249</text><id>DFX:rectilinearity</id></comment><comment><text>de.gempa.tb1.Pick/20250414090555.413704.136953</text><id>RefPickID</id></comment><comment><text>6.449376598026902</text><id>SNR</id></comment></pick><origin publicID="de.gempa.tb1.Origin/20250414090643.787892.133391"><time><value>2025-04-14T09:05:27.140621Z</value><uncertainty>0.8712731003761292</uncertainty></time><latitude><value>-21.03704071044922</value><uncertainty>3.7164599895477295</uncertainty></latitude><longitude><value>-68.96595001220703</value><uncertainty>7.844162940979004</uncertainty></longitude><depth><value>108.42073059082031</value><uncertainty>8.08810043334961</uncertainty></depth><depthType>from location</depthType><methodID>LOCSAT</methodID><earthModelID>iasp91_scanloc</earthModelID><quality><associatedPhaseCount>14</associatedPhaseCount><usedPhaseCount>14</usedPhaseCount><associatedStationCount>7</associatedStationCount><usedStationCount>7</usedStationCount><depthPhaseCount>0</depthPhaseCount><standardError>0.4126554218139897</standardError><azimuthalGap>236.11090087890625</azimuthalGap><maximumDistance>1.7976173162460327</maximumDistance><minimumDistance>0.4871387779712677</minimumDistance><medianDistance>1.0983892679214478</medianDistance></quality><uncertainty><minHorizontalUncertainty>7.02877426147461</minHorizontalUncertainty><maxHorizontalUncertainty>17.231327056884766</maxHorizontalUncertainty><azimuthMaxHorizontalUncertainty>76.19905090332031</azimuthMaxHorizontalUncertainty><preferredDescription>horizontal uncertainty</preferredDescription></uncertainty><evaluationMode>automatic</evaluationMode><evaluationStatus>confirmed</evaluationStatus><comment><text>0.10</text><id>mismatchScore</id></comment><comment><text>mismatchScore</text><id>scevalMethod</id></comment><arrival><pickID>de.gempa.tb1.Pick/20250414090550.502174.136951</pickID><phase>P</phase><azimuth>269.1825866699219</azimuth><distance>0.4871387779712677</distance><timeResidual>-0.27344703674316406</timeResidual><timeUsed>true</timeUsed><horizontalSlownessUsed>false</horizontalSlownessUsed><backazimuthUsed>false</backazimuthUsed><weight>1</weight></arrival><arrival><pickID>de.gempa.tb1.Pick/20250414090555.413704.136953</pickID><phase>P</phase><azimuth>231.16973876953125</azimuth><distance>1.0983892679214478</distance><timeResidual>-0.11140060424804688</timeResidual><timeUsed>true</timeUsed><horizontalSlownessUsed>false</horizontalSlownessUsed><backazimuthUsed>false</backazimuthUsed><weight>1</weight></arrival><arrival><pickID>de.gempa.tb1.Pick/20250414090555.511725.136955</pickID><phase>P</phase><azimuth>251.8780212402344</azimuth><distance>0.9124523997306824</distance><timeResidual>0.10039710998535156</timeResidual><timeUsed>true</timeUsed><horizontalSlownessUsed>false</horizontalSlownessUsed><backazimuthUsed>false</backazimuthUsed><weight>1</weight></arrival><arrival><pickID>de.gempa.tb1.Pick/20250414090556.510921.136957</pickID><phase>P</phase><azimuth>215.9158172607422</azimuth><distance>1.2449833154678345</distance><timeResidual>0.1950225830078125</timeResidual><timeUsed>true</timeUsed><horizontalSlownessUsed>false</horizontalSlownessUsed><backazimuthUsed>false</backazimuthUsed><weight>1</weight></arrival><arrival><pickID>de.gempa.tb1.Pick/20250414090558.260806.136959</pickID><phase>P</phase><azimuth>280.767578125</azimuth><distance>1.1302472352981567</distance><timeResidual>0.4487905502319336</timeResidual><timeUsed>true</timeUsed><horizontalSlownessUsed>false</horizontalSlownessUsed><backazimuthUsed>false</backazimuthUsed><weight>1</weight></arrival><arrival><pickID>de.gempa.tb1.Pick/20250414090601.769906.136961</pickID><phase>P</phase><azimuth>198.744384765625</azimuth><distance>0.7981552481651306</distance><timeResidual>0.3531665802001953</timeResidual><timeUsed>true</timeUsed><horizontalSlownessUsed>false</horizontalSlownessUsed><backazimuthUsed>false</backazimuthUsed><weight>1</weight></arrival><arrival><pickID>de.gempa.tb1.Pick/20250414090606.533281.136963</pickID><phase>P</phase><azimuth>322.63348388671875</azimuth><distance>1.7976173162460327</distance><timeResidual>-0.18839645385742188</timeResidual><timeUsed>true</timeUsed><horizontalSlownessUsed>false</horizontalSlownessUsed><backazimuthUsed>false</backazimuthUsed><weight>1</weight></arrival><arrival><pickID>de.gempa.tb1.Pick/20250414090609.577011.136965</pickID><phase>S</phase><azimuth>269.1825866699219</azimuth><distance>0.4871387779712677</distance><timeResidual>-0.2356452941894531</timeResidual><timeUsed>true</timeUsed><horizontalSlownessUsed>false</horizontalSlownessUsed><backazimuthUsed>false</backazimuthUsed><weight>1</weight></arrival><arrival><pickID>de.gempa.tb1.Pick/20250414090610.495755.136966</pickID><phase>S</phase><azimuth>251.8780212402344</azimuth><distance>0.9124523997306824</distance><timeResidual>0.17876052856445312</timeResidual><timeUsed>true</timeUsed><horizontalSlownessUsed>false</horizontalSlownessUsed><backazimuthUsed>false</backazimuthUsed><weight>1</weight></arrival><arrival><pickID>de.gempa.tb1.Pick/20250414090614.420233.136969</pickID><phase>S</phase><azimuth>198.744384765625</azimuth><distance>0.7981552481651306</distance><timeResidual>0.3927135467529297</timeResidual><timeUsed>true</timeUsed><horizontalSlownessUsed>false</horizontalSlownessUsed><backazimuthUsed>false</backazimuthUsed><weight>1</weight></arrival><arrival><pickID>de.gempa.tb1.Pick/20250414090616.439613.136970</pickID><phase>S</phase><azimuth>280.767578125</azimuth><distance>1.1302472352981567</distance><timeResidual>0.7569408416748047</timeResidual><timeUsed>true</timeUsed><horizontalSlownessUsed>false</horizontalSlownessUsed><backazimuthUsed>false</backazimuthUsed><weight>1</weight></arrival><arrival><pickID>de.gempa.tb1.Pick/20250414090616.790449.136972</pickID><phase>S</phase><azimuth>215.9158172607422</azimuth><distance>1.2449833154678345</distance><timeResidual>-0.8878536224365234</timeResidual><timeUsed>true</timeUsed><horizontalSlownessUsed>false</horizontalSlownessUsed><backazimuthUsed>false</backazimuthUsed><weight>1</weight></arrival><arrival><pickID>de.gempa.tb1.Pick/20250414090630.57214.136974</pickID><phase>S</phase><azimuth>322.63348388671875</azimuth><distance>1.7976173162460327</distance><timeResidual>-0.4605255126953125</timeResidual><timeUsed>true</timeUsed><horizontalSlownessUsed>false</horizontalSlownessUsed><backazimuthUsed>false</backazimuthUsed><weight>1</weight></arrival><arrival><pickID>de.gempa.tb1.Pick/20250414090639.766636.136976</pickID><phase>S</phase><azimuth>231.16973876953125</azimuth><distance>1.0983892679214478</distance><timeResidual>-0.26836204528808594</timeResidual><timeUsed>true</timeUsed><horizontalSlownessUsed>false</horizontalSlownessUsed><backazimuthUsed>false</backazimuthUsed><weight>1</weight></arrival><magnitude publicID="de.gempa.tb1.Magnitude/20250414090650.938895.461724"><magnitude><value>2.1969471884814165</value></magnitude><type>M</type><methodID>weighted average</methodID><stationCount>4</stationCount></magnitude></origin><event publicID="gempa2025hiyl"><preferredOriginID>de.gempa.tb1.Origin/20250414090643.787892.133391</preferredOriginID><preferredMagnitudeID>de.gempa.tb1.Magnitude/20250414090650.938895.461724</preferredMagnitudeID><description><text>Chile-Bolivia Border Region</text><type>region name</type></description><originReference>de.gempa.tb1.Origin/20250414090643.787892.133391</originReference></event></EventParameters></seiscomp>