<?xml version="1.0" encoding="UTF-8"?>
<seiscomp xmlns="http://geofon.gfz-potsdam.de/ns/seiscomp3-schema/0.13" version="0.13"><EventParameters><pick publicID="de.gempa.tb1.Pick/20250413052810.533014.129129"><time><value>2025-04-13T05:28:05.298393Z</value></time><waveformID networkCode="CX" stationCode="PB01" channelCode="HHZ"/><filterID>ITAPER(4)&gt;&gt;BW(4,4,20)</filterID><methodID>AIC</methodID><horizontalSlowness><value>23.180314731062456</value></horizontalSlowness><backazimuth><value>103.92409408565454</value></backazimuth><phaseHint>P</phaseHint><evaluationMode>automatic</evaluationMode><comment><text>8.759178993169449</text><id>DFX:rectilinearity</id></comment><comment><text>62.56468791318398</text><id>SNR</id></comment></pick><pick publicID="de.gempa.tb1.Pick/20250413052811.216514.129131"><time><value>2025-04-13T05:28:03.678393Z</value></time><waveformID networkCode="CX" stationCode="PB08" channelCode="HHZ"/><filterID>ITAPER(4)&gt;&gt;BW(4,4,20)</filterID><methodID>AIC</methodID><horizontalSlowness><value>16.547085411952725</value></horizontalSlowness><backazimuth><value>83.63173753329812</value></backazimuth><phaseHint>P</phaseHint><evaluationMode>automatic</evaluationMode><comment><text>8.171058198831124</text><id>DFX:rectilinearity</id></comment><comment><text>6.826232896431662</text><id>SNR</id></comment></pick><pick publicID="de.gempa.tb1.Pick/20250413052815.462207.129133"><time><value>2025-04-13T05:28:10.838393Z</value></time><waveformID networkCode="CX" stationCode="PB02" channelCode="HHZ"/><filterID>ITAPER(4)&gt;&gt;BW(4,4,20)</filterID><methodID>AIC</methodID><horizontalSlowness><value>23.111214142891573</value></horizontalSlowness><backazimuth><value>117.3536006767896</value></backazimuth><phaseHint>P</phaseHint><evaluationMode>automatic</evaluationMode><comment><text>47.09638011275379</text><id>DFX:rectilinearity</id></comment><comment><text>15.725943639203155</text><id>SNR</id></comment></pick><pick publicID="de.gempa.tb1.Pick/20250413052818.557283.129135"><time><value>2025-04-13T05:28:13.22Z</value></time><waveformID networkCode="CX" stationCode="PSGCX" channelCode="HHZ"/><filterID>ITAPER(4)&gt;&gt;BW(4,4,20)</filterID><methodID>AIC</methodID><horizontalSlowness><value>13.421568578175586</value></horizontalSlowness><backazimuth><value>109.71473411676969</value></backazimuth><phaseHint>P</phaseHint><evaluationMode>automatic</evaluationMode><comment><text>35.14871145165751</text><id>DFX:rectilinearity</id></comment><comment><text>16.959562231592127</text><id>SNR</id></comment></pick><pick publicID="de.gempa.tb1.Pick/20250413052823.893791.129139"><time><value>2025-04-13T05:28:15.888393Z</value></time><waveformID networkCode="CX" stationCode="PB08" channelCode="HHN"/><filterID>ITAPER(2)&gt;&gt;BW(3,3,20)</filterID><methodID>L2-AIC-GRID</methodID><horizontalSlowness><value>13.5065979004427</value></horizontalSlowness><backazimuth><value>189.0764059996408</value></backazimuth><phaseHint>S</phaseHint><evaluationMode>automatic</evaluationMode><comment><text>72.80334946946371</text><id>DFX:rectilinearity</id></comment><comment><text>de.gempa.tb1.Pick/20250413052811.216514.129131</text><id>RefPickID</id></comment><comment><text>8.293710628424309</text><id>SNR</id></comment></pick><pick publicID="de.gempa.tb1.Pick/20250413052826.783965.129140"><time><value>2025-04-13T05:28:19.388393Z</value></time><waveformID networkCode="CX" stationCode="PB01" channelCode="HHN"/><filterID>ITAPER(2)&gt;&gt;BW(3,3,20)</filterID><methodID>L2-AIC-GRID</methodID><horizontalSlowness><value>23.275443026535285</value></horizontalSlowness><backazimuth><value>161.6874651964653</value></backazimuth><phaseHint>S</phaseHint><evaluationMode>automatic</evaluationMode><comment><text>233.73202644172437</text><id>DFX:rectilinearity</id></comment><comment><text>de.gempa.tb1.Pick/20250413052810.533014.129129</text><id>RefPickID</id></comment><comment><text>9.769442222607605</text><id>SNR</id></comment></pick><pick publicID="de.gempa.tb1.Pick/20250413052828.581361.129141"><time><value>2025-04-13T05:28:13.758394Z</value></time><waveformID networkCode="CX" stationCode="PB07" channelCode="HHZ"/><filterID>ITAPER(4)&gt;&gt;BW(4,4,20)</filterID><methodID>AIC</methodID><horizontalSlowness><value>22.144797979401222</value></horizontalSlowness><backazimuth><value>331.1413033045816</value></backazimuth><phaseHint>P</phaseHint><evaluationMode>automatic</evaluationMode><comment><text>354.24733235911816</text><id>DFX:rectilinearity</id></comment><comment><text>14.381059901717368</text><id>SNR</id></comment></pick><pick publicID="de.gempa.tb1.Pick/20250413052837.66775.129143"><time><value>2025-04-13T05:28:28.888393Z</value></time><waveformID networkCode="CX" stationCode="PB02" channelCode="HHN"/><filterID>ITAPER(2)&gt;&gt;BW(3,3,20)</filterID><methodID>L2-AIC-GRID</methodID><horizontalSlowness><value>21.15955539535418</value></horizontalSlowness><backazimuth><value>44.88601953189175</value></backazimuth><phaseHint>S</phaseHint><evaluationMode>automatic</evaluationMode><comment><text>257.3778429274414</text><id>DFX:rectilinearity</id></comment><comment><text>de.gempa.tb1.Pick/20250413052815.462207.129133</text><id>RefPickID</id></comment><comment><text>7.063577822241874</text><id>SNR</id></comment></pick><pick publicID="de.gempa.tb1.Pick/20250413052843.579816.129145"><time><value>2025-04-13T05:28:33.74Z</value></time><waveformID networkCode="CX" stationCode="PSGCX" channelCode="HHN"/><filterID>ITAPER(2)&gt;&gt;BW(3,3,20)</filterID><methodID>L2-AIC-GRID</methodID><horizontalSlowness><value>20.106432978376457</value></horizontalSlowness><backazimuth><value>47.11705065494206</value></backazimuth><phaseHint>S</phaseHint><evaluationMode>automatic</evaluationMode><comment><text>30.38019247775498</text><id>DFX:rectilinearity</id></comment><comment><text>de.gempa.tb1.Pick/20250413052818.557283.129135</text><id>RefPickID</id></comment><comment><text>5.87089118870381</text><id>SNR</id></comment></pick><pick publicID="de.gempa.tb1.Pick/20250413052846.203292.129146"><time><value>2025-04-13T05:28:34.718394Z</value></time><waveformID networkCode="CX" stationCode="PB07" channelCode="HHN"/><filterID>ITAPER(2)&gt;&gt;BW(3,3,20)</filterID><methodID>L2-AIC-GRID</methodID><horizontalSlowness><value>22.65454099537233</value></horizontalSlowness><backazimuth><value>273.4602511879574</value></backazimuth><phaseHint>S</phaseHint><evaluationMode>automatic</evaluationMode><comment><text>387.9320732640811</text><id>DFX:rectilinearity</id></comment><comment><text>de.gempa.tb1.Pick/20250413052828.581361.129141</text><id>RefPickID</id></comment><comment><text>6.555310563357168</text><id>SNR</id></comment></pick><origin publicID="de.gempa.tb1.Origin/20250413052846.207277.101761"><time><value>2025-04-13T05:27:47.235591Z</value><uncertainty>1.131400465965271</uncertainty></time><latitude><value>-20.524574279785156</value><uncertainty>3.4628679752349854</uncertainty></latitude><longitude><value>-68.91069793701172</value><uncertainty>8.522558212280273</uncertainty></longitude><depth><value>106.43632507324219</value><uncertainty>7.327003002166748</uncertainty></depth><depthType>from location</depthType><methodID>LOCSAT</methodID><earthModelID>iasp91_scanloc</earthModelID><quality><associatedPhaseCount>10</associatedPhaseCount><usedPhaseCount>10</usedPhaseCount><associatedStationCount>5</associatedStationCount><usedStationCount>5</usedStationCount><depthPhaseCount>0</depthPhaseCount><standardError>0.29902952472687577</standardError><azimuthalGap>247.99110412597656</azimuthalGap><maximumDistance>1.5033466815948486</maximumDistance><minimumDistance>0.4443165361881256</minimumDistance><medianDistance>1.214271068572998</medianDistance></quality><uncertainty><minHorizontalUncertainty>7.25054931640625</minHorizontalUncertainty><maxHorizontalUncertainty>18.344409942626953</maxHorizontalUncertainty><azimuthMaxHorizontalUncertainty>95.45215606689453</azimuthMaxHorizontalUncertainty><preferredDescription>horizontal uncertainty</preferredDescription></uncertainty><evaluationMode>automatic</evaluationMode><evaluationStatus>confirmed</evaluationStatus><comment><text>0.12</text><id>mismatchScore</id></comment><comment><text>mismatchScore</text><id>scevalMethod</id></comment><arrival><pickID>de.gempa.tb1.Pick/20250413052810.533014.129129</pickID><phase>P</phase><azimuth>226.17779541015625</azimuth><distance>0.7466583251953125</distance><timeResidual>-0.3875751495361328</timeResidual><timeUsed>true</timeUsed><horizontalSlownessUsed>false</horizontalSlownessUsed><backazimuthUsed>false</backazimuthUsed><weight>1</weight></arrival><arrival><pickID>de.gempa.tb1.Pick/20250413052811.216514.129131</pickID><phase>P</phase><azimuth>329.1203918457031</azimuth><distance>0.4443165361881256</distance><timeResidual>0.32529449462890625</timeResidual><timeUsed>true</timeUsed><horizontalSlownessUsed>false</horizontalSlownessUsed><backazimuthUsed>false</backazimuthUsed><weight>1</weight></arrival><arrival><pickID>de.gempa.tb1.Pick/20250413052815.462207.129133</pickID><phase>P</phase><azimuth>229.16648864746094</azimuth><distance>1.214271068572998</distance><timeResidual>0.32745361328125</timeResidual><timeUsed>true</timeUsed><horizontalSlownessUsed>false</horizontalSlownessUsed><backazimuthUsed>false</backazimuthUsed><weight>1</weight></arrival><arrival><pickID>de.gempa.tb1.Pick/20250413052818.557283.129135</pickID><phase>P</phase><azimuth>308.78411865234375</azimuth><distance>1.466328740119934</distance><timeResidual>-0.2428627014160156</timeResidual><timeUsed>true</timeUsed><horizontalSlownessUsed>false</horizontalSlownessUsed><backazimuthUsed>false</backazimuthUsed><weight>1</weight></arrival><arrival><pickID>de.gempa.tb1.Pick/20250413052823.893791.129139</pickID><phase>S</phase><azimuth>329.1203918457031</azimuth><distance>0.4443165361881256</distance><timeResidual>0.14031982421875</timeResidual><timeUsed>true</timeUsed><horizontalSlownessUsed>false</horizontalSlownessUsed><backazimuthUsed>false</backazimuthUsed><weight>1</weight></arrival><arrival><pickID>de.gempa.tb1.Pick/20250413052826.783965.129140</pickID><phase>S</phase><azimuth>226.17779541015625</azimuth><distance>0.7466583251953125</distance><timeResidual>-0.5132904052734375</timeResidual><timeUsed>true</timeUsed><horizontalSlownessUsed>false</horizontalSlownessUsed><backazimuthUsed>false</backazimuthUsed><weight>1</weight></arrival><arrival><pickID>de.gempa.tb1.Pick/20250413052828.581361.129141</pickID><phase>P</phase><azimuth>217.1114959716797</azimuth><distance>1.5033466815948486</distance><timeResidual>-0.13915634155273438</timeResidual><timeUsed>true</timeUsed><horizontalSlownessUsed>false</horizontalSlownessUsed><backazimuthUsed>false</backazimuthUsed><weight>1</weight></arrival><arrival><pickID>de.gempa.tb1.Pick/20250413052837.66775.129143</pickID><phase>S</phase><azimuth>229.16648864746094</azimuth><distance>1.214271068572998</distance><timeResidual>0.37897491455078125</timeResidual><timeUsed>true</timeUsed><horizontalSlownessUsed>false</horizontalSlownessUsed><backazimuthUsed>false</backazimuthUsed><weight>1</weight></arrival><arrival><pickID>de.gempa.tb1.Pick/20250413052843.579816.129145</pickID><phase>S</phase><azimuth>308.78411865234375</azimuth><distance>1.466328740119934</distance><timeResidual>-0.043819427490234375</timeResidual><timeUsed>true</timeUsed><horizontalSlownessUsed>false</horizontalSlownessUsed><backazimuthUsed>false</backazimuthUsed><weight>1</weight></arrival><arrival><pickID>de.gempa.tb1.Pick/20250413052846.203292.129146</pickID><phase>S</phase><azimuth>217.1114959716797</azimuth><distance>1.5033466815948486</distance><timeResidual>0.15454483032226562</timeResidual><timeUsed>true</timeUsed><horizontalSlownessUsed>false</horizontalSlownessUsed><backazimuthUsed>false</backazimuthUsed><weight>1</weight></arrival><magnitude publicID="de.gempa.tb1.Magnitude/20250413052855.815239.319586"><magnitude><value>2.6608874121966704</value></magnitude><type>M</type><methodID>weighted average</methodID><stationCount>5</stationCount></magnitude></origin><event publicID="gempa2025hgve"><preferredOriginID>de.gempa.tb1.Origin/20250413052846.207277.101761</preferredOriginID><preferredMagnitudeID>de.gempa.tb1.Magnitude/20250413052855.815239.319586</preferredMagnitudeID><description><text>Chile-Bolivia Border Region</text><type>region name</type></description><originReference>de.gempa.tb1.Origin/20250413052846.207277.101761</originReference></event></EventParameters></seiscomp>