<?xml version="1.0" encoding="UTF-8"?>
<seiscomp xmlns="http://geofon.gfz-potsdam.de/ns/seiscomp3-schema/0.13" version="0.13"><EventParameters><pick publicID="de.gempa.tb1.Pick/20250412235623.777813.127613"><time><value>2025-04-12T23:56:16.408393Z</value></time><waveformID networkCode="CX" stationCode="PB01" channelCode="HHZ"/><filterID>ITAPER(4)&gt;&gt;BW(4,4,20)</filterID><methodID>AIC</methodID><horizontalSlowness><value>9.13230303237848</value></horizontalSlowness><backazimuth><value>154.42538028110624</value></backazimuth><phaseHint>P</phaseHint><evaluationMode>automatic</evaluationMode><comment><text>60.33641043141584</text><id>DFX:rectilinearity</id></comment><comment><text>128.76769196138073</text><id>SNR</id></comment></pick><pick publicID="de.gempa.tb1.Pick/20250412235625.530161.127615"><time><value>2025-04-12T23:56:19.928393Z</value></time><waveformID networkCode="CX" stationCode="PB02" channelCode="HHZ"/><filterID>ITAPER(4)&gt;&gt;BW(4,4,20)</filterID><methodID>AIC</methodID><horizontalSlowness><value>11.254683772034655</value></horizontalSlowness><backazimuth><value>254.8508684016064</value></backazimuth><phaseHint>P</phaseHint><evaluationMode>automatic</evaluationMode><comment><text>73.73608508110645</text><id>DFX:rectilinearity</id></comment><comment><text>31.920778902130845</text><id>SNR</id></comment></pick><pick publicID="de.gempa.tb1.Pick/20250412235630.382589.127617"><time><value>2025-04-12T23:56:22.799999Z</value></time><waveformID networkCode="CX" stationCode="PATCX" channelCode="HHZ"/><filterID>ITAPER(4)&gt;&gt;BW(4,4,20)</filterID><methodID>AIC</methodID><horizontalSlowness><value>19.653319719821184</value></horizontalSlowness><backazimuth><value>34.062515485152744</value></backazimuth><phaseHint>P</phaseHint><evaluationMode>automatic</evaluationMode><comment><text>360.82272174561297</text><id>DFX:rectilinearity</id></comment><comment><text>10.040308798009875</text><id>SNR</id></comment></pick><pick publicID="de.gempa.tb1.Pick/20250412235632.069107.127619"><time><value>2025-04-12T23:56:18.14Z</value></time><waveformID networkCode="CX" stationCode="PB09" channelCode="HHZ"/><filterID>ITAPER(4)&gt;&gt;BW(4,4,20)</filterID><methodID>AIC</methodID><horizontalSlowness><value>15.415028563058753</value></horizontalSlowness><backazimuth><value>267.59989330994574</value></backazimuth><phaseHint>P</phaseHint><evaluationMode>automatic</evaluationMode><comment><text>14.327607016974287</text><id>DFX:rectilinearity</id></comment><comment><text>21.22949559233393</text><id>SNR</id></comment></pick><pick publicID="de.gempa.tb1.Pick/20250412235638.780502.127621"><time><value>2025-04-12T23:56:29.128393Z</value></time><waveformID networkCode="CX" stationCode="PB01" channelCode="HHN"/><filterID>ITAPER(2)&gt;&gt;BW(3,3,20)</filterID><methodID>L2-AIC-GRID</methodID><horizontalSlowness><value>23.44140670996387</value></horizontalSlowness><backazimuth><value>353.24745777618926</value></backazimuth><phaseHint>S</phaseHint><evaluationMode>automatic</evaluationMode><comment><text>112.08513568922487</text><id>DFX:rectilinearity</id></comment><comment><text>de.gempa.tb1.Pick/20250412235623.777813.127613</text><id>RefPickID</id></comment><comment><text>5.670115080816234</text><id>SNR</id></comment></pick><pick publicID="de.gempa.tb1.Pick/20250412235646.128784.127624"><time><value>2025-04-12T23:56:33.47Z</value></time><waveformID networkCode="CX" stationCode="PB09" channelCode="HHN"/><filterID>ITAPER(2)&gt;&gt;BW(3,3,20)</filterID><methodID>L2-AIC-GRID</methodID><horizontalSlowness><value>14.815071226781612</value></horizontalSlowness><backazimuth><value>312.7746123280318</value></backazimuth><phaseHint>S</phaseHint><evaluationMode>automatic</evaluationMode><comment><text>82.06971380916622</text><id>DFX:rectilinearity</id></comment><comment><text>de.gempa.tb1.Pick/20250412235632.069107.127619</text><id>RefPickID</id></comment><comment><text>8.561067412390003</text><id>SNR</id></comment></pick><pick publicID="de.gempa.tb1.Pick/20250412235648.635404.127627"><time><value>2025-04-12T23:56:35.218393Z</value></time><waveformID networkCode="CX" stationCode="PB02" channelCode="HHN"/><filterID>ITAPER(2)&gt;&gt;BW(3,3,20)</filterID><methodID>L2-AIC-GRID</methodID><horizontalSlowness><value>19.482340604770506</value></horizontalSlowness><backazimuth><value>254.298532403298</value></backazimuth><phaseHint>S</phaseHint><evaluationMode>automatic</evaluationMode><comment><text>346.08432991808377</text><id>DFX:rectilinearity</id></comment><comment><text>de.gempa.tb1.Pick/20250412235625.530161.127615</text><id>RefPickID</id></comment><comment><text>5.00868211412974</text><id>SNR</id></comment></pick><pick publicID="de.gempa.tb1.Pick/20250412235653.100297.127628"><time><value>2025-04-12T23:56:21.488394Z</value></time><waveformID networkCode="CX" stationCode="PB07" channelCode="HHZ"/><filterID>ITAPER(4)&gt;&gt;BW(4,4,20)</filterID><methodID>AIC</methodID><horizontalSlowness><value>21.743922187839264</value></horizontalSlowness><backazimuth><value>340.45041534376844</value></backazimuth><phaseHint>P</phaseHint><evaluationMode>automatic</evaluationMode><comment><text>317.5338279836926</text><id>DFX:rectilinearity</id></comment><comment><text>18.172842848153962</text><id>SNR</id></comment></pick><pick publicID="de.gempa.tb1.Pick/20250412235658.909175.127630"><time><value>2025-04-12T23:56:37.818394Z</value></time><waveformID networkCode="CX" stationCode="PB07" channelCode="HHN"/><filterID>ITAPER(2)&gt;&gt;BW(3,3,20)</filterID><methodID>L2-AIC-GRID</methodID><horizontalSlowness><value>23.435090327499243</value></horizontalSlowness><backazimuth><value>162.07466934925384</value></backazimuth><phaseHint>S</phaseHint><evaluationMode>automatic</evaluationMode><comment><text>435.9878960019942</text><id>DFX:rectilinearity</id></comment><comment><text>de.gempa.tb1.Pick/20250412235653.100297.127628</text><id>RefPickID</id></comment><comment><text>7.2276774491715</text><id>SNR</id></comment></pick><origin publicID="de.gempa.tb1.Origin/20250412235658.91274.95605"><time><value>2025-04-12T23:55:59.980613Z</value><uncertainty>1.1574325561523438</uncertainty></time><latitude><value>-21.101911544799805</value><uncertainty>6.890328884124756</uncertainty></latitude><longitude><value>-69.00405883789062</value><uncertainty>9.321454048156738</uncertainty></longitude><depth><value>109.99504852294922</value><uncertainty>8.630986213684082</uncertainty></depth><depthType>from location</depthType><methodID>LOCSAT</methodID><earthModelID>iasp91_scanloc</earthModelID><quality><associatedPhaseCount>9</associatedPhaseCount><usedPhaseCount>9</usedPhaseCount><associatedStationCount>5</associatedStationCount><usedStationCount>5</usedStationCount><depthPhaseCount>0</depthPhaseCount><standardError>0.31346980277762104</standardError><azimuthalGap>273.33424377441406</azimuthalGap><maximumDistance>1.1095635890960693</maximumDistance><minimumDistance>0.4551646113395691</minimumDistance><medianDistance>0.8600260615348816</medianDistance></quality><uncertainty><minHorizontalUncertainty>13.749324798583984</minHorizontalUncertainty><maxHorizontalUncertainty>20.707509994506836</maxHorizontalUncertainty><azimuthMaxHorizontalUncertainty>69.55143737792969</azimuthMaxHorizontalUncertainty><preferredDescription>horizontal uncertainty</preferredDescription></uncertainty><evaluationMode>automatic</evaluationMode><evaluationStatus>confirmed</evaluationStatus><comment><text>0.08</text><id>mismatchScore</id></comment><comment><text>mismatchScore</text><id>scevalMethod</id></comment><arrival><pickID>de.gempa.tb1.Pick/20250412235623.777813.127613</pickID><phase>P</phase><azimuth>277.28387451171875</azimuth><distance>0.4551646113395691</distance><timeResidual>-0.1543102264404297</timeResidual><timeUsed>true</timeUsed><horizontalSlownessUsed>false</horizontalSlownessUsed><backazimuthUsed>false</backazimuthUsed><weight>1</weight></arrival><arrival><pickID>de.gempa.tb1.Pick/20250412235625.530161.127615</pickID><phase>P</phase><azimuth>255.24310302734375</azimuth><distance>0.8600260615348816</distance><timeResidual>0.11139869689941406</timeResidual><timeUsed>true</timeUsed><horizontalSlownessUsed>false</horizontalSlownessUsed><backazimuthUsed>false</backazimuthUsed><weight>1</weight></arrival><arrival><pickID>de.gempa.tb1.Pick/20250412235630.382589.127617</pickID><phase>P</phase><azimuth>284.4010925292969</azimuth><distance>1.1095635890960693</distance><timeResidual>0.4323854446411133</timeResidual><timeUsed>true</timeUsed><horizontalSlownessUsed>false</horizontalSlownessUsed><backazimuthUsed>false</backazimuthUsed><weight>1</weight></arrival><arrival><pickID>de.gempa.tb1.Pick/20250412235632.069107.127619</pickID><phase>P</phase><azimuth>197.73533630371094</azimuth><distance>0.7257076501846313</distance><timeResidual>-0.4488239288330078</timeResidual><timeUsed>true</timeUsed><horizontalSlownessUsed>false</horizontalSlownessUsed><backazimuthUsed>false</backazimuthUsed><weight>1</weight></arrival><arrival><pickID>de.gempa.tb1.Pick/20250412235638.780502.127621</pickID><phase>S</phase><azimuth>277.28387451171875</azimuth><distance>0.4551646113395691</distance><timeResidual>-0.1955718994140625</timeResidual><timeUsed>true</timeUsed><horizontalSlownessUsed>false</horizontalSlownessUsed><backazimuthUsed>false</backazimuthUsed><weight>1</weight></arrival><arrival><pickID>de.gempa.tb1.Pick/20250412235646.128784.127624</pickID><phase>S</phase><azimuth>197.73533630371094</azimuth><distance>0.7257076501846313</distance><timeResidual>0.538604736328125</timeResidual><timeUsed>true</timeUsed><horizontalSlownessUsed>false</horizontalSlownessUsed><backazimuthUsed>false</backazimuthUsed><weight>1</weight></arrival><arrival><pickID>de.gempa.tb1.Pick/20250412235648.635404.127627</pickID><phase>S</phase><azimuth>255.24310302734375</azimuth><distance>0.8600260615348816</distance><timeResidual>0.09891700744628906</timeResidual><timeUsed>true</timeUsed><horizontalSlownessUsed>false</horizontalSlownessUsed><backazimuthUsed>false</backazimuthUsed><weight>1</weight></arrival><arrival><pickID>de.gempa.tb1.Pick/20250412235653.100297.127628</pickID><phase>P</phase><azimuth>232.7386474609375</azimuth><distance>1.0305734872817993</distance><timeResidual>-0.035945892333984375</timeResidual><timeUsed>true</timeUsed><horizontalSlownessUsed>false</horizontalSlownessUsed><backazimuthUsed>false</backazimuthUsed><weight>1</weight></arrival><arrival><pickID>de.gempa.tb1.Pick/20250412235658.909175.127630</pickID><phase>S</phase><azimuth>232.7386474609375</azimuth><distance>1.0305734872817993</distance><timeResidual>-0.34688377380371094</timeResidual><timeUsed>true</timeUsed><horizontalSlownessUsed>false</horizontalSlownessUsed><backazimuthUsed>false</backazimuthUsed><weight>1</weight></arrival><magnitude publicID="de.gempa.tb1.Magnitude/20250412235700.937301.293736"><magnitude><value>2.0544667247259123</value></magnitude><type>M</type><methodID>weighted average</methodID><stationCount>3</stationCount></magnitude></origin><event publicID="gempa2025hgkc"><preferredOriginID>de.gempa.tb1.Origin/20250412235658.91274.95605</preferredOriginID><preferredMagnitudeID>de.gempa.tb1.Magnitude/20250412235700.937301.293736</preferredMagnitudeID><description><text>Northern Chile</text><type>region name</type></description><originReference>de.gempa.tb1.Origin/20250412235658.91274.95605</originReference></event></EventParameters></seiscomp>