<?xml version="1.0" encoding="UTF-8"?>
<seiscomp xmlns="http://geofon.gfz-potsdam.de/ns/seiscomp3-schema/0.13" version="0.13"><EventParameters><pick publicID="de.gempa.tb1.Pick/20250414044718.775003.135724"><time><value>2025-04-14T04:47:12.118394Z</value></time><waveformID networkCode="CX" stationCode="PB01" channelCode="HHZ"/><filterID>ITAPER(4)&gt;&gt;BW(4,4,20)</filterID><methodID>AIC</methodID><horizontalSlowness><value>8.22066609883411</value></horizontalSlowness><backazimuth><value>36.324050839426377</value></backazimuth><phaseHint>P</phaseHint><evaluationMode>automatic</evaluationMode><comment><text>50.94505858092509</text><id>DFX:rectilinearity</id></comment><comment><text>94.09032300036777</text><id>SNR</id></comment></pick><pick publicID="de.gempa.tb1.Pick/20250414044720.616967.135726"><time><value>2025-04-14T04:47:14.748393Z</value></time><waveformID networkCode="CX" stationCode="PB08" channelCode="HHZ"/><filterID>ITAPER(4)&gt;&gt;BW(4,4,20)</filterID><methodID>AIC</methodID><horizontalSlowness><value>16.53800460427066</value></horizontalSlowness><backazimuth><value>80.55136476948758</value></backazimuth><phaseHint>P</phaseHint><evaluationMode>automatic</evaluationMode><comment><text>12.667925166660858</text><id>DFX:rectilinearity</id></comment><comment><text>9.915174777270853</text><id>SNR</id></comment></pick><pick publicID="de.gempa.tb1.Pick/20250414044722.422072.135728"><time><value>2025-04-14T04:47:17.460001Z</value></time><waveformID networkCode="CX" stationCode="PATCX" channelCode="HHZ"/><filterID>ITAPER(4)&gt;&gt;BW(4,4,20)</filterID><methodID>AIC</methodID><horizontalSlowness><value>20.130745334649454</value></horizontalSlowness><backazimuth><value>38.288151875585157</value></backazimuth><phaseHint>P</phaseHint><evaluationMode>automatic</evaluationMode><comment><text>82.21788797416202</text><id>DFX:rectilinearity</id></comment><comment><text>14.7396546598462</text><id>SNR</id></comment></pick><pick publicID="de.gempa.tb1.Pick/20250414044723.476008.135730"><time><value>2025-04-14T04:47:16.338393Z</value></time><waveformID networkCode="CX" stationCode="PB02" channelCode="HHZ"/><filterID>ITAPER(4)&gt;&gt;BW(4,4,20)</filterID><methodID>AIC</methodID><horizontalSlowness><value>10.171835356540647</value></horizontalSlowness><backazimuth><value>61.63546845278444</value></backazimuth><phaseHint>P</phaseHint><evaluationMode>automatic</evaluationMode><comment><text>59.56877572031949</text><id>DFX:rectilinearity</id></comment><comment><text>56.07013600582227</text><id>SNR</id></comment></pick><pick publicID="de.gempa.tb1.Pick/20250414044728.552405.135732"><time><value>2025-04-14T04:47:23.33Z</value></time><waveformID networkCode="CX" stationCode="PSGCX" channelCode="HHZ"/><filterID>ITAPER(4)&gt;&gt;BW(4,4,20)</filterID><methodID>AIC</methodID><horizontalSlowness><value>19.318992485629568</value></horizontalSlowness><backazimuth><value>106.31118393063879</value></backazimuth><phaseHint>P</phaseHint><evaluationMode>automatic</evaluationMode><comment><text>17.052392785072698</text><id>DFX:rectilinearity</id></comment><comment><text>21.911112187901356</text><id>SNR</id></comment></pick><pick publicID="de.gempa.tb1.Pick/20250414044729.082299.135734"><time><value>2025-04-14T04:47:17.610001Z</value></time><waveformID networkCode="CX" stationCode="PB09" channelCode="HHZ"/><filterID>ITAPER(4)&gt;&gt;BW(4,4,20)</filterID><methodID>AIC</methodID><horizontalSlowness><value>21.675525893361996</value></horizontalSlowness><backazimuth><value>252.6243314413107</value></backazimuth><phaseHint>P</phaseHint><evaluationMode>automatic</evaluationMode><comment><text>13.422488147532858</text><id>DFX:rectilinearity</id></comment><comment><text>25.25907813001623</text><id>SNR</id></comment></pick><pick publicID="de.gempa.tb1.Pick/20250414044729.592306.135736"><time><value>2025-04-14T04:47:21.568393Z</value></time><waveformID networkCode="CX" stationCode="PB03" channelCode="HHZ"/><filterID>ITAPER(4)&gt;&gt;BW(4,4,20)</filterID><methodID>AIC</methodID><horizontalSlowness><value>10.446401962657017</value></horizontalSlowness><backazimuth><value>185.08649629874867</value></backazimuth><phaseHint>P</phaseHint><evaluationMode>automatic</evaluationMode><comment><text>5.512320611176919</text><id>DFX:rectilinearity</id></comment><comment><text>14.679063844459115</text><id>SNR</id></comment></pick><pick publicID="de.gempa.tb1.Pick/20250414044731.574125.135738"><time><value>2025-04-14T04:47:24.298394Z</value></time><waveformID networkCode="CX" stationCode="PB01" channelCode="HHN"/><filterID>ITAPER(2)&gt;&gt;BW(3,3,20)</filterID><methodID>L2-AIC-GRID</methodID><horizontalSlowness><value>20.168127375897324</value></horizontalSlowness><backazimuth><value>228.55343835863727</value></backazimuth><phaseHint>S</phaseHint><evaluationMode>automatic</evaluationMode><comment><text>1210.2476210814536</text><id>DFX:rectilinearity</id></comment><comment><text>de.gempa.tb1.Pick/20250414044718.775003.135724</text><id>RefPickID</id></comment><comment><text>13.090471675364114</text><id>SNR</id></comment></pick><pick publicID="de.gempa.tb1.Pick/20250414044732.216949.135739"><time><value>2025-04-14T04:47:19.138393Z</value></time><waveformID networkCode="CX" stationCode="PB07" channelCode="HHZ"/><filterID>ITAPER(4)&gt;&gt;BW(4,4,20)</filterID><methodID>AIC</methodID><horizontalSlowness><value>22.811869505884776</value></horizontalSlowness><backazimuth><value>255.8664269415898</value></backazimuth><phaseHint>P</phaseHint><evaluationMode>automatic</evaluationMode><comment><text>341.38677064206024</text><id>DFX:rectilinearity</id></comment><comment><text>28.41549712516135</text><id>SNR</id></comment></pick><pick publicID="de.gempa.tb1.Pick/20250414044739.837369.135741"><time><value>2025-04-14T04:47:28.438393Z</value></time><waveformID networkCode="CX" stationCode="PB08" channelCode="HHN"/><filterID>ITAPER(2)&gt;&gt;BW(3,3,20)</filterID><methodID>L2-AIC-GRID</methodID><horizontalSlowness><value>18.935639426354186</value></horizontalSlowness><backazimuth><value>190.43739203742652</value></backazimuth><phaseHint>S</phaseHint><evaluationMode>automatic</evaluationMode><comment><text>87.83430212717633</text><id>DFX:rectilinearity</id></comment><comment><text>de.gempa.tb1.Pick/20250414044720.616967.135726</text><id>RefPickID</id></comment><comment><text>14.760107364352292</text><id>SNR</id></comment></pick><pick publicID="de.gempa.tb1.Pick/20250414044740.614238.135742"><time><value>2025-04-14T04:47:31.838393Z</value></time><waveformID networkCode="CX" stationCode="PB02" channelCode="HHN"/><filterID>ITAPER(2)&gt;&gt;BW(3,3,20)</filterID><methodID>L2-AIC-GRID</methodID><horizontalSlowness><value>20.026354361427053</value></horizontalSlowness><backazimuth><value>335.1852626788821</value></backazimuth><phaseHint>S</phaseHint><evaluationMode>automatic</evaluationMode><comment><text>1489.0089690393</text><id>DFX:rectilinearity</id></comment><comment><text>de.gempa.tb1.Pick/20250414044723.476008.135730</text><id>RefPickID</id></comment><comment><text>9.418610622995271</text><id>SNR</id></comment></pick><pick publicID="de.gempa.tb1.Pick/20250414044741.493224.135743"><time><value>2025-04-14T04:47:33.960001Z</value></time><waveformID networkCode="CX" stationCode="PB09" channelCode="HHN"/><filterID>ITAPER(2)&gt;&gt;BW(3,3,20)</filterID><methodID>L2-AIC-GRID</methodID><horizontalSlowness><value>22.088013935930203</value></horizontalSlowness><backazimuth><value>136.09196122981444</value></backazimuth><phaseHint>S</phaseHint><evaluationMode>automatic</evaluationMode><comment><text>307.19865046961593</text><id>DFX:rectilinearity</id></comment><comment><text>de.gempa.tb1.Pick/20250414044729.082299.135734</text><id>RefPickID</id></comment><comment><text>5.173658565550064</text><id>SNR</id></comment></pick><pick publicID="de.gempa.tb1.Pick/20250414044746.788838.135745"><time><value>2025-04-14T04:47:40.338393Z</value></time><waveformID networkCode="CX" stationCode="PB03" channelCode="HHN"/><filterID>ITAPER(2)&gt;&gt;BW(3,3,20)</filterID><methodID>L2-AIC-GRID</methodID><horizontalSlowness><value>4.761783480153817</value></horizontalSlowness><backazimuth><value>65.23474520036928</value></backazimuth><phaseHint>S</phaseHint><evaluationMode>automatic</evaluationMode><comment><text>49.43733204815857</text><id>DFX:rectilinearity</id></comment><comment><text>de.gempa.tb1.Pick/20250414044729.592306.135736</text><id>RefPickID</id></comment><comment><text>7.466841063545802</text><id>SNR</id></comment></pick><pick publicID="de.gempa.tb1.Pick/20250414044750.591433.135746"><time><value>2025-04-14T04:47:43.66Z</value></time><waveformID networkCode="CX" stationCode="PSGCX" channelCode="HHN"/><filterID>ITAPER(2)&gt;&gt;BW(3,3,20)</filterID><methodID>L2-AIC-GRID</methodID><horizontalSlowness><value>16.3770032868003</value></horizontalSlowness><backazimuth><value>112.82477650313106</value></backazimuth><phaseHint>S</phaseHint><evaluationMode>automatic</evaluationMode><comment><text>34.45681519246669</text><id>DFX:rectilinearity</id></comment><comment><text>de.gempa.tb1.Pick/20250414044728.552405.135732</text><id>RefPickID</id></comment><comment><text>6.423935657595157</text><id>SNR</id></comment></pick><pick publicID="de.gempa.tb1.Pick/20250414044805.817656.135749"><time><value>2025-04-14T04:47:36.448393Z</value></time><waveformID networkCode="CX" stationCode="PB07" channelCode="HHN"/><filterID>ITAPER(2)&gt;&gt;BW(3,3,20)</filterID><methodID>L2-AIC-GRID</methodID><horizontalSlowness><value>22.17703148637023</value></horizontalSlowness><backazimuth><value>94.4413728549505</value></backazimuth><phaseHint>S</phaseHint><evaluationMode>automatic</evaluationMode><comment><text>2530.1238414096215</text><id>DFX:rectilinearity</id></comment><comment><text>de.gempa.tb1.Pick/20250414044732.216949.135739</text><id>RefPickID</id></comment><comment><text>6.829302197867469</text><id>SNR</id></comment></pick><origin publicID="de.gempa.tb1.Origin/20250414044805.820482.127364"><time><value>2025-04-14T04:46:56.762736Z</value><uncertainty>0.8389697670936584</uncertainty></time><latitude><value>-20.806602478027344</value><uncertainty>2.5256221294403076</uncertainty></latitude><longitude><value>-69.1739730834961</value><uncertainty>6.346151828765869</uncertainty></longitude><depth><value>107.13550567626953</value><uncertainty>6.210983753204346</uncertainty></depth><depthType>from location</depthType><methodID>LOCSAT</methodID><earthModelID>iasp91_scanloc</earthModelID><quality><associatedPhaseCount>15</associatedPhaseCount><usedPhaseCount>15</usedPhaseCount><associatedStationCount>8</associatedStationCount><usedStationCount>8</usedStationCount><depthPhaseCount>0</depthPhaseCount><standardError>0.3367735564487747</standardError><azimuthalGap>181.99615108966827</azimuthalGap><maximumDistance>1.4974513053894043</maximumDistance><minimumDistance>0.37587767839431763</minimumDistance><medianDistance>0.9869211316108704</medianDistance></quality><uncertainty><minHorizontalUncertainty>5.389379978179932</minHorizontalUncertainty><maxHorizontalUncertainty>13.614752769470215</maxHorizontalUncertainty><azimuthMaxHorizontalUncertainty>92.38353729248047</azimuthMaxHorizontalUncertainty><preferredDescription>horizontal uncertainty</preferredDescription></uncertainty><evaluationMode>automatic</evaluationMode><evaluationStatus>confirmed</evaluationStatus><comment><text>0.00</text><id>mismatchScore</id></comment><comment><text>mismatchScore</text><id>scevalMethod</id></comment><arrival><pickID>de.gempa.tb1.Pick/20250414044718.775003.135724</pickID><phase>P</phase><azimuth>231.1605529785156</azimuth><distance>0.37587767839431763</distance><timeResidual>-0.44007301330566406</timeResidual><timeUsed>true</timeUsed><horizontalSlownessUsed>false</horizontalSlownessUsed><backazimuthUsed>false</backazimuthUsed><weight>1</weight></arrival><arrival><pickID>de.gempa.tb1.Pick/20250414044720.616967.135726</pickID><phase>P</phase><azimuth>1.6725958585739136</azimuth><distance>0.6623885035514832</distance><timeResidual>0.1920642852783203</timeResidual><timeUsed>true</timeUsed><horizontalSlownessUsed>false</horizontalSlownessUsed><backazimuthUsed>false</backazimuthUsed><weight>1</weight></arrival><arrival><pickID>de.gempa.tb1.Pick/20250414044722.422072.135728</pickID><phase>P</phase><azimuth>268.94903564453125</azimuth><distance>0.9159003496170044</distance><timeResidual>0.5655660629272461</timeResidual><timeUsed>true</timeUsed><horizontalSlownessUsed>false</horizontalSlownessUsed><backazimuthUsed>false</backazimuthUsed><weight>1</weight></arrival><arrival><pickID>de.gempa.tb1.Pick/20250414044723.476008.135730</pickID><phase>P</phase><azimuth>232.74253845214844</azimuth><distance>0.8458621501922607</distance><timeResidual>0.13488197326660156</timeResidual><timeUsed>true</timeUsed><horizontalSlownessUsed>false</horizontalSlownessUsed><backazimuthUsed>false</backazimuthUsed><weight>1</weight></arrival><arrival><pickID>de.gempa.tb1.Pick/20250414044728.552405.135732</pickID><phase>P</phase><azimuth>323.30401611328125</azimuth><distance>1.4974513053894043</distance><timeResidual>-0.07692241668701172</timeResidual><timeUsed>true</timeUsed><horizontalSlownessUsed>false</horizontalSlownessUsed><backazimuthUsed>false</backazimuthUsed><weight>1</weight></arrival><arrival><pickID>de.gempa.tb1.Pick/20250414044729.082299.135734</pickID><phase>P</phase><azimuth>183.6687469482422</azimuth><distance>0.9869211316108704</distance><timeResidual>-0.004870414733886719</timeResidual><timeUsed>true</timeUsed><horizontalSlownessUsed>false</horizontalSlownessUsed><backazimuthUsed>false</backazimuthUsed><weight>1</weight></arrival><arrival><pickID>de.gempa.tb1.Pick/20250414044729.592306.135736</pickID><phase>P</phase><azimuth>203.4832763671875</azimuth><distance>1.348412036895752</distance><timeResidual>-0.05912590026855469</timeResidual><timeUsed>true</timeUsed><horizontalSlownessUsed>false</horizontalSlownessUsed><backazimuthUsed>false</backazimuthUsed><weight>1</weight></arrival><arrival><pickID>de.gempa.tb1.Pick/20250414044731.574125.135738</pickID><phase>S</phase><azimuth>231.1605529785156</azimuth><distance>0.37587767839431763</distance><timeResidual>-0.4063224792480469</timeResidual><timeUsed>true</timeUsed><horizontalSlownessUsed>false</horizontalSlownessUsed><backazimuthUsed>false</backazimuthUsed><weight>1</weight></arrival><arrival><pickID>de.gempa.tb1.Pick/20250414044732.216949.135739</pickID><phase>P</phase><azimuth>215.8364715576172</azimuth><distance>1.1311196088790894</distance><timeResidual>-0.021661758422851562</timeResidual><timeUsed>true</timeUsed><horizontalSlownessUsed>false</horizontalSlownessUsed><backazimuthUsed>false</backazimuthUsed><weight>1</weight></arrival><arrival><pickID>de.gempa.tb1.Pick/20250414044739.837369.135741</pickID><phase>S</phase><azimuth>1.6725958585739136</azimuth><distance>0.6623885035514832</distance><timeResidual>0.18027305603027344</timeResidual><timeUsed>true</timeUsed><horizontalSlownessUsed>false</horizontalSlownessUsed><backazimuthUsed>false</backazimuthUsed><weight>1</weight></arrival><arrival><pickID>de.gempa.tb1.Pick/20250414044740.614238.135742</pickID><phase>S</phase><azimuth>232.74253845214844</azimuth><distance>0.8458621501922607</distance><timeResidual>0.6442680358886719</timeResidual><timeUsed>true</timeUsed><horizontalSlownessUsed>false</horizontalSlownessUsed><backazimuthUsed>false</backazimuthUsed><weight>1</weight></arrival><arrival><pickID>de.gempa.tb1.Pick/20250414044741.493224.135743</pickID><phase>S</phase><azimuth>183.6687469482422</azimuth><distance>0.9869211316108704</distance><timeResidual>0.24831199645996094</timeResidual><timeUsed>true</timeUsed><horizontalSlownessUsed>false</horizontalSlownessUsed><backazimuthUsed>false</backazimuthUsed><weight>1</weight></arrival><arrival><pickID>de.gempa.tb1.Pick/20250414044746.788838.135745</pickID><phase>S</phase><azimuth>203.4832763671875</azimuth><distance>1.348412036895752</distance><timeResidual>-0.5394439697265625</timeResidual><timeUsed>true</timeUsed><horizontalSlownessUsed>false</horizontalSlownessUsed><backazimuthUsed>false</backazimuthUsed><weight>1</weight></arrival><arrival><pickID>de.gempa.tb1.Pick/20250414044750.591433.135746</pickID><phase>S</phase><azimuth>323.30401611328125</azimuth><distance>1.4974513053894043</distance><timeResidual>-0.39618873596191406</timeResidual><timeUsed>true</timeUsed><horizontalSlownessUsed>false</horizontalSlownessUsed><backazimuthUsed>false</backazimuthUsed><weight>1</weight></arrival><arrival><pickID>de.gempa.tb1.Pick/20250414044805.817656.135749</pickID><phase>S</phase><azimuth>215.8364715576172</azimuth><distance>1.1311196088790894</distance><timeResidual>-0.020681381225585938</timeResidual><timeUsed>true</timeUsed><horizontalSlownessUsed>false</horizontalSlownessUsed><backazimuthUsed>false</backazimuthUsed><weight>1</weight></arrival><magnitude publicID="de.gempa.tb1.Magnitude/20250414044805.827583.429906"><magnitude><value>2.1709181695810753</value></magnitude><type>M</type><methodID>weighted average</methodID><stationCount>7</stationCount></magnitude></origin><event publicID="gempa2025hipv"><preferredOriginID>de.gempa.tb1.Origin/20250414044805.820482.127364</preferredOriginID><preferredMagnitudeID>de.gempa.tb1.Magnitude/20250414044805.827583.429906</preferredMagnitudeID><description><text>Northern Chile</text><type>region name</type></description><originReference>de.gempa.tb1.Origin/20250414044805.820482.127364</originReference></event></EventParameters></seiscomp>