<?xml version="1.0" encoding="UTF-8"?>
<seiscomp xmlns="http://geofon.gfz-potsdam.de/ns/seiscomp3-schema/0.13" version="0.13"><EventParameters><pick publicID="de.gempa.tb1.Pick/20250414022018.631095.134993"><time><value>2025-04-14T02:20:12.328391Z</value></time><waveformID networkCode="CX" stationCode="PB03" channelCode="HHZ"/><filterID>ITAPER(4)&gt;&gt;BW(4,4,20)</filterID><methodID>AIC</methodID><horizontalSlowness><value>11.580541393968812</value></horizontalSlowness><backazimuth><value>272.55416292142166</value></backazimuth><phaseHint>P</phaseHint><evaluationMode>automatic</evaluationMode><comment><text>4.145418341231915</text><id>DFX:rectilinearity</id></comment><comment><text>18.157512095351283</text><id>SNR</id></comment></pick><pick publicID="de.gempa.tb1.Pick/20250414022021.359086.134995"><time><value>2025-04-14T02:20:08.410001Z</value></time><waveformID networkCode="CX" stationCode="PB09" channelCode="HHZ"/><filterID>ITAPER(4)&gt;&gt;BW(4,4,20)</filterID><methodID>AIC</methodID><horizontalSlowness><value>22.83313901000249</value></horizontalSlowness><backazimuth><value>258.1288710850056</value></backazimuth><phaseHint>P</phaseHint><evaluationMode>automatic</evaluationMode><comment><text>10.960679589024622</text><id>DFX:rectilinearity</id></comment><comment><text>20.181037659682907</text><id>SNR</id></comment></pick><pick publicID="de.gempa.tb1.Pick/20250414022023.575799.134997"><time><value>2025-04-14T02:20:13.508393Z</value></time><waveformID networkCode="CX" stationCode="PB01" channelCode="HHZ"/><filterID>ITAPER(4)&gt;&gt;BW(4,4,20)</filterID><methodID>AIC</methodID><horizontalSlowness><value>19.84371542744685</value></horizontalSlowness><backazimuth><value>324.5584790011769</value></backazimuth><phaseHint>P</phaseHint><evaluationMode>automatic</evaluationMode><comment><text>27.57063710610769</text><id>DFX:rectilinearity</id></comment><comment><text>8.82324459444755</text><id>SNR</id></comment></pick><pick publicID="de.gempa.tb1.Pick/20250414022035.852411.134999"><time><value>2025-04-14T02:20:30.048391Z</value></time><waveformID networkCode="CX" stationCode="PB03" channelCode="HHN"/><filterID>ITAPER(2)&gt;&gt;BW(3,3,20)</filterID><methodID>L2-AIC-GRID</methodID><horizontalSlowness><value>16.17123038506373</value></horizontalSlowness><backazimuth><value>213.0636383902423</value></backazimuth><phaseHint>S</phaseHint><evaluationMode>automatic</evaluationMode><comment><text>15.222965262705</text><id>DFX:rectilinearity</id></comment><comment><text>de.gempa.tb1.Pick/20250414022018.631095.134993</text><id>RefPickID</id></comment><comment><text>11.270718428599444</text><id>SNR</id></comment></pick><pick publicID="de.gempa.tb1.Pick/20250414022040.377441.135002"><time><value>2025-04-14T02:20:13.798394Z</value></time><waveformID networkCode="CX" stationCode="PB07" channelCode="HHZ"/><filterID>ITAPER(4)&gt;&gt;BW(4,4,20)</filterID><methodID>AIC</methodID><horizontalSlowness><value>21.917164730945572</value></horizontalSlowness><backazimuth><value>147.66588822269912</value></backazimuth><phaseHint>P</phaseHint><evaluationMode>automatic</evaluationMode><comment><text>98.293939114432</text><id>DFX:rectilinearity</id></comment><comment><text>61.90394115508133</text><id>SNR</id></comment></pick><pick publicID="de.gempa.tb1.Pick/20250414022043.623756.135004"><time><value>2025-04-14T02:20:32.178393Z</value></time><waveformID networkCode="CX" stationCode="PB01" channelCode="HHN"/><filterID>ITAPER(2)&gt;&gt;BW(3,3,20)</filterID><methodID>L2-AIC-GRID</methodID><horizontalSlowness><value>14.136090091026539</value></horizontalSlowness><backazimuth><value>323.21678323721414</value></backazimuth><phaseHint>S</phaseHint><evaluationMode>automatic</evaluationMode><comment><text>14.272208788604342</text><id>DFX:rectilinearity</id></comment><comment><text>de.gempa.tb1.Pick/20250414022023.575799.134997</text><id>RefPickID</id></comment><comment><text>5.435980144416295</text><id>SNR</id></comment></pick><pick publicID="de.gempa.tb1.Pick/20250414022046.492825.135005"><time><value>2025-04-14T02:20:32.648394Z</value></time><waveformID networkCode="CX" stationCode="PB07" channelCode="HHN"/><filterID>ITAPER(2)&gt;&gt;BW(3,3,20)</filterID><methodID>L2-AIC-GRID</methodID><horizontalSlowness><value>23.42892338806381</value></horizontalSlowness><backazimuth><value>286.66603011688824</value></backazimuth><phaseHint>S</phaseHint><evaluationMode>automatic</evaluationMode><comment><text>227.8716475776037</text><id>DFX:rectilinearity</id></comment><comment><text>de.gempa.tb1.Pick/20250414022040.377441.135002</text><id>RefPickID</id></comment><comment><text>5.34257372463022</text><id>SNR</id></comment></pick><origin publicID="de.gempa.tb1.Origin/20250414022046.495669.123761"><time><value>2025-04-14T02:19:49.482465Z</value><uncertainty>1.460720181465149</uncertainty></time><latitude><value>-21.901582717895508</value><uncertainty>8.766508102416992</uncertainty></latitude><longitude><value>-68.61136627197266</value><uncertainty>17.085992813110352</uncertainty></longitude><depth><value>122.0300521850586</value><uncertainty>22.995397567749023</uncertainty></depth><depthType>from location</depthType><methodID>LOCSAT</methodID><earthModelID>iasp91_scanloc</earthModelID><quality><associatedPhaseCount>7</associatedPhaseCount><usedPhaseCount>7</usedPhaseCount><associatedStationCount>4</associatedStationCount><usedStationCount>4</usedStationCount><depthPhaseCount>0</depthPhaseCount><standardError>0.09282602857758435</standardError><azimuthalGap>305.7852478027344</azimuthalGap><maximumDistance>1.1973347663879395</maximumDistance><minimumDistance>0.5950829982757568</minimumDistance><medianDistance>1.181233286857605</medianDistance></quality><uncertainty><minHorizontalUncertainty>16.738162994384766</minHorizontalUncertainty><maxHorizontalUncertainty>37.62681198120117</maxHorizontalUncertainty><azimuthMaxHorizontalUncertainty>104.71342468261719</azimuthMaxHorizontalUncertainty><preferredDescription>horizontal uncertainty</preferredDescription></uncertainty><evaluationMode>automatic</evaluationMode><evaluationStatus>confirmed</evaluationStatus><comment><text>0.00</text><id>mismatchScore</id></comment><comment><text>mismatchScore</text><id>scevalMethod</id></comment><arrival><pickID>de.gempa.tb1.Pick/20250414022018.631095.134993</pickID><phase>P</phase><azimuth>261.9344787597656</azimuth><distance>1.0698026418685913</distance><timeResidual>-0.08930397033691406</timeResidual><timeUsed>true</timeUsed><horizontalSlownessUsed>false</horizontalSlownessUsed><backazimuthUsed>false</backazimuthUsed><weight>1</weight></arrival><arrival><pickID>de.gempa.tb1.Pick/20250414022021.359086.134995</pickID><phase>P</phase><azimuth>280.0159912109375</azimuth><distance>0.5950829982757568</distance><timeResidual>0.10847091674804688</timeResidual><timeUsed>true</timeUsed><horizontalSlownessUsed>false</horizontalSlownessUsed><backazimuthUsed>false</backazimuthUsed><weight>1</weight></arrival><arrival><pickID>de.gempa.tb1.Pick/20250414022023.575799.134997</pickID><phase>P</phase><azimuth>316.14923095703125</azimuth><distance>1.181233286857605</distance><timeResidual>-0.0607147216796875</timeResidual><timeUsed>true</timeUsed><horizontalSlownessUsed>false</horizontalSlownessUsed><backazimuthUsed>false</backazimuthUsed><weight>1</weight></arrival><arrival><pickID>de.gempa.tb1.Pick/20250414022035.852411.134999</pickID><phase>S</phase><azimuth>261.9344787597656</azimuth><distance>1.0698026418685913</distance><timeResidual>-0.11593246459960938</timeResidual><timeUsed>true</timeUsed><horizontalSlownessUsed>false</horizontalSlownessUsed><backazimuthUsed>false</backazimuthUsed><weight>1</weight></arrival><arrival><pickID>de.gempa.tb1.Pick/20250414022040.377441.135002</pickID><phase>P</phase><azimuth>278.1231689453125</azimuth><distance>1.1973347663879395</distance><timeResidual>0.06373214721679688</timeResidual><timeUsed>true</timeUsed><horizontalSlownessUsed>false</horizontalSlownessUsed><backazimuthUsed>false</backazimuthUsed><weight>1</weight></arrival><arrival><pickID>de.gempa.tb1.Pick/20250414022043.623756.135004</pickID><phase>S</phase><azimuth>316.14923095703125</azimuth><distance>1.181233286857605</distance><timeResidual>-0.03983116149902344</timeResidual><timeUsed>true</timeUsed><horizontalSlownessUsed>false</horizontalSlownessUsed><backazimuthUsed>false</backazimuthUsed><weight>1</weight></arrival><arrival><pickID>de.gempa.tb1.Pick/20250414022046.492825.135005</pickID><phase>S</phase><azimuth>278.1231689453125</azimuth><distance>1.1973347663879395</distance><timeResidual>0.13341903686523438</timeResidual><timeUsed>true</timeUsed><horizontalSlownessUsed>false</horizontalSlownessUsed><backazimuthUsed>false</backazimuthUsed><weight>1</weight></arrival><magnitude publicID="de.gempa.tb1.Magnitude/20250414022114.181452.419794"><magnitude><value>1.964089186189211</value></magnitude><type>M</type><methodID>weighted average</methodID><stationCount>1</stationCount></magnitude></origin><event publicID="gempa2025hikx"><preferredOriginID>de.gempa.tb1.Origin/20250414022046.495669.123761</preferredOriginID><preferredMagnitudeID>de.gempa.tb1.Magnitude/20250414022114.181452.419794</preferredMagnitudeID><description><text>Chile-Bolivia Border Region</text><type>region name</type></description><originReference>de.gempa.tb1.Origin/20250414022046.495669.123761</originReference></event></EventParameters></seiscomp>