<?xml version="1.0" encoding="UTF-8"?>
<seiscomp xmlns="http://geofon.gfz-potsdam.de/ns/seiscomp3-schema/0.13" version="0.13"><EventParameters><pick publicID="de.gempa.tb1.Pick/20250412130818.674958.124110"><time><value>2025-04-12T13:08:13.728393Z</value></time><waveformID networkCode="CX" stationCode="PB03" channelCode="HHZ"/><filterID>ITAPER(4)&gt;&gt;BW(4,4,20)</filterID><methodID>AIC</methodID><horizontalSlowness><value>8.888875929654057</value></horizontalSlowness><backazimuth><value>102.54653032283073</value></backazimuth><phaseHint>P</phaseHint><evaluationMode>automatic</evaluationMode><comment><text>104.01681174635333</text><id>DFX:rectilinearity</id></comment><comment><text>161.02859422847402</text><id>SNR</id></comment></pick><pick publicID="de.gempa.tb1.Pick/20250412130821.540216.124112"><time><value>2025-04-12T13:08:16.648393Z</value></time><waveformID networkCode="CX" stationCode="PB01" channelCode="HHZ"/><filterID>ITAPER(4)&gt;&gt;BW(4,4,20)</filterID><methodID>AIC</methodID><horizontalSlowness><value>22.745819099643057</value></horizontalSlowness><backazimuth><value>170.2543587848772</value></backazimuth><phaseHint>P</phaseHint><evaluationMode>automatic</evaluationMode><comment><text>17.96114487059432</text><id>DFX:rectilinearity</id></comment><comment><text>35.965463131049567</text><id>SNR</id></comment></pick><pick publicID="de.gempa.tb1.Pick/20250412130822.600962.124114"><time><value>2025-04-12T13:08:14.728394Z</value></time><waveformID networkCode="CX" stationCode="PB06" channelCode="HHZ"/><filterID>ITAPER(4)&gt;&gt;BW(4,4,20)</filterID><methodID>AIC</methodID><horizontalSlowness><value>11.24617225959439</value></horizontalSlowness><backazimuth><value>285.1201354680025</value></backazimuth><phaseHint>P</phaseHint><evaluationMode>automatic</evaluationMode><comment><text>62.77724118729486</text><id>DFX:rectilinearity</id></comment><comment><text>47.24297757783744</text><id>SNR</id></comment></pick><pick publicID="de.gempa.tb1.Pick/20250412130823.456681.124116"><time><value>2025-04-12T13:08:17.568393Z</value></time><waveformID networkCode="CX" stationCode="PB02" channelCode="HHZ"/><filterID>ITAPER(4)&gt;&gt;BW(4,4,20)</filterID><methodID>AIC</methodID><horizontalSlowness><value>8.626107904928572</value></horizontalSlowness><backazimuth><value>257.9992096254794</value></backazimuth><phaseHint>P</phaseHint><evaluationMode>automatic</evaluationMode><comment><text>67.32068779225594</text><id>DFX:rectilinearity</id></comment><comment><text>56.95195835309276</text><id>SNR</id></comment></pick><pick publicID="de.gempa.tb1.Pick/20250412130824.684154.124118"><time><value>2025-04-12T13:08:18.998393Z</value></time><waveformID networkCode="CX" stationCode="PB15" channelCode="HHZ"/><filterID>ITAPER(4)&gt;&gt;BW(4,4,20)</filterID><methodID>AIC</methodID><horizontalSlowness><value>21.405794060490525</value></horizontalSlowness><backazimuth><value>104.000929152048</value></backazimuth><phaseHint>P</phaseHint><evaluationMode>automatic</evaluationMode><comment><text>271.22570168781533</text><id>DFX:rectilinearity</id></comment><comment><text>9.509329434635843</text><id>SNR</id></comment></pick><pick publicID="de.gempa.tb1.Pick/20250412130826.529015.124120"><time><value>2025-04-12T13:08:10.76Z</value></time><waveformID networkCode="CX" stationCode="PB09" channelCode="HHZ"/><filterID>ITAPER(4)&gt;&gt;BW(4,4,20)</filterID><methodID>AIC</methodID><horizontalSlowness><value>15.46721626931991</value></horizontalSlowness><backazimuth><value>87.68770350078194</value></backazimuth><phaseHint>P</phaseHint><evaluationMode>automatic</evaluationMode><comment><text>62.24374326108074</text><id>DFX:rectilinearity</id></comment><comment><text>281.47841756303484</text><id>SNR</id></comment></pick><pick publicID="de.gempa.tb1.Pick/20250412130831.288471.124123"><time><value>2025-04-12T13:08:15.528391Z</value></time><waveformID networkCode="CX" stationCode="PB07" channelCode="HHZ"/><filterID>ITAPER(4)&gt;&gt;BW(4,4,20)</filterID><methodID>AIC</methodID><horizontalSlowness><value>14.02264704713881</value></horizontalSlowness><backazimuth><value>124.054022859026</value></backazimuth><phaseHint>P</phaseHint><evaluationMode>automatic</evaluationMode><comment><text>468.8816804898387</text><id>DFX:rectilinearity</id></comment><comment><text>551.7607291544825</text><id>SNR</id></comment></pick><pick publicID="de.gempa.tb1.Pick/20250412130836.57183.124125"><time><value>2025-04-12T13:08:29.688393Z</value></time><waveformID networkCode="CX" stationCode="PB03" channelCode="HHN"/><filterID>ITAPER(2)&gt;&gt;BW(3,3,20)</filterID><methodID>L2-AIC-GRID</methodID><horizontalSlowness><value>15.93267646210006</value></horizontalSlowness><backazimuth><value>313.04261234389583</value></backazimuth><phaseHint>S</phaseHint><evaluationMode>automatic</evaluationMode><comment><text>93.62907595893742</text><id>DFX:rectilinearity</id></comment><comment><text>de.gempa.tb1.Pick/20250412130818.674958.124110</text><id>RefPickID</id></comment><comment><text>7.103312287870288</text><id>SNR</id></comment></pick><pick publicID="de.gempa.tb1.Pick/20250412130837.625715.124126"><time><value>2025-04-12T13:08:31.648394Z</value></time><waveformID networkCode="CX" stationCode="PB06" channelCode="HHN"/><filterID>ITAPER(2)&gt;&gt;BW(3,3,20)</filterID><methodID>L2-AIC-GRID</methodID><horizontalSlowness><value>21.846445905153534</value></horizontalSlowness><backazimuth><value>317.98019670734544</value></backazimuth><phaseHint>S</phaseHint><evaluationMode>automatic</evaluationMode><comment><text>1564.4974416603018</text><id>DFX:rectilinearity</id></comment><comment><text>de.gempa.tb1.Pick/20250412130822.600962.124114</text><id>RefPickID</id></comment><comment><text>10.364763036438822</text><id>SNR</id></comment></pick><pick publicID="de.gempa.tb1.Pick/20250412130840.436452.124127"><time><value>2025-04-12T13:08:32.758391Z</value></time><waveformID networkCode="CX" stationCode="PB07" channelCode="HHN"/><filterID>ITAPER(2)&gt;&gt;BW(3,3,20)</filterID><methodID>L2-AIC-GRID</methodID><horizontalSlowness><value>22.298115952170878</value></horizontalSlowness><backazimuth><value>308.8592248687772</value></backazimuth><phaseHint>S</phaseHint><evaluationMode>automatic</evaluationMode><comment><text>7697.261335135461</text><id>DFX:rectilinearity</id></comment><comment><text>de.gempa.tb1.Pick/20250412130831.288471.124123</text><id>RefPickID</id></comment><comment><text>8.411535002438745</text><id>SNR</id></comment></pick><pick publicID="de.gempa.tb1.Pick/20250412130842.773779.124128"><time><value>2025-04-12T13:08:34.528393Z</value></time><waveformID networkCode="CX" stationCode="PB01" channelCode="HHN"/><filterID>ITAPER(2)&gt;&gt;BW(3,3,20)</filterID><methodID>L2-AIC-GRID</methodID><horizontalSlowness><value>23.141348608289256</value></horizontalSlowness><backazimuth><value>234.79616297857035</value></backazimuth><phaseHint>S</phaseHint><evaluationMode>automatic</evaluationMode><comment><text>463.2757393178218</text><id>DFX:rectilinearity</id></comment><comment><text>de.gempa.tb1.Pick/20250412130821.540216.124112</text><id>RefPickID</id></comment><comment><text>13.951816686461498</text><id>SNR</id></comment></pick><pick publicID="de.gempa.tb1.Pick/20250412130843.54771.124129"><time><value>2025-04-12T13:08:35.958393Z</value></time><waveformID networkCode="CX" stationCode="PB02" channelCode="HHN"/><filterID>ITAPER(2)&gt;&gt;BW(3,3,20)</filterID><methodID>L2-AIC-GRID</methodID><horizontalSlowness><value>6.021187545707984</value></horizontalSlowness><backazimuth><value>249.7567374106577</value></backazimuth><phaseHint>S</phaseHint><evaluationMode>automatic</evaluationMode><comment><text>516.004403934105</text><id>DFX:rectilinearity</id></comment><comment><text>de.gempa.tb1.Pick/20250412130823.456681.124116</text><id>RefPickID</id></comment><comment><text>5.317449520220229</text><id>SNR</id></comment></pick><pick publicID="de.gempa.tb1.Pick/20250412130846.662169.124131"><time><value>2025-04-12T13:08:38.888393Z</value></time><waveformID networkCode="CX" stationCode="PB15" channelCode="HHN"/><filterID>ITAPER(2)&gt;&gt;BW(3,3,20)</filterID><methodID>L2-AIC-GRID</methodID><horizontalSlowness><value>21.217011135868336</value></horizontalSlowness><backazimuth><value>75.30815535652356</value></backazimuth><phaseHint>S</phaseHint><evaluationMode>automatic</evaluationMode><comment><text>7094.278528980974</text><id>DFX:rectilinearity</id></comment><comment><text>de.gempa.tb1.Pick/20250412130824.684154.124118</text><id>RefPickID</id></comment><comment><text>11.159274682948999</text><id>SNR</id></comment></pick><origin publicID="de.gempa.tb1.Origin/20250412130846.67004.83094"><time><value>2025-04-12T13:07:53.440336Z</value><uncertainty>1.0049984455108643</uncertainty></time><latitude><value>-22.000782012939453</value><uncertainty>3.3543691635131836</uncertainty></latitude><longitude><value>-68.8138198852539</value><uncertainty>12.30407428741455</uncertainty></longitude><depth><value>116.0371551513672</value><uncertainty>14.035792350769043</uncertainty></depth><depthType>from location</depthType><methodID>LOCSAT</methodID><earthModelID>iasp91_scanloc</earthModelID><quality><associatedPhaseCount>13</associatedPhaseCount><usedPhaseCount>13</usedPhaseCount><associatedStationCount>7</associatedStationCount><usedStationCount>7</usedStationCount><depthPhaseCount>0</depthPhaseCount><standardError>0.17540632839043635</standardError><azimuthalGap>240.15650939941406</azimuthalGap><maximumDistance>1.34651780128479</maximumDistance><minimumDistance>0.44659408926963806</minimumDistance><medianDistance>1.0328177213668823</medianDistance></quality><uncertainty><minHorizontalUncertainty>6.851404190063477</minHorizontalUncertainty><maxHorizontalUncertainty>26.46859931945801</maxHorizontalUncertainty><azimuthMaxHorizontalUncertainty>85.09780883789062</azimuthMaxHorizontalUncertainty><preferredDescription>horizontal uncertainty</preferredDescription></uncertainty><evaluationMode>automatic</evaluationMode><evaluationStatus>confirmed</evaluationStatus><comment><text>0.00</text><id>mismatchScore</id></comment><comment><text>mismatchScore</text><id>scevalMethod</id></comment><arrival><pickID>de.gempa.tb1.Pick/20250412130818.674958.124110</pickID><phase>P</phase><azimuth>266.70819091796875</azimuth><distance>0.872839629650116</distance><timeResidual>-0.21697616577148438</timeResidual><timeUsed>true</timeUsed><horizontalSlownessUsed>false</horizontalSlownessUsed><backazimuthUsed>false</backazimuthUsed><weight>1</weight></arrival><arrival><pickID>de.gempa.tb1.Pick/20250412130821.540216.124112</pickID><phase>P</phase><azimuth>326.5233154296875</azimuth><distance>1.1407299041748047</distance><timeResidual>0.015224456787109375</timeResidual><timeUsed>true</timeUsed><horizontalSlownessUsed>false</horizontalSlownessUsed><backazimuthUsed>false</backazimuthUsed><weight>1</weight></arrival><arrival><pickID>de.gempa.tb1.Pick/20250412130822.600962.124114</pickID><phase>P</phase><azimuth>224.8621368408203</azimuth><distance>0.9923645853996277</distance><timeResidual>-0.36624908447265625</timeResidual><timeUsed>true</timeUsed><horizontalSlownessUsed>false</horizontalSlownessUsed><backazimuthUsed>false</backazimuthUsed><weight>1</weight></arrival><arrival><pickID>de.gempa.tb1.Pick/20250412130823.456681.124116</pickID><phase>P</phase><azimuth>303.7492980957031</azimuth><distance>1.2135674953460693</distance><timeResidual>0.15334320068359375</timeResidual><timeUsed>true</timeUsed><horizontalSlownessUsed>false</horizontalSlownessUsed><backazimuthUsed>false</backazimuthUsed><weight>1</weight></arrival><arrival><pickID>de.gempa.tb1.Pick/20250412130824.684154.124118</pickID><phase>P</phase><azimuth>206.67982482910156</azimuth><distance>1.34651780128479</distance><timeResidual>0.11676025390625</timeResidual><timeUsed>true</timeUsed><horizontalSlownessUsed>false</horizontalSlownessUsed><backazimuthUsed>false</backazimuthUsed><weight>1</weight></arrival><arrival><pickID>de.gempa.tb1.Pick/20250412130826.529015.124120</pickID><phase>P</phase><azimuth>297.01593017578125</azimuth><distance>0.44659408926963806</distance><timeResidual>0.10960769653320312</timeResidual><timeUsed>true</timeUsed><horizontalSlownessUsed>false</horizontalSlownessUsed><backazimuthUsed>false</backazimuthUsed><weight>1</weight></arrival><arrival><pickID>de.gempa.tb1.Pick/20250412130831.288471.124123</pickID><phase>P</phase><azimuth>285.1153564453125</azimuth><distance>1.0328177213668823</distance><timeResidual>0.020898818969726562</timeResidual><timeUsed>true</timeUsed><horizontalSlownessUsed>false</horizontalSlownessUsed><backazimuthUsed>false</backazimuthUsed><weight>1</weight></arrival><arrival><pickID>de.gempa.tb1.Pick/20250412130836.57183.124125</pickID><phase>S</phase><azimuth>266.70819091796875</azimuth><distance>0.872839629650116</distance><timeResidual>-0.08974266052246094</timeResidual><timeUsed>true</timeUsed><horizontalSlownessUsed>false</horizontalSlownessUsed><backazimuthUsed>false</backazimuthUsed><weight>1</weight></arrival><arrival><pickID>de.gempa.tb1.Pick/20250412130837.625715.124126</pickID><phase>S</phase><azimuth>224.8621368408203</azimuth><distance>0.9923645853996277</distance><timeResidual>-0.18026351928710938</timeResidual><timeUsed>true</timeUsed><horizontalSlownessUsed>false</horizontalSlownessUsed><backazimuthUsed>false</backazimuthUsed><weight>1</weight></arrival><arrival><pickID>de.gempa.tb1.Pick/20250412130840.436452.124127</pickID><phase>S</phase><azimuth>285.1153564453125</azimuth><distance>1.0328177213668823</distance><timeResidual>0.19411468505859375</timeResidual><timeUsed>true</timeUsed><horizontalSlownessUsed>false</horizontalSlownessUsed><backazimuthUsed>false</backazimuthUsed><weight>1</weight></arrival><arrival><pickID>de.gempa.tb1.Pick/20250412130842.773779.124128</pickID><phase>S</phase><azimuth>326.5233154296875</azimuth><distance>1.1407299041748047</distance><timeResidual>-0.04384040832519531</timeResidual><timeUsed>true</timeUsed><horizontalSlownessUsed>false</horizontalSlownessUsed><backazimuthUsed>false</backazimuthUsed><weight>1</weight></arrival><arrival><pickID>de.gempa.tb1.Pick/20250412130843.54771.124129</pickID><phase>S</phase><azimuth>303.7492980957031</azimuth><distance>1.2135674953460693</distance><timeResidual>-0.010343551635742188</timeResidual><timeUsed>true</timeUsed><horizontalSlownessUsed>false</horizontalSlownessUsed><backazimuthUsed>false</backazimuthUsed><weight>1</weight></arrival><arrival><pickID>de.gempa.tb1.Pick/20250412130846.662169.124131</pickID><phase>S</phase><azimuth>206.67982482910156</azimuth><distance>1.34651780128479</distance><timeResidual>0.2977771759033203</timeResidual><timeUsed>true</timeUsed><horizontalSlownessUsed>false</horizontalSlownessUsed><backazimuthUsed>false</backazimuthUsed><weight>1</weight></arrival><magnitude publicID="de.gempa.tb1.Magnitude/20250412130855.938773.228841"><magnitude><value>2.4318348921907034</value></magnitude><type>M</type><methodID>weighted average</methodID><stationCount>7</stationCount></magnitude></origin><event publicID="gempa2025hfom"><preferredOriginID>de.gempa.tb1.Origin/20250412130846.67004.83094</preferredOriginID><preferredMagnitudeID>de.gempa.tb1.Magnitude/20250412130855.938773.228841</preferredMagnitudeID><description><text>Northern Chile</text><type>region name</type></description><originReference>de.gempa.tb1.Origin/20250412130846.67004.83094</originReference></event></EventParameters></seiscomp>