<?xml version="1.0" encoding="UTF-8"?>
<seiscomp xmlns="http://geofon.gfz-potsdam.de/ns/seiscomp3-schema/0.13" version="0.13"><EventParameters><pick publicID="de.gempa.tb1.Pick/20250411172640.538096.118953"><time><value>2025-04-11T17:26:33.528393Z</value></time><waveformID networkCode="CX" stationCode="PB03" channelCode="HHZ"/><filterID>ITAPER(4)&gt;&gt;BW(4,4,20)</filterID><methodID>AIC</methodID><horizontalSlowness><value>9.908568638593513</value></horizontalSlowness><backazimuth><value>93.62665111009221</value></backazimuth><phaseHint>P</phaseHint><evaluationMode>automatic</evaluationMode><comment><text>8.844860491088527</text><id>DFX:rectilinearity</id></comment><comment><text>19.99361930960027</text><id>SNR</id></comment></pick><pick publicID="de.gempa.tb1.Pick/20250411172641.863546.118955"><time><value>2025-04-11T17:26:36.198394Z</value></time><waveformID networkCode="CX" stationCode="PB01" channelCode="HHZ"/><filterID>ITAPER(4)&gt;&gt;BW(4,4,20)</filterID><methodID>AIC</methodID><horizontalSlowness><value>19.52531533717988</value></horizontalSlowness><backazimuth><value>264.3696751865068</value></backazimuth><phaseHint>P</phaseHint><evaluationMode>automatic</evaluationMode><comment><text>29.17770156499072</text><id>DFX:rectilinearity</id></comment><comment><text>7.243459611146611</text><id>SNR</id></comment></pick><pick publicID="de.gempa.tb1.Pick/20250411172642.704024.118957"><time><value>2025-04-11T17:26:34.388394Z</value></time><waveformID networkCode="CX" stationCode="PB06" channelCode="HHZ"/><filterID>ITAPER(4)&gt;&gt;BW(4,4,20)</filterID><methodID>AIC</methodID><horizontalSlowness><value>20.260060751032526</value></horizontalSlowness><backazimuth><value>85.79722367023251</value></backazimuth><phaseHint>P</phaseHint><evaluationMode>automatic</evaluationMode><comment><text>58.83650029158484</text><id>DFX:rectilinearity</id></comment><comment><text>14.27359323230006</text><id>SNR</id></comment></pick><pick publicID="de.gempa.tb1.Pick/20250411172644.421162.118959"><time><value>2025-04-11T17:26:30.74Z</value></time><waveformID networkCode="CX" stationCode="PB09" channelCode="HHZ"/><filterID>ITAPER(4)&gt;&gt;BW(4,4,20)</filterID><methodID>AIC</methodID><horizontalSlowness><value>12.524952874008816</value></horizontalSlowness><backazimuth><value>273.7785013968138</value></backazimuth><phaseHint>P</phaseHint><evaluationMode>automatic</evaluationMode><comment><text>6.419319728251676</text><id>DFX:rectilinearity</id></comment><comment><text>22.133673401148382</text><id>SNR</id></comment></pick><pick publicID="de.gempa.tb1.Pick/20250411172649.682331.118961"><time><value>2025-04-11T17:26:35.348396Z</value></time><waveformID networkCode="CX" stationCode="PB07" channelCode="HHZ"/><filterID>ITAPER(4)&gt;&gt;BW(4,4,20)</filterID><methodID>AIC</methodID><horizontalSlowness><value>21.96775772377147</value></horizontalSlowness><backazimuth><value>220.52637843663507</value></backazimuth><phaseHint>P</phaseHint><evaluationMode>automatic</evaluationMode><comment><text>238.70307690828207</text><id>DFX:rectilinearity</id></comment><comment><text>69.9497056891995</text><id>SNR</id></comment></pick><pick publicID="de.gempa.tb1.Pick/20250411172657.850135.118963"><time><value>2025-04-11T17:26:49.508393Z</value></time><waveformID networkCode="CX" stationCode="PB03" channelCode="HHN"/><filterID>ITAPER(2)&gt;&gt;BW(3,3,20)</filterID><methodID>L2-AIC-GRID</methodID><horizontalSlowness><value>12.00736216313192</value></horizontalSlowness><backazimuth><value>247.8201928494641</value></backazimuth><phaseHint>S</phaseHint><evaluationMode>automatic</evaluationMode><comment><text>41.216860509504436</text><id>DFX:rectilinearity</id></comment><comment><text>de.gempa.tb1.Pick/20250411172640.538096.118953</text><id>RefPickID</id></comment><comment><text>15.799112643651753</text><id>SNR</id></comment></pick><pick publicID="de.gempa.tb1.Pick/20250411172712.797652.118974"><time><value>2025-04-11T17:26:44.32Z</value></time><waveformID networkCode="CX" stationCode="PB09" channelCode="HHN"/><filterID>ITAPER(2)&gt;&gt;BW(3,3,20)</filterID><methodID>L2-AIC-GRID</methodID><horizontalSlowness><value>23.412718324903615</value></horizontalSlowness><backazimuth><value>18.293821491587124</value></backazimuth><phaseHint>S</phaseHint><evaluationMode>automatic</evaluationMode><comment><text>100.47905906209012</text><id>DFX:rectilinearity</id></comment><comment><text>de.gempa.tb1.Pick/20250411172644.421162.118959</text><id>RefPickID</id></comment><comment><text>8.172677208069674</text><id>SNR</id></comment></pick><pick publicID="de.gempa.tb1.Pick/20250411172724.847865.118976"><time><value>2025-04-11T17:26:52.568396Z</value></time><waveformID networkCode="CX" stationCode="PB07" channelCode="HHN"/><filterID>ITAPER(2)&gt;&gt;BW(3,3,20)</filterID><methodID>L2-AIC-GRID</methodID><horizontalSlowness><value>22.97424005271593</value></horizontalSlowness><backazimuth><value>214.30790295484593</value></backazimuth><phaseHint>S</phaseHint><evaluationMode>automatic</evaluationMode><comment><text>1049.2711685141637</text><id>DFX:rectilinearity</id></comment><comment><text>de.gempa.tb1.Pick/20250411172649.682331.118961</text><id>RefPickID</id></comment><comment><text>11.555733111306752</text><id>SNR</id></comment></pick><origin publicID="de.gempa.tb1.Origin/20250411172724.85172.61716"><time><value>2025-04-11T17:26:12.652531Z</value><uncertainty>1.1148239374160767</uncertainty></time><latitude><value>-22.030237197875977</value><uncertainty>9.007135391235352</uncertainty></latitude><longitude><value>-68.83606719970703</value><uncertainty>10.80561637878418</uncertainty></longitude><depth><value>122.14398956298828</value><uncertainty>9.76023006439209</uncertainty></depth><depthType>from location</depthType><methodID>LOCSAT</methodID><earthModelID>iasp91_scanloc</earthModelID><quality><associatedPhaseCount>8</associatedPhaseCount><usedPhaseCount>8</usedPhaseCount><associatedStationCount>5</associatedStationCount><usedStationCount>5</usedStationCount><depthPhaseCount>0</depthPhaseCount><standardError>0.1604590290286164</standardError><azimuthalGap>257.04351806640625</azimuthalGap><maximumDistance>1.1542779207229614</maximumDistance><minimumDistance>0.4429442286491394</minimumDistance><medianDistance>0.957044243812561</medianDistance></quality><uncertainty><minHorizontalUncertainty>18.868736267089844</minHorizontalUncertainty><maxHorizontalUncertainty>23.535945892333984</maxHorizontalUncertainty><azimuthMaxHorizontalUncertainty>107.05768585205078</azimuthMaxHorizontalUncertainty><preferredDescription>horizontal uncertainty</preferredDescription></uncertainty><evaluationMode>automatic</evaluationMode><evaluationStatus>confirmed</evaluationStatus><comment><text>0.00</text><id>mismatchScore</id></comment><comment><text>mismatchScore</text><id>scevalMethod</id></comment><arrival><pickID>de.gempa.tb1.Pick/20250411172640.538096.118953</pickID><phase>P</phase><azimuth>268.6072692871094</azimuth><distance>0.8510114550590515</distance><timeResidual>0.005321502685546875</timeResidual><timeUsed>true</timeUsed><horizontalSlownessUsed>false</horizontalSlownessUsed><backazimuthUsed>false</backazimuthUsed><weight>1</weight></arrival><arrival><pickID>de.gempa.tb1.Pick/20250411172641.863546.118955</pickID><phase>P</phase><azimuth>328.18890380859375</azimuth><distance>1.1542779207229614</distance><timeResidual>-0.26870155334472656</timeResidual><timeUsed>true</timeUsed><horizontalSlownessUsed>false</horizontalSlownessUsed><backazimuthUsed>false</backazimuthUsed><weight>1</weight></arrival><arrival><pickID>de.gempa.tb1.Pick/20250411172642.704024.118957</pickID><phase>P</phase><azimuth>225.232421875</azimuth><distance>0.957044243812561</distance><timeResidual>-0.10436820983886719</timeResidual><timeUsed>true</timeUsed><horizontalSlownessUsed>false</horizontalSlownessUsed><backazimuthUsed>false</backazimuthUsed><weight>1</weight></arrival><arrival><pickID>de.gempa.tb1.Pick/20250411172644.421162.118959</pickID><phase>P</phase><azimuth>301.62005615234375</azimuth><distance>0.4429442286491394</distance><timeResidual>0.20686721801757812</timeResidual><timeUsed>true</timeUsed><horizontalSlownessUsed>false</horizontalSlownessUsed><backazimuthUsed>false</backazimuthUsed><weight>1</weight></arrival><arrival><pickID>de.gempa.tb1.Pick/20250411172649.682331.118961</pickID><phase>P</phase><azimuth>287.0138244628906</azimuth><distance>1.0210893154144287</distance><timeResidual>0.23217201232910156</timeResidual><timeUsed>true</timeUsed><horizontalSlownessUsed>false</horizontalSlownessUsed><backazimuthUsed>false</backazimuthUsed><weight>1</weight></arrival><arrival><pickID>de.gempa.tb1.Pick/20250411172657.850135.118963</pickID><phase>S</phase><azimuth>268.6072692871094</azimuth><distance>0.8510114550590515</distance><timeResidual>-0.14277267456054688</timeResidual><timeUsed>true</timeUsed><horizontalSlownessUsed>false</horizontalSlownessUsed><backazimuthUsed>false</backazimuthUsed><weight>1</weight></arrival><arrival><pickID>de.gempa.tb1.Pick/20250411172712.797652.118974</pickID><phase>S</phase><azimuth>301.62005615234375</azimuth><distance>0.4429442286491394</distance><timeResidual>-0.004489898681640625</timeResidual><timeUsed>true</timeUsed><horizontalSlownessUsed>false</horizontalSlownessUsed><backazimuthUsed>false</backazimuthUsed><weight>1</weight></arrival><arrival><pickID>de.gempa.tb1.Pick/20250411172724.847865.118976</pickID><phase>S</phase><azimuth>287.0138244628906</azimuth><distance>1.0210893154144287</distance><timeResidual>0.07584953308105469</timeResidual><timeUsed>true</timeUsed><horizontalSlownessUsed>false</horizontalSlownessUsed><backazimuthUsed>false</backazimuthUsed><weight>1</weight></arrival><magnitude publicID="de.gempa.tb1.Magnitude/20250411172724.856734.123591"><magnitude><value>2.1407304844382895</value></magnitude><type>M</type><methodID>weighted average</methodID><stationCount>2</stationCount></magnitude></origin><event publicID="gempa2025hebb"><preferredOriginID>de.gempa.tb1.Origin/20250411172724.85172.61716</preferredOriginID><preferredMagnitudeID>de.gempa.tb1.Magnitude/20250411172724.856734.123591</preferredMagnitudeID><description><text>Northern Chile</text><type>region name</type></description><originReference>de.gempa.tb1.Origin/20250411172724.85172.61716</originReference></event></EventParameters></seiscomp>