<?xml version="1.0" encoding="UTF-8"?>
<seiscomp xmlns="http://geofon.gfz-potsdam.de/ns/seiscomp3-schema/0.13" version="0.13"><EventParameters><pick publicID="de.gempa.tb1.Pick/20250415041013.483542.143384"><time><value>2025-04-15T04:10:08.51Z</value></time><waveformID networkCode="CX" stationCode="PB19" channelCode="HHZ"/><filterID>ITAPER(4)&gt;&gt;BW(4,4,20)</filterID><methodID>AIC</methodID><horizontalSlowness><value>17.772002449536707</value></horizontalSlowness><backazimuth><value>211.95479833287573</value></backazimuth><phaseHint>P</phaseHint><evaluationMode>automatic</evaluationMode><comment><text>19.710423968447394</text><id>DFX:rectilinearity</id></comment><comment><text>13.90939970575817</text><id>SNR</id></comment></pick><pick publicID="de.gempa.tb1.Pick/20250415041021.576849.143386"><time><value>2025-04-15T04:10:15.938393Z</value></time><waveformID networkCode="CX" stationCode="PB06" channelCode="HHZ"/><filterID>ITAPER(4)&gt;&gt;BW(4,4,20)</filterID><methodID>AIC</methodID><horizontalSlowness><value>17.009445720060942</value></horizontalSlowness><backazimuth><value>142.02108617994043</value></backazimuth><phaseHint>P</phaseHint><evaluationMode>automatic</evaluationMode><comment><text>50.25112159858916</text><id>DFX:rectilinearity</id></comment><comment><text>9.583492350524184</text><id>SNR</id></comment></pick><pick publicID="de.gempa.tb1.Pick/20250415041028.509829.143388"><time><value>2025-04-15T04:10:22.298393Z</value></time><waveformID networkCode="CX" stationCode="PB03" channelCode="HHZ"/><filterID>ITAPER(4)&gt;&gt;BW(4,4,20)</filterID><methodID>AIC</methodID><horizontalSlowness><value>6.779080554523072</value></horizontalSlowness><backazimuth><value>207.253237924029</value></backazimuth><phaseHint>P</phaseHint><evaluationMode>automatic</evaluationMode><comment><text>12.23524514070151</text><id>DFX:rectilinearity</id></comment><comment><text>9.135637635234263</text><id>SNR</id></comment></pick><pick publicID="de.gempa.tb1.Pick/20250415041029.502155.143390"><time><value>2025-04-15T04:10:21.57Z</value></time><waveformID networkCode="CX" stationCode="PB09" channelCode="HHZ"/><filterID>ITAPER(4)&gt;&gt;BW(4,4,20)</filterID><methodID>AIC</methodID><horizontalSlowness><value>11.212946209042546</value></horizontalSlowness><backazimuth><value>298.11667120655977</value></backazimuth><phaseHint>P</phaseHint><evaluationMode>automatic</evaluationMode><comment><text>14.671879647112345</text><id>DFX:rectilinearity</id></comment><comment><text>7.973580019694353</text><id>SNR</id></comment></pick><pick publicID="de.gempa.tb1.Pick/20250415041032.624462.143392"><time><value>2025-04-15T04:10:25.908393Z</value></time><waveformID networkCode="CX" stationCode="PB07" channelCode="HHZ"/><filterID>ITAPER(4)&gt;&gt;BW(4,4,20)</filterID><methodID>AIC</methodID><horizontalSlowness><value>22.356456817787077</value></horizontalSlowness><backazimuth><value>136.05156535381946</value></backazimuth><phaseHint>P</phaseHint><evaluationMode>automatic</evaluationMode><comment><text>561.5716396532415</text><id>DFX:rectilinearity</id></comment><comment><text>11.282173288615063</text><id>SNR</id></comment></pick><pick publicID="de.gempa.tb1.Pick/20250415041043.724407.143396"><time><value>2025-04-15T04:10:36.13Z</value></time><waveformID networkCode="CX" stationCode="PB19" channelCode="HHN"/><filterID>ITAPER(2)&gt;&gt;BW(3,3,20)</filterID><methodID>L2-AIC-GRID</methodID><horizontalSlowness><value>19.85459459076306</value></horizontalSlowness><backazimuth><value>181.21503632553305</value></backazimuth><phaseHint>S</phaseHint><evaluationMode>automatic</evaluationMode><comment><text>139.86629545454423</text><id>DFX:rectilinearity</id></comment><comment><text>de.gempa.tb1.Pick/20250415041013.483542.143384</text><id>RefPickID</id></comment><comment><text>11.083780058370374</text><id>SNR</id></comment></pick><pick publicID="de.gempa.tb1.Pick/20250415041057.649126.143403"><time><value>2025-04-15T04:10:48.968393Z</value></time><waveformID networkCode="CX" stationCode="PB06" channelCode="HHN"/><filterID>ITAPER(2)&gt;&gt;BW(3,3,20)</filterID><methodID>L2-AIC-GRID</methodID><horizontalSlowness><value>5.881521206571146</value></horizontalSlowness><backazimuth><value>265.1856733626655</value></backazimuth><phaseHint>S</phaseHint><evaluationMode>automatic</evaluationMode><comment><text>133.11362248043224</text><id>DFX:rectilinearity</id></comment><comment><text>de.gempa.tb1.Pick/20250415041021.576849.143386</text><id>RefPickID</id></comment><comment><text>12.15623456028638</text><id>SNR</id></comment></pick><pick publicID="de.gempa.tb1.Pick/20250415041107.613832.143404"><time><value>2025-04-15T04:10:59.988393Z</value></time><waveformID networkCode="CX" stationCode="PB03" channelCode="HHN"/><filterID>ITAPER(2)&gt;&gt;BW(3,3,20)</filterID><methodID>L2-AIC-GRID</methodID><horizontalSlowness><value>10.091744241261296</value></horizontalSlowness><backazimuth><value>200.6779545938109</value></backazimuth><phaseHint>S</phaseHint><evaluationMode>automatic</evaluationMode><comment><text>15.198884341392004</text><id>DFX:rectilinearity</id></comment><comment><text>de.gempa.tb1.Pick/20250415041028.509829.143388</text><id>RefPickID</id></comment><comment><text>9.644722218838822</text><id>SNR</id></comment></pick><origin publicID="de.gempa.tb1.Origin/20250415041107.61981.160576"><time><value>2025-04-15T04:09:34.309328Z</value><uncertainty>1.1220136880874634</uncertainty></time><latitude><value>-24.153453826904297</value><uncertainty>12.853482246398926</uncertainty></latitude><longitude><value>-67.86234283447266</value><uncertainty>39.6663703918457</uncertainty></longitude><depth><value>222.7051544189453</value><uncertainty>27.31167221069336</uncertainty></depth><depthType>from location</depthType><methodID>LOCSAT</methodID><earthModelID>iasp91_scanloc</earthModelID><quality><associatedPhaseCount>8</associatedPhaseCount><usedPhaseCount>8</usedPhaseCount><associatedStationCount>5</associatedStationCount><usedStationCount>5</usedStationCount><depthPhaseCount>0</depthPhaseCount><standardError>0.12718494300479372</standardError><azimuthalGap>309.1695556640625</azimuthalGap><maximumDistance>3.0519187450408936</maximumDistance><minimumDistance>1.329222321510315</minimumDistance><medianDistance>2.668375253677368</medianDistance></quality><uncertainty><minHorizontalUncertainty>17.53152847290039</minHorizontalUncertainty><maxHorizontalUncertainty>87.67813873291016</maxHorizontalUncertainty><azimuthMaxHorizontalUncertainty>75.66604614257812</azimuthMaxHorizontalUncertainty><preferredDescription>horizontal uncertainty</preferredDescription></uncertainty><evaluationMode>automatic</evaluationMode><evaluationStatus>confirmed</evaluationStatus><comment><text>0.33</text><id>mismatchScore</id></comment><comment><text>mismatchScore</text><id>scevalMethod</id></comment><arrival><pickID>de.gempa.tb1.Pick/20250415041013.483542.143384</pickID><phase>P</phase><azimuth>280.4437561035156</azimuth><distance>1.329222321510315</distance><timeResidual>-0.23848724365234375</timeResidual><timeUsed>true</timeUsed><horizontalSlownessUsed>false</horizontalSlownessUsed><backazimuthUsed>false</backazimuthUsed><weight>1</weight></arrival><arrival><pickID>de.gempa.tb1.Pick/20250415041021.576849.143386</pickID><phase>P</phase><azimuth>312.20166015625</azimuth><distance>2.1311757564544678</distance><timeResidual>0.017459869384765625</timeResidual><timeUsed>true</timeUsed><horizontalSlownessUsed>false</horizontalSlownessUsed><backazimuthUsed>false</backazimuthUsed><weight>1</weight></arrival><arrival><pickID>de.gempa.tb1.Pick/20250415041028.509829.143388</pickID><phase>P</phase><azimuth>319.90325927734375</azimuth><distance>2.7239935398101807</distance><timeResidual>0.13430404663085938</timeResidual><timeUsed>true</timeUsed><horizontalSlownessUsed>false</horizontalSlownessUsed><backazimuthUsed>false</backazimuthUsed><weight>1</weight></arrival><arrival><pickID>de.gempa.tb1.Pick/20250415041029.502155.143390</pickID><phase>P</phase><azimuth>331.2742004394531</azimuth><distance>2.668375253677368</distance><timeResidual>0.012355804443359375</timeResidual><timeUsed>true</timeUsed><horizontalSlownessUsed>false</horizontalSlownessUsed><backazimuthUsed>false</backazimuthUsed><weight>1</weight></arrival><arrival><pickID>de.gempa.tb1.Pick/20250415041032.624462.143392</pickID><phase>P</phase><azimuth>321.9205627441406</azimuth><distance>3.0519187450408936</distance><timeResidual>0.07475662231445312</timeResidual><timeUsed>true</timeUsed><horizontalSlownessUsed>false</horizontalSlownessUsed><backazimuthUsed>false</backazimuthUsed><weight>1</weight></arrival><arrival><pickID>de.gempa.tb1.Pick/20250415041043.724407.143396</pickID><phase>S</phase><azimuth>280.4437561035156</azimuth><distance>1.329222321510315</distance><timeResidual>0.1213226318359375</timeResidual><timeUsed>true</timeUsed><horizontalSlownessUsed>false</horizontalSlownessUsed><backazimuthUsed>false</backazimuthUsed><weight>1</weight></arrival><arrival><pickID>de.gempa.tb1.Pick/20250415041057.649126.143403</pickID><phase>S</phase><azimuth>312.20166015625</azimuth><distance>2.1311757564544678</distance><timeResidual>0.0529327392578125</timeResidual><timeUsed>true</timeUsed><horizontalSlownessUsed>false</horizontalSlownessUsed><backazimuthUsed>false</backazimuthUsed><weight>1</weight></arrival><arrival><pickID>de.gempa.tb1.Pick/20250415041107.613832.143404</pickID><phase>S</phase><azimuth>319.90325927734375</azimuth><distance>2.7239935398101807</distance><timeResidual>-0.17586135864257812</timeResidual><timeUsed>true</timeUsed><horizontalSlownessUsed>false</horizontalSlownessUsed><backazimuthUsed>false</backazimuthUsed><weight>1</weight></arrival><magnitude publicID="de.gempa.tb1.Magnitude/20250415041115.9441.569994"><magnitude><value>2.646631131067812</value></magnitude><type>M</type><methodID>weighted average</methodID><stationCount>2</stationCount></magnitude></origin><event publicID="gempa2025hkkp"><preferredOriginID>de.gempa.tb1.Origin/20250415041107.61981.160576</preferredOriginID><preferredMagnitudeID>de.gempa.tb1.Magnitude/20250415041115.9441.569994</preferredMagnitudeID><description><text>Chile-Argentina Border Region</text><type>region name</type></description><originReference>de.gempa.tb1.Origin/20250415041107.61981.160576</originReference></event></EventParameters></seiscomp>