<?xml version="1.0" encoding="UTF-8"?>
<seiscomp xmlns="http://geofon.gfz-potsdam.de/ns/seiscomp3-schema/0.13" version="0.13"><EventParameters><pick publicID="de.gempa.tb1.Pick/20250414180142.738307.139953"><time><value>2025-04-14T18:01:37.758393Z</value></time><waveformID networkCode="CX" stationCode="PB07" channelCode="HHZ"/><filterID>ITAPER(4)&gt;&gt;BW(4,4,20)</filterID><methodID>AIC</methodID><horizontalSlowness><value>20.077383435758144</value></horizontalSlowness><backazimuth><value>193.32196311859582</value></backazimuth><phaseHint>P</phaseHint><evaluationMode>automatic</evaluationMode><comment><text>4481.16942603562</text><id>DFX:rectilinearity</id></comment><comment><text>11.46573802743075</text><id>SNR</id></comment></pick><pick publicID="de.gempa.tb1.Pick/20250414180143.549668.139955"><time><value>2025-04-14T18:01:34.958394Z</value></time><waveformID networkCode="CX" stationCode="PB03" channelCode="HHZ"/><filterID>ITAPER(4)&gt;&gt;BW(4,4,20)</filterID><methodID>AIC</methodID><horizontalSlowness><value>12.313448021509917</value></horizontalSlowness><backazimuth><value>245.19211045687206</value></backazimuth><phaseHint>P</phaseHint><evaluationMode>automatic</evaluationMode><comment><text>2800.1707337743273</text><id>DFX:rectilinearity</id></comment><comment><text>48.45019796568133</text><id>SNR</id></comment></pick><pick publicID="de.gempa.tb1.Pick/20250414180147.59302.139957"><time><value>2025-04-14T18:01:39.288393Z</value></time><waveformID networkCode="CX" stationCode="PB06" channelCode="HHZ"/><filterID>ITAPER(4)&gt;&gt;BW(4,4,20)</filterID><methodID>AIC</methodID><horizontalSlowness><value>6.235065675777329</value></horizontalSlowness><backazimuth><value>301.54318964459094</value></backazimuth><phaseHint>P</phaseHint><evaluationMode>automatic</evaluationMode><comment><text>74.75276287632848</text><id>DFX:rectilinearity</id></comment><comment><text>22.381367476742266</text><id>SNR</id></comment></pick><pick publicID="de.gempa.tb1.Pick/20250414180153.958348.139964"><time><value>2025-04-14T18:01:46.998394Z</value></time><waveformID networkCode="CX" stationCode="PB15" channelCode="HHZ"/><filterID>ITAPER(4)&gt;&gt;BW(4,4,20)</filterID><methodID>AIC</methodID><horizontalSlowness><value>18.98021170602881</value></horizontalSlowness><backazimuth><value>80.911602017291</value></backazimuth><phaseHint>P</phaseHint><evaluationMode>automatic</evaluationMode><comment><text>14247.501987432453</text><id>DFX:rectilinearity</id></comment><comment><text>13.628972160875298</text><id>SNR</id></comment></pick><pick publicID="de.gempa.tb1.Pick/20250414180154.524481.139966"><time><value>2025-04-14T18:01:48.65Z</value></time><waveformID networkCode="CX" stationCode="PB10" channelCode="HHZ"/><filterID>ITAPER(4)&gt;&gt;BW(4,4,20)</filterID><methodID>AIC</methodID><horizontalSlowness><value>18.205424785376714</value></horizontalSlowness><backazimuth><value>357.03165414610476</value></backazimuth><phaseHint>P</phaseHint><evaluationMode>automatic</evaluationMode><comment><text>403.18810990692845</text><id>DFX:rectilinearity</id></comment><comment><text>7.818110361889034</text><id>SNR</id></comment></pick><pick publicID="de.gempa.tb1.Pick/20250414180157.613838.139969"><time><value>2025-04-14T18:01:51.078393Z</value></time><waveformID networkCode="CX" stationCode="PB01" channelCode="HHZ"/><filterID>ITAPER(4)&gt;&gt;BW(4,4,20)</filterID><methodID>AIC</methodID><horizontalSlowness><value>17.32362902994877</value></horizontalSlowness><backazimuth><value>196.49653484960439</value></backazimuth><phaseHint>P</phaseHint><evaluationMode>automatic</evaluationMode><comment><text>70.49005687602927</text><id>DFX:rectilinearity</id></comment><comment><text>8.541960225502729</text><id>SNR</id></comment></pick><pick publicID="de.gempa.tb1.Pick/20250414180157.861908.139971"><time><value>2025-04-14T18:01:46.548393Z</value></time><waveformID networkCode="CX" stationCode="PB07" channelCode="HHN"/><filterID>ITAPER(2)&gt;&gt;BW(3,3,20)</filterID><methodID>L2-AIC-GRID</methodID><horizontalSlowness><value>22.750039226447157</value></horizontalSlowness><backazimuth><value>298.7813272237729</value></backazimuth><phaseHint>S</phaseHint><evaluationMode>automatic</evaluationMode><comment><text>49903.79915239719</text><id>DFX:rectilinearity</id></comment><comment><text>de.gempa.tb1.Pick/20250414180142.738307.139953</text><id>RefPickID</id></comment><comment><text>5.377294628975076</text><id>SNR</id></comment></pick><pick publicID="de.gempa.tb1.Pick/20250414180159.275078.139972"><time><value>2025-04-14T18:01:51.759999Z</value></time><waveformID networkCode="CX" stationCode="PATCX" channelCode="HHZ"/><filterID>ITAPER(4)&gt;&gt;BW(4,4,20)</filterID><methodID>AIC</methodID><horizontalSlowness><value>4.2400323732167786</value></horizontalSlowness><backazimuth><value>300.4623652869793</value></backazimuth><phaseHint>P</phaseHint><evaluationMode>automatic</evaluationMode><comment><text>74.86584672938291</text><id>DFX:rectilinearity</id></comment><comment><text>15.50704139263597</text><id>SNR</id></comment></pick><pick publicID="de.gempa.tb1.Pick/20250414180201.572715.139975"><time><value>2025-04-14T18:01:49.238393Z</value></time><waveformID networkCode="CX" stationCode="PB06" channelCode="HHN"/><filterID>ITAPER(2)&gt;&gt;BW(3,3,20)</filterID><methodID>L2-AIC-GRID</methodID><horizontalSlowness><value>22.114388211597412</value></horizontalSlowness><backazimuth><value>22.335537758989233</value></backazimuth><phaseHint>S</phaseHint><evaluationMode>automatic</evaluationMode><comment><text>2136.367574603205</text><id>DFX:rectilinearity</id></comment><comment><text>de.gempa.tb1.Pick/20250414180147.59302.139957</text><id>RefPickID</id></comment><comment><text>6.543532737148252</text><id>SNR</id></comment></pick><pick publicID="de.gempa.tb1.Pick/20250414180202.601993.139976"><time><value>2025-04-14T18:01:45.03Z</value></time><waveformID networkCode="CX" stationCode="PB09" channelCode="HHZ"/><filterID>ITAPER(4)&gt;&gt;BW(4,4,20)</filterID><methodID>AIC</methodID><horizontalSlowness><value>21.67189285713268</value></horizontalSlowness><backazimuth><value>145.94125583779808</value></backazimuth><phaseHint>P</phaseHint><evaluationMode>automatic</evaluationMode><comment><text>49.65529399160624</text><id>DFX:rectilinearity</id></comment><comment><text>11.456881453058147</text><id>SNR</id></comment></pick><pick publicID="de.gempa.tb1.Pick/20250414180207.53414.139978"><time><value>2025-04-14T18:01:59.02Z</value></time><waveformID networkCode="CX" stationCode="PB19" channelCode="HHZ"/><filterID>ITAPER(4)&gt;&gt;BW(4,4,20)</filterID><methodID>AIC</methodID><horizontalSlowness><value>7.334616044459095</value></horizontalSlowness><backazimuth><value>350.2901347895478</value></backazimuth><phaseHint>P</phaseHint><evaluationMode>automatic</evaluationMode><comment><text>255.173712381726</text><id>DFX:rectilinearity</id></comment><comment><text>15.118765114622834</text><id>SNR</id></comment></pick><origin publicID="de.gempa.tb1.Origin/20250414180207.652607.146158"><time><value>2025-04-14T18:01:24.807501Z</value><uncertainty>0.6775546073913574</uncertainty></time><latitude><value>-22.28384780883789</value><uncertainty>2.1616554260253906</uncertainty></latitude><longitude><value>-70.25</value><uncertainty>4.637317180633545</uncertainty></longitude><depth><value>0.3446892499923706</value><uncertainty>6.496570110321045</uncertainty></depth><depthType>from location</depthType><methodID>LOCSAT</methodID><earthModelID>iasp91_scanloc</earthModelID><quality><associatedPhaseCount>11</associatedPhaseCount><usedPhaseCount>11</usedPhaseCount><associatedStationCount>9</associatedStationCount><usedStationCount>9</usedStationCount><depthPhaseCount>0</depthPhaseCount><standardError>0.5883609461296102</standardError><azimuthalGap>170.72514367103577</azimuthalGap><maximumDistance>1.839377522468567</maximumDistance><minimumDistance>0.5167574286460876</minimumDistance><medianDistance>1.05361008644104</medianDistance></quality><uncertainty><minHorizontalUncertainty>4.603813648223877</minHorizontalUncertainty><maxHorizontalUncertainty>9.959203720092773</maxHorizontalUncertainty><azimuthMaxHorizontalUncertainty>93.51544952392578</azimuthMaxHorizontalUncertainty><preferredDescription>horizontal uncertainty</preferredDescription></uncertainty><evaluationMode>automatic</evaluationMode><evaluationStatus>confirmed</evaluationStatus><comment><text>0.07</text><id>mismatchScore</id></comment><comment><text>mismatchScore</text><id>scevalMethod</id></comment><arrival><pickID>de.gempa.tb1.Pick/20250414180142.738307.139953</pickID><phase>P</phase><azimuth>31.40574264526367</azimuth><distance>0.649193286895752</distance><timeResidual>0.4973688125610352</timeResidual><timeUsed>true</timeUsed><horizontalSlownessUsed>false</horizontalSlownessUsed><backazimuthUsed>false</backazimuthUsed><weight>1</weight></arrival><arrival><pickID>de.gempa.tb1.Pick/20250414180143.549668.139955</pickID><phase>P</phase><azimuth>63.13762283325195</azimuth><distance>0.5167574286460876</distance><timeResidual>0.23758983612060547</timeResidual><timeUsed>true</timeUsed><horizontalSlownessUsed>false</horizontalSlownessUsed><backazimuthUsed>false</backazimuthUsed><weight>1</weight></arrival><arrival><pickID>de.gempa.tb1.Pick/20250414180147.59302.139957</pickID><phase>P</phase><azimuth>123.93572998046875</azimuth><distance>0.754756510257721</distance><timeResidual>0.003963470458984375</timeResidual><timeUsed>true</timeUsed><horizontalSlownessUsed>false</horizontalSlownessUsed><backazimuthUsed>false</backazimuthUsed><weight>1</weight></arrival><arrival><pickID>de.gempa.tb1.Pick/20250414180153.958348.139964</pickID><phase>P</phase><azimuth>142.13661193847656</azimuth><distance>1.1678580045700073</distance><timeResidual>-0.20824241638183594</timeResidual><timeUsed>true</timeUsed><horizontalSlownessUsed>false</horizontalSlownessUsed><backazimuthUsed>false</backazimuthUsed><weight>1</weight></arrival><arrival><pickID>de.gempa.tb1.Pick/20250414180154.524481.139966</pickID><phase>P</phase><azimuth>192.84609985351562</azimuth><distance>1.2555323839187622</distance><timeResidual>-0.23773860931396484</timeResidual><timeUsed>true</timeUsed><horizontalSlownessUsed>false</horizontalSlownessUsed><backazimuthUsed>false</backazimuthUsed><weight>1</weight></arrival><arrival><pickID>de.gempa.tb1.Pick/20250414180157.613838.139969</pickID><phase>P</phase><azimuth>30.02273368835449</azimuth><distance>1.4238433837890625</distance><timeResidual>-0.8057622909545898</timeResidual><timeUsed>true</timeUsed><horizontalSlownessUsed>false</horizontalSlownessUsed><backazimuthUsed>false</backazimuthUsed><weight>1</weight></arrival><arrival><pickID>de.gempa.tb1.Pick/20250414180157.861908.139971</pickID><phase>S</phase><azimuth>31.40574264526367</azimuth><distance>0.649193286895752</distance><timeResidual>0.24378013610839844</timeResidual><timeUsed>true</timeUsed><horizontalSlownessUsed>false</horizontalSlownessUsed><backazimuthUsed>false</backazimuthUsed><weight>1</weight></arrival><arrival><pickID>de.gempa.tb1.Pick/20250414180159.275078.139972</pickID><phase>P</phase><azimuth>3.5712435245513916</azimuth><distance>1.458770513534546</distance><timeResidual>-0.6051416397094727</timeResidual><timeUsed>true</timeUsed><horizontalSlownessUsed>false</horizontalSlownessUsed><backazimuthUsed>false</backazimuthUsed><weight>1</weight></arrival><arrival><pickID>de.gempa.tb1.Pick/20250414180201.572715.139975</pickID><phase>S</phase><azimuth>123.93572998046875</azimuth><distance>0.754756510257721</distance><timeResidual>-0.5586862564086914</timeResidual><timeUsed>true</timeUsed><horizontalSlownessUsed>false</horizontalSlownessUsed><backazimuthUsed>false</backazimuthUsed><weight>1</weight></arrival><arrival><pickID>de.gempa.tb1.Pick/20250414180202.601993.139976</pickID><phase>P</phase><azimuth>62.77382278442383</azimuth><distance>1.05361008644104</distance><timeResidual>0.01266765594482422</timeResidual><timeUsed>true</timeUsed><horizontalSlownessUsed>false</horizontalSlownessUsed><backazimuthUsed>false</backazimuthUsed><weight>1</weight></arrival><arrival><pickID>de.gempa.tb1.Pick/20250414180207.53414.139978</pickID><phase>P</phase><azimuth>151.48387145996094</azimuth><distance>1.839377522468567</distance><timeResidual>1.4201974868774414</timeResidual><timeUsed>true</timeUsed><horizontalSlownessUsed>false</horizontalSlownessUsed><backazimuthUsed>false</backazimuthUsed><weight>1</weight></arrival><magnitude publicID="de.gempa.tb1.Magnitude/20250414180229.677244.524434"><magnitude><value>2.725429612640037</value></magnitude><type>M</type><methodID>weighted average</methodID><stationCount>7</stationCount></magnitude></origin><event publicID="gempa2025hjqh"><preferredOriginID>de.gempa.tb1.Origin/20250414180207.652607.146158</preferredOriginID><preferredMagnitudeID>de.gempa.tb1.Magnitude/20250414180229.677244.524434</preferredMagnitudeID><description><text>Near Coast of Northern Chile</text><type>region name</type></description><originReference>de.gempa.tb1.Origin/20250414180207.652607.146158</originReference></event></EventParameters></seiscomp>