<?xml version="1.0" encoding="UTF-8"?>
<seiscomp xmlns="http://geofon.gfz-potsdam.de/ns/seiscomp3-schema/0.13" version="0.13"><EventParameters><pick publicID="de.gempa.tb1.Pick/20250414143204.511295.138592"><time><value>2025-04-14T14:32:00.068393Z</value></time><waveformID networkCode="CX" stationCode="PB02" channelCode="HHZ"/><filterID>ITAPER(4)&gt;&gt;BW(4,4,20)</filterID><methodID>AIC</methodID><horizontalSlowness><value>7.712529399066971</value></horizontalSlowness><backazimuth><value>282.13114015671346</value></backazimuth><phaseHint>P</phaseHint><evaluationMode>automatic</evaluationMode><comment><text>86.6829094400841</text><id>DFX:rectilinearity</id></comment><comment><text>54.00837744973593</text><id>SNR</id></comment></pick><pick publicID="de.gempa.tb1.Pick/20250414143208.409068.138595"><time><value>2025-04-14T14:32:01.509999Z</value></time><waveformID networkCode="CX" stationCode="PATCX" channelCode="HHZ"/><filterID>ITAPER(4)&gt;&gt;BW(4,4,20)</filterID><methodID>AIC</methodID><horizontalSlowness><value>22.106163362477783</value></horizontalSlowness><backazimuth><value>113.21968595847372</value></backazimuth><phaseHint>P</phaseHint><evaluationMode>automatic</evaluationMode><comment><text>170.347657240213</text><id>DFX:rectilinearity</id></comment><comment><text>16.042087838041972</text><id>SNR</id></comment></pick><pick publicID="de.gempa.tb1.Pick/20250414143209.644371.138597"><time><value>2025-04-14T14:32:03.958393Z</value></time><waveformID networkCode="CX" stationCode="PB01" channelCode="HHZ"/><filterID>ITAPER(4)&gt;&gt;BW(4,4,20)</filterID><methodID>AIC</methodID><horizontalSlowness><value>13.902622033218002</value></horizontalSlowness><backazimuth><value>252.12812858264127</value></backazimuth><phaseHint>P</phaseHint><evaluationMode>automatic</evaluationMode><comment><text>25.841072110642013</text><id>DFX:rectilinearity</id></comment><comment><text>20.152570180730734</text><id>SNR</id></comment></pick><pick publicID="de.gempa.tb1.Pick/20250414143210.631614.138599"><time><value>2025-04-14T14:32:05.798394Z</value></time><waveformID networkCode="CX" stationCode="PB03" channelCode="HHZ"/><filterID>ITAPER(4)&gt;&gt;BW(4,4,20)</filterID><methodID>AIC</methodID><horizontalSlowness><value>5.318556463559605</value></horizontalSlowness><backazimuth><value>319.74252017532746</value></backazimuth><phaseHint>P</phaseHint><evaluationMode>automatic</evaluationMode><comment><text>7.756932644963247</text><id>DFX:rectilinearity</id></comment><comment><text>11.244293949081534</text><id>SNR</id></comment></pick><pick publicID="de.gempa.tb1.Pick/20250414143213.569767.138602"><time><value>2025-04-14T14:32:07.888393Z</value></time><waveformID networkCode="CX" stationCode="PB02" channelCode="HHN"/><filterID>ITAPER(2)&gt;&gt;BW(3,3,20)</filterID><methodID>L2-AIC-GRID</methodID><horizontalSlowness><value>22.60340808130123</value></horizontalSlowness><backazimuth><value>269.76690036696175</value></backazimuth><phaseHint>S</phaseHint><evaluationMode>automatic</evaluationMode><comment><text>1736.7038767021245</text><id>DFX:rectilinearity</id></comment><comment><text>de.gempa.tb1.Pick/20250414143204.511295.138592</text><id>RefPickID</id></comment><comment><text>8.096964632591844</text><id>SNR</id></comment></pick><pick publicID="de.gempa.tb1.Pick/20250414143218.88738.138604"><time><value>2025-04-14T14:32:10.699999Z</value></time><waveformID networkCode="CX" stationCode="PATCX" channelCode="HHN"/><filterID>ITAPER(2)&gt;&gt;BW(3,3,20)</filterID><methodID>L2-AIC-GRID</methodID><horizontalSlowness><value>19.361875835203794</value></horizontalSlowness><backazimuth><value>33.76572543641626</value></backazimuth><phaseHint>S</phaseHint><evaluationMode>automatic</evaluationMode><comment><text>1099.1409673158544</text><id>DFX:rectilinearity</id></comment><comment><text>de.gempa.tb1.Pick/20250414143208.409068.138595</text><id>RefPickID</id></comment><comment><text>11.65045447041076</text><id>SNR</id></comment></pick><pick publicID="de.gempa.tb1.Pick/20250414143219.795814.138605"><time><value>2025-04-14T14:32:13.898393Z</value></time><waveformID networkCode="CX" stationCode="PB06" channelCode="HHZ"/><filterID>ITAPER(4)&gt;&gt;BW(4,4,20)</filterID><methodID>AIC</methodID><horizontalSlowness><value>6.947937647349503</value></horizontalSlowness><backazimuth><value>289.97776726200914</value></backazimuth><phaseHint>P</phaseHint><evaluationMode>automatic</evaluationMode><comment><text>49.34085413349506</text><id>DFX:rectilinearity</id></comment><comment><text>8.966527738940602</text><id>SNR</id></comment></pick><pick publicID="de.gempa.tb1.Pick/20250414143221.48545.138607"><time><value>2025-04-14T14:32:16.19Z</value></time><waveformID networkCode="CX" stationCode="PSGCX" channelCode="HHZ"/><filterID>ITAPER(4)&gt;&gt;BW(4,4,20)</filterID><methodID>AIC</methodID><horizontalSlowness><value>9.21744822856202</value></horizontalSlowness><backazimuth><value>199.09760788792792</value></backazimuth><phaseHint>P</phaseHint><evaluationMode>automatic</evaluationMode><comment><text>26.3797828363625</text><id>DFX:rectilinearity</id></comment><comment><text>36.552247131686414</text><id>SNR</id></comment></pick><pick publicID="de.gempa.tb1.Pick/20250414143223.624447.138609"><time><value>2025-04-14T14:32:08.37Z</value></time><waveformID networkCode="CX" stationCode="PB09" channelCode="HHZ"/><filterID>ITAPER(4)&gt;&gt;BW(4,4,20)</filterID><methodID>AIC</methodID><horizontalSlowness><value>20.20715555251568</value></horizontalSlowness><backazimuth><value>283.8784906311687</value></backazimuth><phaseHint>P</phaseHint><evaluationMode>automatic</evaluationMode><comment><text>11.79481644025764</text><id>DFX:rectilinearity</id></comment><comment><text>14.963569103586694</text><id>SNR</id></comment></pick><pick publicID="de.gempa.tb1.Pick/20250414143223.625153.138611"><time><value>2025-04-14T14:32:17.808394Z</value></time><waveformID networkCode="CX" stationCode="PB03" channelCode="HHN"/><filterID>ITAPER(2)&gt;&gt;BW(3,3,20)</filterID><methodID>L2-AIC-GRID</methodID><horizontalSlowness><value>16.940048152579632</value></horizontalSlowness><backazimuth><value>198.43821058283751</value></backazimuth><phaseHint>S</phaseHint><evaluationMode>automatic</evaluationMode><comment><text>88.43282012060409</text><id>DFX:rectilinearity</id></comment><comment><text>de.gempa.tb1.Pick/20250414143210.631614.138599</text><id>RefPickID</id></comment><comment><text>8.065380644717706</text><id>SNR</id></comment></pick><pick publicID="de.gempa.tb1.Pick/20250414143226.592324.138612"><time><value>2025-04-14T14:32:14.668393Z</value></time><waveformID networkCode="CX" stationCode="PB01" channelCode="HHN"/><filterID>ITAPER(2)&gt;&gt;BW(3,3,20)</filterID><methodID>L2-AIC-GRID</methodID><horizontalSlowness><value>21.931770110048745</value></horizontalSlowness><backazimuth><value>85.85105948836416</value></backazimuth><phaseHint>S</phaseHint><evaluationMode>automatic</evaluationMode><comment><text>1873.6503904704828</text><id>DFX:rectilinearity</id></comment><comment><text>de.gempa.tb1.Pick/20250414143209.644371.138597</text><id>RefPickID</id></comment><comment><text>18.568920334059086</text><id>SNR</id></comment></pick><pick publicID="de.gempa.tb1.Pick/20250414143227.806808.138613"><time><value>2025-04-14T14:32:02.088396Z</value></time><waveformID networkCode="CX" stationCode="PB07" channelCode="HHZ"/><filterID>ITAPER(4)&gt;&gt;BW(4,4,20)</filterID><methodID>AIC</methodID><horizontalSlowness><value>18.919609225628758</value></horizontalSlowness><backazimuth><value>286.31232848800386</value></backazimuth><phaseHint>P</phaseHint><evaluationMode>automatic</evaluationMode><comment><text>114.83633495769296</text><id>DFX:rectilinearity</id></comment><comment><text>27.789983476037865</text><id>SNR</id></comment></pick><pick publicID="de.gempa.tb1.Pick/20250414143236.487051.138618"><time><value>2025-04-14T14:32:22.7Z</value></time><waveformID networkCode="CX" stationCode="PB09" channelCode="HHN"/><filterID>ITAPER(2)&gt;&gt;BW(3,3,20)</filterID><methodID>L2-AIC-GRID</methodID><horizontalSlowness><value>21.2812100757466</value></horizontalSlowness><backazimuth><value>148.49009150713994</value></backazimuth><phaseHint>S</phaseHint><evaluationMode>automatic</evaluationMode><comment><text>39.34247854031606</text><id>DFX:rectilinearity</id></comment><comment><text>de.gempa.tb1.Pick/20250414143223.624447.138609</text><id>RefPickID</id></comment><comment><text>5.367169738140856</text><id>SNR</id></comment></pick><pick publicID="de.gempa.tb1.Pick/20250414143240.652055.138621"><time><value>2025-04-14T14:32:33.018393Z</value></time><waveformID networkCode="CX" stationCode="PB06" channelCode="HHN"/><filterID>ITAPER(2)&gt;&gt;BW(3,3,20)</filterID><methodID>L2-AIC-GRID</methodID><horizontalSlowness><value>18.125985989859675</value></horizontalSlowness><backazimuth><value>293.92139618894765</value></backazimuth><phaseHint>S</phaseHint><evaluationMode>automatic</evaluationMode><comment><text>88.27628459109593</text><id>DFX:rectilinearity</id></comment><comment><text>de.gempa.tb1.Pick/20250414143219.795814.138605</text><id>RefPickID</id></comment><comment><text>8.035436698221346</text><id>SNR</id></comment></pick><pick publicID="de.gempa.tb1.Pick/20250414143245.710798.138623"><time><value>2025-04-14T14:32:11.358396Z</value></time><waveformID networkCode="CX" stationCode="PB07" channelCode="HHN"/><filterID>ITAPER(2)&gt;&gt;BW(3,3,20)</filterID><methodID>L2-AIC-GRID</methodID><horizontalSlowness><value>20.9314632697726</value></horizontalSlowness><backazimuth><value>121.25751529427728</value></backazimuth><phaseHint>S</phaseHint><evaluationMode>automatic</evaluationMode><comment><text>12856.314732782856</text><id>DFX:rectilinearity</id></comment><comment><text>de.gempa.tb1.Pick/20250414143227.806808.138613</text><id>RefPickID</id></comment><comment><text>8.769874080214546</text><id>SNR</id></comment></pick><origin publicID="de.gempa.tb1.Origin/20250414143245.715064.140908"><time><value>2025-04-14T14:31:49.054123Z</value><uncertainty>0.6293373107910156</uncertainty></time><latitude><value>-21.300579071044922</value><uncertainty>2.7353391647338867</uncertainty></latitude><longitude><value>-70.2134780883789</value><uncertainty>5.654261112213135</uncertainty></longitude><depth><value>65.85682678222656</value><uncertainty>5.897828102111816</uncertainty></depth><depthType>from location</depthType><methodID>LOCSAT</methodID><earthModelID>iasp91_scanloc</earthModelID><quality><associatedPhaseCount>15</associatedPhaseCount><usedPhaseCount>15</usedPhaseCount><associatedStationCount>8</associatedStationCount><usedStationCount>8</usedStationCount><depthPhaseCount>0</depthPhaseCount><standardError>0.3831967012465315</standardError><azimuthalGap>205.82497715950012</azimuthalGap><maximumDistance>1.696887493133545</maximumDistance><minimumDistance>0.29662004113197327</minimumDistance><medianDistance>0.724428653717041</medianDistance></quality><uncertainty><minHorizontalUncertainty>5.260162353515625</minHorizontalUncertainty><maxHorizontalUncertainty>12.39589500427246</maxHorizontalUncertainty><azimuthMaxHorizontalUncertainty>76.64814758300781</azimuthMaxHorizontalUncertainty><preferredDescription>horizontal uncertainty</preferredDescription></uncertainty><evaluationMode>automatic</evaluationMode><evaluationStatus>confirmed</evaluationStatus><comment><text>0.01</text><id>mismatchScore</id></comment><comment><text>mismatchScore</text><id>scevalMethod</id></comment><arrival><pickID>de.gempa.tb1.Pick/20250414143204.511295.138592</pickID><phase>P</phase><azimuth>93.74098205566406</azimuth><distance>0.29662004113197327</distance><timeResidual>0.29639339447021484</timeResidual><timeUsed>true</timeUsed><horizontalSlownessUsed>false</horizontalSlownessUsed><backazimuthUsed>false</backazimuthUsed><weight>1</weight></arrival><arrival><pickID>de.gempa.tb1.Pick/20250414143208.409068.138595</pickID><phase>P</phase><azimuth>6.771199703216553</azimuth><distance>0.4808232188224792</distance><timeResidual>0.16817951202392578</timeResidual><timeUsed>true</timeUsed><horizontalSlownessUsed>false</horizontalSlownessUsed><backazimuthUsed>false</backazimuthUsed><weight>1</weight></arrival><arrival><pickID>de.gempa.tb1.Pick/20250414143209.644371.138597</pickID><phase>P</phase><azimuth>69.4302749633789</azimuth><distance>0.724428653717041</distance><timeResidual>-0.022934913635253906</timeResidual><timeUsed>true</timeUsed><horizontalSlownessUsed>false</horizontalSlownessUsed><backazimuthUsed>false</backazimuthUsed><weight>1</weight></arrival><arrival><pickID>de.gempa.tb1.Pick/20250414143210.631614.138599</pickID><phase>P</phase><azimuth>150.1689453125</azimuth><distance>0.8586381673812866</distance><timeResidual>0.21107959747314453</timeResidual><timeUsed>true</timeUsed><horizontalSlownessUsed>false</horizontalSlownessUsed><backazimuthUsed>false</backazimuthUsed><weight>1</weight></arrival><arrival><pickID>de.gempa.tb1.Pick/20250414143213.569767.138602</pickID><phase>S</phase><azimuth>93.74098205566406</azimuth><distance>0.29662004113197327</distance><timeResidual>0.0026235580444335942</timeResidual><timeUsed>true</timeUsed><horizontalSlownessUsed>false</horizontalSlownessUsed><backazimuthUsed>false</backazimuthUsed><weight>1</weight></arrival><arrival><pickID>de.gempa.tb1.Pick/20250414143218.88738.138604</pickID><phase>S</phase><azimuth>6.771199703216553</azimuth><distance>0.4808232188224792</distance><timeResidual>0.03499031066894531</timeResidual><timeUsed>true</timeUsed><horizontalSlownessUsed>false</horizontalSlownessUsed><backazimuthUsed>false</backazimuthUsed><weight>1</weight></arrival><arrival><pickID>de.gempa.tb1.Pick/20250414143219.795814.138605</pickID><phase>P</phase><azimuth>157.0553741455078</azimuth><distance>1.5199081897735596</distance><timeResidual>-0.25504398345947266</timeResidual><timeUsed>true</timeUsed><horizontalSlownessUsed>false</horizontalSlownessUsed><backazimuthUsed>false</backazimuthUsed><weight>1</weight></arrival><arrival><pickID>de.gempa.tb1.Pick/20250414143221.48545.138607</pickID><phase>P</phase><azimuth>2.8803513050079346</azimuth><distance>1.696887493133545</distance><timeResidual>-0.347233772277832</timeResidual><timeUsed>true</timeUsed><horizontalSlownessUsed>false</horizontalSlownessUsed><backazimuthUsed>false</backazimuthUsed><weight>1</weight></arrival><arrival><pickID>de.gempa.tb1.Pick/20250414143223.624447.138609</pickID><phase>P</phase><azimuth>118.78833770751953</azimuth><distance>1.0302735567092896</distance><timeResidual>0.6301355361938477</timeResidual><timeUsed>true</timeUsed><horizontalSlownessUsed>false</horizontalSlownessUsed><backazimuthUsed>false</backazimuthUsed><weight>1</weight></arrival><arrival><pickID>de.gempa.tb1.Pick/20250414143223.625153.138611</pickID><phase>S</phase><azimuth>150.1689453125</azimuth><distance>0.8586381673812866</distance><timeResidual>-0.41502857208251953</timeResidual><timeUsed>true</timeUsed><horizontalSlownessUsed>false</horizontalSlownessUsed><backazimuthUsed>false</backazimuthUsed><weight>1</weight></arrival><arrival><pickID>de.gempa.tb1.Pick/20250414143226.592324.138612</pickID><phase>S</phase><azimuth>69.4302749633789</azimuth><distance>0.724428653717041</distance><timeResidual>-0.6896333694458008</timeResidual><timeUsed>true</timeUsed><horizontalSlownessUsed>false</horizontalSlownessUsed><backazimuthUsed>false</backazimuthUsed><weight>1</weight></arrival><arrival><pickID>de.gempa.tb1.Pick/20250414143227.806808.138613</pickID><phase>P</phase><azimuth>144.350830078125</azimuth><distance>0.5221685767173767</distance><timeResidual>0.3375692367553711</timeResidual><timeUsed>true</timeUsed><horizontalSlownessUsed>false</horizontalSlownessUsed><backazimuthUsed>false</backazimuthUsed><weight>1</weight></arrival><arrival><pickID>de.gempa.tb1.Pick/20250414143236.487051.138618</pickID><phase>S</phase><azimuth>118.78833770751953</azimuth><distance>1.0302735567092896</distance><timeResidual>0.6288747787475586</timeResidual><timeUsed>true</timeUsed><horizontalSlownessUsed>false</horizontalSlownessUsed><backazimuthUsed>false</backazimuthUsed><weight>1</weight></arrival><arrival><pickID>de.gempa.tb1.Pick/20250414143240.652055.138621</pickID><phase>S</phase><azimuth>157.0553741455078</azimuth><distance>1.5199081897735596</distance><timeResidual>-0.546910285949707</timeResidual><timeUsed>true</timeUsed><horizontalSlownessUsed>false</horizontalSlownessUsed><backazimuthUsed>false</backazimuthUsed><weight>1</weight></arrival><arrival><pickID>de.gempa.tb1.Pick/20250414143245.710798.138623</pickID><phase>S</phase><azimuth>144.350830078125</azimuth><distance>0.5221685767173767</distance><timeResidual>-0.032721519470214844</timeResidual><timeUsed>true</timeUsed><horizontalSlownessUsed>false</horizontalSlownessUsed><backazimuthUsed>false</backazimuthUsed><weight>1</weight></arrival><magnitude publicID="de.gempa.tb1.Magnitude/20250414143318.724039.501107"><magnitude><value>2.211157041488275</value></magnitude><type>M</type><methodID>weighted average</methodID><stationCount>6</stationCount></magnitude></origin><event publicID="gempa2025hjjj"><preferredOriginID>de.gempa.tb1.Origin/20250414143245.715064.140908</preferredOriginID><preferredMagnitudeID>de.gempa.tb1.Magnitude/20250414143318.724039.501107</preferredMagnitudeID><description><text>Near Coast of Northern Chile</text><type>region name</type></description><originReference>de.gempa.tb1.Origin/20250414143245.715064.140908</originReference></event></EventParameters></seiscomp>