<?xml version="1.0" encoding="UTF-8"?>
<seiscomp xmlns="http://geofon.gfz-potsdam.de/ns/seiscomp3-schema/0.13" version="0.13"><EventParameters><pick publicID="de.gempa.tb1.Pick/20250413213612.665429.133856"><time><value>2025-04-13T21:35:59.32Z</value></time><waveformID networkCode="CX" stationCode="PB09" channelCode="HHZ"/><filterID>ITAPER(4)&gt;&gt;BW(4,4,20)</filterID><methodID>AIC</methodID><horizontalSlowness><value>7.671335140629736</value></horizontalSlowness><backazimuth><value>83.24218742228192</value></backazimuth><phaseHint>P</phaseHint><evaluationMode>automatic</evaluationMode><comment><text>20.772263442269296</text><id>DFX:rectilinearity</id></comment><comment><text>50.00377749745152</text><id>SNR</id></comment></pick><pick publicID="de.gempa.tb1.Pick/20250413213613.546204.133859"><time><value>2025-04-13T21:36:07.738394Z</value></time><waveformID networkCode="CX" stationCode="PB03" channelCode="HHZ"/><filterID>ITAPER(4)&gt;&gt;BW(4,4,20)</filterID><methodID>AIC</methodID><horizontalSlowness><value>2.1074289321317474</value></horizontalSlowness><backazimuth><value>330.68274033242653</value></backazimuth><phaseHint>P</phaseHint><evaluationMode>automatic</evaluationMode><comment><text>12.747551898782444</text><id>DFX:rectilinearity</id></comment><comment><text>23.276067778341577</text><id>SNR</id></comment></pick><pick publicID="de.gempa.tb1.Pick/20250413213616.508097.133861"><time><value>2025-04-13T21:36:10.868393Z</value></time><waveformID networkCode="CX" stationCode="PB06" channelCode="HHZ"/><filterID>ITAPER(4)&gt;&gt;BW(4,4,20)</filterID><methodID>AIC</methodID><horizontalSlowness><value>9.954146721738271</value></horizontalSlowness><backazimuth><value>274.06384104108133</value></backazimuth><phaseHint>P</phaseHint><evaluationMode>automatic</evaluationMode><comment><text>99.41306610858014</text><id>DFX:rectilinearity</id></comment><comment><text>10.396933397878058</text><id>SNR</id></comment></pick><pick publicID="de.gempa.tb1.Pick/20250413213621.517869.133863"><time><value>2025-04-13T21:36:13.318391Z</value></time><waveformID networkCode="CX" stationCode="PB02" channelCode="HHZ"/><filterID>ITAPER(4)&gt;&gt;BW(4,4,20)</filterID><methodID>AIC</methodID><horizontalSlowness><value>22.112758320810247</value></horizontalSlowness><backazimuth><value>252.9692245668596</value></backazimuth><phaseHint>P</phaseHint><evaluationMode>automatic</evaluationMode><comment><text>31.313184757691154</text><id>DFX:rectilinearity</id></comment><comment><text>10.562955345265568</text><id>SNR</id></comment></pick><pick publicID="de.gempa.tb1.Pick/20250413213634.921814.133865"><time><value>2025-04-13T21:36:10.128396Z</value></time><waveformID networkCode="CX" stationCode="PB07" channelCode="HHZ"/><filterID>ITAPER(4)&gt;&gt;BW(4,4,20)</filterID><methodID>AIC</methodID><horizontalSlowness><value>18.31170813265246</value></horizontalSlowness><backazimuth><value>310.48514499153225</value></backazimuth><phaseHint>P</phaseHint><evaluationMode>automatic</evaluationMode><comment><text>303.95195892836114</text><id>DFX:rectilinearity</id></comment><comment><text>20.340679638085017</text><id>SNR</id></comment></pick><pick publicID="de.gempa.tb1.Pick/20250413213636.533563.133868"><time><value>2025-04-13T21:36:29.85Z</value></time><waveformID networkCode="CX" stationCode="PB19" channelCode="HHZ"/><filterID>ITAPER(4)&gt;&gt;BW(4,4,20)</filterID><methodID>AIC</methodID><horizontalSlowness><value>22.846401100127856</value></horizontalSlowness><backazimuth><value>333.8743107679529</value></backazimuth><phaseHint>P</phaseHint><evaluationMode>automatic</evaluationMode><comment><text>25.905715462200494</text><id>DFX:rectilinearity</id></comment><comment><text>25.0710838028875</text><id>SNR</id></comment></pick><pick publicID="de.gempa.tb1.Pick/20250413213642.579859.133870"><time><value>2025-04-13T21:36:36.97Z</value></time><waveformID networkCode="CX" stationCode="PSGCX" channelCode="HHZ"/><filterID>ITAPER(4)&gt;&gt;BW(4,4,20)</filterID><methodID>AIC</methodID><horizontalSlowness><value>13.141626530468752</value></horizontalSlowness><backazimuth><value>181.48856350053552</value></backazimuth><phaseHint>P</phaseHint><evaluationMode>automatic</evaluationMode><comment><text>12.214912061779284</text><id>DFX:rectilinearity</id></comment><comment><text>9.464296619876812</text><id>SNR</id></comment></pick><origin publicID="de.gempa.tb1.Origin/20250413213648.578348.119599"><time><value>2025-04-13T21:35:54.690493Z</value><uncertainty>0.8604809045791626</uncertainty></time><latitude><value>-21.946935653686523</value><uncertainty>3.862215280532837</uncertainty></latitude><longitude><value>-69.05992126464844</value><uncertainty>7.319716453552246</uncertainty></longitude><depth><value>0</value></depth><depthType>operator assigned</depthType><methodID>LOCSAT</methodID><earthModelID>iasp91_scanloc</earthModelID><quality><associatedPhaseCount>7</associatedPhaseCount><usedPhaseCount>7</usedPhaseCount><associatedStationCount>7</associatedStationCount><usedStationCount>7</usedStationCount><depthPhaseCount>0</depthPhaseCount><standardError>0.5351846214317716</standardError><azimuthalGap>209.42567443847656</azimuthalGap><maximumDistance>2.5407886505126953</maximumDistance><minimumDistance>0.2258929908275604</minimumDistance><medianDistance>0.891676127910614</medianDistance></quality><uncertainty><minHorizontalUncertainty>7.623877048492432</minHorizontalUncertainty><maxHorizontalUncertainty>16.028039932250977</maxHorizontalUncertainty><azimuthMaxHorizontalUncertainty>76.72473907470703</azimuthMaxHorizontalUncertainty><preferredDescription>horizontal uncertainty</preferredDescription></uncertainty><evaluationMode>automatic</evaluationMode><evaluationStatus>confirmed</evaluationStatus><comment><text>0.25</text><id>mismatchScore</id></comment><comment><text>mismatchScore</text><id>scevalMethod</id></comment><arrival><pickID>de.gempa.tb1.Pick/20250413213612.665429.133856</pickID><phase>P</phase><azimuth>311.5153503417969</azimuth><distance>0.2258929908275604</distance><timeResidual>0.29639673233032227</timeResidual><timeUsed>true</timeUsed><horizontalSlownessUsed>false</horizontalSlownessUsed><backazimuthUsed>false</backazimuthUsed><weight>1</weight></arrival><arrival><pickID>de.gempa.tb1.Pick/20250413213613.546204.133859</pickID><phase>P</phase><azimuth>260.9447021484375</azimuth><distance>0.6512010097503662</distance><timeResidual>0.5573921203613281</timeResidual><timeUsed>true</timeUsed><horizontalSlownessUsed>false</horizontalSlownessUsed><backazimuthUsed>false</backazimuthUsed><weight>1</weight></arrival><arrival><pickID>de.gempa.tb1.Pick/20250413213616.508097.133861</pickID><phase>P</phase><azimuth>212.0185546875</azimuth><distance>0.891676127910614</distance><timeResidual>-0.9243488311767578</timeResidual><timeUsed>true</timeUsed><horizontalSlownessUsed>false</horizontalSlownessUsed><backazimuthUsed>false</backazimuthUsed><weight>1</weight></arrival><arrival><pickID>de.gempa.tb1.Pick/20250413213621.517869.133863</pickID><phase>P</phase><azimuth>308.58685302734375</azimuth><distance>0.9973434805870056</distance><timeResidual>-0.502751350402832</timeResidual><timeUsed>true</timeUsed><horizontalSlownessUsed>false</horizontalSlownessUsed><backazimuthUsed>false</backazimuthUsed><weight>1</weight></arrival><arrival><pickID>de.gempa.tb1.Pick/20250413213634.921814.133865</pickID><phase>P</phase><azimuth>285.78265380859375</azimuth><distance>0.7983576655387878</distance><timeResidual>0.12438011169433594</timeResidual><timeUsed>true</timeUsed><horizontalSlownessUsed>false</horizontalSlownessUsed><backazimuthUsed>false</backazimuthUsed><weight>1</weight></arrival><arrival><pickID>de.gempa.tb1.Pick/20250413213636.533563.133868</pickID><phase>P</phase><azimuth>186.1853485107422</azimuth><distance>1.9602586030960083</distance><timeResidual>0.6620101928710938</timeResidual><timeUsed>true</timeUsed><horizontalSlownessUsed>false</horizontalSlownessUsed><backazimuthUsed>false</backazimuthUsed><weight>1</weight></arrival><arrival><pickID>de.gempa.tb1.Pick/20250413213642.579859.133870</pickID><phase>P</phase><azimuth>336.7596740722656</azimuth><distance>2.5407886505126953</distance><timeResidual>-0.21333885192871094</timeResidual><timeUsed>true</timeUsed><horizontalSlownessUsed>false</horizontalSlownessUsed><backazimuthUsed>false</backazimuthUsed><weight>1</weight></arrival><magnitude publicID="de.gempa.tb1.Magnitude/20250413213648.583791.404648"><magnitude><value>2.3006074032964814</value></magnitude><type>M</type><methodID>weighted average</methodID><stationCount>6</stationCount></magnitude></origin><event publicID="gempa2025hibl"><preferredOriginID>de.gempa.tb1.Origin/20250413213648.578348.119599</preferredOriginID><preferredMagnitudeID>de.gempa.tb1.Magnitude/20250413213648.583791.404648</preferredMagnitudeID><description><text>Northern Chile</text><type>region name</type></description><originReference>de.gempa.tb1.Origin/20250413213648.578348.119599</originReference></event></EventParameters></seiscomp>