<?xml version="1.0" encoding="UTF-8"?>
<seiscomp xmlns="http://geofon.gfz-potsdam.de/ns/seiscomp3-schema/0.13" version="0.13"><EventParameters><pick publicID="de.gempa.tb1.Pick/20250412153026.586094.124938"><time><value>2025-04-12T15:30:19.198393Z</value></time><waveformID networkCode="CX" stationCode="PB03" channelCode="HHZ"/><filterID>ITAPER(4)&gt;&gt;BW(4,4,20)</filterID><methodID>AIC</methodID><horizontalSlowness><value>5.425349075443689</value></horizontalSlowness><backazimuth><value>144.52132631491583</value></backazimuth><phaseHint>P</phaseHint><evaluationMode>automatic</evaluationMode><comment><text>11.529558318317584</text><id>DFX:rectilinearity</id></comment><comment><text>51.66723745521968</text><id>SNR</id></comment></pick><pick publicID="de.gempa.tb1.Pick/20250412153027.595097.124940"><time><value>2025-04-12T15:30:20.128393Z</value></time><waveformID networkCode="CX" stationCode="PB01" channelCode="HHZ"/><filterID>ITAPER(4)&gt;&gt;BW(4,4,20)</filterID><methodID>AIC</methodID><horizontalSlowness><value>10.934462695280988</value></horizontalSlowness><backazimuth><value>111.65310928454848</value></backazimuth><phaseHint>P</phaseHint><evaluationMode>automatic</evaluationMode><comment><text>14.210263165430142</text><id>DFX:rectilinearity</id></comment><comment><text>35.490673547832337</text><id>SNR</id></comment></pick><pick publicID="de.gempa.tb1.Pick/20250412153029.472716.124942"><time><value>2025-04-12T15:30:22.508394Z</value></time><waveformID networkCode="CX" stationCode="PB02" channelCode="HHZ"/><filterID>ITAPER(4)&gt;&gt;BW(4,4,20)</filterID><methodID>AIC</methodID><horizontalSlowness><value>9.408823417809428</value></horizontalSlowness><backazimuth><value>99.94255708028942</value></backazimuth><phaseHint>P</phaseHint><evaluationMode>automatic</evaluationMode><comment><text>33.000759163289665</text><id>DFX:rectilinearity</id></comment><comment><text>20.831443696362768</text><id>SNR</id></comment></pick><pick publicID="de.gempa.tb1.Pick/20250412153031.528173.124944"><time><value>2025-04-12T15:30:15.53Z</value></time><waveformID networkCode="CX" stationCode="PB09" channelCode="HHZ"/><filterID>ITAPER(4)&gt;&gt;BW(4,4,20)</filterID><methodID>AIC</methodID><horizontalSlowness><value>20.490857788994585</value></horizontalSlowness><backazimuth><value>108.64210570174446</value></backazimuth><phaseHint>P</phaseHint><evaluationMode>automatic</evaluationMode><comment><text>10.664126207984403</text><id>DFX:rectilinearity</id></comment><comment><text>39.000769633706845</text><id>SNR</id></comment></pick><pick publicID="de.gempa.tb1.Pick/20250412153035.283968.124947"><time><value>2025-04-12T15:30:27.259999Z</value></time><waveformID networkCode="CX" stationCode="PATCX" channelCode="HHZ"/><filterID>ITAPER(4)&gt;&gt;BW(4,4,20)</filterID><methodID>AIC</methodID><horizontalSlowness><value>23.26659262270264</value></horizontalSlowness><backazimuth><value>53.82539288258228</value></backazimuth><phaseHint>P</phaseHint><evaluationMode>automatic</evaluationMode><comment><text>354.6984228399332</text><id>DFX:rectilinearity</id></comment><comment><text>8.745570105927897</text><id>SNR</id></comment></pick><pick publicID="de.gempa.tb1.Pick/20250412153042.618634.124949"><time><value>2025-04-12T15:30:35.48Z</value></time><waveformID networkCode="CX" stationCode="PSGCX" channelCode="HHZ"/><filterID>ITAPER(4)&gt;&gt;BW(4,4,20)</filterID><methodID>AIC</methodID><horizontalSlowness><value>17.285847639447955</value></horizontalSlowness><backazimuth><value>245.0532451883359</value></backazimuth><phaseHint>P</phaseHint><evaluationMode>automatic</evaluationMode><comment><text>24.701519362641026</text><id>DFX:rectilinearity</id></comment><comment><text>11.137649217991289</text><id>SNR</id></comment></pick><pick publicID="de.gempa.tb1.Pick/20250412153042.619063.124951"><time><value>2025-04-12T15:30:34.819998Z</value></time><waveformID networkCode="CX" stationCode="PB19" channelCode="HHZ"/><filterID>ITAPER(4)&gt;&gt;BW(4,4,20)</filterID><methodID>AIC</methodID><horizontalSlowness><value>23.470492647334627</value></horizontalSlowness><backazimuth><value>7.963327007218425</value></backazimuth><phaseHint>P</phaseHint><evaluationMode>automatic</evaluationMode><comment><text>62.75205056500122</text><id>DFX:rectilinearity</id></comment><comment><text>6.921054192139005</text><id>SNR</id></comment></pick><pick publicID="de.gempa.tb1.Pick/20250412153048.975275.124955"><time><value>2025-04-12T15:30:21.348391Z</value></time><waveformID networkCode="CX" stationCode="PB07" channelCode="HHZ"/><filterID>ITAPER(4)&gt;&gt;BW(4,4,20)</filterID><methodID>AIC</methodID><horizontalSlowness><value>22.426624195680883</value></horizontalSlowness><backazimuth><value>94.55900882040427</value></backazimuth><phaseHint>P</phaseHint><evaluationMode>automatic</evaluationMode><comment><text>167.46825480177296</text><id>DFX:rectilinearity</id></comment><comment><text>195.2340412572275</text><id>SNR</id></comment></pick><origin publicID="de.gempa.tb1.Origin/20250412153049.178669.85811"><time><value>2025-04-12T15:29:56.249532Z</value><uncertainty>1.7074910402297974</uncertainty></time><latitude><value>-21.646249771118164</value><uncertainty>7.213372707366943</uncertainty></latitude><longitude><value>-68.54560852050781</value><uncertainty>22.09426498413086</uncertainty></longitude><depth><value>124.86236572265625</value><uncertainty>19.57012939453125</uncertainty></depth><depthType>from location</depthType><methodID>LOCSAT</methodID><earthModelID>iasp91_scanloc</earthModelID><quality><associatedPhaseCount>8</associatedPhaseCount><usedPhaseCount>8</usedPhaseCount><associatedStationCount>8</associatedStationCount><usedStationCount>8</usedStationCount><depthPhaseCount>0</depthPhaseCount><standardError>0.8049839554239946</standardError><azimuthalGap>233.0790557861328</azimuthalGap><maximumDistance>2.517812728881836</maximumDistance><minimumDistance>0.6644741296768188</minimumDistance><medianDistance>1.299010157585144</medianDistance></quality><uncertainty><minHorizontalUncertainty>12.584882736206055</minHorizontalUncertainty><maxHorizontalUncertainty>48.23738479614258</maxHorizontalUncertainty><azimuthMaxHorizontalUncertainty>78.85589599609375</azimuthMaxHorizontalUncertainty><preferredDescription>horizontal uncertainty</preferredDescription></uncertainty><evaluationMode>automatic</evaluationMode><evaluationStatus>confirmed</evaluationStatus><comment><text>0.21</text><id>mismatchScore</id></comment><comment><text>mismatchScore</text><id>scevalMethod</id></comment><arrival><pickID>de.gempa.tb1.Pick/20250412153026.586094.124938</pickID><phase>P</phase><azimuth>250.1405792236328</azimuth><distance>1.191066861152649</distance><timeResidual>-1.454559326171875</timeResidual><timeUsed>true</timeUsed><horizontalSlownessUsed>false</horizontalSlownessUsed><backazimuthUsed>false</backazimuthUsed><weight>1</weight></arrival><arrival><pickID>de.gempa.tb1.Pick/20250412153027.595097.124940</pickID><phase>P</phase><azimuth>304.1794738769531</azimuth><distance>1.0634195804595947</distance><timeResidual>0.7661762237548828</timeResidual><timeUsed>true</timeUsed><horizontalSlownessUsed>false</horizontalSlownessUsed><backazimuthUsed>false</backazimuthUsed><weight>1</weight></arrival><arrival><pickID>de.gempa.tb1.Pick/20250412153029.472716.124942</pickID><phase>P</phase><azimuth>284.2383117675781</azimuth><distance>1.299010157585144</distance><timeResidual>0.7046680450439453</timeResidual><timeUsed>true</timeUsed><horizontalSlownessUsed>false</horizontalSlownessUsed><backazimuthUsed>false</backazimuthUsed><weight>1</weight></arrival><arrival><pickID>de.gempa.tb1.Pick/20250412153031.528173.124944</pickID><phase>P</phase><azimuth>256.8788757324219</azimuth><distance>0.6644741296768188</distance><timeResidual>-0.3340339660644531</timeResidual><timeUsed>true</timeUsed><horizontalSlownessUsed>false</horizontalSlownessUsed><backazimuthUsed>false</backazimuthUsed><weight>1</weight></arrival><arrival><pickID>de.gempa.tb1.Pick/20250412153035.283968.124947</pickID><phase>P</phase><azimuth>298.42401123046875</azimuth><distance>1.7097114324569702</distance><timeResidual>0.782815933227539</timeResidual><timeUsed>true</timeUsed><horizontalSlownessUsed>false</horizontalSlownessUsed><backazimuthUsed>false</backazimuthUsed><weight>1</weight></arrival><arrival><pickID>de.gempa.tb1.Pick/20250412153042.618634.124949</pickID><phase>P</phase><azimuth>323.7876892089844</azimuth><distance>2.517812728881836</distance><timeResidual>-1.01568603515625</timeResidual><timeUsed>true</timeUsed><horizontalSlownessUsed>false</horizontalSlownessUsed><backazimuthUsed>false</backazimuthUsed><weight>1</weight></arrival><arrival><pickID>de.gempa.tb1.Pick/20250412153042.619063.124951</pickID><phase>P</phase><azimuth>196.8667449951172</azimuth><distance>2.35071063041687</distance><timeResidual>0.4716110229492188</timeResidual><timeUsed>true</timeUsed><horizontalSlownessUsed>false</horizontalSlownessUsed><backazimuthUsed>false</backazimuthUsed><weight>1</weight></arrival><arrival><pickID>de.gempa.tb1.Pick/20250412153048.975275.124955</pickID><phase>P</phase><azimuth>266.0814208984375</azimuth><distance>1.2493810653686523</distance><timeResidual>0.07907485961914062</timeResidual><timeUsed>true</timeUsed><horizontalSlownessUsed>false</horizontalSlownessUsed><backazimuthUsed>false</backazimuthUsed><weight>1</weight></arrival><magnitude publicID="de.gempa.tb1.Magnitude/20250412153202.401838.246617"><magnitude><value>2.39150517605184</value></magnitude><type>M</type><methodID>weighted average</methodID><stationCount>3</stationCount></magnitude></origin><event publicID="gempa2025hftf"><preferredOriginID>de.gempa.tb1.Origin/20250412153049.178669.85811</preferredOriginID><preferredMagnitudeID>de.gempa.tb1.Magnitude/20250412153202.401838.246617</preferredMagnitudeID><description><text>Chile-Bolivia Border Region</text><type>region name</type></description><originReference>de.gempa.tb1.Origin/20250412153049.178669.85811</originReference></event></EventParameters></seiscomp>