<?xml version="1.0" encoding="UTF-8"?>
<seiscomp xmlns="http://geofon.gfz-potsdam.de/ns/seiscomp3-schema/0.13" version="0.13"><EventParameters><pick publicID="de.gempa.tb1.Pick/20250415012639.580229.142655"><time><value>2025-04-15T01:26:32.138393Z</value></time><waveformID networkCode="CX" stationCode="PB01" channelCode="HHZ"/><filterID>ITAPER(4)&gt;&gt;BW(4,4,20)</filterID><methodID>AIC</methodID><horizontalSlowness><value>17.712004758180502</value></horizontalSlowness><backazimuth><value>129.51127902628932</value></backazimuth><phaseHint>P</phaseHint><evaluationMode>automatic</evaluationMode><comment><text>14.775154815105441</text><id>DFX:rectilinearity</id></comment><comment><text>14.85593557828059</text><id>SNR</id></comment></pick><pick publicID="de.gempa.tb1.Pick/20250415012640.367735.142657"><time><value>2025-04-15T01:26:29.729998Z</value></time><waveformID networkCode="CX" stationCode="PB09" channelCode="HHZ"/><filterID>ITAPER(4)&gt;&gt;BW(4,4,20)</filterID><methodID>AIC</methodID><horizontalSlowness><value>2.720907075995424</value></horizontalSlowness><backazimuth><value>313.01264247698697</value></backazimuth><phaseHint>P</phaseHint><evaluationMode>automatic</evaluationMode><comment><text>10.72967262535507</text><id>DFX:rectilinearity</id></comment><comment><text>18.0279072868238</text><id>SNR</id></comment></pick><pick publicID="de.gempa.tb1.Pick/20250415012640.499931.142659"><time><value>2025-04-15T01:26:35.148394Z</value></time><waveformID networkCode="CX" stationCode="PB02" channelCode="HHZ"/><filterID>ITAPER(4)&gt;&gt;BW(4,4,20)</filterID><methodID>AIC</methodID><horizontalSlowness><value>2.841998417201846</value></horizontalSlowness><backazimuth><value>331.8182404034252</value></backazimuth><phaseHint>P</phaseHint><evaluationMode>automatic</evaluationMode><comment><text>47.59562724755656</text><id>DFX:rectilinearity</id></comment><comment><text>14.003244755765973</text><id>SNR</id></comment></pick><pick publicID="de.gempa.tb1.Pick/20250415012647.406209.142661"><time><value>2025-04-15T01:26:39.559999Z</value></time><waveformID networkCode="CX" stationCode="PATCX" channelCode="HHZ"/><filterID>ITAPER(4)&gt;&gt;BW(4,4,20)</filterID><methodID>AIC</methodID><horizontalSlowness><value>13.790693676161036</value></horizontalSlowness><backazimuth><value>12.13340400558559</value></backazimuth><phaseHint>P</phaseHint><evaluationMode>automatic</evaluationMode><comment><text>85.0587333002506</text><id>DFX:rectilinearity</id></comment><comment><text>13.076530556193475</text><id>SNR</id></comment></pick><pick publicID="de.gempa.tb1.Pick/20250415012655.989767.142663"><time><value>2025-04-15T01:26:34.838393Z</value></time><waveformID networkCode="CX" stationCode="PB07" channelCode="HHZ"/><filterID>ITAPER(4)&gt;&gt;BW(4,4,20)</filterID><methodID>AIC</methodID><horizontalSlowness><value>21.50183389091261</value></horizontalSlowness><backazimuth><value>93.61456387166744</value></backazimuth><phaseHint>P</phaseHint><evaluationMode>automatic</evaluationMode><comment><text>439.88891819773443</text><id>DFX:rectilinearity</id></comment><comment><text>27.165539488794046</text><id>SNR</id></comment></pick><pick publicID="de.gempa.tb1.Pick/20250415012702.97486.142669"><time><value>2025-04-15T01:26:53.838393Z</value></time><waveformID networkCode="CX" stationCode="PB07" channelCode="HHN"/><filterID>ITAPER(2)&gt;&gt;BW(3,3,20)</filterID><methodID>L2-AIC-GRID</methodID><horizontalSlowness><value>20.781840201379332</value></horizontalSlowness><backazimuth><value>223.33884236065285</value></backazimuth><phaseHint>S</phaseHint><evaluationMode>automatic</evaluationMode><comment><text>1192.235345190522</text><id>DFX:rectilinearity</id></comment><comment><text>de.gempa.tb1.Pick/20250415012655.989767.142663</text><id>RefPickID</id></comment><comment><text>8.278639951939095</text><id>SNR</id></comment></pick><pick publicID="de.gempa.tb1.Pick/20250415012704.552966.142670"><time><value>2025-04-15T01:26:54.378394Z</value></time><waveformID networkCode="CX" stationCode="PB02" channelCode="HHN"/><filterID>ITAPER(2)&gt;&gt;BW(3,3,20)</filterID><methodID>L2-AIC-GRID</methodID><horizontalSlowness><value>21.485934906527678</value></horizontalSlowness><backazimuth><value>64.69442082438056</value></backazimuth><phaseHint>S</phaseHint><evaluationMode>automatic</evaluationMode><comment><text>82.23379098797086</text><id>DFX:rectilinearity</id></comment><comment><text>de.gempa.tb1.Pick/20250415012640.499931.142659</text><id>RefPickID</id></comment><comment><text>6.058143275315822</text><id>SNR</id></comment></pick><pick publicID="de.gempa.tb1.Pick/20250415012711.286689.142673"><time><value>2025-04-15T01:27:02.269999Z</value></time><waveformID networkCode="CX" stationCode="PATCX" channelCode="HHN"/><filterID>ITAPER(2)&gt;&gt;BW(3,3,20)</filterID><methodID>L2-AIC-GRID</methodID><horizontalSlowness><value>23.204179832222586</value></horizontalSlowness><backazimuth><value>214.59918855923098</value></backazimuth><phaseHint>S</phaseHint><evaluationMode>automatic</evaluationMode><comment><text>213.8908824442234</text><id>DFX:rectilinearity</id></comment><comment><text>de.gempa.tb1.Pick/20250415012647.406209.142661</text><id>RefPickID</id></comment><comment><text>5.586015427548508</text><id>SNR</id></comment></pick><origin publicID="de.gempa.tb1.Origin/20250415012711.294625.157317"><time><value>2025-04-15T01:26:10.278298Z</value><uncertainty>1.4444210529327393</uncertainty></time><latitude><value>-21.5461368560791</value><uncertainty>11.695391654968262</uncertainty></latitude><longitude><value>-68.56878662109375</value><uncertainty>14.34215545654297</uncertainty></longitude><depth><value>121.00039672851562</value><uncertainty>23.62849426269531</uncertainty></depth><depthType>from location</depthType><methodID>LOCSAT</methodID><earthModelID>iasp91_scanloc</earthModelID><quality><associatedPhaseCount>8</associatedPhaseCount><usedPhaseCount>8</usedPhaseCount><associatedStationCount>5</associatedStationCount><usedStationCount>5</usedStationCount><depthPhaseCount>0</depthPhaseCount><standardError>0.11616118589770168</standardError><azimuthalGap>308.0626983642578</azimuthalGap><maximumDistance>1.6451342105865479</maximumDistance><minimumDistance>0.6738266944885254</minimumDistance><medianDistance>1.2569090127944946</medianDistance></quality><uncertainty><minHorizontalUncertainty>17.97492218017578</minHorizontalUncertainty><maxHorizontalUncertainty>35.379844665527344</maxHorizontalUncertainty><azimuthMaxHorizontalUncertainty>54.9764404296875</azimuthMaxHorizontalUncertainty><preferredDescription>horizontal uncertainty</preferredDescription></uncertainty><evaluationMode>automatic</evaluationMode><evaluationStatus>confirmed</evaluationStatus><comment><text>0.06</text><id>mismatchScore</id></comment><comment><text>mismatchScore</text><id>scevalMethod</id></comment><arrival><pickID>de.gempa.tb1.Pick/20250415012639.580229.142655</pickID><phase>P</phase><azimuth>300.1254577636719</azimuth><distance>0.9920957088470459</distance><timeResidual>-0.22402000427246094</timeResidual><timeUsed>true</timeUsed><horizontalSlownessUsed>false</horizontalSlownessUsed><backazimuthUsed>false</backazimuthUsed><weight>1</weight></arrival><arrival><pickID>de.gempa.tb1.Pick/20250415012640.367735.142657</pickID><phase>P</phase><azimuth>248.1881561279297</azimuth><distance>0.6738266944885254</distance><timeResidual>0.16432571411132812</timeResidual><timeUsed>true</timeUsed><horizontalSlownessUsed>false</horizontalSlownessUsed><backazimuthUsed>false</backazimuthUsed><weight>1</weight></arrival><arrival><pickID>de.gempa.tb1.Pick/20250415012640.499931.142659</pickID><phase>P</phase><azimuth>280.0840759277344</azimuth><distance>1.2569090127944946</distance><timeResidual>0.05721473693847656</timeResidual><timeUsed>true</timeUsed><horizontalSlownessUsed>false</horizontalSlownessUsed><backazimuthUsed>false</backazimuthUsed><weight>1</weight></arrival><arrival><pickID>de.gempa.tb1.Pick/20250415012647.406209.142661</pickID><phase>P</phase><azimuth>295.73870849609375</azimuth><distance>1.6451342105865479</distance><timeResidual>0.04834938049316406</timeResidual><timeUsed>true</timeUsed><horizontalSlownessUsed>false</horizontalSlownessUsed><backazimuthUsed>false</backazimuthUsed><weight>1</weight></arrival><arrival><pickID>de.gempa.tb1.Pick/20250415012655.989767.142663</pickID><phase>P</phase><azimuth>261.42034912109375</azimuth><distance>1.238774061203003</distance><timeResidual>-0.05469894409179688</timeResidual><timeUsed>true</timeUsed><horizontalSlownessUsed>false</horizontalSlownessUsed><backazimuthUsed>false</backazimuthUsed><weight>1</weight></arrival><arrival><pickID>de.gempa.tb1.Pick/20250415012702.97486.142669</pickID><phase>S</phase><azimuth>261.42034912109375</azimuth><distance>1.238774061203003</distance><timeResidual>-0.11849403381347656</timeResidual><timeUsed>true</timeUsed><horizontalSlownessUsed>false</horizontalSlownessUsed><backazimuthUsed>false</backazimuthUsed><weight>1</weight></arrival><arrival><pickID>de.gempa.tb1.Pick/20250415012704.552966.142670</pickID><phase>S</phase><azimuth>280.0840759277344</azimuth><distance>1.2569090127944946</distance><timeResidual>0.06828117370605469</timeResidual><timeUsed>true</timeUsed><horizontalSlownessUsed>false</horizontalSlownessUsed><backazimuthUsed>false</backazimuthUsed><weight>1</weight></arrival><arrival><pickID>de.gempa.tb1.Pick/20250415012711.286689.142673</pickID><phase>S</phase><azimuth>295.73870849609375</azimuth><distance>1.6451342105865479</distance><timeResidual>0.05876350402832031</timeResidual><timeUsed>true</timeUsed><horizontalSlownessUsed>false</horizontalSlownessUsed><backazimuthUsed>false</backazimuthUsed><weight>1</weight></arrival><magnitude publicID="de.gempa.tb1.Magnitude/20250415012715.936576.558690"><magnitude><value>2.285630071478797</value></magnitude><type>M</type><methodID>weighted average</methodID><stationCount>2</stationCount></magnitude></origin><event publicID="gempa2025hkfd"><preferredOriginID>de.gempa.tb1.Origin/20250415012711.294625.157317</preferredOriginID><preferredMagnitudeID>de.gempa.tb1.Magnitude/20250415012715.936576.558690</preferredMagnitudeID><description><text>Chile-Bolivia Border Region</text><type>region name</type></description><originReference>de.gempa.tb1.Origin/20250415012711.294625.157317</originReference></event></EventParameters></seiscomp>