<?xml version="1.0" encoding="UTF-8"?>
<seiscomp xmlns="http://geofon.gfz-potsdam.de/ns/seiscomp3-schema/0.13" version="0.13"><EventParameters><pick publicID="de.gempa.tb1.Pick/20250414095834.773873.253444"><time><value>2025-04-14T09:58:28.48Z</value></time><waveformID networkCode="TH" stationCode="RANIS" channelCode="HHZ"/><filterID>ITAPER(2)&gt;&gt;BW(3,3,20)</filterID><methodID>AIC</methodID><horizontalSlowness><value>18.073131420212224</value></horizontalSlowness><backazimuth><value>320.73193616167617</value></backazimuth><phaseHint>P</phaseHint><evaluationMode>automatic</evaluationMode><comment><text>1710926.9670646489</text><id>DFX:rectilinearity</id></comment></pick><pick publicID="de.gempa.tb1.Pick/20250414095834.930206.253446"><time><value>2025-04-14T09:58:33.17Z</value></time><waveformID networkCode="TH" stationCode="MORAS" channelCode="HHZ"/><filterID>ITAPER(2)&gt;&gt;BW(3,3,20)</filterID><methodID>AIC</methodID><horizontalSlowness><value>12.246507059162864</value></horizontalSlowness><backazimuth><value>66.0549578059102</value></backazimuth><phaseHint>P</phaseHint><evaluationMode>automatic</evaluationMode><comment><text>21.63014042623957</text><id>DFX:rectilinearity</id></comment></pick><pick publicID="de.gempa.tb1.Pick/20250414095835.005783.253448"><time><value>2025-04-14T09:58:32.69Z</value></time><waveformID networkCode="TH" stationCode="MLFH" channelCode="HHZ"/><filterID>ITAPER(2)&gt;&gt;BW(3,3,20)</filterID><methodID>AIC</methodID><horizontalSlowness><value>17.05105795520931</value></horizontalSlowness><backazimuth><value>244.76688803628656</value></backazimuth><phaseHint>P</phaseHint><evaluationMode>automatic</evaluationMode><comment><text>12.321357604282442</text><id>DFX:rectilinearity</id></comment></pick><pick publicID="de.gempa.tb1.Pick/20250414095836.477017.253452"><time><value>2025-04-14T09:58:31.104999Z</value></time><waveformID networkCode="TH" stationCode="ZEU" channelCode="HHZ"/><filterID>ITAPER(2)&gt;&gt;BW(3,3,20)</filterID><methodID>AIC</methodID><horizontalSlowness><value>19.456426846285062</value></horizontalSlowness><backazimuth><value>20.15166073232649</value></backazimuth><phaseHint>P</phaseHint><evaluationMode>automatic</evaluationMode><comment><text>5706.30851207418</text><id>DFX:rectilinearity</id></comment></pick><pick publicID="de.gempa.tb1.Pick/20250414095838.022264.253454"><time><value>2025-04-14T09:58:35.035Z</value></time><waveformID networkCode="TH" stationCode="HKWD" channelCode="HHZ"/><filterID>ITAPER(2)&gt;&gt;BW(3,3,20)</filterID><methodID>AIC</methodID><horizontalSlowness><value>19.822420479396186</value></horizontalSlowness><backazimuth><value>222.33323008447303</value></backazimuth><phaseHint>P</phaseHint><evaluationMode>automatic</evaluationMode><comment><text>123.78149321134055</text><id>DFX:rectilinearity</id></comment></pick><pick publicID="de.gempa.tb1.Pick/20250414095838.352097.253456"><time><value>2025-04-14T09:58:34.034999Z</value></time><waveformID networkCode="TH" stationCode="GRZ1" channelCode="HHZ"/><filterID>ITAPER(2)&gt;&gt;BW(3,3,20)</filterID><methodID>AIC</methodID><horizontalSlowness><value>17.34413361539628</value></horizontalSlowness><backazimuth><value>286.37461990595756</value></backazimuth><phaseHint>P</phaseHint><evaluationMode>automatic</evaluationMode><comment><text>115.5150618845015</text><id>DFX:rectilinearity</id></comment></pick><pick publicID="de.gempa.tb1.Pick/20250414095838.489928.253458"><time><value>2025-04-14T09:58:33.16Z</value></time><waveformID networkCode="TH" stationCode="LEIB1" channelCode="HHZ"/><filterID>ITAPER(2)&gt;&gt;BW(3,3,20)</filterID><methodID>AIC</methodID><horizontalSlowness><value>13.852683771595517</value></horizontalSlowness><backazimuth><value>70.36075654051375</value></backazimuth><phaseHint>P</phaseHint><evaluationMode>automatic</evaluationMode><comment><text>30.03561440127279</text><id>DFX:rectilinearity</id></comment></pick><pick publicID="de.gempa.tb1.Pick/20250414095840.486612.253460"><time><value>2025-04-14T09:58:34.704999Z</value></time><waveformID networkCode="TH" stationCode="ZEU" channelCode="HHN"/><filterID>ITAPER(3)&gt;&gt;BW(4,3,10)</filterID><methodID>L2-AIC-GRID</methodID><horizontalSlowness><value>21.064490242153102</value></horizontalSlowness><backazimuth><value>207.83484890061555</value></backazimuth><phaseHint>S</phaseHint><evaluationMode>automatic</evaluationMode><comment><text>487837.6859419637</text><id>DFX:rectilinearity</id></comment><comment><text>de.gempa.tb1.Pick/20250414095836.477017.253452</text><id>RefPickID</id></comment></pick><pick publicID="de.gempa.tb1.Pick/20250414095840.982989.253461"><time><value>2025-04-14T09:58:33.769999Z</value></time><waveformID networkCode="TH" stationCode="GEIDO" channelCode="HHZ"/><filterID>ITAPER(2)&gt;&gt;BW(3,3,20)</filterID><methodID>AIC</methodID><horizontalSlowness><value>10.689048562745116</value></horizontalSlowness><backazimuth><value>236.6019594342544</value></backazimuth><phaseHint>P</phaseHint><evaluationMode>automatic</evaluationMode><comment><text>179.30249775258815</text><id>DFX:rectilinearity</id></comment></pick><pick publicID="de.gempa.tb1.Pick/20250414095841.31557.253463"><time><value>2025-04-14T09:58:36.795Z</value></time><waveformID networkCode="TH" stationCode="MLFH" channelCode="HHN"/><filterID>ITAPER(3)&gt;&gt;BW(4,3,10)</filterID><methodID>L2-AIC-GRID</methodID><horizontalSlowness><value>21.266160430498072</value></horizontalSlowness><backazimuth><value>326.4847074135641</value></backazimuth><phaseHint>S</phaseHint><evaluationMode>automatic</evaluationMode><comment><text>2363.644547580379</text><id>DFX:rectilinearity</id></comment><comment><text>de.gempa.tb1.Pick/20250414095835.005783.253448</text><id>RefPickID</id></comment></pick><pick publicID="de.gempa.tb1.Pick/20250414095843.602602.253472"><time><value>2025-04-14T09:58:36.64Z</value></time><waveformID networkCode="SX" stationCode="TRIB" channelCode="HHZ"/><filterID>ITAPER(2)&gt;&gt;BW(3,3,20)</filterID><methodID>AIC</methodID><horizontalSlowness><value>14.076422409823248</value></horizontalSlowness><backazimuth><value>323.9954057568768</value></backazimuth><phaseHint>P</phaseHint><evaluationMode>automatic</evaluationMode><comment><text>6.857819972893742</text><id>DFX:rectilinearity</id></comment></pick><pick publicID="de.gempa.tb1.Pick/20250414095844.818146.253474"><time><value>2025-04-14T09:58:42.06Z</value></time><waveformID networkCode="BW" stationCode="MANZ" channelCode="HHZ"/><filterID>ITAPER(2)&gt;&gt;BW(3,3,20)</filterID><methodID>AIC</methodID><horizontalSlowness><value>9.358440168253651</value></horizontalSlowness><backazimuth><value>293.90482328780536</value></backazimuth><phaseHint>P</phaseHint><evaluationMode>automatic</evaluationMode><comment><text>13.12927789961669</text><id>DFX:rectilinearity</id></comment></pick><pick publicID="de.gempa.tb1.Pick/20250414095844.914745.253476"><time><value>2025-04-14T09:58:36.25Z</value></time><waveformID networkCode="SX" stationCode="SCHF" channelCode="HHZ"/><filterID>ITAPER(2)&gt;&gt;BW(3,3,20)</filterID><methodID>AIC</methodID><horizontalSlowness><value>14.444177988737717</value></horizontalSlowness><backazimuth><value>231.6620564965193</value></backazimuth><phaseHint>P</phaseHint><evaluationMode>automatic</evaluationMode><comment><text>14.454439534734336</text><id>DFX:rectilinearity</id></comment></pick><pick publicID="de.gempa.tb1.Pick/20250414095847.545802.253488"><time><value>2025-04-14T09:58:37.25Z</value></time><waveformID networkCode="TH" stationCode="LEIB1" channelCode="HHN"/><filterID>ITAPER(3)&gt;&gt;BW(4,3,10)</filterID><methodID>L2-AIC-GRID</methodID><horizontalSlowness><value>19.728478326889668</value></horizontalSlowness><backazimuth><value>166.5474262984504</value></backazimuth><phaseHint>S</phaseHint><evaluationMode>automatic</evaluationMode><comment><text>1702.479190711438</text><id>DFX:rectilinearity</id></comment><comment><text>de.gempa.tb1.Pick/20250414095838.489928.253458</text><id>RefPickID</id></comment></pick><origin publicID="de.gempa.tb1.Origin/20250414095848.913639.226290"><time><value>2025-04-14T09:58:26.533962Z</value><uncertainty>0.5985565781593323</uncertainty></time><latitude><value>50.72806167602539</value><uncertainty>5.065115451812744</uncertainty></latitude><longitude><value>11.628623962402344</value><uncertainty>2.2354393005371094</uncertainty></longitude><depth><value>3.3463757038116455</value><uncertainty>2.369265079498291</uncertainty></depth><depthType>from location</depthType><methodID>LOCSAT</methodID><earthModelID>iasp91</earthModelID><quality><associatedPhaseCount>14</associatedPhaseCount><usedPhaseCount>14</usedPhaseCount><associatedStationCount>11</associatedStationCount><usedStationCount>11</usedStationCount><depthPhaseCount>0</depthPhaseCount><standardError>0.1442360862331447</standardError><azimuthalGap>194.54094696044922</azimuthalGap><maximumDistance>0.8038092851638794</maximumDistance><minimumDistance>0.07746227830648422</minimumDistance><medianDistance>0.3211265802383423</medianDistance></quality><uncertainty><minHorizontalUncertainty>3.416282653808594</minHorizontalUncertainty><maxHorizontalUncertainty>11.366509437561035</maxHorizontalUncertainty><azimuthMaxHorizontalUncertainty>161.94073486328125</azimuthMaxHorizontalUncertainty><preferredDescription>horizontal uncertainty</preferredDescription></uncertainty><evaluationMode>automatic</evaluationMode><evaluationStatus>confirmed</evaluationStatus><comment><text>0.04</text><id>mismatchScore</id></comment><comment><text>mismatchScore</text><id>scevalMethod</id></comment><arrival><pickID>de.gempa.tb1.Pick/20250414095834.773873.253444</pickID><phase>P</phase><azimuth>211.89256286621094</azimuth><distance>0.07746227830648422</distance><timeResidual>-0.1149461269378662</timeResidual><timeUsed>true</timeUsed><horizontalSlownessUsed>false</horizontalSlownessUsed><backazimuthUsed>false</backazimuthUsed><weight>1</weight></arrival><arrival><pickID>de.gempa.tb1.Pick/20250414095834.930206.253446</pickID><phase>P</phase><azimuth>233.3854064941406</azimuth><distance>0.3211265802383423</distance><timeResidual>0.0574798583984375</timeResidual><timeUsed>true</timeUsed><horizontalSlownessUsed>false</horizontalSlownessUsed><backazimuthUsed>false</backazimuthUsed><weight>1</weight></arrival><arrival><pickID>de.gempa.tb1.Pick/20250414095835.005783.253448</pickID><phase>P</phase><azimuth>77.67617797851562</azimuth><distance>0.2938416600227356</distance><timeResidual>0.0838322639465332</timeResidual><timeUsed>true</timeUsed><horizontalSlownessUsed>false</horizontalSlownessUsed><backazimuthUsed>false</backazimuthUsed><weight>1</weight></arrival><arrival><pickID>de.gempa.tb1.Pick/20250414095836.477017.253452</pickID><phase>P</phase><azimuth>104.40931701660156</azimuth><distance>0.22896407544612885</distance><timeResidual>-0.29863810539245605</timeResidual><timeUsed>true</timeUsed><horizontalSlownessUsed>false</horizontalSlownessUsed><backazimuthUsed>false</backazimuthUsed><weight>1</weight></arrival><arrival><pickID>de.gempa.tb1.Pick/20250414095838.022264.253454</pickID><phase>P</phase><azimuth>75.68006134033203</azimuth><distance>0.41854628920555115</distance><timeResidual>0.11700057983398438</timeResidual><timeUsed>true</timeUsed><horizontalSlownessUsed>false</horizontalSlownessUsed><backazimuthUsed>false</backazimuthUsed><weight>1</weight></arrival><arrival><pickID>de.gempa.tb1.Pick/20250414095838.352097.253456</pickID><phase>P</phase><azimuth>95.44229125976562</azimuth><distance>0.3776143789291382</distance><timeResidual>-0.12444019317626953</timeResidual><timeUsed>true</timeUsed><horizontalSlownessUsed>false</horizontalSlownessUsed><backazimuthUsed>false</backazimuthUsed><weight>1</weight></arrival><arrival><pickID>de.gempa.tb1.Pick/20250414095838.489928.253458</pickID><phase>P</phase><azimuth>241.1391143798828</azimuth><distance>0.3136478066444397</distance><timeResidual>0.18621063232421875</timeResidual><timeUsed>true</timeUsed><horizontalSlownessUsed>false</horizontalSlownessUsed><backazimuthUsed>false</backazimuthUsed><weight>1</weight></arrival><arrival><pickID>de.gempa.tb1.Pick/20250414095840.486612.253460</pickID><phase>S</phase><azimuth>104.40931701660156</azimuth><distance>0.22896407544612885</distance><timeResidual>0.06690597534179688</timeResidual><timeUsed>true</timeUsed><horizontalSlownessUsed>false</horizontalSlownessUsed><backazimuthUsed>false</backazimuthUsed><weight>1</weight></arrival><arrival><pickID>de.gempa.tb1.Pick/20250414095840.982989.253461</pickID><phase>P</phase><azimuth>88.63605499267578</azimuth><distance>0.3631168007850647</distance><timeResidual>-0.12057733535766602</timeResidual><timeUsed>true</timeUsed><horizontalSlownessUsed>false</horizontalSlownessUsed><backazimuthUsed>false</backazimuthUsed><weight>1</weight></arrival><arrival><pickID>de.gempa.tb1.Pick/20250414095841.31557.253463</pickID><phase>S</phase><azimuth>77.67617797851562</azimuth><distance>0.2938416600227356</distance><timeResidual>0.07587099075317383</timeResidual><timeUsed>true</timeUsed><horizontalSlownessUsed>false</horizontalSlownessUsed><backazimuthUsed>false</backazimuthUsed><weight>1</weight></arrival><arrival><pickID>de.gempa.tb1.Pick/20250414095843.602602.253472</pickID><phase>P</phase><azimuth>139.059326171875</azimuth><distance>0.4969953894615173</distance><timeResidual>0.26665639877319336</timeResidual><timeUsed>true</timeUsed><horizontalSlownessUsed>false</horizontalSlownessUsed><backazimuthUsed>false</backazimuthUsed><weight>1</weight></arrival><arrival><pickID>de.gempa.tb1.Pick/20250414095844.818146.253474</pickID><phase>P</phase><azimuth>157.34292602539062</azimuth><distance>0.8038092851638794</distance><timeResidual>-0.0021414756774902344</timeResidual><timeUsed>true</timeUsed><horizontalSlownessUsed>false</horizontalSlownessUsed><backazimuthUsed>false</backazimuthUsed><weight>1</weight></arrival><arrival><pickID>de.gempa.tb1.Pick/20250414095844.914745.253476</pickID><phase>P</phase><azimuth>95.60504150390625</azimuth><distance>0.4951065182685852</distance><timeResidual>-0.08766555786132812</timeResidual><timeUsed>true</timeUsed><horizontalSlownessUsed>false</horizontalSlownessUsed><backazimuthUsed>false</backazimuthUsed><weight>1</weight></arrival><arrival><pickID>de.gempa.tb1.Pick/20250414095847.545802.253488</pickID><phase>S</phase><azimuth>241.1391143798828</azimuth><distance>0.3136478066444397</distance><timeResidual>-0.10541105270385742</timeResidual><timeUsed>true</timeUsed><horizontalSlownessUsed>false</horizontalSlownessUsed><backazimuthUsed>false</backazimuthUsed><weight>1</weight></arrival><magnitude publicID="de.gempa.tb1.Magnitude/20250414095929.704605.468599"><magnitude><value>1.887887992680191</value></magnitude><type>M</type><methodID>weighted average</methodID><stationCount>9</stationCount></magnitude></origin><event publicID="gempa2025hjaf"><preferredOriginID>de.gempa.tb1.Origin/20250414095848.913639.226290</preferredOriginID><preferredMagnitudeID>de.gempa.tb1.Magnitude/20250414095929.704605.468599</preferredMagnitudeID><description><text>Germany</text><type>region name</type></description><originReference>de.gempa.tb1.Origin/20250414095848.913639.226290</originReference></event></EventParameters></seiscomp>