<?xml version="1.0" encoding="UTF-8"?>
<seiscomp xmlns="http://geofon.gfz-potsdam.de/ns/seiscomp3-schema/0.13" version="0.13"><EventParameters><pick publicID="de.gempa.tb1.Pick/20250411104630.005202.125726"><time><value>2025-04-11T10:46:26.63Z</value></time><waveformID networkCode="BW" stationCode="ROTZ" channelCode="HHZ"/><filterID>ITAPER(2)&gt;&gt;BW(3,3,20)</filterID><methodID>AIC</methodID><horizontalSlowness><value>10.215568717825777</value></horizontalSlowness><backazimuth><value>50.24301602552219</value></backazimuth><phaseHint>P</phaseHint><evaluationMode>automatic</evaluationMode><comment><text>12.855001508721907</text><id>DFX:rectilinearity</id></comment></pick><pick publicID="de.gempa.tb1.Pick/20250411104630.355538.125730"><time><value>2025-04-11T10:46:28.27Z</value></time><waveformID networkCode="TH" stationCode="FRAU" channelCode="HHZ"/><filterID>ITAPER(2)&gt;&gt;BW(3,3,20)</filterID><methodID>AIC</methodID><horizontalSlowness><value>18.83232768059396</value></horizontalSlowness><backazimuth><value>44.1812099759272</value></backazimuth><phaseHint>P</phaseHint><evaluationMode>automatic</evaluationMode><comment><text>48.06736111681277</text><id>DFX:rectilinearity</id></comment></pick><pick publicID="de.gempa.tb1.Pick/20250411104631.858587.125732"><time><value>2025-04-11T10:46:23.56Z</value></time><waveformID networkCode="SX" stationCode="TANN" channelCode="HHZ"/><filterID>ITAPER(2)&gt;&gt;BW(3,3,20)</filterID><methodID>AIC</methodID><horizontalSlowness><value>14.75012352800841</value></horizontalSlowness><backazimuth><value>122.9825807063286</value></backazimuth><phaseHint>P</phaseHint><evaluationMode>automatic</evaluationMode><comment><text>20.16672632495419</text><id>DFX:rectilinearity</id></comment></pick><pick publicID="de.gempa.tb1.Pick/20250411104632.48722.125734"><time><value>2025-04-11T10:46:23.5975Z</value></time><waveformID networkCode="SX" stationCode="WERN" channelCode="HHZ"/><filterID>ITAPER(2)&gt;&gt;BW(3,3,20)</filterID><methodID>AIC</methodID><horizontalSlowness><value>22.502626345950102</value></horizontalSlowness><backazimuth><value>127.0831646534481</value></backazimuth><phaseHint>P</phaseHint><evaluationMode>automatic</evaluationMode><comment><text>22.047735098644988</text><id>DFX:rectilinearity</id></comment></pick><pick publicID="de.gempa.tb1.Pick/20250411104632.686178.125736"><time><value>2025-04-11T10:46:25.51Z</value></time><waveformID networkCode="SX" stationCode="WERD" channelCode="HHZ"/><filterID>ITAPER(2)&gt;&gt;BW(3,3,20)</filterID><methodID>AIC</methodID><horizontalSlowness><value>19.425343227259294</value></horizontalSlowness><backazimuth><value>81.19697847376884</value></backazimuth><phaseHint>P</phaseHint><evaluationMode>automatic</evaluationMode><comment><text>47.74323216474946</text><id>DFX:rectilinearity</id></comment></pick><pick publicID="de.gempa.tb1.Pick/20250411104633.130588.125738"><time><value>2025-04-11T10:46:25.25Z</value></time><waveformID networkCode="SX" stationCode="LEUT" channelCode="HHZ"/><filterID>ITAPER(2)&gt;&gt;BW(3,3,20)</filterID><methodID>AIC</methodID><horizontalSlowness><value>17.32906820289885</value></horizontalSlowness><backazimuth><value>129.25302904071356</value></backazimuth><phaseHint>P</phaseHint><evaluationMode>automatic</evaluationMode><comment><text>15.554575665580165</text><id>DFX:rectilinearity</id></comment></pick><pick publicID="de.gempa.tb1.Pick/20250411104633.135705.125740"><time><value>2025-04-11T10:46:28.86Z</value></time><waveformID networkCode="TH" stationCode="ANNA" channelCode="HHZ"/><filterID>ITAPER(2)&gt;&gt;BW(3,3,20)</filterID><methodID>AIC</methodID><horizontalSlowness><value>23.304375898793793</value></horizontalSlowness><backazimuth><value>291.02090839260757</value></backazimuth><phaseHint>P</phaseHint><evaluationMode>automatic</evaluationMode><comment><text>35.24754057655889</text><id>DFX:rectilinearity</id></comment></pick><pick publicID="de.gempa.tb1.Pick/20250411104633.869457.125742"><time><value>2025-04-11T10:46:24.29Z</value></time><waveformID networkCode="SX" stationCode="GUNZ" channelCode="HHZ"/><filterID>ITAPER(2)&gt;&gt;BW(3,3,20)</filterID><methodID>AIC</methodID><horizontalSlowness><value>10.804133002092147</value></horizontalSlowness><backazimuth><value>153.29818481244104</value></backazimuth><phaseHint>P</phaseHint><evaluationMode>automatic</evaluationMode><comment><text>11.836672017636674</text><id>DFX:rectilinearity</id></comment></pick><pick publicID="de.gempa.tb1.Pick/20250411104633.926793.125744"><time><value>2025-04-11T10:46:26.54Z</value></time><waveformID networkCode="SX" stationCode="TRIB" channelCode="HHZ"/><filterID>ITAPER(2)&gt;&gt;BW(3,3,20)</filterID><methodID>AIC</methodID><horizontalSlowness><value>20.388039144441581</value></horizontalSlowness><backazimuth><value>90.23065258354242</value></backazimuth><phaseHint>P</phaseHint><evaluationMode>automatic</evaluationMode><comment><text>9.3257320001784</text><id>DFX:rectilinearity</id></comment></pick><pick publicID="de.gempa.tb1.Pick/20250411104634.348046.125746"><time><value>2025-04-11T10:46:24.18Z</value></time><waveformID networkCode="SX" stationCode="MULD" channelCode="HHZ"/><filterID>ITAPER(2)&gt;&gt;BW(3,3,20)</filterID><methodID>AIC</methodID><horizontalSlowness><value>13.011584369574262</value></horizontalSlowness><backazimuth><value>119.11189257300555</value></backazimuth><phaseHint>P</phaseHint><evaluationMode>automatic</evaluationMode><comment><text>13.649991814231967</text><id>DFX:rectilinearity</id></comment></pick><pick publicID="de.gempa.tb1.Pick/20250411104636.519792.125752"><time><value>2025-04-11T10:46:27.345Z</value></time><waveformID networkCode="TH" stationCode="PLN" channelCode="HHZ"/><filterID>ITAPER(2)&gt;&gt;BW(3,3,20)</filterID><methodID>AIC</methodID><horizontalSlowness><value>14.790504422150432</value></horizontalSlowness><backazimuth><value>170.46733668799928</value></backazimuth><phaseHint>P</phaseHint><evaluationMode>automatic</evaluationMode><comment><text>14.38856566487235</text><id>DFX:rectilinearity</id></comment></pick><pick publicID="de.gempa.tb1.Pick/20250411104637.50783.125754"><time><value>2025-04-11T10:46:29.449999Z</value></time><waveformID networkCode="TH" stationCode="GRZ1" channelCode="HHZ"/><filterID>ITAPER(2)&gt;&gt;BW(3,3,20)</filterID><methodID>AIC</methodID><horizontalSlowness><value>12.925981453035144</value></horizontalSlowness><backazimuth><value>113.73714057118939</value></backazimuth><phaseHint>P</phaseHint><evaluationMode>automatic</evaluationMode><comment><text>21.023042296813966</text><id>DFX:rectilinearity</id></comment></pick><pick publicID="de.gempa.tb1.Pick/20250411104639.94152.125758"><time><value>2025-04-11T10:46:37.87Z</value></time><waveformID networkCode="TH" stationCode="MORAS" channelCode="HHZ"/><filterID>ITAPER(2)&gt;&gt;BW(3,3,20)</filterID><methodID>AIC</methodID><horizontalSlowness><value>10.032616032823666</value></horizontalSlowness><backazimuth><value>117.50523501379388</value></backazimuth><phaseHint>P</phaseHint><evaluationMode>automatic</evaluationMode><comment><text>9.706480294997844</text><id>DFX:rectilinearity</id></comment></pick><pick publicID="de.gempa.tb1.Pick/20250411104642.987576.125767"><time><value>2025-04-11T10:46:31.689999Z</value></time><waveformID networkCode="TH" stationCode="MODW" channelCode="HHZ"/><filterID>ITAPER(2)&gt;&gt;BW(3,3,20)</filterID><methodID>AIC</methodID><horizontalSlowness><value>20.319240211673083</value></horizontalSlowness><backazimuth><value>180.21204056832775</value></backazimuth><phaseHint>P</phaseHint><evaluationMode>automatic</evaluationMode><comment><text>30.722802962792485</text><id>DFX:rectilinearity</id></comment></pick><pick publicID="de.gempa.tb1.Pick/20250411104646.534832.125774"><time><value>2025-04-11T10:46:38.37Z</value></time><waveformID networkCode="TH" stationCode="LEIB1" channelCode="HHZ"/><filterID>ITAPER(2)&gt;&gt;BW(3,3,20)</filterID><methodID>AIC</methodID><horizontalSlowness><value>12.88551708293983</value></horizontalSlowness><backazimuth><value>106.96939048234235</value></backazimuth><phaseHint>P</phaseHint><evaluationMode>automatic</evaluationMode><comment><text>29.72870217264454</text><id>DFX:rectilinearity</id></comment></pick><pick publicID="de.gempa.tb1.Pick/20250411104651.044899.125780"><time><value>2025-04-11T10:46:42.62Z</value></time><waveformID networkCode="TH" stationCode="CRUX" channelCode="HHZ"/><filterID>ITAPER(2)&gt;&gt;BW(3,3,20)</filterID><methodID>AIC</methodID><horizontalSlowness><value>19.70396617400317</value></horizontalSlowness><backazimuth><value>110.09624727068685</value></backazimuth><phaseHint>P</phaseHint><evaluationMode>automatic</evaluationMode><comment><text>4.102529592960445</text><id>DFX:rectilinearity</id></comment></pick><origin publicID="de.gempa.tb1.Origin/20250411104700.976144.111653"><time><value>2025-04-11T10:46:13.404578Z</value><uncertainty>1.970184564590454</uncertainty></time><latitude><value>50.12334442138672</value><uncertainty>5.867791652679443</uncertainty></latitude><longitude><value>13.152337074279785</value><uncertainty>12.269975662231445</uncertainty></longitude><depth><value>0</value></depth><depthType>operator assigned</depthType><methodID>LOCSAT</methodID><earthModelID>iasp91</earthModelID><quality><associatedPhaseCount>16</associatedPhaseCount><usedPhaseCount>16</usedPhaseCount><associatedStationCount>16</associatedStationCount><usedStationCount>16</usedStationCount><depthPhaseCount>0</depthPhaseCount><standardError>0.30884453780833976</standardError><azimuthalGap>262.7765197753906</azimuthalGap><maximumDistance>1.585678219795227</maximumDistance><minimumDistance>0.5251346230506897</minimumDistance><medianDistance>0.7337332367897034</medianDistance></quality><uncertainty><minHorizontalUncertainty>9.14974308013916</minHorizontalUncertainty><maxHorizontalUncertainty>27.68123435974121</maxHorizontalUncertainty><azimuthMaxHorizontalUncertainty>109.29021453857422</azimuthMaxHorizontalUncertainty><preferredDescription>horizontal uncertainty</preferredDescription></uncertainty><evaluationMode>automatic</evaluationMode><evaluationStatus>confirmed</evaluationStatus><comment><text>0.45</text><id>mismatchScore</id></comment><comment><text>mismatchScore</text><id>scevalMethod</id></comment><arrival><pickID>de.gempa.tb1.Pick/20250411104630.005202.125726</pickID><phase>P</phase><azimuth>240.06396484375</azimuth><distance>0.7073394060134888</distance><timeResidual>-0.368133544921875</timeResidual><timeUsed>true</timeUsed><horizontalSlownessUsed>false</horizontalSlownessUsed><backazimuthUsed>false</backazimuthUsed><weight>1</weight></arrival><arrival><pickID>de.gempa.tb1.Pick/20250411104630.355538.125730</pickID><phase>P</phase><azimuth>317.2974853515625</azimuth><distance>0.7834920287132263</distance><timeResidual>-0.1741504669189453</timeResidual><timeUsed>true</timeUsed><horizontalSlownessUsed>false</horizontalSlownessUsed><backazimuthUsed>false</backazimuthUsed><weight>1</weight></arrival><arrival><pickID>de.gempa.tb1.Pick/20250411104631.858587.125732</pickID><phase>P</phase><azimuth>303.6178894042969</azimuth><distance>0.5311170220375061</distance><timeResidual>-0.08718395233154297</timeResidual><timeUsed>true</timeUsed><horizontalSlownessUsed>false</horizontalSlownessUsed><backazimuthUsed>false</backazimuthUsed><weight>1</weight></arrival><arrival><pickID>de.gempa.tb1.Pick/20250411104632.48722.125734</pickID><phase>P</phase><azimuth>288.52374267578125</azimuth><distance>0.5251346230506897</distance><timeResidual>0.06381988525390625</timeResidual><timeUsed>true</timeUsed><horizontalSlownessUsed>false</horizontalSlownessUsed><backazimuthUsed>false</backazimuthUsed><weight>1</weight></arrival><arrival><pickID>de.gempa.tb1.Pick/20250411104632.686178.125736</pickID><phase>P</phase><azimuth>301.26275634765625</azimuth><distance>0.6322342753410339</distance><timeResidual>-0.05928421020507812</timeResidual><timeUsed>true</timeUsed><horizontalSlownessUsed>false</horizontalSlownessUsed><backazimuthUsed>false</backazimuthUsed><weight>1</weight></arrival><arrival><pickID>de.gempa.tb1.Pick/20250411104633.130588.125738</pickID><phase>P</phase><azimuth>320.4860534667969</azimuth><distance>0.6301480531692505</distance><timeResidual>-0.27935791015625</timeResidual><timeUsed>true</timeUsed><horizontalSlownessUsed>false</horizontalSlownessUsed><backazimuthUsed>false</backazimuthUsed><weight>1</weight></arrival><arrival><pickID>de.gempa.tb1.Pick/20250411104633.135705.125740</pickID><phase>P</phase><azimuth>337.2874450683594</azimuth><distance>0.8322737216949463</distance><timeResidual>-0.5111246109008789</timeResidual><timeUsed>true</timeUsed><horizontalSlownessUsed>false</horizontalSlownessUsed><backazimuthUsed>false</backazimuthUsed><weight>1</weight></arrival><arrival><pickID>de.gempa.tb1.Pick/20250411104633.869457.125742</pickID><phase>P</phase><azimuth>294.84039306640625</azimuth><distance>0.579224169254303</distance><timeResidual>-0.27174949645996094</timeResidual><timeUsed>true</timeUsed><horizontalSlownessUsed>false</horizontalSlownessUsed><backazimuthUsed>false</backazimuthUsed><weight>1</weight></arrival><arrival><pickID>de.gempa.tb1.Pick/20250411104633.926793.125744</pickID><phase>P</phase><azimuth>289.7362365722656</azimuth><distance>0.6910068392753601</distance><timeResidual>-0.1466655731201172</timeResidual><timeUsed>true</timeUsed><horizontalSlownessUsed>false</horizontalSlownessUsed><backazimuthUsed>false</backazimuthUsed><weight>1</weight></arrival><arrival><pickID>de.gempa.tb1.Pick/20250411104634.348046.125746</pickID><phase>P</phase><azimuth>301.3049621582031</azimuth><distance>0.5604405403137207</distance><timeResidual>-0.024605751037597656</timeResidual><timeUsed>true</timeUsed><horizontalSlownessUsed>false</horizontalSlownessUsed><backazimuthUsed>false</backazimuthUsed><weight>1</weight></arrival><arrival><pickID>de.gempa.tb1.Pick/20250411104636.519792.125752</pickID><phase>P</phase><azimuth>299.9713439941406</azimuth><distance>0.7337332367897034</distance><timeResidual>-0.15363216400146484</timeResidual><timeUsed>true</timeUsed><horizontalSlownessUsed>false</horizontalSlownessUsed><backazimuthUsed>false</backazimuthUsed><weight>1</weight></arrival><arrival><pickID>de.gempa.tb1.Pick/20250411104637.50783.125754</pickID><phase>P</phase><azimuth>313.9490661621094</azimuth><distance>0.8239896893501282</distance><timeResidual>0.23601341247558594</timeResidual><timeUsed>true</timeUsed><horizontalSlownessUsed>false</horizontalSlownessUsed><backazimuthUsed>false</backazimuthUsed><weight>1</weight></arrival><arrival><pickID>de.gempa.tb1.Pick/20250411104639.94152.125758</pickID><phase>P</phase><azimuth>289.2326965332031</azimuth><distance>1.3026704788208008</distance><timeResidual>0.3341827392578125</timeResidual><timeUsed>true</timeUsed><horizontalSlownessUsed>false</horizontalSlownessUsed><backazimuthUsed>false</backazimuthUsed><weight>1</weight></arrival><arrival><pickID>de.gempa.tb1.Pick/20250411104642.987576.125767</pickID><phase>P</phase><azimuth>332.249755859375</azimuth><distance>0.9292474985122681</distance><timeResidual>0.4755744934082031</timeResidual><timeUsed>true</timeUsed><horizontalSlownessUsed>false</horizontalSlownessUsed><backazimuthUsed>false</backazimuthUsed><weight>1</weight></arrival><arrival><pickID>de.gempa.tb1.Pick/20250411104646.534832.125774</pickID><phase>P</phase><azimuth>290.64886474609375</azimuth><distance>1.3316216468811035</distance><timeResidual>0.3679218292236328</timeResidual><timeUsed>true</timeUsed><horizontalSlownessUsed>false</horizontalSlownessUsed><backazimuthUsed>false</backazimuthUsed><weight>1</weight></arrival><arrival><pickID>de.gempa.tb1.Pick/20250411104651.044899.125780</pickID><phase>P</phase><azimuth>288.4929504394531</azimuth><distance>1.585678219795227</distance><timeResidual>0.5977840423583984</timeResidual><timeUsed>true</timeUsed><horizontalSlownessUsed>false</horizontalSlownessUsed><backazimuthUsed>false</backazimuthUsed><weight>1</weight></arrival><magnitude publicID="de.gempa.tb1.Magnitude/20250411104700.984626.120384"><magnitude><value>1.5905564122782403</value></magnitude><type>M</type><methodID>weighted average</methodID><stationCount>13</stationCount></magnitude></origin><event publicID="gempa2025hdnt"><preferredOriginID>de.gempa.tb1.Origin/20250411104700.976144.111653</preferredOriginID><preferredMagnitudeID>de.gempa.tb1.Magnitude/20250411104700.984626.120384</preferredMagnitudeID><description><text>Czech and Slovak Republics</text><type>region name</type></description><originReference>de.gempa.tb1.Origin/20250411104700.976144.111653</originReference></event></EventParameters></seiscomp>