<?xml version="1.0" encoding="UTF-8"?>
<seiscomp xmlns="http://geofon.gfz-potsdam.de/ns/seiscomp3-schema/0.13" version="0.13"><EventParameters><pick publicID="de.gempa.tb1.Pick/20250413074203.554026.129873"><time><value>2025-04-13T07:41:57.988393Z</value></time><waveformID networkCode="CX" stationCode="PB01" channelCode="HHZ"/><filterID>ITAPER(4)&gt;&gt;BW(4,4,20)</filterID><methodID>AIC</methodID><horizontalSlowness><value>21.332267507583698</value></horizontalSlowness><backazimuth><value>256.81460539606127</value></backazimuth><phaseHint>P</phaseHint><evaluationMode>automatic</evaluationMode><comment><text>9.441009132650962</text><id>DFX:rectilinearity</id></comment><comment><text>14.44897577659009</text><id>SNR</id></comment></pick><pick publicID="de.gempa.tb1.Pick/20250413074206.462782.129875"><time><value>2025-04-13T07:42:01.328393Z</value></time><waveformID networkCode="CX" stationCode="PB02" channelCode="HHZ"/><filterID>ITAPER(4)&gt;&gt;BW(4,4,20)</filterID><methodID>AIC</methodID><horizontalSlowness><value>17.054757683769278</value></horizontalSlowness><backazimuth><value>358.93192640553377</value></backazimuth><phaseHint>P</phaseHint><evaluationMode>automatic</evaluationMode><comment><text>29.307606989602096</text><id>DFX:rectilinearity</id></comment><comment><text>12.493254093798473</text><id>SNR</id></comment></pick><pick publicID="de.gempa.tb1.Pick/20250413074218.938785.129879"><time><value>2025-04-13T07:42:00.37Z</value></time><waveformID networkCode="CX" stationCode="PB09" channelCode="HHZ"/><filterID>ITAPER(4)&gt;&gt;BW(4,4,20)</filterID><methodID>AIC</methodID><horizontalSlowness><value>19.42284418452882</value></horizontalSlowness><backazimuth><value>253.47349107990175</value></backazimuth><phaseHint>P</phaseHint><evaluationMode>automatic</evaluationMode><comment><text>12.260504139953348</text><id>DFX:rectilinearity</id></comment><comment><text>13.453722609865956</text><id>SNR</id></comment></pick><pick publicID="de.gempa.tb1.Pick/20250413074220.734501.129881"><time><value>2025-04-13T07:42:10.228393Z</value></time><waveformID networkCode="CX" stationCode="PB01" channelCode="HHN"/><filterID>ITAPER(2)&gt;&gt;BW(3,3,20)</filterID><methodID>L2-AIC-GRID</methodID><horizontalSlowness><value>19.565898044118924</value></horizontalSlowness><backazimuth><value>318.62715460850586</value></backazimuth><phaseHint>S</phaseHint><evaluationMode>automatic</evaluationMode><comment><text>264.30331025569023</text><id>DFX:rectilinearity</id></comment><comment><text>de.gempa.tb1.Pick/20250413074203.554026.129873</text><id>RefPickID</id></comment><comment><text>16.024831867674475</text><id>SNR</id></comment></pick><pick publicID="de.gempa.tb1.Pick/20250413074223.596239.129882"><time><value>2025-04-13T07:42:16.568393Z</value></time><waveformID networkCode="CX" stationCode="PB02" channelCode="HHN"/><filterID>ITAPER(2)&gt;&gt;BW(3,3,20)</filterID><methodID>L2-AIC-GRID</methodID><horizontalSlowness><value>18.510203197504175</value></horizontalSlowness><backazimuth><value>336.44616155692347</value></backazimuth><phaseHint>S</phaseHint><evaluationMode>automatic</evaluationMode><comment><text>147.92088944231787</text><id>DFX:rectilinearity</id></comment><comment><text>de.gempa.tb1.Pick/20250413074206.462782.129875</text><id>RefPickID</id></comment><comment><text>9.315339843939329</text><id>SNR</id></comment></pick><pick publicID="de.gempa.tb1.Pick/20250413074236.477397.129886"><time><value>2025-04-13T07:42:14.86Z</value></time><waveformID networkCode="CX" stationCode="PB09" channelCode="HHN"/><filterID>ITAPER(2)&gt;&gt;BW(3,3,20)</filterID><methodID>L2-AIC-GRID</methodID><horizontalSlowness><value>14.239552370103352</value></horizontalSlowness><backazimuth><value>276.74500945200577</value></backazimuth><phaseHint>S</phaseHint><evaluationMode>automatic</evaluationMode><comment><text>24.47660889633611</text><id>DFX:rectilinearity</id></comment><comment><text>de.gempa.tb1.Pick/20250413074218.938785.129879</text><id>RefPickID</id></comment><comment><text>6.67278850444375</text><id>SNR</id></comment></pick><pick publicID="de.gempa.tb1.Pick/20250413074309.696238.129887"><time><value>2025-04-13T07:42:02.778393Z</value></time><waveformID networkCode="CX" stationCode="PB07" channelCode="HHZ"/><filterID>ITAPER(4)&gt;&gt;BW(4,4,20)</filterID><methodID>AIC</methodID><horizontalSlowness><value>23.235296110084626</value></horizontalSlowness><backazimuth><value>255.4851841183002</value></backazimuth><phaseHint>P</phaseHint><evaluationMode>automatic</evaluationMode><comment><text>319.6940823407203</text><id>DFX:rectilinearity</id></comment><comment><text>12.547755173070014</text><id>SNR</id></comment></pick><pick publicID="de.gempa.tb1.Pick/20250413074313.642232.129889"><time><value>2025-04-13T07:42:19.268393Z</value></time><waveformID networkCode="CX" stationCode="PB07" channelCode="HHN"/><filterID>ITAPER(2)&gt;&gt;BW(3,3,20)</filterID><methodID>L2-AIC-GRID</methodID><horizontalSlowness><value>22.95099731089592</value></horizontalSlowness><backazimuth><value>88.3741941717596</value></backazimuth><phaseHint>S</phaseHint><evaluationMode>automatic</evaluationMode><comment><text>485.2431089393613</text><id>DFX:rectilinearity</id></comment><comment><text>de.gempa.tb1.Pick/20250413074309.696238.129887</text><id>RefPickID</id></comment><comment><text>8.349721050710341</text><id>SNR</id></comment></pick><origin publicID="de.gempa.tb1.Origin/20250413074313.645151.104711"><time><value>2025-04-13T07:41:41.658048Z</value><uncertainty>1.2990891933441162</uncertainty></time><latitude><value>-21.07579231262207</value><uncertainty>7.406933784484863</uncertainty></latitude><longitude><value>-69.04320526123047</value><uncertainty>9.31924057006836</uncertainty></longitude><depth><value>109.36741638183594</value><uncertainty>9.17593765258789</uncertainty></depth><depthType>from location</depthType><methodID>LOCSAT</methodID><earthModelID>iasp91_scanloc</earthModelID><quality><associatedPhaseCount>8</associatedPhaseCount><usedPhaseCount>8</usedPhaseCount><associatedStationCount>4</associatedStationCount><usedStationCount>4</usedStationCount><depthPhaseCount>0</depthPhaseCount><standardError>0.20645318330119714</standardError><azimuthalGap>280.05506896972656</azimuthalGap><maximumDistance>1.0181097984313965</maximumDistance><minimumDistance>0.41614311933517456</minimumDistance><medianDistance>0.8320045471191406</medianDistance></quality><uncertainty><minHorizontalUncertainty>15.31047534942627</minHorizontalUncertainty><maxHorizontalUncertainty>20.426376342773438</maxHorizontalUncertainty><azimuthMaxHorizontalUncertainty>71.78092956542969</azimuthMaxHorizontalUncertainty><preferredDescription>horizontal uncertainty</preferredDescription></uncertainty><evaluationMode>automatic</evaluationMode><evaluationStatus>confirmed</evaluationStatus><comment><text>0.00</text><id>mismatchScore</id></comment><comment><text>mismatchScore</text><id>scevalMethod</id></comment><arrival><pickID>de.gempa.tb1.Pick/20250413074203.554026.129873</pickID><phase>P</phase><azimuth>274.3860778808594</azimuth><distance>0.41614311933517456</distance><timeResidual>0.05256080627441406</timeResidual><timeUsed>true</timeUsed><horizontalSlownessUsed>false</horizontalSlownessUsed><backazimuthUsed>false</backazimuthUsed><weight>1</weight></arrival><arrival><pickID>de.gempa.tb1.Pick/20250413074206.462782.129875</pickID><phase>P</phase><azimuth>252.88490295410156</azimuth><distance>0.8320045471191406</distance><timeResidual>0.15716171264648438</timeResidual><timeUsed>true</timeUsed><horizontalSlownessUsed>false</horizontalSlownessUsed><backazimuthUsed>false</backazimuthUsed><weight>1</weight></arrival><arrival><pickID>de.gempa.tb1.Pick/20250413074218.938785.129879</pickID><phase>P</phase><azimuth>194.44114685058594</azimuth><distance>0.740554928779602</distance><timeResidual>0.035160064697265625</timeResidual><timeUsed>true</timeUsed><horizontalSlownessUsed>false</horizontalSlownessUsed><backazimuthUsed>false</backazimuthUsed><weight>1</weight></arrival><arrival><pickID>de.gempa.tb1.Pick/20250413074220.734501.129881</pickID><phase>S</phase><azimuth>274.3860778808594</azimuth><distance>0.41614311933517456</distance><timeResidual>-0.23105812072753906</timeResidual><timeUsed>true</timeUsed><horizontalSlownessUsed>false</horizontalSlownessUsed><backazimuthUsed>false</backazimuthUsed><weight>1</weight></arrival><arrival><pickID>de.gempa.tb1.Pick/20250413074223.596239.129882</pickID><phase>S</phase><azimuth>252.88490295410156</azimuth><distance>0.8320045471191406</distance><timeResidual>0.3481006622314453</timeResidual><timeUsed>true</timeUsed><horizontalSlownessUsed>false</horizontalSlownessUsed><backazimuthUsed>false</backazimuthUsed><weight>1</weight></arrival><arrival><pickID>de.gempa.tb1.Pick/20250413074236.477397.129886</pickID><phase>S</phase><azimuth>194.44114685058594</azimuth><distance>0.740554928779602</distance><timeResidual>0.1295909881591797</timeResidual><timeUsed>true</timeUsed><horizontalSlownessUsed>false</horizontalSlownessUsed><backazimuthUsed>false</backazimuthUsed><weight>1</weight></arrival><arrival><pickID>de.gempa.tb1.Pick/20250413074309.696238.129887</pickID><phase>P</phase><azimuth>230.34266662597656</azimuth><distance>1.0181097984313965</distance><timeResidual>-0.2418212890625</timeResidual><timeUsed>true</timeUsed><horizontalSlownessUsed>false</horizontalSlownessUsed><backazimuthUsed>false</backazimuthUsed><weight>1</weight></arrival><arrival><pickID>de.gempa.tb1.Pick/20250413074313.642232.129889</pickID><phase>S</phase><azimuth>230.34266662597656</azimuth><distance>1.0181097984313965</distance><timeResidual>-0.24990272521972656</timeResidual><timeUsed>true</timeUsed><horizontalSlownessUsed>false</horizontalSlownessUsed><backazimuthUsed>false</backazimuthUsed><weight>1</weight></arrival></origin><event publicID="gempa2025hgzq"><preferredOriginID>de.gempa.tb1.Origin/20250413074313.645151.104711</preferredOriginID><description><text>Northern Chile</text><type>region name</type></description><originReference>de.gempa.tb1.Origin/20250413074313.645151.104711</originReference></event></EventParameters></seiscomp>