<?xml version="1.0" encoding="UTF-8"?>
<seiscomp xmlns="http://geofon.gfz-potsdam.de/ns/seiscomp3-schema/0.13" version="0.13"><EventParameters><pick publicID="de.gempa.tb1.Pick/20250414081315.372854.136702"><time><value>2025-04-14T08:13:04.13Z</value></time><waveformID networkCode="CX" stationCode="PB09" channelCode="HHZ"/><filterID>ITAPER(4)&gt;&gt;BW(4,4,20)</filterID><methodID>AIC</methodID><horizontalSlowness><value>14.63097701980524</value></horizontalSlowness><backazimuth><value>292.9949977416448</value></backazimuth><phaseHint>P</phaseHint><evaluationMode>automatic</evaluationMode><comment><text>8.923463059489778</text><id>DFX:rectilinearity</id></comment><comment><text>42.474415399696973</text><id>SNR</id></comment></pick><pick publicID="de.gempa.tb1.Pick/20250414081315.570053.136704"><time><value>2025-04-14T08:13:10.268393Z</value></time><waveformID networkCode="CX" stationCode="PB01" channelCode="HHZ"/><filterID>ITAPER(4)&gt;&gt;BW(4,4,20)</filterID><methodID>AIC</methodID><horizontalSlowness><value>16.817316762686648</value></horizontalSlowness><backazimuth><value>234.7177544013457</value></backazimuth><phaseHint>P</phaseHint><evaluationMode>automatic</evaluationMode><comment><text>14.011841599469202</text><id>DFX:rectilinearity</id></comment><comment><text>14.241717142943385</text><id>SNR</id></comment></pick><pick publicID="de.gempa.tb1.Pick/20250414081316.587506.136706"><time><value>2025-04-14T08:13:07.798393Z</value></time><waveformID networkCode="CX" stationCode="PB03" channelCode="HHZ"/><filterID>ITAPER(4)&gt;&gt;BW(4,4,20)</filterID><methodID>AIC</methodID><horizontalSlowness><value>6.354620610906323</value></horizontalSlowness><backazimuth><value>292.53938528733863</value></backazimuth><phaseHint>P</phaseHint><evaluationMode>automatic</evaluationMode><comment><text>4.584505388380923</text><id>DFX:rectilinearity</id></comment><comment><text>10.147912443611716</text><id>SNR</id></comment></pick><pick publicID="de.gempa.tb1.Pick/20250414081317.509016.136708"><time><value>2025-04-14T08:13:11.428393Z</value></time><waveformID networkCode="CX" stationCode="PB02" channelCode="HHZ"/><filterID>ITAPER(4)&gt;&gt;BW(4,4,20)</filterID><methodID>AIC</methodID><horizontalSlowness><value>6.392513947749036</value></horizontalSlowness><backazimuth><value>238.72248217007805</value></backazimuth><phaseHint>P</phaseHint><evaluationMode>automatic</evaluationMode><comment><text>23.576360033081</text><id>DFX:rectilinearity</id></comment><comment><text>13.65212964991158</text><id>SNR</id></comment></pick><pick publicID="de.gempa.tb1.Pick/20250414081331.578884.136710"><time><value>2025-04-14T08:13:24.028393Z</value></time><waveformID networkCode="CX" stationCode="PB03" channelCode="HHN"/><filterID>ITAPER(2)&gt;&gt;BW(3,3,20)</filterID><methodID>L2-AIC-GRID</methodID><horizontalSlowness><value>23.14386205716387</value></horizontalSlowness><backazimuth><value>55.24917327965348</value></backazimuth><phaseHint>S</phaseHint><evaluationMode>automatic</evaluationMode><comment><text>8.088511710616768</text><id>DFX:rectilinearity</id></comment><comment><text>de.gempa.tb1.Pick/20250414081316.587506.136706</text><id>RefPickID</id></comment><comment><text>8.628691538287866</text><id>SNR</id></comment></pick><pick publicID="de.gempa.tb1.Pick/20250414081333.397867.136713"><time><value>2025-04-14T08:13:09.498394Z</value></time><waveformID networkCode="CX" stationCode="PB07" channelCode="HHZ"/><filterID>ITAPER(4)&gt;&gt;BW(4,4,20)</filterID><methodID>AIC</methodID><horizontalSlowness><value>22.555224078354854</value></horizontalSlowness><backazimuth><value>292.49880003940115</value></backazimuth><phaseHint>P</phaseHint><evaluationMode>automatic</evaluationMode><comment><text>234.45703927481114</text><id>DFX:rectilinearity</id></comment><comment><text>22.16048909669903</text><id>SNR</id></comment></pick><origin publicID="de.gempa.tb1.Origin/20250414081333.400957.132185"><time><value>2025-04-14T08:12:46.852696Z</value><uncertainty>2.277509927749634</uncertainty></time><latitude><value>-22.005979537963867</value><uncertainty>18.238712310791016</uncertainty></latitude><longitude><value>-68.7165298461914</value><uncertainty>18.06499481201172</uncertainty></longitude><depth><value>111.55926513671875</value><uncertainty>21.82374382019043</uncertainty></depth><depthType>from location</depthType><methodID>LOCSAT</methodID><earthModelID>iasp91_scanloc</earthModelID><quality><associatedPhaseCount>6</associatedPhaseCount><usedPhaseCount>6</usedPhaseCount><associatedStationCount>5</associatedStationCount><usedStationCount>5</usedStationCount><depthPhaseCount>0</depthPhaseCount><standardError>0.033391836140067903</standardError><azimuthalGap>304.27130126953125</azimuthalGap><maximumDistance>1.2923409938812256</maximumDistance><minimumDistance>0.5306394696235657</minimumDistance><medianDistance>1.1214897632598877</medianDistance></quality><uncertainty><minHorizontalUncertainty>31.843875885009766</minHorizontalUncertainty><maxHorizontalUncertainty>44.908931732177734</maxHorizontalUncertainty><azimuthMaxHorizontalUncertainty>135.82875061035156</azimuthMaxHorizontalUncertainty><preferredDescription>horizontal uncertainty</preferredDescription></uncertainty><evaluationMode>automatic</evaluationMode><evaluationStatus>confirmed</evaluationStatus><comment><text>0.05</text><id>mismatchScore</id></comment><comment><text>mismatchScore</text><id>scevalMethod</id></comment><arrival><pickID>de.gempa.tb1.Pick/20250414081315.372854.136702</pickID><phase>P</phase><azimuth>293.04876708984375</azimuth><distance>0.5306394696235657</distance><timeResidual>0.02834320068359375</timeResidual><timeUsed>true</timeUsed><horizontalSlownessUsed>false</horizontalSlownessUsed><backazimuthUsed>false</backazimuthUsed><weight>1</weight></arrival><arrival><pickID>de.gempa.tb1.Pick/20250414081315.570053.136704</pickID><phase>P</phase><azimuth>323.0181579589844</azimuth><distance>1.197063446044922</distance><timeResidual>-0.04682731628417969</timeResidual><timeUsed>true</timeUsed><horizontalSlownessUsed>false</horizontalSlownessUsed><backazimuthUsed>false</backazimuthUsed><weight>1</weight></arrival><arrival><pickID>de.gempa.tb1.Pick/20250414081316.587506.136706</pickID><phase>P</phase><azimuth>267.2894592285156</azimuth><distance>0.9627345204353333</distance><timeResidual>-0.03490257263183594</timeResidual><timeUsed>true</timeUsed><horizontalSlownessUsed>false</horizontalSlownessUsed><backazimuthUsed>false</backazimuthUsed><weight>1</weight></arrival><arrival><pickID>de.gempa.tb1.Pick/20250414081317.509016.136708</pickID><phase>P</phase><azimuth>301.68084716796875</azimuth><distance>1.2923409938812256</distance><timeResidual>0.04843330383300781</timeResidual><timeUsed>true</timeUsed><horizontalSlownessUsed>false</horizontalSlownessUsed><backazimuthUsed>false</backazimuthUsed><weight>1</weight></arrival><arrival><pickID>de.gempa.tb1.Pick/20250414081331.578884.136710</pickID><phase>S</phase><azimuth>267.2894592285156</azimuth><distance>0.9627345204353333</distance><timeResidual>-0.005260467529296875</timeResidual><timeUsed>true</timeUsed><horizontalSlownessUsed>false</horizontalSlownessUsed><backazimuthUsed>false</backazimuthUsed><weight>1</weight></arrival><arrival><pickID>de.gempa.tb1.Pick/20250414081333.397867.136713</pickID><phase>P</phase><azimuth>284.13287353515625</azimuth><distance>1.1214897632598877</distance><timeResidual>0.010114669799804688</timeResidual><timeUsed>true</timeUsed><horizontalSlownessUsed>false</horizontalSlownessUsed><backazimuthUsed>false</backazimuthUsed><weight>1</weight></arrival><magnitude publicID="de.gempa.tb1.Magnitude/20250414081345.577139.450898"><magnitude><value>1.8851654264724598</value></magnitude><type>M</type><methodID>weighted average</methodID><stationCount>2</stationCount></magnitude></origin><event publicID="gempa2025hiwr"><preferredOriginID>de.gempa.tb1.Origin/20250414081333.400957.132185</preferredOriginID><preferredMagnitudeID>de.gempa.tb1.Magnitude/20250414081345.577139.450898</preferredMagnitudeID><description><text>Northern Chile</text><type>region name</type></description><originReference>de.gempa.tb1.Origin/20250414081333.400957.132185</originReference></event></EventParameters></seiscomp>