<?xml version="1.0" encoding="UTF-8"?>
<seiscomp xmlns="http://geofon.gfz-potsdam.de/ns/seiscomp3-schema/0.13" version="0.13"><EventParameters><pick publicID="de.gempa.tb1.Pick/20250414224209.531524.141881"><time><value>2025-04-14T22:42:02.44Z</value></time><waveformID networkCode="CX" stationCode="PSGCX" channelCode="HHZ"/><filterID>ITAPER(4)&gt;&gt;BW(4,4,20)</filterID><methodID>AIC</methodID><horizontalSlowness><value>16.49631715296191</value></horizontalSlowness><backazimuth><value>69.66211522878386</value></backazimuth><phaseHint>P</phaseHint><evaluationMode>automatic</evaluationMode><comment><text>239.2567861490453</text><id>DFX:rectilinearity</id></comment><comment><text>209.5388313938296</text><id>SNR</id></comment></pick><pick publicID="de.gempa.tb1.Pick/20250414224210.632862.141883"><time><value>2025-04-14T22:42:03.708393Z</value></time><waveformID networkCode="CX" stationCode="PB08" channelCode="HHZ"/><filterID>ITAPER(4)&gt;&gt;BW(4,4,20)</filterID><methodID>AIC</methodID><horizontalSlowness><value>18.868829691566948</value></horizontalSlowness><backazimuth><value>73.25697156747182</value></backazimuth><phaseHint>P</phaseHint><evaluationMode>automatic</evaluationMode><comment><text>9.420020761539908</text><id>DFX:rectilinearity</id></comment><comment><text>14.174260712001287</text><id>SNR</id></comment></pick><pick publicID="de.gempa.tb1.Pick/20250414224223.266454.141886"><time><value>2025-04-14T22:42:18.429999Z</value></time><waveformID networkCode="CX" stationCode="PATCX" channelCode="HHZ"/><filterID>ITAPER(4)&gt;&gt;BW(4,4,20)</filterID><methodID>AIC</methodID><horizontalSlowness><value>11.722007975695956</value></horizontalSlowness><backazimuth><value>50.10717916314167</value></backazimuth><phaseHint>P</phaseHint><evaluationMode>automatic</evaluationMode><comment><text>574.0284718235542</text><id>DFX:rectilinearity</id></comment><comment><text>57.73126737866003</text><id>SNR</id></comment></pick><pick publicID="de.gempa.tb1.Pick/20250414224224.0531.141888"><time><value>2025-04-14T22:42:16.288393Z</value></time><waveformID networkCode="CX" stationCode="PB08" channelCode="HHN"/><filterID>ITAPER(2)&gt;&gt;BW(3,3,20)</filterID><methodID>L2-AIC-GRID</methodID><horizontalSlowness><value>17.073052130712878</value></horizontalSlowness><backazimuth><value>203.50371358980178</value></backazimuth><phaseHint>S</phaseHint><evaluationMode>automatic</evaluationMode><comment><text>507.0588799070139</text><id>DFX:rectilinearity</id></comment><comment><text>de.gempa.tb1.Pick/20250414224210.632862.141883</text><id>RefPickID</id></comment><comment><text>10.218383326530786</text><id>SNR</id></comment></pick><pick publicID="de.gempa.tb1.Pick/20250414224224.578796.141889"><time><value>2025-04-14T22:42:19.148393Z</value></time><waveformID networkCode="CX" stationCode="PB01" channelCode="HHZ"/><filterID>ITAPER(4)&gt;&gt;BW(4,4,20)</filterID><methodID>AIC</methodID><horizontalSlowness><value>21.348314494856602</value></horizontalSlowness><backazimuth><value>216.06585723927614</value></backazimuth><phaseHint>P</phaseHint><evaluationMode>automatic</evaluationMode><comment><text>33.541840558710547</text><id>DFX:rectilinearity</id></comment><comment><text>48.49995794407566</text><id>SNR</id></comment></pick><pick publicID="de.gempa.tb1.Pick/20250414224225.669634.141891"><time><value>2025-04-14T22:42:15.28Z</value></time><waveformID networkCode="CX" stationCode="PSGCX" channelCode="HHN"/><filterID>ITAPER(2)&gt;&gt;BW(3,3,20)</filterID><methodID>L2-AIC-GRID</methodID><horizontalSlowness><value>23.20777273314835</value></horizontalSlowness><backazimuth><value>172.73845489922357</value></backazimuth><phaseHint>S</phaseHint><evaluationMode>automatic</evaluationMode><comment><text>8358.55244575054</text><id>DFX:rectilinearity</id></comment><comment><text>de.gempa.tb1.Pick/20250414224209.531524.141881</text><id>RefPickID</id></comment><comment><text>12.392088070103085</text><id>SNR</id></comment></pick><pick publicID="de.gempa.tb1.Pick/20250414224231.591173.141892"><time><value>2025-04-14T22:42:24.368393Z</value></time><waveformID networkCode="CX" stationCode="PB02" channelCode="HHZ"/><filterID>ITAPER(4)&gt;&gt;BW(4,4,20)</filterID><methodID>AIC</methodID><horizontalSlowness><value>6.527674808999264</value></horizontalSlowness><backazimuth><value>10.66443958677695</value></backazimuth><phaseHint>P</phaseHint><evaluationMode>automatic</evaluationMode><comment><text>280.9030964619883</text><id>DFX:rectilinearity</id></comment><comment><text>39.43634162291413</text><id>SNR</id></comment></pick><pick publicID="de.gempa.tb1.Pick/20250414224235.788151.141894"><time><value>2025-04-14T22:42:30.788396Z</value></time><waveformID networkCode="CX" stationCode="PB07" channelCode="HHZ"/><filterID>ITAPER(4)&gt;&gt;BW(4,4,20)</filterID><methodID>AIC</methodID><horizontalSlowness><value>22.884868430844424</value></horizontalSlowness><backazimuth><value>276.801463096106</value></backazimuth><phaseHint>P</phaseHint><evaluationMode>automatic</evaluationMode><comment><text>685.873973608926</text><id>DFX:rectilinearity</id></comment><comment><text>43.61335827864582</text><id>SNR</id></comment></pick><pick publicID="de.gempa.tb1.Pick/20250414224242.538042.141898"><time><value>2025-04-14T22:42:35.448393Z</value></time><waveformID networkCode="CX" stationCode="PB03" channelCode="HHZ"/><filterID>ITAPER(4)&gt;&gt;BW(4,4,20)</filterID><methodID>AIC</methodID><horizontalSlowness><value>10.264211490865167</value></horizontalSlowness><backazimuth><value>358.75816252832146</value></backazimuth><phaseHint>P</phaseHint><evaluationMode>automatic</evaluationMode><comment><text>19.657499275080713</text><id>DFX:rectilinearity</id></comment><comment><text>14.255283934778388</text><id>SNR</id></comment></pick><origin publicID="de.gempa.tb1.Origin/20250414224242.580754.153663"><time><value>2025-04-14T22:41:48.16098Z</value><uncertainty>1.1526005268096924</uncertainty></time><latitude><value>-19.298572540283203</value><uncertainty>6.926141262054443</uncertainty></latitude><longitude><value>-69.3302993774414</value><uncertainty>4.288243293762207</uncertainty></longitude><depth><value>0</value></depth><depthType>operator assigned</depthType><methodID>LOCSAT</methodID><earthModelID>iasp91_scanloc</earthModelID><quality><associatedPhaseCount>9</associatedPhaseCount><usedPhaseCount>9</usedPhaseCount><associatedStationCount>7</associatedStationCount><usedStationCount>7</usedStationCount><depthPhaseCount>0</depthPhaseCount><standardError>0.8904739471034995</standardError><azimuthalGap>280.5716552734375</azimuthalGap><maximumDistance>2.764530897140503</maximumDistance><minimumDistance>0.8048840761184692</minimumDistance><medianDistance>1.7003233432769775</medianDistance></quality><uncertainty><minHorizontalUncertainty>6.768977165222168</minHorizontalUncertainty><maxHorizontalUncertainty>16.108417510986328</maxHorizontalUncertainty><azimuthMaxHorizontalUncertainty>25.21661949157715</azimuthMaxHorizontalUncertainty><preferredDescription>horizontal uncertainty</preferredDescription></uncertainty><evaluationMode>automatic</evaluationMode><evaluationStatus>confirmed</evaluationStatus><comment><text>0.02</text><id>mismatchScore</id></comment><comment><text>mismatchScore</text><id>scevalMethod</id></comment><arrival><pickID>de.gempa.tb1.Pick/20250414224209.531524.141881</pickID><phase>P</phase><azimuth>248.21250915527344</azimuth><distance>0.8048840761184692</distance><timeResidual>-1.1604251861572266</timeResidual><timeUsed>true</timeUsed><horizontalSlownessUsed>false</horizontalSlownessUsed><backazimuthUsed>false</backazimuthUsed><weight>1</weight></arrival><arrival><pickID>de.gempa.tb1.Pick/20250414224210.632862.141883</pickID><phase>P</phase><azimuth>168.78416442871094</azimuth><distance>0.8545883893966675</distance><timeResidual>-0.8448829650878906</timeResidual><timeUsed>true</timeUsed><horizontalSlownessUsed>false</horizontalSlownessUsed><backazimuthUsed>false</backazimuthUsed><weight>1</weight></arrival><arrival><pickID>de.gempa.tb1.Pick/20250414224223.266454.141886</pickID><phase>P</phase><azimuth>206.9117889404297</azimuth><distance>1.7003233432769775</distance><timeResidual>-0.6543645858764648</timeResidual><timeUsed>true</timeUsed><horizontalSlownessUsed>false</horizontalSlownessUsed><backazimuthUsed>false</backazimuthUsed><weight>1</weight></arrival><arrival><pickID>de.gempa.tb1.Pick/20250414224224.0531.141888</pickID><phase>S</phase><azimuth>168.78416442871094</azimuth><distance>0.8545883893966675</distance><timeResidual>-0.1682729721069336</timeResidual><timeUsed>true</timeUsed><horizontalSlownessUsed>false</horizontalSlownessUsed><backazimuthUsed>false</backazimuthUsed><weight>1</weight></arrival><arrival><pickID>de.gempa.tb1.Pick/20250414224224.578796.141889</pickID><phase>P</phase><azimuth>184.8330841064453</azimuth><distance>1.741995096206665</distance><timeResidual>-0.5093498229980469</timeResidual><timeUsed>true</timeUsed><horizontalSlownessUsed>false</horizontalSlownessUsed><backazimuthUsed>false</backazimuthUsed><weight>1</weight></arrival><arrival><pickID>de.gempa.tb1.Pick/20250414224225.669634.141891</pickID><phase>S</phase><azimuth>248.21250915527344</azimuth><distance>0.8048840761184692</distance><timeResidual>0.4679698944091797</timeResidual><timeUsed>true</timeUsed><horizontalSlownessUsed>false</horizontalSlownessUsed><backazimuthUsed>false</backazimuthUsed><weight>1</weight></arrival><arrival><pickID>de.gempa.tb1.Pick/20250414224231.591173.141892</pickID><phase>P</phase><azimuth>194.6950225830078</azimuth><distance>2.0797765254974365</distance><timeResidual>0.06133270263671875</timeResidual><timeUsed>true</timeUsed><horizontalSlownessUsed>false</horizontalSlownessUsed><backazimuthUsed>false</backazimuthUsed><weight>1</weight></arrival><arrival><pickID>de.gempa.tb1.Pick/20250414224235.788151.141894</pickID><phase>P</phase><azimuth>192.07565307617188</azimuth><distance>2.471346378326416</distance><timeResidual>1.091695785522461</timeResidual><timeUsed>true</timeUsed><horizontalSlownessUsed>false</horizontalSlownessUsed><backazimuthUsed>false</backazimuthUsed><weight>1</weight></arrival><arrival><pickID>de.gempa.tb1.Pick/20250414224242.538042.141898</pickID><phase>P</phase><azimuth>188.16006469726562</azimuth><distance>2.764530897140503</distance><timeResidual>1.716268539428711</timeResidual><timeUsed>true</timeUsed><horizontalSlownessUsed>false</horizontalSlownessUsed><backazimuthUsed>false</backazimuthUsed><weight>1</weight></arrival><magnitude publicID="de.gempa.tb1.Magnitude/20250414224243.529626.548126"><magnitude><value>2.766103613115325</value></magnitude><type>M</type><methodID>weighted average</methodID><stationCount>6</stationCount></magnitude></origin><event publicID="gempa2025hjzr"><preferredOriginID>de.gempa.tb1.Origin/20250414224242.580754.153663</preferredOriginID><preferredMagnitudeID>de.gempa.tb1.Magnitude/20250414224243.529626.548126</preferredMagnitudeID><description><text>Northern Chile</text><type>region name</type></description><originReference>de.gempa.tb1.Origin/20250414224242.580754.153663</originReference></event></EventParameters></seiscomp>