<?xml version="1.0" encoding="UTF-8"?>
<seiscomp xmlns="http://geofon.gfz-potsdam.de/ns/seiscomp3-schema/0.13" version="0.13"><EventParameters><pick publicID="de.gempa.tb1.Pick/20250414201018.684697.140912"><time><value>2025-04-14T20:10:13.628393Z</value></time><waveformID networkCode="CX" stationCode="PB03" channelCode="HHZ"/><filterID>ITAPER(4)&gt;&gt;BW(4,4,20)</filterID><methodID>AIC</methodID><horizontalSlowness><value>7.775446307670453</value></horizontalSlowness><backazimuth><value>66.21691202654078</value></backazimuth><phaseHint>P</phaseHint><evaluationMode>automatic</evaluationMode><comment><text>31.9197521393754</text><id>DFX:rectilinearity</id></comment><comment><text>72.28529937052983</text><id>SNR</id></comment></pick><pick publicID="de.gempa.tb1.Pick/20250414201021.547342.140914"><time><value>2025-04-14T20:10:14.598393Z</value></time><waveformID networkCode="CX" stationCode="PB01" channelCode="HHZ"/><filterID>ITAPER(4)&gt;&gt;BW(4,4,20)</filterID><methodID>AIC</methodID><horizontalSlowness><value>2.7273491882115604</value></horizontalSlowness><backazimuth><value>77.6804464807889</value></backazimuth><phaseHint>P</phaseHint><evaluationMode>automatic</evaluationMode><comment><text>14.76750704000652</text><id>DFX:rectilinearity</id></comment><comment><text>58.11132307982991</text><id>SNR</id></comment></pick><pick publicID="de.gempa.tb1.Pick/20250414201022.059515.140916"><time><value>2025-04-14T20:10:09.49Z</value></time><waveformID networkCode="CX" stationCode="PB09" channelCode="HHZ"/><filterID>ITAPER(4)&gt;&gt;BW(4,4,20)</filterID><methodID>AIC</methodID><horizontalSlowness><value>14.834441165947428</value></horizontalSlowness><backazimuth><value>95.99587322656257</value></backazimuth><phaseHint>P</phaseHint><evaluationMode>automatic</evaluationMode><comment><text>101.15229701475039</text><id>DFX:rectilinearity</id></comment><comment><text>223.06892126705876</text><id>SNR</id></comment></pick><pick publicID="de.gempa.tb1.Pick/20250414201022.626456.140918"><time><value>2025-04-14T20:10:15.528393Z</value></time><waveformID networkCode="CX" stationCode="PB06" channelCode="HHZ"/><filterID>ITAPER(4)&gt;&gt;BW(4,4,20)</filterID><methodID>AIC</methodID><horizontalSlowness><value>19.7429575108134</value></horizontalSlowness><backazimuth><value>335.62811012364045</value></backazimuth><phaseHint>P</phaseHint><evaluationMode>automatic</evaluationMode><comment><text>68.7734323297145</text><id>DFX:rectilinearity</id></comment><comment><text>20.294125364470794</text><id>SNR</id></comment></pick><pick publicID="de.gempa.tb1.Pick/20250414201023.711768.140920"><time><value>2025-04-14T20:10:16.418391Z</value></time><waveformID networkCode="CX" stationCode="PB02" channelCode="HHZ"/><filterID>ITAPER(4)&gt;&gt;BW(4,4,20)</filterID><methodID>AIC</methodID><horizontalSlowness><value>2.219727688131472</value></horizontalSlowness><backazimuth><value>346.2224584240847</value></backazimuth><phaseHint>P</phaseHint><evaluationMode>automatic</evaluationMode><comment><text>28.605788451209985</text><id>DFX:rectilinearity</id></comment><comment><text>36.2434999284204</text><id>SNR</id></comment></pick><pick publicID="de.gempa.tb1.Pick/20250414201026.672417.140922"><time><value>2025-04-14T20:10:20.218393Z</value></time><waveformID networkCode="CX" stationCode="PB15" channelCode="HHZ"/><filterID>ITAPER(4)&gt;&gt;BW(4,4,20)</filterID><methodID>AIC</methodID><horizontalSlowness><value>20.407481166966981</value></horizontalSlowness><backazimuth><value>102.45080103343929</value></backazimuth><phaseHint>P</phaseHint><evaluationMode>automatic</evaluationMode><comment><text>152.02794217017657</text><id>DFX:rectilinearity</id></comment><comment><text>9.768746086121844</text><id>SNR</id></comment></pick><pick publicID="de.gempa.tb1.Pick/20250414201028.295503.140924"><time><value>2025-04-14T20:10:22.229999Z</value></time><waveformID networkCode="CX" stationCode="PATCX" channelCode="HHZ"/><filterID>ITAPER(4)&gt;&gt;BW(4,4,20)</filterID><methodID>AIC</methodID><horizontalSlowness><value>22.62453778701633</value></horizontalSlowness><backazimuth><value>130.82345613971395</value></backazimuth><phaseHint>P</phaseHint><evaluationMode>automatic</evaluationMode><comment><text>85.77325375167047</text><id>DFX:rectilinearity</id></comment><comment><text>10.573935170829751</text><id>SNR</id></comment></pick><pick publicID="de.gempa.tb1.Pick/20250414201036.615311.140926"><time><value>2025-04-14T20:10:27.53Z</value></time><waveformID networkCode="CX" stationCode="PB19" channelCode="HHZ"/><filterID>ITAPER(4)&gt;&gt;BW(4,4,20)</filterID><methodID>AIC</methodID><horizontalSlowness><value>19.357277071627678</value></horizontalSlowness><backazimuth><value>26.856454667968137</value></backazimuth><phaseHint>P</phaseHint><evaluationMode>automatic</evaluationMode><comment><text>18.118406751855456</text><id>DFX:rectilinearity</id></comment><comment><text>11.16674517075705</text><id>SNR</id></comment></pick><pick publicID="de.gempa.tb1.Pick/20250414201036.784794.140928"><time><value>2025-04-14T20:10:30.618393Z</value></time><waveformID networkCode="CX" stationCode="PB03" channelCode="HHN"/><filterID>ITAPER(2)&gt;&gt;BW(3,3,20)</filterID><methodID>L2-AIC-GRID</methodID><horizontalSlowness><value>9.948321049477714</value></horizontalSlowness><backazimuth><value>260.16991531900067</value></backazimuth><phaseHint>S</phaseHint><evaluationMode>automatic</evaluationMode><comment><text>796.5436819315129</text><id>DFX:rectilinearity</id></comment><comment><text>de.gempa.tb1.Pick/20250414201018.684697.140912</text><id>RefPickID</id></comment><comment><text>10.135334976747188</text><id>SNR</id></comment></pick><pick publicID="de.gempa.tb1.Pick/20250414201040.61766.140929"><time><value>2025-04-14T20:10:33.388393Z</value></time><waveformID networkCode="CX" stationCode="PB01" channelCode="HHN"/><filterID>ITAPER(2)&gt;&gt;BW(3,3,20)</filterID><methodID>L2-AIC-GRID</methodID><horizontalSlowness><value>22.153987548272955</value></horizontalSlowness><backazimuth><value>271.5435270104904</value></backazimuth><phaseHint>S</phaseHint><evaluationMode>automatic</evaluationMode><comment><text>198.73509540613867</text><id>DFX:rectilinearity</id></comment><comment><text>de.gempa.tb1.Pick/20250414201021.547342.140914</text><id>RefPickID</id></comment><comment><text>5.666652780801667</text><id>SNR</id></comment></pick><pick publicID="de.gempa.tb1.Pick/20250414201040.768419.140930"><time><value>2025-04-14T20:10:33.708393Z</value></time><waveformID networkCode="CX" stationCode="PB06" channelCode="HHN"/><filterID>ITAPER(2)&gt;&gt;BW(3,3,20)</filterID><methodID>L2-AIC-GRID</methodID><horizontalSlowness><value>19.001885020849716</value></horizontalSlowness><backazimuth><value>299.83833884916066</value></backazimuth><phaseHint>S</phaseHint><evaluationMode>automatic</evaluationMode><comment><text>972.2016444692937</text><id>DFX:rectilinearity</id></comment><comment><text>de.gempa.tb1.Pick/20250414201022.626456.140918</text><id>RefPickID</id></comment><comment><text>18.95035982199425</text><id>SNR</id></comment></pick><pick publicID="de.gempa.tb1.Pick/20250414201044.651091.140931"><time><value>2025-04-14T20:10:34.0000Z</value></time><waveformID networkCode="CX" stationCode="PSGCX" channelCode="HHZ"/><filterID>ITAPER(4)&gt;&gt;BW(4,4,20)</filterID><methodID>AIC</methodID><horizontalSlowness><value>15.698045245188217</value></horizontalSlowness><backazimuth><value>116.39704358978562</value></backazimuth><phaseHint>P</phaseHint><evaluationMode>automatic</evaluationMode><comment><text>15.74172641957897</text><id>DFX:rectilinearity</id></comment><comment><text>9.401699070860895</text><id>SNR</id></comment></pick><pick publicID="de.gempa.tb1.Pick/20250414201050.811229.140937"><time><value>2025-04-14T20:10:42.238393Z</value></time><waveformID networkCode="CX" stationCode="PB15" channelCode="HHN"/><filterID>ITAPER(2)&gt;&gt;BW(3,3,20)</filterID><methodID>L2-AIC-GRID</methodID><horizontalSlowness><value>21.816568279995067</value></horizontalSlowness><backazimuth><value>104.73004158631244</value></backazimuth><phaseHint>S</phaseHint><evaluationMode>automatic</evaluationMode><comment><text>3373.4399180584483</text><id>DFX:rectilinearity</id></comment><comment><text>de.gempa.tb1.Pick/20250414201026.672417.140922</text><id>RefPickID</id></comment><comment><text>8.610055106850085</text><id>SNR</id></comment></pick><origin publicID="de.gempa.tb1.Origin/20250414201050.814366.149688"><time><value>2025-04-14T20:09:52.597533Z</value><uncertainty>0.7818321585655212</uncertainty></time><latitude><value>-21.85143280029297</value><uncertainty>3.18364953994751</uncertainty></latitude><longitude><value>-68.70564270019531</value><uncertainty>14.481146812438965</uncertainty></longitude><depth><value>114.88650512695312</value><uncertainty>13.138288497924805</uncertainty></depth><depthType>from location</depthType><methodID>LOCSAT</methodID><earthModelID>iasp91_scanloc</earthModelID><quality><associatedPhaseCount>13</associatedPhaseCount><usedPhaseCount>13</usedPhaseCount><associatedStationCount>9</associatedStationCount><usedStationCount>9</usedStationCount><depthPhaseCount>0</depthPhaseCount><standardError>0.4968132034653913</standardError><azimuthalGap>225.53477478027344</azimuthalGap><maximumDistance>2.6059093475341797</maximumDistance><minimumDistance>0.5013052821159363</minimumDistance><medianDistance>1.169060468673706</medianDistance></quality><uncertainty><minHorizontalUncertainty>6.538628101348877</minHorizontalUncertainty><maxHorizontalUncertainty>31.11183166503906</maxHorizontalUncertainty><azimuthMaxHorizontalUncertainty>86.30410766601562</azimuthMaxHorizontalUncertainty><preferredDescription>horizontal uncertainty</preferredDescription></uncertainty><evaluationMode>automatic</evaluationMode><evaluationStatus>confirmed</evaluationStatus><comment><text>0.09</text><id>mismatchScore</id></comment><comment><text>mismatchScore</text><id>scevalMethod</id></comment><arrival><pickID>de.gempa.tb1.Pick/20250414201018.684697.140912</pickID><phase>P</phase><azimuth>258.4053039550781</azimuth><distance>0.9920023679733276</distance><timeResidual>-0.5252494812011719</timeResidual><timeUsed>true</timeUsed><horizontalSlownessUsed>false</horizontalSlownessUsed><backazimuthUsed>false</backazimuthUsed><weight>1</weight></arrival><arrival><pickID>de.gempa.tb1.Pick/20250414201021.547342.140914</pickID><phase>P</phase><azimuth>317.6947326660156</azimuth><distance>1.0849630832672119</distance><timeResidual>-0.5126914978027344</timeResidual><timeUsed>true</timeUsed><horizontalSlownessUsed>false</horizontalSlownessUsed><backazimuthUsed>false</backazimuthUsed><weight>1</weight></arrival><arrival><pickID>de.gempa.tb1.Pick/20250414201022.059515.140916</pickID><phase>P</phase><azimuth>276.1750793457031</azimuth><distance>0.5013052821159363</distance><timeResidual>-0.5235309600830078</timeResidual><timeUsed>true</timeUsed><horizontalSlownessUsed>false</horizontalSlownessUsed><backazimuthUsed>false</backazimuthUsed><weight>1</weight></arrival><arrival><pickID>de.gempa.tb1.Pick/20250414201022.626456.140918</pickID><phase>P</phase><azimuth>223.17604064941406</azimuth><distance>1.169060468673706</distance><timeResidual>-0.4666423797607422</timeResidual><timeUsed>true</timeUsed><horizontalSlownessUsed>false</horizontalSlownessUsed><backazimuthUsed>false</backazimuthUsed><weight>1</weight></arrival><arrival><pickID>de.gempa.tb1.Pick/20250414201023.711768.140920</pickID><phase>P</phase><azimuth>295.3090515136719</azimuth><distance>1.2277512550354004</distance><timeResidual>-0.2232532501220703</timeResidual><timeUsed>true</timeUsed><horizontalSlownessUsed>false</horizontalSlownessUsed><backazimuthUsed>false</backazimuthUsed><weight>1</weight></arrival><arrival><pickID>de.gempa.tb1.Pick/20250414201026.672417.140922</pickID><phase>P</phase><azimuth>207.50689697265625</azimuth><distance>1.5245866775512695</distance><timeResidual>0.1956787109375</timeResidual><timeUsed>true</timeUsed><horizontalSlownessUsed>false</horizontalSlownessUsed><backazimuthUsed>false</backazimuthUsed><weight>1</weight></arrival><arrival><pickID>de.gempa.tb1.Pick/20250414201028.295503.140924</pickID><phase>P</phase><azimuth>306.9770202636719</azimuth><distance>1.69478178024292</distance><timeResidual>0.15735626220703125</timeResidual><timeUsed>true</timeUsed><horizontalSlownessUsed>false</horizontalSlownessUsed><backazimuthUsed>false</backazimuthUsed><weight>1</weight></arrival><arrival><pickID>de.gempa.tb1.Pick/20250414201036.615311.140926</pickID><phase>P</phase><azimuth>194.67613220214844</azimuth><distance>2.1137301921844482</distance><timeResidual>0.26786041259765625</timeResidual><timeUsed>true</timeUsed><horizontalSlownessUsed>false</horizontalSlownessUsed><backazimuthUsed>false</backazimuthUsed><weight>1</weight></arrival><arrival><pickID>de.gempa.tb1.Pick/20250414201036.784794.140928</pickID><phase>S</phase><azimuth>258.4053039550781</azimuth><distance>0.9920023679733276</distance><timeResidual>-0.19049644470214844</timeResidual><timeUsed>true</timeUsed><horizontalSlownessUsed>false</horizontalSlownessUsed><backazimuthUsed>false</backazimuthUsed><weight>1</weight></arrival><arrival><pickID>de.gempa.tb1.Pick/20250414201040.61766.140929</pickID><phase>S</phase><azimuth>317.6947326660156</azimuth><distance>1.0849630832672119</distance><timeResidual>0.872549057006836</timeResidual><timeUsed>true</timeUsed><horizontalSlownessUsed>false</horizontalSlownessUsed><backazimuthUsed>false</backazimuthUsed><weight>1</weight></arrival><arrival><pickID>de.gempa.tb1.Pick/20250414201040.768419.140930</pickID><phase>S</phase><azimuth>223.17604064941406</azimuth><distance>1.169060468673706</distance><timeResidual>-0.3874492645263672</timeResidual><timeUsed>true</timeUsed><horizontalSlownessUsed>false</horizontalSlownessUsed><backazimuthUsed>false</backazimuthUsed><weight>1</weight></arrival><arrival><pickID>de.gempa.tb1.Pick/20250414201044.651091.140931</pickID><phase>P</phase><azimuth>329.141357421875</azimuth><distance>2.6059093475341797</distance><timeResidual>0.3914813995361328</timeResidual><timeUsed>true</timeUsed><horizontalSlownessUsed>false</horizontalSlownessUsed><backazimuthUsed>false</backazimuthUsed><weight>1</weight></arrival><arrival><pickID>de.gempa.tb1.Pick/20250414201050.811229.140937</pickID><phase>S</phase><azimuth>207.50689697265625</azimuth><distance>1.5245866775512695</distance><timeResidual>0.9447097778320312</timeResidual><timeUsed>true</timeUsed><horizontalSlownessUsed>false</horizontalSlownessUsed><backazimuthUsed>false</backazimuthUsed><weight>1</weight></arrival><magnitude publicID="de.gempa.tb1.Magnitude/20250414201055.949325.536667"><magnitude><value>2.3288383307219527</value></magnitude><type>M</type><methodID>weighted average</methodID><stationCount>7</stationCount></magnitude></origin><event publicID="gempa2025hjup"><preferredOriginID>de.gempa.tb1.Origin/20250414201050.814366.149688</preferredOriginID><preferredMagnitudeID>de.gempa.tb1.Magnitude/20250414201055.949325.536667</preferredMagnitudeID><description><text>Chile-Bolivia Border Region</text><type>region name</type></description><originReference>de.gempa.tb1.Origin/20250414201050.814366.149688</originReference></event></EventParameters></seiscomp>