<?xml version="1.0" encoding="UTF-8"?>
<seiscomp xmlns="http://geofon.gfz-potsdam.de/ns/seiscomp3-schema/0.13" version="0.13"><EventParameters><pick publicID="de.gempa.tb1.Pick/20250412041658.6202.121869"><time><value>2025-04-12T04:16:53.65Z</value></time><waveformID networkCode="CX" stationCode="PB09" channelCode="HHZ"/><filterID>ITAPER(4)&gt;&gt;BW(4,4,20)</filterID><methodID>AIC</methodID><horizontalSlowness><value>9.982284090044486</value></horizontalSlowness><backazimuth><value>324.99900418135564</value></backazimuth><phaseHint>P</phaseHint><evaluationMode>automatic</evaluationMode><comment><text>12.51960867892745</text><id>DFX:rectilinearity</id></comment><comment><text>24.767325590640723</text><id>SNR</id></comment></pick><pick publicID="de.gempa.tb1.Pick/20250412041702.509375.121871"><time><value>2025-04-12T04:16:56.188393Z</value></time><waveformID networkCode="CX" stationCode="PB01" channelCode="HHZ"/><filterID>ITAPER(4)&gt;&gt;BW(4,4,20)</filterID><methodID>AIC</methodID><horizontalSlowness><value>20.196623212014018</value></horizontalSlowness><backazimuth><value>30.5346753959964</value></backazimuth><phaseHint>P</phaseHint><evaluationMode>automatic</evaluationMode><comment><text>20.01788029099519</text><id>DFX:rectilinearity</id></comment><comment><text>13.355671839393036</text><id>SNR</id></comment></pick><pick publicID="de.gempa.tb1.Pick/20250412041703.572284.121873"><time><value>2025-04-12T04:16:58.298393Z</value></time><waveformID networkCode="CX" stationCode="PB03" channelCode="HHZ"/><filterID>ITAPER(4)&gt;&gt;BW(4,4,20)</filterID><methodID>AIC</methodID><horizontalSlowness><value>15.456031076382676</value></horizontalSlowness><backazimuth><value>85.57665948292281</value></backazimuth><phaseHint>P</phaseHint><evaluationMode>automatic</evaluationMode><comment><text>6.449724507996562</text><id>DFX:rectilinearity</id></comment><comment><text>10.741761112263891</text><id>SNR</id></comment></pick><pick publicID="de.gempa.tb1.Pick/20250412041705.583102.121875"><time><value>2025-04-12T04:16:59.118393Z</value></time><waveformID networkCode="CX" stationCode="PB02" channelCode="HHZ"/><filterID>ITAPER(4)&gt;&gt;BW(4,4,20)</filterID><methodID>AIC</methodID><horizontalSlowness><value>21.252845673414704</value></horizontalSlowness><backazimuth><value>93.24700096920199</value></backazimuth><phaseHint>P</phaseHint><evaluationMode>automatic</evaluationMode><comment><text>23.41718895470229</text><id>DFX:rectilinearity</id></comment><comment><text>11.75932080998038</text><id>SNR</id></comment></pick><pick publicID="de.gempa.tb1.Pick/20250412041724.50355.121881"><time><value>2025-04-12T04:17:16.848393Z</value></time><waveformID networkCode="CX" stationCode="PB03" channelCode="HHN"/><filterID>ITAPER(2)&gt;&gt;BW(3,3,20)</filterID><methodID>L2-AIC-GRID</methodID><horizontalSlowness><value>20.930881635803296</value></horizontalSlowness><backazimuth><value>246.08248325591</value></backazimuth><phaseHint>S</phaseHint><evaluationMode>automatic</evaluationMode><comment><text>7.340676091688779</text><id>DFX:rectilinearity</id></comment><comment><text>de.gempa.tb1.Pick/20250412041703.572284.121873</text><id>RefPickID</id></comment><comment><text>9.656497658388508</text><id>SNR</id></comment></pick><pick publicID="de.gempa.tb1.Pick/20250412041725.580921.121882"><time><value>2025-04-12T04:17:13.708393Z</value></time><waveformID networkCode="CX" stationCode="PB01" channelCode="HHN"/><filterID>ITAPER(2)&gt;&gt;BW(3,3,20)</filterID><methodID>L2-AIC-GRID</methodID><horizontalSlowness><value>22.202066335168574</value></horizontalSlowness><backazimuth><value>39.59148809913586</value></backazimuth><phaseHint>S</phaseHint><evaluationMode>automatic</evaluationMode><comment><text>24.13560582364555</text><id>DFX:rectilinearity</id></comment><comment><text>de.gempa.tb1.Pick/20250412041702.509375.121871</text><id>RefPickID</id></comment><comment><text>7.455768809112516</text><id>SNR</id></comment></pick><pick publicID="de.gempa.tb1.Pick/20250412041727.501642.121883"><time><value>2025-04-12T04:17:18.598393Z</value></time><waveformID networkCode="CX" stationCode="PB02" channelCode="HHN"/><filterID>ITAPER(2)&gt;&gt;BW(3,3,20)</filterID><methodID>L2-AIC-GRID</methodID><horizontalSlowness><value>18.840587519491208</value></horizontalSlowness><backazimuth><value>76.80314754579825</value></backazimuth><phaseHint>S</phaseHint><evaluationMode>automatic</evaluationMode><comment><text>44.647133835036094</text><id>DFX:rectilinearity</id></comment><comment><text>de.gempa.tb1.Pick/20250412041705.583102.121875</text><id>RefPickID</id></comment><comment><text>5.126467065541037</text><id>SNR</id></comment></pick><pick publicID="de.gempa.tb1.Pick/20250412041727.973017.121884"><time><value>2025-04-12T04:16:58.658394Z</value></time><waveformID networkCode="CX" stationCode="PB07" channelCode="HHZ"/><filterID>ITAPER(4)&gt;&gt;BW(4,4,20)</filterID><methodID>AIC</methodID><horizontalSlowness><value>19.24702194084567</value></horizontalSlowness><backazimuth><value>88.02916411142452</value></backazimuth><phaseHint>P</phaseHint><evaluationMode>automatic</evaluationMode><comment><text>169.11397293676004</text><id>DFX:rectilinearity</id></comment><comment><text>32.745525579887385</text><id>SNR</id></comment></pick><pick publicID="de.gempa.tb1.Pick/20250412041733.880114.121887"><time><value>2025-04-12T04:17:18.228394Z</value></time><waveformID networkCode="CX" stationCode="PB07" channelCode="HHN"/><filterID>ITAPER(2)&gt;&gt;BW(3,3,20)</filterID><methodID>L2-AIC-GRID</methodID><horizontalSlowness><value>20.872151331127224</value></horizontalSlowness><backazimuth><value>46.71454709838252</value></backazimuth><phaseHint>S</phaseHint><evaluationMode>automatic</evaluationMode><comment><text>226.3017517356686</text><id>DFX:rectilinearity</id></comment><comment><text>de.gempa.tb1.Pick/20250412041727.973017.121884</text><id>RefPickID</id></comment><comment><text>7.46469675859963</text><id>SNR</id></comment></pick><origin publicID="de.gempa.tb1.Origin/20250412041733.88284.73912"><time><value>2025-04-12T04:16:33.936016Z</value><uncertainty>1.255527377128601</uncertainty></time><latitude><value>-21.57933235168457</value><uncertainty>7.835883617401123</uncertainty></latitude><longitude><value>-68.55574035644531</value><uncertainty>13.917519569396973</uncertainty></longitude><depth><value>122.39154052734375</value><uncertainty>18.822650909423828</uncertainty></depth><depthType>from location</depthType><methodID>LOCSAT</methodID><earthModelID>iasp91_scanloc</earthModelID><quality><associatedPhaseCount>9</associatedPhaseCount><usedPhaseCount>9</usedPhaseCount><associatedStationCount>5</associatedStationCount><usedStationCount>5</usedStationCount><depthPhaseCount>0</depthPhaseCount><standardError>0.19707055165618997</standardError><azimuthalGap>305.6331787109375</azimuthalGap><maximumDistance>1.2750104665756226</maximumDistance><minimumDistance>0.6737453937530518</minimumDistance><medianDistance>1.206615924835205</medianDistance></quality><uncertainty><minHorizontalUncertainty>16.011507034301758</minHorizontalUncertainty><maxHorizontalUncertainty>30.27486038208008</maxHorizontalUncertainty><azimuthMaxHorizontalUncertainty>101.43559265136719</azimuthMaxHorizontalUncertainty><preferredDescription>horizontal uncertainty</preferredDescription></uncertainty><evaluationMode>automatic</evaluationMode><evaluationStatus>confirmed</evaluationStatus><comment><text>0.00</text><id>mismatchScore</id></comment><comment><text>mismatchScore</text><id>scevalMethod</id></comment><arrival><pickID>de.gempa.tb1.Pick/20250412041658.6202.121869</pickID><phase>P</phase><azimuth>251.1763610839844</azimuth><distance>0.6737453937530518</distance><timeResidual>0.2846202850341797</timeResidual><timeUsed>true</timeUsed><horizontalSlownessUsed>false</horizontalSlownessUsed><backazimuthUsed>false</backazimuthUsed><weight>1</weight></arrival><arrival><pickID>de.gempa.tb1.Pick/20250412041702.509375.121871</pickID><phase>P</phase><azimuth>301.3839416503906</azimuth><distance>1.0194253921508789</distance><timeResidual>-0.21808624267578125</timeResidual><timeUsed>true</timeUsed><horizontalSlownessUsed>false</horizontalSlownessUsed><backazimuthUsed>false</backazimuthUsed><weight>1</weight></arrival><arrival><pickID>de.gempa.tb1.Pick/20250412041703.572284.121873</pickID><phase>P</phase><azimuth>247.0171203613281</azimuth><distance>1.206615924835205</distance><timeResidual>-0.0126800537109375</timeResidual><timeUsed>true</timeUsed><horizontalSlownessUsed>false</horizontalSlownessUsed><backazimuthUsed>false</backazimuthUsed><weight>1</weight></arrival><arrival><pickID>de.gempa.tb1.Pick/20250412041705.583102.121875</pickID><phase>P</phase><azimuth>281.4451599121094</azimuth><distance>1.2750104665756226</distance><timeResidual>0.07036590576171875</timeResidual><timeUsed>true</timeUsed><horizontalSlownessUsed>false</horizontalSlownessUsed><backazimuthUsed>false</backazimuthUsed><weight>1</weight></arrival><arrival><pickID>de.gempa.tb1.Pick/20250412041724.50355.121881</pickID><phase>S</phase><azimuth>247.0171203613281</azimuth><distance>1.206615924835205</distance><timeResidual>-0.3405723571777344</timeResidual><timeUsed>true</timeUsed><horizontalSlownessUsed>false</horizontalSlownessUsed><backazimuthUsed>false</backazimuthUsed><weight>1</weight></arrival><arrival><pickID>de.gempa.tb1.Pick/20250412041725.580921.121882</pickID><phase>S</phase><azimuth>301.3839416503906</azimuth><distance>1.0194253921508789</distance><timeResidual>-0.07968902587890625</timeResidual><timeUsed>true</timeUsed><horizontalSlownessUsed>false</horizontalSlownessUsed><backazimuthUsed>false</backazimuthUsed><weight>1</weight></arrival><arrival><pickID>de.gempa.tb1.Pick/20250412041727.501642.121883</pickID><phase>S</phase><azimuth>281.4451599121094</azimuth><distance>1.2750104665756226</distance><timeResidual>0.09444808959960938</timeResidual><timeUsed>true</timeUsed><horizontalSlownessUsed>false</horizontalSlownessUsed><backazimuthUsed>false</backazimuthUsed><weight>1</weight></arrival><arrival><pickID>de.gempa.tb1.Pick/20250412041727.973017.121884</pickID><phase>P</phase><azimuth>263.00042724609375</azimuth><distance>1.2463297843933105</distance><timeResidual>-0.07816696166992188</timeResidual><timeUsed>true</timeUsed><horizontalSlownessUsed>false</horizontalSlownessUsed><backazimuthUsed>false</backazimuthUsed><weight>1</weight></arrival><arrival><pickID>de.gempa.tb1.Pick/20250412041733.880114.121887</pickID><phase>S</phase><azimuth>263.00042724609375</azimuth><distance>1.2463297843933105</distance><timeResidual>0.2801399230957031</timeResidual><timeUsed>true</timeUsed><horizontalSlownessUsed>false</horizontalSlownessUsed><backazimuthUsed>false</backazimuthUsed><weight>1</weight></arrival><magnitude publicID="de.gempa.tb1.Magnitude/20250412041817.765475.175177"><magnitude><value>2.6560817596073423</value></magnitude><type>M</type><methodID>weighted average</methodID><stationCount>3</stationCount></magnitude></origin><event publicID="gempa2025hewt"><preferredOriginID>de.gempa.tb1.Origin/20250412041733.88284.73912</preferredOriginID><preferredMagnitudeID>de.gempa.tb1.Magnitude/20250412041817.765475.175177</preferredMagnitudeID><typeCertainty>suspected</typeCertainty><description><text>Chile-Bolivia Border Region</text><type>region name</type></description><originReference>de.gempa.tb1.Origin/20250412041733.88284.73912</originReference></event></EventParameters></seiscomp>