<?xml version="1.0" encoding="UTF-8"?>
<seiscomp xmlns="http://geofon.gfz-potsdam.de/ns/seiscomp3-schema/0.13" version="0.13"><EventParameters><pick publicID="de.gempa.tb1.Pick/20250412132504.505632.124182"><time><value>2025-04-12T13:24:57.378393Z</value></time><waveformID networkCode="CX" stationCode="PB08" channelCode="HHZ"/><filterID>ITAPER(4)&gt;&gt;BW(4,4,20)</filterID><methodID>AIC</methodID><horizontalSlowness><value>14.497871538755643</value></horizontalSlowness><backazimuth><value>91.36195552239377</value></backazimuth><phaseHint>P</phaseHint><evaluationMode>automatic</evaluationMode><comment><text>7.65517793273574</text><id>DFX:rectilinearity</id></comment><comment><text>21.91331925800095</text><id>SNR</id></comment></pick><pick publicID="de.gempa.tb1.Pick/20250412132509.552005.124184"><time><value>2025-04-12T13:25:02.118394Z</value></time><waveformID networkCode="CX" stationCode="PB01" channelCode="HHZ"/><filterID>ITAPER(4)&gt;&gt;BW(4,4,20)</filterID><methodID>AIC</methodID><horizontalSlowness><value>10.619771403777296</value></horizontalSlowness><backazimuth><value>3.0084008718672237</value></backazimuth><phaseHint>P</phaseHint><evaluationMode>automatic</evaluationMode><comment><text>27.239683135281137</text><id>DFX:rectilinearity</id></comment><comment><text>24.81582550737266</text><id>SNR</id></comment></pick><pick publicID="de.gempa.tb1.Pick/20250412132509.553469.124186"><time><value>2025-04-12T13:25:04.2Z</value></time><waveformID networkCode="CX" stationCode="PSGCX" channelCode="HHZ"/><filterID>ITAPER(4)&gt;&gt;BW(4,4,20)</filterID><methodID>AIC</methodID><horizontalSlowness><value>18.01216147320429</value></horizontalSlowness><backazimuth><value>31.427366293599817</value></backazimuth><phaseHint>P</phaseHint><evaluationMode>automatic</evaluationMode><comment><text>15.27709748823001</text><id>DFX:rectilinearity</id></comment><comment><text>27.85599090502272</text><id>SNR</id></comment></pick><pick publicID="de.gempa.tb1.Pick/20250412132515.525693.124188"><time><value>2025-04-12T13:25:07.798393Z</value></time><waveformID networkCode="CX" stationCode="PB08" channelCode="HHN"/><filterID>ITAPER(2)&gt;&gt;BW(3,3,20)</filterID><methodID>L2-AIC-GRID</methodID><horizontalSlowness><value>12.72740208987867</value></horizontalSlowness><backazimuth><value>223.3530442804468</value></backazimuth><phaseHint>S</phaseHint><evaluationMode>automatic</evaluationMode><comment><text>209.894719153824</text><id>DFX:rectilinearity</id></comment><comment><text>de.gempa.tb1.Pick/20250412132504.505632.124182</text><id>RefPickID</id></comment><comment><text>16.23004060474208</text><id>SNR</id></comment></pick><pick publicID="de.gempa.tb1.Pick/20250412132516.494451.124189"><time><value>2025-04-12T13:25:07.038393Z</value></time><waveformID networkCode="CX" stationCode="PB02" channelCode="HHZ"/><filterID>ITAPER(4)&gt;&gt;BW(4,4,20)</filterID><methodID>AIC</methodID><horizontalSlowness><value>11.196464090201509</value></horizontalSlowness><backazimuth><value>242.64391094132563</value></backazimuth><phaseHint>P</phaseHint><evaluationMode>automatic</evaluationMode><comment><text>44.883060649971057</text><id>DFX:rectilinearity</id></comment><comment><text>12.516250896766929</text><id>SNR</id></comment></pick><pick publicID="de.gempa.tb1.Pick/20250412132519.796688.124191"><time><value>2025-04-12T13:25:11.348391Z</value></time><waveformID networkCode="CX" stationCode="PB07" channelCode="HHZ"/><filterID>ITAPER(4)&gt;&gt;BW(4,4,20)</filterID><methodID>AIC</methodID><horizontalSlowness><value>23.080597264619957</value></horizontalSlowness><backazimuth><value>85.92540569666218</value></backazimuth><phaseHint>P</phaseHint><evaluationMode>automatic</evaluationMode><comment><text>320.8382339998919</text><id>DFX:rectilinearity</id></comment><comment><text>20.72039535338677</text><id>SNR</id></comment></pick><pick publicID="de.gempa.tb1.Pick/20250412132521.596073.124193"><time><value>2025-04-12T13:25:16.378394Z</value></time><waveformID networkCode="CX" stationCode="PB01" channelCode="HHN"/><filterID>ITAPER(2)&gt;&gt;BW(3,3,20)</filterID><methodID>L2-AIC-GRID</methodID><horizontalSlowness><value>23.243690281026836</value></horizontalSlowness><backazimuth><value>137.18753349523206</value></backazimuth><phaseHint>S</phaseHint><evaluationMode>automatic</evaluationMode><comment><text>1434.5948527238309</text><id>DFX:rectilinearity</id></comment><comment><text>de.gempa.tb1.Pick/20250412132509.552005.124184</text><id>RefPickID</id></comment><comment><text>12.867824330421458</text><id>SNR</id></comment></pick><pick publicID="de.gempa.tb1.Pick/20250412132522.396645.124194"><time><value>2025-04-12T13:25:11.26Z</value></time><waveformID networkCode="CX" stationCode="PB09" channelCode="HHZ"/><filterID>ITAPER(4)&gt;&gt;BW(4,4,20)</filterID><methodID>AIC</methodID><horizontalSlowness><value>15.72339345397151</value></horizontalSlowness><backazimuth><value>277.4685165153524</value></backazimuth><phaseHint>P</phaseHint><evaluationMode>automatic</evaluationMode><comment><text>12.132488999631372</text><id>DFX:rectilinearity</id></comment><comment><text>18.291944085606836</text><id>SNR</id></comment></pick><pick publicID="de.gempa.tb1.Pick/20250412132523.53573.124196"><time><value>2025-04-12T13:25:14.918393Z</value></time><waveformID networkCode="CX" stationCode="PB03" channelCode="HHZ"/><filterID>ITAPER(4)&gt;&gt;BW(4,4,20)</filterID><methodID>AIC</methodID><horizontalSlowness><value>10.221654747828701</value></horizontalSlowness><backazimuth><value>148.68075169039022</value></backazimuth><phaseHint>P</phaseHint><evaluationMode>automatic</evaluationMode><comment><text>7.160723580309986</text><id>DFX:rectilinearity</id></comment><comment><text>8.611504131442203</text><id>SNR</id></comment></pick><pick publicID="de.gempa.tb1.Pick/20250412132524.714276.124198"><time><value>2025-04-12T13:25:16.788393Z</value></time><waveformID networkCode="CX" stationCode="PB16" channelCode="HHZ"/><filterID>ITAPER(4)&gt;&gt;BW(4,4,20)</filterID><methodID>AIC</methodID><horizontalSlowness><value>10.322174974449233</value></horizontalSlowness><backazimuth><value>233.6666441589088</value></backazimuth><phaseHint>P</phaseHint><evaluationMode>automatic</evaluationMode><comment><text>1.6539628676119684</text><id>DFX:rectilinearity</id></comment><comment><text>10.77623589908179</text><id>SNR</id></comment></pick><pick publicID="de.gempa.tb1.Pick/20250412132527.548833.124200"><time><value>2025-04-12T13:25:20.44Z</value></time><waveformID networkCode="CX" stationCode="PSGCX" channelCode="HHN"/><filterID>ITAPER(2)&gt;&gt;BW(3,3,20)</filterID><methodID>L2-AIC-GRID</methodID><horizontalSlowness><value>18.863779567882812</value></horizontalSlowness><backazimuth><value>131.95395866464474</value></backazimuth><phaseHint>S</phaseHint><evaluationMode>automatic</evaluationMode><comment><text>126.0380215707667</text><id>DFX:rectilinearity</id></comment><comment><text>de.gempa.tb1.Pick/20250412132509.553469.124186</text><id>RefPickID</id></comment><comment><text>9.066977542536002</text><id>SNR</id></comment></pick><pick publicID="de.gempa.tb1.Pick/20250412132533.534545.124202"><time><value>2025-04-12T13:25:25.158393Z</value></time><waveformID networkCode="CX" stationCode="PB02" channelCode="HHN"/><filterID>ITAPER(2)&gt;&gt;BW(3,3,20)</filterID><methodID>L2-AIC-GRID</methodID><horizontalSlowness><value>14.683989571782732</value></horizontalSlowness><backazimuth><value>243.59947423996846</value></backazimuth><phaseHint>S</phaseHint><evaluationMode>automatic</evaluationMode><comment><text>188.75953103374772</text><id>DFX:rectilinearity</id></comment><comment><text>de.gempa.tb1.Pick/20250412132516.494451.124189</text><id>RefPickID</id></comment><comment><text>7.409125315749524</text><id>SNR</id></comment></pick><pick publicID="de.gempa.tb1.Pick/20250412132551.547643.124206"><time><value>2025-04-12T13:25:39.458393Z</value></time><waveformID networkCode="CX" stationCode="PB03" channelCode="HHN"/><filterID>ITAPER(2)&gt;&gt;BW(3,3,20)</filterID><methodID>L2-AIC-GRID</methodID><horizontalSlowness><value>17.90493063863249</value></horizontalSlowness><backazimuth><value>215.76850372756616</value></backazimuth><phaseHint>S</phaseHint><evaluationMode>automatic</evaluationMode><comment><text>25.58127184043932</text><id>DFX:rectilinearity</id></comment><comment><text>de.gempa.tb1.Pick/20250412132523.53573.124196</text><id>RefPickID</id></comment><comment><text>5.906464534991526</text><id>SNR</id></comment></pick><pick publicID="de.gempa.tb1.Pick/20250412132609.21782.124207"><time><value>2025-04-12T13:25:33.588391Z</value></time><waveformID networkCode="CX" stationCode="PB07" channelCode="HHN"/><filterID>ITAPER(2)&gt;&gt;BW(3,3,20)</filterID><methodID>L2-AIC-GRID</methodID><horizontalSlowness><value>22.389958138036043</value></horizontalSlowness><backazimuth><value>230.819259108419</value></backazimuth><phaseHint>S</phaseHint><evaluationMode>automatic</evaluationMode><comment><text>1040.8718714729457</text><id>DFX:rectilinearity</id></comment><comment><text>de.gempa.tb1.Pick/20250412132519.796688.124191</text><id>RefPickID</id></comment><comment><text>6.336859506757428</text><id>SNR</id></comment></pick><origin publicID="de.gempa.tb1.Origin/20250412132609.220797.83295"><time><value>2025-04-12T13:24:44.679303Z</value><uncertainty>0.6903626322746277</uncertainty></time><latitude><value>-20.229772567749023</value><uncertainty>2.5252256393432617</uncertainty></latitude><longitude><value>-69.25196075439453</value><uncertainty>6.03014326095581</uncertainty></longitude><depth><value>91.72725677490234</value><uncertainty>5.603178024291992</uncertainty></depth><depthType>from location</depthType><methodID>LOCSAT</methodID><earthModelID>iasp91_scanloc</earthModelID><quality><associatedPhaseCount>14</associatedPhaseCount><usedPhaseCount>14</usedPhaseCount><associatedStationCount>8</associatedStationCount><usedStationCount>8</usedStationCount><depthPhaseCount>0</depthPhaseCount><standardError>0.510099383405188</standardError><azimuthalGap>133.2503776550293</azimuthalGap><maximumDistance>1.9001450538635254</maximumDistance><minimumDistance>0.12786999344825745</minimumDistance><medianDistance>1.240696907043457</medianDistance></quality><uncertainty><minHorizontalUncertainty>5.413496017456055</minHorizontalUncertainty><maxHorizontalUncertainty>12.929622650146484</maxHorizontalUncertainty><azimuthMaxHorizontalUncertainty>89.53065490722656</azimuthMaxHorizontalUncertainty><preferredDescription>horizontal uncertainty</preferredDescription></uncertainty><evaluationMode>automatic</evaluationMode><evaluationStatus>confirmed</evaluationStatus><comment><text>0.10</text><id>mismatchScore</id></comment><comment><text>mismatchScore</text><id>scevalMethod</id></comment><arrival><pickID>de.gempa.tb1.Pick/20250412132504.505632.124182</pickID><phase>P</phase><azimuth>46.4066047668457</azimuth><distance>0.12786999344825745</distance><timeResidual>-0.27579784393310547</timeResidual><timeUsed>true</timeUsed><horizontalSlownessUsed>false</horizontalSlownessUsed><backazimuthUsed>false</backazimuthUsed><weight>1</weight></arrival><arrival><pickID>de.gempa.tb1.Pick/20250412132509.552005.124184</pickID><phase>P</phase><azimuth>195.19944763183594</azimuth><distance>0.8388546705245972</distance><timeResidual>-0.6270179748535156</timeResidual><timeUsed>true</timeUsed><horizontalSlownessUsed>false</horizontalSlownessUsed><backazimuthUsed>false</backazimuthUsed><weight>1</weight></arrival><arrival><pickID>de.gempa.tb1.Pick/20250412132509.553469.124186</pickID><phase>P</phase><azimuth>307.3699951171875</azimuth><distance>1.03337562084198</distance><timeResidual>-0.6877689361572266</timeResidual><timeUsed>true</timeUsed><horizontalSlownessUsed>false</horizontalSlownessUsed><backazimuthUsed>false</backazimuthUsed><weight>1</weight></arrival><arrival><pickID>de.gempa.tb1.Pick/20250412132515.525693.124188</pickID><phase>S</phase><azimuth>46.4066047668457</azimuth><distance>0.12786999344825745</distance><timeResidual>0.21352291107177734</timeResidual><timeUsed>true</timeUsed><horizontalSlownessUsed>false</horizontalSlownessUsed><backazimuthUsed>false</backazimuthUsed><weight>1</weight></arrival><arrival><pickID>de.gempa.tb1.Pick/20250412132516.494451.124189</pickID><phase>P</phase><azimuth>208.94996643066406</azimuth><distance>1.240696907043457</distance><timeResidual>-0.2782411575317383</timeResidual><timeUsed>true</timeUsed><horizontalSlownessUsed>false</horizontalSlownessUsed><backazimuthUsed>false</backazimuthUsed><weight>1</weight></arrival><arrival><pickID>de.gempa.tb1.Pick/20250412132519.796688.124191</pickID><phase>P</phase><azimuth>201.58692932128906</azimuth><distance>1.6030068397521973</distance><timeResidual>-0.465306282043457</timeResidual><timeUsed>true</timeUsed><horizontalSlownessUsed>false</horizontalSlownessUsed><backazimuthUsed>false</backazimuthUsed><weight>1</weight></arrival><arrival><pickID>de.gempa.tb1.Pick/20250412132521.596073.124193</pickID><phase>S</phase><azimuth>195.19944763183594</azimuth><distance>0.8388546705245972</distance><timeResidual>-0.2616109848022461</timeResidual><timeUsed>true</timeUsed><horizontalSlownessUsed>false</horizontalSlownessUsed><backazimuthUsed>false</backazimuthUsed><weight>1</weight></arrival><arrival><pickID>de.gempa.tb1.Pick/20250412132522.396645.124194</pickID><phase>P</phase><azimuth>179.656982421875</azimuth><distance>1.5588226318359375</distance><timeResidual>0.006909370422363281</timeResidual><timeUsed>true</timeUsed><horizontalSlownessUsed>false</horizontalSlownessUsed><backazimuthUsed>false</backazimuthUsed><weight>1</weight></arrival><arrival><pickID>de.gempa.tb1.Pick/20250412132523.53573.124196</pickID><phase>P</phase><azimuth>194.4051513671875</azimuth><distance>1.8691474199295044</distance><timeResidual>-0.31606197357177734</timeResidual><timeUsed>true</timeUsed><horizontalSlownessUsed>false</horizontalSlownessUsed><backazimuthUsed>false</backazimuthUsed><weight>1</weight></arrival><arrival><pickID>de.gempa.tb1.Pick/20250412132524.714276.124198</pickID><phase>P</phase><azimuth>352.6547546386719</azimuth><distance>1.9001450538635254</distance><timeResidual>1.1347227096557617</timeResidual><timeUsed>true</timeUsed><horizontalSlownessUsed>false</horizontalSlownessUsed><backazimuthUsed>false</backazimuthUsed><weight>1</weight></arrival><arrival><pickID>de.gempa.tb1.Pick/20250412132527.548833.124200</pickID><phase>S</phase><azimuth>307.3699951171875</azimuth><distance>1.03337562084198</distance><timeResidual>-0.020468711853027344</timeResidual><timeUsed>true</timeUsed><horizontalSlownessUsed>false</horizontalSlownessUsed><backazimuthUsed>false</backazimuthUsed><weight>1</weight></arrival><arrival><pickID>de.gempa.tb1.Pick/20250412132533.534545.124202</pickID><phase>S</phase><azimuth>208.94996643066406</azimuth><distance>1.240696907043457</distance><timeResidual>0.35698604583740234</timeResidual><timeUsed>true</timeUsed><horizontalSlownessUsed>false</horizontalSlownessUsed><backazimuthUsed>false</backazimuthUsed><weight>1</weight></arrival><arrival><pickID>de.gempa.tb1.Pick/20250412132551.547643.124206</pickID><phase>S</phase><azimuth>194.4051513671875</azimuth><distance>1.8691474199295044</distance><timeResidual>0.4813966751098633</timeResidual><timeUsed>true</timeUsed><horizontalSlownessUsed>false</horizontalSlownessUsed><backazimuthUsed>false</backazimuthUsed><weight>1</weight></arrival><arrival><pickID>de.gempa.tb1.Pick/20250412132609.21782.124207</pickID><phase>S</phase><azimuth>201.58692932128906</azimuth><distance>1.6030068397521973</distance><timeResidual>0.7385644912719727</timeResidual><timeUsed>true</timeUsed><horizontalSlownessUsed>false</horizontalSlownessUsed><backazimuthUsed>false</backazimuthUsed><weight>1</weight></arrival><magnitude publicID="de.gempa.tb1.Magnitude/20250412132609.230905.231431"><magnitude><value>2.1943417632236129</value></magnitude><type>M</type><methodID>weighted average</methodID><stationCount>6</stationCount></magnitude></origin><event publicID="gempa2025hfpb"><preferredOriginID>de.gempa.tb1.Origin/20250412132609.220797.83295</preferredOriginID><preferredMagnitudeID>de.gempa.tb1.Magnitude/20250412132609.230905.231431</preferredMagnitudeID><description><text>Northern Chile</text><type>region name</type></description><originReference>de.gempa.tb1.Origin/20250412132609.220797.83295</originReference></event></EventParameters></seiscomp>