<?xml version="1.0" encoding="UTF-8"?>
<seiscomp xmlns="http://geofon.gfz-potsdam.de/ns/seiscomp3-schema/0.13" version="0.13"><EventParameters><pick publicID="de.gempa.tb1.Pick/20250412041823.596147.121888"><time><value>2025-04-12T04:18:17.49Z</value></time><waveformID networkCode="CX" stationCode="PB19" channelCode="HHZ"/><filterID>ITAPER(4)&gt;&gt;BW(4,4,20)</filterID><methodID>AIC</methodID><horizontalSlowness><value>22.74145874322124</value></horizontalSlowness><backazimuth><value>16.338720431512854</value></backazimuth><phaseHint>P</phaseHint><evaluationMode>automatic</evaluationMode><comment><text>30.105204174639535</text><id>DFX:rectilinearity</id></comment><comment><text>24.58983669935617</text><id>SNR</id></comment></pick><pick publicID="de.gempa.tb1.Pick/20250412041828.793197.121890"><time><value>2025-04-12T04:18:21.158391Z</value></time><waveformID networkCode="CX" stationCode="PB15" channelCode="HHZ"/><filterID>ITAPER(4)&gt;&gt;BW(4,4,20)</filterID><methodID>AIC</methodID><horizontalSlowness><value>21.693050257249563</value></horizontalSlowness><backazimuth><value>110.38840601836284</value></backazimuth><phaseHint>P</phaseHint><evaluationMode>automatic</evaluationMode><comment><text>105.76227708867543</text><id>DFX:rectilinearity</id></comment><comment><text>10.40662764955008</text><id>SNR</id></comment></pick><pick publicID="de.gempa.tb1.Pick/20250412041830.636987.121892"><time><value>2025-04-12T04:18:24.098393Z</value></time><waveformID networkCode="CX" stationCode="PB06" channelCode="HHZ"/><filterID>ITAPER(4)&gt;&gt;BW(4,4,20)</filterID><methodID>AIC</methodID><horizontalSlowness><value>14.513877269245073</value></horizontalSlowness><backazimuth><value>299.52486882219955</value></backazimuth><phaseHint>P</phaseHint><evaluationMode>automatic</evaluationMode><comment><text>56.12327627412773</text><id>DFX:rectilinearity</id></comment><comment><text>11.798642683740471</text><id>SNR</id></comment></pick><pick publicID="de.gempa.tb1.Pick/20250412041834.561113.121894"><time><value>2025-04-12T04:18:29.478393Z</value></time><waveformID networkCode="CX" stationCode="PB03" channelCode="HHZ"/><filterID>ITAPER(4)&gt;&gt;BW(4,4,20)</filterID><methodID>AIC</methodID><horizontalSlowness><value>8.139793147591782</value></horizontalSlowness><backazimuth><value>207.0411940217848</value></backazimuth><phaseHint>P</phaseHint><evaluationMode>automatic</evaluationMode><comment><text>8.671622156036781</text><id>DFX:rectilinearity</id></comment><comment><text>9.155436582699886</text><id>SNR</id></comment></pick><pick publicID="de.gempa.tb1.Pick/20250412041841.372189.121896"><time><value>2025-04-12T04:18:32.818394Z</value></time><waveformID networkCode="CX" stationCode="PB07" channelCode="HHZ"/><filterID>ITAPER(4)&gt;&gt;BW(4,4,20)</filterID><methodID>AIC</methodID><horizontalSlowness><value>20.90242357860577</value></horizontalSlowness><backazimuth><value>307.71214544923436</value></backazimuth><phaseHint>P</phaseHint><evaluationMode>automatic</evaluationMode><comment><text>156.922245516269</text><id>DFX:rectilinearity</id></comment><comment><text>15.801928079536523</text><id>SNR</id></comment></pick><pick publicID="de.gempa.tb1.Pick/20250412041843.590713.121898"><time><value>2025-04-12T04:18:35.348393Z</value></time><waveformID networkCode="CX" stationCode="PB01" channelCode="HHZ"/><filterID>ITAPER(4)&gt;&gt;BW(4,4,20)</filterID><methodID>AIC</methodID><horizontalSlowness><value>18.190320236702966</value></horizontalSlowness><backazimuth><value>284.99515537499235</value></backazimuth><phaseHint>P</phaseHint><evaluationMode>automatic</evaluationMode><comment><text>17.59744366649162</text><id>DFX:rectilinearity</id></comment><comment><text>7.243864134079645</text><id>SNR</id></comment></pick><pick publicID="de.gempa.tb1.Pick/20250412041845.614781.121900"><time><value>2025-04-12T04:18:28.01Z</value></time><waveformID networkCode="CX" stationCode="PB09" channelCode="HHZ"/><filterID>ITAPER(4)&gt;&gt;BW(4,4,20)</filterID><methodID>AIC</methodID><horizontalSlowness><value>8.849806778583494</value></horizontalSlowness><backazimuth><value>278.23249111996074</value></backazimuth><phaseHint>P</phaseHint><evaluationMode>automatic</evaluationMode><comment><text>12.495498787331865</text><id>DFX:rectilinearity</id></comment><comment><text>13.543066864081915</text><id>SNR</id></comment></pick><pick publicID="de.gempa.tb1.Pick/20250412041856.501128.121902"><time><value>2025-04-12T04:18:49.26Z</value></time><waveformID networkCode="CX" stationCode="PB19" channelCode="HHN"/><filterID>ITAPER(2)&gt;&gt;BW(3,3,20)</filterID><methodID>L2-AIC-GRID</methodID><horizontalSlowness><value>23.53483730131356</value></horizontalSlowness><backazimuth><value>218.10340032274516</value></backazimuth><phaseHint>S</phaseHint><evaluationMode>automatic</evaluationMode><comment><text>229.43288725036064</text><id>DFX:rectilinearity</id></comment><comment><text>de.gempa.tb1.Pick/20250412041823.596147.121888</text><id>RefPickID</id></comment><comment><text>8.890533021051308</text><id>SNR</id></comment></pick><pick publicID="de.gempa.tb1.Pick/20250412041902.87169.121906"><time><value>2025-04-12T04:18:54.458391Z</value></time><waveformID networkCode="CX" stationCode="PB15" channelCode="HHN"/><filterID>ITAPER(2)&gt;&gt;BW(3,3,20)</filterID><methodID>L2-AIC-GRID</methodID><horizontalSlowness><value>21.45582751970013</value></horizontalSlowness><backazimuth><value>143.4206918229685</value></backazimuth><phaseHint>S</phaseHint><evaluationMode>automatic</evaluationMode><comment><text>2953.3104440482334</text><id>DFX:rectilinearity</id></comment><comment><text>de.gempa.tb1.Pick/20250412041828.793197.121890</text><id>RefPickID</id></comment><comment><text>8.706803911027992</text><id>SNR</id></comment></pick><pick publicID="de.gempa.tb1.Pick/20250412041906.611833.121909"><time><value>2025-04-12T04:18:59.818393Z</value></time><waveformID networkCode="CX" stationCode="PB06" channelCode="HHN"/><filterID>ITAPER(2)&gt;&gt;BW(3,3,20)</filterID><methodID>L2-AIC-GRID</methodID><horizontalSlowness><value>6.111875568535472</value></horizontalSlowness><backazimuth><value>335.15518749559806</value></backazimuth><phaseHint>S</phaseHint><evaluationMode>automatic</evaluationMode><comment><text>67.68513000924636</text><id>DFX:rectilinearity</id></comment><comment><text>de.gempa.tb1.Pick/20250412041830.636987.121892</text><id>RefPickID</id></comment><comment><text>21.540588756431173</text><id>SNR</id></comment></pick><pick publicID="de.gempa.tb1.Pick/20250412041921.697465.121915"><time><value>2025-04-12T04:19:07.42Z</value></time><waveformID networkCode="CX" stationCode="PB09" channelCode="HHN"/><filterID>ITAPER(2)&gt;&gt;BW(3,3,20)</filterID><methodID>L2-AIC-GRID</methodID><horizontalSlowness><value>11.889860312353333</value></horizontalSlowness><backazimuth><value>310.1309350220714</value></backazimuth><phaseHint>S</phaseHint><evaluationMode>automatic</evaluationMode><comment><text>25.67497531854918</text><id>DFX:rectilinearity</id></comment><comment><text>de.gempa.tb1.Pick/20250412041845.614781.121900</text><id>RefPickID</id></comment><comment><text>6.033330860825792</text><id>SNR</id></comment></pick><origin publicID="de.gempa.tb1.Origin/20250412041921.700704.74001"><time><value>2025-04-12T04:17:35.93265Z</value><uncertainty>1.0722483396530151</uncertainty></time><latitude><value>-23.81593894958496</value><uncertainty>7.385979652404785</uncertainty></latitude><longitude><value>-66.61315155029297</value><uncertainty>6.177391052246094</uncertainty></longitude><depth><value>0</value></depth><depthType>operator assigned</depthType><methodID>LOCSAT</methodID><earthModelID>iasp91_scanloc</earthModelID><quality><associatedPhaseCount>11</associatedPhaseCount><usedPhaseCount>11</usedPhaseCount><associatedStationCount>7</associatedStationCount><usedStationCount>7</usedStationCount><depthPhaseCount>0</depthPhaseCount><standardError>0.8120376425541913</standardError><azimuthalGap>311.8912658691406</azimuthalGap><maximumDistance>3.8320984840393066</maximumDistance><minimumDistance>2.4528989791870117</minimumDistance><medianDistance>2.9367685317993164</medianDistance></quality><uncertainty><minHorizontalUncertainty>12.845035552978516</minHorizontalUncertainty><maxHorizontalUncertainty>16.16980743408203</maxHorizontalUncertainty><azimuthMaxHorizontalUncertainty>160.70492553710938</azimuthMaxHorizontalUncertainty><preferredDescription>horizontal uncertainty</preferredDescription></uncertainty><evaluationMode>automatic</evaluationMode><evaluationStatus>confirmed</evaluationStatus><comment><text>0.01</text><id>mismatchScore</id></comment><comment><text>mismatchScore</text><id>scevalMethod</id></comment><arrival><pickID>de.gempa.tb1.Pick/20250412041823.596147.121888</pickID><phase>P</phase><azimuth>267.3955993652344</azimuth><distance>2.4528989791870117</distance><timeResidual>0.2802276611328125</timeResidual><timeUsed>true</timeUsed><horizontalSlownessUsed>false</horizontalSlownessUsed><backazimuthUsed>false</backazimuthUsed><weight>1</weight></arrival><arrival><pickID>de.gempa.tb1.Pick/20250412041828.793197.121890</pickID><phase>P</phase><azimuth>282.4135437011719</azimuth><distance>2.6920480728149414</distance><timeResidual>0.6564750671386719</timeResidual><timeUsed>true</timeUsed><horizontalSlownessUsed>false</horizontalSlownessUsed><backazimuthUsed>false</backazimuthUsed><weight>1</weight></arrival><arrival><pickID>de.gempa.tb1.Pick/20250412041830.636987.121892</pickID><phase>P</phase><azimuth>291.5159912109375</azimuth><distance>2.9367685317993164</distance><timeResidual>0.22789764404296875</timeResidual><timeUsed>true</timeUsed><horizontalSlownessUsed>false</horizontalSlownessUsed><backazimuthUsed>false</backazimuthUsed><weight>1</weight></arrival><arrival><pickID>de.gempa.tb1.Pick/20250412041834.561113.121894</pickID><phase>P</phase><azimuth>300.67242431640625</azimuth><distance>3.3871612548828125</distance><timeResidual>-0.5903816223144531</timeResidual><timeUsed>true</timeUsed><horizontalSlownessUsed>false</horizontalSlownessUsed><backazimuthUsed>false</backazimuthUsed><weight>1</weight></arrival><arrival><pickID>de.gempa.tb1.Pick/20250412041841.372189.121896</pickID><phase>P</phase><azimuth>303.90252685546875</azimuth><distance>3.667184114456177</distance><timeResidual>-1.103424072265625</timeResidual><timeUsed>true</timeUsed><horizontalSlownessUsed>false</horizontalSlownessUsed><backazimuthUsed>false</backazimuthUsed><weight>1</weight></arrival><arrival><pickID>de.gempa.tb1.Pick/20250412041843.590713.121898</pickID><phase>P</phase><azimuth>315.50433349609375</azimuth><distance>3.8320984840393066</distance><timeResidual>-0.84307861328125</timeResidual><timeUsed>true</timeUsed><horizontalSlownessUsed>false</horizontalSlownessUsed><backazimuthUsed>false</backazimuthUsed><weight>1</weight></arrival><arrival><pickID>de.gempa.tb1.Pick/20250412041845.614781.121900</pickID><phase>P</phase><azimuth>309.13409423828125</azimuth><distance>3.150122880935669</distance><timeResidual>1.2023963928222656</timeResidual><timeUsed>true</timeUsed><horizontalSlownessUsed>false</horizontalSlownessUsed><backazimuthUsed>false</backazimuthUsed><weight>1</weight></arrival><arrival><pickID>de.gempa.tb1.Pick/20250412041856.501128.121902</pickID><phase>S</phase><azimuth>267.3955993652344</azimuth><distance>2.4528989791870117</distance><timeResidual>0.3527870178222656</timeResidual><timeUsed>true</timeUsed><horizontalSlownessUsed>false</horizontalSlownessUsed><backazimuthUsed>false</backazimuthUsed><weight>1</weight></arrival><arrival><pickID>de.gempa.tb1.Pick/20250412041902.87169.121906</pickID><phase>S</phase><azimuth>282.4135437011719</azimuth><distance>2.6920480728149414</distance><timeResidual>-0.3694610595703125</timeResidual><timeUsed>true</timeUsed><horizontalSlownessUsed>false</horizontalSlownessUsed><backazimuthUsed>false</backazimuthUsed><weight>1</weight></arrival><arrival><pickID>de.gempa.tb1.Pick/20250412041906.611833.121909</pickID><phase>S</phase><azimuth>291.5159912109375</azimuth><distance>2.9367685317993164</distance><timeResidual>-1.0669021606445312</timeResidual><timeUsed>true</timeUsed><horizontalSlownessUsed>false</horizontalSlownessUsed><backazimuthUsed>false</backazimuthUsed><weight>1</weight></arrival><arrival><pickID>de.gempa.tb1.Pick/20250412041921.697465.121915</pickID><phase>S</phase><azimuth>309.13409423828125</azimuth><distance>3.150122880935669</distance><timeResidual>1.2530593872070312</timeResidual><timeUsed>true</timeUsed><horizontalSlownessUsed>false</horizontalSlownessUsed><backazimuthUsed>false</backazimuthUsed><weight>1</weight></arrival><magnitude publicID="de.gempa.tb1.Magnitude/20250412042037.524925.175382"><magnitude><value>3.5034816649522824</value></magnitude><type>M</type><methodID>weighted average</methodID><stationCount>7</stationCount></magnitude></origin><event publicID="gempa2025hewu"><preferredOriginID>de.gempa.tb1.Origin/20250412041921.700704.74001</preferredOriginID><preferredMagnitudeID>de.gempa.tb1.Magnitude/20250412042037.524925.175382</preferredMagnitudeID><description><text>Jujuy Province, Argentina</text><type>region name</type></description><originReference>de.gempa.tb1.Origin/20250412041921.700704.74001</originReference></event></EventParameters></seiscomp>