<?xml version="1.0" encoding="UTF-8"?>
<seiscomp xmlns="http://geofon.gfz-potsdam.de/ns/seiscomp3-schema/0.13" version="0.13"><EventParameters><pick publicID="de.gempa.tb1.Pick/20250412204117.972424.189706"><time><value>2025-04-12T20:41:12.2Z</value></time><waveformID networkCode="SX" stationCode="ROHR" channelCode="HHZ"/><filterID>ITAPER(2)&gt;&gt;BW(3,3,20)</filterID><methodID>AIC</methodID><horizontalSlowness><value>0.2352951058757447</value></horizontalSlowness><backazimuth><value>284.1703164539514</value></backazimuth><phaseHint>P</phaseHint><evaluationMode>automatic</evaluationMode><comment><text>29.18290798446541</text><id>DFX:rectilinearity</id></comment></pick><pick publicID="de.gempa.tb1.Pick/20250412204118.651786.189708"><time><value>2025-04-12T20:41:12.45Z</value></time><waveformID networkCode="SX" stationCode="WERD" channelCode="HHZ"/><filterID>ITAPER(2)&gt;&gt;BW(3,3,20)</filterID><methodID>AIC</methodID><horizontalSlowness><value>15.549475489487353</value></horizontalSlowness><backazimuth><value>234.7869507898647</value></backazimuth><phaseHint>P</phaseHint><evaluationMode>automatic</evaluationMode><comment><text>4.1495027801335054</text><id>DFX:rectilinearity</id></comment></pick><pick publicID="de.gempa.tb1.Pick/20250412204119.313083.189710"><time><value>2025-04-12T20:41:11.6Z</value></time><waveformID networkCode="SX" stationCode="MULD" channelCode="HHZ"/><filterID>ITAPER(2)&gt;&gt;BW(3,3,20)</filterID><methodID>AIC</methodID><horizontalSlowness><value>22.785967994089596</value></horizontalSlowness><backazimuth><value>336.0240830409252</value></backazimuth><phaseHint>P</phaseHint><evaluationMode>automatic</evaluationMode><comment><text>9.181227084313717</text><id>DFX:rectilinearity</id></comment></pick><pick publicID="de.gempa.tb1.Pick/20250412204120.493043.189714"><time><value>2025-04-12T20:41:10.3275Z</value></time><waveformID networkCode="SX" stationCode="WERN" channelCode="HHZ"/><filterID>ITAPER(2)&gt;&gt;BW(3,3,20)</filterID><methodID>AIC</methodID><horizontalSlowness><value>23.525040776029257</value></horizontalSlowness><backazimuth><value>65.91320822171038</value></backazimuth><phaseHint>P</phaseHint><evaluationMode>automatic</evaluationMode><comment><text>49.17231934649521</text><id>DFX:rectilinearity</id></comment></pick><pick publicID="de.gempa.tb1.Pick/20250412204120.494172.189716"><time><value>2025-04-12T20:41:11.8075Z</value></time><waveformID networkCode="SX" stationCode="WERN" channelCode="HHN"/><filterID>ITAPER(3)&gt;&gt;BW(4,3,10)</filterID><methodID>L2-AIC-GRID</methodID><horizontalSlowness><value>23.55095669407717</value></horizontalSlowness><backazimuth><value>247.15400600183096</value></backazimuth><phaseHint>S</phaseHint><evaluationMode>automatic</evaluationMode><comment><text>48.30094672602846</text><id>DFX:rectilinearity</id></comment><comment><text>de.gempa.tb1.Pick/20250412204120.493043.189714</text><id>RefPickID</id></comment></pick><pick publicID="de.gempa.tb1.Pick/20250412204120.859153.189717"><time><value>2025-04-12T20:41:11.58Z</value></time><waveformID networkCode="SX" stationCode="TANN" channelCode="HHZ"/><filterID>ITAPER(2)&gt;&gt;BW(3,3,20)</filterID><methodID>AIC</methodID><horizontalSlowness><value>21.26204492178616</value></horizontalSlowness><backazimuth><value>344.7643023398483</value></backazimuth><phaseHint>P</phaseHint><evaluationMode>automatic</evaluationMode><comment><text>2.9471802061845347</text><id>DFX:rectilinearity</id></comment></pick><pick publicID="de.gempa.tb1.Pick/20250412204124.018338.189731"><time><value>2025-04-12T20:41:14.87Z</value></time><waveformID networkCode="SX" stationCode="LEUT" channelCode="HHZ"/><filterID>ITAPER(2)&gt;&gt;BW(3,3,20)</filterID><methodID>AIC</methodID><horizontalSlowness><value>21.867391276647808</value></horizontalSlowness><backazimuth><value>232.62256967084377</value></backazimuth><phaseHint>P</phaseHint><evaluationMode>automatic</evaluationMode><comment><text>2.2250486487987633</text><id>DFX:rectilinearity</id></comment></pick><pick publicID="de.gempa.tb1.Pick/20250412204124.427807.189733"><time><value>2025-04-12T20:41:12.6Z</value></time><waveformID networkCode="SX" stationCode="TRIB" channelCode="HHZ"/><filterID>ITAPER(2)&gt;&gt;BW(3,3,20)</filterID><methodID>AIC</methodID><horizontalSlowness><value>8.264456288687065</value></horizontalSlowness><backazimuth><value>16.31395043593352</value></backazimuth><phaseHint>P</phaseHint><evaluationMode>automatic</evaluationMode><comment><text>3.406124152401208</text><id>DFX:rectilinearity</id></comment></pick><pick publicID="de.gempa.tb1.Pick/20250412204124.846515.189735"><time><value>2025-04-12T20:41:13.94Z</value></time><waveformID networkCode="SX" stationCode="TANN" channelCode="HHN"/><filterID>ITAPER(3)&gt;&gt;BW(4,3,10)</filterID><methodID>L2-AIC-GRID</methodID><horizontalSlowness><value>19.23542537316997</value></horizontalSlowness><backazimuth><value>340.01567958485384</value></backazimuth><phaseHint>S</phaseHint><evaluationMode>automatic</evaluationMode><comment><text>2.584473554250757</text><id>DFX:rectilinearity</id></comment><comment><text>de.gempa.tb1.Pick/20250412204120.859153.189717</text><id>RefPickID</id></comment></pick><pick publicID="de.gempa.tb1.Pick/20250412204125.351848.189736"><time><value>2025-04-12T20:41:13.93Z</value></time><waveformID networkCode="SX" stationCode="MULD" channelCode="HHN"/><filterID>ITAPER(3)&gt;&gt;BW(4,3,10)</filterID><methodID>L2-AIC-GRID</methodID><horizontalSlowness><value>23.055017965277464</value></horizontalSlowness><backazimuth><value>154.48948224677522</value></backazimuth><phaseHint>S</phaseHint><evaluationMode>automatic</evaluationMode><comment><text>10.959484301187219</text><id>DFX:rectilinearity</id></comment><comment><text>de.gempa.tb1.Pick/20250412204119.313083.189710</text><id>RefPickID</id></comment></pick><pick publicID="de.gempa.tb1.Pick/20250412204127.314776.189740"><time><value>2025-04-12T20:41:15.65Z</value></time><waveformID networkCode="SX" stationCode="TRIB" channelCode="HHN"/><filterID>ITAPER(3)&gt;&gt;BW(4,3,10)</filterID><methodID>L2-AIC-GRID</methodID><horizontalSlowness><value>8.157936644099943</value></horizontalSlowness><backazimuth><value>15.665525747714213</value></backazimuth><phaseHint>S</phaseHint><evaluationMode>automatic</evaluationMode><comment><text>3.392250747514453</text><id>DFX:rectilinearity</id></comment><comment><text>de.gempa.tb1.Pick/20250412204124.427807.189733</text><id>RefPickID</id></comment></pick><origin publicID="de.gempa.tb1.Origin/20250412204147.342199.173400"><time><value>2025-04-12T20:41:08.546967Z</value><uncertainty>1.0148395299911499</uncertainty></time><latitude><value>50.32245254516602</value><uncertainty>1.9456217288970947</uncertainty></latitude><longitude><value>12.385043144226074</value><uncertainty>3.0619163513183594</uncertainty></longitude><depth><value>7.661619186401367</value><uncertainty>4.938859462738037</uncertainty></depth><depthType>from location</depthType><methodID>LOCSAT</methodID><earthModelID>iasp91</earthModelID><quality><associatedPhaseCount>11</associatedPhaseCount><usedPhaseCount>11</usedPhaseCount><associatedStationCount>7</associatedStationCount><usedStationCount>7</usedStationCount><depthPhaseCount>0</depthPhaseCount><standardError>0.2527028060734987</standardError><azimuthalGap>161.61655235290527</azimuthalGap><maximumDistance>0.29844310879707336</maximumDistance><minimumDistance>0.035561349242925644</minimumDistance><medianDistance>0.10465331375598907</medianDistance></quality><uncertainty><minHorizontalUncertainty>3.6501097679138184</minHorizontalUncertainty><maxHorizontalUncertainty>6.868742942810059</maxHorizontalUncertainty><azimuthMaxHorizontalUncertainty>110.31068420410156</azimuthMaxHorizontalUncertainty><preferredDescription>horizontal uncertainty</preferredDescription></uncertainty><evaluationMode>automatic</evaluationMode><evaluationStatus>confirmed</evaluationStatus><comment><text>0.19</text><id>mismatchScore</id></comment><comment><text>mismatchScore</text><id>scevalMethod</id></comment><arrival><pickID>de.gempa.tb1.Pick/20250412204117.972424.189706</pickID><phase>P</phase><azimuth>206.26773071289062</azimuth><distance>0.09873416274785995</distance><timeResidual>0.575937271118164</timeResidual><timeUsed>true</timeUsed><horizontalSlownessUsed>false</horizontalSlownessUsed><backazimuthUsed>false</backazimuthUsed><weight>1</weight></arrival><arrival><pickID>de.gempa.tb1.Pick/20250412204118.651786.189708</pickID><phase>P</phase><azimuth>338.3550109863281</azimuth><distance>0.13526853919029236</distance><timeResidual>0.1760578155517578</timeResidual><timeUsed>true</timeUsed><horizontalSlownessUsed>false</horizontalSlownessUsed><backazimuthUsed>false</backazimuthUsed><weight>1</weight></arrival><arrival><pickID>de.gempa.tb1.Pick/20250412204119.313083.189710</pickID><phase>P</phase><azimuth>7.680785655975342</azimuth><distance>0.09026915580034256</distance><timeResidual>0.12707114219665527</timeResidual><timeUsed>true</timeUsed><horizontalSlownessUsed>false</horizontalSlownessUsed><backazimuthUsed>false</backazimuthUsed><weight>1</weight></arrival><arrival><pickID>de.gempa.tb1.Pick/20250412204120.493043.189714</pickID><phase>P</phase><azimuth>189.28402709960938</azimuth><distance>0.035561349242925644</distance><timeResidual>-0.17179667949676514</timeResidual><timeUsed>true</timeUsed><horizontalSlownessUsed>false</horizontalSlownessUsed><backazimuthUsed>false</backazimuthUsed><weight>1</weight></arrival><arrival><pickID>de.gempa.tb1.Pick/20250412204120.494172.189716</pickID><phase>S</phase><azimuth>189.28402709960938</azimuth><distance>0.035561349242925644</distance><timeResidual>-0.12789416313171387</timeResidual><timeUsed>true</timeUsed><horizontalSlownessUsed>false</horizontalSlownessUsed><backazimuthUsed>false</backazimuthUsed><weight>1</weight></arrival><arrival><pickID>de.gempa.tb1.Pick/20250412204120.859153.189717</pickID><phase>P</phase><azimuth>27.6674747467041</azimuth><distance>0.10465331375598907</distance><timeResidual>-0.14899516105651855</timeResidual><timeUsed>true</timeUsed><horizontalSlownessUsed>false</horizontalSlownessUsed><backazimuthUsed>false</backazimuthUsed><weight>1</weight></arrival><arrival><pickID>de.gempa.tb1.Pick/20250412204124.018338.189731</pickID><phase>P</phase><azimuth>17.14150047302246</azimuth><distance>0.29844310879707336</distance><timeResidual>-0.3084697723388672</timeResidual><timeUsed>true</timeUsed><horizontalSlownessUsed>false</horizontalSlownessUsed><backazimuthUsed>false</backazimuthUsed><weight>1</weight></arrival><arrival><pickID>de.gempa.tb1.Pick/20250412204124.427807.189733</pickID><phase>P</phase><azimuth>280.6389465332031</azimuth><distance>0.16167739033699036</distance><timeResidual>-0.14432096481323242</timeResidual><timeUsed>true</timeUsed><horizontalSlownessUsed>false</horizontalSlownessUsed><backazimuthUsed>false</backazimuthUsed><weight>1</weight></arrival><arrival><pickID>de.gempa.tb1.Pick/20250412204124.846515.189735</pickID><phase>S</phase><azimuth>27.6674747467041</azimuth><distance>0.10465331375598907</distance><timeResidual>-0.12156224250793457</timeResidual><timeUsed>true</timeUsed><horizontalSlownessUsed>false</horizontalSlownessUsed><backazimuthUsed>false</backazimuthUsed><weight>1</weight></arrival><arrival><pickID>de.gempa.tb1.Pick/20250412204125.351848.189736</pickID><phase>S</phase><azimuth>7.680785655975342</azimuth><distance>0.09026915580034256</distance><timeResidual>0.3111872673034668</timeResidual><timeUsed>true</timeUsed><horizontalSlownessUsed>false</horizontalSlownessUsed><backazimuthUsed>false</backazimuthUsed><weight>1</weight></arrival><arrival><pickID>de.gempa.tb1.Pick/20250412204127.314776.189740</pickID><phase>S</phase><azimuth>280.6389465332031</azimuth><distance>0.16167739033699036</distance><timeResidual>-0.16712570190429688</timeResidual><timeUsed>true</timeUsed><horizontalSlownessUsed>false</horizontalSlownessUsed><backazimuthUsed>false</backazimuthUsed><weight>1</weight></arrival><magnitude publicID="de.gempa.tb1.Magnitude/20250412204252.78261.280926"><magnitude><value>0.14790050324436885</value></magnitude><type>M</type><methodID>weighted average</methodID><stationCount>7</stationCount></magnitude></origin><event publicID="gempa2025hgdp"><preferredOriginID>de.gempa.tb1.Origin/20250412204147.342199.173400</preferredOriginID><preferredMagnitudeID>de.gempa.tb1.Magnitude/20250412204252.78261.280926</preferredMagnitudeID><description><text>Germany</text><type>region name</type></description><originReference>de.gempa.tb1.Origin/20250412204147.342199.173400</originReference></event></EventParameters></seiscomp>