<?xml version="1.0" encoding="UTF-8"?>
<seiscomp xmlns="http://geofon.gfz-potsdam.de/ns/seiscomp3-schema/0.13" version="0.13"><EventParameters><pick publicID="de.gempa.tb1.Pick/20250414213854.775602.141422"><time><value>2025-04-14T21:38:49.27Z</value></time><waveformID networkCode="CX" stationCode="PB09" channelCode="HHZ"/><filterID>ITAPER(4)&gt;&gt;BW(4,4,20)</filterID><methodID>AIC</methodID><horizontalSlowness><value>20.170381591692955</value></horizontalSlowness><backazimuth><value>261.0875864275031</value></backazimuth><phaseHint>P</phaseHint><evaluationMode>automatic</evaluationMode><comment><text>9.653073669859443</text><id>DFX:rectilinearity</id></comment><comment><text>46.31085751053334</text><id>SNR</id></comment></pick><pick publicID="de.gempa.tb1.Pick/20250414213858.527221.141424"><time><value>2025-04-14T21:38:53.868393Z</value></time><waveformID networkCode="CX" stationCode="PB06" channelCode="HHZ"/><filterID>ITAPER(4)&gt;&gt;BW(4,4,20)</filterID><methodID>AIC</methodID><horizontalSlowness><value>1.363838089871365</value></horizontalSlowness><backazimuth><value>87.0631845215994</value></backazimuth><phaseHint>P</phaseHint><evaluationMode>automatic</evaluationMode><comment><text>63.44391286274863</text><id>DFX:rectilinearity</id></comment><comment><text>7.687722117570907</text><id>SNR</id></comment></pick><pick publicID="de.gempa.tb1.Pick/20250414213859.776489.141426"><time><value>2025-04-14T21:38:54.688393Z</value></time><waveformID networkCode="CX" stationCode="PB07" channelCode="HHZ"/><filterID>ITAPER(4)&gt;&gt;BW(4,4,20)</filterID><methodID>AIC</methodID><horizontalSlowness><value>20.136319773033598</value></horizontalSlowness><backazimuth><value>96.23483632764881</value></backazimuth><phaseHint>P</phaseHint><evaluationMode>automatic</evaluationMode><comment><text>251.1400512399041</text><id>DFX:rectilinearity</id></comment><comment><text>76.34856657273205</text><id>SNR</id></comment></pick><pick publicID="de.gempa.tb1.Pick/20250414213900.476009.141428"><time><value>2025-04-14T21:38:52.938393Z</value></time><waveformID networkCode="CX" stationCode="PB03" channelCode="HHZ"/><filterID>ITAPER(4)&gt;&gt;BW(4,4,20)</filterID><methodID>AIC</methodID><horizontalSlowness><value>15.787621487455386</value></horizontalSlowness><backazimuth><value>226.8232661517828</value></backazimuth><phaseHint>P</phaseHint><evaluationMode>automatic</evaluationMode><comment><text>5.525350163778685</text><id>DFX:rectilinearity</id></comment><comment><text>24.31659233921058</text><id>SNR</id></comment></pick><pick publicID="de.gempa.tb1.Pick/20250414213902.588991.141430"><time><value>2025-04-14T21:38:55.248393Z</value></time><waveformID networkCode="CX" stationCode="PB01" channelCode="HHZ"/><filterID>ITAPER(4)&gt;&gt;BW(4,4,20)</filterID><methodID>AIC</methodID><horizontalSlowness><value>23.089195195854067</value></horizontalSlowness><backazimuth><value>321.6238530663985</value></backazimuth><phaseHint>P</phaseHint><evaluationMode>automatic</evaluationMode><comment><text>7.390312604078225</text><id>DFX:rectilinearity</id></comment><comment><text>8.347741003996799</text><id>SNR</id></comment></pick><pick publicID="de.gempa.tb1.Pick/20250414213904.541206.141432"><time><value>2025-04-14T21:38:56.858393Z</value></time><waveformID networkCode="CX" stationCode="PB02" channelCode="HHZ"/><filterID>ITAPER(4)&gt;&gt;BW(4,4,20)</filterID><methodID>AIC</methodID><horizontalSlowness><value>9.975444379453144</value></horizontalSlowness><backazimuth><value>339.02666188691273</value></backazimuth><phaseHint>P</phaseHint><evaluationMode>automatic</evaluationMode><comment><text>19.053682123928652</text><id>DFX:rectilinearity</id></comment><comment><text>11.209776236438506</text><id>SNR</id></comment></pick><pick publicID="de.gempa.tb1.Pick/20250414213916.773131.141434"><time><value>2025-04-14T21:39:10.238393Z</value></time><waveformID networkCode="CX" stationCode="PB03" channelCode="HHN"/><filterID>ITAPER(2)&gt;&gt;BW(3,3,20)</filterID><methodID>L2-AIC-GRID</methodID><horizontalSlowness><value>11.242065562682361</value></horizontalSlowness><backazimuth><value>222.56362259445334</value></backazimuth><phaseHint>S</phaseHint><evaluationMode>automatic</evaluationMode><comment><text>19.527141605000072</text><id>DFX:rectilinearity</id></comment><comment><text>de.gempa.tb1.Pick/20250414213900.476009.141428</text><id>RefPickID</id></comment><comment><text>7.425630112810367</text><id>SNR</id></comment></pick><pick publicID="de.gempa.tb1.Pick/20250414213921.678822.141437"><time><value>2025-04-14T21:39:13.938393Z</value></time><waveformID networkCode="CX" stationCode="PB01" channelCode="HHN"/><filterID>ITAPER(2)&gt;&gt;BW(3,3,20)</filterID><methodID>L2-AIC-GRID</methodID><horizontalSlowness><value>20.491941070047023</value></horizontalSlowness><backazimuth><value>324.2130867073372</value></backazimuth><phaseHint>S</phaseHint><evaluationMode>automatic</evaluationMode><comment><text>54.59612176160387</text><id>DFX:rectilinearity</id></comment><comment><text>de.gempa.tb1.Pick/20250414213902.588991.141430</text><id>RefPickID</id></comment><comment><text>11.268664465623418</text><id>SNR</id></comment></pick><pick publicID="de.gempa.tb1.Pick/20250414213922.589138.141438"><time><value>2025-04-14T21:39:15.648393Z</value></time><waveformID networkCode="CX" stationCode="PB02" channelCode="HHN"/><filterID>ITAPER(2)&gt;&gt;BW(3,3,20)</filterID><methodID>L2-AIC-GRID</methodID><horizontalSlowness><value>8.013164872937448</value></horizontalSlowness><backazimuth><value>333.2691520224463</value></backazimuth><phaseHint>S</phaseHint><evaluationMode>automatic</evaluationMode><comment><text>138.34968652331085</text><id>DFX:rectilinearity</id></comment><comment><text>de.gempa.tb1.Pick/20250414213904.541206.141432</text><id>RefPickID</id></comment><comment><text>7.054767671378311</text><id>SNR</id></comment></pick><pick publicID="de.gempa.tb1.Pick/20250414213934.375853.141441"><time><value>2025-04-14T21:39:13.038393Z</value></time><waveformID networkCode="CX" stationCode="PB07" channelCode="HHN"/><filterID>ITAPER(2)&gt;&gt;BW(3,3,20)</filterID><methodID>L2-AIC-GRID</methodID><horizontalSlowness><value>22.83800673688359</value></horizontalSlowness><backazimuth><value>24.490790945315723</value></backazimuth><phaseHint>S</phaseHint><evaluationMode>automatic</evaluationMode><comment><text>988.6987204235115</text><id>DFX:rectilinearity</id></comment><comment><text>de.gempa.tb1.Pick/20250414213859.776489.141426</text><id>RefPickID</id></comment><comment><text>8.10640348017203</text><id>SNR</id></comment></pick><origin publicID="de.gempa.tb1.Origin/20250414213934.380706.151680"><time><value>2025-04-14T21:38:31.181566Z</value><uncertainty>1.1752806901931763</uncertainty></time><latitude><value>-21.99267578125</value><uncertainty>6.045979022979736</uncertainty></latitude><longitude><value>-68.66576385498047</value><uncertainty>13.254706382751465</uncertainty></longitude><depth><value>117.05532836914062</value><uncertainty>18.40107536315918</uncertainty></depth><depthType>from location</depthType><methodID>LOCSAT</methodID><earthModelID>iasp91_scanloc</earthModelID><quality><associatedPhaseCount>10</associatedPhaseCount><usedPhaseCount>10</usedPhaseCount><associatedStationCount>6</associatedStationCount><usedStationCount>6</usedStationCount><depthPhaseCount>0</depthPhaseCount><standardError>0.2060449947022637</standardError><azimuthalGap>268.74639892578125</azimuthalGap><maximumDistance>1.325975775718689</maximumDistance><minimumDistance>0.5696375370025635</minimumDistance><medianDistance>1.16420316696167</medianDistance></quality><uncertainty><minHorizontalUncertainty>12.945622444152832</minHorizontalUncertainty><maxHorizontalUncertainty>28.42884826660156</maxHorizontalUncertainty><azimuthMaxHorizontalUncertainty>91.55044555664062</azimuthMaxHorizontalUncertainty><preferredDescription>horizontal uncertainty</preferredDescription></uncertainty><evaluationMode>automatic</evaluationMode><evaluationStatus>confirmed</evaluationStatus><comment><text>0.00</text><id>mismatchScore</id></comment><comment><text>mismatchScore</text><id>scevalMethod</id></comment><arrival><pickID>de.gempa.tb1.Pick/20250414213854.775602.141422</pickID><phase>P</phase><azimuth>289.94842529296875</azimuth><distance>0.5696375370025635</distance><timeResidual>-0.02308464050292969</timeResidual><timeUsed>true</timeUsed><horizontalSlownessUsed>false</horizontalSlownessUsed><backazimuthUsed>false</backazimuthUsed><weight>1</weight></arrival><arrival><pickID>de.gempa.tb1.Pick/20250414213858.527221.141424</pickID><phase>P</phase><azimuth>229.5964660644531</azimuth><distance>1.098802924156189</distance><timeResidual>-0.13599205017089844</timeResidual><timeUsed>true</timeUsed><horizontalSlownessUsed>false</horizontalSlownessUsed><backazimuthUsed>false</backazimuthUsed><weight>1</weight></arrival><arrival><pickID>de.gempa.tb1.Pick/20250414213859.776489.141426</pickID><phase>P</phase><azimuth>282.9163818359375</azimuth><distance>1.16420316696167</distance><timeResidual>-0.010789871215820312</timeResidual><timeUsed>true</timeUsed><horizontalSlownessUsed>false</horizontalSlownessUsed><backazimuthUsed>false</backazimuthUsed><weight>1</weight></arrival><arrival><pickID>de.gempa.tb1.Pick/20250414213900.476009.141428</pickID><phase>P</phase><azimuth>266.64752197265625</azimuth><distance>1.0104831457138062</distance><timeResidual>-0.16829872131347656</timeResidual><timeUsed>true</timeUsed><horizontalSlownessUsed>false</horizontalSlownessUsed><backazimuthUsed>false</backazimuthUsed><weight>1</weight></arrival><arrival><pickID>de.gempa.tb1.Pick/20250414213902.588991.141430</pickID><phase>P</phase><azimuth>320.8500671386719</azimuth><distance>1.2156920433044434</distance><timeResidual>-0.008596420288085938</timeResidual><timeUsed>true</timeUsed><horizontalSlownessUsed>false</horizontalSlownessUsed><backazimuthUsed>false</backazimuthUsed><weight>1</weight></arrival><arrival><pickID>de.gempa.tb1.Pick/20250414213904.541206.141432</pickID><phase>P</phase><azimuth>300.1062316894531</azimuth><distance>1.325975775718689</distance><timeResidual>0.3856372833251953</timeResidual><timeUsed>true</timeUsed><horizontalSlownessUsed>false</horizontalSlownessUsed><backazimuthUsed>false</backazimuthUsed><weight>1</weight></arrival><arrival><pickID>de.gempa.tb1.Pick/20250414213916.773131.141434</pickID><phase>S</phase><azimuth>266.64752197265625</azimuth><distance>1.0104831457138062</distance><timeResidual>0.18459320068359375</timeResidual><timeUsed>true</timeUsed><horizontalSlownessUsed>false</horizontalSlownessUsed><backazimuthUsed>false</backazimuthUsed><weight>1</weight></arrival><arrival><pickID>de.gempa.tb1.Pick/20250414213921.678822.141437</pickID><phase>S</phase><azimuth>320.8500671386719</azimuth><distance>1.2156920433044434</distance><timeResidual>0.04796791076660156</timeResidual><timeUsed>true</timeUsed><horizontalSlownessUsed>false</horizontalSlownessUsed><backazimuthUsed>false</backazimuthUsed><weight>1</weight></arrival><arrival><pickID>de.gempa.tb1.Pick/20250414213922.589138.141438</pickID><phase>S</phase><azimuth>300.1062316894531</azimuth><distance>1.325975775718689</distance><timeResidual>-0.4141845703125</timeResidual><timeUsed>true</timeUsed><horizontalSlownessUsed>false</horizontalSlownessUsed><backazimuthUsed>false</backazimuthUsed><weight>1</weight></arrival><arrival><pickID>de.gempa.tb1.Pick/20250414213934.375853.141441</pickID><phase>S</phase><azimuth>282.9163818359375</azimuth><distance>1.16420316696167</distance><timeResidual>0.1427001953125</timeResidual><timeUsed>true</timeUsed><horizontalSlownessUsed>false</horizontalSlownessUsed><backazimuthUsed>false</backazimuthUsed><weight>1</weight></arrival><magnitude publicID="de.gempa.tb1.Magnitude/20250414213940.937496.543711"><magnitude><value>2.527679234580101</value></magnitude><type>M</type><methodID>weighted average</methodID><stationCount>6</stationCount></magnitude></origin><event publicID="gempa2025hjxo"><preferredOriginID>de.gempa.tb1.Origin/20250414213934.380706.151680</preferredOriginID><preferredMagnitudeID>de.gempa.tb1.Magnitude/20250414213940.937496.543711</preferredMagnitudeID><description><text>Chile-Bolivia Border Region</text><type>region name</type></description><originReference>de.gempa.tb1.Origin/20250414213934.380706.151680</originReference></event></EventParameters></seiscomp>