<?xml version="1.0" encoding="UTF-8"?>
<seiscomp xmlns="http://geofon.gfz-potsdam.de/ns/seiscomp3-schema/0.13" version="0.13"><EventParameters><pick publicID="de.gempa.tb1.Pick/20250415034058.070248.143258"><time><value>2025-04-15T03:40:50.128393Z</value></time><waveformID networkCode="CX" stationCode="PB08" channelCode="HHZ"/><filterID>ITAPER(4)&gt;&gt;BW(4,4,20)</filterID><methodID>AIC</methodID><horizontalSlowness><value>11.051936108181787</value></horizontalSlowness><backazimuth><value>215.67175652393885</value></backazimuth><phaseHint>P</phaseHint><evaluationMode>automatic</evaluationMode><comment><text>58.08785423152131</text><id>DFX:rectilinearity</id></comment><comment><text>41.507022844434545</text><id>SNR</id></comment></pick><pick publicID="de.gempa.tb1.Pick/20250415034102.693183.143260"><time><value>2025-04-15T03:40:56.178393Z</value></time><waveformID networkCode="CX" stationCode="PB01" channelCode="HHZ"/><filterID>ITAPER(4)&gt;&gt;BW(4,4,20)</filterID><methodID>AIC</methodID><horizontalSlowness><value>11.023263749308358</value></horizontalSlowness><backazimuth><value>359.838509618998</value></backazimuth><phaseHint>P</phaseHint><evaluationMode>automatic</evaluationMode><comment><text>23.3589685461151</text><id>DFX:rectilinearity</id></comment><comment><text>89.20350508733159</text><id>SNR</id></comment></pick><pick publicID="de.gempa.tb1.Pick/20250415034103.583545.143262"><time><value>2025-04-15T03:40:58.19Z</value></time><waveformID networkCode="CX" stationCode="PSGCX" channelCode="HHZ"/><filterID>ITAPER(4)&gt;&gt;BW(4,4,20)</filterID><methodID>AIC</methodID><horizontalSlowness><value>11.331676298387807</value></horizontalSlowness><backazimuth><value>106.92579133913671</value></backazimuth><phaseHint>P</phaseHint><evaluationMode>automatic</evaluationMode><comment><text>44.26861657929659</text><id>DFX:rectilinearity</id></comment><comment><text>163.28244815891662</text><id>SNR</id></comment></pick><pick publicID="de.gempa.tb1.Pick/20250415034105.448265.143264"><time><value>2025-04-15T03:40:59.629999Z</value></time><waveformID networkCode="CX" stationCode="PATCX" channelCode="HHZ"/><filterID>ITAPER(4)&gt;&gt;BW(4,4,20)</filterID><methodID>AIC</methodID><horizontalSlowness><value>21.855189370405995</value></horizontalSlowness><backazimuth><value>285.83669152729226</value></backazimuth><phaseHint>P</phaseHint><evaluationMode>automatic</evaluationMode><comment><text>102.30239561629571</text><id>DFX:rectilinearity</id></comment><comment><text>16.242178538923074</text><id>SNR</id></comment></pick><pick publicID="de.gempa.tb1.Pick/20250415034108.524337.143266"><time><value>2025-04-15T03:41:01.728393Z</value></time><waveformID networkCode="CX" stationCode="PB02" channelCode="HHZ"/><filterID>ITAPER(4)&gt;&gt;BW(4,4,20)</filterID><methodID>AIC</methodID><horizontalSlowness><value>17.427892194954442</value></horizontalSlowness><backazimuth><value>82.15905823899512</value></backazimuth><phaseHint>P</phaseHint><evaluationMode>automatic</evaluationMode><comment><text>43.32608747263395</text><id>DFX:rectilinearity</id></comment><comment><text>23.41410809587901</text><id>SNR</id></comment></pick><pick publicID="de.gempa.tb1.Pick/20250415034114.243248.143268"><time><value>2025-04-15T03:41:03.538393Z</value></time><waveformID networkCode="CX" stationCode="PB08" channelCode="HHN"/><filterID>ITAPER(2)&gt;&gt;BW(3,3,20)</filterID><methodID>L2-AIC-GRID</methodID><horizontalSlowness><value>18.69363393659755</value></horizontalSlowness><backazimuth><value>199.9115347729909</value></backazimuth><phaseHint>S</phaseHint><evaluationMode>automatic</evaluationMode><comment><text>289.5092751728979</text><id>DFX:rectilinearity</id></comment><comment><text>de.gempa.tb1.Pick/20250415034058.070248.143258</text><id>RefPickID</id></comment><comment><text>6.490114558462269</text><id>SNR</id></comment></pick><pick publicID="de.gempa.tb1.Pick/20250415034122.80392.143269"><time><value>2025-04-15T03:41:14.348393Z</value></time><waveformID networkCode="CX" stationCode="PB01" channelCode="HHN"/><filterID>ITAPER(2)&gt;&gt;BW(3,3,20)</filterID><methodID>L2-AIC-GRID</methodID><horizontalSlowness><value>22.315846464423583</value></horizontalSlowness><backazimuth><value>297.5342458782813</value></backazimuth><phaseHint>S</phaseHint><evaluationMode>automatic</evaluationMode><comment><text>2940.948476456693</text><id>DFX:rectilinearity</id></comment><comment><text>de.gempa.tb1.Pick/20250415034102.693183.143260</text><id>RefPickID</id></comment><comment><text>18.23694934829951</text><id>SNR</id></comment></pick><pick publicID="de.gempa.tb1.Pick/20250415034125.624369.143271"><time><value>2025-04-15T03:41:17.97Z</value></time><waveformID networkCode="CX" stationCode="PSGCX" channelCode="HHN"/><filterID>ITAPER(2)&gt;&gt;BW(3,3,20)</filterID><methodID>L2-AIC-GRID</methodID><horizontalSlowness><value>20.390062094626412</value></horizontalSlowness><backazimuth><value>242.98409079586997</value></backazimuth><phaseHint>S</phaseHint><evaluationMode>automatic</evaluationMode><comment><text>262.68735382826594</text><id>DFX:rectilinearity</id></comment><comment><text>de.gempa.tb1.Pick/20250415034103.583545.143262</text><id>RefPickID</id></comment><comment><text>7.5521640132479</text><id>SNR</id></comment></pick><pick publicID="de.gempa.tb1.Pick/20250415034127.36083.143272"><time><value>2025-04-15T03:41:20.179999Z</value></time><waveformID networkCode="CX" stationCode="PATCX" channelCode="HHN"/><filterID>ITAPER(2)&gt;&gt;BW(3,3,20)</filterID><methodID>L2-AIC-GRID</methodID><horizontalSlowness><value>23.17573966158602</value></horizontalSlowness><backazimuth><value>250.852683991983</value></backazimuth><phaseHint>S</phaseHint><evaluationMode>automatic</evaluationMode><comment><text>384.19542249303413</text><id>DFX:rectilinearity</id></comment><comment><text>de.gempa.tb1.Pick/20250415034105.448265.143264</text><id>RefPickID</id></comment><comment><text>7.609772986653565</text><id>SNR</id></comment></pick><pick publicID="de.gempa.tb1.Pick/20250415034129.968788.143273"><time><value>2025-04-15T03:41:04.288393Z</value></time><waveformID networkCode="CX" stationCode="PB07" channelCode="HHZ"/><filterID>ITAPER(4)&gt;&gt;BW(4,4,20)</filterID><methodID>AIC</methodID><horizontalSlowness><value>23.339524931347253</value></horizontalSlowness><backazimuth><value>78.10926406210625</value></backazimuth><phaseHint>P</phaseHint><evaluationMode>automatic</evaluationMode><comment><text>431.5319485969675</text><id>DFX:rectilinearity</id></comment><comment><text>22.248013643034035</text><id>SNR</id></comment></pick><pick publicID="de.gempa.tb1.Pick/20250415034133.175785.143277"><time><value>2025-04-15T03:41:27.06Z</value></time><waveformID networkCode="CX" stationCode="PB10" channelCode="HHZ"/><filterID>ITAPER(4)&gt;&gt;BW(4,4,20)</filterID><methodID>AIC</methodID><horizontalSlowness><value>6.054000417035444</value></horizontalSlowness><backazimuth><value>92.79356553955941</value></backazimuth><phaseHint>P</phaseHint><evaluationMode>automatic</evaluationMode><comment><text>138.9279506845627</text><id>DFX:rectilinearity</id></comment><comment><text>38.559959567871516</text><id>SNR</id></comment></pick><pick publicID="de.gempa.tb1.Pick/20250415034141.495675.143281"><time><value>2025-04-15T03:41:23.328393Z</value></time><waveformID networkCode="CX" stationCode="PB02" channelCode="HHN"/><filterID>ITAPER(2)&gt;&gt;BW(3,3,20)</filterID><methodID>L2-AIC-GRID</methodID><horizontalSlowness><value>21.951796047131626</value></horizontalSlowness><backazimuth><value>240.05211093764794</value></backazimuth><phaseHint>S</phaseHint><evaluationMode>automatic</evaluationMode><comment><text>1437.565107957797</text><id>DFX:rectilinearity</id></comment><comment><text>de.gempa.tb1.Pick/20250415034108.524337.143266</text><id>RefPickID</id></comment><comment><text>7.213585684262267</text><id>SNR</id></comment></pick><origin publicID="de.gempa.tb1.Origin/20250415034141.498718.159872"><time><value>2025-04-15T03:40:31.973724Z</value><uncertainty>0.9347420930862427</uncertainty></time><latitude><value>-20.11182975769043</value><uncertainty>4.60230827331543</uncertainty></latitude><longitude><value>-68.8304443359375</value><uncertainty>7.542088031768799</uncertainty></longitude><depth><value>128.7172393798828</value><uncertainty>6.290328502655029</uncertainty></depth><depthType>from location</depthType><methodID>LOCSAT</methodID><earthModelID>iasp91_scanloc</earthModelID><quality><associatedPhaseCount>12</associatedPhaseCount><usedPhaseCount>12</usedPhaseCount><associatedStationCount>7</associatedStationCount><usedStationCount>7</usedStationCount><depthPhaseCount>0</depthPhaseCount><standardError>0.5256075988995247</standardError><azimuthalGap>272.40550231933594</azimuthalGap><maximumDistance>3.7447357177734375</maximumDistance><minimumDistance>0.3048670291900635</minimumDistance><medianDistance>1.4265056848526</medianDistance></quality><uncertainty><minHorizontalUncertainty>9.811738014221191</minHorizontalUncertainty><maxHorizontalUncertainty>16.206981658935547</maxHorizontalUncertainty><azimuthMaxHorizontalUncertainty>85.29351806640625</azimuthMaxHorizontalUncertainty><preferredDescription>horizontal uncertainty</preferredDescription></uncertainty><evaluationMode>automatic</evaluationMode><evaluationStatus>confirmed</evaluationStatus><comment><text>0.20</text><id>mismatchScore</id></comment><comment><text>mismatchScore</text><id>scevalMethod</id></comment><arrival><pickID>de.gempa.tb1.Pick/20250415034058.070248.143258</pickID><phase>P</phase><azimuth>264.459716796875</azimuth><distance>0.3048670291900635</distance><timeResidual>0.1474933624267578</timeResidual><timeUsed>true</timeUsed><horizontalSlownessUsed>false</horizontalSlownessUsed><backazimuthUsed>false</backazimuthUsed><weight>1</weight></arrival><arrival><pickID>de.gempa.tb1.Pick/20250415034102.693183.143260</pickID><phase>P</phase><azimuth>213.47940063476562</azimuth><distance>1.112493634223938</distance><timeResidual>0.29128074645996094</timeResidual><timeUsed>true</timeUsed><horizontalSlownessUsed>false</horizontalSlownessUsed><backazimuthUsed>false</backazimuthUsed><weight>1</weight></arrival><arrival><pickID>de.gempa.tb1.Pick/20250415034103.583545.143262</pickID><phase>P</phase><azimuth>292.6027526855469</azimuth><distance>1.3200362920761108</distance><timeResidual>0.14720535278320312</timeResidual><timeUsed>true</timeUsed><horizontalSlownessUsed>false</horizontalSlownessUsed><backazimuthUsed>false</backazimuthUsed><weight>1</weight></arrival><arrival><pickID>de.gempa.tb1.Pick/20250415034105.448265.143264</pickID><phase>P</phase><azimuth>240.14056396484375</azimuth><distance>1.4265056848526</distance><timeResidual>0.4345817565917969</timeResidual><timeUsed>true</timeUsed><horizontalSlownessUsed>false</horizontalSlownessUsed><backazimuthUsed>false</backazimuthUsed><weight>1</weight></arrival><arrival><pickID>de.gempa.tb1.Pick/20250415034108.524337.143266</pickID><phase>P</phase><azimuth>219.50689697265625</azimuth><distance>1.5618481636047363</distance><timeResidual>1.015951156616211</timeResidual><timeUsed>true</timeUsed><horizontalSlownessUsed>false</horizontalSlownessUsed><backazimuthUsed>false</backazimuthUsed><weight>1</weight></arrival><arrival><pickID>de.gempa.tb1.Pick/20250415034114.243248.143268</pickID><phase>S</phase><azimuth>264.459716796875</azimuth><distance>0.3048670291900635</distance><timeResidual>-0.34564208984375</timeResidual><timeUsed>true</timeUsed><horizontalSlownessUsed>false</horizontalSlownessUsed><backazimuthUsed>false</backazimuthUsed><weight>1</weight></arrival><arrival><pickID>de.gempa.tb1.Pick/20250415034122.80392.143269</pickID><phase>S</phase><azimuth>213.47940063476562</azimuth><distance>1.112493634223938</distance><timeResidual>-0.06487655639648438</timeResidual><timeUsed>true</timeUsed><horizontalSlownessUsed>false</horizontalSlownessUsed><backazimuthUsed>false</backazimuthUsed><weight>1</weight></arrival><arrival><pickID>de.gempa.tb1.Pick/20250415034125.624369.143271</pickID><phase>S</phase><azimuth>292.6027526855469</azimuth><distance>1.3200362920761108</distance><timeResidual>-0.29108238220214844</timeResidual><timeUsed>true</timeUsed><horizontalSlownessUsed>false</horizontalSlownessUsed><backazimuthUsed>false</backazimuthUsed><weight>1</weight></arrival><arrival><pickID>de.gempa.tb1.Pick/20250415034127.36083.143272</pickID><phase>S</phase><azimuth>240.14056396484375</azimuth><distance>1.4265056848526</distance><timeResidual>-0.1418323516845703</timeResidual><timeUsed>true</timeUsed><horizontalSlownessUsed>false</horizontalSlownessUsed><backazimuthUsed>false</backazimuthUsed><weight>1</weight></arrival><arrival><pickID>de.gempa.tb1.Pick/20250415034129.968788.143273</pickID><phase>P</phase><azimuth>211.37522888183594</azimuth><distance>1.8856642246246338</distance><timeResidual>-0.22165870666503906</timeResidual><timeUsed>true</timeUsed><horizontalSlownessUsed>false</horizontalSlownessUsed><backazimuthUsed>false</backazimuthUsed><weight>1</weight></arrival><arrival><pickID>de.gempa.tb1.Pick/20250415034133.175785.143277</pickID><phase>P</phase><azimuth>205.0082550048828</azimuth><distance>3.7447357177734375</distance><timeResidual>-1.265512466430664</timeResidual><timeUsed>true</timeUsed><horizontalSlownessUsed>false</horizontalSlownessUsed><backazimuthUsed>false</backazimuthUsed><weight>1</weight></arrival><arrival><pickID>de.gempa.tb1.Pick/20250415034141.495675.143281</pickID><phase>S</phase><azimuth>219.50689697265625</azimuth><distance>1.5618481636047363</distance><timeResidual>0.29444313049316406</timeResidual><timeUsed>true</timeUsed><horizontalSlownessUsed>false</horizontalSlownessUsed><backazimuthUsed>false</backazimuthUsed><weight>1</weight></arrival><magnitude publicID="de.gempa.tb1.Magnitude/20250415034146.171952.567894"><magnitude><value>2.3296858854309286</value></magnitude><type>M</type><methodID>weighted average</methodID><stationCount>6</stationCount></magnitude></origin><event publicID="gempa2025hkjq"><preferredOriginID>de.gempa.tb1.Origin/20250415034141.498718.159872</preferredOriginID><preferredMagnitudeID>de.gempa.tb1.Magnitude/20250415034146.171952.567894</preferredMagnitudeID><description><text>Chile-Bolivia Border Region</text><type>region name</type></description><originReference>de.gempa.tb1.Origin/20250415034141.498718.159872</originReference></event></EventParameters></seiscomp>