<?xml version="1.0" encoding="UTF-8"?>
<seiscomp xmlns="http://geofon.gfz-potsdam.de/ns/seiscomp3-schema/0.13" version="0.13"><EventParameters><pick publicID="de.gempa.tb1.Pick/20250412173144.177311.125544"><time><value>2025-04-12T17:31:38.99Z</value></time><waveformID networkCode="CX" stationCode="PB10" channelCode="HHZ"/><filterID>ITAPER(4)&gt;&gt;BW(4,4,20)</filterID><methodID>AIC</methodID><horizontalSlowness><value>15.523633220972137</value></horizontalSlowness><backazimuth><value>95.68101163730869</value></backazimuth><phaseHint>P</phaseHint><evaluationMode>automatic</evaluationMode><comment><text>232.8508350348008</text><id>DFX:rectilinearity</id></comment><comment><text>14.261122908815025</text><id>SNR</id></comment></pick><pick publicID="de.gempa.tb1.Pick/20250412173146.986551.125546"><time><value>2025-04-12T17:31:41.278394Z</value></time><waveformID networkCode="CX" stationCode="PB15" channelCode="HHZ"/><filterID>ITAPER(4)&gt;&gt;BW(4,4,20)</filterID><methodID>AIC</methodID><horizontalSlowness><value>16.960621097341804</value></horizontalSlowness><backazimuth><value>100.22542754092598</value></backazimuth><phaseHint>P</phaseHint><evaluationMode>automatic</evaluationMode><comment><text>207.09254712825197</text><id>DFX:rectilinearity</id></comment><comment><text>51.79907963342107</text><id>SNR</id></comment></pick><pick publicID="de.gempa.tb1.Pick/20250412173150.618749.125548"><time><value>2025-04-12T17:31:45.828393Z</value></time><waveformID networkCode="CX" stationCode="PB06" channelCode="HHZ"/><filterID>ITAPER(4)&gt;&gt;BW(4,4,20)</filterID><methodID>AIC</methodID><horizontalSlowness><value>5.757123072423163</value></horizontalSlowness><backazimuth><value>182.80091631106862</value></backazimuth><phaseHint>P</phaseHint><evaluationMode>automatic</evaluationMode><comment><text>72.96610318233868</text><id>DFX:rectilinearity</id></comment><comment><text>94.04365997731942</text><id>SNR</id></comment></pick><pick publicID="de.gempa.tb1.Pick/20250412173151.497898.125550"><time><value>2025-04-12T17:31:46.22Z</value></time><waveformID networkCode="CX" stationCode="PB19" channelCode="HHZ"/><filterID>ITAPER(4)&gt;&gt;BW(4,4,20)</filterID><methodID>AIC</methodID><horizontalSlowness><value>11.6069660201865</value></horizontalSlowness><backazimuth><value>291.74729984521423</value></backazimuth><phaseHint>P</phaseHint><evaluationMode>automatic</evaluationMode><comment><text>40.351925917614395</text><id>DFX:rectilinearity</id></comment><comment><text>79.44598909114083</text><id>SNR</id></comment></pick><pick publicID="de.gempa.tb1.Pick/20250412173201.770637.125552"><time><value>2025-04-12T17:31:55.168393Z</value></time><waveformID networkCode="CX" stationCode="PB03" channelCode="HHZ"/><filterID>ITAPER(4)&gt;&gt;BW(4,4,20)</filterID><methodID>AIC</methodID><horizontalSlowness><value>11.208617850846837</value></horizontalSlowness><backazimuth><value>188.15647859324247</value></backazimuth><phaseHint>P</phaseHint><evaluationMode>automatic</evaluationMode><comment><text>51.53286114503862</text><id>DFX:rectilinearity</id></comment><comment><text>60.15821397179991</text><id>SNR</id></comment></pick><pick publicID="de.gempa.tb1.Pick/20250412173209.472432.125554"><time><value>2025-04-12T17:32:02.5Z</value></time><waveformID networkCode="CX" stationCode="PB09" channelCode="HHZ"/><filterID>ITAPER(4)&gt;&gt;BW(4,4,20)</filterID><methodID>AIC</methodID><horizontalSlowness><value>20.70645004783444</value></horizontalSlowness><backazimuth><value>345.7041900464832</value></backazimuth><phaseHint>P</phaseHint><evaluationMode>automatic</evaluationMode><comment><text>24.870349896491373</text><id>DFX:rectilinearity</id></comment><comment><text>64.44335048859919</text><id>SNR</id></comment></pick><pick publicID="de.gempa.tb1.Pick/20250412173213.567993.125556"><time><value>2025-04-12T17:32:06.648393Z</value></time><waveformID networkCode="CX" stationCode="PB02" channelCode="HHZ"/><filterID>ITAPER(4)&gt;&gt;BW(4,4,20)</filterID><methodID>AIC</methodID><horizontalSlowness><value>7.604994381655846</value></horizontalSlowness><backazimuth><value>167.90989806897363</value></backazimuth><phaseHint>P</phaseHint><evaluationMode>automatic</evaluationMode><comment><text>61.01760243032329</text><id>DFX:rectilinearity</id></comment><comment><text>33.37341444217141</text><id>SNR</id></comment></pick><pick publicID="de.gempa.tb1.Pick/20250412173213.959024.125558"><time><value>2025-04-12T17:32:00.058393Z</value></time><waveformID networkCode="CX" stationCode="PB07" channelCode="HHZ"/><filterID>ITAPER(4)&gt;&gt;BW(4,4,20)</filterID><methodID>AIC</methodID><horizontalSlowness><value>18.83228762669638</value></horizontalSlowness><backazimuth><value>173.50930510760634</value></backazimuth><phaseHint>P</phaseHint><evaluationMode>automatic</evaluationMode><comment><text>855.4682673368105</text><id>DFX:rectilinearity</id></comment><comment><text>82.886809692445</text><id>SNR</id></comment></pick><pick publicID="de.gempa.tb1.Pick/20250412173217.532412.125561"><time><value>2025-04-12T17:32:12.098393Z</value></time><waveformID networkCode="CX" stationCode="PB01" channelCode="HHZ"/><filterID>ITAPER(4)&gt;&gt;BW(4,4,20)</filterID><methodID>AIC</methodID><horizontalSlowness><value>23.19528784326789</value></horizontalSlowness><backazimuth><value>21.908201407690655</value></backazimuth><phaseHint>P</phaseHint><evaluationMode>automatic</evaluationMode><comment><text>16.90026516137074</text><id>DFX:rectilinearity</id></comment><comment><text>45.75142103817679</text><id>SNR</id></comment></pick><origin publicID="de.gempa.tb1.Origin/20250412173217.774302.88332"><time><value>2025-04-12T17:31:30.051352Z</value><uncertainty>0.4731602072715759</uncertainty></time><latitude><value>-23.407941818237305</value><uncertainty>3.959300994873047</uncertainty></latitude><longitude><value>-70.0571517944336</value><uncertainty>3.7038028240203857</uncertainty></longitude><depth><value>0</value></depth><depthType>operator assigned</depthType><methodID>LOCSAT</methodID><earthModelID>iasp91_scanloc</earthModelID><quality><associatedPhaseCount>9</associatedPhaseCount><usedPhaseCount>9</usedPhaseCount><associatedStationCount>9</associatedStationCount><usedStationCount>9</usedStationCount><depthPhaseCount>0</depthPhaseCount><standardError>0.7149047058439646</standardError><azimuthalGap>131.65782165527344</azimuthalGap><maximumDistance>2.4118528366088867</maximumDistance><minimumDistance>0.4682539105415344</minimumDistance><medianDistance>1.3818793296813965</medianDistance></quality><uncertainty><minHorizontalUncertainty>7.832917213439941</minHorizontalUncertainty><maxHorizontalUncertainty>8.593204498291016</maxHorizontalUncertainty><azimuthMaxHorizontalUncertainty>158.07212829589844</azimuthMaxHorizontalUncertainty><preferredDescription>horizontal uncertainty</preferredDescription></uncertainty><evaluationMode>automatic</evaluationMode><evaluationStatus>confirmed</evaluationStatus><comment><text>0.00</text><id>mismatchScore</id></comment><comment><text>mismatchScore</text><id>scevalMethod</id></comment><arrival><pickID>de.gempa.tb1.Pick/20250412173144.177311.125544</pickID><phase>P</phase><azimuth>256.9432373046875</azimuth><distance>0.4682539105415344</distance><timeResidual>-0.04238319396972656</timeResidual><timeUsed>true</timeUsed><horizontalSlownessUsed>false</horizontalSlownessUsed><backazimuthUsed>false</backazimuthUsed><weight>1</weight></arrival><arrival><pickID>de.gempa.tb1.Pick/20250412173146.986551.125546</pickID><phase>P</phase><azimuth>69.87921142578125</azimuth><distance>0.5744110941886902</distance><timeResidual>0.20958805084228516</timeResidual><timeUsed>true</timeUsed><horizontalSlownessUsed>false</horizontalSlownessUsed><backazimuthUsed>false</backazimuthUsed><weight>1</weight></arrival><arrival><pickID>de.gempa.tb1.Pick/20250412173150.618749.125548</pickID><phase>P</phase><azimuth>32.695953369140625</azimuth><distance>0.829577624797821</distance><timeResidual>-0.13510608673095703</timeResidual><timeUsed>true</timeUsed><horizontalSlownessUsed>false</horizontalSlownessUsed><backazimuthUsed>false</backazimuthUsed><weight>1</weight></arrival><arrival><pickID>de.gempa.tb1.Pick/20250412173151.497898.125550</pickID><phase>P</phase><azimuth>125.28541564941406</azimuth><distance>0.8594138026237488</distance><timeResidual>-0.31423377990722656</timeResidual><timeUsed>true</timeUsed><horizontalSlownessUsed>false</horizontalSlownessUsed><backazimuthUsed>false</backazimuthUsed><weight>1</weight></arrival><arrival><pickID>de.gempa.tb1.Pick/20250412173201.770637.125552</pickID><phase>P</phase><azimuth>11.77967929840088</azimuth><distance>1.3818793296813965</distance><timeResidual>-1.340839385986328</timeResidual><timeUsed>true</timeUsed><horizontalSlownessUsed>false</horizontalSlownessUsed><backazimuthUsed>false</backazimuthUsed><weight>1</weight></arrival><arrival><pickID>de.gempa.tb1.Pick/20250412173209.472432.125554</pickID><phase>P</phase><azimuth>25.31607246398926</azimuth><distance>1.772034764289856</distance><timeResidual>0.5391368865966797</timeResidual><timeUsed>true</timeUsed><horizontalSlownessUsed>false</horizontalSlownessUsed><backazimuthUsed>false</backazimuthUsed><weight>1</weight></arrival><arrival><pickID>de.gempa.tb1.Pick/20250412173213.567993.125556</pickID><phase>P</phase><azimuth>4.13563871383667</azimuth><distance>2.0835928916931152</distance><timeResidual>0.3990974426269531</timeResidual><timeUsed>true</timeUsed><horizontalSlownessUsed>false</horizontalSlownessUsed><backazimuthUsed>false</backazimuthUsed><weight>1</weight></arrival><arrival><pickID>de.gempa.tb1.Pick/20250412173213.959024.125558</pickID><phase>P</phase><azimuth>5.428213596343994</azimuth><distance>1.6807526350021362</distance><timeResidual>-0.646270751953125</timeResidual><timeUsed>true</timeUsed><horizontalSlownessUsed>false</horizontalSlownessUsed><backazimuthUsed>false</backazimuthUsed><weight>1</weight></arrival><arrival><pickID>de.gempa.tb1.Pick/20250412173217.532412.125561</pickID><phase>P</phase><azimuth>12.7518310546875</azimuth><distance>2.4118528366088867</distance><timeResidual>1.3310203552246094</timeResidual><timeUsed>true</timeUsed><horizontalSlownessUsed>false</horizontalSlownessUsed><backazimuthUsed>false</backazimuthUsed><weight>1</weight></arrival><magnitude publicID="de.gempa.tb1.Magnitude/20250412173217.779672.258152"><magnitude><value>2.658762793954948</value></magnitude><type>M</type><methodID>weighted average</methodID><stationCount>7</stationCount></magnitude></origin><event publicID="gempa2025hfxh"><preferredOriginID>de.gempa.tb1.Origin/20250412173217.774302.88332</preferredOriginID><preferredMagnitudeID>de.gempa.tb1.Magnitude/20250412173217.779672.258152</preferredMagnitudeID><description><text>Near Coast of Northern Chile</text><type>region name</type></description><originReference>de.gempa.tb1.Origin/20250412173217.774302.88332</originReference></event></EventParameters></seiscomp>