<?xml version="1.0" encoding="UTF-8"?>
<seiscomp xmlns="http://geofon.gfz-potsdam.de/ns/seiscomp3-schema/0.13" version="0.13"><EventParameters><pick publicID="de.gempa.tb1.Pick/20250413050903.535144.128991"><time><value>2025-04-13T05:08:58.048393Z</value></time><waveformID networkCode="CX" stationCode="PB02" channelCode="HHZ"/><filterID>ITAPER(4)&gt;&gt;BW(4,4,20)</filterID><methodID>AIC</methodID><horizontalSlowness><value>15.26012541605915</value></horizontalSlowness><backazimuth><value>53.12173656190082</value></backazimuth><phaseHint>P</phaseHint><evaluationMode>automatic</evaluationMode><comment><text>45.20605759408284</text><id>DFX:rectilinearity</id></comment><comment><text>13.020986332470297</text><id>SNR</id></comment></pick><pick publicID="de.gempa.tb1.Pick/20250413050908.475309.128993"><time><value>2025-04-13T05:09:01.168394Z</value></time><waveformID networkCode="CX" stationCode="PB01" channelCode="HHZ"/><filterID>ITAPER(4)&gt;&gt;BW(4,4,20)</filterID><methodID>AIC</methodID><horizontalSlowness><value>20.511971859527943</value></horizontalSlowness><backazimuth><value>247.0073606671947</value></backazimuth><phaseHint>P</phaseHint><evaluationMode>automatic</evaluationMode><comment><text>17.526641941127238</text><id>DFX:rectilinearity</id></comment><comment><text>58.9296705472879</text><id>SNR</id></comment></pick><pick publicID="de.gempa.tb1.Pick/20250413050909.619789.128995"><time><value>2025-04-13T05:09:00.238394Z</value></time><waveformID networkCode="CX" stationCode="PB07" channelCode="HHZ"/><filterID>ITAPER(4)&gt;&gt;BW(4,4,20)</filterID><methodID>AIC</methodID><horizontalSlowness><value>22.53942504929705</value></horizontalSlowness><backazimuth><value>150.05233654118237</value></backazimuth><phaseHint>P</phaseHint><evaluationMode>automatic</evaluationMode><comment><text>214.43272137170257</text><id>DFX:rectilinearity</id></comment><comment><text>18.45784130401519</text><id>SNR</id></comment></pick><pick publicID="de.gempa.tb1.Pick/20250413050911.525169.128997"><time><value>2025-04-13T05:09:03.968393Z</value></time><waveformID networkCode="CX" stationCode="PB03" channelCode="HHZ"/><filterID>ITAPER(4)&gt;&gt;BW(4,4,20)</filterID><methodID>AIC</methodID><horizontalSlowness><value>9.363928997078357</value></horizontalSlowness><backazimuth><value>34.95179195431939</value></backazimuth><phaseHint>P</phaseHint><evaluationMode>automatic</evaluationMode><comment><text>14.554855033446216</text><id>DFX:rectilinearity</id></comment><comment><text>28.81577894485762</text><id>SNR</id></comment></pick><pick publicID="de.gempa.tb1.Pick/20250413050913.52402.128999"><time><value>2025-04-13T05:09:05.618393Z</value></time><waveformID networkCode="CX" stationCode="PB02" channelCode="HHN"/><filterID>ITAPER(2)&gt;&gt;BW(3,3,20)</filterID><methodID>L2-AIC-GRID</methodID><horizontalSlowness><value>23.169557877855315</value></horizontalSlowness><backazimuth><value>316.3045475408385</value></backazimuth><phaseHint>S</phaseHint><evaluationMode>automatic</evaluationMode><comment><text>62.36180769991373</text><id>DFX:rectilinearity</id></comment><comment><text>de.gempa.tb1.Pick/20250413050903.535144.128991</text><id>RefPickID</id></comment><comment><text>7.304439469487732</text><id>SNR</id></comment></pick><pick publicID="de.gempa.tb1.Pick/20250413050918.226218.129002"><time><value>2025-04-13T05:09:05.68Z</value></time><waveformID networkCode="CX" stationCode="PB09" channelCode="HHZ"/><filterID>ITAPER(4)&gt;&gt;BW(4,4,20)</filterID><methodID>AIC</methodID><horizontalSlowness><value>19.059059178171033</value></horizontalSlowness><backazimuth><value>61.72952691099398</value></backazimuth><phaseHint>P</phaseHint><evaluationMode>automatic</evaluationMode><comment><text>11.760633818686031</text><id>DFX:rectilinearity</id></comment><comment><text>39.554574906380203</text><id>SNR</id></comment></pick><pick publicID="de.gempa.tb1.Pick/20250413050919.647188.129004"><time><value>2025-04-13T05:09:11.178394Z</value></time><waveformID networkCode="CX" stationCode="PB01" channelCode="HHN"/><filterID>ITAPER(2)&gt;&gt;BW(3,3,20)</filterID><methodID>L2-AIC-GRID</methodID><horizontalSlowness><value>18.854238446546415</value></horizontalSlowness><backazimuth><value>1.780292383335592</value></backazimuth><phaseHint>S</phaseHint><evaluationMode>automatic</evaluationMode><comment><text>62.99165124667076</text><id>DFX:rectilinearity</id></comment><comment><text>de.gempa.tb1.Pick/20250413050908.475309.128993</text><id>RefPickID</id></comment><comment><text>18.079604343383664</text><id>SNR</id></comment></pick><pick publicID="de.gempa.tb1.Pick/20250413050927.570916.129005"><time><value>2025-04-13T05:09:16.048393Z</value></time><waveformID networkCode="CX" stationCode="PB03" channelCode="HHN"/><filterID>ITAPER(2)&gt;&gt;BW(3,3,20)</filterID><methodID>L2-AIC-GRID</methodID><horizontalSlowness><value>10.59516492356636</value></horizontalSlowness><backazimuth><value>293.1142030383804</value></backazimuth><phaseHint>S</phaseHint><evaluationMode>automatic</evaluationMode><comment><text>19.46442656748092</text><id>DFX:rectilinearity</id></comment><comment><text>de.gempa.tb1.Pick/20250413050911.525169.128997</text><id>RefPickID</id></comment><comment><text>5.359730485813338</text><id>SNR</id></comment></pick><pick publicID="de.gempa.tb1.Pick/20250413050927.772307.129006"><time><value>2025-04-13T05:09:09.558394Z</value></time><waveformID networkCode="CX" stationCode="PB07" channelCode="HHN"/><filterID>ITAPER(2)&gt;&gt;BW(3,3,20)</filterID><methodID>L2-AIC-GRID</methodID><horizontalSlowness><value>22.89530010581238</value></horizontalSlowness><backazimuth><value>264.00725124250903</value></backazimuth><phaseHint>S</phaseHint><evaluationMode>automatic</evaluationMode><comment><text>310.52986295537556</text><id>DFX:rectilinearity</id></comment><comment><text>de.gempa.tb1.Pick/20250413050909.619789.128995</text><id>RefPickID</id></comment><comment><text>5.301190435990953</text><id>SNR</id></comment></pick><origin publicID="de.gempa.tb1.Origin/20250413050927.777021.101310"><time><value>2025-04-13T05:08:48.161195Z</value><uncertainty>1.271931767463684</uncertainty></time><latitude><value>-21.280759811401367</value><uncertainty>5.13297700881958</uncertainty></latitude><longitude><value>-70.03829193115234</value><uncertainty>10.55960464477539</uncertainty></longitude><depth><value>65.87828063964844</value><uncertainty>6.75792121887207</uncertainty></depth><depthType>from location</depthType><methodID>LOCSAT</methodID><earthModelID>iasp91_scanloc</earthModelID><quality><associatedPhaseCount>9</associatedPhaseCount><usedPhaseCount>9</usedPhaseCount><associatedStationCount>5</associatedStationCount><usedStationCount>5</usedStationCount><depthPhaseCount>0</depthPhaseCount><standardError>0.18987695307434463</standardError><azimuthalGap>263.0905456542969</azimuthalGap><maximumDistance>0.9016491174697876</maximumDistance><minimumDistance>0.13821537792682648</minimumDistance><medianDistance>0.5659105777740479</medianDistance></quality><uncertainty><minHorizontalUncertainty>8.684091567993164</minHorizontalUncertainty><maxHorizontalUncertainty>23.631080627441406</maxHorizontalUncertainty><azimuthMaxHorizontalUncertainty>107.92060089111328</azimuthMaxHorizontalUncertainty><preferredDescription>horizontal uncertainty</preferredDescription></uncertainty><evaluationMode>automatic</evaluationMode><evaluationStatus>confirmed</evaluationStatus><comment><text>0.13</text><id>mismatchScore</id></comment><comment><text>mismatchScore</text><id>scevalMethod</id></comment><arrival><pickID>de.gempa.tb1.Pick/20250413050903.535144.128991</pickID><phase>P</phase><azimuth>106.319580078125</azimuth><distance>0.13821537792682648</distance><timeResidual>0.025536537170410156</timeResidual><timeUsed>true</timeUsed><horizontalSlownessUsed>false</horizontalSlownessUsed><backazimuthUsed>false</backazimuthUsed><weight>1</weight></arrival><arrival><pickID>de.gempa.tb1.Pick/20250413050908.475309.128993</pickID><phase>P</phase><azimuth>65.41297912597656</azimuth><distance>0.5659105777740479</distance><timeResidual>-0.14892578125</timeResidual><timeUsed>true</timeUsed><horizontalSlownessUsed>false</horizontalSlownessUsed><backazimuthUsed>false</backazimuthUsed><weight>1</weight></arrival><arrival><pickID>de.gempa.tb1.Pick/20250413050909.619789.128995</pickID><phase>P</phase><azimuth>162.3224334716797</azimuth><distance>0.4657821953296661</distance><timeResidual>-0.0627737045288086</timeResidual><timeUsed>true</timeUsed><horizontalSlownessUsed>false</horizontalSlownessUsed><backazimuthUsed>false</backazimuthUsed><weight>1</weight></arrival><arrival><pickID>de.gempa.tb1.Pick/20250413050911.525169.128997</pickID><phase>P</phase><azimuth>160.9022979736328</azimuth><distance>0.8087098598480225</distance><timeResidual>-0.11852169036865234</timeResidual><timeUsed>true</timeUsed><horizontalSlownessUsed>false</horizontalSlownessUsed><backazimuthUsed>false</backazimuthUsed><weight>1</weight></arrival><arrival><pickID>de.gempa.tb1.Pick/20250413050913.52402.128999</pickID><phase>S</phase><azimuth>106.319580078125</azimuth><distance>0.13821537792682648</distance><timeResidual>0.13758182525634766</timeResidual><timeUsed>true</timeUsed><horizontalSlownessUsed>false</horizontalSlownessUsed><backazimuthUsed>false</backazimuthUsed><weight>1</weight></arrival><arrival><pickID>de.gempa.tb1.Pick/20250413050918.226218.129002</pickID><phase>P</phase><azimuth>124.82919311523438</azimuth><distance>0.9016491174697876</distance><timeResidual>0.4527559280395508</timeResidual><timeUsed>true</timeUsed><horizontalSlownessUsed>false</horizontalSlownessUsed><backazimuthUsed>false</backazimuthUsed><weight>1</weight></arrival><arrival><pickID>de.gempa.tb1.Pick/20250413050919.647188.129004</pickID><phase>S</phase><azimuth>65.41297912597656</azimuth><distance>0.5659105777740479</distance><timeResidual>-0.13535022735595703</timeResidual><timeUsed>true</timeUsed><horizontalSlownessUsed>false</horizontalSlownessUsed><backazimuthUsed>false</backazimuthUsed><weight>1</weight></arrival><arrival><pickID>de.gempa.tb1.Pick/20250413050927.570916.129005</pickID><phase>S</phase><azimuth>160.9022979736328</azimuth><distance>0.8087098598480225</distance><timeResidual>-0.1978445053100586</timeResidual><timeUsed>true</timeUsed><horizontalSlownessUsed>false</horizontalSlownessUsed><backazimuthUsed>false</backazimuthUsed><weight>1</weight></arrival><arrival><pickID>de.gempa.tb1.Pick/20250413050927.772307.129006</pickID><phase>S</phase><azimuth>162.3224334716797</azimuth><distance>0.4657821953296661</distance><timeResidual>0.04776573181152344</timeResidual><timeUsed>true</timeUsed><horizontalSlownessUsed>false</horizontalSlownessUsed><backazimuthUsed>false</backazimuthUsed><weight>1</weight></arrival><magnitude publicID="de.gempa.tb1.Magnitude/20250413050943.451559.317825"><magnitude><value>2.025162977795222</value></magnitude><type>M</type><methodID>weighted average</methodID><stationCount>5</stationCount></magnitude></origin><event publicID="gempa2025hgun"><preferredOriginID>de.gempa.tb1.Origin/20250413050927.777021.101310</preferredOriginID><preferredMagnitudeID>de.gempa.tb1.Magnitude/20250413050943.451559.317825</preferredMagnitudeID><description><text>Near Coast of Northern Chile</text><type>region name</type></description><originReference>de.gempa.tb1.Origin/20250413050927.777021.101310</originReference></event></EventParameters></seiscomp>