<?xml version="1.0" encoding="UTF-8"?>
<seiscomp xmlns="http://geofon.gfz-potsdam.de/ns/seiscomp3-schema/0.13" version="0.13"><EventParameters><pick publicID="de.gempa.tb1.Pick/20250412134157.573919.124246"><time><value>2025-04-12T13:41:49.788394Z</value></time><waveformID networkCode="CX" stationCode="PB01" channelCode="HHZ"/><filterID>ITAPER(4)&gt;&gt;BW(4,4,20)</filterID><methodID>AIC</methodID><horizontalSlowness><value>17.3178885368933</value></horizontalSlowness><backazimuth><value>249.77865882830463</value></backazimuth><phaseHint>P</phaseHint><evaluationMode>automatic</evaluationMode><comment><text>13.71025297828622</text><id>DFX:rectilinearity</id></comment><comment><text>14.618714402354572</text><id>SNR</id></comment></pick><pick publicID="de.gempa.tb1.Pick/20250412134200.587485.124248"><time><value>2025-04-12T13:41:55.058393Z</value></time><waveformID networkCode="CX" stationCode="PB03" channelCode="HHZ"/><filterID>ITAPER(4)&gt;&gt;BW(4,4,20)</filterID><methodID>AIC</methodID><horizontalSlowness><value>20.38214618038107</value></horizontalSlowness><backazimuth><value>43.49999499696983</value></backazimuth><phaseHint>P</phaseHint><evaluationMode>automatic</evaluationMode><comment><text>18.579207992704525</text><id>DFX:rectilinearity</id></comment><comment><text>10.22165260592994</text><id>SNR</id></comment></pick><pick publicID="de.gempa.tb1.Pick/20250412134201.095006.124250"><time><value>2025-04-12T13:41:52.008393Z</value></time><waveformID networkCode="CX" stationCode="PB08" channelCode="HHZ"/><filterID>ITAPER(4)&gt;&gt;BW(4,4,20)</filterID><methodID>AIC</methodID><horizontalSlowness><value>14.450150190839073</value></horizontalSlowness><backazimuth><value>206.38674409647533</value></backazimuth><phaseHint>P</phaseHint><evaluationMode>automatic</evaluationMode><comment><text>53.08896322367774</text><id>DFX:rectilinearity</id></comment><comment><text>11.507012878302092</text><id>SNR</id></comment></pick><pick publicID="de.gempa.tb1.Pick/20250412134201.501505.124252"><time><value>2025-04-12T13:41:54.128393Z</value></time><waveformID networkCode="CX" stationCode="PB02" channelCode="HHZ"/><filterID>ITAPER(4)&gt;&gt;BW(4,4,20)</filterID><methodID>AIC</methodID><horizontalSlowness><value>7.641253840008637</value></horizontalSlowness><backazimuth><value>219.37422373590533</value></backazimuth><phaseHint>P</phaseHint><evaluationMode>automatic</evaluationMode><comment><text>32.87095532724853</text><id>DFX:rectilinearity</id></comment><comment><text>17.39782806487013</text><id>SNR</id></comment></pick><pick publicID="de.gempa.tb1.Pick/20250412134207.749084.124258"><time><value>2025-04-12T13:41:50.24Z</value></time><waveformID networkCode="CX" stationCode="PB09" channelCode="HHZ"/><filterID>ITAPER(4)&gt;&gt;BW(4,4,20)</filterID><methodID>AIC</methodID><horizontalSlowness><value>17.106717239154445</value></horizontalSlowness><backazimuth><value>83.80123500220118</value></backazimuth><phaseHint>P</phaseHint><evaluationMode>automatic</evaluationMode><comment><text>77.65598483323393</text><id>DFX:rectilinearity</id></comment><comment><text>16.847531084725656</text><id>SNR</id></comment></pick><pick publicID="de.gempa.tb1.Pick/20250412134209.683417.124260"><time><value>2025-04-12T13:42:02.14Z</value></time><waveformID networkCode="CX" stationCode="PSGCX" channelCode="HHZ"/><filterID>ITAPER(4)&gt;&gt;BW(4,4,20)</filterID><methodID>AIC</methodID><horizontalSlowness><value>22.315588862445676</value></horizontalSlowness><backazimuth><value>108.58896538034503</value></backazimuth><phaseHint>P</phaseHint><evaluationMode>automatic</evaluationMode><comment><text>48.31462229865728</text><id>DFX:rectilinearity</id></comment><comment><text>35.56319325578008</text><id>SNR</id></comment></pick><pick publicID="de.gempa.tb1.Pick/20250412134216.584649.124262"><time><value>2025-04-12T13:42:08.358394Z</value></time><waveformID networkCode="CX" stationCode="PB01" channelCode="HHN"/><filterID>ITAPER(2)&gt;&gt;BW(3,3,20)</filterID><methodID>L2-AIC-GRID</methodID><horizontalSlowness><value>21.863549055119442</value></horizontalSlowness><backazimuth><value>356.33321999374363</value></backazimuth><phaseHint>S</phaseHint><evaluationMode>automatic</evaluationMode><comment><text>85.2806445313514</text><id>DFX:rectilinearity</id></comment><comment><text>de.gempa.tb1.Pick/20250412134157.573919.124246</text><id>RefPickID</id></comment><comment><text>9.16723608965748</text><id>SNR</id></comment></pick><pick publicID="de.gempa.tb1.Pick/20250412134219.558242.124263"><time><value>2025-04-12T13:42:11.34Z</value></time><waveformID networkCode="CX" stationCode="PB19" channelCode="HHZ"/><filterID>ITAPER(4)&gt;&gt;BW(4,4,20)</filterID><methodID>AIC</methodID><horizontalSlowness><value>16.248811737116732</value></horizontalSlowness><backazimuth><value>358.2233608560588</value></backazimuth><phaseHint>P</phaseHint><evaluationMode>automatic</evaluationMode><comment><text>27.34493064314521</text><id>DFX:rectilinearity</id></comment><comment><text>13.0094300032405</text><id>SNR</id></comment></pick><pick publicID="de.gempa.tb1.Pick/20250412134219.988035.124265"><time><value>2025-04-12T13:42:13.328393Z</value></time><waveformID networkCode="CX" stationCode="PB16" channelCode="HHZ"/><filterID>ITAPER(4)&gt;&gt;BW(4,4,20)</filterID><methodID>AIC</methodID><horizontalSlowness><value>7.460141176523593</value></horizontalSlowness><backazimuth><value>166.5682028038691</value></backazimuth><phaseHint>P</phaseHint><evaluationMode>automatic</evaluationMode><comment><text>13.314663975443477</text><id>DFX:rectilinearity</id></comment><comment><text>18.689330657565183</text><id>SNR</id></comment></pick><pick publicID="de.gempa.tb1.Pick/20250412134221.18918.124267"><time><value>2025-04-12T13:42:09.56Z</value></time><waveformID networkCode="CX" stationCode="PB09" channelCode="HHN"/><filterID>ITAPER(2)&gt;&gt;BW(3,3,20)</filterID><methodID>L2-AIC-GRID</methodID><horizontalSlowness><value>12.781209229771646</value></horizontalSlowness><backazimuth><value>351.60502858915333</value></backazimuth><phaseHint>S</phaseHint><evaluationMode>automatic</evaluationMode><comment><text>298.0653472631115</text><id>DFX:rectilinearity</id></comment><comment><text>de.gempa.tb1.Pick/20250412134207.749084.124258</text><id>RefPickID</id></comment><comment><text>5.811323112447287</text><id>SNR</id></comment></pick><pick publicID="de.gempa.tb1.Pick/20250412134222.564575.124268"><time><value>2025-04-12T13:42:15.688393Z</value></time><waveformID networkCode="CX" stationCode="PB02" channelCode="HHN"/><filterID>ITAPER(2)&gt;&gt;BW(3,3,20)</filterID><methodID>L2-AIC-GRID</methodID><horizontalSlowness><value>15.291844945654875</value></horizontalSlowness><backazimuth><value>248.4295126762308</value></backazimuth><phaseHint>S</phaseHint><evaluationMode>automatic</evaluationMode><comment><text>1028.1890615586808</text><id>DFX:rectilinearity</id></comment><comment><text>de.gempa.tb1.Pick/20250412134201.501505.124252</text><id>RefPickID</id></comment><comment><text>11.117130124207716</text><id>SNR</id></comment></pick><pick publicID="de.gempa.tb1.Pick/20250412134223.574462.124269"><time><value>2025-04-12T13:42:17.898393Z</value></time><waveformID networkCode="CX" stationCode="PB03" channelCode="HHN"/><filterID>ITAPER(2)&gt;&gt;BW(3,3,20)</filterID><methodID>L2-AIC-GRID</methodID><horizontalSlowness><value>17.787609681186169</value></horizontalSlowness><backazimuth><value>210.4960796531993</value></backazimuth><phaseHint>S</phaseHint><evaluationMode>automatic</evaluationMode><comment><text>600.3569766788477</text><id>DFX:rectilinearity</id></comment><comment><text>de.gempa.tb1.Pick/20250412134200.587485.124248</text><id>RefPickID</id></comment><comment><text>11.773252191578088</text><id>SNR</id></comment></pick><pick publicID="de.gempa.tb1.Pick/20250412134224.692238.124271"><time><value>2025-04-12T13:42:12.528393Z</value></time><waveformID networkCode="CX" stationCode="PB08" channelCode="HHN"/><filterID>ITAPER(2)&gt;&gt;BW(3,3,20)</filterID><methodID>L2-AIC-GRID</methodID><horizontalSlowness><value>15.289728710824564</value></horizontalSlowness><backazimuth><value>207.30288063811685</value></backazimuth><phaseHint>S</phaseHint><evaluationMode>automatic</evaluationMode><comment><text>252.05379506677667</text><id>DFX:rectilinearity</id></comment><comment><text>de.gempa.tb1.Pick/20250412134201.095006.124250</text><id>RefPickID</id></comment><comment><text>8.884227878239239</text><id>SNR</id></comment></pick><pick publicID="de.gempa.tb1.Pick/20250412134231.084042.124276"><time><value>2025-04-12T13:41:55.038391Z</value></time><waveformID networkCode="CX" stationCode="PB07" channelCode="HHZ"/><filterID>ITAPER(4)&gt;&gt;BW(4,4,20)</filterID><methodID>AIC</methodID><horizontalSlowness><value>21.726998473867134</value></horizontalSlowness><backazimuth><value>71.36394952757151</value></backazimuth><phaseHint>P</phaseHint><evaluationMode>automatic</evaluationMode><comment><text>206.63659901189797</text><id>DFX:rectilinearity</id></comment><comment><text>11.561047715437258</text><id>SNR</id></comment></pick><pick publicID="de.gempa.tb1.Pick/20250412134238.192662.124282"><time><value>2025-04-12T13:42:17.378391Z</value></time><waveformID networkCode="CX" stationCode="PB07" channelCode="HHN"/><filterID>ITAPER(2)&gt;&gt;BW(3,3,20)</filterID><methodID>L2-AIC-GRID</methodID><horizontalSlowness><value>22.2606472811026</value></horizontalSlowness><backazimuth><value>311.260917084812</value></backazimuth><phaseHint>S</phaseHint><evaluationMode>automatic</evaluationMode><comment><text>3695.970907245558</text><id>DFX:rectilinearity</id></comment><comment><text>de.gempa.tb1.Pick/20250412134231.084042.124276</text><id>RefPickID</id></comment><comment><text>15.36848092668214</text><id>SNR</id></comment></pick><pick publicID="de.gempa.tb1.Pick/20250412134242.742148.124286"><time><value>2025-04-12T13:42:30.36Z</value></time><waveformID networkCode="CX" stationCode="PSGCX" channelCode="HHN"/><filterID>ITAPER(2)&gt;&gt;BW(3,3,20)</filterID><methodID>L2-AIC-GRID</methodID><horizontalSlowness><value>8.066278327124808</value></horizontalSlowness><backazimuth><value>185.6578957691609</value></backazimuth><phaseHint>S</phaseHint><evaluationMode>automatic</evaluationMode><comment><text>57.66843210983271</text><id>DFX:rectilinearity</id></comment><comment><text>de.gempa.tb1.Pick/20250412134209.683417.124260</text><id>RefPickID</id></comment><comment><text>6.54593779378007</text><id>SNR</id></comment></pick><pick publicID="de.gempa.tb1.Pick/20250412134254.83537.124287"><time><value>2025-04-12T13:42:45.94Z</value></time><waveformID networkCode="CX" stationCode="PB19" channelCode="HHN"/><filterID>ITAPER(2)&gt;&gt;BW(3,3,20)</filterID><methodID>L2-AIC-GRID</methodID><horizontalSlowness><value>18.489661862368205</value></horizontalSlowness><backazimuth><value>313.76682221458236</value></backazimuth><phaseHint>S</phaseHint><evaluationMode>automatic</evaluationMode><comment><text>36.317209826213784</text><id>DFX:rectilinearity</id></comment><comment><text>de.gempa.tb1.Pick/20250412134219.558242.124263</text><id>RefPickID</id></comment><comment><text>6.990966505583255</text><id>SNR</id></comment></pick><origin publicID="de.gempa.tb1.Origin/20250412134254.83959.83667"><time><value>2025-04-12T13:41:25.761474Z</value><uncertainty>0.6617239713668823</uncertainty></time><latitude><value>-21.131500244140625</value><uncertainty>2.662531614303589</uncertainty></latitude><longitude><value>-68.51835632324219</value><uncertainty>8.71614933013916</uncertainty></longitude><depth><value>152.00698852539062</value><uncertainty>7.600516319274902</uncertainty></depth><depthType>from location</depthType><methodID>LOCSAT</methodID><earthModelID>iasp91_scanloc</earthModelID><quality><associatedPhaseCount>17</associatedPhaseCount><usedPhaseCount>17</usedPhaseCount><associatedStationCount>9</associatedStationCount><usedStationCount>9</usedStationCount><depthPhaseCount>0</depthPhaseCount><standardError>0.5743812367289024</standardError><azimuthalGap>213.04885864257812</azimuthalGap><maximumDistance>2.9338207244873047</maximumDistance><minimumDistance>0.9091789126396179</minimumDistance><medianDistance>1.4052793979644775</medianDistance></quality><uncertainty><minHorizontalUncertainty>5.691816329956055</minHorizontalUncertainty><maxHorizontalUncertainty>18.692455291748047</maxHorizontalUncertainty><azimuthMaxHorizontalUncertainty>88.59833526611328</azimuthMaxHorizontalUncertainty><preferredDescription>horizontal uncertainty</preferredDescription></uncertainty><evaluationMode>automatic</evaluationMode><evaluationStatus>confirmed</evaluationStatus><comment><text>0.31</text><id>mismatchScore</id></comment><comment><text>mismatchScore</text><id>scevalMethod</id></comment><arrival><pickID>de.gempa.tb1.Pick/20250412134157.573919.124246</pickID><phase>P</phase><azimuth>275.3702392578125</azimuth><distance>0.9091789126396179</distance><timeResidual>-0.1904449462890625</timeResidual><timeUsed>true</timeUsed><horizontalSlownessUsed>false</horizontalSlownessUsed><backazimuthUsed>false</backazimuthUsed><weight>1</weight></arrival><arrival><pickID>de.gempa.tb1.Pick/20250412134200.587485.124248</pickID><phase>P</phase><azimuth>231.3242950439453</azimuth><distance>1.4673511981964111</distance><timeResidual>-0.06881141662597656</timeResidual><timeUsed>true</timeUsed><horizontalSlownessUsed>false</horizontalSlownessUsed><backazimuthUsed>false</backazimuthUsed><weight>1</weight></arrival><arrival><pickID>de.gempa.tb1.Pick/20250412134201.095006.124250</pickID><phase>P</phase><azimuth>328.7725830078125</azimuth><distance>1.1509724855422974</distance><timeResidual>-0.04011726379394531</timeResidual><timeUsed>true</timeUsed><horizontalSlownessUsed>false</horizontalSlownessUsed><backazimuthUsed>false</backazimuthUsed><weight>1</weight></arrival><arrival><pickID>de.gempa.tb1.Pick/20250412134201.501505.124252</pickID><phase>P</phase><azimuth>261.46173095703125</azimuth><distance>1.2989064455032349</distance><timeResidual>0.6898345947265625</timeResidual><timeUsed>true</timeUsed><horizontalSlownessUsed>false</horizontalSlownessUsed><backazimuthUsed>false</backazimuthUsed><weight>1</weight></arrival><arrival><pickID>de.gempa.tb1.Pick/20250412134207.749084.124258</pickID><phase>P</phase><azimuth>225.3998260498047</azimuth><distance>0.9444451332092285</distance><timeResidual>-0.015132904052734375</timeResidual><timeUsed>true</timeUsed><horizontalSlownessUsed>false</horizontalSlownessUsed><backazimuthUsed>false</backazimuthUsed><weight>1</weight></arrival><arrival><pickID>de.gempa.tb1.Pick/20250412134209.683417.124260</pickID><phase>P</phase><azimuth>315.1148681640625</azimuth><distance>2.1440484523773193</distance><timeResidual>-0.5684032440185547</timeResidual><timeUsed>true</timeUsed><horizontalSlownessUsed>false</horizontalSlownessUsed><backazimuthUsed>false</backazimuthUsed><weight>1</weight></arrival><arrival><pickID>de.gempa.tb1.Pick/20250412134216.584649.124262</pickID><phase>S</phase><azimuth>275.3702392578125</azimuth><distance>0.9091789126396179</distance><timeResidual>-0.4479942321777344</timeResidual><timeUsed>true</timeUsed><horizontalSlownessUsed>false</horizontalSlownessUsed><backazimuthUsed>false</backazimuthUsed><weight>1</weight></arrival><arrival><pickID>de.gempa.tb1.Pick/20250412134219.558242.124263</pickID><phase>P</phase><azimuth>194.36019897460938</azimuth><distance>2.8509769439697266</distance><timeResidual>0.02655792236328125</timeResidual><timeUsed>true</timeUsed><horizontalSlownessUsed>false</horizontalSlownessUsed><backazimuthUsed>false</backazimuthUsed><weight>1</weight></arrival><arrival><pickID>de.gempa.tb1.Pick/20250412134219.988035.124265</pickID><phase>P</phase><azimuth>341.31134033203125</azimuth><distance>2.9338207244873047</distance><timeResidual>0.937154769897461</timeResidual><timeUsed>true</timeUsed><horizontalSlownessUsed>false</horizontalSlownessUsed><backazimuthUsed>false</backazimuthUsed><weight>1</weight></arrival><arrival><pickID>de.gempa.tb1.Pick/20250412134221.18918.124267</pickID><phase>S</phase><azimuth>225.3998260498047</azimuth><distance>0.9444451332092285</distance><timeResidual>0.26044464111328125</timeResidual><timeUsed>true</timeUsed><horizontalSlownessUsed>false</horizontalSlownessUsed><backazimuthUsed>false</backazimuthUsed><weight>1</weight></arrival><arrival><pickID>de.gempa.tb1.Pick/20250412134222.564575.124268</pickID><phase>S</phase><azimuth>261.46173095703125</azimuth><distance>1.2989064455032349</distance><timeResidual>0.7024860382080078</timeResidual><timeUsed>true</timeUsed><horizontalSlownessUsed>false</horizontalSlownessUsed><backazimuthUsed>false</backazimuthUsed><weight>1</weight></arrival><arrival><pickID>de.gempa.tb1.Pick/20250412134223.574462.124269</pickID><phase>S</phase><azimuth>231.3242950439453</azimuth><distance>1.4673511981964111</distance><timeResidual>-0.10613059997558594</timeResidual><timeUsed>true</timeUsed><horizontalSlownessUsed>false</horizontalSlownessUsed><backazimuthUsed>false</backazimuthUsed><weight>1</weight></arrival><arrival><pickID>de.gempa.tb1.Pick/20250412134224.692238.124271</pickID><phase>S</phase><azimuth>328.7725830078125</azimuth><distance>1.1509724855422974</distance><timeResidual>0.027250289916992191</timeResidual><timeUsed>true</timeUsed><horizontalSlownessUsed>false</horizontalSlownessUsed><backazimuthUsed>false</backazimuthUsed><weight>1</weight></arrival><arrival><pickID>de.gempa.tb1.Pick/20250412134231.084042.124276</pickID><phase>P</phase><azimuth>244.8274383544922</azimuth><distance>1.4052793979644775</distance><timeResidual>0.5444145202636719</timeResidual><timeUsed>true</timeUsed><horizontalSlownessUsed>false</horizontalSlownessUsed><backazimuthUsed>false</backazimuthUsed><weight>1</weight></arrival><arrival><pickID>de.gempa.tb1.Pick/20250412134238.192662.124282</pickID><phase>S</phase><azimuth>244.8274383544922</azimuth><distance>1.4052793979644775</distance><timeResidual>0.5061073303222656</timeResidual><timeUsed>true</timeUsed><horizontalSlownessUsed>false</horizontalSlownessUsed><backazimuthUsed>false</backazimuthUsed><weight>1</weight></arrival><arrival><pickID>de.gempa.tb1.Pick/20250412134242.742148.124286</pickID><phase>S</phase><azimuth>315.1148681640625</azimuth><distance>2.1440484523773193</distance><timeResidual>-1.21075439453125</timeResidual><timeUsed>true</timeUsed><horizontalSlownessUsed>false</horizontalSlownessUsed><backazimuthUsed>false</backazimuthUsed><weight>1</weight></arrival><arrival><pickID>de.gempa.tb1.Pick/20250412134254.83537.124287</pickID><phase>S</phase><azimuth>194.36019897460938</azimuth><distance>2.8509769439697266</distance><timeResidual>-1.0465621948242188</timeResidual><timeUsed>true</timeUsed><horizontalSlownessUsed>false</horizontalSlownessUsed><backazimuthUsed>false</backazimuthUsed><weight>1</weight></arrival><magnitude publicID="de.gempa.tb1.Magnitude/20250412134342.9821.233127"><magnitude><value>2.530325658276137</value></magnitude><type>M</type><methodID>weighted average</methodID><stationCount>3</stationCount></magnitude></origin><event publicID="gempa2025hfpp"><preferredOriginID>de.gempa.tb1.Origin/20250412134254.83959.83667</preferredOriginID><preferredMagnitudeID>de.gempa.tb1.Magnitude/20250412134342.9821.233127</preferredMagnitudeID><description><text>Chile-Bolivia Border Region</text><type>region name</type></description><originReference>de.gempa.tb1.Origin/20250412134254.83959.83667</originReference></event></EventParameters></seiscomp>