<?xml version="1.0" encoding="UTF-8"?>
<seiscomp xmlns="http://geofon.gfz-potsdam.de/ns/seiscomp3-schema/0.13" version="0.13"><EventParameters><pick publicID="de.gempa.tb1.Pick/20250414101245.815029.137295"><time><value>2025-04-14T10:12:37.71Z</value></time><waveformID networkCode="CX" stationCode="PB09" channelCode="HHZ"/><filterID>ITAPER(4)&gt;&gt;BW(4,4,20)</filterID><methodID>AIC</methodID><horizontalSlowness><value>21.602494085418126</value></horizontalSlowness><backazimuth><value>241.20023781323857</value></backazimuth><phaseHint>P</phaseHint><evaluationMode>automatic</evaluationMode><comment><text>6.321467899002818</text><id>DFX:rectilinearity</id></comment><comment><text>6.370728095820572</text><id>SNR</id></comment></pick><pick publicID="de.gempa.tb1.Pick/20250414101249.466485.137297"><time><value>2025-04-14T10:12:41.258393Z</value></time><waveformID networkCode="CX" stationCode="PB02" channelCode="HHZ"/><filterID>ITAPER(4)&gt;&gt;BW(4,4,20)</filterID><methodID>AIC</methodID><horizontalSlowness><value>2.0485797793941312</value></horizontalSlowness><backazimuth><value>235.1691092544313</value></backazimuth><phaseHint>P</phaseHint><evaluationMode>automatic</evaluationMode><comment><text>14.696579467245577</text><id>DFX:rectilinearity</id></comment><comment><text>6.539398321018937</text><id>SNR</id></comment></pick><pick publicID="de.gempa.tb1.Pick/20250414101254.615667.137300"><time><value>2025-04-14T10:12:49.13Z</value></time><waveformID networkCode="CX" stationCode="PSGCX" channelCode="HHZ"/><filterID>ITAPER(4)&gt;&gt;BW(4,4,20)</filterID><methodID>AIC</methodID><horizontalSlowness><value>21.505367228475716</value></horizontalSlowness><backazimuth><value>236.2599934835802</value></backazimuth><phaseHint>P</phaseHint><evaluationMode>automatic</evaluationMode><comment><text>23.55842576909719</text><id>DFX:rectilinearity</id></comment><comment><text>7.490221739602001</text><id>SNR</id></comment></pick><pick publicID="de.gempa.tb1.Pick/20250414101255.147828.137302"><time><value>2025-04-14T10:12:42.088393Z</value></time><waveformID networkCode="CX" stationCode="PB07" channelCode="HHZ"/><filterID>ITAPER(4)&gt;&gt;BW(4,4,20)</filterID><methodID>AIC</methodID><horizontalSlowness><value>19.103689796947883</value></horizontalSlowness><backazimuth><value>225.45933532889507</value></backazimuth><phaseHint>P</phaseHint><evaluationMode>automatic</evaluationMode><comment><text>77.28925074350573</text><id>DFX:rectilinearity</id></comment><comment><text>5.891728598253839</text><id>SNR</id></comment></pick><pick publicID="de.gempa.tb1.Pick/20250414101323.566295.137309"><time><value>2025-04-14T10:13:17.34Z</value></time><waveformID networkCode="CX" stationCode="PSGCX" channelCode="HHN"/><filterID>ITAPER(2)&gt;&gt;BW(3,3,20)</filterID><methodID>L2-AIC-GRID</methodID><horizontalSlowness><value>23.299798801632914</value></horizontalSlowness><backazimuth><value>274.49572970878273</value></backazimuth><phaseHint>S</phaseHint><evaluationMode>automatic</evaluationMode><comment><text>9.553100072414225</text><id>DFX:rectilinearity</id></comment><comment><text>de.gempa.tb1.Pick/20250414101254.615667.137300</text><id>RefPickID</id></comment><comment><text>11.270037429389815</text><id>SNR</id></comment></pick><pick publicID="de.gempa.tb1.Pick/20250414101333.970954.137310"><time><value>2025-04-14T10:13:04.278393Z</value></time><waveformID networkCode="CX" stationCode="PB07" channelCode="HHN"/><filterID>ITAPER(2)&gt;&gt;BW(3,3,20)</filterID><methodID>L2-AIC-GRID</methodID><horizontalSlowness><value>21.36127038279377</value></horizontalSlowness><backazimuth><value>248.2274188257117</value></backazimuth><phaseHint>S</phaseHint><evaluationMode>automatic</evaluationMode><comment><text>213.12773277611868</text><id>DFX:rectilinearity</id></comment><comment><text>de.gempa.tb1.Pick/20250414101255.147828.137302</text><id>RefPickID</id></comment><comment><text>7.912528385367273</text><id>SNR</id></comment></pick><origin publicID="de.gempa.tb1.Origin/20250414101333.974525.134605"><time><value>2025-04-14T10:12:13.599359Z</value><uncertainty>1.6314926147460938</uncertainty></time><latitude><value>-21.03443145751953</value><uncertainty>7.842758655548096</uncertainty></latitude><longitude><value>-68.4781723022461</value><uncertainty>23.62332534790039</uncertainty></longitude><depth><value>139.4586944580078</value><uncertainty>36.54909133911133</uncertainty></depth><depthType>from location</depthType><methodID>LOCSAT</methodID><earthModelID>iasp91_scanloc</earthModelID><quality><associatedPhaseCount>6</associatedPhaseCount><usedPhaseCount>6</usedPhaseCount><associatedStationCount>4</associatedStationCount><usedStationCount>4</usedStationCount><depthPhaseCount>0</depthPhaseCount><standardError>0.21743127164074805</standardError><azimuthalGap>270.5274200439453</azimuthalGap><maximumDistance>2.1042425632476807</maximumDistance><minimumDistance>1.039853572845459</minimumDistance><medianDistance>1.4820560216903687</medianDistance></quality><uncertainty><minHorizontalUncertainty>11.524940490722656</minHorizontalUncertainty><maxHorizontalUncertainty>52.12273025512695</maxHorizontalUncertainty><azimuthMaxHorizontalUncertainty>76.05461883544922</azimuthMaxHorizontalUncertainty><preferredDescription>horizontal uncertainty</preferredDescription></uncertainty><evaluationMode>automatic</evaluationMode><comment><text>0.59</text><id>mismatchScore</id></comment><arrival><pickID>de.gempa.tb1.Pick/20250414101245.815029.137295</pickID><phase>P</phase><azimuth>223.04823303222656</azimuth><distance>1.039853572845459</distance><timeResidual>-0.03279876708984375</timeResidual><timeUsed>true</timeUsed><horizontalSlownessUsed>false</horizontalSlownessUsed><backazimuthUsed>false</backazimuthUsed><weight>1</weight></arrival><arrival><pickID>de.gempa.tb1.Pick/20250414101249.466485.137297</pickID><phase>P</phase><azimuth>257.63763427734375</azimuth><distance>1.3533596992492676</distance><timeResidual>0.43652915954589844</timeResidual><timeUsed>true</timeUsed><horizontalSlownessUsed>false</horizontalSlownessUsed><backazimuthUsed>false</backazimuthUsed><weight>1</weight></arrival><arrival><pickID>de.gempa.tb1.Pick/20250414101254.615667.137300</pickID><phase>P</phase><azimuth>312.52081298828125</azimuth><distance>2.1042425632476807</distance><timeResidual>-0.2441082000732422</timeResidual><timeUsed>true</timeUsed><horizontalSlownessUsed>false</horizontalSlownessUsed><backazimuthUsed>false</backazimuthUsed><weight>1</weight></arrival><arrival><pickID>de.gempa.tb1.Pick/20250414101255.147828.137302</pickID><phase>P</phase><azimuth>242.0506591796875</azimuth><distance>1.4820560216903687</distance><timeResidual>-0.09820938110351562</timeResidual><timeUsed>true</timeUsed><horizontalSlownessUsed>false</horizontalSlownessUsed><backazimuthUsed>false</backazimuthUsed><weight>1</weight></arrival><arrival><pickID>de.gempa.tb1.Pick/20250414101323.566295.137309</pickID><phase>S</phase><azimuth>312.52081298828125</azimuth><distance>2.1042425632476807</distance><timeResidual>0.07164764404296875</timeResidual><timeUsed>true</timeUsed><horizontalSlownessUsed>false</horizontalSlownessUsed><backazimuthUsed>false</backazimuthUsed><weight>1</weight></arrival><arrival><pickID>de.gempa.tb1.Pick/20250414101333.970954.137310</pickID><phase>S</phase><azimuth>242.0506591796875</azimuth><distance>1.4820560216903687</distance><timeResidual>-0.13288116455078125</timeResidual><timeUsed>true</timeUsed><horizontalSlownessUsed>false</horizontalSlownessUsed><backazimuthUsed>false</backazimuthUsed><weight>1</weight></arrival><magnitude publicID="de.gempa.tb1.Magnitude/20250414101357.354109.471750"><magnitude><value>2.1537225343563833</value></magnitude><type>M</type><methodID>weighted average</methodID><stationCount>1</stationCount></magnitude></origin><event publicID="gempa2025hjar"><preferredOriginID>de.gempa.tb1.Origin/20250414101333.974525.134605</preferredOriginID><preferredMagnitudeID>de.gempa.tb1.Magnitude/20250414101357.354109.471750</preferredMagnitudeID><description><text>Chile-Bolivia Border Region</text><type>region name</type></description><originReference>de.gempa.tb1.Origin/20250414101333.974525.134605</originReference></event></EventParameters></seiscomp>