<?xml version="1.0" encoding="UTF-8"?>
<seiscomp xmlns="http://geofon.gfz-potsdam.de/ns/seiscomp3-schema/0.13" version="0.13"><EventParameters><pick publicID="de.gempa.tb1.Pick/20250411104202.625151.118363"><time><value>2025-04-11T10:41:57.808393Z</value></time><waveformID networkCode="CX" stationCode="PB03" channelCode="HHZ"/><filterID>ITAPER(4)&gt;&gt;BW(4,4,20)</filterID><methodID>AIC</methodID><horizontalSlowness><value>13.904595747383535</value></horizontalSlowness><backazimuth><value>269.08290083440147</value></backazimuth><phaseHint>P</phaseHint><evaluationMode>automatic</evaluationMode><comment><text>35.40940357643939</text><id>DFX:rectilinearity</id></comment><comment><text>37.10496981004654</text><id>SNR</id></comment></pick><pick publicID="de.gempa.tb1.Pick/20250411104206.535895.118365"><time><value>2025-04-11T10:42:00.868393Z</value></time><waveformID networkCode="CX" stationCode="PB02" channelCode="HHZ"/><filterID>ITAPER(4)&gt;&gt;BW(4,4,20)</filterID><methodID>AIC</methodID><horizontalSlowness><value>8.606186304286096</value></horizontalSlowness><backazimuth><value>193.43896022243078</value></backazimuth><phaseHint>P</phaseHint><evaluationMode>automatic</evaluationMode><comment><text>86.43470498067617</text><id>DFX:rectilinearity</id></comment><comment><text>56.4445157248326</text><id>SNR</id></comment></pick><pick publicID="de.gempa.tb1.Pick/20250411104212.582882.118367"><time><value>2025-04-11T10:42:08.328393Z</value></time><waveformID networkCode="CX" stationCode="PB01" channelCode="HHZ"/><filterID>ITAPER(4)&gt;&gt;BW(4,4,20)</filterID><methodID>AIC</methodID><horizontalSlowness><value>18.648436527099523</value></horizontalSlowness><backazimuth><value>223.7447780241688</value></backazimuth><phaseHint>P</phaseHint><evaluationMode>automatic</evaluationMode><comment><text>7.697864445457018</text><id>DFX:rectilinearity</id></comment><comment><text>20.804248722824294</text><id>SNR</id></comment></pick><pick publicID="de.gempa.tb1.Pick/20250411104212.80093.118369"><time><value>2025-04-11T10:42:05.188393Z</value></time><waveformID networkCode="CX" stationCode="PB03" channelCode="HHN"/><filterID>ITAPER(2)&gt;&gt;BW(3,3,20)</filterID><methodID>L2-AIC-GRID</methodID><horizontalSlowness><value>9.708153668677395</value></horizontalSlowness><backazimuth><value>111.4443718752582</value></backazimuth><phaseHint>S</phaseHint><evaluationMode>automatic</evaluationMode><comment><text>193.95121676503248</text><id>DFX:rectilinearity</id></comment><comment><text>de.gempa.tb1.Pick/20250411104202.625151.118363</text><id>RefPickID</id></comment><comment><text>7.116627314036152</text><id>SNR</id></comment></pick><pick publicID="de.gempa.tb1.Pick/20250411104214.496346.118370"><time><value>2025-04-11T10:42:05.598393Z</value></time><waveformID networkCode="CX" stationCode="PB06" channelCode="HHZ"/><filterID>ITAPER(4)&gt;&gt;BW(4,4,20)</filterID><methodID>AIC</methodID><horizontalSlowness><value>8.832529712035662</value></horizontalSlowness><backazimuth><value>335.80943230245555</value></backazimuth><phaseHint>P</phaseHint><evaluationMode>automatic</evaluationMode><comment><text>84.47182753876099</text><id>DFX:rectilinearity</id></comment><comment><text>9.601957734223978</text><id>SNR</id></comment></pick><pick publicID="de.gempa.tb1.Pick/20250411104217.65774.118372"><time><value>2025-04-11T10:42:10.658393Z</value></time><waveformID networkCode="CX" stationCode="PB02" channelCode="HHN"/><filterID>ITAPER(2)&gt;&gt;BW(3,3,20)</filterID><methodID>L2-AIC-GRID</methodID><horizontalSlowness><value>12.935946054937897</value></horizontalSlowness><backazimuth><value>48.49798670371359</value></backazimuth><phaseHint>S</phaseHint><evaluationMode>automatic</evaluationMode><comment><text>5840.249176810481</text><id>DFX:rectilinearity</id></comment><comment><text>de.gempa.tb1.Pick/20250411104206.535895.118365</text><id>RefPickID</id></comment><comment><text>8.253683727720896</text><id>SNR</id></comment></pick><pick publicID="de.gempa.tb1.Pick/20250411104219.582249.118373"><time><value>2025-04-11T10:42:05.450001Z</value></time><waveformID networkCode="CX" stationCode="PB09" channelCode="HHZ"/><filterID>ITAPER(4)&gt;&gt;BW(4,4,20)</filterID><methodID>AIC</methodID><horizontalSlowness><value>20.14599367243778</value></horizontalSlowness><backazimuth><value>271.29023140976187</value></backazimuth><phaseHint>P</phaseHint><evaluationMode>automatic</evaluationMode><comment><text>13.344211773050986</text><id>DFX:rectilinearity</id></comment><comment><text>41.976113136773357</text><id>SNR</id></comment></pick><pick publicID="de.gempa.tb1.Pick/20250411104227.447922.118375"><time><value>2025-04-11T10:41:56.828396Z</value></time><waveformID networkCode="CX" stationCode="PB07" channelCode="HHZ"/><filterID>ITAPER(4)&gt;&gt;BW(4,4,20)</filterID><methodID>AIC</methodID><horizontalSlowness><value>12.65553609890722</value></horizontalSlowness><backazimuth><value>273.24967369109964</value></backazimuth><phaseHint>P</phaseHint><evaluationMode>automatic</evaluationMode><comment><text>937.8578818993853</text><id>DFX:rectilinearity</id></comment><comment><text>107.95945905549455</text><id>SNR</id></comment></pick><pick publicID="de.gempa.tb1.Pick/20250411104229.561802.118377"><time><value>2025-04-11T10:42:22.958393Z</value></time><waveformID networkCode="CX" stationCode="PB01" channelCode="HHN"/><filterID>ITAPER(2)&gt;&gt;BW(3,3,20)</filterID><methodID>L2-AIC-GRID</methodID><horizontalSlowness><value>19.600527374494103</value></horizontalSlowness><backazimuth><value>118.62122579570432</value></backazimuth><phaseHint>S</phaseHint><evaluationMode>automatic</evaluationMode><comment><text>139.2991604430027</text><id>DFX:rectilinearity</id></comment><comment><text>de.gempa.tb1.Pick/20250411104212.582882.118367</text><id>RefPickID</id></comment><comment><text>6.273360022760652</text><id>SNR</id></comment></pick><pick publicID="de.gempa.tb1.Pick/20250411104230.52465.118378"><time><value>2025-04-11T10:42:03.528396Z</value></time><waveformID networkCode="CX" stationCode="PB07" channelCode="HHN"/><filterID>ITAPER(2)&gt;&gt;BW(3,3,20)</filterID><methodID>L2-AIC-GRID</methodID><horizontalSlowness><value>19.912807573180288</value></horizontalSlowness><backazimuth><value>19.696047888074588</value></backazimuth><phaseHint>S</phaseHint><evaluationMode>automatic</evaluationMode><comment><text>18171.311486045575</text><id>DFX:rectilinearity</id></comment><comment><text>de.gempa.tb1.Pick/20250411104227.447922.118375</text><id>RefPickID</id></comment><comment><text>6.360784768405609</text><id>SNR</id></comment></pick><pick publicID="de.gempa.tb1.Pick/20250411104231.568836.118379"><time><value>2025-04-11T10:42:18.528393Z</value></time><waveformID networkCode="CX" stationCode="PB06" channelCode="HHN"/><filterID>ITAPER(2)&gt;&gt;BW(3,3,20)</filterID><methodID>L2-AIC-GRID</methodID><horizontalSlowness><value>11.970801251681443</value></horizontalSlowness><backazimuth><value>273.9807106631574</value></backazimuth><phaseHint>S</phaseHint><evaluationMode>automatic</evaluationMode><comment><text>185.67562380894364</text><id>DFX:rectilinearity</id></comment><comment><text>de.gempa.tb1.Pick/20250411104214.496346.118370</text><id>RefPickID</id></comment><comment><text>8.340996403989292</text><id>SNR</id></comment></pick><origin publicID="de.gempa.tb1.Origin/20250411104232.109796.58424"><time><value>2025-04-11T10:41:47.488716Z</value><uncertainty>1.0775920152664185</uncertainty></time><latitude><value>-21.941526412963867</value><uncertainty>2.7887613773345947</uncertainty></latitude><longitude><value>-70.26903533935547</value><uncertainty>7.087539196014404</uncertainty></longitude><depth><value>29.149017333984375</value><uncertainty>4.1048483848571777</uncertainty></depth><depthType>from location</depthType><methodID>LOCSAT</methodID><earthModelID>iasp91_scanloc</earthModelID><quality><associatedPhaseCount>11</associatedPhaseCount><usedPhaseCount>11</usedPhaseCount><associatedStationCount>6</associatedStationCount><usedStationCount>6</usedStationCount><depthPhaseCount>0</depthPhaseCount><standardError>0.4278219286165849</standardError><azimuthalGap>249.5461730957031</azimuthalGap><maximumDistance>1.1527836322784424</maximumDistance><minimumDistance>0.4150351881980896</minimumDistance><medianDistance>0.7094391584396362</medianDistance></quality><uncertainty><minHorizontalUncertainty>5.657365798950195</minHorizontalUncertainty><maxHorizontalUncertainty>15.320427894592285</maxHorizontalUncertainty><azimuthMaxHorizontalUncertainty>82.18040466308594</azimuthMaxHorizontalUncertainty><preferredDescription>horizontal uncertainty</preferredDescription></uncertainty><evaluationMode>automatic</evaluationMode><evaluationStatus>confirmed</evaluationStatus><comment><text>0.00</text><id>mismatchScore</id></comment><comment><text>mismatchScore</text><id>scevalMethod</id></comment><arrival><pickID>de.gempa.tb1.Pick/20250411104202.625151.118363</pickID><phase>P</phase><azimuth>102.62692260742188</azimuth><distance>0.4905187785625458</distance><timeResidual>0.07836341857910156</timeResidual><timeUsed>true</timeUsed><horizontalSlownessUsed>false</horizontalSlownessUsed><backazimuthUsed>false</backazimuthUsed><weight>1</weight></arrival><arrival><pickID>de.gempa.tb1.Pick/20250411104206.535895.118365</pickID><phase>P</phase><azimuth>29.35636901855469</azimuth><distance>0.7094391584396362</distance><timeResidual>-0.4461984634399414</timeResidual><timeUsed>true</timeUsed><horizontalSlownessUsed>false</horizontalSlownessUsed><backazimuthUsed>false</backazimuthUsed><weight>1</weight></arrival><arrival><pickID>de.gempa.tb1.Pick/20250411104212.582882.118367</pickID><phase>P</phase><azimuth>39.30098342895508</azimuth><distance>1.1527836322784424</distance><timeResidual>0.6776361465454102</timeResidual><timeUsed>true</timeUsed><horizontalSlownessUsed>false</horizontalSlownessUsed><backazimuthUsed>false</backazimuthUsed><weight>1</weight></arrival><arrival><pickID>de.gempa.tb1.Pick/20250411104212.80093.118369</pickID><phase>S</phase><azimuth>102.62692260742188</azimuth><distance>0.4905187785625458</distance><timeResidual>-0.008502960205078125</timeResidual><timeUsed>true</timeUsed><horizontalSlownessUsed>false</horizontalSlownessUsed><backazimuthUsed>false</backazimuthUsed><weight>1</weight></arrival><arrival><pickID>de.gempa.tb1.Pick/20250411104214.496346.118370</pickID><phase>P</phase><azimuth>139.81019592285156</azimuth><distance>0.9976189732551575</distance><timeResidual>0.0883941650390625</timeResidual><timeUsed>true</timeUsed><horizontalSlownessUsed>false</horizontalSlownessUsed><backazimuthUsed>false</backazimuthUsed><weight>1</weight></arrival><arrival><pickID>de.gempa.tb1.Pick/20250411104217.65774.118372</pickID><phase>S</phase><azimuth>29.35636901855469</azimuth><distance>0.7094391584396362</distance><timeResidual>-0.7577314376831055</timeResidual><timeUsed>true</timeUsed><horizontalSlownessUsed>false</horizontalSlownessUsed><backazimuthUsed>false</backazimuthUsed><weight>1</weight></arrival><arrival><pickID>de.gempa.tb1.Pick/20250411104219.582249.118373</pickID><phase>P</phase><azimuth>81.58154296875</azimuth><distance>0.9649553894996643</distance><timeResidual>0.39054107666015625</timeResidual><timeUsed>true</timeUsed><horizontalSlownessUsed>false</horizontalSlownessUsed><backazimuthUsed>false</backazimuthUsed><weight>1</weight></arrival><arrival><pickID>de.gempa.tb1.Pick/20250411104227.447922.118375</pickID><phase>P</phase><azimuth>59.06214904785156</azimuth><distance>0.4150351881980896</distance><timeResidual>0.28136348724365234</timeResidual><timeUsed>true</timeUsed><horizontalSlownessUsed>false</horizontalSlownessUsed><backazimuthUsed>false</backazimuthUsed><weight>1</weight></arrival><arrival><pickID>de.gempa.tb1.Pick/20250411104229.561802.118377</pickID><phase>S</phase><azimuth>39.30098342895508</azimuth><distance>1.1527836322784424</distance><timeResidual>-0.0565643310546875</timeResidual><timeUsed>true</timeUsed><horizontalSlownessUsed>false</horizontalSlownessUsed><backazimuthUsed>false</backazimuthUsed><weight>1</weight></arrival><arrival><pickID>de.gempa.tb1.Pick/20250411104230.52465.118378</pickID><phase>S</phase><azimuth>59.06214904785156</azimuth><distance>0.4150351881980896</distance><timeResidual>0.3769388198852539</timeResidual><timeUsed>true</timeUsed><horizontalSlownessUsed>false</horizontalSlownessUsed><backazimuthUsed>false</backazimuthUsed><weight>1</weight></arrival><arrival><pickID>de.gempa.tb1.Pick/20250411104231.568836.118379</pickID><phase>S</phase><azimuth>139.81019592285156</azimuth><distance>0.9976189732551575</distance><timeResidual>-0.6244277954101562</timeResidual><timeUsed>true</timeUsed><horizontalSlownessUsed>false</horizontalSlownessUsed><backazimuthUsed>false</backazimuthUsed><weight>1</weight></arrival><magnitude publicID="de.gempa.tb1.Magnitude/20250411104235.315773.119867"><magnitude><value>2.465123298453536</value></magnitude><type>M</type><methodID>weighted average</methodID><stationCount>6</stationCount></magnitude></origin><event publicID="gempa2025hdnp"><preferredOriginID>de.gempa.tb1.Origin/20250411104232.109796.58424</preferredOriginID><preferredMagnitudeID>de.gempa.tb1.Magnitude/20250411104235.315773.119867</preferredMagnitudeID><description><text>Near Coast of Northern Chile</text><type>region name</type></description><originReference>de.gempa.tb1.Origin/20250411104232.109796.58424</originReference></event></EventParameters></seiscomp>