<?xml version="1.0" encoding="UTF-8"?>
<seiscomp xmlns="http://geofon.gfz-potsdam.de/ns/seiscomp3-schema/0.13" version="0.13"><EventParameters><pick publicID="de.gempa.tb1.Pick/20250414201400.275771.140952"><time><value>2025-04-14T20:13:54.690001Z</value></time><waveformID networkCode="CX" stationCode="PATCX" channelCode="HHZ"/><filterID>ITAPER(4)&gt;&gt;BW(4,4,20)</filterID><methodID>AIC</methodID><horizontalSlowness><value>23.432878598758837</value></horizontalSlowness><backazimuth><value>308.77405372071013</value></backazimuth><phaseHint>P</phaseHint><evaluationMode>automatic</evaluationMode><comment><text>8731.84030621055</text><id>DFX:rectilinearity</id></comment><comment><text>191.6947006532219</text><id>SNR</id></comment></pick><pick publicID="de.gempa.tb1.Pick/20250414201405.70332.140954"><time><value>2025-04-14T20:14:00.198393Z</value></time><waveformID networkCode="CX" stationCode="PB02" channelCode="HHZ"/><filterID>ITAPER(4)&gt;&gt;BW(4,4,20)</filterID><methodID>AIC</methodID><horizontalSlowness><value>10.031735271467966</value></horizontalSlowness><backazimuth><value>19.65743065256325</value></backazimuth><phaseHint>P</phaseHint><evaluationMode>automatic</evaluationMode><comment><text>386.6898633959211</text><id>DFX:rectilinearity</id></comment><comment><text>46.5731786066894</text><id>SNR</id></comment></pick><pick publicID="de.gempa.tb1.Pick/20250414201407.374198.140956"><time><value>2025-04-14T20:13:57.440001Z</value></time><waveformID networkCode="CX" stationCode="PATCX" channelCode="HHN"/><filterID>ITAPER(2)&gt;&gt;BW(3,3,20)</filterID><methodID>L2-AIC-GRID</methodID><horizontalSlowness><value>19.060392964924834</value></horizontalSlowness><backazimuth><value>124.45970727190874</value></backazimuth><phaseHint>S</phaseHint><evaluationMode>automatic</evaluationMode><comment><text>13769.349712692276</text><id>DFX:rectilinearity</id></comment><comment><text>de.gempa.tb1.Pick/20250414201400.275771.140952</text><id>RefPickID</id></comment><comment><text>5.109647077922159</text><id>SNR</id></comment></pick><pick publicID="de.gempa.tb1.Pick/20250414201407.519786.140957"><time><value>2025-04-14T20:14:01.348393Z</value></time><waveformID networkCode="CX" stationCode="PB01" channelCode="HHZ"/><filterID>ITAPER(4)&gt;&gt;BW(4,4,20)</filterID><methodID>AIC</methodID><horizontalSlowness><value>21.429539099766334</value></horizontalSlowness><backazimuth><value>294.5283436342636</value></backazimuth><phaseHint>P</phaseHint><evaluationMode>automatic</evaluationMode><comment><text>56.24938640316846</text><id>DFX:rectilinearity</id></comment><comment><text>87.7284243424286</text><id>SNR</id></comment></pick><pick publicID="de.gempa.tb1.Pick/20250414201421.556599.140959"><time><value>2025-04-14T20:14:13.228393Z</value></time><waveformID networkCode="CX" stationCode="PB03" channelCode="HHZ"/><filterID>ITAPER(4)&gt;&gt;BW(4,4,20)</filterID><methodID>AIC</methodID><horizontalSlowness><value>22.98720437716481</value></horizontalSlowness><backazimuth><value>91.3850198440408</value></backazimuth><phaseHint>P</phaseHint><evaluationMode>automatic</evaluationMode><comment><text>8.697068000098373</text><id>DFX:rectilinearity</id></comment><comment><text>12.207026205803665</text><id>SNR</id></comment></pick><pick publicID="de.gempa.tb1.Pick/20250414201421.594711.140961"><time><value>2025-04-14T20:14:13.63Z</value></time><waveformID networkCode="CX" stationCode="PB09" channelCode="HHZ"/><filterID>ITAPER(4)&gt;&gt;BW(4,4,20)</filterID><methodID>AIC</methodID><horizontalSlowness><value>15.820342119958555</value></horizontalSlowness><backazimuth><value>274.2183304426485</value></backazimuth><phaseHint>P</phaseHint><evaluationMode>automatic</evaluationMode><comment><text>15.296525570273085</text><id>DFX:rectilinearity</id></comment><comment><text>14.145997741505203</text><id>SNR</id></comment></pick><pick publicID="de.gempa.tb1.Pick/20250414201422.551895.140963"><time><value>2025-04-14T20:14:14.65Z</value></time><waveformID networkCode="CX" stationCode="PSGCX" channelCode="HHZ"/><filterID>ITAPER(4)&gt;&gt;BW(4,4,20)</filterID><methodID>AIC</methodID><horizontalSlowness><value>17.95164635761358</value></horizontalSlowness><backazimuth><value>248.29391542665337</value></backazimuth><phaseHint>P</phaseHint><evaluationMode>automatic</evaluationMode><comment><text>22.18283723264598</text><id>DFX:rectilinearity</id></comment><comment><text>83.63046611537366</text><id>SNR</id></comment></pick><pick publicID="de.gempa.tb1.Pick/20250414201507.577339.140968"><time><value>2025-04-14T20:14:07.208393Z</value></time><waveformID networkCode="CX" stationCode="PB07" channelCode="HHZ"/><filterID>ITAPER(4)&gt;&gt;BW(4,4,20)</filterID><methodID>AIC</methodID><horizontalSlowness><value>21.736821096302489</value></horizontalSlowness><backazimuth><value>219.22906441124422</value></backazimuth><phaseHint>P</phaseHint><evaluationMode>automatic</evaluationMode><comment><text>134.44015853479183</text><id>DFX:rectilinearity</id></comment><comment><text>20.24471444238149</text><id>SNR</id></comment></pick><origin publicID="de.gempa.tb1.Origin/20250414201516.802748.149819"><time><value>2025-04-14T20:13:51.1942Z</value><uncertainty>0.3904343843460083</uncertainty></time><latitude><value>-20.884260177612305</value><uncertainty>4.1124587059021</uncertainty></latitude><longitude><value>-70.01905059814453</value><uncertainty>5.173553943634033</uncertainty></longitude><depth><value>13.22684669494629</value><uncertainty>4.2500834465026855</uncertainty></depth><depthType>from location</depthType><methodID>LOCSAT</methodID><earthModelID>iasp91_scanloc</earthModelID><quality><associatedPhaseCount>8</associatedPhaseCount><usedPhaseCount>8</usedPhaseCount><associatedStationCount>7</associatedStationCount><usedStationCount>7</usedStationCount><depthPhaseCount>0</depthPhaseCount><standardError>0.26697817532190427</standardError><azimuthalGap>125.16256713867188</azimuthalGap><maximumDistance>1.2842375040054321</maximumDistance><minimumDistance>0.14023271203041077</minimumDistance><medianDistance>0.8473536968231201</medianDistance></quality><uncertainty><minHorizontalUncertainty>6.222663879394531</minHorizontalUncertainty><maxHorizontalUncertainty>12.733150482177734</maxHorizontalUncertainty><azimuthMaxHorizontalUncertainty>55.77007293701172</azimuthMaxHorizontalUncertainty><preferredDescription>horizontal uncertainty</preferredDescription></uncertainty><evaluationMode>automatic</evaluationMode><evaluationStatus>confirmed</evaluationStatus><comment><text>0.03</text><id>mismatchScore</id></comment><comment><text>mismatchScore</text><id>scevalMethod</id></comment><arrival><pickID>de.gempa.tb1.Pick/20250414201400.275771.140952</pickID><phase>P</phase><azimuth>296.7784423828125</azimuth><distance>0.14023271203041077</distance><timeResidual>-0.036003589630126953</timeResidual><timeUsed>true</timeUsed><horizontalSlownessUsed>false</horizontalSlownessUsed><backazimuthUsed>false</backazimuthUsed><weight>1</weight></arrival><arrival><pickID>de.gempa.tb1.Pick/20250414201405.70332.140954</pickID><phase>P</phase><azimuth>165.17385864257812</azimuth><distance>0.448273241519928</distance><timeResidual>0.11028647422790527</timeResidual><timeUsed>true</timeUsed><horizontalSlownessUsed>false</horizontalSlownessUsed><backazimuthUsed>false</backazimuthUsed><weight>1</weight></arrival><arrival><pickID>de.gempa.tb1.Pick/20250414201407.374198.140956</pickID><phase>S</phase><azimuth>296.7784423828125</azimuth><distance>0.14023271203041077</distance><timeResidual>0.1496737003326416</timeResidual><timeUsed>true</timeUsed><horizontalSlownessUsed>false</horizontalSlownessUsed><backazimuthUsed>false</backazimuthUsed><weight>1</weight></arrival><arrival><pickID>de.gempa.tb1.Pick/20250414201407.519786.140957</pickID><phase>P</phase><azimuth>107.75244903564453</azimuth><distance>0.5214555859565735</distance><timeResidual>-0.1069953441619873</timeResidual><timeUsed>true</timeUsed><horizontalSlownessUsed>false</horizontalSlownessUsed><backazimuthUsed>false</backazimuthUsed><weight>1</weight></arrival><arrival><pickID>de.gempa.tb1.Pick/20250414201421.556599.140959</pickID><phase>P</phase><azimuth>167.97804260253906</azimuth><distance>1.1846752166748047</distance><timeResidual>-0.1803271770477295</timeResidual><timeUsed>true</timeUsed><horizontalSlownessUsed>false</horizontalSlownessUsed><backazimuthUsed>false</backazimuthUsed><weight>1</weight></arrival><arrival><pickID>de.gempa.tb1.Pick/20250414201421.594711.140961</pickID><phase>P</phase><azimuth>141.5419464111328</azimuth><distance>1.161306381225586</distance><timeResidual>0.579972505569458</timeResidual><timeUsed>true</timeUsed><horizontalSlownessUsed>false</horizontalSlownessUsed><backazimuthUsed>false</backazimuthUsed><weight>1</weight></arrival><arrival><pickID>de.gempa.tb1.Pick/20250414201422.551895.140963</pickID><phase>P</phase><azimuth>355.62109375</azimuth><distance>1.2842375040054321</distance><timeResidual>-0.156843900680542</timeResidual><timeUsed>true</timeUsed><horizontalSlownessUsed>false</horizontalSlownessUsed><backazimuthUsed>false</backazimuthUsed><weight>1</weight></arrival><arrival><pickID>de.gempa.tb1.Pick/20250414201507.577339.140968</pickID><phase>P</phase><azimuth>171.61587524414062</azimuth><distance>0.8473536968231201</distance><timeResidual>-0.3597543239593506</timeResidual><timeUsed>true</timeUsed><horizontalSlownessUsed>false</horizontalSlownessUsed><backazimuthUsed>false</backazimuthUsed><weight>1</weight></arrival><magnitude publicID="de.gempa.tb1.Magnitude/20250414201516.809929.537152"><magnitude><value>2.007072187230996</value></magnitude><type>M</type><methodID>weighted average</methodID><stationCount>7</stationCount></magnitude></origin><event publicID="gempa2025hjut"><preferredOriginID>de.gempa.tb1.Origin/20250414201516.802748.149819</preferredOriginID><preferredMagnitudeID>de.gempa.tb1.Magnitude/20250414201516.809929.537152</preferredMagnitudeID><description><text>Near Coast of Northern Chile</text><type>region name</type></description><originReference>de.gempa.tb1.Origin/20250414201516.802748.149819</originReference></event></EventParameters></seiscomp>