<?xml version="1.0" encoding="UTF-8"?>
<seiscomp xmlns="http://geofon.gfz-potsdam.de/ns/seiscomp3-schema/0.13" version="0.13"><EventParameters><pick publicID="de.gempa.tb1.Pick/20250412143038.533996.124633"><time><value>2025-04-12T14:30:32.59Z</value></time><waveformID networkCode="CX" stationCode="PSGCX" channelCode="HHZ"/><filterID>ITAPER(4)&gt;&gt;BW(4,4,20)</filterID><methodID>AIC</methodID><horizontalSlowness><value>19.400747311394063</value></horizontalSlowness><backazimuth><value>347.8331352374439</value></backazimuth><phaseHint>P</phaseHint><evaluationMode>automatic</evaluationMode><comment><text>44.74268966447251</text><id>DFX:rectilinearity</id></comment><comment><text>59.96203445818975</text><id>SNR</id></comment></pick><pick publicID="de.gempa.tb1.Pick/20250412143049.07887.124635"><time><value>2025-04-12T14:30:41.588394Z</value></time><waveformID networkCode="CX" stationCode="PB08" channelCode="HHZ"/><filterID>ITAPER(4)&gt;&gt;BW(4,4,20)</filterID><methodID>AIC</methodID><horizontalSlowness><value>7.360286442281181</value></horizontalSlowness><backazimuth><value>279.99478921143037</value></backazimuth><phaseHint>P</phaseHint><evaluationMode>automatic</evaluationMode><comment><text>50.95257034348808</text><id>DFX:rectilinearity</id></comment><comment><text>30.01095823566983</text><id>SNR</id></comment></pick><pick publicID="de.gempa.tb1.Pick/20250412143055.594993.124637"><time><value>2025-04-12T14:30:50.888394Z</value></time><waveformID networkCode="CX" stationCode="PB01" channelCode="HHZ"/><filterID>ITAPER(4)&gt;&gt;BW(4,4,20)</filterID><methodID>AIC</methodID><horizontalSlowness><value>14.971136538489196</value></horizontalSlowness><backazimuth><value>348.13395546012907</value></backazimuth><phaseHint>P</phaseHint><evaluationMode>automatic</evaluationMode><comment><text>96.05718773251262</text><id>DFX:rectilinearity</id></comment><comment><text>21.110931884438568</text><id>SNR</id></comment></pick><pick publicID="de.gempa.tb1.Pick/20250412143059.444606.124639"><time><value>2025-04-12T14:30:55.018393Z</value></time><waveformID networkCode="CX" stationCode="PB02" channelCode="HHZ"/><filterID>ITAPER(4)&gt;&gt;BW(4,4,20)</filterID><methodID>AIC</methodID><horizontalSlowness><value>6.579507612445964</value></horizontalSlowness><backazimuth><value>308.22791977044045</value></backazimuth><phaseHint>P</phaseHint><evaluationMode>automatic</evaluationMode><comment><text>62.23423809844189</text><id>DFX:rectilinearity</id></comment><comment><text>12.363201350450353</text><id>SNR</id></comment></pick><pick publicID="de.gempa.tb1.Pick/20250412143110.514914.124643"><time><value>2025-04-12T14:31:03.838393Z</value></time><waveformID networkCode="CX" stationCode="PB03" channelCode="HHZ"/><filterID>ITAPER(4)&gt;&gt;BW(4,4,20)</filterID><methodID>AIC</methodID><horizontalSlowness><value>11.53249297227478</value></horizontalSlowness><backazimuth><value>11.236217950128463</value></backazimuth><phaseHint>P</phaseHint><evaluationMode>automatic</evaluationMode><comment><text>41.45646960264231</text><id>DFX:rectilinearity</id></comment><comment><text>16.886672881308833</text><id>SNR</id></comment></pick><pick publicID="de.gempa.tb1.Pick/20250412143115.418909.124645"><time><value>2025-04-12T14:31:01.74Z</value></time><waveformID networkCode="CX" stationCode="PB09" channelCode="HHZ"/><filterID>ITAPER(4)&gt;&gt;BW(4,4,20)</filterID><methodID>AIC</methodID><horizontalSlowness><value>21.499650754749567</value></horizontalSlowness><backazimuth><value>76.31346140904488</value></backazimuth><phaseHint>P</phaseHint><evaluationMode>automatic</evaluationMode><comment><text>22.517078994201334</text><id>DFX:rectilinearity</id></comment><comment><text>24.12364133202878</text><id>SNR</id></comment></pick><pick publicID="de.gempa.tb1.Pick/20250412143117.631022.124647"><time><value>2025-04-12T14:31:11.858393Z</value></time><waveformID networkCode="CX" stationCode="PB06" channelCode="HHZ"/><filterID>ITAPER(4)&gt;&gt;BW(4,4,20)</filterID><methodID>AIC</methodID><horizontalSlowness><value>4.733528153811183</value></horizontalSlowness><backazimuth><value>51.7666872052985</value></backazimuth><phaseHint>P</phaseHint><evaluationMode>automatic</evaluationMode><comment><text>144.2499057349915</text><id>DFX:rectilinearity</id></comment><comment><text>22.121419506339805</text><id>SNR</id></comment></pick><origin publicID="de.gempa.tb1.Origin/20250412143119.609127.85070"><time><value>2025-04-12T14:30:26.420349Z</value><uncertainty>1.9737908840179443</uncertainty></time><latitude><value>-19.700843811035156</value><uncertainty>71.4165267944336</uncertainty></latitude><longitude><value>-69.84782409667969</value><uncertainty>9.690007209777832</uncertainty></longitude><depth><value>17.807151794433594</value><uncertainty>56.8359146118164</uncertainty></depth><depthType>from location</depthType><methodID>LOCSAT</methodID><earthModelID>iasp91_scanloc</earthModelID><quality><associatedPhaseCount>7</associatedPhaseCount><usedPhaseCount>7</usedPhaseCount><associatedStationCount>7</associatedStationCount><usedStationCount>7</usedStationCount><depthPhaseCount>0</depthPhaseCount><standardError>0.6219649504895104</standardError><azimuthalGap>192.31704711914062</azimuthalGap><maximumDistance>3.0011277198791504</maximumDistance><minimumDistance>0.27914386987686157</minimumDistance><medianDistance>1.611322522163391</medianDistance></quality><uncertainty><minHorizontalUncertainty>13.571457862854004</minHorizontalUncertainty><maxHorizontalUncertainty>153.97755432128906</maxHorizontalUncertainty><azimuthMaxHorizontalUncertainty>5.890043258666992</azimuthMaxHorizontalUncertainty><preferredDescription>horizontal uncertainty</preferredDescription></uncertainty><evaluationMode>automatic</evaluationMode><evaluationStatus>confirmed</evaluationStatus><comment><text>0.35</text><id>mismatchScore</id></comment><comment><text>mismatchScore</text><id>scevalMethod</id></comment><arrival><pickID>de.gempa.tb1.Pick/20250412143038.533996.124633</pickID><phase>P</phase><azimuth>291.6369323730469</azimuth><distance>0.27914386987686157</distance><timeResidual>-0.012196063995361328</timeResidual><timeUsed>true</timeUsed><horizontalSlownessUsed>false</horizontalSlownessUsed><backazimuthUsed>false</backazimuthUsed><weight>1</weight></arrival><arrival><pickID>de.gempa.tb1.Pick/20250412143049.07887.124635</pickID><phase>P</phase><azimuth>123.9539794921875</azimuth><distance>0.786609947681427</distance><timeResidual>0.042081356048583984</timeResidual><timeUsed>true</timeUsed><horizontalSlownessUsed>false</horizontalSlownessUsed><backazimuthUsed>false</backazimuthUsed><weight>1</weight></arrival><arrival><pickID>de.gempa.tb1.Pick/20250412143055.594993.124637</pickID><phase>P</phase><azimuth>165.85360717773438</azimuth><distance>1.377702236175537</distance><timeResidual>0.12157392501831055</timeResidual><timeUsed>true</timeUsed><horizontalSlownessUsed>false</horizontalSlownessUsed><backazimuthUsed>false</backazimuthUsed><weight>1</weight></arrival><arrival><pickID>de.gempa.tb1.Pick/20250412143059.444606.124639</pickID><phase>P</phase><azimuth>181.59852600097656</azimuth><distance>1.611322522163391</distance><timeResidual>1.0367484092712402</timeResidual><timeUsed>true</timeUsed><horizontalSlownessUsed>false</horizontalSlownessUsed><backazimuthUsed>false</backazimuthUsed><weight>1</weight></arrival><arrival><pickID>de.gempa.tb1.Pick/20250412143110.514914.124643</pickID><phase>P</phase><azimuth>177.84483337402344</azimuth><distance>2.3375492095947266</distance><timeResidual>-0.13729143142700195</timeResidual><timeUsed>true</timeUsed><horizontalSlownessUsed>false</horizontalSlownessUsed><backazimuthUsed>false</backazimuthUsed><weight>1</weight></arrival><arrival><pickID>de.gempa.tb1.Pick/20250412143115.418909.124645</pickID><phase>P</phase><azimuth>164.89044189453125</azimuth><distance>2.160731315612793</distance><timeResidual>0.19743108749389648</timeResidual><timeUsed>true</timeUsed><horizontalSlownessUsed>false</horizontalSlownessUsed><backazimuthUsed>false</backazimuthUsed><weight>1</weight></arrival><arrival><pickID>de.gempa.tb1.Pick/20250412143117.631022.124647</pickID><phase>P</phase><azimuth>175.1271514892578</azimuth><distance>3.0011277198791504</distance><timeResidual>-1.2484021186828613</timeResidual><timeUsed>true</timeUsed><horizontalSlownessUsed>false</horizontalSlownessUsed><backazimuthUsed>false</backazimuthUsed><weight>1</weight></arrival><magnitude publicID="de.gempa.tb1.Magnitude/20250412143119.613598.239746"><magnitude><value>2.7511860684198437</value></magnitude><type>M</type><methodID>weighted average</methodID><stationCount>7</stationCount></magnitude></origin><event publicID="gempa2025hfrg"><preferredOriginID>de.gempa.tb1.Origin/20250412143119.609127.85070</preferredOriginID><preferredMagnitudeID>de.gempa.tb1.Magnitude/20250412143119.613598.239746</preferredMagnitudeID><description><text>Northern Chile</text><type>region name</type></description><originReference>de.gempa.tb1.Origin/20250412143119.609127.85070</originReference></event></EventParameters></seiscomp>