<?xml version="1.0" encoding="UTF-8"?>
<seiscomp xmlns="http://geofon.gfz-potsdam.de/ns/seiscomp3-schema/0.13" version="0.13"><EventParameters><pick publicID="de.gempa.tb1.Pick/20250414213943.605583.141447"><time><value>2025-04-14T21:39:38.598394Z</value></time><waveformID networkCode="CX" stationCode="PB06" channelCode="HHZ"/><filterID>ITAPER(4)&gt;&gt;BW(4,4,20)</filterID><methodID>AIC</methodID><horizontalSlowness><value>14.175449623568573</value></horizontalSlowness><backazimuth><value>145.0977502156116</value></backazimuth><phaseHint>P</phaseHint><evaluationMode>automatic</evaluationMode><comment><text>662.1679468456882</text><id>DFX:rectilinearity</id></comment><comment><text>33.624669537787376</text><id>SNR</id></comment></pick><pick publicID="de.gempa.tb1.Pick/20250414213955.620798.141456"><time><value>2025-04-14T21:39:49.488393Z</value></time><waveformID networkCode="CX" stationCode="PB03" channelCode="HHZ"/><filterID>ITAPER(4)&gt;&gt;BW(4,4,20)</filterID><methodID>AIC</methodID><horizontalSlowness><value>13.934456812524353</value></horizontalSlowness><backazimuth><value>169.2246501350311</value></backazimuth><phaseHint>P</phaseHint><evaluationMode>automatic</evaluationMode><comment><text>186.3176471256805</text><id>DFX:rectilinearity</id></comment><comment><text>16.417362237967883</text><id>SNR</id></comment></pick><pick publicID="de.gempa.tb1.Pick/20250414213958.174976.141458"><time><value>2025-04-14T21:39:53.85Z</value></time><waveformID networkCode="CX" stationCode="PB10" channelCode="HHZ"/><filterID>ITAPER(4)&gt;&gt;BW(4,4,20)</filterID><methodID>AIC</methodID><horizontalSlowness><value>0.7733442541050182</value></horizontalSlowness><backazimuth><value>222.22914452184588</value></backazimuth><phaseHint>P</phaseHint><evaluationMode>automatic</evaluationMode><comment><text>113.93941171548514</text><id>DFX:rectilinearity</id></comment><comment><text>38.14249700745083</text><id>SNR</id></comment></pick><pick publicID="de.gempa.tb1.Pick/20250414214007.539615.141465"><time><value>2025-04-14T21:40:01.688393Z</value></time><waveformID networkCode="CX" stationCode="PB02" channelCode="HHZ"/><filterID>ITAPER(4)&gt;&gt;BW(4,4,20)</filterID><methodID>AIC</methodID><horizontalSlowness><value>11.509699712050903</value></horizontalSlowness><backazimuth><value>59.32376592216958</value></backazimuth><phaseHint>P</phaseHint><evaluationMode>automatic</evaluationMode><comment><text>44.06313222663261</text><id>DFX:rectilinearity</id></comment><comment><text>19.117837476684898</text><id>SNR</id></comment></pick><pick publicID="de.gempa.tb1.Pick/20250414214007.983253.141467"><time><value>2025-04-14T21:39:51.849998Z</value></time><waveformID networkCode="CX" stationCode="PB09" channelCode="HHZ"/><filterID>ITAPER(4)&gt;&gt;BW(4,4,20)</filterID><methodID>AIC</methodID><horizontalSlowness><value>21.559196442543136</value></horizontalSlowness><backazimuth><value>145.4249721982143</value></backazimuth><phaseHint>P</phaseHint><evaluationMode>automatic</evaluationMode><comment><text>55.11381013823718</text><id>DFX:rectilinearity</id></comment><comment><text>21.169622930395853</text><id>SNR</id></comment></pick><pick publicID="de.gempa.tb1.Pick/20250414214014.197545.141472"><time><value>2025-04-14T21:39:55.048393Z</value></time><waveformID networkCode="CX" stationCode="PB07" channelCode="HHZ"/><filterID>ITAPER(4)&gt;&gt;BW(4,4,20)</filterID><methodID>AIC</methodID><horizontalSlowness><value>17.39712825679896</value></horizontalSlowness><backazimuth><value>161.31907675442184</value></backazimuth><phaseHint>P</phaseHint><evaluationMode>automatic</evaluationMode><comment><text>1032.0865758703249</text><id>DFX:rectilinearity</id></comment><comment><text>27.071840776406194</text><id>SNR</id></comment></pick><pick publicID="de.gempa.tb1.Pick/20250414214019.501072.141475"><time><value>2025-04-14T21:40:10.509999Z</value></time><waveformID networkCode="CX" stationCode="PATCX" channelCode="HHZ"/><filterID>ITAPER(4)&gt;&gt;BW(4,4,20)</filterID><methodID>AIC</methodID><horizontalSlowness><value>21.947825274538044</value></horizontalSlowness><backazimuth><value>266.3688069321588</value></backazimuth><phaseHint>P</phaseHint><evaluationMode>automatic</evaluationMode><comment><text>233.61375448459285</text><id>DFX:rectilinearity</id></comment><comment><text>14.290654004614</text><id>SNR</id></comment></pick><pick publicID="de.gempa.tb1.Pick/20250414214032.724929.141480"><time><value>2025-04-14T21:40:26.63Z</value></time><waveformID networkCode="CX" stationCode="PSGCX" channelCode="HHZ"/><filterID>ITAPER(4)&gt;&gt;BW(4,4,20)</filterID><methodID>AIC</methodID><horizontalSlowness><value>11.851600583530049</value></horizontalSlowness><backazimuth><value>64.64118428239075</value></backazimuth><phaseHint>P</phaseHint><evaluationMode>automatic</evaluationMode><comment><text>9.7122017202679</text><id>DFX:rectilinearity</id></comment><comment><text>9.016231260729933</text><id>SNR</id></comment></pick><origin publicID="de.gempa.tb1.Origin/20250414214037.579152.151936"><time><value>2025-04-14T21:39:29.171171Z</value><uncertainty>1.547426462173462</uncertainty></time><latitude><value>-23.03596305847168</value><uncertainty>8.074292182922363</uncertainty></latitude><longitude><value>-69.23130798339844</value><uncertainty>11.406620979309082</uncertainty></longitude><depth><value>0</value></depth><depthType>operator assigned</depthType><methodID>LOCSAT</methodID><earthModelID>iasp91_scanloc</earthModelID><quality><associatedPhaseCount>8</associatedPhaseCount><usedPhaseCount>8</usedPhaseCount><associatedStationCount>8</associatedStationCount><usedStationCount>8</usedStationCount><depthPhaseCount>0</depthPhaseCount><standardError>0.9924686374220796</standardError><azimuthalGap>248.85789489746094</azimuthalGap><maximumDistance>3.521343231201172</maximumDistance><minimumDistance>0.4545917510986328</minimumDistance><medianDistance>1.4371159076690674</medianDistance></quality><uncertainty><minHorizontalUncertainty>9.782346725463867</minHorizontalUncertainty><maxHorizontalUncertainty>28.337074279785156</maxHorizontalUncertainty><azimuthMaxHorizontalUncertainty>122.50918579101562</azimuthMaxHorizontalUncertainty><preferredDescription>horizontal uncertainty</preferredDescription></uncertainty><evaluationMode>automatic</evaluationMode><evaluationStatus>confirmed</evaluationStatus><comment><text>0.42</text><id>mismatchScore</id></comment><comment><text>mismatchScore</text><id>scevalMethod</id></comment><arrival><pickID>de.gempa.tb1.Pick/20250414213943.605583.141447</pickID><phase>P</phase><azimuth>316.2269287109375</azimuth><distance>0.4545917510986328</distance><timeResidual>0.7075662612915039</timeResidual><timeUsed>true</timeUsed><horizontalSlownessUsed>false</horizontalSlownessUsed><backazimuthUsed>false</backazimuthUsed><weight>1</weight></arrival><arrival><pickID>de.gempa.tb1.Pick/20250414213955.620798.141456</pickID><phase>P</phase><azimuth>333.7567443847656</azimuth><distance>1.094812273979187</distance><timeResidual>-0.682607650756836</timeResidual><timeUsed>true</timeUsed><horizontalSlownessUsed>false</horizontalSlownessUsed><backazimuthUsed>false</backazimuthUsed><weight>1</weight></arrival><arrival><pickID>de.gempa.tb1.Pick/20250414213958.174976.141458</pickID><phase>P</phase><azimuth>248.39979553222656</azimuth><distance>1.3059314489364624</distance><timeResidual>-0.366363525390625</timeResidual><timeUsed>true</timeUsed><horizontalSlownessUsed>false</horizontalSlownessUsed><backazimuthUsed>false</backazimuthUsed><weight>1</weight></arrival><arrival><pickID>de.gempa.tb1.Pick/20250414214007.539615.141465</pickID><phase>P</phase><azimuth>340.03839111328125</azimuth><distance>1.8157106637954712</distance><timeResidual>0.006055831909179688</timeResidual><timeUsed>true</timeUsed><horizontalSlownessUsed>false</horizontalSlownessUsed><backazimuthUsed>false</backazimuthUsed><weight>1</weight></arrival><arrival><pickID>de.gempa.tb1.Pick/20250414214007.983253.141467</pickID><phase>P</phase><azimuth>359.5419006347656</azimuth><distance>1.233718991279602</distance><timeResidual>-0.9855098724365234</timeResidual><timeUsed>true</timeUsed><horizontalSlownessUsed>false</horizontalSlownessUsed><backazimuthUsed>false</backazimuthUsed><weight>1</weight></arrival><arrival><pickID>de.gempa.tb1.Pick/20250414214014.197545.141472</pickID><phase>P</phase><azimuth>334.929443359375</azimuth><distance>1.4371159076690674</distance><timeResidual>-1.422842025756836</timeResidual><timeUsed>true</timeUsed><horizontalSlownessUsed>false</horizontalSlownessUsed><backazimuthUsed>false</backazimuthUsed><weight>1</weight></arrival><arrival><pickID>de.gempa.tb1.Pick/20250414214019.501072.141475</pickID><phase>P</phase><azimuth>338.61346435546875</azimuth><distance>2.3647453784942627</distance><timeResidual>1.270751953125</timeResidual><timeUsed>true</timeUsed><horizontalSlownessUsed>false</horizontalSlownessUsed><backazimuthUsed>false</backazimuthUsed><weight>1</weight></arrival><arrival><pickID>de.gempa.tb1.Pick/20250414214032.724929.141480</pickID><phase>P</phase><azimuth>346.17901611328125</azimuth><distance>3.521343231201172</distance><timeResidual>1.472606658935547</timeResidual><timeUsed>true</timeUsed><horizontalSlownessUsed>false</horizontalSlownessUsed><backazimuthUsed>false</backazimuthUsed><weight>1</weight></arrival><magnitude publicID="de.gempa.tb1.Magnitude/20250414214056.859831.544060"><magnitude><value>2.509419293816832</value></magnitude><type>M</type><methodID>weighted average</methodID><stationCount>7</stationCount></magnitude></origin><event publicID="gempa2025hjxp"><preferredOriginID>de.gempa.tb1.Origin/20250414214037.579152.151936</preferredOriginID><preferredMagnitudeID>de.gempa.tb1.Magnitude/20250414214056.859831.544060</preferredMagnitudeID><description><text>Northern Chile</text><type>region name</type></description><originReference>de.gempa.tb1.Origin/20250414214037.579152.151936</originReference></event></EventParameters></seiscomp>