<?xml version="1.0" encoding="UTF-8"?>
<seiscomp xmlns="http://geofon.gfz-potsdam.de/ns/seiscomp3-schema/0.13" version="0.13"><EventParameters><pick publicID="de.gempa.tb1.Pick/20250411225756.965465.134052"><time><value>2025-04-11T22:57:54.23Z</value></time><waveformID networkCode="CH" stationCode="AIGLE" channelCode="HHZ"/><filterID>ITAPER(4)&gt;&gt;BW(4,4,20)</filterID><methodID>AIC</methodID><phaseHint>P</phaseHint><evaluationMode>automatic</evaluationMode></pick><pick publicID="de.gempa.tb1.Pick/20250411225758.571663.134054"><time><value>2025-04-11T22:57:56.42Z</value></time><waveformID networkCode="CH" stationCode="GIMEL" channelCode="HHZ"/><filterID>ITAPER(4)&gt;&gt;BW(4,4,20)</filterID><methodID>AIC</methodID><phaseHint>P</phaseHint><evaluationMode>automatic</evaluationMode></pick><pick publicID="de.gempa.tb1.Pick/20250411225802.153865.134059"><time><value>2025-04-11T22:57:56.865Z</value></time><waveformID networkCode="CH" stationCode="SENIN" channelCode="HHZ"/><filterID>ITAPER(4)&gt;&gt;BW(4,4,20)</filterID><methodID>AIC</methodID><phaseHint>P</phaseHint><evaluationMode>automatic</evaluationMode></pick><pick publicID="de.gempa.tb1.Pick/20250411225804.346938.134061"><time><value>2025-04-11T22:58:00.51Z</value></time><waveformID networkCode="CH" stationCode="TORNY" channelCode="HHZ"/><filterID>ITAPER(4)&gt;&gt;BW(4,4,20)</filterID><methodID>AIC</methodID><phaseHint>P</phaseHint><evaluationMode>automatic</evaluationMode></pick><pick publicID="de.gempa.tb1.Pick/20250411225808.169792.134065"><time><value>2025-04-11T22:58:04.115Z</value></time><waveformID networkCode="CH" stationCode="FIESA" channelCode="HHZ"/><filterID>ITAPER(4)&gt;&gt;BW(4,4,20)</filterID><methodID>AIC</methodID><phaseHint>P</phaseHint><evaluationMode>automatic</evaluationMode></pick><pick publicID="de.gempa.tb1.Pick/20250411225814.796453.134072"><time><value>2025-04-11T22:58:11.095Z</value></time><waveformID networkCode="CH" stationCode="BALST" channelCode="HHZ"/><filterID>ITAPER(4)&gt;&gt;BW(4,4,20)</filterID><methodID>AIC</methodID><phaseHint>P</phaseHint><evaluationMode>automatic</evaluationMode></pick><origin publicID="de.gempa.tb1.Origin/20250411225814.799081.65026"><time><value>2025-04-11T22:57:40.166492Z</value><uncertainty>4.223747253417969</uncertainty></time><latitude><value>45.71902084350586</value><uncertainty>28.957040786743164</uncertainty></latitude><longitude><value>6.48741388320923</value><uncertainty>13.853968620300293</uncertainty></longitude><depth><value>13.53784465789795</value><uncertainty>10.041170120239258</uncertainty></depth><depthType>from location</depthType><methodID>LOCSAT</methodID><earthModelID>iasp91</earthModelID><quality><associatedPhaseCount>6</associatedPhaseCount><usedPhaseCount>6</usedPhaseCount><associatedStationCount>6</associatedStationCount><usedStationCount>6</usedStationCount><depthPhaseCount>0</depthPhaseCount><standardError>0.10486653849016704</standardError><azimuthalGap>292.3117904663086</azimuthalGap><maximumDistance>1.8195034265518188</maximumDistance><minimumDistance>0.7022538185119629</minimumDistance><medianDistance>1.1044299602508545</medianDistance></quality><uncertainty><minHorizontalUncertainty>18.079389572143555</minHorizontalUncertainty><maxHorizontalUncertainty>66.42567443847656</maxHorizontalUncertainty><azimuthMaxHorizontalUncertainty>21.645553588867188</azimuthMaxHorizontalUncertainty><preferredDescription>horizontal uncertainty</preferredDescription></uncertainty><evaluationMode>automatic</evaluationMode><comment><text>0.54</text><id>mismatchScore</id></comment><arrival><pickID>de.gempa.tb1.Pick/20250411225756.965465.134052</pickID><phase>P</phase><azimuth>27.36564064025879</azimuth><distance>0.7022538185119629</distance><timeResidual>0.007383346557617188</timeResidual><timeUsed>true</timeUsed><horizontalSlownessUsed>false</horizontalSlownessUsed><backazimuthUsed>false</backazimuthUsed><weight>1</weight></arrival><arrival><pickID>de.gempa.tb1.Pick/20250411225758.571663.134054</pickID><phase>P</phase><azimuth>349.3517150878906</azimuth><distance>0.8293112516403198</distance><timeResidual>0.07194709777832031</timeResidual><timeUsed>true</timeUsed><horizontalSlownessUsed>false</horizontalSlownessUsed><backazimuthUsed>false</backazimuthUsed><weight>1</weight></arrival><arrival><pickID>de.gempa.tb1.Pick/20250411225802.153865.134059</pickID><phase>P</phase><azimuth>40.9762077331543</azimuth><distance>0.8574044108390808</distance><timeResidual>0.04635715484619141</timeResidual><timeUsed>true</timeUsed><horizontalSlownessUsed>false</horizontalSlownessUsed><backazimuthUsed>false</backazimuthUsed><weight>1</weight></arrival><arrival><pickID>de.gempa.tb1.Pick/20250411225804.346938.134061</pickID><phase>P</phase><azimuth>17.05330467224121</azimuth><distance>1.1044299602508545</distance><timeResidual>-0.22171783447265625</timeResidual><timeUsed>true</timeUsed><horizontalSlownessUsed>false</horizontalSlownessUsed><backazimuthUsed>false</backazimuthUsed><weight>1</weight></arrival><arrival><pickID>de.gempa.tb1.Pick/20250411225808.169792.134065</pickID><phase>P</phase><azimuth>57.03992462158203</azimuth><distance>1.337740182876587</distance><timeResidual>-0.0012102127075195312</timeResidual><timeUsed>true</timeUsed><horizontalSlownessUsed>false</horizontalSlownessUsed><backazimuthUsed>false</backazimuthUsed><weight>1</weight></arrival><arrival><pickID>de.gempa.tb1.Pick/20250411225814.796453.134072</pickID><phase>P</phase><azimuth>26.836729049682617</azimuth><distance>1.8195034265518188</distance><timeResidual>0.0971689224243164</timeResidual><timeUsed>true</timeUsed><horizontalSlownessUsed>false</horizontalSlownessUsed><backazimuthUsed>false</backazimuthUsed><weight>1</weight></arrival><magnitude publicID="de.gempa.tb1.Magnitude/20250411225846.229417.150960"><magnitude><value>2.0039158886132875</value></magnitude><type>M</type><methodID>weighted average</methodID><stationCount>6</stationCount></magnitude></origin><event publicID="gempa2025hemd"><preferredOriginID>de.gempa.tb1.Origin/20250411225814.799081.65026</preferredOriginID><preferredMagnitudeID>de.gempa.tb1.Magnitude/20250411225846.229417.150960</preferredMagnitudeID><description><text>France</text><type>region name</type></description><originReference>de.gempa.tb1.Origin/20250411225814.799081.65026</originReference></event></EventParameters></seiscomp>