<?xml version="1.0" encoding="UTF-8"?>
<seiscomp xmlns="http://geofon.gfz-potsdam.de/ns/seiscomp3-schema/0.13" version="0.13"><EventParameters><pick publicID="de.gempa.tb1.Pick/20250414155710.569692.139056"><time><value>2025-04-14T15:57:05.598393Z</value></time><waveformID networkCode="CX" stationCode="PB01" channelCode="HHZ"/><filterID>ITAPER(4)&gt;&gt;BW(4,4,20)</filterID><methodID>AIC</methodID><horizontalSlowness><value>2.1582851453737364</value></horizontalSlowness><backazimuth><value>121.92277650171215</value></backazimuth><phaseHint>P</phaseHint><evaluationMode>automatic</evaluationMode><comment><text>30.596040476195515</text><id>DFX:rectilinearity</id></comment><comment><text>74.32396172265018</text><id>SNR</id></comment></pick><pick publicID="de.gempa.tb1.Pick/20250414155712.499239.139058"><time><value>2025-04-14T15:57:07.758393Z</value></time><waveformID networkCode="CX" stationCode="PB02" channelCode="HHZ"/><filterID>ITAPER(4)&gt;&gt;BW(4,4,20)</filterID><methodID>AIC</methodID><horizontalSlowness><value>6.840548505057847</value></horizontalSlowness><backazimuth><value>89.2137270728805</value></backazimuth><phaseHint>P</phaseHint><evaluationMode>automatic</evaluationMode><comment><text>85.14628382972492</text><id>DFX:rectilinearity</id></comment><comment><text>62.53344823441032</text><id>SNR</id></comment></pick><pick publicID="de.gempa.tb1.Pick/20250414155716.517124.139060"><time><value>2025-04-14T15:57:07.39Z</value></time><waveformID networkCode="CX" stationCode="PB09" channelCode="HHZ"/><filterID>ITAPER(4)&gt;&gt;BW(4,4,20)</filterID><methodID>AIC</methodID><horizontalSlowness><value>8.54919618313381</value></horizontalSlowness><backazimuth><value>257.6670906491758</value></backazimuth><phaseHint>P</phaseHint><evaluationMode>automatic</evaluationMode><comment><text>9.363229669006992</text><id>DFX:rectilinearity</id></comment><comment><text>28.647298320042523</text><id>SNR</id></comment></pick><pick publicID="de.gempa.tb1.Pick/20250414155717.666716.139062"><time><value>2025-04-14T15:57:10.388393Z</value></time><waveformID networkCode="CX" stationCode="PB03" channelCode="HHZ"/><filterID>ITAPER(4)&gt;&gt;BW(4,4,20)</filterID><methodID>AIC</methodID><horizontalSlowness><value>13.016040170575035</value></horizontalSlowness><backazimuth><value>355.1084269745087</value></backazimuth><phaseHint>P</phaseHint><evaluationMode>automatic</evaluationMode><comment><text>3.928866374957702</text><id>DFX:rectilinearity</id></comment><comment><text>15.121000479129114</text><id>SNR</id></comment></pick><pick publicID="de.gempa.tb1.Pick/20250414155717.872941.139064"><time><value>2025-04-14T15:57:12.358394Z</value></time><waveformID networkCode="CX" stationCode="PB08" channelCode="HHZ"/><filterID>ITAPER(4)&gt;&gt;BW(4,4,20)</filterID><methodID>AIC</methodID><horizontalSlowness><value>15.890249277251513</value></horizontalSlowness><backazimuth><value>87.34471285420196</value></backazimuth><phaseHint>P</phaseHint><evaluationMode>automatic</evaluationMode><comment><text>10.931854705663598</text><id>DFX:rectilinearity</id></comment><comment><text>6.582808190269956</text><id>SNR</id></comment></pick><pick publicID="de.gempa.tb1.Pick/20250414155718.266549.139066"><time><value>2025-04-14T15:57:11.139999Z</value></time><waveformID networkCode="CX" stationCode="PATCX" channelCode="HHZ"/><filterID>ITAPER(4)&gt;&gt;BW(4,4,20)</filterID><methodID>AIC</methodID><horizontalSlowness><value>18.356856721760007</value></horizontalSlowness><backazimuth><value>240.4864621796363</value></backazimuth><phaseHint>P</phaseHint><evaluationMode>automatic</evaluationMode><comment><text>94.79542250809082</text><id>DFX:rectilinearity</id></comment><comment><text>13.831816304994364</text><id>SNR</id></comment></pick><pick publicID="de.gempa.tb1.Pick/20250414155723.601499.139068"><time><value>2025-04-14T15:57:16.868393Z</value></time><waveformID networkCode="CX" stationCode="PB06" channelCode="HHZ"/><filterID>ITAPER(4)&gt;&gt;BW(4,4,20)</filterID><methodID>AIC</methodID><horizontalSlowness><value>14.218701039264126</value></horizontalSlowness><backazimuth><value>302.77816369828486</value></backazimuth><phaseHint>P</phaseHint><evaluationMode>automatic</evaluationMode><comment><text>76.06342556649696</text><id>DFX:rectilinearity</id></comment><comment><text>8.897340731663373</text><id>SNR</id></comment></pick><pick publicID="de.gempa.tb1.Pick/20250414155723.776712.139070"><time><value>2025-04-14T15:57:16.908393Z</value></time><waveformID networkCode="CX" stationCode="PB01" channelCode="HHN"/><filterID>ITAPER(2)&gt;&gt;BW(3,3,20)</filterID><methodID>L2-AIC-GRID</methodID><horizontalSlowness><value>21.311654238183518</value></horizontalSlowness><backazimuth><value>54.89522757525984</value></backazimuth><phaseHint>S</phaseHint><evaluationMode>automatic</evaluationMode><comment><text>50.06826628341578</text><id>DFX:rectilinearity</id></comment><comment><text>de.gempa.tb1.Pick/20250414155710.569692.139056</text><id>RefPickID</id></comment><comment><text>6.075103080436991</text><id>SNR</id></comment></pick><pick publicID="de.gempa.tb1.Pick/20250414155724.577937.139071"><time><value>2025-04-14T15:57:18.92Z</value></time><waveformID networkCode="CX" stationCode="PSGCX" channelCode="HHZ"/><filterID>ITAPER(4)&gt;&gt;BW(4,4,20)</filterID><methodID>AIC</methodID><horizontalSlowness><value>13.964854633914664</value></horizontalSlowness><backazimuth><value>111.20722552998114</value></backazimuth><phaseHint>P</phaseHint><evaluationMode>automatic</evaluationMode><comment><text>13.691611934394823</text><id>DFX:rectilinearity</id></comment><comment><text>29.99590908764653</text><id>SNR</id></comment></pick><pick publicID="de.gempa.tb1.Pick/20250414155727.518617.139073"><time><value>2025-04-14T15:57:20.368393Z</value></time><waveformID networkCode="CX" stationCode="PB02" channelCode="HHN"/><filterID>ITAPER(2)&gt;&gt;BW(3,3,20)</filterID><methodID>L2-AIC-GRID</methodID><horizontalSlowness><value>22.264658712220164</value></horizontalSlowness><backazimuth><value>33.934005200881415</value></backazimuth><phaseHint>S</phaseHint><evaluationMode>automatic</evaluationMode><comment><text>672.9876058254915</text><id>DFX:rectilinearity</id></comment><comment><text>de.gempa.tb1.Pick/20250414155712.499239.139058</text><id>RefPickID</id></comment><comment><text>7.109410656301291</text><id>SNR</id></comment></pick><pick publicID="de.gempa.tb1.Pick/20250414155731.765736.139076"><time><value>2025-04-14T15:57:24.588393Z</value></time><waveformID networkCode="CX" stationCode="PB03" channelCode="HHN"/><filterID>ITAPER(2)&gt;&gt;BW(3,3,20)</filterID><methodID>L2-AIC-GRID</methodID><horizontalSlowness><value>12.05541175940943</value></horizontalSlowness><backazimuth><value>204.9206610405353</value></backazimuth><phaseHint>S</phaseHint><evaluationMode>automatic</evaluationMode><comment><text>31.402519711756444</text><id>DFX:rectilinearity</id></comment><comment><text>de.gempa.tb1.Pick/20250414155717.666716.139062</text><id>RefPickID</id></comment><comment><text>7.511680959172788</text><id>SNR</id></comment></pick><pick publicID="de.gempa.tb1.Pick/20250414155741.023012.139080"><time><value>2025-04-14T15:57:08.978396Z</value></time><waveformID networkCode="CX" stationCode="PB07" channelCode="HHZ"/><filterID>ITAPER(4)&gt;&gt;BW(4,4,20)</filterID><methodID>AIC</methodID><horizontalSlowness><value>22.73701157176657</value></horizontalSlowness><backazimuth><value>253.00117729680386</value></backazimuth><phaseHint>P</phaseHint><evaluationMode>automatic</evaluationMode><comment><text>136.05290997872532</text><id>DFX:rectilinearity</id></comment><comment><text>15.596110938563063</text><id>SNR</id></comment></pick><pick publicID="de.gempa.tb1.Pick/20250414155826.595734.139088"><time><value>2025-04-14T15:57:22.508396Z</value></time><waveformID networkCode="CX" stationCode="PB07" channelCode="HHN"/><filterID>ITAPER(2)&gt;&gt;BW(3,3,20)</filterID><methodID>L2-AIC-GRID</methodID><horizontalSlowness><value>22.769013897789684</value></horizontalSlowness><backazimuth><value>294.5654724291494</value></backazimuth><phaseHint>S</phaseHint><evaluationMode>automatic</evaluationMode><comment><text>2288.070161719901</text><id>DFX:rectilinearity</id></comment><comment><text>de.gempa.tb1.Pick/20250414155741.023012.139080</text><id>RefPickID</id></comment><comment><text>6.67273311592974</text><id>SNR</id></comment></pick><origin publicID="de.gempa.tb1.Origin/20250414155826.600098.142435"><time><value>2025-04-14T15:56:50.272729Z</value><uncertainty>0.7223461866378784</uncertainty></time><latitude><value>-21.232114791870117</value><uncertainty>3.725886583328247</uncertainty></latitude><longitude><value>-69.306884765625</value><uncertainty>8.498553276062012</uncertainty></longitude><depth><value>106.33944702148438</value><uncertainty>6.559081554412842</uncertainty></depth><depthType>from location</depthType><methodID>LOCSAT</methodID><earthModelID>iasp91_scanloc</earthModelID><quality><associatedPhaseCount>13</associatedPhaseCount><usedPhaseCount>13</usedPhaseCount><associatedStationCount>9</associatedStationCount><usedStationCount>9</usedStationCount><depthPhaseCount>0</depthPhaseCount><standardError>0.6755106419352078</standardError><azimuthalGap>166.29406070709229</azimuthalGap><maximumDistance>1.7977575063705444</maximumDistance><minimumDistance>0.2524286210536957</minimumDistance><medianDistance>0.7302669882774353</medianDistance></quality><uncertainty><minHorizontalUncertainty>7.84967565536499</minHorizontalUncertainty><maxHorizontalUncertainty>18.285673141479492</maxHorizontalUncertainty><azimuthMaxHorizontalUncertainty>95.17947387695312</azimuthMaxHorizontalUncertainty><preferredDescription>horizontal uncertainty</preferredDescription></uncertainty><evaluationMode>automatic</evaluationMode><evaluationStatus>confirmed</evaluationStatus><comment><text>0.00</text><id>mismatchScore</id></comment><comment><text>mismatchScore</text><id>scevalMethod</id></comment><arrival><pickID>de.gempa.tb1.Pick/20250414155710.569692.139056</pickID><phase>P</phase><azimuth>318.0882568359375</azimuth><distance>0.2524286210536957</distance><timeResidual>0.19237709045410156</timeResidual><timeUsed>true</timeUsed><horizontalSlownessUsed>false</horizontalSlownessUsed><backazimuthUsed>false</backazimuthUsed><weight>1</weight></arrival><arrival><pickID>de.gempa.tb1.Pick/20250414155712.499239.139058</pickID><phase>P</phase><azimuth>260.8780517578125</azimuth><distance>0.556344211101532</distance><timeResidual>0.6146717071533203</timeResidual><timeUsed>true</timeUsed><horizontalSlownessUsed>false</horizontalSlownessUsed><backazimuthUsed>false</backazimuthUsed><weight>1</weight></arrival><arrival><pickID>de.gempa.tb1.Pick/20250414155716.517124.139060</pickID><phase>P</phase><azimuth>173.86280822753906</azimuth><distance>0.56474369764328</distance><timeResidual>0.1860980987548828</timeResidual><timeUsed>true</timeUsed><horizontalSlownessUsed>false</horizontalSlownessUsed><backazimuthUsed>false</backazimuthUsed><weight>1</weight></arrival><arrival><pickID>de.gempa.tb1.Pick/20250414155717.666716.139062</pickID><phase>P</phase><azimuth>206.9867401123047</azimuth><distance>0.9122892618179321</distance><timeResidual>0.09385395050048828</timeResidual><timeUsed>true</timeUsed><horizontalSlownessUsed>false</horizontalSlownessUsed><backazimuthUsed>false</backazimuthUsed><weight>1</weight></arrival><arrival><pickID>de.gempa.tb1.Pick/20250414155717.872941.139064</pickID><phase>P</phase><azimuth>7.568747520446777</azimuth><distance>1.094969630241394</distance><timeResidual>0.1362314224243164</timeResidual><timeUsed>true</timeUsed><horizontalSlownessUsed>false</horizontalSlownessUsed><backazimuthUsed>false</backazimuthUsed><weight>1</weight></arrival><arrival><pickID>de.gempa.tb1.Pick/20250414155718.266549.139066</pickID><phase>P</phase><azimuth>297.2303771972656</azimuth><distance>0.8900596499443054</distance><timeResidual>1.0616235733032227</timeResidual><timeUsed>true</timeUsed><horizontalSlownessUsed>false</horizontalSlownessUsed><backazimuthUsed>false</backazimuthUsed><weight>1</weight></arrival><arrival><pickID>de.gempa.tb1.Pick/20250414155723.601499.139068</pickID><phase>P</phase><azimuth>189.4723358154297</azimuth><distance>1.4870421886444092</distance><timeResidual>0.13844871520996094</timeResidual><timeUsed>true</timeUsed><horizontalSlownessUsed>false</horizontalSlownessUsed><backazimuthUsed>false</backazimuthUsed><weight>1</weight></arrival><arrival><pickID>de.gempa.tb1.Pick/20250414155723.776712.139070</pickID><phase>S</phase><azimuth>318.0882568359375</azimuth><distance>0.2524286210536957</distance><timeResidual>-0.1278514862060547</timeResidual><timeUsed>true</timeUsed><horizontalSlownessUsed>false</horizontalSlownessUsed><backazimuthUsed>false</backazimuthUsed><weight>1</weight></arrival><arrival><pickID>de.gempa.tb1.Pick/20250414155724.577937.139071</pickID><phase>P</phase><azimuth>334.65496826171875</azimuth><distance>1.7977575063705444</distance><timeResidual>-1.6479225158691406</timeResidual><timeUsed>true</timeUsed><horizontalSlownessUsed>false</horizontalSlownessUsed><backazimuthUsed>false</backazimuthUsed><weight>1</weight></arrival><arrival><pickID>de.gempa.tb1.Pick/20250414155727.518617.139073</pickID><phase>S</phase><azimuth>260.8780517578125</azimuth><distance>0.556344211101532</distance><timeResidual>0.24210548400878906</timeResidual><timeUsed>true</timeUsed><horizontalSlownessUsed>false</horizontalSlownessUsed><backazimuthUsed>false</backazimuthUsed><weight>1</weight></arrival><arrival><pickID>de.gempa.tb1.Pick/20250414155731.765736.139076</pickID><phase>S</phase><azimuth>206.9867401123047</azimuth><distance>0.9122892618179321</distance><timeResidual>-1.1514110565185547</timeResidual><timeUsed>true</timeUsed><horizontalSlownessUsed>false</horizontalSlownessUsed><backazimuthUsed>false</backazimuthUsed><weight>1</weight></arrival><arrival><pickID>de.gempa.tb1.Pick/20250414155741.023012.139080</pickID><phase>P</phase><azimuth>227.5265350341797</azimuth><distance>0.7302669882774353</distance><timeResidual>0.4122581481933594</timeResidual><timeUsed>true</timeUsed><horizontalSlownessUsed>false</horizontalSlownessUsed><backazimuthUsed>false</backazimuthUsed><weight>1</weight></arrival><arrival><pickID>de.gempa.tb1.Pick/20250414155826.595734.139088</pickID><phase>S</phase><azimuth>227.5265350341797</azimuth><distance>0.7302669882774353</distance><timeResidual>-0.15077590942382812</timeResidual><timeUsed>true</timeUsed><horizontalSlownessUsed>false</horizontalSlownessUsed><backazimuthUsed>false</backazimuthUsed><weight>1</weight></arrival><magnitude publicID="de.gempa.tb1.Magnitude/20250414155826.608158.510769"><magnitude><value>2.0028772640818993</value></magnitude><type>M</type><methodID>weighted average</methodID><stationCount>7</stationCount></magnitude></origin><event publicID="gempa2025hjme"><preferredOriginID>de.gempa.tb1.Origin/20250414155826.600098.142435</preferredOriginID><preferredMagnitudeID>de.gempa.tb1.Magnitude/20250414155826.608158.510769</preferredMagnitudeID><description><text>Northern Chile</text><type>region name</type></description><originReference>de.gempa.tb1.Origin/20250414155826.600098.142435</originReference></event></EventParameters></seiscomp>