<?xml version="1.0" encoding="UTF-8"?>
<seiscomp xmlns="http://geofon.gfz-potsdam.de/ns/seiscomp3-schema/0.13" version="0.13"><EventParameters><pick publicID="de.gempa.tb1.Pick/20250413024524.751726.128326"><time><value>2025-04-13T02:45:17.898393Z</value></time><waveformID networkCode="CX" stationCode="PB01" channelCode="HHZ"/><filterID>ITAPER(4)&gt;&gt;BW(4,4,20)</filterID><methodID>AIC</methodID><horizontalSlowness><value>18.058479865701347</value></horizontalSlowness><backazimuth><value>331.7572521918052</value></backazimuth><phaseHint>P</phaseHint><evaluationMode>automatic</evaluationMode><comment><text>16.754904439315286</text><id>DFX:rectilinearity</id></comment><comment><text>32.504171585486375</text><id>SNR</id></comment></pick><pick publicID="de.gempa.tb1.Pick/20250413024525.702001.128328"><time><value>2025-04-13T02:45:18.758393Z</value></time><waveformID networkCode="CX" stationCode="PB08" channelCode="HHZ"/><filterID>ITAPER(4)&gt;&gt;BW(4,4,20)</filterID><methodID>AIC</methodID><horizontalSlowness><value>16.079550250182848</value></horizontalSlowness><backazimuth><value>92.87088147847545</value></backazimuth><phaseHint>P</phaseHint><evaluationMode>automatic</evaluationMode><comment><text>5.383479740672717</text><id>DFX:rectilinearity</id></comment><comment><text>17.732176222598834</text><id>SNR</id></comment></pick><pick publicID="de.gempa.tb1.Pick/20250413024529.480686.128330"><time><value>2025-04-13T02:45:22.408391Z</value></time><waveformID networkCode="CX" stationCode="PB02" channelCode="HHZ"/><filterID>ITAPER(4)&gt;&gt;BW(4,4,20)</filterID><methodID>AIC</methodID><horizontalSlowness><value>19.916853739572971</value></horizontalSlowness><backazimuth><value>52.59246977483043</value></backazimuth><phaseHint>P</phaseHint><evaluationMode>automatic</evaluationMode><comment><text>65.65879447718231</text><id>DFX:rectilinearity</id></comment><comment><text>32.118476543052367</text><id>SNR</id></comment></pick><pick publicID="de.gempa.tb1.Pick/20250413024532.390057.128333"><time><value>2025-04-13T02:45:26.048394Z</value></time><waveformID networkCode="CX" stationCode="PB07" channelCode="HHZ"/><filterID>ITAPER(4)&gt;&gt;BW(4,4,20)</filterID><methodID>AIC</methodID><horizontalSlowness><value>23.56743753941584</value></horizontalSlowness><backazimuth><value>69.59594251941942</value></backazimuth><phaseHint>P</phaseHint><evaluationMode>automatic</evaluationMode><comment><text>394.6379498025438</text><id>DFX:rectilinearity</id></comment><comment><text>9.945762706045636</text><id>SNR</id></comment></pick><pick publicID="de.gempa.tb1.Pick/20250413024533.73873.128335"><time><value>2025-04-13T02:45:26.68Z</value></time><waveformID networkCode="CX" stationCode="PSGCX" channelCode="HHZ"/><filterID>ITAPER(4)&gt;&gt;BW(4,4,20)</filterID><methodID>AIC</methodID><horizontalSlowness><value>9.666626260609084</value></horizontalSlowness><backazimuth><value>100.41263080770003</value></backazimuth><phaseHint>P</phaseHint><evaluationMode>automatic</evaluationMode><comment><text>51.76192609673691</text><id>DFX:rectilinearity</id></comment><comment><text>9.857781919224408</text><id>SNR</id></comment></pick><pick publicID="de.gempa.tb1.Pick/20250413024535.21747.128337"><time><value>2025-04-13T02:45:25.9Z</value></time><waveformID networkCode="CX" stationCode="PB09" channelCode="HHZ"/><filterID>ITAPER(4)&gt;&gt;BW(4,4,20)</filterID><methodID>AIC</methodID><horizontalSlowness><value>19.957988138471773</value></horizontalSlowness><backazimuth><value>298.5266623556348</value></backazimuth><phaseHint>P</phaseHint><evaluationMode>automatic</evaluationMode><comment><text>22.34790856063006</text><id>DFX:rectilinearity</id></comment><comment><text>12.716602953660752</text><id>SNR</id></comment></pick><pick publicID="de.gempa.tb1.Pick/20250413024536.911778.128339"><time><value>2025-04-13T02:45:28.888393Z</value></time><waveformID networkCode="CX" stationCode="PB01" channelCode="HHN"/><filterID>ITAPER(2)&gt;&gt;BW(3,3,20)</filterID><methodID>L2-AIC-GRID</methodID><horizontalSlowness><value>22.98212266688863</value></horizontalSlowness><backazimuth><value>39.678092482535135</value></backazimuth><phaseHint>S</phaseHint><evaluationMode>automatic</evaluationMode><comment><text>220.30396222472882</text><id>DFX:rectilinearity</id></comment><comment><text>de.gempa.tb1.Pick/20250413024524.751726.128326</text><id>RefPickID</id></comment><comment><text>17.650650486163325</text><id>SNR</id></comment></pick><pick publicID="de.gempa.tb1.Pick/20250413024539.80026.128340"><time><value>2025-04-13T02:45:30.508393Z</value></time><waveformID networkCode="CX" stationCode="PB08" channelCode="HHN"/><filterID>ITAPER(2)&gt;&gt;BW(3,3,20)</filterID><methodID>L2-AIC-GRID</methodID><horizontalSlowness><value>15.50543051894082</value></horizontalSlowness><backazimuth><value>198.1404000399204</value></backazimuth><phaseHint>S</phaseHint><evaluationMode>automatic</evaluationMode><comment><text>18.72333226133194</text><id>DFX:rectilinearity</id></comment><comment><text>de.gempa.tb1.Pick/20250413024525.702001.128328</text><id>RefPickID</id></comment><comment><text>9.599676861458249</text><id>SNR</id></comment></pick><pick publicID="de.gempa.tb1.Pick/20250413024544.451339.128341"><time><value>2025-04-13T02:45:36.988391Z</value></time><waveformID networkCode="CX" stationCode="PB02" channelCode="HHN"/><filterID>ITAPER(2)&gt;&gt;BW(3,3,20)</filterID><methodID>L2-AIC-GRID</methodID><horizontalSlowness><value>18.246457083317456</value></horizontalSlowness><backazimuth><value>232.32161816225994</value></backazimuth><phaseHint>S</phaseHint><evaluationMode>automatic</evaluationMode><comment><text>394.8440163224185</text><id>DFX:rectilinearity</id></comment><comment><text>de.gempa.tb1.Pick/20250413024529.480686.128330</text><id>RefPickID</id></comment><comment><text>8.731410070827192</text><id>SNR</id></comment></pick><pick publicID="de.gempa.tb1.Pick/20250413024552.78548.128342"><time><value>2025-04-13T02:45:44.39Z</value></time><waveformID networkCode="CX" stationCode="PSGCX" channelCode="HHN"/><filterID>ITAPER(2)&gt;&gt;BW(3,3,20)</filterID><methodID>L2-AIC-GRID</methodID><horizontalSlowness><value>20.640799193138637</value></horizontalSlowness><backazimuth><value>124.69304905933706</value></backazimuth><phaseHint>S</phaseHint><evaluationMode>automatic</evaluationMode><comment><text>42.584720607272345</text><id>DFX:rectilinearity</id></comment><comment><text>de.gempa.tb1.Pick/20250413024533.73873.128335</text><id>RefPickID</id></comment><comment><text>7.002811626247913</text><id>SNR</id></comment></pick><pick publicID="de.gempa.tb1.Pick/20250413024606.4702.128345"><time><value>2025-04-13T02:45:43.208394Z</value></time><waveformID networkCode="CX" stationCode="PB07" channelCode="HHN"/><filterID>ITAPER(2)&gt;&gt;BW(3,3,20)</filterID><methodID>L2-AIC-GRID</methodID><horizontalSlowness><value>22.9730849658944</value></horizontalSlowness><backazimuth><value>173.43658755364092</value></backazimuth><phaseHint>S</phaseHint><evaluationMode>automatic</evaluationMode><comment><text>416.73338865218244</text><id>DFX:rectilinearity</id></comment><comment><text>de.gempa.tb1.Pick/20250413024532.390057.128333</text><id>RefPickID</id></comment><comment><text>6.143760708914867</text><id>SNR</id></comment></pick><origin publicID="de.gempa.tb1.Origin/20250413024606.473781.98586"><time><value>2025-04-13T02:45:03.901632Z</value><uncertainty>0.8785363435745239</uncertainty></time><latitude><value>-20.623510360717773</value><uncertainty>2.753711462020874</uncertainty></latitude><longitude><value>-69.328369140625</value><uncertainty>6.356388568878174</uncertainty></longitude><depth><value>90.75957489013672</value><uncertainty>6.927428245544434</uncertainty></depth><depthType>from location</depthType><methodID>LOCSAT</methodID><earthModelID>iasp91_scanloc</earthModelID><quality><associatedPhaseCount>11</associatedPhaseCount><usedPhaseCount>11</usedPhaseCount><associatedStationCount>6</associatedStationCount><usedStationCount>6</usedStationCount><depthPhaseCount>0</depthPhaseCount><standardError>0.30226893877185645</standardError><azimuthalGap>157.14934730529785</azimuthalGap><maximumDistance>1.2650375366210938</maximumDistance><minimumDistance>0.44331714510917664</minimumDistance><medianDistance>0.8725408911705017</medianDistance></quality><uncertainty><minHorizontalUncertainty>5.777265071868896</minHorizontalUncertainty><maxHorizontalUncertainty>13.68337059020996</maxHorizontalUncertainty><azimuthMaxHorizontalUncertainty>95.63728332519531</azimuthMaxHorizontalUncertainty><preferredDescription>horizontal uncertainty</preferredDescription></uncertainty><evaluationMode>automatic</evaluationMode><evaluationStatus>confirmed</evaluationStatus><comment><text>0.06</text><id>mismatchScore</id></comment><comment><text>mismatchScore</text><id>scevalMethod</id></comment><arrival><pickID>de.gempa.tb1.Pick/20250413024524.751726.128326</pickID><phase>P</phase><azimuth>199.57794189453125</azimuth><distance>0.44331714510917664</distance><timeResidual>-0.405609130859375</timeResidual><timeUsed>true</timeUsed><horizontalSlownessUsed>false</horizontalSlownessUsed><backazimuthUsed>false</backazimuthUsed><weight>1</weight></arrival><arrival><pickID>de.gempa.tb1.Pick/20250413024525.702001.128328</pickID><phase>P</phase><azimuth>18.91231346130371</azimuth><distance>0.5072323083877563</distance><timeResidual>-0.03156566619873047</timeResidual><timeUsed>true</timeUsed><horizontalSlownessUsed>false</horizontalSlownessUsed><backazimuthUsed>false</backazimuthUsed><weight>1</weight></arrival><arrival><pickID>de.gempa.tb1.Pick/20250413024529.480686.128330</pickID><phase>P</phase><azimuth>217.3445587158203</azimuth><distance>0.8725408911705017</distance><timeResidual>0.15743637084960938</timeResidual><timeUsed>true</timeUsed><horizontalSlownessUsed>false</horizontalSlownessUsed><backazimuthUsed>false</backazimuthUsed><weight>1</weight></arrival><arrival><pickID>de.gempa.tb1.Pick/20250413024532.390057.128333</pickID><phase>P</phase><azimuth>205.27391052246094</azimuth><distance>1.2148760557174683</distance><timeResidual>-0.12362098693847656</timeResidual><timeUsed>true</timeUsed><horizontalSlownessUsed>false</horizontalSlownessUsed><backazimuthUsed>false</backazimuthUsed><weight>1</weight></arrival><arrival><pickID>de.gempa.tb1.Pick/20250413024533.73873.128335</pickID><phase>P</phase><azimuth>323.68170166015625</azimuth><distance>1.2650375366210938</distance><timeResidual>-0.10811042785644531</timeResidual><timeUsed>true</timeUsed><horizontalSlownessUsed>false</horizontalSlownessUsed><backazimuthUsed>false</backazimuthUsed><weight>1</weight></arrival><arrival><pickID>de.gempa.tb1.Pick/20250413024535.21747.128337</pickID><phase>P</phase><azimuth>176.06166076660156</azimuth><distance>1.169839859008789</distance><timeResidual>0.26717090606689453</timeResidual><timeUsed>true</timeUsed><horizontalSlownessUsed>false</horizontalSlownessUsed><backazimuthUsed>false</backazimuthUsed><weight>1</weight></arrival><arrival><pickID>de.gempa.tb1.Pick/20250413024536.911778.128339</pickID><phase>S</phase><azimuth>199.57794189453125</azimuth><distance>0.44331714510917664</distance><timeResidual>-0.4511470794677734</timeResidual><timeUsed>true</timeUsed><horizontalSlownessUsed>false</horizontalSlownessUsed><backazimuthUsed>false</backazimuthUsed><weight>1</weight></arrival><arrival><pickID>de.gempa.tb1.Pick/20250413024539.80026.128340</pickID><phase>S</phase><azimuth>18.91231346130371</azimuth><distance>0.5072323083877563</distance><timeResidual>0.3062124252319336</timeResidual><timeUsed>true</timeUsed><horizontalSlownessUsed>false</horizontalSlownessUsed><backazimuthUsed>false</backazimuthUsed><weight>1</weight></arrival><arrival><pickID>de.gempa.tb1.Pick/20250413024544.451339.128341</pickID><phase>S</phase><azimuth>217.3445587158203</azimuth><distance>0.8725408911705017</distance><timeResidual>0.623189926147461</timeResidual><timeUsed>true</timeUsed><horizontalSlownessUsed>false</horizontalSlownessUsed><backazimuthUsed>false</backazimuthUsed><weight>1</weight></arrival><arrival><pickID>de.gempa.tb1.Pick/20250413024552.78548.128342</pickID><phase>S</phase><azimuth>323.68170166015625</azimuth><distance>1.2650375366210938</distance><timeResidual>-0.07588577270507812</timeResidual><timeUsed>true</timeUsed><horizontalSlownessUsed>false</horizontalSlownessUsed><backazimuthUsed>false</backazimuthUsed><weight>1</weight></arrival><arrival><pickID>de.gempa.tb1.Pick/20250413024606.4702.128345</pickID><phase>S</phase><azimuth>205.27391052246094</azimuth><distance>1.2148760557174683</distance><timeResidual>-0.1579742431640625</timeResidual><timeUsed>true</timeUsed><horizontalSlownessUsed>false</horizontalSlownessUsed><backazimuthUsed>false</backazimuthUsed><weight>1</weight></arrival><magnitude publicID="de.gempa.tb1.Magnitude/20250413024611.709758.304563"><magnitude><value>2.2211228742940854</value></magnitude><type>M</type><methodID>weighted average</methodID><stationCount>4</stationCount></magnitude></origin><event publicID="gempa2025hgpt"><preferredOriginID>de.gempa.tb1.Origin/20250413024606.473781.98586</preferredOriginID><preferredMagnitudeID>de.gempa.tb1.Magnitude/20250413024611.709758.304563</preferredMagnitudeID><description><text>Northern Chile</text><type>region name</type></description><originReference>de.gempa.tb1.Origin/20250413024606.473781.98586</originReference></event></EventParameters></seiscomp>