<?xml version="1.0" encoding="UTF-8"?>
<seiscomp xmlns="http://geofon.gfz-potsdam.de/ns/seiscomp3-schema/0.13" version="0.13"><EventParameters><pick publicID="de.gempa.tb1.Pick/20250413130912.522007.131366"><time><value>2025-04-13T13:09:06.21Z</value></time><waveformID networkCode="CX" stationCode="PB19" channelCode="HHZ"/><filterID>ITAPER(4)&gt;&gt;BW(4,4,20)</filterID><methodID>AIC</methodID><horizontalSlowness><value>22.736921914144965</value></horizontalSlowness><backazimuth><value>160.187097711099</value></backazimuth><phaseHint>P</phaseHint><evaluationMode>automatic</evaluationMode><comment><text>20.95607057860634</text><id>DFX:rectilinearity</id></comment><comment><text>7.236260729664788</text><id>SNR</id></comment></pick><pick publicID="de.gempa.tb1.Pick/20250413130918.13828.131368"><time><value>2025-04-13T13:09:08.868393Z</value></time><waveformID networkCode="CX" stationCode="PB15" channelCode="HHZ"/><filterID>ITAPER(4)&gt;&gt;BW(4,4,20)</filterID><methodID>AIC</methodID><horizontalSlowness><value>23.46923310779197</value></horizontalSlowness><backazimuth><value>125.81168630845872</value></backazimuth><phaseHint>P</phaseHint><evaluationMode>automatic</evaluationMode><comment><text>232.73127133177587</text><id>DFX:rectilinearity</id></comment><comment><text>9.255305234011209</text><id>SNR</id></comment></pick><pick publicID="de.gempa.tb1.Pick/20250413130925.578246.131370"><time><value>2025-04-13T13:09:17.508393Z</value></time><waveformID networkCode="CX" stationCode="PB03" channelCode="HHZ"/><filterID>ITAPER(4)&gt;&gt;BW(4,4,20)</filterID><methodID>AIC</methodID><horizontalSlowness><value>10.771913923629135</value></horizontalSlowness><backazimuth><value>108.06303220700487</value></backazimuth><phaseHint>P</phaseHint><evaluationMode>automatic</evaluationMode><comment><text>11.145606085354123</text><id>DFX:rectilinearity</id></comment><comment><text>10.531234028557083</text><id>SNR</id></comment></pick><pick publicID="de.gempa.tb1.Pick/20250413130931.576635.131372"><time><value>2025-04-13T13:09:20.608394Z</value></time><waveformID networkCode="CX" stationCode="PB07" channelCode="HHZ"/><filterID>ITAPER(4)&gt;&gt;BW(4,4,20)</filterID><methodID>AIC</methodID><horizontalSlowness><value>19.642675235541166</value></horizontalSlowness><backazimuth><value>111.10088549148446</value></backazimuth><phaseHint>P</phaseHint><evaluationMode>automatic</evaluationMode><comment><text>140.36245884686727</text><id>DFX:rectilinearity</id></comment><comment><text>9.73379365443188</text><id>SNR</id></comment></pick><pick publicID="de.gempa.tb1.Pick/20250413130933.667768.131374"><time><value>2025-04-13T13:09:25.778393Z</value></time><waveformID networkCode="CX" stationCode="PB01" channelCode="HHZ"/><filterID>ITAPER(4)&gt;&gt;BW(4,4,20)</filterID><methodID>AIC</methodID><horizontalSlowness><value>22.62057560871682</value></horizontalSlowness><backazimuth><value>204.1218728923259</value></backazimuth><phaseHint>P</phaseHint><evaluationMode>automatic</evaluationMode><comment><text>22.828891174006223</text><id>DFX:rectilinearity</id></comment><comment><text>16.876196143740547</text><id>SNR</id></comment></pick><pick publicID="de.gempa.tb1.Pick/20250413130938.247638.131385"><time><value>2025-04-13T13:09:33.199998Z</value></time><waveformID networkCode="CX" stationCode="PATCX" channelCode="HHZ"/><filterID>ITAPER(4)&gt;&gt;BW(4,4,20)</filterID><methodID>AIC</methodID><horizontalSlowness><value>23.0050792036684</value></horizontalSlowness><backazimuth><value>38.33276258641726</value></backazimuth><phaseHint>P</phaseHint><evaluationMode>automatic</evaluationMode><comment><text>262.32580779405316</text><id>DFX:rectilinearity</id></comment><comment><text>8.646455483637254</text><id>SNR</id></comment></pick><origin publicID="de.gempa.tb1.Origin/20250413130943.494836.110792"><time><value>2025-04-13T13:08:40.370767Z</value><uncertainty>4.741631507873535</uncertainty></time><latitude><value>-23.57093620300293</value><uncertainty>23.843610763549805</uncertainty></latitude><longitude><value>-67.97608184814453</value><uncertainty>44.98734664916992</uncertainty></longitude><depth><value>138.62191772460938</value><uncertainty>66.19252014160156</uncertainty></depth><depthType>from location</depthType><methodID>LOCSAT</methodID><earthModelID>iasp91_scanloc</earthModelID><quality><associatedPhaseCount>6</associatedPhaseCount><usedPhaseCount>6</usedPhaseCount><associatedStationCount>6</associatedStationCount><usedStationCount>6</usedStationCount><depthPhaseCount>0</depthPhaseCount><standardError>0.5548490364423578</standardError><azimuthalGap>283.69281005859375</azimuthalGap><maximumDistance>3.400010585784912</maximumDistance><minimumDistance>1.2496464252471924</minimumDistance><medianDistance>2.546058177947998</medianDistance></quality><uncertainty><minHorizontalUncertainty>50.60157012939453</minHorizontalUncertainty><maxHorizontalUncertainty>96.7705078125</maxHorizontalUncertainty><azimuthMaxHorizontalUncertainty>84.85646057128906</azimuthMaxHorizontalUncertainty><preferredDescription>horizontal uncertainty</preferredDescription></uncertainty><evaluationMode>automatic</evaluationMode><evaluationStatus>confirmed</evaluationStatus><comment><text>0.26</text><id>mismatchScore</id></comment><comment><text>mismatchScore</text><id>scevalMethod</id></comment><arrival><pickID>de.gempa.tb1.Pick/20250413130912.522007.131366</pickID><phase>P</phase><azimuth>254.31500244140625</azimuth><distance>1.2496464252471924</distance><timeResidual>-0.2496376037597656</timeResidual><timeUsed>true</timeUsed><horizontalSlownessUsed>false</horizontalSlownessUsed><backazimuthUsed>false</backazimuthUsed><weight>1</weight></arrival><arrival><pickID>de.gempa.tb1.Pick/20250413130918.13828.131368</pickID><phase>P</phase><azimuth>284.42816162109375</azimuth><distance>1.4200681447982788</distance><timeResidual>0.6345138549804688</timeResidual><timeUsed>true</timeUsed><horizontalSlownessUsed>false</horizontalSlownessUsed><backazimuthUsed>false</backazimuthUsed><weight>1</weight></arrival><arrival><pickID>de.gempa.tb1.Pick/20250413130925.578246.131370</pickID><phase>P</phase><azimuth>312.3967590332031</azimuth><distance>2.2325992584228516</distance><timeResidual>-0.15178298950195312</timeResidual><timeUsed>true</timeUsed><horizontalSlownessUsed>false</horizontalSlownessUsed><backazimuthUsed>false</backazimuthUsed><weight>1</weight></arrival><arrival><pickID>de.gempa.tb1.Pick/20250413130931.576635.131372</pickID><phase>P</phase><azimuth>315.76043701171875</azimuth><distance>2.546058177947998</distance><timeResidual>-0.9372882843017578</timeResidual><timeUsed>true</timeUsed><horizontalSlownessUsed>false</horizontalSlownessUsed><backazimuthUsed>false</backazimuthUsed><weight>1</weight></arrival><arrival><pickID>de.gempa.tb1.Pick/20250413130933.667768.131374</pickID><phase>P</phase><azimuth>330.6221923828125</azimuth><distance>2.8786520957946777</distance><timeResidual>0.0109100341796875</timeResidual><timeUsed>true</timeUsed><horizontalSlownessUsed>false</horizontalSlownessUsed><backazimuthUsed>false</backazimuthUsed><weight>1</weight></arrival><arrival><pickID>de.gempa.tb1.Pick/20250413130938.247638.131385</pickID><phase>P</phase><azimuth>323.1919860839844</azimuth><distance>3.400010585784912</distance><timeResidual>0.6932182312011719</timeResidual><timeUsed>true</timeUsed><horizontalSlownessUsed>false</horizontalSlownessUsed><backazimuthUsed>false</backazimuthUsed><weight>1</weight></arrival><magnitude publicID="de.gempa.tb1.Magnitude/20250413131140.618456.360767"><magnitude><value>3.3107588331856186</value></magnitude><type>M</type><methodID>weighted average</methodID><stationCount>4</stationCount></magnitude></origin><event publicID="gempa2025hhkn"><preferredOriginID>de.gempa.tb1.Origin/20250413130943.494836.110792</preferredOriginID><preferredMagnitudeID>de.gempa.tb1.Magnitude/20250413131140.618456.360767</preferredMagnitudeID><description><text>Chile-Argentina Border Region</text><type>region name</type></description><originReference>de.gempa.tb1.Origin/20250413130943.494836.110792</originReference></event></EventParameters></seiscomp>