<?xml version="1.0" encoding="UTF-8"?>
<seiscomp xmlns="http://geofon.gfz-potsdam.de/ns/seiscomp3-schema/0.13" version="0.13"><EventParameters><pick publicID="de.gempa.tb1.Pick/20250413082622.508592.130109"><time><value>2025-04-13T08:26:15.248393Z</value></time><waveformID networkCode="CX" stationCode="PB02" channelCode="HHZ"/><filterID>ITAPER(4)&gt;&gt;BW(4,4,20)</filterID><methodID>AIC</methodID><horizontalSlowness><value>2.9996670343000753</value></horizontalSlowness><backazimuth><value>325.72916125150675</value></backazimuth><phaseHint>P</phaseHint><evaluationMode>automatic</evaluationMode><comment><text>54.69432576617112</text><id>DFX:rectilinearity</id></comment><comment><text>9.681037512260026</text><id>SNR</id></comment></pick><pick publicID="de.gempa.tb1.Pick/20250413082624.664415.130111"><time><value>2025-04-13T08:26:18.048393Z</value></time><waveformID networkCode="CX" stationCode="PB01" channelCode="HHZ"/><filterID>ITAPER(4)&gt;&gt;BW(4,4,20)</filterID><methodID>AIC</methodID><horizontalSlowness><value>16.724768978540503</value></horizontalSlowness><backazimuth><value>25.661898941634064</value></backazimuth><phaseHint>P</phaseHint><evaluationMode>automatic</evaluationMode><comment><text>4.807792198967185</text><id>DFX:rectilinearity</id></comment><comment><text>16.364093533205413</text><id>SNR</id></comment></pick><pick publicID="de.gempa.tb1.Pick/20250413082625.580071.130113"><time><value>2025-04-13T08:26:19.928393Z</value></time><waveformID networkCode="CX" stationCode="PB02" channelCode="HHN"/><filterID>ITAPER(2)&gt;&gt;BW(3,3,20)</filterID><methodID>L2-AIC-GRID</methodID><horizontalSlowness><value>12.394840921909575</value></horizontalSlowness><backazimuth><value>53.29297429399004</value></backazimuth><phaseHint>S</phaseHint><evaluationMode>automatic</evaluationMode><comment><text>48.08864024877614</text><id>DFX:rectilinearity</id></comment><comment><text>de.gempa.tb1.Pick/20250413082622.508592.130109</text><id>RefPickID</id></comment><comment><text>10.406369176563413</text><id>SNR</id></comment></pick><pick publicID="de.gempa.tb1.Pick/20250413082627.80075.130114"><time><value>2025-04-13T08:26:20.998393Z</value></time><waveformID networkCode="CX" stationCode="PB07" channelCode="HHZ"/><filterID>ITAPER(4)&gt;&gt;BW(4,4,20)</filterID><methodID>AIC</methodID><horizontalSlowness><value>22.81060332392263</value></horizontalSlowness><backazimuth><value>290.7328205184347</value></backazimuth><phaseHint>P</phaseHint><evaluationMode>automatic</evaluationMode><comment><text>207.0057740638504</text><id>DFX:rectilinearity</id></comment><comment><text>13.470316571745</text><id>SNR</id></comment></pick><pick publicID="de.gempa.tb1.Pick/20250413082633.596048.130117"><time><value>2025-04-13T08:26:27.298393Z</value></time><waveformID networkCode="CX" stationCode="PB03" channelCode="HHZ"/><filterID>ITAPER(4)&gt;&gt;BW(4,4,20)</filterID><methodID>AIC</methodID><horizontalSlowness><value>23.525843453146756</value></horizontalSlowness><backazimuth><value>158.79228305844455</value></backazimuth><phaseHint>P</phaseHint><evaluationMode>automatic</evaluationMode><comment><text>15.484429529977122</text><id>DFX:rectilinearity</id></comment><comment><text>8.002171941592319</text><id>SNR</id></comment></pick><pick publicID="de.gempa.tb1.Pick/20250413082633.597219.130119"><time><value>2025-04-13T08:26:24.618393Z</value></time><waveformID networkCode="CX" stationCode="PB01" channelCode="HHN"/><filterID>ITAPER(2)&gt;&gt;BW(3,3,20)</filterID><methodID>L2-AIC-GRID</methodID><horizontalSlowness><value>21.282965493919427</value></horizontalSlowness><backazimuth><value>311.17637069936194</value></backazimuth><phaseHint>S</phaseHint><evaluationMode>automatic</evaluationMode><comment><text>13.653306081123207</text><id>DFX:rectilinearity</id></comment><comment><text>de.gempa.tb1.Pick/20250413082624.664415.130111</text><id>RefPickID</id></comment><comment><text>8.73642953885864</text><id>SNR</id></comment></pick><origin publicID="de.gempa.tb1.Origin/20250413082635.773922.105518"><time><value>2025-04-13T08:26:06.716278Z</value><uncertainty>1.4739971160888672</uncertainty></time><latitude><value>-20.96793556213379</value><uncertainty>6.183395385742188</uncertainty></latitude><longitude><value>-70.07890319824219</value><uncertainty>5.812170028686523</uncertainty></longitude><depth><value>0</value></depth><depthType>operator assigned</depthType><methodID>LOCSAT</methodID><earthModelID>iasp91_scanloc</earthModelID><quality><associatedPhaseCount>6</associatedPhaseCount><usedPhaseCount>6</usedPhaseCount><associatedStationCount>4</associatedStationCount><usedStationCount>4</usedStationCount><depthPhaseCount>0</depthPhaseCount><standardError>0.7106065931944665</standardError><azimuthalGap>291.175895690918</azimuthalGap><maximumDistance>1.1172107458114624</maximumDistance><minimumDistance>0.38945651054382324</minimumDistance><medianDistance>0.5577270984649658</medianDistance></quality><uncertainty><minHorizontalUncertainty>8.055633544921875</minHorizontalUncertainty><maxHorizontalUncertainty>16.321395874023438</maxHorizontalUncertainty><azimuthMaxHorizontalUncertainty>137.91748046875</azimuthMaxHorizontalUncertainty><preferredDescription>horizontal uncertainty</preferredDescription></uncertainty><evaluationMode>automatic</evaluationMode><evaluationStatus>confirmed</evaluationStatus><comment><text>0.33</text><id>mismatchScore</id></comment><comment><text>mismatchScore</text><id>scevalMethod</id></comment><arrival><pickID>de.gempa.tb1.Pick/20250413082622.508592.130109</pickID><phase>P</phase><azimuth>154.03492736816406</azimuth><distance>0.38945651054382324</distance><timeResidual>1.0620217323303223</timeResidual><timeUsed>true</timeUsed><horizontalSlownessUsed>false</horizontalSlownessUsed><backazimuthUsed>false</backazimuthUsed><weight>1</weight></arrival><arrival><pickID>de.gempa.tb1.Pick/20250413082624.664415.130111</pickID><phase>P</phase><azimuth>97.82514190673828</azimuth><distance>0.5577270984649658</distance><timeResidual>0.6340913772583008</timeResidual><timeUsed>true</timeUsed><horizontalSlownessUsed>false</horizontalSlownessUsed><backazimuthUsed>false</backazimuthUsed><weight>1</weight></arrival><arrival><pickID>de.gempa.tb1.Pick/20250413082625.580071.130113</pickID><phase>S</phase><azimuth>154.03492736816406</azimuth><distance>0.38945651054382324</distance><timeResidual>0.3177967071533203</timeResidual><timeUsed>true</timeUsed><horizontalSlownessUsed>false</horizontalSlownessUsed><backazimuthUsed>false</backazimuthUsed><weight>1</weight></arrival><arrival><pickID>de.gempa.tb1.Pick/20250413082627.80075.130114</pickID><phase>P</phase><azimuth>166.6492462158203</azimuth><distance>0.776071548461914</distance><timeResidual>-0.603281021118164</timeResidual><timeUsed>true</timeUsed><horizontalSlownessUsed>false</horizontalSlownessUsed><backazimuthUsed>false</backazimuthUsed><weight>1</weight></arrival><arrival><pickID>de.gempa.tb1.Pick/20250413082633.596048.130117</pickID><phase>P</phase><azimuth>164.302001953125</azimuth><distance>1.1172107458114624</distance><timeResidual>-0.846353530883789</timeResidual><timeUsed>true</timeUsed><horizontalSlownessUsed>false</horizontalSlownessUsed><backazimuthUsed>false</backazimuthUsed><weight>1</weight></arrival><arrival><pickID>de.gempa.tb1.Pick/20250413082633.597219.130119</pickID><phase>S</phase><azimuth>97.82514190673828</azimuth><distance>0.5577270984649658</distance><timeResidual>-0.5644035339355469</timeResidual><timeUsed>true</timeUsed><horizontalSlownessUsed>false</horizontalSlownessUsed><backazimuthUsed>false</backazimuthUsed><weight>1</weight></arrival><magnitude publicID="de.gempa.tb1.Magnitude/20250413082654.481714.331945"><magnitude><value>1.6830135843483658</value></magnitude><type>M</type><methodID>weighted average</methodID><stationCount>3</stationCount></magnitude></origin><event publicID="gempa2025hhbc"><preferredOriginID>de.gempa.tb1.Origin/20250413082635.773922.105518</preferredOriginID><preferredMagnitudeID>de.gempa.tb1.Magnitude/20250413082654.481714.331945</preferredMagnitudeID><description><text>Near Coast of Northern Chile</text><type>region name</type></description><originReference>de.gempa.tb1.Origin/20250413082635.773922.105518</originReference></event></EventParameters></seiscomp>