<?xml version="1.0" encoding="UTF-8"?>
<seiscomp xmlns="http://geofon.gfz-potsdam.de/ns/seiscomp3-schema/0.13" version="0.13"><EventParameters><pick publicID="de.gempa.tb1.Pick/20250412202433.515763.189176"><time><value>2025-04-12T20:24:27.7375Z</value></time><waveformID networkCode="SX" stationCode="WERN" channelCode="HHZ"/><filterID>ITAPER(2)&gt;&gt;BW(3,3,20)</filterID><methodID>AIC</methodID><horizontalSlowness><value>22.725043803151763</value></horizontalSlowness><backazimuth><value>61.95208111035734</value></backazimuth><phaseHint>P</phaseHint><evaluationMode>automatic</evaluationMode><comment><text>13.89165036943301</text><id>DFX:rectilinearity</id></comment></pick><pick publicID="de.gempa.tb1.Pick/20250412202437.239963.189179"><time><value>2025-04-12T20:24:28.99Z</value></time><waveformID networkCode="SX" stationCode="TANN" channelCode="HHZ"/><filterID>ITAPER(2)&gt;&gt;BW(3,3,20)</filterID><methodID>AIC</methodID><horizontalSlowness><value>20.67923026174162</value></horizontalSlowness><backazimuth><value>10.446018188105285</value></backazimuth><phaseHint>P</phaseHint><evaluationMode>automatic</evaluationMode><comment><text>1.6745728419577766</text><id>DFX:rectilinearity</id></comment></pick><pick publicID="de.gempa.tb1.Pick/20250412202437.24574.189181"><time><value>2025-04-12T20:24:29.01Z</value></time><waveformID networkCode="SX" stationCode="MULD" channelCode="HHZ"/><filterID>ITAPER(2)&gt;&gt;BW(3,3,20)</filterID><methodID>AIC</methodID><horizontalSlowness><value>15.160857707975604</value></horizontalSlowness><backazimuth><value>135.25882818698628</value></backazimuth><phaseHint>P</phaseHint><evaluationMode>automatic</evaluationMode><comment><text>2.4422911063284283</text><id>DFX:rectilinearity</id></comment></pick><pick publicID="de.gempa.tb1.Pick/20250412202441.520525.189191"><time><value>2025-04-12T20:24:29.2275Z</value></time><waveformID networkCode="SX" stationCode="WERN" channelCode="HHN"/><filterID>ITAPER(3)&gt;&gt;BW(4,3,10)</filterID><methodID>L2-AIC-GRID</methodID><horizontalSlowness><value>23.104979373363</value></horizontalSlowness><backazimuth><value>64.87254217151258</value></backazimuth><phaseHint>S</phaseHint><evaluationMode>automatic</evaluationMode><comment><text>13.403299937794706</text><id>DFX:rectilinearity</id></comment><comment><text>de.gempa.tb1.Pick/20250412202433.515763.189176</text><id>RefPickID</id></comment></pick><pick publicID="de.gempa.tb1.Pick/20250412202441.794855.189192"><time><value>2025-04-12T20:24:29.93Z</value></time><waveformID networkCode="SX" stationCode="TRIB" channelCode="HHZ"/><filterID>ITAPER(2)&gt;&gt;BW(3,3,20)</filterID><methodID>AIC</methodID><horizontalSlowness><value>19.72011533653772</value></horizontalSlowness><backazimuth><value>348.251794940158</value></backazimuth><phaseHint>P</phaseHint><evaluationMode>automatic</evaluationMode><comment><text>2.236683506028346</text><id>DFX:rectilinearity</id></comment></pick><pick publicID="de.gempa.tb1.Pick/20250412202443.33716.189197"><time><value>2025-04-12T20:24:31.29Z</value></time><waveformID networkCode="SX" stationCode="MULD" channelCode="HHN"/><filterID>ITAPER(3)&gt;&gt;BW(4,3,10)</filterID><methodID>L2-AIC-GRID</methodID><horizontalSlowness><value>22.88715189163016</value></horizontalSlowness><backazimuth><value>175.8755467773099</value></backazimuth><phaseHint>S</phaseHint><evaluationMode>automatic</evaluationMode><comment><text>2.3786166780720435</text><id>DFX:rectilinearity</id></comment><comment><text>de.gempa.tb1.Pick/20250412202437.24574.189181</text><id>RefPickID</id></comment></pick><pick publicID="de.gempa.tb1.Pick/20250412202444.851826.189204"><time><value>2025-04-12T20:24:31.31Z</value></time><waveformID networkCode="SX" stationCode="TANN" channelCode="HHN"/><filterID>ITAPER(3)&gt;&gt;BW(4,3,10)</filterID><methodID>L2-AIC-GRID</methodID><horizontalSlowness><value>11.641401142725034</value><uncertainty>4.53619055768712</uncertainty></horizontalSlowness><backazimuth><value>311.33969449934625</value><uncertainty>22.469596659943207</uncertainty></backazimuth><phaseHint>S</phaseHint><evaluationMode>automatic</evaluationMode><comment><text>0.8471554616841401</text><id>DFX:rectilinearity</id></comment><comment><text>de.gempa.tb1.Pick/20250412202437.239963.189179</text><id>RefPickID</id></comment></pick><origin publicID="de.gempa.tb1.Origin/20250412202452.794749.162585"><time><value>2025-04-12T20:24:25.656806Z</value><uncertainty>1.4937788248062134</uncertainty></time><latitude><value>50.31742858886719</value><uncertainty>2.818131446838379</uncertainty></latitude><longitude><value>12.3914155960083</value><uncertainty>6.384514331817627</uncertainty></longitude><depth><value>8.643187522888184</value><uncertainty>6.60711669921875</uncertainty></depth><depthType>from location</depthType><methodID>LOCSAT</methodID><earthModelID>iasp91</earthModelID><quality><associatedPhaseCount>7</associatedPhaseCount><usedPhaseCount>7</usedPhaseCount><associatedStationCount>4</associatedStationCount><usedStationCount>4</usedStationCount><depthPhaseCount>0</depthPhaseCount><standardError>0.13704811039635423</standardError><azimuthalGap>173.6029453277588</azimuthalGap><maximumDistance>0.16667364537715912</maximumDistance><minimumDistance>0.03162938728928566</minimumDistance><medianDistance>0.09482551366090775</medianDistance></quality><uncertainty><minHorizontalUncertainty>4.106600761413574</minHorizontalUncertainty><maxHorizontalUncertainty>14.391486167907715</maxHorizontalUncertainty><azimuthMaxHorizontalUncertainty>108.750732421875</azimuthMaxHorizontalUncertainty><preferredDescription>horizontal uncertainty</preferredDescription></uncertainty><evaluationMode>automatic</evaluationMode><evaluationStatus>confirmed</evaluationStatus><comment><text>0.49</text><id>mismatchScore</id></comment><comment><text>mismatchScore</text><id>scevalMethod</id></comment><arrival><pickID>de.gempa.tb1.Pick/20250412202433.515763.189176</pickID><phase>P</phase><azimuth>198.09681701660156</azimuth><distance>0.03162938728928566</distance><timeResidual>0.035257816314697266</timeResidual><timeUsed>true</timeUsed><horizontalSlownessUsed>false</horizontalSlownessUsed><backazimuthUsed>false</backazimuthUsed><weight>1</weight></arrival><arrival><pickID>de.gempa.tb1.Pick/20250412202437.239963.189179</pickID><phase>P</phase><azimuth>24.493871688842773</azimuth><distance>0.1073763519525528</distance><timeResidual>-0.04629921913146973</timeResidual><timeUsed>true</timeUsed><horizontalSlownessUsed>false</horizontalSlownessUsed><backazimuthUsed>false</backazimuthUsed><weight>1</weight></arrival><arrival><pickID>de.gempa.tb1.Pick/20250412202437.24574.189181</pickID><phase>P</phase><azimuth>4.832073211669922</azimuth><distance>0.09482551366090775</distance><timeResidual>0.1947920322418213</timeResidual><timeUsed>true</timeUsed><horizontalSlownessUsed>false</horizontalSlownessUsed><backazimuthUsed>false</backazimuthUsed><weight>1</weight></arrival><arrival><pickID>de.gempa.tb1.Pick/20250412202441.520525.189191</pickID><phase>S</phase><azimuth>198.09681701660156</azimuth><distance>0.03162938728928566</distance><timeResidual>0.018306493759155273</timeResidual><timeUsed>true</timeUsed><horizontalSlownessUsed>false</horizontalSlownessUsed><backazimuthUsed>false</backazimuthUsed><weight>1</weight></arrival><arrival><pickID>de.gempa.tb1.Pick/20250412202441.794855.189192</pickID><phase>P</phase><azimuth>282.0840759277344</azimuth><distance>0.16667364537715912</distance><timeResidual>-0.15105819702148438</timeResidual><timeUsed>true</timeUsed><horizontalSlownessUsed>false</horizontalSlownessUsed><backazimuthUsed>false</backazimuthUsed><weight>1</weight></arrival><arrival><pickID>de.gempa.tb1.Pick/20250412202443.33716.189197</pickID><phase>S</phase><azimuth>4.832073211669922</azimuth><distance>0.09482551366090775</distance><timeResidual>0.1556377410888672</timeResidual><timeUsed>true</timeUsed><horizontalSlownessUsed>false</horizontalSlownessUsed><backazimuthUsed>false</backazimuthUsed><weight>1</weight></arrival><arrival><pickID>de.gempa.tb1.Pick/20250412202444.851826.189204</pickID><phase>S</phase><azimuth>24.493871688842773</azimuth><distance>0.1073763519525528</distance><timeResidual>-0.2068037986755371</timeResidual><timeUsed>true</timeUsed><horizontalSlownessUsed>false</horizontalSlownessUsed><backazimuthUsed>false</backazimuthUsed><weight>1</weight></arrival><magnitude publicID="de.gempa.tb1.Magnitude/20250412202509.475322.279512"><magnitude><value>-0.03700290272366856</value></magnitude><type>M</type><methodID>weighted average</methodID><stationCount>4</stationCount></magnitude></origin><event publicID="gempa2025hgdb"><preferredOriginID>de.gempa.tb1.Origin/20250412202452.794749.162585</preferredOriginID><preferredMagnitudeID>de.gempa.tb1.Magnitude/20250412202509.475322.279512</preferredMagnitudeID><description><text>Germany</text><type>region name</type></description><originReference>de.gempa.tb1.Origin/20250412202452.794749.162585</originReference></event></EventParameters></seiscomp>