<?xml version="1.0" encoding="UTF-8"?>
<seiscomp xmlns="http://geofon.gfz-potsdam.de/ns/seiscomp3-schema/0.13" version="0.13"><EventParameters><pick publicID="de.gempa.tb1.Pick/20250413213103.856573.133826"><time><value>2025-04-13T21:30:58.118393Z</value></time><waveformID networkCode="CX" stationCode="PB06" channelCode="HHZ"/><filterID>ITAPER(4)&gt;&gt;BW(4,4,20)</filterID><methodID>AIC</methodID><horizontalSlowness><value>10.33493018996497</value></horizontalSlowness><backazimuth><value>133.80524192935246</value></backazimuth><phaseHint>P</phaseHint><evaluationMode>automatic</evaluationMode><comment><text>499.8951712928951</text><id>DFX:rectilinearity</id></comment><comment><text>44.412781533162665</text><id>SNR</id></comment></pick><pick publicID="de.gempa.tb1.Pick/20250413213105.789463.133828"><time><value>2025-04-13T21:31:00.178391Z</value></time><waveformID networkCode="CX" stationCode="PB15" channelCode="HHZ"/><filterID>ITAPER(4)&gt;&gt;BW(4,4,20)</filterID><methodID>AIC</methodID><horizontalSlowness><value>17.888661219252143</value></horizontalSlowness><backazimuth><value>171.07303291881706</value></backazimuth><phaseHint>P</phaseHint><evaluationMode>automatic</evaluationMode><comment><text>689.902894068869</text><id>DFX:rectilinearity</id></comment><comment><text>29.249951373692767</text><id>SNR</id></comment></pick><pick publicID="de.gempa.tb1.Pick/20250413213114.59552.133830"><time><value>2025-04-13T21:31:09.348393Z</value></time><waveformID networkCode="CX" stationCode="PB03" channelCode="HHZ"/><filterID>ITAPER(4)&gt;&gt;BW(4,4,20)</filterID><methodID>AIC</methodID><horizontalSlowness><value>17.161538030601978</value></horizontalSlowness><backazimuth><value>153.20313835749272</value></backazimuth><phaseHint>P</phaseHint><evaluationMode>automatic</evaluationMode><comment><text>54.81361359400682</text><id>DFX:rectilinearity</id></comment><comment><text>18.236619254995244</text><id>SNR</id></comment></pick><pick publicID="de.gempa.tb1.Pick/20250413213118.838602.133832"><time><value>2025-04-13T21:31:06.548391Z</value></time><waveformID networkCode="CX" stationCode="PB15" channelCode="HHN"/><filterID>ITAPER(2)&gt;&gt;BW(3,3,20)</filterID><methodID>L2-AIC-GRID</methodID><horizontalSlowness><value>21.333941450389368</value></horizontalSlowness><backazimuth><value>82.09317557457904</value></backazimuth><phaseHint>S</phaseHint><evaluationMode>automatic</evaluationMode><comment><text>18480.868138898288</text><id>DFX:rectilinearity</id></comment><comment><text>de.gempa.tb1.Pick/20250413213105.789463.133828</text><id>RefPickID</id></comment><comment><text>6.343906288710355</text><id>SNR</id></comment></pick><pick publicID="de.gempa.tb1.Pick/20250413213120.533188.133833"><time><value>2025-04-13T21:31:12.64Z</value></time><waveformID networkCode="CX" stationCode="PB19" channelCode="HHZ"/><filterID>ITAPER(4)&gt;&gt;BW(4,4,20)</filterID><methodID>AIC</methodID><horizontalSlowness><value>20.875438714201493</value></horizontalSlowness><backazimuth><value>13.07261012478054</value></backazimuth><phaseHint>P</phaseHint><evaluationMode>automatic</evaluationMode><comment><text>13.447238712199567</text><id>DFX:rectilinearity</id></comment><comment><text>12.840819675571932</text><id>SNR</id></comment></pick><pick publicID="de.gempa.tb1.Pick/20250413213120.779582.133835"><time><value>2025-04-13T21:31:15.258396Z</value></time><waveformID networkCode="CX" stationCode="PB07" channelCode="HHZ"/><filterID>ITAPER(4)&gt;&gt;BW(4,4,20)</filterID><methodID>AIC</methodID><horizontalSlowness><value>21.10480025242033</value></horizontalSlowness><backazimuth><value>252.2610570218842</value></backazimuth><phaseHint>P</phaseHint><evaluationMode>automatic</evaluationMode><comment><text>214.3548875616863</text><id>DFX:rectilinearity</id></comment><comment><text>54.22320288413014</text><id>SNR</id></comment></pick><pick publicID="de.gempa.tb1.Pick/20250413213121.380343.133837"><time><value>2025-04-13T21:31:12.86Z</value></time><waveformID networkCode="CX" stationCode="PB09" channelCode="HHZ"/><filterID>ITAPER(4)&gt;&gt;BW(4,4,20)</filterID><methodID>AIC</methodID><horizontalSlowness><value>21.269400255253842</value></horizontalSlowness><backazimuth><value>340.7423677056595</value></backazimuth><phaseHint>P</phaseHint><evaluationMode>automatic</evaluationMode><comment><text>17.233227323089107</text><id>DFX:rectilinearity</id></comment><comment><text>43.288280656125465</text><id>SNR</id></comment></pick><pick publicID="de.gempa.tb1.Pick/20250413213146.586565.133846"><time><value>2025-04-13T21:31:27.43Z</value></time><waveformID networkCode="CX" stationCode="PB19" channelCode="HHN"/><filterID>ITAPER(2)&gt;&gt;BW(3,3,20)</filterID><methodID>L2-AIC-GRID</methodID><horizontalSlowness><value>22.01188124082659</value></horizontalSlowness><backazimuth><value>269.9521411029368</value></backazimuth><phaseHint>S</phaseHint><evaluationMode>automatic</evaluationMode><comment><text>52.68730555500889</text><id>DFX:rectilinearity</id></comment><comment><text>de.gempa.tb1.Pick/20250413213120.533188.133833</text><id>RefPickID</id></comment><comment><text>5.302870771626743</text><id>SNR</id></comment></pick><origin publicID="de.gempa.tb1.Origin/20250413213146.58977.119549"><time><value>2025-04-13T21:30:52.883625Z</value><uncertainty>0.8019917011260986</uncertainty></time><latitude><value>-22.843456268310547</value><uncertainty>2.6567511558532715</uncertainty></latitude><longitude><value>-69.37066650390625</value><uncertainty>13.46640682220459</uncertainty></longitude><depth><value>16.137554168701172</value><uncertainty>6.39620304107666</uncertainty></depth><depthType>from location</depthType><methodID>LOCSAT</methodID><earthModelID>iasp91_scanloc</earthModelID><quality><associatedPhaseCount>8</associatedPhaseCount><usedPhaseCount>8</usedPhaseCount><associatedStationCount>6</associatedStationCount><usedStationCount>6</usedStationCount><depthPhaseCount>0</depthPhaseCount><standardError>0.23232255682039624</standardError><azimuthalGap>169.48362255096436</azimuthalGap><maximumDistance>1.2096564769744873</maximumDistance><minimumDistance>0.23077955842018127</minimumDistance><medianDistance>1.0488700866699219</medianDistance></quality><uncertainty><minHorizontalUncertainty>4.4809584617614746</minHorizontalUncertainty><maxHorizontalUncertainty>29.090959548950195</maxHorizontalUncertainty><azimuthMaxHorizontalUncertainty>82.96922302246094</azimuthMaxHorizontalUncertainty><preferredDescription>horizontal uncertainty</preferredDescription></uncertainty><evaluationMode>automatic</evaluationMode><evaluationStatus>confirmed</evaluationStatus><comment><text>0.00</text><id>mismatchScore</id></comment><comment><text>mismatchScore</text><id>scevalMethod</id></comment><arrival><pickID>de.gempa.tb1.Pick/20250413213103.856573.133826</pickID><phase>P</phase><azimuth>306.37994384765625</azimuth><distance>0.23077955842018127</distance><timeResidual>-0.0017237663269042971</timeResidual><timeUsed>true</timeUsed><horizontalSlownessUsed>false</horizontalSlownessUsed><backazimuthUsed>false</backazimuthUsed><weight>1</weight></arrival><arrival><pickID>de.gempa.tb1.Pick/20250413213105.789463.133828</pickID><phase>P</phase><azimuth>194.24859619140625</azimuth><distance>0.37473776936531067</distance><timeResidual>-0.41304874420166016</timeResidual><timeUsed>true</timeUsed><horizontalSlownessUsed>false</horizontalSlownessUsed><backazimuthUsed>false</backazimuthUsed><weight>1</weight></arrival><arrival><pickID>de.gempa.tb1.Pick/20250413213114.59552.133830</pickID><phase>P</phase><azimuth>335.83441162109375</azimuth><distance>0.866704523563385</distance><timeResidual>-0.18452215194702148</timeResidual><timeUsed>true</timeUsed><horizontalSlownessUsed>false</horizontalSlownessUsed><backazimuthUsed>false</backazimuthUsed><weight>1</weight></arrival><arrival><pickID>de.gempa.tb1.Pick/20250413213118.838602.133832</pickID><phase>S</phase><azimuth>194.24859619140625</azimuth><distance>0.37473776936531067</distance><timeResidual>0.35947656631469727</timeResidual><timeUsed>true</timeUsed><horizontalSlownessUsed>false</horizontalSlownessUsed><backazimuthUsed>false</backazimuthUsed><weight>1</weight></arrival><arrival><pickID>de.gempa.tb1.Pick/20250413213120.533188.133833</pickID><phase>P</phase><azimuth>176.0343780517578</azimuth><distance>1.058992862701416</distance><timeResidual>-0.17102766036987305</timeResidual><timeUsed>true</timeUsed><horizontalSlownessUsed>false</horizontalSlownessUsed><backazimuthUsed>false</backazimuthUsed><weight>1</weight></arrival><arrival><pickID>de.gempa.tb1.Pick/20250413213120.779582.133835</pickID><phase>P</phase><azimuth>336.65447998046875</azimuth><distance>1.2096564769744873</distance><timeResidual>0.13851022720336914</timeResidual><timeUsed>true</timeUsed><horizontalSlownessUsed>false</horizontalSlownessUsed><backazimuthUsed>false</backazimuthUsed><weight>1</weight></arrival><arrival><pickID>de.gempa.tb1.Pick/20250413213121.380343.133837</pickID><phase>P</phase><azimuth>6.550755500793457</azimuth><distance>1.0488700866699219</distance><timeResidual>0.21489667892456055</timeResidual><timeUsed>true</timeUsed><horizontalSlownessUsed>false</horizontalSlownessUsed><backazimuthUsed>false</backazimuthUsed><weight>1</weight></arrival><arrival><pickID>de.gempa.tb1.Pick/20250413213146.586565.133846</pickID><phase>S</phase><azimuth>176.0343780517578</azimuth><distance>1.058992862701416</distance><timeResidual>0.0573582649230957</timeResidual><timeUsed>true</timeUsed><horizontalSlownessUsed>false</horizontalSlownessUsed><backazimuthUsed>false</backazimuthUsed><weight>1</weight></arrival><magnitude publicID="de.gempa.tb1.Magnitude/20250413213146.596637.404384"><magnitude><value>2.1504336903373091</value></magnitude><type>M</type><methodID>weighted average</methodID><stationCount>6</stationCount></magnitude></origin><event publicID="gempa2025hibh"><preferredOriginID>de.gempa.tb1.Origin/20250413213146.58977.119549</preferredOriginID><preferredMagnitudeID>de.gempa.tb1.Magnitude/20250413213146.596637.404384</preferredMagnitudeID><description><text>Northern Chile</text><type>region name</type></description><originReference>de.gempa.tb1.Origin/20250413213146.58977.119549</originReference></event></EventParameters></seiscomp>