<?xml version="1.0" encoding="UTF-8"?>
<seiscomp xmlns="http://geofon.gfz-potsdam.de/ns/seiscomp3-schema/0.13" version="0.13"><EventParameters><pick publicID="de.gempa.tb1.Pick/20250412135852.573484.124411"><time><value>2025-04-12T13:58:43.138394Z</value></time><waveformID networkCode="CX" stationCode="PB01" channelCode="HHZ"/><filterID>ITAPER(4)&gt;&gt;BW(4,4,20)</filterID><methodID>AIC</methodID><horizontalSlowness><value>12.86812284952186</value></horizontalSlowness><backazimuth><value>198.76154263874247</value></backazimuth><phaseHint>P</phaseHint><evaluationMode>automatic</evaluationMode><comment><text>13.827250560136584</text><id>DFX:rectilinearity</id></comment><comment><text>12.91563010439993</text><id>SNR</id></comment></pick><pick publicID="de.gempa.tb1.Pick/20250412135856.537181.124413"><time><value>2025-04-12T13:58:48.078393Z</value></time><waveformID networkCode="CX" stationCode="PB02" channelCode="HHZ"/><filterID>ITAPER(4)&gt;&gt;BW(4,4,20)</filterID><methodID>AIC</methodID><horizontalSlowness><value>20.769638924062573</value></horizontalSlowness><backazimuth><value>267.594876257255</value></backazimuth><phaseHint>P</phaseHint><evaluationMode>automatic</evaluationMode><comment><text>31.75959079420653</text><id>DFX:rectilinearity</id></comment><comment><text>6.839726750743704</text><id>SNR</id></comment></pick><pick publicID="de.gempa.tb1.Pick/20250412135857.53192.124415"><time><value>2025-04-12T13:58:47.880001Z</value></time><waveformID networkCode="CX" stationCode="PB09" channelCode="HHZ"/><filterID>ITAPER(4)&gt;&gt;BW(4,4,20)</filterID><methodID>AIC</methodID><horizontalSlowness><value>14.350243648041747</value></horizontalSlowness><backazimuth><value>0.026831649314317474</value></backazimuth><phaseHint>P</phaseHint><evaluationMode>automatic</evaluationMode><comment><text>6.385455456993233</text><id>DFX:rectilinearity</id></comment><comment><text>8.464284236444906</text><id>SNR</id></comment></pick><pick publicID="de.gempa.tb1.Pick/20250412135857.677395.124417"><time><value>2025-04-12T13:58:50.258391Z</value></time><waveformID networkCode="CX" stationCode="PB07" channelCode="HHZ"/><filterID>ITAPER(4)&gt;&gt;BW(4,4,20)</filterID><methodID>AIC</methodID><horizontalSlowness><value>23.137939297286913</value></horizontalSlowness><backazimuth><value>55.05372860966831</value></backazimuth><phaseHint>P</phaseHint><evaluationMode>automatic</evaluationMode><comment><text>122.53084513416488</text><id>DFX:rectilinearity</id></comment><comment><text>14.34075568503997</text><id>SNR</id></comment></pick><pick publicID="de.gempa.tb1.Pick/20250412135902.578944.124419"><time><value>2025-04-12T13:58:55.578394Z</value></time><waveformID networkCode="CX" stationCode="PB01" channelCode="HHN"/><filterID>ITAPER(2)&gt;&gt;BW(3,3,20)</filterID><methodID>L2-AIC-GRID</methodID><horizontalSlowness><value>23.519035420164727</value></horizontalSlowness><backazimuth><value>358.0374530119386</value></backazimuth><phaseHint>S</phaseHint><evaluationMode>automatic</evaluationMode><comment><text>23.988623362527015</text><id>DFX:rectilinearity</id></comment><comment><text>de.gempa.tb1.Pick/20250412135852.573484.124411</text><id>RefPickID</id></comment><comment><text>10.266035206864993</text><id>SNR</id></comment></pick><pick publicID="de.gempa.tb1.Pick/20250412135913.513838.124422"><time><value>2025-04-12T13:59:03.838393Z</value></time><waveformID networkCode="CX" stationCode="PB02" channelCode="HHN"/><filterID>ITAPER(2)&gt;&gt;BW(3,3,20)</filterID><methodID>L2-AIC-GRID</methodID><horizontalSlowness><value>16.67312834681437</value></horizontalSlowness><backazimuth><value>70.58386335184795</value></backazimuth><phaseHint>S</phaseHint><evaluationMode>automatic</evaluationMode><comment><text>56.57725727516327</text><id>DFX:rectilinearity</id></comment><comment><text>de.gempa.tb1.Pick/20250412135856.537181.124413</text><id>RefPickID</id></comment><comment><text>5.757293091535522</text><id>SNR</id></comment></pick><pick publicID="de.gempa.tb1.Pick/20250412135915.739913.124423"><time><value>2025-04-12T13:59:08.318391Z</value></time><waveformID networkCode="CX" stationCode="PB07" channelCode="HHN"/><filterID>ITAPER(2)&gt;&gt;BW(3,3,20)</filterID><methodID>L2-AIC-GRID</methodID><horizontalSlowness><value>22.71098635038108</value></horizontalSlowness><backazimuth><value>278.00016842753905</value></backazimuth><phaseHint>S</phaseHint><evaluationMode>automatic</evaluationMode><comment><text>829.6286243068597</text><id>DFX:rectilinearity</id></comment><comment><text>de.gempa.tb1.Pick/20250412135857.677395.124417</text><id>RefPickID</id></comment><comment><text>5.705193188262124</text><id>SNR</id></comment></pick><origin publicID="de.gempa.tb1.Origin/20250412135915.743068.84044"><time><value>2025-04-12T13:58:27.35444Z</value><uncertainty>1.442811369895935</uncertainty></time><latitude><value>-20.828306198120117</value><uncertainty>12.52892017364502</uncertainty></latitude><longitude><value>-68.93667602539062</value><uncertainty>13.09062671661377</uncertainty></longitude><depth><value>97.746826171875</value><uncertainty>13.536089897155762</uncertainty></depth><depthType>from location</depthType><methodID>LOCSAT</methodID><earthModelID>iasp91_scanloc</earthModelID><quality><associatedPhaseCount>7</associatedPhaseCount><usedPhaseCount>7</usedPhaseCount><associatedStationCount>4</associatedStationCount><usedStationCount>4</usedStationCount><depthPhaseCount>0</depthPhaseCount><standardError>0.21316273609047443</standardError><azimuthalGap>309.0614776611328</azimuthalGap><maximumDistance>1.258283019065857</maximumDistance><minimumDistance>0.5574506521224976</minimumDistance><medianDistance>1.0207023620605469</medianDistance></quality><uncertainty><minHorizontalUncertainty>20.360395431518555</minHorizontalUncertainty><maxHorizontalUncertainty>33.09746551513672</maxHorizontalUncertainty><azimuthMaxHorizontalUncertainty>132.21112060546875</azimuthMaxHorizontalUncertainty><preferredDescription>horizontal uncertainty</preferredDescription></uncertainty><evaluationMode>automatic</evaluationMode><evaluationStatus>confirmed</evaluationStatus><comment><text>0.37</text><id>mismatchScore</id></comment><comment><text>mismatchScore</text><id>scevalMethod</id></comment><arrival><pickID>de.gempa.tb1.Pick/20250412135852.573484.124411</pickID><phase>P</phase><azimuth>247.3442687988281</azimuth><distance>0.5574506521224976</distance><timeResidual>-0.19740676879882812</timeResidual><timeUsed>true</timeUsed><horizontalSlownessUsed>false</horizontalSlownessUsed><backazimuthUsed>false</backazimuthUsed><weight>1</weight></arrival><arrival><pickID>de.gempa.tb1.Pick/20250412135856.537181.124413</pickID><phase>P</phase><azimuth>241.2052307128906</azimuth><distance>1.0207023620605469</distance><timeResidual>0.2492094039916992</timeResidual><timeUsed>true</timeUsed><horizontalSlownessUsed>false</horizontalSlownessUsed><backazimuthUsed>false</backazimuthUsed><weight>1</weight></arrival><arrival><pickID>de.gempa.tb1.Pick/20250412135857.53192.124415</pickID><phase>P</phase><azimuth>196.40574645996094</azimuth><distance>1.0044572353363037</distance><timeResidual>0.2320709228515625</timeResidual><timeUsed>true</timeUsed><horizontalSlownessUsed>false</horizontalSlownessUsed><backazimuthUsed>false</backazimuthUsed><weight>1</weight></arrival><arrival><pickID>de.gempa.tb1.Pick/20250412135857.677395.124417</pickID><phase>P</phase><azimuth>224.5603485107422</azimuth><distance>1.258283019065857</distance><timeResidual>-0.2944173812866211</timeResidual><timeUsed>true</timeUsed><horizontalSlownessUsed>false</horizontalSlownessUsed><backazimuthUsed>false</backazimuthUsed><weight>1</weight></arrival><arrival><pickID>de.gempa.tb1.Pick/20250412135902.578944.124419</pickID><phase>S</phase><azimuth>247.3442687988281</azimuth><distance>0.5574506521224976</distance><timeResidual>-0.03679943084716797</timeResidual><timeUsed>true</timeUsed><horizontalSlownessUsed>false</horizontalSlownessUsed><backazimuthUsed>false</backazimuthUsed><weight>1</weight></arrival><arrival><pickID>de.gempa.tb1.Pick/20250412135913.513838.124422</pickID><phase>S</phase><azimuth>241.2052307128906</azimuth><distance>1.0207023620605469</distance><timeResidual>0.21591663360595703</timeResidual><timeUsed>true</timeUsed><horizontalSlownessUsed>false</horizontalSlownessUsed><backazimuthUsed>false</backazimuthUsed><weight>1</weight></arrival><arrival><pickID>de.gempa.tb1.Pick/20250412135915.739913.124423</pickID><phase>S</phase><azimuth>224.5603485107422</azimuth><distance>1.258283019065857</distance><timeResidual>-0.1687631607055664</timeResidual><timeUsed>true</timeUsed><horizontalSlownessUsed>false</horizontalSlownessUsed><backazimuthUsed>false</backazimuthUsed><weight>1</weight></arrival></origin><event publicID="gempa2025hfqe"><preferredOriginID>de.gempa.tb1.Origin/20250412135915.743068.84044</preferredOriginID><description><text>Chile-Bolivia Border Region</text><type>region name</type></description><originReference>de.gempa.tb1.Origin/20250412135915.743068.84044</originReference></event></EventParameters></seiscomp>