<?xml version="1.0" encoding="UTF-8"?>
<seiscomp xmlns="http://geofon.gfz-potsdam.de/ns/seiscomp3-schema/0.13" version="0.13"><EventParameters><pick publicID="de.gempa.tb1.Pick/20250411214110.807201.120215"><time><value>2025-04-11T21:41:05.328393Z</value></time><waveformID networkCode="CX" stationCode="PB01" channelCode="HHZ"/><filterID>ITAPER(4)&gt;&gt;BW(4,4,20)</filterID><methodID>AIC</methodID><horizontalSlowness><value>8.566103832629102</value></horizontalSlowness><backazimuth><value>89.79359070972389</value></backazimuth><phaseHint>P</phaseHint><evaluationMode>automatic</evaluationMode><comment><text>435.92762371213627</text><id>DFX:rectilinearity</id></comment><comment><text>223.06795150194216</text><id>SNR</id></comment></pick><pick publicID="de.gempa.tb1.Pick/20250411214115.242191.120217"><time><value>2025-04-11T21:41:08.748393Z</value></time><waveformID networkCode="CX" stationCode="PB08" channelCode="HHZ"/><filterID>ITAPER(4)&gt;&gt;BW(4,4,20)</filterID><methodID>AIC</methodID><horizontalSlowness><value>15.967890379510102</value></horizontalSlowness><backazimuth><value>204.22866470851793</value></backazimuth><phaseHint>P</phaseHint><evaluationMode>automatic</evaluationMode><comment><text>2108.7277098078616</text><id>DFX:rectilinearity</id></comment><comment><text>55.86746042727967</text><id>SNR</id></comment></pick><pick publicID="de.gempa.tb1.Pick/20250411214115.594558.120219"><time><value>2025-04-11T21:41:09.308393Z</value></time><waveformID networkCode="CX" stationCode="PB02" channelCode="HHZ"/><filterID>ITAPER(4)&gt;&gt;BW(4,4,20)</filterID><methodID>AIC</methodID><horizontalSlowness><value>4.4848933962316835</value></horizontalSlowness><backazimuth><value>53.257270267218</value></backazimuth><phaseHint>P</phaseHint><evaluationMode>automatic</evaluationMode><comment><text>779.7470620399265</text><id>DFX:rectilinearity</id></comment><comment><text>243.02292374431795</text><id>SNR</id></comment></pick><pick publicID="de.gempa.tb1.Pick/20250411214116.652291.120221"><time><value>2025-04-11T21:41:11.388394Z</value></time><waveformID networkCode="CX" stationCode="PB03" channelCode="HHZ"/><filterID>ITAPER(4)&gt;&gt;BW(4,4,20)</filterID><methodID>AIC</methodID><horizontalSlowness><value>6.438560133324633</value></horizontalSlowness><backazimuth><value>49.20823402859602</value></backazimuth><phaseHint>P</phaseHint><evaluationMode>automatic</evaluationMode><comment><text>1570.6047498419791</text><id>DFX:rectilinearity</id></comment><comment><text>184.36177921207812</text><id>SNR</id></comment></pick><pick publicID="de.gempa.tb1.Pick/20250411214118.037249.120223"><time><value>2025-04-11T21:41:06.71Z</value></time><waveformID networkCode="CX" stationCode="PB09" channelCode="HHZ"/><filterID>ITAPER(4)&gt;&gt;BW(4,4,20)</filterID><methodID>AIC</methodID><horizontalSlowness><value>14.95463528327872</value></horizontalSlowness><backazimuth><value>66.0798916699479</value></backazimuth><phaseHint>P</phaseHint><evaluationMode>automatic</evaluationMode><comment><text>5143.6117046469</text><id>DFX:rectilinearity</id></comment><comment><text>308.75235379553214</text><id>SNR</id></comment></pick><pick publicID="de.gempa.tb1.Pick/20250411214118.458112.120225"><time><value>2025-04-11T21:41:12.699999Z</value></time><waveformID networkCode="CX" stationCode="PATCX" channelCode="HHZ"/><filterID>ITAPER(4)&gt;&gt;BW(4,4,20)</filterID><methodID>AIC</methodID><horizontalSlowness><value>22.26692122289064</value></horizontalSlowness><backazimuth><value>315.32085340733147</value></backazimuth><phaseHint>P</phaseHint><evaluationMode>automatic</evaluationMode><comment><text>193.97591169230765</text><id>DFX:rectilinearity</id></comment><comment><text>10.706076425601161</text><id>SNR</id></comment></pick><pick publicID="de.gempa.tb1.Pick/20250411214120.719096.120227"><time><value>2025-04-11T21:41:16.158393Z</value></time><waveformID networkCode="CX" stationCode="PB06" channelCode="HHZ"/><filterID>ITAPER(4)&gt;&gt;BW(4,4,20)</filterID><methodID>AIC</methodID><horizontalSlowness><value>3.264363963573277</value></horizontalSlowness><backazimuth><value>67.25905539981126</value></backazimuth><phaseHint>P</phaseHint><evaluationMode>automatic</evaluationMode><comment><text>7067.932150074639</text><id>DFX:rectilinearity</id></comment><comment><text>149.47921989689442</text><id>SNR</id></comment></pick><pick publicID="de.gempa.tb1.Pick/20250411214124.647779.120229"><time><value>2025-04-11T21:41:18.37Z</value></time><waveformID networkCode="CX" stationCode="PSGCX" channelCode="HHZ"/><filterID>ITAPER(4)&gt;&gt;BW(4,4,20)</filterID><methodID>AIC</methodID><horizontalSlowness><value>12.556177312412286</value></horizontalSlowness><backazimuth><value>118.2102552817238</value></backazimuth><phaseHint>P</phaseHint><evaluationMode>automatic</evaluationMode><comment><text>49.28660256906585</text><id>DFX:rectilinearity</id></comment><comment><text>37.8087240846147</text><id>SNR</id></comment></pick><pick publicID="de.gempa.tb1.Pick/20250411214126.727537.120231"><time><value>2025-04-11T21:41:21.648394Z</value></time><waveformID networkCode="CX" stationCode="PB15" channelCode="HHZ"/><filterID>ITAPER(4)&gt;&gt;BW(4,4,20)</filterID><methodID>AIC</methodID><horizontalSlowness><value>19.709522887273547</value></horizontalSlowness><backazimuth><value>78.66141146264725</value></backazimuth><phaseHint>P</phaseHint><evaluationMode>automatic</evaluationMode><comment><text>10238.567694676825</text><id>DFX:rectilinearity</id></comment><comment><text>154.24183396221267</text><id>SNR</id></comment></pick><pick publicID="de.gempa.tb1.Pick/20250411214127.702317.120233"><time><value>2025-04-11T21:41:21.258393Z</value></time><waveformID networkCode="CX" stationCode="PB01" channelCode="HHN"/><filterID>ITAPER(2)&gt;&gt;BW(3,3,20)</filterID><methodID>L2-AIC-GRID</methodID><horizontalSlowness><value>22.105900174646298</value></horizontalSlowness><backazimuth><value>346.9761498827497</value></backazimuth><phaseHint>S</phaseHint><evaluationMode>automatic</evaluationMode><comment><text>69797.04392635069</text><id>DFX:rectilinearity</id></comment><comment><text>de.gempa.tb1.Pick/20250411214110.807201.120215</text><id>RefPickID</id></comment><comment><text>13.074081611242836</text><id>SNR</id></comment></pick><pick publicID="de.gempa.tb1.Pick/20250411214133.12143.120234"><time><value>2025-04-11T21:41:27.008393Z</value></time><waveformID networkCode="CX" stationCode="PB08" channelCode="HHN"/><filterID>ITAPER(2)&gt;&gt;BW(3,3,20)</filterID><methodID>L2-AIC-GRID</methodID><horizontalSlowness><value>14.5742151059971</value></horizontalSlowness><backazimuth><value>212.48527935160377</value></backazimuth><phaseHint>S</phaseHint><evaluationMode>automatic</evaluationMode><comment><text>7723.202310739117</text><id>DFX:rectilinearity</id></comment><comment><text>de.gempa.tb1.Pick/20250411214115.242191.120217</text><id>RefPickID</id></comment><comment><text>9.461670186073224</text><id>SNR</id></comment></pick><pick publicID="de.gempa.tb1.Pick/20250411214134.566139.120235"><time><value>2025-04-11T21:41:29.34Z</value></time><waveformID networkCode="CX" stationCode="PB19" channelCode="HHZ"/><filterID>ITAPER(4)&gt;&gt;BW(4,4,20)</filterID><methodID>AIC</methodID><horizontalSlowness><value>6.296957471453155</value></horizontalSlowness><backazimuth><value>29.561117948922174</value></backazimuth><phaseHint>P</phaseHint><evaluationMode>automatic</evaluationMode><comment><text>1778.0884770054467</text><id>DFX:rectilinearity</id></comment><comment><text>198.26894512244525</text><id>SNR</id></comment></pick><pick publicID="de.gempa.tb1.Pick/20250411214134.767647.120237"><time><value>2025-04-11T21:41:27.898393Z</value></time><waveformID networkCode="CX" stationCode="PB02" channelCode="HHN"/><filterID>ITAPER(2)&gt;&gt;BW(3,3,20)</filterID><methodID>L2-AIC-GRID</methodID><horizontalSlowness><value>23.540893910143517</value></horizontalSlowness><backazimuth><value>233.13785729257765</value></backazimuth><phaseHint>S</phaseHint><evaluationMode>automatic</evaluationMode><comment><text>549756.9760232338</text><id>DFX:rectilinearity</id></comment><comment><text>de.gempa.tb1.Pick/20250411214115.594558.120219</text><id>RefPickID</id></comment><comment><text>8.760070277018523</text><id>SNR</id></comment></pick><pick publicID="de.gempa.tb1.Pick/20250411214137.189536.120238"><time><value>2025-04-11T21:41:29.72Z</value></time><waveformID networkCode="CX" stationCode="PB10" channelCode="HHZ"/><filterID>ITAPER(4)&gt;&gt;BW(4,4,20)</filterID><methodID>AIC</methodID><horizontalSlowness><value>9.704503285614472</value></horizontalSlowness><backazimuth><value>68.3674876322959</value></backazimuth><phaseHint>P</phaseHint><evaluationMode>automatic</evaluationMode><comment><text>83.89906435124719</text><id>DFX:rectilinearity</id></comment><comment><text>21.129911231644723</text><id>SNR</id></comment></pick><pick publicID="de.gempa.tb1.Pick/20250411214137.65888.120241"><time><value>2025-04-11T21:41:31.528394Z</value></time><waveformID networkCode="CX" stationCode="PB03" channelCode="HHN"/><filterID>ITAPER(2)&gt;&gt;BW(3,3,20)</filterID><methodID>L2-AIC-GRID</methodID><horizontalSlowness><value>22.52355789671503</value></horizontalSlowness><backazimuth><value>143.15691729669666</value></backazimuth><phaseHint>S</phaseHint><evaluationMode>automatic</evaluationMode><comment><text>70737.34498834686</text><id>DFX:rectilinearity</id></comment><comment><text>de.gempa.tb1.Pick/20250411214116.652291.120221</text><id>RefPickID</id></comment><comment><text>12.20301435838484</text><id>SNR</id></comment></pick><pick publicID="de.gempa.tb1.Pick/20250411214139.445357.120242"><time><value>2025-04-11T21:41:32.779999Z</value></time><waveformID networkCode="CX" stationCode="PATCX" channelCode="HHN"/><filterID>ITAPER(2)&gt;&gt;BW(3,3,20)</filterID><methodID>L2-AIC-GRID</methodID><horizontalSlowness><value>20.981650620753907</value></horizontalSlowness><backazimuth><value>119.10173407575576</value></backazimuth><phaseHint>S</phaseHint><evaluationMode>automatic</evaluationMode><comment><text>108579.18308269505</text><id>DFX:rectilinearity</id></comment><comment><text>de.gempa.tb1.Pick/20250411214118.458112.120225</text><id>RefPickID</id></comment><comment><text>18.554323031507156</text><id>SNR</id></comment></pick><pick publicID="de.gempa.tb1.Pick/20250411214140.415144.120243"><time><value>2025-04-11T21:41:10.538389Z</value></time><waveformID networkCode="CX" stationCode="PB07" channelCode="HHZ"/><filterID>ITAPER(4)&gt;&gt;BW(4,4,20)</filterID><methodID>AIC</methodID><horizontalSlowness><value>12.15938060185241</value></horizontalSlowness><backazimuth><value>108.92871970682585</value></backazimuth><phaseHint>P</phaseHint><evaluationMode>automatic</evaluationMode><comment><text>15490.964776401095</text><id>DFX:rectilinearity</id></comment><comment><text>559.7765767508548</text><id>SNR</id></comment></pick><pick publicID="de.gempa.tb1.Pick/20250411214148.591362.120252"><time><value>2025-04-11T21:41:40.918393Z</value></time><waveformID networkCode="CX" stationCode="PB06" channelCode="HHN"/><filterID>ITAPER(2)&gt;&gt;BW(3,3,20)</filterID><methodID>L2-AIC-GRID</methodID><horizontalSlowness><value>21.701396973815047</value></horizontalSlowness><backazimuth><value>292.07209454284634</value></backazimuth><phaseHint>S</phaseHint><evaluationMode>automatic</evaluationMode><comment><text>5270.506160107203</text><id>DFX:rectilinearity</id></comment><comment><text>de.gempa.tb1.Pick/20250411214120.719096.120227</text><id>RefPickID</id></comment><comment><text>6.909806325223234</text><id>SNR</id></comment></pick><pick publicID="de.gempa.tb1.Pick/20250411214152.593086.120253"><time><value>2025-04-11T21:41:44.26Z</value></time><waveformID networkCode="CX" stationCode="PSGCX" channelCode="HHN"/><filterID>ITAPER(2)&gt;&gt;BW(3,3,20)</filterID><methodID>L2-AIC-GRID</methodID><horizontalSlowness><value>18.944554468322295</value></horizontalSlowness><backazimuth><value>148.05954848478515</value></backazimuth><phaseHint>S</phaseHint><evaluationMode>automatic</evaluationMode><comment><text>6579.338830195123</text><id>DFX:rectilinearity</id></comment><comment><text>de.gempa.tb1.Pick/20250411214124.647779.120229</text><id>RefPickID</id></comment><comment><text>10.424196900065214</text><id>SNR</id></comment></pick><pick publicID="de.gempa.tb1.Pick/20250411214201.116518.120256"><time><value>2025-04-11T21:41:30.298389Z</value></time><waveformID networkCode="CX" stationCode="PB07" channelCode="HHN"/><filterID>ITAPER(2)&gt;&gt;BW(3,3,20)</filterID><methodID>L2-AIC-GRID</methodID><horizontalSlowness><value>21.107000696700378</value></horizontalSlowness><backazimuth><value>217.36055324951647</value></backazimuth><phaseHint>S</phaseHint><evaluationMode>automatic</evaluationMode><comment><text>1587557.0078952867</text><id>DFX:rectilinearity</id></comment><comment><text>de.gempa.tb1.Pick/20250411214140.415144.120243</text><id>RefPickID</id></comment><comment><text>7.72439534542442</text><id>SNR</id></comment></pick><pick publicID="de.gempa.tb1.Pick/20250411214212.971675.120259"><time><value>2025-04-11T21:42:03.39Z</value></time><waveformID networkCode="CX" stationCode="PB19" channelCode="HHN"/><filterID>ITAPER(2)&gt;&gt;BW(3,3,20)</filterID><methodID>L2-AIC-GRID</methodID><horizontalSlowness><value>22.554641814213234</value></horizontalSlowness><backazimuth><value>37.582769691156187</value></backazimuth><phaseHint>S</phaseHint><evaluationMode>automatic</evaluationMode><comment><text>6314.337249196386</text><id>DFX:rectilinearity</id></comment><comment><text>de.gempa.tb1.Pick/20250411214134.566139.120235</text><id>RefPickID</id></comment><comment><text>5.223123258945012</text><id>SNR</id></comment></pick><origin publicID="de.gempa.tb1.Origin/20250411214212.975112.66798"><time><value>2025-04-11T21:40:44.687463Z</value><uncertainty>0.6213285326957703</uncertainty></time><latitude><value>-21.110153198242188</value><uncertainty>2.4403977394104004</uncertainty></latitude><longitude><value>-68.74833679199219</value><uncertainty>6.937706470489502</uncertainty></longitude><depth><value>135.3363037109375</value><uncertainty>7.134885787963867</uncertainty></depth><depthType>from location</depthType><methodID>LOCSAT</methodID><earthModelID>iasp91_scanloc</earthModelID><quality><associatedPhaseCount>21</associatedPhaseCount><usedPhaseCount>21</usedPhaseCount><associatedStationCount>12</associatedStationCount><usedStationCount>12</usedStationCount><depthPhaseCount>0</depthPhaseCount><standardError>0.4891983018859355</standardError><azimuthalGap>211.67068481445312</azimuthalGap><maximumDistance>2.9182400703430176</maximumDistance><minimumDistance>0.6934162378311157</minimumDistance><medianDistance>1.3215011358261108</medianDistance></quality><uncertainty><minHorizontalUncertainty>5.217911720275879</minHorizontalUncertainty><maxHorizontalUncertainty>14.87560272216797</maxHorizontalUncertainty><azimuthMaxHorizontalUncertainty>88.47859954833984</azimuthMaxHorizontalUncertainty><preferredDescription>horizontal uncertainty</preferredDescription></uncertainty><evaluationMode>automatic</evaluationMode><evaluationStatus>confirmed</evaluationStatus><comment><text>0.03</text><id>mismatchScore</id></comment><comment><text>mismatchScore</text><id>scevalMethod</id></comment><arrival><pickID>de.gempa.tb1.Pick/20250411214110.807201.120215</pickID><phase>P</phase><azimuth>275.3785095214844</azimuth><distance>0.6934162378311157</distance><timeResidual>-0.2695350646972656</timeResidual><timeUsed>true</timeUsed><horizontalSlownessUsed>false</horizontalSlownessUsed><backazimuthUsed>false</backazimuthUsed><weight>1</weight></arrival><arrival><pickID>de.gempa.tb1.Pick/20250411214115.242191.120217</pickID><phase>P</phase><azimuth>338.44805908203125</azimuth><distance>1.0361065864562988</distance><timeResidual>0.30587196350097656</timeResidual><timeUsed>true</timeUsed><horizontalSlownessUsed>false</horizontalSlownessUsed><backazimuthUsed>false</backazimuthUsed><weight>1</weight></arrival><arrival><pickID>de.gempa.tb1.Pick/20250411214115.594558.120219</pickID><phase>P</phase><azimuth>258.77392578125</azimuth><distance>1.090959906578064</distance><timeResidual>0.35733795166015625</timeResidual><timeUsed>true</timeUsed><horizontalSlownessUsed>false</horizontalSlownessUsed><backazimuthUsed>false</backazimuthUsed><weight>1</weight></arrival><arrival><pickID>de.gempa.tb1.Pick/20250411214116.652291.120221</pickID><phase>P</phase><azimuth>224.8621063232422</azimuth><distance>1.3215011358261108</distance><timeResidual>0.12949180603027344</timeResidual><timeUsed>true</timeUsed><horizontalSlownessUsed>false</horizontalSlownessUsed><backazimuthUsed>false</backazimuthUsed><weight>1</weight></arrival><arrival><pickID>de.gempa.tb1.Pick/20250411214118.037249.120223</pickID><phase>P</phase><azimuth>213.86488342285156</azimuth><distance>0.8232221603393555</distance><timeResidual>0.12863922119140625</timeResidual><timeUsed>true</timeUsed><horizontalSlownessUsed>false</horizontalSlownessUsed><backazimuthUsed>false</backazimuthUsed><weight>1</weight></arrival><arrival><pickID>de.gempa.tb1.Pick/20250411214118.458112.120225</pickID><phase>P</phase><azimuth>282.1240539550781</azimuth><distance>1.3438929319381714</distance><timeResidual>1.1980743408203125</timeResidual><timeUsed>true</timeUsed><horizontalSlownessUsed>false</horizontalSlownessUsed><backazimuthUsed>false</backazimuthUsed><weight>1</weight></arrival><arrival><pickID>de.gempa.tb1.Pick/20250411214120.719096.120227</pickID><phase>P</phase><azimuth>205.56491088867188</azimuth><distance>1.762470245361328</distance><timeResidual>0.009599685668945312</timeResidual><timeUsed>true</timeUsed><horizontalSlownessUsed>false</horizontalSlownessUsed><backazimuthUsed>false</backazimuthUsed><weight>1</weight></arrival><arrival><pickID>de.gempa.tb1.Pick/20250411214124.647779.120229</pickID><phase>P</phase><azimuth>319.1659851074219</azimuth><distance>1.9823299646377563</distance><timeResidual>-0.3965644836425781</timeResidual><timeUsed>true</timeUsed><horizontalSlownessUsed>false</horizontalSlownessUsed><backazimuthUsed>false</backazimuthUsed><weight>1</weight></arrival><arrival><pickID>de.gempa.tb1.Pick/20250411214126.727537.120231</pickID><phase>P</phase><azimuth>197.65142822265625</azimuth><distance>2.1928954124450684</distance><timeResidual>0.3406352996826172</timeResidual><timeUsed>true</timeUsed><horizontalSlownessUsed>false</horizontalSlownessUsed><backazimuthUsed>false</backazimuthUsed><weight>1</weight></arrival><arrival><pickID>de.gempa.tb1.Pick/20250411214127.702317.120233</pickID><phase>S</phase><azimuth>275.3785095214844</azimuth><distance>0.6934162378311157</distance><timeResidual>-0.5257339477539062</timeResidual><timeUsed>true</timeUsed><horizontalSlownessUsed>false</horizontalSlownessUsed><backazimuthUsed>false</backazimuthUsed><weight>1</weight></arrival><arrival><pickID>de.gempa.tb1.Pick/20250411214133.12143.120234</pickID><phase>S</phase><azimuth>338.44805908203125</azimuth><distance>1.0361065864562988</distance><timeResidual>0.15180206298828125</timeResidual><timeUsed>true</timeUsed><horizontalSlownessUsed>false</horizontalSlownessUsed><backazimuthUsed>false</backazimuthUsed><weight>1</weight></arrival><arrival><pickID>de.gempa.tb1.Pick/20250411214134.566139.120235</pickID><phase>P</phase><azimuth>190.11874389648438</azimuth><distance>2.826197862625122</distance><timeResidual>0.07909202575683594</timeResidual><timeUsed>true</timeUsed><horizontalSlownessUsed>false</horizontalSlownessUsed><backazimuthUsed>false</backazimuthUsed><weight>1</weight></arrival><arrival><pickID>de.gempa.tb1.Pick/20250411214134.767647.120237</pickID><phase>S</phase><azimuth>258.77392578125</azimuth><distance>1.090959906578064</distance><timeResidual>0.13193893432617188</timeResidual><timeUsed>true</timeUsed><horizontalSlownessUsed>false</horizontalSlownessUsed><backazimuthUsed>false</backazimuthUsed><weight>1</weight></arrival><arrival><pickID>de.gempa.tb1.Pick/20250411214137.189536.120238</pickID><phase>P</ph