<?xml version="1.0" encoding="UTF-8"?>
<seiscomp xmlns="http://geofon.gfz-potsdam.de/ns/seiscomp3-schema/0.13" version="0.13"><EventParameters><pick publicID="de.gempa.tb1.Pick/20250413180637.338993.132983"><time><value>2025-04-13T18:06:30.19Z</value></time><waveformID networkCode="CX" stationCode="PB10" channelCode="HHZ"/><filterID>ITAPER(4)&gt;&gt;BW(4,4,20)</filterID><methodID>AIC</methodID><horizontalSlowness><value>12.915567539575665</value></horizontalSlowness><backazimuth><value>125.7854242853598</value></backazimuth><phaseHint>P</phaseHint><evaluationMode>automatic</evaluationMode><comment><text>129.48243021419498</text><id>DFX:rectilinearity</id></comment><comment><text>7.26128726872315</text><id>SNR</id></comment></pick><pick publicID="de.gempa.tb1.Pick/20250413180637.562759.132985"><time><value>2025-04-13T18:06:31.188393Z</value></time><waveformID networkCode="CX" stationCode="PB06" channelCode="HHZ"/><filterID>ITAPER(4)&gt;&gt;BW(4,4,20)</filterID><methodID>AIC</methodID><horizontalSlowness><value>15.650368166733317</value></horizontalSlowness><backazimuth><value>11.342126691396203</value></backazimuth><phaseHint>P</phaseHint><evaluationMode>automatic</evaluationMode><comment><text>22.63052032000476</text><id>DFX:rectilinearity</id></comment><comment><text>10.741469451606264</text><id>SNR</id></comment></pick><pick publicID="de.gempa.tb1.Pick/20250413180648.579725.132988"><time><value>2025-04-13T18:06:42.708393Z</value></time><waveformID networkCode="CX" stationCode="PB03" channelCode="HHZ"/><filterID>ITAPER(4)&gt;&gt;BW(4,4,20)</filterID><methodID>AIC</methodID><horizontalSlowness><value>12.81464912164617</value></horizontalSlowness><backazimuth><value>173.6844522701474</value></backazimuth><phaseHint>P</phaseHint><evaluationMode>automatic</evaluationMode><comment><text>49.08447436183178</text><id>DFX:rectilinearity</id></comment><comment><text>16.786249139269497</text><id>SNR</id></comment></pick><pick publicID="de.gempa.tb1.Pick/20250413180658.498717.132990"><time><value>2025-04-13T18:06:45.63Z</value></time><waveformID networkCode="CX" stationCode="PB09" channelCode="HHZ"/><filterID>ITAPER(4)&gt;&gt;BW(4,4,20)</filterID><methodID>AIC</methodID><horizontalSlowness><value>22.97179747112376</value></horizontalSlowness><backazimuth><value>321.23796552058457</value></backazimuth><phaseHint>P</phaseHint><evaluationMode>automatic</evaluationMode><comment><text>32.586460282401255</text><id>DFX:rectilinearity</id></comment><comment><text>26.79694393386572</text><id>SNR</id></comment></pick><pick publicID="de.gempa.tb1.Pick/20250413180659.374273.132993"><time><value>2025-04-13T18:06:48.168391Z</value></time><waveformID networkCode="CX" stationCode="PB07" channelCode="HHZ"/><filterID>ITAPER(4)&gt;&gt;BW(4,4,20)</filterID><methodID>AIC</methodID><horizontalSlowness><value>20.959895538641142</value></horizontalSlowness><backazimuth><value>261.9371667557201</value></backazimuth><phaseHint>P</phaseHint><evaluationMode>automatic</evaluationMode><comment><text>385.79609857156066</text><id>DFX:rectilinearity</id></comment><comment><text>12.468962466333796</text><id>SNR</id></comment></pick><pick publicID="de.gempa.tb1.Pick/20250413180706.562436.132995"><time><value>2025-04-13T18:06:58.288393Z</value></time><waveformID networkCode="CX" stationCode="PB01" channelCode="HHZ"/><filterID>ITAPER(4)&gt;&gt;BW(4,4,20)</filterID><methodID>AIC</methodID><horizontalSlowness><value>21.252257972956293</value></horizontalSlowness><backazimuth><value>189.65564437745087</value></backazimuth><phaseHint>P</phaseHint><evaluationMode>automatic</evaluationMode><comment><text>12.34563076735826</text><id>DFX:rectilinearity</id></comment><comment><text>8.478751596576446</text><id>SNR</id></comment></pick><origin publicID="de.gempa.tb1.Origin/20250413180706.566074.116942"><time><value>2025-04-13T18:06:13.508628Z</value><uncertainty>2.9299726486206055</uncertainty></time><latitude><value>-23.650108337402344</value><uncertainty>22.046754837036133</uncertainty></latitude><longitude><value>-69.60858917236328</value><uncertainty>14.738079071044922</uncertainty></longitude><depth><value>0</value></depth><depthType>operator assigned</depthType><methodID>LOCSAT</methodID><earthModelID>iasp91_scanloc</earthModelID><quality><associatedPhaseCount>6</associatedPhaseCount><usedPhaseCount>6</usedPhaseCount><associatedStationCount>6</associatedStationCount><usedStationCount>6</usedStationCount><depthPhaseCount>0</depthPhaseCount><standardError>0.8525562477637384</standardError><azimuthalGap>268.25686264038086</azimuthalGap><maximumDistance>2.596859931945801</maximumDistance><minimumDistance>0.8780600428581238</minimumDistance><medianDistance>1.8757939338684082</medianDistance></quality><uncertainty><minHorizontalUncertainty>11.386034965515137</minHorizontalUncertainty><maxHorizontalUncertainty>55.73078536987305</maxHorizontalUncertainty><azimuthMaxHorizontalUncertainty>147.2781219482422</azimuthMaxHorizontalUncertainty><preferredDescription>horizontal uncertainty</preferredDescription></uncertainty><evaluationMode>automatic</evaluationMode><evaluationStatus>confirmed</evaluationStatus><comment><text>0.43</text><id>mismatchScore</id></comment><comment><text>mismatchScore</text><id>scevalMethod</id></comment><arrival><pickID>de.gempa.tb1.Pick/20250413180637.338993.132983</pickID><phase>P</phase><azimuth>278.72552490234375</azimuth><distance>0.8780600428581238</distance><timeResidual>-0.15978431701660156</timeResidual><timeUsed>true</timeUsed><horizontalSlownessUsed>false</horizontalSlownessUsed><backazimuthUsed>false</backazimuthUsed><weight>1</weight></arrival><arrival><pickID>de.gempa.tb1.Pick/20250413180637.562759.132985</pickID><phase>P</phase><azimuth>2.0657310485839844</azimuth><distance>0.940537691116333</distance><timeResidual>-0.36069679260253906</timeResidual><timeUsed>true</timeUsed><horizontalSlownessUsed>false</horizontalSlownessUsed><backazimuthUsed>false</backazimuthUsed><weight>1</weight></arrival><arrival><pickID>de.gempa.tb1.Pick/20250413180648.579725.132988</pickID><phase>P</phase><azimuth>355.1919250488281</azimuth><distance>1.5996882915496826</distance><timeResidual>-0.33746910095214844</timeResidual><timeUsed>true</timeUsed><horizontalSlownessUsed>false</horizontalSlownessUsed><backazimuthUsed>false</backazimuthUsed><weight>1</weight></arrival><arrival><pickID>de.gempa.tb1.Pick/20250413180658.498717.132990</pickID><phase>P</phase><azimuth>10.46866226196289</azimuth><distance>1.8757939338684082</distance><timeResidual>-1.216136932373047</timeResidual><timeUsed>true</timeUsed><horizontalSlownessUsed>false</horizontalSlownessUsed><backazimuthUsed>false</backazimuthUsed><weight>1</weight></arrival><arrival><pickID>de.gempa.tb1.Pick/20250413180659.374273.132993</pickID><phase>P</phase><azimuth>352.31903076171875</azimuth><distance>1.931451439857483</distance><timeResidual>0.5561904907226562</timeResidual><timeUsed>true</timeUsed><horizontalSlownessUsed>false</horizontalSlownessUsed><backazimuthUsed>false</backazimuthUsed><weight>1</weight></arrival><arrival><pickID>de.gempa.tb1.Pick/20250413180706.562436.132995</pickID><phase>P</phase><azimuth>2.499408721923828</azimuth><distance>2.596859931945801</distance><timeResidual>1.517648696899414</timeResidual><timeUsed>true</timeUsed><horizontalSlownessUsed>false</horizontalSlownessUsed><backazimuthUsed>false</backazimuthUsed><weight>1</weight></arrival><magnitude publicID="de.gempa.tb1.Magnitude/20250413180741.181134.386975"><magnitude><value>2.5615329114549077</value></magnitude><type>M</type><methodID>weighted average</methodID><stationCount>5</stationCount></magnitude></origin><event publicID="gempa2025hhul"><preferredOriginID>de.gempa.tb1.Origin/20250413180706.566074.116942</preferredOriginID><preferredMagnitudeID>de.gempa.tb1.Magnitude/20250413180741.181134.386975</preferredMagnitudeID><description><text>Northern Chile</text><type>region name</type></description><originReference>de.gempa.tb1.Origin/20250413180706.566074.116942</originReference></event></EventParameters></seiscomp>