<?xml version="1.0" encoding="UTF-8"?>
<seiscomp xmlns="http://geofon.gfz-potsdam.de/ns/seiscomp3-schema/0.13" version="0.13"><EventParameters><pick publicID="de.gempa.tb1.Pick/20250413013237.552343.128054"><time><value>2025-04-13T01:32:32.698393Z</value></time><waveformID networkCode="CX" stationCode="PB03" channelCode="HHZ"/><filterID>ITAPER(4)&gt;&gt;BW(4,4,20)</filterID><methodID>AIC</methodID><horizontalSlowness><value>13.444940720969784</value></horizontalSlowness><backazimuth><value>197.03564498354746</value></backazimuth><phaseHint>P</phaseHint><evaluationMode>automatic</evaluationMode><comment><text>14.014545102057696</text><id>DFX:rectilinearity</id></comment><comment><text>8.137640080601335</text><id>SNR</id></comment></pick><pick publicID="de.gempa.tb1.Pick/20250413013240.493848.128056"><time><value>2025-04-13T01:32:33.228393Z</value></time><waveformID networkCode="CX" stationCode="PB01" channelCode="HHZ"/><filterID>ITAPER(4)&gt;&gt;BW(4,4,20)</filterID><methodID>AIC</methodID><horizontalSlowness><value>14.387138229833965</value></horizontalSlowness><backazimuth><value>333.6246425971044</value></backazimuth><phaseHint>P</phaseHint><evaluationMode>automatic</evaluationMode><comment><text>25.049440945847117</text><id>DFX:rectilinearity</id></comment><comment><text>9.460700726653098</text><id>SNR</id></comment></pick><pick publicID="de.gempa.tb1.Pick/20250413013241.337437.128058"><time><value>2025-04-13T01:32:29.14Z</value></time><waveformID networkCode="CX" stationCode="PB09" channelCode="HHZ"/><filterID>ITAPER(4)&gt;&gt;BW(4,4,20)</filterID><methodID>AIC</methodID><horizontalSlowness><value>13.477580686771024</value></horizontalSlowness><backazimuth><value>145.92550182653952</value></backazimuth><phaseHint>P</phaseHint><evaluationMode>automatic</evaluationMode><comment><text>18.255528655304385</text><id>DFX:rectilinearity</id></comment><comment><text>8.258513711278939</text><id>SNR</id></comment></pick><pick publicID="de.gempa.tb1.Pick/20250413013241.560287.128060"><time><value>2025-04-13T01:32:35.338393Z</value></time><waveformID networkCode="CX" stationCode="PB02" channelCode="HHZ"/><filterID>ITAPER(4)&gt;&gt;BW(4,4,20)</filterID><methodID>AIC</methodID><horizontalSlowness><value>8.252244422735712</value></horizontalSlowness><backazimuth><value>328.98364904582576</value></backazimuth><phaseHint>P</phaseHint><evaluationMode>automatic</evaluationMode><comment><text>30.27318015114399</text><id>DFX:rectilinearity</id></comment><comment><text>7.774218280540719</text><id>SNR</id></comment></pick><pick publicID="de.gempa.tb1.Pick/20250413013247.737277.128062"><time><value>2025-04-13T01:32:34.028394Z</value></time><waveformID networkCode="CX" stationCode="PB07" channelCode="HHZ"/><filterID>ITAPER(4)&gt;&gt;BW(4,4,20)</filterID><methodID>AIC</methodID><horizontalSlowness><value>21.224793925005446</value></horizontalSlowness><backazimuth><value>257.3548507571467</value></backazimuth><phaseHint>P</phaseHint><evaluationMode>automatic</evaluationMode><comment><text>303.16232425110883</text><id>DFX:rectilinearity</id></comment><comment><text>28.87524735791587</text><id>SNR</id></comment></pick><pick publicID="de.gempa.tb1.Pick/20250413013308.589263.128066"><time><value>2025-04-13T01:33:00.668393Z</value></time><waveformID networkCode="CX" stationCode="PB03" channelCode="HHN"/><filterID>ITAPER(2)&gt;&gt;BW(3,3,20)</filterID><methodID>L2-AIC-GRID</methodID><horizontalSlowness><value>9.264716897622494</value></horizontalSlowness><backazimuth><value>250.73695270911617</value></backazimuth><phaseHint>S</phaseHint><evaluationMode>automatic</evaluationMode><comment><text>16.873423741661988</text><id>DFX:rectilinearity</id></comment><comment><text>de.gempa.tb1.Pick/20250413013237.552343.128054</text><id>RefPickID</id></comment><comment><text>12.718672391950363</text><id>SNR</id></comment></pick><pick publicID="de.gempa.tb1.Pick/20250413013323.765094.128068"><time><value>2025-04-13T01:33:03.808394Z</value></time><waveformID networkCode="CX" stationCode="PB07" channelCode="HHN"/><filterID>ITAPER(2)&gt;&gt;BW(3,3,20)</filterID><methodID>L2-AIC-GRID</methodID><horizontalSlowness><value>21.91550182281576</value></horizontalSlowness><backazimuth><value>291.78685132122757</value></backazimuth><phaseHint>S</phaseHint><evaluationMode>automatic</evaluationMode><comment><text>429.69229277819875</text><id>DFX:rectilinearity</id></comment><comment><text>de.gempa.tb1.Pick/20250413013247.737277.128062</text><id>RefPickID</id></comment><comment><text>5.642835697664165</text><id>SNR</id></comment></pick><origin publicID="de.gempa.tb1.Origin/20250413013323.768407.97421"><time><value>2025-04-13T01:31:56.79749Z</value><uncertainty>1.5689173936843872</uncertainty></time><latitude><value>-22.0577449798584</value><uncertainty>23.35807228088379</uncertainty></latitude><longitude><value>-67.98477935791016</value><uncertainty>31.07602882385254</uncertainty></longitude><depth><value>209.8021697998047</value><uncertainty>32.359546661376953</uncertainty></depth><depthType>from location</depthType><methodID>LOCSAT</methodID><earthModelID>iasp91_scanloc</earthModelID><quality><associatedPhaseCount>7</associatedPhaseCount><usedPhaseCount>7</usedPhaseCount><associatedStationCount>5</associatedStationCount><usedStationCount>5</usedStationCount><depthPhaseCount>0</depthPhaseCount><standardError>0.1777305518402369</standardError><azimuthalGap>324.4505615234375</azimuthalGap><maximumDistance>1.9232739210128784</maximumDistance><minimumDistance>1.195908784866333</minimumDistance><medianDistance>1.725057601928711</medianDistance></quality><uncertainty><minHorizontalUncertainty>49.90308380126953</minHorizontalUncertainty><maxHorizontalUncertainty>66.78312683105469</maxHorizontalUncertainty><azimuthMaxHorizontalUncertainty>84.39291381835938</azimuthMaxHorizontalUncertainty><preferredDescription>horizontal uncertainty</preferredDescription></uncertainty><evaluationMode>automatic</evaluationMode><evaluationStatus>confirmed</evaluationStatus><comment><text>0.10</text><id>mismatchScore</id></comment><comment><text>mismatchScore</text><id>scevalMethod</id></comment><arrival><pickID>de.gempa.tb1.Pick/20250413013237.552343.128054</pickID><phase>P</phase><azimuth>269.9922790527344</azimuth><distance>1.6405019760131836</distance><timeResidual>0.06176376342773438</timeResidual><timeUsed>true</timeUsed><horizontalSlownessUsed>false</horizontalSlownessUsed><backazimuthUsed>false</backazimuthUsed><weight>1</weight></arrival><arrival><pickID>de.gempa.tb1.Pick/20250413013240.493848.128056</pickID><phase>P</phase><azimuth>305.5417175292969</azimuth><distance>1.725057601928711</distance><timeResidual>-0.19472885131835938</timeResidual><timeUsed>true</timeUsed><horizontalSlownessUsed>false</horizontalSlownessUsed><backazimuthUsed>false</backazimuthUsed><weight>1</weight></arrival><arrival><pickID>de.gempa.tb1.Pick/20250413013241.337437.128058</pickID><phase>P</phase><azimuth>282.32781982421875</azimuth><distance>1.195908784866333</distance><timeResidual>0.18331527709960938</timeResidual><timeUsed>true</timeUsed><horizontalSlownessUsed>false</horizontalSlownessUsed><backazimuthUsed>false</backazimuthUsed><weight>1</weight></arrival><arrival><pickID>de.gempa.tb1.Pick/20250413013241.560287.128060</pickID><phase>P</phase><azimuth>292.09515380859375</azimuth><distance>1.9232739210128784</distance><timeResidual>0.019565582275390625</timeResidual><timeUsed>true</timeUsed><horizontalSlownessUsed>false</horizontalSlownessUsed><backazimuthUsed>false</backazimuthUsed><weight>1</weight></arrival><arrival><pickID>de.gempa.tb1.Pick/20250413013247.737277.128062</pickID><phase>P</phase><azimuth>280.21484375</azimuth><distance>1.796378493309021</distance><timeResidual>-0.0587921142578125</timeResidual><timeUsed>true</timeUsed><horizontalSlownessUsed>false</horizontalSlownessUsed><backazimuthUsed>false</backazimuthUsed><weight>1</weight></arrival><arrival><pickID>de.gempa.tb1.Pick/20250413013308.589263.128066</pickID><phase>S</phase><azimuth>269.9922790527344</azimuth><distance>1.6405019760131836</distance><timeResidual>-0.27185821533203125</timeResidual><timeUsed>true</timeUsed><horizontalSlownessUsed>false</horizontalSlownessUsed><backazimuthUsed>false</backazimuthUsed><weight>1</weight></arrival><arrival><pickID>de.gempa.tb1.Pick/20250413013323.765094.128068</pickID><phase>S</phase><azimuth>280.21484375</azimuth><distance>1.796378493309021</distance><timeResidual>0.2608299255371094</timeResidual><timeUsed>true</timeUsed><horizontalSlownessUsed>false</horizontalSlownessUsed><backazimuthUsed>false</backazimuthUsed><weight>1</weight></arrival><magnitude publicID="de.gempa.tb1.Magnitude/20250413013426.186969.299382"><magnitude><value>2.872903310835692</value></magnitude><type>M</type><methodID>weighted average</methodID><stationCount>2</stationCount></magnitude></origin><event publicID="gempa2025hgnh"><preferredOriginID>de.gempa.tb1.Origin/20250413013323.768407.97421</preferredOriginID><preferredMagnitudeID>de.gempa.tb1.Magnitude/20250413013426.186969.299382</preferredMagnitudeID><description><text>Chile-Bolivia Border Region</text><type>region name</type></description><originReference>de.gempa.tb1.Origin/20250413013323.768407.97421</originReference></event></EventParameters></seiscomp>