<?xml version="1.0" encoding="UTF-8"?>
<seiscomp xmlns="http://geofon.gfz-potsdam.de/ns/seiscomp3-schema/0.13" version="0.13"><EventParameters><pick publicID="de.gempa.tb1.Pick/20250413022911.357011.121368"><time><value>2025-04-13T02:28:47.519538Z</value></time><waveformID networkCode="GE" stationCode="LHMI" channelCode="BHZ"/><filterID>BW(4,0.7,2)</filterID><methodID>AIC</methodID><horizontalSlowness><value>4.498283866206938</value></horizontalSlowness><backazimuth><value>133.50799983997786</value></backazimuth><phaseHint>P</phaseHint><evaluationMode>automatic</evaluationMode><comment><text>14447.282561880213</text><id>DFX:rectilinearity</id></comment></pick><pick publicID="de.gempa.tb1.Pick/20250413023149.288308.121373"><time><value>2025-04-13T02:31:22.17186Z</value></time><waveformID networkCode="GE" stationCode="SMRI" channelCode="BHZ"/><filterID>BW(4,0.7,2)</filterID><methodID>AIC</methodID><horizontalSlowness><value>0.9414012953815846</value></horizontalSlowness><backazimuth><value>228.14222712156263</value></backazimuth><phaseHint>P</phaseHint><evaluationMode>automatic</evaluationMode><comment><text>29915.509571752587</text><id>DFX:rectilinearity</id></comment></pick><pick publicID="de.gempa.tb1.Pick/20250413023207.188218.121376"><time><value>2025-04-13T02:31:46.269536Z</value></time><waveformID networkCode="GE" stationCode="JAGI" channelCode="BHZ"/><filterID>BW(4,0.7,2)</filterID><methodID>AIC</methodID><horizontalSlowness><value>5.841029753634824</value></horizontalSlowness><backazimuth><value>245.6281266424081</value></backazimuth><phaseHint>P</phaseHint><evaluationMode>automatic</evaluationMode><comment><text>4520.335666683463</text><id>DFX:rectilinearity</id></comment></pick><pick publicID="de.gempa.tb1.Pick/20250413023211.625585.121378"><time><value>2025-04-13T02:31:45.519538Z</value></time><waveformID networkCode="GE" stationCode="LUWI" channelCode="BHZ"/><filterID>BW(4,0.7,2)</filterID><methodID>AIC</methodID><horizontalSlowness><value>8.286042222377969</value></horizontalSlowness><backazimuth><value>159.7177144984332</value></backazimuth><phaseHint>P</phaseHint><evaluationMode>automatic</evaluationMode><comment><text>11724.517404948916</text><id>DFX:rectilinearity</id></comment></pick><pick publicID="de.gempa.tb1.Pick/20250413023236.63861.121382"><time><value>2025-04-13T02:32:09.519536Z</value></time><waveformID networkCode="GE" stationCode="SANI" channelCode="BHZ"/><filterID>BW(4,0.7,2)</filterID><methodID>AIC</methodID><horizontalSlowness><value>16.007245010426008</value></horizontalSlowness><backazimuth><value>315.09056673017483</value></backazimuth><phaseHint>P</phaseHint><evaluationMode>automatic</evaluationMode><comment><text>37.774918644300783</text><id>DFX:rectilinearity</id></comment></pick><pick publicID="de.gempa.tb1.Pick/20250413023256.411486.121384"><time><value>2025-04-13T02:32:41.92186Z</value></time><waveformID networkCode="GE" stationCode="SOEI" channelCode="BHZ"/><filterID>BW(4,0.7,2)</filterID><methodID>AIC</methodID><horizontalSlowness><value>0.7026712551039105</value></horizontalSlowness><backazimuth><value>338.9065111412217</value></backazimuth><phaseHint>P</phaseHint><evaluationMode>automatic</evaluationMode><comment><text>2572.615611126559</text><id>DFX:rectilinearity</id></comment></pick><pick publicID="de.gempa.tb1.Pick/20250413023308.310625.121389"><time><value>2025-04-13T02:32:56.469538Z</value></time><waveformID networkCode="GE" stationCode="FAKI" channelCode="BHZ"/><filterID>BW(4,0.7,2)</filterID><methodID>AIC</methodID><horizontalSlowness><value>6.009424962171797</value></horizontalSlowness><backazimuth><value>311.87619814068393</value></backazimuth><phaseHint>P</phaseHint><evaluationMode>automatic</evaluationMode><comment><text>346.9471705858807</text><id>DFX:rectilinearity</id></comment></pick><pick publicID="de.gempa.tb1.Pick/20250413023449.689713.121395"><time><value>2025-04-13T02:34:31.95Z</value></time><waveformID networkCode="GE" stationCode="EIL" channelCode="BHZ"/><filterID>BW(4,0.7,2)</filterID><methodID>AIC</methodID><horizontalSlowness><value>5.145169900631119</value></horizontalSlowness><backazimuth><value>35.47835394238888</value></backazimuth><phaseHint>P</phaseHint><evaluationMode>automatic</evaluationMode><comment><text>63.25442991173695</text><id>DFX:rectilinearity</id></comment></pick><pick publicID="de.gempa.tb1.Pick/20250413023510.397491.121399"><time><value>2025-04-13T02:34:38.3Z</value></time><waveformID networkCode="GE" stationCode="CSS" channelCode="BHZ"/><filterID>BW(4,0.7,2)</filterID><methodID>AIC</methodID><horizontalSlowness><value>5.559444340198433</value></horizontalSlowness><backazimuth><value>232.26356038384347</value></backazimuth><phaseHint>P</phaseHint><evaluationMode>automatic</evaluationMode><comment><text>223.94533780022695</text><id>DFX:rectilinearity</id></comment></pick><pick publicID="de.gempa.tb1.Pick/20250413023540.85442.121403"><time><value>2025-04-13T02:35:09.99Z</value></time><waveformID networkCode="PL" stationCode="SUW" channelCode="HHZ"/><methodID>AIC</methodID><horizontalSlowness><value>23.511200950136303</value></horizontalSlowness><backazimuth><value>69.2538780964975</value></backazimuth><phaseHint>P</phaseHint><evaluationMode>automatic</evaluationMode><comment><text>4.502804112012922</text><id>DFX:rectilinearity</id></comment></pick><pick publicID="de.gempa.tb1.Pick/20250413023545.248828.121405"><time><value>2025-04-13T02:35:22.595Z</value></time><waveformID networkCode="FN" stationCode="SGF" channelCode="BHZ"/><filterID>BW(4,0.7,2)</filterID><methodID>AIC</methodID><horizontalSlowness><value>8.499294263250496</value></horizontalSlowness><backazimuth><value>101.01751899640877</value></backazimuth><phaseHint>P</phaseHint><evaluationMode>automatic</evaluationMode><comment><text>251.5697492427419</text><id>DFX:rectilinearity</id></comment></pick><pick publicID="de.gempa.tb1.Pick/20250413023553.105664.121412"><time><value>2025-04-13T02:35:33.519538Z</value></time><waveformID networkCode="RO" stationCode="BZS" channelCode="BHZ"/><filterID>BW(4,0.7,2)</filterID><methodID>AIC</methodID><horizontalSlowness><value>1.5721198371555536</value></horizontalSlowness><backazimuth><value>38.45795912481296</value></backazimuth><phaseHint>P</phaseHint><evaluationMode>automatic</evaluationMode><comment><text>7.972918042386827</text><id>DFX:rectilinearity</id></comment></pick><pick publicID="de.gempa.tb1.Pick/20250413023555.191645.121416"><time><value>2025-04-13T02:35:14.282035Z</value></time><waveformID networkCode="RO" stationCode="MLR" channelCode="BHZ"/><filterID>BW(4,0.7,2)</filterID><methodID>AIC</methodID><horizontalSlowness><value>1.9136238675044188</value></horizontalSlowness><backazimuth><value>183.23865401480273</value></backazimuth><phaseHint>P</phaseHint><evaluationMode>automatic</evaluationMode><comment><text>600.2724841570348</text><id>DFX:rectilinearity</id></comment></pick><pick publicID="de.gempa.tb1.Pick/20250413023605.136597.121421"><time><value>2025-04-13T02:35:16.294538Z</value></time><waveformID networkCode="GE" stationCode="KMBO" locationCode="00" channelCode="BHZ"/><filterID>BW(4,0.7,2)</filterID><methodID>AIC</methodID><horizontalSlowness><value>8.223368509239434</value></horizontalSlowness><backazimuth><value>283.94373951574926</value></backazimuth><phaseHint>P</phaseHint><evaluationMode>automatic</evaluationMode><comment><text>3.003524310625878</text><id>DFX:rectilinearity</id></comment></pick><pick publicID="de.gempa.tb1.Pick/20250413023611.506214.121426"><time><value>2025-04-13T02:35:39.945Z</value></time><waveformID networkCode="GE" stationCode="PSZ" channelCode="BHZ"/><filterID>BW(4,0.7,2)</filterID><methodID>AIC</methodID><horizontalSlowness><value>13.264819309816106</value></horizontalSlowness><backazimuth><value>142.3067510299054</value></backazimuth><phaseHint>P</phaseHint><evaluationMode>automatic</evaluationMode><comment><text>7.37862171095685</text><id>DFX:rectilinearity</id></comment></pick><pick publicID="de.gempa.tb1.Pick/20250413023614.378474.121429"><time><value>2025-04-13T02:36:01.188393Z</value></time><waveformID networkCode="CZ" stationCode="PRU" channelCode="HHZ"/><filterID>BW(4,0.7,2)</filterID><methodID>AIC</methodID><horizontalSlowness><value>9.03077497849481</value><uncertainty>2.9850856950482836</uncertainty></horizontalSlowness><backazimuth><value>87.12698422893365</value><uncertainty>19.02618243697034</uncertainty></backazimuth><phaseHint>P</phaseHint><evaluationMode>automatic</evaluationMode><comment><text>1.0358640015125853</text><id>DFX:rectilinearity</id></comment></pick><pick publicID="de.gempa.tb1.Pick/20250413023624.394047.121431"><time><value>2025-04-13T02:36:05.65Z</value></time><waveformID networkCode="CZ" stationCode="KHC" channelCode="HHZ"/><filterID>BW(4,0.7,2)</filterID><methodID>AIC</methodID><horizontalSlowness><value>7.854519437358065</value><uncertainty>7.17356607479773</uncertainty></horizontalSlowness><backazimuth><value>56.79764769946767</value><uncertainty>54.34257142626247</uncertainty></backazimuth><phaseHint>P</phaseHint><evaluationMode>automatic</evaluationMode><comment><text>0.347605771626704</text><id>DFX:rectilinearity</id></comment></pick><pick publicID="de.gempa.tb1.Pick/20250413023631.094626.121434"><time><value>2025-04-13T02:36:13.869538Z</value></time><waveformID networkCode="MN" stationCode="AQU" channelCode="BHZ"/><filterID>BW(4,0.7,2)</filterID><methodID>AIC</methodID><horizontalSlowness><value>3.008640422373104</value></horizontalSlowness><backazimuth><value>135.51348356497937</value></backazimuth><phaseHint>P</phaseHint><evaluationMode>automatic</evaluationMode><comment><text>35.341446771501587</text><id>DFX:rectilinearity</id></comment></pick><pick publicID="de.gempa.tb1.Pick/20250413023636.116924.121437"><time><value>2025-04-13T02:36:05.719538Z</value></time><waveformID networkCode="MN" stationCode="CUC" channelCode="BHZ"/><filterID>BW(4,0.7,2)</filterID><methodID>AIC</methodID><horizontalSlowness><value>21.080107352898548</value></horizontalSlowness><backazimuth><value>326.87464710579604</value></backazimuth><phaseHint>P</phaseHint><evaluationMode>automatic</evaluationMode><comment><text>46.09418422249288</text><id>DFX:rectilinearity</id></comment></pick><pick publicID="de.gempa.tb1.Pick/20250413023645.219521.121440"><time><value>2025-04-13T02:36:23.045Z</value></time><waveformID networkCode="GE" stationCode="STU" channelCode="BHZ"/><filterID>BW(4,0.7,2)</filterID><methodID>AIC</methodID><horizontalSlowness><value>23.254116365911226</value></horizontalSlowness><backazimuth><value>46.22564845239856</value></backazimuth><phaseHint>P</phaseHint><evaluationMode>automatic</evaluationMode><comment><text>165.4526101591043</text><id>DFX:rectilinearity</id></comment></pick><pick publicID="de.gempa.tb1.Pick/20250413023651.953609.121443"><time><value>2025-04-13T02:36:01.545Z</value></time><waveformID networkCode="GE" stationCode="RUE" channelCode="BHZ"/><filterID>BW(4,0.7,2)</filterID><methodID>AIC</methodID><horizontalSlowness><value>4.308799328487819</value></horizontalSlowness><backazimuth><value>113.3646610698659</value></backazimuth><phaseHint>P</phaseHint><evaluationMode>automatic</evaluationMode><comment><text>159.01232870428208</text><id>DFX:rectilinearity</id></comment></pick><pick publicID="de.gempa.tb1.Pick/20250413023700.09608.121447"><time><value>2025-04-13T02:36:38.469538Z</value></time><waveformID networkCode="MN" stationCode="VLC" channelCode="BHZ"/><filterID>BW(4,0.7,2)</filterID><methodID>AIC</methodID><horizontalSlowness><value>2.981348134796834</value></horizontalSlowness><backazimuth><value>78.61358627768234</value></backazimuth><phaseHint>P</phaseHint><evaluationMode>automatic</evaluationMode><comment><text>44.090538413491856</text><id>DFX:rectilinearity</id></comment></pick><pick publicID="de.gempa.tb1.Pick/20250413023708.064891.121451"><time><value>2025-04-13T02:36:34.3Z</value></time><waveformID networkCode="GE" stationCode="WLF" channelCode="BHZ"/><filterID>BW(4,0.7,2)</filterID><methodID>AIC</methodID><horizontalSlowness><value>7.457772805684126</value></horizontalSlowness><backazimuth><value>47.61365491169656</value></backazimuth><phaseHint>P</phaseHint><evaluationMode>automatic</evaluationMode><comment><text>38.17377448884559</text><id>DFX:rectilinearity</id></comment></pick><pick publicID="de.gempa.tb1.Pick/20250413023721.410821.121453"><time><value>2025-04-13T02:36:38.125Z</value></time><waveformID networkCode="GE" stationCode="DAG" channelCode="BHZ"/><filterID>BW(4,0.7,2)</filterID><methodID>AIC</methodID><horizontalSlowness><value>7.425627104339747</value></horizontalSlowness><backazimuth><value>72.39806641870712</value></backazimuth><phaseHint>P</phaseHint><evaluationMode>automatic</evaluationMode><comment><text>1773.2241044095579</text><id>DFX:rectilinearity</id></comment></pick><pick publicID="de.gempa.tb1.Pick/20250413023832.32638.121460"><time><value>2025-04-13T02:37:41.645Z</value></time><waveformID networkCode="GE" stationCode="MTE" channelCode="BHZ"/><filterID>BW(4,0.7,2)</filterID><methodID>AIC</methodID><horizontalSlowness><value>1.5299547905449367</value></horizontalSlowness><backazimuth><value>168.93562907724342</value></backazimuth><phaseHint>P</phaseHint><evaluationMode>automatic</evaluationMode><comment><text>36.679899358754717</text><id>DFX:rectilinearity</id></comment></pick><pick publicID="de.gempa.tb1.Pick/20250413023916.368714.121465"><time><value>2025-04-13T02:36:10.619538Z</value></time><waveformID networkCode="GR" stationCode="MOX" channelCode="BHZ"/><filterID>BW(4,0.7,2)</filterID><methodID>AIC</methodID><horizontalSlowness><value>8.664131089731582</value><uncertainty>7.505663298436784</uncertainty></horizontalSlowness><backazimuth><value>112.30731531585114</value><uncertainty>51.33472859999589</uncertainty></backazimuth><phaseHint>P</phaseHint><evaluationMode>automatic</evaluationMode><comment><text>0.26875111298572</text><id>DFX:rectilinearity</id></comment></pick><pick publicID="de.gempa.tb1.Pick/20250413023918.00139.121468"><time><value>2025-04-13T02:36:08.52Z</value></time><waveformID networkCode="GR" stationCode="WET" channelCode="BHZ"/><filterID>BW(4,0.7,2)</filterID><methodID>AIC</methodID><horizontalSlowness><value>8.923059910377948</value></horizontalSlowness><backazimuth><value>88.37857740873811</value></backazimuth><phaseHint>P</phaseHint><evaluationMode>automatic</evaluationMode><comment><text>10.395864675457558</text><id>DFX:rectilinearity</id></comment></pick><pick publicID="de.gempa.tb1.Pick/20250413023918.136584.121472"><time><value>2025-04-13T02:36:13.69Z</value></time><waveformID networkCode="GR" stationCode="BSEG" channelCode="BHZ"/><filterID>BW(4,0.7,2)</filterID><methodID>AIC</methodID><horizontalSlowness><value>20.21475483841568</value></horizontalSlowness><backazimuth><value>355.3196020063191</value></backazimuth><phaseHint>P</phaseHint><evaluationMode>automatic</evaluationMode><comment><text>144.45622824600682</text><id>DFX:rectilinearity</id></comment></pick><pick publicID="de.gempa.tb1.Pick/20250413023955.26754.121479"><time><value>2025-04-13T02:36:20.889999Z</value></time><waveformID networkCode="GR" stationCode="GRA2" channelCode="BHZ"/><filterID>BW(4,0.7,2)</filterID><methodID>AIC</methodID><horizontalSlowness><value>3.6284677111666754</value></horizontalSlowness><backazimuth><value>271.5264943290689</value></backazimuth><phaseHint>P</phaseHint><evaluationMode>automatic</evaluationMode><comment><text>10.616849995314563</text><id>DFX:rectilinearity</id></comment></pick><pick publicID="de.gempa.tb1.Pick/20250413023955.267889.121481"><time><value>2025-04-13T02:36:13.995Z</value></time><waveformID networkCode="GR" stationCode="GRB2" channelCode="BHZ"/><filterID>BW(4,0.7,2)</filterID><methodID>AIC</methodID><horizontalSlowness><value>1.4171197687297106</value></horizontalSlowness><backazimuth><value>350.46972539735367</value></backazimuth><phaseHint>P</phaseHint><evaluationMode>automatic</evaluationMode><comment><text>70.77275679996987</text><id>DFX:rectilinearity</id></comment></pick><pick publicID="de.gempa.tb1.Pick/20250413023955.269044.121483"><time><value>2025-04-13T02:36:15.455Z</value></time><waveformID networkCode="GR" stationCode="GRA1" channelCode="BHZ"/><filterID>BW(4,0.7,2)</filterID><methodID>AIC</methodID><horizontalSlowness><value>5.69854452948982</value></horizontalSlowness><backazimuth><value>162.663741722467</value></backazimuth><phaseHint>P</phaseHint><evaluationMode>automatic</evaluationMode><comment><text>18.834346399542842</text><id>DFX:rectilinearity</id></comment></pick><pick publicID="de.gempa.tb1.Pick/20250413023955.695036.121493"><time><value>2025-04-13T02:36:08.52Z</value></time><waveformID networkCode="BW" stationCode="ROTZ" channelCode="HHZ"/><methodID>AIC</methodID><horizontalSlowness><value>4.942332831234267</value></horizontalSlowness><backazimuth><value>76.83436006479893</value></backazimuth><phaseHint>P</phaseHint><evaluationMode>automatic</evaluationMode><comment><text>24.89188874431178</text><id>DFX:rectilinearity</id></comment></pick><origin publicID="de.gempa.tb1.Origin/20250413023955.740875.131634"><time><value>2025-04-13T02:24:57.837287Z</value><uncertainty>0.21268467605113983</uncertainty></time><latitude><value>21.52322769165039</value><uncertainty>6.504116535186768</uncertainty></latitude><longitude><value>96.27715301513672</value><uncertainty>7.504802703857422</uncertainty></longitude><depth><value>10</value><uncertainty>0</uncertainty></depth><methodID>LOCSAT</methodID><earthModelID>iasp91</earthModelID><quality><associatedPhaseCount>32</associatedPhaseCount><usedPhaseCount>27</usedPhaseCount><associatedStationCount>32</associatedStationCount><usedStationCount>27</usedStationCount><standardError>1.1022449559336727</standardError><azimuthalGap>132.81736755371094</azimuthalGap><maximumDistance>86.07003784179688</maximumDistance><minimumDistance>16.30735969543457</minimumDistance><medianDistance>65.22367858886719</medianDistance></quality><evaluationMode>automatic</evaluationMode><evaluationStatus>confirmed</evaluationStatus><comment><text>0.13</text><id>mismatchScore</id></comment><comment><text>mismatchScore</text><id>scevalMethod</id></comment><arrival><pickID>de.gempa.tb1.Pick/20250413022911.357011.121368</pickID><phase>P</phase><azimuth>177.62301635742188</azimuth><distance>16.30735969543457</distance><timeResidual>1.673248291015625</timeResidual><timeUsed>true</timeUsed><horizontalSlownessUsed>true</horizontalSlownessUsed><backazimuthUsed>true</backazimuthUsed><weight>1</weight></arrival><arrival><pickID>de.gempa.tb1.Pick/20250413023149.288308.121373</pickID><phase>P</phase><azimuth>152.5355682373047</azimuth><distance>31.77217674255371</distance><timeResidual>1.0835418701171875</timeResidual><timeUsed>true</timeUsed><horizontalSlownessUsed>true</horizontalSlownessUsed><backazimuthUsed>true</backazimuthUsed><weight>1</weight></arrival><arrival><pickID>de.gempa.tb1.Pick/20250413023207.188218.121376</pickID><phase>P</phase><azimuth>147.8153839111328</azimuth><distance>34.747955322265625</distance><timeResidual>-0.754486083984375</timeResidual><timeUsed>true</timeUsed><horizontalSlownessUsed>true</horizontalSlownessUsed><backazimuthUsed>true</backazimuthUsed><weight>1</weight></arrival><arrival><pickID>de.gempa.tb1.Pick/20250413023211.625585.121378</pickID><phase>P</phase><azimuth>127.73772430419922</azimuth><distance>34.33428192138672</distance><timeResidual>1.3701171875</timeResidual><timeUsed>true</timeUsed><horizontalSlownessUsed>true</horizontalSlownessUsed><backazimuthUsed>true</backazimuthUsed><weight>1</weight></arrival><arrival><pickID>de.gempa.tb1.Pick/20250413023236.63861.121382</pickID><phase>P</phase><azimuth>125.37828063964844</azimuth><distance>37.407543182373047</distance><timeResidual>-0.980438232421875</timeResidual><timeUsed>true</timeUsed><horizontalSlownessUsed>true</horizontalSlownessUsed><backazimuthUsed>true</backazimuthUsed><weight>1</weight></arrival><arrival><pickID>de.gempa.tb1.Pick/202504130232