<?xml version="1.0" encoding="UTF-8"?>
<seiscomp xmlns="http://geofon.gfz-potsdam.de/ns/seiscomp3-schema/0.13" version="0.13"><EventParameters><pick publicID="de.gempa.tb1.Pick/20250414045700.636843.135782"><time><value>2025-04-14T04:56:53.69Z</value></time><waveformID networkCode="CX" stationCode="PB19" channelCode="HHZ"/><filterID>ITAPER(4)&gt;&gt;BW(4,4,20)</filterID><methodID>AIC</methodID><horizontalSlowness><value>20.05466305623617</value></horizontalSlowness><backazimuth><value>158.09505608433423</value></backazimuth><phaseHint>P</phaseHint><evaluationMode>automatic</evaluationMode><comment><text>13.844517041440701</text><id>DFX:rectilinearity</id></comment><comment><text>11.386173427418898</text><id>SNR</id></comment></pick><pick publicID="de.gempa.tb1.Pick/20250414045702.566581.135784"><time><value>2025-04-14T04:56:55.058393Z</value></time><waveformID networkCode="CX" stationCode="PB06" channelCode="HHZ"/><filterID>ITAPER(4)&gt;&gt;BW(4,4,20)</filterID><methodID>AIC</methodID><horizontalSlowness><value>16.6500769331953</value></horizontalSlowness><backazimuth><value>321.0148324591708</value></backazimuth><phaseHint>P</phaseHint><evaluationMode>automatic</evaluationMode><comment><text>59.06161794267168</text><id>DFX:rectilinearity</id></comment><comment><text>11.577288263314088</text><id>SNR</id></comment></pick><pick publicID="de.gempa.tb1.Pick/20250414045704.568828.135786"><time><value>2025-04-14T04:56:59.748394Z</value></time><waveformID networkCode="CX" stationCode="PB03" channelCode="HHZ"/><filterID>ITAPER(4)&gt;&gt;BW(4,4,20)</filterID><methodID>AIC</methodID><horizontalSlowness><value>13.768133138956747</value></horizontalSlowness><backazimuth><value>153.8293097339274</value></backazimuth><phaseHint>P</phaseHint><evaluationMode>automatic</evaluationMode><comment><text>6.706679748295856</text><id>DFX:rectilinearity</id></comment><comment><text>8.357507389530886</text><id>SNR</id></comment></pick><pick publicID="de.gempa.tb1.Pick/20250414045710.309802.135788"><time><value>2025-04-14T04:56:59.15Z</value></time><waveformID networkCode="CX" stationCode="PB09" channelCode="HHZ"/><filterID>ITAPER(4)&gt;&gt;BW(4,4,20)</filterID><methodID>AIC</methodID><horizontalSlowness><value>23.40789389995281</value></horizontalSlowness><backazimuth><value>278.96118910542253</value></backazimuth><phaseHint>P</phaseHint><evaluationMode>automatic</evaluationMode><comment><text>8.858391185279995</text><id>DFX:rectilinearity</id></comment><comment><text>6.666613102058733</text><id>SNR</id></comment></pick><pick publicID="de.gempa.tb1.Pick/20250414045718.692952.135790"><time><value>2025-04-14T04:57:03.018393Z</value></time><waveformID networkCode="CX" stationCode="PB07" channelCode="HHZ"/><filterID>ITAPER(4)&gt;&gt;BW(4,4,20)</filterID><methodID>AIC</methodID><horizontalSlowness><value>22.006712236937094</value></horizontalSlowness><backazimuth><value>247.5853581906996</value></backazimuth><phaseHint>P</phaseHint><evaluationMode>automatic</evaluationMode><comment><text>141.3295264259801</text><id>DFX:rectilinearity</id></comment><comment><text>10.202597866603808</text><id>SNR</id></comment></pick><pick publicID="de.gempa.tb1.Pick/20250414045722.590034.135794"><time><value>2025-04-14T04:57:17.01Z</value></time><waveformID networkCode="CX" stationCode="PB19" channelCode="HHN"/><filterID>ITAPER(2)&gt;&gt;BW(3,3,20)</filterID><methodID>L2-AIC-GRID</methodID><horizontalSlowness><value>19.047906303329835</value></horizontalSlowness><backazimuth><value>63.44218249067285</value></backazimuth><phaseHint>S</phaseHint><evaluationMode>automatic</evaluationMode><comment><text>73.23351323207051</text><id>DFX:rectilinearity</id></comment><comment><text>de.gempa.tb1.Pick/20250414045700.636843.135782</text><id>RefPickID</id></comment><comment><text>5.70759248390358</text><id>SNR</id></comment></pick><pick publicID="de.gempa.tb1.Pick/20250414045725.573518.135797"><time><value>2025-04-14T04:57:18.428393Z</value></time><waveformID networkCode="CX" stationCode="PB06" channelCode="HHN"/><filterID>ITAPER(2)&gt;&gt;BW(3,3,20)</filterID><methodID>L2-AIC-GRID</methodID><horizontalSlowness><value>13.752181645238728</value></horizontalSlowness><backazimuth><value>255.7937997609418</value></backazimuth><phaseHint>S</phaseHint><evaluationMode>automatic</evaluationMode><comment><text>129.13027498795284</text><id>DFX:rectilinearity</id></comment><comment><text>de.gempa.tb1.Pick/20250414045702.566581.135784</text><id>RefPickID</id></comment><comment><text>20.515154209633504</text><id>SNR</id></comment></pick><pick publicID="de.gempa.tb1.Pick/20250414045735.779345.135800"><time><value>2025-04-14T04:57:26.478394Z</value></time><waveformID networkCode="CX" stationCode="PB03" channelCode="HHN"/><filterID>ITAPER(2)&gt;&gt;BW(3,3,20)</filterID><methodID>L2-AIC-GRID</methodID><horizontalSlowness><value>18.793812149673258</value></horizontalSlowness><backazimuth><value>15.010091791086154</value></backazimuth><phaseHint>S</phaseHint><evaluationMode>automatic</evaluationMode><comment><text>40.847434765016516</text><id>DFX:rectilinearity</id></comment><comment><text>de.gempa.tb1.Pick/20250414045704.568828.135786</text><id>RefPickID</id></comment><comment><text>16.752172280225984</text><id>SNR</id></comment></pick><pick publicID="de.gempa.tb1.Pick/20250414045745.768873.135802"><time><value>2025-04-14T04:57:24.83Z</value></time><waveformID networkCode="CX" stationCode="PB09" channelCode="HHN"/><filterID>ITAPER(2)&gt;&gt;BW(3,3,20)</filterID><methodID>L2-AIC-GRID</methodID><horizontalSlowness><value>14.2974237929885</value></horizontalSlowness><backazimuth><value>258.3837359950167</value></backazimuth><phaseHint>S</phaseHint><evaluationMode>automatic</evaluationMode><comment><text>13.367398564143189</text><id>DFX:rectilinearity</id></comment><comment><text>de.gempa.tb1.Pick/20250414045710.309802.135788</text><id>RefPickID</id></comment><comment><text>5.959832023299214</text><id>SNR</id></comment></pick><pick publicID="de.gempa.tb1.Pick/20250414045813.115556.135804"><time><value>2025-04-14T04:57:32.258393Z</value></time><waveformID networkCode="CX" stationCode="PB07" channelCode="HHN"/><filterID>ITAPER(2)&gt;&gt;BW(3,3,20)</filterID><methodID>L2-AIC-GRID</methodID><horizontalSlowness><value>21.993856143362247</value></horizontalSlowness><backazimuth><value>259.5562219229779</value></backazimuth><phaseHint>S</phaseHint><evaluationMode>automatic</evaluationMode><comment><text>250.4600130694016</text><id>DFX:rectilinearity</id></comment><comment><text>de.gempa.tb1.Pick/20250414045718.692952.135790</text><id>RefPickID</id></comment><comment><text>7.228885396113646</text><id>SNR</id></comment></pick><origin publicID="de.gempa.tb1.Origin/20250414045813.120643.127761"><time><value>2025-04-14T04:56:25.420972Z</value><uncertainty>1.1012636423110962</uncertainty></time><latitude><value>-23.202709197998047</value><uncertainty>5.428955554962158</uncertainty></latitude><longitude><value>-68.43218231201172</value><uncertainty>19.390155792236328</uncertainty></longitude><depth><value>186.71414184570312</value><uncertainty>13.149249076843262</uncertainty></depth><depthType>from location</depthType><methodID>LOCSAT</methodID><earthModelID>iasp91_scanloc</earthModelID><quality><associatedPhaseCount>10</associatedPhaseCount><usedPhaseCount>10</usedPhaseCount><associatedStationCount>5</associatedStationCount><usedStationCount>5</usedStationCount><depthPhaseCount>0</depthPhaseCount><standardError>0.2316479512787641</standardError><azimuthalGap>256.55577087402344</azimuthalGap><maximumDistance>1.9916834831237793</maximumDistance><minimumDistance>1.0530881881713867</minimumDistance><medianDistance>1.5873668193817139</medianDistance></quality><uncertainty><minHorizontalUncertainty>9.906895637512207</minHorizontalUncertainty><maxHorizontalUncertainty>42.0233039855957</maxHorizontalUncertainty><azimuthMaxHorizontalUncertainty>81.39217376708984</azimuthMaxHorizontalUncertainty><preferredDescription>horizontal uncertainty</preferredDescription></uncertainty><evaluationMode>automatic</evaluationMode><evaluationStatus>confirmed</evaluationStatus><comment><text>0.48</text><id>mismatchScore</id></comment><comment><text>mismatchScore</text><id>scevalMethod</id></comment><arrival><pickID>de.gempa.tb1.Pick/20250414045700.636843.135782</pickID><phase>P</phase><azimuth>228.2532501220703</azimuth><distance>1.0530881881713867</distance><timeResidual>-0.5150623321533203</timeResidual><timeUsed>true</timeUsed><horizontalSlownessUsed>false</horizontalSlownessUsed><backazimuthUsed>false</backazimuthUsed><weight>1</weight></arrival><arrival><pickID>de.gempa.tb1.Pick/20250414045702.566581.135784</pickID><phase>P</phase><azimuth>294.9894714355469</azimuth><distance>1.1611133813858032</distance><timeResidual>0.011301040649414062</timeResidual><timeUsed>true</timeUsed><horizontalSlownessUsed>false</horizontalSlownessUsed><backazimuthUsed>false</backazimuthUsed><weight>1</weight></arrival><arrival><pickID>de.gempa.tb1.Pick/20250414045704.568828.135786</pickID><phase>P</phase><azimuth>313.0126953125</azimuth><distance>1.676048755645752</distance><timeResidual>0.0822296142578125</timeResidual><timeUsed>true</timeUsed><horizontalSlownessUsed>false</horizontalSlownessUsed><backazimuthUsed>false</backazimuthUsed><weight>1</weight></arrival><arrival><pickID>de.gempa.tb1.Pick/20250414045710.309802.135788</pickID><phase>P</phase><azimuth>331.6974792480469</azimuth><distance>1.5873668193817139</distance><timeResidual>0.3411674499511719</timeResidual><timeUsed>true</timeUsed><horizontalSlownessUsed>false</horizontalSlownessUsed><backazimuthUsed>false</backazimuthUsed><weight>1</weight></arrival><arrival><pickID>de.gempa.tb1.Pick/20250414045718.692952.135790</pickID><phase>P</phase><azimuth>317.2456359863281</azimuth><distance>1.9916834831237793</distance><timeResidual>0.118621826171875</timeResidual><timeUsed>true</timeUsed><horizontalSlownessUsed>false</horizontalSlownessUsed><backazimuthUsed>false</backazimuthUsed><weight>1</weight></arrival><arrival><pickID>de.gempa.tb1.Pick/20250414045722.590034.135794</pickID><phase>S</phase><azimuth>228.2532501220703</azimuth><distance>1.0530881881713867</distance><timeResidual>0.2296791076660156</timeResidual><timeUsed>true</timeUsed><horizontalSlownessUsed>false</horizontalSlownessUsed><backazimuthUsed>false</backazimuthUsed><weight>1</weight></arrival><arrival><pickID>de.gempa.tb1.Pick/20250414045725.573518.135797</pickID><phase>S</phase><azimuth>294.9894714355469</azimuth><distance>1.1611133813858032</distance><timeResidual>0.1391887664794922</timeResidual><timeUsed>true</timeUsed><horizontalSlownessUsed>false</horizontalSlownessUsed><backazimuthUsed>false</backazimuthUsed><weight>1</weight></arrival><arrival><pickID>de.gempa.tb1.Pick/20250414045735.779345.135800</pickID><phase>S</phase><azimuth>313.0126953125</azimuth><distance>1.676048755645752</distance><timeResidual>-0.09181976318359375</timeResidual><timeUsed>true</timeUsed><horizontalSlownessUsed>false</horizontalSlownessUsed><backazimuthUsed>false</backazimuthUsed><weight>1</weight></arrival><arrival><pickID>de.gempa.tb1.Pick/20250414045745.768873.135802</pickID><phase>S</phase><azimuth>331.6974792480469</azimuth><distance>1.5873668193817139</distance><timeResidual>-0.2009124755859375</timeResidual><timeUsed>true</timeUsed><horizontalSlownessUsed>false</horizontalSlownessUsed><backazimuthUsed>false</backazimuthUsed><weight>1</weight></arrival><arrival><pickID>de.gempa.tb1.Pick/20250414045813.115556.135804</pickID><phase>S</phase><azimuth>317.2456359863281</azimuth><distance>1.9916834831237793</distance><timeResidual>-0.11419296264648438</timeResidual><timeUsed>true</timeUsed><horizontalSlownessUsed>false</horizontalSlownessUsed><backazimuthUsed>false</backazimuthUsed><weight>1</weight></arrival><magnitude publicID="de.gempa.tb1.Magnitude/20250414045820.937406.430617"><magnitude><value>2.6155669012604084</value></magnitude><type>M</type><methodID>weighted average</methodID><stationCount>2</stationCount></magnitude></origin><event publicID="gempa2025hiqd"><preferredOriginID>de.gempa.tb1.Origin/20250414045813.120643.127761</preferredOriginID><preferredMagnitudeID>de.gempa.tb1.Magnitude/20250414045820.937406.430617</preferredMagnitudeID><description><text>Northern Chile</text><type>region name</type></description><originReference>de.gempa.tb1.Origin/20250414045813.120643.127761</originReference></event></EventParameters></seiscomp>