<?xml version="1.0" encoding="UTF-8"?>
<seiscomp xmlns="http://geofon.gfz-potsdam.de/ns/seiscomp3-schema/0.13" version="0.13"><EventParameters><pick publicID="de.gempa.tb1.Pick/20250414103045.781785.137361"><time><value>2025-04-14T10:30:38.93Z</value></time><waveformID networkCode="CX" stationCode="PB09" channelCode="HHZ"/><filterID>ITAPER(4)&gt;&gt;BW(4,4,20)</filterID><methodID>AIC</methodID><horizontalSlowness><value>14.5063356389577</value></horizontalSlowness><backazimuth><value>92.80715818463354</value></backazimuth><phaseHint>P</phaseHint><evaluationMode>automatic</evaluationMode><comment><text>5.776980671838635</text><id>DFX:rectilinearity</id></comment><comment><text>31.60733777166034</text><id>SNR</id></comment></pick><pick publicID="de.gempa.tb1.Pick/20250414103053.524987.137367"><time><value>2025-04-14T10:30:46.148393Z</value></time><waveformID networkCode="CX" stationCode="PB02" channelCode="HHZ"/><filterID>ITAPER(4)&gt;&gt;BW(4,4,20)</filterID><methodID>AIC</methodID><horizontalSlowness><value>13.90122730248145</value></horizontalSlowness><backazimuth><value>216.863532209734</value></backazimuth><phaseHint>P</phaseHint><evaluationMode>automatic</evaluationMode><comment><text>14.37760730391273</text><id>DFX:rectilinearity</id></comment><comment><text>6.529741507272432</text><id>SNR</id></comment></pick><pick publicID="de.gempa.tb1.Pick/20250414103055.356213.137369"><time><value>2025-04-14T10:30:43.788393Z</value></time><waveformID networkCode="CX" stationCode="PB07" channelCode="HHZ"/><filterID>ITAPER(4)&gt;&gt;BW(4,4,20)</filterID><methodID>AIC</methodID><horizontalSlowness><value>23.29337411336339</value></horizontalSlowness><backazimuth><value>358.94289298693405</value></backazimuth><phaseHint>P</phaseHint><evaluationMode>automatic</evaluationMode><comment><text>105.67396527295942</text><id>DFX:rectilinearity</id></comment><comment><text>44.38899337134015</text><id>SNR</id></comment></pick><pick publicID="de.gempa.tb1.Pick/20250414103109.550195.137374"><time><value>2025-04-14T10:30:59.448393Z</value></time><waveformID networkCode="CX" stationCode="PB06" channelCode="HHZ"/><filterID>ITAPER(4)&gt;&gt;BW(4,4,20)</filterID><methodID>AIC</methodID><horizontalSlowness><value>21.531982100233485</value></horizontalSlowness><backazimuth><value>140.5928163195746</value></backazimuth><phaseHint>P</phaseHint><evaluationMode>automatic</evaluationMode><comment><text>28.305474021420967</text><id>DFX:rectilinearity</id></comment><comment><text>6.831245612657567</text><id>SNR</id></comment></pick><pick publicID="de.gempa.tb1.Pick/20250414103112.742404.137378"><time><value>2025-04-14T10:31:05.428393Z</value></time><waveformID networkCode="CX" stationCode="PB15" channelCode="HHZ"/><filterID>ITAPER(4)&gt;&gt;BW(4,4,20)</filterID><methodID>AIC</methodID><horizontalSlowness><value>20.459632759842243</value></horizontalSlowness><backazimuth><value>141.00441170946809</value></backazimuth><phaseHint>P</phaseHint><evaluationMode>automatic</evaluationMode><comment><text>400.6799830863972</text><id>DFX:rectilinearity</id></comment><comment><text>7.668567122788575</text><id>SNR</id></comment></pick><pick publicID="de.gempa.tb1.Pick/20250414103124.587079.137380"><time><value>2025-04-14T10:31:17.18Z</value></time><waveformID networkCode="CX" stationCode="PB19" channelCode="HHZ"/><filterID>ITAPER(4)&gt;&gt;BW(4,4,20)</filterID><methodID>AIC</methodID><horizontalSlowness><value>19.533437931354435</value></horizontalSlowness><backazimuth><value>278.87649964997314</value></backazimuth><phaseHint>P</phaseHint><evaluationMode>automatic</evaluationMode><comment><text>21.07508694723387</text><id>DFX:rectilinearity</id></comment><comment><text>7.716385580352565</text><id>SNR</id></comment></pick><origin publicID="de.gempa.tb1.Origin/20250414103126.511361.135187"><time><value>2025-04-14T10:30:35.3506Z</value><uncertainty>1.2049999237060547</uncertainty></time><latitude><value>-21.535236358642578</value><uncertainty>8.535587310791016</uncertainty></latitude><longitude><value>-69.36756134033203</value><uncertainty>8.065855979919434</uncertainty></longitude><depth><value>0</value></depth><depthType>operator assigned</depthType><methodID>LOCSAT</methodID><earthModelID>iasp91_scanloc</earthModelID><quality><associatedPhaseCount>6</associatedPhaseCount><usedPhaseCount>6</usedPhaseCount><associatedStationCount>6</associatedStationCount><usedStationCount>6</usedStationCount><depthPhaseCount>0</depthPhaseCount><standardError>1.3999268478982774</standardError><azimuthalGap>222.36952209472656</azimuthalGap><maximumDistance>2.3594465255737305</maximumDistance><minimumDistance>0.28493815660476685</minimumDistance><medianDistance>1.180235505104065</medianDistance></quality><uncertainty><minHorizontalUncertainty>7.864336013793945</minHorizontalUncertainty><maxHorizontalUncertainty>23.94010925292969</maxHorizontalUncertainty><azimuthMaxHorizontalUncertainty>42.98657989501953</azimuthMaxHorizontalUncertainty><preferredDescription>horizontal uncertainty</preferredDescription></uncertainty><evaluationMode>automatic</evaluationMode><evaluationStatus>confirmed</evaluationStatus><comment><text>0.45</text><id>mismatchScore</id></comment><comment><text>mismatchScore</text><id>scevalMethod</id></comment><arrival><pickID>de.gempa.tb1.Pick/20250414103045.781785.137361</pickID><phase>P</phase><azimuth>155.80796813964844</azimuth><distance>0.28493815660476685</distance><timeResidual>-1.8858819007873535</timeResidual><timeUsed>true</timeUsed><horizontalSlownessUsed>false</horizontalSlownessUsed><backazimuthUsed>false</backazimuthUsed><weight>1</weight></arrival><arrival><pickID>de.gempa.tb1.Pick/20250414103053.524987.137367</pickID><phase>P</phase><azimuth>293.4384460449219</azimuth><distance>0.5370482206344604</distance><timeResidual>0.4962663650512695</timeResidual><timeUsed>true</timeUsed><horizontalSlownessUsed>false</horizontalSlownessUsed><backazimuthUsed>false</backazimuthUsed><weight>1</weight></arrival><arrival><pickID>de.gempa.tb1.Pick/20250414103055.356213.137369</pickID><phase>P</phase><azimuth>248.3616638183594</azimuth><distance>0.5187724232673645</distance><timeResidual>-1.5127110481262207</timeResidual><timeUsed>true</timeUsed><horizontalSlownessUsed>false</horizontalSlownessUsed><backazimuthUsed>false</backazimuthUsed><weight>1</weight></arrival><arrival><pickID>de.gempa.tb1.Pick/20250414103109.550195.137374</pickID><phase>P</phase><azimuth>189.19920349121094</azimuth><distance>1.180235505104065</distance><timeResidual>1.4609994888305664</timeResidual><timeUsed>true</timeUsed><horizontalSlownessUsed>false</horizontalSlownessUsed><backazimuthUsed>false</backazimuthUsed><weight>1</weight></arrival><arrival><pickID>de.gempa.tb1.Pick/20250414103112.742404.137378</pickID><phase>P</phase><azimuth>183.2688446044922</azimuth><distance>1.6678646802902222</distance><timeResidual>-0.3961324691772461</timeResidual><timeUsed>true</timeUsed><horizontalSlownessUsed>false</horizontalSlownessUsed><backazimuthUsed>false</backazimuthUsed><weight>1</weight></arrival><arrival><pickID>de.gempa.tb1.Pick/20250414103124.587079.137380</pickID><phase>P</phase><azimuth>178.28990173339844</azimuth><distance>2.3594465255737305</distance><timeResidual>1.8374452590942383</timeResidual><timeUsed>true</timeUsed><horizontalSlownessUsed>false</horizontalSlownessUsed><backazimuthUsed>false</backazimuthUsed><weight>1</weight></arrival><magnitude publicID="de.gempa.tb1.Magnitude/20250414103214.701361.473781"><magnitude><value>2.297145874534786</value></magnitude><type>M</type><methodID>weighted average</methodID><stationCount>5</stationCount></magnitude></origin><event publicID="gempa2025hjbi"><preferredOriginID>de.gempa.tb1.Origin/20250414103126.511361.135187</preferredOriginID><preferredMagnitudeID>de.gempa.tb1.Magnitude/20250414103214.701361.473781</preferredMagnitudeID><description><text>Northern Chile</text><type>region name</type></description><originReference>de.gempa.tb1.Origin/20250414103126.511361.135187</originReference></event></EventParameters></seiscomp>