<?xml version="1.0" encoding="UTF-8"?>
<seiscomp xmlns="http://geofon.gfz-potsdam.de/ns/seiscomp3-schema/0.13" version="0.13"><EventParameters><pick publicID="de.gempa.tb1.Pick/20250414064854.725009.214408"><time><value>2025-04-14T06:48:49.42Z</value></time><waveformID networkCode="CH" stationCode="EMING" channelCode="HHZ"/><filterID>ITAPER(4)&gt;&gt;BW(4,4,20)</filterID><methodID>AIC</methodID><phaseHint>P</phaseHint><evaluationMode>automatic</evaluationMode></pick><pick publicID="de.gempa.tb1.Pick/20250414064855.296331.214410"><time><value>2025-04-14T06:48:51.72Z</value></time><waveformID networkCode="CH" stationCode="WALHA" channelCode="HHZ"/><filterID>ITAPER(4)&gt;&gt;BW(4,4,20)</filterID><methodID>AIC</methodID><phaseHint>P</phaseHint><evaluationMode>automatic</evaluationMode></pick><pick publicID="de.gempa.tb1.Pick/20250414064859.163309.214414"><time><value>2025-04-14T06:48:54.575Z</value></time><waveformID networkCode="CH" stationCode="SLE" channelCode="HHZ"/><filterID>ITAPER(4)&gt;&gt;BW(4,4,20)</filterID><methodID>AIC</methodID><phaseHint>P</phaseHint><evaluationMode>automatic</evaluationMode></pick><pick publicID="de.gempa.tb1.Pick/20250414064902.320496.214416"><time><value>2025-04-14T06:48:57.02Z</value></time><waveformID networkCode="CH" stationCode="METMA" channelCode="HHZ"/><filterID>ITAPER(4)&gt;&gt;BW(4,4,20)</filterID><methodID>AIC</methodID><phaseHint>P</phaseHint><evaluationMode>automatic</evaluationMode></pick><pick publicID="de.gempa.tb1.Pick/20250414064903.29766.214418"><time><value>2025-04-14T06:49:00.195Z</value></time><waveformID networkCode="CH" stationCode="SULZ" channelCode="HHZ"/><filterID>ITAPER(4)&gt;&gt;BW(4,4,20)</filterID><methodID>AIC</methodID><phaseHint>P</phaseHint><evaluationMode>automatic</evaluationMode></pick><pick publicID="de.gempa.tb1.Pick/20250414064916.315123.214425"><time><value>2025-04-14T06:48:55.715Z</value></time><waveformID networkCode="CH" stationCode="BERGE" channelCode="HHZ"/><filterID>ITAPER(4)&gt;&gt;BW(4,4,20)</filterID><methodID>AIC</methodID><phaseHint>P</phaseHint><evaluationMode>automatic</evaluationMode></pick><origin publicID="de.gempa.tb1.Origin/20250414064916.317022.133647"><time><value>2025-04-14T06:48:42.129709Z</value><uncertainty>4.68355655670166</uncertainty></time><latitude><value>48.2200813293457</value><uncertainty>28.549442291259766</uncertainty></latitude><longitude><value>9.0828218460083</value><uncertainty>15.5535249710083</uncertainty></longitude><depth><value>6.091925144195557</value><uncertainty>14.604122161865234</uncertainty></depth><depthType>from location</depthType><methodID>LOCSAT</methodID><earthModelID>iasp91</earthModelID><quality><associatedPhaseCount>6</associatedPhaseCount><usedPhaseCount>6</usedPhaseCount><associatedStationCount>6</associatedStationCount><usedStationCount>6</usedStationCount><depthPhaseCount>0</depthPhaseCount><standardError>0.2627886467641687</standardError><azimuthalGap>296.2073516845703</azimuthalGap><maximumDistance>0.9528340697288513</maximumDistance><minimumDistance>0.3616342544555664</minimumDistance><medianDistance>0.700170636177063</medianDistance></quality><uncertainty><minHorizontalUncertainty>19.234777450561523</minHorizontalUncertainty><maxHorizontalUncertainty>67.01858520507812</maxHorizontalUncertainty><azimuthMaxHorizontalUncertainty>25.118507385253906</azimuthMaxHorizontalUncertainty><preferredDescription>horizontal uncertainty</preferredDescription></uncertainty><evaluationMode>automatic</evaluationMode><evaluationStatus>confirmed</evaluationStatus><comment><text>0.26</text><id>mismatchScore</id></comment><comment><text>mismatchScore</text><id>scevalMethod</id></comment><arrival><pickID>de.gempa.tb1.Pick/20250414064854.725009.214408</pickID><phase>P</phase><azimuth>206.0585479736328</azimuth><distance>0.3616342544555664</distance><timeResidual>-0.3059196472167969</timeResidual><timeUsed>true</timeUsed><horizontalSlownessUsed>false</horizontalSlownessUsed><backazimuthUsed>false</backazimuthUsed><weight>1</weight></arrival><arrival><pickID>de.gempa.tb1.Pick/20250414064855.296331.214410</pickID><phase>P</phase><azimuth>176.67323303222656</azimuth><distance>0.4683798551559448</distance><timeResidual>0.06142091751098633</timeResidual><timeUsed>true</timeUsed><horizontalSlownessUsed>false</horizontalSlownessUsed><backazimuthUsed>false</backazimuthUsed><weight>1</weight></arrival><arrival><pickID>de.gempa.tb1.Pick/20250414064859.163309.214414</pickID><phase>P</phase><azimuth>221.24188232421875</azimuth><distance>0.6042666435241699</distance><timeResidual>0.4563097953796387</timeResidual><timeUsed>true</timeUsed><horizontalSlownessUsed>false</horizontalSlownessUsed><backazimuthUsed>false</backazimuthUsed><weight>1</weight></arrival><arrival><pickID>de.gempa.tb1.Pick/20250414064902.320496.214416</pickID><phase>P</phase><azimuth>227.97593688964844</azimuth><distance>0.7547191381454468</distance><timeResidual>0.172853946685791</timeResidual><timeUsed>true</timeUsed><horizontalSlownessUsed>false</horizontalSlownessUsed><backazimuthUsed>false</backazimuthUsed><weight>1</weight></arrival><arrival><pickID>de.gempa.tb1.Pick/20250414064903.29766.214418</pickID><phase>P</phase><azimuth>223.69566345214844</azimuth><distance>0.9528340697288513</distance><timeResidual>-0.24199438095092773</timeResidual><timeUsed>true</timeUsed><horizontalSlownessUsed>false</horizontalSlownessUsed><backazimuthUsed>false</backazimuthUsed><weight>1</weight></arrival><arrival><pickID>de.gempa.tb1.Pick/20250414064916.315123.214425</pickID><phase>P</phase><azimuth>240.46588134765625</azimuth><distance>0.700170636177063</distance><timeResidual>-0.14258146286010742</timeResidual><timeUsed>true</timeUsed><horizontalSlownessUsed>false</horizontalSlownessUsed><backazimuthUsed>false</backazimuthUsed><weight>1</weight></arrival><magnitude publicID="de.gempa.tb1.Magnitude/20250414064939.342274.442211"><magnitude><value>1.8003083574385088</value></magnitude><type>M</type><methodID>weighted average</methodID><stationCount>6</stationCount></magnitude></origin><event publicID="gempa2025hitw"><preferredOriginID>de.gempa.tb1.Origin/20250414064916.317022.133647</preferredOriginID><preferredMagnitudeID>de.gempa.tb1.Magnitude/20250414064939.342274.442211</preferredMagnitudeID><description><text>Germany</text><type>region name</type></description><originReference>de.gempa.tb1.Origin/20250414064916.317022.133647</originReference></event></EventParameters></seiscomp>