<?xml version="1.0" encoding="UTF-8"?>
<seiscomp xmlns="http://geofon.gfz-potsdam.de/ns/seiscomp3-schema/0.13" version="0.13"><EventParameters><pick publicID="de.gempa.tb1.Pick/20250411183116.686492.119442"><time><value>2025-04-11T18:31:10.738393Z</value></time><waveformID networkCode="CX" stationCode="PB15" channelCode="HHZ"/><filterID>ITAPER(4)&gt;&gt;BW(4,4,20)</filterID><methodID>AIC</methodID><horizontalSlowness><value>23.055997371556725</value></horizontalSlowness><backazimuth><value>92.67467452773165</value></backazimuth><phaseHint>P</phaseHint><evaluationMode>automatic</evaluationMode><comment><text>32360.216584915444</text><id>DFX:rectilinearity</id></comment><comment><text>26.842608813662324</text><id>SNR</id></comment></pick><pick publicID="de.gempa.tb1.Pick/20250411183117.560561.119444"><time><value>2025-04-11T18:31:09.948393Z</value></time><waveformID networkCode="CX" stationCode="PB06" channelCode="HHZ"/><filterID>ITAPER(4)&gt;&gt;BW(4,4,20)</filterID><methodID>AIC</methodID><horizontalSlowness><value>9.809188475481967</value></horizontalSlowness><backazimuth><value>210.7310888961502</value></backazimuth><phaseHint>P</phaseHint><evaluationMode>automatic</evaluationMode><comment><text>13857.071512783245</text><id>DFX:rectilinearity</id></comment><comment><text>250.3301607813749</text><id>SNR</id></comment></pick><pick publicID="de.gempa.tb1.Pick/20250411183124.220473.119446"><time><value>2025-04-11T18:31:19.09Z</value></time><waveformID networkCode="CX" stationCode="PB10" channelCode="HHZ"/><filterID>ITAPER(4)&gt;&gt;BW(4,4,20)</filterID><methodID>AIC</methodID><horizontalSlowness><value>14.973403136177344</value></horizontalSlowness><backazimuth><value>71.01751624611433</value></backazimuth><phaseHint>P</phaseHint><evaluationMode>automatic</evaluationMode><comment><text>7427.513051906163</text><id>DFX:rectilinearity</id></comment><comment><text>63.44225254198974</text><id>SNR</id></comment></pick><pick publicID="de.gempa.tb1.Pick/20250411183124.54906.119448"><time><value>2025-04-11T18:31:19.778393Z</value></time><waveformID networkCode="CX" stationCode="PB03" channelCode="HHZ"/><filterID>ITAPER(4)&gt;&gt;BW(4,4,20)</filterID><methodID>AIC</methodID><horizontalSlowness><value>12.67896822195995</value></horizontalSlowness><backazimuth><value>192.53395613304613</value></backazimuth><phaseHint>P</phaseHint><evaluationMode>automatic</evaluationMode><comment><text>1755.2477888424085</text><id>DFX:rectilinearity</id></comment><comment><text>71.21649000103454</text><id>SNR</id></comment></pick><pick publicID="de.gempa.tb1.Pick/20250411183130.554318.119450"><time><value>2025-04-11T18:31:23.15Z</value></time><waveformID networkCode="CX" stationCode="PB19" channelCode="HHZ"/><filterID>ITAPER(4)&gt;&gt;BW(4,4,20)</filterID><methodID>AIC</methodID><horizontalSlowness><value>2.090412522045865</value></horizontalSlowness><backazimuth><value>299.26351468821804</value></backazimuth><phaseHint>P</phaseHint><evaluationMode>automatic</evaluationMode><comment><text>229.37895370901333</text><id>DFX:rectilinearity</id></comment><comment><text>39.780673619095786</text><id>SNR</id></comment></pick><pick publicID="de.gempa.tb1.Pick/20250411183135.55947.119452"><time><value>2025-04-11T18:31:25.698396Z</value></time><waveformID networkCode="CX" stationCode="PB07" channelCode="HHZ"/><filterID>ITAPER(4)&gt;&gt;BW(4,4,20)</filterID><methodID>AIC</methodID><horizontalSlowness><value>17.41879123363842</value></horizontalSlowness><backazimuth><value>207.35187455998962</value></backazimuth><phaseHint>P</phaseHint><evaluationMode>automatic</evaluationMode><comment><text>27927.580389573464</text><id>DFX:rectilinearity</id></comment><comment><text>67.7728803941742</text><id>SNR</id></comment></pick><pick publicID="de.gempa.tb1.Pick/20250411183136.403685.119454"><time><value>2025-04-11T18:31:26.91Z</value></time><waveformID networkCode="CX" stationCode="PB09" channelCode="HHZ"/><filterID>ITAPER(4)&gt;&gt;BW(4,4,20)</filterID><methodID>AIC</methodID><horizontalSlowness><value>23.494527824535645</value></horizontalSlowness><backazimuth><value>162.73461099015068</value></backazimuth><phaseHint>P</phaseHint><evaluationMode>automatic</evaluationMode><comment><text>914.1084700790764</text><id>DFX:rectilinearity</id></comment><comment><text>55.67185795611024</text><id>SNR</id></comment></pick><pick publicID="de.gempa.tb1.Pick/20250411183139.609219.119457"><time><value>2025-04-11T18:31:32.238393Z</value></time><waveformID networkCode="CX" stationCode="PB02" channelCode="HHZ"/><filterID>ITAPER(4)&gt;&gt;BW(4,4,20)</filterID><methodID>AIC</methodID><horizontalSlowness><value>9.086562400566301</value></horizontalSlowness><backazimuth><value>199.32886474684432</value></backazimuth><phaseHint>P</phaseHint><evaluationMode>automatic</evaluationMode><comment><text>1145.4692276143146</text><id>DFX:rectilinearity</id></comment><comment><text>33.105003928822626</text><id>SNR</id></comment></pick><pick publicID="de.gempa.tb1.Pick/20250411183145.507567.119461"><time><value>2025-04-11T18:31:37.438393Z</value></time><waveformID networkCode="CX" stationCode="PB01" channelCode="HHZ"/><filterID>ITAPER(4)&gt;&gt;BW(4,4,20)</filterID><methodID>AIC</methodID><horizontalSlowness><value>16.977945857001995</value></horizontalSlowness><backazimuth><value>195.83865864737476</value></backazimuth><phaseHint>P</phaseHint><evaluationMode>automatic</evaluationMode><comment><text>399.94079698393926</text><id>DFX:rectilinearity</id></comment><comment><text>35.349144598030314</text><id>SNR</id></comment></pick><pick publicID="de.gempa.tb1.Pick/20250411183203.814367.119468"><time><value>2025-04-11T18:31:54.848393Z</value></time><waveformID networkCode="CX" stationCode="PB02" channelCode="HHN"/><filterID>ITAPER(2)&gt;&gt;BW(3,3,20)</filterID><methodID>L2-AIC-GRID</methodID><horizontalSlowness><value>22.697004987505313</value></horizontalSlowness><backazimuth><value>252.1607641896918</value></backazimuth><phaseHint>S</phaseHint><evaluationMode>automatic</evaluationMode><comment><text>8032.372006410448</text><id>DFX:rectilinearity</id></comment><comment><text>de.gempa.tb1.Pick/20250411183139.609219.119457</text><id>RefPickID</id></comment><comment><text>5.298748089176129</text><id>SNR</id></comment></pick><pick publicID="de.gempa.tb1.Pick/20250411183210.761921.119470"><time><value>2025-04-11T18:32:03.568393Z</value></time><waveformID networkCode="CX" stationCode="PB01" channelCode="HHN"/><filterID>ITAPER(2)&gt;&gt;BW(3,3,20)</filterID><methodID>L2-AIC-GRID</methodID><horizontalSlowness><value>20.350676926722585</value></horizontalSlowness><backazimuth><value>51.74092890218466</value></backazimuth><phaseHint>S</phaseHint><evaluationMode>automatic</evaluationMode><comment><text>2991.80652641569</text><id>DFX:rectilinearity</id></comment><comment><text>de.gempa.tb1.Pick/20250411183145.507567.119461</text><id>RefPickID</id></comment><comment><text>6.449272421346878</text><id>SNR</id></comment></pick><origin publicID="de.gempa.tb1.Origin/20250411183210.765307.63393"><time><value>2025-04-11T18:31:02.603954Z</value><uncertainty>0.38875672221183777</uncertainty></time><latitude><value>-22.95773124694824</value><uncertainty>2.29781436920166</uncertainty></latitude><longitude><value>-69.85590362548828</value><uncertainty>4.2445411682128906</uncertainty></longitude><depth><value>0</value></depth><depthType>operator assigned</depthType><methodID>LOCSAT</methodID><earthModelID>iasp91_scanloc</earthModelID><quality><associatedPhaseCount>11</associatedPhaseCount><usedPhaseCount>11</usedPhaseCount><associatedStationCount>9</associatedStationCount><usedStationCount>9</usedStationCount><depthPhaseCount>0</depthPhaseCount><standardError>0.4233181636787157</standardError><azimuthalGap>129.55801391601562</azimuthalGap><maximumDistance>1.935700535774231</maximumDistance><minimumDistance>0.36268189549446106</minimumDistance><medianDistance>1.2255040407180786</medianDistance></quality><uncertainty><minHorizontalUncertainty>4.921872138977051</minHorizontalUncertainty><maxHorizontalUncertainty>9.1035795211792</maxHorizontalUncertainty><azimuthMaxHorizontalUncertainty>88.34534454345703</azimuthMaxHorizontalUncertainty><preferredDescription>horizontal uncertainty</preferredDescription></uncertainty><evaluationMode>automatic</evaluationMode><evaluationStatus>confirmed</evaluationStatus><comment><text>0.00</text><id>mismatchScore</id></comment><comment><text>mismatchScore</text><id>scevalMethod</id></comment><arrival><pickID>de.gempa.tb1.Pick/20250411183116.686492.119442</pickID><phase>P</phase><azimuth>125.2043685913086</azimuth><distance>0.43348488211631775</distance><timeResidual>-0.17969703674316406</timeResidual><timeUsed>true</timeUsed><horizontalSlownessUsed>false</horizontalSlownessUsed><backazimuthUsed>false</backazimuthUsed><weight>1</weight></arrival><arrival><pickID>de.gempa.tb1.Pick/20250411183117.560561.119444</pickID><phase>P</phase><azimuth>46.31581878662109</azimuth><distance>0.36268189549446106</distance><timeResidual>0.3876662254333496</timeResidual><timeUsed>true</timeUsed><horizontalSlownessUsed>false</horizontalSlownessUsed><backazimuthUsed>false</backazimuthUsed><weight>1</weight></arrival><arrival><pickID>de.gempa.tb1.Pick/20250411183124.220473.119446</pickID><phase>P</phase><azimuth>229.125732421875</azimuth><distance>0.8475732803344727</distance><timeResidual>0.23006248474121094</timeResidual><timeUsed>true</timeUsed><horizontalSlownessUsed>false</horizontalSlownessUsed><backazimuthUsed>false</backazimuthUsed><weight>1</weight></arrival><arrival><pickID>de.gempa.tb1.Pick/20250411183124.54906.119448</pickID><phase>P</phase><azimuth>6.016985893249512</azimuth><distance>0.9099238514900208</distance><timeResidual>-0.2792320251464844</timeResidual><timeUsed>true</timeUsed><horizontalSlownessUsed>false</horizontalSlownessUsed><backazimuthUsed>false</backazimuthUsed><weight>1</weight></arrival><arrival><pickID>de.gempa.tb1.Pick/20250411183130.554318.119450</pickID><phase>P</phase><azimuth>151.2675323486328</azimuth><distance>1.076209545135498</distance><timeResidual>-0.09464645385742188</timeResidual><timeUsed>true</timeUsed><horizontalSlownessUsed>false</horizontalSlownessUsed><backazimuthUsed>false</backazimuthUsed><weight>1</weight></arrival><arrival><pickID>de.gempa.tb1.Pick/20250411183135.55947.119452</pickID><phase>P</phase><azimuth>358.6837463378906</azimuth><distance>1.2255040407180786</distance><timeResidual>-0.4123868942260742</timeResidual><timeUsed>true</timeUsed><horizontalSlownessUsed>false</horizontalSlownessUsed><backazimuthUsed>false</backazimuthUsed><weight>1</weight></arrival><arrival><pickID>de.gempa.tb1.Pick/20250411183136.403685.119454</pickID><phase>P</phase><azimuth>26.299585342407227</azimuth><distance>1.2879638671875</distance><timeResidual>-0.39866065979003906</timeResidual><timeUsed>true</timeUsed><horizontalSlownessUsed>false</horizontalSlownessUsed><backazimuthUsed>false</backazimuthUsed><weight>1</weight></arrival><arrival><pickID>de.gempa.tb1.Pick/20250411183139.609219.119457</pickID><phase>P</phase><azimuth>358.6851501464844</azimuth><distance>1.6305495500564575</distance><timeResidual>-0.3283195495605469</timeResidual><timeUsed>true</timeUsed><horizontalSlownessUsed>false</horizontalSlownessUsed><backazimuthUsed>false</backazimuthUsed><weight>1</weight></arrival><arrival><pickID>de.gempa.tb1.Pick/20250411183145.507567.119461</pickID><phase>P</phase><azimuth>10.245352745056152</azimuth><distance>1.935700535774231</distance><timeResidual>0.671539306640625</timeResidual><timeUsed>true</timeUsed><horizontalSlownessUsed>false</horizontalSlownessUsed><backazimuthUsed>false</backazimuthUsed><weight>1</weight></arrival><arrival><pickID>de.gempa.tb1.Pick/20250411183203.814367.119468</pickID><phase>S</phase><azimuth>358.6851501464844</azimuth><distance>1.6305495500564575</distance><timeResidual>-0.3809947967529297</timeResidual><timeUsed>true</timeUsed><horizontalSlownessUsed>false</horizontalSlownessUsed><backazimuthUsed>false</backazimuthUsed><weight>1</weight></arrival><arrival><pickID>de.gempa.tb1.Pick/20250411183210.761921.119470</pickID><phase>S</phase><azimuth>10.245352745056152</azimuth><distance>1.935700535774231</distance><timeResidual>0.7847537994384766</timeResidual><timeUsed>true</timeUsed><horizontalSlownessUsed>false</horizontalSlownessUsed><backazimuthUsed>false</backazimuthUsed><weight>1</weight></arrival><magnitude publicID="de.gempa.tb1.Magnitude/20250411183210.77419.131258"><magnitude><value>2.8127368897722254</value></magnitude><type>M</type><methodID>weighted average</methodID><stationCount>7</stationCount></magnitude></origin><event publicID="gempa2025hedg"><preferredOriginID>de.gempa.tb1.Origin/20250411183210.765307.63393</preferredOriginID><preferredMagnitudeID>de.gempa.tb1.Magnitude/20250411183210.77419.131258</preferredMagnitudeID><description><text>Northern Chile</text><type>region name</type></description><originReference>de.gempa.tb1.Origin/20250411183210.765307.63393</originReference></event></EventParameters></seiscomp>