<?xml version="1.0" encoding="UTF-8"?>
<seiscomp xmlns="http://geofon.gfz-potsdam.de/ns/seiscomp3-schema/0.13" version="0.13"><EventParameters><pick publicID="de.gempa.tb1.Pick/20250411145238.563112.118246"><time><value>2025-04-11T14:52:30.35Z</value></time><waveformID networkCode="CX" stationCode="PB09" channelCode="HHZ"/><filterID>ITAPER(4)&gt;&gt;BW(4,4,20)</filterID><methodID>AIC</methodID><horizontalSlowness><value>19.791353032019543</value></horizontalSlowness><backazimuth><value>283.8410900826867</value></backazimuth><phaseHint>P</phaseHint><evaluationMode>automatic</evaluationMode><comment><text>11.53870110783301</text><id>DFX:rectilinearity</id></comment><comment><text>49.31994859092572</text><id>SNR</id></comment></pick><pick publicID="de.gempa.tb1.Pick/20250411145238.782328.118248"><time><value>2025-04-11T14:52:32.958394Z</value></time><waveformID networkCode="CX" stationCode="PB03" channelCode="HHZ"/><filterID>ITAPER(4)&gt;&gt;BW(4,4,20)</filterID><methodID>AIC</methodID><horizontalSlowness><value>8.173432593349334</value></horizontalSlowness><backazimuth><value>126.0887819414938</value></backazimuth><phaseHint>P</phaseHint><evaluationMode>automatic</evaluationMode><comment><text>37.07173015768687</text><id>DFX:rectilinearity</id></comment><comment><text>47.52591659500486</text><id>SNR</id></comment></pick><pick publicID="de.gempa.tb1.Pick/20250411145239.582824.118250"><time><value>2025-04-11T14:52:32.538393Z</value></time><waveformID networkCode="CX" stationCode="PB06" channelCode="HHZ"/><filterID>ITAPER(4)&gt;&gt;BW(4,4,20)</filterID><methodID>AIC</methodID><horizontalSlowness><value>14.726812611276342</value></horizontalSlowness><backazimuth><value>299.70322875305953</value></backazimuth><phaseHint>P</phaseHint><evaluationMode>automatic</evaluationMode><comment><text>191.17722920464905</text><id>DFX:rectilinearity</id></comment><comment><text>26.283627713628487</text><id>SNR</id></comment></pick><pick publicID="de.gempa.tb1.Pick/20250411145245.581269.118252"><time><value>2025-04-11T14:52:37.378394Z</value></time><waveformID networkCode="CX" stationCode="PB01" channelCode="HHZ"/><filterID>ITAPER(4)&gt;&gt;BW(4,4,20)</filterID><methodID>AIC</methodID><horizontalSlowness><value>23.267725138927197</value></horizontalSlowness><backazimuth><value>179.05020575501717</value></backazimuth><phaseHint>P</phaseHint><evaluationMode>automatic</evaluationMode><comment><text>13.035375781373148</text><id>DFX:rectilinearity</id></comment><comment><text>10.013028351015835</text><id>SNR</id></comment></pick><pick publicID="de.gempa.tb1.Pick/20250411145246.399344.118254"><time><value>2025-04-11T14:52:35.368393Z</value></time><waveformID networkCode="CX" stationCode="PB07" channelCode="HHZ"/><filterID>ITAPER(4)&gt;&gt;BW(4,4,20)</filterID><methodID>AIC</methodID><horizontalSlowness><value>22.987839218336003</value></horizontalSlowness><backazimuth><value>76.48509225595086</value></backazimuth><phaseHint>P</phaseHint><evaluationMode>automatic</evaluationMode><comment><text>220.28218102364167</text><id>DFX:rectilinearity</id></comment><comment><text>127.7144490852868</text><id>SNR</id></comment></pick><pick publicID="de.gempa.tb1.Pick/20250411145246.532751.118256"><time><value>2025-04-11T14:52:38.038393Z</value></time><waveformID networkCode="CX" stationCode="PB02" channelCode="HHZ"/><filterID>ITAPER(4)&gt;&gt;BW(4,4,20)</filterID><methodID>AIC</methodID><horizontalSlowness><value>9.250889586131848</value></horizontalSlowness><backazimuth><value>45.13266667457205</value></backazimuth><phaseHint>P</phaseHint><evaluationMode>automatic</evaluationMode><comment><text>37.79429336917059</text><id>DFX:rectilinearity</id></comment><comment><text>15.953736406439326</text><id>SNR</id></comment></pick><pick publicID="de.gempa.tb1.Pick/20250411145255.641969.118258"><time><value>2025-04-11T14:52:48.788393Z</value></time><waveformID networkCode="CX" stationCode="PB06" channelCode="HHN"/><filterID>ITAPER(2)&gt;&gt;BW(3,3,20)</filterID><methodID>L2-AIC-GRID</methodID><horizontalSlowness><value>21.989584130364698</value></horizontalSlowness><backazimuth><value>280.25338956436946</value></backazimuth><phaseHint>S</phaseHint><evaluationMode>automatic</evaluationMode><comment><text>96.16979147596206</text><id>DFX:rectilinearity</id></comment><comment><text>de.gempa.tb1.Pick/20250411145239.582824.118250</text><id>RefPickID</id></comment><comment><text>10.552235744202761</text><id>SNR</id></comment></pick><pick publicID="de.gempa.tb1.Pick/20250411145300.618753.118259"><time><value>2025-04-11T14:52:49.808394Z</value></time><waveformID networkCode="CX" stationCode="PB03" channelCode="HHN"/><filterID>ITAPER(2)&gt;&gt;BW(3,3,20)</filterID><methodID>L2-AIC-GRID</methodID><horizontalSlowness><value>10.035941197095086</value></horizontalSlowness><backazimuth><value>237.7119379024872</value></backazimuth><phaseHint>S</phaseHint><evaluationMode>automatic</evaluationMode><comment><text>233.7994283970839</text><id>DFX:rectilinearity</id></comment><comment><text>de.gempa.tb1.Pick/20250411145238.782328.118248</text><id>RefPickID</id></comment><comment><text>13.387402141417603</text><id>SNR</id></comment></pick><pick publicID="de.gempa.tb1.Pick/20250411145307.60191.118263"><time><value>2025-04-11T14:52:56.498394Z</value></time><waveformID networkCode="CX" stationCode="PB01" channelCode="HHN"/><filterID>ITAPER(2)&gt;&gt;BW(3,3,20)</filterID><methodID>L2-AIC-GRID</methodID><horizontalSlowness><value>20.887269926506807</value></horizontalSlowness><backazimuth><value>296.16750553672114</value></backazimuth><phaseHint>S</phaseHint><evaluationMode>automatic</evaluationMode><comment><text>24.519736094021244</text><id>DFX:rectilinearity</id></comment><comment><text>de.gempa.tb1.Pick/20250411145245.581269.118252</text><id>RefPickID</id></comment><comment><text>7.851434349307515</text><id>SNR</id></comment></pick><pick publicID="de.gempa.tb1.Pick/20250411145309.503877.118264"><time><value>2025-04-11T14:52:57.488393Z</value></time><waveformID networkCode="CX" stationCode="PB02" channelCode="HHN"/><filterID>ITAPER(2)&gt;&gt;BW(3,3,20)</filterID><methodID>L2-AIC-GRID</methodID><horizontalSlowness><value>20.5616197145301</value></horizontalSlowness><backazimuth><value>33.594581533777045</value></backazimuth><phaseHint>S</phaseHint><evaluationMode>automatic</evaluationMode><comment><text>147.48894944450177</text><id>DFX:rectilinearity</id></comment><comment><text>de.gempa.tb1.Pick/20250411145246.532751.118256</text><id>RefPickID</id></comment><comment><text>5.93187274240352</text><id>SNR</id></comment></pick><pick publicID="de.gempa.tb1.Pick/20250411145323.260478.118267"><time><value>2025-04-11T14:52:53.398393Z</value></time><waveformID networkCode="CX" stationCode="PB07" channelCode="HHN"/><filterID>ITAPER(2)&gt;&gt;BW(3,3,20)</filterID><methodID>L2-AIC-GRID</methodID><horizontalSlowness><value>22.848961773531475</value></horizontalSlowness><backazimuth><value>49.15173694060675</value></backazimuth><phaseHint>S</phaseHint><evaluationMode>automatic</evaluationMode><comment><text>2707.694035060468</text><id>DFX:rectilinearity</id></comment><comment><text>de.gempa.tb1.Pick/20250411145246.399344.118254</text><id>RefPickID</id></comment><comment><text>7.076007119359791</text><id>SNR</id></comment></pick><origin publicID="de.gempa.tb1.Origin/20250411145323.463206.58267"><time><value>2025-04-11T14:52:12.039072Z</value><uncertainty>1.1353559494018555</uncertainty></time><latitude><value>-22.19306182861328</value><uncertainty>4.678462982177734</uncertainty></latitude><longitude><value>-68.7280502319336</value><uncertainty>13.1383695602417</uncertainty></longitude><depth><value>112.9882583618164</value><uncertainty>16.263036727905273</uncertainty></depth><depthType>from location</depthType><methodID>LOCSAT</methodID><earthModelID>iasp91_scanloc</earthModelID><quality><associatedPhaseCount>11</associatedPhaseCount><usedPhaseCount>11</usedPhaseCount><associatedStationCount>6</associatedStationCount><usedStationCount>6</usedStationCount><depthPhaseCount>0</depthPhaseCount><standardError>0.2324299771289706</standardError><azimuthalGap>268.504150390625</azimuthalGap><maximumDistance>1.3907426595687866</maximumDistance><minimumDistance>0.6191025972366333</minimumDistance><medianDistance>1.1710063219070435</medianDistance></quality><uncertainty><minHorizontalUncertainty>9.770225524902344</minHorizontalUncertainty><maxHorizontalUncertainty>28.261518478393555</maxHorizontalUncertainty><azimuthMaxHorizontalUncertainty>85.08349609375</azimuthMaxHorizontalUncertainty><preferredDescription>horizontal uncertainty</preferredDescription></uncertainty><evaluationMode>automatic</evaluationMode><evaluationStatus>confirmed</evaluationStatus><comment><text>0.05</text><id>mismatchScore</id></comment><comment><text>mismatchScore</text><id>scevalMethod</id></comment><arrival><pickID>de.gempa.tb1.Pick/20250411145238.563112.118246</pickID><phase>P</phase><azimuth>309.5202331542969</azimuth><distance>0.6191025972366333</distance><timeResidual>0.26616477966308594</timeResidual><timeUsed>true</timeUsed><horizontalSlownessUsed>false</horizontalSlownessUsed><backazimuthUsed>false</backazimuthUsed><weight>1</weight></arrival><arrival><pickID>de.gempa.tb1.Pick/20250411145238.782328.118248</pickID><phase>P</phase><azimuth>278.4165954589844</azimuth><distance>0.9613240361213684</distance><timeResidual>-0.1701984405517578</timeResidual><timeUsed>true</timeUsed><horizontalSlownessUsed>false</horizontalSlownessUsed><backazimuthUsed>false</backazimuthUsed><weight>1</weight></arrival><arrival><pickID>de.gempa.tb1.Pick/20250411145239.582824.118250</pickID><phase>P</phase><azimuth>236.6679992675781</azimuth><distance>0.9326266646385193</distance><timeResidual>-0.3029956817626953</timeResidual><timeUsed>true</timeUsed><horizontalSlownessUsed>false</horizontalSlownessUsed><backazimuthUsed>false</backazimuthUsed><weight>1</weight></arrival><arrival><pickID>de.gempa.tb1.Pick/20250411145245.581269.118252</pickID><phase>P</phase><azimuth>328.1638488769531</azimuth><distance>1.3447790145874023</distance><timeResidual>0.11397933959960938</timeResidual><timeUsed>true</timeUsed><horizontalSlownessUsed>false</horizontalSlownessUsed><backazimuthUsed>false</backazimuthUsed><weight>1</weight></arrival><arrival><pickID>de.gempa.tb1.Pick/20250411145246.399344.118254</pickID><phase>P</phase><azimuth>293.1344299316406</azimuth><distance>1.1710063219070435</distance><timeResidual>0.04811286926269531</timeResidual><timeUsed>true</timeUsed><horizontalSlownessUsed>false</horizontalSlownessUsed><backazimuthUsed>false</backazimuthUsed><weight>1</weight></arrival><arrival><pickID>de.gempa.tb1.Pick/20250411145246.532751.118256</pickID><phase>P</phase><azimuth>308.4580993652344</azimuth><distance>1.3907426595687866</distance><timeResidual>0.2473907470703125</timeResidual><timeUsed>true</timeUsed><horizontalSlownessUsed>false</horizontalSlownessUsed><backazimuthUsed>false</backazimuthUsed><weight>1</weight></arrival><arrival><pickID>de.gempa.tb1.Pick/20250411145255.641969.118258</pickID><phase>S</phase><azimuth>236.6679992675781</azimuth><distance>0.9326266646385193</distance><timeResidual>-0.11553192138671875</timeResidual><timeUsed>true</timeUsed><horizontalSlownessUsed>false</horizontalSlownessUsed><backazimuthUsed>false</backazimuthUsed><weight>1</weight></arrival><arrival><pickID>de.gempa.tb1.Pick/20250411145300.618753.118259</pickID><phase>S</phase><azimuth>278.4165954589844</azimuth><distance>0.9613240361213684</distance><timeResidual>0.39282989501953125</timeResidual><timeUsed>true</timeUsed><horizontalSlownessUsed>false</horizontalSlownessUsed><backazimuthUsed>false</backazimuthUsed><weight>1</weight></arrival><arrival><pickID>de.gempa.tb1.Pick/20250411145307.60191.118263</pickID><phase>S</phase><azimuth>328.1638488769531</azimuth><distance>1.3447790145874023</distance><timeResidual>-0.29990577697753906</timeResidual><timeUsed>true</timeUsed><horizontalSlownessUsed>false</horizontalSlownessUsed><backazimuthUsed>false</backazimuthUsed><weight>1</weight></arrival><arrival><pickID>de.gempa.tb1.Pick/20250411145309.503877.118264</pickID><phase>S</phase><azimuth>308.4580993652344</azimuth><distance>1.3907426595687866</distance><timeResidual>-0.2517127990722656</timeResidual><timeUsed>true</timeUsed><horizontalSlownessUsed>false</horizontalSlownessUsed><backazimuthUsed>false</backazimuthUsed><weight>1</weight></arrival><arrival><pickID>de.gempa.tb1.Pick/20250411145323.260478.118267</pickID><phase>S</phase><azimuth>293.1344299316406</azimuth><distance>1.1710063219070435</distance><timeResidual>0.07189559936523438</timeResidual><timeUsed>true</timeUsed><horizontalSlownessUsed>false</horizontalSlownessUsed><backazimuthUsed>false</backazimuthUsed><weight>1</weight></arrival><magnitude publicID="de.gempa.tb1.Magnitude/20250411145323.46907.110444"><magnitude><value>2.07776174634207</value></magnitude><type>M</type><methodID>weighted average</methodID><stationCount>3</stationCount></magnitude></origin><event publicID="gempa2025hdvy"><preferredOriginID>de.gempa.tb1.Origin/20250411145323.463206.58267</preferredOriginID><preferredMagnitudeID>de.gempa.tb1.Magnitude/20250411145323.46907.110444</preferredMagnitudeID><description><text>Northern Chile</text><type>region name</type></description><originReference>de.gempa.tb1.Origin/20250411145323.463206.58267</originReference></event></EventParameters></seiscomp>