<?xml version="1.0" encoding="UTF-8"?>
<seiscomp xmlns="http://geofon.gfz-potsdam.de/ns/seiscomp3-schema/0.13" version="0.13"><EventParameters><pick publicID="de.gempa.tb1.Pick/20250413173914.009852.132740"><time><value>2025-04-13T17:39:07.01Z</value></time><waveformID networkCode="CX" stationCode="PB09" channelCode="HHN"/><filterID>ITAPER(2)&gt;&gt;BW(3,3,20)</filterID><methodID>L2-AIC-GRID</methodID><horizontalSlowness><value>19.387616342474217</value></horizontalSlowness><backazimuth><value>117.50003386194524</value></backazimuth><phaseHint>S</phaseHint><evaluationMode>automatic</evaluationMode><comment><text>8252.041902459598</text><id>DFX:rectilinearity</id></comment><comment><text>de.gempa.tb1.Pick/20250413173912.004924.132736</text><id>RefPickID</id></comment><comment><text>1770.7932872771428</text><id>SNR</id></comment></pick><pick publicID="de.gempa.tb1.Pick/20250413173914.632051.132741"><time><value>2025-04-13T17:39:10.668393Z</value></time><waveformID networkCode="CX" stationCode="PB06" channelCode="HHZ"/><filterID>ITAPER(4)&gt;&gt;BW(4,4,20)</filterID><methodID>AIC</methodID><horizontalSlowness><value>6.397706529222946</value></horizontalSlowness><backazimuth><value>83.46533474609771</value></backazimuth><phaseHint>P</phaseHint><evaluationMode>automatic</evaluationMode><comment><text>1626.9425170814143</text><id>DFX:rectilinearity</id></comment><comment><text>201.60958518575734</text><id>SNR</id></comment></pick><pick publicID="de.gempa.tb1.Pick/20250413173914.721093.132743"><time><value>2025-04-13T17:39:09.618394Z</value></time><waveformID networkCode="CX" stationCode="PB03" channelCode="HHZ"/><filterID>ITAPER(4)&gt;&gt;BW(4,4,20)</filterID><methodID>AIC</methodID><horizontalSlowness><value>9.5363041370433</value></horizontalSlowness><backazimuth><value>98.18344740355596</value></backazimuth><phaseHint>P</phaseHint><evaluationMode>automatic</evaluationMode><comment><text>23432.646668530713</text><id>DFX:rectilinearity</id></comment><comment><text>844.1465950499269</text><id>SNR</id></comment></pick><pick publicID="de.gempa.tb1.Pick/20250413173917.615758.132745"><time><value>2025-04-13T17:39:13.698393Z</value></time><waveformID networkCode="CX" stationCode="PB01" channelCode="HHZ"/><filterID>ITAPER(4)&gt;&gt;BW(4,4,20)</filterID><methodID>AIC</methodID><horizontalSlowness><value>9.426889018055178</value></horizontalSlowness><backazimuth><value>171.73432699055195</value></backazimuth><phaseHint>P</phaseHint><evaluationMode>automatic</evaluationMode><comment><text>2775.045529809552</text><id>DFX:rectilinearity</id></comment><comment><text>986.6787355674534</text><id>SNR</id></comment></pick><pick publicID="de.gempa.tb1.Pick/20250413173919.521403.132747"><time><value>2025-04-13T17:39:14.128393Z</value></time><waveformID networkCode="CX" stationCode="PB02" channelCode="HHZ"/><filterID>ITAPER(4)&gt;&gt;BW(4,4,20)</filterID><methodID>AIC</methodID><horizontalSlowness><value>5.78247303713525</value></horizontalSlowness><backazimuth><value>108.55452455017829</value></backazimuth><phaseHint>P</phaseHint><evaluationMode>automatic</evaluationMode><comment><text>16499.1002668519</text><id>DFX:rectilinearity</id></comment><comment><text>1055.8395457508134</text><id>SNR</id></comment></pick><pick publicID="de.gempa.tb1.Pick/20250413173919.777221.132749"><time><value>2025-04-13T17:39:15.048394Z</value></time><waveformID networkCode="CX" stationCode="PB15" channelCode="HHZ"/><filterID>ITAPER(4)&gt;&gt;BW(4,4,20)</filterID><methodID>AIC</methodID><horizontalSlowness><value>21.262346823331544</value></horizontalSlowness><backazimuth><value>92.56996403448859</value></backazimuth><phaseHint>P</phaseHint><evaluationMode>automatic</evaluationMode><comment><text>9370.119654109618</text><id>DFX:rectilinearity</id></comment><comment><text>53.44733521063188</text><id>SNR</id></comment></pick><pick publicID="de.gempa.tb1.Pick/20250413173927.426247.132752"><time><value>2025-04-13T17:39:20.149999Z</value></time><waveformID networkCode="CX" stationCode="PATCX" channelCode="HHZ"/><filterID>ITAPER(4)&gt;&gt;BW(4,4,20)</filterID><methodID>AIC</methodID><horizontalSlowness><value>4.722456383586918</value></horizontalSlowness><backazimuth><value>127.16779963749417</value></backazimuth><phaseHint>P</phaseHint><evaluationMode>automatic</evaluationMode><comment><text>1417.5285455529554</text><id>DFX:rectilinearity</id></comment><comment><text>104.65360449457869</text><id>SNR</id></comment></pick><pick publicID="de.gempa.tb1.Pick/20250413173928.503465.132754"><time><value>2025-04-13T17:39:22.7Z</value></time><waveformID networkCode="CX" stationCode="PB19" channelCode="HHZ"/><filterID>ITAPER(4)&gt;&gt;BW(4,4,20)</filterID><methodID>AIC</methodID><horizontalSlowness><value>12.063197772787403</value></horizontalSlowness><backazimuth><value>37.07349278550092</value></backazimuth><phaseHint>P</phaseHint><evaluationMode>automatic</evaluationMode><comment><text>107.13304506236085</text><id>DFX:rectilinearity</id></comment><comment><text>69.13929582728625</text><id>SNR</id></comment></pick><pick publicID="de.gempa.tb1.Pick/20250413173930.633431.132756"><time><value>2025-04-13T17:39:25.378393Z</value></time><waveformID networkCode="CX" stationCode="PB06" channelCode="HHN"/><filterID>ITAPER(2)&gt;&gt;BW(3,3,20)</filterID><methodID>L2-AIC-GRID</methodID><horizontalSlowness><value>22.747053397948623</value></horizontalSlowness><backazimuth><value>310.0657344262636</value></backazimuth><phaseHint>S</phaseHint><evaluationMode>automatic</evaluationMode><comment><text>63626.14483385726</text><id>DFX:rectilinearity</id></comment><comment><text>de.gempa.tb1.Pick/20250413173914.632051.132741</text><id>RefPickID</id></comment><comment><text>15.504797420665323</text><id>SNR</id></comment></pick><pick publicID="de.gempa.tb1.Pick/20250413173930.729956.132757"><time><value>2025-04-13T17:39:24.648393Z</value></time><waveformID networkCode="CX" stationCode="PB08" channelCode="HHZ"/><filterID>ITAPER(4)&gt;&gt;BW(4,4,20)</filterID><methodID>AIC</methodID><horizontalSlowness><value>16.012727052791305</value></horizontalSlowness><backazimuth><value>223.57710262006844</value></backazimuth><phaseHint>P</phaseHint><evaluationMode>automatic</evaluationMode><comment><text>69.7187511845649</text><id>DFX:rectilinearity</id></comment><comment><text>16.6159755279533</text><id>SNR</id></comment></pick><pick publicID="de.gempa.tb1.Pick/20250413173930.784325.132759"><time><value>2025-04-13T17:39:23.718394Z</value></time><waveformID networkCode="CX" stationCode="PB03" channelCode="HHN"/><filterID>ITAPER(2)&gt;&gt;BW(3,3,20)</filterID><methodID>L2-AIC-GRID</methodID><horizontalSlowness><value>15.367323944971492</value></horizontalSlowness><backazimuth><value>254.3458496447568</value></backazimuth><phaseHint>S</phaseHint><evaluationMode>automatic</evaluationMode><comment><text>18425.385176297983</text><id>DFX:rectilinearity</id></comment><comment><text>de.gempa.tb1.Pick/20250413173914.721093.132743</text><id>RefPickID</id></comment><comment><text>8.488841766941389</text><id>SNR</id></comment></pick><pick publicID="de.gempa.tb1.Pick/20250413173934.27364.132761"><time><value>2025-04-13T17:39:11.748391Z</value></time><waveformID networkCode="CX" stationCode="PB07" channelCode="HHZ"/><filterID>ITAPER(4)&gt;&gt;BW(4,4,20)</filterID><methodID>AIC</methodID><horizontalSlowness><value>13.505328738193608</value></horizontalSlowness><backazimuth><value>138.97110400685085</value></backazimuth><phaseHint>P</phaseHint><evaluationMode>automatic</evaluationMode><comment><text>64965.16741245141</text><id>DFX:rectilinearity</id></comment><comment><text>3080.4757741539647</text><id>SNR</id></comment></pick><pick publicID="de.gempa.tb1.Pick/20250413173937.209519.132763"><time><value>2025-04-13T17:39:28.259998Z</value></time><waveformID networkCode="CX" stationCode="PB10" channelCode="HHZ"/><filterID>ITAPER(4)&gt;&gt;BW(4,4,20)</filterID><methodID>AIC</methodID><horizontalSlowness><value>2.37501874803352</value></horizontalSlowness><backazimuth><value>66.44793778845217</value></backazimuth><phaseHint>P</phaseHint><evaluationMode>automatic</evaluationMode><comment><text>64.84326145587484</text><id>DFX:rectilinearity</id></comment><comment><text>7.727236808973577</text><id>SNR</id></comment></pick><pick publicID="de.gempa.tb1.Pick/20250413173938.600396.132767"><time><value>2025-04-13T17:39:31.898393Z</value></time><waveformID networkCode="CX" stationCode="PB02" channelCode="HHN"/><filterID>ITAPER(2)&gt;&gt;BW(3,3,20)</filterID><methodID>L2-AIC-GRID</methodID><horizontalSlowness><value>21.665960298144643</value></horizontalSlowness><backazimuth><value>239.93609719461176</value></backazimuth><phaseHint>S</phaseHint><evaluationMode>automatic</evaluationMode><comment><text>74088.02558090325</text><id>DFX:rectilinearity</id></comment><comment><text>de.gempa.tb1.Pick/20250413173919.521403.132747</text><id>RefPickID</id></comment><comment><text>6.451785413403764</text><id>SNR</id></comment></pick><pick publicID="de.gempa.tb1.Pick/20250413173938.679483.132768"><time><value>2025-04-13T17:39:30.968393Z</value></time><waveformID networkCode="CX" stationCode="PB01" channelCode="HHN"/><filterID>ITAPER(2)&gt;&gt;BW(3,3,20)</filterID><methodID>L2-AIC-GRID</methodID><horizontalSlowness><value>22.67090314113781</value></horizontalSlowness><backazimuth><value>281.2094274009396</value></backazimuth><phaseHint>S</phaseHint><evaluationMode>automatic</evaluationMode><comment><text>125810.83276135383</text><id>DFX:rectilinearity</id></comment><comment><text>de.gempa.tb1.Pick/20250413173917.615758.132745</text><id>RefPickID</id></comment><comment><text>24.63937020659974</text><id>SNR</id></comment></pick><origin publicID="de.gempa.tb1.Origin/20250413173938.682851.115953"><time><value>2025-04-13T17:38:50.565302Z</value><uncertainty>0.9526523947715759</uncertainty></time><latitude><value>-22.02077865600586</value><uncertainty>2.3410675525665283</uncertainty></latitude><longitude><value>-68.72216033935547</value><uncertainty>4.055605411529541</uncertainty></longitude><depth><value>10.904894828796387</value><uncertainty>5.385404109954834</uncertainty></depth><depthType>from location</depthType><methodID>LOCSAT</methodID><earthModelID>iasp91_scanloc</earthModelID><quality><associatedPhaseCount>15</associatedPhaseCount><usedPhaseCount>15</usedPhaseCount><associatedStationCount>11</associatedStationCount><usedStationCount>11</usedStationCount><depthPhaseCount>0</depthPhaseCount><standardError>0.8791790027547663</standardError><azimuthalGap>207.73141479492188</azimuthalGap><maximumDistance>2.2507476806640625</maximumDistance><minimumDistance>0.5318268537521362</minimumDistance><medianDistance>1.2057558298110962</medianDistance></quality><uncertainty><minHorizontalUncertainty>4.86107063293457</minHorizontalUncertainty><maxHorizontalUncertainty>8.789180755615234</maxHorizontalUncertainty><azimuthMaxHorizontalUncertainty>80.10670471191406</azimuthMaxHorizontalUncertainty><preferredDescription>horizontal uncertainty</preferredDescription></uncertainty><evaluationMode>automatic</evaluationMode><evaluationStatus>confirmed</evaluationStatus><comment><text>0.00</text><id>mismatchScore</id></comment><comment><text>mismatchScore</text><id>scevalMethod</id></comment><arrival><pickID>de.gempa.tb1.Pick/20250413173914.009852.132740</pickID><phase>S</phase><azimuth>294.7314453125</azimuth><distance>0.5318268537521362</distance><timeResidual>-1.4596405029296875</timeResidual><timeUsed>true</timeUsed><horizontalSlownessUsed>false</horizontalSlownessUsed><backazimuthUsed>false</backazimuthUsed><weight>1</weight></arrival><arrival><pickID>de.gempa.tb1.Pick/20250413173914.632051.132741</pickID><phase>P</phase><azimuth>228.9231414794922</azimuth><distance>1.0408955812454224</distance><timeResidual>0.13444900512695312</timeResidual><timeUsed>true</timeUsed><horizontalSlownessUsed>false</horizontalSlownessUsed><backazimuthUsed>false</backazimuthUsed><weight>1</weight></arrival><arrival><pickID>de.gempa.tb1.Pick/20250413173914.721093.132743</pickID><phase>P</phase><azimuth>268.1575622558594</azimuth><distance>0.956928551197052</distance><timeResidual>0.6358671188354492</timeResidual><timeUsed>true</timeUsed><horizontalSlownessUsed>false</horizontalSlownessUsed><backazimuthUsed>false</backazimuthUsed><weight>1</weight></arrival><arrival><pickID>de.gempa.tb1.Pick/20250413173917.615758.132745</pickID><phase>P</phase><azimuth>323.6395263671875</azimuth><distance>1.2057558298110962</distance><timeResidual>0.3327350616455078</timeResidual><timeUsed>true</timeUsed><horizontalSlownessUsed>false</horizontalSlownessUsed><backazimuthUsed>false</backazimuthUsed><weight>1</weight></arrival><arrival><pickID>de.gempa.tb1.Pick/20250413173919.521403.132747</pickID><phase>P</phase><azimuth>302.3583679199219</azimuth><distance>1.295719861984253</distance><timeResidual>-0.4835548400878906</timeResidual><timeUsed>true</timeUsed><horizontalSlownessUsed>false</horizontalSlownessUsed><backazimuthUsed>false</backazimuthUsed><weight>1</weight></arrival><arrival><pickID>de.gempa.tb1.Pick/20250413173919.777221.132749</pickID><phase>P</phase><azimuth>210.2009735107422</azimuth><distance>1.3695391416549683</distance><timeResidual>-0.5760383605957031</timeResidual><timeUsed>true</timeUsed><horizontalSlownessUsed>false</horizontalSlownessUsed><backazimuthUsed>false</backazimuthUsed><weight>1</weight></arrival><arrival><pickID>de.gempa.tb1.Pick/20250413173927.426247.132752</pickID><phase>P</phase><azimuth>311.592041015625</azimuth><distance>1.7896943092346191</distance><timeResidual>-1.261636734008789</timeResidual><timeUsed>true</timeUsed><horizontalSlownessUsed>false</horizontalSlownessUsed><backazimuthUsed>false</backazimuthUsed><weight>1</weight></arrival><arrival><pickID>de.gempa.tb1.Pick/20250413173928.503465.132754</pickID><phase>P</phase><azimuth>195.5020751953125</azimuth><distance>1.947018027305603</distance><timeResidual>-0.8708457946777344</timeResidual><timeUsed>true</timeUsed><horizontalSlownessUsed>false</horizontalSlownessUsed><backazimuthUsed>false</backazimuthUsed><weight>1</weight></arrival><arrival><pickID>de.gempa.tb1.Pick/20250413173930.633431.132756</pickID><phase>S</phase><azimuth>228.9231414794922</azimuth><distance>1.0408955812454224</distance><timeResidual>0.31456756591796875</timeResidual><timeUsed>true</timeUsed><horizontalSlownessUsed>false</horizontalSlownessUsed><backazimuthUsed>false</backazimuthUsed><weight>1</weight></arrival><arrival><pickID>de.gempa.tb1.Pick/20250413173930.729956.132757</pickID><phase>P</phase><azimuth>347.7706604003906</azimuth><distance>1.9131661653518677</distance><timeResidual>1.536113739013672</timeResidual><timeUsed>true</timeUsed><horizontalSlownessUsed>false</horizontalSlownessUsed><backazimuthUsed>false</backazimuthUsed><weight>1</weight></arrival><arrival><pickID>de.gempa.tb1.Pick/20250413173930.784325.132759</pickID><phase>S</phase><azimuth>268.1575622558594</azimuth><distance>0.956928551197052</distance><timeResidual>1.3562259674072266</timeResidual><timeUsed>true</timeUsed><horizontalSlownessUsed>false</horizontalSlownessUsed><backazimuthUsed>false</backazimuthUsed><weight>1</weight></arrival><arrival><pickID>de.gempa.tb1.Pick/20250413173934.27364.132761</pickID><phase>P</phase><azimuth>284.9306945800781</azimuth><distance>1.1201274394989014</distance><timeResidual>-0.21837234497070312</timeResidual><timeUsed>true</timeUsed><horizontalSlownessUsed>false</horizontalSlownessUsed><backazimuthUsed>false</backazimuthUsed><weight>1</weight></arrival><arrival><pickID>de.gempa.tb1.Pick/20250413173937.209519.132763</pickID><phase>P</phase><azimuth>228.34767150878906</azimuth><distance>2.2507476806640625</distance><timeResidual>0.5082340240478516</timeResidual><timeUsed>true</timeUsed><horizontalSlownessUsed>false</horizontalSlownessUsed><backazimuthUsed>false</backazimuthUsed><weight>1</weight></arrival><arrival><pickID>de.gempa.tb1.Pick/20250413173938.600396.132767</pickID><phase>S</phase><azimuth>302.3583679199219</azimuth><distance>1.295719861984253</distance><timeResidual>-0.8121757507324219</timeResidual><timeUsed>true</timeUsed><horizontalSlownessUsed>false</horizontalSlownessUsed><backazimuthUsed>false</backazimuthUsed><weight>1</weight></arrival><arrival><pickID>de.gempa.tb1.Pick/20250413173938.679483.132768</pickID><phase>S</phase><azimuth>323.6395263671875</azimuth><distance>1.2057558298110962</distance><timeResidual>0.8668098449707031</timeResidual><timeUsed>true</timeUsed><horizontalSlownessUsed>false</horizontalSlownessUsed><backazimuthUsed>false</backazimuthUsed><weight>1</weight></arrival><magnitude publicID="de.gempa.tb1.Magnitude/20250413173940.938755.383963"><magnitude><value>3.205829032980588</value></magnitude><type>M</type><methodID>weighted average</methodID><stationCount>7</stationCount></magnitude></origin><event publicID="gempa2025hhto"><preferredOriginID>de.gempa.tb1.Origin/20250413173938.682851.115953</preferredOriginID><preferredMagnitudeID>de.gempa.tb1.Magnitude/20250413173940.938755.383963</preferredMagnitudeID><description><text>Northern Chile</text><type>region name</type></description><originReference>de.gempa.tb1.Origin/20250413173938.682851.115953</originReference></event></EventParameters></seiscomp>