<?xml version="1.0" encoding="UTF-8"?>
<seiscomp xmlns="http://geofon.gfz-potsdam.de/ns/seiscomp3-schema/0.13" version="0.13"><EventParameters><pick publicID="de.gempa.tb1.Pick/20250411213848.558469.120187"><time><value>2025-04-11T21:38:42.008393Z</value></time><waveformID networkCode="CX" stationCode="PB01" channelCode="HHZ"/><filterID>ITAPER(4)&gt;&gt;BW(4,4,20)</filterID><methodID>AIC</methodID><horizontalSlowness><value>13.328832644879594</value></horizontalSlowness><backazimuth><value>350.4038968666649</value></backazimuth><phaseHint>P</phaseHint><evaluationMode>automatic</evaluationMode><comment><text>14.75494006054117</text><id>DFX:rectilinearity</id></comment><comment><text>25.055810665113835</text><id>SNR</id></comment></pick><pick publicID="de.gempa.tb1.Pick/20250411213852.484983.120189"><time><value>2025-04-11T21:38:45.728393Z</value></time><waveformID networkCode="CX" stationCode="PB02" channelCode="HHZ"/><filterID>ITAPER(4)&gt;&gt;BW(4,4,20)</filterID><methodID>AIC</methodID><horizontalSlowness><value>14.41476419737125</value></horizontalSlowness><backazimuth><value>52.41834624703057</value></backazimuth><phaseHint>P</phaseHint><evaluationMode>automatic</evaluationMode><comment><text>28.466726740040507</text><id>DFX:rectilinearity</id></comment><comment><text>54.82431540793706</text><id>SNR</id></comment></pick><pick publicID="de.gempa.tb1.Pick/20250411213853.506144.120191"><time><value>2025-04-11T21:38:48.348393Z</value></time><waveformID networkCode="CX" stationCode="PB03" channelCode="HHZ"/><filterID>ITAPER(4)&gt;&gt;BW(4,4,20)</filterID><methodID>AIC</methodID><horizontalSlowness><value>2.3900638886931045</value></horizontalSlowness><backazimuth><value>266.0897792970791</value></backazimuth><phaseHint>P</phaseHint><evaluationMode>automatic</evaluationMode><comment><text>16.426048776953252</text><id>DFX:rectilinearity</id></comment><comment><text>10.774006995010616</text><id>SNR</id></comment></pick><pick publicID="de.gempa.tb1.Pick/20250411213855.497352.120193"><time><value>2025-04-11T21:38:48.269999Z</value></time><waveformID networkCode="CX" stationCode="PATCX" channelCode="HHZ"/><filterID>ITAPER(4)&gt;&gt;BW(4,4,20)</filterID><methodID>AIC</methodID><horizontalSlowness><value>20.033305614173521</value></horizontalSlowness><backazimuth><value>9.397571813269451</value></backazimuth><phaseHint>P</phaseHint><evaluationMode>automatic</evaluationMode><comment><text>163.66206496103487</text><id>DFX:rectilinearity</id></comment><comment><text>14.74611712365802</text><id>SNR</id></comment></pick><pick publicID="de.gempa.tb1.Pick/20250411213900.261816.120195"><time><value>2025-04-11T21:38:44.31Z</value></time><waveformID networkCode="CX" stationCode="PB09" channelCode="HHZ"/><filterID>ITAPER(4)&gt;&gt;BW(4,4,20)</filterID><methodID>AIC</methodID><horizontalSlowness><value>8.418389359728637</value></horizontalSlowness><backazimuth><value>358.91049540931925</value></backazimuth><phaseHint>P</phaseHint><evaluationMode>automatic</evaluationMode><comment><text>7.131086830943894</text><id>DFX:rectilinearity</id></comment><comment><text>26.43285300682208</text><id>SNR</id></comment></pick><pick publicID="de.gempa.tb1.Pick/20250411213902.602645.120197"><time><value>2025-04-11T21:38:47.118389Z</value></time><waveformID networkCode="CX" stationCode="PB07" channelCode="HHZ"/><filterID>ITAPER(4)&gt;&gt;BW(4,4,20)</filterID><methodID>AIC</methodID><horizontalSlowness><value>22.176084332947397</value></horizontalSlowness><backazimuth><value>286.1762691479202</value></backazimuth><phaseHint>P</phaseHint><evaluationMode>automatic</evaluationMode><comment><text>142.76936301049653</text><id>DFX:rectilinearity</id></comment><comment><text>42.77118206128816</text><id>SNR</id></comment></pick><pick publicID="de.gempa.tb1.Pick/20250411213905.842291.120199"><time><value>2025-04-11T21:38:55.218393Z</value></time><waveformID networkCode="CX" stationCode="PB01" channelCode="HHN"/><filterID>ITAPER(2)&gt;&gt;BW(3,3,20)</filterID><methodID>L2-AIC-GRID</methodID><horizontalSlowness><value>19.170788647510552</value></horizontalSlowness><backazimuth><value>323.26008648202315</value></backazimuth><phaseHint>S</phaseHint><evaluationMode>automatic</evaluationMode><comment><text>415.48669104030063</text><id>DFX:rectilinearity</id></comment><comment><text>de.gempa.tb1.Pick/20250411213848.558469.120187</text><id>RefPickID</id></comment><comment><text>17.76003067494496</text><id>SNR</id></comment></pick><pick publicID="de.gempa.tb1.Pick/20250411213909.515674.120200"><time><value>2025-04-11T21:39:01.528393Z</value></time><waveformID networkCode="CX" stationCode="PB02" channelCode="HHN"/><filterID>ITAPER(2)&gt;&gt;BW(3,3,20)</filterID><methodID>L2-AIC-GRID</methodID><horizontalSlowness><value>22.977392363471406</value></horizontalSlowness><backazimuth><value>251.5926649708786</value></backazimuth><phaseHint>S</phaseHint><evaluationMode>automatic</evaluationMode><comment><text>1065.8340790982288</text><id>DFX:rectilinearity</id></comment><comment><text>de.gempa.tb1.Pick/20250411213852.484983.120189</text><id>RefPickID</id></comment><comment><text>6.505960073162327</text><id>SNR</id></comment></pick><pick publicID="de.gempa.tb1.Pick/20250411213912.679298.120201"><time><value>2025-04-11T21:39:06.248393Z</value></time><waveformID networkCode="CX" stationCode="PB03" channelCode="HHN"/><filterID>ITAPER(2)&gt;&gt;BW(3,3,20)</filterID><methodID>L2-AIC-GRID</methodID><horizontalSlowness><value>9.019938523693989</value></horizontalSlowness><backazimuth><value>18.602949776246646</value></backazimuth><phaseHint>S</phaseHint><evaluationMode>automatic</evaluationMode><comment><text>23.682838017805913</text><id>DFX:rectilinearity</id></comment><comment><text>de.gempa.tb1.Pick/20250411213853.506144.120191</text><id>RefPickID</id></comment><comment><text>10.378043495010749</text><id>SNR</id></comment></pick><pick publicID="de.gempa.tb1.Pick/20250411213913.555136.120202"><time><value>2025-04-11T21:39:08.19Z</value></time><waveformID networkCode="CX" stationCode="PB19" channelCode="HHZ"/><filterID>ITAPER(4)&gt;&gt;BW(4,4,20)</filterID><methodID>AIC</methodID><horizontalSlowness><value>15.329555115481583</value></horizontalSlowness><backazimuth><value>182.177392115674</value></backazimuth><phaseHint>P</phaseHint><evaluationMode>automatic</evaluationMode><comment><text>23.00927165275468</text><id>DFX:rectilinearity</id></comment><comment><text>8.260609738263666</text><id>SNR</id></comment></pick><origin publicID="de.gempa.tb1.Origin/20250411213917.49566.66577"><time><value>2025-04-11T21:38:25.197234Z</value><uncertainty>1.0022881031036377</uncertainty></time><latitude><value>-21.129371643066406</value><uncertainty>6.24504566192627</uncertainty></latitude><longitude><value>-68.94541931152344</value><uncertainty>11.467702865600586</uncertainty></longitude><depth><value>110.87525939941406</value><uncertainty>10.241979598999023</uncertainty></depth><depthType>from location</depthType><methodID>LOCSAT</methodID><earthModelID>iasp91_scanloc</earthModelID><quality><associatedPhaseCount>10</associatedPhaseCount><usedPhaseCount>10</usedPhaseCount><associatedStationCount>7</associatedStationCount><usedStationCount>7</usedStationCount><depthPhaseCount>0</depthPhaseCount><standardError>0.2174315153141625</standardError><azimuthalGap>261.5171203613281</azimuthalGap><maximumDistance>2.780617952346802</maximumDistance><minimumDistance>0.5133294463157654</minimumDistance><medianDistance>1.0590183734893799</medianDistance></quality><uncertainty><minHorizontalUncertainty>13.281291007995605</minHorizontalUncertainty><maxHorizontalUncertainty>24.648193359375</maxHorizontalUncertainty><azimuthMaxHorizontalUncertainty>85.28324127197266</azimuthMaxHorizontalUncertainty><preferredDescription>horizontal uncertainty</preferredDescription></uncertainty><evaluationMode>automatic</evaluationMode><evaluationStatus>confirmed</evaluationStatus><comment><text>0.19</text><id>mismatchScore</id></comment><comment><text>mismatchScore</text><id>scevalMethod</id></comment><arrival><pickID>de.gempa.tb1.Pick/20250411213848.558469.120187</pickID><phase>P</phase><azimuth>279.51495361328125</azimuth><distance>0.5133294463157654</distance><timeResidual>-0.24530601501464844</timeResidual><timeUsed>true</timeUsed><horizontalSlownessUsed>false</horizontalSlownessUsed><backazimuthUsed>false</backazimuthUsed><weight>1</weight></arrival><arrival><pickID>de.gempa.tb1.Pick/20250411213852.484983.120189</pickID><phase>P</phase><azimuth>257.7736511230469</azimuth><distance>0.9069017767906189</distance><timeResidual>0.16310882568359375</timeResidual><timeUsed>true</timeUsed><horizontalSlownessUsed>false</horizontalSlownessUsed><backazimuthUsed>false</backazimuthUsed><weight>1</weight></arrival><arrival><pickID>de.gempa.tb1.Pick/20250411213853.506144.120191</pickID><phase>P</phase><azimuth>219.2694091796875</azimuth><distance>1.1838572025299072</distance><timeResidual>-0.10657501220703125</timeResidual><timeUsed>true</timeUsed><horizontalSlownessUsed>false</horizontalSlownessUsed><backazimuthUsed>false</backazimuthUsed><weight>1</weight></arrival><arrival><pickID>de.gempa.tb1.Pick/20250411213855.497352.120193</pickID><phase>P</phase><azimuth>285.0100402832031</azimuth><distance>1.1694568395614624</distance><timeResidual>-0.03307342529296875</timeResidual><timeUsed>true</timeUsed><horizontalSlownessUsed>false</horizontalSlownessUsed><backazimuthUsed>false</backazimuthUsed><weight>1</weight></arrival><arrival><pickID>de.gempa.tb1.Pick/20250411213900.261816.120195</pickID><phase>P</phase><azimuth>202.5391387939453</azimuth><distance>0.7188969850540161</distance><timeResidual>0.4769229888916016</timeResidual><timeUsed>true</timeUsed><horizontalSlownessUsed>false</horizontalSlownessUsed><backazimuthUsed>false</backazimuthUsed><weight>1</weight></arrival><arrival><pickID>de.gempa.tb1.Pick/20250411213902.602645.120197</pickID><phase>P</phase><azimuth>235.68885803222656</azimuth><distance>1.0590183734893799</distance><timeResidual>0.007757186889648438</timeResidual><timeUsed>true</timeUsed><horizontalSlownessUsed>false</horizontalSlownessUsed><backazimuthUsed>false</backazimuthUsed><weight>1</weight></arrival><arrival><pickID>de.gempa.tb1.Pick/20250411213905.842291.120199</pickID><phase>S</phase><azimuth>279.51495361328125</azimuth><distance>0.5133294463157654</distance><timeResidual>-0.1672229766845703</timeResidual><timeUsed>true</timeUsed><horizontalSlownessUsed>false</horizontalSlownessUsed><backazimuthUsed>false</backazimuthUsed><weight>1</weight></arrival><arrival><pickID>de.gempa.tb1.Pick/20250411213909.515674.120200</pickID><phase>S</phase><azimuth>257.7736511230469</azimuth><distance>0.9069017767906189</distance><timeResidual>0.24350547790527344</timeResidual><timeUsed>true</timeUsed><horizontalSlownessUsed>false</horizontalSlownessUsed><backazimuthUsed>false</backazimuthUsed><weight>1</weight></arrival><arrival><pickID>de.gempa.tb1.Pick/20250411213912.679298.120201</pickID><phase>S</phase><azimuth>219.2694091796875</azimuth><distance>1.1838572025299072</distance><timeResidual>-0.19396209716796875</timeResidual><timeUsed>true</timeUsed><horizontalSlownessUsed>false</horizontalSlownessUsed><backazimuthUsed>false</backazimuthUsed><weight>1</weight></arrival><arrival><pickID>de.gempa.tb1.Pick/20250411213913.555136.120202</pickID><phase>P</phase><azimuth>186.52716064453125</azimuth><distance>2.780617952346802</distance><timeResidual>-0.1453876495361328</timeResidual><timeUsed>true</timeUsed><horizontalSlownessUsed>false</horizontalSlownessUsed><backazimuthUsed>false</backazimuthUsed><weight>1</weight></arrival><magnitude publicID="de.gempa.tb1.Magnitude/20250411214000.644678.145238"><magnitude><value>2.255223086195889</value></magnitude><type>M</type><methodID>weighted average</methodID><stationCount>4</stationCount></magnitude></origin><event publicID="gempa2025hejn"><preferredOriginID>de.gempa.tb1.Origin/20250411213917.49566.66577</preferredOriginID><preferredMagnitudeID>de.gempa.tb1.Magnitude/20250411214000.644678.145238</preferredMagnitudeID><description><text>Chile-Bolivia Border Region</text><type>region name</type></description><originReference>de.gempa.tb1.Origin/20250411213917.49566.66577</originReference></event></EventParameters></seiscomp>