<?xml version="1.0" encoding="UTF-8"?>
<seiscomp xmlns="http://geofon.gfz-potsdam.de/ns/seiscomp3-schema/0.13" version="0.13"><EventParameters><pick publicID="de.gempa.tb1.Pick/20250412155616.538575.125081"><time><value>2025-04-12T15:56:11.738394Z</value></time><waveformID networkCode="CX" stationCode="PB01" channelCode="HHZ"/><filterID>ITAPER(4)&gt;&gt;BW(4,4,20)</filterID><methodID>AIC</methodID><horizontalSlowness><value>22.150885438915633</value></horizontalSlowness><backazimuth><value>68.70879694871624</value></backazimuth><phaseHint>P</phaseHint><evaluationMode>automatic</evaluationMode><comment><text>15.776033021593857</text><id>DFX:rectilinearity</id></comment><comment><text>21.224022031874355</text><id>SNR</id></comment></pick><pick publicID="de.gempa.tb1.Pick/20250412155619.609983.125083"><time><value>2025-04-12T15:56:14.718394Z</value></time><waveformID networkCode="CX" stationCode="PB02" channelCode="HHZ"/><filterID>ITAPER(4)&gt;&gt;BW(4,4,20)</filterID><methodID>AIC</methodID><horizontalSlowness><value>5.587395361891664</value></horizontalSlowness><backazimuth><value>29.624123651367114</value></backazimuth><phaseHint>P</phaseHint><evaluationMode>automatic</evaluationMode><comment><text>60.69430474390117</text><id>DFX:rectilinearity</id></comment><comment><text>32.7344613292451</text><id>SNR</id></comment></pick><pick publicID="de.gempa.tb1.Pick/20250412155620.537816.125085"><time><value>2025-04-12T15:56:13.778394Z</value></time><waveformID networkCode="CX" stationCode="PB03" channelCode="HHZ"/><filterID>ITAPER(4)&gt;&gt;BW(4,4,20)</filterID><methodID>AIC</methodID><horizontalSlowness><value>18.903628620103287</value></horizontalSlowness><backazimuth><value>210.9012139488545</value></backazimuth><phaseHint>P</phaseHint><evaluationMode>automatic</evaluationMode><comment><text>7.207207442497968</text><id>DFX:rectilinearity</id></comment><comment><text>11.094712165829069</text><id>SNR</id></comment></pick><pick publicID="de.gempa.tb1.Pick/20250412155621.87228.125087"><time><value>2025-04-12T15:56:09.02Z</value></time><waveformID networkCode="CX" stationCode="PB09" channelCode="HHZ"/><filterID>ITAPER(4)&gt;&gt;BW(4,4,20)</filterID><methodID>AIC</methodID><horizontalSlowness><value>16.551471965807387</value></horizontalSlowness><backazimuth><value>80.65244038517399</value></backazimuth><phaseHint>P</phaseHint><evaluationMode>automatic</evaluationMode><comment><text>48.43491083036967</text><id>DFX:rectilinearity</id></comment><comment><text>28.38794180774862</text><id>SNR</id></comment></pick><pick publicID="de.gempa.tb1.Pick/20250412155628.46663.125089"><time><value>2025-04-12T15:56:19.439999Z</value></time><waveformID networkCode="CX" stationCode="PATCX" channelCode="HHZ"/><filterID>ITAPER(4)&gt;&gt;BW(4,4,20)</filterID><methodID>AIC</methodID><horizontalSlowness><value>20.718561448398823</value></horizontalSlowness><backazimuth><value>44.065558664189467</value></backazimuth><phaseHint>P</phaseHint><evaluationMode>automatic</evaluationMode><comment><text>356.04695546295477</text><id>DFX:rectilinearity</id></comment><comment><text>8.023830558903347</text><id>SNR</id></comment></pick><pick publicID="de.gempa.tb1.Pick/20250412155635.631774.125091"><time><value>2025-04-12T15:56:29.458394Z</value></time><waveformID networkCode="CX" stationCode="PB01" channelCode="HHN"/><filterID>ITAPER(2)&gt;&gt;BW(3,3,20)</filterID><methodID>L2-AIC-GRID</methodID><horizontalSlowness><value>19.98427736230489</value></horizontalSlowness><backazimuth><value>302.90339140935123</value></backazimuth><phaseHint>S</phaseHint><evaluationMode>automatic</evaluationMode><comment><text>334.6195525034135</text><id>DFX:rectilinearity</id></comment><comment><text>de.gempa.tb1.Pick/20250412155616.538575.125081</text><id>RefPickID</id></comment><comment><text>10.626199758153287</text><id>SNR</id></comment></pick><pick publicID="de.gempa.tb1.Pick/20250412155636.565513.125092"><time><value>2025-04-12T15:56:27.5Z</value></time><waveformID networkCode="CX" stationCode="PSGCX" channelCode="HHZ"/><filterID>ITAPER(4)&gt;&gt;BW(4,4,20)</filterID><methodID>AIC</methodID><horizontalSlowness><value>23.25886421622363</value></horizontalSlowness><backazimuth><value>103.35579353428777</value></backazimuth><phaseHint>P</phaseHint><evaluationMode>automatic</evaluationMode><comment><text>14.946567451192037</text><id>DFX:rectilinearity</id></comment><comment><text>10.598825654894691</text><id>SNR</id></comment></pick><pick publicID="de.gempa.tb1.Pick/20250412155640.775946.125094"><time><value>2025-04-12T15:56:33.338394Z</value></time><waveformID networkCode="CX" stationCode="PB03" channelCode="HHN"/><filterID>ITAPER(2)&gt;&gt;BW(3,3,20)</filterID><methodID>L2-AIC-GRID</methodID><horizontalSlowness><value>8.993108967168142</value></horizontalSlowness><backazimuth><value>276.58703973844564</value></backazimuth><phaseHint>S</phaseHint><evaluationMode>automatic</evaluationMode><comment><text>38.03571101902331</text><id>DFX:rectilinearity</id></comment><comment><text>de.gempa.tb1.Pick/20250412155620.537816.125085</text><id>RefPickID</id></comment><comment><text>11.138310943067781</text><id>SNR</id></comment></pick><pick publicID="de.gempa.tb1.Pick/20250412155641.654888.125095"><time><value>2025-04-12T15:56:34.868394Z</value></time><waveformID networkCode="CX" stationCode="PB02" channelCode="HHN"/><filterID>ITAPER(2)&gt;&gt;BW(3,3,20)</filterID><methodID>L2-AIC-GRID</methodID><horizontalSlowness><value>19.03638286506996</value></horizontalSlowness><backazimuth><value>249.2480065967382</value></backazimuth><phaseHint>S</phaseHint><evaluationMode>automatic</evaluationMode><comment><text>453.3857722076684</text><id>DFX:rectilinearity</id></comment><comment><text>de.gempa.tb1.Pick/20250412155619.609983.125083</text><id>RefPickID</id></comment><comment><text>5.620557648837444</text><id>SNR</id></comment></pick><pick publicID="de.gempa.tb1.Pick/20250412155642.783363.125096"><time><value>2025-04-12T15:56:14.398391Z</value></time><waveformID networkCode="CX" stationCode="PB07" channelCode="HHZ"/><filterID>ITAPER(4)&gt;&gt;BW(4,4,20)</filterID><methodID>AIC</methodID><horizontalSlowness><value>19.531228043748477</value></horizontalSlowness><backazimuth><value>139.28668890948086</value></backazimuth><phaseHint>P</phaseHint><evaluationMode>automatic</evaluationMode><comment><text>176.16686733165048</text><id>DFX:rectilinearity</id></comment><comment><text>21.906438373855785</text><id>SNR</id></comment></pick><pick publicID="de.gempa.tb1.Pick/20250412155648.31826.125102"><time><value>2025-04-12T15:56:40.598393Z</value></time><waveformID networkCode="CX" stationCode="PB16" channelCode="HHZ"/><filterID>ITAPER(4)&gt;&gt;BW(4,4,20)</filterID><methodID>AIC</methodID><horizontalSlowness><value>9.799751838015958</value></horizontalSlowness><backazimuth><value>223.42107922047165</value></backazimuth><phaseHint>P</phaseHint><evaluationMode>automatic</evaluationMode><comment><text>1.6895225806945218</text><id>DFX:rectilinearity</id></comment><comment><text>7.702349851053724</text><id>SNR</id></comment></pick><pick publicID="de.gempa.tb1.Pick/20250412155651.456518.125104"><time><value>2025-04-12T15:56:42.589999Z</value></time><waveformID networkCode="CX" stationCode="PATCX" channelCode="HHN"/><filterID>ITAPER(2)&gt;&gt;BW(3,3,20)</filterID><methodID>L2-AIC-GRID</methodID><horizontalSlowness><value>18.498330196174962</value></horizontalSlowness><backazimuth><value>20.3162870774633</value></backazimuth><phaseHint>S</phaseHint><evaluationMode>automatic</evaluationMode><comment><text>1071.6643141557454</text><id>DFX:rectilinearity</id></comment><comment><text>de.gempa.tb1.Pick/20250412155628.46663.125089</text><id>RefPickID</id></comment><comment><text>11.388622503756237</text><id>SNR</id></comment></pick><pick publicID="de.gempa.tb1.Pick/20250412155652.769549.125106"><time><value>2025-04-12T15:56:34.548391Z</value></time><waveformID networkCode="CX" stationCode="PB07" channelCode="HHN"/><filterID>ITAPER(2)&gt;&gt;BW(3,3,20)</filterID><methodID>L2-AIC-GRID</methodID><horizontalSlowness><value>21.909440576247015</value></horizontalSlowness><backazimuth><value>265.99635689749886</value></backazimuth><phaseHint>S</phaseHint><evaluationMode>automatic</evaluationMode><comment><text>2543.2134889589643</text><id>DFX:rectilinearity</id></comment><comment><text>de.gempa.tb1.Pick/20250412155642.783363.125096</text><id>RefPickID</id></comment><comment><text>5.345773086791478</text><id>SNR</id></comment></pick><pick publicID="de.gempa.tb1.Pick/20250412155704.583257.125107"><time><value>2025-04-12T15:56:57.51Z</value></time><waveformID networkCode="CX" stationCode="PSGCX" channelCode="HHN"/><filterID>ITAPER(2)&gt;&gt;BW(3,3,20)</filterID><methodID>L2-AIC-GRID</methodID><horizontalSlowness><value>22.51465908907342</value></horizontalSlowness><backazimuth><value>221.40725557568123</value></backazimuth><phaseHint>S</phaseHint><evaluationMode>automatic</evaluationMode><comment><text>65.10574408948422</text><id>DFX:rectilinearity</id></comment><comment><text>de.gempa.tb1.Pick/20250412155636.565513.125092</text><id>RefPickID</id></comment><comment><text>7.05754490779555</text><id>SNR</id></comment></pick><origin publicID="de.gempa.tb1.Origin/20250412155706.595984.86315"><time><value>2025-04-12T15:55:49.049192Z</value><uncertainty>0.856681227684021</uncertainty></time><latitude><value>-21.518743515014648</value><uncertainty>4.692049980163574</uncertainty></latitude><longitude><value>-68.52983856201172</value><uncertainty>10.564977645874023</uncertainty></longitude><depth><value>126.5239486694336</value><uncertainty>13.49966812133789</uncertainty></depth><depthType>from location</depthType><methodID>LOCSAT</methodID><earthModelID>iasp91_scanloc</earthModelID><quality><associatedPhaseCount>14</associatedPhaseCount><usedPhaseCount>14</usedPhaseCount><associatedStationCount>8</associatedStationCount><usedStationCount>8</usedStationCount><depthPhaseCount>0</depthPhaseCount><standardError>0.56988073842819</standardError><azimuthalGap>261.2655792236328</azimuthalGap><maximumDistance>3.2981135845184326</maximumDistance><minimumDistance>0.7177203893661499</minimumDistance><medianDistance>1.2882699966430664</medianDistance></quality><uncertainty><minHorizontalUncertainty>9.586848258972168</minHorizontalUncertainty><maxHorizontalUncertainty>22.85801887512207</maxHorizontalUncertainty><azimuthMaxHorizontalUncertainty>81.54428100585938</azimuthMaxHorizontalUncertainty><preferredDescription>horizontal uncertainty</preferredDescription></uncertainty><evaluationMode>automatic</evaluationMode><evaluationStatus>confirmed</evaluationStatus><comment><text>0.34</text><id>mismatchScore</id></comment><comment><text>mismatchScore</text><id>scevalMethod</id></comment><arrival><pickID>de.gempa.tb1.Pick/20250412155616.538575.125081</pickID><phase>P</phase><azimuth>297.74249267578125</azimuth><distance>1.0106478929519653</distance><timeResidual>-0.05182647705078125</timeResidual><timeUsed>true</timeUsed><horizontalSlownessUsed>false</horizontalSlownessUsed><backazimuthUsed>false</backazimuthUsed><weight>1</weight></arrival><arrival><pickID>de.gempa.tb1.Pick/20250412155619.609983.125083</pickID><phase>P</phase><azimuth>278.5940856933594</azimuth><distance>1.2882699966430664</distance><timeResidual>0.10773658752441406</timeResidual><timeUsed>true</timeUsed><horizontalSlownessUsed>false</horizontalSlownessUsed><backazimuthUsed>false</backazimuthUsed><weight>1</weight></arrival><arrival><pickID>de.gempa.tb1.Pick/20250412155620.537816.125085</pickID><phase>P</phase><azimuth>244.9004364013672</azimuth><distance>1.2532075643539429</distance><timeResidual>-0.4548664093017578</timeResidual><timeUsed>true</timeUsed><horizontalSlownessUsed>false</horizontalSlownessUsed><backazimuthUsed>false</backazimuthUsed><weight>1</weight></arrival><arrival><pickID>de.gempa.tb1.Pick/20250412155621.87228.125087</pickID><phase>P</phase><azimuth>247.2296905517578</azimuth><distance>0.7177203893661499</distance><timeResidual>-0.21623611450195312</timeResidual><timeUsed>true</timeUsed><horizontalSlownessUsed>false</horizontalSlownessUsed><backazimuthUsed>false</backazimuthUsed><weight>1</weight></arrival><arrival><pickID>de.gempa.tb1.Pick/20250412155628.46663.125089</pickID><phase>P</phase><azimuth>294.33917236328125</azimuth><distance>1.66645348072052</distance><timeResidual>0.5731220245361328</timeResidual><timeUsed>true</timeUsed><horizontalSlownessUsed>false</horizontalSlownessUsed><backazimuthUsed>false</backazimuthUsed><weight>1</weight></arrival><arrival><pickID>de.gempa.tb1.Pick/20250412155635.631774.125091</pickID><phase>S</phase><azimuth>297.74249267578125</azimuth><distance>1.0106478929519653</distance><timeResidual>0.06711578369140625</timeResidual><timeUsed>true</timeUsed><horizontalSlownessUsed>false</horizontalSlownessUsed><backazimuthUsed>false</backazimuthUsed><weight>1</weight></arrival><arrival><pickID>de.gempa.tb1.Pick/20250412155636.565513.125092</pickID><phase>P</phase><azimuth>321.73236083984375</azimuth><distance>2.425668478012085</distance><timeResidual>-0.691030502319336</timeResidual><timeUsed>true</timeUsed><horizontalSlownessUsed>false</horizontalSlownessUsed><backazimuthUsed>false</backazimuthUsed><weight>1</weight></arrival><arrival><pickID>de.gempa.tb1.Pick/20250412155640.775946.125094</pickID><phase>S</phase><azimuth>244.9004364013672</azimuth><distance>1.2532075643539429</distance><timeResidual>-0.4148082733154297</timeResidual><timeUsed>true</timeUsed><horizontalSlownessUsed>false</horizontalSlownessUsed><backazimuthUsed>false</backazimuthUsed><weight>1</weight></arrival><arrival><pickID>de.gempa.tb1.Pick/20250412155641.654888.125095</pickID><phase>S</phase><azimuth>278.5940856933594</azimuth><distance>1.2882699966430664</distance><timeResidual>0.4419288635253906</timeResidual><timeUsed>true</timeUsed><horizontalSlownessUsed>false</horizontalSlownessUsed><backazimuthUsed>false</backazimuthUsed><weight>1</weight></arrival><arrival><pickID>de.gempa.tb1.Pick/20250412155642.783363.125096</pickID><phase>P</phase><azimuth>260.4412536621094</azimuth><distance>1.278881311416626</distance><timeResidual>-0.10954475402832031</timeResidual><timeUsed>true</timeUsed><horizontalSlownessUsed>false</horizontalSlownessUsed><backazimuthUsed>false</backazimuthUsed><weight>1</weight></arrival><arrival><pickID>de.gempa.tb1.Pick/20250412155648.31826.125102</pickID><phase>P</phase><azimuth>343.6348571777344</azimuth><distance>3.2981135845184326</distance><timeResidual>1.101785659790039</timeResidual><timeUsed>true</timeUsed><horizontalSlownessUsed>false</horizontalSlownessUsed><backazimuthUsed>false</backazimuthUsed><weight>1</weight></arrival><arrival><pickID>de.gempa.tb1.Pick/20250412155651.456518.125104</pickID><phase>S</phase><azimuth>294.33917236328125</azimuth><distance>1.66645348072052</distance><timeResidual>0.5555896759033203</timeResidual><timeUsed>true</timeUsed><horizontalSlownessUsed>false</horizontalSlownessUsed><backazimuthUsed>false</backazimuthUsed><weight>1</weight></arrival><arrival><pickID>de.gempa.tb1.Pick/20250412155652.769549.125106</pickID><phase>S</phase><azimuth>260.4412536621094</azimuth><distance>1.278881311416626</distance><timeResidual>0.304931640625</timeResidual><timeUsed>true</timeUsed><horizontalSlownessUsed>false</horizontalSlownessUsed><backazimuthUsed>false</backazimuthUsed><weight>1</weight></arrival><arrival><pickID>de.gempa.tb1.Pick/20250412155704.583257.125107</pickID><phase>S</phase><azimuth>321.73236083984375</azimuth><distance>2.425668478012085</distance><timeResidual>-1.2137889862060547</timeResidual><timeUsed>true</timeUsed><horizontalSlownessUsed>false</horizontalSlownessUsed><backazimuthUsed>false</backazimuthUsed><weight>1</weight></arrival><magnitude publicID="de.gempa.tb1.Magnitude/20250412155715.939279.248854"><magnitude><value>2.5448789252244857</value></magnitude><type>M</type><methodID>weighted average</methodID><stationCount>4</stationCount></magnitude></origin><event publicID="gempa2025hfuc"><preferredOriginID>de.gempa.tb1.Origin/20250412155706.595984.86315</preferredOriginID><preferredMagnitudeID>de.gempa.tb1.Magnitude/20250412155715.939279.248854</preferredMagnitudeID><description><text>Chile-Bolivia Border Region</text><type>region name</type></description><originReference>de.gempa.tb1.Origin/20250412155706.595984.86315</originReference></event></EventParameters></seiscomp>