<?xml version="1.0" encoding="UTF-8"?>
<seiscomp xmlns="http://geofon.gfz-potsdam.de/ns/seiscomp3-schema/0.13" version="0.13"><EventParameters><pick publicID="de.gempa.tb1.Pick/20250412012059.745015.121214"><time><value>2025-04-12T01:20:52.788393Z</value></time><waveformID networkCode="CX" stationCode="PB15" channelCode="HHZ"/><filterID>ITAPER(4)&gt;&gt;BW(4,4,20)</filterID><methodID>AIC</methodID><horizontalSlowness><value>22.891923408718924</value></horizontalSlowness><backazimuth><value>305.0931001557675</value></backazimuth><phaseHint>P</phaseHint><evaluationMode>automatic</evaluationMode><comment><text>251.0486749626098</text><id>DFX:rectilinearity</id></comment><comment><text>10.836489935832132</text><id>SNR</id></comment></pick><pick publicID="de.gempa.tb1.Pick/20250412012100.668314.121216"><time><value>2025-04-12T01:20:53.158393Z</value></time><waveformID networkCode="CX" stationCode="PB06" channelCode="HHZ"/><filterID>ITAPER(4)&gt;&gt;BW(4,4,20)</filterID><methodID>AIC</methodID><horizontalSlowness><value>7.738721852678894</value></horizontalSlowness><backazimuth><value>18.465047987933502</value></backazimuth><phaseHint>P</phaseHint><evaluationMode>automatic</evaluationMode><comment><text>58.06476934631121</text><id>DFX:rectilinearity</id></comment><comment><text>9.048426222975481</text><id>SNR</id></comment></pick><pick publicID="de.gempa.tb1.Pick/20250412012105.669959.121220"><time><value>2025-04-12T01:20:59.818391Z</value></time><waveformID networkCode="CX" stationCode="PB03" channelCode="HHZ"/><filterID>ITAPER(4)&gt;&gt;BW(4,4,20)</filterID><methodID>AIC</methodID><horizontalSlowness><value>3.616027130300266</value></horizontalSlowness><backazimuth><value>143.44283760921724</value></backazimuth><phaseHint>P</phaseHint><evaluationMode>automatic</evaluationMode><comment><text>6.151889357281041</text><id>DFX:rectilinearity</id></comment><comment><text>5.231696350248994</text><id>SNR</id></comment></pick><pick publicID="de.gempa.tb1.Pick/20250412012105.7642.121224"><time><value>2025-04-12T01:21:00.29Z</value></time><waveformID networkCode="CX" stationCode="PB09" channelCode="HHZ"/><filterID>ITAPER(4)&gt;&gt;BW(4,4,20)</filterID><methodID>AIC</methodID><horizontalSlowness><value>18.290711068143438</value></horizontalSlowness><backazimuth><value>290.12802821378835</value></backazimuth><phaseHint>P</phaseHint><evaluationMode>automatic</evaluationMode><comment><text>15.059627109081996</text><id>DFX:rectilinearity</id></comment><comment><text>7.954435737419345</text><id>SNR</id></comment></pick><pick publicID="de.gempa.tb1.Pick/20250412012107.599951.121226"><time><value>2025-04-12T01:20:57.9Z</value></time><waveformID networkCode="CX" stationCode="PB19" channelCode="HHZ"/><filterID>ITAPER(4)&gt;&gt;BW(4,4,20)</filterID><methodID>AIC</methodID><horizontalSlowness><value>6.590824375660771</value></horizontalSlowness><backazimuth><value>49.80326270692211</value></backazimuth><phaseHint>P</phaseHint><evaluationMode>automatic</evaluationMode><comment><text>17.33745192612636</text><id>DFX:rectilinearity</id></comment><comment><text>6.490076903900392</text><id>SNR</id></comment></pick><pick publicID="de.gempa.tb1.Pick/20250412012109.564786.121228"><time><value>2025-04-12T01:21:03.448394Z</value></time><waveformID networkCode="CX" stationCode="PB07" channelCode="HHZ"/><filterID>ITAPER(4)&gt;&gt;BW(4,4,20)</filterID><methodID>AIC</methodID><horizontalSlowness><value>23.223514318227345</value></horizontalSlowness><backazimuth><value>86.45437551854485</value></backazimuth><phaseHint>P</phaseHint><evaluationMode>automatic</evaluationMode><comment><text>187.9330337049098</text><id>DFX:rectilinearity</id></comment><comment><text>8.569547770775149</text><id>SNR</id></comment></pick><pick publicID="de.gempa.tb1.Pick/20250412012112.192289.121230"><time><value>2025-04-12T01:21:04.578393Z</value></time><waveformID networkCode="CX" stationCode="PB15" channelCode="HHN"/><filterID>ITAPER(2)&gt;&gt;BW(3,3,20)</filterID><methodID>L2-AIC-GRID</methodID><horizontalSlowness><value>22.72267547107611</value></horizontalSlowness><backazimuth><value>62.03104632958421</value></backazimuth><phaseHint>S</phaseHint><evaluationMode>automatic</evaluationMode><comment><text>3885.4336521815</text><id>DFX:rectilinearity</id></comment><comment><text>de.gempa.tb1.Pick/20250412012059.745015.121214</text><id>RefPickID</id></comment><comment><text>15.052701896678956</text><id>SNR</id></comment></pick><pick publicID="de.gempa.tb1.Pick/20250412012114.662964.121231"><time><value>2025-04-12T01:21:05.148393Z</value></time><waveformID networkCode="CX" stationCode="PB06" channelCode="HHN"/><filterID>ITAPER(2)&gt;&gt;BW(3,3,20)</filterID><methodID>L2-AIC-GRID</methodID><horizontalSlowness><value>16.85552539729285</value></horizontalSlowness><backazimuth><value>282.45021561219596</value></backazimuth><phaseHint>S</phaseHint><evaluationMode>automatic</evaluationMode><comment><text>433.1184661764378</text><id>DFX:rectilinearity</id></comment><comment><text>de.gempa.tb1.Pick/20250412012100.668314.121216</text><id>RefPickID</id></comment><comment><text>37.17358126381906</text><id>SNR</id></comment></pick><pick publicID="de.gempa.tb1.Pick/20250412012120.899578.121235"><time><value>2025-04-12T01:21:13.15Z</value></time><waveformID networkCode="CX" stationCode="PB19" channelCode="HHN"/><filterID>ITAPER(2)&gt;&gt;BW(3,3,20)</filterID><methodID>L2-AIC-GRID</methodID><horizontalSlowness><value>22.324157350132865</value></horizontalSlowness><backazimuth><value>47.91473752299572</value></backazimuth><phaseHint>S</phaseHint><evaluationMode>automatic</evaluationMode><comment><text>40.713407157025344</text><id>DFX:rectilinearity</id></comment><comment><text>de.gempa.tb1.Pick/20250412012107.599951.121226</text><id>RefPickID</id></comment><comment><text>7.889047108438185</text><id>SNR</id></comment></pick><pick publicID="de.gempa.tb1.Pick/20250412012122.64053.121239"><time><value>2025-04-12T01:21:15.588391Z</value></time><waveformID networkCode="CX" stationCode="PB03" channelCode="HHN"/><filterID>ITAPER(2)&gt;&gt;BW(3,3,20)</filterID><methodID>L2-AIC-GRID</methodID><horizontalSlowness><value>17.112974102264626</value></horizontalSlowness><backazimuth><value>357.04765503799524</value></backazimuth><phaseHint>S</phaseHint><evaluationMode>automatic</evaluationMode><comment><text>57.48522478353522</text><id>DFX:rectilinearity</id></comment><comment><text>de.gempa.tb1.Pick/20250412012105.669959.121220</text><id>RefPickID</id></comment><comment><text>11.078373731515992</text><id>SNR</id></comment></pick><origin publicID="de.gempa.tb1.Origin/20250412012122.643844.71271"><time><value>2025-04-12T01:20:38.395193Z</value><uncertainty>0.8553066849708557</uncertainty></time><latitude><value>-22.95454406738281</value><uncertainty>5.576233863830566</uncertainty></latitude><longitude><value>-69.09168243408203</value><uncertainty>22.473764419555664</uncertainty></longitude><depth><value>93.97157287597656</value><uncertainty>14.777426719665527</uncertainty></depth><depthType>from location</depthType><methodID>LOCSAT</methodID><earthModelID>iasp91_scanloc</earthModelID><quality><associatedPhaseCount>10</associatedPhaseCount><usedPhaseCount>10</usedPhaseCount><associatedStationCount>6</associatedStationCount><usedStationCount>6</usedStationCount><depthPhaseCount>0</depthPhaseCount><standardError>0.23888396558977537</standardError><azimuthalGap>197.80413818359375</azimuthalGap><maximumDistance>1.4263036251068115</maximumDistance><minimumDistance>0.43101802468299866</minimumDistance><medianDistance>0.9633626937866211</medianDistance></quality><uncertainty><minHorizontalUncertainty>6.951528549194336</minHorizontalUncertainty><maxHorizontalUncertainty>49.16049194335938</maxHorizontalUncertainty><azimuthMaxHorizontalUncertainty>78.46927642822266</azimuthMaxHorizontalUncertainty><preferredDescription>horizontal uncertainty</preferredDescription></uncertainty><evaluationMode>automatic</evaluationMode><evaluationStatus>confirmed</evaluationStatus><comment><text>0.00</text><id>mismatchScore</id></comment><comment><text>mismatchScore</text><id>scevalMethod</id></comment><arrival><pickID>de.gempa.tb1.Pick/20250412012059.745015.121214</pickID><phase>P</phase><azimuth>234.0469512939453</azimuth><distance>0.43101802468299866</distance><timeResidual>-0.2622814178466797</timeResidual><timeUsed>true</timeUsed><horizontalSlownessUsed>false</horizontalSlownessUsed><backazimuthUsed>false</backazimuthUsed><weight>1</weight></arrival><arrival><pickID>de.gempa.tb1.Pick/20250412012100.668314.121216</pickID><phase>P</phase><azimuth>299.1053771972656</azimuth><distance>0.5075045228004456</distance><timeResidual>-0.4485902786254883</timeResidual><timeUsed>true</timeUsed><horizontalSlownessUsed>false</horizontalSlownessUsed><backazimuthUsed>false</backazimuthUsed><weight>1</weight></arrival><arrival><pickID>de.gempa.tb1.Pick/20250412012105.669959.121220</pickID><phase>P</phase><azimuth>325.7250671386719</azimuth><distance>1.089635968208313</distance><timeResidual>0.4243135452270508</timeResidual><timeUsed>true</timeUsed><horizontalSlownessUsed>false</horizontalSlownessUsed><backazimuthUsed>false</backazimuthUsed><weight>1</weight></arrival><arrival><pickID>de.gempa.tb1.Pick/20250412012105.7642.121224</pickID><phase>P</phase><azimuth>353.09222412109375</azimuth><distance>1.1609987020492554</distance><timeResidual>0.06531620025634766</timeResidual><timeUsed>true</timeUsed><horizontalSlownessUsed>false</horizontalSlownessUsed><backazimuthUsed>false</backazimuthUsed><weight>1</weight></arrival><arrival><pickID>de.gempa.tb1.Pick/20250412012107.599951.121226</pickID><phase>P</phase><azimuth>190.8963623046875</azimuth><distance>0.9633626937866211</distance><timeResidual>-0.06374549865722656</timeResidual><timeUsed>true</timeUsed><horizontalSlownessUsed>false</horizontalSlownessUsed><backazimuthUsed>false</backazimuthUsed><weight>1</weight></arrival><arrival><pickID>de.gempa.tb1.Pick/20250412012109.564786.121228</pickID><phase>P</phase><azimuth>328.8038330078125</azimuth><distance>1.4263036251068115</distance><timeResidual>0.020369529724121094</timeResidual><timeUsed>true</timeUsed><horizontalSlownessUsed>false</horizontalSlownessUsed><backazimuthUsed>false</backazimuthUsed><weight>1</weight></arrival><arrival><pickID>de.gempa.tb1.Pick/20250412012112.192289.121230</pickID><phase>S</phase><azimuth>234.0469512939453</azimuth><distance>0.43101802468299866</distance><timeResidual>0.28792667388916016</timeResidual><timeUsed>true</timeUsed><horizontalSlownessUsed>false</horizontalSlownessUsed><backazimuthUsed>false</backazimuthUsed><weight>1</weight></arrival><arrival><pickID>de.gempa.tb1.Pick/20250412012114.662964.121231</pickID><phase>S</phase><azimuth>299.1053771972656</azimuth><distance>0.5075045228004456</distance><timeResidual>-0.13024616241455078</timeResidual><timeUsed>true</timeUsed><horizontalSlownessUsed>false</horizontalSlownessUsed><backazimuthUsed>false</backazimuthUsed><weight>1</weight></arrival><arrival><pickID>de.gempa.tb1.Pick/20250412012120.899578.121235</pickID><phase>S</phase><azimuth>190.8963623046875</azimuth><distance>0.9633626937866211</distance><timeResidual>0.10941696166992188</timeResidual><timeUsed>true</timeUsed><horizontalSlownessUsed>false</horizontalSlownessUsed><backazimuthUsed>false</backazimuthUsed><weight>1</weight></arrival><arrival><pickID>de.gempa.tb1.Pick/20250412012122.64053.121239</pickID><phase>S</phase><azimuth>325.7250671386719</azimuth><distance>1.089635968208313</distance><timeResidual>-0.0024929046630859375</timeResidual><timeUsed>true</timeUsed><horizontalSlownessUsed>false</horizontalSlownessUsed><backazimuthUsed>false</backazimuthUsed><weight>1</weight></arrival><magnitude publicID="de.gempa.tb1.Magnitude/20250412012239.807775.160824"><magnitude><value>2.6447484204410387</value></magnitude><type>M</type><methodID>weighted average</methodID><stationCount>4</stationCount></magnitude></origin><event publicID="gempa2025heqx"><preferredOriginID>de.gempa.tb1.Origin/20250412012122.643844.71271</preferredOriginID><preferredMagnitudeID>de.gempa.tb1.Magnitude/20250412012239.807775.160824</preferredMagnitudeID><description><text>Northern Chile</text><type>region name</type></description><originReference>de.gempa.tb1.Origin/20250412012122.643844.71271</originReference></event></EventParameters></seiscomp>