<?xml version="1.0" encoding="UTF-8"?>
<seiscomp xmlns="http://geofon.gfz-potsdam.de/ns/seiscomp3-schema/0.13" version="0.13"><EventParameters><pick publicID="de.gempa.tb1.Pick/20250413144203.600725.123955"><time><value>2025-04-13T14:41:09.182037Z</value></time><waveformID networkCode="RO" stationCode="MLR" channelCode="BHZ"/><filterID>BW(4,0.7,2)</filterID><methodID>AIC</methodID><horizontalSlowness><value>2.453239442451493</value></horizontalSlowness><backazimuth><value>80.58088767653081</value></backazimuth><phaseHint>P</phaseHint><evaluationMode>automatic</evaluationMode><comment><text>64.19616728364244</text><id>DFX:rectilinearity</id></comment></pick><pick publicID="de.gempa.tb1.Pick/20250413144207.103354.123957"><time><value>2025-04-13T14:41:34.169538Z</value></time><waveformID networkCode="RO" stationCode="BZS" channelCode="BHZ"/><filterID>BW(4,0.7,2)</filterID><methodID>AIC</methodID><horizontalSlowness><value>8.102347213758932</value></horizontalSlowness><backazimuth><value>96.68562340132978</value></backazimuth><phaseHint>P</phaseHint><evaluationMode>automatic</evaluationMode><comment><text>16.735775603973948</text><id>DFX:rectilinearity</id></comment></pick><pick publicID="de.gempa.tb1.Pick/20250413144220.438741.123960"><time><value>2025-04-13T14:41:53.0000Z</value></time><waveformID networkCode="GE" stationCode="MORC" channelCode="BHZ"/><filterID>BW(4,0.7,2)</filterID><methodID>AIC</methodID><horizontalSlowness><value>11.487747508227</value></horizontalSlowness><backazimuth><value>77.1039101748121</value></backazimuth><phaseHint>P</phaseHint><evaluationMode>automatic</evaluationMode><comment><text>6.792978830094305</text><id>DFX:rectilinearity</id></comment></pick><pick publicID="de.gempa.tb1.Pick/20250413144229.185628.123963"><time><value>2025-04-13T14:42:09.528393Z</value></time><waveformID networkCode="CZ" stationCode="PRU" channelCode="HHZ"/><filterID>BW(4,0.7,2)</filterID><methodID>AIC</methodID><horizontalSlowness><value>10.695135490800732</value></horizontalSlowness><backazimuth><value>113.16790672673325</value></backazimuth><phaseHint>P</phaseHint><evaluationMode>automatic</evaluationMode><comment><text>1.8843757397285958</text><id>DFX:rectilinearity</id></comment></pick><pick publicID="de.gempa.tb1.Pick/20250413144230.187758.123967"><time><value>2025-04-13T14:42:15.15Z</value></time><waveformID networkCode="CZ" stationCode="KHC" channelCode="HHZ"/><filterID>BW(4,0.7,2)</filterID><methodID>AIC</methodID><horizontalSlowness><value>7.140232894409228</value></horizontalSlowness><backazimuth><value>93.73411976722771</value></backazimuth><phaseHint>P</phaseHint><evaluationMode>automatic</evaluationMode><comment><text>3.5202516083063036</text><id>DFX:rectilinearity</id></comment></pick><pick publicID="de.gempa.tb1.Pick/20250413144238.242436.123969"><time><value>2025-04-13T14:42:23.15Z</value></time><waveformID networkCode="GE" stationCode="FLT1" channelCode="BHZ"/><filterID>BW(4,0.7,2)</filterID><methodID>AIC</methodID><horizontalSlowness><value>8.694799324875381</value></horizontalSlowness><backazimuth><value>85.37915815953258</value></backazimuth><phaseHint>P</phaseHint><evaluationMode>automatic</evaluationMode><comment><text>108.20065147937586</text><id>DFX:rectilinearity</id></comment></pick><pick publicID="de.gempa.tb1.Pick/20250413144422.917207.123988"><time><value>2025-04-13T14:42:18.669999Z</value></time><waveformID networkCode="GR" stationCode="WET" channelCode="BHZ"/><filterID>BW(4,0.7,2)</filterID><methodID>AIC</methodID><horizontalSlowness><value>11.287846104586196</value></horizontalSlowness><backazimuth><value>82.7901051947467</value></backazimuth><phaseHint>P</phaseHint><evaluationMode>automatic</evaluationMode><comment><text>5.117684547458737</text><id>DFX:rectilinearity</id></comment></pick><pick publicID="de.gempa.tb1.Pick/20250413144427.213877.123990"><time><value>2025-04-13T14:43:39.125Z</value></time><waveformID networkCode="GE" stationCode="DAG" channelCode="BHZ"/><filterID>BW(4,0.7,2)</filterID><methodID>AIC</methodID><horizontalSlowness><value>8.68970043877998</value></horizontalSlowness><backazimuth><value>86.87162459323203</value></backazimuth><phaseHint>P</phaseHint><evaluationMode>automatic</evaluationMode><comment><text>117.8798001720519</text><id>DFX:rectilinearity</id></comment></pick><origin publicID="de.gempa.tb1.Origin/20250413144434.877092.147333"><time><value>2025-04-13T14:35:09.661895Z</value><uncertainty>10.077685356140137</uncertainty></time><latitude><value>40.03533172607422</value><uncertainty>116.92057037353516</uncertainty></latitude><longitude><value>69.72575378417969</value><uncertainty>62.50688934326172</uncertainty></longitude><depth><value>322.5462341308594</value><uncertainty>122.32564544677734</uncertainty></depth><depthType>from location</depthType><methodID>LOCSAT</methodID><earthModelID>iasp91</earthModelID><quality><associatedPhaseCount>8</associatedPhaseCount><usedPhaseCount>8</usedPhaseCount><associatedStationCount>8</associatedStationCount><usedStationCount>8</usedStationCount><depthPhaseCount>0</depthPhaseCount><standardError>0.29369164231014283</standardError><azimuthalGap>311.5716552734375</azimuthalGap><maximumDistance>51.06056594848633</maximumDistance><minimumDistance>32.29175567626953</minimumDistance><medianDistance>40.177452087402344</medianDistance></quality><uncertainty><minHorizontalUncertainty>50.02856063842773</minHorizontalUncertainty><maxHorizontalUncertainty>279.8731384277344</maxHorizontalUncertainty><azimuthMaxHorizontalUncertainty>153.15345764160156</azimuthMaxHorizontalUncertainty><preferredDescription>horizontal uncertainty</preferredDescription></uncertainty><evaluationMode>automatic</evaluationMode><comment><text>311.57</text><id>maxGap</id></comment><arrival><pickID>de.gempa.tb1.Pick/20250413144203.600725.123955</pickID><phase>P</phase><azimuth>294.3560485839844</azimuth><distance>32.29175567626953</distance><timeResidual>0.251953125</timeResidual><timeUsed>true</timeUsed><horizontalSlownessUsed>false</horizontalSlownessUsed><backazimuthUsed>false</backazimuthUsed><weight>1</weight></arrival><arrival><pickID>de.gempa.tb1.Pick/20250413144207.103354.123957</pickID><phase>P</phase><azimuth>295.2698669433594</azimuth><distance>35.292938232421875</distance><timeResidual>-0.387664794921875</timeResidual><timeUsed>true</timeUsed><horizontalSlownessUsed>false</horizontalSlownessUsed><backazimuthUsed>false</backazimuthUsed><weight>1</weight></arrival><arrival><pickID>de.gempa.tb1.Pick/20250413144220.438741.123960</pickID><phase>P</phase><azimuth>302.7869873046875</azimuth><distance>37.530662536621094</distance><timeResidual>-0.24908447265625</timeResidual><timeUsed>true</timeUsed><horizontalSlownessUsed>false</horizontalSlownessUsed><backazimuthUsed>false</backazimuthUsed><weight>1</weight></arrival><arrival><pickID>de.gempa.tb1.Pick/20250413144229.185628.123963</pickID><phase>P</phase><azimuth>303.4646911621094</azimuth><distance>39.4373779296875</distance><timeResidual>0.558074951171875</timeResidual><timeUsed>true</timeUsed><horizontalSlownessUsed>false</horizontalSlownessUsed><backazimuthUsed>false</backazimuthUsed><weight>1</weight></arrival><arrival><pickID>de.gempa.tb1.Pick/20250413144230.187758.123967</pickID><phase>P</phase><azimuth>302.2724304199219</azimuth><distance>40.177452087402344</distance><timeResidual>0.12640380859375</timeResidual><timeUsed>true</timeUsed><horizontalSlownessUsed>false</horizontalSlownessUsed><backazimuthUsed>false</backazimuthUsed><weight>1</weight></arrival><arrival><pickID>de.gempa.tb1.Pick/20250413144238.242436.123969</pickID><phase>P</phase><azimuth>307.4474182128906</azimuth><distance>41.2229118347168</distance><timeResidual>-0.294219970703125</timeResidual><timeUsed>true</timeUsed><horizontalSlownessUsed>false</horizontalSlownessUsed><backazimuthUsed>false</backazimuthUsed><weight>1</weight></arrival><arrival><pickID>de.gempa.tb1.Pick/20250413144422.917207.123988</pickID><phase>P</phase><azimuth>302.404052734375</azimuth><distance>40.62800598144531</distance><timeResidual>-0.01324462890625</timeResidual><timeUsed>true</timeUsed><horizontalSlownessUsed>false</horizontalSlownessUsed><backazimuthUsed>false</backazimuthUsed><weight>1</weight></arrival><arrival><pickID>de.gempa.tb1.Pick/20250413144427.213877.123990</pickID><phase>P</phase><azimuth>342.7843933105469</azimuth><distance>51.06056594848633</distance><timeResidual>0.008026123046875</timeResidual><timeUsed>true</timeUsed><horizontalSlownessUsed>false</horizontalSlownessUsed><backazimuthUsed>false</backazimuthUsed><weight>1</weight></arrival><magnitude publicID="de.gempa.tb1.Magnitude/20250413144434.889925.369048"><magnitude><value>4.2392558677578434</value></magnitude><type>M</type><methodID>weighted average</methodID><stationCount>6</stationCount></magnitude></origin><event publicID="gempa2025hhnk"><preferredOriginID>de.gempa.tb1.Origin/20250413144434.877092.147333</preferredOriginID><preferredMagnitudeID>de.gempa.tb1.Magnitude/20250413144434.889925.369048</preferredMagnitudeID><type>not locatable</type><description><text>Tajikistan</text><type>region name</type></description><originReference>de.gempa.tb1.Origin/20250413144434.877092.147333</originReference></event></EventParameters></seiscomp>