<?xml version="1.0" encoding="UTF-8"?>
<seiscomp xmlns="http://geofon.gfz-potsdam.de/ns/seiscomp3-schema/0.13" version="0.13"><EventParameters><pick publicID="de.gempa.tb1.Pick/20250413073453.769924.129825"><time><value>2025-04-13T07:34:48.528393Z</value></time><waveformID networkCode="CX" stationCode="PB01" channelCode="HHZ"/><filterID>ITAPER(4)&gt;&gt;BW(4,4,20)</filterID><methodID>AIC</methodID><horizontalSlowness><value>4.26646632360689</value></horizontalSlowness><backazimuth><value>100.5884182299027</value></backazimuth><phaseHint>P</phaseHint><evaluationMode>automatic</evaluationMode><comment><text>371.07229032974527</text><id>DFX:rectilinearity</id></comment><comment><text>442.15659869520687</text><id>SNR</id></comment></pick><pick publicID="de.gempa.tb1.Pick/20250413073457.589007.129827"><time><value>2025-04-13T07:34:51.828393Z</value></time><waveformID networkCode="CX" stationCode="PB02" channelCode="HHZ"/><filterID>ITAPER(4)&gt;&gt;BW(4,4,20)</filterID><methodID>AIC</methodID><horizontalSlowness><value>5.238001462307719</value></horizontalSlowness><backazimuth><value>60.9718777939057</value></backazimuth><phaseHint>P</phaseHint><evaluationMode>automatic</evaluationMode><comment><text>122.69470975439958</text><id>DFX:rectilinearity</id></comment><comment><text>156.5725109308939</text><id>SNR</id></comment></pick><pick publicID="de.gempa.tb1.Pick/20250413073458.773809.129829"><time><value>2025-04-13T07:34:53.318393Z</value></time><waveformID networkCode="CX" stationCode="PB07" channelCode="HHZ"/><filterID>ITAPER(4)&gt;&gt;BW(4,4,20)</filterID><methodID>AIC</methodID><horizontalSlowness><value>21.42812935429481</value></horizontalSlowness><backazimuth><value>235.48701240260726</value></backazimuth><phaseHint>P</phaseHint><evaluationMode>automatic</evaluationMode><comment><text>210.6237685927051</text><id>DFX:rectilinearity</id></comment><comment><text>60.30131572314669</text><id>SNR</id></comment></pick><pick publicID="de.gempa.tb1.Pick/20250413073501.662978.129833"><time><value>2025-04-13T07:34:54.878393Z</value></time><waveformID networkCode="CX" stationCode="PB08" channelCode="HHZ"/><filterID>ITAPER(4)&gt;&gt;BW(4,4,20)</filterID><methodID>AIC</methodID><horizontalSlowness><value>13.96680561601664</value></horizontalSlowness><backazimuth><value>192.69692701827012</value></backazimuth><phaseHint>P</phaseHint><evaluationMode>automatic</evaluationMode><comment><text>8.458647333040933</text><id>DFX:rectilinearity</id></comment><comment><text>12.13187621200906</text><id>SNR</id></comment></pick><pick publicID="de.gempa.tb1.Pick/20250413073503.243814.129835"><time><value>2025-04-13T07:34:55.169999Z</value></time><waveformID networkCode="CX" stationCode="PATCX" channelCode="HHZ"/><filterID>ITAPER(4)&gt;&gt;BW(4,4,20)</filterID><methodID>AIC</methodID><horizontalSlowness><value>18.67666386772725</value></horizontalSlowness><backazimuth><value>53.9207184635659</value></backazimuth><phaseHint>P</phaseHint><evaluationMode>automatic</evaluationMode><comment><text>311.72077710640826</text><id>DFX:rectilinearity</id></comment><comment><text>41.94912574471872</text><id>SNR</id></comment></pick><pick publicID="de.gempa.tb1.Pick/20250413073501.569097.129831"><time><value>2025-04-13T07:34:55.008393Z</value></time><waveformID networkCode="CX" stationCode="PB03" channelCode="HHZ"/><filterID>ITAPER(4)&gt;&gt;BW(4,4,20)</filterID><methodID>AIC</methodID><horizontalSlowness><value>8.118488071995493</value></horizontalSlowness><backazimuth><value>248.2493721657798</value></backazimuth><phaseHint>P</phaseHint><evaluationMode>automatic</evaluationMode><comment><text>6.846220296040769</text><id>DFX:rectilinearity</id></comment><comment><text>31.746640018263236</text><id>SNR</id></comment></pick><pick publicID="de.gempa.tb1.Pick/20250413073503.884358.129837"><time><value>2025-04-13T07:34:51.01Z</value></time><waveformID networkCode="CX" stationCode="PB09" channelCode="HHZ"/><filterID>ITAPER(4)&gt;&gt;BW(4,4,20)</filterID><methodID>AIC</methodID><horizontalSlowness><value>17.665844561283627</value></horizontalSlowness><backazimuth><value>288.3867640229279</value></backazimuth><phaseHint>P</phaseHint><evaluationMode>automatic</evaluationMode><comment><text>13.13303968035478</text><id>DFX:rectilinearity</id></comment><comment><text>88.61580779884855</text><id>SNR</id></comment></pick><pick publicID="de.gempa.tb1.Pick/20250413073508.481108.129839"><time><value>2025-04-13T07:35:01.518393Z</value></time><waveformID networkCode="CX" stationCode="PB06" channelCode="HHZ"/><filterID>ITAPER(4)&gt;&gt;BW(4,4,20)</filterID><methodID>AIC</methodID><horizontalSlowness><value>13.422855810597495</value></horizontalSlowness><backazimuth><value>110.67513457763552</value></backazimuth><phaseHint>P</phaseHint><evaluationMode>automatic</evaluationMode><comment><text>29.810437263683927</text><id>DFX:rectilinearity</id></comment><comment><text>17.748113237036826</text><id>SNR</id></comment></pick><pick publicID="de.gempa.tb1.Pick/20250413073508.778785.129843"><time><value>2025-04-13T07:35:00.228393Z</value></time><waveformID networkCode="CX" stationCode="PB01" channelCode="HHN"/><filterID>ITAPER(2)&gt;&gt;BW(3,3,20)</filterID><methodID>L2-AIC-GRID</methodID><horizontalSlowness><value>22.927907410212896</value></horizontalSlowness><backazimuth><value>18.88985322531346</value></backazimuth><phaseHint>S</phaseHint><evaluationMode>automatic</evaluationMode><comment><text>4691.786279648694</text><id>DFX:rectilinearity</id></comment><comment><text>de.gempa.tb1.Pick/20250413073453.769924.129825</text><id>RefPickID</id></comment><comment><text>9.002853729618307</text><id>SNR</id></comment></pick><pick publicID="de.gempa.tb1.Pick/20250413073508.577712.129841"><time><value>2025-04-13T07:35:03.34Z</value></time><waveformID networkCode="CX" stationCode="PSGCX" channelCode="HHZ"/><filterID>ITAPER(4)&gt;&gt;BW(4,4,20)</filterID><methodID>AIC</methodID><horizontalSlowness><value>20.917804563665896</value></horizontalSlowness><backazimuth><value>199.9481796216284</value></backazimuth><phaseHint>P</phaseHint><evaluationMode>automatic</evaluationMode><comment><text>24.173328429553656</text><id>DFX:rectilinearity</id></comment><comment><text>30.024363822745137</text><id>SNR</id></comment></pick><pick publicID="de.gempa.tb1.Pick/20250413073530.705784.129858"><time><value>2025-04-13T07:35:22.668393Z</value></time><waveformID networkCode="CX" stationCode="PB06" channelCode="HHN"/><filterID>ITAPER(2)&gt;&gt;BW(3,3,20)</filterID><methodID>L2-AIC-GRID</methodID><horizontalSlowness><value>11.254925778373893</value></horizontalSlowness><backazimuth><value>337.22120853340505</value></backazimuth><phaseHint>S</phaseHint><evaluationMode>automatic</evaluationMode><comment><text>147.98902188270912</text><id>DFX:rectilinearity</id></comment><comment><text>de.gempa.tb1.Pick/20250413073508.481108.129839</text><id>RefPickID</id></comment><comment><text>9.201232039975187</text><id>SNR</id></comment></pick><pick publicID="de.gempa.tb1.Pick/20250413073512.60317.129844"><time><value>2025-04-13T07:35:06.118393Z</value></time><waveformID networkCode="CX" stationCode="PB02" channelCode="HHN"/><filterID>ITAPER(2)&gt;&gt;BW(3,3,20)</filterID><methodID>L2-AIC-GRID</methodID><horizontalSlowness><value>19.755040788999672</value></horizontalSlowness><backazimuth><value>357.7763908311671</value></backazimuth><phaseHint>S</phaseHint><evaluationMode>automatic</evaluationMode><comment><text>4157.9047537586493</text><id>DFX:rectilinearity</id></comment><comment><text>de.gempa.tb1.Pick/20250413073457.589007.129827</text><id>RefPickID</id></comment><comment><text>5.142412472654505</text><id>SNR</id></comment></pick><pick publicID="de.gempa.tb1.Pick/20250413073515.779209.129845"><time><value>2025-04-13T07:35:08.808393Z</value></time><waveformID networkCode="CX" stationCode="PB07" channelCode="HHN"/><filterID>ITAPER(2)&gt;&gt;BW(3,3,20)</filterID><methodID>L2-AIC-GRID</methodID><horizontalSlowness><value>22.00532674037574</value></horizontalSlowness><backazimuth><value>260.23812095886575</value></backazimuth><phaseHint>S</phaseHint><evaluationMode>automatic</evaluationMode><comment><text>8139.003067412735</text><id>DFX:rectilinearity</id></comment><comment><text>de.gempa.tb1.Pick/20250413073458.773809.129829</text><id>RefPickID</id></comment><comment><text>8.597000567360944</text><id>SNR</id></comment></pick><pick publicID="de.gempa.tb1.Pick/20250413073517.380947.129848"><time><value>2025-04-13T07:35:04.71Z</value></time><waveformID networkCode="CX" stationCode="PB09" channelCode="HHN"/><filterID>ITAPER(2)&gt;&gt;BW(3,3,20)</filterID><methodID>L2-AIC-GRID</methodID><horizontalSlowness><value>22.195714176879072</value></horizontalSlowness><backazimuth><value>155.4689113272798</value></backazimuth><phaseHint>S</phaseHint><evaluationMode>automatic</evaluationMode><comment><text>1510.1467317795027</text><id>DFX:rectilinearity</id></comment><comment><text>de.gempa.tb1.Pick/20250413073503.884358.129837</text><id>RefPickID</id></comment><comment><text>6.097985163967014</text><id>SNR</id></comment></pick><pick publicID="de.gempa.tb1.Pick/20250413073518.037734.129849"><time><value>2025-04-13T07:35:11.038393Z</value></time><waveformID networkCode="CX" stationCode="PB08" channelCode="HHN"/><filterID>ITAPER(2)&gt;&gt;BW(3,3,20)</filterID><methodID>L2-AIC-GRID</methodID><horizontalSlowness><value>18.531984209027712</value></horizontalSlowness><backazimuth><value>202.33510207341018</value></backazimuth><phaseHint>S</phaseHint><evaluationMode>automatic</evaluationMode><comment><text>116.78691159339019</text><id>DFX:rectilinearity</id></comment><comment><text>de.gempa.tb1.Pick/20250413073501.662978.129833</text><id>RefPickID</id></comment><comment><text>8.21882421688813</text><id>SNR</id></comment></pick><pick publicID="de.gempa.tb1.Pick/20250413073521.768788.129850"><time><value>2025-04-13T07:35:11.148393Z</value></time><waveformID networkCode="CX" stationCode="PB03" channelCode="HHN"/><filterID>ITAPER(2)&gt;&gt;BW(3,3,20)</filterID><methodID>L2-AIC-GRID</methodID><horizontalSlowness><value>21.035768053897321</value></horizontalSlowness><backazimuth><value>74.81611965199748</value></backazimuth><phaseHint>S</phaseHint><evaluationMode>automatic</evaluationMode><comment><text>199.56590464102982</text><id>DFX:rectilinearity</id></comment><comment><text>de.gempa.tb1.Pick/20250413073501.569097.129831</text><id>RefPickID</id></comment><comment><text>13.18257822809668</text><id>SNR</id></comment></pick><pick publicID="de.gempa.tb1.Pick/20250413073527.299733.129854"><time><value>2025-04-13T07:35:11.459999Z</value></time><waveformID networkCode="CX" stationCode="PATCX" channelCode="HHN"/><filterID>ITAPER(2)&gt;&gt;BW(3,3,20)</filterID><methodID>L2-AIC-GRID</methodID><horizontalSlowness><value>21.226245461231564</value></horizontalSlowness><backazimuth><value>296.49864414347707</value></backazimuth><phaseHint>S</phaseHint><evaluationMode>automatic</evaluationMode><comment><text>1670.3203234703333</text><id>DFX:rectilinearity</id></comment><comment><text>de.gempa.tb1.Pick/20250413073503.243814.129835</text><id>RefPickID</id></comment><comment><text>8.074471282871329</text><id>SNR</id></comment></pick><origin publicID="de.gempa.tb1.Origin/20250413073530.708991.104481"><time><value>2025-04-13T07:34:33.595372Z</value><uncertainty>0.7011752128601074</uncertainty></time><latitude><value>-21.163042068481445</value><uncertainty>2.5177621841430664</uncertainty></latitude><longitude><value>-69.11418914794922</value><uncertainty>5.617968082427979</uncertainty></longitude><depth><value>104.48072814941406</value><uncertainty>5.874731063842773</uncertainty></depth><depthType>from location</depthType><methodID>LOCSAT</methodID><earthModelID>iasp91_scanloc</earthModelID><quality><associatedPhaseCount>17</associatedPhaseCount><usedPhaseCount>17</usedPhaseCount><associatedStationCount>9</associatedStationCount><usedStationCount>9</usedStationCount><depthPhaseCount>0</depthPhaseCount><standardError>0.38832022377346764</standardError><azimuthalGap>192.74179077148438</azimuthalGap><maximumDistance>1.8228596448898315</maximumDistance><minimumDistance>0.3683069944381714</minimumDistance><medianDistance>1.0174306631088257</medianDistance></quality><uncertainty><minHorizontalUncertainty>5.374506950378418</minHorizontalUncertainty><maxHorizontalUncertainty>12.053228378295898</maxHorizontalUncertainty><azimuthMaxHorizontalUncertainty>92.62940216064453</azimuthMaxHorizontalUncertainty><preferredDescription>horizontal uncertainty</preferredDescription></uncertainty><evaluationMode>automatic</evaluationMode><evaluationStatus>confirmed</evaluationStatus><comment><text>0.00</text><id>mismatchScore</id></comment><comment><text>mismatchScore</text><id>scevalMethod</id></comment><arrival><pickID>de.gempa.tb1.Pick/20250413073453.769924.129825</pickID><phase>P</phase><azimuth>288.8191833496094</azimuth><distance>0.3683069944381714</distance><timeResidual>-0.5159444808959961</timeResidual><timeUsed>true</timeUsed><horizontalSlownessUsed>false</horizontalSlownessUsed><backazimuthUsed>false</backazimuthUsed><weight>1</weight></arrival><arrival><pickID>de.gempa.tb1.Pick/20250413073457.589007.129827</pickID><phase>P</phase><azimuth>257.7930603027344</azimuth><distance>0.7458375692367554</distance><timeResidual>-0.02348804473876953</timeResidual><timeUsed>true</timeUsed><horizontalSlownessUsed>false</horizontalSlownessUsed><backazimuthUsed>false</backazimuthUsed><weight>1</weight></arrival><arrival><pickID>de.gempa.tb1.Pick/20250413073458.773809.129829</pickID><phase>P</phase><azimuth>231.9114227294922</azimuth><distance>0.9120182991027832</distance><timeResidual>-0.1365804672241211</timeResidual><timeUsed>true</timeUsed><horizontalSlownessUsed>false</horizontalSlownessUsed><backazimuthUsed>false</backazimuthUsed><weight>1</weight></arrival><arrival><pickID>de.gempa.tb1.Pick/20250413073501.662978.129833</pickID><phase>P</phase><azimuth>357.92486572265625</azimuth><distance>1.0174306631088257</distance><timeResidual>0.3172798156738281</timeResidual><timeUsed>true</timeUsed><horizontalSlownessUsed>false</horizontalSlownessUsed><backazimuthUsed>false</backazimuthUsed><weight>1</weight></arrival><arrival><pickID>de.gempa.tb1.Pick/20250413073503.243814.129835</pickID><phase>P</phase><azimuth>289.1529541015625</azimuth><distance>1.0286157131195068</distance><timeResidual>0.4924221038818359</timeResidual><timeUsed>true</timeUsed><horizontalSlownessUsed>false</horizontalSlownessUsed><backazimuthUsed>false</backazimuthUsed><weight>1</weight></arrival><arrival><pickID>de.gempa.tb1.Pick/20250413073501.569097.129831</pickID><phase>P</phase><azimuth>213.89479064941406</azimuth><distance>1.0629270076751709</distance><timeResidual>-0.033660888671875</timeResidual><timeUsed>true</timeUsed><horizontalSlownessUsed>false</horizontalSlownessUsed><backazimuthUsed>false</backazimuthUsed><weight>1</weight></arrival><arrival><pickID>de.gempa.tb1.Pick/20250413073503.884358.129837</pickID><phase>P</phase><azimuth>190.66665649414062</azimuth><distance>0.6413549184799194</distance><timeResidual>0.07117080688476562</timeResidual><timeUsed>true</timeUsed><horizontalSlownessUsed>false</horizontalSlownessUsed><backazimuthUsed>false</backazimuthUsed><weight>1</weight></arrival><arrival><pickID>de.gempa.tb1.Pick/20250413073508.481108.129839</pickID><phase>P</phase><azimuth>195.38705444335938</azimuth><distance>1.5930094718933105</distance><timeResidual>0.2847404479980469</timeResidual><timeUsed>true</timeUsed><horizontalSlownessUsed>false</horizontalSlownessUsed><backazimuthUsed>false</backazimuthUsed><weight>1</weight></arrival><arrival><pickID>de.gempa.tb1.Pick/20250413073508.778785.129843</pickID><phase>S</phase><azimuth>288.8191833496094</azimuth><distance>0.3683069944381714</distance><timeResidual>-0.6893758773803711</timeResidual><timeUsed>true</timeUsed><horizontalSlownessUsed>false</horizontalSlownessUsed><backazimuthUsed>false</backazimuthUsed><weight>1</weight></arrival><arrival><pickID>de.gempa.tb1.Pick/20250413073508.577712.129841</pickID><phase>P</phase><azimuth>328.54412841796875</azimuth><distance>1.8228596448898315</distance><timeResidual>-0.774026870727539</timeResidual><timeUsed>true</timeUsed><horizontalSlownessUsed>false</horizontalSlownessUsed><backazimuthUsed>false</backazimuthUsed><weight>1</weight></arrival><arrival><pickID>de.gempa.tb1.Pick/20250413073530.705784.129858</pickID><phase>S</phase><azimuth>195.38705444335938</azimuth><distance>1.5930094718933105</distance><timeResidual>-0.003208160400390625</timeResidual><timeUsed>true</timeUsed><horizontalSlownessUsed>false</horizontalSlownessUsed><backazimuthUsed>false</backazimuthUsed><weight>1</weight></arrival><arrival><pickID>de.gempa.tb1.Pick/20250413073512.60317.129844</pickID><phase>S</phase><azimuth>257.7930603027344</azimuth><distance>0.7458375692367554</distance><timeResidual>0.20413589477539062</timeResidual><timeUsed>true</timeUsed><horizontalSlownessUsed>false</horizontalSlownessUsed><backazimuthUsed>false</backazimuthUsed><weight>1</weight></arrival><arrival><pickID>de.gempa.tb1.Pick/20250413073515.779209.129845</pickID><phase>S</phase><azimuth>231.9114227294922</azimuth><distance>0.9120182991027832</distance><timeResidual>0.03666114807128906</timeResidual><timeUsed>true</timeUsed><horizontalSlownessUsed>false</horizontalSlownessUsed><backazimuthUsed>false</backazimuthUsed><weight>1</weight></arrival><arrival><pickID>de.gempa.tb1.Pick/20250413073517.380947.129848</pickID><phase>S</phase><azimuth>190.66665649414062</azimuth><distance>0.6413549184799194</distance><timeResidual>0.421295166015625</timeResidual><timeUsed>true</timeUsed><horizontalSlownessUsed>false</horizontalSlownessUsed><backazimuthUsed>false</backazimuthUsed><weight>1</weight></arrival><arrival><pickID>de.gempa.tb1.Pick/20250413073518.037734.129849</pickID><phase>S</phase><azimuth>357.92486572265625</azimuth><distance>1.0174306631088257</distance><timeResidual>0.29540443420410156</timeResidual><timeUsed>true</timeUsed><horizontalSlownessUsed>false</horizontalSlownessUsed><backazimuthUsed>false</backazimuthUsed><weight>1</weight></arrival><arrival><pickID>de.gempa.tb1.Pick/20250413073521.768788.129850</pickID><phase>S</phase><azimuth>213.89479064941406</azimuth><distance>1.0629270076751709</distance><timeResidual>-0.4551887512207031</timeResidual><timeUsed>true</timeUsed><horizontalSlownessUsed>false</horizontalSlownessUsed><backazimuthUsed>false</backazimuthUsed><weight>1</weight></arrival><arrival><pickID>de.gempa.tb1.Pick/20250413073527.299733.129854</pickID><phase>S</phase><azimuth>289.1529541015625</azimuth><distance>1.0286157131195068</distance><timeResidual>0.5082473754882812</timeResidual><timeUsed>true</timeUsed><horizontalSlownessUsed>false</horizontalSlownessUsed><backazimuthUsed>false</backazimuthUsed><weight>1</weight></arrival><magnitude publicID="de.gempa.tb1.Magnitude/20250413073530.724306.328568"><magnitude><value>2.322129964414837</value></magnitude><type>M</type><methodID>weighted average</methodID><stationCount>6</stationCount></magnitude></origin><event publicID="gempa2025hgzk"><preferredOriginID>de.gempa.tb1.Origin/20250413073530.708991.104481</preferredOriginID><preferredMagnitudeID>de.gempa.tb1.Magnitude/20250413073530.724306.328568</preferredMagnitudeID><description><text>Northern Chile</text><type>region name</type></description><originReference>de.gempa.tb1.Origin/20250413073530.708991.104481</originReference></event></EventParameters></seiscomp>