<?xml version="1.0" encoding="UTF-8"?>
<seiscomp xmlns="http://geofon.gfz-potsdam.de/ns/seiscomp3-schema/0.13" version="0.13"><EventParameters><pick publicID="de.gempa.tb1.Pick/20250411172246.43894.118905"><time><value>2025-04-11T17:22:38.14Z</value></time><waveformID networkCode="CX" stationCode="PB09" channelCode="HHZ"/><filterID>ITAPER(4)&gt;&gt;BW(4,4,20)</filterID><methodID>AIC</methodID><horizontalSlowness><value>17.386501019652776</value></horizontalSlowness><backazimuth><value>88.20573597525093</value></backazimuth><phaseHint>P</phaseHint><evaluationMode>automatic</evaluationMode><comment><text>169138.77036189032</text><id>DFX:rectilinearity</id></comment><comment><text>1641.1366006967955</text><id>SNR</id></comment></pick><pick publicID="de.gempa.tb1.Pick/20250411172247.684135.118907"><time><value>2025-04-11T17:22:41.758393Z</value></time><waveformID networkCode="CX" stationCode="PB01" channelCode="HHZ"/><filterID>ITAPER(4)&gt;&gt;BW(4,4,20)</filterID><methodID>AIC</methodID><horizontalSlowness><value>9.085033038304482</value></horizontalSlowness><backazimuth><value>115.1233079336665</value></backazimuth><phaseHint>P</phaseHint><evaluationMode>automatic</evaluationMode><comment><text>12049.564742337592</text><id>DFX:rectilinearity</id></comment><comment><text>1098.4616516956435</text><id>SNR</id></comment></pick><pick publicID="de.gempa.tb1.Pick/20250411172248.801159.118909"><time><value>2025-04-11T17:22:42.708394Z</value></time><waveformID networkCode="CX" stationCode="PB03" channelCode="HHZ"/><filterID>ITAPER(4)&gt;&gt;BW(4,4,20)</filterID><methodID>AIC</methodID><horizontalSlowness><value>7.472954004045965</value></horizontalSlowness><backazimuth><value>79.97438236632264</value></backazimuth><phaseHint>P</phaseHint><evaluationMode>automatic</evaluationMode><comment><text>34294.02811270493</text><id>DFX:rectilinearity</id></comment><comment><text>870.1685793761393</text><id>SNR</id></comment></pick><pick publicID="de.gempa.tb1.Pick/20250411172249.638251.118911"><time><value>2025-04-11T17:22:44.208393Z</value></time><waveformID networkCode="CX" stationCode="PB02" channelCode="HHZ"/><filterID>ITAPER(4)&gt;&gt;BW(4,4,20)</filterID><methodID>AIC</methodID><horizontalSlowness><value>7.756459124680924</value></horizontalSlowness><backazimuth><value>105.19158949276799</value></backazimuth><phaseHint>P</phaseHint><evaluationMode>automatic</evaluationMode><comment><text>25885.668035060786</text><id>DFX:rectilinearity</id></comment><comment><text>1004.7290962727582</text><id>SNR</id></comment></pick><pick publicID="de.gempa.tb1.Pick/20250411172249.678111.118913"><time><value>2025-04-11T17:22:44.818393Z</value></time><waveformID networkCode="CX" stationCode="PB06" channelCode="HHZ"/><filterID>ITAPER(4)&gt;&gt;BW(4,4,20)</filterID><methodID>AIC</methodID><horizontalSlowness><value>4.915272239935895</value></horizontalSlowness><backazimuth><value>75.68115784192804</value></backazimuth><phaseHint>P</phaseHint><evaluationMode>automatic</evaluationMode><comment><text>26760.3723526201</text><id>DFX:rectilinearity</id></comment><comment><text>357.30935041740423</text><id>SNR</id></comment></pick><pick publicID="de.gempa.tb1.Pick/20250411172253.128132.118915"><time><value>2025-04-11T17:22:48.688393Z</value></time><waveformID networkCode="CX" stationCode="PB08" channelCode="HHZ"/><filterID>ITAPER(4)&gt;&gt;BW(4,4,20)</filterID><methodID>AIC</methodID><horizontalSlowness><value>15.438802569772466</value></horizontalSlowness><backazimuth><value>208.9893352141886</value></backazimuth><phaseHint>P</phaseHint><evaluationMode>automatic</evaluationMode><comment><text>10336.294596693751</text><id>DFX:rectilinearity</id></comment><comment><text>201.13547305425158</text><id>SNR</id></comment></pick><pick publicID="de.gempa.tb1.Pick/20250411172255.462904.118917"><time><value>2025-04-11T17:22:49.279999Z</value></time><waveformID networkCode="CX" stationCode="PATCX" channelCode="HHZ"/><filterID>ITAPER(4)&gt;&gt;BW(4,4,20)</filterID><methodID>AIC</methodID><horizontalSlowness><value>6.686038089781466</value></horizontalSlowness><backazimuth><value>160.23086917717694</value></backazimuth><phaseHint>P</phaseHint><evaluationMode>automatic</evaluationMode><comment><text>16272.66554741854</text><id>DFX:rectilinearity</id></comment><comment><text>201.88047319175143</text><id>SNR</id></comment></pick><pick publicID="de.gempa.tb1.Pick/20250411172255.765751.118919"><time><value>2025-04-11T17:22:49.048393Z</value></time><waveformID networkCode="CX" stationCode="PB15" channelCode="HHZ"/><filterID>ITAPER(4)&gt;&gt;BW(4,4,20)</filterID><methodID>AIC</methodID><horizontalSlowness><value>14.764696809026988</value></horizontalSlowness><backazimuth><value>67.32622112807024</value></backazimuth><phaseHint>P</phaseHint><evaluationMode>automatic</evaluationMode><comment><text>42767.031586608347</text><id>DFX:rectilinearity</id></comment><comment><text>76.76607227389852</text><id>SNR</id></comment></pick><pick publicID="de.gempa.tb1.Pick/20250411172258.047062.118921"><time><value>2025-04-11T17:22:43.558396Z</value></time><waveformID networkCode="CX" stationCode="PB07" channelCode="HHZ"/><filterID>ITAPER(4)&gt;&gt;BW(4,4,20)</filterID><methodID>AIC</methodID><horizontalSlowness><value>12.49737957397713</value></horizontalSlowness><backazimuth><value>92.82447576775803</value></backazimuth><phaseHint>P</phaseHint><evaluationMode>automatic</evaluationMode><comment><text>179468.55204083832</text><id>DFX:rectilinearity</id></comment><comment><text>1339.7395684595315</text><id>SNR</id></comment></pick><pick publicID="de.gempa.tb1.Pick/20250411172301.611345.118923"><time><value>2025-04-11T17:22:55.94Z</value></time><waveformID networkCode="CX" stationCode="PB19" channelCode="HHZ"/><filterID>ITAPER(4)&gt;&gt;BW(4,4,20)</filterID><methodID>AIC</methodID><horizontalSlowness><value>6.992635693930879</value></horizontalSlowness><backazimuth><value>47.74862091999375</value></backazimuth><phaseHint>P</phaseHint><evaluationMode>automatic</evaluationMode><comment><text>1314.8362708676962</text><id>DFX:rectilinearity</id></comment><comment><text>74.06529738306139</text><id>SNR</id></comment></pick><pick publicID="de.gempa.tb1.Pick/20250411172303.593599.118925"><time><value>2025-04-11T17:22:57.84Z</value></time><waveformID networkCode="CX" stationCode="PSGCX" channelCode="HHZ"/><filterID>ITAPER(4)&gt;&gt;BW(4,4,20)</filterID><methodID>AIC</methodID><horizontalSlowness><value>7.399442029903874</value></horizontalSlowness><backazimuth><value>142.80086948592842</value></backazimuth><phaseHint>P</phaseHint><evaluationMode>automatic</evaluationMode><comment><text>1775.0191350344198</text><id>DFX:rectilinearity</id></comment><comment><text>404.62941326174757</text><id>SNR</id></comment></pick><pick publicID="de.gempa.tb1.Pick/20250411172307.202281.118927"><time><value>2025-04-11T17:23:00.07Z</value></time><waveformID networkCode="CX" stationCode="PB10" channelCode="HHZ"/><filterID>ITAPER(4)&gt;&gt;BW(4,4,20)</filterID><methodID>AIC</methodID><horizontalSlowness><value>8.629273525682676</value></horizontalSlowness><backazimuth><value>36.02259467566583</value></backazimuth><phaseHint>P</phaseHint><evaluationMode>automatic</evaluationMode><comment><text>609.5566823231657</text><id>DFX:rectilinearity</id></comment><comment><text>31.241735710874003</text><id>SNR</id></comment></pick><pick publicID="de.gempa.tb1.Pick/20250411172308.005052.118929"><time><value>2025-04-11T17:23:00.768393Z</value></time><waveformID networkCode="CX" stationCode="PB01" channelCode="HHN"/><filterID>ITAPER(2)&gt;&gt;BW(3,3,20)</filterID><methodID>L2-AIC-GRID</methodID><horizontalSlowness><value>20.63007836237184</value></horizontalSlowness><backazimuth><value>15.678095258912236</value></backazimuth><phaseHint>S</phaseHint><evaluationMode>automatic</evaluationMode><comment><text>628998.5288595824</text><id>DFX:rectilinearity</id></comment><comment><text>de.gempa.tb1.Pick/20250411172247.684135.118907</text><id>RefPickID</id></comment><comment><text>8.966429614603138</text><id>SNR</id></comment></pick><pick publicID="de.gempa.tb1.Pick/20250411172310.852974.118930"><time><value>2025-04-11T17:23:02.408394Z</value></time><waveformID networkCode="CX" stationCode="PB03" channelCode="HHN"/><filterID>ITAPER(2)&gt;&gt;BW(3,3,20)</filterID><methodID>L2-AIC-GRID</methodID><horizontalSlowness><value>14.93210196503811</value></horizontalSlowness><backazimuth><value>255.9385727430688</value></backazimuth><phaseHint>S</phaseHint><evaluationMode>automatic</evaluationMode><comment><text>215139.1040151043</text><id>DFX:rectilinearity</id></comment><comment><text>de.gempa.tb1.Pick/20250411172248.801159.118909</text><id>RefPickID</id></comment><comment><text>7.041179139984614</text><id>SNR</id></comment></pick><pick publicID="de.gempa.tb1.Pick/20250411172311.606761.118931"><time><value>2025-04-11T17:23:05.378393Z</value></time><waveformID networkCode="CX" stationCode="PB02" channelCode="HHN"/><filterID>ITAPER(2)&gt;&gt;BW(3,3,20)</filterID><methodID>L2-AIC-GRID</methodID><horizontalSlowness><value>16.686438523865846</value></horizontalSlowness><backazimuth><value>12.312959691622524</value></backazimuth><phaseHint>S</phaseHint><evaluationMode>automatic</evaluationMode><comment><text>1040724.2896900056</text><id>DFX:rectilinearity</id></comment><comment><text>de.gempa.tb1.Pick/20250411172249.638251.118911</text><id>RefPickID</id></comment><comment><text>6.535538906058715</text><id>SNR</id></comment></pick><pick publicID="de.gempa.tb1.Pick/20250411172312.633857.118932"><time><value>2025-04-11T17:23:06.268393Z</value></time><waveformID networkCode="CX" stationCode="PB06" channelCode="HHN"/><filterID>ITAPER(2)&gt;&gt;BW(3,3,20)</filterID><methodID>L2-AIC-GRID</methodID><horizontalSlowness><value>20.391814429378762</value></horizontalSlowness><backazimuth><value>325.9735273253973</value></backazimuth><phaseHint>S</phaseHint><evaluationMode>automatic</evaluationMode><comment><text>175218.811425168</text><id>DFX:rectilinearity</id></comment><comment><text>de.gempa.tb1.Pick/20250411172249.678111.118913</text><id>RefPickID</id></comment><comment><text>6.012554632932416</text><id>SNR</id></comment></pick><pick publicID="de.gempa.tb1.Pick/20250411172320.315293.118938"><time><value>2025-04-11T17:23:13.249999Z</value></time><waveformID networkCode="CX" stationCode="PATCX" channelCode="HHN"/><filterID>ITAPER(2)&gt;&gt;BW(3,3,20)</filterID><methodID>L2-AIC-GRID</methodID><horizontalSlowness><value>19.982224223494931</value></horizontalSlowness><backazimuth><value>30.1363468134484</value></backazimuth><phaseHint>S</phaseHint><evaluationMode>automatic</evaluationMode><comment><text>995480.3957906218</text><id>DFX:rectilinearity</id></comment><comment><text>de.gempa.tb1.Pick/20250411172255.462904.118917</text><id>RefPickID</id></comment><comment><text>12.434717266112267</text><id>SNR</id></comment></pick><pick publicID="de.gempa.tb1.Pick/20250411172320.561095.118939"><time><value>2025-04-11T17:23:12.988393Z</value></time><waveformID networkCode="CX" stationCode="PB08" channelCode="HHN"/><filterID>ITAPER(2)&gt;&gt;BW(3,3,20)</filterID><methodID>L2-AIC-GRID</methodID><horizontalSlowness><value>14.478254323566432</value></horizontalSlowness><backazimuth><value>212.06944046909288</value></backazimuth><phaseHint>S</phaseHint><evaluationMode>automatic</evaluationMode><comment><text>45395.10221355168</text><id>DFX:rectilinearity</id></comment><comment><text>de.gempa.tb1.Pick/20250411172253.128132.118915</text><id>RefPickID</id></comment><comment><text>7.509681274412902</text><id>SNR</id></comment></pick><pick publicID="de.gempa.tb1.Pick/20250411172325.913216.118944"><time><value>2025-04-11T17:23:13.888393Z</value></time><waveformID networkCode="CX" stationCode="PB15" channelCode="HHN"/><filterID>ITAPER(2)&gt;&gt;BW(3,3,20)</filterID><methodID>L2-AIC-GRID</methodID><horizontalSlowness><value>21.541324060480683</value></horizontalSlowness><backazimuth><value>132.39983203129808</value></backazimuth><phaseHint>S</phaseHint><evaluationMode>automatic</evaluationMode><comment><text>8060522.991913911</text><id>DFX:rectilinearity</id></comment><comment><text>de.gempa.tb1.Pick/20250411172255.765751.118919</text><id>RefPickID</id></comment><comment><text>8.085513074611182</text><id>SNR</id></comment></pick><pick publicID="de.gempa.tb1.Pick/20250411172331.699529.118947"><time><value>2025-04-11T17:23:25.28Z</value></time><waveformID networkCode="CX" stationCode="PB19" channelCode="HHN"/><filterID>ITAPER(2)&gt;&gt;BW(3,3,20)</filterID><methodID>L2-AIC-GRID</methodID><horizontalSlowness><value>23.241089505721344</value></horizontalSlowness><backazimuth><value>55.5491604157709</value></backazimuth><phaseHint>S</phaseHint><evaluationMode>automatic</evaluationMode><comment><text>125831.17411578252</text><id>DFX:rectilinearity</id></comment><comment><text>de.gempa.tb1.Pick/20250411172301.611345.118923</text><id>RefPickID</id></comment><comment><text>8.12120774521204</text><id>SNR</id></comment></pick><pick publicID="de.gempa.tb1.Pick/20250411172337.70532.118949"><time><value>2025-04-11T17:23:30.49Z</value></time><waveformID networkCode="CX" stationCode="PSGCX" channelCode="HHN"/><filterID>ITAPER(2)&gt;&gt;BW(3,3,20)</filterID><methodID>L2-AIC-GRID</methodID><horizontalSlowness><value>21.113510424855043</value></horizontalSlowness><backazimuth><value>294.1204267026881</value></backazimuth><phaseHint>S</phaseHint><evaluationMode>automatic</evaluationMode><comment><text>22225.854973429497</text><id>DFX:rectilinearity</id></comment><comment><text>de.gempa.tb1.Pick/20250411172303.593599.118925</text><id>RefPickID</id></comment><comment><text>6.77125197045295</text><id>SNR</id></comment></pick><origin publicID="de.gempa.tb1.Origin/20250411172337.717245.61473"><time><value>2025-04-11T17:22:17.679688Z</value><uncertainty>0.6583343744277954</uncertainty></time><latitude><value>-21.69642448425293</value><uncertainty>2.2051970958709717</uncertainty></latitude><longitude><value>-68.59811401367188</value><uncertainty>8.218148231506348</uncertainty></longitude><depth><value>142.67782592773438</value><uncertainty>8.390908241271973</uncertainty></depth><depthType>from location</depthType><methodID>LOCSAT</methodID><earthModelID>iasp91_scanloc</earthModelID><quality><associatedPhaseCount>21</associatedPhaseCount><usedPhaseCount>21</usedPhaseCount><associatedStationCount>12</associatedStationCount><usedStationCount>12</usedStationCount><depthPhaseCount>0</depthPhaseCount><standardError>0.5207988499113779</standardError><azimuthalGap>214.72288513183594</azimuthalGap><maximumDistance>2.5567312240600586</maximumDistance><minimumDistance>0.606745183467865</minimumDistance><medianDistance>1.6322683095932007</medianDistance></quality><uncertainty><minHorizontalUncertainty>4.595839023590088</minHorizontalUncertainty><maxHorizontalUncertainty>17.650901794433594</maxHorizontalUncertainty><azimuthMaxHorizontalUncertainty>86.27954864501953</azimuthMaxHorizontalUncertainty><preferredDescription>horizontal uncertainty</preferredDescription></uncertainty><evaluationMode>automatic</evaluationMode><evaluationStatus>confirmed</evaluationStatus><comment><text>0.00</text><id>mismatchScore</id></comment><comment><text>mismatchScore</text><id>scevalMethod</id></comment><arrival><pickID>de.gempa.tb1.Pick/20250411172246.43894.118905</pickID><phase>P</phase><azimuth>260.4460754394531</azimuth><distance>0.606745183467865</distance><timeResidual>-0.651449203491211</timeResidual><timeUsed>true</timeUsed><horizontalSlownessUsed>false</horizontalSlownessUsed><backazimuthUsed>false</backazimuthUsed><weight>1</weight></arrival><arrival><pickID>de.gempa.tb1.Pick/20250411172247.684135.118907</pickID><phase>P</phase><azimuth>307.9403991699219</azimuth><distance>1.0533230304718018</distance><timeResidual>-0.4821605682373047</timeResidual><timeUsed>true</timeUsed><horizontalSlownessUsed>false</horizontalSlownessUsed><backazimuthUsed>false</backazimuthUsed><weight>1</weight></arrival><arrival><pickID>de.gempa.tb1.Pick/20250411172248.801159.118909</pickID><phase>P</phase><azimuth>251.70213317871094</azimuth><distance>1.1285847425460815</distance><timeResidual>-0.21981239318847656</timeResidual><timeUsed>true</timeUsed><horizontalSlownessUsed>false</horizontalSlownessUsed><backazimuthUsed>false</backazimuthUsed><weight>1</weight></arrival><arrival><pickID>de.gempa.tb1.Pick/20250411172249.638251.118911</pickID><phase>P</phase><azimuth>286.9936218261719</azimuth><distance>1.2654050588607788</distance><timeResidual>-0.05207061767578125</timeResidual><timeUsed>true</timeUsed><horizontalSlownessUsed>false</horizontalSlownessUsed><backazimuthUsed>false</backazimuthUsed><weight>1</weight></arrival><arrival><pickID>de.gempa.tb1.Pick/20250411172249.678111.118913</pickID><phase>P</phase><azimuth>221.75338745117188</azimuth><distance>1.3503447771072388</distance><timeResidual>-0.2938346862792969</timeResidual><timeUsed>true</timeUsed><horizontalSlownessUsed>false</horizontalSlownessUsed><backazimuthUsed>false</backazimuthUsed><weight>1</weight></arrival><arrival><pickID>de.gempa.tb1.Pick/20250411172253.128132.118915</pickID><phase>P</phase><azimuth>341.3565368652344</azimuth><distance>1.6322683095932007</distance><timeResidual>0.5365238189697266</timeResidual><timeUsed>true</timeUsed><horizontalSlownessUsed>false</horizontalSlownessUsed><backazimuthUsed>false</backazimuthUsed><weight>1</weight></arrival><arrival><pickID>de.gempa.tb1.Pick/20250411172255.462904.118917</pickID><phase>P</phase><azimuth>300.7176513671875</azimuth><distance>1.691870927810669</distance><timeResidual>0.4667778015136719</timeResidual><timeUsed>true</timeUsed><horizontalSlownessUsed>false</horizontalSlownessUsed><backazimuthUsed>false</backazimuthUsed><weight>1</weight></arrival><arrival><pickID>de.gempa.tb1.Pick/20250411172255.765751.118919</pickID><phase>P</phase><azimuth>208.05328369140625</azimuth><distance>1.7076480388641357</distance><timeResidual>0.07349395751953125</timeResidual><timeUsed>true</timeUsed><horizontalSlownessUsed>false</horizontalSlownessUsed><backazimuthUsed>false</backazimuthUsed><weight>1</weight></arrival><arrival><pickID>de.gempa.tb1.Pick/20250411172258.047062.118921</pickID><phase>P</phase><azimuth>268.32379150390625</azimuth><distance>1.1981542110443115</distance><timeResidual>-0.03673553466796875</timeResidual><timeUsed>true</timeUsed><horizontalSlownessUsed>false</horizontalSlownessUsed><backazimuthUsed>false</backazimuthUsed><weight>1</weight></arrival><arrival><pickID>de.gempa.tb1.Pick/20250411172301.611345.118923</pickID><phase>P</phase><azimuth>196.0794219970703</azimuth><distance>2.288980007171631</distance><timeResidual>0.10100555419921875</timeResidual><timeUsed>true</timeUsed><horizontalSlownessUsed>false</horizontalSlownessUsed><backazimuthUsed>false</backazimuthUsed><weight>1</weight></arrival><arrival><pickID>de.gempa.tb1.Pick/20250411172303.593599.118925</pickID><phase>P</phase><azimuth>325.3663635253906</azimuth><distance>2.530194044113159</distance><timeResidual>-1.0002250671386719</timeResidual><timeUsed>true</timeUsed><horizontalSlownessUsed>false</horizontalSlownessUsed><backazimuthUsed>false</backazimuthUsed><weight>1</weight></arrival><arrival><pickID>de.gempa.tb1.Pick/20250411172307.202281.118927</pickID><phase>P</phase><azimuth>224.61546325683594</azimuth><distance>2.5567312240600586</distance><timeResidual>0.9237899780273438</timeResidual><timeUsed>true</timeUsed><horizontalSlownessUsed>false</horizontalSlownessUsed><backazimuthUsed>false</backazimuthUsed><weight>1</weight></arrival><arrival><pickID>de.gempa.tb1.Pick/20250411172308.005052.118929</pickID><phase>S</phase><azimuth>307.9403991699219</azimuth><distance>1.0533230304718018</distance><timeResidual>-0.5386676788330078</timeResidual><timeUsed>true</timeUsed><horizontalSlownessUsed>false</horizontalSlownessUsed><backazimuthUsed>false</backazimuthUsed><weight>1</weight></arrival><arrival><pickID>de.gempa.tb1.Pick/20250411172310.852974.118930</pickID><phase>S</ph