<?xml version="1.0" encoding="UTF-8"?>
<seiscomp xmlns="http://geofon.gfz-potsdam.de/ns/seiscomp3-schema/0.13" version="0.13"><EventParameters><pick publicID="de.gempa.tb1.Pick/20250411204615.237858.131647"><time><value>2025-04-11T20:46:10.105Z</value></time><waveformID networkCode="CH" stationCode="SIMPL" channelCode="HHZ"/><filterID>ITAPER(4)&gt;&gt;BW(4,4,20)</filterID><methodID>AIC</methodID><phaseHint>P</phaseHint><evaluationMode>automatic</evaluationMode></pick><pick publicID="de.gempa.tb1.Pick/20250411204617.050463.131649"><time><value>2025-04-11T20:46:12.485Z</value></time><waveformID networkCode="CH" stationCode="LAUCH" channelCode="HHZ"/><filterID>ITAPER(4)&gt;&gt;BW(4,4,20)</filterID><methodID>AIC</methodID><phaseHint>P</phaseHint><evaluationMode>automatic</evaluationMode></pick><pick publicID="de.gempa.tb1.Pick/20250411204618.263251.131651"><time><value>2025-04-11T20:46:14.689998Z</value></time><waveformID networkCode="CH" stationCode="DIX" channelCode="HHZ"/><filterID>ITAPER(4)&gt;&gt;BW(4,4,20)</filterID><methodID>AIC</methodID><phaseHint>P</phaseHint><evaluationMode>automatic</evaluationMode></pick><pick publicID="de.gempa.tb1.Pick/20250411204619.143053.131653"><time><value>2025-04-11T20:46:15.835Z</value></time><waveformID networkCode="CH" stationCode="HASLI" channelCode="HHZ"/><filterID>ITAPER(4)&gt;&gt;BW(4,4,20)</filterID><methodID>AIC</methodID><phaseHint>P</phaseHint><evaluationMode>automatic</evaluationMode></pick><pick publicID="de.gempa.tb1.Pick/20250411204619.326073.131655"><time><value>2025-04-11T20:46:14.78Z</value></time><waveformID networkCode="CH" stationCode="VANNI" channelCode="HHZ"/><filterID>ITAPER(4)&gt;&gt;BW(4,4,20)</filterID><methodID>AIC</methodID><phaseHint>P</phaseHint><evaluationMode>automatic</evaluationMode></pick><pick publicID="de.gempa.tb1.Pick/20250411204737.161491.131714"><time><value>2025-04-11T20:47:00.044999Z</value></time><waveformID networkCode="GR" stationCode="GRB2" channelCode="BHZ"/><filterID>ITAPER(4)&gt;&gt;BW_HP(4,4)</filterID><methodID>AIC</methodID><phaseHint>P</phaseHint><evaluationMode>automatic</evaluationMode></pick><origin publicID="de.gempa.tb1.Origin/20250411204737.167389.63145"><time><value>2025-04-11T20:46:03.101211Z</value><uncertainty>1.2638579607009888</uncertainty></time><latitude><value>46.23476028442383</value><uncertainty>24.05198860168457</uncertainty></latitude><longitude><value>8.089438438415527</value><uncertainty>32.09476089477539</uncertainty></longitude><depth><value>43.56381607055664</value><uncertainty>35.931884765625</uncertainty></depth><depthType>from location</depthType><methodID>LOCSAT</methodID><earthModelID>iasp91</earthModelID><quality><associatedPhaseCount>6</associatedPhaseCount><usedPhaseCount>6</usedPhaseCount><associatedStationCount>6</associatedStationCount><usedStationCount>6</usedStationCount><depthPhaseCount>0</depthPhaseCount><standardError>0.6023801295665543</standardError><azimuthalGap>214.965763092041</azimuthalGap><maximumDistance>3.8807411193847656</maximumDistance><minimumDistance>0.0487314909696579</minimumDistance><medianDistance>0.4981955289840698</medianDistance></quality><uncertainty><minHorizontalUncertainty>16.93336296081543</minHorizontalUncertainty><maxHorizontalUncertainty>84.3386001586914</maxHorizontalUncertainty><azimuthMaxHorizontalUncertainty>126.14151763916016</azimuthMaxHorizontalUncertainty><preferredDescription>horizontal uncertainty</preferredDescription></uncertainty><evaluationMode>automatic</evaluationMode><evaluationStatus>rejected</evaluationStatus><comment><text>0.88</text><id>mismatchScore</id></comment><comment><text>mismatchScore</text><id>scevalMethod</id></comment><arrival><pickID>de.gempa.tb1.Pick/20250411204615.237858.131647</pickID><phase>P</phase><azimuth>275.7502136230469</azimuth><distance>0.0487314909696579</distance><timeResidual>-0.3343820571899414</timeResidual><timeUsed>true</timeUsed><horizontalSlownessUsed>false</horizontalSlownessUsed><backazimuthUsed>false</backazimuthUsed><weight>1</weight></arrival><arrival><pickID>de.gempa.tb1.Pick/20250411204617.050463.131649</pickID><phase>P</phase><azimuth>309.5055236816406</azimuth><distance>0.28494715690612793</distance><timeResidual>-0.4909114837646484</timeResidual><timeUsed>true</timeUsed><horizontalSlownessUsed>false</horizontalSlownessUsed><backazimuthUsed>false</backazimuthUsed><weight>1</weight></arrival><arrival><pickID>de.gempa.tb1.Pick/20250411204618.263251.131651</pickID><phase>P</phase><azimuth>252.15113830566406</azimuth><distance>0.4981955289840698</distance><timeResidual>-0.5796136856079102</timeResidual><timeUsed>true</timeUsed><horizontalSlownessUsed>false</horizontalSlownessUsed><backazimuthUsed>false</backazimuthUsed><weight>1</weight></arrival><arrival><pickID>de.gempa.tb1.Pick/20250411204619.143053.131653</pickID><phase>P</phase><azimuth>4.646310329437256</azimuth><distance>0.5239586234092712</distance><timeResidual>0.29269933700561523</timeResidual><timeUsed>true</timeUsed><horizontalSlownessUsed>false</horizontalSlownessUsed><backazimuthUsed>false</backazimuthUsed><weight>1</weight></arrival><arrival><pickID>de.gempa.tb1.Pick/20250411204619.326073.131655</pickID><phase>P</phase><azimuth>266.0458679199219</azimuth><distance>0.34293362498283386</distance><timeResidual>1.1796808242797852</timeResidual><timeUsed>true</timeUsed><horizontalSlownessUsed>false</horizontalSlownessUsed><backazimuthUsed>false</backazimuthUsed><weight>1</weight></arrival><arrival><pickID>de.gempa.tb1.Pick/20250411204737.161491.131714</pickID><phase>P</phase><azimuth>37.185375213623047</azimuth><distance>3.8807411193847656</distance><timeResidual>-0.10532665252685547</timeResidual><timeUsed>true</timeUsed><horizontalSlownessUsed>false</horizontalSlownessUsed><backazimuthUsed>false</backazimuthUsed><weight>1</weight></arrival><magnitude publicID="de.gempa.tb1.Magnitude/20250411204741.064575.141799"><magnitude><value>1.0972710783583952</value></magnitude><type>M</type><methodID>weighted average</methodID><stationCount>5</stationCount></magnitude></origin><event publicID="gempa2025heht"><preferredOriginID>de.gempa.tb1.Origin/20250411204737.167389.63145</preferredOriginID><preferredMagnitudeID>de.gempa.tb1.Magnitude/20250411204741.064575.141799</preferredMagnitudeID><typeCertainty>suspected</typeCertainty><description><text>Switzerland</text><type>region name</type></description><originReference>de.gempa.tb1.Origin/20250411204737.167389.63145</originReference></event></EventParameters></seiscomp>