<?xml version="1.0" encoding="UTF-8"?>
<seiscomp xmlns="http://geofon.gfz-potsdam.de/ns/seiscomp3-schema/0.13" version="0.13"><EventParameters><pick publicID="de.gempa.tb1.Pick/20250412213241.621745.126937"><time><value>2025-04-12T21:32:36.018393Z</value></time><waveformID networkCode="CX" stationCode="PB01" channelCode="HHZ"/><filterID>ITAPER(4)&gt;&gt;BW(4,4,20)</filterID><methodID>AIC</methodID><horizontalSlowness><value>6.275350088588254</value></horizontalSlowness><backazimuth><value>22.469694219453942</value></backazimuth><phaseHint>P</phaseHint><evaluationMode>automatic</evaluationMode><comment><text>4652.365393951749</text><id>DFX:rectilinearity</id></comment><comment><text>1526.7127492910156</text><id>SNR</id></comment></pick><pick publicID="de.gempa.tb1.Pick/20250412213243.676523.126939"><time><value>2025-04-12T21:32:37.488393Z</value></time><waveformID networkCode="CX" stationCode="PB08" channelCode="HHZ"/><filterID>ITAPER(4)&gt;&gt;BW(4,4,20)</filterID><methodID>AIC</methodID><horizontalSlowness><value>14.559212969102186</value></horizontalSlowness><backazimuth><value>213.645894189256</value></backazimuth><phaseHint>P</phaseHint><evaluationMode>automatic</evaluationMode><comment><text>169.77808618514521</text><id>DFX:rectilinearity</id></comment><comment><text>92.99177956616556</text><id>SNR</id></comment></pick><pick publicID="de.gempa.tb1.Pick/20250412213245.590114.126941"><time><value>2025-04-12T21:32:40.758393Z</value></time><waveformID networkCode="CX" stationCode="PB02" channelCode="HHZ"/><filterID>ITAPER(4)&gt;&gt;BW(4,4,20)</filterID><methodID>AIC</methodID><horizontalSlowness><value>7.983457989953043</value></horizontalSlowness><backazimuth><value>53.60752155961879</value></backazimuth><phaseHint>P</phaseHint><evaluationMode>automatic</evaluationMode><comment><text>35431.063167368193</text><id>DFX:rectilinearity</id></comment><comment><text>475.098634246092</text><id>SNR</id></comment></pick><pick publicID="de.gempa.tb1.Pick/20250412213249.207748.126943"><time><value>2025-04-12T21:32:41.909999Z</value></time><waveformID networkCode="CX" stationCode="PATCX" channelCode="HHZ"/><filterID>ITAPER(4)&gt;&gt;BW(4,4,20)</filterID><methodID>AIC</methodID><horizontalSlowness><value>15.740291811120132</value></horizontalSlowness><backazimuth><value>132.77270060848122</value></backazimuth><phaseHint>P</phaseHint><evaluationMode>automatic</evaluationMode><comment><text>893.0745005041582</text><id>DFX:rectilinearity</id></comment><comment><text>96.96339791486588</text><id>SNR</id></comment></pick><pick publicID="de.gempa.tb1.Pick/20250412213251.657485.126945"><time><value>2025-04-12T21:32:45.848393Z</value></time><waveformID networkCode="CX" stationCode="PB03" channelCode="HHZ"/><filterID>ITAPER(4)&gt;&gt;BW(4,4,20)</filterID><methodID>AIC</methodID><horizontalSlowness><value>6.615549363870101</value></horizontalSlowness><backazimuth><value>31.229458978237147</value></backazimuth><phaseHint>P</phaseHint><evaluationMode>automatic</evaluationMode><comment><text>3409.966201611955</text><id>DFX:rectilinearity</id></comment><comment><text>98.04404919979757</text><id>SNR</id></comment></pick><pick publicID="de.gempa.tb1.Pick/20250412213254.056463.126947"><time><value>2025-04-12T21:32:41.19Z</value></time><waveformID networkCode="CX" stationCode="PB09" channelCode="HHZ"/><filterID>ITAPER(4)&gt;&gt;BW(4,4,20)</filterID><methodID>AIC</methodID><horizontalSlowness><value>16.038230821043157</value></horizontalSlowness><backazimuth><value>63.7325620366075</value></backazimuth><phaseHint>P</phaseHint><evaluationMode>automatic</evaluationMode><comment><text>1194.1828151460184</text><id>DFX:rectilinearity</id></comment><comment><text>338.9110141650313</text><id>SNR</id></comment></pick><pick publicID="de.gempa.tb1.Pick/20250412213254.517241.126949"><time><value>2025-04-12T21:32:47.18Z</value></time><waveformID networkCode="CX" stationCode="PSGCX" channelCode="HHZ"/><filterID>ITAPER(4)&gt;&gt;BW(4,4,20)</filterID><methodID>AIC</methodID><horizontalSlowness><value>8.982922238572106</value></horizontalSlowness><backazimuth><value>130.07363834337815</value></backazimuth><phaseHint>P</phaseHint><evaluationMode>automatic</evaluationMode><comment><text>134.6070542230439</text><id>DFX:rectilinearity</id></comment><comment><text>174.7070129536007</text><id>SNR</id></comment></pick><pick publicID="de.gempa.tb1.Pick/20250412213256.814925.126951"><time><value>2025-04-12T21:32:49.478393Z</value></time><waveformID networkCode="CX" stationCode="PB01" channelCode="HHN"/><filterID>ITAPER(2)&gt;&gt;BW(3,3,20)</filterID><methodID>L2-AIC-GRID</methodID><horizontalSlowness><value>23.50490856664482</value></horizontalSlowness><backazimuth><value>351.44386633411676</value></backazimuth><phaseHint>S</phaseHint><evaluationMode>automatic</evaluationMode><comment><text>33755.930253161583</text><id>DFX:rectilinearity</id></comment><comment><text>de.gempa.tb1.Pick/20250412213241.621745.126937</text><id>RefPickID</id></comment><comment><text>6.885701863114629</text><id>SNR</id></comment></pick><pick publicID="de.gempa.tb1.Pick/20250412213257.595546.126952"><time><value>2025-04-12T21:32:52.498393Z</value></time><waveformID networkCode="CX" stationCode="PB06" channelCode="HHZ"/><filterID>ITAPER(4)&gt;&gt;BW(4,4,20)</filterID><methodID>AIC</methodID><horizontalSlowness><value>5.429527121574472</value></horizontalSlowness><backazimuth><value>356.31932988727976</value></backazimuth><phaseHint>P</phaseHint><evaluationMode>automatic</evaluationMode><comment><text>472.0165787766481</text><id>DFX:rectilinearity</id></comment><comment><text>62.99158936770915</text><id>SNR</id></comment></pick><pick publicID="de.gempa.tb1.Pick/20250412213257.704354.126954"><time><value>2025-04-12T21:32:51.298393Z</value></time><waveformID networkCode="CX" stationCode="PB08" channelCode="HHN"/><filterID>ITAPER(2)&gt;&gt;BW(3,3,20)</filterID><methodID>L2-AIC-GRID</methodID><horizontalSlowness><value>21.701677436860361</value></horizontalSlowness><backazimuth><value>185.36141755938382</value></backazimuth><phaseHint>S</phaseHint><evaluationMode>automatic</evaluationMode><comment><text>8951.052376190963</text><id>DFX:rectilinearity</id></comment><comment><text>de.gempa.tb1.Pick/20250412213243.676523.126939</text><id>RefPickID</id></comment><comment><text>11.657754005527</text><id>SNR</id></comment></pick><pick publicID="de.gempa.tb1.Pick/20250412213305.745316.126955"><time><value>2025-04-12T21:33:00.308393Z</value></time><waveformID networkCode="CX" stationCode="PB15" channelCode="HHZ"/><filterID>ITAPER(4)&gt;&gt;BW(4,4,20)</filterID><methodID>AIC</methodID><horizontalSlowness><value>19.958448895313897</value></horizontalSlowness><backazimuth><value>69.1149905850388</value></backazimuth><phaseHint>P</phaseHint><evaluationMode>automatic</evaluationMode><comment><text>745.0670653771372</text><id>DFX:rectilinearity</id></comment><comment><text>19.07406908625381</text><id>SNR</id></comment></pick><origin publicID="de.gempa.tb1.Origin/20250412213306.688634.92941"><time><value>2025-04-12T21:32:20.225962Z</value><uncertainty>0.8309962153434753</uncertainty></time><latitude><value>-20.763225555419922</value><uncertainty>4.096156597137451</uncertainty></latitude><longitude><value>-69.04277038574219</value><uncertainty>10.145477294921875</uncertainty></longitude><depth><value>105.94804382324219</value><uncertainty>6.892656803131104</uncertainty></depth><depthType>from location</depthType><methodID>LOCSAT</methodID><earthModelID>iasp91_scanloc</earthModelID><quality><associatedPhaseCount>11</associatedPhaseCount><usedPhaseCount>11</usedPhaseCount><associatedStationCount>9</associatedStationCount><usedStationCount>9</usedStationCount><depthPhaseCount>0</depthPhaseCount><standardError>0.4948807864951114</standardError><azimuthalGap>198.72987365722656</azimuthalGap><maximumDistance>2.4655234813690186</maximumDistance><minimumDistance>0.5004385709762573</minimumDistance><medianDistance>1.0402572154998779</medianDistance></quality><uncertainty><minHorizontalUncertainty>8.736276626586914</minHorizontalUncertainty><maxHorizontalUncertainty>21.774208068847656</maxHorizontalUncertainty><azimuthMaxHorizontalUncertainty>92.61369323730469</azimuthMaxHorizontalUncertainty><preferredDescription>horizontal uncertainty</preferredDescription></uncertainty><evaluationMode>automatic</evaluationMode><evaluationStatus>confirmed</evaluationStatus><comment><text>0.07</text><id>mismatchScore</id></comment><comment><text>mismatchScore</text><id>scevalMethod</id></comment><arrival><pickID>de.gempa.tb1.Pick/20250412213241.621745.126937</pickID><phase>P</phase><azimuth>236.0922088623047</azimuth><distance>0.5004385709762573</distance><timeResidual>-0.6354255676269531</timeResidual><timeUsed>true</timeUsed><horizontalSlownessUsed>false</horizontalSlownessUsed><backazimuthUsed>false</backazimuthUsed><weight>1</weight></arrival><arrival><pickID>de.gempa.tb1.Pick/20250412213243.676523.126939</pickID><phase>P</phase><azimuth>350.46624755859375</azimuth><distance>0.6275814771652222</distance><timeResidual>-0.12445449829101562</timeResidual><timeUsed>true</timeUsed><horizontalSlownessUsed>false</horizontalSlownessUsed><backazimuthUsed>false</backazimuthUsed><weight>1</weight></arrival><arrival><pickID>de.gempa.tb1.Pick/20250412213245.590114.126941</pickID><phase>P</phase><azimuth>235.0594787597656</azimuth><distance>0.9705130457878113</distance><timeResidual>-0.05286788940429688</timeResidual><timeUsed>true</timeUsed><horizontalSlownessUsed>false</horizontalSlownessUsed><backazimuthUsed>false</backazimuthUsed><weight>1</weight></arrival><arrival><pickID>de.gempa.tb1.Pick/20250412213249.207748.126943</pickID><phase>P</phase><azimuth>266.65240478515625</azimuth><distance>1.0402572154998779</distance><timeResidual>0.36110687255859375</timeResidual><timeUsed>true</timeUsed><horizontalSlownessUsed>false</horizontalSlownessUsed><backazimuthUsed>false</backazimuthUsed><weight>1</weight></arrival><arrival><pickID>de.gempa.tb1.Pick/20250412213251.657485.126945</pickID><phase>P</phase><azimuth>207.23623657226562</azimuth><distance>1.440043807029724</distance><timeResidual>-0.2492542266845703</timeResidual><timeUsed>true</timeUsed><horizontalSlownessUsed>false</horizontalSlownessUsed><backazimuthUsed>false</backazimuthUsed><weight>1</weight></arrival><arrival><pickID>de.gempa.tb1.Pick/20250412213254.056463.126947</pickID><phase>P</phase><azimuth>190.2052764892578</azimuth><distance>1.0446871519088745</distance><timeResidual>-0.40161895751953125</timeResidual><timeUsed>true</timeUsed><horizontalSlownessUsed>false</horizontalSlownessUsed><backazimuthUsed>false</backazimuthUsed><weight>1</weight></arrival><arrival><pickID>de.gempa.tb1.Pick/20250412213254.517241.126949</pickID><phase>P</phase><azimuth>318.63629150390625</azimuth><distance>1.5412697792053223</distance><timeResidual>-0.14935588836669922</timeResidual><timeUsed>true</timeUsed><horizontalSlownessUsed>false</horizontalSlownessUsed><backazimuthUsed>false</backazimuthUsed><weight>1</weight></arrival><arrival><pickID>de.gempa.tb1.Pick/20250412213256.814925.126951</pickID><phase>S</phase><azimuth>236.0922088623047</azimuth><distance>0.5004385709762573</distance><timeResidual>0.18754863739013672</timeResidual><timeUsed>true</timeUsed><horizontalSlownessUsed>false</horizontalSlownessUsed><backazimuthUsed>false</backazimuthUsed><weight>1</weight></arrival><arrival><pickID>de.gempa.tb1.Pick/20250412213257.595546.126952</pickID><phase>P</phase><azimuth>194.1810302734375</azimuth><distance>1.9947128295898438</distance><timeResidual>-0.4786949157714844</timeResidual><timeUsed>true</timeUsed><horizontalSlownessUsed>false</horizontalSlownessUsed><backazimuthUsed>false</backazimuthUsed><weight>1</weight></arrival><arrival><pickID>de.gempa.tb1.Pick/20250412213257.704354.126954</pickID><phase>S</phase><azimuth>350.46624755859375</azimuth><distance>0.6275814771652222</distance><timeResidual>0.30213451385498047</timeResidual><timeUsed>true</timeUsed><horizontalSlownessUsed>false</horizontalSlownessUsed><backazimuthUsed>false</backazimuthUsed><weight>1</weight></arrival><arrival><pickID>de.gempa.tb1.Pick/20250412213305.745316.126955</pickID><phase>P</phase><azimuth>189.1961212158203</azimuth><distance>2.4655234813690186</distance><timeResidual>1.2410430908203125</timeResidual><timeUsed>true</timeUsed><horizontalSlownessUsed>false</horizontalSlownessUsed><backazimuthUsed>false</backazimuthUsed><weight>1</weight></arrival><magnitude publicID="de.gempa.tb1.Magnitude/20250412213306.69485.285416"><magnitude><value>2.8673607082258417</value></magnitude><type>M</type><methodID>weighted average</methodID><stationCount>7</stationCount></magnitude></origin><event publicID="gempa2025hgfh"><preferredOriginID>de.gempa.tb1.Origin/20250412213306.688634.92941</preferredOriginID><preferredMagnitudeID>de.gempa.tb1.Magnitude/20250412213306.69485.285416</preferredMagnitudeID><description><text>Northern Chile</text><type>region name</type></description><originReference>de.gempa.tb1.Origin/20250412213306.688634.92941</originReference></event></EventParameters></seiscomp>