<?xml version="1.0" encoding="UTF-8"?>
<seiscomp xmlns="http://geofon.gfz-potsdam.de/ns/seiscomp3-schema/0.13" version="0.13"><EventParameters><pick publicID="de.gempa.tb1.Pick/20250411173752.538697.119016"><time><value>2025-04-11T17:37:45.6Z</value></time><waveformID networkCode="CX" stationCode="PSGCX" channelCode="HHZ"/><filterID>ITAPER(4)&gt;&gt;BW(4,4,20)</filterID><methodID>AIC</methodID><horizontalSlowness><value>15.934226642980512</value></horizontalSlowness><backazimuth><value>336.20132202038326</value></backazimuth><phaseHint>P</phaseHint><evaluationMode>automatic</evaluationMode><comment><text>1730.1150977789155</text><id>DFX:rectilinearity</id></comment><comment><text>94.11488741319438</text><id>SNR</id></comment></pick><pick publicID="de.gempa.tb1.Pick/20250411173805.223987.119018"><time><value>2025-04-11T17:37:58.738393Z</value></time><waveformID networkCode="CX" stationCode="PB08" channelCode="HHZ"/><filterID>ITAPER(4)&gt;&gt;BW(4,4,20)</filterID><methodID>AIC</methodID><horizontalSlowness><value>10.719254281165121</value></horizontalSlowness><backazimuth><value>296.1795354940367</value></backazimuth><phaseHint>P</phaseHint><evaluationMode>automatic</evaluationMode><comment><text>788.2378737106656</text><id>DFX:rectilinearity</id></comment><comment><text>77.79109202068729</text><id>SNR</id></comment></pick><pick publicID="de.gempa.tb1.Pick/20250411173809.307022.119020"><time><value>2025-04-11T17:38:00.769999Z</value></time><waveformID networkCode="CX" stationCode="PATCX" channelCode="HHZ"/><filterID>ITAPER(4)&gt;&gt;BW(4,4,20)</filterID><methodID>AIC</methodID><horizontalSlowness><value>15.190573190570442</value></horizontalSlowness><backazimuth><value>4.4067439644956607</value></backazimuth><phaseHint>P</phaseHint><evaluationMode>automatic</evaluationMode><comment><text>204.32167213690497</text><id>DFX:rectilinearity</id></comment><comment><text>10.163696019713072</text><id>SNR</id></comment></pick><pick publicID="de.gempa.tb1.Pick/20250411173810.683213.119022"><time><value>2025-04-11T17:38:05.788393Z</value></time><waveformID networkCode="CX" stationCode="PB01" channelCode="HHZ"/><filterID>ITAPER(4)&gt;&gt;BW(4,4,20)</filterID><methodID>AIC</methodID><horizontalSlowness><value>17.310583501045144</value></horizontalSlowness><backazimuth><value>339.7472152728598</value></backazimuth><phaseHint>P</phaseHint><evaluationMode>automatic</evaluationMode><comment><text>58.08367478079628</text><id>DFX:rectilinearity</id></comment><comment><text>89.63331404295509</text><id>SNR</id></comment></pick><pick publicID="de.gempa.tb1.Pick/20250411173813.642512.119024"><time><value>2025-04-11T17:38:07.978393Z</value></time><waveformID networkCode="CX" stationCode="PB02" channelCode="HHZ"/><filterID>ITAPER(4)&gt;&gt;BW(4,4,20)</filterID><methodID>AIC</methodID><horizontalSlowness><value>9.132131766230845</value></horizontalSlowness><backazimuth><value>30.203227461900553</value></backazimuth><phaseHint>P</phaseHint><evaluationMode>automatic</evaluationMode><comment><text>213.61989569241672</text><id>DFX:rectilinearity</id></comment><comment><text>46.84164520320194</text><id>SNR</id></comment></pick><pick publicID="de.gempa.tb1.Pick/20250411173820.637049.119026"><time><value>2025-04-11T17:38:13.358396Z</value></time><waveformID networkCode="CX" stationCode="PB07" channelCode="HHZ"/><filterID>ITAPER(4)&gt;&gt;BW(4,4,20)</filterID><methodID>AIC</methodID><horizontalSlowness><value>16.813000484153363</value></horizontalSlowness><backazimuth><value>321.5973542405409</value></backazimuth><phaseHint>P</phaseHint><evaluationMode>automatic</evaluationMode><comment><text>1104.607385024482</text><id>DFX:rectilinearity</id></comment><comment><text>54.73793241003395</text><id>SNR</id></comment></pick><pick publicID="de.gempa.tb1.Pick/20250411173823.525441.119028"><time><value>2025-04-11T17:38:17.918394Z</value></time><waveformID networkCode="CX" stationCode="PB03" channelCode="HHZ"/><filterID>ITAPER(4)&gt;&gt;BW(4,4,20)</filterID><methodID>AIC</methodID><horizontalSlowness><value>14.859547372244096</value></horizontalSlowness><backazimuth><value>338.1567644653318</value></backazimuth><phaseHint>P</phaseHint><evaluationMode>automatic</evaluationMode><comment><text>93.8060207936401</text><id>DFX:rectilinearity</id></comment><comment><text>39.26334983739835</text><id>SNR</id></comment></pick><origin publicID="de.gempa.tb1.Origin/20250411173825.729377.61848"><time><value>2025-04-11T17:37:41.068193Z</value><uncertainty>0.5266724228858948</uncertainty></time><latitude><value>-19.774768829345703</value><uncertainty>16.795631408691406</uncertainty></latitude><longitude><value>-70.06197357177734</value><uncertainty>8.978134155273438</uncertainty></longitude><depth><value>16.06487274169922</value><uncertainty>20.377450942993164</uncertainty></depth><depthType>from location</depthType><methodID>LOCSAT</methodID><earthModelID>iasp91_scanloc</earthModelID><quality><associatedPhaseCount>7</associatedPhaseCount><usedPhaseCount>7</usedPhaseCount><associatedStationCount>7</associatedStationCount><usedStationCount>7</usedStationCount><depthPhaseCount>0</depthPhaseCount><standardError>0.1180851964992787</standardError><azimuthalGap>157.2762908935547</azimuthalGap><maximumDistance>2.2806808948516846</maximumDistance><minimumDistance>0.18581348657608032</minimumDistance><medianDistance>1.3722740411758423</medianDistance></quality><uncertainty><minHorizontalUncertainty>15.669419288635254</minHorizontalUncertainty><maxHorizontalUncertainty>37.71533203125</maxHorizontalUncertainty><azimuthMaxHorizontalUncertainty>160.9671630859375</azimuthMaxHorizontalUncertainty><preferredDescription>horizontal uncertainty</preferredDescription></uncertainty><evaluationMode>automatic</evaluationMode><evaluationStatus>confirmed</evaluationStatus><comment><text>0.32</text><id>mismatchScore</id></comment><comment><text>mismatchScore</text><id>scevalMethod</id></comment><arrival><pickID>de.gempa.tb1.Pick/20250411173752.538697.119016</pickID><phase>P</phase><azimuth>341.9483337402344</azimuth><distance>0.18581348657608032</distance><timeResidual>0.00797128677368164</timeResidual><timeUsed>true</timeUsed><horizontalSlownessUsed>false</horizontalSlownessUsed><backazimuthUsed>false</backazimuthUsed><weight>1</weight></arrival><arrival><pickID>de.gempa.tb1.Pick/20250411173805.223987.119018</pickID><phase>P</phase><azimuth>113.2489242553711</azimuth><distance>0.9291397929191589</distance><timeResidual>-0.05920743942260742</timeResidual><timeUsed>true</timeUsed><horizontalSlownessUsed>false</horizontalSlownessUsed><backazimuthUsed>false</backazimuthUsed><weight>1</weight></arrival><arrival><pickID>de.gempa.tb1.Pick/20250411173809.307022.119020</pickID><phase>P</phase><azimuth>184.6720428466797</azimuth><distance>1.0441019535064697</distance><timeResidual>0.01724386215209961</timeResidual><timeUsed>true</timeUsed><horizontalSlownessUsed>false</horizontalSlownessUsed><backazimuthUsed>false</backazimuthUsed><weight>1</weight></arrival><arrival><pickID>de.gempa.tb1.Pick/20250411173810.683213.119022</pickID><phase>P</phase><azimuth>156.97401428222656</azimuth><distance>1.3722740411758423</distance><timeResidual>0.2396817207336426</timeResidual><timeUsed>true</timeUsed><horizontalSlownessUsed>false</horizontalSlownessUsed><backazimuthUsed>false</backazimuthUsed><weight>1</weight></arrival><arrival><pickID>de.gempa.tb1.Pick/20250411173813.642512.119024</pickID><phase>P</phase><azimuth>174.25164794921875</azimuth><distance>1.544993281364441</distance><timeResidual>0.0530247688293457</timeResidual><timeUsed>true</timeUsed><horizontalSlownessUsed>false</horizontalSlownessUsed><backazimuthUsed>false</backazimuthUsed><weight>1</weight></arrival><arrival><pickID>de.gempa.tb1.Pick/20250411173820.637049.119026</pickID><phase>P</phase><azimuth>175.18829345703125</azimuth><distance>1.9490444660186768</distance><timeResidual>-0.12741804122924805</timeResidual><timeUsed>true</timeUsed><horizontalSlownessUsed>false</horizontalSlownessUsed><backazimuthUsed>false</backazimuthUsed><weight>1</weight></arrival><arrival><pickID>de.gempa.tb1.Pick/20250411173823.525441.119028</pickID><phase>P</phase><azimuth>172.7801055908203</azimuth><distance>2.2806808948516846</distance><timeResidual>-0.1313319206237793</timeResidual><timeUsed>true</timeUsed><horizontalSlownessUsed>false</horizontalSlownessUsed><backazimuthUsed>false</backazimuthUsed><weight>1</weight></arrival><magnitude publicID="de.gempa.tb1.Magnitude/20250411173825.735256.124407"><magnitude><value>2.685707534516114</value></magnitude><type>M</type><methodID>weighted average</methodID><stationCount>7</stationCount></magnitude></origin><event publicID="gempa2025hebm"><preferredOriginID>de.gempa.tb1.Origin/20250411173825.729377.61848</preferredOriginID><preferredMagnitudeID>de.gempa.tb1.Magnitude/20250411173825.735256.124407</preferredMagnitudeID><description><text>Near Coast of Northern Chile</text><type>region name</type></description><originReference>de.gempa.tb1.Origin/20250411173825.729377.61848</originReference></event></EventParameters></seiscomp>