<?xml version="1.0" encoding="UTF-8"?>
<seiscomp xmlns="http://geofon.gfz-potsdam.de/ns/seiscomp3-schema/0.13" version="0.13"><EventParameters><pick publicID="de.gempa.tb1.Pick/20250411094840.452437.118175"><time><value>2025-04-11T09:48:34.868393Z</value></time><waveformID networkCode="CX" stationCode="PB02" channelCode="HHZ"/><filterID>ITAPER(4)&gt;&gt;BW(4,4,20)</filterID><methodID>AIC</methodID><horizontalSlowness><value>21.075556547110256</value></horizontalSlowness><backazimuth><value>83.20573907478966</value></backazimuth><phaseHint>P</phaseHint><evaluationMode>automatic</evaluationMode><comment><text>52.10419852333627</text><id>DFX:rectilinearity</id></comment><comment><text>12.127009293858027</text><id>SNR</id></comment></pick><pick publicID="de.gempa.tb1.Pick/20250411094841.549546.118177"><time><value>2025-04-11T09:48:35.938393Z</value></time><waveformID networkCode="CX" stationCode="PB03" channelCode="HHZ"/><filterID>ITAPER(4)&gt;&gt;BW(4,4,20)</filterID><methodID>AIC</methodID><horizontalSlowness><value>14.149938540324197</value></horizontalSlowness><backazimuth><value>166.99247564037188</value></backazimuth><phaseHint>P</phaseHint><evaluationMode>automatic</evaluationMode><comment><text>9.052975463039756</text><id>DFX:rectilinearity</id></comment><comment><text>12.98175858001895</text><id>SNR</id></comment></pick><pick publicID="de.gempa.tb1.Pick/20250411094848.582168.118179"><time><value>2025-04-11T09:48:42.378393Z</value></time><waveformID networkCode="CX" stationCode="PB01" channelCode="HHZ"/><filterID>ITAPER(4)&gt;&gt;BW(4,4,20)</filterID><methodID>AIC</methodID><horizontalSlowness><value>17.1452959884464</value></horizontalSlowness><backazimuth><value>319.845349740498</value></backazimuth><phaseHint>P</phaseHint><evaluationMode>automatic</evaluationMode><comment><text>10.421746220418683</text><id>DFX:rectilinearity</id></comment><comment><text>13.217808305460405</text><id>SNR</id></comment></pick><pick publicID="de.gempa.tb1.Pick/20250411094850.631024.118181"><time><value>2025-04-11T09:48:44.368393Z</value></time><waveformID networkCode="CX" stationCode="PB06" channelCode="HHZ"/><filterID>ITAPER(4)&gt;&gt;BW(4,4,20)</filterID><methodID>AIC</methodID><horizontalSlowness><value>7.024597390765684</value></horizontalSlowness><backazimuth><value>129.2572243156348</value></backazimuth><phaseHint>P</phaseHint><evaluationMode>automatic</evaluationMode><comment><text>94.72451531048793</text><id>DFX:rectilinearity</id></comment><comment><text>5.424331765408122</text><id>SNR</id></comment></pick><pick publicID="de.gempa.tb1.Pick/20250411094901.063879.118183"><time><value>2025-04-11T09:48:33.128386Z</value></time><waveformID networkCode="CX" stationCode="PB07" channelCode="HHZ"/><filterID>ITAPER(4)&gt;&gt;BW(4,4,20)</filterID><methodID>AIC</methodID><horizontalSlowness><value>23.22601372233288</value></horizontalSlowness><backazimuth><value>126.64498901124134</value></backazimuth><phaseHint>P</phaseHint><evaluationMode>automatic</evaluationMode><comment><text>170.840401322844</text><id>DFX:rectilinearity</id></comment><comment><text>12.58701275994308</text><id>SNR</id></comment></pick><pick publicID="de.gempa.tb1.Pick/20250411094901.064263.118185"><time><value>2025-04-11T09:48:43.22Z</value></time><waveformID networkCode="CX" stationCode="PB09" channelCode="HHZ"/><filterID>ITAPER(4)&gt;&gt;BW(4,4,20)</filterID><methodID>AIC</methodID><horizontalSlowness><value>14.4268763368014</value></horizontalSlowness><backazimuth><value>252.97122907807375</value></backazimuth><phaseHint>P</phaseHint><evaluationMode>automatic</evaluationMode><comment><text>14.957785477775868</text><id>DFX:rectilinearity</id></comment><comment><text>19.794640768611607</text><id>SNR</id></comment></pick><pick publicID="de.gempa.tb1.Pick/20250411094911.530704.118190"><time><value>2025-04-11T09:48:58.588393Z</value></time><waveformID networkCode="CX" stationCode="PB01" channelCode="HHN"/><filterID>ITAPER(2)&gt;&gt;BW(3,3,20)</filterID><methodID>L2-AIC-GRID</methodID><horizontalSlowness><value>22.386095688520374</value></horizontalSlowness><backazimuth><value>125.25753318171272</value></backazimuth><phaseHint>S</phaseHint><evaluationMode>automatic</evaluationMode><comment><text>100.50616589201405</text><id>DFX:rectilinearity</id></comment><comment><text>de.gempa.tb1.Pick/20250411094848.582168.118179</text><id>RefPickID</id></comment><comment><text>6.860707523488333</text><id>SNR</id></comment></pick><origin publicID="de.gempa.tb1.Origin/20250411094911.533237.57636"><time><value>2025-04-11T09:48:21.088332Z</value><uncertainty>1.8847814798355103</uncertainty></time><latitude><value>-21.7188777923584</value><uncertainty>6.18472957611084</uncertainty></latitude><longitude><value>-70.53326416015625</value><uncertainty>12.808331489562988</uncertainty></longitude><depth><value>19.78464126586914</value><uncertainty>7.510233402252197</uncertainty></depth><depthType>from location</depthType><methodID>LOCSAT</methodID><earthModelID>iasp91_scanloc</earthModelID><quality><associatedPhaseCount>7</associatedPhaseCount><usedPhaseCount>7</usedPhaseCount><associatedStationCount>6</associatedStationCount><usedStationCount>6</usedStationCount><depthPhaseCount>0</depthPhaseCount><standardError>0.22950817678574176</standardError><azimuthalGap>277.6250915527344</azimuthalGap><maximumDistance>1.326027750968933</maximumDistance><minimumDistance>0.6017342805862427</minimumDistance><medianDistance>1.1841169595718384</medianDistance></quality><uncertainty><minHorizontalUncertainty>10.088864326477051</minHorizontalUncertainty><maxHorizontalUncertainty>28.78527069091797</maxHorizontalUncertainty><azimuthMaxHorizontalUncertainty>108.6241226196289</azimuthMaxHorizontalUncertainty><preferredDescription>horizontal uncertainty</preferredDescription></uncertainty><evaluationMode>automatic</evaluationMode><evaluationStatus>confirmed</evaluationStatus><comment><text>0.13</text><id>mismatchScore</id></comment><comment><text>mismatchScore</text><id>scevalMethod</id></comment><arrival><pickID>de.gempa.tb1.Pick/20250411094840.452437.118175</pickID><phase>P</phase><azimuth>56.31825256347656</azimuth><distance>0.7140178680419922</distance><timeResidual>0.019405364990234375</timeResidual><timeUsed>true</timeUsed><horizontalSlownessUsed>false</horizontalSlownessUsed><backazimuthUsed>false</backazimuthUsed><weight>1</weight></arrival><arrival><pickID>de.gempa.tb1.Pick/20250411094841.549546.118177</pickID><phase>P</phase><azimuth>114.49764251708984</azimuth><distance>0.7953948974609375</distance><timeResidual>-0.30356502532958984</timeResidual><timeUsed>true</timeUsed><horizontalSlownessUsed>false</horizontalSlownessUsed><backazimuthUsed>false</backazimuthUsed><weight>1</weight></arrival><arrival><pickID>de.gempa.tb1.Pick/20250411094848.582168.118179</pickID><phase>P</phase><azimuth>55.59519958496094</azimuth><distance>1.1841169595718384</distance><timeResidual>-0.15776538848876953</timeResidual><timeUsed>true</timeUsed><horizontalSlownessUsed>false</horizontalSlownessUsed><backazimuthUsed>false</backazimuthUsed><weight>1</weight></arrival><arrival><pickID>de.gempa.tb1.Pick/20250411094850.631024.118181</pickID><phase>P</phase><azimuth>137.97010803222656</azimuth><distance>1.326027750968933</distance><timeResidual>-0.11713790893554688</timeResidual><timeUsed>true</timeUsed><horizontalSlownessUsed>false</horizontalSlownessUsed><backazimuthUsed>false</backazimuthUsed><weight>1</weight></arrival><arrival><pickID>de.gempa.tb1.Pick/20250411094901.063879.118183</pickID><phase>P</phase><azimuth>90.85734558105469</azimuth><distance>0.6017342805862427</distance><timeResidual>0.20438289642333984</timeResidual><timeUsed>true</timeUsed><horizontalSlownessUsed>false</horizontalSlownessUsed><backazimuthUsed>false</backazimuthUsed><weight>1</weight></arrival><arrival><pickID>de.gempa.tb1.Pick/20250411094901.064263.118185</pickID><phase>P</phase><azimuth>93.91377258300781</azimuth><distance>1.2029210329055786</distance><timeResidual>0.42642784118652344</timeResidual><timeUsed>true</timeUsed><horizontalSlownessUsed>false</horizontalSlownessUsed><backazimuthUsed>false</backazimuthUsed><weight>1</weight></arrival><arrival><pickID>de.gempa.tb1.Pick/20250411094911.530704.118190</pickID><phase>S</phase><azimuth>55.59519958496094</azimuth><distance>1.1841169595718384</distance><timeResidual>-0.11817550659179688</timeResidual><timeUsed>true</timeUsed><horizontalSlownessUsed>false</horizontalSlownessUsed><backazimuthUsed>false</backazimuthUsed><weight>1</weight></arrival><magnitude publicID="de.gempa.tb1.Magnitude/20250411094930.500315.113839"><magnitude><value>2.3118307574394636</value></magnitude><type>M</type><methodID>weighted average</methodID><stationCount>6</stationCount></magnitude></origin><event publicID="gempa2025hdlu"><preferredOriginID>de.gempa.tb1.Origin/20250411094911.533237.57636</preferredOriginID><preferredMagnitudeID>de.gempa.tb1.Magnitude/20250411094930.500315.113839</preferredMagnitudeID><description><text>Near Coast of Northern Chile</text><type>region name</type></description><originReference>de.gempa.tb1.Origin/20250411094911.533237.57636</originReference></event></EventParameters></seiscomp>