<?xml version="1.0" encoding="UTF-8"?>
<seiscomp xmlns="http://geofon.gfz-potsdam.de/ns/seiscomp3-schema/0.13" version="0.13"><EventParameters><pick publicID="de.gempa.tb1.Pick/20250415060702.388063.143875"><time><value>2025-04-15T06:06:55.2Z</value></time><waveformID networkCode="CX" stationCode="PB09" channelCode="HHZ"/><filterID>ITAPER(4)&gt;&gt;BW(4,4,20)</filterID><methodID>AIC</methodID><horizontalSlowness><value>18.102195598906885</value></horizontalSlowness><backazimuth><value>64.83812222303166</value></backazimuth><phaseHint>P</phaseHint><evaluationMode>automatic</evaluationMode><comment><text>21.505261317226584</text><id>DFX:rectilinearity</id></comment><comment><text>82.8600558348519</text><id>SNR</id></comment></pick><pick publicID="de.gempa.tb1.Pick/20250415060705.520597.143877"><time><value>2025-04-15T06:06:59.008393Z</value></time><waveformID networkCode="CX" stationCode="PB03" channelCode="HHZ"/><filterID>ITAPER(4)&gt;&gt;BW(4,4,20)</filterID><methodID>AIC</methodID><horizontalSlowness><value>1.7586865929614102</value></horizontalSlowness><backazimuth><value>357.14423862599267</value></backazimuth><phaseHint>P</phaseHint><evaluationMode>automatic</evaluationMode><comment><text>11.261753539773926</text><id>DFX:rectilinearity</id></comment><comment><text>28.307379877601363</text><id>SNR</id></comment></pick><pick publicID="de.gempa.tb1.Pick/20250415060707.534034.143879"><time><value>2025-04-15T06:07:00.038393Z</value></time><waveformID networkCode="CX" stationCode="PB06" channelCode="HHZ"/><filterID>ITAPER(4)&gt;&gt;BW(4,4,20)</filterID><methodID>AIC</methodID><horizontalSlowness><value>22.068937079650812</value></horizontalSlowness><backazimuth><value>280.06456165854746</value></backazimuth><phaseHint>P</phaseHint><evaluationMode>automatic</evaluationMode><comment><text>71.56640679926919</text><id>DFX:rectilinearity</id></comment><comment><text>11.802270050257526</text><id>SNR</id></comment></pick><pick publicID="de.gempa.tb1.Pick/20250415060708.563592.143881"><time><value>2025-04-15T06:07:00.948393Z</value></time><waveformID networkCode="CX" stationCode="PB01" channelCode="HHZ"/><filterID>ITAPER(4)&gt;&gt;BW(4,4,20)</filterID><methodID>AIC</methodID><horizontalSlowness><value>16.25784085242456</value></horizontalSlowness><backazimuth><value>341.1580074806925</value></backazimuth><phaseHint>P</phaseHint><evaluationMode>automatic</evaluationMode><comment><text>7.763815526504732</text><id>DFX:rectilinearity</id></comment><comment><text>28.46514748563708</text><id>SNR</id></comment></pick><pick publicID="de.gempa.tb1.Pick/20250415060709.610648.143883"><time><value>2025-04-15T06:07:04.258393Z</value></time><waveformID networkCode="CX" stationCode="PB15" channelCode="HHZ"/><filterID>ITAPER(4)&gt;&gt;BW(4,4,20)</filterID><methodID>AIC</methodID><horizontalSlowness><value>22.407573580617505</value></horizontalSlowness><backazimuth><value>94.503521616234</value></backazimuth><phaseHint>P</phaseHint><evaluationMode>automatic</evaluationMode><comment><text>123.97745402585734</text><id>DFX:rectilinearity</id></comment><comment><text>7.150901318078072</text><id>SNR</id></comment></pick><pick publicID="de.gempa.tb1.Pick/20250415060710.567829.143885"><time><value>2025-04-15T06:07:02.738393Z</value></time><waveformID networkCode="CX" stationCode="PB02" channelCode="HHZ"/><filterID>ITAPER(4)&gt;&gt;BW(4,4,20)</filterID><methodID>AIC</methodID><horizontalSlowness><value>12.686168961880828</value></horizontalSlowness><backazimuth><value>282.54610566285766</value></backazimuth><phaseHint>P</phaseHint><evaluationMode>automatic</evaluationMode><comment><text>38.33588036852396</text><id>DFX:rectilinearity</id></comment><comment><text>25.65463588275545</text><id>SNR</id></comment></pick><pick publicID="de.gempa.tb1.Pick/20250415060711.1189.143887"><time><value>2025-04-15T06:07:00.888393Z</value></time><waveformID networkCode="CX" stationCode="PB07" channelCode="HHZ"/><filterID>ITAPER(4)&gt;&gt;BW(4,4,20)</filterID><methodID>AIC</methodID><horizontalSlowness><value>22.504885580456058</value></horizontalSlowness><backazimuth><value>88.70969178242446</value></backazimuth><phaseHint>P</phaseHint><evaluationMode>automatic</evaluationMode><comment><text>251.6832779957621</text><id>DFX:rectilinearity</id></comment><comment><text>47.81556686178306</text><id>SNR</id></comment></pick><pick publicID="de.gempa.tb1.Pick/20250415060715.414563.143889"><time><value>2025-04-15T06:07:07.959999Z</value></time><waveformID networkCode="CX" stationCode="PATCX" channelCode="HHZ"/><filterID>ITAPER(4)&gt;&gt;BW(4,4,20)</filterID><methodID>AIC</methodID><horizontalSlowness><value>22.69489108470713</value></horizontalSlowness><backazimuth><value>183.03396777323536</value></backazimuth><phaseHint>P</phaseHint><evaluationMode>automatic</evaluationMode><comment><text>171.74161333291417</text><id>DFX:rectilinearity</id></comment><comment><text>13.92207559054515</text><id>SNR</id></comment></pick><pick publicID="de.gempa.tb1.Pick/20250415060723.580625.143891"><time><value>2025-04-15T06:07:16.738393Z</value></time><waveformID networkCode="CX" stationCode="PB03" channelCode="HHN"/><filterID>ITAPER(2)&gt;&gt;BW(3,3,20)</filterID><methodID>L2-AIC-GRID</methodID><horizontalSlowness><value>21.442544838255404</value></horizontalSlowness><backazimuth><value>256.3710746869749</value></backazimuth><phaseHint>S</phaseHint><evaluationMode>automatic</evaluationMode><comment><text>106.69509611962722</text><id>DFX:rectilinearity</id></comment><comment><text>de.gempa.tb1.Pick/20250415060705.520597.143877</text><id>RefPickID</id></comment><comment><text>9.283141380451836</text><id>SNR</id></comment></pick><pick publicID="de.gempa.tb1.Pick/20250415060724.602959.143892"><time><value>2025-04-15T06:07:18.658393Z</value></time><waveformID networkCode="CX" stationCode="PB06" channelCode="HHN"/><filterID>ITAPER(2)&gt;&gt;BW(3,3,20)</filterID><methodID>L2-AIC-GRID</methodID><horizontalSlowness><value>7.630076475600748</value></horizontalSlowness><backazimuth><value>264.91341819891295</value></backazimuth><phaseHint>S</phaseHint><evaluationMode>automatic</evaluationMode><comment><text>172.76463375890069</text><id>DFX:rectilinearity</id></comment><comment><text>de.gempa.tb1.Pick/20250415060707.534034.143879</text><id>RefPickID</id></comment><comment><text>8.165783132622334</text><id>SNR</id></comment></pick><pick publicID="de.gempa.tb1.Pick/20250415060726.730859.143893"><time><value>2025-04-15T06:07:19.738393Z</value></time><waveformID networkCode="CX" stationCode="PB07" channelCode="HHN"/><filterID>ITAPER(2)&gt;&gt;BW(3,3,20)</filterID><methodID>L2-AIC-GRID</methodID><horizontalSlowness><value>22.329070920047883</value></horizontalSlowness><backazimuth><value>212.09195291603268</value></backazimuth><phaseHint>S</phaseHint><evaluationMode>automatic</evaluationMode><comment><text>3068.06085749202</text><id>DFX:rectilinearity</id></comment><comment><text>de.gempa.tb1.Pick/20250415060711.1189.143887</text><id>RefPickID</id></comment><comment><text>6.420322017526889</text><id>SNR</id></comment></pick><pick publicID="de.gempa.tb1.Pick/20250415060728.589509.143894"><time><value>2025-04-15T06:07:20.648393Z</value></time><waveformID networkCode="CX" stationCode="PB01" channelCode="HHN"/><filterID>ITAPER(2)&gt;&gt;BW(3,3,20)</filterID><methodID>L2-AIC-GRID</methodID><horizontalSlowness><value>18.97206922475813</value></horizontalSlowness><backazimuth><value>309.49745547622655</value></backazimuth><phaseHint>S</phaseHint><evaluationMode>automatic</evaluationMode><comment><text>77.71503121599719</text><id>DFX:rectilinearity</id></comment><comment><text>de.gempa.tb1.Pick/20250415060708.563592.143881</text><id>RefPickID</id></comment><comment><text>9.650403953423577</text><id>SNR</id></comment></pick><pick publicID="de.gempa.tb1.Pick/20250415060729.533801.143895"><time><value>2025-04-15T06:07:18.87Z</value></time><waveformID networkCode="CX" stationCode="PSGCX" channelCode="HHZ"/><filterID>ITAPER(4)&gt;&gt;BW(4,4,20)</filterID><methodID>AIC</methodID><horizontalSlowness><value>21.675065468682625</value></horizontalSlowness><backazimuth><value>115.58419348463774</value></backazimuth><phaseHint>P</phaseHint><evaluationMode>automatic</evaluationMode><comment><text>12.857598138418643</text><id>DFX:rectilinearity</id></comment><comment><text>12.659048080149612</text><id>SNR</id></comment></pick><pick publicID="de.gempa.tb1.Pick/20250415060732.637353.143899"><time><value>2025-04-15T06:07:22.818393Z</value></time><waveformID networkCode="CX" stationCode="PB02" channelCode="HHN"/><filterID>ITAPER(2)&gt;&gt;BW(3,3,20)</filterID><methodID>L2-AIC-GRID</methodID><horizontalSlowness><value>8.96630477676257</value></horizontalSlowness><backazimuth><value>279.8384887817049</value></backazimuth><phaseHint>S</phaseHint><evaluationMode>automatic</evaluationMode><comment><text>194.33549123317678</text><id>DFX:rectilinearity</id></comment><comment><text>de.gempa.tb1.Pick/20250415060710.567829.143885</text><id>RefPickID</id></comment><comment><text>7.310141628804645</text><id>SNR</id></comment></pick><pick publicID="de.gempa.tb1.Pick/20250415060732.930983.143901"><time><value>2025-04-15T06:07:25.208393Z</value></time><waveformID networkCode="CX" stationCode="PB15" channelCode="HHN"/><filterID>ITAPER(2)&gt;&gt;BW(3,3,20)</filterID><methodID>L2-AIC-GRID</methodID><horizontalSlowness><value>20.300500854513817</value></horizontalSlowness><backazimuth><value>74.51578998004024</value></backazimuth><phaseHint>S</phaseHint><evaluationMode>automatic</evaluationMode><comment><text>1325.4533395528242</text><id>DFX:rectilinearity</id></comment><comment><text>de.gempa.tb1.Pick/20250415060709.610648.143883</text><id>RefPickID</id></comment><comment><text>7.089056313506735</text><id>SNR</id></comment></pick><pick publicID="de.gempa.tb1.Pick/20250415060743.409004.143903"><time><value>2025-04-15T06:07:33.049999Z</value></time><waveformID networkCode="CX" stationCode="PATCX" channelCode="HHN"/><filterID>ITAPER(2)&gt;&gt;BW(3,3,20)</filterID><methodID>L2-AIC-GRID</methodID><horizontalSlowness><value>23.34270945025031</value></horizontalSlowness><backazimuth><value>71.6794946381203</value></backazimuth><phaseHint>S</phaseHint><evaluationMode>automatic</evaluationMode><comment><text>408.1216941206397</text><id>DFX:rectilinearity</id></comment><comment><text>de.gempa.tb1.Pick/20250415060715.414563.143889</text><id>RefPickID</id></comment><comment><text>5.040207102239034</text><id>SNR</id></comment></pick><origin publicID="de.gempa.tb1.Origin/20250415060743.413665.162783"><time><value>2025-04-15T06:06:36.206491Z</value><uncertainty>0.7978295683860779</uncertainty></time><latitude><value>-21.966257095336914</value><uncertainty>3.5457119941711426</uncertainty></latitude><longitude><value>-68.60579681396484</value><uncertainty>11.469725608825684</uncertainty></longitude><depth><value>124.47520446777344</value><uncertainty>12.96369171142578</uncertainty></depth><depthType>from location</depthType><methodID>LOCSAT</methodID><earthModelID>iasp91_scanloc</earthModelID><quality><associatedPhaseCount>16</associatedPhaseCount><usedPhaseCount>16</usedPhaseCount><associatedStationCount>9</associatedStationCount><usedStationCount>9</usedStationCount><depthPhaseCount>0</depthPhaseCount><standardError>0.32937462885543184</standardError><azimuthalGap>244.0611572265625</azimuthalGap><maximumDistance>2.751645803451538</maximumDistance><minimumDistance>0.6145524382591248</minimumDistance><medianDistance>1.2319066524505615</medianDistance></quality><uncertainty><minHorizontalUncertainty>6.615030765533447</minHorizontalUncertainty><maxHorizontalUncertainty>24.870872497558594</maxHorizontalUncertainty><azimuthMaxHorizontalUncertainty>81.01659393310547</azimuthMaxHorizontalUncertainty><preferredDescription>horizontal uncertainty</preferredDescription></uncertainty><evaluationMode>automatic</evaluationMode><evaluationStatus>confirmed</evaluationStatus><comment><text>0.11</text><id>mismatchScore</id></comment><comment><text>mismatchScore</text><id>scevalMethod</id></comment><arrival><pickID>de.gempa.tb1.Pick/20250415060702.388063.143875</pickID><phase>P</phase><azimuth>285.8490295410156</azimuth><distance>0.6145524382591248</distance><timeResidual>-0.2216339111328125</timeResidual><timeUsed>true</timeUsed><horizontalSlownessUsed>false</horizontalSlownessUsed><backazimuthUsed>false</backazimuthUsed><weight>1</weight></arrival><arrival><pickID>de.gempa.tb1.Pick/20250415060705.520597.143877</pickID><phase>P</phase><azimuth>265.3922424316406</azimuth><distance>1.0678377151489258</distance><timeResidual>-0.3175182342529297</timeResidual><timeUsed>true</timeUsed><horizontalSlownessUsed>false</horizontalSlownessUsed><backazimuthUsed>false</backazimuthUsed><weight>1</weight></arrival><arrival><pickID>de.gempa.tb1.Pick/20250415060707.534034.143879</pickID><phase>P</phase><azimuth>230.36888122558594</azimuth><distance>1.1583375930786133</distance><timeResidual>-0.19939613342285156</timeResidual><timeUsed>true</timeUsed><horizontalSlownessUsed>false</horizontalSlownessUsed><backazimuthUsed>false</backazimuthUsed><weight>1</weight></arrival><arrival><pickID>de.gempa.tb1.Pick/20250415060708.563592.143881</pickID><phase>P</phase><azimuth>318.0476379394531</azimuth><distance>1.2319066524505615</distance><timeResidual>-0.06839179992675781</timeResidual><timeUsed>true</timeUsed><horizontalSlownessUsed>false</horizontalSlownessUsed><backazimuthUsed>false</backazimuthUsed><weight>1</weight></arrival><arrival><pickID>de.gempa.tb1.Pick/20250415060709.610648.143883</pickID><phase>P</phase><azimuth>212.72979736328125</azimuth><distance>1.472217082977295</distance><timeResidual>0.6154365539550781</timeResidual><timeUsed>true</timeUsed><horizontalSlownessUsed>false</horizontalSlownessUsed><backazimuthUsed>false</backazimuthUsed><weight>1</weight></arrival><arrival><pickID>de.gempa.tb1.Pick/20250415060710.567829.143885</pickID><phase>P</phase><azimuth>297.95263671875</azimuth><distance>1.3618921041488647</distance><timeResidual>0.31760406494140625</timeResidual><timeUsed>true</timeUsed><horizontalSlownessUsed>false</horizontalSlownessUsed><backazimuthUsed>false</backazimuthUsed><weight>1</weight></arrival><arrival><pickID>de.gempa.tb1.Pick/20250415060711.1189.143887</pickID><phase>P</phase><azimuth>281.09661865234375</azimuth><distance>1.213183045387268</distance><timeResidual>0.07351875305175781</timeResidual><timeUsed>true</timeUsed><horizontalSlownessUsed>false</horizontalSlownessUsed><backazimuthUsed>false</backazimuthUsed><weight>1</weight></arrival><arrival><pickID>de.gempa.tb1.Pick/20250415060715.414563.143889</pickID><phase>P</phase><azimuth>308.0483093261719</azimuth><distance>1.837918519973755</distance><timeResidual>0.013574600219726562</timeResidual><timeUsed>true</timeUsed><horizontalSlownessUsed>false</horizontalSlownessUsed><backazimuthUsed>false</backazimuthUsed><weight>1</weight></arrival><arrival><pickID>de.gempa.tb1.Pick/20250415060723.580625.143891</pickID><phase>S</phase><azimuth>265.3922424316406</azimuth><distance>1.0678377151489258</distance><timeResidual>-0.4826393127441406</timeResidual><timeUsed>true</timeUsed><horizontalSlownessUsed>false</horizontalSlownessUsed><backazimuthUsed>false</backazimuthUsed><weight>1</weight></arrival><arrival><pickID>de.gempa.tb1.Pick/20250415060724.602959.143892</pickID><phase>S</phase><azimuth>230.36888122558594</azimuth><distance>1.1583375930786133</distance><timeResidual>-0.1908397674560547</timeResidual><timeUsed>true</timeUsed><horizontalSlownessUsed>false</horizontalSlownessUsed><backazimuthUsed>false</backazimuthUsed><weight>1</weight></arrival><arrival><pickID>de.gempa.tb1.Pick/20250415060726.730859.143893</pickID><phase>S</phase><azimuth>281.09661865234375</azimuth><distance>1.213183045387268</distance><timeResidual>-0.14024734497070312</timeResidual><timeUsed>true</timeUsed><horizontalSlownessUsed>false</horizontalSlownessUsed><backazimuthUsed>false</backazimuthUsed><weight>1</weight></arrival><arrival><pickID>de.gempa.tb1.Pick/20250415060728.589509.143894</pickID><phase>S</phase><azimuth>318.0476379394531</azimuth><distance>1.2319066524505615</distance><timeResidual>0.4105796813964844</timeResidual><timeUsed>true</timeUsed><horizontalSlownessUsed>false</horizontalSlownessUsed><backazimuthUsed>false</backazimuthUsed><weight>1</weight></arrival><arrival><pickID>de.gempa.tb1.Pick/20250415060729.533801.143895</pickID><phase>P</phase><azimuth>328.66864013671875</azimuth><distance>2.751645803451538</distance><timeResidual>-0.5816459655761719</timeResidual><timeUsed>true</timeUsed><horizontalSlownessUsed>false</horizontalSlownessUsed><backazimuthUsed>false</backazimuthUsed><weight>1</weight></arrival><arrival><pickID>de.gempa.tb1.Pick/20250415060732.637353.143899</pickID><phase>S</phase><azimuth>297.95263671875</azimuth><distance>1.3618921041488647</distance><timeResidual>0.07213783264160156</timeResidual><timeUsed>true</timeUsed><horizontalSlownessUsed>false</horizontalSlownessUsed><backazimuthUsed>false</backazimuthUsed><weight>1</weight></arrival><arrival><pickID>de.gempa.tb1.Pick/20250415060732.930983.143901</pickID><phase>S</phase><azimuth>212.72979736328125</azimuth><distance>1.472217082977295</distance><timeResidual>0.2762928009033203</timeResidual><timeUsed>true</timeUsed><horizontalSlownessUsed>false</horizontalSlownessUsed><backazimuthUsed>false</backazimuthUsed><weight>1</weight></arrival><arrival><pickID>de.gempa.tb1.Pick/20250415060743.409004.143903</pickID><phase>S</phase><azimuth>308.0483093261719</azimuth><distance>1.837918519973755</distance><timeResidual>0.42278099060058594</timeResidual><timeUsed>true</timeUsed><horizontalSlownessUsed>false</horizontalSlownessUsed><backazimuthUsed>false</backazimuthUsed><weight>1</weight></arrival><magnitude publicID="de.gempa.tb1.Magnitude/20250415060750.939317.580135"><magnitude><value>2.2452113433405287</value></magnitude><type>M</type><methodID>weighted average</methodID><stationCount>6</stationCount></magnitude></origin><event publicID="gempa2025hkom"><preferredOriginID>de.gempa.tb1.Origin/20250415060743.413665.162783</preferredOriginID><preferredMagnitudeID>de.gempa.tb1.Magnitude/20250415060750.939317.580135</preferredMagnitudeID><description><text>Chile-Bolivia Border Region</text><type>region name</type></description><originReference>de.gempa.tb1.Origin/20250415060743.413665.162783</originReference></event></EventParameters></seiscomp>