<?xml version="1.0" encoding="UTF-8"?>
<seiscomp xmlns="http://geofon.gfz-potsdam.de/ns/seiscomp3-schema/0.13" version="0.13"><EventParameters><pick publicID="de.gempa.tb1.Pick/20250412065335.517962.122594"><time><value>2025-04-12T06:53:31.488393Z</value></time><waveformID networkCode="CX" stationCode="PB06" channelCode="HHZ"/><filterID>ITAPER(4)&gt;&gt;BW(4,4,20)</filterID><methodID>AIC</methodID><horizontalSlowness><value>14.996822228348595</value></horizontalSlowness><backazimuth><value>302.9015226201994</value></backazimuth><phaseHint>P</phaseHint><evaluationMode>automatic</evaluationMode><comment><text>60.07410318259394</text><id>DFX:rectilinearity</id></comment><comment><text>11.854228525264642</text><id>SNR</id></comment></pick><pick publicID="de.gempa.tb1.Pick/20250412065337.563649.122596"><time><value>2025-04-12T06:53:33.778394Z</value></time><waveformID networkCode="CX" stationCode="PB03" channelCode="HHZ"/><filterID>ITAPER(4)&gt;&gt;BW(4,4,20)</filterID><methodID>AIC</methodID><horizontalSlowness><value>14.53714557602619</value></horizontalSlowness><backazimuth><value>227.08117662552885</value></backazimuth><phaseHint>P</phaseHint><evaluationMode>automatic</evaluationMode><comment><text>9.789344312734164</text><id>DFX:rectilinearity</id></comment><comment><text>34.943487918620605</text><id>SNR</id></comment></pick><pick publicID="de.gempa.tb1.Pick/20250412065350.603221.122598"><time><value>2025-04-12T06:53:42.628393Z</value></time><waveformID networkCode="CX" stationCode="PB06" channelCode="HHN"/><filterID>ITAPER(2)&gt;&gt;BW(3,3,20)</filterID><methodID>L2-AIC-GRID</methodID><horizontalSlowness><value>20.435712210448273</value></horizontalSlowness><backazimuth><value>72.90369020226976</value></backazimuth><phaseHint>S</phaseHint><evaluationMode>automatic</evaluationMode><comment><text>248.0470478206782</text><id>DFX:rectilinearity</id></comment><comment><text>de.gempa.tb1.Pick/20250412065335.517962.122594</text><id>RefPickID</id></comment><comment><text>10.97244358138818</text><id>SNR</id></comment></pick><pick publicID="de.gempa.tb1.Pick/20250412065352.629592.122599"><time><value>2025-04-12T06:53:42.948393Z</value></time><waveformID networkCode="CX" stationCode="PB02" channelCode="HHZ"/><filterID>ITAPER(4)&gt;&gt;BW(4,4,20)</filterID><methodID>AIC</methodID><horizontalSlowness><value>8.206752917040028</value></horizontalSlowness><backazimuth><value>332.5318421553468</value></backazimuth><phaseHint>P</phaseHint><evaluationMode>automatic</evaluationMode><comment><text>65.17512480324501</text><id>DFX:rectilinearity</id></comment><comment><text>6.871356871072783</text><id>SNR</id></comment></pick><pick publicID="de.gempa.tb1.Pick/20250412065353.65075.122603"><time><value>2025-04-12T06:53:36.738391Z</value></time><waveformID networkCode="CX" stationCode="PB07" channelCode="HHZ"/><filterID>ITAPER(4)&gt;&gt;BW(4,4,20)</filterID><methodID>AIC</methodID><horizontalSlowness><value>23.412641218427687</value></horizontalSlowness><backazimuth><value>41.55752361098723</value></backazimuth><phaseHint>P</phaseHint><evaluationMode>automatic</evaluationMode><comment><text>94.53712602765506</text><id>DFX:rectilinearity</id></comment><comment><text>46.29372783703729</text><id>SNR</id></comment></pick><pick publicID="de.gempa.tb1.Pick/20250412065355.592743.122605"><time><value>2025-04-12T06:53:46.558394Z</value></time><waveformID networkCode="CX" stationCode="PB03" channelCode="HHN"/><filterID>ITAPER(2)&gt;&gt;BW(3,3,20)</filterID><methodID>L2-AIC-GRID</methodID><horizontalSlowness><value>15.404842893668542</value></horizontalSlowness><backazimuth><value>297.4533724620999</value></backazimuth><phaseHint>S</phaseHint><evaluationMode>automatic</evaluationMode><comment><text>44.586077877903563</text><id>DFX:rectilinearity</id></comment><comment><text>de.gempa.tb1.Pick/20250412065337.563649.122596</text><id>RefPickID</id></comment><comment><text>5.343119434292507</text><id>SNR</id></comment></pick><pick publicID="de.gempa.tb1.Pick/20250412065402.885361.122608"><time><value>2025-04-12T06:53:51.868391Z</value></time><waveformID networkCode="CX" stationCode="PB07" channelCode="HHN"/><filterID>ITAPER(2)&gt;&gt;BW(3,3,20)</filterID><methodID>L2-AIC-GRID</methodID><horizontalSlowness><value>19.118087873680757</value></horizontalSlowness><backazimuth><value>339.5917777143758</value></backazimuth><phaseHint>S</phaseHint><evaluationMode>automatic</evaluationMode><comment><text>610.6159847398387</text><id>DFX:rectilinearity</id></comment><comment><text>de.gempa.tb1.Pick/20250412065353.65075.122603</text><id>RefPickID</id></comment><comment><text>5.348039192634362</text><id>SNR</id></comment></pick><origin publicID="de.gempa.tb1.Origin/20250412065402.888665.77269"><time><value>2025-04-12T06:53:16.176662Z</value><uncertainty>1.272221326828003</uncertainty></time><latitude><value>-22.271135330200195</value><uncertainty>3.6279749870300293</uncertainty></latitude><longitude><value>-68.83473205566406</value><uncertainty>6.101535320281982</uncertainty></longitude><depth><value>0</value></depth><depthType>operator assigned</depthType><methodID>LOCSAT</methodID><earthModelID>iasp91_scanloc</earthModelID><quality><associatedPhaseCount>7</associatedPhaseCount><usedPhaseCount>7</usedPhaseCount><associatedStationCount>4</associatedStationCount><usedStationCount>4</usedStationCount><depthPhaseCount>0</depthPhaseCount><standardError>0.8340645684860429</standardError><azimuthalGap>283.83299255371094</azimuthalGap><maximumDistance>1.3671903610229492</maximumDistance><minimumDistance>0.8074202537536621</minimumDistance><medianDistance>0.8797044157981873</medianDistance></quality><uncertainty><minHorizontalUncertainty>7.770088195800781</minHorizontalUncertainty><maxHorizontalUncertainty>13.093884468078613</maxHorizontalUncertainty><azimuthMaxHorizontalUncertainty>92.29808044433594</azimuthMaxHorizontalUncertainty><preferredDescription>horizontal uncertainty</preferredDescription></uncertainty><evaluationMode>automatic</evaluationMode><evaluationStatus>confirmed</evaluationStatus><comment><text>0.50</text><id>mismatchScore</id></comment><comment><text>mismatchScore</text><id>scevalMethod</id></comment><arrival><pickID>de.gempa.tb1.Pick/20250412065335.517962.122594</pickID><phase>P</phase><azimuth>237.46363830566406</azimuth><distance>0.8074202537536621</distance><timeResidual>-0.17465877532958984</timeResidual><timeUsed>true</timeUsed><horizontalSlownessUsed>false</horizontalSlownessUsed><backazimuthUsed>false</backazimuthUsed><weight>1</weight></arrival><arrival><pickID>de.gempa.tb1.Pick/20250412065337.563649.122596</pickID><phase>P</phase><azimuth>284.41729736328125</azimuth><distance>0.8797044157981873</distance><timeResidual>0.7281208038330078</timeResidual><timeUsed>true</timeUsed><horizontalSlownessUsed>false</horizontalSlownessUsed><backazimuthUsed>false</backazimuthUsed><weight>1</weight></arrival><arrival><pickID>de.gempa.tb1.Pick/20250412065350.603221.122598</pickID><phase>S</phase><azimuth>237.46363830566406</azimuth><distance>0.8074202537536621</distance><timeResidual>-0.2803010940551758</timeResidual><timeUsed>true</timeUsed><horizontalSlownessUsed>false</horizontalSlownessUsed><backazimuthUsed>false</backazimuthUsed><weight>1</weight></arrival><arrival><pickID>de.gempa.tb1.Pick/20250412065352.629592.122599</pickID><phase>P</phase><azimuth>313.6306457519531</azimuth><distance>1.3671903610229492</distance><timeResidual>0.5833120346069336</timeResidual><timeUsed>true</timeUsed><horizontalSlownessUsed>false</horizontalSlownessUsed><backazimuthUsed>false</backazimuthUsed><weight>1</weight></arrival><arrival><pickID>de.gempa.tb1.Pick/20250412065353.65075.122603</pickID><phase>P</phase><azimuth>298.8455505371094</azimuth><distance>1.1161388158798218</distance><timeResidual>-0.8471393585205078</timeResidual><timeUsed>true</timeUsed><horizontalSlownessUsed>false</horizontalSlownessUsed><backazimuthUsed>false</backazimuthUsed><weight>1</weight></arrival><arrival><pickID>de.gempa.tb1.Pick/20250412065355.592743.122605</pickID><phase>S</phase><azimuth>284.41729736328125</azimuth><distance>0.8797044157981873</distance><timeResidual>1.2548809051513672</timeResidual><timeUsed>true</timeUsed><horizontalSlownessUsed>false</horizontalSlownessUsed><backazimuthUsed>false</backazimuthUsed><weight>1</weight></arrival><arrival><pickID>de.gempa.tb1.Pick/20250412065402.885361.122608</pickID><phase>S</phase><azimuth>298.8455505371094</azimuth><distance>1.1161388158798218</distance><timeResidual>-1.2640361785888672</timeResidual><timeUsed>true</timeUsed><horizontalSlownessUsed>false</horizontalSlownessUsed><backazimuthUsed>false</backazimuthUsed><weight>1</weight></arrival><magnitude publicID="de.gempa.tb1.Magnitude/20250412065402.893293.190086"><magnitude><value>2.3546577214007285</value></magnitude><type>M</type><methodID>weighted average</methodID><stationCount>4</stationCount></magnitude></origin><event publicID="gempa2025hfbz"><preferredOriginID>de.gempa.tb1.Origin/20250412065402.888665.77269</preferredOriginID><preferredMagnitudeID>de.gempa.tb1.Magnitude/20250412065402.893293.190086</preferredMagnitudeID><type>mining explosion</type><description><text>Northern Chile</text><type>region name</type></description><originReference>de.gempa.tb1.Origin/20250412065402.888665.77269</originReference></event></EventParameters></seiscomp>