<?xml version="1.0" encoding="UTF-8"?>
<seiscomp xmlns="http://geofon.gfz-potsdam.de/ns/seiscomp3-schema/0.13" version="0.13"><EventParameters><pick publicID="de.gempa.tb1.Pick/20250413140334.161979.131631"><time><value>2025-04-13T14:03:26.328391Z</value></time><waveformID networkCode="CX" stationCode="PB08" channelCode="HHZ"/><filterID>ITAPER(4)&gt;&gt;BW(4,4,20)</filterID><methodID>AIC</methodID><horizontalSlowness><value>15.397936462839793</value></horizontalSlowness><backazimuth><value>89.58205357232612</value></backazimuth><phaseHint>P</phaseHint><evaluationMode>automatic</evaluationMode><comment><text>14.446559568157097</text><id>DFX:rectilinearity</id></comment><comment><text>10.117670847760706</text><id>SNR</id></comment></pick><pick publicID="de.gempa.tb1.Pick/20250413140337.585709.131633"><time><value>2025-04-13T14:03:30.318394Z</value></time><waveformID networkCode="CX" stationCode="PB01" channelCode="HHZ"/><filterID>ITAPER(4)&gt;&gt;BW(4,4,20)</filterID><methodID>AIC</methodID><horizontalSlowness><value>21.771353549206449</value></horizontalSlowness><backazimuth><value>324.7800834944042</value></backazimuth><phaseHint>P</phaseHint><evaluationMode>automatic</evaluationMode><comment><text>7.0146367485878</text><id>DFX:rectilinearity</id></comment><comment><text>12.884018252525435</text><id>SNR</id></comment></pick><pick publicID="de.gempa.tb1.Pick/20250413140341.528011.131635"><time><value>2025-04-13T14:03:34.69Z</value></time><waveformID networkCode="CX" stationCode="PSGCX" channelCode="HHZ"/><filterID>ITAPER(4)&gt;&gt;BW(4,4,20)</filterID><methodID>AIC</methodID><horizontalSlowness><value>13.681090528481878</value></horizontalSlowness><backazimuth><value>238.82258463906933</value></backazimuth><phaseHint>P</phaseHint><evaluationMode>automatic</evaluationMode><comment><text>19.379919665367552</text><id>DFX:rectilinearity</id></comment><comment><text>10.878632603633498</text><id>SNR</id></comment></pick><pick publicID="de.gempa.tb1.Pick/20250413140345.219768.131637"><time><value>2025-04-13T14:03:37.498391Z</value></time><waveformID networkCode="CX" stationCode="PB08" channelCode="HHN"/><filterID>ITAPER(2)&gt;&gt;BW(3,3,20)</filterID><methodID>L2-AIC-GRID</methodID><horizontalSlowness><value>10.651232634952228</value></horizontalSlowness><backazimuth><value>115.18961929165333</value></backazimuth><phaseHint>S</phaseHint><evaluationMode>automatic</evaluationMode><comment><text>7.621971311682906</text><id>DFX:rectilinearity</id></comment><comment><text>de.gempa.tb1.Pick/20250413140334.161979.131631</text><id>RefPickID</id></comment><comment><text>5.530208509151811</text><id>SNR</id></comment></pick><pick publicID="de.gempa.tb1.Pick/20250413140353.597698.131640"><time><value>2025-04-13T14:03:44.848394Z</value></time><waveformID networkCode="CX" stationCode="PB01" channelCode="HHN"/><filterID>ITAPER(2)&gt;&gt;BW(3,3,20)</filterID><methodID>L2-AIC-GRID</methodID><horizontalSlowness><value>13.189832185360723</value></horizontalSlowness><backazimuth><value>202.6820522631103</value></backazimuth><phaseHint>S</phaseHint><evaluationMode>automatic</evaluationMode><comment><text>29.10032247548059</text><id>DFX:rectilinearity</id></comment><comment><text>de.gempa.tb1.Pick/20250413140337.585709.131633</text><id>RefPickID</id></comment><comment><text>9.22527144641785</text><id>SNR</id></comment></pick><pick publicID="de.gempa.tb1.Pick/20250413140359.58395.131642"><time><value>2025-04-13T14:03:52.47Z</value></time><waveformID networkCode="CX" stationCode="PSGCX" channelCode="HHN"/><filterID>ITAPER(2)&gt;&gt;BW(3,3,20)</filterID><methodID>L2-AIC-GRID</methodID><horizontalSlowness><value>15.41907365531051</value></horizontalSlowness><backazimuth><value>203.08758913677624</value></backazimuth><phaseHint>S</phaseHint><evaluationMode>automatic</evaluationMode><comment><text>39.3378980403714</text><id>DFX:rectilinearity</id></comment><comment><text>de.gempa.tb1.Pick/20250413140341.528011.131635</text><id>RefPickID</id></comment><comment><text>6.234877373376596</text><id>SNR</id></comment></pick><origin publicID="de.gempa.tb1.Origin/20250413140402.582991.111836"><time><value>2025-04-13T14:03:11.646631Z</value><uncertainty>1.500881552696228</uncertainty></time><latitude><value>-20.32563591003418</value><uncertainty>5.016298770904541</uncertainty></latitude><longitude><value>-69.0961685180664</value><uncertainty>9.310253143310547</uncertainty></longitude><depth><value>103.95071411132812</value><uncertainty>8.89385986328125</uncertainty></depth><depthType>from location</depthType><methodID>LOCSAT</methodID><earthModelID>iasp91_scanloc</earthModelID><quality><associatedPhaseCount>6</associatedPhaseCount><usedPhaseCount>6</usedPhaseCount><associatedStationCount>3</associatedStationCount><usedStationCount>3</usedStationCount><depthPhaseCount>0</depthPhaseCount><standardError>0.036557006937443029</standardError><azimuthalGap>223.4189453125</azimuthalGap><maximumDistance>1.2075717449188232</maximumDistance><minimumDistance>0.19127699732780457</minimumDistance><medianDistance>0.8024646639823914</medianDistance></quality><uncertainty><minHorizontalUncertainty>10.039073944091797</minHorizontalUncertainty><maxHorizontalUncertainty>20.33739471435547</maxHorizontalUncertainty><azimuthMaxHorizontalUncertainty>77.37362670898438</azimuthMaxHorizontalUncertainty><preferredDescription>horizontal uncertainty</preferredDescription></uncertainty><evaluationMode>automatic</evaluationMode><evaluationStatus>confirmed</evaluationStatus><comment><text>0.00</text><id>mismatchScore</id></comment><comment><text>mismatchScore</text><id>scevalMethod</id></comment><arrival><pickID>de.gempa.tb1.Pick/20250413140334.161979.131631</pickID><phase>P</phase><azimuth>343.67315673828125</azimuth><distance>0.19127699732780457</distance><timeResidual>0.04665946960449219</timeResidual><timeUsed>true</timeUsed><horizontalSlownessUsed>false</horizontalSlownessUsed><backazimuthUsed>false</backazimuthUsed><weight>1</weight></arrival><arrival><pickID>de.gempa.tb1.Pick/20250413140337.585709.131633</pickID><phase>P</phase><azimuth>207.09210205078125</azimuth><distance>0.8024646639823914</distance><timeResidual>-0.06098079681396484</timeResidual><timeUsed>true</timeUsed><horizontalSlownessUsed>false</horizontalSlownessUsed><backazimuthUsed>false</backazimuthUsed><weight>1</weight></arrival><arrival><pickID>de.gempa.tb1.Pick/20250413140341.528011.131635</pickID><phase>P</phase><azimuth>306.7047119140625</azimuth><distance>1.2075717449188232</distance><timeResidual>0.014206886291503906</timeResidual><timeUsed>true</timeUsed><horizontalSlownessUsed>false</horizontalSlownessUsed><backazimuthUsed>false</backazimuthUsed><weight>1</weight></arrival><arrival><pickID>de.gempa.tb1.Pick/20250413140345.219768.131637</pickID><phase>S</phase><azimuth>343.67315673828125</azimuth><distance>0.19127699732780457</distance><timeResidual>-0.02617359161376953</timeResidual><timeUsed>true</timeUsed><horizontalSlownessUsed>false</horizontalSlownessUsed><backazimuthUsed>false</backazimuthUsed><weight>1</weight></arrival><arrival><pickID>de.gempa.tb1.Pick/20250413140353.597698.131640</pickID><phase>S</phase><azimuth>207.09210205078125</azimuth><distance>0.8024646639823914</distance><timeResidual>0.03423595428466797</timeResidual><timeUsed>true</timeUsed><horizontalSlownessUsed>false</horizontalSlownessUsed><backazimuthUsed>false</backazimuthUsed><weight>1</weight></arrival><arrival><pickID>de.gempa.tb1.Pick/20250413140359.58395.131642</pickID><phase>S</phase><azimuth>306.7047119140625</azimuth><distance>1.2075717449188232</distance><timeResidual>-0.007983207702636719</timeResidual><timeUsed>true</timeUsed><horizontalSlownessUsed>false</horizontalSlownessUsed><backazimuthUsed>false</backazimuthUsed><weight>1</weight></arrival><magnitude publicID="de.gempa.tb1.Magnitude/20250413140405.936688.365256"><magnitude><value>1.7724022073201295</value></magnitude><type>M</type><methodID>weighted average</methodID><stationCount>2</stationCount></magnitude></origin><event publicID="gempa2025hhmj"><preferredOriginID>de.gempa.tb1.Origin/20250413140402.582991.111836</preferredOriginID><preferredMagnitudeID>de.gempa.tb1.Magnitude/20250413140405.936688.365256</preferredMagnitudeID><description><text>Northern Chile</text><type>region name</type></description><originReference>de.gempa.tb1.Origin/20250413140402.582991.111836</originReference></event></EventParameters></seiscomp>