<?xml version="1.0" encoding="UTF-8"?>
<seiscomp xmlns="http://geofon.gfz-potsdam.de/ns/seiscomp3-schema/0.13" version="0.13"><EventParameters><pick publicID="de.gempa.tb1.Pick/20250411174710.715947.119105"><time><value>2025-04-11T17:47:05.538393Z</value></time><waveformID networkCode="CX" stationCode="PB01" channelCode="HHZ"/><filterID>ITAPER(4)&gt;&gt;BW(4,4,20)</filterID><methodID>AIC</methodID><horizontalSlowness><value>20.82766025315451</value></horizontalSlowness><backazimuth><value>238.66347907647443</value></backazimuth><phaseHint>P</phaseHint><evaluationMode>automatic</evaluationMode><comment><text>12.332681865695067</text><id>DFX:rectilinearity</id></comment><comment><text>68.96506014608333</text><id>SNR</id></comment></pick><pick publicID="de.gempa.tb1.Pick/20250411174713.538234.119108"><time><value>2025-04-11T17:47:07.468393Z</value></time><waveformID networkCode="CX" stationCode="PB02" channelCode="HHZ"/><filterID>ITAPER(4)&gt;&gt;BW(4,4,20)</filterID><methodID>AIC</methodID><horizontalSlowness><value>13.007527448888055</value></horizontalSlowness><backazimuth><value>48.27957651765388</value></backazimuth><phaseHint>P</phaseHint><evaluationMode>automatic</evaluationMode><comment><text>137.04337795595586</text><id>DFX:rectilinearity</id></comment><comment><text>415.4335515448988</text><id>SNR</id></comment></pick><pick publicID="de.gempa.tb1.Pick/20250411174716.484906.119110"><time><value>2025-04-11T17:47:09.849999Z</value></time><waveformID networkCode="CX" stationCode="PATCX" channelCode="HHZ"/><filterID>ITAPER(4)&gt;&gt;BW(4,4,20)</filterID><methodID>AIC</methodID><horizontalSlowness><value>21.88401934569226</value></horizontalSlowness><backazimuth><value>245.1385924427773</value></backazimuth><phaseHint>P</phaseHint><evaluationMode>automatic</evaluationMode><comment><text>280.0129246249243</text><id>DFX:rectilinearity</id></comment><comment><text>7.4998760528602</text><id>SNR</id></comment></pick><pick publicID="de.gempa.tb1.Pick/20250411174718.822096.119112"><time><value>2025-04-11T17:47:14.378396Z</value></time><waveformID networkCode="CX" stationCode="PB07" channelCode="HHZ"/><filterID>ITAPER(4)&gt;&gt;BW(4,4,20)</filterID><methodID>AIC</methodID><horizontalSlowness><value>23.273825056063323</value></horizontalSlowness><backazimuth><value>70.34497729407313</value></backazimuth><phaseHint>P</phaseHint><evaluationMode>automatic</evaluationMode><comment><text>151.289303634369</text><id>DFX:rectilinearity</id></comment><comment><text>102.90649430423893</text><id>SNR</id></comment></pick><pick publicID="de.gempa.tb1.Pick/20250411174728.498682.119114"><time><value>2025-04-11T17:47:19.718394Z</value></time><waveformID networkCode="CX" stationCode="PB03" channelCode="HHZ"/><filterID>ITAPER(4)&gt;&gt;BW(4,4,20)</filterID><methodID>AIC</methodID><horizontalSlowness><value>3.6686585073124536</value></horizontalSlowness><backazimuth><value>277.80906066715573</value></backazimuth><phaseHint>P</phaseHint><evaluationMode>automatic</evaluationMode><comment><text>4.604962368637194</text><id>DFX:rectilinearity</id></comment><comment><text>65.51274230725005</text><id>SNR</id></comment></pick><pick publicID="de.gempa.tb1.Pick/20250411174728.82831.119116"><time><value>2025-04-11T17:47:20.588393Z</value></time><waveformID networkCode="CX" stationCode="PB08" channelCode="HHZ"/><filterID>ITAPER(4)&gt;&gt;BW(4,4,20)</filterID><methodID>AIC</methodID><horizontalSlowness><value>14.741802794550107</value></horizontalSlowness><backazimuth><value>88.7621776226419</value></backazimuth><phaseHint>P</phaseHint><evaluationMode>automatic</evaluationMode><comment><text>8.349879567089964</text><id>DFX:rectilinearity</id></comment><comment><text>7.901191134753424</text><id>SNR</id></comment></pick><pick publicID="de.gempa.tb1.Pick/20250411174732.990689.119120"><time><value>2025-04-11T17:47:18.330001Z</value></time><waveformID networkCode="CX" stationCode="PB09" channelCode="HHZ"/><filterID>ITAPER(4)&gt;&gt;BW(4,4,20)</filterID><methodID>AIC</methodID><horizontalSlowness><value>12.106310741396372</value></horizontalSlowness><backazimuth><value>237.3148990739795</value></backazimuth><phaseHint>P</phaseHint><evaluationMode>automatic</evaluationMode><comment><text>7.07354070349815</text><id>DFX:rectilinearity</id></comment><comment><text>21.637588277695194</text><id>SNR</id></comment></pick><pick publicID="de.gempa.tb1.Pick/20250411174733.705063.119122"><time><value>2025-04-11T17:47:27.82Z</value></time><waveformID networkCode="CX" stationCode="PSGCX" channelCode="HHZ"/><filterID>ITAPER(4)&gt;&gt;BW(4,4,20)</filterID><methodID>AIC</methodID><horizontalSlowness><value>20.257418880227952</value></horizontalSlowness><backazimuth><value>65.73126171511069</value></backazimuth><phaseHint>P</phaseHint><evaluationMode>automatic</evaluationMode><comment><text>21.166506928217935</text><id>DFX:rectilinearity</id></comment><comment><text>86.28707702370251</text><id>SNR</id></comment></pick><pick publicID="de.gempa.tb1.Pick/20250411174737.533872.119124"><time><value>2025-04-11T17:47:31.608393Z</value></time><waveformID networkCode="CX" stationCode="PB06" channelCode="HHZ"/><filterID>ITAPER(4)&gt;&gt;BW(4,4,20)</filterID><methodID>AIC</methodID><horizontalSlowness><value>8.931940180975593</value></horizontalSlowness><backazimuth><value>288.747377253894</value></backazimuth><phaseHint>P</phaseHint><evaluationMode>automatic</evaluationMode><comment><text>44.06624932419428</text><id>DFX:rectilinearity</id></comment><comment><text>11.603224377353092</text><id>SNR</id></comment></pick><pick publicID="de.gempa.tb1.Pick/20250411174755.786755.119127"><time><value>2025-04-11T17:47:49.15Z</value></time><waveformID networkCode="CX" stationCode="PSGCX" channelCode="HHN"/><filterID>ITAPER(2)&gt;&gt;BW(3,3,20)</filterID><methodID>L2-AIC-GRID</methodID><horizontalSlowness><value>22.794530566113625</value></horizontalSlowness><backazimuth><value>89.10230959154535</value></backazimuth><phaseHint>S</phaseHint><evaluationMode>automatic</evaluationMode><comment><text>20.553031484828036</text><id>DFX:rectilinearity</id></comment><comment><text>de.gempa.tb1.Pick/20250411174733.705063.119122</text><id>RefPickID</id></comment><comment><text>5.044878603876213</text><id>SNR</id></comment></pick><pick publicID="de.gempa.tb1.Pick/20250411174801.645699.119131"><time><value>2025-04-11T17:47:53.518393Z</value></time><waveformID networkCode="CX" stationCode="PB06" channelCode="HHN"/><filterID>ITAPER(2)&gt;&gt;BW(3,3,20)</filterID><methodID>L2-AIC-GRID</methodID><horizontalSlowness><value>19.361842939310225</value></horizontalSlowness><backazimuth><value>137.6263195539008</value></backazimuth><phaseHint>S</phaseHint><evaluationMode>automatic</evaluationMode><comment><text>32.61424724544058</text><id>DFX:rectilinearity</id></comment><comment><text>de.gempa.tb1.Pick/20250411174737.533872.119124</text><id>RefPickID</id></comment><comment><text>7.914293281753182</text><id>SNR</id></comment></pick><origin publicID="de.gempa.tb1.Origin/20250411174801.651025.62175"><time><value>2025-04-11T17:47:00.969636Z</value><uncertainty>0.36703065037727356</uncertainty></time><latitude><value>-21.032447814941406</value><uncertainty>2.080930471420288</uncertainty></latitude><longitude><value>-69.7280502319336</value><uncertainty>3.581117868423462</uncertainty></longitude><depth><value>4.1845264434814453</value><uncertainty>3.625119924545288</uncertainty></depth><depthType>from location</depthType><methodID>LOCSAT</methodID><earthModelID>iasp91_scanloc</earthModelID><quality><associatedPhaseCount>11</associatedPhaseCount><usedPhaseCount>11</usedPhaseCount><associatedStationCount>9</associatedStationCount><usedStationCount>9</usedStationCount><depthPhaseCount>0</depthPhaseCount><standardError>0.37373506044036925</standardError><azimuthalGap>89.15867614746094</azimuthalGap><maximumDistance>1.6715396642684937</maximumDistance><minimumDistance>0.2250620573759079</minimumDistance><medianDistance>1.0113078355789185</medianDistance></quality><uncertainty><minHorizontalUncertainty>4.4367122650146484</minHorizontalUncertainty><maxHorizontalUncertainty>7.693238258361816</maxHorizontalUncertainty><azimuthMaxHorizontalUncertainty>85.67708587646484</azimuthMaxHorizontalUncertainty><preferredDescription>horizontal uncertainty</preferredDescription></uncertainty><evaluationMode>automatic</evaluationMode><evaluationStatus>confirmed</evaluationStatus><comment><text>0.00</text><id>mismatchScore</id></comment><comment><text>mismatchScore</text><id>scevalMethod</id></comment><arrival><pickID>de.gempa.tb1.Pick/20250411174710.715947.119105</pickID><phase>P</phase><azimuth>92.77521514892578</azimuth><distance>0.2250620573759079</distance><timeResidual>0.19120550155639648</timeResidual><timeUsed>true</timeUsed><horizontalSlownessUsed>false</horizontalSlownessUsed><backazimuthUsed>false</backazimuthUsed><weight>1</weight></arrival><arrival><pickID>de.gempa.tb1.Pick/20250411174713.538234.119108</pickID><phase>P</phase><azimuth>208.71116638183594</azimuth><distance>0.32602351903915405</distance><timeResidual>0.20398902893066406</timeResidual><timeUsed>true</timeUsed><horizontalSlownessUsed>false</horizontalSlownessUsed><backazimuthUsed>false</backazimuthUsed><weight>1</weight></arrival><arrival><pickID>de.gempa.tb1.Pick/20250411174716.484906.119110</pickID><phase>P</phase><azimuth>297.8698425292969</azimuth><distance>0.44956499338150024</distance><timeResidual>0.2280912399291992</timeResidual><timeUsed>true</timeUsed><horizontalSlownessUsed>false</horizontalSlownessUsed><backazimuthUsed>false</backazimuthUsed><weight>1</weight></arrival><arrival><pickID>de.gempa.tb1.Pick/20250411174718.822096.119112</pickID><phase>P</phase><azimuth>192.0144500732422</azimuth><distance>0.7063446640968323</distance><timeResidual>-0.15525293350219727</timeResidual><timeUsed>true</timeUsed><horizontalSlownessUsed>false</horizontalSlownessUsed><backazimuthUsed>false</backazimuthUsed><weight>1</weight></arrival><arrival><pickID>de.gempa.tb1.Pick/20250411174728.498682.119114</pickID><phase>P</phase><azimuth>181.3166961669922</azimuth><distance>1.0113078355789185</distance><timeResidual>-0.6574292182922363</timeResidual><timeUsed>true</timeUsed><horizontalSlownessUsed>false</horizontalSlownessUsed><backazimuthUsed>false</backazimuthUsed><weight>1</weight></arrival><arrival><pickID>de.gempa.tb1.Pick/20250411174728.82831.119116</pickID><phase>P</phase><azimuth>31.36334228515625</azimuth><distance>1.0374596118927002</distance><timeResidual>-0.2913832664489746</timeResidual><timeUsed>true</timeUsed><horizontalSlownessUsed>false</horizontalSlownessUsed><backazimuthUsed>false</backazimuthUsed><weight>1</weight></arrival><arrival><pickID>de.gempa.tb1.Pick/20250411174732.990689.119120</pickID><phase>P</phase><azimuth>149.29788208007812</azimuth><distance>0.8848937749862671</distance><timeResidual>0.376223087310791</timeResidual><timeUsed>true</timeUsed><horizontalSlownessUsed>false</horizontalSlownessUsed><backazimuthUsed>false</backazimuthUsed><weight>1</weight></arrival><arrival><pickID>de.gempa.tb1.Pick/20250411174733.705063.119122</pickID><phase>P</phase><azimuth>345.3777160644531</azimuth><distance>1.4753023386001587</distance><timeResidual>-0.4754948616027832</timeResidual><timeUsed>true</timeUsed><horizontalSlownessUsed>false</horizontalSlownessUsed><backazimuthUsed>false</backazimuthUsed><weight>1</weight></arrival><arrival><pickID>de.gempa.tb1.Pick/20250411174737.533872.119124</pickID><phase>P</phase><azimuth>175.04991149902344</azimuth><distance>1.6715396642684937</distance><timeResidual>0.6163859367370605</timeResidual><timeUsed>true</timeUsed><horizontalSlownessUsed>false</horizontalSlownessUsed><backazimuthUsed>false</backazimuthUsed><weight>1</weight></arrival><arrival><pickID>de.gempa.tb1.Pick/20250411174755.786755.119127</pickID><phase>S</phase><azimuth>345.3777160644531</azimuth><distance>1.4753023386001587</distance><timeResidual>0.22348928451538086</timeResidual><timeUsed>true</timeUsed><horizontalSlownessUsed>false</horizontalSlownessUsed><backazimuthUsed>false</backazimuthUsed><weight>1</weight></arrival><arrival><pickID>de.gempa.tb1.Pick/20250411174801.645699.119131</pickID><phase>S</phase><azimuth>175.04991149902344</azimuth><distance>1.6715396642684937</distance><timeResidual>-0.25984811782836914</timeResidual><timeUsed>true</timeUsed><horizontalSlownessUsed>false</horizontalSlownessUsed><backazimuthUsed>false</backazimuthUsed><weight>1</weight></arrival><magnitude publicID="de.gempa.tb1.Magnitude/20250411174805.941163.125918"><magnitude><value>2.1403763935712168</value></magnitude><type>M</type><methodID>weighted average</methodID><stationCount>6</stationCount></magnitude></origin><event publicID="gempa2025hebt"><preferredOriginID>de.gempa.tb1.Origin/20250411174801.651025.62175</preferredOriginID><preferredMagnitudeID>de.gempa.tb1.Magnitude/20250411174805.941163.125918</preferredMagnitudeID><description><text>Northern Chile</text><type>region name</type></description><originReference>de.gempa.tb1.Origin/20250411174801.651025.62175</originReference></event></EventParameters></seiscomp>