<?xml version="1.0" encoding="UTF-8"?>
<seiscomp xmlns="http://geofon.gfz-potsdam.de/ns/seiscomp3-schema/0.13" version="0.13"><EventParameters><pick publicID="de.gempa.tb1.Pick/20250412084348.634264.123040"><time><value>2025-04-12T08:43:43.11Z</value></time><waveformID networkCode="CX" stationCode="PB19" channelCode="HHZ"/><filterID>ITAPER(4)&gt;&gt;BW(4,4,20)</filterID><methodID>AIC</methodID><horizontalSlowness><value>20.336019358725842</value></horizontalSlowness><backazimuth><value>303.11387510644414</value></backazimuth><phaseHint>P</phaseHint><evaluationMode>automatic</evaluationMode><comment><text>16.714345570662474</text><id>DFX:rectilinearity</id></comment><comment><text>40.95360426513058</text><id>SNR</id></comment></pick><pick publicID="de.gempa.tb1.Pick/20250412084351.692421.123042"><time><value>2025-04-12T08:43:46.518393Z</value></time><waveformID networkCode="CX" stationCode="PB15" channelCode="HHZ"/><filterID>ITAPER(4)&gt;&gt;BW(4,4,20)</filterID><methodID>AIC</methodID><horizontalSlowness><value>21.473303235183586</value></horizontalSlowness><backazimuth><value>116.41789668742742</value></backazimuth><phaseHint>P</phaseHint><evaluationMode>automatic</evaluationMode><comment><text>377.35395164960886</text><id>DFX:rectilinearity</id></comment><comment><text>14.935716868897842</text><id>SNR</id></comment></pick><pick publicID="de.gempa.tb1.Pick/20250412084355.523279.123044"><time><value>2025-04-12T08:43:49.848394Z</value></time><waveformID networkCode="CX" stationCode="PB06" channelCode="HHZ"/><filterID>ITAPER(4)&gt;&gt;BW(4,4,20)</filterID><methodID>AIC</methodID><horizontalSlowness><value>12.08869225816645</value></horizontalSlowness><backazimuth><value>104.45747062110672</value></backazimuth><phaseHint>P</phaseHint><evaluationMode>automatic</evaluationMode><comment><text>109.79512672102695</text><id>DFX:rectilinearity</id></comment><comment><text>19.185132956788152</text><id>SNR</id></comment></pick><pick publicID="de.gempa.tb1.Pick/20250412084401.654581.123046"><time><value>2025-04-12T08:43:55.758393Z</value></time><waveformID networkCode="CX" stationCode="PB03" channelCode="HHZ"/><filterID>ITAPER(4)&gt;&gt;BW(4,4,20)</filterID><methodID>AIC</methodID><horizontalSlowness><value>8.526628457002781</value></horizontalSlowness><backazimuth><value>15.563558093525756</value></backazimuth><phaseHint>P</phaseHint><evaluationMode>automatic</evaluationMode><comment><text>7.123292117740721</text><id>DFX:rectilinearity</id></comment><comment><text>16.536012137107463</text><id>SNR</id></comment></pick><pick publicID="de.gempa.tb1.Pick/20250412084424.830182.123050"><time><value>2025-04-12T08:44:17.858393Z</value></time><waveformID networkCode="CX" stationCode="PB15" channelCode="HHN"/><filterID>ITAPER(2)&gt;&gt;BW(3,3,20)</filterID><methodID>L2-AIC-GRID</methodID><horizontalSlowness><value>20.743373948339286</value></horizontalSlowness><backazimuth><value>58.28273239323276</value></backazimuth><phaseHint>S</phaseHint><evaluationMode>automatic</evaluationMode><comment><text>4226.9873033440726</text><id>DFX:rectilinearity</id></comment><comment><text>de.gempa.tb1.Pick/20250412084351.692421.123042</text><id>RefPickID</id></comment><comment><text>6.427148008900804</text><id>SNR</id></comment></pick><pick publicID="de.gempa.tb1.Pick/20250412084430.635841.123052"><time><value>2025-04-12T08:44:23.148394Z</value></time><waveformID networkCode="CX" stationCode="PB06" channelCode="HHN"/><filterID>ITAPER(2)&gt;&gt;BW(3,3,20)</filterID><methodID>L2-AIC-GRID</methodID><horizontalSlowness><value>21.05408586259587</value></horizontalSlowness><backazimuth><value>326.04268857566723</value></backazimuth><phaseHint>S</phaseHint><evaluationMode>automatic</evaluationMode><comment><text>132.7267823876017</text><id>DFX:rectilinearity</id></comment><comment><text>de.gempa.tb1.Pick/20250412084355.523279.123044</text><id>RefPickID</id></comment><comment><text>25.82310701130022</text><id>SNR</id></comment></pick><pick publicID="de.gempa.tb1.Pick/20250412084431.232391.123053"><time><value>2025-04-12T08:43:59.148391Z</value></time><waveformID networkCode="CX" stationCode="PB07" channelCode="HHZ"/><filterID>ITAPER(4)&gt;&gt;BW(4,4,20)</filterID><methodID>AIC</methodID><horizontalSlowness><value>23.028382870619094</value></horizontalSlowness><backazimuth><value>97.32200845767197</value></backazimuth><phaseHint>P</phaseHint><evaluationMode>automatic</evaluationMode><comment><text>235.6614609069229</text><id>DFX:rectilinearity</id></comment><comment><text>21.27816503877765</text><id>SNR</id></comment></pick><pick publicID="de.gempa.tb1.Pick/20250412084441.76372.123058"><time><value>2025-04-12T08:44:33.138393Z</value></time><waveformID networkCode="CX" stationCode="PB03" channelCode="HHN"/><filterID>ITAPER(2)&gt;&gt;BW(3,3,20)</filterID><methodID>L2-AIC-GRID</methodID><horizontalSlowness><value>23.017624264254607</value></horizontalSlowness><backazimuth><value>40.38109828852919</value></backazimuth><phaseHint>S</phaseHint><evaluationMode>automatic</evaluationMode><comment><text>51.2935325920182</text><id>DFX:rectilinearity</id></comment><comment><text>de.gempa.tb1.Pick/20250412084401.654581.123046</text><id>RefPickID</id></comment><comment><text>14.178295810236705</text><id>SNR</id></comment></pick><pick publicID="de.gempa.tb1.Pick/20250412084450.439799.123059"><time><value>2025-04-12T08:44:39.548391Z</value></time><waveformID networkCode="CX" stationCode="PB07" channelCode="HHN"/><filterID>ITAPER(2)&gt;&gt;BW(3,3,20)</filterID><methodID>L2-AIC-GRID</methodID><horizontalSlowness><value>23.32898111249326</value></horizontalSlowness><backazimuth><value>71.40159460746854</value></backazimuth><phaseHint>S</phaseHint><evaluationMode>automatic</evaluationMode><comment><text>1184.968558105074</text><id>DFX:rectilinearity</id></comment><comment><text>de.gempa.tb1.Pick/20250412084431.232391.123053</text><id>RefPickID</id></comment><comment><text>7.799669606309582</text><id>SNR</id></comment></pick><origin publicID="de.gempa.tb1.Origin/20250412084450.443545.79098"><time><value>2025-04-12T08:43:07.854427Z</value><uncertainty>1.1383674144744873</uncertainty></time><latitude><value>-24.08164596557617</value><uncertainty>30.974184036254883</uncertainty></latitude><longitude><value>-68.16803741455078</value><uncertainty>106.40912628173828</uncertainty></longitude><depth><value>254.88446044921875</value><uncertainty>45.82584762573242</uncertainty></depth><depthType>from location</depthType><methodID>LOCSAT</methodID><earthModelID>iasp91_scanloc</earthModelID><quality><associatedPhaseCount>9</associatedPhaseCount><usedPhaseCount>9</usedPhaseCount><associatedStationCount>5</associatedStationCount><usedStationCount>5</usedStationCount><depthPhaseCount>0</depthPhaseCount><standardError>0.3139949981940785</standardError><azimuthalGap>313.8945617675781</azimuthalGap><maximumDistance>2.829042673110962</maximumDistance><minimumDistance>1.0417286157608032</minimumDistance><medianDistance>1.8812288045883179</medianDistance></quality><uncertainty><minHorizontalUncertainty>16.883975982666016</minHorizontalUncertainty><maxHorizontalUncertainty>237.04779052734375</maxHorizontalUncertainty><azimuthMaxHorizontalUncertainty>74.2357406616211</azimuthMaxHorizontalUncertainty><preferredDescription>horizontal uncertainty</preferredDescription></uncertainty><evaluationMode>automatic</evaluationMode><evaluationStatus>confirmed</evaluationStatus><comment><text>0.12</text><id>mismatchScore</id></comment><comment><text>mismatchScore</text><id>scevalMethod</id></comment><arrival><pickID>de.gempa.tb1.Pick/20250412084348.634264.123040</pickID><phase>P</phase><azimuth>279.50341796875</azimuth><distance>1.0417286157608032</distance><timeResidual>-0.5520439147949219</timeResidual><timeUsed>true</timeUsed><horizontalSlownessUsed>false</horizontalSlownessUsed><backazimuthUsed>false</backazimuthUsed><weight>1</weight></arrival><arrival><pickID>de.gempa.tb1.Pick/20250412084351.692421.123042</pickID><phase>P</phase><azimuth>305.778564453125</azimuth><distance>1.4775614738464355</distance><timeResidual>-0.0023956298828125</timeResidual><timeUsed>true</timeUsed><horizontalSlownessUsed>false</horizontalSlownessUsed><backazimuthUsed>false</backazimuthUsed><weight>1</weight></arrival><arrival><pickID>de.gempa.tb1.Pick/20250412084355.523279.123044</pickID><phase>P</phase><azimuth>316.43780517578125</azimuth><distance>1.8812288045883179</distance><timeResidual>0.09085464477539062</timeResidual><timeUsed>true</timeUsed><horizontalSlownessUsed>false</horizontalSlownessUsed><backazimuthUsed>false</backazimuthUsed><weight>1</weight></arrival><arrival><pickID>de.gempa.tb1.Pick/20250412084401.654581.123046</pickID><phase>P</phase><azimuth>323.8824768066406</azimuth><distance>2.4952356815338135</distance><timeResidual>0.27541351318359375</timeResidual><timeUsed>true</timeUsed><horizontalSlownessUsed>false</horizontalSlownessUsed><backazimuthUsed>false</backazimuthUsed><weight>1</weight></arrival><arrival><pickID>de.gempa.tb1.Pick/20250412084424.830182.123050</pickID><phase>S</phase><azimuth>305.778564453125</azimuth><distance>1.4775614738464355</distance><timeResidual>0.5177764892578125</timeResidual><timeUsed>true</timeUsed><horizontalSlownessUsed>false</horizontalSlownessUsed><backazimuthUsed>false</backazimuthUsed><weight>1</weight></arrival><arrival><pickID>de.gempa.tb1.Pick/20250412084430.635841.123052</pickID><phase>S</phase><azimuth>316.43780517578125</azimuth><distance>1.8812288045883179</distance><timeResidual>-0.031982421875</timeResidual><timeUsed>true</timeUsed><horizontalSlownessUsed>false</horizontalSlownessUsed><backazimuthUsed>false</backazimuthUsed><weight>1</weight></arrival><arrival><pickID>de.gempa.tb1.Pick/20250412084431.232391.123053</pickID><phase>P</phase><azimuth>325.6088562011719</azimuth><distance>2.829042673110962</distance><timeResidual>0.2420806884765625</timeResidual><timeUsed>true</timeUsed><horizontalSlownessUsed>false</horizontalSlownessUsed><backazimuthUsed>false</backazimuthUsed><weight>1</weight></arrival><arrival><pickID>de.gempa.tb1.Pick/20250412084441.76372.123058</pickID><phase>S</phase><azimuth>323.8824768066406</azimuth><distance>2.4952356815338135</distance><timeResidual>-0.38184356689453125</timeResidual><timeUsed>true</timeUsed><horizontalSlownessUsed>false</horizontalSlownessUsed><backazimuthUsed>false</backazimuthUsed><weight>1</weight></arrival><arrival><pickID>de.gempa.tb1.Pick/20250412084450.439799.123059</pickID><phase>S</phase><azimuth>325.6088562011719</azimuth><distance>2.829042673110962</distance><timeResidual>-0.15794754028320312</timeResidual><timeUsed>true</timeUsed><horizontalSlownessUsed>false</horizontalSlownessUsed><backazimuthUsed>false</backazimuthUsed><weight>1</weight></arrival><magnitude publicID="de.gempa.tb1.Magnitude/20250412084606.679513.200052"><magnitude><value>3.1934286548236703</value></magnitude><type>M</type><methodID>weighted average</methodID><stationCount>5</stationCount></magnitude></origin><event publicID="gempa2025hffq"><preferredOriginID>de.gempa.tb1.Origin/20250412084450.443545.79098</preferredOriginID><preferredMagnitudeID>de.gempa.tb1.Magnitude/20250412084606.679513.200052</preferredMagnitudeID><description><text>Chile-Argentina Border Region</text><type>region name</type></description><originReference>de.gempa.tb1.Origin/20250412084450.443545.79098</originReference></event></EventParameters></seiscomp>