<?xml version="1.0" encoding="UTF-8"?>
<seiscomp xmlns="http://geofon.gfz-potsdam.de/ns/seiscomp3-schema/0.13" version="0.13"><EventParameters><pick publicID="de.gempa.tb1.Pick/20250413090247.523157.130256"><time><value>2025-04-13T09:02:38.648393Z</value></time><waveformID networkCode="CX" stationCode="PB01" channelCode="HHZ"/><filterID>ITAPER(4)&gt;&gt;BW(4,4,20)</filterID><methodID>AIC</methodID><horizontalSlowness><value>19.20660372401074</value></horizontalSlowness><backazimuth><value>45.32078390240724</value></backazimuth><phaseHint>P</phaseHint><evaluationMode>automatic</evaluationMode><comment><text>6.558224036384185</text><id>DFX:rectilinearity</id></comment><comment><text>19.753634293606602</text><id>SNR</id></comment></pick><pick publicID="de.gempa.tb1.Pick/20250413090249.5737.130258"><time><value>2025-04-13T09:02:44.818393Z</value></time><waveformID networkCode="CX" stationCode="PB03" channelCode="HHZ"/><filterID>ITAPER(4)&gt;&gt;BW(4,4,20)</filterID><methodID>AIC</methodID><horizontalSlowness><value>10.110674542366038</value></horizontalSlowness><backazimuth><value>215.68807873680908</value></backazimuth><phaseHint>P</phaseHint><evaluationMode>automatic</evaluationMode><comment><text>15.47493438042584</text><id>DFX:rectilinearity</id></comment><comment><text>20.51462615571716</text><id>SNR</id></comment></pick><pick publicID="de.gempa.tb1.Pick/20250413090249.596242.130260"><time><value>2025-04-13T09:02:42.788393Z</value></time><waveformID networkCode="CX" stationCode="PB02" channelCode="HHZ"/><filterID>ITAPER(4)&gt;&gt;BW(4,4,20)</filterID><methodID>AIC</methodID><horizontalSlowness><value>11.278202062488626</value></horizontalSlowness><backazimuth><value>45.87965443610477</value></backazimuth><phaseHint>P</phaseHint><evaluationMode>automatic</evaluationMode><comment><text>38.378897983343016</text><id>DFX:rectilinearity</id></comment><comment><text>29.28349552405279</text><id>SNR</id></comment></pick><pick publicID="de.gempa.tb1.Pick/20250413090249.778065.130262"><time><value>2025-04-13T09:02:43.978393Z</value></time><waveformID networkCode="CX" stationCode="PB07" channelCode="HHZ"/><filterID>ITAPER(4)&gt;&gt;BW(4,4,20)</filterID><methodID>AIC</methodID><horizontalSlowness><value>16.604053918721192</value></horizontalSlowness><backazimuth><value>117.53959633698352</value></backazimuth><phaseHint>P</phaseHint><evaluationMode>automatic</evaluationMode><comment><text>213.79310259550425</text><id>DFX:rectilinearity</id></comment><comment><text>38.66706326964619</text><id>SNR</id></comment></pick><pick publicID="de.gempa.tb1.Pick/20250413090254.433087.130264"><time><value>2025-04-13T09:02:45.229999Z</value></time><waveformID networkCode="CX" stationCode="PATCX" channelCode="HHZ"/><filterID>ITAPER(4)&gt;&gt;BW(4,4,20)</filterID><methodID>AIC</methodID><horizontalSlowness><value>22.503752366918008</value></horizontalSlowness><backazimuth><value>176.23419140064823</value></backazimuth><phaseHint>P</phaseHint><evaluationMode>automatic</evaluationMode><comment><text>231.31726492993167</text><id>DFX:rectilinearity</id></comment><comment><text>7.354894084323123</text><id>SNR</id></comment></pick><pick publicID="de.gempa.tb1.Pick/20250413090255.132276.130266"><time><value>2025-04-13T09:02:40.11Z</value></time><waveformID networkCode="CX" stationCode="PB09" channelCode="HHZ"/><filterID>ITAPER(4)&gt;&gt;BW(4,4,20)</filterID><methodID>AIC</methodID><horizontalSlowness><value>12.4860457118203</value></horizontalSlowness><backazimuth><value>310.5922183467859</value></backazimuth><phaseHint>P</phaseHint><evaluationMode>automatic</evaluationMode><comment><text>33.93440090188865</text><id>DFX:rectilinearity</id></comment><comment><text>17.1193739940677</text><id>SNR</id></comment></pick><pick publicID="de.gempa.tb1.Pick/20250413090257.527874.130268"><time><value>2025-04-13T09:02:49.358393Z</value></time><waveformID networkCode="CX" stationCode="PB06" channelCode="HHZ"/><filterID>ITAPER(4)&gt;&gt;BW(4,4,20)</filterID><methodID>AIC</methodID><horizontalSlowness><value>10.240398138085245</value></horizontalSlowness><backazimuth><value>300.5095174693972</value></backazimuth><phaseHint>P</phaseHint><evaluationMode>automatic</evaluationMode><comment><text>44.688344960983486</text><id>DFX:rectilinearity</id></comment><comment><text>14.176939174585986</text><id>SNR</id></comment></pick><pick publicID="de.gempa.tb1.Pick/20250413090258.574481.130270"><time><value>2025-04-13T09:02:50.58Z</value></time><waveformID networkCode="CX" stationCode="PSGCX" channelCode="HHZ"/><filterID>ITAPER(4)&gt;&gt;BW(4,4,20)</filterID><methodID>AIC</methodID><horizontalSlowness><value>22.424536089745658</value></horizontalSlowness><backazimuth><value>225.1121942318691</value></backazimuth><phaseHint>P</phaseHint><evaluationMode>automatic</evaluationMode><comment><text>44.741564515514597</text><id>DFX:rectilinearity</id></comment><comment><text>15.874318050184206</text><id>SNR</id></comment></pick><pick publicID="de.gempa.tb1.Pick/20250413090302.699301.130272"><time><value>2025-04-13T09:02:55.978393Z</value></time><waveformID networkCode="CX" stationCode="PB01" channelCode="HHN"/><filterID>ITAPER(2)&gt;&gt;BW(3,3,20)</filterID><methodID>L2-AIC-GRID</methodID><horizontalSlowness><value>22.539039612123535</value></horizontalSlowness><backazimuth><value>173.07306993787623</value></backazimuth><phaseHint>S</phaseHint><evaluationMode>automatic</evaluationMode><comment><text>60.84496574143154</text><id>DFX:rectilinearity</id></comment><comment><text>de.gempa.tb1.Pick/20250413090247.523157.130256</text><id>RefPickID</id></comment><comment><text>9.763094134041308</text><id>SNR</id></comment></pick><pick publicID="de.gempa.tb1.Pick/20250413090309.671051.130273"><time><value>2025-04-13T09:03:02.45Z</value></time><waveformID networkCode="CX" stationCode="PB19" channelCode="HHZ"/><filterID>ITAPER(4)&gt;&gt;BW(4,4,20)</filterID><methodID>AIC</methodID><horizontalSlowness><value>23.23964429312979</value></horizontalSlowness><backazimuth><value>48.56710055200054</value></backazimuth><phaseHint>P</phaseHint><evaluationMode>automatic</evaluationMode><comment><text>13.89983269954123</text><id>DFX:rectilinearity</id></comment><comment><text>6.92174651306935</text><id>SNR</id></comment></pick><pick publicID="de.gempa.tb1.Pick/20250413090311.461607.130275"><time><value>2025-04-13T09:03:03.048393Z</value></time><waveformID networkCode="CX" stationCode="PB02" channelCode="HHN"/><filterID>ITAPER(2)&gt;&gt;BW(3,3,20)</filterID><methodID>L2-AIC-GRID</methodID><horizontalSlowness><value>11.59513549039326</value></horizontalSlowness><backazimuth><value>314.11978938903735</value></backazimuth><phaseHint>S</phaseHint><evaluationMode>automatic</evaluationMode><comment><text>1041.8517523098371</text><id>DFX:rectilinearity</id></comment><comment><text>de.gempa.tb1.Pick/20250413090249.596242.130260</text><id>RefPickID</id></comment><comment><text>10.097642585216358</text><id>SNR</id></comment></pick><pick publicID="de.gempa.tb1.Pick/20250413090313.777821.130277"><time><value>2025-04-13T09:03:06.738393Z</value></time><waveformID networkCode="CX" stationCode="PB03" channelCode="HHN"/><filterID>ITAPER(2)&gt;&gt;BW(3,3,20)</filterID><methodID>L2-AIC-GRID</methodID><horizontalSlowness><value>22.68264765939954</value></horizontalSlowness><backazimuth><value>150.12875719464017</value></backazimuth><phaseHint>S</phaseHint><evaluationMode>automatic</evaluationMode><comment><text>86.48815897728957</text><id>DFX:rectilinearity</id></comment><comment><text>de.gempa.tb1.Pick/20250413090249.5737.130258</text><id>RefPickID</id></comment><comment><text>8.094533486862046</text><id>SNR</id></comment></pick><pick publicID="de.gempa.tb1.Pick/20250413090319.240645.130281"><time><value>2025-04-13T09:03:07.639999Z</value></time><waveformID networkCode="CX" stationCode="PATCX" channelCode="HHN"/><filterID>ITAPER(2)&gt;&gt;BW(3,3,20)</filterID><methodID>L2-AIC-GRID</methodID><horizontalSlowness><value>23.1653451181941</value></horizontalSlowness><backazimuth><value>260.0616869090267</value></backazimuth><phaseHint>S</phaseHint><evaluationMode>automatic</evaluationMode><comment><text>257.49152382085646</text><id>DFX:rectilinearity</id></comment><comment><text>de.gempa.tb1.Pick/20250413090254.433087.130264</text><id>RefPickID</id></comment><comment><text>8.520491808052869</text><id>SNR</id></comment></pick><pick publicID="de.gempa.tb1.Pick/20250413090320.660225.130282"><time><value>2025-04-13T09:03:14.948393Z</value></time><waveformID networkCode="CX" stationCode="PB06" channelCode="HHN"/><filterID>ITAPER(2)&gt;&gt;BW(3,3,20)</filterID><methodID>L2-AIC-GRID</methodID><horizontalSlowness><value>11.885143657316721</value></horizontalSlowness><backazimuth><value>30.877612262232503</value></backazimuth><phaseHint>S</phaseHint><evaluationMode>automatic</evaluationMode><comment><text>de.gempa.tb1.Pick/20250413090257.527874.130268</text><id>RefPickID</id></comment><comment><text>10.63485217308969</text><id>SNR</id></comment><comment><text>79.95801336106467</text><id>DFX:rectilinearity</id></comment></pick><pick publicID="de.gempa.tb1.Pick/20250413090344.959075.130287"><time><value>2025-04-13T09:03:37.2Z</value></time><waveformID networkCode="CX" stationCode="PB19" channelCode="HHN"/><filterID>ITAPER(2)&gt;&gt;BW(3,3,20)</filterID><methodID>L2-AIC-GRID</methodID><horizontalSlowness><value>22.171691772554428</value></horizontalSlowness><backazimuth><value>30.90670658970154</value></backazimuth><phaseHint>S</phaseHint><evaluationMode>automatic</evaluationMode><comment><text>32.916666182672934</text><id>DFX:rectilinearity</id></comment><comment><text>de.gempa.tb1.Pick/20250413090309.671051.130273</text><id>RefPickID</id></comment><comment><text>9.409737212644254</text><id>SNR</id></comment></pick><pick publicID="de.gempa.tb1.Pick/20250413090351.066922.130290"><time><value>2025-04-13T09:03:05.548393Z</value></time><waveformID networkCode="CX" stationCode="PB07" channelCode="HHN"/><filterID>ITAPER(2)&gt;&gt;BW(3,3,20)</filterID><methodID>L2-AIC-GRID</methodID><horizontalSlowness><value>23.383494443567074</value></horizontalSlowness><backazimuth><value>304.45513380434107</value></backazimuth><phaseHint>S</phaseHint><evaluationMode>automatic</evaluationMode><comment><text>2440.036484120185</text><id>DFX:rectilinearity</id></comment><comment><text>de.gempa.tb1.Pick/20250413090249.778065.130262</text><id>RefPickID</id></comment><comment><text>6.709235703408175</text><id>SNR</id></comment></pick><origin publicID="de.gempa.tb1.Origin/20250413090351.071525.106187"><time><value>2025-04-13T09:02:16.180824Z</value><uncertainty>0.764130175113678</uncertainty></time><latitude><value>-21.056772232055664</value><uncertainty>3.8643198013305664</uncertainty></latitude><longitude><value>-68.54713439941406</value><uncertainty>11.46359634399414</uncertainty></longitude><depth><value>137.16798400878906</value><uncertainty>12.948945999145508</uncertainty></depth><depthType>from location</depthType><methodID>LOCSAT</methodID><earthModelID>iasp91_scanloc</earthModelID><quality><associatedPhaseCount>16</associatedPhaseCount><usedPhaseCount>16</usedPhaseCount><associatedStationCount>9</associatedStationCount><usedStationCount>9</usedStationCount><depthPhaseCount>0</depthPhaseCount><standardError>0.34752708936318133</standardError><azimuthalGap>239.2958679199219</azimuthalGap><maximumDistance>2.916680097579956</maximumDistance><minimumDistance>0.8783740997314453</minimumDistance><medianDistance>1.4947056770324707</medianDistance></quality><uncertainty><minHorizontalUncertainty>7.418116569519043</minHorizontalUncertainty><maxHorizontalUncertainty>24.849687576293945</maxHorizontalUncertainty><azimuthMaxHorizontalUncertainty>81.05589294433594</azimuthMaxHorizontalUncertainty><preferredDescription>horizontal uncertainty</preferredDescription></uncertainty><evaluationMode>automatic</evaluationMode><evaluationStatus>confirmed</evaluationStatus><comment><text>0.16</text><id>mismatchScore</id></comment><comment><text>mismatchScore</text><id>scevalMethod</id></comment><arrival><pickID>de.gempa.tb1.Pick/20250413090247.523157.130256</pickID><phase>P</phase><azimuth>270.7110900878906</azimuth><distance>0.8783740997314453</distance><timeResidual>-0.05933761596679688</timeResidual><timeUsed>true</timeUsed><horizontalSlownessUsed>false</horizontalSlownessUsed><backazimuthUsed>false</backazimuthUsed><weight>1</weight></arrival><arrival><pickID>de.gempa.tb1.Pick/20250413090249.5737.130258</pickID><phase>P</phase><azimuth>228.46502685546875</azimuth><distance>1.4947056770324707</distance><timeResidual>0.07720565795898438</timeResidual><timeUsed>true</timeUsed><horizontalSlownessUsed>false</horizontalSlownessUsed><backazimuthUsed>false</backazimuthUsed><weight>1</weight></arrival><arrival><pickID>de.gempa.tb1.Pick/20250413090249.596242.130260</pickID><phase>P</phase><azimuth>258.0158996582031</azimuth><distance>1.2857028245925903</distance><timeResidual>0.2619342803955078</timeResidual><timeUsed>true</timeUsed><horizontalSlownessUsed>false</horizontalSlownessUsed><backazimuthUsed>false</backazimuthUsed><weight>1</weight></arrival><arrival><pickID>de.gempa.tb1.Pick/20250413090249.778065.130262</pickID><phase>P</phase><azimuth>241.6484832763672</azimuth><distance>1.414770245552063</distance><timeResidual>0.10009384155273438</timeResidual><timeUsed>true</timeUsed><horizontalSlownessUsed>false</horizontalSlownessUsed><backazimuthUsed>false</backazimuthUsed><weight>1</weight></arrival><arrival><pickID>de.gempa.tb1.Pick/20250413090254.433087.130264</pickID><phase>P</phase><azimuth>278.6080017089844</azimuth><distance>1.5192437171936035</distance><timeResidual>0.21179771423339844</timeResidual><timeUsed>true</timeUsed><horizontalSlownessUsed>false</horizontalSlownessUsed><backazimuthUsed>false</backazimuthUsed><weight>1</weight></arrival><arrival><pickID>de.gempa.tb1.Pick/20250413090255.132276.130266</pickID><phase>P</phase><azimuth>221.2086944580078</azimuth><distance>0.980148434638977</distance><timeResidual>0.5298843383789062</timeResidual><timeUsed>true</timeUsed><horizontalSlownessUsed>false</horizontalSlownessUsed><backazimuthUsed>false</backazimuthUsed><weight>1</weight></arrival><arrival><pickID>de.gempa.tb1.Pick/20250413090257.527874.130268</pickID><phase>P</phase><azimuth>209.92543029785156</azimuth><distance>1.89705228805542</distance><timeResidual>0.030824661254882809</timeResidual><timeUsed>true</timeUsed><horizontalSlownessUsed>false</horizontalSlownessUsed><backazimuthUsed>false</backazimuthUsed><weight>1</weight></arrival><arrival><pickID>de.gempa.tb1.Pick/20250413090258.574481.130270</pickID><phase>P</phase><azimuth>314.2015380859375</azimuth><distance>2.0726678371429443</distance><timeResidual>-0.8710498809814453</timeResidual><timeUsed>true</timeUsed><horizontalSlownessUsed>false</horizontalSlownessUsed><backazimuthUsed>false</backazimuthUsed><weight>1</weight></arrival><arrival><pickID>de.gempa.tb1.Pick/20250413090302.699301.130272</pickID><phase>S</phase><azimuth>270.7110900878906</azimuth><distance>0.8783740997314453</distance><timeResidual>-0.18628692626953125</timeResidual><timeUsed>true</timeUsed><horizontalSlownessUsed>false</horizontalSlownessUsed><backazimuthUsed>false</backazimuthUsed><weight>1</weight></arrival><arrival><pickID>de.gempa.tb1.Pick/20250413090309.671051.130273</pickID><phase>P</phase><azimuth>193.49740600585938</azimuth><distance>2.916680097579956</distance><timeResidual>0.4706649780273438</timeResidual><timeUsed>true</timeUsed><horizontalSlownessUsed>false</horizontalSlownessUsed><backazimuthUsed>false</backazimuthUsed><weight>1</weight></arrival><arrival><pickID>de.gempa.tb1.Pick/20250413090311.461607.130275</pickID><phase>S</phase><azimuth>258.0158996582031</azimuth><distance>1.2857028245925903</distance><timeResidual>0.06713104248046875</timeResidual><timeUsed>true</timeUsed><horizontalSlownessUsed>false</horizontalSlownessUsed><backazimuthUsed>false</backazimuthUsed><weight>1</weight></arrival><arrival><pickID>de.gempa.tb1.Pick/20250413090313.777821.130277</pickID><phase>S</phase><azimuth>228.46502685546875</azimuth><distance>1.4947056770324707</distance><timeResidual>-0.2006702423095703</timeResidual><timeUsed>true</timeUsed><horizontalSlownessUsed>false</horizontalSlownessUsed><backazimuthUsed>false</backazimuthUsed><weight>1</weight></arrival><arrival><pickID>de.gempa.tb1.Pick/20250413090319.240645.130281</pickID><phase>S</phase><azimuth>278.6080017089844</azimuth><distance>1.5192437171936035</distance><timeResidual>0.20618438720703125</timeResidual><timeUsed>true</timeUsed><horizontalSlownessUsed>false</horizontalSlownessUsed><backazimuthUsed>false</backazimuthUsed><weight>1</weight></arrival><arrival><pickID>de.gempa.tb1.Pick/20250413090320.660225.130282</pickID><phase>S</phase><azimuth>209.92543029785156</azimuth><distance>1.89705228805542</distance><timeResidual>-0.19428062438964844</timeResidual><timeUsed>true</timeUsed><horizontalSlownessUsed>false</horizontalSlownessUsed><backazimuthUsed>false</backazimuthUsed><weight>1</weight></arrival><arrival><pickID>de.gempa.tb1.Pick/20250413090344.959075.130287</pickID><phase>S</phase><azimuth>193.49740600585938</azimuth><distance>2.916680097579956</distance><timeResidual>-0.5955638885498047</timeResidual><timeUsed>true</timeUsed><horizontalSlownessUsed>false</horizontalSlownessUsed><backazimuthUsed>false</backazimuthUsed><weight>1</weight></arrival><arrival><pickID>de.gempa.tb1.Pick/20250413090351.066922.130290</pickID><phase>S</phase><azimuth>241.6484832763672</azimuth><distance>1.414770245552063</distance><timeResidual>0.15172576904296875</timeResidual><timeUsed>true</timeUsed><horizontalSlownessUsed>false</horizontalSlownessUsed><backazimuthUsed>false</backazimuthUsed><weight>1</weight></arrival><magnitude publicID="de.gempa.tb1.Magnitude/20250413090355.947534.334867"><magnitude><value>2.7485158436138293</value></magnitude><type>M</type><methodID>weighted average</methodID><stationCount>7</stationCount></magnitude></origin><event publicID="gempa2025hhci"><preferredOriginID>de.gempa.tb1.Origin/20250413090351.071525.106187</preferredOriginID><preferredMagnitudeID>de.gempa.tb1.Magnitude/20250413090355.947534.334867</preferredMagnitudeID><description><text>Chile-Bolivia Border Region</text><type>region name</type></description><originReference>de.gempa.tb1.Origin/20250413090351.071525.106187</originReference></event></EventParameters></seiscomp>