<?xml version="1.0" encoding="UTF-8"?>
<seiscomp xmlns="http://geofon.gfz-potsdam.de/ns/seiscomp3-schema/0.13" version="0.13"><EventParameters><pick publicID="de.gempa.tb1.Pick/20250414061715.54796.136173"><time><value>2025-04-14T06:17:09.598393Z</value></time><waveformID networkCode="CX" stationCode="PB01" channelCode="HHZ"/><filterID>ITAPER(4)&gt;&gt;BW(4,4,20)</filterID><methodID>AIC</methodID><horizontalSlowness><value>14.844702785055057</value></horizontalSlowness><backazimuth><value>293.6710109327094</value></backazimuth><phaseHint>P</phaseHint><evaluationMode>automatic</evaluationMode><comment><text>10.949718655678449</text><id>DFX:rectilinearity</id></comment><comment><text>10.413856747359675</text><id>SNR</id></comment></pick><pick publicID="de.gempa.tb1.Pick/20250414061721.505339.136175"><time><value>2025-04-14T06:17:14.168393Z</value></time><waveformID networkCode="CX" stationCode="PB02" channelCode="HHZ"/><filterID>ITAPER(4)&gt;&gt;BW(4,4,20)</filterID><methodID>AIC</methodID><horizontalSlowness><value>3.057197488224015</value></horizontalSlowness><backazimuth><value>293.7122445085966</value></backazimuth><phaseHint>P</phaseHint><evaluationMode>automatic</evaluationMode><comment><text>22.846162853347725</text><id>DFX:rectilinearity</id></comment><comment><text>11.612512767818037</text><id>SNR</id></comment></pick><pick publicID="de.gempa.tb1.Pick/20250414061722.588224.136177"><time><value>2025-04-14T06:17:16.398393Z</value></time><waveformID networkCode="CX" stationCode="PB07" channelCode="HHZ"/><filterID>ITAPER(4)&gt;&gt;BW(4,4,20)</filterID><methodID>AIC</methodID><horizontalSlowness><value>23.2287317915518</value></horizontalSlowness><backazimuth><value>305.8773964290225</value></backazimuth><phaseHint>P</phaseHint><evaluationMode>automatic</evaluationMode><comment><text>230.1638293118741</text><id>DFX:rectilinearity</id></comment><comment><text>23.27326630221874</text><id>SNR</id></comment></pick><pick publicID="de.gempa.tb1.Pick/20250414061728.677956.136179"><time><value>2025-04-14T06:17:22.298393Z</value></time><waveformID networkCode="CX" stationCode="PB01" channelCode="HHN"/><filterID>ITAPER(2)&gt;&gt;BW(3,3,20)</filterID><methodID>L2-AIC-GRID</methodID><horizontalSlowness><value>23.16227447276888</value></horizontalSlowness><backazimuth><value>268.30598731696216</value></backazimuth><phaseHint>S</phaseHint><evaluationMode>automatic</evaluationMode><comment><text>22.96752495666407</text><id>DFX:rectilinearity</id></comment><comment><text>de.gempa.tb1.Pick/20250414061715.54796.136173</text><id>RefPickID</id></comment><comment><text>7.853148170758938</text><id>SNR</id></comment></pick><pick publicID="de.gempa.tb1.Pick/20250414061737.658002.136180"><time><value>2025-04-14T06:17:31.198393Z</value></time><waveformID networkCode="CX" stationCode="PB02" channelCode="HHN"/><filterID>ITAPER(2)&gt;&gt;BW(3,3,20)</filterID><methodID>L2-AIC-GRID</methodID><horizontalSlowness><value>20.294435327099816</value></horizontalSlowness><backazimuth><value>69.11623077885058</value></backazimuth><phaseHint>S</phaseHint><evaluationMode>automatic</evaluationMode><comment><text>99.52489666297699</text><id>DFX:rectilinearity</id></comment><comment><text>de.gempa.tb1.Pick/20250414061721.505339.136175</text><id>RefPickID</id></comment><comment><text>7.178658451237688</text><id>SNR</id></comment></pick><pick publicID="de.gempa.tb1.Pick/20250414061810.982448.136181"><time><value>2025-04-14T06:17:35.298393Z</value></time><waveformID networkCode="CX" stationCode="PB07" channelCode="HHN"/><filterID>ITAPER(2)&gt;&gt;BW(3,3,20)</filterID><methodID>L2-AIC-GRID</methodID><horizontalSlowness><value>22.335688092619225</value></horizontalSlowness><backazimuth><value>279.7774166155415</value></backazimuth><phaseHint>S</phaseHint><evaluationMode>automatic</evaluationMode><comment><text>1155.421263097399</text><id>DFX:rectilinearity</id></comment><comment><text>de.gempa.tb1.Pick/20250414061722.588224.136177</text><id>RefPickID</id></comment><comment><text>5.728655570771977</text><id>SNR</id></comment></pick><origin publicID="de.gempa.tb1.Origin/20250414061811.02536.129892"><time><value>2025-04-14T06:16:52.375537Z</value><uncertainty>1.4935169219970703</uncertainty></time><latitude><value>-20.90117645263672</value><uncertainty>20.105812072753906</uncertainty></latitude><longitude><value>-68.71438598632812</value><uncertainty>25.883907318115234</uncertainty></longitude><depth><value>91.39337158203125</value><uncertainty>25.93644332885742</uncertainty></depth><depthType>from location</depthType><methodID>LOCSAT</methodID><earthModelID>iasp91_scanloc</earthModelID><quality><associatedPhaseCount>6</associatedPhaseCount><usedPhaseCount>6</usedPhaseCount><associatedStationCount>3</associatedStationCount><usedStationCount>3</usedStationCount><depthPhaseCount>0</depthPhaseCount><standardError>0.1315764046326623</standardError><azimuthalGap>334.06153869628906</azimuthalGap><maximumDistance>1.3669229745864868</maximumDistance><minimumDistance>0.7361157536506653</minimumDistance><medianDistance>1.1792765855789185</medianDistance></quality><uncertainty><minHorizontalUncertainty>21.41673469543457</minHorizontalUncertainty><maxHorizontalUncertainty>66.9471435546875</maxHorizontalUncertainty><azimuthMaxHorizontalUncertainty>126.1576919555664</azimuthMaxHorizontalUncertainty><preferredDescription>horizontal uncertainty</preferredDescription></uncertainty><evaluationMode>automatic</evaluationMode><evaluationStatus>confirmed</evaluationStatus><comment><text>0.43</text><id>mismatchScore</id></comment><comment><text>mismatchScore</text><id>scevalMethod</id></comment><arrival><pickID>de.gempa.tb1.Pick/20250414061715.54796.136173</pickID><phase>P</phase><azimuth>258.7923278808594</azimuth><distance>0.7361157536506653</distance><timeResidual>0.2288837432861328</timeResidual><timeUsed>true</timeUsed><horizontalSlownessUsed>false</horizontalSlownessUsed><backazimuthUsed>false</backazimuthUsed><weight>1</weight></arrival><arrival><pickID>de.gempa.tb1.Pick/20250414061721.505339.136175</pickID><phase>P</phase><azimuth>249.10853576660156</azimuth><distance>1.1792765855789185</distance><timeResidual>-0.09136390686035156</timeResidual><timeUsed>true</timeUsed><horizontalSlownessUsed>false</horizontalSlownessUsed><backazimuthUsed>false</backazimuthUsed><weight>1</weight></arrival><arrival><pickID>de.gempa.tb1.Pick/20250414061722.588224.136177</pickID><phase>P</phase><azimuth>232.85386657714844</azimuth><distance>1.3669229745864868</distance><timeResidual>-0.13712501525878906</timeResidual><timeUsed>true</timeUsed><horizontalSlownessUsed>false</horizontalSlownessUsed><backazimuthUsed>false</backazimuthUsed><weight>1</weight></arrival><arrival><pickID>de.gempa.tb1.Pick/20250414061728.677956.136179</pickID><phase>S</phase><azimuth>258.7923278808594</azimuth><distance>0.7361157536506653</distance><timeResidual>-0.12633705139160156</timeResidual><timeUsed>true</timeUsed><horizontalSlownessUsed>false</horizontalSlownessUsed><backazimuthUsed>false</backazimuthUsed><weight>1</weight></arrival><arrival><pickID>de.gempa.tb1.Pick/20250414061737.658002.136180</pickID><phase>S</phase><azimuth>249.10853576660156</azimuth><distance>1.1792765855789185</distance><timeResidual>0.04832839965820312</timeResidual><timeUsed>true</timeUsed><horizontalSlownessUsed>false</horizontalSlownessUsed><backazimuthUsed>false</backazimuthUsed><weight>1</weight></arrival><arrival><pickID>de.gempa.tb1.Pick/20250414061810.982448.136181</pickID><phase>S</phase><azimuth>232.85386657714844</azimuth><distance>1.3669229745864868</distance><timeResidual>0.07771110534667969</timeResidual><timeUsed>true</timeUsed><horizontalSlownessUsed>false</horizontalSlownessUsed><backazimuthUsed>false</backazimuthUsed><weight>1</weight></arrival><magnitude publicID="de.gempa.tb1.Magnitude/20250414061832.695349.437928"><magnitude><value>2.1369031863155152</value></magnitude><type>M</type><methodID>weighted average</methodID><stationCount>1</stationCount></magnitude></origin><event publicID="gempa2025hisv"><preferredOriginID>de.gempa.tb1.Origin/20250414061811.02536.129892</preferredOriginID><preferredMagnitudeID>de.gempa.tb1.Magnitude/20250414061832.695349.437928</preferredMagnitudeID><description><text>Chile-Bolivia Border Region</text><type>region name</type></description><originReference>de.gempa.tb1.Origin/20250414061811.02536.129892</originReference></event></EventParameters></seiscomp>