<?xml version="1.0" encoding="UTF-8"?>
<seiscomp xmlns="http://geofon.gfz-potsdam.de/ns/seiscomp3-schema/0.13" version="0.13"><EventParameters><pick publicID="de.gempa.tb1.Pick/20250414182701.483598.140167"><time><value>2025-04-14T18:26:55.3Z</value></time><waveformID networkCode="CX" stationCode="PB19" channelCode="HHZ"/><filterID>ITAPER(4)&gt;&gt;BW(4,4,20)</filterID><methodID>AIC</methodID><horizontalSlowness><value>19.410849161661314</value></horizontalSlowness><backazimuth><value>160.21405011832445</value></backazimuth><phaseHint>P</phaseHint><evaluationMode>automatic</evaluationMode><comment><text>21.200090534859157</text><id>DFX:rectilinearity</id></comment><comment><text>26.691209099207693</text><id>SNR</id></comment></pick><pick publicID="de.gempa.tb1.Pick/20250414182702.652872.140169"><time><value>2025-04-14T18:26:56.788394Z</value></time><waveformID networkCode="CX" stationCode="PB15" channelCode="HHZ"/><filterID>ITAPER(4)&gt;&gt;BW(4,4,20)</filterID><methodID>AIC</methodID><horizontalSlowness><value>20.47986476125756</value></horizontalSlowness><backazimuth><value>116.81990070427308</value></backazimuth><phaseHint>P</phaseHint><evaluationMode>automatic</evaluationMode><comment><text>278.082267175427</text><id>DFX:rectilinearity</id></comment><comment><text>18.778575704076875</text><id>SNR</id></comment></pick><pick publicID="de.gempa.tb1.Pick/20250414182704.499456.140171"><time><value>2025-04-14T18:26:59.088394Z</value></time><waveformID networkCode="CX" stationCode="PB06" channelCode="HHZ"/><filterID>ITAPER(4)&gt;&gt;BW(4,4,20)</filterID><methodID>AIC</methodID><horizontalSlowness><value>8.112915822957177</value></horizontalSlowness><backazimuth><value>151.1406792188701</value></backazimuth><phaseHint>P</phaseHint><evaluationMode>automatic</evaluationMode><comment><text>65.42639931066536</text><id>DFX:rectilinearity</id></comment><comment><text>14.989909103519516</text><id>SNR</id></comment></pick><pick publicID="de.gempa.tb1.Pick/20250414182708.515343.140173"><time><value>2025-04-14T18:27:03.388393Z</value></time><waveformID networkCode="CX" stationCode="PB03" channelCode="HHZ"/><filterID>ITAPER(4)&gt;&gt;BW(4,4,20)</filterID><methodID>AIC</methodID><horizontalSlowness><value>9.13264922141356</value></horizontalSlowness><backazimuth><value>126.6078845846853</value></backazimuth><phaseHint>P</phaseHint><evaluationMode>automatic</evaluationMode><comment><text>77.70817115762746</text><id>DFX:rectilinearity</id></comment><comment><text>54.64673226357667</text><id>SNR</id></comment></pick><pick publicID="de.gempa.tb1.Pick/20250414182710.373974.140175"><time><value>2025-04-14T18:27:01.27Z</value></time><waveformID networkCode="CX" stationCode="PB09" channelCode="HHZ"/><filterID>ITAPER(4)&gt;&gt;BW(4,4,20)</filterID><methodID>AIC</methodID><horizontalSlowness><value>18.946976052187914</value></horizontalSlowness><backazimuth><value>100.11557127328383</value></backazimuth><phaseHint>P</phaseHint><evaluationMode>automatic</evaluationMode><comment><text>14.100852556207435</text><id>DFX:rectilinearity</id></comment><comment><text>57.83339465387306</text><id>SNR</id></comment></pick><pick publicID="de.gempa.tb1.Pick/20250414182712.177077.140177"><time><value>2025-04-14T18:27:07.380001Z</value></time><waveformID networkCode="CX" stationCode="PB10" channelCode="HHZ"/><filterID>ITAPER(4)&gt;&gt;BW(4,4,20)</filterID><methodID>AIC</methodID><horizontalSlowness><value>9.348445578812521</value></horizontalSlowness><backazimuth><value>310.9479681283933</value></backazimuth><phaseHint>P</phaseHint><evaluationMode>automatic</evaluationMode><comment><text>52.16730672279887</text><id>DFX:rectilinearity</id></comment><comment><text>34.967215417418586</text><id>SNR</id></comment></pick><pick publicID="de.gempa.tb1.Pick/20250414182715.572617.140179"><time><value>2025-04-14T18:27:08.248393Z</value></time><waveformID networkCode="CX" stationCode="PB01" channelCode="HHZ"/><filterID>ITAPER(4)&gt;&gt;BW(4,4,20)</filterID><methodID>AIC</methodID><horizontalSlowness><value>8.024513503659096</value></horizontalSlowness><backazimuth><value>359.5438639402098</value></backazimuth><phaseHint>P</phaseHint><evaluationMode>automatic</evaluationMode><comment><text>7.747786361932678</text><id>DFX:rectilinearity</id></comment><comment><text>33.92256517297263</text><id>SNR</id></comment></pick><pick publicID="de.gempa.tb1.Pick/20250414182717.537657.140181"><time><value>2025-04-14T18:27:09.228391Z</value></time><waveformID networkCode="CX" stationCode="PB02" channelCode="HHZ"/><filterID>ITAPER(4)&gt;&gt;BW(4,4,20)</filterID><methodID>AIC</methodID><horizontalSlowness><value>12.645426930376022</value></horizontalSlowness><backazimuth><value>161.3702989507022</value></backazimuth><phaseHint>P</phaseHint><evaluationMode>automatic</evaluationMode><comment><text>10.573179686563996</text><id>DFX:rectilinearity</id></comment><comment><text>39.28576110282031</text><id>SNR</id></comment></pick><pick publicID="de.gempa.tb1.Pick/20250414182721.298313.140183"><time><value>2025-04-14T18:27:06.418393Z</value></time><waveformID networkCode="CX" stationCode="PB07" channelCode="HHZ"/><filterID>ITAPER(4)&gt;&gt;BW(4,4,20)</filterID><methodID>AIC</methodID><horizontalSlowness><value>13.296942439623997</value></horizontalSlowness><backazimuth><value>129.24643039634807</value></backazimuth><phaseHint>P</phaseHint><evaluationMode>automatic</evaluationMode><comment><text>266.90606203154704</text><id>DFX:rectilinearity</id></comment><comment><text>111.2393115879908</text><id>SNR</id></comment></pick><pick publicID="de.gempa.tb1.Pick/20250414182725.305495.140185"><time><value>2025-04-14T18:27:15.709999Z</value></time><waveformID networkCode="CX" stationCode="PATCX" channelCode="HHZ"/><filterID>ITAPER(4)&gt;&gt;BW(4,4,20)</filterID><methodID>AIC</methodID><horizontalSlowness><value>20.350483764159357</value></horizontalSlowness><backazimuth><value>31.76043561245237</value></backazimuth><phaseHint>P</phaseHint><evaluationMode>automatic</evaluationMode><comment><text>42.47036091439788</text><id>DFX:rectilinearity</id></comment><comment><text>9.326036262496093</text><id>SNR</id></comment></pick><pick publicID="de.gempa.tb1.Pick/20250414182731.781943.140187"><time><value>2025-04-14T18:27:25.14Z</value></time><waveformID networkCode="CX" stationCode="PSGCX" channelCode="HHZ"/><filterID>ITAPER(4)&gt;&gt;BW(4,4,20)</filterID><methodID>AIC</methodID><horizontalSlowness><value>13.08802104233299</value></horizontalSlowness><backazimuth><value>63.78039395124482</value></backazimuth><phaseHint>P</phaseHint><evaluationMode>automatic</evaluationMode><comment><text>16.667030612718982</text><id>DFX:rectilinearity</id></comment><comment><text>14.194579985210156</text><id>SNR</id></comment></pick><pick publicID="de.gempa.tb1.Pick/20250414182737.564655.140190"><time><value>2025-04-14T18:27:28.86Z</value></time><waveformID networkCode="CX" stationCode="PB19" channelCode="HHN"/><filterID>ITAPER(2)&gt;&gt;BW(3,3,20)</filterID><methodID>L2-AIC-GRID</methodID><horizontalSlowness><value>23.45809465685067</value></horizontalSlowness><backazimuth><value>103.28989581441674</value></backazimuth><phaseHint>S</phaseHint><evaluationMode>automatic</evaluationMode><comment><text>67.54926282057849</text><id>DFX:rectilinearity</id></comment><comment><text>de.gempa.tb1.Pick/20250414182701.483598.140167</text><id>RefPickID</id></comment><comment><text>6.249963599863536</text><id>SNR</id></comment></pick><pick publicID="de.gempa.tb1.Pick/20250414182748.603499.140193"><time><value>2025-04-14T18:27:35.718394Z</value></time><waveformID networkCode="CX" stationCode="PB06" channelCode="HHN"/><filterID>ITAPER(2)&gt;&gt;BW(3,3,20)</filterID><methodID>L2-AIC-GRID</methodID><horizontalSlowness><value>14.841862397368546</value></horizontalSlowness><backazimuth><value>256.24318547788113</value></backazimuth><phaseHint>S</phaseHint><evaluationMode>automatic</evaluationMode><comment><text>113.89465387424323</text><id>DFX:rectilinearity</id></comment><comment><text>de.gempa.tb1.Pick/20250414182704.499456.140171</text><id>RefPickID</id></comment><comment><text>5.275328506700046</text><id>SNR</id></comment></pick><pick publicID="de.gempa.tb1.Pick/20250414182752.570551.140194"><time><value>2025-04-14T18:27:43.158393Z</value></time><waveformID networkCode="CX" stationCode="PB03" channelCode="HHN"/><filterID>ITAPER(2)&gt;&gt;BW(3,3,20)</filterID><methodID>L2-AIC-GRID</methodID><horizontalSlowness><value>21.06676827407966</value></horizontalSlowness><backazimuth><value>219.97397635813928</value></backazimuth><phaseHint>S</phaseHint><evaluationMode>automatic</evaluationMode><comment><text>60.28718940764426</text><id>DFX:rectilinearity</id></comment><comment><text>de.gempa.tb1.Pick/20250414182708.515343.140173</text><id>RefPickID</id></comment><comment><text>5.400487507971119</text><id>SNR</id></comment></pick><pick publicID="de.gempa.tb1.Pick/20250414182800.584345.140197"><time><value>2025-04-14T18:27:52.378393Z</value></time><waveformID networkCode="CX" stationCode="PB01" channelCode="HHN"/><filterID>ITAPER(2)&gt;&gt;BW(3,3,20)</filterID><methodID>L2-AIC-GRID</methodID><horizontalSlowness><value>21.855040122280808</value></horizontalSlowness><backazimuth><value>240.54673024662483</value></backazimuth><phaseHint>S</phaseHint><evaluationMode>automatic</evaluationMode><comment><text>14.458926742919402</text><id>DFX:rectilinearity</id></comment><comment><text>de.gempa.tb1.Pick/20250414182715.572617.140179</text><id>RefPickID</id></comment><comment><text>5.873564782153357</text><id>SNR</id></comment></pick><origin publicID="de.gempa.tb1.Origin/20250414182801.551436.147134"><time><value>2025-04-14T18:26:13.123196Z</value><uncertainty>1.0163419246673584</uncertainty></time><latitude><value>-23.47288703918457</value><uncertainty>6.279214859008789</uncertainty></latitude><longitude><value>-67.08125305175781</value><uncertainty>23.81922912597656</uncertainty></longitude><depth><value>240.0612030029297</value><uncertainty>22.90140724182129</uncertainty></depth><depthType>from location</depthType><methodID>LOCSAT</methodID><earthModelID>iasp91_scanloc</earthModelID><quality><associatedPhaseCount>15</associatedPhaseCount><usedPhaseCount>15</usedPhaseCount><associatedStationCount>11</associatedStationCount><usedStationCount>11</usedStationCount><depthPhaseCount>0</depthPhaseCount><standardError>0.34297673686066776</standardError><azimuthalGap>294.4329833984375</azimuthalGap><maximumDistance>4.78433084487915</maximumDistance><minimumDistance>2.0705170631408691</minimumDistance><medianDistance>2.8445842266082764</medianDistance></quality><uncertainty><minHorizontalUncertainty>12.63154697418213</minHorizontalUncertainty><maxHorizontalUncertainty>51.27517700195312</maxHorizontalUncertainty><azimuthMaxHorizontalUncertainty>84.62721252441406</azimuthMaxHorizontalUncertainty><preferredDescription>horizontal uncertainty</preferredDescription></uncertainty><evaluationMode>automatic</evaluationMode><evaluationStatus>confirmed</evaluationStatus><comment><text>0.03</text><id>mismatchScore</id></comment><comment><text>mismatchScore</text><id>scevalMethod</id></comment><arrival><pickID>de.gempa.tb1.Pick/20250414182701.483598.140167</pickID><phase>P</phase><azimuth>257.5760192871094</azimuth><distance>2.0705170631408691</distance><timeResidual>-0.18645858764648438</timeResidual><timeUsed>true</timeUsed><horizontalSlownessUsed>false</horizontalSlownessUsed><backazimuthUsed>false</backazimuthUsed><weight>1</weight></arrival><arrival><pickID>de.gempa.tb1.Pick/20250414182702.652872.140169</pickID><phase>P</phase><azimuth>276.3648986816406</azimuth><distance>2.2121107578277588</distance><timeResidual>-0.06574249267578125</timeResidual><timeUsed>true</timeUsed><horizontalSlownessUsed>false</horizontalSlownessUsed><backazimuthUsed>false</backazimuthUsed><weight>1</weight></arrival><arrival><pickID>de.gempa.tb1.Pick/20250414182704.499456.140171</pickID><phase>P</phase><azimuth>287.9246520996094</azimuth><distance>2.417167663574219</distance><timeResidual>0.19832229614257812</timeResidual><timeUsed>true</timeUsed><horizontalSlownessUsed>false</horizontalSlownessUsed><backazimuthUsed>false</backazimuthUsed><weight>1</weight></arrival><arrival><pickID>de.gempa.tb1.Pick/20250414182708.515343.140173</pickID><phase>P</phase><azimuth>299.3731384277344</azimuth><distance>2.8445842266082764</distance><timeResidual>0.009906768798828125</timeResidual><timeUsed>true</timeUsed><horizontalSlownessUsed>false</horizontalSlownessUsed><backazimuthUsed>false</backazimuthUsed><weight>1</weight></arrival><arrival><pickID>de.gempa.tb1.Pick/20250414182710.373974.140175</pickID><phase>P</phase><azimuth>309.47344970703125</azimuth><distance>2.6016480922698975</distance><timeResidual>0.4683685302734375</timeResidual><timeUsed>true</timeUsed><horizontalSlownessUsed>false</horizontalSlownessUsed><backazimuthUsed>false</backazimuthUsed><weight>1</weight></arrival><arrival><pickID>de.gempa.tb1.Pick/20250414182712.177077.140177</pickID><phase>P</phase><azimuth>268.5865478515625</azimuth><distance>3.188514709472656</distance><timeResidual>0.22222900390625</timeResidual><timeUsed>true</timeUsed><horizontalSlownessUsed>false</horizontalSlownessUsed><backazimuthUsed>false</backazimuthUsed><weight>1</weight></arrival><arrival><pickID>de.gempa.tb1.Pick/20250414182715.572617.140179</pickID><phase>P</phase><azimuth>316.8699035644531</azimuth><distance>3.2884678840637207</distance><timeResidual>-0.06745147705078125</timeResidual><timeUsed>true</timeUsed><horizontalSlownessUsed>false</horizontalSlownessUsed><backazimuthUsed>false</backazimuthUsed><weight>1</weight></arrival><arrival><pickID>de.gempa.tb1.Pick/20250414182717.537657.140181</pickID><phase>P</phase><azimuth>308.9006042480469</azimuth><distance>3.3729119300842285</distance><timeResidual>-0.04315948486328125</timeResidual><timeUsed>true</timeUsed><horizontalSlownessUsed>false</horizontalSlownessUsed><backazimuthUsed>false</backazimuthUsed><weight>1</weight></arrival><arrival><pickID>de.gempa.tb1.Pick/20250414182721.298313.140183</pickID><phase>P</phase><azimuth>303.298828125</azimuth><distance>3.120649576187134</distance><timeResidual>0.0028076171875</timeResidual><timeUsed>true</timeUsed><horizontalSlownessUsed>false</horizontalSlownessUsed><backazimuthUsed>false</backazimuthUsed><weight>1</weight></arrival><arrival><pickID>de.gempa.tb1.Pick/20250414182725.305495.140185</pickID><phase>P</phase><azimuth>312.24102783203125</azimuth><distance>3.8824737071990967</distance><timeResidual>0.5490264892578125</timeResidual><timeUsed>true</timeUsed><horizontalSlownessUsed>false</horizontalSlownessUsed><backazimuthUsed>false</backazimuthUsed><weight>1</weight></arrival><arrival><pickID>de.gempa.tb1.Pick/20250414182731.781943.140187</pickID><phase>P</phase><azimuth>323.1430358886719</azimuth><distance>4.78433084487915</distance><timeResidual>-0.8788261413574219</timeResidual><timeUsed>true</timeUsed><horizontalSlownessUsed>false</horizontalSlownessUsed><backazimuthUsed>false</backazimuthUsed><weight>1</weight></arrival><arrival><pickID>de.gempa.tb1.Pick/20250414182737.564655.140190</pickID><phase>S</phase><azimuth>257.5760192871094</azimuth><distance>2.0705170631408691</distance><timeResidual>-0.3356819152832031</timeResidual><timeUsed>true</timeUsed><horizontalSlownessUsed>false</horizontalSlownessUsed><backazimuthUsed>false</backazimuthUsed><weight>1</weight></arrival><arrival><pickID>de.gempa.tb1.Pick/20250414182748.603499.140193</pickID><phase>S</phase><azimuth>287.9246520996094</azimuth><distance>2.417167663574219</distance><timeResidual>0.3824424743652344</timeResidual><timeUsed>true</timeUsed><horizontalSlownessUsed>false</horizontalSlownessUsed><backazimuthUsed>false</backazimuthUsed><weight>1</weight></arrival><arrival><pickID>de.gempa.tb1.Pick/20250414182752.570551.140194</pickID><phase>S</phase><azimuth>299.3731384277344</azimuth><distance>2.8445842266082764</distance><timeResidual>-0.2785606384277344</timeResidual><timeUsed>true</timeUsed><horizontalSlownessUsed>false</horizontalSlownessUsed><backazimuthUsed>false</backazimuthUsed><weight>1</weight></arrival><arrival><pickID>de.gempa.tb1.Pick/20250414182800.584345.140197</pickID><phase>S</phase><azimuth>316.8699035644531</azimuth><distance>3.2884678840637207</distance><timeResidual>0.0222625732421875</timeResidual><timeUsed>true</timeUsed><horizontalSlownessUsed>false</horizontalSlownessUsed><backazimuthUsed>false</backazimuthUsed><weight>1</weight></arrival><magnitude publicID="de.gempa.tb1.Magnitude/20250414182812.595041.527832"><magnitude><value>2.7247992608351663</value></magnitude><type>M</type><methodID>weighted average</methodID><stationCount>7</stationCount></magnitude></origin><event publicID="gempa2025hjrd"><preferredOriginID>de.gempa.tb1.Origin/20250414182801.551436.147134</preferredOriginID><preferredMagnitudeID>de.gempa.tb1.Magnitude/20250414182812.595041.527832</preferredMagnitudeID><description><text>Chile-Argentina Border Region</text><type>region name</type></description><originReference>de.gempa.tb1.Origin/20250414182801.551436.147134</originReference></event></EventParameters></seiscomp>