<?xml version="1.0" encoding="UTF-8"?>
<seiscomp xmlns="http://geofon.gfz-potsdam.de/ns/seiscomp3-schema/0.13" version="0.13"><EventParameters><pick publicID="de.gempa.tb1.Pick/20250414121748.713754.137924"><time><value>2025-04-14T12:17:42.928393Z</value></time><waveformID networkCode="CX" stationCode="PB01" channelCode="HHZ"/><filterID>ITAPER(4)&gt;&gt;BW(4,4,20)</filterID><methodID>AIC</methodID><horizontalSlowness><value>11.152416025856093</value></horizontalSlowness><backazimuth><value>9.520989334675022</value></backazimuth><phaseHint>P</phaseHint><evaluationMode>automatic</evaluationMode><comment><text>14.789500199093537</text><id>DFX:rectilinearity</id></comment><comment><text>46.73800856498759</text><id>SNR</id></comment></pick><pick publicID="de.gempa.tb1.Pick/20250414121750.532959.137926"><time><value>2025-04-14T12:17:46.088394Z</value></time><waveformID networkCode="CX" stationCode="PB02" channelCode="HHZ"/><filterID>ITAPER(4)&gt;&gt;BW(4,4,20)</filterID><methodID>AIC</methodID><horizontalSlowness><value>5.518031421079938</value></horizontalSlowness><backazimuth><value>340.139111383189</value></backazimuth><phaseHint>P</phaseHint><evaluationMode>automatic</evaluationMode><comment><text>26.906167608988223</text><id>DFX:rectilinearity</id></comment><comment><text>56.78856197300723</text><id>SNR</id></comment></pick><pick publicID="de.gempa.tb1.Pick/20250414121751.58.137928"><time><value>2025-04-14T12:17:45.798393Z</value></time><waveformID networkCode="CX" stationCode="PB03" channelCode="HHZ"/><filterID>ITAPER(4)&gt;&gt;BW(4,4,20)</filterID><methodID>AIC</methodID><horizontalSlowness><value>14.80059386566884</value></horizontalSlowness><backazimuth><value>243.232413706994</value></backazimuth><phaseHint>P</phaseHint><evaluationMode>automatic</evaluationMode><comment><text>2.94950236013657</text><id>DFX:rectilinearity</id></comment><comment><text>12.542231367969734</text><id>SNR</id></comment></pick><pick publicID="de.gempa.tb1.Pick/20250414121752.15914.137930"><time><value>2025-04-14T12:17:41.190001Z</value></time><waveformID networkCode="CX" stationCode="PB09" channelCode="HHZ"/><filterID>ITAPER(4)&gt;&gt;BW(4,4,20)</filterID><methodID>AIC</methodID><horizontalSlowness><value>16.936571458250516</value></horizontalSlowness><backazimuth><value>74.0601395044903</value></backazimuth><phaseHint>P</phaseHint><evaluationMode>automatic</evaluationMode><comment><text>22.60544500096601</text><id>DFX:rectilinearity</id></comment><comment><text>29.390207034260644</text><id>SNR</id></comment></pick><pick publicID="de.gempa.tb1.Pick/20250414121756.258612.137932"><time><value>2025-04-14T12:17:50.339999Z</value></time><waveformID networkCode="CX" stationCode="PATCX" channelCode="HHZ"/><filterID>ITAPER(4)&gt;&gt;BW(4,4,20)</filterID><methodID>AIC</methodID><horizontalSlowness><value>21.89661136936137</value></horizontalSlowness><backazimuth><value>104.37127786916342</value></backazimuth><phaseHint>P</phaseHint><evaluationMode>automatic</evaluationMode><comment><text>86.50441992706331</text><id>DFX:rectilinearity</id></comment><comment><text>16.796493864885953</text><id>SNR</id></comment></pick><pick publicID="de.gempa.tb1.Pick/20250414121758.269848.137934"><time><value>2025-04-14T12:17:46.128393Z</value></time><waveformID networkCode="CX" stationCode="PB07" channelCode="HHZ"/><filterID>ITAPER(4)&gt;&gt;BW(4,4,20)</filterID><methodID>AIC</methodID><horizontalSlowness><value>20.57038862792465</value></horizontalSlowness><backazimuth><value>130.24619934679438</value></backazimuth><phaseHint>P</phaseHint><evaluationMode>automatic</evaluationMode><comment><text>77.97260066296954</text><id>DFX:rectilinearity</id></comment><comment><text>46.56655618698237</text><id>SNR</id></comment></pick><pick publicID="de.gempa.tb1.Pick/20250414121806.535517.137936"><time><value>2025-04-14T12:17:57.88Z</value></time><waveformID networkCode="CX" stationCode="PSGCX" channelCode="HHZ"/><filterID>ITAPER(4)&gt;&gt;BW(4,4,20)</filterID><methodID>AIC</methodID><horizontalSlowness><value>15.368615447074777</value></horizontalSlowness><backazimuth><value>308.0738561564588</value></backazimuth><phaseHint>P</phaseHint><evaluationMode>automatic</evaluationMode><comment><text>10.965008663166529</text><id>DFX:rectilinearity</id></comment><comment><text>12.57668444151662</text><id>SNR</id></comment></pick><pick publicID="de.gempa.tb1.Pick/20250414121814.49309.137938"><time><value>2025-04-14T12:18:06.078394Z</value></time><waveformID networkCode="CX" stationCode="PB02" channelCode="HHN"/><filterID>ITAPER(2)&gt;&gt;BW(3,3,20)</filterID><methodID>L2-AIC-GRID</methodID><horizontalSlowness><value>19.050206646055418</value></horizontalSlowness><backazimuth><value>6.395271695186494</value></backazimuth><phaseHint>S</phaseHint><evaluationMode>automatic</evaluationMode><comment><text>338.78796982778096</text><id>DFX:rectilinearity</id></comment><comment><text>de.gempa.tb1.Pick/20250414121750.532959.137926</text><id>RefPickID</id></comment><comment><text>5.187758194757092</text><id>SNR</id></comment></pick><pick publicID="de.gempa.tb1.Pick/20250414121814.841359.137939"><time><value>2025-04-14T12:18:05.468393Z</value></time><waveformID networkCode="CX" stationCode="PB03" channelCode="HHN"/><filterID>ITAPER(2)&gt;&gt;BW(3,3,20)</filterID><methodID>L2-AIC-GRID</methodID><horizontalSlowness><value>16.52547587053034</value></horizontalSlowness><backazimuth><value>287.03563920173644</value></backazimuth><phaseHint>S</phaseHint><evaluationMode>automatic</evaluationMode><comment><text>29.121272293536205</text><id>DFX:rectilinearity</id></comment><comment><text>de.gempa.tb1.Pick/20250414121751.58.137928</text><id>RefPickID</id></comment><comment><text>12.047727974299912</text><id>SNR</id></comment></pick><pick publicID="de.gempa.tb1.Pick/20250414121820.435354.137941"><time><value>2025-04-14T12:18:13.519999Z</value></time><waveformID networkCode="CX" stationCode="PATCX" channelCode="HHN"/><filterID>ITAPER(2)&gt;&gt;BW(3,3,20)</filterID><methodID>L2-AIC-GRID</methodID><horizontalSlowness><value>21.854953267814526</value></horizontalSlowness><backazimuth><value>19.714500543543068</value></backazimuth><phaseHint>S</phaseHint><evaluationMode>automatic</evaluationMode><comment><text>129.96638407745377</text><id>DFX:rectilinearity</id></comment><comment><text>de.gempa.tb1.Pick/20250414121756.258612.137932</text><id>RefPickID</id></comment><comment><text>5.103015444762758</text><id>SNR</id></comment></pick><pick publicID="de.gempa.tb1.Pick/20250414121827.353337.137943"><time><value>2025-04-14T12:18:05.988393Z</value></time><waveformID networkCode="CX" stationCode="PB07" channelCode="HHN"/><filterID>ITAPER(2)&gt;&gt;BW(3,3,20)</filterID><methodID>L2-AIC-GRID</methodID><horizontalSlowness><value>22.44091044792571</value></horizontalSlowness><backazimuth><value>319.31526314198214</value></backazimuth><phaseHint>S</phaseHint><evaluationMode>automatic</evaluationMode><comment><text>1132.113308792822</text><id>DFX:rectilinearity</id></comment><comment><text>de.gempa.tb1.Pick/20250414121758.269848.137934</text><id>RefPickID</id></comment><comment><text>10.685041021971747</text><id>SNR</id></comment></pick><origin publicID="de.gempa.tb1.Origin/20250414121827.3569.137223"><time><value>2025-04-14T12:17:19.814551Z</value><uncertainty>1.1232352256774902</uncertainty></time><latitude><value>-21.46640968322754</value><uncertainty>8.233513832092285</uncertainty></latitude><longitude><value>-68.53265380859375</value><uncertainty>14.925917625427246</uncertainty></longitude><depth><value>134.0530548095703</value><uncertainty>21.863574981689453</uncertainty></depth><depthType>from location</depthType><methodID>LOCSAT</methodID><earthModelID>iasp91_scanloc</earthModelID><quality><associatedPhaseCount>11</associatedPhaseCount><usedPhaseCount>11</usedPhaseCount><associatedStationCount>7</associatedStationCount><usedStationCount>7</usedStationCount><depthPhaseCount>0</depthPhaseCount><standardError>0.3798663101676723</standardError><azimuthalGap>281.72215270996094</azimuthalGap><maximumDistance>2.3833489418029785</maximumDistance><minimumDistance>0.7370907068252563</minimumDistance><medianDistance>1.2789162397384644</medianDistance></quality><uncertainty><minHorizontalUncertainty>14.03244686126709</minHorizontalUncertainty><maxHorizontalUncertainty>33.74965286254883</maxHorizontalUncertainty><azimuthMaxHorizontalUncertainty>69.57249450683594</azimuthMaxHorizontalUncertainty><preferredDescription>horizontal uncertainty</preferredDescription></uncertainty><evaluationMode>automatic</evaluationMode><evaluationStatus>confirmed</evaluationStatus><comment><text>0.10</text><id>mismatchScore</id></comment><comment><text>mismatchScore</text><id>scevalMethod</id></comment><arrival><pickID>de.gempa.tb1.Pick/20250414121748.713754.137924</pickID><phase>P</phase><azimuth>295.1331787109375</azimuth><distance>0.9851076602935791</distance><timeResidual>-0.05488967895507812</timeResidual><timeUsed>true</timeUsed><horizontalSlownessUsed>false</horizontalSlownessUsed><backazimuthUsed>false</backazimuthUsed><weight>1</weight></arrival><arrival><pickID>de.gempa.tb1.Pick/20250414121750.532959.137926</pickID><phase>P</phase><azimuth>276.30560302734375</azimuth><distance>1.2789162397384644</distance><timeResidual>0.23853302001953125</timeResidual><timeUsed>true</timeUsed><horizontalSlownessUsed>false</horizontalSlownessUsed><backazimuthUsed>false</backazimuthUsed><weight>1</weight></arrival><arrival><pickID>de.gempa.tb1.Pick/20250414121751.58.137928</pickID><phase>P</phase><azimuth>242.73008728027344</azimuth><distance>1.2738382816314697</distance><timeResidual>0.005695343017578125</timeResidual><timeUsed>true</timeUsed><horizontalSlownessUsed>false</horizontalSlownessUsed><backazimuthUsed>false</backazimuthUsed><weight>1</weight></arrival><arrival><pickID>de.gempa.tb1.Pick/20250414121752.15914.137930</pickID><phase>P</phase><azimuth>243.4166564941406</azimuth><distance>0.7370907068252563</distance><timeResidual>0.2788543701171875</timeResidual><timeUsed>true</timeUsed><horizontalSlownessUsed>false</horizontalSlownessUsed><backazimuthUsed>false</backazimuthUsed><weight>1</weight></arrival><arrival><pickID>de.gempa.tb1.Pick/20250414121756.258612.137932</pickID><phase>P</phase><azimuth>292.7237548828125</azimuth><distance>1.6432554721832275</distance><timeResidual>0.5043277740478516</timeResidual><timeUsed>true</timeUsed><horizontalSlownessUsed>false</horizontalSlownessUsed><backazimuthUsed>false</backazimuthUsed><weight>1</weight></arrival><arrival><pickID>de.gempa.tb1.Pick/20250414121758.269848.137934</pickID><phase>P</phase><azimuth>258.1346435546875</azimuth><distance>1.285986304283142</distance><timeResidual>0.207733154296875</timeResidual><timeUsed>true</timeUsed><horizontalSlownessUsed>false</horizontalSlownessUsed><backazimuthUsed>false</backazimuthUsed><weight>1</weight></arrival><arrival><pickID>de.gempa.tb1.Pick/20250414121806.535517.137936</pickID><phase>P</phase><azimuth>321.0079345703125</azimuth><distance>2.3833489418029785</distance><timeResidual>-0.8739547729492188</timeResidual><timeUsed>true</timeUsed><horizontalSlownessUsed>false</horizontalSlownessUsed><backazimuthUsed>false</backazimuthUsed><weight>1</weight></arrival><arrival><pickID>de.gempa.tb1.Pick/20250414121814.49309.137938</pickID><phase>S</phase><azimuth>276.30560302734375</azimuth><distance>1.2789162397384644</distance><timeResidual>0.025257110595703125</timeResidual><timeUsed>true</timeUsed><horizontalSlownessUsed>false</horizontalSlownessUsed><backazimuthUsed>false</backazimuthUsed><weight>1</weight></arrival><arrival><pickID>de.gempa.tb1.Pick/20250414121814.841359.137939</pickID><phase>S</phase><azimuth>242.73008728027344</azimuth><distance>1.2738382816314697</distance><timeResidual>-0.4831466674804688</timeResidual><timeUsed>true</timeUsed><horizontalSlownessUsed>false</horizontalSlownessUsed><backazimuthUsed>false</backazimuthUsed><weight>1</weight></arrival><arrival><pickID>de.gempa.tb1.Pick/20250414121820.435354.137941</pickID><phase>S</phase><azimuth>292.7237548828125</azimuth><distance>1.6432554721832275</distance><timeResidual>0.3428230285644531</timeResidual><timeUsed>true</timeUsed><horizontalSlownessUsed>false</horizontalSlownessUsed><backazimuthUsed>false</backazimuthUsed><weight>1</weight></arrival><arrival><pickID>de.gempa.tb1.Pick/20250414121827.353337.137943</pickID><phase>S</phase><azimuth>258.1346435546875</azimuth><distance>1.285986304283142</distance><timeResidual>-0.19153785705566406</timeResidual><timeUsed>true</timeUsed><horizontalSlownessUsed>false</horizontalSlownessUsed><backazimuthUsed>false</backazimuthUsed><weight>1</weight></arrival><magnitude publicID="de.gempa.tb1.Magnitude/20250414121830.938236.486821"><magnitude><value>2.209888131321129</value></magnitude><type>M</type><methodID>weighted average</methodID><stationCount>3</stationCount></magnitude></origin><event publicID="gempa2025hjev"><preferredOriginID>de.gempa.tb1.Origin/20250414121827.3569.137223</preferredOriginID><preferredMagnitudeID>de.gempa.tb1.Magnitude/20250414121830.938236.486821</preferredMagnitudeID><description><text>Chile-Bolivia Border Region</text><type>region name</type></description><originReference>de.gempa.tb1.Origin/20250414121827.3569.137223</originReference></event></EventParameters></seiscomp>