<?xml version="1.0" encoding="UTF-8"?>
<seiscomp xmlns="http://geofon.gfz-potsdam.de/ns/seiscomp3-schema/0.13" version="0.13"><EventParameters><pick publicID="de.gempa.tb1.Pick/20250415033604.521703.143241"><time><value>2025-04-15T03:35:59.948393Z</value></time><waveformID networkCode="CX" stationCode="PB03" channelCode="HHZ"/><filterID>ITAPER(4)&gt;&gt;BW(4,4,20)</filterID><methodID>AIC</methodID><horizontalSlowness><value>9.516286841064078</value></horizontalSlowness><backazimuth><value>260.34258461889806</value></backazimuth><phaseHint>P</phaseHint><evaluationMode>automatic</evaluationMode><comment><text>11.145060582209158</text><id>DFX:rectilinearity</id></comment><comment><text>7.343650652486265</text><id>SNR</id></comment></pick><pick publicID="de.gempa.tb1.Pick/20250415033607.329078.143243"><time><value>2025-04-15T03:35:57.97Z</value></time><waveformID networkCode="CX" stationCode="PB09" channelCode="HHZ"/><filterID>ITAPER(4)&gt;&gt;BW(4,4,20)</filterID><methodID>AIC</methodID><horizontalSlowness><value>11.815783432306484</value></horizontalSlowness><backazimuth><value>256.2979957018144</value></backazimuth><phaseHint>P</phaseHint><evaluationMode>automatic</evaluationMode><comment><text>13.277595217413667</text><id>DFX:rectilinearity</id></comment><comment><text>8.166467998536586</text><id>SNR</id></comment></pick><pick publicID="de.gempa.tb1.Pick/20250415033607.638689.143245"><time><value>2025-04-15T03:36:01.61Z</value></time><waveformID networkCode="CX" stationCode="PSGCX" channelCode="HHZ"/><filterID>ITAPER(4)&gt;&gt;BW(4,4,20)</filterID><methodID>AIC</methodID><horizontalSlowness><value>5.215067863169394</value></horizontalSlowness><backazimuth><value>221.0111275032784</value></backazimuth><phaseHint>P</phaseHint><evaluationMode>automatic</evaluationMode><comment><text>15.34799591738554</text><id>DFX:rectilinearity</id></comment><comment><text>11.90646776811007</text><id>SNR</id></comment></pick><pick publicID="de.gempa.tb1.Pick/20250415033615.566549.143247"><time><value>2025-04-15T03:36:09.5Z</value></time><waveformID networkCode="CX" stationCode="PB19" channelCode="HHZ"/><filterID>ITAPER(4)&gt;&gt;BW(4,4,20)</filterID><methodID>AIC</methodID><horizontalSlowness><value>8.404975838714256</value></horizontalSlowness><backazimuth><value>251.15389391140826</value></backazimuth><phaseHint>P</phaseHint><evaluationMode>automatic</evaluationMode><comment><text>25.56493480895569</text><id>DFX:rectilinearity</id></comment><comment><text>7.104437958613378</text><id>SNR</id></comment></pick><pick publicID="de.gempa.tb1.Pick/20250415033619.581543.143249"><time><value>2025-04-15T03:36:09.99Z</value></time><waveformID networkCode="CX" stationCode="PB10" channelCode="HHZ"/><filterID>ITAPER(4)&gt;&gt;BW(4,4,20)</filterID><methodID>AIC</methodID><horizontalSlowness><value>13.170972168603495</value></horizontalSlowness><backazimuth><value>145.19734972173586</value></backazimuth><phaseHint>P</phaseHint><evaluationMode>automatic</evaluationMode><comment><text>121.63509698656425</text><id>DFX:rectilinearity</id></comment><comment><text>5.15452775555051</text><id>SNR</id></comment></pick><pick publicID="de.gempa.tb1.Pick/20250415033626.446495.143253"><time><value>2025-04-15T03:36:02.138393Z</value></time><waveformID networkCode="CX" stationCode="PB07" channelCode="HHZ"/><filterID>ITAPER(4)&gt;&gt;BW(4,4,20)</filterID><methodID>AIC</methodID><horizontalSlowness><value>21.82888084450294</value></horizontalSlowness><backazimuth><value>283.9549334793142</value></backazimuth><phaseHint>P</phaseHint><evaluationMode>automatic</evaluationMode><comment><text>298.48945643296065</text><id>DFX:rectilinearity</id></comment><comment><text>22.585842371440155</text><id>SNR</id></comment></pick><origin publicID="de.gempa.tb1.Origin/20250415033627.058241.159809"><time><value>2025-04-15T03:34:54.647033Z</value><uncertainty>5.871129989624023</uncertainty></time><latitude><value>-20.716964721679688</value><uncertainty>18.513479232788086</uncertainty></latitude><longitude><value>-68.17535400390625</value><uncertainty>50.42620468139648</uncertainty></longitude><depth><value>513.26416015625</value><uncertainty>52.9949951171875</uncertainty></depth><depthType>from location</depthType><methodID>LOCSAT</methodID><earthModelID>iasp91_scanloc</earthModelID><quality><associatedPhaseCount>6</associatedPhaseCount><usedPhaseCount>6</usedPhaseCount><associatedStationCount>6</associatedStationCount><usedStationCount>6</usedStationCount><depthPhaseCount>0</depthPhaseCount><standardError>0.899730630199596</standardError><azimuthalGap>256.8263702392578</azimuthalGap><maximumDistance>3.550943613052368</maximumDistance><minimumDistance>1.464023232460022</minimumDistance><medianDistance>2.142265796661377</medianDistance></quality><uncertainty><minHorizontalUncertainty>33.59403610229492</minHorizontalUncertainty><maxHorizontalUncertainty>110.222900390625</maxHorizontalUncertainty><azimuthMaxHorizontalUncertainty>78.3606185913086</azimuthMaxHorizontalUncertainty><preferredDescription>horizontal uncertainty</preferredDescription></uncertainty><evaluationMode>automatic</evaluationMode><comment><text>0.69</text><id>mismatchScore</id></comment><arrival><pickID>de.gempa.tb1.Pick/20250415033604.521703.143241</pickID><phase>P</phase><azimuth>227.6960754394531</azimuth><distance>1.9792732000350952</distance><timeResidual>-0.8972702026367188</timeResidual><timeUsed>true</timeUsed><horizontalSlownessUsed>false</horizontalSlownessUsed><backazimuthUsed>false</backazimuthUsed><weight>1</weight></arrival><arrival><pickID>de.gempa.tb1.Pick/20250415033607.329078.143243</pickID><phase>P</phase><azimuth>222.61688232421875</azimuth><distance>1.464023232460022</distance><timeResidual>-0.711669921875</timeResidual><timeUsed>true</timeUsed><horizontalSlownessUsed>false</horizontalSlownessUsed><backazimuthUsed>false</backazimuthUsed><weight>1</weight></arrival><arrival><pickID>de.gempa.tb1.Pick/20250415033607.638689.143245</pickID><phase>P</phase><azimuth>300.99774169921875</azimuth><distance>2.142265796661377</distance><timeResidual>-0.084320068359375</timeResidual><timeUsed>true</timeUsed><horizontalSlownessUsed>false</horizontalSlownessUsed><backazimuthUsed>false</backazimuthUsed><weight>1</weight></arrival><arrival><pickID>de.gempa.tb1.Pick/20250415033615.566549.143247</pickID><phase>P</phase><azimuth>197.82411193847656</azimuth><distance>3.336395263671875</distance><timeResidual>0.5203094482421875</timeResidual><timeUsed>true</timeUsed><horizontalSlownessUsed>false</horizontalSlownessUsed><backazimuthUsed>false</backazimuthUsed><weight>1</weight></arrival><arrival><pickID>de.gempa.tb1.Pick/20250415033619.581543.143249</pickID><phase>P</phase><azimuth>217.9615478515625</azimuth><distance>3.550943613052368</distance><timeResidual>-0.5492820739746094</timeResidual><timeUsed>true</timeUsed><horizontalSlownessUsed>false</horizontalSlownessUsed><backazimuthUsed>false</backazimuthUsed><weight>1</weight></arrival><arrival><pickID>de.gempa.tb1.Pick/20250415033626.446495.143253</pickID><phase>P</phase><azimuth>237.5067138671875</azimuth><distance>1.886044979095459</distance><timeResidual>1.7222023010253906</timeResidual><timeUsed>true</timeUsed><horizontalSlownessUsed>false</horizontalSlownessUsed><backazimuthUsed>false</backazimuthUsed><weight>1</weight></arrival><magnitude publicID="de.gempa.tb1.Magnitude/20250415033736.96668.567539"><magnitude><value>2.31023288221044</value></magnitude><type>M</type><methodID>weighted average</methodID><stationCount>1</stationCount></magnitude></origin><event publicID="gempa2025hkjl"><preferredOriginID>de.gempa.tb1.Origin/20250415033627.058241.159809</preferredOriginID><preferredMagnitudeID>de.gempa.tb1.Magnitude/20250415033736.96668.567539</preferredMagnitudeID><description><text>Chile-Bolivia Border Region</text><type>region name</type></description><originReference>de.gempa.tb1.Origin/20250415033627.058241.159809</originReference></event></EventParameters></seiscomp>