<?xml version="1.0" encoding="UTF-8"?>
<seiscomp xmlns="http://geofon.gfz-potsdam.de/ns/seiscomp3-schema/0.13" version="0.13"><EventParameters><pick publicID="de.gempa.tb1.Pick/20250414175724.458854.139888"><time><value>2025-04-14T17:57:16.749999Z</value></time><waveformID networkCode="CX" stationCode="PATCX" channelCode="HHZ"/><filterID>ITAPER(4)&gt;&gt;BW(4,4,20)</filterID><methodID>AIC</methodID><horizontalSlowness><value>10.1805254188288</value></horizontalSlowness><backazimuth><value>131.29626832300326</value></backazimuth><phaseHint>P</phaseHint><evaluationMode>automatic</evaluationMode><comment><text>355.96949156443094</text><id>DFX:rectilinearity</id></comment><comment><text>33.960604364793063</text><id>SNR</id></comment></pick><pick publicID="de.gempa.tb1.Pick/20250414175724.509489.139890"><time><value>2025-04-14T17:57:20.188393Z</value></time><waveformID networkCode="CX" stationCode="PB01" channelCode="HHZ"/><filterID>ITAPER(4)&gt;&gt;BW(4,4,20)</filterID><methodID>AIC</methodID><horizontalSlowness><value>19.760063268114713</value></horizontalSlowness><backazimuth><value>324.52360846985084</value></backazimuth><phaseHint>P</phaseHint><evaluationMode>automatic</evaluationMode><comment><text>934.3677949992551</text><id>DFX:rectilinearity</id></comment><comment><text>295.3675971702449</text><id>SNR</id></comment></pick><pick publicID="de.gempa.tb1.Pick/20250414175727.697785.139892"><time><value>2025-04-14T17:57:22.408393Z</value></time><waveformID networkCode="CX" stationCode="PB08" channelCode="HHZ"/><filterID>ITAPER(4)&gt;&gt;BW(4,4,20)</filterID><methodID>AIC</methodID><horizontalSlowness><value>14.62011192212528</value></horizontalSlowness><backazimuth><value>91.4645120852871</value></backazimuth><phaseHint>P</phaseHint><evaluationMode>automatic</evaluationMode><comment><text>17.744373706286243</text><id>DFX:rectilinearity</id></comment><comment><text>10.365382598402578</text><id>SNR</id></comment></pick><pick publicID="de.gempa.tb1.Pick/20250414175730.590568.139894"><time><value>2025-04-14T17:57:23.398393Z</value></time><waveformID networkCode="CX" stationCode="PB02" channelCode="HHZ"/><filterID>ITAPER(4)&gt;&gt;BW(4,4,20)</filterID><methodID>AIC</methodID><horizontalSlowness><value>15.319595235300506</value></horizontalSlowness><backazimuth><value>45.4088763432471</value></backazimuth><phaseHint>P</phaseHint><evaluationMode>automatic</evaluationMode><comment><text>253.10378702273815</text><id>DFX:rectilinearity</id></comment><comment><text>139.09879820901335</text><id>SNR</id></comment></pick><pick publicID="de.gempa.tb1.Pick/20250414175733.820226.139896"><time><value>2025-04-14T17:57:25.96Z</value></time><waveformID networkCode="CX" stationCode="PSGCX" channelCode="HHZ"/><filterID>ITAPER(4)&gt;&gt;BW(4,4,20)</filterID><methodID>AIC</methodID><horizontalSlowness><value>10.21440251786059</value></horizontalSlowness><backazimuth><value>175.42933433918728</value></backazimuth><phaseHint>P</phaseHint><evaluationMode>automatic</evaluationMode><comment><text>8.053300169240677</text><id>DFX:rectilinearity</id></comment><comment><text>155.2877440952426</text><id>SNR</id></comment></pick><pick publicID="de.gempa.tb1.Pick/20250414175738.460181.139900"><time><value>2025-04-14T17:57:23.419999Z</value></time><waveformID networkCode="CX" stationCode="PATCX" channelCode="HHN"/><filterID>ITAPER(2)&gt;&gt;BW(3,3,20)</filterID><methodID>L2-AIC-GRID</methodID><horizontalSlowness><value>20.236015665173998</value></horizontalSlowness><backazimuth><value>110.34013678982366</value></backazimuth><phaseHint>S</phaseHint><evaluationMode>automatic</evaluationMode><comment><text>3122.10158040482</text><id>DFX:rectilinearity</id></comment><comment><text>de.gempa.tb1.Pick/20250414175724.458854.139888</text><id>RefPickID</id></comment><comment><text>7.8029074427776</text><id>SNR</id></comment></pick><pick publicID="de.gempa.tb1.Pick/20250414175741.764434.139901"><time><value>2025-04-14T17:57:36.168393Z</value></time><waveformID networkCode="CX" stationCode="PB03" channelCode="HHZ"/><filterID>ITAPER(4)&gt;&gt;BW(4,4,20)</filterID><methodID>AIC</methodID><horizontalSlowness><value>15.699268514707766</value></horizontalSlowness><backazimuth><value>1.7962894717574898</value></backazimuth><phaseHint>P</phaseHint><evaluationMode>automatic</evaluationMode><comment><text>37.827521204899114</text><id>DFX:rectilinearity</id></comment><comment><text>52.3587411114317</text><id>SNR</id></comment></pick><pick publicID="de.gempa.tb1.Pick/20250414175749.391147.139903"><time><value>2025-04-14T17:57:34.44Z</value></time><waveformID networkCode="CX" stationCode="PB09" channelCode="HHZ"/><filterID>ITAPER(4)&gt;&gt;BW(4,4,20)</filterID><methodID>AIC</methodID><horizontalSlowness><value>18.539915162050502</value></horizontalSlowness><backazimuth><value>58.01837489922225</value></backazimuth><phaseHint>P</phaseHint><evaluationMode>automatic</evaluationMode><comment><text>137.97661528186873</text><id>DFX:rectilinearity</id></comment><comment><text>94.59057751881933</text><id>SNR</id></comment></pick><pick publicID="de.gempa.tb1.Pick/20250414175754.526336.139907"><time><value>2025-04-14T17:57:47.368393Z</value></time><waveformID networkCode="CX" stationCode="PB06" channelCode="HHZ"/><filterID>ITAPER(4)&gt;&gt;BW(4,4,20)</filterID><methodID>AIC</methodID><horizontalSlowness><value>2.1893225853613125</value></horizontalSlowness><backazimuth><value>356.19169757209283</value></backazimuth><phaseHint>P</phaseHint><evaluationMode>automatic</evaluationMode><comment><text>47.0525056705489</text><id>DFX:rectilinearity</id></comment><comment><text>15.040889968569337</text><id>SNR</id></comment></pick><pick publicID="de.gempa.tb1.Pick/20250414175755.533667.139909"><time><value>2025-04-14T17:57:46.658394Z</value></time><waveformID networkCode="CX" stationCode="PB16" channelCode="HHZ"/><filterID>ITAPER(4)&gt;&gt;BW(4,4,20)</filterID><methodID>AIC</methodID><horizontalSlowness><value>19.017085923758039</value></horizontalSlowness><backazimuth><value>222.14048818524452</value></backazimuth><phaseHint>P</phaseHint><evaluationMode>automatic</evaluationMode><comment><text>2.5001616685364585</text><id>DFX:rectilinearity</id></comment><comment><text>9.474870094943039</text><id>SNR</id></comment></pick><origin publicID="de.gempa.tb1.Origin/20250414175755.580734.145791"><time><value>2025-04-14T17:57:08.383235Z</value><uncertainty>0.35756850242614746</uncertainty></time><latitude><value>-20.51113510131836</value><uncertainty>2.5670676231384277</uncertainty></latitude><longitude><value>-69.81459045410156</value><uncertainty>3.3694512844085693</uncertainty></longitude><depth><value>0</value></depth><depthType>operator assigned</depthType><methodID>LOCSAT</methodID><earthModelID>iasp91_scanloc</earthModelID><quality><associatedPhaseCount>10</associatedPhaseCount><usedPhaseCount>10</usedPhaseCount><associatedStationCount>9</associatedStationCount><usedStationCount>9</usedStationCount><depthPhaseCount>0</depthPhaseCount><standardError>0.6241573535549365</standardError><azimuthalGap>116.51394653320312</azimuthalGap><maximumDistance>2.1955726146698</maximumDistance><minimumDistance>0.4418412148952484</minimumDistance><medianDistance>0.9543927311897278</medianDistance></quality><uncertainty><minHorizontalUncertainty>4.993467807769775</minHorizontalUncertainty><maxHorizontalUncertainty>7.588124752044678</maxHorizontalUncertainty><azimuthMaxHorizontalUncertainty>113.9272918701172</azimuthMaxHorizontalUncertainty><preferredDescription>horizontal uncertainty</preferredDescription></uncertainty><evaluationMode>automatic</evaluationMode><evaluationStatus>confirmed</evaluationStatus><comment><text>0.14</text><id>mismatchScore</id></comment><comment><text>mismatchScore</text><id>scevalMethod</id></comment><arrival><pickID>de.gempa.tb1.Pick/20250414175724.458854.139888</pickID><phase>P</phase><azimuth>225.74493408203125</azimuth><distance>0.4418412148952484</distance><timeResidual>-0.10830497741699219</timeResidual><timeUsed>true</timeUsed><horizontalSlownessUsed>false</horizontalSlownessUsed><backazimuthUsed>false</backazimuthUsed><weight>1</weight></arrival><arrival><pickID>de.gempa.tb1.Pick/20250414175724.509489.139890</pickID><phase>P</phase><azimuth>150.0160675048828</azimuth><distance>0.611578643321991</distance><timeResidual>0.07454490661621094</timeResidual><timeUsed>true</timeUsed><horizontalSlownessUsed>false</horizontalSlownessUsed><backazimuthUsed>false</backazimuthUsed><weight>1</weight></arrival><arrival><pickID>de.gempa.tb1.Pick/20250414175727.697785.139892</pickID><phase>P</phase><azimuth>59.4355697631836</azimuth><distance>0.7215012907981873</distance><timeResidual>0.18503570556640625</timeResidual><timeUsed>true</timeUsed><horizontalSlownessUsed>false</horizontalSlownessUsed><backazimuthUsed>false</backazimuthUsed><weight>1</weight></arrival><arrival><pickID>de.gempa.tb1.Pick/20250414175730.590568.139894</pickID><phase>P</phase><azimuth>185.39141845703125</azimuth><distance>0.8081450462341309</distance><timeResidual>-0.48565673828125</timeResidual><timeUsed>true</timeUsed><horizontalSlownessUsed>false</horizontalSlownessUsed><backazimuthUsed>false</backazimuthUsed><weight>1</weight></arrival><arrival><pickID>de.gempa.tb1.Pick/20250414175733.820226.139896</pickID><phase>P</phase><azimuth>342.2588806152344</azimuth><distance>0.9543927311897278</distance><timeResidual>-0.7312297821044922</timeResidual><timeUsed>true</timeUsed><horizontalSlownessUsed>false</horizontalSlownessUsed><backazimuthUsed>false</backazimuthUsed><weight>1</weight></arrival><arrival><pickID>de.gempa.tb1.Pick/20250414175738.460181.139900</pickID><phase>S</phase><azimuth>225.74493408203125</azimuth><distance>0.4418412148952484</distance><timeResidual>0.40760326385498047</timeResidual><timeUsed>true</timeUsed><horizontalSlownessUsed>false</horizontalSlownessUsed><backazimuthUsed>false</backazimuthUsed><weight>1</weight></arrival><arrival><pickID>de.gempa.tb1.Pick/20250414175741.764434.139901</pickID><phase>P</phase><azimuth>177.86398315429688</azimuth><distance>1.5308068990707397</distance><timeResidual>-0.8034954071044922</timeResidual><timeUsed>true</timeUsed><horizontalSlownessUsed>false</horizontalSlownessUsed><backazimuthUsed>false</backazimuthUsed><weight>1</weight></arrival><arrival><pickID>de.gempa.tb1.Pick/20250414175749.391147.139903</pickID><phase>P</phase><azimuth>157.41795349121094</azimuth><distance>1.3860777616500854</distance><timeResidual>-0.4774761199951172</timeResidual><timeUsed>true</timeUsed><horizontalSlownessUsed>false</horizontalSlownessUsed><backazimuthUsed>false</backazimuthUsed><weight>1</weight></arrival><arrival><pickID>de.gempa.tb1.Pick/20250414175754.526336.139907</pickID><phase>P</phase><azimuth>174.13955688476562</azimuth><distance>2.1955726146698</distance><timeResidual>1.247030258178711</timeResidual><timeUsed>true</timeUsed><horizontalSlownessUsed>false</horizontalSlownessUsed><backazimuthUsed>false</backazimuthUsed><weight>1</weight></arrival><arrival><pickID>de.gempa.tb1.Pick/20250414175755.533667.139909</pickID><phase>P</phase><azimuth>7.673079490661621</azimuth><distance>2.1839566230773926</distance><timeResidual>0.6919727325439453</timeResidual><timeUsed>true</timeUsed><horizontalSlownessUsed>false</horizontalSlownessUsed><backazimuthUsed>false</backazimuthUsed><weight>1</weight></arrival><magnitude publicID="de.gempa.tb1.Magnitude/20250414175800.937673.523696"><magnitude><value>2.2351054877952472</value></magnitude><type>M</type><methodID>weighted average</methodID><stationCount>7</stationCount></magnitude></origin><event publicID="gempa2025hjqe"><preferredOriginID>de.gempa.tb1.Origin/20250414175755.580734.145791</preferredOriginID><preferredMagnitudeID>de.gempa.tb1.Magnitude/20250414175800.937673.523696</preferredMagnitudeID><description><text>Northern Chile</text><type>region name</type></description><originReference>de.gempa.tb1.Origin/20250414175755.580734.145791</originReference></event></EventParameters></seiscomp>