<?xml version="1.0" encoding="UTF-8"?>
<seiscomp xmlns="http://geofon.gfz-potsdam.de/ns/seiscomp3-schema/0.13" version="0.13"><EventParameters><pick publicID="de.gempa.tb1.Pick/20250412175722.20884.125751"><time><value>2025-04-12T17:57:16.308393Z</value></time><waveformID networkCode="CX" stationCode="PB08" channelCode="HHZ"/><filterID>ITAPER(4)&gt;&gt;BW(4,4,20)</filterID><methodID>AIC</methodID><horizontalSlowness><value>17.01506466170218</value></horizontalSlowness><backazimuth><value>84.76411942257432</value></backazimuth><phaseHint>P</phaseHint><evaluationMode>automatic</evaluationMode><comment><text>5.215731394354544</text><id>DFX:rectilinearity</id></comment><comment><text>14.694892077564038</text><id>SNR</id></comment></pick><pick publicID="de.gempa.tb1.Pick/20250412175724.590043.125753"><time><value>2025-04-12T17:57:17.518393Z</value></time><waveformID networkCode="CX" stationCode="PB01" channelCode="HHZ"/><filterID>ITAPER(4)&gt;&gt;BW(4,4,20)</filterID><methodID>AIC</methodID><horizontalSlowness><value>13.296928513829032</value></horizontalSlowness><backazimuth><value>11.328416182574244</value></backazimuth><phaseHint>P</phaseHint><evaluationMode>automatic</evaluationMode><comment><text>15.834288000401347</text><id>DFX:rectilinearity</id></comment><comment><text>78.65400985140612</text><id>SNR</id></comment></pick><pick publicID="de.gempa.tb1.Pick/20250412175727.575211.125755"><time><value>2025-04-12T17:57:23.138393Z</value></time><waveformID networkCode="CX" stationCode="PB02" channelCode="HHZ"/><filterID>ITAPER(4)&gt;&gt;BW(4,4,20)</filterID><methodID>AIC</methodID><horizontalSlowness><value>7.563102257156075</value></horizontalSlowness><backazimuth><value>28.90999407898039</value></backazimuth><phaseHint>P</phaseHint><evaluationMode>automatic</evaluationMode><comment><text>30.1771817785054</text><id>DFX:rectilinearity</id></comment><comment><text>31.717962430562846</text><id>SNR</id></comment></pick><pick publicID="de.gempa.tb1.Pick/20250412175734.515415.125757"><time><value>2025-04-12T17:57:25.670001Z</value></time><waveformID networkCode="CX" stationCode="PSGCX" channelCode="HHZ"/><filterID>ITAPER(4)&gt;&gt;BW(4,4,20)</filterID><methodID>AIC</methodID><horizontalSlowness><value>18.847357553384725</value></horizontalSlowness><backazimuth><value>18.20929677592565</value></backazimuth><phaseHint>P</phaseHint><evaluationMode>automatic</evaluationMode><comment><text>18.798648414996556</text><id>DFX:rectilinearity</id></comment><comment><text>40.885505966026585</text><id>SNR</id></comment></pick><pick publicID="de.gempa.tb1.Pick/20250412175734.980138.125759"><time><value>2025-04-12T17:57:26.118393Z</value></time><waveformID networkCode="CX" stationCode="PB07" channelCode="HHZ"/><filterID>ITAPER(4)&gt;&gt;BW(4,4,20)</filterID><methodID>AIC</methodID><horizontalSlowness><value>21.64882544221022</value></horizontalSlowness><backazimuth><value>235.7786556226601</value></backazimuth><phaseHint>P</phaseHint><evaluationMode>automatic</evaluationMode><comment><text>372.8369429358425</text><id>DFX:rectilinearity</id></comment><comment><text>13.724653094095954</text><id>SNR</id></comment></pick><pick publicID="de.gempa.tb1.Pick/20250412175736.05968.125761"><time><value>2025-04-12T17:57:27.828393Z</value></time><waveformID networkCode="CX" stationCode="PB08" channelCode="HHN"/><filterID>ITAPER(2)&gt;&gt;BW(3,3,20)</filterID><methodID>L2-AIC-GRID</methodID><horizontalSlowness><value>14.657387055423367</value></horizontalSlowness><backazimuth><value>214.6709825488785</value></backazimuth><phaseHint>S</phaseHint><evaluationMode>automatic</evaluationMode><comment><text>756.4399557647555</text><id>DFX:rectilinearity</id></comment><comment><text>de.gempa.tb1.Pick/20250412175722.20884.125751</text><id>RefPickID</id></comment><comment><text>15.32077258343207</text><id>SNR</id></comment></pick><pick publicID="de.gempa.tb1.Pick/20250412175738.582627.125762"><time><value>2025-04-12T17:57:30.388393Z</value></time><waveformID networkCode="CX" stationCode="PB01" channelCode="HHN"/><filterID>ITAPER(2)&gt;&gt;BW(3,3,20)</filterID><methodID>L2-AIC-GRID</methodID><horizontalSlowness><value>22.780867466868553</value></horizontalSlowness><backazimuth><value>200.93266540050743</value></backazimuth><phaseHint>S</phaseHint><evaluationMode>automatic</evaluationMode><comment><text>484.0314107217654</text><id>DFX:rectilinearity</id></comment><comment><text>de.gempa.tb1.Pick/20250412175724.590043.125753</text><id>RefPickID</id></comment><comment><text>20.608455335549174</text><id>SNR</id></comment></pick><pick publicID="de.gempa.tb1.Pick/20250412175742.986589.125763"><time><value>2025-04-12T17:57:23.2Z</value></time><waveformID networkCode="CX" stationCode="PB09" channelCode="HHZ"/><filterID>ITAPER(4)&gt;&gt;BW(4,4,20)</filterID><methodID>AIC</methodID><horizontalSlowness><value>11.86724493444629</value></horizontalSlowness><backazimuth><value>336.9360128233817</value></backazimuth><phaseHint>P</phaseHint><evaluationMode>automatic</evaluationMode><comment><text>9.64947207334438</text><id>DFX:rectilinearity</id></comment><comment><text>14.282943977729124</text><id>SNR</id></comment></pick><pick publicID="de.gempa.tb1.Pick/20250412175747.648361.125766"><time><value>2025-04-12T17:57:39.488393Z</value></time><waveformID networkCode="CX" stationCode="PB02" channelCode="HHN"/><filterID>ITAPER(2)&gt;&gt;BW(3,3,20)</filterID><methodID>L2-AIC-GRID</methodID><horizontalSlowness><value>21.36633424535114</value></horizontalSlowness><backazimuth><value>237.3729246864523</value></backazimuth><phaseHint>S</phaseHint><evaluationMode>automatic</evaluationMode><comment><text>7441.996422940791</text><id>DFX:rectilinearity</id></comment><comment><text>de.gempa.tb1.Pick/20250412175727.575211.125755</text><id>RefPickID</id></comment><comment><text>8.852488351201007</text><id>SNR</id></comment></pick><pick publicID="de.gempa.tb1.Pick/20250412175753.565622.125769"><time><value>2025-04-12T17:57:44.990001Z</value></time><waveformID networkCode="CX" stationCode="PSGCX" channelCode="HHN"/><filterID>ITAPER(2)&gt;&gt;BW(3,3,20)</filterID><methodID>L2-AIC-GRID</methodID><horizontalSlowness><value>17.512695920481452</value></horizontalSlowness><backazimuth><value>136.98494277602305</value></backazimuth><phaseHint>S</phaseHint><evaluationMode>automatic</evaluationMode><comment><text>38.181116684050643</text><id>DFX:rectilinearity</id></comment><comment><text>de.gempa.tb1.Pick/20250412175734.515415.125757</text><id>RefPickID</id></comment><comment><text>5.241360672278295</text><id>SNR</id></comment></pick><pick publicID="de.gempa.tb1.Pick/20250412175757.825139.125771"><time><value>2025-04-12T17:57:45.998393Z</value></time><waveformID networkCode="CX" stationCode="PB07" channelCode="HHN"/><filterID>ITAPER(2)&gt;&gt;BW(3,3,20)</filterID><methodID>L2-AIC-GRID</methodID><horizontalSlowness><value>22.63955323976564</value></horizontalSlowness><backazimuth><value>135.67897122775588</value></backazimuth><phaseHint>S</phaseHint><evaluationMode>automatic</evaluationMode><comment><text>738.6183682596268</text><id>DFX:rectilinearity</id></comment><comment><text>de.gempa.tb1.Pick/20250412175734.980138.125759</text><id>RefPickID</id></comment><comment><text>6.574665919383818</text><id>SNR</id></comment></pick><origin publicID="de.gempa.tb1.Origin/20250412175758.182166.88914"><time><value>2025-04-12T17:57:00.594471Z</value><uncertainty>0.9455734491348267</uncertainty></time><latitude><value>-20.549264907836914</value><uncertainty>3.157869338989258</uncertainty></latitude><longitude><value>-69.00563049316406</value><uncertainty>7.193757057189941</uncertainty></longitude><depth><value>99.97171020507812</value><uncertainty>7.058773040771484</uncertainty></depth><depthType>from location</depthType><methodID>LOCSAT</methodID><earthModelID>iasp91_scanloc</earthModelID><quality><associatedPhaseCount>11</associatedPhaseCount><usedPhaseCount>11</usedPhaseCount><associatedStationCount>6</associatedStationCount><usedStationCount>6</usedStationCount><depthPhaseCount>0</depthPhaseCount><standardError>0.40027647622157625</standardError><azimuthalGap>208.9139862060547</azimuthalGap><maximumDistance>1.4311572313308716</maximumDistance><minimumDistance>0.4290879964828491</minimumDistance><medianDistance>1.1315712928771973</medianDistance></quality><uncertainty><minHorizontalUncertainty>6.723118782043457</minHorizontalUncertainty><maxHorizontalUncertainty>15.446046829223633</maxHorizontalUncertainty><azimuthMaxHorizontalUncertainty>93.3200912475586</azimuthMaxHorizontalUncertainty><preferredDescription>horizontal uncertainty</preferredDescription></uncertainty><evaluationMode>automatic</evaluationMode><evaluationStatus>confirmed</evaluationStatus><comment><text>0.05</text><id>mismatchScore</id></comment><comment><text>mismatchScore</text><id>scevalMethod</id></comment><arrival><pickID>de.gempa.tb1.Pick/20250412175722.20884.125751</pickID><phase>P</phase><azimuth>341.12091064453125</azimuth><distance>0.4290879964828491</distance><timeResidual>0.419896125793457</timeResidual><timeUsed>true</timeUsed><horizontalSlownessUsed>false</horizontalSlownessUsed><backazimuthUsed>false</backazimuthUsed><weight>1</weight></arrival><arrival><pickID>de.gempa.tb1.Pick/20250412175724.590043.125753</pickID><phase>P</phase><azimuth>222.44021606445312</azimuth><distance>0.6668867468833923</distance><timeResidual>-0.18544483184814453</timeResidual><timeUsed>true</timeUsed><horizontalSlownessUsed>false</horizontalSlownessUsed><backazimuthUsed>false</backazimuthUsed><weight>1</weight></arrival><arrival><pickID>de.gempa.tb1.Pick/20250412175727.575211.125755</pickID><phase>P</phase><azimuth>227.19615173339844</azimuth><distance>1.1315712928771973</distance><timeResidual>0.6749286651611328</timeResidual><timeUsed>true</timeUsed><horizontalSlownessUsed>false</horizontalSlownessUsed><backazimuthUsed>false</backazimuthUsed><weight>1</weight></arrival><arrival><pickID>de.gempa.tb1.Pick/20250412175734.515415.125757</pickID><phase>P</phase><azimuth>311.8520202636719</azimuth><distance>1.4143669605255127</distance><timeResidual>-0.13059616088867188</timeResidual><timeUsed>true</timeUsed><horizontalSlownessUsed>false</horizontalSlownessUsed><backazimuthUsed>false</backazimuthUsed><weight>1</weight></arrival><arrival><pickID>de.gempa.tb1.Pick/20250412175734.980138.125759</pickID><phase>P</phase><azimuth>214.8982391357422</azimuth><distance>1.4311572313308716</distance><timeResidual>0.123443603515625</timeResidual><timeUsed>true</timeUsed><horizontalSlownessUsed>false</horizontalSlownessUsed><backazimuthUsed>false</backazimuthUsed><weight>1</weight></arrival><arrival><pickID>de.gempa.tb1.Pick/20250412175736.05968.125761</pickID><phase>S</phase><azimuth>341.12091064453125</azimuth><distance>0.4290879964828491</distance><timeResidual>0.19146347045898438</timeResidual><timeUsed>true</timeUsed><horizontalSlownessUsed>false</horizontalSlownessUsed><backazimuthUsed>false</backazimuthUsed><weight>1</weight></arrival><arrival><pickID>de.gempa.tb1.Pick/20250412175738.582627.125762</pickID><phase>S</phase><azimuth>222.44021606445312</azimuth><distance>0.6668867468833923</distance><timeResidual>-0.4793052673339844</timeResidual><timeUsed>true</timeUsed><horizontalSlownessUsed>false</horizontalSlownessUsed><backazimuthUsed>false</backazimuthUsed><weight>1</weight></arrival><arrival><pickID>de.gempa.tb1.Pick/20250412175742.986589.125763</pickID><phase>P</phase><azimuth>190.03489685058594</azimuth><distance>1.2603684663772583</distance><timeResidual>-0.7504234313964844</timeResidual><timeUsed>true</timeUsed><horizontalSlownessUsed>false</horizontalSlownessUsed><backazimuthUsed>false</backazimuthUsed><weight>1</weight></arrival><arrival><pickID>de.gempa.tb1.Pick/20250412175747.648361.125766</pickID><phase>S</phase><azimuth>227.19615173339844</azimuth><distance>1.1315712928771973</distance><timeResidual>0.1334095001220703</timeResidual><timeUsed>true</timeUsed><horizontalSlownessUsed>false</horizontalSlownessUsed><backazimuthUsed>false</backazimuthUsed><weight>1</weight></arrival><arrival><pickID>de.gempa.tb1.Pick/20250412175753.565622.125769</pickID><phase>S</phase><azimuth>311.8520202636719</azimuth><distance>1.4143669605255127</distance><timeResidual>-0.32781982421875</timeResidual><timeUsed>true</timeUsed><horizontalSlownessUsed>false</horizontalSlownessUsed><backazimuthUsed>false</backazimuthUsed><weight>1</weight></arrival><arrival><pickID>de.gempa.tb1.Pick/20250412175757.825139.125771</pickID><phase>S</phase><azimuth>214.8982391357422</azimuth><distance>1.4311572313308716</distance><timeResidual>0.33032989501953125</timeResidual><timeUsed>true</timeUsed><horizontalSlownessUsed>false</horizontalSlownessUsed><backazimuthUsed>false</backazimuthUsed><weight>1</weight></arrival><magnitude publicID="de.gempa.tb1.Magnitude/20250412175817.249847.260672"><magnitude><value>2.510144561902795</value></magnitude><type>M</type><methodID>weighted average</methodID><stationCount>4</stationCount></magnitude></origin><event publicID="gempa2025hfyd"><preferredOriginID>de.gempa.tb1.Origin/20250412175758.182166.88914</preferredOriginID><preferredMagnitudeID>de.gempa.tb1.Magnitude/20250412175817.249847.260672</preferredMagnitudeID><description><text>Northern Chile</text><type>region name</type></description><originReference>de.gempa.tb1.Origin/20250412175758.182166.88914</originReference></event></EventParameters></seiscomp>