<?xml version="1.0" encoding="UTF-8"?>
<seiscomp xmlns="http://geofon.gfz-potsdam.de/ns/seiscomp3-schema/0.13" version="0.13"><EventParameters><pick publicID="de.gempa.tb1.Pick/20250413032350.556841.128574"><time><value>2025-04-13T03:23:42.578394Z</value></time><waveformID networkCode="CX" stationCode="PB01" channelCode="HHZ"/><filterID>ITAPER(4)&gt;&gt;BW(4,4,20)</filterID><methodID>AIC</methodID><horizontalSlowness><value>18.651416798770118</value></horizontalSlowness><backazimuth><value>346.92827500945663</value></backazimuth><phaseHint>P</phaseHint><evaluationMode>automatic</evaluationMode><comment><text>21.101221464789738</text><id>DFX:rectilinearity</id></comment><comment><text>12.693742471682176</text><id>SNR</id></comment></pick><pick publicID="de.gempa.tb1.Pick/20250413032354.688277.128578"><time><value>2025-04-13T03:23:46.398393Z</value></time><waveformID networkCode="CX" stationCode="PB02" channelCode="HHZ"/><filterID>ITAPER(4)&gt;&gt;BW(4,4,20)</filterID><methodID>AIC</methodID><horizontalSlowness><value>17.456211184445898</value></horizontalSlowness><backazimuth><value>308.702727117431</value></backazimuth><phaseHint>P</phaseHint><evaluationMode>automatic</evaluationMode><comment><text>50.72076165467269</text><id>DFX:rectilinearity</id></comment><comment><text>7.203082993590434</text><id>SNR</id></comment></pick><pick publicID="de.gempa.tb1.Pick/20250413032350.594113.128576"><time><value>2025-04-13T03:23:43.5Z</value></time><waveformID networkCode="CX" stationCode="PB09" channelCode="HHZ"/><filterID>ITAPER(4)&gt;&gt;BW(4,4,20)</filterID><methodID>AIC</methodID><horizontalSlowness><value>9.995107543455573</value></horizontalSlowness><backazimuth><value>267.3295009923192</value></backazimuth><phaseHint>P</phaseHint><evaluationMode>automatic</evaluationMode><comment><text>17.18052736429625</text><id>DFX:rectilinearity</id></comment><comment><text>9.309574819633617</text><id>SNR</id></comment></pick><pick publicID="de.gempa.tb1.Pick/20250413032405.58134.128580"><time><value>2025-04-13T03:23:57.548394Z</value></time><waveformID networkCode="CX" stationCode="PB01" channelCode="HHN"/><filterID>ITAPER(2)&gt;&gt;BW(3,3,20)</filterID><methodID>L2-AIC-GRID</methodID><horizontalSlowness><value>20.402935076537155</value></horizontalSlowness><backazimuth><value>149.80999411429522</value></backazimuth><phaseHint>S</phaseHint><evaluationMode>automatic</evaluationMode><comment><text>25.2421165970763</text><id>DFX:rectilinearity</id></comment><comment><text>de.gempa.tb1.Pick/20250413032350.556841.128574</text><id>RefPickID</id></comment><comment><text>5.755554797051416</text><id>SNR</id></comment></pick><pick publicID="de.gempa.tb1.Pick/20250413032409.658915.128582"><time><value>2025-04-13T03:24:03.918393Z</value></time><waveformID networkCode="CX" stationCode="PB02" channelCode="HHN"/><filterID>ITAPER(2)&gt;&gt;BW(3,3,20)</filterID><methodID>L2-AIC-GRID</methodID><horizontalSlowness><value>19.979064681346959</value></horizontalSlowness><backazimuth><value>54.58114259126377</value></backazimuth><phaseHint>S</phaseHint><evaluationMode>automatic</evaluationMode><comment><text>67.60348197645253</text><id>DFX:rectilinearity</id></comment><comment><text>de.gempa.tb1.Pick/20250413032354.688277.128578</text><id>RefPickID</id></comment><comment><text>6.305532569921923</text><id>SNR</id></comment></pick><pick publicID="de.gempa.tb1.Pick/20250413032408.454714.128581"><time><value>2025-04-13T03:23:58.0000Z</value></time><waveformID networkCode="CX" stationCode="PB09" channelCode="HHN"/><filterID>ITAPER(2)&gt;&gt;BW(3,3,20)</filterID><methodID>L2-AIC-GRID</methodID><horizontalSlowness><value>21.513571354863458</value></horizontalSlowness><backazimuth><value>165.95350543585974</value></backazimuth><phaseHint>S</phaseHint><evaluationMode>automatic</evaluationMode><comment><text>43.93958411183037</text><id>DFX:rectilinearity</id></comment><comment><text>de.gempa.tb1.Pick/20250413032350.594113.128576</text><id>RefPickID</id></comment><comment><text>5.009925953227153</text><id>SNR</id></comment></pick><origin publicID="de.gempa.tb1.Origin/20250413032412.523748.99827"><time><value>2025-04-13T03:23:23.867256Z</value><uncertainty>1.4980900287628174</uncertainty></time><latitude><value>-21.185155868530273</value><uncertainty>10.234580039978027</uncertainty></latitude><longitude><value>-68.71875</value><uncertainty>14.02682876586914</uncertainty></longitude><depth><value>112.87600708007812</value><uncertainty>14.062747955322266</uncertainty></depth><depthType>from location</depthType><methodID>LOCSAT</methodID><earthModelID>iasp91_scanloc</earthModelID><quality><associatedPhaseCount>6</associatedPhaseCount><usedPhaseCount>6</usedPhaseCount><associatedStationCount>3</associatedStationCount><usedStationCount>3</usedStationCount><depthPhaseCount>0</depthPhaseCount><standardError>0.1701502582892936</standardError><azimuthalGap>297.60813903808594</azimuthalGap><maximumDistance>1.1063072681427002</maximumDistance><minimumDistance>0.7314258813858032</minimumDistance><medianDistance>0.7793114185333252</medianDistance></quality><uncertainty><minHorizontalUncertainty>16.949695587158203</minHorizontalUncertainty><maxHorizontalUncertainty>33.15692138671875</maxHorizontalUncertainty><azimuthMaxHorizontalUncertainty>60.70211029052734</azimuthMaxHorizontalUncertainty><preferredDescription>horizontal uncertainty</preferredDescription></uncertainty><evaluationMode>automatic</evaluationMode><evaluationStatus>confirmed</evaluationStatus><comment><text>0.00</text><id>mismatchScore</id></comment><comment><text>mismatchScore</text><id>scevalMethod</id></comment><arrival><pickID>de.gempa.tb1.Pick/20250413032350.556841.128574</pickID><phase>P</phase><azimuth>280.9944763183594</azimuth><distance>0.7314258813858032</distance><timeResidual>-0.23242950439453125</timeResidual><timeUsed>true</timeUsed><horizontalSlownessUsed>false</horizontalSlownessUsed><backazimuthUsed>false</backazimuthUsed><weight>1</weight></arrival><arrival><pickID>de.gempa.tb1.Pick/20250413032354.688277.128578</pickID><phase>P</phase><azimuth>262.8359375</azimuth><distance>1.1063072681427002</distance><timeResidual>-0.043613433837890625</timeResidual><timeUsed>true</timeUsed><horizontalSlownessUsed>false</horizontalSlownessUsed><backazimuthUsed>false</backazimuthUsed><weight>1</weight></arrival><arrival><pickID>de.gempa.tb1.Pick/20250413032350.594113.128576</pickID><phase>P</phase><azimuth>218.6026153564453</azimuth><distance>0.7793114185333252</distance><timeResidual>0.27600669860839844</timeResidual><timeUsed>true</timeUsed><horizontalSlownessUsed>false</horizontalSlownessUsed><backazimuthUsed>false</backazimuthUsed><weight>1</weight></arrival><arrival><pickID>de.gempa.tb1.Pick/20250413032405.58134.128580</pickID><phase>S</phase><azimuth>280.9944763183594</azimuth><distance>0.7314258813858032</distance><timeResidual>0.1304454803466797</timeResidual><timeUsed>true</timeUsed><horizontalSlownessUsed>false</horizontalSlownessUsed><backazimuthUsed>false</backazimuthUsed><weight>1</weight></arrival><arrival><pickID>de.gempa.tb1.Pick/20250413032409.658915.128582</pickID><phase>S</phase><azimuth>262.8359375</azimuth><distance>1.1063072681427002</distance><timeResidual>0.0243682861328125</timeResidual><timeUsed>true</timeUsed><horizontalSlownessUsed>false</horizontalSlownessUsed><backazimuthUsed>false</backazimuthUsed><weight>1</weight></arrival><arrival><pickID>de.gempa.tb1.Pick/20250413032408.454714.128581</pickID><phase>S</phase><azimuth>218.6026153564453</azimuth><distance>0.7793114185333252</distance><timeResidual>-0.1548919677734375</timeResidual><timeUsed>true</timeUsed><horizontalSlownessUsed>false</horizontalSlownessUsed><backazimuthUsed>false</backazimuthUsed><weight>1</weight></arrival></origin><event publicID="gempa2025hgra"><preferredOriginID>de.gempa.tb1.Origin/20250413032412.523748.99827</preferredOriginID><description><text>Chile-Bolivia Border Region</text><type>region name</type></description><originReference>de.gempa.tb1.Origin/20250413032412.523748.99827</originReference></event></EventParameters></seiscomp>