<?xml version="1.0" encoding="UTF-8"?>
<seiscomp xmlns="http://geofon.gfz-potsdam.de/ns/seiscomp3-schema/0.13" version="0.13"><EventParameters><pick publicID="de.gempa.tb1.Pick/20250413175803.574712.132919"><time><value>2025-04-13T17:57:56.348393Z</value></time><waveformID networkCode="CX" stationCode="PB01" channelCode="HHZ"/><filterID>ITAPER(4)&gt;&gt;BW(4,4,20)</filterID><methodID>AIC</methodID><horizontalSlowness><value>10.786820055979378</value></horizontalSlowness><backazimuth><value>158.92201495084248</value></backazimuth><phaseHint>P</phaseHint><evaluationMode>automatic</evaluationMode><comment><text>10.864181122858808</text><id>DFX:rectilinearity</id></comment><comment><text>37.679925049071</text><id>SNR</id></comment></pick><pick publicID="de.gempa.tb1.Pick/20250413175803.575124.132921"><time><value>2025-04-13T17:57:57.238393Z</value></time><waveformID networkCode="CX" stationCode="PB03" channelCode="HHZ"/><filterID>ITAPER(4)&gt;&gt;BW(4,4,20)</filterID><methodID>AIC</methodID><horizontalSlowness><value>9.644788151055581</value></horizontalSlowness><backazimuth><value>82.9537357576781</value></backazimuth><phaseHint>P</phaseHint><evaluationMode>automatic</evaluationMode><comment><text>10.24370072358856</text><id>DFX:rectilinearity</id></comment><comment><text>21.68224511585974</text><id>SNR</id></comment></pick><pick publicID="de.gempa.tb1.Pick/20250413175804.465361.132923"><time><value>2025-04-13T17:57:58.998393Z</value></time><waveformID networkCode="CX" stationCode="PB02" channelCode="HHZ"/><filterID>ITAPER(4)&gt;&gt;BW(4,4,20)</filterID><methodID>AIC</methodID><horizontalSlowness><value>23.159215959535274</value></horizontalSlowness><backazimuth><value>246.6936534381194</value></backazimuth><phaseHint>P</phaseHint><evaluationMode>automatic</evaluationMode><comment><text>19.180450848428261</text><id>DFX:rectilinearity</id></comment><comment><text>41.70379721399358</text><id>SNR</id></comment></pick><pick publicID="de.gempa.tb1.Pick/20250413175804.977239.132925"><time><value>2025-04-13T17:57:52.780001Z</value></time><waveformID networkCode="CX" stationCode="PB09" channelCode="HHZ"/><filterID>ITAPER(4)&gt;&gt;BW(4,4,20)</filterID><methodID>AIC</methodID><horizontalSlowness><value>17.144891017154805</value></horizontalSlowness><backazimuth><value>81.08471413566511</value></backazimuth><phaseHint>P</phaseHint><evaluationMode>automatic</evaluationMode><comment><text>20.604046249118834</text><id>DFX:rectilinearity</id></comment><comment><text>37.979944630215527</text><id>SNR</id></comment></pick><pick publicID="de.gempa.tb1.Pick/20250413175808.598566.132927"><time><value>2025-04-13T17:57:59.748393Z</value></time><waveformID networkCode="CX" stationCode="PB06" channelCode="HHZ"/><filterID>ITAPER(4)&gt;&gt;BW(4,4,20)</filterID><methodID>AIC</methodID><horizontalSlowness><value>9.787699644912349</value></horizontalSlowness><backazimuth><value>304.50454429728654</value></backazimuth><phaseHint>P</phaseHint><evaluationMode>automatic</evaluationMode><comment><text>25.27592503288353</text><id>DFX:rectilinearity</id></comment><comment><text>7.784595548284413</text><id>SNR</id></comment></pick><pick publicID="de.gempa.tb1.Pick/20250413175813.377726.132929"><time><value>2025-04-13T17:58:03.829999Z</value></time><waveformID networkCode="CX" stationCode="PATCX" channelCode="HHZ"/><filterID>ITAPER(4)&gt;&gt;BW(4,4,20)</filterID><methodID>AIC</methodID><horizontalSlowness><value>21.237616410780504</value></horizontalSlowness><backazimuth><value>30.26138439359647</value></backazimuth><phaseHint>P</phaseHint><evaluationMode>automatic</evaluationMode><comment><text>220.0227146335565</text><id>DFX:rectilinearity</id></comment><comment><text>12.613657514847823</text><id>SNR</id></comment></pick><pick publicID="de.gempa.tb1.Pick/20250413175820.510688.132931"><time><value>2025-04-13T17:58:14.22Z</value></time><waveformID networkCode="CX" stationCode="PSGCX" channelCode="HHZ"/><filterID>ITAPER(4)&gt;&gt;BW(4,4,20)</filterID><methodID>AIC</methodID><horizontalSlowness><value>4.1774063307352485</value></horizontalSlowness><backazimuth><value>276.58305541046315</value></backazimuth><phaseHint>P</phaseHint><evaluationMode>automatic</evaluationMode><comment><text>14.31859893553226</text><id>DFX:rectilinearity</id></comment><comment><text>5.141319033526287</text><id>SNR</id></comment></pick><pick publicID="de.gempa.tb1.Pick/20250413175822.516106.132933"><time><value>2025-04-13T17:57:58.178391Z</value></time><waveformID networkCode="CX" stationCode="PB07" channelCode="HHZ"/><filterID>ITAPER(4)&gt;&gt;BW(4,4,20)</filterID><methodID>AIC</methodID><horizontalSlowness><value>22.90992418272228</value></horizontalSlowness><backazimuth><value>114.23168616979494</value></backazimuth><phaseHint>P</phaseHint><evaluationMode>automatic</evaluationMode><comment><text>393.02243439347637</text><id>DFX:rectilinearity</id></comment><comment><text>47.72178636908591</text><id>SNR</id></comment></pick><pick publicID="de.gempa.tb1.Pick/20250413175823.727807.132935"><time><value>2025-04-13T17:58:15.938393Z</value></time><waveformID networkCode="CX" stationCode="PB03" channelCode="HHN"/><filterID>ITAPER(2)&gt;&gt;BW(3,3,20)</filterID><methodID>L2-AIC-GRID</methodID><horizontalSlowness><value>9.779062680127451</value></horizontalSlowness><backazimuth><value>190.81321182070866</value></backazimuth><phaseHint>S</phaseHint><evaluationMode>automatic</evaluationMode><comment><text>21.838250787551452</text><id>DFX:rectilinearity</id></comment><comment><text>de.gempa.tb1.Pick/20250413175803.575124.132921</text><id>RefPickID</id></comment><comment><text>5.736918511349325</text><id>SNR</id></comment></pick><pick publicID="de.gempa.tb1.Pick/20250413175826.645326.132936"><time><value>2025-04-13T17:58:20.408393Z</value></time><waveformID networkCode="CX" stationCode="PB06" channelCode="HHN"/><filterID>ITAPER(2)&gt;&gt;BW(3,3,20)</filterID><methodID>L2-AIC-GRID</methodID><horizontalSlowness><value>13.622729266696354</value></horizontalSlowness><backazimuth><value>73.0762913508221</value></backazimuth><phaseHint>S</phaseHint><evaluationMode>automatic</evaluationMode><comment><text>35.786475876712366</text><id>DFX:rectilinearity</id></comment><comment><text>de.gempa.tb1.Pick/20250413175808.598566.132927</text><id>RefPickID</id></comment><comment><text>6.778782900987748</text><id>SNR</id></comment></pick><origin publicID="de.gempa.tb1.Origin/20250413175829.560971.116795"><time><value>2025-04-13T17:57:33.584725Z</value><uncertainty>1.3877164125442505</uncertainty></time><latitude><value>-21.683849334716797</value><uncertainty>6.85611629486084</uncertainty></latitude><longitude><value>-68.54415893554688</value><uncertainty>16.457178115844727</uncertainty></longitude><depth><value>120.08193969726562</value><uncertainty>20.356826782226562</uncertainty></depth><depthType>from location</depthType><methodID>LOCSAT</methodID><earthModelID>iasp91_scanloc</earthModelID><quality><associatedPhaseCount>10</associatedPhaseCount><usedPhaseCount>10</usedPhaseCount><associatedStationCount>8</associatedStationCount><usedStationCount>8</usedStationCount><depthPhaseCount>0</depthPhaseCount><standardError>0.15039468533744418</standardError><azimuthalGap>258.67112731933594</azimuthalGap><maximumDistance>2.548884153366089</maximumDistance><minimumDistance>0.6583196520805359</minimumDistance><medianDistance>1.3100124597549438</medianDistance></quality><uncertainty><minHorizontalUncertainty>14.61995029449463</minHorizontalUncertainty><maxHorizontalUncertainty>35.32046890258789</maxHorizontalUncertainty><azimuthMaxHorizontalUncertainty>87.257568359375</azimuthMaxHorizontalUncertainty><preferredDescription>horizontal uncertainty</preferredDescription></uncertainty><evaluationMode>automatic</evaluationMode><evaluationStatus>confirmed</evaluationStatus><comment><text>0.07</text><id>mismatchScore</id></comment><comment><text>mismatchScore</text><id>scevalMethod</id></comment><arrival><pickID>de.gempa.tb1.Pick/20250413175803.574712.132919</pickID><phase>P</phase><azimuth>305.7720947265625</azimuth><distance>1.0859745740890503</distance><timeResidual>-0.17983436584472656</timeResidual><timeUsed>true</timeUsed><horizontalSlownessUsed>false</horizontalSlownessUsed><backazimuthUsed>false</backazimuthUsed><weight>1</weight></arrival><arrival><pickID>de.gempa.tb1.Pick/20250413175803.575124.132921</pickID><phase>P</phase><azimuth>251.8707733154297</azimuth><distance>1.1801626682281494</distance><timeResidual>-0.2638988494873047</timeResidual><timeUsed>true</timeUsed><horizontalSlownessUsed>false</horizontalSlownessUsed><backazimuthUsed>false</backazimuthUsed><weight>1</weight></arrival><arrival><pickID>de.gempa.tb1.Pick/20250413175804.465361.132923</pickID><phase>P</phase><azimuth>285.80938720703125</azimuth><distance>1.3100124597549438</distance><timeResidual>0.08673667907714844</timeResidual><timeUsed>true</timeUsed><horizontalSlownessUsed>false</horizontalSlownessUsed><backazimuthUsed>false</backazimuthUsed><weight>1</weight></arrival><arrival><pickID>de.gempa.tb1.Pick/20250413175804.977239.132925</pickID><phase>P</phase><azimuth>260.0779113769531</azimuth><distance>0.6583196520805359</distance><timeResidual>0.11983299255371094</timeResidual><timeUsed>true</timeUsed><horizontalSlownessUsed>false</horizontalSlownessUsed><backazimuthUsed>false</backazimuthUsed><weight>1</weight></arrival><arrival><pickID>de.gempa.tb1.Pick/20250413175808.598566.132927</pickID><phase>P</phase><azimuth>222.93040466308594</azimuth><distance>1.3933959007263184</distance><timeResidual>-0.0862579345703125</timeResidual><timeUsed>true</timeUsed><horizontalSlownessUsed>false</horizontalSlownessUsed><backazimuthUsed>false</backazimuthUsed><weight>1</weight></arrival><arrival><pickID>de.gempa.tb1.Pick/20250413175813.377726.132929</pickID><phase>P</phase><azimuth>299.4924011230469</azimuth><distance>1.7290078401565552</distance><timeResidual>0.06419563293457031</timeResidual><timeUsed>true</timeUsed><horizontalSlownessUsed>false</horizontalSlownessUsed><backazimuthUsed>false</backazimuthUsed><weight>1</weight></arrival><arrival><pickID>de.gempa.tb1.Pick/20250413175820.510688.132931</pickID><phase>P</phase><azimuth>324.25927734375</azimuth><distance>2.548884153366089</distance><timeResidual>0.17461585998535156</timeResidual><timeUsed>true</timeUsed><horizontalSlownessUsed>false</horizontalSlownessUsed><backazimuthUsed>false</backazimuthUsed><weight>1</weight></arrival><arrival><pickID>de.gempa.tb1.Pick/20250413175822.516106.132933</pickID><phase>P</phase><azimuth>267.7978515625</azimuth><distance>1.248729944229126</distance><timeResidual>-0.06067466735839844</timeResidual><timeUsed>true</timeUsed><horizontalSlownessUsed>false</horizontalSlownessUsed><backazimuthUsed>false</backazimuthUsed><weight>1</weight></arrival><arrival><pickID>de.gempa.tb1.Pick/20250413175823.727807.132935</pickID><phase>S</phase><azimuth>251.8707733154297</azimuth><distance>1.1801626682281494</distance><timeResidual>-0.07911300659179688</timeResidual><timeUsed>true</timeUsed><horizontalSlownessUsed>false</horizontalSlownessUsed><backazimuthUsed>false</backazimuthUsed><weight>1</weight></arrival><arrival><pickID>de.gempa.tb1.Pick/20250413175826.645326.132936</pickID><phase>S</phase><azimuth>222.93040466308594</azimuth><distance>1.3933959007263184</distance><timeResidual>0.2243366241455078</timeResidual><timeUsed>true</timeUsed><horizontalSlownessUsed>false</horizontalSlownessUsed><backazimuthUsed>false</backazimuthUsed><weight>1</weight></arrival><magnitude publicID="de.gempa.tb1.Magnitude/20250413175907.577306.386033"><magnitude><value>2.3225119808953805</value></magnitude><type>M</type><methodID>weighted average</methodID><stationCount>2</stationCount></magnitude></origin><event publicID="gempa2025hhue"><preferredOriginID>de.gempa.tb1.Origin/20250413175829.560971.116795</preferredOriginID><preferredMagnitudeID>de.gempa.tb1.Magnitude/20250413175907.577306.386033</preferredMagnitudeID><description><text>Chile-Bolivia Border Region</text><type>region name</type></description><originReference>de.gempa.tb1.Origin/20250413175829.560971.116795</originReference></event></EventParameters></seiscomp>