<?xml version="1.0" encoding="UTF-8"?>
<seiscomp xmlns="http://geofon.gfz-potsdam.de/ns/seiscomp3-schema/0.13" version="0.13"><EventParameters><pick publicID="de.gempa.tb1.Pick/20250412095348.213248.123333"><time><value>2025-04-12T09:53:43.45Z</value></time><waveformID networkCode="CX" stationCode="PB10" channelCode="HHZ"/><filterID>ITAPER(4)&gt;&gt;BW(4,4,20)</filterID><methodID>AIC</methodID><horizontalSlowness><value>5.284355129094594</value></horizontalSlowness><backazimuth><value>154.49254723659934</value></backazimuth><phaseHint>P</phaseHint><evaluationMode>automatic</evaluationMode><comment><text>157.05783246353295</text><id>DFX:rectilinearity</id></comment><comment><text>11.429916115760797</text><id>SNR</id></comment></pick><pick publicID="de.gempa.tb1.Pick/20250412095353.621568.123335"><time><value>2025-04-12T09:53:48.39Z</value></time><waveformID networkCode="CX" stationCode="PB19" channelCode="HHZ"/><filterID>ITAPER(4)&gt;&gt;BW(4,4,20)</filterID><methodID>AIC</methodID><horizontalSlowness><value>4.877483527032678</value></horizontalSlowness><backazimuth><value>202.06067395111</value></backazimuth><phaseHint>P</phaseHint><evaluationMode>automatic</evaluationMode><comment><text>323.8078479719421</text><id>DFX:rectilinearity</id></comment><comment><text>100.3918215830311</text><id>SNR</id></comment></pick><pick publicID="de.gempa.tb1.Pick/20250412095359.662135.123337"><time><value>2025-04-12T09:53:53.638393Z</value></time><waveformID networkCode="CX" stationCode="PB15" channelCode="HHZ"/><filterID>ITAPER(4)&gt;&gt;BW(4,4,20)</filterID><methodID>AIC</methodID><horizontalSlowness><value>21.920176283741743</value></horizontalSlowness><backazimuth><value>106.61135382492013</value></backazimuth><phaseHint>P</phaseHint><evaluationMode>automatic</evaluationMode><comment><text>715.9033410137002</text><id>DFX:rectilinearity</id></comment><comment><text>28.84917680987542</text><id>SNR</id></comment></pick><pick publicID="de.gempa.tb1.Pick/20250412095405.662647.123339"><time><value>2025-04-12T09:53:59.518393Z</value></time><waveformID networkCode="CX" stationCode="PB06" channelCode="HHZ"/><filterID>ITAPER(4)&gt;&gt;BW(4,4,20)</filterID><methodID>AIC</methodID><horizontalSlowness><value>10.600674503617164</value></horizontalSlowness><backazimuth><value>114.25782083236166</value></backazimuth><phaseHint>P</phaseHint><evaluationMode>automatic</evaluationMode><comment><text>113.21949067699704</text><id>DFX:rectilinearity</id></comment><comment><text>19.411192914469083</text><id>SNR</id></comment></pick><pick publicID="de.gempa.tb1.Pick/20250412095411.686784.123341"><time><value>2025-04-12T09:54:04.17Z</value></time><waveformID networkCode="CX" stationCode="PB19" channelCode="HHN"/><filterID>ITAPER(2)&gt;&gt;BW(3,3,20)</filterID><methodID>L2-AIC-GRID</methodID><horizontalSlowness><value>21.99665321872303</value></horizontalSlowness><backazimuth><value>244.0519195491855</value></backazimuth><phaseHint>S</phaseHint><evaluationMode>automatic</evaluationMode><comment><text>5515.873973224312</text><id>DFX:rectilinearity</id></comment><comment><text>de.gempa.tb1.Pick/20250412095353.621568.123335</text><id>RefPickID</id></comment><comment><text>5.52107464826996</text><id>SNR</id></comment></pick><pick publicID="de.gempa.tb1.Pick/20250412095419.141508.123342"><time><value>2025-04-12T09:54:08.708397Z</value></time><waveformID networkCode="CX" stationCode="PB07" channelCode="HHZ"/><filterID>ITAPER(4)&gt;&gt;BW(4,4,20)</filterID><methodID>AIC</methodID><horizontalSlowness><value>21.564400346058338</value></horizontalSlowness><backazimuth><value>94.14276912141318</value></backazimuth><phaseHint>P</phaseHint><evaluationMode>automatic</evaluationMode><comment><text>204.4461542428422</text><id>DFX:rectilinearity</id></comment><comment><text>9.024139393885845</text><id>SNR</id></comment></pick><pick publicID="de.gempa.tb1.Pick/20250412095422.907273.123345"><time><value>2025-04-12T09:54:13.768393Z</value></time><waveformID networkCode="CX" stationCode="PB15" channelCode="HHN"/><filterID>ITAPER(2)&gt;&gt;BW(3,3,20)</filterID><methodID>L2-AIC-GRID</methodID><horizontalSlowness><value>19.750113871019888</value></horizontalSlowness><backazimuth><value>98.82435404269816</value></backazimuth><phaseHint>S</phaseHint><evaluationMode>automatic</evaluationMode><comment><text>11274.42307092991</text><id>DFX:rectilinearity</id></comment><comment><text>de.gempa.tb1.Pick/20250412095359.662135.123337</text><id>RefPickID</id></comment><comment><text>5.975803607087156</text><id>SNR</id></comment></pick><pick publicID="de.gempa.tb1.Pick/20250412095430.935039.123347"><time><value>2025-04-12T09:54:11.86Z</value></time><waveformID networkCode="CX" stationCode="PB09" channelCode="HHZ"/><filterID>ITAPER(4)&gt;&gt;BW(4,4,20)</filterID><methodID>AIC</methodID><horizontalSlowness><value>12.979468094447721</value></horizontalSlowness><backazimuth><value>77.33380775352471</value></backazimuth><phaseHint>P</phaseHint><evaluationMode>automatic</evaluationMode><comment><text>8.216627437781474</text><id>DFX:rectilinearity</id></comment><comment><text>11.217894921388989</text><id>SNR</id></comment></pick><pick publicID="de.gempa.tb1.Pick/20250412095431.667345.123349"><time><value>2025-04-12T09:54:23.118393Z</value></time><waveformID networkCode="CX" stationCode="PB06" channelCode="HHN"/><filterID>ITAPER(2)&gt;&gt;BW(3,3,20)</filterID><methodID>L2-AIC-GRID</methodID><horizontalSlowness><value>16.690374481754969</value></horizontalSlowness><backazimuth><value>346.986464620882</value></backazimuth><phaseHint>S</phaseHint><evaluationMode>automatic</evaluationMode><comment><text>251.5567953779117</text><id>DFX:rectilinearity</id></comment><comment><text>de.gempa.tb1.Pick/20250412095405.662647.123339</text><id>RefPickID</id></comment><comment><text>7.34906963638081</text><id>SNR</id></comment></pick><origin publicID="de.gempa.tb1.Origin/20250412095431.671711.80556"><time><value>2025-04-12T09:53:26.441045Z</value><uncertainty>1.2967671155929565</uncertainty></time><latitude><value>-24.382177352905273</value><uncertainty>9.464757919311523</uncertainty></latitude><longitude><value>-70.42987823486328</value><uncertainty>4.2192888259887695</uncertainty></longitude><depth><value>6.252230167388916</value><uncertainty>4.835712432861328</uncertainty></depth><depthType>from location</depthType><methodID>LOCSAT</methodID><earthModelID>iasp91_scanloc</earthModelID><quality><associatedPhaseCount>9</associatedPhaseCount><usedPhaseCount>9</usedPhaseCount><associatedStationCount>6</associatedStationCount><usedStationCount>6</usedStationCount><depthPhaseCount>0</depthPhaseCount><standardError>0.6144528941733176</standardError><azimuthalGap>286.8013687133789</azimuthalGap><maximumDistance>2.7965428829193115</maximumDistance><minimumDistance>0.872266411781311</minimumDistance><medianDistance>1.4618414640426636</medianDistance></quality><uncertainty><minHorizontalUncertainty>9.009305953979492</minHorizontalUncertainty><maxHorizontalUncertainty>20.3158016204834</maxHorizontalUncertainty><azimuthMaxHorizontalUncertainty>2.6566030979156494</azimuthMaxHorizontalUncertainty><preferredDescription>horizontal uncertainty</preferredDescription></uncertainty><evaluationMode>automatic</evaluationMode><evaluationStatus>confirmed</evaluationStatus><comment><text>0.04</text><id>mismatchScore</id></comment><comment><text>mismatchScore</text><id>scevalMethod</id></comment><arrival><pickID>de.gempa.tb1.Pick/20250412095348.213248.123333</pickID><phase>P</phase><azimuth>352.4895324707031</azimuth><distance>0.872266411781311</distance><timeResidual>0.2499732971191406</timeResidual><timeUsed>true</timeUsed><horizontalSlownessUsed>false</horizontalSlownessUsed><backazimuthUsed>false</backazimuthUsed><weight>1</weight></arrival><arrival><pickID>de.gempa.tb1.Pick/20250412095353.621568.123335</pickID><phase>P</phase><azimuth>65.68816375732422</azimuth><distance>1.1441112756729126</distance><timeResidual>-0.01071929931640625</timeResidual><timeUsed>true</timeUsed><horizontalSlownessUsed>false</horizontalSlownessUsed><backazimuthUsed>false</backazimuthUsed><weight>1</weight></arrival><arrival><pickID>de.gempa.tb1.Pick/20250412095359.662135.123337</pickID><phase>P</phase><azimuth>37.12630081176758</azimuth><distance>1.4618414640426636</distance><timeResidual>0.3081378936767578</timeResidual><timeUsed>true</timeUsed><horizontalSlownessUsed>false</horizontalSlownessUsed><backazimuthUsed>false</backazimuthUsed><weight>1</weight></arrival><arrival><pickID>de.gempa.tb1.Pick/20250412095405.662647.123339</pickID><phase>P</phase><azimuth>25.43284797668457</azimuth><distance>1.8451406955718994</distance><timeResidual>0.912424087524414</timeResidual><timeUsed>true</timeUsed><horizontalSlownessUsed>false</horizontalSlownessUsed><backazimuthUsed>false</backazimuthUsed><weight>1</weight></arrival><arrival><pickID>de.gempa.tb1.Pick/20250412095411.686784.123341</pickID><phase>S</phase><azimuth>65.68816375732422</azimuth><distance>1.1441112756729126</distance><timeResidual>-0.18368148803710938</timeResidual><timeUsed>true</timeUsed><horizontalSlownessUsed>false</horizontalSlownessUsed><backazimuthUsed>false</backazimuthUsed><weight>1</weight></arrival><arrival><pickID>de.gempa.tb1.Pick/20250412095419.141508.123342</pickID><phase>P</phase><azimuth>10.835404396057129</azimuth><distance>2.690154552459717</distance><timeResidual>-1.5280094146728516</timeResidual><timeUsed>true</timeUsed><horizontalSlownessUsed>false</horizontalSlownessUsed><backazimuthUsed>false</backazimuthUsed><weight>1</weight></arrival><arrival><pickID>de.gempa.tb1.Pick/20250412095422.907273.123345</pickID><phase>S</phase><azimuth>37.12630081176758</azimuth><distance>1.4618414640426636</distance><timeResidual>0.1153240203857422</timeResidual><timeUsed>true</timeUsed><horizontalSlownessUsed>false</horizontalSlownessUsed><backazimuthUsed>false</backazimuthUsed><weight>1</weight></arrival><arrival><pickID>de.gempa.tb1.Pick/20250412095430.935039.123347</pickID><phase>P</phase><azimuth>23.260862350463867</azimuth><distance>2.7965428829193115</distance><timeResidual>0.15968894958496094</timeResidual><timeUsed>true</timeUsed><horizontalSlownessUsed>false</horizontalSlownessUsed><backazimuthUsed>false</backazimuthUsed><weight>1</weight></arrival><arrival><pickID>de.gempa.tb1.Pick/20250412095431.667345.123349</pickID><phase>S</phase><azimuth>25.43284797668457</azimuth><distance>1.8451406955718994</distance><timeResidual>-0.02347373962402344</timeResidual><timeUsed>true</timeUsed><horizontalSlownessUsed>false</horizontalSlownessUsed><backazimuthUsed>false</backazimuthUsed><weight>1</weight></arrival><magnitude publicID="de.gempa.tb1.Magnitude/20250412095435.937199.207770"><magnitude><value>2.9208505708964343</value></magnitude><type>M</type><methodID>weighted average</methodID><stationCount>5</stationCount></magnitude></origin><event publicID="gempa2025hfhz"><preferredOriginID>de.gempa.tb1.Origin/20250412095431.671711.80556</preferredOriginID><preferredMagnitudeID>de.gempa.tb1.Magnitude/20250412095435.937199.207770</preferredMagnitudeID><description><text>Near Coast of Northern Chile</text><type>region name</type></description><originReference>de.gempa.tb1.Origin/20250412095431.671711.80556</originReference></event></EventParameters></seiscomp>