<?xml version="1.0" encoding="UTF-8"?>
<seiscomp xmlns="http://geofon.gfz-potsdam.de/ns/seiscomp3-schema/0.13" version="0.13"><EventParameters><pick publicID="de.gempa.tb1.Pick/20250412235706.39529.194484"><time><value>2025-04-12T23:57:00.05Z</value></time><waveformID networkCode="SX" stationCode="TRIB" channelCode="HHZ"/><filterID>ITAPER(2)&gt;&gt;BW(3,3,20)</filterID><methodID>AIC</methodID><horizontalSlowness><value>22.96706392353867</value></horizontalSlowness><backazimuth><value>94.26068561866289</value></backazimuth><phaseHint>P</phaseHint><evaluationMode>automatic</evaluationMode><comment><text>3.0889247644074027</text><id>DFX:rectilinearity</id></comment></pick><pick publicID="de.gempa.tb1.Pick/20250412235708.683787.194488"><time><value>2025-04-12T23:56:57.7675Z</value></time><waveformID networkCode="SX" stationCode="WERN" channelCode="HHZ"/><filterID>ITAPER(2)&gt;&gt;BW(3,3,20)</filterID><methodID>AIC</methodID><horizontalSlowness><value>21.366119992233806</value></horizontalSlowness><backazimuth><value>325.7844429904935</value></backazimuth><phaseHint>P</phaseHint><evaluationMode>automatic</evaluationMode><comment><text>3.9458157325960315</text><id>DFX:rectilinearity</id></comment></pick><pick publicID="de.gempa.tb1.Pick/20250412235708.766028.194490"><time><value>2025-04-12T23:56:59.95Z</value></time><waveformID networkCode="SX" stationCode="WERD" channelCode="HHZ"/><filterID>ITAPER(2)&gt;&gt;BW(3,3,20)</filterID><methodID>AIC</methodID><horizontalSlowness><value>12.772922219553646</value></horizontalSlowness><backazimuth><value>55.41555710720081</value></backazimuth><phaseHint>P</phaseHint><evaluationMode>automatic</evaluationMode><comment><text>6.405085838207441</text><id>DFX:rectilinearity</id></comment></pick><pick publicID="de.gempa.tb1.Pick/20250412235708.766489.194492"><time><value>2025-04-12T23:56:59.63Z</value></time><waveformID networkCode="SX" stationCode="ROHR" channelCode="HHZ"/><filterID>ITAPER(2)&gt;&gt;BW(3,3,20)</filterID><methodID>AIC</methodID><horizontalSlowness><value>16.561799387248712</value></horizontalSlowness><backazimuth><value>266.24364311595406</value></backazimuth><phaseHint>P</phaseHint><evaluationMode>automatic</evaluationMode><comment><text>5.881768176930322</text><id>DFX:rectilinearity</id></comment></pick><pick publicID="de.gempa.tb1.Pick/20250412235709.988129.194494"><time><value>2025-04-12T23:56:58.72Z</value></time><waveformID networkCode="SX" stationCode="GUNZ" channelCode="HHZ"/><filterID>ITAPER(2)&gt;&gt;BW(3,3,20)</filterID><methodID>AIC</methodID><horizontalSlowness><value>2.6744153206391474</value></horizontalSlowness><backazimuth><value>204.49172091605902</value></backazimuth><phaseHint>P</phaseHint><evaluationMode>automatic</evaluationMode><comment><text>1.4084904233395734</text><id>DFX:rectilinearity</id></comment></pick><pick publicID="de.gempa.tb1.Pick/20250412235711.493957.194497"><time><value>2025-04-12T23:56:59.2775Z</value></time><waveformID networkCode="SX" stationCode="WERN" channelCode="HHN"/><filterID>ITAPER(3)&gt;&gt;BW(4,3,10)</filterID><methodID>L2-AIC-GRID</methodID><horizontalSlowness><value>20.769829705774733</value></horizontalSlowness><backazimuth><value>337.60725734560083</value></backazimuth><phaseHint>S</phaseHint><evaluationMode>automatic</evaluationMode><comment><text>4.267890179947063</text><id>DFX:rectilinearity</id></comment><comment><text>de.gempa.tb1.Pick/20250412235708.683787.194488</text><id>RefPickID</id></comment></pick><origin publicID="de.gempa.tb1.Origin/20250412235714.9034.192573"><time><value>2025-04-12T23:56:56.416388Z</value><uncertainty>2.2489972114562988</uncertainty></time><latitude><value>50.31771850585938</value><uncertainty>3.6566455364227295</uncertainty></latitude><longitude><value>12.374747276306152</value><uncertainty>9.625938415527344</uncertainty></longitude><depth><value>6.459709167480469</value><uncertainty>11.369558334350586</uncertainty></depth><depthType>from location</depthType><methodID>LOCSAT</methodID><earthModelID>iasp91</earthModelID><quality><associatedPhaseCount>6</associatedPhaseCount><usedPhaseCount>6</usedPhaseCount><associatedStationCount>5</associatedStationCount><usedStationCount>5</usedStationCount><depthPhaseCount>0</depthPhaseCount><standardError>0.27024376073133927</standardError><azimuthalGap>196.72854614257812</azimuthalGap><maximumDistance>0.15617607533931732</maximumDistance><minimumDistance>0.030368439853191376</minimumDistance><medianDistance>0.091642826795578</medianDistance></quality><uncertainty><minHorizontalUncertainty>7.350651264190674</minHorizontalUncertainty><maxHorizontalUncertainty>20.824033737182617</maxHorizontalUncertainty><azimuthMaxHorizontalUncertainty>81.93782043457031</azimuthMaxHorizontalUncertainty><preferredDescription>horizontal uncertainty</preferredDescription></uncertainty><evaluationMode>automatic</evaluationMode><evaluationStatus>confirmed</evaluationStatus><comment><text>0.05</text><id>mismatchScore</id></comment><comment><text>mismatchScore</text><id>scevalMethod</id></comment><arrival><pickID>de.gempa.tb1.Pick/20250412235706.39529.194484</pickID><phase>P</phase><azimuth>282.78741455078125</azimuth><distance>0.15617607533931732</distance><timeResidual>-0.29446589946746826</timeResidual><timeUsed>true</timeUsed><horizontalSlownessUsed>false</horizontalSlownessUsed><backazimuthUsed>false</backazimuthUsed><weight>1</weight></arrival><arrival><pickID>de.gempa.tb1.Pick/20250412235708.683787.194488</pickID><phase>P</phase><azimuth>178.36312866210938</azimuth><distance>0.030368439853191376</distance><timeResidual>-0.3087376356124878</timeResidual><timeUsed>true</timeUsed><horizontalSlownessUsed>false</horizontalSlownessUsed><backazimuthUsed>false</backazimuthUsed><weight>1</weight></arrival><arrival><pickID>de.gempa.tb1.Pick/20250412235708.766028.194490</pickID><phase>P</phase><azimuth>341.63458251953125</azimuth><distance>0.13746535778045654</distance><timeResidual>-0.0568779706954956</timeResidual><timeUsed>true</timeUsed><horizontalSlownessUsed>false</horizontalSlownessUsed><backazimuthUsed>false</backazimuthUsed><weight>1</weight></arrival><arrival><pickID>de.gempa.tb1.Pick/20250412235708.766489.194492</pickID><phase>P</phase><azimuth>203.8700408935547</azimuth><distance>0.091642826795578</distance><timeResidual>0.4488273859024048</timeResidual><timeUsed>true</timeUsed><horizontalSlownessUsed>false</horizontalSlownessUsed><backazimuthUsed>false</backazimuthUsed><weight>1</weight></arrival><arrival><pickID>de.gempa.tb1.Pick/20250412235709.988129.194494</pickID><phase>P</phase><azimuth>328.91949462890625</azimuth><distance>0.05352862551808357</distance><timeResidual>0.22634923458099365</timeResidual><timeUsed>true</timeUsed><horizontalSlownessUsed>false</horizontalSlownessUsed><backazimuthUsed>false</backazimuthUsed><weight>1</weight></arrival><arrival><pickID>de.gempa.tb1.Pick/20250412235711.493957.194497</pickID><phase>S</phase><azimuth>178.36312866210938</azimuth><distance>0.030368439853191376</distance><timeResidual>-0.015682578086853027</timeResidual><timeUsed>true</timeUsed><horizontalSlownessUsed>false</horizontalSlownessUsed><backazimuthUsed>false</backazimuthUsed><weight>1</weight></arrival><magnitude publicID="de.gempa.tb1.Magnitude/20250412235827.646261.294365"><magnitude><value>0.16844212580005702</value></magnitude><type>M</type><methodID>weighted average</methodID><stationCount>5</stationCount></magnitude></origin><event publicID="gempa2025hgke"><preferredOriginID>de.gempa.tb1.Origin/20250412235714.9034.192573</preferredOriginID><preferredMagnitudeID>de.gempa.tb1.Magnitude/20250412235827.646261.294365</preferredMagnitudeID><description><text>Germany</text><type>region name</type></description><originReference>de.gempa.tb1.Origin/20250412235714.9034.192573</originReference></event></EventParameters></seiscomp>