<?xml version="1.0" encoding="UTF-8"?>
<seiscomp xmlns="http://geofon.gfz-potsdam.de/ns/seiscomp3-schema/0.13" version="0.13"><EventParameters><pick publicID="de.gempa.tb1.Pick/20250411224236.570348.120415"><time><value>2025-04-11T22:42:29.908393Z</value></time><waveformID networkCode="CX" stationCode="PB01" channelCode="HHZ"/><filterID>ITAPER(4)&gt;&gt;BW(4,4,20)</filterID><methodID>AIC</methodID><horizontalSlowness><value>21.539522490867753</value></horizontalSlowness><backazimuth><value>219.32767251071172</value></backazimuth><phaseHint>P</phaseHint><evaluationMode>automatic</evaluationMode><comment><text>21.601221335436545</text><id>DFX:rectilinearity</id></comment><comment><text>12.220674249782164</text><id>SNR</id></comment></pick><pick publicID="de.gempa.tb1.Pick/20250411224238.498843.120417"><time><value>2025-04-11T22:42:32.608391Z</value></time><waveformID networkCode="CX" stationCode="PB02" channelCode="HHZ"/><filterID>ITAPER(4)&gt;&gt;BW(4,4,20)</filterID><methodID>AIC</methodID><horizontalSlowness><value>21.389662260730272</value></horizontalSlowness><backazimuth><value>276.5032883224786</value></backazimuth><phaseHint>P</phaseHint><evaluationMode>automatic</evaluationMode><comment><text>44.73977523579125</text><id>DFX:rectilinearity</id></comment><comment><text>5.031207939389827</text><id>SNR</id></comment></pick><pick publicID="de.gempa.tb1.Pick/20250411224241.573747.120419"><time><value>2025-04-11T22:42:32.92Z</value></time><waveformID networkCode="CX" stationCode="PB09" channelCode="HHZ"/><filterID>ITAPER(4)&gt;&gt;BW(4,4,20)</filterID><methodID>AIC</methodID><horizontalSlowness><value>19.794804912286072</value></horizontalSlowness><backazimuth><value>286.36533266428535</value></backazimuth><phaseHint>P</phaseHint><evaluationMode>automatic</evaluationMode><comment><text>7.958297386970999</text><id>DFX:rectilinearity</id></comment><comment><text>9.358987259445724</text><id>SNR</id></comment></pick><pick publicID="de.gempa.tb1.Pick/20250411224246.249857.120423"><time><value>2025-04-11T22:42:40.389999Z</value></time><waveformID networkCode="CX" stationCode="PATCX" channelCode="HHZ"/><filterID>ITAPER(4)&gt;&gt;BW(4,4,20)</filterID><methodID>AIC</methodID><horizontalSlowness><value>22.175869819613393</value></horizontalSlowness><backazimuth><value>85.77655072440518</value></backazimuth><phaseHint>P</phaseHint><evaluationMode>automatic</evaluationMode><comment><text>168.3848906977022</text><id>DFX:rectilinearity</id></comment><comment><text>7.82229576536964</text><id>SNR</id></comment></pick><pick publicID="de.gempa.tb1.Pick/20250411224256.478351.120430"><time><value>2025-04-11T22:42:49.039999Z</value></time><waveformID networkCode="CX" stationCode="PATCX" channelCode="HHN"/><filterID>ITAPER(2)&gt;&gt;BW(3,3,20)</filterID><methodID>L2-AIC-GRID</methodID><horizontalSlowness><value>18.828382201136133</value></horizontalSlowness><backazimuth><value>109.32056227202777</value></backazimuth><phaseHint>S</phaseHint><evaluationMode>automatic</evaluationMode><comment><text>104.47101962366959</text><id>DFX:rectilinearity</id></comment><comment><text>de.gempa.tb1.Pick/20250411224246.249857.120423</text><id>RefPickID</id></comment><comment><text>5.420719839501117</text><id>SNR</id></comment></pick><pick publicID="de.gempa.tb1.Pick/20250411224300.589058.120433"><time><value>2025-04-11T22:42:50.768393Z</value></time><waveformID networkCode="CX" stationCode="PB03" channelCode="HHN"/><filterID>ITAPER(2)&gt;&gt;BW(3,3,20)</filterID><methodID>L2-AIC-GRID</methodID><horizontalSlowness><value>12.546860158954507</value></horizontalSlowness><backazimuth><value>344.6684507306175</value></backazimuth><phaseHint>S</phaseHint><evaluationMode>automatic</evaluationMode><comment><text>11.402934329552782</text><id>DFX:rectilinearity</id></comment><comment><text>de.gempa.tb1.Pick/20250411224244.530057.120421</text><id>RefPickID</id></comment><comment><text>7.312997569544467</text><id>SNR</id></comment></pick><origin publicID="de.gempa.tb1.Origin/20250411224300.593518.67318"><time><value>2025-04-11T22:42:24.055472Z</value><uncertainty>0.6027573943138123</uncertainty></time><latitude><value>-21.30257797241211</value><uncertainty>2.5933196544647217</uncertainty></latitude><longitude><value>-69.4595718383789</value><uncertainty>4.4067625999450684</uncertainty></longitude><depth><value>0</value></depth><depthType>operator assigned</depthType><methodID>LOCSAT</methodID><earthModelID>iasp91_scanloc</earthModelID><quality><associatedPhaseCount>6</associatedPhaseCount><usedPhaseCount>6</usedPhaseCount><associatedStationCount>5</associatedStationCount><usedStationCount>5</usedStationCount><depthPhaseCount>0</depthPhaseCount><standardError>1.080938363414492</standardError><azimuthalGap>163.38223266601562</azimuthalGap><maximumDistance>0.8057320713996887</maximumDistance><minimumDistance>0.2593642771244049</minimumDistance><medianDistance>0.7908680438995361</medianDistance></quality><uncertainty><minHorizontalUncertainty>4.960899353027344</minHorizontalUncertainty><maxHorizontalUncertainty>9.782995223999023</maxHorizontalUncertainty><azimuthMaxHorizontalUncertainty>72.62654113769531</azimuthMaxHorizontalUncertainty><preferredDescription>horizontal uncertainty</preferredDescription></uncertainty><evaluationMode>automatic</evaluationMode><evaluationStatus>confirmed</evaluationStatus><comment><text>0.10</text><id>mismatchScore</id></comment><comment><text>mismatchScore</text><id>scevalMethod</id></comment><arrival><pickID>de.gempa.tb1.Pick/20250411224236.570348.120415</pickID><phase>P</phase><azimuth>354.2486572265625</azimuth><distance>0.2593642771244049</distance><timeResidual>0.8775668144226074</timeResidual><timeUsed>true</timeUsed><horizontalSlownessUsed>false</horizontalSlownessUsed><backazimuthUsed>false</backazimuthUsed><weight>1</weight></arrival><arrival><pickID>de.gempa.tb1.Pick/20250411224238.498843.120417</pickID><phase>P</phase><azimuth>267.5196228027344</azimuth><distance>0.4073266386985779</distance><timeResidual>0.7397594451904297</timeResidual><timeUsed>true</timeUsed><horizontalSlownessUsed>false</horizontalSlownessUsed><backazimuthUsed>false</backazimuthUsed><weight>1</weight></arrival><arrival><pickID>de.gempa.tb1.Pick/20250411224241.573747.120419</pickID><phase>P</phase><azimuth>157.63088989257812</azimuth><distance>0.5315156579017639</distance><timeResidual>-1.330129623413086</timeResidual><timeUsed>true</timeUsed><horizontalSlownessUsed>false</horizontalSlownessUsed><backazimuthUsed>false</backazimuthUsed><weight>1</weight></arrival><arrival><pickID>de.gempa.tb1.Pick/20250411224246.249857.120423</pickID><phase>P</phase><azimuth>306.3934020996094</azimuth><distance>0.8057320713996887</distance><timeResidual>0.8789224624633789</timeResidual><timeUsed>true</timeUsed><horizontalSlownessUsed>false</horizontalSlownessUsed><backazimuthUsed>false</backazimuthUsed><weight>1</weight></arrival><arrival><pickID>de.gempa.tb1.Pick/20250411224256.478351.120430</pickID><phase>S</phase><azimuth>306.3934020996094</azimuth><distance>0.8057320713996887</distance><timeResidual>-1.6946611404418945</timeResidual><timeUsed>true</timeUsed><horizontalSlownessUsed>false</horizontalSlownessUsed><backazimuthUsed>false</backazimuthUsed><weight>1</weight></arrival><arrival><pickID>de.gempa.tb1.Pick/20250411224300.589058.120433</pickID><phase>S</phase><azimuth>200.14114379882812</azimuth><distance>0.7908680438995361</distance><timeResidual>0.5287466049194336</timeResidual><timeUsed>true</timeUsed><horizontalSlownessUsed>false</horizontalSlownessUsed><backazimuthUsed>false</backazimuthUsed><weight>1</weight></arrival><magnitude publicID="de.gempa.tb1.Magnitude/20250411224315.557854.149936"><magnitude><value>1.3265661033850673</value></magnitude><type>M</type><methodID>weighted average</methodID><stationCount>4</stationCount></magnitude></origin><event publicID="gempa2025helq"><preferredOriginID>de.gempa.tb1.Origin/20250411224300.593518.67318</preferredOriginID><preferredMagnitudeID>de.gempa.tb1.Magnitude/20250411224315.557854.149936</preferredMagnitudeID><description><text>Northern Chile</text><type>region name</type></description><originReference>de.gempa.tb1.Origin/20250411224300.593518.67318</originReference></event></EventParameters></seiscomp>