<?xml version="1.0" encoding="UTF-8"?>
<seiscomp xmlns="http://geofon.gfz-potsdam.de/ns/seiscomp3-schema/0.13" version="0.13"><EventParameters><pick publicID="de.gempa.tb1.Pick/20250413042315.585311.128792"><time><value>2025-04-13T04:23:10.008393Z</value></time><waveformID networkCode="CX" stationCode="PB01" channelCode="HHZ"/><filterID>ITAPER(4)&gt;&gt;BW(4,4,20)</filterID><methodID>AIC</methodID><horizontalSlowness><value>21.53676638840491</value></horizontalSlowness><backazimuth><value>16.651050542995165</value></backazimuth><phaseHint>P</phaseHint><evaluationMode>automatic</evaluationMode><comment><text>16.420909445564977</text><id>DFX:rectilinearity</id></comment><comment><text>32.97826278478267</text><id>SNR</id></comment></pick><pick publicID="de.gempa.tb1.Pick/20250413042315.593581.128794"><time><value>2025-04-13T04:23:10.318393Z</value></time><waveformID networkCode="CX" stationCode="PB08" channelCode="HHZ"/><filterID>ITAPER(4)&gt;&gt;BW(4,4,20)</filterID><methodID>AIC</methodID><horizontalSlowness><value>15.452757326610238</value></horizontalSlowness><backazimuth><value>87.25509047488748</value></backazimuth><phaseHint>P</phaseHint><evaluationMode>automatic</evaluationMode><comment><text>15.11477184051264</text><id>DFX:rectilinearity</id></comment><comment><text>8.480638847997579</text><id>SNR</id></comment></pick><pick publicID="de.gempa.tb1.Pick/20250413042324.560993.128796"><time><value>2025-04-13T04:23:18.07Z</value></time><waveformID networkCode="CX" stationCode="PSGCX" channelCode="HHZ"/><filterID>ITAPER(4)&gt;&gt;BW(4,4,20)</filterID><methodID>AIC</methodID><horizontalSlowness><value>21.845710865042435</value></horizontalSlowness><backazimuth><value>131.61114024187515</value></backazimuth><phaseHint>P</phaseHint><evaluationMode>automatic</evaluationMode><comment><text>44.181226617426447</text><id>DFX:rectilinearity</id></comment><comment><text>57.08750945524351</text><id>SNR</id></comment></pick><pick publicID="de.gempa.tb1.Pick/20250413042327.384664.128798"><time><value>2025-04-13T04:23:16.7Z</value></time><waveformID networkCode="CX" stationCode="PB09" channelCode="HHZ"/><filterID>ITAPER(4)&gt;&gt;BW(4,4,20)</filterID><methodID>AIC</methodID><horizontalSlowness><value>2.1658273273094721</value></horizontalSlowness><backazimuth><value>317.80070892890603</value></backazimuth><phaseHint>P</phaseHint><evaluationMode>automatic</evaluationMode><comment><text>13.480277508996172</text><id>DFX:rectilinearity</id></comment><comment><text>12.612563998818866</text><id>SNR</id></comment></pick><pick publicID="de.gempa.tb1.Pick/20250413042331.663888.128800"><time><value>2025-04-13T04:23:22.778393Z</value></time><waveformID networkCode="CX" stationCode="PB01" channelCode="HHN"/><filterID>ITAPER(2)&gt;&gt;BW(3,3,20)</filterID><methodID>L2-AIC-GRID</methodID><horizontalSlowness><value>23.453533814568367</value></horizontalSlowness><backazimuth><value>223.2520304873463</value></backazimuth><phaseHint>S</phaseHint><evaluationMode>automatic</evaluationMode><comment><text>95.98361311114499</text><id>DFX:rectilinearity</id></comment><comment><text>de.gempa.tb1.Pick/20250413042315.585311.128792</text><id>RefPickID</id></comment><comment><text>13.460462110063382</text><id>SNR</id></comment></pick><pick publicID="de.gempa.tb1.Pick/20250413042334.208055.128803"><time><value>2025-04-13T04:23:23.188393Z</value></time><waveformID networkCode="CX" stationCode="PB08" channelCode="HHN"/><filterID>ITAPER(2)&gt;&gt;BW(3,3,20)</filterID><methodID>L2-AIC-GRID</methodID><horizontalSlowness><value>11.4684866991318</value></horizontalSlowness><backazimuth><value>182.15484385369354</value></backazimuth><phaseHint>S</phaseHint><evaluationMode>automatic</evaluationMode><comment><text>27.77885827817462</text><id>DFX:rectilinearity</id></comment><comment><text>de.gempa.tb1.Pick/20250413042315.593581.128794</text><id>RefPickID</id></comment><comment><text>11.079365705936487</text><id>SNR</id></comment></pick><origin publicID="de.gempa.tb1.Origin/20250413042339.50616.100493"><time><value>2025-04-13T04:22:53.745814Z</value><uncertainty>1.1419119834899902</uncertainty></time><latitude><value>-20.623394012451172</value><uncertainty>4.902022361755371</uncertainty></latitude><longitude><value>-69.28047943115234</value><uncertainty>13.249543190002441</uncertainty></longitude><depth><value>108.04759216308594</value><uncertainty>7.926979064941406</uncertainty></depth><depthType>from location</depthType><methodID>LOCSAT</methodID><earthModelID>iasp91_scanloc</earthModelID><quality><associatedPhaseCount>6</associatedPhaseCount><usedPhaseCount>6</usedPhaseCount><associatedStationCount>4</associatedStationCount><usedStationCount>4</usedStationCount><depthPhaseCount>0</depthPhaseCount><standardError>0.07118651843047526</standardError><azimuthalGap>164.26537990570068</azimuthalGap><maximumDistance>1.2920249700546265</maximumDistance><minimumDistance>0.4603920578956604</minimumDistance><medianDistance>0.4944110810756683</medianDistance></quality><uncertainty><minHorizontalUncertainty>10.271971702575684</minHorizontalUncertainty><maxHorizontalUncertainty>28.50257682800293</maxHorizontalUncertainty><azimuthMaxHorizontalUncertainty>94.82670593261719</azimuthMaxHorizontalUncertainty><preferredDescription>horizontal uncertainty</preferredDescription></uncertainty><evaluationMode>automatic</evaluationMode><evaluationStatus>confirmed</evaluationStatus><comment><text>0.20</text><id>mismatchScore</id></comment><comment><text>mismatchScore</text><id>scevalMethod</id></comment><arrival><pickID>de.gempa.tb1.Pick/20250413042315.585311.128792</pickID><phase>P</phase><azimuth>204.82373046875</azimuth><distance>0.4603920578956604</distance><timeResidual>-0.132568359375</timeResidual><timeUsed>true</timeUsed><horizontalSlownessUsed>false</horizontalSlownessUsed><backazimuthUsed>false</backazimuthUsed><weight>1</weight></arrival><arrival><pickID>de.gempa.tb1.Pick/20250413042315.593581.128794</pickID><phase>P</phase><azimuth>13.975922584533691</azimuth><distance>0.4944110810756683</distance><timeResidual>-0.04871559143066406</timeResidual><timeUsed>true</timeUsed><horizontalSlownessUsed>false</horizontalSlownessUsed><backazimuthUsed>false</backazimuthUsed><weight>1</weight></arrival><arrival><pickID>de.gempa.tb1.Pick/20250413042324.560993.128796</pickID><phase>P</phase><azimuth>322.0592956542969</azimuth><distance>1.2920249700546265</distance><timeResidual>0.04018974304199219</timeResidual><timeUsed>true</timeUsed><horizontalSlownessUsed>false</horizontalSlownessUsed><backazimuthUsed>false</backazimuthUsed><weight>1</weight></arrival><arrival><pickID>de.gempa.tb1.Pick/20250413042327.384664.128798</pickID><phase>P</phase><azimuth>178.24130249023438</azimuth><distance>1.1677258014678955</distance><timeResidual>0.08506011962890625</timeResidual><timeUsed>true</timeUsed><horizontalSlownessUsed>false</horizontalSlownessUsed><backazimuthUsed>false</backazimuthUsed><weight>1</weight></arrival><arrival><pickID>de.gempa.tb1.Pick/20250413042331.663888.128800</pickID><phase>S</phase><azimuth>204.82373046875</azimuth><distance>0.4603920578956604</distance><timeResidual>0.0236053466796875</timeResidual><timeUsed>true</timeUsed><horizontalSlownessUsed>false</horizontalSlownessUsed><backazimuthUsed>false</backazimuthUsed><weight>1</weight></arrival><arrival><pickID>de.gempa.tb1.Pick/20250413042334.208055.128803</pickID><phase>S</phase><azimuth>13.975922584533691</azimuth><distance>0.4944110810756683</distance><timeResidual>0.03240203857421875</timeResidual><timeUsed>true</timeUsed><horizontalSlownessUsed>false</horizontalSlownessUsed><backazimuthUsed>false</backazimuthUsed><weight>1</weight></arrival><magnitude publicID="de.gempa.tb1.Magnitude/20250413042359.579846.310566"><magnitude><value>1.706999855311797</value></magnitude><type>M</type><methodID>weighted average</methodID><stationCount>1</stationCount></magnitude></origin><event publicID="gempa2025hgsz"><preferredOriginID>de.gempa.tb1.Origin/20250413042339.50616.100493</preferredOriginID><preferredMagnitudeID>de.gempa.tb1.Magnitude/20250413042359.579846.310566</preferredMagnitudeID><description><text>Northern Chile</text><type>region name</type></description><originReference>de.gempa.tb1.Origin/20250413042339.50616.100493</originReference></event></EventParameters></seiscomp>