<?xml version="1.0" encoding="UTF-8"?>
<seiscomp xmlns="http://geofon.gfz-potsdam.de/ns/seiscomp3-schema/0.13" version="0.13"><EventParameters><pick publicID="de.gempa.tb1.Pick/20250414093346.647358.137122"><time><value>2025-04-14T09:33:41.148393Z</value></time><waveformID networkCode="CX" stationCode="PB08" channelCode="HHZ"/><filterID>ITAPER(4)&gt;&gt;BW(4,4,20)</filterID><methodID>AIC</methodID><horizontalSlowness><value>16.183936769752435</value></horizontalSlowness><backazimuth><value>90.09934106618786</value></backazimuth><phaseHint>P</phaseHint><evaluationMode>automatic</evaluationMode><comment><text>14.351303466511085</text><id>DFX:rectilinearity</id></comment><comment><text>22.031579599832597</text><id>SNR</id></comment></pick><pick publicID="de.gempa.tb1.Pick/20250414093352.548749.137124"><time><value>2025-04-14T09:33:45.898393Z</value></time><waveformID networkCode="CX" stationCode="PB01" channelCode="HHZ"/><filterID>ITAPER(4)&gt;&gt;BW(4,4,20)</filterID><methodID>AIC</methodID><horizontalSlowness><value>15.130337624586655</value></horizontalSlowness><backazimuth><value>41.0239090015325</value></backazimuth><phaseHint>P</phaseHint><evaluationMode>automatic</evaluationMode><comment><text>12.520371201061218</text><id>DFX:rectilinearity</id></comment><comment><text>27.711119952588287</text><id>SNR</id></comment></pick><pick publicID="de.gempa.tb1.Pick/20250414093354.408277.137126"><time><value>2025-04-14T09:33:48.159999Z</value></time><waveformID networkCode="CX" stationCode="PATCX" channelCode="HHZ"/><filterID>ITAPER(4)&gt;&gt;BW(4,4,20)</filterID><methodID>AIC</methodID><horizontalSlowness><value>12.4989525527453</value></horizontalSlowness><backazimuth><value>222.64751594379902</value></backazimuth><phaseHint>P</phaseHint><evaluationMode>automatic</evaluationMode><comment><text>57.61036666961228</text><id>DFX:rectilinearity</id></comment><comment><text>7.11352761571668</text><id>SNR</id></comment></pick><pick publicID="de.gempa.tb1.Pick/20250414093355.566861.137128"><time><value>2025-04-14T09:33:48.340001Z</value></time><waveformID networkCode="CX" stationCode="PSGCX" channelCode="HHZ"/><filterID>ITAPER(4)&gt;&gt;BW(4,4,20)</filterID><methodID>AIC</methodID><horizontalSlowness><value>22.361069017213232</value></horizontalSlowness><backazimuth><value>229.88772778019</value></backazimuth><phaseHint>P</phaseHint><evaluationMode>automatic</evaluationMode><comment><text>13.393819781853805</text><id>DFX:rectilinearity</id></comment><comment><text>15.708691181349781</text><id>SNR</id></comment></pick><pick publicID="de.gempa.tb1.Pick/20250414093408.77881.137133"><time><value>2025-04-14T09:34:00.428393Z</value></time><waveformID networkCode="CX" stationCode="PB01" channelCode="HHN"/><filterID>ITAPER(2)&gt;&gt;BW(3,3,20)</filterID><methodID>L2-AIC-GRID</methodID><horizontalSlowness><value>22.103759379711473</value></horizontalSlowness><backazimuth><value>130.35085603439671</value></backazimuth><phaseHint>S</phaseHint><evaluationMode>automatic</evaluationMode><comment><text>54.90888763385124</text><id>DFX:rectilinearity</id></comment><comment><text>de.gempa.tb1.Pick/20250414093352.548749.137124</text><id>RefPickID</id></comment><comment><text>8.453153614335729</text><id>SNR</id></comment></pick><pick publicID="de.gempa.tb1.Pick/20250414093414.548504.137134"><time><value>2025-04-14T09:34:04.880001Z</value></time><waveformID networkCode="CX" stationCode="PSGCX" channelCode="HHN"/><filterID>ITAPER(2)&gt;&gt;BW(3,3,20)</filterID><methodID>L2-AIC-GRID</methodID><horizontalSlowness><value>22.16479408187394</value></horizontalSlowness><backazimuth><value>136.2781192672095</value></backazimuth><phaseHint>S</phaseHint><evaluationMode>automatic</evaluationMode><comment><text>27.60684302940363</text><id>DFX:rectilinearity</id></comment><comment><text>de.gempa.tb1.Pick/20250414093355.566861.137128</text><id>RefPickID</id></comment><comment><text>8.440148268229189</text><id>SNR</id></comment></pick><pick publicID="de.gempa.tb1.Pick/20250414093418.981848.137137"><time><value>2025-04-14T09:33:55.438394Z</value></time><waveformID networkCode="CX" stationCode="PB07" channelCode="HHZ"/><filterID>ITAPER(4)&gt;&gt;BW(4,4,20)</filterID><methodID>AIC</methodID><horizontalSlowness><value>19.86505028085812</value></horizontalSlowness><backazimuth><value>67.44194429946798</value></backazimuth><phaseHint>P</phaseHint><evaluationMode>automatic</evaluationMode><comment><text>136.67443069783536</text><id>DFX:rectilinearity</id></comment><comment><text>13.92267473808032</text><id>SNR</id></comment></pick><origin publicID="de.gempa.tb1.Origin/20250414093419.476299.133947"><time><value>2025-04-14T09:33:27.456119Z</value><uncertainty>1.335775375366211</uncertainty></time><latitude><value>-20.232559204101562</value><uncertainty>4.974055290222168</uncertainty></latitude><longitude><value>-69.20294189453125</value><uncertainty>9.607583999633789</uncertainty></longitude><depth><value>97.51519012451172</value><uncertainty>11.17995548248291</uncertainty></depth><depthType>from location</depthType><methodID>LOCSAT</methodID><earthModelID>iasp91_scanloc</earthModelID><quality><associatedPhaseCount>7</associatedPhaseCount><usedPhaseCount>7</usedPhaseCount><associatedStationCount>5</associatedStationCount><usedStationCount>5</usedStationCount><depthPhaseCount>0</depthPhaseCount><standardError>0.20999335240467537</standardError><azimuthalGap>171.12729454040527</azimuthalGap><maximumDistance>1.6179513931274414</maximumDistance><minimumDistance>0.10218381881713867</minimumDistance><medianDistance>1.0654324293136597</medianDistance></quality><uncertainty><minHorizontalUncertainty>8.780906677246094</minHorizontalUncertainty><maxHorizontalUncertainty>21.4750919342041</maxHorizontalUncertainty><azimuthMaxHorizontalUncertainty>71.9996109008789</azimuthMaxHorizontalUncertainty><preferredDescription>horizontal uncertainty</preferredDescription></uncertainty><evaluationMode>automatic</evaluationMode><evaluationStatus>confirmed</evaluationStatus><comment><text>0.10</text><id>mismatchScore</id></comment><comment><text>mismatchScore</text><id>scevalMethod</id></comment><arrival><pickID>de.gempa.tb1.Pick/20250414093346.647358.137122</pickID><phase>P</phase><azimuth>27.101892471313477</azimuth><distance>0.10218381881713867</distance><timeResidual>0.05849838256835938</timeResidual><timeUsed>true</timeUsed><horizontalSlownessUsed>false</horizontalSlownessUsed><backazimuthUsed>false</backazimuthUsed><weight>1</weight></arrival><arrival><pickID>de.gempa.tb1.Pick/20250414093352.548749.137124</pickID><phase>P</phase><azimuth>198.22918701171875</azimuth><distance>0.8494417667388916</distance><timeResidual>-0.1919879913330078</timeResidual><timeUsed>true</timeUsed><horizontalSlownessUsed>false</horizontalSlownessUsed><backazimuthUsed>false</backazimuthUsed><weight>1</weight></arrival><arrival><pickID>de.gempa.tb1.Pick/20250414093354.408277.137126</pickID><phase>P</phase><azimuth>236.5207977294922</azimuth><distance>1.0654324293136597</distance><timeResidual>-0.2533988952636719</timeResidual><timeUsed>true</timeUsed><horizontalSlownessUsed>false</horizontalSlownessUsed><backazimuthUsed>false</backazimuthUsed><weight>1</weight></arrival><arrival><pickID>de.gempa.tb1.Pick/20250414093355.566861.137128</pickID><phase>P</phase><azimuth>305.9779052734375</azimuth><distance>1.071953535079956</distance><timeResidual>-0.15215682983398438</timeResidual><timeUsed>true</timeUsed><horizontalSlownessUsed>false</horizontalSlownessUsed><backazimuthUsed>false</backazimuthUsed><weight>1</weight></arrival><arrival><pickID>de.gempa.tb1.Pick/20250414093408.77881.137133</pickID><phase>S</phase><azimuth>198.22918701171875</azimuth><distance>0.8494417667388916</distance><timeResidual>-0.012630462646484375</timeResidual><timeUsed>true</timeUsed><horizontalSlownessUsed>false</horizontalSlownessUsed><backazimuthUsed>false</backazimuthUsed><weight>1</weight></arrival><arrival><pickID>de.gempa.tb1.Pick/20250414093414.548504.137134</pickID><phase>S</phase><azimuth>305.9779052734375</azimuth><distance>1.071953535079956</distance><timeResidual>0.15608596801757812</timeResidual><timeUsed>true</timeUsed><horizontalSlownessUsed>false</horizontalSlownessUsed><backazimuthUsed>false</backazimuthUsed><weight>1</weight></arrival><arrival><pickID>de.gempa.tb1.Pick/20250414093418.981848.137137</pickID><phase>P</phase><azimuth>203.12181091308594</azimuth><distance>1.6179513931274414</distance><timeResidual>0.3956184387207031</timeResidual><timeUsed>true</timeUsed><horizontalSlownessUsed>false</horizontalSlownessUsed><backazimuthUsed>false</backazimuthUsed><weight>1</weight></arrival><magnitude publicID="de.gempa.tb1.Magnitude/20250414093425.93928.465249"><magnitude><value>1.7633005205589367</value></magnitude><type>M</type><methodID>weighted average</methodID><stationCount>3</stationCount></magnitude></origin><event publicID="gempa2025hizj"><preferredOriginID>de.gempa.tb1.Origin/20250414093419.476299.133947</preferredOriginID><preferredMagnitudeID>de.gempa.tb1.Magnitude/20250414093425.93928.465249</preferredMagnitudeID><description><text>Northern Chile</text><type>region name</type></description><originReference>de.gempa.tb1.Origin/20250414093419.476299.133947</originReference></event></EventParameters></seiscomp>