<?xml version="1.0" encoding="UTF-8"?>
<seiscomp xmlns="http://geofon.gfz-potsdam.de/ns/seiscomp3-schema/0.13" version="0.13"><EventParameters><pick publicID="de.gempa.tb1.Pick/20250413044730.556769.128867"><time><value>2025-04-13T04:47:24.448393Z</value></time><waveformID networkCode="CX" stationCode="PB03" channelCode="HHZ"/><filterID>ITAPER(4)&gt;&gt;BW(4,4,20)</filterID><methodID>AIC</methodID><horizontalSlowness><value>9.049647381524935</value></horizontalSlowness><backazimuth><value>64.38407136289457</value></backazimuth><phaseHint>P</phaseHint><evaluationMode>automatic</evaluationMode><comment><text>27.41635017702445</text><id>DFX:rectilinearity</id></comment><comment><text>25.51572987868291</text><id>SNR</id></comment></pick><pick publicID="de.gempa.tb1.Pick/20250413044730.590567.128869"><time><value>2025-04-13T04:47:22.908393Z</value></time><waveformID networkCode="CX" stationCode="PB01" channelCode="HHZ"/><filterID>ITAPER(4)&gt;&gt;BW(4,4,20)</filterID><methodID>AIC</methodID><horizontalSlowness><value>7.385343046337162</value></horizontalSlowness><backazimuth><value>187.40989735357775</value></backazimuth><phaseHint>P</phaseHint><evaluationMode>automatic</evaluationMode><comment><text>43.616926852832144</text><id>DFX:rectilinearity</id></comment><comment><text>24.47896837986706</text><id>SNR</id></comment></pick><pick publicID="de.gempa.tb1.Pick/20250413044730.639798.128871"><time><value>2025-04-13T04:47:25.268394Z</value></time><waveformID networkCode="CX" stationCode="PB07" channelCode="HHZ"/><filterID>ITAPER(4)&gt;&gt;BW(4,4,20)</filterID><methodID>AIC</methodID><horizontalSlowness><value>18.485899025221194</value></horizontalSlowness><backazimuth><value>36.6933471233221</value></backazimuth><phaseHint>P</phaseHint><evaluationMode>automatic</evaluationMode><comment><text>404.455259221138</text><id>DFX:rectilinearity</id></comment><comment><text>39.625488051950477</text><id>SNR</id></comment></pick><pick publicID="de.gempa.tb1.Pick/20250413044731.509061.128873"><time><value>2025-04-13T04:47:25.688393Z</value></time><waveformID networkCode="CX" stationCode="PB02" channelCode="HHZ"/><filterID>ITAPER(4)&gt;&gt;BW(4,4,20)</filterID><methodID>AIC</methodID><horizontalSlowness><value>15.56343646589797</value></horizontalSlowness><backazimuth><value>42.53825487437979</value></backazimuth><phaseHint>P</phaseHint><evaluationMode>automatic</evaluationMode><comment><text>46.63165624161088</text><id>DFX:rectilinearity</id></comment><comment><text>16.402879953261124</text><id>SNR</id></comment></pick><pick publicID="de.gempa.tb1.Pick/20250413044733.624268.128875"><time><value>2025-04-13T04:47:27.038393Z</value></time><waveformID networkCode="CX" stationCode="PB06" channelCode="HHZ"/><filterID>ITAPER(4)&gt;&gt;BW(4,4,20)</filterID><methodID>AIC</methodID><horizontalSlowness><value>11.621043554956016</value></horizontalSlowness><backazimuth><value>322.729784869293</value></backazimuth><phaseHint>P</phaseHint><evaluationMode>automatic</evaluationMode><comment><text>171.2018763559929</text><id>DFX:rectilinearity</id></comment><comment><text>5.971400102273132</text><id>SNR</id></comment></pick><pick publicID="de.gempa.tb1.Pick/20250413044748.593261.128877"><time><value>2025-04-13T04:47:40.898393Z</value></time><waveformID networkCode="CX" stationCode="PB01" channelCode="HHN"/><filterID>ITAPER(2)&gt;&gt;BW(3,3,20)</filterID><methodID>L2-AIC-GRID</methodID><horizontalSlowness><value>21.521790849540238</value></horizontalSlowness><backazimuth><value>263.8166371271725</value></backazimuth><phaseHint>S</phaseHint><evaluationMode>automatic</evaluationMode><comment><text>319.87347669360406</text><id>DFX:rectilinearity</id></comment><comment><text>de.gempa.tb1.Pick/20250413044730.590567.128869</text><id>RefPickID</id></comment><comment><text>10.45976388912065</text><id>SNR</id></comment></pick><pick publicID="de.gempa.tb1.Pick/20250413044749.622368.128878"><time><value>2025-04-13T04:47:43.258393Z</value></time><waveformID networkCode="CX" stationCode="PB03" channelCode="HHN"/><filterID>ITAPER(2)&gt;&gt;BW(3,3,20)</filterID><methodID>L2-AIC-GRID</methodID><horizontalSlowness><value>17.714558453132945</value></horizontalSlowness><backazimuth><value>243.9565531105797</value></backazimuth><phaseHint>S</phaseHint><evaluationMode>automatic</evaluationMode><comment><text>100.50579959449018</text><id>DFX:rectilinearity</id></comment><comment><text>de.gempa.tb1.Pick/20250413044730.556769.128867</text><id>RefPickID</id></comment><comment><text>12.81211362428987</text><id>SNR</id></comment></pick><pick publicID="de.gempa.tb1.Pick/20250413044749.784495.128879"><time><value>2025-04-13T04:47:44.858394Z</value></time><waveformID networkCode="CX" stationCode="PB07" channelCode="HHN"/><filterID>ITAPER(2)&gt;&gt;BW(3,3,20)</filterID><methodID>L2-AIC-GRID</methodID><horizontalSlowness><value>21.855071711765422</value></horizontalSlowness><backazimuth><value>298.4704188355931</value></backazimuth><phaseHint>S</phaseHint><evaluationMode>automatic</evaluationMode><comment><text>6103.802842553212</text><id>DFX:rectilinearity</id></comment><comment><text>de.gempa.tb1.Pick/20250413044730.639798.128871</text><id>RefPickID</id></comment><comment><text>12.595495935770836</text><id>SNR</id></comment></pick><pick publicID="de.gempa.tb1.Pick/20250413044751.708786.128880"><time><value>2025-04-13T04:47:45.688393Z</value></time><waveformID networkCode="CX" stationCode="PB02" channelCode="HHN"/><filterID>ITAPER(2)&gt;&gt;BW(3,3,20)</filterID><methodID>L2-AIC-GRID</methodID><horizontalSlowness><value>12.93707228368586</value></horizontalSlowness><backazimuth><value>318.8986499135753</value></backazimuth><phaseHint>S</phaseHint><evaluationMode>automatic</evaluationMode><comment><text>840.4547168321548</text><id>DFX:rectilinearity</id></comment><comment><text>de.gempa.tb1.Pick/20250413044731.509061.128873</text><id>RefPickID</id></comment><comment><text>8.406325242829739</text><id>SNR</id></comment></pick><pick publicID="de.gempa.tb1.Pick/20250413044757.609943.128881"><time><value>2025-04-13T04:47:48.208393Z</value></time><waveformID networkCode="CX" stationCode="PB06" channelCode="HHN"/><filterID>ITAPER(2)&gt;&gt;BW(3,3,20)</filterID><methodID>L2-AIC-GRID</methodID><horizontalSlowness><value>15.632148140612665</value></horizontalSlowness><backazimuth><value>129.9631967507918</value></backazimuth><phaseHint>S</phaseHint><evaluationMode>automatic</evaluationMode><comment><text>51.43908232490601</text><id>DFX:rectilinearity</id></comment><comment><text>de.gempa.tb1.Pick/20250413044733.624268.128875</text><id>RefPickID</id></comment><comment><text>9.449100184216121</text><id>SNR</id></comment></pick><origin publicID="de.gempa.tb1.Origin/20250413044757.613636.100826"><time><value>2025-04-13T04:46:58.689347Z</value><uncertainty>0.9385486841201782</uncertainty></time><latitude><value>-21.706987380981445</value><uncertainty>3.4711992740631104</uncertainty></latitude><longitude><value>-68.36898040771484</value><uncertainty>4.596230983734131</uncertainty></longitude><depth><value>0</value></depth><depthType>operator assigned</depthType><methodID>LOCSAT</methodID><earthModelID>iasp91_scanloc</earthModelID><quality><associatedPhaseCount>10</associatedPhaseCount><usedPhaseCount>10</usedPhaseCount><associatedStationCount>5</associatedStationCount><usedStationCount>5</usedStationCount><depthPhaseCount>0</depthPhaseCount><standardError>0.7930624432013232</standardError><azimuthalGap>285.8964538574219</azimuthalGap><maximumDistance>1.4935407638549805</maximumDistance><minimumDistance>1.2340317964553833</minimumDistance><medianDistance>1.4109317064285278</medianDistance></quality><uncertainty><minHorizontalUncertainty>7.285733222961426</minHorizontalUncertainty><maxHorizontalUncertainty>9.975667953491211</maxHorizontalUncertainty><azimuthMaxHorizontalUncertainty>77.02159881591797</azimuthMaxHorizontalUncertainty><preferredDescription>horizontal uncertainty</preferredDescription></uncertainty><evaluationMode>automatic</evaluationMode><evaluationStatus>confirmed</evaluationStatus><comment><text>0.82</text><id>mismatchScore</id></comment><comment><text>extendedGap</text><id>scevalMethod</id></comment><arrival><pickID>de.gempa.tb1.Pick/20250413044730.556769.128867</pickID><phase>P</phase><azimuth>254.9381103515625</azimuth><distance>1.3297736644744873</distance><timeResidual>0.2656230926513672</timeResidual><timeUsed>true</timeUsed><horizontalSlownessUsed>false</horizontalSlownessUsed><backazimuthUsed>false</backazimuthUsed><weight>1</weight></arrival><arrival><pickID>de.gempa.tb1.Pick/20250413044730.590567.128869</pickID><phase>P</phase><azimuth>302.1553039550781</azimuth><distance>1.2340317964553833</distance><timeResidual>0.5483779907226562</timeResidual><timeUsed>true</timeUsed><horizontalSlownessUsed>false</horizontalSlownessUsed><backazimuthUsed>false</backazimuthUsed><weight>1</weight></arrival><arrival><pickID>de.gempa.tb1.Pick/20250413044730.639798.128871</pickID><phase>P</phase><azimuth>268.9255676269531</azimuth><distance>1.4109317064285278</distance><timeResidual>-0.3602409362792969</timeResidual><timeUsed>true</timeUsed><horizontalSlownessUsed>false</horizontalSlownessUsed><backazimuthUsed>false</backazimuthUsed><weight>1</weight></arrival><arrival><pickID>de.gempa.tb1.Pick/20250413044731.509061.128873</pickID><phase>P</phase><azimuth>284.88409423828125</azimuth><distance>1.473219394683838</distance><timeResidual>-0.7980270385742188</timeResidual><timeUsed>true</timeUsed><horizontalSlownessUsed>false</horizontalSlownessUsed><backazimuthUsed>false</backazimuthUsed><weight>1</weight></arrival><arrival><pickID>de.gempa.tb1.Pick/20250413044733.624268.128875</pickID><phase>P</phase><azimuth>228.0517578125</azimuth><distance>1.4935407638549805</distance><timeResidual>0.27392005920410156</timeResidual><timeUsed>true</timeUsed><horizontalSlownessUsed>false</horizontalSlownessUsed><backazimuthUsed>false</backazimuthUsed><weight>1</weight></arrival><arrival><pickID>de.gempa.tb1.Pick/20250413044748.593261.128877</pickID><phase>S</phase><azimuth>302.1553039550781</azimuth><distance>1.2340317964553833</distance><timeResidual>1.3488807678222656</timeResidual><timeUsed>true</timeUsed><horizontalSlownessUsed>false</horizontalSlownessUsed><backazimuthUsed>false</backazimuthUsed><weight>1</weight></arrival><arrival><pickID>de.gempa.tb1.Pick/20250413044749.622368.128878</pickID><phase>S</phase><azimuth>254.9381103515625</azimuth><distance>1.3297736644744873</distance><timeResidual>0.541290283203125</timeResidual><timeUsed>true</timeUsed><horizontalSlownessUsed>false</horizontalSlownessUsed><backazimuthUsed>false</backazimuthUsed><weight>1</weight></arrival><arrival><pickID>de.gempa.tb1.Pick/20250413044749.784495.128879</pickID><phase>S</phase><azimuth>268.9255676269531</azimuth><distance>1.4109317064285278</distance><timeResidual>-0.5300922393798828</timeResidual><timeUsed>true</timeUsed><horizontalSlownessUsed>false</horizontalSlownessUsed><backazimuthUsed>false</backazimuthUsed><weight>1</weight></arrival><arrival><pickID>de.gempa.tb1.Pick/20250413044751.708786.128880</pickID><phase>S</phase><azimuth>284.88409423828125</azimuth><distance>1.473219394683838</distance><timeResidual>-1.606964111328125</timeResidual><timeUsed>true</timeUsed><horizontalSlownessUsed>false</horizontalSlownessUsed><backazimuthUsed>false</backazimuthUsed><weight>1</weight></arrival><arrival><pickID>de.gempa.tb1.Pick/20250413044757.609943.128881</pickID><phase>S</phase><azimuth>228.0517578125</azimuth><distance>1.4935407638549805</distance><timeResidual>0.31740760803222656</timeResidual><timeUsed>true</timeUsed><horizontalSlownessUsed>false</horizontalSlownessUsed><backazimuthUsed>false</backazimuthUsed><weight>1</weight></arrival><magnitude publicID="de.gempa.tb1.Magnitude/20250413044800.937856.316760"><magnitude><value>2.4136718403008413</value></magnitude><type>M</type><methodID>weighted average</methodID><stationCount>5</stationCount></magnitude></origin><event publicID="gempa2025hgtu"><preferredOriginID>de.gempa.tb1.Origin/20250413044757.613636.100826</preferredOriginID><preferredMagnitudeID>de.gempa.tb1.Magnitude/20250413044800.937856.316760</preferredMagnitudeID><typeCertainty>suspected</typeCertainty><description><text>Chile-Bolivia Border Region</text><type>region name</type></description><originReference>de.gempa.tb1.Origin/20250413044757.613636.100826</originReference></event></EventParameters></seiscomp>