<?xml version="1.0" encoding="UTF-8"?>
<seiscomp xmlns="http://geofon.gfz-potsdam.de/ns/seiscomp3-schema/0.13" version="0.13"><EventParameters><pick publicID="de.gempa.tb1.Pick/20250414161934.525957.139192"><time><value>2025-04-14T16:19:30.048393Z</value></time><waveformID networkCode="CX" stationCode="PB08" channelCode="HHZ"/><filterID>ITAPER(4)&gt;&gt;BW(4,4,20)</filterID><methodID>AIC</methodID><horizontalSlowness><value>17.995172871787908</value></horizontalSlowness><backazimuth><value>198.0264773431778</value></backazimuth><phaseHint>P</phaseHint><evaluationMode>automatic</evaluationMode><comment><text>235860.25953555075</text><id>DFX:rectilinearity</id></comment><comment><text>1235.8469644558766</text><id>SNR</id></comment></pick><pick publicID="de.gempa.tb1.Pick/20250414161940.606203.139196"><time><value>2025-04-14T16:19:34.19Z</value></time><waveformID networkCode="CX" stationCode="PSGCX" channelCode="HHZ"/><filterID>ITAPER(4)&gt;&gt;BW(4,4,20)</filterID><methodID>AIC</methodID><horizontalSlowness><value>10.010185468296587</value></horizontalSlowness><backazimuth><value>97.13368661172423</value></backazimuth><phaseHint>P</phaseHint><evaluationMode>automatic</evaluationMode><comment><text>1328474.7858563755</text><id>DFX:rectilinearity</id></comment><comment><text>4113.9798039482394</text><id>SNR</id></comment></pick><pick publicID="de.gempa.tb1.Pick/20250414161943.593318.139198"><time><value>2025-04-14T16:19:38.488394Z</value></time><waveformID networkCode="CX" stationCode="PB01" channelCode="HHZ"/><filterID>ITAPER(4)&gt;&gt;BW(4,4,20)</filterID><methodID>AIC</methodID><horizontalSlowness><value>13.21622738946945</value></horizontalSlowness><backazimuth><value>10.544784343981746</value></backazimuth><phaseHint>P</phaseHint><evaluationMode>automatic</evaluationMode><comment><text>11040.31588897164</text><id>DFX:rectilinearity</id></comment><comment><text>720.3803073129806</text><id>SNR</id></comment></pick><pick publicID="de.gempa.tb1.Pick/20250414161945.251845.139200"><time><value>2025-04-14T16:19:39.609999Z</value></time><waveformID networkCode="CX" stationCode="PATCX" channelCode="HHZ"/><filterID>ITAPER(4)&gt;&gt;BW(4,4,20)</filterID><methodID>AIC</methodID><horizontalSlowness><value>8.285310595263315</value></horizontalSlowness><backazimuth><value>49.83359308458097</value></backazimuth><phaseHint>P</phaseHint><evaluationMode>automatic</evaluationMode><comment><text>20431.419881398044</text><id>DFX:rectilinearity</id></comment><comment><text>176.8113374987742</text><id>SNR</id></comment></pick><pick publicID="de.gempa.tb1.Pick/20250414161946.975549.139202"><time><value>2025-04-14T16:19:40.768393Z</value></time><waveformID networkCode="CX" stationCode="PB16" channelCode="HHZ"/><filterID>ITAPER(4)&gt;&gt;BW(4,4,20)</filterID><methodID>AIC</methodID><horizontalSlowness><value>7.581750076768279</value></horizontalSlowness><backazimuth><value>165.7677115350805</value></backazimuth><phaseHint>P</phaseHint><evaluationMode>automatic</evaluationMode><comment><text>20537.42305545782</text><id>DFX:rectilinearity</id></comment><comment><text>679.5807707980991</text><id>SNR</id></comment></pick><pick publicID="de.gempa.tb1.Pick/20250414161949.554301.139204"><time><value>2025-04-14T16:19:43.098393Z</value></time><waveformID networkCode="CX" stationCode="PB08" channelCode="HHN"/><filterID>ITAPER(2)&gt;&gt;BW(3,3,20)</filterID><methodID>L2-AIC-GRID</methodID><horizontalSlowness><value>16.17056627814551</value></horizontalSlowness><backazimuth><value>204.69853035366924</value></backazimuth><phaseHint>S</phaseHint><evaluationMode>automatic</evaluationMode><comment><text>44794939.589718416</text><id>DFX:rectilinearity</id></comment><comment><text>de.gempa.tb1.Pick/20250414161934.525957.139192</text><id>RefPickID</id></comment><comment><text>17.175183112190847</text><id>SNR</id></comment></pick><pick publicID="de.gempa.tb1.Pick/20250414161949.555235.139205"><time><value>2025-04-14T16:19:43.418394Z</value></time><waveformID networkCode="CX" stationCode="PB02" channelCode="HHZ"/><filterID>ITAPER(4)&gt;&gt;BW(4,4,20)</filterID><methodID>AIC</methodID><horizontalSlowness><value>8.39999371306928</value></horizontalSlowness><backazimuth><value>27.308198945852013</value></backazimuth><phaseHint>P</phaseHint><evaluationMode>automatic</evaluationMode><comment><text>32708.448697469983</text><id>DFX:rectilinearity</id></comment><comment><text>156.95001697463056</text><id>SNR</id></comment></pick><pick publicID="de.gempa.tb1.Pick/20250414161955.067562.139209"><time><value>2025-04-14T16:19:47.868393Z</value></time><waveformID networkCode="CX" stationCode="PB07" channelCode="HHZ"/><filterID>ITAPER(4)&gt;&gt;BW(4,4,20)</filterID><methodID>AIC</methodID><horizontalSlowness><value>16.069461059634627</value></horizontalSlowness><backazimuth><value>44.726232379659166</value></backazimuth><phaseHint>P</phaseHint><evaluationMode>automatic</evaluationMode><comment><text>18456.9554963003</text><id>DFX:rectilinearity</id></comment><comment><text>295.8226585369898</text><id>SNR</id></comment></pick><pick publicID="de.gempa.tb1.Pick/20250414161956.6717.139211"><time><value>2025-04-14T16:19:50.71Z</value></time><waveformID networkCode="CX" stationCode="PSGCX" channelCode="HHN"/><filterID>ITAPER(2)&gt;&gt;BW(3,3,20)</filterID><methodID>L2-AIC-GRID</methodID><horizontalSlowness><value>19.605038677884277</value></horizontalSlowness><backazimuth><value>214.59662903867542</value></backazimuth><phaseHint>S</phaseHint><evaluationMode>automatic</evaluationMode><comment><text>2778715.4621749297</text><id>DFX:rectilinearity</id></comment><comment><text>de.gempa.tb1.Pick/20250414161940.606203.139196</text><id>RefPickID</id></comment><comment><text>9.403426401559187</text><id>SNR</id></comment></pick><pick publicID="de.gempa.tb1.Pick/20250414161958.609041.139212"><time><value>2025-04-14T16:19:51.858394Z</value></time><waveformID networkCode="CX" stationCode="PB03" channelCode="HHZ"/><filterID>ITAPER(4)&gt;&gt;BW(4,4,20)</filterID><methodID>AIC</methodID><horizontalSlowness><value>9.699628848328649</value></horizontalSlowness><backazimuth><value>1.79660455822966</value></backazimuth><phaseHint>P</phaseHint><evaluationMode>automatic</evaluationMode><comment><text>4900.280926833065</text><id>DFX:rectilinearity</id></comment><comment><text>166.81006983905198</text><id>SNR</id></comment></pick><pick publicID="de.gempa.tb1.Pick/20250414162001.422861.139215"><time><value>2025-04-14T16:19:47.650001Z</value></time><waveformID networkCode="CX" stationCode="PB09" channelCode="HHZ"/><filterID>ITAPER(4)&gt;&gt;BW(4,4,20)</filterID><methodID>AIC</methodID><horizontalSlowness><value>15.493308485414012</value></horizontalSlowness><backazimuth><value>59.48404916038776</value></backazimuth><phaseHint>P</phaseHint><evaluationMode>automatic</evaluationMode><comment><text>8818.559464929825</text><id>DFX:rectilinearity</id></comment><comment><text>252.4232414071127</text><id>SNR</id></comment></pick><pick publicID="de.gempa.tb1.Pick/20250414162004.654626.139219"><time><value>2025-04-14T16:19:57.998394Z</value></time><waveformID networkCode="CX" stationCode="PB01" channelCode="HHN"/><filterID>ITAPER(2)&gt;&gt;BW(3,3,20)</filterID><methodID>L2-AIC-GRID</methodID><horizontalSlowness><value>23.295323059511617</value></horizontalSlowness><backazimuth><value>194.42865078232967</value></backazimuth><phaseHint>S</phaseHint><evaluationMode>automatic</evaluationMode><comment><text>3607820.407890373</text><id>DFX:rectilinearity</id></comment><comment><text>de.gempa.tb1.Pick/20250414161943.593318.139198</text><id>RefPickID</id></comment><comment><text>17.0815187964593</text><id>SNR</id></comment></pick><pick publicID="de.gempa.tb1.Pick/20250414162007.510862.139220"><time><value>2025-04-14T16:20:00.429999Z</value></time><waveformID networkCode="CX" stationCode="PATCX" channelCode="HHN"/><filterID>ITAPER(2)&gt;&gt;BW(3,3,20)</filterID><methodID>L2-AIC-GRID</methodID><horizontalSlowness><value>19.84714864048058</value></horizontalSlowness><backazimuth><value>313.1680193236608</value></backazimuth><phaseHint>S</phaseHint><evaluationMode>automatic</evaluationMode><comment><text>672565.9600842983</text><id>DFX:rectilinearity</id></comment><comment><text>de.gempa.tb1.Pick/20250414161945.251845.139200</text><id>RefPickID</id></comment><comment><text>9.152297507686336</text><id>SNR</id></comment></pick><pick publicID="de.gempa.tb1.Pick/20250414162007.707142.139222"><time><value>2025-04-14T16:20:00.008393Z</value></time><waveformID networkCode="CX" stationCode="PB06" channelCode="HHZ"/><filterID>ITAPER(4)&gt;&gt;BW(4,4,20)</filterID><methodID>AIC</methodID><horizontalSlowness><value>7.12703192110485</value></horizontalSlowness><backazimuth><value>357.33634893112264</value></backazimuth><phaseHint>P</phaseHint><evaluationMode>automatic</evaluationMode><comment><text>1102.4168127162229</text><id>DFX:rectilinearity</id></comment><comment><text>28.77562451115907</text><id>SNR</id></comment></pick><pick publicID="de.gempa.tb1.Pick/20250414162015.660046.139227"><time><value>2025-04-14T16:20:07.998393Z</value></time><waveformID networkCode="CX" stationCode="PB15" channelCode="HHZ"/><filterID>ITAPER(4)&gt;&gt;BW(4,4,20)</filterID><methodID>AIC</methodID><horizontalSlowness><value>17.023805189459157</value></horizontalSlowness><backazimuth><value>68.67927698854558</value></backazimuth><phaseHint>P</phaseHint><evaluationMode>automatic</evaluationMode><comment><text>2171.0990794525023</text><id>DFX:rectilinearity</id></comment><comment><text>17.214211917047354</text><id>SNR</id></comment></pick><pick publicID="de.gempa.tb1.Pick/20250414162019.232641.139230"><time><value>2025-04-14T16:20:11.47Z</value></time><waveformID networkCode="CX" stationCode="PB10" channelCode="HHZ"/><filterID>ITAPER(4)&gt;&gt;BW(4,4,20)</filterID><methodID>AIC</methodID><horizontalSlowness><value>9.17180474040326</value></horizontalSlowness><backazimuth><value>338.10320332600435</value></backazimuth><phaseHint>P</phaseHint><evaluationMode>automatic</evaluationMode><comment><text>60.72814441252352</text><id>DFX:rectilinearity</id></comment><comment><text>8.919018210568591</text><id>SNR</id></comment></pick><pick publicID="de.gempa.tb1.Pick/20250414162021.886875.139232"><time><value>2025-04-14T16:20:14.74Z</value></time><waveformID networkCode="CX" stationCode="PB19" channelCode="HHZ"/><filterID>ITAPER(4)&gt;&gt;BW(4,4,20)</filterID><methodID>AIC</methodID><horizontalSlowness><value>11.226383750573643</value></horizontalSlowness><backazimuth><value>268.9104981713416</value></backazimuth><phaseHint>P</phaseHint><evaluationMode>automatic</evaluationMode><comment><text>36.555455684030285</text><id>DFX:rectilinearity</id></comment><comment><text>16.914018569748645</text><id>SNR</id></comment></pick><pick publicID="de.gempa.tb1.Pick/20250414162024.611253.139234"><time><value>2025-04-14T16:20:19.248394Z</value></time><waveformID networkCode="CX" stationCode="PB03" channelCode="HHN"/><filterID>ITAPER(2)&gt;&gt;BW(3,3,20)</filterID><methodID>L2-AIC-GRID</methodID><horizontalSlowness><value>15.970343768331526</value></horizontalSlowness><backazimuth><value>351.3359536073638</value></backazimuth><phaseHint>S</phaseHint><evaluationMode>automatic</evaluationMode><comment><text>28246.291291758247</text><id>DFX:rectilinearity</id></comment><comment><text>de.gempa.tb1.Pick/20250414161958.609041.139212</text><id>RefPickID</id></comment><comment><text>6.905821088008046</text><id>SNR</id></comment></pick><pick publicID="de.gempa.tb1.Pick/20250414162026.379031.139237"><time><value>2025-04-14T16:20:14.840001Z</value></time><waveformID networkCode="CX" stationCode="PB09" channelCode="HHN"/><filterID>ITAPER(2)&gt;&gt;BW(3,3,20)</filterID><methodID>L2-AIC-GRID</methodID><horizontalSlowness><value>12.914935613190796</value></horizontalSlowness><backazimuth><value>324.10068045213814</value></backazimuth><phaseHint>S</phaseHint><evaluationMode>automatic</evaluationMode><comment><text>1473359.416139904</text><id>DFX:rectilinearity</id></comment><comment><text>de.gempa.tb1.Pick/20250414162001.422861.139215</text><id>RefPickID</id></comment><comment><text>5.64231012877965</text><id>SNR</id></comment></pick><pick publicID="de.gempa.tb1.Pick/20250414162051.880611.139245"><time><value>2025-04-14T16:20:14.548393Z</value></time><waveformID networkCode="CX" stationCode="PB07" channelCode="HHN"/><filterID>ITAPER(2)&gt;&gt;BW(3,3,20)</filterID><methodID>L2-AIC-GRID</methodID><horizontalSlowness><value>21.412941251021074</value></horizontalSlowness><backazimuth><value>332.6540868375811</value></backazimuth><phaseHint>S</phaseHint><evaluationMode>automatic</evaluationMode><comment><text>4775679.660377754</text><id>DFX:rectilinearity</id></comment><comment><text>de.gempa.tb1.Pick/20250414161955.067562.139209</text><id>RefPickID</id></comment><comment><text>8.380334229909435</text><id>SNR</id></comment></pick><origin publicID="de.gempa.tb1.Origin/20250414162051.889945.142985"><time><value>2025-04-14T16:19:14.112337Z</value><uncertainty>0.5834004878997803</uncertainty></time><latitude><value>-19.759387969970703</value><uncertainty>2.9995455741882324</uncertainty></latitude><longitude><value>-69.18730163574219</value><uncertainty>5.779190063476562</uncertainty></longitude><depth><value>112.77249145507812</value><uncertainty>4.978480339050293</uncertainty></depth><depthType>from location</depthType><methodID>LOCSAT</methodID><earthModelID>iasp91_scanloc</earthModelID><quality><associatedPhaseCount>20</associatedPhaseCount><usedPhaseCount>20</usedPhaseCount><associatedStationCount>13</associatedStationCount><usedStationCount>13</usedStationCount><depthPhaseCount>0</depthPhaseCount><standardError>0.7410928235037165</standardError><azimuthalGap>187.33067321777344</azimuthalGap><maximumDistance>4.126387596130371</maximumDistance><minimumDistance>0.381104439496994</minimumDistance><medianDistance>2.0274043083190918</medianDistance></quality><uncertainty><minHorizontalUncertainty>6.304892539978027</minHorizontalUncertainty><maxHorizontalUncertainty>12.457060813903809</maxHorizontalUncertainty><azimuthMaxHorizontalUncertainty>83.20458221435547</azimuthMaxHorizontalUncertainty><preferredDescription>horizontal uncertainty</preferredDescription></uncertainty><evaluationMode>automatic</evaluationMode><evaluationStatus>confirmed</evaluationStatus><comment><text>0.00</text><id>mismatchScore</id></comment><comment><text>mismatchScore</text><id>scevalMethod</id></comment><arrival><pickID>de.gempa.tb1.Pick/20250414161934.525957.139192</pickID><phase>P</phase><azimuth>175.20497131347656</azimuth><distance>0.381104439496994</distance><timeResidual>-0.5393772125244141</timeResidual><timeUsed>true</timeUsed><horizontalSlownessUsed>false</horizontalSlownessUsed><backazimuthUsed>false</backazimuthUsed><weight>1</weight></arrival><arrival><pickID>de.gempa.tb1.Pick/20250414161940.606203.139196</pickID><phase>P</phase><azimuth>280.2143859863281</azimuth><distance>0.8964075446128845</distance><timeResidual>-0.36014747619628906</timeResidual><timeUsed>true</timeUsed><horizontalSlownessUsed>false</horizontalSlownessUsed><backazimuthUsed>false</backazimuthUsed><weight>1</weight></arrival><arrival><pickID>de.gempa.tb1.Pick/20250414161943.593318.139198</pickID><phase>P</phase><azimuth>192.37661743164062</azimuth><distance>1.3079683780670166</distance><timeResidual>-0.40625953674316406</timeResidual><timeUsed>true</timeUsed><horizontalSlownessUsed>false</horizontalSlownessUsed><backazimuthUsed>false</backazimuthUsed><weight>1</weight></arrival><arrival><pickID>de.gempa.tb1.Pick/20250414161945.251845.139200</pickID><phase>P</phase><azimuth>220.47726440429688</azimuth><distance>1.3915650844573975</distance><timeResidual>-0.2432231903076172</timeResidual><timeUsed>true</timeUsed><horizontalSlownessUsed>false</horizontalSlownessUsed><backazimuthUsed>false</backazimuthUsed><weight>1</weight></arrival><arrival><pickID>de.gempa.tb1.Pick/20250414161946.975549.139202</pickID><phase>P</phase><azimuth>347.8742980957031</azimuth><distance>1.4488121271133423</distance><timeResidual>0.2364492416381836</timeResidual><timeUsed>true</timeUsed><horizontalSlownessUsed>false</horizontalSlownessUsed><backazimuthUsed>false</backazimuthUsed><weight>1</weight></arrival><arrival><pickID>de.gempa.tb1.Pick/20250414161949.554301.139204</pickID><phase>S</phase><azimuth>175.20497131347656</azimuth><distance>0.381104439496994</distance><timeResidual>-0.1714458465576172</timeResidual><timeUsed>true</timeUsed><horizontalSlownessUsed>false</horizontalSlownessUsed><backazimuthUsed>false</backazimuthUsed><weight>1</weight></arrival><arrival><pickID>de.gempa.tb1.Pick/20250414161949.555235.139205</pickID><phase>P</phase><azimuth>203.041015625</azimuth><distance>1.6885616779327393</distance><timeResidual>0.0343780517578125</timeResidual><timeUsed>true</timeUsed><horizontalSlownessUsed>false</horizontalSlownessUsed><backazimuthUsed>false</backazimuthUsed><weight>1</weight></arrival><arrival><pickID>de.gempa.tb1.Pick/20250414161955.067562.139209</pickID><phase>P</phase><azimuth>198.35659790039062</azimuth><distance>2.0637800693511963</distance><timeResidual>-0.1845531463623047</timeResidual><timeUsed>true</timeUsed><horizontalSlownessUsed>false</horizontalSlownessUsed><backazimuthUsed>false</backazimuthUsed><weight>1</weight></arrival><arrival><pickID>de.gempa.tb1.Pick/20250414161956.6717.139211</pickID><phase>S</phase><azimuth>280.2143859863281</azimuth><distance>0.8964075446128845</distance><timeResidual>0.3842201232910156</timeResidual><timeUsed>true</timeUsed><horizontalSlownessUsed>false</horizontalSlownessUsed><backazimuthUsed>false</backazimuthUsed><weight>1</weight></arrival><arrival><pickID>de.gempa.tb1.Pick/20250414161958.609041.139212</pickID><phase>P</phase><azimuth>192.97630310058594</azimuth><distance>2.338244915008545</distance><timeResidual>0.29881858825683594</timeResidual><timeUsed>true</timeUsed><horizontalSlownessUsed>false</horizontalSlownessUsed><backazimuthUsed>false</backazimuthUsed><weight>1</weight></arrival><arrival><pickID>de.gempa.tb1.Pick/20250414162001.422861.139215</pickID><phase>P</phase><azimuth>181.4349822998047</azimuth><distance>2.0274043083190918</distance><timeResidual>0.05902671813964844</timeResidual><timeUsed>true</timeUsed><horizontalSlownessUsed>false</horizontalSlownessUsed><backazimuthUsed>false</backazimuthUsed><weight>1</weight></arrival><arrival><pickID>de.gempa.tb1.Pick/20250414162004.654626.139219</pickID><phase>S</phase><azimuth>192.37661743164062</azimuth><distance>1.3079683780670166</distance><timeResidual>-0.08364677429199219</timeResidual><timeUsed>true</timeUsed><horizontalSlownessUsed>false</horizontalSlownessUsed><backazimuthUsed>false</backazimuthUsed><weight>1</weight></arrival><arrival><pickID>de.gempa.tb1.Pick/20250414162007.510862.139220</pickID><phase>S</phase><azimuth>220.47726440429688</azimuth><distance>1.3915650844573975</distance><timeResidual>0.6345787048339844</timeResidual><timeUsed>true</timeUsed><horizontalSlownessUsed>false</horizontalSlownessUsed><backazimuthUsed>false</backazimuthUsed><weight>1</weight></arrival><arrival><pickID>de.gempa.tb1.Pick/20250414162007.707142.139222</pickID><phase>P</phase><azimuth>186.90841674804688</azimuth><distance>2.953688621520996</distance><timeResidual>0.4211711883544922</timeResidual><timeUsed>true</timeUsed><horizontalSlownessUsed>false</horizontalSlownessUsed><backazimuthUsed>false</backazimuthUsed><weight>1</weight></arrival><arrival><pickID>de.gempa.tb1.Pick/20250414162015.660046.139227</pickID><phase>P</phase><azimuth>184.35011291503906</azimuth><distance>3.442157506942749</distance><timeResidual>1.9316768646240234</timeResidual><timeUsed>true</timeUsed><horizontalSlownessUsed>false</horizontalSlownessUsed><backazimuthUsed>false</backazimuthUsed><weight>1</weight></arrival><arrival><pickID>de.gempa.tb1.Pick/20250414162019.232641.139230</pickID><phase>P</phase><azimuth>198.55177307128906</azimuth><distance>3.946092128753662</distance><timeResi