<?xml version="1.0" encoding="UTF-8"?>
<seiscomp xmlns="http://geofon.gfz-potsdam.de/ns/seiscomp3-schema/0.13" version="0.13"><EventParameters><pick publicID="de.gempa.tb1.Pick/20250411162542.638472.118714"><time><value>2025-04-11T16:25:37.28Z</value></time><waveformID networkCode="CX" stationCode="PB09" channelCode="HHZ"/><filterID>ITAPER(4)&gt;&gt;BW(4,4,20)</filterID><methodID>AIC</methodID><horizontalSlowness><value>8.982556274969514</value></horizontalSlowness><backazimuth><value>309.279378624424</value></backazimuth><phaseHint>P</phaseHint><evaluationMode>automatic</evaluationMode><comment><text>8.294200876125524</text><id>DFX:rectilinearity</id></comment><comment><text>31.705518882826965</text><id>SNR</id></comment></pick><pick publicID="de.gempa.tb1.Pick/20250411162546.590664.118716"><time><value>2025-04-11T16:25:41.288393Z</value></time><waveformID networkCode="CX" stationCode="PB03" channelCode="HHZ"/><filterID>ITAPER(4)&gt;&gt;BW(4,4,20)</filterID><methodID>AIC</methodID><horizontalSlowness><value>11.217020070118759</value></horizontalSlowness><backazimuth><value>226.8625101816027</value></backazimuth><phaseHint>P</phaseHint><evaluationMode>automatic</evaluationMode><comment><text>14.034330822955535</text><id>DFX:rectilinearity</id></comment><comment><text>24.18993247496546</text><id>SNR</id></comment></pick><pick publicID="de.gempa.tb1.Pick/20250411162548.651268.118718"><time><value>2025-04-11T16:25:41.368393Z</value></time><waveformID networkCode="CX" stationCode="PB01" channelCode="HHZ"/><filterID>ITAPER(4)&gt;&gt;BW(4,4,20)</filterID><methodID>AIC</methodID><horizontalSlowness><value>15.719189827014455</value></horizontalSlowness><backazimuth><value>340.0276103360452</value></backazimuth><phaseHint>P</phaseHint><evaluationMode>automatic</evaluationMode><comment><text>20.72038384212788</text><id>DFX:rectilinearity</id></comment><comment><text>13.66139805104968</text><id>SNR</id></comment></pick><pick publicID="de.gempa.tb1.Pick/20250411162550.663417.118720"><time><value>2025-04-11T16:25:42.448396Z</value></time><waveformID networkCode="CX" stationCode="PB07" channelCode="HHZ"/><filterID>ITAPER(4)&gt;&gt;BW(4,4,20)</filterID><methodID>AIC</methodID><horizontalSlowness><value>23.578501041468567</value></horizontalSlowness><backazimuth><value>57.17202957311875</value></backazimuth><phaseHint>P</phaseHint><evaluationMode>automatic</evaluationMode><comment><text>206.42762010204433</text><id>DFX:rectilinearity</id></comment><comment><text>64.00949407680578</text><id>SNR</id></comment></pick><pick publicID="de.gempa.tb1.Pick/20250411162551.557057.118722"><time><value>2025-04-11T16:25:43.708393Z</value></time><waveformID networkCode="CX" stationCode="PB06" channelCode="HHZ"/><filterID>ITAPER(4)&gt;&gt;BW(4,4,20)</filterID><methodID>AIC</methodID><horizontalSlowness><value>12.714927114628107</value></horizontalSlowness><backazimuth><value>12.78473512637055</value></backazimuth><phaseHint>P</phaseHint><evaluationMode>automatic</evaluationMode><comment><text>41.08588065933152</text><id>DFX:rectilinearity</id></comment><comment><text>8.199659003571751</text><id>SNR</id></comment></pick><pick publicID="de.gempa.tb1.Pick/20250411162552.681413.118724"><time><value>2025-04-11T16:25:43.508394Z</value></time><waveformID networkCode="CX" stationCode="PB02" channelCode="HHZ"/><filterID>ITAPER(4)&gt;&gt;BW(4,4,20)</filterID><methodID>AIC</methodID><horizontalSlowness><value>11.65075341834907</value></horizontalSlowness><backazimuth><value>316.8054242616319</value></backazimuth><phaseHint>P</phaseHint><evaluationMode>automatic</evaluationMode><comment><text>33.643771118167415</text><id>DFX:rectilinearity</id></comment><comment><text>8.438759586580353</text><id>SNR</id></comment></pick><pick publicID="de.gempa.tb1.Pick/20250411162606.591592.118727"><time><value>2025-04-11T16:25:59.238393Z</value></time><waveformID networkCode="CX" stationCode="PB03" channelCode="HHN"/><filterID>ITAPER(2)&gt;&gt;BW(3,3,20)</filterID><methodID>L2-AIC-GRID</methodID><horizontalSlowness><value>16.87135758695466</value></horizontalSlowness><backazimuth><value>87.89911310374903</value></backazimuth><phaseHint>S</phaseHint><evaluationMode>automatic</evaluationMode><comment><text>11.91738874347073</text><id>DFX:rectilinearity</id></comment><comment><text>de.gempa.tb1.Pick/20250411162546.590664.118716</text><id>RefPickID</id></comment><comment><text>7.585449408552029</text><id>SNR</id></comment></pick><pick publicID="de.gempa.tb1.Pick/20250411162606.79245.118728"><time><value>2025-04-11T16:26:00.958396Z</value></time><waveformID networkCode="CX" stationCode="PB07" channelCode="HHN"/><filterID>ITAPER(2)&gt;&gt;BW(3,3,20)</filterID><methodID>L2-AIC-GRID</methodID><horizontalSlowness><value>23.17708616027206</value></horizontalSlowness><backazimuth><value>172.1448090512307</value></backazimuth><phaseHint>S</phaseHint><evaluationMode>automatic</evaluationMode><comment><text>548.0007553738412</text><id>DFX:rectilinearity</id></comment><comment><text>de.gempa.tb1.Pick/20250411162550.663417.118720</text><id>RefPickID</id></comment><comment><text>8.372984081240098</text><id>SNR</id></comment></pick><pick publicID="de.gempa.tb1.Pick/20250411162608.200324.118731"><time><value>2025-04-11T16:26:02.06Z</value></time><waveformID networkCode="CX" stationCode="PB10" channelCode="HHZ"/><filterID>ITAPER(4)&gt;&gt;BW(4,4,20)</filterID><methodID>AIC</methodID><horizontalSlowness><value>6.636651673706078</value></horizontalSlowness><backazimuth><value>19.997595812326324</value></backazimuth><phaseHint>P</phaseHint><evaluationMode>automatic</evaluationMode><comment><text>53.34557969493626</text><id>DFX:rectilinearity</id></comment><comment><text>5.085039372246892</text><id>SNR</id></comment></pick><pick publicID="de.gempa.tb1.Pick/20250411162609.628931.118735"><time><value>2025-04-11T16:26:02.508394Z</value></time><waveformID networkCode="CX" stationCode="PB02" channelCode="HHN"/><filterID>ITAPER(2)&gt;&gt;BW(3,3,20)</filterID><methodID>L2-AIC-GRID</methodID><horizontalSlowness><value>11.40268232549277</value></horizontalSlowness><backazimuth><value>311.55248973370294</value></backazimuth><phaseHint>S</phaseHint><evaluationMode>automatic</evaluationMode><comment><text>83.26810082174009</text><id>DFX:rectilinearity</id></comment><comment><text>de.gempa.tb1.Pick/20250411162552.681413.118724</text><id>RefPickID</id></comment><comment><text>7.285779356424499</text><id>SNR</id></comment></pick><origin publicID="de.gempa.tb1.Origin/20250411162610.217096.60629"><time><value>2025-04-11T16:25:20.099534Z</value><uncertainty>1.029145359992981</uncertainty></time><latitude><value>-21.688518524169922</value><uncertainty>6.670016765594482</uncertainty></latitude><longitude><value>-68.50218963623047</value><uncertainty>10.817723274230957</uncertainty></longitude><depth><value>87.98568725585938</value><uncertainty>21.283123016357422</uncertainty></depth><depthType>from location</depthType><methodID>LOCSAT</methodID><earthModelID>iasp91_scanloc</earthModelID><quality><associatedPhaseCount>10</associatedPhaseCount><usedPhaseCount>10</usedPhaseCount><associatedStationCount>7</associatedStationCount><usedStationCount>7</usedStationCount><depthPhaseCount>0</depthPhaseCount><standardError>0.7516906104795604</standardError><azimuthalGap>279.4156188964844</azimuthalGap><maximumDistance>2.6256117820739746</maximumDistance><minimumDistance>0.6960598826408386</minimumDistance><medianDistance>1.287570834159851</medianDistance></quality><uncertainty><minHorizontalUncertainty>14.299128532409668</minHorizontalUncertainty><maxHorizontalUncertainty>23.205244064331055</maxHorizontalUncertainty><azimuthMaxHorizontalUncertainty>91.34001922607422</azimuthMaxHorizontalUncertainty><preferredDescription>horizontal uncertainty</preferredDescription></uncertainty><evaluationMode>automatic</evaluationMode><evaluationStatus>confirmed</evaluationStatus><comment><text>0.14</text><id>mismatchScore</id></comment><comment><text>mismatchScore</text><id>scevalMethod</id></comment><arrival><pickID>de.gempa.tb1.Pick/20250411162542.638472.118714</pickID><phase>P</phase><azimuth>260.9932861328125</azimuth><distance>0.6960598826408386</distance><timeResidual>0.8727455139160156</timeResidual><timeUsed>true</timeUsed><horizontalSlownessUsed>false</horizontalSlownessUsed><backazimuthUsed>false</backazimuthUsed><weight>1</weight></arrival><arrival><pickID>de.gempa.tb1.Pick/20250411162546.590664.118716</pickID><phase>P</phase><azimuth>252.6358947753906</azimuth><distance>1.2159240245819092</distance><timeResidual>-0.9388351440429688</timeResidual><timeUsed>true</timeUsed><horizontalSlownessUsed>false</horizontalSlownessUsed><backazimuthUsed>false</backazimuthUsed><weight>1</weight></arrival><arrival><pickID>de.gempa.tb1.Pick/20250411162548.651268.118718</pickID><phase>P</phase><azimuth>304.7829895019531</azimuth><distance>1.1205254793167114</distance><timeResidual>0.2837562561035156</timeResidual><timeUsed>true</timeUsed><horizontalSlownessUsed>false</horizontalSlownessUsed><backazimuthUsed>false</backazimuthUsed><weight>1</weight></arrival><arrival><pickID>de.gempa.tb1.Pick/20250411162550.663417.118720</pickID><phase>P</phase><azimuth>268.05596923828125</azimuth><distance>1.287570834159851</distance><timeResidual>-0.6567955017089844</timeResidual><timeUsed>true</timeUsed><horizontalSlownessUsed>false</horizontalSlownessUsed><backazimuthUsed>false</backazimuthUsed><weight>1</weight></arrival><arrival><pickID>de.gempa.tb1.Pick/20250411162551.557057.118722</pickID><phase>P</phase><azimuth>224.1986083984375</azimuth><distance>1.4169318675994873</distance><timeResidual>-1.0020599365234375</timeResidual><timeUsed>true</timeUsed><horizontalSlownessUsed>false</horizontalSlownessUsed><backazimuthUsed>false</backazimuthUsed><weight>1</weight></arrival><arrival><pickID>de.gempa.tb1.Pick/20250411162552.681413.118724</pickID><phase>P</phase><azimuth>285.53240966796875</azimuth><distance>1.348850965499878</distance><timeResidual>-0.35765838623046875</timeResidual><timeUsed>true</timeUsed><horizontalSlownessUsed>false</horizontalSlownessUsed><backazimuthUsed>false</backazimuthUsed><weight>1</weight></arrival><arrival><pickID>de.gempa.tb1.Pick/20250411162606.591592.118727</pickID><phase>S</phase><azimuth>252.6358947753906</azimuth><distance>1.2159240245819092</distance><timeResidual>-0.0665283203125</timeResidual><timeUsed>true</timeUsed><horizontalSlownessUsed>false</horizontalSlownessUsed><backazimuthUsed>false</backazimuthUsed><weight>1</weight></arrival><arrival><pickID>de.gempa.tb1.Pick/20250411162606.79245.118728</pickID><phase>S</phase><azimuth>268.05596923828125</azimuth><distance>1.287570834159851</distance><timeResidual>0.08323860168457031</timeResidual><timeUsed>true</timeUsed><horizontalSlownessUsed>false</horizontalSlownessUsed><backazimuthUsed>false</backazimuthUsed><weight>1</weight></arrival><arrival><pickID>de.gempa.tb1.Pick/20250411162608.200324.118731</pickID><phase>P</phase><azimuth>225.8451385498047</azimuth><distance>2.6256117820739746</distance><timeResidual>1.5092182159423828</timeResidual><timeUsed>true</timeUsed><horizontalSlownessUsed>false</horizontalSlownessUsed><backazimuthUsed>false</backazimuthUsed><weight>1</weight></arrival><arrival><pickID>de.gempa.tb1.Pick/20250411162609.628931.118735</pickID><phase>S</phase><azimuth>285.53240966796875</azimuth><distance>1.348850965499878</distance><timeResidual>0.27249908447265625</timeResidual><timeUsed>true</timeUsed><horizontalSlownessUsed>false</horizontalSlownessUsed><backazimuthUsed>false</backazimuthUsed><weight>1</weight></arrival><magnitude publicID="de.gempa.tb1.Magnitude/20250411162615.937174.119302"><magnitude><value>2.9677690402681547</value></magnitude><type>M</type><methodID>weighted average</methodID><stationCount>1</stationCount></magnitude></origin><event publicID="gempa2025hdzb"><preferredOriginID>de.gempa.tb1.Origin/20250411162610.217096.60629</preferredOriginID><preferredMagnitudeID>de.gempa.tb1.Magnitude/20250411162615.937174.119302</preferredMagnitudeID><description><text>Chile-Bolivia Border Region</text><type>region name</type></description><originReference>de.gempa.tb1.Origin/20250411162610.217096.60629</originReference></event></EventParameters></seiscomp>