<?xml version="1.0" encoding="UTF-8"?>
<seiscomp xmlns="http://geofon.gfz-potsdam.de/ns/seiscomp3-schema/0.13" version="0.13"><EventParameters><pick publicID="de.gempa.tb1.Pick/20250412160305.588283.125158"><time><value>2025-04-12T16:02:59.428393Z</value></time><waveformID networkCode="CX" stationCode="PB01" channelCode="HHZ"/><filterID>ITAPER(4)&gt;&gt;BW(4,4,20)</filterID><methodID>AIC</methodID><horizontalSlowness><value>20.89134629169595</value></horizontalSlowness><backazimuth><value>8.66151823654846</value></backazimuth><phaseHint>P</phaseHint><evaluationMode>automatic</evaluationMode><comment><text>18.30035569978975</text><id>DFX:rectilinearity</id></comment><comment><text>78.48469360936737</text><id>SNR</id></comment></pick><pick publicID="de.gempa.tb1.Pick/20250412160308.488951.125160"><time><value>2025-04-12T16:03:03.088394Z</value></time><waveformID networkCode="CX" stationCode="PB02" channelCode="HHZ"/><filterID>ITAPER(4)&gt;&gt;BW(4,4,20)</filterID><methodID>AIC</methodID><horizontalSlowness><value>10.243762861238258</value></horizontalSlowness><backazimuth><value>11.687955573627647</value></backazimuth><phaseHint>P</phaseHint><evaluationMode>automatic</evaluationMode><comment><text>65.27396661036539</text><id>DFX:rectilinearity</id></comment><comment><text>87.73638273507002</text><id>SNR</id></comment></pick><pick publicID="de.gempa.tb1.Pick/20250412160311.569542.125162"><time><value>2025-04-12T16:03:05.888393Z</value></time><waveformID networkCode="CX" stationCode="PB03" channelCode="HHZ"/><filterID>ITAPER(4)&gt;&gt;BW(4,4,20)</filterID><methodID>AIC</methodID><horizontalSlowness><value>14.33429799324129</value></horizontalSlowness><backazimuth><value>90.23217944808026</value></backazimuth><phaseHint>P</phaseHint><evaluationMode>automatic</evaluationMode><comment><text>10.53553024066627</text><id>DFX:rectilinearity</id></comment><comment><text>22.544675759133835</text><id>SNR</id></comment></pick><pick publicID="de.gempa.tb1.Pick/20250412160312.259356.125166"><time><value>2025-04-12T16:03:00.46Z</value></time><waveformID networkCode="CX" stationCode="PB09" channelCode="HHZ"/><filterID>ITAPER(4)&gt;&gt;BW(4,4,20)</filterID><methodID>AIC</methodID><horizontalSlowness><value>18.565927714547978</value></horizontalSlowness><backazimuth><value>90.48333232016671</value></backazimuth><phaseHint>P</phaseHint><evaluationMode>automatic</evaluationMode><comment><text>18.559839654006534</text><id>DFX:rectilinearity</id></comment><comment><text>63.76853241275201</text><id>SNR</id></comment></pick><pick publicID="de.gempa.tb1.Pick/20250412160313.271663.125170"><time><value>2025-04-12T16:03:06.109998Z</value></time><waveformID networkCode="CX" stationCode="PATCX" channelCode="HHZ"/><filterID>ITAPER(4)&gt;&gt;BW(4,4,20)</filterID><methodID>AIC</methodID><horizontalSlowness><value>22.119368865568998</value></horizontalSlowness><backazimuth><value>353.9540769252136</value></backazimuth><phaseHint>P</phaseHint><evaluationMode>automatic</evaluationMode><comment><text>294.662367608622</text><id>DFX:rectilinearity</id></comment><comment><text>13.425908175457684</text><id>SNR</id></comment></pick><pick publicID="de.gempa.tb1.Pick/20250412160318.68375.125172"><time><value>2025-04-12T16:03:10.718393Z</value></time><waveformID networkCode="CX" stationCode="PB06" channelCode="HHZ"/><filterID>ITAPER(4)&gt;&gt;BW(4,4,20)</filterID><methodID>AIC</methodID><horizontalSlowness><value>19.56370356162119</value></horizontalSlowness><backazimuth><value>310.9117970191893</value></backazimuth><phaseHint>P</phaseHint><evaluationMode>automatic</evaluationMode><comment><text>37.69874658667006</text><id>DFX:rectilinearity</id></comment><comment><text>7.226423159103301</text><id>SNR</id></comment></pick><pick publicID="de.gempa.tb1.Pick/20250412160322.769322.125175"><time><value>2025-04-12T16:03:12.398393Z</value></time><waveformID networkCode="CX" stationCode="PB01" channelCode="HHN"/><filterID>ITAPER(2)&gt;&gt;BW(3,3,20)</filterID><methodID>L2-AIC-GRID</methodID><horizontalSlowness><value>21.218209153328043</value></horizontalSlowness><backazimuth><value>355.3354209705959</value></backazimuth><phaseHint>S</phaseHint><evaluationMode>automatic</evaluationMode><comment><text>924.4124724720264</text><id>DFX:rectilinearity</id></comment><comment><text>de.gempa.tb1.Pick/20250412160305.588283.125158</text><id>RefPickID</id></comment><comment><text>12.520468559724232</text><id>SNR</id></comment></pick><pick publicID="de.gempa.tb1.Pick/20250412160329.787604.125178"><time><value>2025-04-12T16:03:23.428393Z</value></time><waveformID networkCode="CX" stationCode="PB03" channelCode="HHN"/><filterID>ITAPER(2)&gt;&gt;BW(3,3,20)</filterID><methodID>L2-AIC-GRID</methodID><horizontalSlowness><value>18.57356477220837</value></horizontalSlowness><backazimuth><value>246.60396047109973</value></backazimuth><phaseHint>S</phaseHint><evaluationMode>automatic</evaluationMode><comment><text>15.714698999518916</text><id>DFX:rectilinearity</id></comment><comment><text>de.gempa.tb1.Pick/20250412160311.569542.125162</text><id>RefPickID</id></comment><comment><text>7.688199521223491</text><id>SNR</id></comment></pick><pick publicID="de.gempa.tb1.Pick/20250412160331.432482.125180"><time><value>2025-04-12T16:03:23.669998Z</value></time><waveformID networkCode="CX" stationCode="PATCX" channelCode="HHN"/><filterID>ITAPER(2)&gt;&gt;BW(3,3,20)</filterID><methodID>L2-AIC-GRID</methodID><horizontalSlowness><value>23.528157676074063</value></horizontalSlowness><backazimuth><value>338.12426848218627</value></backazimuth><phaseHint>S</phaseHint><evaluationMode>automatic</evaluationMode><comment><text>238.32505664573014</text><id>DFX:rectilinearity</id></comment><comment><text>de.gempa.tb1.Pick/20250412160313.271663.125170</text><id>RefPickID</id></comment><comment><text>6.585605439513647</text><id>SNR</id></comment></pick><pick publicID="de.gempa.tb1.Pick/20250412160343.675467.125183"><time><value>2025-04-12T16:03:04.608391Z</value></time><waveformID networkCode="CX" stationCode="PB07" channelCode="HHZ"/><filterID>ITAPER(4)&gt;&gt;BW(4,4,20)</filterID><methodID>AIC</methodID><horizontalSlowness><value>21.265233139340655</value></horizontalSlowness><backazimuth><value>51.37197668212022</value></backazimuth><phaseHint>P</phaseHint><evaluationMode>automatic</evaluationMode><comment><text>162.99607106219764</text><id>DFX:rectilinearity</id></comment><comment><text>51.43210238060692</text><id>SNR</id></comment></pick><origin publicID="de.gempa.tb1.Origin/20250412160344.779802.86739"><time><value>2025-04-12T16:02:42.629466Z</value><uncertainty>1.1560543775558472</uncertainty></time><latitude><value>-21.157455444335938</value><uncertainty>6.03477716445923</uncertainty></latitude><longitude><value>-68.88468933105469</value><uncertainty>10.356427192687988</uncertainty></longitude><depth><value>104.37340545654297</value><uncertainty>10.369097709655762</uncertainty></depth><depthType>from location</depthType><methodID>LOCSAT</methodID><earthModelID>iasp91_scanloc</earthModelID><quality><associatedPhaseCount>10</associatedPhaseCount><usedPhaseCount>10</usedPhaseCount><associatedStationCount>7</associatedStationCount><usedStationCount>7</usedStationCount><depthPhaseCount>0</depthPhaseCount><standardError>0.2335550264394382</standardError><azimuthalGap>276.8058319091797</azimuthalGap><maximumDistance>1.6677173376083374</maximumDistance><minimumDistance>0.5741448402404785</minimumDistance><medianDistance>1.1996763944625854</medianDistance></quality><uncertainty><minHorizontalUncertainty>11.541081428527832</minHorizontalUncertainty><maxHorizontalUncertainty>22.96432113647461</maxHorizontalUncertainty><azimuthMaxHorizontalUncertainty>72.85811614990234</azimuthMaxHorizontalUncertainty><preferredDescription>horizontal uncertainty</preferredDescription></uncertainty><evaluationMode>automatic</evaluationMode><evaluationStatus>confirmed</evaluationStatus><comment><text>0.05</text><id>mismatchScore</id></comment><comment><text>mismatchScore</text><id>scevalMethod</id></comment><arrival><pickID>de.gempa.tb1.Pick/20250412160305.588283.125158</pickID><phase>P</phase><azimuth>281.3096618652344</azimuth><distance>0.5741448402404785</distance><timeResidual>0.00096893310546875</timeResidual><timeUsed>true</timeUsed><horizontalSlownessUsed>false</horizontalSlownessUsed><backazimuthUsed>false</backazimuthUsed><weight>1</weight></arrival><arrival><pickID>de.gempa.tb1.Pick/20250412160308.488951.125160</pickID><phase>P</phase><azimuth>260.1062927246094</azimuth><distance>0.9571895599365234</distance><timeResidual>0.14226341247558594</timeResidual><timeUsed>true</timeUsed><horizontalSlownessUsed>false</horizontalSlownessUsed><backazimuthUsed>false</backazimuthUsed><weight>1</weight></arrival><arrival><pickID>de.gempa.tb1.Pick/20250412160311.569542.125162</pickID><phase>P</phase><azimuth>222.1894989013672</azimuth><distance>1.1996763944625854</distance><timeResidual>0.2985076904296875</timeResidual><timeUsed>true</timeUsed><horizontalSlownessUsed>false</horizontalSlownessUsed><backazimuthUsed>false</backazimuthUsed><weight>1</weight></arrival><arrival><pickID>de.gempa.tb1.Pick/20250412160312.259356.125166</pickID><phase>P</phase><azimuth>207.55958557128906</azimuth><distance>0.717582643032074</distance><timeResidual>-0.15833282470703125</timeResidual><timeUsed>true</timeUsed><horizontalSlownessUsed>false</horizontalSlownessUsed><backazimuthUsed>false</backazimuthUsed><weight>1</weight></arrival><arrival><pickID>de.gempa.tb1.Pick/20250412160313.271663.125170</pickID><phase>P</phase><azimuth>285.5613708496094</azimuth><distance>1.231510043144226</distance><timeResidual>0.15031814575195312</timeResidual><timeUsed>true</timeUsed><horizontalSlownessUsed>false</horizontalSlownessUsed><backazimuthUsed>false</backazimuthUsed><weight>1</weight></arrival><arrival><pickID>de.gempa.tb1.Pick/20250412160318.68375.125172</pickID><phase>P</phase><azimuth>202.36720275878906</azimuth><distance>1.6677173376083374</distance><timeResidual>-0.4672012329101562</timeResidual><timeUsed>true</timeUsed><horizontalSlownessUsed>false</horizontalSlownessUsed><backazimuthUsed>false</backazimuthUsed><weight>1</weight></arrival><arrival><pickID>de.gempa.tb1.Pick/20250412160322.769322.125175</pickID><phase>S</phase><azimuth>281.3096618652344</azimuth><distance>0.5741448402404785</distance><timeResidual>0.04739761352539062</timeResidual><timeUsed>true</timeUsed><horizontalSlownessUsed>false</horizontalSlownessUsed><backazimuthUsed>false</backazimuthUsed><weight>1</weight></arrival><arrival><pickID>de.gempa.tb1.Pick/20250412160329.787604.125178</pickID><phase>S</phase><azimuth>222.1894989013672</azimuth><distance>1.1996763944625854</distance><timeResidual>0.08812332153320312</timeResidual><timeUsed>true</timeUsed><horizontalSlownessUsed>false</horizontalSlownessUsed><backazimuthUsed>false</backazimuthUsed><weight>1</weight></arrival><arrival><pickID>de.gempa.tb1.Pick/20250412160331.432482.125180</pickID><phase>S</phase><azimuth>285.5613708496094</azimuth><distance>1.231510043144226</distance><timeResidual>-0.32938575744628906</timeResidual><timeUsed>true</timeUsed><horizontalSlownessUsed>false</horizontalSlownessUsed><backazimuthUsed>false</backazimuthUsed><weight>1</weight></arrival><arrival><pickID>de.gempa.tb1.Pick/20250412160343.675467.125183</pickID><phase>P</phase><azimuth>238.55743408203125</azimuth><distance>1.0914708375930786</distance><timeResidual>0.2273406982421875</timeResidual><timeUsed>true</timeUsed><horizontalSlownessUsed>false</horizontalSlownessUsed><backazimuthUsed>false</backazimuthUsed><weight>1</weight></arrival><magnitude publicID="de.gempa.tb1.Magnitude/20250412160404.493363.250179"><magnitude><value>2.7980316551224416</value></magnitude><type>M</type><methodID>weighted average</methodID><stationCount>3</stationCount></magnitude></origin><event publicID="gempa2025hfui"><preferredOriginID>de.gempa.tb1.Origin/20250412160344.779802.86739</preferredOriginID><preferredMagnitudeID>de.gempa.tb1.Magnitude/20250412160404.493363.250179</preferredMagnitudeID><description><text>Chile-Bolivia Border Region</text><type>region name</type></description><originReference>de.gempa.tb1.Origin/20250412160344.779802.86739</originReference></event></EventParameters></seiscomp>