<?xml version="1.0" encoding="UTF-8"?>
<seiscomp xmlns="http://geofon.gfz-potsdam.de/ns/seiscomp3-schema/0.13" version="0.13"><EventParameters><pick publicID="de.gempa.tb1.Pick/20250412213849.693287.126982"><time><value>2025-04-12T21:38:43.508393Z</value></time><waveformID networkCode="CX" stationCode="PB15" channelCode="HHZ"/><filterID>ITAPER(4)&gt;&gt;BW(4,4,20)</filterID><methodID>AIC</methodID><horizontalSlowness><value>21.57035986982551</value></horizontalSlowness><backazimuth><value>109.68038178969691</value></backazimuth><phaseHint>P</phaseHint><evaluationMode>automatic</evaluationMode><comment><text>5614.239991067331</text><id>DFX:rectilinearity</id></comment><comment><text>27.574521402122915</text><id>SNR</id></comment></pick><pick publicID="de.gempa.tb1.Pick/20250412213853.596771.126984"><time><value>2025-04-12T21:38:47.238393Z</value></time><waveformID networkCode="CX" stationCode="PB06" channelCode="HHZ"/><filterID>ITAPER(4)&gt;&gt;BW(4,4,20)</filterID><methodID>AIC</methodID><horizontalSlowness><value>10.962537651960551</value></horizontalSlowness><backazimuth><value>137.2226827234916</value></backazimuth><phaseHint>P</phaseHint><evaluationMode>automatic</evaluationMode><comment><text>168.95122250674802</text><id>DFX:rectilinearity</id></comment><comment><text>27.54797339361246</text><id>SNR</id></comment></pick><pick publicID="de.gempa.tb1.Pick/20250412213905.621861.126986"><time><value>2025-04-12T21:38:56.47Z</value></time><waveformID networkCode="CX" stationCode="PB19" channelCode="HHZ"/><filterID>ITAPER(4)&gt;&gt;BW(4,4,20)</filterID><methodID>AIC</methodID><horizontalSlowness><value>16.425751359992493</value></horizontalSlowness><backazimuth><value>351.4660672942315</value></backazimuth><phaseHint>P</phaseHint><evaluationMode>automatic</evaluationMode><comment><text>32.929278488347173</text><id>DFX:rectilinearity</id></comment><comment><text>15.339863024959358</text><id>SNR</id></comment></pick><pick publicID="de.gempa.tb1.Pick/20250412213907.650759.126988"><time><value>2025-04-12T21:38:59.478393Z</value></time><waveformID networkCode="CX" stationCode="PB03" channelCode="HHZ"/><filterID>ITAPER(4)&gt;&gt;BW(4,4,20)</filterID><methodID>AIC</methodID><horizontalSlowness><value>10.160673415579568</value></horizontalSlowness><backazimuth><value>174.9612136975693</value></backazimuth><phaseHint>P</phaseHint><evaluationMode>automatic</evaluationMode><comment><text>37.60873596860774</text><id>DFX:rectilinearity</id></comment><comment><text>8.893723216533651</text><id>SNR</id></comment></pick><pick publicID="de.gempa.tb1.Pick/20250412213907.670622.126990"><time><value>2025-04-12T21:38:51.418393Z</value></time><waveformID networkCode="CX" stationCode="PB06" channelCode="HHN"/><filterID>ITAPER(2)&gt;&gt;BW(3,3,20)</filterID><methodID>L2-AIC-GRID</methodID><horizontalSlowness><value>15.825765043000272</value></horizontalSlowness><backazimuth><value>125.29252175338819</value></backazimuth><phaseHint>S</phaseHint><evaluationMode>automatic</evaluationMode><comment><text>802.8243444165333</text><id>DFX:rectilinearity</id></comment><comment><text>de.gempa.tb1.Pick/20250412213853.596771.126984</text><id>RefPickID</id></comment><comment><text>5.379213238292786</text><id>SNR</id></comment></pick><pick publicID="de.gempa.tb1.Pick/20250412213916.40131.126996"><time><value>2025-04-12T21:38:58.97Z</value></time><waveformID networkCode="CX" stationCode="PB09" channelCode="HHZ"/><filterID>ITAPER(4)&gt;&gt;BW(4,4,20)</filterID><methodID>AIC</methodID><horizontalSlowness><value>22.78644281850577</value></horizontalSlowness><backazimuth><value>125.75464113055422</value></backazimuth><phaseHint>P</phaseHint><evaluationMode>automatic</evaluationMode><comment><text>39.921249270703555</text><id>DFX:rectilinearity</id></comment><comment><text>23.4549002916348</text><id>SNR</id></comment></pick><pick publicID="de.gempa.tb1.Pick/20250412213917.607816.126999"><time><value>2025-04-12T21:39:12.208393Z</value></time><waveformID networkCode="CX" stationCode="PB01" channelCode="HHZ"/><filterID>ITAPER(4)&gt;&gt;BW(4,4,20)</filterID><methodID>AIC</methodID><horizontalSlowness><value>17.658914071390402</value></horizontalSlowness><backazimuth><value>174.18237518958657</value></backazimuth><phaseHint>P</phaseHint><evaluationMode>automatic</evaluationMode><comment><text>22.05810824821658</text><id>DFX:rectilinearity</id></comment><comment><text>16.259043142469302</text><id>SNR</id></comment></pick><pick publicID="de.gempa.tb1.Pick/20250412213918.608274.127001"><time><value>2025-04-12T21:39:11.238393Z</value></time><waveformID networkCode="CX" stationCode="PB02" channelCode="HHZ"/><filterID>ITAPER(4)&gt;&gt;BW(4,4,20)</filterID><methodID>AIC</methodID><horizontalSlowness><value>3.3766855436053604</value></horizontalSlowness><backazimuth><value>71.775437265476</value></backazimuth><phaseHint>P</phaseHint><evaluationMode>automatic</evaluationMode><comment><text>48.93972741035564</text><id>DFX:rectilinearity</id></comment><comment><text>11.971009075591558</text><id>SNR</id></comment></pick><origin publicID="de.gempa.tb1.Origin/20250412213920.785793.93168"><time><value>2025-04-12T21:38:38.283198Z</value><uncertainty>0.5347045063972473</uncertainty></time><latitude><value>-22.97538185119629</value><uncertainty>2.7898356914520264</uncertainty></latitude><longitude><value>-69.22588348388672</value><uncertainty>4.964168071746826</uncertainty></longitude><depth><value>0</value></depth><depthType>operator assigned</depthType><methodID>LOCSAT</methodID><earthModelID>iasp91_scanloc</earthModelID><quality><associatedPhaseCount>8</associatedPhaseCount><usedPhaseCount>8</usedPhaseCount><associatedStationCount>7</associatedStationCount><usedStationCount>7</usedStationCount><depthPhaseCount>0</depthPhaseCount><standardError>1.0438145081849832</standardError><azimuthalGap>184.3939666748047</azimuthalGap><maximumDistance>1.938074231147766</maximumDistance><minimumDistance>0.32353314757347107</minimumDistance><medianDistance>1.0434045791625977</medianDistance></quality><uncertainty><minHorizontalUncertainty>5.789890766143799</minHorizontalUncertainty><maxHorizontalUncertainty>10.756228446960449</maxHorizontalUncertainty><azimuthMaxHorizontalUncertainty>80.3818359375</azimuthMaxHorizontalUncertainty><preferredDescription>horizontal uncertainty</preferredDescription></uncertainty><evaluationMode>automatic</evaluationMode><evaluationStatus>confirmed</evaluationStatus><comment><text>0.09</text><id>mismatchScore</id></comment><comment><text>mismatchScore</text><id>scevalMethod</id></comment><arrival><pickID>de.gempa.tb1.Pick/20250412213849.693287.126982</pickID><phase>P</phase><azimuth>224.17108154296875</azimuth><distance>0.32353314757347107</distance><timeResidual>-0.9801077842712402</timeResidual><timeUsed>true</timeUsed><horizontalSlownessUsed>false</horizontalSlownessUsed><backazimuthUsed>false</backazimuthUsed><weight>1</weight></arrival><arrival><pickID>de.gempa.tb1.Pick/20250412213853.596771.126984</pickID><phase>P</phase><azimuth>309.9847106933594</azimuth><distance>0.41698023676872253</distance><timeResidual>0.9569759368896484</timeResidual><timeUsed>true</timeUsed><horizontalSlownessUsed>false</horizontalSlownessUsed><backazimuthUsed>false</backazimuthUsed><weight>1</weight></arrival><arrival><pickID>de.gempa.tb1.Pick/20250412213905.621861.126986</pickID><phase>P</phase><azimuth>183.6661834716797</azimuth><distance>0.9270396828651428</distance><timeResidual>0.40714311599731445</timeResidual><timeUsed>true</timeUsed><horizontalSlownessUsed>false</horizontalSlownessUsed><backazimuthUsed>false</backazimuthUsed><weight>1</weight></arrival><arrival><pickID>de.gempa.tb1.Pick/20250412213907.650759.126988</pickID><phase>P</phase><azimuth>332.04425048828125</azimuth><distance>1.0434045791625977</distance><timeResidual>1.181384563446045</timeResidual><timeUsed>true</timeUsed><horizontalSlownessUsed>false</horizontalSlownessUsed><backazimuthUsed>false</backazimuthUsed><weight>1</weight></arrival><arrival><pickID>de.gempa.tb1.Pick/20250412213907.670622.126990</pickID><phase>S</phase><azimuth>309.9847106933594</azimuth><distance>0.41698023676872253</distance><timeResidual>-0.6709990501403809</timeResidual><timeUsed>true</timeUsed><horizontalSlownessUsed>false</horizontalSlownessUsed><backazimuthUsed>false</backazimuthUsed><weight>1</weight></arrival><arrival><pickID>de.gempa.tb1.Pick/20250412213916.40131.126996</pickID><phase>P</phase><azimuth>359.272216796875</azimuth><distance>1.1734751462936401</distance><timeResidual>-1.8220438957214355</timeResidual><timeUsed>true</timeUsed><horizontalSlownessUsed>false</horizontalSlownessUsed><backazimuthUsed>false</backazimuthUsed><weight>1</weight></arrival><arrival><pickID>de.gempa.tb1.Pick/20250412213917.607816.126999</pickID><phase>P</phase><azimuth>352.7575988769531</azimuth><distance>1.938074231147766</distance><timeResidual>-0.2703719139099121</timeResidual><timeUsed>true</timeUsed><horizontalSlownessUsed>false</horizontalSlownessUsed><backazimuthUsed>false</backazimuthUsed><weight>1</weight></arrival><arrival><pickID>de.gempa.tb1.Pick/20250412213918.608274.127001</pickID><phase>P</phase><azimuth>339.2138366699219</azimuth><distance>1.7609230279922485</distance><timeResidual>1.1980633735656738</timeResidual><timeUsed>true</timeUsed><horizontalSlownessUsed>false</horizontalSlownessUsed><backazimuthUsed>false</backazimuthUsed><weight>1</weight></arrival><magnitude publicID="de.gempa.tb1.Magnitude/20250412213925.93711.285967"><magnitude><value>2.386208393162152</value></magnitude><type>M</type><methodID>weighted average</methodID><stationCount>7</stationCount></magnitude></origin><event publicID="gempa2025hgfn"><preferredOriginID>de.gempa.tb1.Origin/20250412213920.785793.93168</preferredOriginID><preferredMagnitudeID>de.gempa.tb1.Magnitude/20250412213925.93711.285967</preferredMagnitudeID><type>mining explosion</type><description><text>Northern Chile</text><type>region name</type></description><originReference>de.gempa.tb1.Origin/20250412213920.785793.93168</originReference></event></EventParameters></seiscomp>