<?xml version="1.0" encoding="UTF-8"?>
<seiscomp xmlns="http://geofon.gfz-potsdam.de/ns/seiscomp3-schema/0.13" version="0.13"><EventParameters><pick publicID="de.gempa.tb1.Pick/20250413064711.502096.129560"><time><value>2025-04-13T06:47:04.38Z</value></time><waveformID networkCode="CX" stationCode="PB19" channelCode="HHZ"/><filterID>ITAPER(4)&gt;&gt;BW(4,4,20)</filterID><methodID>AIC</methodID><horizontalSlowness><value>22.97524636639159</value></horizontalSlowness><backazimuth><value>168.98856686407453</value></backazimuth><phaseHint>P</phaseHint><evaluationMode>automatic</evaluationMode><comment><text>29.614629193297787</text><id>DFX:rectilinearity</id></comment><comment><text>15.624610594290633</text><id>SNR</id></comment></pick><pick publicID="de.gempa.tb1.Pick/20250413064716.564442.129562"><time><value>2025-04-13T06:47:11.358393Z</value></time><waveformID networkCode="CX" stationCode="PB06" channelCode="HHZ"/><filterID>ITAPER(4)&gt;&gt;BW(4,4,20)</filterID><methodID>AIC</methodID><horizontalSlowness><value>12.41748471335441</value></horizontalSlowness><backazimuth><value>72.22953486757302</value></backazimuth><phaseHint>P</phaseHint><evaluationMode>automatic</evaluationMode><comment><text>57.60772193132309</text><id>DFX:rectilinearity</id></comment><comment><text>22.487747552534753</text><id>SNR</id></comment></pick><pick publicID="de.gempa.tb1.Pick/20250413064725.534882.129564"><time><value>2025-04-13T06:47:16.179998Z</value></time><waveformID networkCode="CX" stationCode="PB09" channelCode="HHZ"/><filterID>ITAPER(4)&gt;&gt;BW(4,4,20)</filterID><methodID>AIC</methodID><horizontalSlowness><value>15.092694908451758</value></horizontalSlowness><backazimuth><value>248.50407517665815</value></backazimuth><phaseHint>P</phaseHint><evaluationMode>automatic</evaluationMode><comment><text>27.309745742830845</text><id>DFX:rectilinearity</id></comment><comment><text>21.566949192826478</text><id>SNR</id></comment></pick><pick publicID="de.gempa.tb1.Pick/20250413064725.536538.129566"><time><value>2025-04-13T06:47:17.628393Z</value></time><waveformID networkCode="CX" stationCode="PB03" channelCode="HHZ"/><filterID>ITAPER(4)&gt;&gt;BW(4,4,20)</filterID><methodID>AIC</methodID><horizontalSlowness><value>17.791273709362713</value></horizontalSlowness><backazimuth><value>91.03433869091864</value></backazimuth><phaseHint>P</phaseHint><evaluationMode>automatic</evaluationMode><comment><text>11.67630321639772</text><id>DFX:rectilinearity</id></comment><comment><text>10.680708503612198</text><id>SNR</id></comment></pick><pick publicID="de.gempa.tb1.Pick/20250413064729.576263.129568"><time><value>2025-04-13T06:47:23.538393Z</value></time><waveformID networkCode="CX" stationCode="PB01" channelCode="HHZ"/><filterID>ITAPER(4)&gt;&gt;BW(4,4,20)</filterID><methodID>AIC</methodID><horizontalSlowness><value>23.03673789172921</value></horizontalSlowness><backazimuth><value>347.6686881944464</value></backazimuth><phaseHint>P</phaseHint><evaluationMode>automatic</evaluationMode><comment><text>21.254866578060792</text><id>DFX:rectilinearity</id></comment><comment><text>10.196361356850714</text><id>SNR</id></comment></pick><pick publicID="de.gempa.tb1.Pick/20250413064733.515182.129570"><time><value>2025-04-13T06:47:24.758393Z</value></time><waveformID networkCode="CX" stationCode="PB02" channelCode="HHZ"/><filterID>ITAPER(4)&gt;&gt;BW(4,4,20)</filterID><methodID>AIC</methodID><horizontalSlowness><value>13.617004058647023</value></horizontalSlowness><backazimuth><value>348.30792025684104</value></backazimuth><phaseHint>P</phaseHint><evaluationMode>automatic</evaluationMode><comment><text>47.81731342474864</text><id>DFX:rectilinearity</id></comment><comment><text>8.601825192821227</text><id>SNR</id></comment></pick><pick publicID="de.gempa.tb1.Pick/20250413064741.716556.129574"><time><value>2025-04-13T06:47:20.528393Z</value></time><waveformID networkCode="CX" stationCode="PB07" channelCode="HHZ"/><filterID>ITAPER(4)&gt;&gt;BW(4,4,20)</filterID><methodID>AIC</methodID><horizontalSlowness><value>23.27226639109537</value></horizontalSlowness><backazimuth><value>77.51784020575836</value></backazimuth><phaseHint>P</phaseHint><evaluationMode>automatic</evaluationMode><comment><text>395.4363096245418</text><id>DFX:rectilinearity</id></comment><comment><text>26.045957347566283</text><id>SNR</id></comment></pick><origin publicID="de.gempa.tb1.Origin/20250413064742.373266.103428"><time><value>2025-04-13T06:46:16.225665Z</value><uncertainty>8.72298812866211</uncertainty></time><latitude><value>-24.476280212402344</value><uncertainty>42.25401306152344</uncertainty></latitude><longitude><value>-66.82418823242188</value><uncertainty>62.17448806762695</uncertainty></longitude><depth><value>283.020263671875</value><uncertainty>71.88610076904297</uncertainty></depth><depthType>from location</depthType><methodID>LOCSAT</methodID><earthModelID>iasp91_scanloc</earthModelID><quality><associatedPhaseCount>7</associatedPhaseCount><usedPhaseCount>7</usedPhaseCount><associatedStationCount>7</associatedStationCount><usedStationCount>7</usedStationCount><depthPhaseCount>0</depthPhaseCount><standardError>0.33914182084097405</standardError><azimuthalGap>319.926025390625</azimuthalGap><maximumDistance>4.229796886444092</maximumDistance><minimumDistance>2.3231048583984375</minimumDistance><medianDistance>3.6184985637664795</medianDistance></quality><uncertainty><minHorizontalUncertainty>78.6582260131836</minHorizontalUncertainty><maxHorizontalUncertainty>140.72215270996094</maxHorizontalUncertainty><azimuthMaxHorizontalUncertainty>112.6789779663086</azimuthMaxHorizontalUncertainty><preferredDescription>horizontal uncertainty</preferredDescription></uncertainty><evaluationMode>automatic</evaluationMode><evaluationStatus>confirmed</evaluationStatus><comment><text>0.04</text><id>mismatchScore</id></comment><comment><text>mismatchScore</text><id>scevalMethod</id></comment><arrival><pickID>de.gempa.tb1.Pick/20250413064711.502096.129560</pickID><phase>P</phase><azimuth>283.67144775390625</azimuth><distance>2.3231048583984375</distance><timeResidual>0.044834136962890625</timeResidual><timeUsed>true</timeUsed><horizontalSlownessUsed>false</horizontalSlownessUsed><backazimuthUsed>false</backazimuthUsed><weight>1</weight></arrival><arrival><pickID>de.gempa.tb1.Pick/20250413064716.564442.129562</pickID><phase>P</phase><azimuth>304.406494140625</azimuth><distance>3.075584650039673</distance><timeResidual>-0.2930183410644531</timeResidual><timeUsed>true</timeUsed><horizontalSlownessUsed>false</horizontalSlownessUsed><backazimuthUsed>false</backazimuthUsed><weight>1</weight></arrival><arrival><pickID>de.gempa.tb1.Pick/20250413064725.534882.129564</pickID><phase>P</phase><azimuth>319.68115234375</azimuth><distance>3.473762035369873</distance><timeResidual>0.3078651428222656</timeResidual><timeUsed>true</timeUsed><horizontalSlownessUsed>false</horizontalSlownessUsed><backazimuthUsed>false</backazimuthUsed><weight>1</weight></arrival><arrival><pickID>de.gempa.tb1.Pick/20250413064725.536538.129566</pickID><phase>P</phase><azimuth>311.3134460449219</azimuth><distance>3.6184985637664795</distance><timeResidual>0.19912338256835938</timeResidual><timeUsed>true</timeUsed><horizontalSlownessUsed>false</horizontalSlownessUsed><backazimuthUsed>false</backazimuthUsed><weight>1</weight></arrival><arrival><pickID>de.gempa.tb1.Pick/20250413064729.576263.129568</pickID><phase>P</phase><azimuth>323.74542236328125</azimuth><distance>4.2089805603027344</distance><timeResidual>-0.4686965942382812</timeResidual><timeUsed>true</timeUsed><horizontalSlownessUsed>false</horizontalSlownessUsed><backazimuthUsed>false</backazimuthUsed><weight>1</weight></arrival><arrival><pickID>de.gempa.tb1.Pick/20250413064733.515182.129570</pickID><phase>P</phase><azimuth>317.35711669921875</azimuth><distance>4.229796886444092</distance><timeResidual>0.517852783203125</timeResidual><timeUsed>true</timeUsed><horizontalSlownessUsed>false</horizontalSlownessUsed><backazimuthUsed>false</backazimuthUsed><weight>1</weight></arrival><arrival><pickID>de.gempa.tb1.Pick/20250413064741.716556.129574</pickID><phase>P</phase><azimuth>313.5420227050781</azimuth><distance>3.928910970687866</distance><timeResidual>-0.30817413330078125</timeResidual><timeUsed>true</timeUsed><horizontalSlownessUsed>false</horizontalSlownessUsed><backazimuthUsed>false</backazimuthUsed><weight>1</weight></arrival><magnitude publicID="de.gempa.tb1.Magnitude/20250413064832.518749.325122"><magnitude><value>3.4337350648846736</value></magnitude><type>M</type><methodID>weighted average</methodID><stationCount>2</stationCount></magnitude></origin><event publicID="gempa2025hgxu"><preferredOriginID>de.gempa.tb1.Origin/20250413064742.373266.103428</preferredOriginID><preferredMagnitudeID>de.gempa.tb1.Magnitude/20250413064832.518749.325122</preferredMagnitudeID><description><text>Salta Province, Argentina</text><type>region name</type></description><originReference>de.gempa.tb1.Origin/20250413064742.373266.103428</originReference></event></EventParameters></seiscomp>