<?xml version="1.0" encoding="UTF-8"?>
<seiscomp xmlns="http://geofon.gfz-potsdam.de/ns/seiscomp3-schema/0.13" version="0.13"><EventParameters><pick publicID="de.gempa.tb1.Pick/20250412235754.922348.194532"><time><value>2025-04-12T23:57:49.58Z</value></time><waveformID networkCode="SX" stationCode="TRIB" channelCode="HHZ"/><filterID>ITAPER(2)&gt;&gt;BW(3,3,20)</filterID><methodID>AIC</methodID><horizontalSlowness><value>18.764252460214948</value></horizontalSlowness><backazimuth><value>44.186384705339975</value></backazimuth><phaseHint>P</phaseHint><evaluationMode>automatic</evaluationMode><comment><text>3.636375240227354</text><id>DFX:rectilinearity</id></comment></pick><pick publicID="de.gempa.tb1.Pick/20250412235755.473838.194534"><time><value>2025-04-12T23:57:47.3175Z</value></time><waveformID networkCode="SX" stationCode="WERN" channelCode="HHZ"/><filterID>ITAPER(2)&gt;&gt;BW(3,3,20)</filterID><methodID>AIC</methodID><horizontalSlowness><value>21.185508116324137</value></horizontalSlowness><backazimuth><value>350.56870090405755</value></backazimuth><phaseHint>P</phaseHint><evaluationMode>automatic</evaluationMode><comment><text>186.43666677901453</text><id>DFX:rectilinearity</id></comment></pick><pick publicID="de.gempa.tb1.Pick/20250412235755.684578.194536"><time><value>2025-04-12T23:57:49.5Z</value></time><waveformID networkCode="SX" stationCode="WERD" channelCode="HHZ"/><filterID>ITAPER(2)&gt;&gt;BW(3,3,20)</filterID><methodID>AIC</methodID><horizontalSlowness><value>17.246770028677687</value></horizontalSlowness><backazimuth><value>281.1993751214731</value></backazimuth><phaseHint>P</phaseHint><evaluationMode>automatic</evaluationMode><comment><text>8.6312538741122</text><id>DFX:rectilinearity</id></comment></pick><pick publicID="de.gempa.tb1.Pick/20250412235757.843504.194538"><time><value>2025-04-12T23:57:48.6Z</value></time><waveformID networkCode="SX" stationCode="TANN" channelCode="HHZ"/><filterID>ITAPER(2)&gt;&gt;BW(3,3,20)</filterID><methodID>AIC</methodID><horizontalSlowness><value>18.660693786716195</value></horizontalSlowness><backazimuth><value>321.9538830354207</value></backazimuth><phaseHint>P</phaseHint><evaluationMode>automatic</evaluationMode><comment><text>31.811470038356465</text><id>DFX:rectilinearity</id></comment></pick><pick publicID="de.gempa.tb1.Pick/20250412235757.964934.194540"><time><value>2025-04-12T23:57:54.905Z</value></time><waveformID networkCode="BW" stationCode="ROTZ" channelCode="HHZ"/><filterID>ITAPER(2)&gt;&gt;BW(3,3,20)</filterID><methodID>AIC</methodID><horizontalSlowness><value>11.996637789818077</value><uncertainty>5.56409695513756</uncertainty></horizontalSlowness><backazimuth><value>31.232932513360737</value><uncertainty>26.818193737374667</uncertainty></backazimuth><phaseHint>P</phaseHint><evaluationMode>automatic</evaluationMode><comment><text>0.6792185509182311</text><id>DFX:rectilinearity</id></comment></pick><pick publicID="de.gempa.tb1.Pick/20250412235758.332509.194542"><time><value>2025-04-12T23:57:48.61Z</value></time><waveformID networkCode="SX" stationCode="MULD" channelCode="HHZ"/><filterID>ITAPER(2)&gt;&gt;BW(3,3,20)</filterID><methodID>AIC</methodID><horizontalSlowness><value>23.36192518065863</value></horizontalSlowness><backazimuth><value>166.7861524517356</value></backazimuth><phaseHint>P</phaseHint><evaluationMode>automatic</evaluationMode><comment><text>20.551519071703655</text><id>DFX:rectilinearity</id></comment></pick><pick publicID="de.gempa.tb1.Pick/20250412235759.067303.194545"><time><value>2025-04-12T23:57:48.27Z</value></time><waveformID networkCode="SX" stationCode="GUNZ" channelCode="HHZ"/><filterID>ITAPER(2)&gt;&gt;BW(3,3,20)</filterID><methodID>AIC</methodID><horizontalSlowness><value>22.149216796118012</value></horizontalSlowness><backazimuth><value>290.96490219640293</value></backazimuth><phaseHint>P</phaseHint><evaluationMode>automatic</evaluationMode><comment><text>6.543112944721174</text><id>DFX:rectilinearity</id></comment></pick><pick publicID="de.gempa.tb1.Pick/20250412235759.502453.194547"><time><value>2025-04-12T23:57:50.845Z</value></time><waveformID networkCode="TH" stationCode="PLN" channelCode="HHZ"/><filterID>ITAPER(2)&gt;&gt;BW(3,3,20)</filterID><methodID>AIC</methodID><horizontalSlowness><value>13.20047086716175</value></horizontalSlowness><backazimuth><value>145.13469132901872</value></backazimuth><phaseHint>P</phaseHint><evaluationMode>automatic</evaluationMode><comment><text>3.405749915319247</text><id>DFX:rectilinearity</id></comment></pick><pick publicID="de.gempa.tb1.Pick/20250412235800.482966.194549"><time><value>2025-04-12T23:57:48.8175Z</value></time><waveformID networkCode="SX" stationCode="WERN" channelCode="HHN"/><filterID>ITAPER(3)&gt;&gt;BW(4,3,10)</filterID><methodID>L2-AIC-GRID</methodID><horizontalSlowness><value>21.081161793902094</value></horizontalSlowness><backazimuth><value>349.48508513766967</value></backazimuth><phaseHint>S</phaseHint><evaluationMode>automatic</evaluationMode><comment><text>178.56039950767635</text><id>DFX:rectilinearity</id></comment><comment><text>de.gempa.tb1.Pick/20250412235755.473838.194534</text><id>RefPickID</id></comment></pick><pick publicID="de.gempa.tb1.Pick/20250412235800.656134.194550"><time><value>2025-04-12T23:57:52.31Z</value></time><waveformID networkCode="SX" stationCode="WERD" channelCode="HHN"/><filterID>ITAPER(3)&gt;&gt;BW(4,3,10)</filterID><methodID>L2-AIC-GRID</methodID><horizontalSlowness><value>17.410572577974136</value></horizontalSlowness><backazimuth><value>284.91784959278056</value></backazimuth><phaseHint>S</phaseHint><evaluationMode>automatic</evaluationMode><comment><text>8.404146170903967</text><id>DFX:rectilinearity</id></comment><comment><text>de.gempa.tb1.Pick/20250412235755.684578.194536</text><id>RefPickID</id></comment></pick><pick publicID="de.gempa.tb1.Pick/20250412235801.851112.194551"><time><value>2025-04-12T23:57:50.88Z</value></time><waveformID networkCode="SX" stationCode="TANN" channelCode="HHN"/><filterID>ITAPER(3)&gt;&gt;BW(4,3,10)</filterID><methodID>L2-AIC-GRID</methodID><horizontalSlowness><value>19.549688994793112</value></horizontalSlowness><backazimuth><value>321.1131844732127</value></backazimuth><phaseHint>S</phaseHint><evaluationMode>automatic</evaluationMode><comment><text>37.24651342338828</text><id>DFX:rectilinearity</id></comment><comment><text>de.gempa.tb1.Pick/20250412235757.843504.194538</text><id>RefPickID</id></comment></pick><pick publicID="de.gempa.tb1.Pick/20250412235802.909645.194552"><time><value>2025-04-12T23:57:50.36Z</value></time><waveformID networkCode="SX" stationCode="GUNZ" channelCode="HHN"/><filterID>ITAPER(3)&gt;&gt;BW(4,3,10)</filterID><methodID>L2-AIC-GRID</methodID><horizontalSlowness><value>22.406013520571229</value></horizontalSlowness><backazimuth><value>289.39971192611284</value></backazimuth><phaseHint>S</phaseHint><evaluationMode>automatic</evaluationMode><comment><text>6.436306987565636</text><id>DFX:rectilinearity</id></comment><comment><text>de.gempa.tb1.Pick/20250412235759.067303.194545</text><id>RefPickID</id></comment></pick><pick publicID="de.gempa.tb1.Pick/20250412235804.109755.194553"><time><value>2025-04-12T23:57:52.62Z</value></time><waveformID networkCode="SX" stationCode="TRIB" channelCode="HHN"/><filterID>ITAPER(3)&gt;&gt;BW(4,3,10)</filterID><methodID>L2-AIC-GRID</methodID><horizontalSlowness><value>19.629985290624646</value></horizontalSlowness><backazimuth><value>61.3946396254008</value></backazimuth><phaseHint>S</phaseHint><evaluationMode>automatic</evaluationMode><comment><text>4.344068603190518</text><id>DFX:rectilinearity</id></comment><comment><text>de.gempa.tb1.Pick/20250412235754.922348.194532</text><id>RefPickID</id></comment></pick><pick publicID="de.gempa.tb1.Pick/20250412235804.349896.194554"><time><value>2025-04-12T23:57:50.86Z</value></time><waveformID networkCode="SX" stationCode="MULD" channelCode="HHN"/><filterID>ITAPER(3)&gt;&gt;BW(4,3,10)</filterID><methodID>L2-AIC-GRID</methodID><horizontalSlowness><value>23.12899640425585</value></horizontalSlowness><backazimuth><value>336.45166007448483</value></backazimuth><phaseHint>S</phaseHint><evaluationMode>automatic</evaluationMode><comment><text>23.779108834155675</text><id>DFX:rectilinearity</id></comment><comment><text>de.gempa.tb1.Pick/20250412235758.332509.194542</text><id>RefPickID</id></comment></pick><origin publicID="de.gempa.tb1.Origin/20250412235804.914359.192842"><time><value>2025-04-12T23:57:44.723796Z</value><uncertainty>0.8233603835105896</uncertainty></time><latitude><value>50.271728515625</value><uncertainty>4.262444496154785</uncertainty></latitude><longitude><value>12.45567226409912</value><uncertainty>4.633829116821289</uncertainty></longitude><depth><value>5.970072746276855</value><uncertainty>7.456314086914062</uncertainty></depth><depthType>from location</depthType><methodID>LOCSAT</methodID><earthModelID>iasp91</earthModelID><quality><associatedPhaseCount>14</associatedPhaseCount><usedPhaseCount>14</usedPhaseCount><associatedStationCount>8</associatedStationCount><usedStationCount>8</usedStationCount><depthPhaseCount>0</depthPhaseCount><standardError>0.3859330821389444</standardError><azimuthalGap>196.34243392944336</azimuthalGap><maximumDistance>0.5302538871765137</maximumDistance><minimumDistance>0.05340877175331116</minimumDistance><medianDistance>0.144113227725029</medianDistance></quality><uncertainty><minHorizontalUncertainty>5.639174938201904</minHorizontalUncertainty><maxHorizontalUncertainty>12.264081001281738</maxHorizontalUncertainty><azimuthMaxHorizontalUncertainty>131.3218231201172</azimuthMaxHorizontalUncertainty><preferredDescription>horizontal uncertainty</preferredDescription></uncertainty><evaluationMode>automatic</evaluationMode><evaluationStatus>confirmed</evaluationStatus><comment><text>0.22</text><id>mismatchScore</id></comment><comment><text>mismatchScore</text><id>scevalMethod</id></comment><arrival><pickID>de.gempa.tb1.Pick/20250412235754.922348.194532</pickID><phase>P</phase><azimuth>291.5951232910156</azimuth><distance>0.21955449879169464</distance><timeResidual>-0.1506197452545166</timeResidual><timeUsed>true</timeUsed><horizontalSlownessUsed>false</horizontalSlownessUsed><backazimuthUsed>false</backazimuthUsed><weight>1</weight></arrival><arrival><pickID>de.gempa.tb1.Pick/20250412235755.473838.194534</pickID><phase>P</phase><azimuth>287.1141357421875</azimuth><distance>0.05340877175331116</distance><timeResidual>0.5978684425354004</timeResidual><timeUsed>true</timeUsed><horizontalSlownessUsed>false</horizontalSlownessUsed><backazimuthUsed>false</backazimuthUsed><weight>1</weight></arrival><arrival><pickID>de.gempa.tb1.Pick/20250412235755.684578.194536</pickID><phase>P</phase><azimuth>331.7080383300781</azimuth><distance>0.20054030418395996</distance><timeResidual>0.11420178413391113</timeResidual><timeUsed>true</timeUsed><horizontalSlownessUsed>false</horizontalSlownessUsed><backazimuthUsed>false</backazimuthUsed><weight>1</weight></arrival><arrival><pickID>de.gempa.tb1.Pick/20250412235757.843504.194538</pickID><phase>P</phase><azimuth>1.3612709045410156</azimuth><distance>0.14348846673965454</distance><timeResidual>0.24810361862182617</timeResidual><timeUsed>true</timeUsed><horizontalSlownessUsed>false</horizontalSlownessUsed><backazimuthUsed>false</backazimuthUsed><weight>1</weight></arrival><arrival><pickID>de.gempa.tb1.Pick/20250412235757.964934.194540</pickID><phase>P</phase><azimuth>197.70370483398438</azimuth><distance>0.5302538871765137</distance><timeResidual>-0.4579081535339355</timeResidual><timeUsed>true</timeUsed><horizontalSlownessUsed>false</horizontalSlownessUsed><backazimuthUsed>false</backazimuthUsed><weight>1</weight></arrival><arrival><pickID>de.gempa.tb1.Pick/20250412235758.332509.194542</pickID><phase>P</phase><azimuth>346.7118835449219</azimuth><distance>0.144113227725029</distance><timeResidual>0.24677324295043945</timeResidual><timeUsed>true</timeUsed><horizontalSlownessUsed>false</horizontalSlownessUsed><backazimuthUsed>false</backazimuthUsed><weight>1</weight></arrival><arrival><pickID>de.gempa.tb1.Pick/20250412235759.067303.194545</pickID><phase>P</phase><azimuth>319.16607666015625</azimuth><distance>0.12152662873268127</distance><timeResidual>0.3160107135772705</timeResidual><timeUsed>true</timeUsed><horizontalSlownessUsed>false</horizontalSlownessUsed><backazimuthUsed>false</backazimuthUsed><weight>1</weight></arrival><arrival><pickID>de.gempa.tb1.Pick/20250412235759.502453.194547</pickID><phase>P</phase><azimuth>318.3302307128906</azimuth><distance>0.28666746616363525</distance><timeResidual>-0.10163545608520508</timeResidual><timeUsed>true</timeUsed><horizontalSlownessUsed>false</horizontalSlownessUsed><backazimuthUsed>false</backazimuthUsed><weight>1</weight></arrival><arrival><pickID>de.gempa.tb1.Pick/20250412235800.482966.194549</pickID><phase>S</phase><azimuth>287.1141357421875</azimuth><distance>0.05340877175331116</distance><timeResidual>0.639824628829956</timeResidual><timeUsed>true</timeUsed><horizontalSlownessUsed>false</horizontalSlownessUsed><backazimuthUsed>false</backazimuthUsed><weight>1</weight></arrival><arrival><pickID>de.gempa.tb1.Pick/20250412235800.656134.194550</pickID><phase>S</phase><azimuth>331.7080383300781</azimuth><distance>0.20054030418395996</distance><timeResidual>-0.4730920791625977</timeResidual><timeUsed>true</timeUsed><horizontalSlownessUsed>false</horizontalSlownessUsed><backazimuthUsed>false</backazimuthUsed><weight>1</weight></arrival><arrival><pickID>de.gempa.tb1.Pick/20250412235801.851112.194551</pickID><phase>S</phase><azimuth>1.3612709045410156</azimuth><distance>0.14348846673965454</distance><timeResidual>-0.11716699600219727</timeResidual><timeUsed>true</timeUsed><horizontalSlownessUsed>false</horizontalSlownessUsed><backazimuthUsed>false</backazimuthUsed><weight>1</weight></arrival><arrival><pickID>de.gempa.tb1.Pick/20250412235802.909645.194552</pickID><phase>S</phase><azimuth>319.16607666015625</azimuth><distance>0.12152662873268127</distance><timeResidual>0.05015087127685547</timeResidual><timeUsed>true</timeUsed><horizontalSlownessUsed>false</horizontalSlownessUsed><backazimuthUsed>false</backazimuthUsed><weight>1</weight></arrival><arrival><pickID>de.gempa.tb1.Pick/20250412235804.109755.194553</pickID><phase>S</phase><azimuth>291.5951232910156</azimuth><distance>0.21955449879169464</distance><timeResidual>-0.7587614059448242</timeResidual><timeUsed>true</timeUsed><horizontalSlownessUsed>false</horizontalSlownessUsed><backazimuthUsed>false</backazimuthUsed><weight>1</weight></arrival><arrival><pickID>de.gempa.tb1.Pick/20250412235804.349896.194554</pickID><phase>S</phase><azimuth>346.7118835449219</azimuth><distance>0.144113227725029</distance><timeResidual>-0.1567392349243164</timeResidual><timeUsed>true</timeUsed><horizontalSlownessUsed>false</horizontalSlownessUsed><backazimuthUsed>false</backazimuthUsed><weight>1</weight></arrival><magnitude publicID="de.gempa.tb1.Magnitude/20250413000017.008317.294572"><magnitude><value>0.4477646993146232</value></magnitude><type>M</type><methodID>weighted average</methodID><stationCount>6</stationCount></magnitude></origin><event publicID="gempa2025hgkg"><preferredOriginID>de.gempa.tb1.Origin/20250412235804.914359.192842</preferredOriginID><preferredMagnitudeID>de.gempa.tb1.Magnitude/20250413000017.008317.294572</preferredMagnitudeID><description><text>Germany</text><type>region name</type></description><originReference>de.gempa.tb1.Origin/20250412235804.914359.192842</originReference></event></EventParameters></seiscomp>