<?xml version="1.0" encoding="UTF-8"?>
<seiscomp xmlns="http://geofon.gfz-potsdam.de/ns/seiscomp3-schema/0.13" version="0.13"><EventParameters><pick publicID="de.gempa.tb1.Pick/20250412200624.690314.188066"><time><value>2025-04-12T20:06:19.62Z</value></time><waveformID networkCode="SX" stationCode="ROHR" channelCode="HHZ"/><filterID>ITAPER(2)&gt;&gt;BW(3,3,20)</filterID><methodID>AIC</methodID><horizontalSlowness><value>23.20118796086846</value></horizontalSlowness><backazimuth><value>78.02406973141697</value></backazimuth><phaseHint>P</phaseHint><evaluationMode>automatic</evaluationMode><comment><text>10475.804462950508</text><id>DFX:rectilinearity</id></comment></pick><pick publicID="de.gempa.tb1.Pick/20250412200625.5239.188068"><time><value>2025-04-12T20:06:19.3875Z</value></time><waveformID networkCode="SX" stationCode="WERN" channelCode="HHZ"/><filterID>ITAPER(2)&gt;&gt;BW(3,3,20)</filterID><methodID>AIC</methodID><horizontalSlowness><value>21.363926723097634</value></horizontalSlowness><backazimuth><value>334.7096479313552</value></backazimuth><phaseHint>P</phaseHint><evaluationMode>automatic</evaluationMode><comment><text>17356.0656465523</text><id>DFX:rectilinearity</id></comment></pick><pick publicID="de.gempa.tb1.Pick/20250412200625.693039.188070"><time><value>2025-04-12T20:06:21.55Z</value></time><waveformID networkCode="SX" stationCode="WERD" channelCode="HHZ"/><filterID>ITAPER(2)&gt;&gt;BW(3,3,20)</filterID><methodID>AIC</methodID><horizontalSlowness><value>22.58430373454394</value></horizontalSlowness><backazimuth><value>235.6981056467814</value></backazimuth><phaseHint>P</phaseHint><evaluationMode>automatic</evaluationMode><comment><text>1690.374114348325</text><id>DFX:rectilinearity</id></comment></pick><pick publicID="de.gempa.tb1.Pick/20250412200626.068241.188072"><time><value>2025-04-12T20:06:23.96Z</value></time><waveformID networkCode="BW" stationCode="MANZ" channelCode="HHZ"/><filterID>ITAPER(2)&gt;&gt;BW(3,3,20)</filterID><methodID>AIC</methodID><horizontalSlowness><value>16.327886662397972</value></horizontalSlowness><backazimuth><value>27.527456975309377</value></backazimuth><phaseHint>P</phaseHint><evaluationMode>automatic</evaluationMode><comment><text>51.32512615294855</text><id>DFX:rectilinearity</id></comment></pick><pick publicID="de.gempa.tb1.Pick/20250412200627.335037.188075"><time><value>2025-04-12T20:06:20.66Z</value></time><waveformID networkCode="SX" stationCode="MULD" channelCode="HHZ"/><filterID>ITAPER(2)&gt;&gt;BW(3,3,20)</filterID><methodID>AIC</methodID><horizontalSlowness><value>22.46413860453557</value></horizontalSlowness><backazimuth><value>317.32807456663124</value></backazimuth><phaseHint>P</phaseHint><evaluationMode>automatic</evaluationMode><comment><text>2776.69674750646</text><id>DFX:rectilinearity</id></comment></pick><pick publicID="de.gempa.tb1.Pick/20250412200627.866094.188077"><time><value>2025-04-12T20:06:20.64Z</value></time><waveformID networkCode="SX" stationCode="TANN" channelCode="HHZ"/><filterID>ITAPER(2)&gt;&gt;BW(3,3,20)</filterID><methodID>AIC</methodID><horizontalSlowness><value>18.233707914468162</value></horizontalSlowness><backazimuth><value>317.51715977602146</value></backazimuth><phaseHint>P</phaseHint><evaluationMode>automatic</evaluationMode><comment><text>5342.710824489805</text><id>DFX:rectilinearity</id></comment></pick><pick publicID="de.gempa.tb1.Pick/20250412200627.999652.188079"><time><value>2025-04-12T20:06:26.98Z</value></time><waveformID networkCode="BW" stationCode="ROTZ" channelCode="HHZ"/><filterID>ITAPER(2)&gt;&gt;BW(3,3,20)</filterID><methodID>AIC</methodID><horizontalSlowness><value>15.265727899065187</value></horizontalSlowness><backazimuth><value>1.3042889116529466</value></backazimuth><phaseHint>P</phaseHint><evaluationMode>automatic</evaluationMode><comment><text>5.087890037932043</text><id>DFX:rectilinearity</id></comment></pick><pick publicID="de.gempa.tb1.Pick/20250412200628.889779.188082"><time><value>2025-04-12T20:06:20.33Z</value></time><waveformID networkCode="SX" stationCode="GUNZ" channelCode="HHZ"/><filterID>ITAPER(2)&gt;&gt;BW(3,3,20)</filterID><methodID>AIC</methodID><horizontalSlowness><value>22.9638054893424</value></horizontalSlowness><backazimuth><value>258.2353069033109</value></backazimuth><phaseHint>P</phaseHint><evaluationMode>automatic</evaluationMode><comment><text>2233.3184900688439</text><id>DFX:rectilinearity</id></comment></pick><pick publicID="de.gempa.tb1.Pick/20250412200629.486526.188087"><time><value>2025-04-12T20:06:22.97Z</value></time><waveformID networkCode="TH" stationCode="PLN" channelCode="HHZ"/><filterID>ITAPER(2)&gt;&gt;BW(3,3,20)</filterID><methodID>AIC</methodID><horizontalSlowness><value>7.454768523587743</value></horizontalSlowness><backazimuth><value>143.1534711523888</value></backazimuth><phaseHint>P</phaseHint><evaluationMode>automatic</evaluationMode><comment><text>29.7335472548597</text><id>DFX:rectilinearity</id></comment></pick><pick publicID="de.gempa.tb1.Pick/20250412200629.543266.188089"><time><value>2025-04-12T20:06:21.65Z</value></time><waveformID networkCode="SX" stationCode="TRIB" channelCode="HHZ"/><filterID>ITAPER(2)&gt;&gt;BW(3,3,20)</filterID><methodID>AIC</methodID><horizontalSlowness><value>22.082321768354792</value></horizontalSlowness><backazimuth><value>47.09043179501285</value></backazimuth><phaseHint>P</phaseHint><evaluationMode>automatic</evaluationMode><comment><text>263.23040272403006</text><id>DFX:rectilinearity</id></comment></pick><pick publicID="de.gempa.tb1.Pick/20250412200629.568247.188091"><time><value>2025-04-12T20:06:24.37Z</value></time><waveformID networkCode="SX" stationCode="WERD" channelCode="HHN"/><filterID>ITAPER(3)&gt;&gt;BW(4,3,10)</filterID><methodID>L2-AIC-GRID</methodID><horizontalSlowness><value>22.42276117550876</value></horizontalSlowness><backazimuth><value>235.5452258213484</value></backazimuth><phaseHint>S</phaseHint><evaluationMode>automatic</evaluationMode><comment><text>1635.7798142074087</text><id>DFX:rectilinearity</id></comment><comment><text>de.gempa.tb1.Pick/20250412200625.693039.188070</text><id>RefPickID</id></comment></pick><pick publicID="de.gempa.tb1.Pick/20250412200630.176568.188092"><time><value>2025-04-12T20:06:28.33Z</value></time><waveformID networkCode="TH" stationCode="HKWD" channelCode="HHZ"/><filterID>ITAPER(2)&gt;&gt;BW(3,3,20)</filterID><methodID>AIC</methodID><horizontalSlowness><value>20.59154846826706</value></horizontalSlowness><backazimuth><value>107.45823348069425</value></backazimuth><phaseHint>P</phaseHint><evaluationMode>automatic</evaluationMode><comment><text>5.12610148728428</text><id>DFX:rectilinearity</id></comment></pick><pick publicID="de.gempa.tb1.Pick/20250412200630.462246.188094"><time><value>2025-04-12T20:06:28.26Z</value></time><waveformID networkCode="TH" stationCode="MLFH" channelCode="HHZ"/><filterID>ITAPER(2)&gt;&gt;BW(3,3,20)</filterID><methodID>AIC</methodID><horizontalSlowness><value>15.84127632109164</value><uncertainty>8.052145511213929</uncertainty></horizontalSlowness><backazimuth><value>352.069888014908</value><uncertainty>29.44654159537924</uncertainty></backazimuth><phaseHint>P</phaseHint><evaluationMode>automatic</evaluationMode><comment><text>0.13122558674723162</text><id>DFX:rectilinearity</id></comment></pick><pick publicID="de.gempa.tb1.Pick/20250412200630.702152.188096"><time><value>2025-04-12T20:06:26.52Z</value></time><waveformID networkCode="SX" stationCode="FROHN" locationCode="00" channelCode="HHZ"/><filterID>ITAPER(2)&gt;&gt;BW(3,3,20)</filterID><methodID>AIC</methodID><horizontalSlowness><value>17.448257151480227</value></horizontalSlowness><backazimuth><value>217.88373221686481</value></backazimuth><phaseHint>P</phaseHint><evaluationMode>automatic</evaluationMode><comment><text>46.61383479699042</text><id>DFX:rectilinearity</id></comment></pick><pick publicID="de.gempa.tb1.Pick/20250412200631.336746.188099"><time><value>2025-04-12T20:06:22.97Z</value></time><waveformID networkCode="SX" stationCode="MULD" channelCode="HHN"/><filterID>ITAPER(3)&gt;&gt;BW(4,3,10)</filterID><methodID>L2-AIC-GRID</methodID><horizontalSlowness><value>22.94552792428873</value></horizontalSlowness><backazimuth><value>319.55368621172875</value></backazimuth><phaseHint>S</phaseHint><evaluationMode>automatic</evaluationMode><comment><text>3047.167086132892</text><id>DFX:rectilinearity</id></comment><comment><text>de.gempa.tb1.Pick/20250412200627.335037.188075</text><id>RefPickID</id></comment></pick><pick publicID="de.gempa.tb1.Pick/20250412200631.83862.188100"><time><value>2025-04-12T20:06:22.95Z</value></time><waveformID networkCode="SX" stationCode="TANN" channelCode="HHN"/><filterID>ITAPER(3)&gt;&gt;BW(4,3,10)</filterID><methodID>L2-AIC-GRID</methodID><horizontalSlowness><value>18.959844259106639</value></horizontalSlowness><backazimuth><value>315.0924146599341</value></backazimuth><phaseHint>S</phaseHint><evaluationMode>automatic</evaluationMode><comment><text>6098.403418643849</text><id>DFX:rectilinearity</id></comment><comment><text>de.gempa.tb1.Pick/20250412200627.866094.188077</text><id>RefPickID</id></comment></pick><pick publicID="de.gempa.tb1.Pick/20250412200632.59342.188101"><time><value>2025-04-12T20:06:24.68Z</value></time><waveformID networkCode="SX" stationCode="TRIB" channelCode="HHN"/><filterID>ITAPER(3)&gt;&gt;BW(4,3,10)</filterID><methodID>L2-AIC-GRID</methodID><horizontalSlowness><value>22.075642252493378</value></horizontalSlowness><backazimuth><value>47.17129035462966</value></backazimuth><phaseHint>S</phaseHint><evaluationMode>automatic</evaluationMode><comment><text>263.28857895741686</text><id>DFX:rectilinearity</id></comment><comment><text>de.gempa.tb1.Pick/20250412200629.543266.188089</text><id>RefPickID</id></comment></pick><pick publicID="de.gempa.tb1.Pick/20250412200632.890072.188103"><time><value>2025-04-12T20:06:27.730622Z</value></time><waveformID networkCode="SX" stationCode="MEINS" channelCode="HHZ"/><filterID>ITAPER(2)&gt;&gt;BW(3,3,20)</filterID><methodID>AIC</methodID><horizontalSlowness><value>10.984278343194037</value></horizontalSlowness><backazimuth><value>195.9735257437699</value></backazimuth><phaseHint>P</phaseHint><evaluationMode>automatic</evaluationMode><comment><text>7.171191675587071</text><id>DFX:rectilinearity</id></comment></pick><pick publicID="de.gempa.tb1.Pick/20250412200633.05065.188109"><time><value>2025-04-12T20:06:24.05Z</value></time><waveformID networkCode="SX" stationCode="LEUT" channelCode="HHZ"/><filterID>ITAPER(2)&gt;&gt;BW(3,3,20)</filterID><methodID>AIC</methodID><horizontalSlowness><value>12.63608811018398</value></horizontalSlowness><backazimuth><value>171.0534631704374</value></backazimuth><phaseHint>P</phaseHint><evaluationMode>automatic</evaluationMode><comment><text>13.824892407469337</text><id>DFX:rectilinearity</id></comment></pick><pick publicID="de.gempa.tb1.Pick/20250412200633.393412.188112"><time><value>2025-04-12T20:06:25.945Z</value></time><waveformID networkCode="TH" stationCode="GRZ1" channelCode="HHZ"/><filterID>ITAPER(2)&gt;&gt;BW(3,3,20)</filterID><methodID>AIC</methodID><horizontalSlowness><value>22.783187363299263</value></horizontalSlowness><backazimuth><value>180.80628402751483</value></backazimuth><phaseHint>P</phaseHint><evaluationMode>automatic</evaluationMode><comment><text>2.897773728561267</text><id>DFX:rectilinearity</id></comment></pick><pick publicID="de.gempa.tb1.Pick/20250412200633.644402.188114"><time><value>2025-04-12T20:06:26.704999Z</value></time><waveformID networkCode="TH" stationCode="GEIDO" channelCode="HHZ"/><filterID>ITAPER(2)&gt;&gt;BW(3,3,20)</filterID><methodID>AIC</methodID><horizontalSlowness><value>6.772623449423343</value><uncertainty>5.894014296743083</uncertainty></horizontalSlowness><backazimuth><value>76.5936706969548</value><uncertainty>51.5877997844966</uncertainty></backazimuth><phaseHint>P</phaseHint><evaluationMode>automatic</evaluationMode><comment><text>0.6180712863839605</text><id>DFX:rectilinearity</id></comment></pick><pick publicID="de.gempa.tb1.Pick/20250412200633.86233.188116"><time><value>2025-04-12T20:06:25.31Z</value></time><waveformID networkCode="SX" stationCode="SCHF" channelCode="HHZ"/><filterID>ITAPER(2)&gt;&gt;BW(3,3,20)</filterID><methodID>AIC</methodID><horizontalSlowness><value>18.409640950085159</value></horizontalSlowness><backazimuth><value>220.727351350011</value></backazimuth><phaseHint>P</phaseHint><evaluationMode>automatic</evaluationMode><comment><text>3.2377488261940277</text><id>DFX:rectilinearity</id></comment></pick><pick publicID="de.gempa.tb1.Pick/20250412200634.139544.188118"><time><value>2025-04-12T20:06:32.71Z</value></time><waveformID networkCode="TH" stationCode="MORAS" channelCode="HHZ"/><filterID>ITAPER(2)&gt;&gt;BW(3,3,20)</filterID><methodID>AIC</methodID><horizontalSlowness><value>7.646631300736058</value><uncertainty>4.705760385961578</uncertainty></horizontalSlowness><backazimuth><value>94.17307334115645</value><uncertainty>35.841537630657733</uncertainty></backazimuth><phaseHint>P</phaseHint><evaluationMode>automatic</evaluationMode><comment><text>0.8218058626805048</text><id>DFX:rectilinearity</id></comment></pick><pick publicID="de.gempa.tb1.Pick/20250412200634.144038.188120"><time><value>2025-04-12T20:06:30.11Z</value></time><waveformID networkCode="TH" stationCode="MODW" channelCode="HHZ"/><filterID>ITAPER(2)&gt;&gt;BW(3,3,20)</filterID><methodID>AIC</methodID><horizontalSlowness><value>22.120632595213362</value></horizontalSlowness><backazimuth><value>182.87294199320047</value></backazimuth><phaseHint>P</phaseHint><evaluationMode>automatic</evaluationMode><comment><text>7.017902980013367</text><id>DFX:rectilinearity</id></comment></pick><pick publicID="de.gempa.tb1.Pick/20250412200634.146942.188122"><time><value>2025-04-12T20:06:26.939999Z</value></time><waveformID networkCode="TH" stationCode="ZEU" channelCode="HHZ"/><filterID>ITAPER(2)&gt;&gt;BW(3,3,20)</filterID><methodID>AIC</methodID><horizontalSlowness><value>15.580033876533667</value></horizontalSlowness><backazimuth><value>167.58584174202812</value></backazimuth><phaseHint>P</phaseHint><evaluationMode>automatic</evaluationMode><comment><text>8.44715863143937</text><id>DFX:rectilinearity</id></comment></pick><pick publicID="de.gempa.tb1.Pick/20250412200636.495149.188128"><time><value>2025-04-12T20:06:29.26Z</value></time><waveformID networkCode="TH" stationCode="ANNA" channelCode="HHZ"/><filterID>ITAPER(2)&gt;&gt;BW(3,3,20)</filterID><methodID>AIC</methodID><horizontalSlowness><value>14.283629369881973</value></horizontalSlowness><backazimuth><value>204.3352956652177</value></backazimuth><phaseHint>P</phaseHint><evaluationMode>automatic</evaluationMode><comment><text>3.6480692244636113</text><id>DFX:rectilinearity</id></comment></pick><pick publicID="de.gempa.tb1.Pick/20250412200636.51932.188130"><time><value>2025-04-12T20:06:27.025Z</value></time><waveformID networkCode="TH" stationCode="PLN" channelCode="HHN"/><filterID>ITAPER(3)&gt;&gt;BW(4,3,10)</filterID><methodID>L2-AIC-GRID</methodID><horizontalSlowness><value>22.694115590404145</value></horizontalSlowness><backazimuth><value>121.69324827561346</value></backazimuth><phaseHint>S</phaseHint><evaluationMode>automatic</evaluationMode><comment><text>39.86236234451131</text><id>DFX:rectilinearity</id></comment><comment><text>de.gempa.tb1.Pick/20250412200629.486526.188087</text><id>RefPickID</id></comment></pick><pick publicID="de.gempa.tb1.Pick/20250412200636.802921.188131"><time><value>2025-04-12T20:06:33.835Z</value></time><waveformID networkCode="BW" stationCode="ROTZ" channelCode="HHN"/><filterID>ITAPER(3)&gt;&gt;BW(4,3,10)</filterID><methodID>L2-AIC-GRID</methodID><horizontalSlowness><value>17.431303900513857</value></horizontalSlowness><backazimuth><value>101.01307409160651</value></backazimuth><phaseHint>S</phaseHint><evaluationMode>automatic</evaluationMode><comment><text>40.781363415385194</text><id>DFX:rectilinearity</id></comment><comment><text>de.gempa.tb1.Pick/20250412200627.999652.188079</text><id>RefPickID</id></comment></pick><pick publicID="de.gempa.tb1.Pick/20250412200636.917751.188132"><time><value>2025-04-12T20:06:28.84Z</value></time><waveformID networkCode="BW" stationCode="MANZ" channelCode="HHN"/><filterID>ITAPER(3)&gt;&gt;BW(4,3,10)</filterID><methodID>L2-AIC-GRID</methodID><horizontalSlowness><value>20.27163458501277</value></horizontalSlowness><backazimuth><value>106.97600034102568</value></backazimuth><phaseHint>S</phaseHint><evaluationMode>automatic</evaluationMode><comment><text>22.63421872473017</text><id>DFX:rectilinearity</id></comment><comment><text>de.gempa.tb1.Pick/20250412200626.068241.188072</text><id>RefPickID</id></comment></pick><pick publicID="de.gempa.tb1.Pick/20250412200638.114318.188133"><time><value>2025-04-12T20:06:28.84Z</value></time><waveformID networkCode="SX" stationCode="LEUT" channelCode="HHN"/><filterID>ITAPER(3)&gt;&gt;BW(4,3,10)</filterID><methodID>L2-AIC-GRID</methodID><horizontalSlowness><value>22.90677651536062</value></horizontalSlowness><backazimuth><value>267.0689366636259</value></backazimuth><phaseHint>S</phaseHint><evaluationMode>automatic</evaluationMode><comment><text>289.2762696013697</text><id>DFX:rectilinearity</id></comment><comment><text>de.gempa.tb1.Pick/20250412200633.05065.188109</text><id>RefPickID</id></comment></pick><pick publicID="de.gempa.tb1.Pick/20250412200638.220215.188134"><time><value>2025-04-12T20:06:31.81Z</value></time><waveformID networkCode="TH" stationCode="GRZ1" channelCode="HHN"/><filterID>ITAPER(3)&gt;&gt;BW(4,3,10)</filterID><methodID>L2-AIC-GRID</methodID><horizontalSlowness><value>22.96102839759956</value></horizontalSlowness><backazimuth><value>186.57595921911047</value></backazimuth><phaseHint>S</phaseHint><evaluationMode>automatic</evaluationMode><comment><text>157.69513766697148</text><id>DFX:rectilinearity</id></comment><comment><text>de.gempa.tb1.Pick/20250412200633.393412.188112</text><id>RefPickID</id></comment></pick><pick publicID="de.gempa.tb1.Pick/20250412200639.046937.188136"><time><value>2025-04-12T20:06:35.795Z</value></time><waveformID networkCode="TH" stationCode="MLFH" channelCode="HHN"/><filterID>ITAPER(3)&gt;&gt;BW(4,3,10)</filterID><methodID>L2-AIC-GRID</methodID><horizontalSlowness><value>23.363024041013926</value></horizontalSlowness><backazimuth><value>240.2486931382383</value></backazimuth><phaseHint>S</phaseHint><evaluationMode>automatic</evaluationMode><comment><text>1.942134067077274</text><id>DFX:rectilinearity</id></comment><comment><text>de.gempa.tb1.Pick/20250412200630.462246.188094</text><id>RefPickID</id></comment></pick><pick publicID="de.gempa.tb1.Pick/20250412200639.664355.188137"><time><value>2025-04-12T20:06:33.584999Z</value></time><waveformID networkCode="TH" stationCode="GEIDO" channelCode="HHN"/><filterID>ITAPER(3)&gt;&gt;BW(4,3,10)</filterID><methodID>L2-AIC-GRID</methodID><horizontalSlowness><value>22.213710435256548</value></horizontalSlowness><backazimuth><value>244.78319898647896</value></backazimuth><phaseHint>S</phaseHint><evaluationMode>automatic</evaluationMode><comment><text>24.37343307542474</text><id>DFX:rectilinearity</id></comment><comment><text>de.gempa.tb1.Pick/20250412200633.644402.188114</text><id>RefPickID</id></comment></pick><pick publicID="de.gempa.tb1.Pick/20250412200640.329303.188138"><time><value>2025-04-12T20:06:30.948396Z</value></time><waveformID networkCode="CZ" stationCode="HSKC" channelCode="HHZ"/><filterID>ITAPER(2)&gt;&gt;BW(3,3,20)</filterID><methodID>AIC</methodID><horizontalSlowness><value>14.114946556163124</value></horizontalSlowness><backazimuth><value>241.04649072355497</value></backazimuth><phaseHint>P</phaseHint><evaluationMode>automatic</evaluationMode><comment><text>4.70868305879973</text><id>DFX:rectilinearity</id></comment></pick><pick publicID="de.gempa.tb1.Pick/20250412200640.471114.188140"><time><value>2025-04-12T20:06:36.245Z</value></time><waveformID networkCode="TH" stationCode="HKWD" channelCode="HHN"/