<?xml version="1.0" encoding="UTF-8"?>
<seiscomp xmlns="http://geofon.gfz-potsdam.de/ns/seiscomp3-schema/0.13" version="0.13"><EventParameters><pick publicID="de.gempa.tb1.Pick/20250414052533.579459.135932"><time><value>2025-04-14T05:25:25.888393Z</value></time><waveformID networkCode="CX" stationCode="PB01" channelCode="HHZ"/><filterID>ITAPER(4)&gt;&gt;BW(4,4,20)</filterID><methodID>AIC</methodID><horizontalSlowness><value>21.235930277698198</value></horizontalSlowness><backazimuth><value>257.6114924436272</value></backazimuth><phaseHint>P</phaseHint><evaluationMode>automatic</evaluationMode><comment><text>10.17112798638401</text><id>DFX:rectilinearity</id></comment><comment><text>67.19003354832716</text><id>SNR</id></comment></pick><pick publicID="de.gempa.tb1.Pick/20250414052535.549128.135934"><time><value>2025-04-14T05:25:29.948393Z</value></time><waveformID networkCode="CX" stationCode="PB02" channelCode="HHZ"/><filterID>ITAPER(4)&gt;&gt;BW(4,4,20)</filterID><methodID>AIC</methodID><horizontalSlowness><value>7.497610131953746</value></horizontalSlowness><backazimuth><value>350.613172880427</value></backazimuth><phaseHint>P</phaseHint><evaluationMode>automatic</evaluationMode><comment><text>32.71784574747629</text><id>DFX:rectilinearity</id></comment><comment><text>16.59368544476565</text><id>SNR</id></comment></pick><pick publicID="de.gempa.tb1.Pick/20250414052537.230718.135937"><time><value>2025-04-14T05:25:29.188391Z</value></time><waveformID networkCode="CX" stationCode="PB08" channelCode="HHZ"/><filterID>ITAPER(4)&gt;&gt;BW(4,4,20)</filterID><methodID>AIC</methodID><horizontalSlowness><value>9.285029887187948</value></horizontalSlowness><backazimuth><value>155.2854997967173</value></backazimuth><phaseHint>P</phaseHint><evaluationMode>automatic</evaluationMode><comment><text>8.23926352604148</text><id>DFX:rectilinearity</id></comment><comment><text>10.741919282870146</text><id>SNR</id></comment></pick><pick publicID="de.gempa.tb1.Pick/20250414052538.491844.135939"><time><value>2025-04-14T05:25:31.449999Z</value></time><waveformID networkCode="CX" stationCode="PATCX" channelCode="HHZ"/><filterID>ITAPER(4)&gt;&gt;BW(4,4,20)</filterID><methodID>AIC</methodID><horizontalSlowness><value>18.227512582810174</value></horizontalSlowness><backazimuth><value>63.0839970726876</value></backazimuth><phaseHint>P</phaseHint><evaluationMode>automatic</evaluationMode><comment><text>229.0573110448621</text><id>DFX:rectilinearity</id></comment><comment><text>17.05348140376232</text><id>SNR</id></comment></pick><pick publicID="de.gempa.tb1.Pick/20250414052538.72156.135941"><time><value>2025-04-14T05:25:32.518393Z</value></time><waveformID networkCode="CX" stationCode="PB07" channelCode="HHZ"/><filterID>ITAPER(4)&gt;&gt;BW(4,4,20)</filterID><methodID>AIC</methodID><horizontalSlowness><value>23.389751702169846</value></horizontalSlowness><backazimuth><value>38.226572547327294</value></backazimuth><phaseHint>P</phaseHint><evaluationMode>automatic</evaluationMode><comment><text>154.8091585441054</text><id>DFX:rectilinearity</id></comment><comment><text>14.578765216893434</text><id>SNR</id></comment></pick><pick publicID="de.gempa.tb1.Pick/20250414052544.651795.135943"><time><value>2025-04-14T05:25:37.838393Z</value></time><waveformID networkCode="CX" stationCode="PB01" channelCode="HHN"/><filterID>ITAPER(2)&gt;&gt;BW(3,3,20)</filterID><methodID>L2-AIC-GRID</methodID><horizontalSlowness><value>23.544572486136087</value></horizontalSlowness><backazimuth><value>222.44449351094815</value></backazimuth><phaseHint>S</phaseHint><evaluationMode>automatic</evaluationMode><comment><text>587.7370143341401</text><id>DFX:rectilinearity</id></comment><comment><text>de.gempa.tb1.Pick/20250414052533.579459.135932</text><id>RefPickID</id></comment><comment><text>15.119196949370766</text><id>SNR</id></comment></pick><pick publicID="de.gempa.tb1.Pick/20250414052545.17666.135944"><time><value>2025-04-14T05:25:30.83Z</value></time><waveformID networkCode="CX" stationCode="PB09" channelCode="HHZ"/><filterID>ITAPER(4)&gt;&gt;BW(4,4,20)</filterID><methodID>AIC</methodID><horizontalSlowness><value>14.083774573302426</value></horizontalSlowness><backazimuth><value>292.82497431811043</value></backazimuth><phaseHint>P</phaseHint><evaluationMode>automatic</evaluationMode><comment><text>8.30222470196401</text><id>DFX:rectilinearity</id></comment><comment><text>22.625601083411</text><id>SNR</id></comment></pick><pick publicID="de.gempa.tb1.Pick/20250414052545.552345.135946"><time><value>2025-04-14T05:25:37.74Z</value></time><waveformID networkCode="CX" stationCode="PSGCX" channelCode="HHZ"/><filterID>ITAPER(4)&gt;&gt;BW(4,4,20)</filterID><methodID>AIC</methodID><horizontalSlowness><value>18.215780398566267</value></horizontalSlowness><backazimuth><value>347.9670277471588</value></backazimuth><phaseHint>P</phaseHint><evaluationMode>automatic</evaluationMode><comment><text>10.353328085929888</text><id>DFX:rectilinearity</id></comment><comment><text>16.808249081638092</text><id>SNR</id></comment></pick><pick publicID="de.gempa.tb1.Pick/20250414052551.829458.135951"><time><value>2025-04-14T05:25:43.478391Z</value></time><waveformID networkCode="CX" stationCode="PB08" channelCode="HHN"/><filterID>ITAPER(2)&gt;&gt;BW(3,3,20)</filterID><methodID>L2-AIC-GRID</methodID><horizontalSlowness><value>17.198874877764766</value></horizontalSlowness><backazimuth><value>214.00594495193138</value></backazimuth><phaseHint>S</phaseHint><evaluationMode>automatic</evaluationMode><comment><text>13.334461821494134</text><id>DFX:rectilinearity</id></comment><comment><text>de.gempa.tb1.Pick/20250414052537.230718.135937</text><id>RefPickID</id></comment><comment><text>9.204586705960489</text><id>SNR</id></comment></pick><pick publicID="de.gempa.tb1.Pick/20250414052552.614693.135952"><time><value>2025-04-14T05:25:44.878393Z</value></time><waveformID networkCode="CX" stationCode="PB02" channelCode="HHN"/><filterID>ITAPER(2)&gt;&gt;BW(3,3,20)</filterID><methodID>L2-AIC-GRID</methodID><horizontalSlowness><value>15.262822642949493</value></horizontalSlowness><backazimuth><value>306.2964278016093</value></backazimuth><phaseHint>S</phaseHint><evaluationMode>automatic</evaluationMode><comment><text>375.4565094227694</text><id>DFX:rectilinearity</id></comment><comment><text>de.gempa.tb1.Pick/20250414052535.549128.135934</text><id>RefPickID</id></comment><comment><text>10.944258513169673</text><id>SNR</id></comment></pick><pick publicID="de.gempa.tb1.Pick/20250414052555.292921.135953"><time><value>2025-04-14T05:25:47.559999Z</value></time><waveformID networkCode="CX" stationCode="PATCX" channelCode="HHN"/><filterID>ITAPER(2)&gt;&gt;BW(3,3,20)</filterID><methodID>L2-AIC-GRID</methodID><horizontalSlowness><value>21.738009318367666</value></horizontalSlowness><backazimuth><value>347.5015401619061</value></backazimuth><phaseHint>S</phaseHint><evaluationMode>automatic</evaluationMode><comment><text>231.5838149146752</text><id>DFX:rectilinearity</id></comment><comment><text>de.gempa.tb1.Pick/20250414052538.491844.135939</text><id>RefPickID</id></comment><comment><text>5.702250215233576</text><id>SNR</id></comment></pick><pick publicID="de.gempa.tb1.Pick/20250414052559.785231.135955"><time><value>2025-04-14T05:25:49.318393Z</value></time><waveformID networkCode="CX" stationCode="PB07" channelCode="HHN"/><filterID>ITAPER(2)&gt;&gt;BW(3,3,20)</filterID><methodID>L2-AIC-GRID</methodID><horizontalSlowness><value>20.943459999089374</value></horizontalSlowness><backazimuth><value>290.7636991370084</value></backazimuth><phaseHint>S</phaseHint><evaluationMode>automatic</evaluationMode><comment><text>691.5489736844868</text><id>DFX:rectilinearity</id></comment><comment><text>de.gempa.tb1.Pick/20250414052538.72156.135941</text><id>RefPickID</id></comment><comment><text>6.267863852973562</text><id>SNR</id></comment></pick><origin publicID="de.gempa.tb1.Origin/20250414052559.789028.128541"><time><value>2025-04-14T05:25:10.53533Z</value><uncertainty>0.8710978031158447</uncertainty></time><latitude><value>-20.894887924194336</value><uncertainty>3.959378480911255</uncertainty></latitude><longitude><value>-69.1112060546875</value><uncertainty>6.707375049591064</uncertainty></longitude><depth><value>106.0887680053711</value><uncertainty>6.944719314575195</uncertainty></depth><depthType>from location</depthType><methodID>LOCSAT</methodID><earthModelID>iasp91_scanloc</earthModelID><quality><associatedPhaseCount>12</associatedPhaseCount><usedPhaseCount>12</usedPhaseCount><associatedStationCount>7</associatedStationCount><usedStationCount>7</usedStationCount><depthPhaseCount>0</depthPhaseCount><standardError>0.32679607862288595</standardError><azimuthalGap>190.7381134033203</azimuthalGap><maximumDistance>1.6029744148254395</maximumDistance><minimumDistance>0.381303608417511</minimumDistance><medianDistance>0.9052806496620178</medianDistance></quality><uncertainty><minHorizontalUncertainty>7.425913333892822</minHorizontalUncertainty><maxHorizontalUncertainty>14.95783233642578</maxHorizontalUncertainty><azimuthMaxHorizontalUncertainty>108.47037506103516</azimuthMaxHorizontalUncertainty><preferredDescription>horizontal uncertainty</preferredDescription></uncertainty><evaluationMode>automatic</evaluationMode><evaluationStatus>confirmed</evaluationStatus><comment><text>0.04</text><id>mismatchScore</id></comment><comment><text>mismatchScore</text><id>scevalMethod</id></comment><arrival><pickID>de.gempa.tb1.Pick/20250414052533.579459.135932</pickID><phase>P</phase><azimuth>247.1592102050781</azimuth><distance>0.381303608417511</distance><timeResidual>-0.35172367095947266</timeResidual><timeUsed>true</timeUsed><horizontalSlownessUsed>false</horizontalSlownessUsed><backazimuthUsed>false</backazimuthUsed><weight>1</weight></arrival><arrival><pickID>de.gempa.tb1.Pick/20250414052535.549128.135934</pickID><phase>P</phase><azimuth>239.8805847167969</azimuth><distance>0.8459853529930115</distance><timeResidual>0.06544780731201172</timeResidual><timeUsed>true</timeUsed><horizontalSlownessUsed>false</horizontalSlownessUsed><backazimuthUsed>false</backazimuthUsed><weight>1</weight></arrival><arrival><pickID>de.gempa.tb1.Pick/20250414052537.230718.135937</pickID><phase>P</phase><azimuth>356.9740905761719</azimuth><distance>0.7509923577308655</distance><timeResidual>0.19111251831054688</timeResidual><timeUsed>true</timeUsed><horizontalSlownessUsed>false</horizontalSlownessUsed><backazimuthUsed>false</backazimuthUsed><weight>1</weight></arrival><arrival><pickID>de.gempa.tb1.Pick/20250414052538.491844.135939</pickID><phase>P</phase><azimuth>274.1479187011719</azimuth><distance>0.9770222306251526</distance><timeResidual>0.2472200393676758</timeResidual><timeUsed>true</timeUsed><horizontalSlownessUsed>false</horizontalSlownessUsed><backazimuthUsed>false</backazimuthUsed><weight>1</weight></arrival><arrival><pickID>de.gempa.tb1.Pick/20250414052538.72156.135941</pickID><phase>P</phase><azimuth>220.98399353027344</azimuth><distance>1.0987279415130615</distance><timeResidual>0.020969390869140625</timeResidual><timeUsed>true</timeUsed><horizontalSlownessUsed>false</horizontalSlownessUsed><backazimuthUsed>false</backazimuthUsed><weight>1</weight></arrival><arrival><pickID>de.gempa.tb1.Pick/20250414052544.651795.135943</pickID><phase>S</phase><azimuth>247.1592102050781</azimuth><distance>0.381303608417511</distance><timeResidual>-0.47601318359375</timeResidual><timeUsed>true</timeUsed><horizontalSlownessUsed>false</horizontalSlownessUsed><backazimuthUsed>false</backazimuthUsed><weight>1</weight></arrival><arrival><pickID>de.gempa.tb1.Pick/20250414052545.17666.135944</pickID><phase>P</phase><azimuth>187.7122039794922</azimuth><distance>0.9052806496620178</distance><timeResidual>0.3650636672973633</timeResidual><timeUsed>true</timeUsed><horizontalSlownessUsed>false</horizontalSlownessUsed><backazimuthUsed>false</backazimuthUsed><weight>1</weight></arrival><arrival><pickID>de.gempa.tb1.Pick/20250414052545.552345.135946</pickID><phase>P</phase><azimuth>323.4762268066406</azimuth><distance>1.6029744148254395</distance><timeResidual>-0.6602201461791992</timeResidual><timeUsed>true</timeUsed><horizontalSlownessUsed>false</horizontalSlownessUsed><backazimuthUsed>false</backazimuthUsed><weight>1</weight></arrival><arrival><pickID>de.gempa.tb1.Pick/20250414052551.829458.135951</pickID><phase>S</phase><azimuth>356.9740905761719</azimuth><distance>0.7509923577308655</distance><timeResidual>0.2582235336303711</timeResidual><timeUsed>true</timeUsed><horizontalSlownessUsed>false</horizontalSlownessUsed><backazimuthUsed>false</backazimuthUsed><weight>1</weight></arrival><arrival><pickID>de.gempa.tb1.Pick/20250414052552.614693.135952</pickID><phase>S</phase><azimuth>239.8805847167969</azimuth><distance>0.8459853529930115</distance><timeResidual>0.07862377166748047</timeResidual><timeUsed>true</timeUsed><horizontalSlownessUsed>false</horizontalSlownessUsed><backazimuthUsed>false</backazimuthUsed><weight>1</weight></arrival><arrival><pickID>de.gempa.tb1.Pick/20250414052555.292921.135953</pickID><phase>S</phase><azimuth>274.1479187011719</azimuth><distance>0.9770222306251526</distance><timeResidual>0.406977653503418</timeResidual><timeUsed>true</timeUsed><horizontalSlownessUsed>false</horizontalSlownessUsed><backazimuthUsed>false</backazimuthUsed><weight>1</weight></arrival><arrival><pickID>de.gempa.tb1.Pick/20250414052559.785231.135955</pickID><phase>S</phase><azimuth>220.98399353027344</azimuth><distance>1.0987279415130615</distance><timeResidual>-0.14570903778076172</timeResidual><timeUsed>true</timeUsed><horizontalSlownessUsed>false</horizontalSlownessUsed><backazimuthUsed>false</backazimuthUsed><weight>1</weight></arrival><magnitude publicID="de.gempa.tb1.Magnitude/20250414052605.939225.433354"><magnitude><value>1.9601328847358594</value></magnitude><type>M</type><methodID>weighted average</methodID><stationCount>5</stationCount></magnitude></origin><event publicID="gempa2025hirc"><preferredOriginID>de.gempa.tb1.Origin/20250414052559.789028.128541</preferredOriginID><preferredMagnitudeID>de.gempa.tb1.Magnitude/20250414052605.939225.433354</preferredMagnitudeID><description><text>Northern Chile</text><type>region name</type></description><originReference>de.gempa.tb1.Origin/20250414052559.789028.128541</originReference></event></EventParameters></seiscomp>