<?xml version="1.0" encoding="UTF-8"?>
<seiscomp xmlns="http://geofon.gfz-potsdam.de/ns/seiscomp3-schema/0.13" version="0.13"><EventParameters><pick publicID="de.gempa.tb1.Pick/20250413043047.47574.121731"><time><value>2025-04-13T04:30:19.25Z</value></time><waveformID networkCode="GE" stationCode="EIL" channelCode="BHZ"/><filterID>BW(4,0.7,2)</filterID><methodID>AIC</methodID><horizontalSlowness><value>5.779114542299752</value></horizontalSlowness><backazimuth><value>64.66756455239198</value></backazimuth><phaseHint>P</phaseHint><evaluationMode>automatic</evaluationMode><comment><text>367.23818390049757</text><id>DFX:rectilinearity</id></comment></pick><pick publicID="de.gempa.tb1.Pick/20250413043047.507147.121733"><time><value>2025-04-13T04:30:13.7Z</value></time><waveformID networkCode="GE" stationCode="CSS" channelCode="BHZ"/><filterID>BW(4,0.7,2)</filterID><methodID>AIC</methodID><horizontalSlowness><value>12.306446060469137</value></horizontalSlowness><backazimuth><value>69.7259901493295</value></backazimuth><phaseHint>P</phaseHint><evaluationMode>automatic</evaluationMode><comment><text>57.54809492091892</text><id>DFX:rectilinearity</id></comment></pick><pick publicID="de.gempa.tb1.Pick/20250413043106.458247.121737"><time><value>2025-04-13T04:30:27.785Z</value></time><waveformID networkCode="GE" stationCode="TIRR" channelCode="BHZ"/><filterID>BW(4,0.7,2)</filterID><methodID>AIC</methodID><horizontalSlowness><value>12.508994594045374</value></horizontalSlowness><backazimuth><value>49.22537011048053</value></backazimuth><phaseHint>P</phaseHint><evaluationMode>automatic</evaluationMode><comment><text>348.02922528775173</text><id>DFX:rectilinearity</id></comment></pick><pick publicID="de.gempa.tb1.Pick/20250413043109.148019.121739"><time><value>2025-04-13T04:30:42.782037Z</value></time><waveformID networkCode="RO" stationCode="MLR" channelCode="BHZ"/><filterID>BW(4,0.7,2)</filterID><methodID>AIC</methodID><horizontalSlowness><value>4.989424823795733</value></horizontalSlowness><backazimuth><value>70.8465063096961</value></backazimuth><phaseHint>P</phaseHint><evaluationMode>automatic</evaluationMode><comment><text>13142.7579938222</text><id>DFX:rectilinearity</id></comment></pick><pick publicID="de.gempa.tb1.Pick/20250413043112.67038.121742"><time><value>2025-04-13T04:30:58.71Z</value></time><waveformID networkCode="PL" stationCode="KWP" channelCode="HHZ"/><methodID>AIC</methodID><horizontalSlowness><value>4.658919248285004</value></horizontalSlowness><backazimuth><value>54.7069712510728</value></backazimuth><phaseHint>P</phaseHint><evaluationMode>automatic</evaluationMode><comment><text>758.2561484277161</text><id>DFX:rectilinearity</id></comment></pick><pick publicID="de.gempa.tb1.Pick/20250413043113.680996.121744"><time><value>2025-04-13T04:30:55.97Z</value></time><waveformID networkCode="PL" stationCode="SUW" channelCode="HHZ"/><methodID>AIC</methodID><horizontalSlowness><value>5.389210356016516</value></horizontalSlowness><backazimuth><value>263.85898777986085</value></backazimuth><phaseHint>P</phaseHint><evaluationMode>automatic</evaluationMode><comment><text>192.28992669248453</text><id>DFX:rectilinearity</id></comment></pick><pick publicID="de.gempa.tb1.Pick/20250413043123.2615.121746"><time><value>2025-04-13T04:31:08.46Z</value></time><waveformID networkCode="PL" stationCode="BEL" channelCode="HHZ"/><methodID>AIC</methodID><horizontalSlowness><value>0.6585539987386806</value></horizontalSlowness><backazimuth><value>299.8485627530709</value></backazimuth><phaseHint>P</phaseHint><evaluationMode>automatic</evaluationMode><comment><text>14065.670745349875</text><id>DFX:rectilinearity</id></comment></pick><pick publicID="de.gempa.tb1.Pick/20250413043125.010135.121748"><time><value>2025-04-13T04:31:11.96Z</value></time><waveformID networkCode="PL" stationCode="OJC" channelCode="HHZ"/><methodID>AIC</methodID><horizontalSlowness><value>5.512983076948613</value></horizontalSlowness><backazimuth><value>95.34631348692238</value></backazimuth><phaseHint>P</phaseHint><evaluationMode>automatic</evaluationMode><comment><text>8.297606277134905</text><id>DFX:rectilinearity</id></comment></pick><origin publicID="de.gempa.tb1.Origin/20250413043144.080074.129605"><time><value>2025-04-13T04:24:32.354724Z</value><uncertainty>10.896931648254395</uncertainty></time><latitude><value>38.399784088134766</value><uncertainty>35.62984085083008</uncertainty></latitude><longitude><value>73.05301666259766</value><uncertainty>75.80123901367188</uncertainty></longitude><depth><value>536.6483764648438</value><uncertainty>139.65310668945312</uncertainty></depth><depthType>from location</depthType><methodID>LOCSAT</methodID><earthModelID>iasp91</earthModelID><quality><associatedPhaseCount>8</associatedPhaseCount><usedPhaseCount>8</usedPhaseCount><associatedStationCount>8</associatedStationCount><usedStationCount>8</usedStationCount><depthPhaseCount>0</depthPhaseCount><standardError>0.669260619330795</standardError><azimuthalGap>314.61090087890625</azimuthalGap><maximumDistance>39.101268768310547</maximumDistance><minimumDistance>31.87187385559082</minimumDistance><medianDistance>37.038917541503906</medianDistance></quality><uncertainty><minHorizontalUncertainty>42.969879150390625</minHorizontalUncertainty><maxHorizontalUncertainty>174.42324829101562</maxHorizontalUncertainty><azimuthMaxHorizontalUncertainty>111.95059967041016</azimuthMaxHorizontalUncertainty><preferredDescription>horizontal uncertainty</preferredDescription></uncertainty><evaluationMode>automatic</evaluationMode><comment><text>314.61</text><id>maxGap</id></comment><arrival><pickID>de.gempa.tb1.Pick/20250413043047.47574.121731</pickID><phase>P</phase><azimuth>266.09259033203125</azimuth><distance>32.567237854003906</distance><timeResidual>-0.12579345703125</timeResidual><timeUsed>true</timeUsed><horizontalSlownessUsed>false</horizontalSlownessUsed><backazimuthUsed>false</backazimuthUsed><weight>1</weight></arrival><arrival><pickID>de.gempa.tb1.Pick/20250413043047.507147.121733</pickID><phase>P</phase><azimuth>276.2431335449219</azimuth><distance>31.87187385559082</distance><timeResidual>0.299560546875</timeResidual><timeUsed>true</timeUsed><horizontalSlownessUsed>false</horizontalSlownessUsed><backazimuthUsed>false</backazimuthUsed><weight>1</weight></arrival><arrival><pickID>de.gempa.tb1.Pick/20250413043106.458247.121737</pickID><phase>P</phase><azimuth>294.8687744140625</azimuth><distance>33.68340301513672</distance><timeResidual>-0.787994384765625</timeResidual><timeUsed>true</timeUsed><horizontalSlownessUsed>false</horizontalSlownessUsed><backazimuthUsed>false</backazimuthUsed><weight>1</weight></arrival><arrival><pickID>de.gempa.tb1.Pick/20250413043109.148019.121739</pickID><phase>P</phase><azimuth>296.977783203125</azimuth><distance>35.32862091064453</distance><timeResidual>0.482513427734375</timeResidual><timeUsed>true</timeUsed><horizontalSlownessUsed>false</horizontalSlownessUsed><backazimuthUsed>false</backazimuthUsed><weight>1</weight></arrival><arrival><pickID>de.gempa.tb1.Pick/20250413043112.67038.121742</pickID><phase>P</phase><azimuth>304.2039794921875</azimuth><distance>37.2508544921875</distance><timeResidual>0.634918212890625</timeResidual><timeUsed>true</timeUsed><horizontalSlownessUsed>false</horizontalSlownessUsed><backazimuthUsed>false</backazimuthUsed><weight>1</weight></arrival><arrival><pickID>de.gempa.tb1.Pick/20250413043113.680996.121744</pickID><phase>P</phase><azimuth>311.481689453125</azimuth><distance>37.038917541503906</distance><timeResidual>-0.296600341796875</timeResidual><timeUsed>true</timeUsed><horizontalSlownessUsed>false</horizontalSlownessUsed><backazimuthUsed>false</backazimuthUsed><weight>1</weight></arrival><arrival><pickID>de.gempa.tb1.Pick/20250413043123.2615.121746</pickID><phase>P</phase><azimuth>307.8489685058594</azimuth><distance>38.41768264770508</distance><timeResidual>0.9180908203125</timeResidual><timeUsed>true</timeUsed><horizontalSlownessUsed>false</horizontalSlownessUsed><backazimuthUsed>false</backazimuthUsed><weight>1</weight></arrival><arrival><pickID>de.gempa.tb1.Pick/20250413043125.010135.121748</pickID><phase>P</phase><azimuth>305.29815673828125</azimuth><distance>39.101268768310547</distance><timeResidual>-1.135772705078125</timeResidual><timeUsed>true</timeUsed><horizontalSlownessUsed>false</horizontalSlownessUsed><backazimuthUsed>false</backazimuthUsed><weight>1</weight></arrival><magnitude publicID="de.gempa.tb1.Magnitude/20250413043144.097766.310821"><magnitude><value>5.168974565574612</value></magnitude><type>M</type><methodID>weighted average</methodID><stationCount>6</stationCount></magnitude></origin><event publicID="gempa2025hgta"><preferredOriginID>de.gempa.tb1.Origin/20250413043144.080074.129605</preferredOriginID><preferredMagnitudeID>de.gempa.tb1.Magnitude/20250413043144.097766.310821</preferredMagnitudeID><type>not locatable</type><description><text>Tajikistan-Xinjiang Border Region</text><type>region name</type></description><originReference>de.gempa.tb1.Origin/20250413043144.080074.129605</originReference></event></EventParameters></seiscomp>