<?xml version="1.0" encoding="UTF-8"?>
<seiscomp xmlns="http://geofon.gfz-potsdam.de/ns/seiscomp3-schema/0.13" version="0.13"><EventParameters><pick publicID="de.gempa.tb1.Pick/20250414113511.550865.137690"><time><value>2025-04-14T11:35:03.668391Z</value></time><waveformID networkCode="CX" stationCode="PB01" channelCode="HHZ"/><filterID>ITAPER(4)&gt;&gt;BW(4,4,20)</filterID><methodID>AIC</methodID><horizontalSlowness><value>9.427986923578981</value></horizontalSlowness><backazimuth><value>262.5901269857228</value></backazimuth><phaseHint>P</phaseHint><evaluationMode>automatic</evaluationMode><comment><text>3.0423377842689363</text><id>DFX:rectilinearity</id></comment><comment><text>32.47092447213961</text><id>SNR</id></comment></pick><pick publicID="de.gempa.tb1.Pick/20250414113511.577174.137692"><time><value>2025-04-14T11:35:05.918393Z</value></time><waveformID networkCode="CX" stationCode="PB03" channelCode="HHZ"/><filterID>ITAPER(4)&gt;&gt;BW(4,4,20)</filterID><methodID>AIC</methodID><horizontalSlowness><value>17.173335218160897</value></horizontalSlowness><backazimuth><value>117.05712620824852</value></backazimuth><phaseHint>P</phaseHint><evaluationMode>automatic</evaluationMode><comment><text>9.67457288433561</text><id>DFX:rectilinearity</id></comment><comment><text>17.69781173655947</text><id>SNR</id></comment></pick><pick publicID="de.gempa.tb1.Pick/20250414113513.458316.137694"><time><value>2025-04-14T11:35:06.558394Z</value></time><waveformID networkCode="CX" stationCode="PB02" channelCode="HHZ"/><filterID>ITAPER(4)&gt;&gt;BW(4,4,20)</filterID><methodID>AIC</methodID><horizontalSlowness><value>20.910117398965756</value></horizontalSlowness><backazimuth><value>251.06423746999153</value></backazimuth><phaseHint>P</phaseHint><evaluationMode>automatic</evaluationMode><comment><text>15.18754156804575</text><id>DFX:rectilinearity</id></comment><comment><text>21.560598433993672</text><id>SNR</id></comment></pick><pick publicID="de.gempa.tb1.Pick/20250414113523.523461.137696"><time><value>2025-04-14T11:35:01.41Z</value></time><waveformID networkCode="CX" stationCode="PB09" channelCode="HHZ"/><filterID>ITAPER(4)&gt;&gt;BW(4,4,20)</filterID><methodID>AIC</methodID><horizontalSlowness><value>17.762023596162482</value></horizontalSlowness><backazimuth><value>88.83892158111385</value></backazimuth><phaseHint>P</phaseHint><evaluationMode>automatic</evaluationMode><comment><text>18.505234723879358</text><id>DFX:rectilinearity</id></comment><comment><text>41.796000846361437</text><id>SNR</id></comment></pick><pick publicID="de.gempa.tb1.Pick/20250414113529.596603.137699"><time><value>2025-04-14T11:35:19.708391Z</value></time><waveformID networkCode="CX" stationCode="PB01" channelCode="HHN"/><filterID>ITAPER(2)&gt;&gt;BW(3,3,20)</filterID><methodID>L2-AIC-GRID</methodID><horizontalSlowness><value>22.87706313850852</value></horizontalSlowness><backazimuth><value>205.8398671185174</value></backazimuth><phaseHint>S</phaseHint><evaluationMode>automatic</evaluationMode><comment><text>16.636318632947667</text><id>DFX:rectilinearity</id></comment><comment><text>de.gempa.tb1.Pick/20250414113511.550865.137690</text><id>RefPickID</id></comment><comment><text>5.763544283101378</text><id>SNR</id></comment></pick><pick publicID="de.gempa.tb1.Pick/20250414113530.807377.137700"><time><value>2025-04-14T11:35:23.588393Z</value></time><waveformID networkCode="CX" stationCode="PB03" channelCode="HHN"/><filterID>ITAPER(2)&gt;&gt;BW(3,3,20)</filterID><methodID>L2-AIC-GRID</methodID><horizontalSlowness><value>15.651773495511275</value></horizontalSlowness><backazimuth><value>297.76952994539386</value></backazimuth><phaseHint>S</phaseHint><evaluationMode>automatic</evaluationMode><comment><text>5.139331022347768</text><id>DFX:rectilinearity</id></comment><comment><text>de.gempa.tb1.Pick/20250414113511.577174.137692</text><id>RefPickID</id></comment><comment><text>6.275439519458518</text><id>SNR</id></comment></pick><pick publicID="de.gempa.tb1.Pick/20250414113536.179928.137701"><time><value>2025-04-14T11:35:06.368393Z</value></time><waveformID networkCode="CX" stationCode="PB07" channelCode="HHZ"/><filterID>ITAPER(4)&gt;&gt;BW(4,4,20)</filterID><methodID>AIC</methodID><horizontalSlowness><value>14.985592743122718</value></horizontalSlowness><backazimuth><value>96.88230454351607</value></backazimuth><phaseHint>P</phaseHint><evaluationMode>automatic</evaluationMode><comment><text>175.50693478772527</text><id>DFX:rectilinearity</id></comment><comment><text>32.30159209749354</text><id>SNR</id></comment></pick><origin publicID="de.gempa.tb1.Origin/20250414113544.006968.136364"><time><value>2025-04-14T11:34:43.406647Z</value><uncertainty>1.4153687953948975</uncertainty></time><latitude><value>-21.53365707397461</value><uncertainty>7.765079498291016</uncertainty></latitude><longitude><value>-68.7075424194336</value><uncertainty>18.013967514038086</uncertainty></longitude><depth><value>115.34422302246094</value><uncertainty>17.229808807373047</uncertainty></depth><depthType>from location</depthType><methodID>LOCSAT</methodID><earthModelID>iasp91_scanloc</earthModelID><quality><associatedPhaseCount>7</associatedPhaseCount><usedPhaseCount>7</usedPhaseCount><associatedStationCount>5</associatedStationCount><usedStationCount>5</usedStationCount><depthPhaseCount>0</depthPhaseCount><standardError>0.13808141544051217</standardError><azimuthalGap>298.28895568847656</azimuthalGap><maximumDistance>1.1276016235351562</maximumDistance><minimumDistance>0.5616392493247986</minimumDistance><medianDistance>1.098508358001709</medianDistance></quality><uncertainty><minHorizontalUncertainty>15.499003410339355</minHorizontalUncertainty><maxHorizontalUncertainty>39.107471466064453</maxHorizontalUncertainty><azimuthMaxHorizontalUncertainty>99.7632064819336</azimuthMaxHorizontalUncertainty><preferredDescription>horizontal uncertainty</preferredDescription></uncertainty><evaluationMode>automatic</evaluationMode><evaluationStatus>confirmed</evaluationStatus><comment><text>0.00</text><id>mismatchScore</id></comment><comment><text>mismatchScore</text><id>scevalMethod</id></comment><arrival><pickID>de.gempa.tb1.Pick/20250414113511.550865.137690</pickID><phase>P</phase><azimuth>303.7202453613281</azimuth><distance>0.8758291006088257</distance><timeResidual>-0.211761474609375</timeResidual><timeUsed>true</timeUsed><horizontalSlownessUsed>false</horizontalSlownessUsed><backazimuthUsed>false</backazimuthUsed><weight>1</weight></arrival><arrival><pickID>de.gempa.tb1.Pick/20250414113511.577174.137692</pickID><phase>P</phase><azimuth>242.0092010498047</azimuth><distance>1.098508358001709</distance><timeResidual>-0.17321395874023438</timeResidual><timeUsed>true</timeUsed><horizontalSlownessUsed>false</horizontalSlownessUsed><backazimuthUsed>false</backazimuthUsed><weight>1</weight></arrival><arrival><pickID>de.gempa.tb1.Pick/20250414113513.458316.137694</pickID><phase>P</phase><azimuth>280.66558837890625</azimuth><distance>1.1276016235351562</distance><timeResidual>0.15581893920898438</timeResidual><timeUsed>true</timeUsed><horizontalSlownessUsed>false</horizontalSlownessUsed><backazimuthUsed>false</backazimuthUsed><weight>1</weight></arrival><arrival><pickID>de.gempa.tb1.Pick/20250414113523.523461.137696</pickID><phase>P</phase><azimuth>242.1600799560547</azimuth><distance>0.5616392493247986</distance><timeResidual>0.13294219970703125</timeResidual><timeUsed>true</timeUsed><horizontalSlownessUsed>false</horizontalSlownessUsed><backazimuthUsed>false</backazimuthUsed><weight>1</weight></arrival><arrival><pickID>de.gempa.tb1.Pick/20250414113529.596603.137699</pickID><phase>S</phase><azimuth>303.7202453613281</azimuth><distance>0.8758291006088257</distance><timeResidual>0.021871566772460938</timeResidual><timeUsed>true</timeUsed><horizontalSlownessUsed>false</horizontalSlownessUsed><backazimuthUsed>false</backazimuthUsed><weight>1</weight></arrival><arrival><pickID>de.gempa.tb1.Pick/20250414113530.807377.137700</pickID><phase>S</phase><azimuth>242.0092010498047</azimuth><distance>1.098508358001709</distance><timeResidual>-0.04471778869628906</timeResidual><timeUsed>true</timeUsed><horizontalSlownessUsed>false</horizontalSlownessUsed><backazimuthUsed>false</backazimuthUsed><weight>1</weight></arrival><arrival><pickID>de.gempa.tb1.Pick/20250414113536.179928.137701</pickID><phase>P</phase><azimuth>259.8501281738281</azimuth><distance>1.1133222579956055</distance><timeResidual>0.11911392211914062</timeResidual><timeUsed>true</timeUsed><horizontalSlownessUsed>false</horizontalSlownessUsed><backazimuthUsed>false</backazimuthUsed><weight>1</weight></arrival><magnitude publicID="de.gempa.tb1.Magnitude/20250414113550.936568.480420"><magnitude><value>1.9536806308838022</value></magnitude><type>M</type><methodID>weighted average</methodID><stationCount>1</stationCount></magnitude></origin><event publicID="gempa2025hjdk"><preferredOriginID>de.gempa.tb1.Origin/20250414113544.006968.136364</preferredOriginID><preferredMagnitudeID>de.gempa.tb1.Magnitude/20250414113550.936568.480420</preferredMagnitudeID><description><text>Chile-Bolivia Border Region</text><type>region name</type></description><originReference>de.gempa.tb1.Origin/20250414113544.006968.136364</originReference></event></EventParameters></seiscomp>