<?xml version="1.0" encoding="UTF-8"?>
<seiscomp xmlns="http://geofon.gfz-potsdam.de/ns/seiscomp3-schema/0.13" version="0.13"><EventParameters><pick publicID="de.gempa.tb1.Pick/20250413055519.527275.129245"><time><value>2025-04-13T05:55:13.118393Z</value></time><waveformID networkCode="CX" stationCode="PB03" channelCode="HHZ"/><filterID>ITAPER(4)&gt;&gt;BW(4,4,20)</filterID><methodID>AIC</methodID><horizontalSlowness><value>9.142006290132255</value></horizontalSlowness><backazimuth><value>144.21209897685054</value></backazimuth><phaseHint>P</phaseHint><evaluationMode>automatic</evaluationMode><comment><text>21.502750417657943</text><id>DFX:rectilinearity</id></comment><comment><text>49.08785550878603</text><id>SNR</id></comment></pick><pick publicID="de.gempa.tb1.Pick/20250413055519.571782.129247"><time><value>2025-04-13T05:55:11.438393Z</value></time><waveformID networkCode="CX" stationCode="PB01" channelCode="HHZ"/><filterID>ITAPER(4)&gt;&gt;BW(4,4,20)</filterID><methodID>AIC</methodID><horizontalSlowness><value>8.492416320595034</value></horizontalSlowness><backazimuth><value>85.10515842564467</value></backazimuth><phaseHint>P</phaseHint><evaluationMode>automatic</evaluationMode><comment><text>68.48172488660288</text><id>DFX:rectilinearity</id></comment><comment><text>48.13721625890776</text><id>SNR</id></comment></pick><pick publicID="de.gempa.tb1.Pick/20250413055520.512174.129249"><time><value>2025-04-13T05:55:14.218393Z</value></time><waveformID networkCode="CX" stationCode="PB02" channelCode="HHZ"/><filterID>ITAPER(4)&gt;&gt;BW(4,4,20)</filterID><methodID>AIC</methodID><horizontalSlowness><value>5.802220613039436</value></horizontalSlowness><backazimuth><value>66.73753642283391</value></backazimuth><phaseHint>P</phaseHint><evaluationMode>automatic</evaluationMode><comment><text>392.2227528674022</text><id>DFX:rectilinearity</id></comment><comment><text>285.9874917659295</text><id>SNR</id></comment></pick><pick publicID="de.gempa.tb1.Pick/20250413055522.394588.129251"><time><value>2025-04-13T05:55:08.42Z</value></time><waveformID networkCode="CX" stationCode="PB09" channelCode="HHZ"/><filterID>ITAPER(4)&gt;&gt;BW(4,4,20)</filterID><methodID>AIC</methodID><horizontalSlowness><value>14.312865662113447</value></horizontalSlowness><backazimuth><value>86.71104112468709</value></backazimuth><phaseHint>P</phaseHint><evaluationMode>automatic</evaluationMode><comment><text>179.3932916259071</text><id>DFX:rectilinearity</id></comment><comment><text>71.34291006128022</text><id>SNR</id></comment></pick><pick publicID="de.gempa.tb1.Pick/20250413055522.494938.129253"><time><value>2025-04-13T05:55:15.668393Z</value></time><waveformID networkCode="CX" stationCode="PB06" channelCode="HHZ"/><filterID>ITAPER(4)&gt;&gt;BW(4,4,20)</filterID><methodID>AIC</methodID><horizontalSlowness><value>6.565304428303839</value></horizontalSlowness><backazimuth><value>344.97554985289247</value></backazimuth><phaseHint>P</phaseHint><evaluationMode>automatic</evaluationMode><comment><text>90.22334764511606</text><id>DFX:rectilinearity</id></comment><comment><text>12.395544638686555</text><id>SNR</id></comment></pick><pick publicID="de.gempa.tb1.Pick/20250413055527.079747.129255"><time><value>2025-04-13T05:55:18.188393Z</value></time><waveformID networkCode="CX" stationCode="PB08" channelCode="HHZ"/><filterID>ITAPER(4)&gt;&gt;BW(4,4,20)</filterID><methodID>AIC</methodID><horizontalSlowness><value>15.767736957336886</value></horizontalSlowness><backazimuth><value>208.23033713778025</value></backazimuth><phaseHint>P</phaseHint><evaluationMode>automatic</evaluationMode><comment><text>11.690566987355426</text><id>DFX:rectilinearity</id></comment><comment><text>9.076162585185767</text><id>SNR</id></comment></pick><pick publicID="de.gempa.tb1.Pick/20250413055527.28285.129257"><time><value>2025-04-13T05:55:19.079999Z</value></time><waveformID networkCode="CX" stationCode="PATCX" channelCode="HHZ"/><filterID>ITAPER(4)&gt;&gt;BW(4,4,20)</filterID><methodID>AIC</methodID><horizontalSlowness><value>9.250216530377534</value></horizontalSlowness><backazimuth><value>196.35136285834204</value></backazimuth><phaseHint>P</phaseHint><evaluationMode>automatic</evaluationMode><comment><text>556.6260986094788</text><id>DFX:rectilinearity</id></comment><comment><text>30.480883039513294</text><id>SNR</id></comment></pick><pick publicID="de.gempa.tb1.Pick/20250413055539.772038.129259"><time><value>2025-04-13T05:55:32.228393Z</value></time><waveformID networkCode="CX" stationCode="PB03" channelCode="HHN"/><filterID>ITAPER(2)&gt;&gt;BW(3,3,20)</filterID><methodID>L2-AIC-GRID</methodID><horizontalSlowness><value>9.517378352082426</value></horizontalSlowness><backazimuth><value>277.05766608393697</value></backazimuth><phaseHint>S</phaseHint><evaluationMode>automatic</evaluationMode><comment><text>284.9294760190902</text><id>DFX:rectilinearity</id></comment><comment><text>de.gempa.tb1.Pick/20250413055519.527275.129245</text><id>RefPickID</id></comment><comment><text>10.612023154996159</text><id>SNR</id></comment></pick><pick publicID="de.gempa.tb1.Pick/20250413055545.663077.129261"><time><value>2025-04-13T05:55:37.108393Z</value></time><waveformID networkCode="CX" stationCode="PB06" channelCode="HHN"/><filterID>ITAPER(2)&gt;&gt;BW(3,3,20)</filterID><methodID>L2-AIC-GRID</methodID><horizontalSlowness><value>21.146929706591866</value></horizontalSlowness><backazimuth><value>105.60845587682735</value></backazimuth><phaseHint>S</phaseHint><evaluationMode>automatic</evaluationMode><comment><text>126.75960734815779</text><id>DFX:rectilinearity</id></comment><comment><text>de.gempa.tb1.Pick/20250413055522.494938.129253</text><id>RefPickID</id></comment><comment><text>12.30437039595295</text><id>SNR</id></comment></pick><pick publicID="de.gempa.tb1.Pick/20250413055550.534793.129263"><time><value>2025-04-13T05:55:13.828394Z</value></time><waveformID networkCode="CX" stationCode="PB07" channelCode="HHZ"/><filterID>ITAPER(4)&gt;&gt;BW(4,4,20)</filterID><methodID>AIC</methodID><horizontalSlowness><value>18.997885840519924</value></horizontalSlowness><backazimuth><value>81.7150082590488</value></backazimuth><phaseHint>P</phaseHint><evaluationMode>automatic</evaluationMode><comment><text>848.9842528826784</text><id>DFX:rectilinearity</id></comment><comment><text>165.18409722491992</text><id>SNR</id></comment></pick><pick publicID="de.gempa.tb1.Pick/20250413055553.254596.129265"><time><value>2025-04-13T05:55:41.268393Z</value></time><waveformID networkCode="CX" stationCode="PB08" channelCode="HHN"/><filterID>ITAPER(2)&gt;&gt;BW(3,3,20)</filterID><methodID>L2-AIC-GRID</methodID><horizontalSlowness><value>17.037056127174086</value></horizontalSlowness><backazimuth><value>208.920864694617</value></backazimuth><phaseHint>S</phaseHint><evaluationMode>automatic</evaluationMode><comment><text>97.99010063628074</text><id>DFX:rectilinearity</id></comment><comment><text>de.gempa.tb1.Pick/20250413055527.079747.129255</text><id>RefPickID</id></comment><comment><text>5.132206512382902</text><id>SNR</id></comment></pick><origin publicID="de.gempa.tb1.Origin/20250413055553.258151.102154"><time><value>2025-04-13T05:54:48.340086Z</value><uncertainty>1.2402292490005493</uncertainty></time><latitude><value>-21.659791946411133</value><uncertainty>4.5002541542053223</uncertainty></latitude><longitude><value>-68.58641052246094</value><uncertainty>14.750836372375488</uncertainty></longitude><depth><value>135.06170654296875</value><uncertainty>13.941001892089844</uncertainty></depth><depthType>from location</depthType><methodID>LOCSAT</methodID><earthModelID>iasp91_scanloc</earthModelID><quality><associatedPhaseCount>11</associatedPhaseCount><usedPhaseCount>11</usedPhaseCount><associatedStationCount>8</associatedStationCount><usedStationCount>8</usedStationCount><depthPhaseCount>0</depthPhaseCount><standardError>0.29506483062191707</standardError><azimuthalGap>240.5145263671875</azimuthalGap><maximumDistance>1.6830142736434937</maximumDistance><minimumDistance>0.6244655251502991</minimumDistance><medianDistance>1.2657344341278076</medianDistance></quality><uncertainty><minHorizontalUncertainty>8.21696662902832</minHorizontalUncertainty><maxHorizontalUncertainty>32.02981185913086</maxHorizontalUncertainty><azimuthMaxHorizontalUncertainty>99.40418243408203</azimuthMaxHorizontalUncertainty><preferredDescription>horizontal uncertainty</preferredDescription></uncertainty><evaluationMode>automatic</evaluationMode><evaluationStatus>confirmed</evaluationStatus><comment><text>0.00</text><id>mismatchScore</id></comment><comment><text>mismatchScore</text><id>scevalMethod</id></comment><arrival><pickID>de.gempa.tb1.Pick/20250413055519.527275.129245</pickID><phase>P</phase><azimuth>250.1448516845703</azimuth><distance>1.1507889032363892</distance><timeResidual>-0.03965568542480469</timeResidual><timeUsed>true</timeUsed><horizontalSlownessUsed>false</horizontalSlownessUsed><backazimuthUsed>false</backazimuthUsed><weight>1</weight></arrival><arrival><pickID>de.gempa.tb1.Pick/20250413055519.571782.129247</pickID><phase>P</phase><azimuth>305.9834899902344</azimuth><distance>1.04010009765625</distance><timeResidual>-0.6667366027832031</timeResidual><timeUsed>true</timeUsed><horizontalSlownessUsed>false</horizontalSlownessUsed><backazimuthUsed>false</backazimuthUsed><weight>1</weight></arrival><arrival><pickID>de.gempa.tb1.Pick/20250413055520.512174.129249</pickID><phase>P</phase><azimuth>285.2672424316406</azimuth><distance>1.2657344341278076</distance><timeResidual>-0.10039520263671875</timeResidual><timeUsed>true</timeUsed><horizontalSlownessUsed>false</horizontalSlownessUsed><backazimuthUsed>false</backazimuthUsed><weight>1</weight></arrival><arrival><pickID>de.gempa.tb1.Pick/20250413055522.394588.129251</pickID><phase>P</phase><azimuth>257.307861328125</azimuth><distance>0.6244655251502991</distance><timeResidual>-0.3256950378417969</timeResidual><timeUsed>true</timeUsed><horizontalSlownessUsed>false</horizontalSlownessUsed><backazimuthUsed>false</backazimuthUsed><weight>1</weight></arrival><arrival><pickID>de.gempa.tb1.Pick/20250413055522.494938.129253</pickID><phase>P</phase><azimuth>221.08090209960938</azimuth><distance>1.3848837614059448</distance><timeResidual>0.10864639282226562</timeResidual><timeUsed>true</timeUsed><horizontalSlownessUsed>false</horizontalSlownessUsed><backazimuthUsed>false</backazimuthUsed><weight>1</weight></arrival><arrival><pickID>de.gempa.tb1.Pick/20250413055527.079747.129255</pickID><phase>P</phase><azimuth>340.5663757324219</azimuth><distance>1.6013588905334473</distance><timeResidual>0.2315864562988281</timeResidual><timeUsed>true</timeUsed><horizontalSlownessUsed>false</horizontalSlownessUsed><backazimuthUsed>false</backazimuthUsed><weight>1</weight></arrival><arrival><pickID>de.gempa.tb1.Pick/20250413055527.28285.129257</pickID><phase>P</phase><azimuth>299.4573974609375</azimuth><distance>1.6830142736434937</distance><timeResidual>0.19882583618164062</timeResidual><timeUsed>true</timeUsed><horizontalSlownessUsed>false</horizontalSlownessUsed><backazimuthUsed>false</backazimuthUsed><weight>1</weight></arrival><arrival><pickID>de.gempa.tb1.Pick/20250413055539.772038.129259</pickID><phase>S</phase><azimuth>250.1448516845703</azimuth><distance>1.1507889032363892</distance><timeResidual>-0.1800098419189453</timeResidual><timeUsed>true</timeUsed><horizontalSlownessUsed>false</horizontalSlownessUsed><backazimuthUsed>false</backazimuthUsed><weight>1</weight></arrival><arrival><pickID>de.gempa.tb1.Pick/20250413055545.663077.129261</pickID><phase>S</phase><azimuth>221.08090209960938</azimuth><distance>1.3848837614059448</distance><timeResidual>0.4112396240234375</timeResidual><timeUsed>true</timeUsed><horizontalSlownessUsed>false</horizontalSlownessUsed><backazimuthUsed>false</backazimuthUsed><weight>1</weight></arrival><arrival><pickID>de.gempa.tb1.Pick/20250413055550.534793.129263</pickID><phase>P</phase><azimuth>266.6100769042969</azimuth><distance>1.210641622543335</distance><timeResidual>0.07307815551757812</timeResidual><timeUsed>true</timeUsed><horizontalSlownessUsed>false</horizontalSlownessUsed><backazimuthUsed>false</backazimuthUsed><weight>1</weight></arrival><arrival><pickID>de.gempa.tb1.Pick/20250413055553.254596.129265</pickID><phase>S</phase><azimuth>340.5663757324219</azimuth><distance>1.6013588905334473</distance><timeResidual>0.2891349792480469</timeResidual><timeUsed>true</timeUsed><horizontalSlownessUsed>false</horizontalSlownessUsed><backazimuthUsed>false</backazimuthUsed><weight>1</weight></arrival><magnitude publicID="de.gempa.tb1.Magnitude/20250413055555.938153.320525"><magnitude><value>2.596632633444936</value></magnitude><type>M</type><methodID>weighted average</methodID><stationCount>5</stationCount></magnitude></origin><event publicID="gempa2025hgwb"><preferredOriginID>de.gempa.tb1.Origin/20250413055553.258151.102154</preferredOriginID><preferredMagnitudeID>de.gempa.tb1.Magnitude/20250413055555.938153.320525</preferredMagnitudeID><description><text>Chile-Bolivia Border Region</text><type>region name</type></description><originReference>de.gempa.tb1.Origin/20250413055553.258151.102154</originReference></event></EventParameters></seiscomp>