<?xml version="1.0" encoding="UTF-8"?>
<seiscomp xmlns="http://geofon.gfz-potsdam.de/ns/seiscomp3-schema/0.13" version="0.13"><EventParameters><pick publicID="de.gempa.tb1.Pick/20250414123206.695953.138018"><time><value>2025-04-14T12:32:00.318393Z</value></time><waveformID networkCode="CX" stationCode="PB02" channelCode="HHZ"/><filterID>ITAPER(4)&gt;&gt;BW(4,4,20)</filterID><methodID>AIC</methodID><horizontalSlowness><value>22.321232666755861</value></horizontalSlowness><backazimuth><value>154.32942712810137</value></backazimuth><phaseHint>P</phaseHint><evaluationMode>automatic</evaluationMode><comment><text>12.540871167338567</text><id>DFX:rectilinearity</id></comment><comment><text>6.474658956023262</text><id>SNR</id></comment></pick><pick publicID="de.gempa.tb1.Pick/20250414123211.638026.138023"><time><value>2025-04-14T12:32:03.128393Z</value></time><waveformID networkCode="CX" stationCode="PB07" channelCode="HHZ"/><filterID>ITAPER(4)&gt;&gt;BW(4,4,20)</filterID><methodID>AIC</methodID><horizontalSlowness><value>22.20240445941468</value></horizontalSlowness><backazimuth><value>86.12390708461005</value></backazimuth><phaseHint>P</phaseHint><evaluationMode>automatic</evaluationMode><comment><text>77.41392121714648</text><id>DFX:rectilinearity</id></comment><comment><text>10.070843561976002</text><id>SNR</id></comment></pick><pick publicID="de.gempa.tb1.Pick/20250414123215.547682.138027"><time><value>2025-04-14T12:32:06.98Z</value></time><waveformID networkCode="CX" stationCode="PSGCX" channelCode="HHZ"/><filterID>ITAPER(4)&gt;&gt;BW(4,4,20)</filterID><methodID>AIC</methodID><horizontalSlowness><value>9.202608205767845</value></horizontalSlowness><backazimuth><value>157.7894968387041</value></backazimuth><phaseHint>P</phaseHint><evaluationMode>automatic</evaluationMode><comment><text>15.353731483101885</text><id>DFX:rectilinearity</id></comment><comment><text>15.065430203557955</text><id>SNR</id></comment></pick><pick publicID="de.gempa.tb1.Pick/20250414123220.596184.138033"><time><value>2025-04-14T12:32:10.518393Z</value></time><waveformID networkCode="CX" stationCode="PB08" channelCode="HHZ"/><filterID>ITAPER(4)&gt;&gt;BW(4,4,20)</filterID><methodID>AIC</methodID><horizontalSlowness><value>22.55856103419667</value></horizontalSlowness><backazimuth><value>232.8916326500207</value></backazimuth><phaseHint>P</phaseHint><evaluationMode>automatic</evaluationMode><comment><text>13.593132366946612</text><id>DFX:rectilinearity</id></comment><comment><text>5.658908756881179</text><id>SNR</id></comment></pick><pick publicID="de.gempa.tb1.Pick/20250414123228.461309.138040"><time><value>2025-04-14T12:32:16.978393Z</value></time><waveformID networkCode="CX" stationCode="PB02" channelCode="HHN"/><filterID>ITAPER(2)&gt;&gt;BW(3,3,20)</filterID><methodID>L2-AIC-GRID</methodID><horizontalSlowness><value>20.60023599868997</value></horizontalSlowness><backazimuth><value>238.99071160952045</value></backazimuth><phaseHint>S</phaseHint><evaluationMode>automatic</evaluationMode><comment><text>160.9164657248559</text><id>DFX:rectilinearity</id></comment><comment><text>de.gempa.tb1.Pick/20250414123206.695953.138018</text><id>RefPickID</id></comment><comment><text>6.184549142016058</text><id>SNR</id></comment></pick><pick publicID="de.gempa.tb1.Pick/20250414123231.531954.138044"><time><value>2025-04-14T12:32:10.56Z</value></time><waveformID networkCode="CX" stationCode="PB09" channelCode="HHZ"/><filterID>ITAPER(4)&gt;&gt;BW(4,4,20)</filterID><methodID>AIC</methodID><horizontalSlowness><value>22.42737239144829</value></horizontalSlowness><backazimuth><value>177.97622071964568</value></backazimuth><phaseHint>P</phaseHint><evaluationMode>automatic</evaluationMode><comment><text>4.723384377266538</text><id>DFX:rectilinearity</id></comment><comment><text>6.068969500503935</text><id>SNR</id></comment></pick><pick publicID="de.gempa.tb1.Pick/20250414123231.642661.138046"><time><value>2025-04-14T12:32:23.628393Z</value></time><waveformID networkCode="CX" stationCode="PB15" channelCode="HHZ"/><filterID>ITAPER(4)&gt;&gt;BW(4,4,20)</filterID><methodID>AIC</methodID><horizontalSlowness><value>23.42853510505528</value></horizontalSlowness><backazimuth><value>316.2334411106023</value></backazimuth><phaseHint>P</phaseHint><evaluationMode>automatic</evaluationMode><comment><text>377.93950880267596</text><id>DFX:rectilinearity</id></comment><comment><text>10.523065181304853</text><id>SNR</id></comment></pick><origin publicID="de.gempa.tb1.Origin/20250414123232.240052.137793"><time><value>2025-04-14T12:31:41.565208Z</value><uncertainty>1.1286674737930298</uncertainty></time><latitude><value>-20.869827270507812</value><uncertainty>5.527946949005127</uncertainty></latitude><longitude><value>-70.88267517089844</value><uncertainty>19.106992721557617</uncertainty></longitude><depth><value>84.78722381591797</value><uncertainty>23.701929092407227</uncertainty></depth><depthType>from location</depthType><methodID>LOCSAT</methodID><earthModelID>iasp91_scanloc</earthModelID><quality><associatedPhaseCount>7</associatedPhaseCount><usedPhaseCount>7</usedPhaseCount><associatedStationCount>6</associatedStationCount><usedStationCount>6</usedStationCount><depthPhaseCount>0</depthPhaseCount><standardError>0.7154630421074685</standardError><azimuthalGap>238.6387634277344</azimuthalGap><maximumDistance>2.6704463958740234</maximumDistance><minimumDistance>1.0243229866027832</minimumDistance><medianDistance>1.4532572031021118</medianDistance></quality><uncertainty><minHorizontalUncertainty>11.612695693969727</minHorizontalUncertainty><maxHorizontalUncertainty>41.05141067504883</maxHorizontalUncertainty><azimuthMaxHorizontalUncertainty>86.51625061035156</azimuthMaxHorizontalUncertainty><preferredDescription>horizontal uncertainty</preferredDescription></uncertainty><evaluationMode>automatic</evaluationMode><evaluationStatus>confirmed</evaluationStatus><comment><text>0.48</text><id>mismatchScore</id></comment><comment><text>mismatchScore</text><id>scevalMethod</id></comment><arrival><pickID>de.gempa.tb1.Pick/20250414123206.695953.138018</pickID><phase>P</phase><azimuth>116.0906753540039</azimuth><distance>1.0243229866027832</distance><timeResidual>-0.8925399780273438</timeResidual><timeUsed>true</timeUsed><horizontalSlownessUsed>false</horizontalSlownessUsed><backazimuthUsed>false</backazimuthUsed><weight>1</weight></arrival><arrival><pickID>de.gempa.tb1.Pick/20250414123211.638026.138023</pickID><phase>P</phase><azimuth>132.71575927734375</azimuth><distance>1.261123776435852</distance><timeResidual>-0.9455108642578125</timeResidual><timeUsed>true</timeUsed><horizontalSlownessUsed>false</horizontalSlownessUsed><backazimuthUsed>false</backazimuthUsed><weight>1</weight></arrival><arrival><pickID>de.gempa.tb1.Pick/20250414123215.547682.138027</pickID><phase>P</phase><azimuth>29.527252197265625</azimuth><distance>1.4532572031021118</distance><timeResidual>0.481231689453125</timeResidual><timeUsed>true</timeUsed><horizontalSlownessUsed>false</horizontalSlownessUsed><backazimuthUsed>false</backazimuthUsed><weight>1</weight></arrival><arrival><pickID>de.gempa.tb1.Pick/20250414123220.596184.138033</pickID><phase>P</phase><azimuth>66.20611572265625</azimuth><distance>1.775762915611267</distance><timeResidual>-0.14350128173828125</timeResidual><timeUsed>true</timeUsed><horizontalSlownessUsed>false</horizontalSlownessUsed><backazimuthUsed>false</backazimuthUsed><weight>1</weight></arrival><arrival><pickID>de.gempa.tb1.Pick/20250414123228.461309.138040</pickID><phase>S</phase><azimuth>116.0906753540039</azimuth><distance>1.0243229866027832</distance><timeResidual>0.6469802856445312</timeResidual><timeUsed>true</timeUsed><horizontalSlownessUsed>false</horizontalSlownessUsed><backazimuthUsed>false</backazimuthUsed><weight>1</weight></arrival><arrival><pickID>de.gempa.tb1.Pick/20250414123231.531954.138044</pickID><phase>P</phase><azimuth>121.3731231689453</azimuth><distance>1.7860232591629028</distance><timeResidual>-0.2284393310546875</timeResidual><timeUsed>true</timeUsed><horizontalSlownessUsed>false</horizontalSlownessUsed><backazimuthUsed>false</backazimuthUsed><weight>1</weight></arrival><arrival><pickID>de.gempa.tb1.Pick/20250414123231.642661.138046</pickID><phase>P</phase><azimuth>150.88848876953125</azimuth><distance>2.6704463958740234</distance><timeResidual>1.081502914428711</timeResidual><timeUsed>true</timeUsed><horizontalSlownessUsed>false</horizontalSlownessUsed><backazimuthUsed>false</backazimuthUsed><weight>1</weight></arrival><magnitude publicID="de.gempa.tb1.Magnitude/20250414123434.220823.488280"><magnitude><value>2.572201740289753</value></magnitude><type>M</type><methodID>weighted average</methodID><stationCount>5</stationCount></magnitude></origin><event publicID="gempa2025hjfk"><preferredOriginID>de.gempa.tb1.Origin/20250414123232.240052.137793</preferredOriginID><preferredMagnitudeID>de.gempa.tb1.Magnitude/20250414123434.220823.488280</preferredMagnitudeID><typeCertainty>suspected</typeCertainty><description><text>Near Coast of Northern Chile</text><type>region name</type></description><originReference>de.gempa.tb1.Origin/20250414123232.240052.137793</originReference></event></EventParameters></seiscomp>