<?xml version="1.0" encoding="UTF-8"?>
<seiscomp xmlns="http://geofon.gfz-potsdam.de/ns/seiscomp3-schema/0.13" version="0.13"><EventParameters><pick publicID="de.gempa.tb1.Pick/20250414160445.531895.139100"><time><value>2025-04-14T16:04:40.08Z</value></time><waveformID networkCode="CX" stationCode="PB19" channelCode="HHZ"/><filterID>ITAPER(4)&gt;&gt;BW(4,4,20)</filterID><methodID>AIC</methodID><horizontalSlowness><value>23.500627391561846</value></horizontalSlowness><backazimuth><value>128.95168662217148</value></backazimuth><phaseHint>P</phaseHint><evaluationMode>automatic</evaluationMode><comment><text>152.4505397679192</text><id>DFX:rectilinearity</id></comment><comment><text>100.10834248069628</text><id>SNR</id></comment></pick><pick publicID="de.gempa.tb1.Pick/20250414160448.648721.139102"><time><value>2025-04-14T16:04:43.898393Z</value></time><waveformID networkCode="CX" stationCode="PB15" channelCode="HHZ"/><filterID>ITAPER(4)&gt;&gt;BW(4,4,20)</filterID><methodID>AIC</methodID><horizontalSlowness><value>23.53638130174773</value></horizontalSlowness><backazimuth><value>128.68154582156734</value></backazimuth><phaseHint>P</phaseHint><evaluationMode>automatic</evaluationMode><comment><text>888.7568479032115</text><id>DFX:rectilinearity</id></comment><comment><text>37.906403057377325</text><id>SNR</id></comment></pick><pick publicID="de.gempa.tb1.Pick/20250414160453.584325.139104"><time><value>2025-04-14T16:04:47.378393Z</value></time><waveformID networkCode="CX" stationCode="PB06" channelCode="HHZ"/><filterID>ITAPER(4)&gt;&gt;BW(4,4,20)</filterID><methodID>AIC</methodID><horizontalSlowness><value>1.5407191010064956</value></horizontalSlowness><backazimuth><value>263.6304533994056</value></backazimuth><phaseHint>P</phaseHint><evaluationMode>automatic</evaluationMode><comment><text>93.43381916450218</text><id>DFX:rectilinearity</id></comment><comment><text>32.908770475985627</text><id>SNR</id></comment></pick><pick publicID="de.gempa.tb1.Pick/20250414160459.175943.139106"><time><value>2025-04-14T16:04:53.32Z</value></time><waveformID networkCode="CX" stationCode="PB10" channelCode="HHZ"/><filterID>ITAPER(4)&gt;&gt;BW(4,4,20)</filterID><methodID>AIC</methodID><horizontalSlowness><value>7.80274139688288</value></horizontalSlowness><backazimuth><value>144.0115518693686</value></backazimuth><phaseHint>P</phaseHint><evaluationMode>automatic</evaluationMode><comment><text>69.49661611472088</text><id>DFX:rectilinearity</id></comment><comment><text>37.241180511136584</text><id>SNR</id></comment></pick><pick publicID="de.gempa.tb1.Pick/20250414160500.573238.139108"><time><value>2025-04-14T16:04:53.618394Z</value></time><waveformID networkCode="CX" stationCode="PB03" channelCode="HHZ"/><filterID>ITAPER(4)&gt;&gt;BW(4,4,20)</filterID><methodID>AIC</methodID><horizontalSlowness><value>12.697086857381391</value></horizontalSlowness><backazimuth><value>123.80318687654832</value></backazimuth><phaseHint>P</phaseHint><evaluationMode>automatic</evaluationMode><comment><text>24.945299660826834</text><id>DFX:rectilinearity</id></comment><comment><text>38.2329792740276</text><id>SNR</id></comment></pick><pick publicID="de.gempa.tb1.Pick/20250414160506.536375.139112"><time><value>2025-04-14T16:05:00.628394Z</value></time><waveformID networkCode="CX" stationCode="PB01" channelCode="HHZ"/><filterID>ITAPER(4)&gt;&gt;BW(4,4,20)</filterID><methodID>AIC</methodID><horizontalSlowness><value>17.195281876851723</value></horizontalSlowness><backazimuth><value>334.4765862521058</value></backazimuth><phaseHint>P</phaseHint><evaluationMode>automatic</evaluationMode><comment><text>23.26687305333621</text><id>DFX:rectilinearity</id></comment><comment><text>15.67257784644472</text><id>SNR</id></comment></pick><pick publicID="de.gempa.tb1.Pick/20250414160508.565084.139116"><time><value>2025-04-14T16:05:01.368394Z</value></time><waveformID networkCode="CX" stationCode="PB02" channelCode="HHZ"/><filterID>ITAPER(4)&gt;&gt;BW(4,4,20)</filterID><methodID>AIC</methodID><horizontalSlowness><value>4.600459117179937</value></horizontalSlowness><backazimuth><value>138.62199774087418</value></backazimuth><phaseHint>P</phaseHint><evaluationMode>automatic</evaluationMode><comment><text>17.113225754264075</text><id>DFX:rectilinearity</id></comment><comment><text>24.58283031524842</text><id>SNR</id></comment></pick><pick publicID="de.gempa.tb1.Pick/20250414160513.474708.139119"><time><value>2025-04-14T16:04:52.660001Z</value></time><waveformID networkCode="CX" stationCode="PB09" channelCode="HHZ"/><filterID>ITAPER(4)&gt;&gt;BW(4,4,20)</filterID><methodID>AIC</methodID><horizontalSlowness><value>17.08932443602711</value></horizontalSlowness><backazimuth><value>123.5537392646867</value></backazimuth><phaseHint>P</phaseHint><evaluationMode>automatic</evaluationMode><comment><text>23.191279175584594</text><id>DFX:rectilinearity</id></comment><comment><text>34.31014140392592</text><id>SNR</id></comment></pick><pick publicID="de.gempa.tb1.Pick/20250414160515.733067.139123"><time><value>2025-04-14T16:05:08.95Z</value></time><waveformID networkCode="CX" stationCode="PB19" channelCode="HHN"/><filterID>ITAPER(2)&gt;&gt;BW(3,3,20)</filterID><methodID>L2-AIC-GRID</methodID><horizontalSlowness><value>19.990346189600597</value></horizontalSlowness><backazimuth><value>200.11495986792139</value></backazimuth><phaseHint>S</phaseHint><evaluationMode>automatic</evaluationMode><comment><text>1174.8755170087575</text><id>DFX:rectilinearity</id></comment><comment><text>de.gempa.tb1.Pick/20250414160445.531895.139100</text><id>RefPickID</id></comment><comment><text>5.960656413844172</text><id>SNR</id></comment></pick><pick publicID="de.gempa.tb1.Pick/20250414160516.264212.139124"><time><value>2025-04-14T16:04:57.108441Z</value></time><waveformID networkCode="CX" stationCode="PB07" channelCode="HHZ"/><filterID>ITAPER(4)&gt;&gt;BW(4,4,20)</filterID><methodID>AIC</methodID><horizontalSlowness><value>18.297664144178878</value></horizontalSlowness><backazimuth><value>195.23426400154065</value></backazimuth><phaseHint>P</phaseHint><evaluationMode>automatic</evaluationMode><comment><text>300.9620373133131</text><id>DFX:rectilinearity</id></comment><comment><text>43.81949585200489</text><id>SNR</id></comment></pick><pick publicID="de.gempa.tb1.Pick/20250414160523.90601.139127"><time><value>2025-04-14T16:05:15.118393Z</value></time><waveformID networkCode="CX" stationCode="PB15" channelCode="HHN"/><filterID>ITAPER(2)&gt;&gt;BW(3,3,20)</filterID><methodID>L2-AIC-GRID</methodID><horizontalSlowness><value>21.898898877322988</value></horizontalSlowness><backazimuth><value>77.36673544864689</value></backazimuth><phaseHint>S</phaseHint><evaluationMode>automatic</evaluationMode><comment><text>14991.903268957263</text><id>DFX:rectilinearity</id></comment><comment><text>de.gempa.tb1.Pick/20250414160448.648721.139102</text><id>RefPickID</id></comment><comment><text>8.594636062222541</text><id>SNR</id></comment></pick><pick publicID="de.gempa.tb1.Pick/20250414160527.649713.139128"><time><value>2025-04-14T16:05:20.648393Z</value></time><waveformID networkCode="CX" stationCode="PB06" channelCode="HHN"/><filterID>ITAPER(2)&gt;&gt;BW(3,3,20)</filterID><methodID>L2-AIC-GRID</methodID><horizontalSlowness><value>21.977945049349128</value></horizontalSlowness><backazimuth><value>256.1644632176958</value></backazimuth><phaseHint>S</phaseHint><evaluationMode>automatic</evaluationMode><comment><text>265.61086390110967</text><id>DFX:rectilinearity</id></comment><comment><text>de.gempa.tb1.Pick/20250414160453.584325.139104</text><id>RefPickID</id></comment><comment><text>11.782914593816178</text><id>SNR</id></comment></pick><pick publicID="de.gempa.tb1.Pick/20250414160538.705776.139133"><time><value>2025-04-14T16:05:30.908394Z</value></time><waveformID networkCode="CX" stationCode="PB03" channelCode="HHN"/><filterID>ITAPER(2)&gt;&gt;BW(3,3,20)</filterID><methodID>L2-AIC-GRID</methodID><horizontalSlowness><value>21.80020954454054</value></horizontalSlowness><backazimuth><value>14.665300910591696</value></backazimuth><phaseHint>S</phaseHint><evaluationMode>automatic</evaluationMode><comment><text>143.07671922350565</text><id>DFX:rectilinearity</id></comment><comment><text>de.gempa.tb1.Pick/20250414160500.573238.139108</text><id>RefPickID</id></comment><comment><text>10.34862614603203</text><id>SNR</id></comment></pick><pick publicID="de.gempa.tb1.Pick/20250414160547.072178.139134"><time><value>2025-04-14T16:05:30.440001Z</value></time><waveformID networkCode="CX" stationCode="PB09" channelCode="HHN"/><filterID>ITAPER(2)&gt;&gt;BW(3,3,20)</filterID><methodID>L2-AIC-GRID</methodID><horizontalSlowness><value>12.79731274782925</value></horizontalSlowness><backazimuth><value>323.87127723027646</value></backazimuth><phaseHint>S</phaseHint><evaluationMode>automatic</evaluationMode><comment><text>134.52839634412564</text><id>DFX:rectilinearity</id></comment><comment><text>de.gempa.tb1.Pick/20250414160513.474708.139119</text><id>RefPickID</id></comment><comment><text>5.246099614540999</text><id>SNR</id></comment></pick><pick publicID="de.gempa.tb1.Pick/20250414160552.595045.139135"><time><value>2025-04-14T16:05:44.458394Z</value></time><waveformID networkCode="CX" stationCode="PB01" channelCode="HHN"/><filterID>ITAPER(2)&gt;&gt;BW(3,3,20)</filterID><methodID>L2-AIC-GRID</methodID><horizontalSlowness><value>21.145555689857687</value></horizontalSlowness><backazimuth><value>40.8916499412326</value></backazimuth><phaseHint>S</phaseHint><evaluationMode>automatic</evaluationMode><comment><text>70.01295142429484</text><id>DFX:rectilinearity</id></comment><comment><text>de.gempa.tb1.Pick/20250414160506.536375.139112</text><id>RefPickID</id></comment><comment><text>9.079062516132671</text><id>SNR</id></comment></pick><pick publicID="de.gempa.tb1.Pick/20250414160555.054664.139136"><time><value>2025-04-14T16:05:43.918394Z</value></time><waveformID networkCode="CX" stationCode="PB02" channelCode="HHN"/><filterID>ITAPER(2)&gt;&gt;BW(3,3,20)</filterID><methodID>L2-AIC-GRID</methodID><horizontalSlowness><value>17.252700749869906</value></horizontalSlowness><backazimuth><value>253.5017136709936</value></backazimuth><phaseHint>S</phaseHint><evaluationMode>automatic</evaluationMode><comment><text>141.83814009142517</text><id>DFX:rectilinearity</id></comment><comment><text>de.gempa.tb1.Pick/20250414160508.565084.139116</text><id>RefPickID</id></comment><comment><text>7.961059604096922</text><id>SNR</id></comment></pick><origin publicID="de.gempa.tb1.Origin/20250414160555.06299.142647"><time><value>2025-04-14T16:04:05.637823Z</value><uncertainty>0.9157591462135315</uncertainty></time><latitude><value>-24.011592864990234</value><uncertainty>5.179008007049561</uncertainty></latitude><longitude><value>-67.6884994506836</value><uncertainty>19.182069778442383</uncertainty></longitude><depth><value>221.0919647216797</value><uncertainty>14.551661491394043</uncertainty></depth><depthType>from location</depthType><methodID>LOCSAT</methodID><earthModelID>iasp91_scanloc</earthModelID><quality><associatedPhaseCount>16</associatedPhaseCount><usedPhaseCount>16</usedPhaseCount><associatedStationCount>9</associatedStationCount><usedStationCount>9</usedStationCount><depthPhaseCount>0</depthPhaseCount><standardError>0.5112463439188527</standardError><azimuthalGap>303.55255126953125</azimuthalGap><maximumDistance>3.3901734352111816</maximumDistance><minimumDistance>1.4695693254470825</minimumDistance><medianDistance>2.671856641769409</medianDistance></quality><uncertainty><minHorizontalUncertainty>10.717784881591797</minHorizontalUncertainty><maxHorizontalUncertainty>41.22760009765625</maxHorizontalUncertainty><azimuthMaxHorizontalUncertainty>85.8206787109375</azimuthMaxHorizontalUncertainty><preferredDescription>horizontal uncertainty</preferredDescription></uncertainty><evaluationMode>automatic</evaluationMode><evaluationStatus>confirmed</evaluationStatus><comment><text>0.00</text><id>mismatchScore</id></comment><comment><text>mismatchScore</text><id>scevalMethod</id></comment><arrival><pickID>de.gempa.tb1.Pick/20250414160445.531895.139100</pickID><phase>P</phase><azimuth>273.8255310058594</azimuth><distance>1.4695693254470825</distance><timeResidual>-0.9506340026855469</timeResidual><timeUsed>true</timeUsed><horizontalSlownessUsed>false</horizontalSlownessUsed><backazimuthUsed>false</backazimuthUsed><weight>1</weight></arrival><arrival><pickID>de.gempa.tb1.Pick/20250414160448.648721.139102</pickID><phase>P</phase><azimuth>295.70428466796875</azimuth><distance>1.819989562034607</distance><timeResidual>-0.20633697509765625</timeResidual><timeUsed>true</timeUsed><horizontalSlownessUsed>false</horizontalSlownessUsed><backazimuthUsed>false</backazimuthUsed><weight>1</weight></arrival><arrival><pickID>de.gempa.tb1.Pick/20250414160453.584325.139104</pickID><phase>P</phase><azimuth>306.5305480957031</azimuth><distance>2.164478302001953</distance><timeResidual>-0.08122634887695312</timeResidual><timeUsed>true</timeUsed><horizontalSlownessUsed>false</horizontalSlownessUsed><backazimuthUsed>false</backazimuthUsed><weight>1</weight></arrival><arrival><pickID>de.gempa.tb1.Pick/20250414160459.175943.139106</pickID><phase>P</phase><azimuth>280.1195983886719</azimuth><distance>2.671856641769409</distance><timeResidual>0.5201644897460938</timeResidual><timeUsed>true</timeUsed><horizontalSlownessUsed>false</horizontalSlownessUsed><backazimuthUsed>false</backazimuthUsed><weight>1</weight></arrival><arrival><pickID>de.gempa.tb1.Pick/20250414160500.573238.139108</pickID><phase>P</phase><azimuth>315.3662109375</azimuth><distance>2.726717233657837</distance><timeResidual>0.199127197265625</timeResidual><timeUsed>true</timeUsed><horizontalSlownessUsed>false</horizontalSlownessUsed><backazimuthUsed>false</backazimuthUsed><weight>1</weight></arrival><arrival><pickID>de.gempa.tb1.Pick/20250414160506.536375.139112</pickID><phase>P</phase><azimuth>330.2729797363281</azimuth><distance>3.3901734352111816</distance><timeResidual>-0.3822021484375</timeResidual><timeUsed>true</timeUsed><horizontalSlownessUsed>false</horizontalSlownessUsed><backazimuthUsed>false</backazimuthUsed><weight>1</weight></arrival><arrival><pickID>de.gempa.tb1.Pick/20250414160508.565084.139116</pickID><phase>P</phase><azimuth>322.296875</azimuth><distance>3.3666601181030273</distance><timeResidual>0.6364402770996094</timeResidual><timeUsed>true</timeUsed><horizontalSlownessUsed>false</horizontalSlownessUsed><backazimuthUsed>false</backazimuthUsed><weight>1</weight></arrival><arrival><pickID>de.gempa.tb1.Pick/20250414160513.474708.139119</pickID><phase>P</phase><azimuth>326.68603515625</azimuth><distance>2.629197359085083</distance><timeResidual>0.3078575134277344</timeResidual><timeUsed>true</timeUsed><horizontalSlownessUsed>false</horizontalSlownessUsed><backazimuthUsed>false</backazimuthUsed><weight>1</weight></arrival><arrival><pickID>de.gempa.tb1.Pick/20250414160515.733067.139123</pickID><phase>S</phase><azimuth>273.8255310058594</azimuth><distance>1.4695693254470825</distance><timeResidual>-0.09381484985351562</timeResidual><timeUsed>true</timeUsed><horizontalSlownessUsed>false</horizontalSlownessUsed><backazimuthUsed>false</backazimuthUsed><weight>1</weight></arrival><arrival><pickID>de.gempa.tb1.Pick/20250414160516.264212.139124</pickID><phase>P</phase><azimuth>317.8597717285156</azimuth><distance>3.046269655227661</distance><timeResidual>0.10410308837890625</timeResidual><timeUsed>true</timeUsed><horizontalSlownessUsed>false</horizontalSlownessUsed><backazimuthUsed>false</backazimuthUsed><weight>1</weight></arrival><arrival><pickID>de.gempa.tb1.Pick/20250414160523.90601.139127</pickID><phase>S</phase><azimuth>295.70428466796875</azimuth><distance>1.819989562034607</distance><timeResidual>0.5447006225585938</timeResidual><timeUsed>true</timeUsed><horizontalSlownessUsed>false</horizontalSlownessUsed><backazimuthUsed>false</backazimuthUsed><weight>1</weight></arrival><arrival><pickID>de.gempa.tb1.Pick/20250414160527.649713.139128</pickID><phase>S</phase><azimuth>306.5305480957031</azimuth><distance>2.164478302001953</distance><timeResidual>0.035640716552734375</timeResidual><timeUsed>true</timeUsed><horizontalSlownessUsed>false</horizontalSlownessUsed><backazimuthUsed>false</backazimuthUsed><weight>1</weight></arrival><arrival><pickID>de.gempa.tb1.Pick/20250414160538.705776.139133</pickID><phase>S</phase><azimuth>315.3662109375</azimuth><distance>2.726717233657837</distance><timeResidual>-0.441162109375</timeResidual><timeUsed>true</timeUsed><horizontalSlownessUsed>false</horizontalSlownessUsed><backazimuthUsed>false</backazimuthUsed><weight>1</weight></arrival><arrival><pickID>de.gempa.tb1.Pick/20250414160547.072178.139134</pickID><phase>S</phase><azimuth>326.68603515625</azimuth><distance>2.629197359085083</distance><timeResidual>1.015472412109375</timeResidual><timeUsed>true</timeUsed><horizontalSlownessUsed>false</horizontalSlownessUsed><backazimuthUsed>false</backazimuthUsed><weight>1</weight></arrival><arrival><pickID>de.gempa.tb1.Pick/20250414160552.595045.139135</pickID><phase>S</phase><azimuth>330.2729797363281</azimuth><distance>3.3901734352111816</distance><timeResidual>-0.5844879150390625</timeResidual><timeUsed>true</timeUsed><horizontalSlownessUsed>false</horizontalSlownessUsed><backazimuthUsed>false</backazimuthUsed><weight>1</weight></arrival><arrival><pickID>de.gempa.tb1.Pick/20250414160555.054664.139136</pickID><phase>S</phase><azimuth>322.296875</azimuth><distance>3.3666601181030273</distance><timeResidual>-0.6228256225585938</timeResidual><timeUsed>true</timeUsed><horizontalSlownessUsed>false</horizontalSlownessUsed><backazimuthUsed>false</backazimuthUsed><weight>1</weight></arrival><magnitude publicID="de.gempa.tb1.Magnitude/20250414160645.567438.511620"><magnitude><value>3.043528847493153</value></magnitude><type>M</type><methodID>weighted average</methodID><stationCount>7</stationCount></magnitude></origin><event publicID="gempa2025hjmk"><preferredOriginID>de.gempa.tb1.Origin/20250414160555.06299.142647</preferredOriginID><preferredMagnitudeID>de.gempa.tb1.Magnitude/20250414160645.567438.511620</preferredMagnitudeID><description><text>Chile-Argentina Border Region</text><type>region name</type></description><originReference>de.gempa.tb1.Origin/20250414160555.06299.142647</originReference></event></EventParameters></seiscomp>