<?xml version="1.0" encoding="UTF-8"?>
<seiscomp xmlns="http://geofon.gfz-potsdam.de/ns/seiscomp3-schema/0.13" version="0.13"><EventParameters><pick publicID="de.gempa.tb1.Pick/20250411223216.100645.133527"><time><value>2025-04-11T22:32:13.765Z</value></time><waveformID networkCode="CH" stationCode="BERGE" channelCode="HHZ"/><filterID>ITAPER(4)&gt;&gt;BW(4,4,20)</filterID><methodID>AIC</methodID><phaseHint>P</phaseHint><evaluationMode>automatic</evaluationMode></pick><pick publicID="de.gempa.tb1.Pick/20250411223218.828549.133531"><time><value>2025-04-11T22:32:16.665Z</value></time><waveformID networkCode="CH" stationCode="METMA" channelCode="HHZ"/><filterID>ITAPER(4)&gt;&gt;BW(4,4,20)</filterID><methodID>AIC</methodID><phaseHint>P</phaseHint><evaluationMode>automatic</evaluationMode></pick><pick publicID="de.gempa.tb1.Pick/20250411223220.163906.133534"><time><value>2025-04-11T22:32:17.365Z</value></time><waveformID networkCode="CH" stationCode="SLE" channelCode="HHZ"/><filterID>ITAPER(4)&gt;&gt;BW(4,4,20)</filterID><methodID>AIC</methodID><phaseHint>P</phaseHint><evaluationMode>automatic</evaluationMode></pick><pick publicID="de.gempa.tb1.Pick/20250411223222.065012.133537"><time><value>2025-04-11T22:32:18.87Z</value></time><waveformID networkCode="CH" stationCode="ACB" channelCode="HHZ"/><filterID>ITAPER(4)&gt;&gt;BW(4,4,20)</filterID><methodID>AIC</methodID><phaseHint>P</phaseHint><evaluationMode>automatic</evaluationMode></pick><pick publicID="de.gempa.tb1.Pick/20250411223222.211277.133539"><time><value>2025-04-11T22:32:19.73Z</value></time><waveformID networkCode="CH" stationCode="SULZ" channelCode="HHZ"/><filterID>ITAPER(4)&gt;&gt;BW(4,4,20)</filterID><methodID>AIC</methodID><phaseHint>P</phaseHint><evaluationMode>automatic</evaluationMode></pick><pick publicID="de.gempa.tb1.Pick/20250411223223.111713.133541"><time><value>2025-04-11T22:32:20.795Z</value></time><waveformID networkCode="CH" stationCode="TRULL" channelCode="HHZ"/><filterID>ITAPER(4)&gt;&gt;BW(4,4,20)</filterID><methodID>AIC</methodID><phaseHint>P</phaseHint><evaluationMode>automatic</evaluationMode></pick><pick publicID="de.gempa.tb1.Pick/20250411223224.04434.133543"><time><value>2025-04-11T22:32:19.99Z</value></time><waveformID networkCode="CH" stationCode="EMING" channelCode="HHZ"/><filterID>ITAPER(4)&gt;&gt;BW(4,4,20)</filterID><methodID>AIC</methodID><phaseHint>P</phaseHint><evaluationMode>automatic</evaluationMode></pick><pick publicID="de.gempa.tb1.Pick/20250411223224.722414.133545"><time><value>2025-04-11T22:32:20.825Z</value></time><waveformID networkCode="CH" stationCode="ROTHE" channelCode="HHZ"/><filterID>ITAPER(4)&gt;&gt;BW(4,4,20)</filterID><methodID>AIC</methodID><phaseHint>P</phaseHint><evaluationMode>automatic</evaluationMode></pick><origin publicID="de.gempa.tb1.Origin/20250411223224.724025.64092"><time><value>2025-04-11T22:32:09.053138Z</value><uncertainty>3.5317208766937256</uncertainty></time><latitude><value>48.06474685668945</value><uncertainty>24.72933769226074</uncertainty></latitude><longitude><value>8.063457489013672</value><uncertainty>15.605113983154297</uncertainty></longitude><depth><value>4.4051709175109863</value><uncertainty>25.474287033081055</uncertainty></depth><depthType>from location</depthType><methodID>LOCSAT</methodID><earthModelID>iasp91</earthModelID><quality><associatedPhaseCount>8</associatedPhaseCount><usedPhaseCount>8</usedPhaseCount><associatedStationCount>8</associatedStationCount><usedStationCount>8</usedStationCount><depthPhaseCount>0</depthPhaseCount><standardError>0.08222112135463798</standardError><azimuthalGap>278.25518798828125</azimuthalGap><maximumDistance>0.5967909097671509</maximumDistance><minimumDistance>0.20802795886993408</minimumDistance><medianDistance>0.5385817289352417</medianDistance></quality><uncertainty><minHorizontalUncertainty>11.480395317077637</minHorizontalUncertainty><maxHorizontalUncertainty>61.64429092407227</maxHorizontalUncertainty><azimuthMaxHorizontalUncertainty>148.73655700683594</azimuthMaxHorizontalUncertainty><preferredDescription>horizontal uncertainty</preferredDescription></uncertainty><evaluationMode>automatic</evaluationMode><evaluationStatus>confirmed</evaluationStatus><comment><text>0.27</text><id>mismatchScore</id></comment><comment><text>mismatchScore</text><id>scevalMethod</id></comment><arrival><pickID>de.gempa.tb1.Pick/20250411223216.100645.133527</pickID><phase>P</phase><azimuth>158.24447631835938</azimuth><distance>0.20802795886993408</distance><timeResidual>0.1090860366821289</timeResidual><timeUsed>true</timeUsed><horizontalSlownessUsed>false</horizontalSlownessUsed><backazimuthUsed>false</backazimuthUsed><weight>1</weight></arrival><arrival><pickID>de.gempa.tb1.Pick/20250411223218.828549.133531</pickID><phase>P</phase><azimuth>160.08726501464844</azimuth><distance>0.3750765919685364</distance><timeResidual>-0.06377696990966797</timeResidual><timeUsed>true</timeUsed><horizontalSlownessUsed>false</horizontalSlownessUsed><backazimuthUsed>false</backazimuthUsed><weight>1</weight></arrival><arrival><pickID>de.gempa.tb1.Pick/20250411223220.163906.133534</pickID><phase>P</phase><azimuth>136.00025939941406</azimuth><distance>0.41655153036117554</distance><timeResidual>-0.1265091896057129</timeResidual><timeUsed>true</timeUsed><horizontalSlownessUsed>false</horizontalSlownessUsed><backazimuthUsed>false</backazimuthUsed><weight>1</weight></arrival><arrival><pickID>de.gempa.tb1.Pick/20250411223222.065012.133537</pickID><phase>P</phase><azimuth>164.8531494140625</azimuth><distance>0.4945216476917267</distance><timeResidual>-0.05599498748779297</timeResidual><timeUsed>true</timeUsed><horizontalSlownessUsed>false</horizontalSlownessUsed><backazimuthUsed>false</backazimuthUsed><weight>1</weight></arrival><arrival><pickID>de.gempa.tb1.Pick/20250411223222.211277.133539</pickID><phase>P</phase><azimuth>176.53199768066406</azimuth><distance>0.5385817289352417</distance><timeResidual>-0.006519794464111328</timeResidual><timeUsed>true</timeUsed><horizontalSlownessUsed>false</horizontalSlownessUsed><backazimuthUsed>false</backazimuthUsed><weight>1</weight></arrival><arrival><pickID>de.gempa.tb1.Pick/20250411223223.111713.133541</pickID><phase>P</phase><azimuth>134.77207946777344</azimuth><distance>0.5887455344200134</distance><timeResidual>0.13608503341674805</timeResidual><timeUsed>true</timeUsed><horizontalSlownessUsed>false</horizontalSlownessUsed><backazimuthUsed>false</backazimuthUsed><weight>1</weight></arrival><arrival><pickID>de.gempa.tb1.Pick/20250411223224.04434.133543</pickID><phase>P</phase><azimuth>107.57882690429688</azimuth><distance>0.5529481768608093</distance><timeResidual>-0.009961605072021484</timeResidual><timeUsed>true</timeUsed><horizontalSlownessUsed>false</horizontalSlownessUsed><backazimuthUsed>false</backazimuthUsed><weight>1</weight></arrival><arrival><pickID>de.gempa.tb1.Pick/20250411223224.722414.133545</pickID><phase>P</phase><azimuth>189.32363891601562</azimuth><distance>0.5967909097671509</distance><timeResidual>0.017729759216308594</timeResidual><timeUsed>true</timeUsed><horizontalSlownessUsed>false</horizontalSlownessUsed><backazimuthUsed>false</backazimuthUsed><weight>1</weight></arrival><magnitude publicID="de.gempa.tb1.Magnitude/20250411223252.020455.148510"><magnitude><value>1.8727817138016483</value></magnitude><type>M</type><methodID>weighted average</methodID><stationCount>6</stationCount></magnitude></origin><event publicID="gempa2025helh"><preferredOriginID>de.gempa.tb1.Origin/20250411223224.724025.64092</preferredOriginID><preferredMagnitudeID>de.gempa.tb1.Magnitude/20250411223252.020455.148510</preferredMagnitudeID><description><text>Germany</text><type>region name</type></description><originReference>de.gempa.tb1.Origin/20250411223224.724025.64092</originReference></event></EventParameters></seiscomp>