<?xml version="1.0" encoding="UTF-8"?>
<seiscomp xmlns="http://geofon.gfz-potsdam.de/ns/seiscomp3-schema/0.13" version="0.13"><EventParameters><pick publicID="de.gempa.tb1.Pick/20250413180832.552828.133001"><time><value>2025-04-13T18:08:25.858391Z</value></time><waveformID networkCode="CX" stationCode="PB06" channelCode="HHZ"/><filterID>ITAPER(4)&gt;&gt;BW(4,4,20)</filterID><methodID>AIC</methodID><horizontalSlowness><value>19.26481402377219</value></horizontalSlowness><backazimuth><value>281.32112420914007</value></backazimuth><phaseHint>P</phaseHint><evaluationMode>automatic</evaluationMode><comment><text>127.39153783426671</text><id>DFX:rectilinearity</id></comment><comment><text>22.90416302146569</text><id>SNR</id></comment></pick><pick publicID="de.gempa.tb1.Pick/20250413180838.572761.133003"><time><value>2025-04-13T18:08:30.148391Z</value></time><waveformID networkCode="CX" stationCode="PB06" channelCode="HHN"/><filterID>ITAPER(2)&gt;&gt;BW(3,3,20)</filterID><methodID>L2-AIC-GRID</methodID><horizontalSlowness><value>15.298691028697812</value></horizontalSlowness><backazimuth><value>66.42664874478535</value></backazimuth><phaseHint>S</phaseHint><evaluationMode>automatic</evaluationMode><comment><text>930.3932893394185</text><id>DFX:rectilinearity</id></comment><comment><text>de.gempa.tb1.Pick/20250413180832.552828.133001</text><id>RefPickID</id></comment><comment><text>7.349943698171034</text><id>SNR</id></comment></pick><pick publicID="de.gempa.tb1.Pick/20250413180838.57882.133004"><time><value>2025-04-13T18:08:31.268394Z</value></time><waveformID networkCode="CX" stationCode="PB03" channelCode="HHZ"/><filterID>ITAPER(4)&gt;&gt;BW(4,4,20)</filterID><methodID>AIC</methodID><horizontalSlowness><value>13.914952739551483</value></horizontalSlowness><backazimuth><value>200.13731859164625</value></backazimuth><phaseHint>P</phaseHint><evaluationMode>automatic</evaluationMode><comment><text>130.10790661142747</text><id>DFX:rectilinearity</id></comment><comment><text>23.96970414668586</text><id>SNR</id></comment></pick><pick publicID="de.gempa.tb1.Pick/20250413180841.948189.133006"><time><value>2025-04-13T18:08:33.188393Z</value></time><waveformID networkCode="CX" stationCode="PB15" channelCode="HHZ"/><filterID>ITAPER(4)&gt;&gt;BW(4,4,20)</filterID><methodID>AIC</methodID><horizontalSlowness><value>20.324048520494472</value></horizontalSlowness><backazimuth><value>125.1523087976584</value></backazimuth><phaseHint>P</phaseHint><evaluationMode>automatic</evaluationMode><comment><text>1324.0594556205092</text><id>DFX:rectilinearity</id></comment><comment><text>13.575907940530758</text><id>SNR</id></comment></pick><pick publicID="de.gempa.tb1.Pick/20250413180844.656508.133008"><time><value>2025-04-13T18:08:36.728391Z</value></time><waveformID networkCode="CX" stationCode="PB07" channelCode="HHZ"/><filterID>ITAPER(4)&gt;&gt;BW(4,4,20)</filterID><methodID>AIC</methodID><horizontalSlowness><value>20.815895776089853</value></horizontalSlowness><backazimuth><value>157.06728331411622</value></backazimuth><phaseHint>P</phaseHint><evaluationMode>automatic</evaluationMode><comment><text>859.5493922632546</text><id>DFX:rectilinearity</id></comment><comment><text>34.17408187536258</text><id>SNR</id></comment></pick><pick publicID="de.gempa.tb1.Pick/20250413180846.375136.133010"><time><value>2025-04-13T18:08:39.3Z</value></time><waveformID networkCode="CX" stationCode="PB09" channelCode="HHZ"/><filterID>ITAPER(4)&gt;&gt;BW(4,4,20)</filterID><methodID>AIC</methodID><horizontalSlowness><value>20.262244730382733</value></horizontalSlowness><backazimuth><value>151.9089217136164</value></backazimuth><phaseHint>P</phaseHint><evaluationMode>automatic</evaluationMode><comment><text>20.606131517741296</text><id>DFX:rectilinearity</id></comment><comment><text>20.123256382846797</text><id>SNR</id></comment></pick><pick publicID="de.gempa.tb1.Pick/20250413180852.544934.133012"><time><value>2025-04-13T18:08:44.348393Z</value></time><waveformID networkCode="CX" stationCode="PB02" channelCode="HHZ"/><filterID>ITAPER(4)&gt;&gt;BW(4,4,20)</filterID><methodID>AIC</methodID><horizontalSlowness><value>15.405295813041718</value></horizontalSlowness><backazimuth><value>109.60925172186961</value></backazimuth><phaseHint>P</phaseHint><evaluationMode>automatic</evaluationMode><comment><text>43.84611769454524</text><id>DFX:rectilinearity</id></comment><comment><text>9.500272966876</text><id>SNR</id></comment></pick><pick publicID="de.gempa.tb1.Pick/20250413180854.595112.133014"><time><value>2025-04-13T18:08:45.79Z</value></time><waveformID networkCode="CX" stationCode="PB19" channelCode="HHZ"/><filterID>ITAPER(4)&gt;&gt;BW(4,4,20)</filterID><methodID>AIC</methodID><horizontalSlowness><value>21.260738975702502</value></horizontalSlowness><backazimuth><value>205.54352597687972</value></backazimuth><phaseHint>P</phaseHint><evaluationMode>automatic</evaluationMode><comment><text>10.798178021451676</text><id>DFX:rectilinearity</id></comment><comment><text>5.701832129557065</text><id>SNR</id></comment></pick><pick publicID="de.gempa.tb1.Pick/20250413180854.664136.133016"><time><value>2025-04-13T18:08:49.458393Z</value></time><waveformID networkCode="CX" stationCode="PB01" channelCode="HHZ"/><filterID>ITAPER(4)&gt;&gt;BW(4,4,20)</filterID><methodID>AIC</methodID><horizontalSlowness><value>21.763229539566805</value></horizontalSlowness><backazimuth><value>188.07913962405155</value></backazimuth><phaseHint>P</phaseHint><evaluationMode>automatic</evaluationMode><comment><text>23.21135258467527</text><id>DFX:rectilinearity</id></comment><comment><text>14.647277826942364</text><id>SNR</id></comment></pick><pick publicID="de.gempa.tb1.Pick/20250413180920.722499.133024"><time><value>2025-04-13T18:09:10.978393Z</value></time><waveformID networkCode="CX" stationCode="PB01" channelCode="HHN"/><filterID>ITAPER(2)&gt;&gt;BW(3,3,20)</filterID><methodID>L2-AIC-GRID</methodID><horizontalSlowness><value>21.248818772172442</value></horizontalSlowness><backazimuth><value>297.60668038613443</value></backazimuth><phaseHint>S</phaseHint><evaluationMode>automatic</evaluationMode><comment><text>247.39671509707205</text><id>DFX:rectilinearity</id></comment><comment><text>de.gempa.tb1.Pick/20250413180854.664136.133016</text><id>RefPickID</id></comment><comment><text>5.633900525510884</text><id>SNR</id></comment></pick><origin publicID="de.gempa.tb1.Origin/20250413180920.72696.117017"><time><value>2025-04-13T18:08:19.743869Z</value><uncertainty>0.6895467042922974</uncertainty></time><latitude><value>-22.62375831604004</value><uncertainty>2.9694061279296875</uncertainty></latitude><longitude><value>-69.89813995361328</value><uncertainty>5.06331205368042</uncertainty></longitude><depth><value>4.645715713500977</value><uncertainty>4.784995555877686</uncertainty></depth><depthType>from location</depthType><methodID>LOCSAT</methodID><earthModelID>iasp91_scanloc</earthModelID><quality><associatedPhaseCount>10</associatedPhaseCount><usedPhaseCount>10</usedPhaseCount><associatedStationCount>8</associatedStationCount><usedStationCount>8</usedStationCount><depthPhaseCount>0</depthPhaseCount><standardError>0.196932393621274</standardError><azimuthalGap>203.6287225857377</azimuthalGap><maximumDistance>1.6184842586517334</maximumDistance><minimumDistance>0.31223225593566895</minimumDistance><medianDistance>1.0236177444458008</medianDistance></quality><uncertainty><minHorizontalUncertainty>5.208173751831055</minHorizontalUncertainty><maxHorizontalUncertainty>11.457773208618164</maxHorizontalUncertainty><azimuthMaxHorizontalUncertainty>68.96990203857422</azimuthMaxHorizontalUncertainty><preferredDescription>horizontal uncertainty</preferredDescription></uncertainty><evaluationMode>automatic</evaluationMode><evaluationStatus>confirmed</evaluationStatus><comment><text>0.03</text><id>mismatchScore</id></comment><comment><text>mismatchScore</text><id>scevalMethod</id></comment><arrival><pickID>de.gempa.tb1.Pick/20250413180832.552828.133001</pickID><phase>P</phase><azimuth>105.22241973876953</azimuth><distance>0.31223225593566895</distance><timeResidual>0.07210588455200195</timeResidual><timeUsed>true</timeUsed><horizontalSlownessUsed>false</horizontalSlownessUsed><backazimuthUsed>false</backazimuthUsed><weight>1</weight></arrival><arrival><pickID>de.gempa.tb1.Pick/20250413180838.572761.133003</pickID><phase>S</phase><azimuth>105.22241973876953</azimuth><distance>0.31223225593566895</distance><timeResidual>-0.024116039276123047</timeResidual><timeUsed>true</timeUsed><horizontalSlownessUsed>false</horizontalSlownessUsed><backazimuthUsed>false</backazimuthUsed><weight>1</weight></arrival><arrival><pickID>de.gempa.tb1.Pick/20250413180838.57882.133004</pickID><phase>P</phase><azimuth>13.227569580078125</azimuth><distance>0.5880787372589111</distance><timeResidual>0.21843338012695312</timeResidual><timeUsed>true</timeUsed><horizontalSlownessUsed>false</horizontalSlownessUsed><backazimuthUsed>false</backazimuthUsed><weight>1</weight></arrival><arrival><pickID>de.gempa.tb1.Pick/20250413180841.948189.133006</pickID><phase>P</phase><azimuth>145.98464965820312</azimuth><distance>0.7026360630989075</distance><timeResidual>-0.05174875259399414</timeResidual><timeUsed>true</timeUsed><horizontalSlownessUsed>false</horizontalSlownessUsed><backazimuthUsed>false</backazimuthUsed><weight>1</weight></arrival><arrival><pickID>de.gempa.tb1.Pick/20250413180844.656508.133008</pickID><phase>P</phase><azimuth>0.713844895362854</azimuth><distance>0.8928496241569519</distance><timeResidual>-0.15633630752563477</timeResidual><timeUsed>true</timeUsed><horizontalSlownessUsed>false</horizontalSlownessUsed><backazimuthUsed>false</backazimuthUsed><weight>1</weight></arrival><arrival><pickID>de.gempa.tb1.Pick/20250413180846.375136.133010</pickID><phase>P</phase><azimuth>36.570716857910156</azimuth><distance>1.0236177444458008</distance><timeResidual>-0.08998346328735352</timeResidual><timeUsed>true</timeUsed><horizontalSlownessUsed>false</horizontalSlownessUsed><backazimuthUsed>false</backazimuthUsed><weight>1</weight></arrival><arrival><pickID>de.gempa.tb1.Pick/20250413180852.544934.133012</pickID><phase>P</phase><azimuth>0.08700505644083023</azimuth><distance>1.297723889350891</distance><timeResidual>-0.19381093978881836</timeResidual><timeUsed>true</timeUsed><horizontalSlownessUsed>false</horizontalSlownessUsed><backazimuthUsed>false</backazimuthUsed><weight>1</weight></arrival><arrival><pickID>de.gempa.tb1.Pick/20250413180854.595112.133014</pickID><phase>P</phase><azimuth>156.45828247070312</azimuth><distance>1.392114281654358</distance><timeResidual>-0.07329702377319336</timeResidual><timeUsed>true</timeUsed><horizontalSlownessUsed>false</horizontalSlownessUsed><backazimuthUsed>false</backazimuthUsed><weight>1</weight></arrival><arrival><pickID>de.gempa.tb1.Pick/20250413180854.664136.133016</pickID><phase>P</phase><azimuth>13.714948654174805</azimuth><distance>1.6184842586517334</distance><timeResidual>0.474581241607666</timeResidual><timeUsed>true</timeUsed><horizontalSlownessUsed>false</horizontalSlownessUsed><backazimuthUsed>false</backazimuthUsed><weight>1</weight></arrival><arrival><pickID>de.gempa.tb1.Pick/20250413180920.722499.133024</pickID><phase>S</phase><azimuth>13.714948654174805</azimuth><distance>1.6184842586517334</distance><timeResidual>-0.17592954635620117</timeResidual><timeUsed>true</timeUsed><horizontalSlownessUsed>false</horizontalSlownessUsed><backazimuthUsed>false</backazimuthUsed><weight>1</weight></arrival><magnitude publicID="de.gempa.tb1.Magnitude/20250413180920.732497.387213"><magnitude><value>2.2569758771232507</value></magnitude><type>M</type><methodID>weighted average</methodID><stationCount>6</stationCount></magnitude></origin><event publicID="gempa2025hhun"><preferredOriginID>de.gempa.tb1.Origin/20250413180920.72696.117017</preferredOriginID><preferredMagnitudeID>de.gempa.tb1.Magnitude/20250413180920.732497.387213</preferredMagnitudeID><description><text>Northern Chile</text><type>region name</type></description><originReference>de.gempa.tb1.Origin/20250413180920.72696.117017</originReference></event></EventParameters></seiscomp>