<?xml version="1.0" encoding="UTF-8"?>
<seiscomp xmlns="http://geofon.gfz-potsdam.de/ns/seiscomp3-schema/0.13" version="0.13"><EventParameters><pick publicID="de.gempa.tb1.Pick/20250412065614.45682.122613"><time><value>2025-04-12T06:56:08.189999Z</value></time><waveformID networkCode="CX" stationCode="PATCX" channelCode="HHZ"/><filterID>ITAPER(4)&gt;&gt;BW(4,4,20)</filterID><methodID>AIC</methodID><horizontalSlowness><value>8.530141165564999</value></horizontalSlowness><backazimuth><value>274.71009058007604</value></backazimuth><phaseHint>P</phaseHint><evaluationMode>automatic</evaluationMode><comment><text>1381.8183526422793</text><id>DFX:rectilinearity</id></comment><comment><text>52.01715570664403</text><id>SNR</id></comment></pick><pick publicID="de.gempa.tb1.Pick/20250412065618.583239.122615"><time><value>2025-04-12T06:56:12.868394Z</value></time><waveformID networkCode="CX" stationCode="PB02" channelCode="HHZ"/><filterID>ITAPER(4)&gt;&gt;BW(4,4,20)</filterID><methodID>AIC</methodID><horizontalSlowness><value>10.042487406808222</value></horizontalSlowness><backazimuth><value>330.6362302461272</value></backazimuth><phaseHint>P</phaseHint><evaluationMode>automatic</evaluationMode><comment><text>179.1116069960859</text><id>DFX:rectilinearity</id></comment><comment><text>54.14786079332619</text><id>SNR</id></comment></pick><pick publicID="de.gempa.tb1.Pick/20250412065622.778551.122617"><time><value>2025-04-12T06:56:15.968393Z</value></time><waveformID networkCode="CX" stationCode="PB01" channelCode="HHZ"/><filterID>ITAPER(4)&gt;&gt;BW(4,4,20)</filterID><methodID>AIC</methodID><horizontalSlowness><value>13.515121172084577</value></horizontalSlowness><backazimuth><value>292.90837270253945</value></backazimuth><phaseHint>P</phaseHint><evaluationMode>automatic</evaluationMode><comment><text>82.42183821375431</text><id>DFX:rectilinearity</id></comment><comment><text>71.34029566577881</text><id>SNR</id></comment></pick><pick publicID="de.gempa.tb1.Pick/20250412065624.493537.122619"><time><value>2025-04-12T06:56:15.259999Z</value></time><waveformID networkCode="CX" stationCode="PATCX" channelCode="HHN"/><filterID>ITAPER(2)&gt;&gt;BW(3,3,20)</filterID><methodID>L2-AIC-GRID</methodID><horizontalSlowness><value>22.12833563477449</value></horizontalSlowness><backazimuth><value>93.43311316022391</value></backazimuth><phaseHint>S</phaseHint><evaluationMode>automatic</evaluationMode><comment><text>5261.026018450941</text><id>DFX:rectilinearity</id></comment><comment><text>de.gempa.tb1.Pick/20250412065614.45682.122613</text><id>RefPickID</id></comment><comment><text>12.276251137748067</text><id>SNR</id></comment></pick><pick publicID="de.gempa.tb1.Pick/20250412065625.566373.122620"><time><value>2025-04-12T06:56:19.92Z</value></time><waveformID networkCode="CX" stationCode="PSGCX" channelCode="HHZ"/><filterID>ITAPER(4)&gt;&gt;BW(4,4,20)</filterID><methodID>AIC</methodID><horizontalSlowness><value>18.637292545886364</value></horizontalSlowness><backazimuth><value>278.3065560432553</value></backazimuth><phaseHint>P</phaseHint><evaluationMode>automatic</evaluationMode><comment><text>23.34957053543756</text><id>DFX:rectilinearity</id></comment><comment><text>56.37224060871738</text><id>SNR</id></comment></pick><pick publicID="de.gempa.tb1.Pick/20250412065627.763995.122622"><time><value>2025-04-12T06:56:22.188393Z</value></time><waveformID networkCode="CX" stationCode="PB03" channelCode="HHZ"/><filterID>ITAPER(4)&gt;&gt;BW(4,4,20)</filterID><methodID>AIC</methodID><horizontalSlowness><value>17.801331252727735</value></horizontalSlowness><backazimuth><value>163.06966281802733</value></backazimuth><phaseHint>P</phaseHint><evaluationMode>automatic</evaluationMode><comment><text>7.360167236724304</text><id>DFX:rectilinearity</id></comment><comment><text>12.731959312540374</text><id>SNR</id></comment></pick><pick publicID="de.gempa.tb1.Pick/20250412065627.777528.122624"><time><value>2025-04-12T06:56:22.248393Z</value></time><waveformID networkCode="CX" stationCode="PB08" channelCode="HHZ"/><filterID>ITAPER(4)&gt;&gt;BW(4,4,20)</filterID><methodID>AIC</methodID><horizontalSlowness><value>15.45408670179984</value></horizontalSlowness><backazimuth><value>86.17202749628102</value></backazimuth><phaseHint>P</phaseHint><evaluationMode>automatic</evaluationMode><comment><text>12.741976626574996</text><id>DFX:rectilinearity</id></comment><comment><text>10.032011334443018</text><id>SNR</id></comment></pick><pick publicID="de.gempa.tb1.Pick/20250412065632.608921.122626"><time><value>2025-04-12T06:56:23.178394Z</value></time><waveformID networkCode="CX" stationCode="PB02" channelCode="HHN"/><filterID>ITAPER(2)&gt;&gt;BW(3,3,20)</filterID><methodID>L2-AIC-GRID</methodID><horizontalSlowness><value>8.790639606512606</value></horizontalSlowness><backazimuth><value>48.97890956055286</value></backazimuth><phaseHint>S</phaseHint><evaluationMode>automatic</evaluationMode><comment><text>8736.832285208173</text><id>DFX:rectilinearity</id></comment><comment><text>de.gempa.tb1.Pick/20250412065618.583239.122615</text><id>RefPickID</id></comment><comment><text>10.701975723121157</text><id>SNR</id></comment></pick><pick publicID="de.gempa.tb1.Pick/20250412065634.765638.122627"><time><value>2025-04-12T06:56:28.268393Z</value></time><waveformID networkCode="CX" stationCode="PB01" channelCode="HHN"/><filterID>ITAPER(2)&gt;&gt;BW(3,3,20)</filterID><methodID>L2-AIC-GRID</methodID><horizontalSlowness><value>20.10662582065996</value></horizontalSlowness><backazimuth><value>85.24277841255709</value></backazimuth><phaseHint>S</phaseHint><evaluationMode>automatic</evaluationMode><comment><text>29504.684639515755</text><id>DFX:rectilinearity</id></comment><comment><text>de.gempa.tb1.Pick/20250412065622.778551.122617</text><id>RefPickID</id></comment><comment><text>18.875743977475906</text><id>SNR</id></comment></pick><pick publicID="de.gempa.tb1.Pick/20250412065637.353169.122628"><time><value>2025-04-12T06:56:23.87Z</value></time><waveformID networkCode="CX" stationCode="PB09" channelCode="HHZ"/><filterID>ITAPER(4)&gt;&gt;BW(4,4,20)</filterID><methodID>AIC</methodID><horizontalSlowness><value>8.245359245932853</value></horizontalSlowness><backazimuth><value>301.60550833537525</value></backazimuth><phaseHint>P</phaseHint><evaluationMode>automatic</evaluationMode><comment><text>9.118287488060263</text><id>DFX:rectilinearity</id></comment><comment><text>29.62433353124604</text><id>SNR</id></comment></pick><pick publicID="de.gempa.tb1.Pick/20250412065639.787123.122630"><time><value>2025-04-12T06:56:17.128391Z</value></time><waveformID networkCode="CX" stationCode="PB07" channelCode="HHZ"/><filterID>ITAPER(4)&gt;&gt;BW(4,4,20)</filterID><methodID>AIC</methodID><horizontalSlowness><value>19.539156813624437</value></horizontalSlowness><backazimuth><value>328.9357059433079</value></backazimuth><phaseHint>P</phaseHint><evaluationMode>automatic</evaluationMode><comment><text>272.36936910343093</text><id>DFX:rectilinearity</id></comment><comment><text>22.526900441438535</text><id>SNR</id></comment></pick><pick publicID="de.gempa.tb1.Pick/20250412065641.782313.122633"><time><value>2025-04-12T06:56:35.14Z</value></time><waveformID networkCode="CX" stationCode="PSGCX" channelCode="HHN"/><filterID>ITAPER(2)&gt;&gt;BW(3,3,20)</filterID><methodID>L2-AIC-GRID</methodID><horizontalSlowness><value>22.18220754138838</value></horizontalSlowness><backazimuth><value>314.407880021235</value></backazimuth><phaseHint>S</phaseHint><evaluationMode>automatic</evaluationMode><comment><text>829.223789671362</text><id>DFX:rectilinearity</id></comment><comment><text>de.gempa.tb1.Pick/20250412065625.566373.122620</text><id>RefPickID</id></comment><comment><text>8.806245069921921</text><id>SNR</id></comment></pick><pick publicID="de.gempa.tb1.Pick/20250412065647.594482.122636"><time><value>2025-04-12T06:56:39.838393Z</value></time><waveformID networkCode="CX" stationCode="PB08" channelCode="HHN"/><filterID>ITAPER(2)&gt;&gt;BW(3,3,20)</filterID><methodID>L2-AIC-GRID</methodID><horizontalSlowness><value>16.908833423567085</value></horizontalSlowness><backazimuth><value>204.85846473089313</value></backazimuth><phaseHint>S</phaseHint><evaluationMode>automatic</evaluationMode><comment><text>42.50420597944236</text><id>DFX:rectilinearity</id></comment><comment><text>de.gempa.tb1.Pick/20250412065627.777528.122624</text><id>RefPickID</id></comment><comment><text>7.692344363883069</text><id>SNR</id></comment></pick><origin publicID="de.gempa.tb1.Origin/20250412065647.59775.77399"><time><value>2025-04-12T06:55:58.807841Z</value><uncertainty>0.6497804522514343</uncertainty></time><latitude><value>-20.802190780639648</value><uncertainty>2.7633070945739746</uncertainty></latitude><longitude><value>-70.4561767578125</value><uncertainty>5.613847255706787</uncertainty></longitude><depth><value>51.82546234130859</value><uncertainty>6.383217811584473</uncertainty></depth><depthType>from location</depthType><methodID>LOCSAT</methodID><earthModelID>iasp91_scanloc</earthModelID><quality><associatedPhaseCount>13</associatedPhaseCount><usedPhaseCount>13</usedPhaseCount><associatedStationCount>8</associatedStationCount><usedStationCount>8</usedStationCount><depthPhaseCount>0</depthPhaseCount><standardError>0.4147518925108478</standardError><azimuthalGap>222.40198993682861</azimuthalGap><maximumDistance>1.503578543663025</maximumDistance><minimumDistance>0.2843467593193054</minimumDistance><medianDistance>1.0624858140945435</medianDistance></quality><uncertainty><minHorizontalUncertainty>5.877609729766846</minHorizontalUncertainty><maxHorizontalUncertainty>12.059503555297852</maxHorizontalUncertainty><azimuthMaxHorizontalUncertainty>85.94017791748047</azimuthMaxHorizontalUncertainty><preferredDescription>horizontal uncertainty</preferredDescription></uncertainty><evaluationMode>automatic</evaluationMode><evaluationStatus>confirmed</evaluationStatus><comment><text>0.00</text><id>mismatchScore</id></comment><comment><text>mismatchScore</text><id>scevalMethod</id></comment><arrival><pickID>de.gempa.tb1.Pick/20250412065614.45682.122613</pickID><phase>P</phase><azimuth>93.76889038085938</azimuth><distance>0.2843467593193054</distance><timeResidual>0.21236705780029297</timeResidual><timeUsed>true</timeUsed><horizontalSlownessUsed>false</horizontalSlownessUsed><backazimuthUsed>false</backazimuthUsed><weight>1</weight></arrival><arrival><pickID>de.gempa.tb1.Pick/20250412065618.583239.122615</pickID><phase>P</phase><azimuth>134.64610290527344</azimuth><distance>0.7341004014015198</distance><timeResidual>-0.20716571807861328</timeResidual><timeUsed>true</timeUsed><horizontalSlownessUsed>false</horizontalSlownessUsed><backazimuthUsed>false</backazimuthUsed><weight>1</weight></arrival><arrival><pickID>de.gempa.tb1.Pick/20250412065622.778551.122617</pickID><phase>P</phase><azimuth>105.00382995605469</azimuth><distance>0.9368882179260254</distance><timeResidual>0.23160839080810547</timeResidual><timeUsed>true</timeUsed><horizontalSlownessUsed>false</horizontalSlownessUsed><backazimuthUsed>false</backazimuthUsed><weight>1</weight></arrival><arrival><pickID>de.gempa.tb1.Pick/20250412065624.493537.122619</pickID><phase>S</phase><azimuth>93.76889038085938</azimuth><distance>0.2843467593193054</distance><timeResidual>0.4167747497558594</timeResidual><timeUsed>true</timeUsed><horizontalSlownessUsed>false</horizontalSlownessUsed><backazimuthUsed>false</backazimuthUsed><weight>1</weight></arrival><arrival><pickID>de.gempa.tb1.Pick/20250412065625.566373.122620</pickID><phase>P</phase><azimuth>14.6847505569458</azimuth><distance>1.2390174865722656</distance><timeResidual>0.11807823181152344</timeResidual><timeUsed>true</timeUsed><horizontalSlownessUsed>false</horizontalSlownessUsed><backazimuthUsed>false</backazimuthUsed><weight>1</weight></arrival><arrival><pickID>de.gempa.tb1.Pick/20250412065627.763995.122622</pickID><phase>P</phase><azimuth>152.2827606201172</azimuth><distance>1.4025180339813232</distance><timeResidual>0.18026351928710938</timeResidual><timeUsed>true</timeUsed><horizontalSlownessUsed>false</horizontalSlownessUsed><backazimuthUsed>false</backazimuthUsed><weight>1</weight></arrival><arrival><pickID>de.gempa.tb1.Pick/20250412065627.777528.122624</pickID><phase>P</phase><azimuth>61.9273796081543</azimuth><distance>1.387308955192566</distance><timeResidual>0.4382133483886719</timeResidual><timeUsed>true</timeUsed><horizontalSlownessUsed>false</horizontalSlownessUsed><backazimuthUsed>false</backazimuthUsed><weight>1</weight></arrival><arrival><pickID>de.gempa.tb1.Pick/20250412065632.608921.122626</pickID><phase>S</phase><azimuth>134.64610290527344</azimuth><distance>0.7341004014015198</distance><timeResidual>-0.7071409225463867</timeResidual><timeUsed>true</timeUsed><horizontalSlownessUsed>false</horizontalSlownessUsed><backazimuthUsed>false</backazimuthUsed><weight>1</weight></arrival><arrival><pickID>de.gempa.tb1.Pick/20250412065634.765638.122627</pickID><phase>S</phase><azimuth>105.00382995605469</azimuth><distance>0.9368882179260254</distance><timeResidual>-0.37770652770996094</timeResidual><timeUsed>true</timeUsed><horizontalSlownessUsed>false</horizontalSlownessUsed><backazimuthUsed>false</backazimuthUsed><weight>1</weight></arrival><arrival><pickID>de.gempa.tb1.Pick/20250412065637.353169.122628</pickID><phase>P</phase><azimuth>131.36074829101562</azimuth><distance>1.503578543663025</distance><timeResidual>0.4858274459838867</timeResidual><timeUsed>true</timeUsed><horizontalSlownessUsed>false</horizontalSlownessUsed><backazimuthUsed>false</backazimuthUsed><weight>1</weight></arrival><arrival><pickID>de.gempa.tb1.Pick/20250412065639.787123.122630</pickID><phase>P</phase><azimuth>150.07652282714844</azimuth><distance>1.0624858140945435</distance><timeResidual>-0.28339385986328125</timeResidual><timeUsed>true</timeUsed><horizontalSlownessUsed>false</horizontalSlownessUsed><backazimuthUsed>false</backazimuthUsed><weight>1</weight></arrival><arrival><pickID>de.gempa.tb1.Pick/20250412065641.782313.122633</pickID><phase>S</phase><azimuth>14.6847505569458</azimuth><distance>1.2390174865722656</distance><timeResidual>-0.7989635467529297</timeResidual><timeUsed>true</timeUsed><horizontalSlownessUsed>false</horizontalSlownessUsed><backazimuthUsed>false</backazimuthUsed><weight>1</weight></arrival><arrival><pickID>de.gempa.tb1.Pick/20250412065647.594482.122636</pickID><phase>S</phase><azimuth>61.9273796081543</azimuth><distance>1.387308955192566</distance><timeResidual>0.2915916442871094</timeResidual><timeUsed>true</timeUsed><horizontalSlownessUsed>false</horizontalSlownessUsed><backazimuthUsed>false</backazimuthUsed><weight>1</weight></arrival><magnitude publicID="de.gempa.tb1.Magnitude/20250412065655.939558.190401"><magnitude><value>2.4885411273342</value></magnitude><type>M</type><methodID>weighted average</methodID><stationCount>7</stationCount></magnitude></origin><event publicID="gempa2025hfcc"><preferredOriginID>de.gempa.tb1.Origin/20250412065647.59775.77399</preferredOriginID><preferredMagnitudeID>de.gempa.tb1.Magnitude/20250412065655.939558.190401</preferredMagnitudeID><description><text>Near Coast of Northern Chile</text><type>region name</type></description><originReference>de.gempa.tb1.Origin/20250412065647.59775.77399</originReference></event></EventParameters></seiscomp>