<?xml version="1.0" encoding="UTF-8"?>
<seiscomp xmlns="http://geofon.gfz-potsdam.de/ns/seiscomp3-schema/0.13" version="0.13"><EventParameters><pick publicID="de.gempa.tb1.Pick/20250412022530.553694.121436"><time><value>2025-04-12T02:25:26.3Z</value></time><waveformID networkCode="CX" stationCode="PB19" channelCode="HHZ"/><filterID>ITAPER(4)&gt;&gt;BW(4,4,20)</filterID><methodID>AIC</methodID><horizontalSlowness><value>23.44345704833985</value></horizontalSlowness><backazimuth><value>305.2438080945891</value></backazimuth><phaseHint>P</phaseHint><evaluationMode>automatic</evaluationMode><comment><text>42.34297552558172</text><id>DFX:rectilinearity</id></comment><comment><text>53.54334901145344</text><id>SNR</id></comment></pick><pick publicID="de.gempa.tb1.Pick/20250412022536.707536.121438"><time><value>2025-04-12T02:25:30.098394Z</value></time><waveformID networkCode="CX" stationCode="PB15" channelCode="HHZ"/><filterID>ITAPER(4)&gt;&gt;BW(4,4,20)</filterID><methodID>AIC</methodID><horizontalSlowness><value>21.98491957491515</value></horizontalSlowness><backazimuth><value>115.61603677825119</value></backazimuth><phaseHint>P</phaseHint><evaluationMode>automatic</evaluationMode><comment><text>1160.2137525083242</text><id>DFX:rectilinearity</id></comment><comment><text>30.778044044572457</text><id>SNR</id></comment></pick><pick publicID="de.gempa.tb1.Pick/20250412022539.682469.121440"><time><value>2025-04-12T02:25:33.648393Z</value></time><waveformID networkCode="CX" stationCode="PB06" channelCode="HHZ"/><filterID>ITAPER(4)&gt;&gt;BW(4,4,20)</filterID><methodID>AIC</methodID><horizontalSlowness><value>6.699216750656452</value></horizontalSlowness><backazimuth><value>157.71361958857324</value></backazimuth><phaseHint>P</phaseHint><evaluationMode>automatic</evaluationMode><comment><text>203.81845715179733</text><id>DFX:rectilinearity</id></comment><comment><text>27.97981450770065</text><id>SNR</id></comment></pick><pick publicID="de.gempa.tb1.Pick/20250412022543.814292.121442"><time><value>2025-04-12T02:25:39.718393Z</value></time><waveformID networkCode="CX" stationCode="PB03" channelCode="HHZ"/><filterID>ITAPER(4)&gt;&gt;BW(4,4,20)</filterID><methodID>AIC</methodID><horizontalSlowness><value>9.562253045005628</value></horizontalSlowness><backazimuth><value>134.39923530738983</value></backazimuth><phaseHint>P</phaseHint><evaluationMode>automatic</evaluationMode><comment><text>106.29954015410358</text><id>DFX:rectilinearity</id></comment><comment><text>65.2728166659409</text><id>SNR</id></comment></pick><pick publicID="de.gempa.tb1.Pick/20250412022547.277905.121444"><time><value>2025-04-12T02:25:39.999998Z</value></time><waveformID networkCode="CX" stationCode="PB10" channelCode="HHZ"/><filterID>ITAPER(4)&gt;&gt;BW(4,4,20)</filterID><methodID>AIC</methodID><horizontalSlowness><value>11.517956309610053</value></horizontalSlowness><backazimuth><value>172.1869387324971</value></backazimuth><phaseHint>P</phaseHint><evaluationMode>automatic</evaluationMode><comment><text>111.48758302009092</text><id>DFX:rectilinearity</id></comment><comment><text>8.901511306147176</text><id>SNR</id></comment></pick><pick publicID="de.gempa.tb1.Pick/20250412022548.469632.121446"><time><value>2025-04-12T02:25:38.88Z</value></time><waveformID networkCode="CX" stationCode="PB09" channelCode="HHZ"/><filterID>ITAPER(4)&gt;&gt;BW(4,4,20)</filterID><methodID>AIC</methodID><horizontalSlowness><value>19.86649445231168</value></horizontalSlowness><backazimuth><value>123.30816471262892</value></backazimuth><phaseHint>P</phaseHint><evaluationMode>automatic</evaluationMode><comment><text>77.77492689961107</text><id>DFX:rectilinearity</id></comment><comment><text>76.00411155846898</text><id>SNR</id></comment></pick><pick publicID="de.gempa.tb1.Pick/20250412022553.473415.121448"><time><value>2025-04-12T02:25:47.108393Z</value></time><waveformID networkCode="CX" stationCode="PB02" channelCode="HHZ"/><filterID>ITAPER(4)&gt;&gt;BW(4,4,20)</filterID><methodID>AIC</methodID><horizontalSlowness><value>3.462319328966209</value></horizontalSlowness><backazimuth><value>169.78547372571785</value></backazimuth><phaseHint>P</phaseHint><evaluationMode>automatic</evaluationMode><comment><text>38.130198936467117</text><id>DFX:rectilinearity</id></comment><comment><text>40.02112528933911</text><id>SNR</id></comment></pick><pick publicID="de.gempa.tb1.Pick/20250412022553.512138.121450"><time><value>2025-04-12T02:25:46.738393Z</value></time><waveformID networkCode="CX" stationCode="PB01" channelCode="HHZ"/><filterID>ITAPER(4)&gt;&gt;BW(4,4,20)</filterID><methodID>AIC</methodID><horizontalSlowness><value>21.1044842067799</value></horizontalSlowness><backazimuth><value>351.66414184156287</value></backazimuth><phaseHint>P</phaseHint><evaluationMode>automatic</evaluationMode><comment><text>11.706348876242473</text><id>DFX:rectilinearity</id></comment><comment><text>19.748767914546065</text><id>SNR</id></comment></pick><pick publicID="de.gempa.tb1.Pick/20250412022602.72574.121453"><time><value>2025-04-12T02:25:55.35Z</value></time><waveformID networkCode="CX" stationCode="PB19" channelCode="HHN"/><filterID>ITAPER(2)&gt;&gt;BW(3,3,20)</filterID><methodID>L2-AIC-GRID</methodID><horizontalSlowness><value>22.927957542870917</value></horizontalSlowness><backazimuth><value>180.81284184809775</value></backazimuth><phaseHint>S</phaseHint><evaluationMode>automatic</evaluationMode><comment><text>14368.533576963295</text><id>DFX:rectilinearity</id></comment><comment><text>de.gempa.tb1.Pick/20250412022530.553694.121436</text><id>RefPickID</id></comment><comment><text>14.263222556800509</text><id>SNR</id></comment></pick><pick publicID="de.gempa.tb1.Pick/20250412022603.190072.121455"><time><value>2025-04-12T02:25:53.369999Z</value></time><waveformID networkCode="CX" stationCode="PATCX" channelCode="HHZ"/><filterID>ITAPER(4)&gt;&gt;BW(4,4,20)</filterID><methodID>AIC</methodID><horizontalSlowness><value>12.455992982903618</value></horizontalSlowness><backazimuth><value>34.75467288082922</value></backazimuth><phaseHint>P</phaseHint><evaluationMode>automatic</evaluationMode><comment><text>190.85509943052705</text><id>DFX:rectilinearity</id></comment><comment><text>10.660598142456767</text><id>SNR</id></comment></pick><pick publicID="de.gempa.tb1.Pick/20250412022608.92638.121457"><time><value>2025-04-12T02:26:01.908394Z</value></time><waveformID networkCode="CX" stationCode="PB15" channelCode="HHN"/><filterID>ITAPER(2)&gt;&gt;BW(3,3,20)</filterID><methodID>L2-AIC-GRID</methodID><horizontalSlowness><value>22.46258441793611</value></horizontalSlowness><backazimuth><value>75.25942800877024</value></backazimuth><phaseHint>S</phaseHint><evaluationMode>automatic</evaluationMode><comment><text>63893.83847951375</text><id>DFX:rectilinearity</id></comment><comment><text>de.gempa.tb1.Pick/20250412022536.707536.121438</text><id>RefPickID</id></comment><comment><text>9.674076236475164</text><id>SNR</id></comment></pick><pick publicID="de.gempa.tb1.Pick/20250412022611.188991.121458"><time><value>2025-04-12T02:25:43.258394Z</value></time><waveformID networkCode="CX" stationCode="PB07" channelCode="HHZ"/><filterID>ITAPER(4)&gt;&gt;BW(4,4,20)</filterID><methodID>AIC</methodID><horizontalSlowness><value>17.608663190340383</value></horizontalSlowness><backazimuth><value>178.93046997167883</value></backazimuth><phaseHint>P</phaseHint><evaluationMode>automatic</evaluationMode><comment><text>489.1019219574143</text><id>DFX:rectilinearity</id></comment><comment><text>97.6269368755046</text><id>SNR</id></comment></pick><pick publicID="de.gempa.tb1.Pick/20250412022615.568579.121460"><time><value>2025-04-12T02:26:05.25Z</value></time><waveformID networkCode="CX" stationCode="PSGCX" channelCode="HHZ"/><filterID>ITAPER(4)&gt;&gt;BW(4,4,20)</filterID><methodID>AIC</methodID><horizontalSlowness><value>19.745947242110045</value></horizontalSlowness><backazimuth><value>154.7281092887463</value></backazimuth><phaseHint>P</phaseHint><evaluationMode>automatic</evaluationMode><comment><text>12.035768382989643</text><id>DFX:rectilinearity</id></comment><comment><text>12.940470337163628</text><id>SNR</id></comment></pick><pick publicID="de.gempa.tb1.Pick/20250412022615.673273.121462"><time><value>2025-04-12T02:26:07.938393Z</value></time><waveformID networkCode="CX" stationCode="PB06" channelCode="HHN"/><filterID>ITAPER(2)&gt;&gt;BW(3,3,20)</filterID><methodID>L2-AIC-GRID</methodID><horizontalSlowness><value>17.92256582270432</value></horizontalSlowness><backazimuth><value>42.672982422140763</value></backazimuth><phaseHint>S</phaseHint><evaluationMode>automatic</evaluationMode><comment><text>543.8694440486782</text><id>DFX:rectilinearity</id></comment><comment><text>de.gempa.tb1.Pick/20250412022539.682469.121440</text><id>RefPickID</id></comment><comment><text>11.033914801550392</text><id>SNR</id></comment></pick><pick publicID="de.gempa.tb1.Pick/20250412022627.343227.121466"><time><value>2025-04-12T02:26:18.029998Z</value></time><waveformID networkCode="CX" stationCode="PB10" channelCode="HHN"/><filterID>ITAPER(2)&gt;&gt;BW(3,3,20)</filterID><methodID>L2-AIC-GRID</methodID><horizontalSlowness><value>17.409874652387654</value></horizontalSlowness><backazimuth><value>234.54754971058836</value></backazimuth><phaseHint>S</phaseHint><evaluationMode>automatic</evaluationMode><comment><text>292.4140834560794</text><id>DFX:rectilinearity</id></comment><comment><text>de.gempa.tb1.Pick/20250412022547.277905.121444</text><id>RefPickID</id></comment><comment><text>5.857418455258848</text><id>SNR</id></comment></pick><pick publicID="de.gempa.tb1.Pick/20250412022628.578545.121467"><time><value>2025-04-12T02:26:18.948393Z</value></time><waveformID networkCode="CX" stationCode="PB03" channelCode="HHN"/><filterID>ITAPER(2)&gt;&gt;BW(3,3,20)</filterID><methodID>L2-AIC-GRID</methodID><horizontalSlowness><value>23.507720441922327</value></horizontalSlowness><backazimuth><value>61.51413269155756</value></backazimuth><phaseHint>S</phaseHint><evaluationMode>automatic</evaluationMode><comment><text>357.2125056144635</text><id>DFX:rectilinearity</id></comment><comment><text>de.gempa.tb1.Pick/20250412022543.814292.121442</text><id>RefPickID</id></comment><comment><text>8.764687258167628</text><id>SNR</id></comment></pick><origin publicID="de.gempa.tb1.Origin/20250412022628.581725.72325"><time><value>2025-04-12T02:24:50.112157Z</value><uncertainty>0.9354507923126221</uncertainty></time><latitude><value>-24.06622886657715</value><uncertainty>7.522090435028076</uncertainty></latitude><longitude><value>-67.45402526855469</value><uncertainty>12.979138374328613</uncertainty></longitude><depth><value>213.75186157226562</value><uncertainty>13.027783393859863</uncertainty></depth><depthType>from location</depthType><methodID>LOCSAT</methodID><earthModelID>iasp91_scanloc</earthModelID><quality><associatedPhaseCount>16</associatedPhaseCount><usedPhaseCount>16</usedPhaseCount><associatedStationCount>11</associatedStationCount><usedStationCount>11</usedStationCount><depthPhaseCount>0</depthPhaseCount><standardError>0.36613341858217346</standardError><azimuthalGap>304.7421569824219</azimuthalGap><maximumDistance>5.091582298278809</maximumDistance><minimumDistance>1.6875402927398682</minimumDistance><medianDistance>2.8924849033355713</medianDistance></quality><uncertainty><minHorizontalUncertainty>16.109952926635742</minHorizontalUncertainty><maxHorizontalUncertainty>27.832693099975586</maxHorizontalUncertainty><azimuthMaxHorizontalUncertainty>88.22189331054688</azimuthMaxHorizontalUncertainty><preferredDescription>horizontal uncertainty</preferredDescription></uncertainty><evaluationMode>automatic</evaluationMode><evaluationStatus>confirmed</evaluationStatus><comment><text>0.02</text><id>mismatchScore</id></comment><comment><text>mismatchScore</text><id>scevalMethod</id></comment><arrival><pickID>de.gempa.tb1.Pick/20250412022530.553694.121436</pickID><phase>P</phase><azimuth>275.09344482421875</azimuth><distance>1.6875402927398682</distance><timeResidual>-0.4231452941894531</timeResidual><timeUsed>true</timeUsed><horizontalSlownessUsed>false</horizontalSlownessUsed><backazimuthUsed>false</backazimuthUsed><weight>1</weight></arrival><arrival><pickID>de.gempa.tb1.Pick/20250412022536.707536.121438</pickID><phase>P</phase><azimuth>294.3780212402344</azimuth><distance>2.0372490882873535</distance><timeResidual>0.0196075439453125</timeResidual><timeUsed>true</timeUsed><horizontalSlownessUsed>false</horizontalSlownessUsed><backazimuthUsed>false</backazimuthUsed><weight>1</weight></arrival><arrival><pickID>de.gempa.tb1.Pick/20250412022539.682469.121440</pickID><phase>P</phase><azimuth>304.4124450683594</azimuth><distance>2.370661497116089</distance><timeResidual>0.11534881591796875</timeResidual><timeUsed>true</timeUsed><horizontalSlownessUsed>false</horizontalSlownessUsed><backazimuthUsed>false</backazimuthUsed><weight>1</weight></arrival><arrival><pickID>de.gempa.tb1.Pick/20250412022543.814292.121442</pickID><phase>P</phase><azimuth>313.03070068359375</azimuth><distance>2.9183642864227295</distance><timeResidual>0.1245880126953125</timeResidual><timeUsed>true</timeUsed><horizontalSlownessUsed>false</horizontalSlownessUsed><backazimuthUsed>false</backazimuthUsed><weight>1</weight></arrival><arrival><pickID>de.gempa.tb1.Pick/20250412022547.277905.121444</pickID><phase>P</phase><azimuth>280.342529296875</azimuth><distance>2.8924849033355713</distance><timeResidual>0.7158088684082031</timeResidual><timeUsed>true</timeUsed><horizontalSlownessUsed>false</horizontalSlownessUsed><backazimuthUsed>false</backazimuthUsed><weight>1</weight></arrival><arrival><pickID>de.gempa.tb1.Pick/20250412022548.469632.121446</pickID><phase>P</phase><azimuth>323.53619384765625</azimuth><distance>2.7964913845062256</distance><timeResidual>0.6606826782226562</timeResidual><timeUsed>true</timeUsed><horizontalSlownessUsed>false</horizontalSlownessUsed><backazimuthUsed>false</backazimuthUsed><weight>1</weight></arrival><arrival><pickID>de.gempa.tb1.Pick/20250412022553.473415.121448</pickID><phase>P</phase><azimuth>320.00164794921875</azimuth><distance>3.543527841567993</distance><timeResidual>0.1681976318359375</timeResidual><timeUsed>true</timeUsed><horizontalSlownessUsed>false</horizontalSlownessUsed><backazimuthUsed>false</backazimuthUsed><weight>1</weight></arrival><arrival><pickID>de.gempa.tb1.Pick/20250412022553.512138.121450</pickID><phase>P</phase><azimuth>327.611083984375</azimuth><distance>3.5474038124084473</distance><timeResidual>-0.2511138916015625</timeResidual><timeUsed>true</timeUsed><horizontalSlownessUsed>false</horizontalSlownessUsed><backazimuthUsed>false</backazimuthUsed><weight>1</weight></arrival><arrival><pickID>de.gempa.tb1.Pick/20250412022602.72574.121453</pickID><phase>S</phase><azimuth>275.09344482421875</azimuth><distance>1.6875402927398682</distance><timeResidual>-0.3160514831542969</timeResidual><timeUsed>true</timeUsed><horizontalSlownessUsed>false</horizontalSlownessUsed><backazimuthUsed>false</backazimuthUsed><weight>1</weight></arrival><arrival><pickID>de.gempa.tb1.Pick/20250412022603.190072.121455</pickID><phase>P</phase><azimuth>321.7746276855469</azimuth><distance>4.08228874206543</distance><timeResidual>-0.09263229370117188</timeResidual><timeUsed>true</timeUsed><horizontalSlownessUsed>false</horizontalSlownessUsed><backazimuthUsed>false</backazimuthUsed><weight>1</weight></arrival><arrival><pickID>de.gempa.tb1.Pick/20250412022608.92638.121457</pickID><phase>S</phase><azimuth>294.3780212402344</azimuth><distance>2.0372490882873535</distance><timeResidual>0.20714950561523438</timeResidual><timeUsed>true</timeUsed><horizontalSlownessUsed>false</horizontalSlownessUsed><backazimuthUsed>false</backazimuthUsed><weight>1</weight></arrival><arrival><pickID>de.gempa.tb1.Pick/20250412022611.188991.121458</pickID><phase>P</phase><azimuth>315.5986022949219</azimuth><distance>3.23284912109375</distance><timeResidual>0.004810333251953125</timeResidual><timeUsed>true</timeUsed><horizontalSlownessUsed>false</horizontalSlownessUsed><backazimuthUsed>false</backazimuthUsed><weight>1</weight></arrival><arrival><pickID>de.gempa.tb1.Pick/20250412022615.568579.121460</pickID><phase>P</phase><azimuth>330.3512878417969</azimuth><distance>5.091582298278809</distance><timeResidual>-0.8178138732910156</timeResidual><timeUsed>true</timeUsed><horizontalSlownessUsed>false</horizontalSlownessUsed><backazimuthUsed>false</backazimuthUsed><weight>1</weight></arrival><arrival><pickID>de.gempa.tb1.Pick/20250412022615.673273.121462</pickID><phase>S</phase><azimuth>304.4124450683594</azimuth><distance>2.370661497116089</distance><timeResidual>0.020702362060546875</timeResidual><timeUsed>true</timeUsed><horizontalSlownessUsed>false</horizontalSlownessUsed><backazimuthUsed>false</backazimuthUsed><weight>1</weight></arrival><arrival><pickID>de.gempa.tb1.Pick/20250412022627.343227.121466</pickID><phase>S</phase><azimuth>280.342529296875</azimuth><distance>2.8924849033355713</distance><timeResidual>-0.2502632141113281</timeResidual><timeUsed>true</timeUsed><horizontalSlownessUsed>false</horizontalSlownessUsed><backazimuthUsed>false</backazimuthUsed><weight>1</weight></arrival><arrival><pickID>de.gempa.tb1.Pick/20250412022628.578545.121467</pickID><phase>S</phase><azimuth>313.03070068359375</azimuth><distance>2.9183642864227295</distance><timeResidual>0.1143646240234375</timeResidual><timeUsed>true</timeUsed><horizontalSlownessUsed>false</horizontalSlownessUsed><backazimuthUsed>false</backazimuthUsed><weight>1</weight></arrival><magnitude publicID="de.gempa.tb1.Magnitude/20250412022635.938934.165292"><magnitude><value>3.4639857659193316</value></magnitude><type>M</type><methodID>weighted average</methodID><stationCount>6</stationCount></magnitude></origin><event publicID="gempa2025hetb"><preferredOriginID>de.gempa.tb1.Origin/20250412022628.581725.72325</preferredOriginID><preferredMagnitudeID>de.gempa.tb1.Magnitude/20250412022635.938934.165292</preferredMagnitudeID><description><text>Chile-Argentina Border Region</text><type>region name</type></description><originReference>de.gempa.tb1.Origin/20250412022628.581725.72325</originReference></event></EventParameters></seiscomp>