<?xml version="1.0" encoding="UTF-8"?>
<seiscomp xmlns="http://geofon.gfz-potsdam.de/ns/seiscomp3-schema/0.13" version="0.13"><EventParameters><pick publicID="de.gempa.tb1.Pick/20250415002617.487838.285171"><time><value>2025-04-15T00:26:10.3475Z</value></time><waveformID networkCode="SX" stationCode="WERN" channelCode="HHZ"/><filterID>ITAPER(2)&gt;&gt;BW(3,3,20)</filterID><methodID>AIC</methodID><horizontalSlowness><value>23.2725030941287</value></horizontalSlowness><backazimuth><value>60.24485561419274</value></backazimuth><phaseHint>P</phaseHint><evaluationMode>automatic</evaluationMode><comment><text>294.217144658964</text><id>DFX:rectilinearity</id></comment></pick><pick publicID="de.gempa.tb1.Pick/20250415002617.571826.285173"><time><value>2025-04-15T00:26:10.58Z</value></time><waveformID networkCode="SX" stationCode="ROHR" channelCode="HHZ"/><filterID>ITAPER(2)&gt;&gt;BW(3,3,20)</filterID><methodID>AIC</methodID><horizontalSlowness><value>20.194414933459058</value></horizontalSlowness><backazimuth><value>74.28502111824805</value></backazimuth><phaseHint>P</phaseHint><evaluationMode>automatic</evaluationMode><comment><text>28.802684245094195</text><id>DFX:rectilinearity</id></comment></pick><pick publicID="de.gempa.tb1.Pick/20250415002618.307945.285175"><time><value>2025-04-15T00:26:11.61Z</value></time><waveformID networkCode="SX" stationCode="MULD" channelCode="HHZ"/><filterID>ITAPER(2)&gt;&gt;BW(3,3,20)</filterID><methodID>AIC</methodID><horizontalSlowness><value>22.710117712951067</value></horizontalSlowness><backazimuth><value>321.84768504902343</value></backazimuth><phaseHint>P</phaseHint><evaluationMode>automatic</evaluationMode><comment><text>32.38593459044362</text><id>DFX:rectilinearity</id></comment></pick><pick publicID="de.gempa.tb1.Pick/20250415002619.848551.285177"><time><value>2025-04-15T00:26:11.59Z</value></time><waveformID networkCode="SX" stationCode="TANN" channelCode="HHZ"/><filterID>ITAPER(2)&gt;&gt;BW(3,3,20)</filterID><methodID>AIC</methodID><horizontalSlowness><value>19.660462034549134</value></horizontalSlowness><backazimuth><value>310.7859253775061</value></backazimuth><phaseHint>P</phaseHint><evaluationMode>automatic</evaluationMode><comment><text>22.57507785130885</text><id>DFX:rectilinearity</id></comment></pick><pick publicID="de.gempa.tb1.Pick/20250415002620.023228.285179"><time><value>2025-04-15T00:26:15.01Z</value></time><waveformID networkCode="SX" stationCode="LEUT" channelCode="HHZ"/><filterID>ITAPER(2)&gt;&gt;BW(3,3,20)</filterID><methodID>AIC</methodID><horizontalSlowness><value>23.383837143320257</value></horizontalSlowness><backazimuth><value>146.3338256740241</value></backazimuth><phaseHint>P</phaseHint><evaluationMode>automatic</evaluationMode><comment><text>2.4290253691740653</text><id>DFX:rectilinearity</id></comment></pick><pick publicID="de.gempa.tb1.Pick/20250415002620.350443.285181"><time><value>2025-04-15T00:26:17.915Z</value></time><waveformID networkCode="BW" stationCode="ROTZ" channelCode="HHZ"/><filterID>ITAPER(2)&gt;&gt;BW(3,3,20)</filterID><methodID>AIC</methodID><horizontalSlowness><value>8.51519513676172</value><uncertainty>3.7054486563794136</uncertainty></horizontalSlowness><backazimuth><value>262.58048531844366</value><uncertainty>25.1337056928924</uncertainty></backazimuth><phaseHint>P</phaseHint><evaluationMode>automatic</evaluationMode><comment><text>0.9579041444699432</text><id>DFX:rectilinearity</id></comment></pick><pick publicID="de.gempa.tb1.Pick/20250415002623.110872.285185"><time><value>2025-04-15T00:26:11.32Z</value></time><waveformID networkCode="SX" stationCode="GUNZ" channelCode="HHZ"/><filterID>ITAPER(2)&gt;&gt;BW(3,3,20)</filterID><methodID>AIC</methodID><horizontalSlowness><value>23.295928170836746</value></horizontalSlowness><backazimuth><value>295.5370788378417</value></backazimuth><phaseHint>P</phaseHint><evaluationMode>automatic</evaluationMode><comment><text>83.97959885304459</text><id>DFX:rectilinearity</id></comment></pick><pick publicID="de.gempa.tb1.Pick/20250415002623.115951.285189"><time><value>2025-04-15T00:26:12.6Z</value></time><waveformID networkCode="SX" stationCode="TRIB" channelCode="HHZ"/><filterID>ITAPER(2)&gt;&gt;BW(3,3,20)</filterID><methodID>AIC</methodID><horizontalSlowness><value>20.730543197261817</value></horizontalSlowness><backazimuth><value>32.7730823266711</value></backazimuth><phaseHint>P</phaseHint><evaluationMode>automatic</evaluationMode><comment><text>7.443577527751877</text><id>DFX:rectilinearity</id></comment></pick><pick publicID="de.gempa.tb1.Pick/20250415002623.126524.285192"><time><value>2025-04-15T00:26:13.32Z</value></time><waveformID networkCode="SX" stationCode="GUNZ" channelCode="HHN"/><filterID>ITAPER(3)&gt;&gt;BW(4,3,10)</filterID><methodID>L2-AIC-GRID</methodID><horizontalSlowness><value>23.29592817083665</value></horizontalSlowness><backazimuth><value>295.53707883784284</value></backazimuth><phaseHint>S</phaseHint><evaluationMode>automatic</evaluationMode><comment><text>83.97959885304137</text><id>DFX:rectilinearity</id></comment><comment><text>de.gempa.tb1.Pick/20250415002623.110872.285185</text><id>RefPickID</id></comment></pick><pick publicID="de.gempa.tb1.Pick/20250415002623.445207.285195"><time><value>2025-04-15T00:26:15.63Z</value></time><waveformID networkCode="SX" stationCode="TRIB" channelCode="HHN"/><filterID>ITAPER(3)&gt;&gt;BW(4,3,10)</filterID><methodID>L2-AIC-GRID</methodID><horizontalSlowness><value>20.725721469718252</value></horizontalSlowness><backazimuth><value>32.719424009302315</value></backazimuth><phaseHint>S</phaseHint><evaluationMode>automatic</evaluationMode><comment><text>7.450974236368757</text><id>DFX:rectilinearity</id></comment><comment><text>de.gempa.tb1.Pick/20250415002623.115951.285189</text><id>RefPickID</id></comment></pick><pick publicID="de.gempa.tb1.Pick/20250415002625.066605.285198"><time><value>2025-04-15T00:26:13.93Z</value></time><waveformID networkCode="SX" stationCode="TANN" channelCode="HHN"/><filterID>ITAPER(3)&gt;&gt;BW(4,3,10)</filterID><methodID>L2-AIC-GRID</methodID><horizontalSlowness><value>19.974533765018812</value></horizontalSlowness><backazimuth><value>309.6203653494873</value></backazimuth><phaseHint>S</phaseHint><evaluationMode>automatic</evaluationMode><comment><text>25.40387717401536</text><id>DFX:rectilinearity</id></comment><comment><text>de.gempa.tb1.Pick/20250415002619.848551.285177</text><id>RefPickID</id></comment></pick><pick publicID="de.gempa.tb1.Pick/20250415002625.464769.285199"><time><value>2025-04-15T00:26:13.9Z</value></time><waveformID networkCode="SX" stationCode="MULD" channelCode="HHN"/><filterID>ITAPER(3)&gt;&gt;BW(4,3,10)</filterID><methodID>L2-AIC-GRID</methodID><horizontalSlowness><value>22.95058563872766</value></horizontalSlowness><backazimuth><value>327.9470342677836</value></backazimuth><phaseHint>S</phaseHint><evaluationMode>automatic</evaluationMode><comment><text>36.61831448067536</text><id>DFX:rectilinearity</id></comment><comment><text>de.gempa.tb1.Pick/20250415002618.307945.285175</text><id>RefPickID</id></comment></pick><origin publicID="de.gempa.tb1.Origin/20250415002628.867557.247236"><time><value>2025-04-15T00:26:07.978939Z</value><uncertainty>0.6039977669715881</uncertainty></time><latitude><value>50.24580764770508</value><uncertainty>3.847930908203125</uncertainty></latitude><longitude><value>12.46914291381836</value><uncertainty>4.565035820007324</uncertainty></longitude><depth><value>2.479417562484741</value><uncertainty>3.6303186416625977</uncertainty></depth><depthType>from location</depthType><methodID>LOCSAT</methodID><earthModelID>iasp91</earthModelID><quality><associatedPhaseCount>12</associatedPhaseCount><usedPhaseCount>12</usedPhaseCount><associatedStationCount>8</associatedStationCount><usedStationCount>8</usedStationCount><depthPhaseCount>0</depthPhaseCount><standardError>0.24929238208906815</standardError><azimuthalGap>194.10560321807861</azimuthalGap><maximumDistance>0.5084174871444702</maximumDistance><minimumDistance>0.07279718667268753</minimumDistance><medianDistance>0.17137515544891357</medianDistance></quality><uncertainty><minHorizontalUncertainty>5.916757583618164</minHorizontalUncertainty><maxHorizontalUncertainty>11.351178169250488</maxHorizontalUncertainty><azimuthMaxHorizontalUncertainty>126.4055404663086</azimuthMaxHorizontalUncertainty><preferredDescription>horizontal uncertainty</preferredDescription></uncertainty><evaluationMode>automatic</evaluationMode><evaluationStatus>confirmed</evaluationStatus><comment><text>0.00</text><id>mismatchScore</id></comment><comment><text>mismatchScore</text><id>scevalMethod</id></comment><arrival><pickID>de.gempa.tb1.Pick/20250415002617.487838.285171</pickID><phase>P</phase><azimuth>304.92724609375</azimuth><distance>0.07279718667268753</distance><timeResidual>0.5091507434844971</timeResidual><timeUsed>true</timeUsed><horizontalSlownessUsed>false</horizontalSlownessUsed><backazimuthUsed>false</backazimuthUsed><weight>1</weight></arrival><arrival><pickID>de.gempa.tb1.Pick/20250415002617.571826.285173</pickID><phase>P</phase><azimuth>263.1591491699219</azimuth><distance>0.09840495139360428</distance><timeResidual>0.2636754512786865</timeResidual><timeUsed>true</timeUsed><horizontalSlownessUsed>false</horizontalSlownessUsed><backazimuthUsed>false</backazimuthUsed><weight>1</weight></arrival><arrival><pickID>de.gempa.tb1.Pick/20250415002618.307945.285175</pickID><phase>P</phase><azimuth>345.90234375</azimuth><distance>0.17137515544891357</distance><timeResidual>-0.06768965721130371</timeResidual><timeUsed>true</timeUsed><horizontalSlownessUsed>false</horizontalSlownessUsed><backazimuthUsed>false</backazimuthUsed><weight>1</weight></arrival><arrival><pickID>de.gempa.tb1.Pick/20250415002619.848551.285177</pickID><phase>P</phase><azimuth>358.2386474609375</azimuth><distance>0.1694803088903427</distance><timeResidual>-0.05232334136962891</timeResidual><timeUsed>true</timeUsed><horizontalSlownessUsed>false</horizontalSlownessUsed><backazimuthUsed>false</backazimuthUsed><weight>1</weight></arrival><arrival><pickID>de.gempa.tb1.Pick/20250415002620.023228.285179</pickID><phase>P</phase><azimuth>5.426516532897949</azimuth><distance>0.36348390579223633</distance><timeResidual>-0.2522876262664795</timeResidual><timeUsed>true</timeUsed><horizontalSlownessUsed>false</horizontalSlownessUsed><backazimuthUsed>false</backazimuthUsed><weight>1</weight></arrival><arrival><pickID>de.gempa.tb1.Pick/20250415002620.350443.285181</pickID><phase>P</phase><azimuth>199.53211975097656</azimuth><distance>0.5084174871444702</distance><timeResidual>-0.05355525016784668</timeResidual><timeUsed>true</timeUsed><horizontalSlownessUsed>false</horizontalSlownessUsed><backazimuthUsed>false</backazimuthUsed><weight>1</weight></arrival><arrival><pickID>de.gempa.tb1.Pick/20250415002623.110872.285185</pickID><phase>P</phase><azimuth>323.238037109375</azimuth><distance>0.14718632400035858</distance><timeResidual>0.09360885620117188</timeResidual><timeUsed>true</timeUsed><horizontalSlownessUsed>false</horizontalSlownessUsed><backazimuthUsed>false</backazimuthUsed><weight>1</weight></arrival><arrival><pickID>de.gempa.tb1.Pick/20250415002623.115951.285189</pickID><phase>P</phase><azimuth>296.6531066894531</azimuth><distance>0.2380705624818802</distance><timeResidual>-0.3224208354949951</timeResidual><timeUsed>true</timeUsed><horizontalSlownessUsed>false</horizontalSlownessUsed><backazimuthUsed>false</backazimuthUsed><weight>1</weight></arrival><arrival><pickID>de.gempa.tb1.Pick/20250415002623.126524.285192</pickID><phase>S</phase><azimuth>323.238037109375</azimuth><distance>0.14718632400035858</distance><timeResidual>0.20586442947387695</timeResidual><timeUsed>true</timeUsed><horizontalSlownessUsed>false</horizontalSlownessUsed><backazimuthUsed>false</backazimuthUsed><weight>1</weight></arrival><arrival><pickID>de.gempa.tb1.Pick/20250415002623.445207.285195</pickID><phase>S</phase><azimuth>296.6531066894531</azimuth><distance>0.2380705624818802</distance><timeResidual>-0.4230830669403076</timeResidual><timeUsed>true</timeUsed><horizontalSlownessUsed>false</horizontalSlownessUsed><backazimuthUsed>false</backazimuthUsed><weight>1</weight></arrival><arrival><pickID>de.gempa.tb1.Pick/20250415002625.066605.285198</pickID><phase>S</phase><azimuth>358.2386474609375</azimuth><distance>0.1694803088903427</distance><timeResidual>0.09514260292053223</timeResidual><timeUsed>true</timeUsed><horizontalSlownessUsed>false</horizontalSlownessUsed><backazimuthUsed>false</backazimuthUsed><weight>1</weight></arrival><arrival><pickID>de.gempa.tb1.Pick/20250415002625.464769.285199</pickID><phase>S</phase><azimuth>345.90234375</azimuth><distance>0.17137515544891357</distance><timeResidual>0.003857135772705078</timeResidual><timeUsed>true</timeUsed><horizontalSlownessUsed>false</horizontalSlownessUsed><backazimuthUsed>false</backazimuthUsed><weight>1</weight></arrival><magnitude publicID="de.gempa.tb1.Magnitude/20250415002647.507103.555076"><magnitude><value>0.5509367270799519</value></magnitude><type>M</type><methodID>weighted average</methodID><stationCount>6</stationCount></magnitude></origin><event publicID="gempa2025hkdd"><preferredOriginID>de.gempa.tb1.Origin/20250415002628.867557.247236</preferredOriginID><preferredMagnitudeID>de.gempa.tb1.Magnitude/20250415002647.507103.555076</preferredMagnitudeID><description><text>Germany</text><type>region name</type></description><originReference>de.gempa.tb1.Origin/20250415002628.867557.247236</originReference></event></EventParameters></seiscomp>