<?xml version="1.0" encoding="UTF-8"?>
<seiscomp xmlns="http://geofon.gfz-potsdam.de/ns/seiscomp3-schema/0.13" version="0.13"><EventParameters><pick publicID="de.gempa.tb1.Pick/20250413221618.653557.134069"><time><value>2025-04-13T22:16:13.248393Z</value></time><waveformID networkCode="CX" stationCode="PB06" channelCode="HHZ"/><filterID>ITAPER(4)&gt;&gt;BW(4,4,20)</filterID><methodID>AIC</methodID><horizontalSlowness><value>6.439669849445557</value></horizontalSlowness><backazimuth><value>123.13111292414382</value></backazimuth><phaseHint>P</phaseHint><evaluationMode>automatic</evaluationMode><comment><text>133.80259936816174</text><id>DFX:rectilinearity</id></comment><comment><text>41.438455937932645</text><id>SNR</id></comment></pick><pick publicID="de.gempa.tb1.Pick/20250413221620.646594.134071"><time><value>2025-04-13T22:16:16.478393Z</value></time><waveformID networkCode="CX" stationCode="PB03" channelCode="HHZ"/><filterID>ITAPER(4)&gt;&gt;BW(4,4,20)</filterID><methodID>AIC</methodID><horizontalSlowness><value>5.332633056216738</value></horizontalSlowness><backazimuth><value>46.10184026963941</value></backazimuth><phaseHint>P</phaseHint><evaluationMode>automatic</evaluationMode><comment><text>71.74836127762089</text><id>DFX:rectilinearity</id></comment><comment><text>49.545695859007</text><id>SNR</id></comment></pick><pick publicID="de.gempa.tb1.Pick/20250413221621.309961.134073"><time><value>2025-04-13T22:16:12.11Z</value></time><waveformID networkCode="CX" stationCode="PB10" channelCode="HHZ"/><filterID>ITAPER(4)&gt;&gt;BW(4,4,20)</filterID><methodID>AIC</methodID><horizontalSlowness><value>22.979152687916315</value></horizontalSlowness><backazimuth><value>199.86336954398737</value></backazimuth><phaseHint>P</phaseHint><evaluationMode>automatic</evaluationMode><comment><text>97.18003491230785</text><id>DFX:rectilinearity</id></comment><comment><text>4.815464150432773</text><id>SNR</id></comment></pick><pick publicID="de.gempa.tb1.Pick/20250413221621.761702.134075"><time><value>2025-04-13T22:16:15.218393Z</value></time><waveformID networkCode="CX" stationCode="PB15" channelCode="HHZ"/><filterID>ITAPER(4)&gt;&gt;BW(4,4,20)</filterID><methodID>AIC</methodID><horizontalSlowness><value>22.29731809224923</value></horizontalSlowness><backazimuth><value>100.76782852182059</value></backazimuth><phaseHint>P</phaseHint><evaluationMode>automatic</evaluationMode><comment><text>1240.5100855334474</text><id>DFX:rectilinearity</id></comment><comment><text>36.4007351029412</text><id>SNR</id></comment></pick><pick publicID="de.gempa.tb1.Pick/20250413221626.534559.134077"><time><value>2025-04-13T22:16:21.88Z</value></time><waveformID networkCode="CX" stationCode="PB19" channelCode="HHZ"/><filterID>ITAPER(4)&gt;&gt;BW(4,4,20)</filterID><methodID>AIC</methodID><horizontalSlowness><value>6.648517368570195</value></horizontalSlowness><backazimuth><value>30.53593108604889</value></backazimuth><phaseHint>P</phaseHint><evaluationMode>automatic</evaluationMode><comment><text>775.0516121911355</text><id>DFX:rectilinearity</id></comment><comment><text>121.49463002794117</text><id>SNR</id></comment></pick><pick publicID="de.gempa.tb1.Pick/20250413221630.303973.134081"><time><value>2025-04-13T22:16:20.058396Z</value></time><waveformID networkCode="CX" stationCode="PB07" channelCode="HHZ"/><filterID>ITAPER(4)&gt;&gt;BW(4,4,20)</filterID><methodID>AIC</methodID><horizontalSlowness><value>15.59041107212355</value></horizontalSlowness><backazimuth><value>353.9139544711803</value></backazimuth><phaseHint>P</phaseHint><evaluationMode>automatic</evaluationMode><comment><text>668.4605939694534</text><id>DFX:rectilinearity</id></comment><comment><text>59.08510857122268</text><id>SNR</id></comment></pick><pick publicID="de.gempa.tb1.Pick/20250413221630.592335.134083"><time><value>2025-04-13T22:16:24.318393Z</value></time><waveformID networkCode="CX" stationCode="PB02" channelCode="HHZ"/><filterID>ITAPER(4)&gt;&gt;BW(4,4,20)</filterID><methodID>AIC</methodID><horizontalSlowness><value>18.863192385135132</value></horizontalSlowness><backazimuth><value>266.6980391230643</value></backazimuth><phaseHint>P</phaseHint><evaluationMode>automatic</evaluationMode><comment><text>73.79905671860291</text><id>DFX:rectilinearity</id></comment><comment><text>15.11074181839743</text><id>SNR</id></comment></pick><pick publicID="de.gempa.tb1.Pick/20250413221631.626271.134087"><time><value>2025-04-13T22:16:24.888393Z</value></time><waveformID networkCode="CX" stationCode="PB06" channelCode="HHN"/><filterID>ITAPER(2)&gt;&gt;BW(3,3,20)</filterID><methodID>L2-AIC-GRID</methodID><horizontalSlowness><value>21.928943594460439</value></horizontalSlowness><backazimuth><value>341.81385527806884</value></backazimuth><phaseHint>S</phaseHint><evaluationMode>automatic</evaluationMode><comment><text>5694.830983321492</text><id>DFX:rectilinearity</id></comment><comment><text>de.gempa.tb1.Pick/20250413221618.653557.134069</text><id>RefPickID</id></comment><comment><text>24.56217583472096</text><id>SNR</id></comment></pick><pick publicID="de.gempa.tb1.Pick/20250413221634.832248.134088"><time><value>2025-04-13T22:16:28.448393Z</value></time><waveformID networkCode="CX" stationCode="PB15" channelCode="HHN"/><filterID>ITAPER(2)&gt;&gt;BW(3,3,20)</filterID><methodID>L2-AIC-GRID</methodID><horizontalSlowness><value>23.402336457735164</value></horizontalSlowness><backazimuth><value>270.8021249656188</value></backazimuth><phaseHint>S</phaseHint><evaluationMode>automatic</evaluationMode><comment><text>281347.8174143128</text><id>DFX:rectilinearity</id></comment><comment><text>de.gempa.tb1.Pick/20250413221621.761702.134075</text><id>RefPickID</id></comment><comment><text>11.213804997243146</text><id>SNR</id></comment></pick><pick publicID="de.gempa.tb1.Pick/20250413221637.778306.134089"><time><value>2025-04-13T22:16:30.498393Z</value></time><waveformID networkCode="CX" stationCode="PB03" channelCode="HHN"/><filterID>ITAPER(2)&gt;&gt;BW(3,3,20)</filterID><methodID>L2-AIC-GRID</methodID><horizontalSlowness><value>23.509922661415093</value></horizontalSlowness><backazimuth><value>157.60137322490766</value></backazimuth><phaseHint>S</phaseHint><evaluationMode>automatic</evaluationMode><comment><text>472.6768737240708</text><id>DFX:rectilinearity</id></comment><comment><text>de.gempa.tb1.Pick/20250413221620.646594.134071</text><id>RefPickID</id></comment><comment><text>15.342301511497077</text><id>SNR</id></comment></pick><pick publicID="de.gempa.tb1.Pick/20250413221643.82824.134090"><time><value>2025-04-13T22:16:36.718396Z</value></time><waveformID networkCode="CX" stationCode="PB07" channelCode="HHN"/><filterID>ITAPER(2)&gt;&gt;BW(3,3,20)</filterID><methodID>L2-AIC-GRID</methodID><horizontalSlowness><value>23.576130323074207</value></horizontalSlowness><backazimuth><value>67.73529681137482</value></backazimuth><phaseHint>S</phaseHint><evaluationMode>automatic</evaluationMode><comment><text>31825.299578915594</text><id>DFX:rectilinearity</id></comment><comment><text>de.gempa.tb1.Pick/20250413221630.303973.134081</text><id>RefPickID</id></comment><comment><text>6.688886261402448</text><id>SNR</id></comment></pick><pick publicID="de.gempa.tb1.Pick/20250413221646.688399.134094"><time><value>2025-04-13T22:16:40.46Z</value></time><waveformID networkCode="CX" stationCode="PB19" channelCode="HHN"/><filterID>ITAPER(2)&gt;&gt;BW(3,3,20)</filterID><methodID>L2-AIC-GRID</methodID><horizontalSlowness><value>21.147810098274384</value></horizontalSlowness><backazimuth><value>22.496913408736305</value></backazimuth><phaseHint>S</phaseHint><evaluationMode>automatic</evaluationMode><comment><text>1930.629955026817</text><id>DFX:rectilinearity</id></comment><comment><text>de.gempa.tb1.Pick/20250413221626.534559.134077</text><id>RefPickID</id></comment><comment><text>5.456051474951245</text><id>SNR</id></comment></pick><pick publicID="de.gempa.tb1.Pick/20250413221649.21973.134096"><time><value>2025-04-13T22:16:24.54Z</value></time><waveformID networkCode="CX" stationCode="PB10" channelCode="HHN"/><filterID>ITAPER(2)&gt;&gt;BW(3,3,20)</filterID><methodID>L2-AIC-GRID</methodID><horizontalSlowness><value>7.41256676640424</value></horizontalSlowness><backazimuth><value>82.91704013723393</value></backazimuth><phaseHint>S</phaseHint><evaluationMode>automatic</evaluationMode><comment><text>144.89723772542598</text><id>DFX:rectilinearity</id></comment><comment><text>de.gempa.tb1.Pick/20250413221621.309961.134073</text><id>RefPickID</id></comment><comment><text>5.00466861985163</text><id>SNR</id></comment></pick><pick publicID="de.gempa.tb1.Pick/20250413221649.626642.134098"><time><value>2025-04-13T22:16:43.858393Z</value></time><waveformID networkCode="CX" stationCode="PB02" channelCode="HHN"/><filterID>ITAPER(2)&gt;&gt;BW(3,3,20)</filterID><methodID>L2-AIC-GRID</methodID><horizontalSlowness><value>5.588245681817223</value></horizontalSlowness><backazimuth><value>13.10045757740147</value></backazimuth><phaseHint>S</phaseHint><evaluationMode>automatic</evaluationMode><comment><text>1026.0717583650126</text><id>DFX:rectilinearity</id></comment><comment><text>de.gempa.tb1.Pick/20250413221630.592335.134083</text><id>RefPickID</id></comment><comment><text>7.648932563566614</text><id>SNR</id></comment></pick><pick publicID="de.gempa.tb1.Pick/20250413221652.514799.134099"><time><value>2025-04-13T22:16:43.97Z</value></time><waveformID networkCode="CX" stationCode="PSGCX" channelCode="HHZ"/><filterID>ITAPER(4)&gt;&gt;BW(4,4,20)</filterID><methodID>AIC</methodID><horizontalSlowness><value>17.109462857415206</value></horizontalSlowness><backazimuth><value>207.90645620908657</value></backazimuth><phaseHint>P</phaseHint><evaluationMode>automatic</evaluationMode><comment><text>25.167370986304157</text><id>DFX:rectilinearity</id></comment><comment><text>7.404937244943242</text><id>SNR</id></comment></pick><origin publicID="de.gempa.tb1.Origin/20250413221655.665273.120684"><time><value>2025-04-13T22:15:57.041175Z</value><uncertainty>0.6796991229057312</uncertainty></time><latitude><value>-22.86564254760742</value><uncertainty>2.325117349624634</uncertainty></latitude><longitude><value>-70.35951232910156</value><uncertainty>4.4052610397338867</uncertainty></longitude><depth><value>81.76525115966797</value><uncertainty>7.470897197723389</uncertainty></depth><depthType>from location</depthType><methodID>LOCSAT</methodID><earthModelID>iasp91_scanloc</earthModelID><quality><associatedPhaseCount>15</associatedPhaseCount><usedPhaseCount>15</usedPhaseCount><associatedStationCount>8</associatedStationCount><usedStationCount>8</usedStationCount><depthPhaseCount>0</depthPhaseCount><standardError>0.7656477598777771</standardError><azimuthalGap>168.44380331039429</azimuthalGap><maximumDistance>3.2597625255584717</maximumDistance><minimumDistance>0.6691776514053345</minimumDistance><medianDistance>0.9879869222640991</medianDistance></quality><uncertainty><minHorizontalUncertainty>4.966704845428467</minHorizontalUncertainty><maxHorizontalUncertainty>9.457638740539551</maxHorizontalUncertainty><azimuthMaxHorizontalUncertainty>93.14794158935547</azimuthMaxHorizontalUncertainty><preferredDescription>horizontal uncertainty</preferredDescription></uncertainty><evaluationMode>automatic</evaluationMode><evaluationStatus>confirmed</evaluationStatus><comment><text>0.19</text><id>mismatchScore</id></comment><comment><text>mismatchScore</text><id>scevalMethod</id></comment><arrival><pickID>de.gempa.tb1.Pick/20250413221618.653557.134069</pickID><phase>P</phase><azimuth>77.8064956665039</azimuth><distance>0.7441012263298035</distance><timeResidual>-0.07642364501953125</timeResidual><timeUsed>true</timeUsed><horizontalSlownessUsed>false</horizontalSlownessUsed><backazimuthUsed>false</backazimuthUsed><weight>1</weight></arrival><arrival><pickID>de.gempa.tb1.Pick/20250413221620.646594.134071</pickID><phase>P</phase><azimuth>34.71209716796875</azimuth><distance>0.9879869222640991</distance><timeResidual>0.4079475402832031</timeResidual><timeUsed>true</timeUsed><horizontalSlownessUsed>false</horizontalSlownessUsed><backazimuthUsed>false</backazimuthUsed><weight>1</weight></arrival><arrival><pickID>de.gempa.tb1.Pick/20250413221621.309961.134073</pickID><phase>P</phase><azimuth>195.47982788085938</azimuth><distance>0.6691776514053345</distance><timeResidual>-0.43601131439208984</timeResidual><timeUsed>true</timeUsed><horizontalSlownessUsed>false</horizontalSlownessUsed><backazimuthUsed>false</backazimuthUsed><weight>1</weight></arrival><arrival><pickID>de.gempa.tb1.Pick/20250413221621.761702.134075</pickID><phase>P</phase><azimuth>112.7938461303711</azimuth><distance>0.8867901563644409</distance><timeResidual>0.3261680603027344</timeResidual><timeUsed>true</timeUsed><horizontalSlownessUsed>false</horizontalSlownessUsed><backazimuthUsed>false</backazimuthUsed><weight>1</weight></arrival><arrival><pickID>de.gempa.tb1.Pick/20250413221626.534559.134077</pickID><phase>P</phase><azimuth>136.69427490234375</azimuth><distance>1.4263092279434204</distance><timeResidual>0.3970355987548828</timeResidual><timeUsed>true</timeUsed><horizontalSlownessUsed>false</horizontalSlownessUsed><backazimuthUsed>false</backazimuthUsed><weight>1</weight></arrival><arrival><pickID>de.gempa.tb1.Pick/20250413221630.303973.134081</pickID><phase>P</phase><azimuth>21.23264503479004</azimuth><distance>1.215334415435791</distance><timeResidual>1.2273988723754883</timeResidual><timeUsed>true</timeUsed><horizontalSlownessUsed>false</horizontalSlownessUsed><backazimuthUsed>false</backazimuthUsed><weight>1</weight></arrival><arrival><pickID>de.gempa.tb1.Pick/20250413221630.592335.134083</pickID><phase>P</phase><azimuth>15.698004722595215</azimuth><distance>1.5973873138427734</distance><timeResidual>0.6170482635498047</timeResidual><timeUsed>true</timeUsed><horizontalSlownessUsed>false</horizontalSlownessUsed><backazimuthUsed>false</backazimuthUsed><weight>1</weight></arrival><arrival><pickID>de.gempa.tb1.Pick/20250413221631.626271.134087</pickID><phase>S</phase><azimuth>77.8064956665039</azimuth><distance>0.7441012263298035</distance><timeResidual>-0.9159698486328125</timeResidual><timeUsed>true</timeUsed><horizontalSlownessUsed>false</horizontalSlownessUsed><backazimuthUsed>false</backazimuthUsed><weight>1</weight></arrival><arrival><pickID>de.gempa.tb1.Pick/20250413221634.832248.134088</pickID><phase>S</phase><azimuth>112.7938461303711</azimuth><distance>0.8867901563644409</distance><timeResidual>-0.15024185180664062</timeResidual><timeUsed>true</timeUsed><horizontalSlownessUsed>false</horizontalSlownessUsed><backazimuthUsed>false</backazimuthUsed><weight>1</weight></arrival><arrival><pickID>de.gempa.tb1.Pick/20250413221637.778306.134089</pickID><phase>S</phase><azimuth>34.71209716796875</azimuth><distance>0.9879869222640991</distance><timeResidual>-0.20238494873046875</timeResidual><timeUsed>true</timeUsed><horizontalSlownessUsed>false</horizontalSlownessUsed><backazimuthUsed>false</backazimuthUsed><weight>1</weight></arrival><arrival><pickID>de.gempa.tb1.Pick/20250413221643.82824.134090</pickID><phase>S</phase><azimuth>21.23264503479004</azimuth><distance>1.215334415435791</distance><timeResidual>1.0851573944091797</timeResidual><timeUsed>true</timeUsed><horizontalSlownessUsed>false</horizontalSlownessUsed><backazimuthUsed>false</backazimuthUsed><weight>1</weight></arrival><arrival><pickID>de.gempa.tb1.Pick/20250413221646.688399.134094</pickID><phase>S</phase><azimuth>136.69427490234375</azimuth><distance>1.4263092279434204</distance><timeResidual>0.07779884338378906</timeResidual><timeUsed>true</timeUsed><horizontalSlownessUsed>false</horizontalSlownessUsed><backazimuthUsed>false</backazimuthUsed><weight>1</weight></arrival><arrival><pickID>de.gempa.tb1.Pick/20250413221649.21973.134096</pickID><phase>S</phase><azimuth>195.47982788085938</azimuth><distance>0.6691776514053345</distance><timeResidual>0.1215190887451172</timeResidual><timeUsed>true</timeUsed><horizontalSlownessUsed>false</horizontalSlownessUsed><backazimuthUsed>false</backazimuthUsed><weight>1</weight></arrival><arrival><pickID>de.gempa.tb1.Pick/20250413221649.626642.134098</pickID><phase>S</phase><azimuth>15.698004722595215</azimuth><distance>1.5973873138427734</distance><timeResidual>-0.4964027404785156</timeResidual><timeUsed>true</timeUsed><horizontalSlownessUsed>false</horizontalSlownessUsed><backazimuthUsed>false</backazimuthUsed><weight>1</weight></arrival><arrival><pickID>de.gempa.tb1.Pick/20250413221652.514799.134099</pickID><phase>P</phase><azimuth>3.923631191253662</azimuth><distance>3.2597625255584717</distance><timeResidual>-1.9829940795898438</timeResidual><timeUsed>true</timeUsed><horizontalSlownessUsed>false</horizontalSlownessUsed><backazimuthUsed>false</backazimuthUsed><weight>1</weight></arrival><magnitude publicID="de.gempa.tb1.Magnitude/20250413221713.662607.407036"><magnitude><value>2.7680393614965575</value></magnitude><type>M</type><methodID>weighted average</methodID><stationCount>6</stationCount></magnitude></origin><event publicID="gempa2025hicu"><preferredOriginID>de.gempa.tb1.Origin/20250413221655.665273.120684</preferredOriginID><preferredMagnitudeID>de.gempa.tb1.Magnitude/20250413221713.662607.407036</preferredMagnitudeID><description><text>Near Coast of Northern Chile</text><type>region name</type></description><originReference>de.gempa.tb1.Origin/20250413221655.665273.120684</originReference></event></EventParameters></seiscomp>