<?xml version="1.0" encoding="UTF-8"?>
<seiscomp xmlns="http://geofon.gfz-potsdam.de/ns/seiscomp3-schema/0.13" version="0.13"><EventParameters><pick publicID="de.gempa.tb1.Pick/20250412233713.432516.127517"><time><value>2025-04-12T23:37:03.79Z</value></time><waveformID networkCode="CX" stationCode="PB09" channelCode="HHZ"/><filterID>ITAPER(4)&gt;&gt;BW(4,4,20)</filterID><methodID>AIC</methodID><horizontalSlowness><value>14.048618856140132</value></horizontalSlowness><backazimuth><value>163.27861235737711</value></backazimuth><phaseHint>P</phaseHint><evaluationMode>automatic</evaluationMode><comment><text>13.960116553273911</text><id>DFX:rectilinearity</id></comment><comment><text>8.639338135676255</text><id>SNR</id></comment></pick><pick publicID="de.gempa.tb1.Pick/20250412233716.649976.127520"><time><value>2025-04-12T23:37:09.898393Z</value></time><waveformID networkCode="CX" stationCode="PB01" channelCode="HHZ"/><filterID>ITAPER(4)&gt;&gt;BW(4,4,20)</filterID><methodID>AIC</methodID><horizontalSlowness><value>18.836179717410761</value></horizontalSlowness><backazimuth><value>348.6251306931609</value></backazimuth><phaseHint>P</phaseHint><evaluationMode>automatic</evaluationMode><comment><text>9.108784515504995</text><id>DFX:rectilinearity</id></comment><comment><text>4.575032532170161</text><id>SNR</id></comment></pick><pick publicID="de.gempa.tb1.Pick/20250412233719.52086.127524"><time><value>2025-04-12T23:37:07.778394Z</value></time><waveformID networkCode="CX" stationCode="PB07" channelCode="HHZ"/><filterID>ITAPER(4)&gt;&gt;BW(4,4,20)</filterID><methodID>AIC</methodID><horizontalSlowness><value>22.420436711958203</value></horizontalSlowness><backazimuth><value>261.69798722983103</value></backazimuth><phaseHint>P</phaseHint><evaluationMode>automatic</evaluationMode><comment><text>386.8906001402653</text><id>DFX:rectilinearity</id></comment><comment><text>12.929066970721172</text><id>SNR</id></comment></pick><pick publicID="de.gempa.tb1.Pick/20250412233726.783693.127529"><time><value>2025-04-12T23:37:20.938393Z</value></time><waveformID networkCode="CX" stationCode="PB03" channelCode="HHN"/><filterID>ITAPER(2)&gt;&gt;BW(3,3,20)</filterID><methodID>L2-AIC-GRID</methodID><horizontalSlowness><value>14.239639818032744</value></horizontalSlowness><backazimuth><value>242.4409977488345</value></backazimuth><phaseHint>S</phaseHint><evaluationMode>automatic</evaluationMode><comment><text>29.571967327319804</text><id>DFX:rectilinearity</id></comment><comment><text>de.gempa.tb1.Pick/20250412233711.522817.127513</text><id>RefPickID</id></comment><comment><text>10.614228432741818</text><id>SNR</id></comment></pick><pick publicID="de.gempa.tb1.Pick/20250412233727.631193.127530"><time><value>2025-04-12T23:37:20.868393Z</value></time><waveformID networkCode="CX" stationCode="PB06" channelCode="HHZ"/><filterID>ITAPER(4)&gt;&gt;BW(4,4,20)</filterID><methodID>AIC</methodID><horizontalSlowness><value>23.20359576490422</value></horizontalSlowness><backazimuth><value>151.92639972541815</value></backazimuth><phaseHint>P</phaseHint><evaluationMode>automatic</evaluationMode><comment><text>59.4101773126623</text><id>DFX:rectilinearity</id></comment><comment><text>6.208975464769388</text><id>SNR</id></comment></pick><pick publicID="de.gempa.tb1.Pick/20250412233735.619601.127534"><time><value>2025-04-12T23:37:27.958393Z</value></time><waveformID networkCode="CX" stationCode="PB15" channelCode="HHZ"/><filterID>ITAPER(4)&gt;&gt;BW(4,4,20)</filterID><methodID>AIC</methodID><horizontalSlowness><value>21.391331740502334</value></horizontalSlowness><backazimuth><value>122.16604840279174</value></backazimuth><phaseHint>P</phaseHint><evaluationMode>automatic</evaluationMode><comment><text>765.8384126702201</text><id>DFX:rectilinearity</id></comment><comment><text>10.652590799022741</text><id>SNR</id></comment></pick><pick publicID="de.gempa.tb1.Pick/20250412233745.57154.127540"><time><value>2025-04-12T23:37:39.56Z</value></time><waveformID networkCode="CX" stationCode="PB19" channelCode="HHZ"/><filterID>ITAPER(4)&gt;&gt;BW(4,4,20)</filterID><methodID>AIC</methodID><horizontalSlowness><value>13.382154942824352</value></horizontalSlowness><backazimuth><value>64.80470944202682</value></backazimuth><phaseHint>P</phaseHint><evaluationMode>automatic</evaluationMode><comment><text>21.090868397799714</text><id>DFX:rectilinearity</id></comment><comment><text>10.721593053454164</text><id>SNR</id></comment></pick><origin publicID="de.gempa.tb1.Origin/20250412233747.530329.95222"><time><value>2025-04-12T23:36:58.975884Z</value><uncertainty>0.6135133504867554</uncertainty></time><latitude><value>-21.555824279785156</value><uncertainty>3.195795774459839</uncertainty></latitude><longitude><value>-69.33702087402344</value><uncertainty>4.975149631500244</uncertainty></longitude><depth><value>1.5561944246292114</value><uncertainty>7.36628007888794</uncertainty></depth><depthType>from location</depthType><methodID>LOCSAT</methodID><earthModelID>iasp91_scanloc</earthModelID><quality><associatedPhaseCount>7</associatedPhaseCount><usedPhaseCount>7</usedPhaseCount><associatedStationCount>7</associatedStationCount><usedStationCount>7</usedStationCount><depthPhaseCount>0</depthPhaseCount><standardError>1.0029225381009232</standardError><azimuthalGap>175.13644409179688</azimuthalGap><maximumDistance>2.338282823562622</maximumDistance><minimumDistance>0.25520059466362</minimumDistance><medianDistance>0.6243862509727478</medianDistance></quality><uncertainty><minHorizontalUncertainty>6.789124965667725</minHorizontalUncertainty><maxHorizontalUncertainty>10.715254783630371</maxHorizontalUncertainty><azimuthMaxHorizontalUncertainty>96.60115051269531</azimuthMaxHorizontalUncertainty><preferredDescription>horizontal uncertainty</preferredDescription></uncertainty><evaluationMode>automatic</evaluationMode><evaluationStatus>confirmed</evaluationStatus><comment><text>0.30</text><id>mismatchScore</id></comment><comment><text>mismatchScore</text><id>scevalMethod</id></comment><arrival><pickID>de.gempa.tb1.Pick/20250412233713.432516.127517</pickID><phase>P</phase><azimuth>159.73709106445312</azimuth><distance>0.25520059466362</distance><timeResidual>-0.09228372573852539</timeResidual><timeUsed>true</timeUsed><horizontalSlownessUsed>false</horizontalSlownessUsed><backazimuthUsed>false</backazimuthUsed><weight>1</weight></arrival><arrival><pickID>de.gempa.tb1.Pick/20250412233716.649976.127520</pickID><phase>P</phase><azimuth>344.60064697265625</azimuth><distance>0.528985321521759</distance><timeResidual>0.770026683807373</timeResidual><timeUsed>true</timeUsed><horizontalSlownessUsed>false</horizontalSlownessUsed><backazimuthUsed>false</backazimuthUsed><weight>1</weight></arrival><arrival><pickID>de.gempa.tb1.Pick/20250412233719.52086.127524</pickID><phase>P</phase><azimuth>251.49415588378906</azimuth><distance>0.5384538173675537</distance><timeResidual>-1.530592441558838</timeResidual><timeUsed>true</timeUsed><horizontalSlownessUsed>false</horizontalSlownessUsed><backazimuthUsed>false</backazimuthUsed><weight>1</weight></arrival><arrival><pickID>de.gempa.tb1.Pick/20250412233726.783693.127529</pickID><phase>S</phase><azimuth>218.18707275390625</azimuth><distance>0.6243862509727478</distance><timeResidual>1.2831387519836426</timeResidual><timeUsed>true</timeUsed><horizontalSlownessUsed>false</horizontalSlownessUsed><backazimuthUsed>false</backazimuthUsed><weight>1</weight></arrival><arrival><pickID>de.gempa.tb1.Pick/20250412233727.631193.127530</pickID><phase>P</phase><azimuth>190.72938537597656</azimuth><distance>1.164975881576538</distance><timeResidual>-0.4519152641296387</timeResidual><timeUsed>true</timeUsed><horizontalSlownessUsed>false</horizontalSlownessUsed><backazimuthUsed>false</backazimuthUsed><weight>1</weight></arrival><arrival><pickID>de.gempa.tb1.Pick/20250412233735.619601.127534</pickID><phase>P</phase><azimuth>184.28408813476562</azimuth><distance>1.649294137954712</distance><timeResidual>-1.0488181114196777</timeResidual><timeUsed>true</timeUsed><horizontalSlownessUsed>false</horizontalSlownessUsed><backazimuthUsed>false</backazimuthUsed><weight>1</weight></arrival><arrival><pickID>de.gempa.tb1.Pick/20250412233745.57154.127540</pickID><phase>P</phase><azimuth>178.95973205566406</azimuth><distance>2.338282823562622</distance><timeResidual>1.0705666542053223</timeResidual><timeUsed>true</timeUsed><horizontalSlownessUsed>false</horizontalSlownessUsed><backazimuthUsed>false</backazimuthUsed><weight>1</weight></arrival><magnitude publicID="de.gempa.tb1.Magnitude/20250412233747.53648.292553"><magnitude><value>2.0486910815255026</value></magnitude><type>M</type><methodID>weighted average</methodID><stationCount>6</stationCount></magnitude></origin><event publicID="gempa2025hgjm"><preferredOriginID>de.gempa.tb1.Origin/20250412233747.530329.95222</preferredOriginID><preferredMagnitudeID>de.gempa.tb1.Magnitude/20250412233747.53648.292553</preferredMagnitudeID><description><text>Northern Chile</text><type>region name</type></description><originReference>de.gempa.tb1.Origin/20250412233747.530329.95222</originReference></event></EventParameters></seiscomp>