<?xml version="1.0" encoding="UTF-8"?>
<seiscomp xmlns="http://geofon.gfz-potsdam.de/ns/seiscomp3-schema/0.13" version="0.13"><EventParameters><pick publicID="de.gempa.tb1.Pick/20250412170209.773143.125391"><time><value>2025-04-12T17:02:03.048393Z</value></time><waveformID networkCode="CX" stationCode="PB01" channelCode="HHZ"/><filterID>ITAPER(4)&gt;&gt;BW(4,4,20)</filterID><methodID>AIC</methodID><horizontalSlowness><value>9.1235975875429</value></horizontalSlowness><backazimuth><value>29.656337063471113</value></backazimuth><phaseHint>P</phaseHint><evaluationMode>automatic</evaluationMode><comment><text>259.3098958298288</text><id>DFX:rectilinearity</id></comment><comment><text>418.47762445419193</text><id>SNR</id></comment></pick><pick publicID="de.gempa.tb1.Pick/20250412170209.84044.125393"><time><value>2025-04-12T17:02:03.348393Z</value></time><waveformID networkCode="CX" stationCode="PB08" channelCode="HHZ"/><filterID>ITAPER(4)&gt;&gt;BW(4,4,20)</filterID><methodID>AIC</methodID><horizontalSlowness><value>19.34733187688698</value></horizontalSlowness><backazimuth><value>77.1492649516539</value></backazimuth><phaseHint>P</phaseHint><evaluationMode>automatic</evaluationMode><comment><text>13.52289945560236</text><id>DFX:rectilinearity</id></comment><comment><text>15.42545584939482</text><id>SNR</id></comment></pick><pick publicID="de.gempa.tb1.Pick/20250412170213.245772.125395"><time><value>2025-04-12T17:02:07.739999Z</value></time><waveformID networkCode="CX" stationCode="PATCX" channelCode="HHZ"/><filterID>ITAPER(4)&gt;&gt;BW(4,4,20)</filterID><methodID>AIC</methodID><horizontalSlowness><value>20.30217333572043</value></horizontalSlowness><backazimuth><value>263.49691193044004</value></backazimuth><phaseHint>P</phaseHint><evaluationMode>automatic</evaluationMode><comment><text>335.43473382027486</text><id>DFX:rectilinearity</id></comment><comment><text>13.499528786650004</text><id>SNR</id></comment></pick><pick publicID="de.gempa.tb1.Pick/20250412170214.693125.125397"><time><value>2025-04-12T17:02:07.938394Z</value></time><waveformID networkCode="CX" stationCode="PB02" channelCode="HHZ"/><filterID>ITAPER(4)&gt;&gt;BW(4,4,20)</filterID><methodID>AIC</methodID><horizontalSlowness><value>7.858615258066023</value></horizontalSlowness><backazimuth><value>60.23421807874996</value></backazimuth><phaseHint>P</phaseHint><evaluationMode>automatic</evaluationMode><comment><text>136.06620055620289</text><id>DFX:rectilinearity</id></comment><comment><text>113.63769047334002</text><id>SNR</id></comment></pick><pick publicID="de.gempa.tb1.Pick/20250412170216.543257.125399"><time><value>2025-04-12T17:02:12.350001Z</value></time><waveformID networkCode="CX" stationCode="PSGCX" channelCode="HHZ"/><filterID>ITAPER(4)&gt;&gt;BW(4,4,20)</filterID><methodID>AIC</methodID><horizontalSlowness><value>16.812860236268726</value></horizontalSlowness><backazimuth><value>129.47290961670032</value></backazimuth><phaseHint>P</phaseHint><evaluationMode>automatic</evaluationMode><comment><text>13.822391708834639</text><id>DFX:rectilinearity</id></comment><comment><text>34.64104936654102</text><id>SNR</id></comment></pick><pick publicID="de.gempa.tb1.Pick/20250412170220.520933.125401"><time><value>2025-04-12T17:02:14.388393Z</value></time><waveformID networkCode="CX" stationCode="PB03" channelCode="HHZ"/><filterID>ITAPER(4)&gt;&gt;BW(4,4,20)</filterID><methodID>AIC</methodID><horizontalSlowness><value>22.56084203505324</value></horizontalSlowness><backazimuth><value>31.826552465760756</value></backazimuth><phaseHint>P</phaseHint><evaluationMode>automatic</evaluationMode><comment><text>7.525250683606784</text><id>DFX:rectilinearity</id></comment><comment><text>38.451466484982987</text><id>SNR</id></comment></pick><pick publicID="de.gempa.tb1.Pick/20250412170221.612949.125403"><time><value>2025-04-12T17:02:14.748393Z</value></time><waveformID networkCode="CX" stationCode="PB08" channelCode="HHN"/><filterID>ITAPER(2)&gt;&gt;BW(3,3,20)</filterID><methodID>L2-AIC-GRID</methodID><horizontalSlowness><value>14.793092441415707</value></horizontalSlowness><backazimuth><value>210.40893352885539</value></backazimuth><phaseHint>S</phaseHint><evaluationMode>automatic</evaluationMode><comment><text>264.872177915897</text><id>DFX:rectilinearity</id></comment><comment><text>de.gempa.tb1.Pick/20250412170209.84044.125393</text><id>RefPickID</id></comment><comment><text>11.32776640606309</text><id>SNR</id></comment></pick><pick publicID="de.gempa.tb1.Pick/20250412170222.017664.125404"><time><value>2025-04-12T17:02:10.17Z</value></time><waveformID networkCode="CX" stationCode="PB09" channelCode="HHZ"/><filterID>ITAPER(4)&gt;&gt;BW(4,4,20)</filterID><methodID>AIC</methodID><horizontalSlowness><value>16.378283752415967</value></horizontalSlowness><backazimuth><value>59.33690430767192</value></backazimuth><phaseHint>P</phaseHint><evaluationMode>automatic</evaluationMode><comment><text>64.29229128368158</text><id>DFX:rectilinearity</id></comment><comment><text>58.40192724006076</text><id>SNR</id></comment></pick><pick publicID="de.gempa.tb1.Pick/20250412170222.618911.125407"><time><value>2025-04-12T17:02:15.478393Z</value></time><waveformID networkCode="CX" stationCode="PB01" channelCode="HHN"/><filterID>ITAPER(2)&gt;&gt;BW(3,3,20)</filterID><methodID>L2-AIC-GRID</methodID><horizontalSlowness><value>23.05991732975523</value></horizontalSlowness><backazimuth><value>239.63424369267904</value></backazimuth><phaseHint>S</phaseHint><evaluationMode>automatic</evaluationMode><comment><text>863.2728662053187</text><id>DFX:rectilinearity</id></comment><comment><text>de.gempa.tb1.Pick/20250412170209.773143.125391</text><id>RefPickID</id></comment><comment><text>11.255552640526675</text><id>SNR</id></comment></pick><pick publicID="de.gempa.tb1.Pick/20250412170229.493331.125408"><time><value>2025-04-12T17:02:22.338393Z</value></time><waveformID networkCode="CX" stationCode="PB06" channelCode="HHZ"/><filterID>ITAPER(4)&gt;&gt;BW(4,4,20)</filterID><methodID>AIC</methodID><horizontalSlowness><value>23.50418213663337</value></horizontalSlowness><backazimuth><value>255.19336931735575</value></backazimuth><phaseHint>P</phaseHint><evaluationMode>automatic</evaluationMode><comment><text>33.06499714777012</text><id>DFX:rectilinearity</id></comment><comment><text>9.654340012161107</text><id>SNR</id></comment></pick><pick publicID="de.gempa.tb1.Pick/20250412170230.479028.125410"><time><value>2025-04-12T17:02:23.828394Z</value></time><waveformID networkCode="CX" stationCode="PB02" channelCode="HHN"/><filterID>ITAPER(2)&gt;&gt;BW(3,3,20)</filterID><methodID>L2-AIC-GRID</methodID><horizontalSlowness><value>20.96313638399186</value></horizontalSlowness><backazimuth><value>251.26479882460507</value></backazimuth><phaseHint>S</phaseHint><evaluationMode>automatic</evaluationMode><comment><text>4197.5826315597324</text><id>DFX:rectilinearity</id></comment><comment><text>de.gempa.tb1.Pick/20250412170214.693125.125397</text><id>RefPickID</id></comment><comment><text>7.378218249471447</text><id>SNR</id></comment></pick><pick publicID="de.gempa.tb1.Pick/20250412170231.96567.125411"><time><value>2025-04-12T17:02:26.248393Z</value></time><waveformID networkCode="CX" stationCode="PB16" channelCode="HHZ"/><filterID>ITAPER(4)&gt;&gt;BW(4,4,20)</filterID><methodID>AIC</methodID><horizontalSlowness><value>12.03967826867488</value></horizontalSlowness><backazimuth><value>273.83778731148686</value></backazimuth><phaseHint>P</phaseHint><evaluationMode>automatic</evaluationMode><comment><text>1.7504264751319076</text><id>DFX:rectilinearity</id></comment><comment><text>13.311956400393948</text><id>SNR</id></comment></pick><pick publicID="de.gempa.tb1.Pick/20250412170233.366537.125413"><time><value>2025-04-12T17:02:11.358393Z</value></time><waveformID networkCode="CX" stationCode="PB07" channelCode="HHZ"/><filterID>ITAPER(4)&gt;&gt;BW(4,4,20)</filterID><methodID>AIC</methodID><horizontalSlowness><value>22.47696391973201</value></horizontalSlowness><backazimuth><value>123.1171531346422</value></backazimuth><phaseHint>P</phaseHint><evaluationMode>automatic</evaluationMode><comment><text>226.5875921026174</text><id>DFX:rectilinearity</id></comment><comment><text>52.23830836993451</text><id>SNR</id></comment></pick><pick publicID="de.gempa.tb1.Pick/20250412170234.50921.125415"><time><value>2025-04-12T17:02:23.569999Z</value></time><waveformID networkCode="CX" stationCode="PATCX" channelCode="HHN"/><filterID>ITAPER(2)&gt;&gt;BW(3,3,20)</filterID><methodID>L2-AIC-GRID</methodID><horizontalSlowness><value>22.77046718679584</value></horizontalSlowness><backazimuth><value>343.16041915117415</value></backazimuth><phaseHint>S</phaseHint><evaluationMode>automatic</evaluationMode><comment><text>826.2177072441733</text><id>DFX:rectilinearity</id></comment><comment><text>de.gempa.tb1.Pick/20250412170213.245772.125395</text><id>RefPickID</id></comment><comment><text>8.919859293496637</text><id>SNR</id></comment></pick><pick publicID="de.gempa.tb1.Pick/20250412170239.742324.125418"><time><value>2025-04-12T17:02:31.200001Z</value></time><waveformID networkCode="CX" stationCode="PSGCX" channelCode="HHN"/><filterID>ITAPER(2)&gt;&gt;BW(3,3,20)</filterID><methodID>L2-AIC-GRID</methodID><horizontalSlowness><value>23.294100010804893</value></horizontalSlowness><backazimuth><value>72.70634396728589</value></backazimuth><phaseHint>S</phaseHint><evaluationMode>automatic</evaluationMode><comment><text>217.17582405363</text><id>DFX:rectilinearity</id></comment><comment><text>de.gempa.tb1.Pick/20250412170216.543257.125399</text><id>RefPickID</id></comment><comment><text>6.449494264519037</text><id>SNR</id></comment></pick><pick publicID="de.gempa.tb1.Pick/20250412170241.783633.125420"><time><value>2025-04-12T17:02:30.028393Z</value></time><waveformID networkCode="CX" stationCode="PB07" channelCode="HHN"/><filterID>ITAPER(2)&gt;&gt;BW(3,3,20)</filterID><methodID>L2-AIC-GRID</methodID><horizontalSlowness><value>20.761229053277258</value></horizontalSlowness><backazimuth><value>290.8387528560414</value></backazimuth><phaseHint>S</phaseHint><evaluationMode>automatic</evaluationMode><comment><text>4586.864145842929</text><id>DFX:rectilinearity</id></comment><comment><text>de.gempa.tb1.Pick/20250412170233.366537.125413</text><id>RefPickID</id></comment><comment><text>5.180934547111405</text><id>SNR</id></comment></pick><pick publicID="de.gempa.tb1.Pick/20250412170243.573918.125421"><time><value>2025-04-12T17:02:35.138393Z</value></time><waveformID networkCode="CX" stationCode="PB03" channelCode="HHN"/><filterID>ITAPER(2)&gt;&gt;BW(3,3,20)</filterID><methodID>L2-AIC-GRID</methodID><horizontalSlowness><value>13.695250759461612</value></horizontalSlowness><backazimuth><value>230.65879930817493</value></backazimuth><phaseHint>S</phaseHint><evaluationMode>automatic</evaluationMode><comment><text>62.42453519308396</text><id>DFX:rectilinearity</id></comment><comment><text>de.gempa.tb1.Pick/20250412170220.520933.125401</text><id>RefPickID</id></comment><comment><text>8.182005155138892</text><id>SNR</id></comment></pick><pick publicID="de.gempa.tb1.Pick/20250412170301.594886.125423"><time><value>2025-04-12T17:02:49.938393Z</value></time><waveformID networkCode="CX" stationCode="PB06" channelCode="HHN"/><filterID>ITAPER(2)&gt;&gt;BW(3,3,20)</filterID><methodID>L2-AIC-GRID</methodID><horizontalSlowness><value>21.261034872941583</value></horizontalSlowness><backazimuth><value>122.36407246309658</value></backazimuth><phaseHint>S</phaseHint><evaluationMode>automatic</evaluationMode><comment><text>104.5701432618321</text><id>DFX:rectilinearity</id></comment><comment><text>de.gempa.tb1.Pick/20250412170229.493331.125408</text><id>RefPickID</id></comment><comment><text>9.045253557115926</text><id>SNR</id></comment></pick><origin publicID="de.gempa.tb1.Origin/20250412170301.598271.87604"><time><value>2025-04-12T17:01:48.630729Z</value><uncertainty>0.5847517848014832</uncertainty></time><latitude><value>-20.61741065979004</value><uncertainty>2.200317144393921</uncertainty></latitude><longitude><value>-69.14971160888672</value><uncertainty>5.072510242462158</uncertainty></longitude><depth><value>91.82632446289062</value><uncertainty>5.610117435455322</uncertainty></depth><depthType>from location</depthType><methodID>LOCSAT</methodID><earthModelID>iasp91_scanloc</earthModelID><quality><associatedPhaseCount>18</associatedPhaseCount><usedPhaseCount>18</usedPhaseCount><associatedStationCount>10</associatedStationCount><usedStationCount>10</usedStationCount><depthPhaseCount>0</depthPhaseCount><standardError>0.5757830420232573</standardError><azimuthalGap>184.59683227539062</azimuthalGap><maximumDistance>2.2953789234161377</maximumDistance><minimumDistance>0.4738806486129761</minimumDistance><medianDistance>1.3002711534500122</medianDistance></quality><uncertainty><minHorizontalUncertainty>4.668490409851074</minHorizontalUncertainty><maxHorizontalUncertainty>10.896139144897461</maxHorizontalUncertainty><azimuthMaxHorizontalUncertainty>93.94277954101562</azimuthMaxHorizontalUncertainty><preferredDescription>horizontal uncertainty</preferredDescription></uncertainty><evaluationMode>automatic</evaluationMode><evaluationStatus>confirmed</evaluationStatus><comment><text>0.00</text><id>mismatchScore</id></comment><comment><text>mismatchScore</text><id>scevalMethod</id></comment><arrival><pickID>de.gempa.tb1.Pick/20250412170209.773143.125391</pickID><phase>P</phase><azimuth>216.64700317382812</azimuth><distance>0.5284760594367981</distance><timeResidual>-0.7432365417480469</timeResidual><timeUsed>true</timeUsed><horizontalSlownessUsed>false</horizontalSlownessUsed><backazimuthUsed>false</backazimuthUsed><weight>1</weight></arrival><arrival><pickID>de.gempa.tb1.Pick/20250412170209.84044.125393</pickID><phase>P</phase><azimuth>359.58135986328125</azimuth><distance>0.4738806486129761</distance><timeResidual>-0.02346229553222656</timeResidual><timeUsed>true</timeUsed><horizontalSlownessUsed>false</horizontalSlownessUsed><backazimuthUsed>false</backazimuthUsed><weight>1</weight></arrival><arrival><pickID>de.gempa.tb1.Pick/20250412170213.245772.125395</pickID><phase>P</phase><azimuth>257.66815185546875</azimuth><distance>0.9606082439422607</distance><timeResidual>-0.282501220703125</timeResidual><timeUsed>true</timeUsed><horizontalSlownessUsed>false</horizontalSlownessUsed><backazimuthUsed>false</backazimuthUsed><weight>1</weight></arrival><arrival><pickID>de.gempa.tb1.Pick/20250412170214.693125.125397</pickID><phase>P</phase><azimuth>224.81346130371094</azimuth><distance>0.9873291850090027</distance><timeResidual>-0.37974071502685547</timeResidual><timeUsed>true</timeUsed><horizontalSlownessUsed>false</horizontalSlownessUsed><backazimuthUsed>false</backazimuthUsed><weight>1</weight></arrival><arrival><pickID>de.gempa.tb1.Pick/20250412170216.543257.125399</pickID><phase>P</phase><azimuth>317.80731201171875</azimuth><distance>1.3663643598556519</distance><timeResidual>-0.4650821685791016</timeResidual><timeUsed>true</timeUsed><horizontalSlownessUsed>false</horizontalSlownessUsed><backazimuthUsed>false</backazimuthUsed><weight>1</weight></arrival><arrival><pickID>de.gempa.tb1.Pick/20250412170220.520933.125401</pickID><phase>P</phase><azimuth>201.44775390625</azimuth><distance>1.5310736894607544</distance><timeResidual>-0.4701604843139648</timeResidual><timeUsed>true</timeUsed><horizontalSlownessUsed>false</horizontalSlownessUsed><backazimuthUsed>false</backazimuthUsed><weight>1</weight></arrival><arrival><pickID>de.gempa.tb1.Pick/20250412170221.612949.125403</pickID><phase>S</phase><azimuth>359.58135986328125</azimuth><distance>0.4738806486129761</distance><timeResidual>0.07628440856933594</timeResidual><timeUsed>true</timeUsed><horizontalSlownessUsed>false</horizontalSlownessUsed><backazimuthUsed>false</backazimuthUsed><weight>1</weight></arrival><arrival><pickID>de.gempa.tb1.Pick/20250412170222.017664.125404</pickID><phase>P</phase><azimuth>184.17819213867188</azimuth><distance>1.176275372505188</distance><timeResidual>-0.33207225799560547</timeResidual><timeUsed>true</timeUsed><horizontalSlownessUsed>false</horizontalSlownessUsed><backazimuthUsed>false</backazimuthUsed><weight>1</weight></arrival><arrival><pickID>de.gempa.tb1.Pick/20250412170222.618911.125407</pickID><phase>S</phase><azimuth>216.64700317382812</azimuth><distance>0.5284760594367981</distance><timeResidual>0.0591421127319336</timeResidual><timeUsed>true</timeUsed><horizontalSlownessUsed>false</horizontalSlownessUsed><backazimuthUsed>false</backazimuthUsed><weight>1</weight></arrival><arrival><pickID>de.gempa.tb1.Pick/20250412170229.493331.125408</pickID><phase>P</phase><azimuth>190.62396240234375</azimuth><distance>2.1149616241455078</distance><timeResidual>-0.0653371810913086</timeResidual><timeUsed>true</timeUsed><horizontalSlownessUsed>false</horizontalSlownessUsed><backazimuthUsed>false</backazimuthUsed><weight>1</weight></arrival><arrival><pickID>de.gempa.tb1.Pick/20250412170230.479028.125410</pickID><phase>S</phase><azimuth>224.81346130371094</azimuth><distance>0.9873291850090027</distance><timeResidual>0.3446340560913086</timeResidual><timeUsed>true</timeUsed><horizontalSlownessUsed>false</horizontalSlownessUsed><backazimuthUsed>false</backazimuthUsed><weight>1</weight></arrival><arrival><pickID>de.gempa.tb1.Pick/20250412170231.96567.125411</pickID><phase>P</phase><azimuth>351.4793395996094</azimuth><distance>2.2953789234161377</distance><timeResidual>1.4441843032836914</timeResidual><timeUsed>true</timeUsed><horizontalSlownessUsed>false</horizontalSlownessUsed><backazimuthUsed>false</backazimuthUsed><weight>1</weight></arrival><arrival><pickID>de.gempa.tb1.Pick/20250412170233.366537.125413</pickID><phase>P</phase><azimuth>211.7807159423828</azimuth><distance>1.3002711534500122</distance><timeResidual>-0.636317253112793</timeResidual><timeUsed>true</timeUsed><horizontalSlownessUsed>false</horizontalSlownessUsed><backazimuthUsed>false</backazimuthUsed><weight>1</weight></arrival><arrival><pickID>de.gempa.tb1.Pick/20250412170234.50921.125415</pickID><phase>S</phase><azimuth>257.66815185546875</azimuth><distance>0.9606082439422607</distance><timeResidual>0.6143999099731445</timeResidual><timeUsed>true</timeUsed><horizontalSlownessUsed>false</horizontalSlownessUsed><backazimuthUsed>false</backazimuthUsed><weight>1</weight></arrival><arrival><pickID>de.gempa.tb1.Pick/20250412170239.742324.125418</pickID><phase>S</phase><azimuth>317.80731201171875</azimuth><distance>1.3663643598556519</distance><timeResidual>-0.3178243637084961</timeResidual><timeUsed>true</timeUsed><horizontalSlownessUsed>false</horizontalSlownessUsed><backazimuthUsed>false</backazimuthUsed><weight>1</weight></arrival><arrival><pickID>de.gempa.tb1.Pick/20250412170241.783633.125420</pickID><phase>S</phase><azimuth>211.7807159423828</azimuth><distance>1.3002711534500122</distance><timeResidual>-0.02426433563232422</timeResidual><timeUsed>true</timeUsed><horizontalSlownessUsed>false</horizontalSlownessUsed><backazimuthUsed>false</backazimuthUsed><weight>1</weight></arrival><arrival><pickID>de.gempa.tb1.Pick/20250412170243.573918.125421</pickID><phase>S</phase><azimuth>201.44775390625</azimuth><distance>1.5310736894607544</distance><timeResidual>-0.03961467742919922</timeResidual><timeUsed>true</timeUsed><horizontalSlownessUsed>false</horizontalSlownessUsed><backazimuthUsed>false</backazimuthUsed><weight>1</weight></arrival><arrival><pickID>de.gempa.tb1.Pick/20250412170301.594886.125423</pickID><phase>S</phase><azimuth>190.62396240234375</azimuth><distance>2.1149616241455078</distance><timeResidual>1.2406854629516602</timeResidual><timeUsed>true</timeUsed><horizontalSlownessUsed>false</horizontalSlownessUsed><backazimuthUsed>false</backazimuthUsed><weight>1</weight></arrival><magnitude publicID="de.gempa.tb1.Magnitude/20250412170301.611564.255541"><magnitude><value>2.5077912374599225</value></magnitude><type>M</type><methodID>weighted average</methodID><sta