<?xml version="1.0" encoding="UTF-8"?>
<seiscomp xmlns="http://geofon.gfz-potsdam.de/ns/seiscomp3-schema/0.13" version="0.13"><EventParameters><pick publicID="de.gempa.tb1.Pick/20250414013514.579079.134846"><time><value>2025-04-14T01:35:07.768393Z</value></time><waveformID networkCode="CX" stationCode="PB01" channelCode="HHZ"/><filterID>ITAPER(4)&gt;&gt;BW(4,4,20)</filterID><methodID>AIC</methodID><horizontalSlowness><value>22.935661332337627</value></horizontalSlowness><backazimuth><value>131.23214025572676</value></backazimuth><phaseHint>P</phaseHint><evaluationMode>automatic</evaluationMode><comment><text>8.418323529714639</text><id>DFX:rectilinearity</id></comment><comment><text>18.364880500414532</text><id>SNR</id></comment></pick><pick publicID="de.gempa.tb1.Pick/20250414013520.588931.134848"><time><value>2025-04-14T01:35:12.518393Z</value></time><waveformID networkCode="CX" stationCode="PB02" channelCode="HHZ"/><filterID>ITAPER(4)&gt;&gt;BW(4,4,20)</filterID><methodID>AIC</methodID><horizontalSlowness><value>6.121033420106943</value></horizontalSlowness><backazimuth><value>294.37245796889613</value></backazimuth><phaseHint>P</phaseHint><evaluationMode>automatic</evaluationMode><comment><text>49.94250784904293</text><id>DFX:rectilinearity</id></comment><comment><text>7.609225370165897</text><id>SNR</id></comment></pick><pick publicID="de.gempa.tb1.Pick/20250414013521.679851.134850"><time><value>2025-04-14T01:35:13.978394Z</value></time><waveformID networkCode="CX" stationCode="PB07" channelCode="HHZ"/><filterID>ITAPER(4)&gt;&gt;BW(4,4,20)</filterID><methodID>AIC</methodID><horizontalSlowness><value>22.712692665955526</value></horizontalSlowness><backazimuth><value>105.81641164007128</value></backazimuth><phaseHint>P</phaseHint><evaluationMode>automatic</evaluationMode><comment><text>155.72190864189918</text><id>DFX:rectilinearity</id></comment><comment><text>10.786051246094551</text><id>SNR</id></comment></pick><pick publicID="de.gempa.tb1.Pick/20250414013522.275685.134852"><time><value>2025-04-14T01:35:14.540001Z</value></time><waveformID networkCode="CX" stationCode="PATCX" channelCode="HHZ"/><filterID>ITAPER(4)&gt;&gt;BW(4,4,20)</filterID><methodID>AIC</methodID><horizontalSlowness><value>20.55004388008668</value></horizontalSlowness><backazimuth><value>118.89679792515932</value></backazimuth><phaseHint>P</phaseHint><evaluationMode>automatic</evaluationMode><comment><text>260.57304603179625</text><id>DFX:rectilinearity</id></comment><comment><text>14.131618624236745</text><id>SNR</id></comment></pick><pick publicID="de.gempa.tb1.Pick/20250414013522.535928.134854"><time><value>2025-04-14T01:35:11.35Z</value></time><waveformID networkCode="CX" stationCode="PB09" channelCode="HHZ"/><filterID>ITAPER(4)&gt;&gt;BW(4,4,20)</filterID><methodID>AIC</methodID><horizontalSlowness><value>13.035441509093303</value></horizontalSlowness><backazimuth><value>274.90403277181076</value></backazimuth><phaseHint>P</phaseHint><evaluationMode>automatic</evaluationMode><comment><text>11.467128566427292</text><id>DFX:rectilinearity</id></comment><comment><text>11.83329156341829</text><id>SNR</id></comment></pick><pick publicID="de.gempa.tb1.Pick/20250414013532.519266.134856"><time><value>2025-04-14T01:35:20.358393Z</value></time><waveformID networkCode="CX" stationCode="PB01" channelCode="HHN"/><filterID>ITAPER(2)&gt;&gt;BW(3,3,20)</filterID><methodID>L2-AIC-GRID</methodID><horizontalSlowness><value>22.401480259015521</value></horizontalSlowness><backazimuth><value>39.886527672323723</value></backazimuth><phaseHint>S</phaseHint><evaluationMode>automatic</evaluationMode><comment><text>23.97998227032899</text><id>DFX:rectilinearity</id></comment><comment><text>de.gempa.tb1.Pick/20250414013514.579079.134846</text><id>RefPickID</id></comment><comment><text>7.541872579587992</text><id>SNR</id></comment></pick><pick publicID="de.gempa.tb1.Pick/20250414013541.686783.134859"><time><value>2025-04-14T01:35:32.198394Z</value></time><waveformID networkCode="CX" stationCode="PB07" channelCode="HHN"/><filterID>ITAPER(2)&gt;&gt;BW(3,3,20)</filterID><methodID>L2-AIC-GRID</methodID><horizontalSlowness><value>23.28938150037461</value></horizontalSlowness><backazimuth><value>262.5566736288888</value></backazimuth><phaseHint>S</phaseHint><evaluationMode>automatic</evaluationMode><comment><text>420.551064097605</text><id>DFX:rectilinearity</id></comment><comment><text>de.gempa.tb1.Pick/20250414013521.679851.134850</text><id>RefPickID</id></comment><comment><text>5.633033080023463</text><id>SNR</id></comment></pick><pick publicID="de.gempa.tb1.Pick/20250414013544.345238.134860"><time><value>2025-04-14T01:35:33.250001Z</value></time><waveformID networkCode="CX" stationCode="PATCX" channelCode="HHN"/><filterID>ITAPER(2)&gt;&gt;BW(3,3,20)</filterID><methodID>L2-AIC-GRID</methodID><horizontalSlowness><value>22.80349911978267</value></horizontalSlowness><backazimuth><value>298.76303801072146</value></backazimuth><phaseHint>S</phaseHint><evaluationMode>automatic</evaluationMode><comment><text>154.52531226444879</text><id>DFX:rectilinearity</id></comment><comment><text>de.gempa.tb1.Pick/20250414013522.275685.134852</text><id>RefPickID</id></comment><comment><text>5.823696595472565</text><id>SNR</id></comment></pick><origin publicID="de.gempa.tb1.Origin/20250414013544.347934.123358"><time><value>2025-04-14T01:34:51.529896Z</value><uncertainty>1.2421752214431763</uncertainty></time><latitude><value>-20.977291107177734</value><uncertainty>8.077323913574219</uncertainty></latitude><longitude><value>-68.79811096191406</value><uncertainty>9.700314521789551</uncertainty></longitude><depth><value>94.52457427978516</value><uncertainty>12.37886142730713</uncertainty></depth><depthType>from location</depthType><methodID>LOCSAT</methodID><earthModelID>iasp91_scanloc</earthModelID><quality><associatedPhaseCount>8</associatedPhaseCount><usedPhaseCount>8</usedPhaseCount><associatedStationCount>5</associatedStationCount><usedStationCount>5</usedStationCount><depthPhaseCount>0</depthPhaseCount><standardError>0.40724129487222</standardError><azimuthalGap>290.05511474609375</azimuthalGap><maximumDistance>1.2762545347213745</maximumDistance><minimumDistance>0.6473445296287537</minimumDistance><medianDistance>1.2588798999786377</medianDistance></quality><uncertainty><minHorizontalUncertainty>15.471412658691406</minHorizontalUncertainty><maxHorizontalUncertainty>22.213010787963867</maxHorizontalUncertainty><azimuthMaxHorizontalUncertainty>60.74322891235352</azimuthMaxHorizontalUncertainty><preferredDescription>horizontal uncertainty</preferredDescription></uncertainty><evaluationMode>automatic</evaluationMode><evaluationStatus>confirmed</evaluationStatus><comment><text>0.12</text><id>mismatchScore</id></comment><comment><text>mismatchScore</text><id>scevalMethod</id></comment><arrival><pickID>de.gempa.tb1.Pick/20250414013514.579079.134846</pickID><phase>P</phase><azimuth>264.0601501464844</azimuth><distance>0.6473445296287537</distance><timeResidual>-0.1954059600830078</timeResidual><timeUsed>true</timeUsed><horizontalSlownessUsed>false</horizontalSlownessUsed><backazimuthUsed>false</backazimuthUsed><weight>1</weight></arrival><arrival><pickID>de.gempa.tb1.Pick/20250414013520.588931.134848</pickID><phase>P</phase><azimuth>251.41302490234375</azimuth><distance>1.0800148248672485</distance><timeResidual>0.066986083984375</timeResidual><timeUsed>true</timeUsed><horizontalSlownessUsed>false</horizontalSlownessUsed><backazimuthUsed>false</backazimuthUsed><weight>1</weight></arrival><arrival><pickID>de.gempa.tb1.Pick/20250414013521.679851.134850</pickID><phase>P</phase><azimuth>233.4814147949219</azimuth><distance>1.2588798999786377</distance><timeResidual>-0.5681495666503906</timeResidual><timeUsed>true</timeUsed><horizontalSlownessUsed>false</horizontalSlownessUsed><backazimuthUsed>false</backazimuthUsed><weight>1</weight></arrival><arrival><pickID>de.gempa.tb1.Pick/20250414013522.275685.134852</pickID><phase>P</phase><azimuth>276.7712707519531</azimuth><distance>1.2762545347213745</distance><timeResidual>-0.21911239624023438</timeResidual><timeUsed>true</timeUsed><horizontalSlownessUsed>false</horizontalSlownessUsed><backazimuthUsed>false</backazimuthUsed><weight>1</weight></arrival><arrival><pickID>de.gempa.tb1.Pick/20250414013522.535928.134854</pickID><phase>P</phase><azimuth>206.82638549804688</azimuth><distance>0.9139922261238098</distance><timeResidual>0.7437601089477539</timeResidual><timeUsed>true</timeUsed><horizontalSlownessUsed>false</horizontalSlownessUsed><backazimuthUsed>false</backazimuthUsed><weight>1</weight></arrival><arrival><pickID>de.gempa.tb1.Pick/20250414013532.519266.134856</pickID><phase>S</phase><azimuth>264.0601501464844</azimuth><distance>0.6473445296287537</distance><timeResidual>-0.2301673889160156</timeResidual><timeUsed>true</timeUsed><horizontalSlownessUsed>false</horizontalSlownessUsed><backazimuthUsed>false</backazimuthUsed><weight>1</weight></arrival><arrival><pickID>de.gempa.tb1.Pick/20250414013541.686783.134859</pickID><phase>S</phase><azimuth>233.4814147949219</azimuth><distance>1.2588798999786377</distance><timeResidual>-0.1351032257080078</timeResidual><timeUsed>true</timeUsed><horizontalSlownessUsed>false</horizontalSlownessUsed><backazimuthUsed>false</backazimuthUsed><weight>1</weight></arrival><arrival><pickID>de.gempa.tb1.Pick/20250414013544.345238.134860</pickID><phase>S</phase><azimuth>276.7712707519531</azimuth><distance>1.2762545347213745</distance><timeResidual>0.5374755859375</timeResidual><timeUsed>true</timeUsed><horizontalSlownessUsed>false</horizontalSlownessUsed><backazimuthUsed>false</backazimuthUsed><weight>1</weight></arrival><magnitude publicID="de.gempa.tb1.Magnitude/20250414013551.584399.416917"><magnitude><value>1.881130171817197</value></magnitude><type>M</type><methodID>weighted average</methodID><stationCount>1</stationCount></magnitude></origin><event publicID="gempa2025hijk"><preferredOriginID>de.gempa.tb1.Origin/20250414013544.347934.123358</preferredOriginID><preferredMagnitudeID>de.gempa.tb1.Magnitude/20250414013551.584399.416917</preferredMagnitudeID><description><text>Chile-Bolivia Border Region</text><type>region name</type></description><originReference>de.gempa.tb1.Origin/20250414013544.347934.123358</originReference></event></EventParameters></seiscomp>