<?xml version="1.0" encoding="UTF-8"?>
<seiscomp xmlns="http://geofon.gfz-potsdam.de/ns/seiscomp3-schema/0.13" version="0.13"><EventParameters><pick publicID="de.gempa.tb1.Pick/20250414111127.546727.137490"><time><value>2025-04-14T11:11:20.648393Z</value></time><waveformID networkCode="CX" stationCode="PB01" channelCode="HHZ"/><filterID>ITAPER(4)&gt;&gt;BW(4,4,20)</filterID><methodID>AIC</methodID><horizontalSlowness><value>10.567374734320795</value></horizontalSlowness><backazimuth><value>55.31240758265508</value></backazimuth><phaseHint>P</phaseHint><evaluationMode>automatic</evaluationMode><comment><text>9.002888693074606</text><id>DFX:rectilinearity</id></comment><comment><text>16.837050358745788</text><id>SNR</id></comment></pick><pick publicID="de.gempa.tb1.Pick/20250414111133.52909.137492"><time><value>2025-04-14T11:11:24.908393Z</value></time><waveformID networkCode="CX" stationCode="PB02" channelCode="HHZ"/><filterID>ITAPER(4)&gt;&gt;BW(4,4,20)</filterID><methodID>AIC</methodID><horizontalSlowness><value>5.496746274464836</value></horizontalSlowness><backazimuth><value>343.6483585144329</value></backazimuth><phaseHint>P</phaseHint><evaluationMode>automatic</evaluationMode><comment><text>16.413503959297003</text><id>DFX:rectilinearity</id></comment><comment><text>5.839719391372315</text><id>SNR</id></comment></pick><pick publicID="de.gempa.tb1.Pick/20250414111142.504195.137494"><time><value>2025-04-14T11:11:34.09Z</value></time><waveformID networkCode="CX" stationCode="PSGCX" channelCode="HHZ"/><filterID>ITAPER(4)&gt;&gt;BW(4,4,20)</filterID><methodID>AIC</methodID><horizontalSlowness><value>23.035513898442904</value></horizontalSlowness><backazimuth><value>79.62082249295598</value></backazimuth><phaseHint>P</phaseHint><evaluationMode>automatic</evaluationMode><comment><text>13.923939090663758</text><id>DFX:rectilinearity</id></comment><comment><text>14.48615173729996</text><id>SNR</id></comment></pick><pick publicID="de.gempa.tb1.Pick/20250414111143.033359.137496"><time><value>2025-04-14T11:11:25.888393Z</value></time><waveformID networkCode="CX" stationCode="PB07" channelCode="HHZ"/><filterID>ITAPER(4)&gt;&gt;BW(4,4,20)</filterID><methodID>AIC</methodID><horizontalSlowness><value>22.302538826891539</value></horizontalSlowness><backazimuth><value>186.2836202141184</value></backazimuth><phaseHint>P</phaseHint><evaluationMode>automatic</evaluationMode><comment><text>97.47001797538623</text><id>DFX:rectilinearity</id></comment><comment><text>8.716496159153655</text><id>SNR</id></comment></pick><pick publicID="de.gempa.tb1.Pick/20250414111147.588539.137498"><time><value>2025-04-14T11:11:38.058393Z</value></time><waveformID networkCode="CX" stationCode="PB01" channelCode="HHN"/><filterID>ITAPER(2)&gt;&gt;BW(3,3,20)</filterID><methodID>L2-AIC-GRID</methodID><horizontalSlowness><value>20.844938016873023</value></horizontalSlowness><backazimuth><value>296.4707922482952</value></backazimuth><phaseHint>S</phaseHint><evaluationMode>automatic</evaluationMode><comment><text>97.12698904864065</text><id>DFX:rectilinearity</id></comment><comment><text>de.gempa.tb1.Pick/20250414111127.546727.137490</text><id>RefPickID</id></comment><comment><text>8.250322874593861</text><id>SNR</id></comment></pick><pick publicID="de.gempa.tb1.Pick/20250414111151.62629.137499"><time><value>2025-04-14T11:11:44.298393Z</value></time><waveformID networkCode="CX" stationCode="PB02" channelCode="HHN"/><filterID>ITAPER(2)&gt;&gt;BW(3,3,20)</filterID><methodID>L2-AIC-GRID</methodID><horizontalSlowness><value>16.829318719934083</value></horizontalSlowness><backazimuth><value>351.7974158868477</value></backazimuth><phaseHint>S</phaseHint><evaluationMode>automatic</evaluationMode><comment><text>258.41324766027856</text><id>DFX:rectilinearity</id></comment><comment><text>de.gempa.tb1.Pick/20250414111133.52909.137492</text><id>RefPickID</id></comment><comment><text>9.414388843765561</text><id>SNR</id></comment></pick><origin publicID="de.gempa.tb1.Origin/20250414111152.537804.135570"><time><value>2025-04-14T11:10:59.038814Z</value><uncertainty>1.4541029930114746</uncertainty></time><latitude><value>-21.096378326416016</value><uncertainty>10.766613006591797</uncertainty></latitude><longitude><value>-68.60128784179688</value><uncertainty>22.05608367919922</uncertainty></longitude><depth><value>134.83570861816406</value><uncertainty>16.604421615600586</uncertainty></depth><depthType>from location</depthType><methodID>LOCSAT</methodID><earthModelID>iasp91_scanloc</earthModelID><quality><associatedPhaseCount>6</associatedPhaseCount><usedPhaseCount>6</usedPhaseCount><associatedStationCount>4</associatedStationCount><usedStationCount>4</usedStationCount><depthPhaseCount>0</depthPhaseCount><standardError>0.19234814218529075</standardError><azimuthalGap>286.13755798339844</azimuthalGap><maximumDistance>2.0648741722106934</maximumDistance><minimumDistance>0.8292667865753174</minimumDistance><medianDistance>1.2283731698989868</medianDistance></quality><uncertainty><minHorizontalUncertainty>22.43815040588379</minHorizontalUncertainty><maxHorizontalUncertainty>47.61408996582031</maxHorizontalUncertainty><azimuthMaxHorizontalUncertainty>97.45368194580078</azimuthMaxHorizontalUncertainty><preferredDescription>horizontal uncertainty</preferredDescription></uncertainty><evaluationMode>automatic</evaluationMode><comment><text>0.58</text><id>mismatchScore</id></comment><arrival><pickID>de.gempa.tb1.Pick/20250414111127.546727.137490</pickID><phase>P</phase><azimuth>273.4978942871094</azimuth><distance>0.8292667865753174</distance><timeResidual>-0.2891063690185547</timeResidual><timeUsed>true</timeUsed><horizontalSlownessUsed>false</horizontalSlownessUsed><backazimuthUsed>false</backazimuthUsed><weight>1</weight></arrival><arrival><pickID>de.gempa.tb1.Pick/20250414111133.52909.137492</pickID><phase>P</phase><azimuth>259.3439025878906</azimuth><distance>1.2283731698989868</distance><timeResidual>0.29306983947753906</timeResidual><timeUsed>true</timeUsed><horizontalSlownessUsed>false</horizontalSlownessUsed><backazimuthUsed>false</backazimuthUsed><weight>1</weight></arrival><arrival><pickID>de.gempa.tb1.Pick/20250414111142.504195.137494</pickID><phase>P</phase><azimuth>315.9827575683594</azimuth><distance>2.0648741722106934</distance><timeResidual>-0.000827789306640625</timeResidual><timeUsed>true</timeUsed><horizontalSlownessUsed>false</horizontalSlownessUsed><backazimuthUsed>false</backazimuthUsed><weight>1</weight></arrival><arrival><pickID>de.gempa.tb1.Pick/20250414111143.033359.137496</pickID><phase>P</phase><azimuth>242.1203155517578</azimuth><distance>1.3515918254852295</distance><timeResidual>-0.0029354095458984375</timeResidual><timeUsed>true</timeUsed><horizontalSlownessUsed>false</horizontalSlownessUsed><backazimuthUsed>false</backazimuthUsed><weight>1</weight></arrival><arrival><pickID>de.gempa.tb1.Pick/20250414111147.588539.137498</pickID><phase>S</phase><azimuth>273.4978942871094</azimuth><distance>0.8292667865753174</distance><timeResidual>0.1619396209716797</timeResidual><timeUsed>true</timeUsed><horizontalSlownessUsed>false</horizontalSlownessUsed><backazimuthUsed>false</backazimuthUsed><weight>1</weight></arrival><arrival><pickID>de.gempa.tb1.Pick/20250414111151.62629.137499</pickID><phase>S</phase><azimuth>259.3439025878906</azimuth><distance>1.2283731698989868</distance><timeResidual>-0.16211318969726562</timeResidual><timeUsed>true</timeUsed><horizontalSlownessUsed>false</horizontalSlownessUsed><backazimuthUsed>false</backazimuthUsed><weight>1</weight></arrival><magnitude publicID="de.gempa.tb1.Magnitude/20250414111157.555476.477290"><magnitude><value>2.0560206954624896</value></magnitude><type>M</type><methodID>weighted average</methodID><stationCount>2</stationCount></magnitude></origin><event publicID="gempa2025hjcq"><preferredOriginID>de.gempa.tb1.Origin/20250414111152.537804.135570</preferredOriginID><preferredMagnitudeID>de.gempa.tb1.Magnitude/20250414111157.555476.477290</preferredMagnitudeID><description><text>Chile-Bolivia Border Region</text><type>region name</type></description><originReference>de.gempa.tb1.Origin/20250414111152.537804.135570</originReference></event></EventParameters></seiscomp>