<?xml version="1.0" encoding="UTF-8"?>
<seiscomp xmlns="http://geofon.gfz-potsdam.de/ns/seiscomp3-schema/0.13" version="0.13"><EventParameters><pick publicID="de.gempa.tb1.Pick/20250414010720.778403.134712"><time><value>2025-04-14T01:07:15.398393Z</value></time><waveformID networkCode="CX" stationCode="PB01" channelCode="HHZ"/><filterID>ITAPER(4)&gt;&gt;BW(4,4,20)</filterID><methodID>AIC</methodID><horizontalSlowness><value>9.506337853656509</value></horizontalSlowness><backazimuth><value>105.77456188903022</value></backazimuth><phaseHint>P</phaseHint><evaluationMode>automatic</evaluationMode><comment><text>87.66606493924718</text><id>DFX:rectilinearity</id></comment><comment><text>219.84510426787307</text><id>SNR</id></comment></pick><pick publicID="de.gempa.tb1.Pick/20250414010722.860931.134714"><time><value>2025-04-14T01:07:16.678393Z</value></time><waveformID networkCode="CX" stationCode="PB03" channelCode="HHZ"/><filterID>ITAPER(4)&gt;&gt;BW(4,4,20)</filterID><methodID>AIC</methodID><horizontalSlowness><value>8.068552778967719</value></horizontalSlowness><backazimuth><value>67.90934108510794</value></backazimuth><phaseHint>P</phaseHint><evaluationMode>automatic</evaluationMode><comment><text>20.879987897942616</text><id>DFX:rectilinearity</id></comment><comment><text>29.890455193123124</text><id>SNR</id></comment></pick><pick publicID="de.gempa.tb1.Pick/20250414010724.665344.134716"><time><value>2025-04-14T01:07:18.018393Z</value></time><waveformID networkCode="CX" stationCode="PB02" channelCode="HHZ"/><filterID>ITAPER(4)&gt;&gt;BW(4,4,20)</filterID><methodID>AIC</methodID><horizontalSlowness><value>11.467647179283626</value></horizontalSlowness><backazimuth><value>291.6034598183934</value></backazimuth><phaseHint>P</phaseHint><evaluationMode>automatic</evaluationMode><comment><text>43.578127140342637</text><id>DFX:rectilinearity</id></comment><comment><text>109.1917548863984</text><id>SNR</id></comment></pick><pick publicID="de.gempa.tb1.Pick/20250414010725.58725.134718"><time><value>2025-04-14T01:07:19.678394Z</value></time><waveformID networkCode="CX" stationCode="PB06" channelCode="HHZ"/><filterID>ITAPER(4)&gt;&gt;BW(4,4,20)</filterID><methodID>AIC</methodID><horizontalSlowness><value>21.268788489526624</value></horizontalSlowness><backazimuth><value>332.88921357470304</value></backazimuth><phaseHint>P</phaseHint><evaluationMode>automatic</evaluationMode><comment><text>64.40025227670431</text><id>DFX:rectilinearity</id></comment><comment><text>9.85443092590928</text><id>SNR</id></comment></pick><pick publicID="de.gempa.tb1.Pick/20250414010727.895753.134722"><time><value>2025-04-14T01:07:12.13Z</value></time><waveformID networkCode="CX" stationCode="PB09" channelCode="HHZ"/><filterID>ITAPER(4)&gt;&gt;BW(4,4,20)</filterID><methodID>AIC</methodID><horizontalSlowness><value>17.263214758492357</value></horizontalSlowness><backazimuth><value>77.65829258505006</value></backazimuth><phaseHint>P</phaseHint><evaluationMode>automatic</evaluationMode><comment><text>78.20719128568211</text><id>DFX:rectilinearity</id></comment><comment><text>80.13545165420065</text><id>SNR</id></comment></pick><pick publicID="de.gempa.tb1.Pick/20250414010730.482119.134724"><time><value>2025-04-14T01:07:23.029999Z</value></time><waveformID networkCode="CX" stationCode="PATCX" channelCode="HHZ"/><filterID>ITAPER(4)&gt;&gt;BW(4,4,20)</filterID><methodID>AIC</methodID><horizontalSlowness><value>20.638337208901461</value></horizontalSlowness><backazimuth><value>62.11880600414565</value></backazimuth><phaseHint>P</phaseHint><evaluationMode>automatic</evaluationMode><comment><text>286.52446915332223</text><id>DFX:rectilinearity</id></comment><comment><text>24.778455356182445</text><id>SNR</id></comment></pick><pick publicID="de.gempa.tb1.Pick/20250414010738.699527.134726"><time><value>2025-04-14T01:07:32.94Z</value></time><waveformID networkCode="CX" stationCode="PSGCX" channelCode="HHZ"/><filterID>ITAPER(4)&gt;&gt;BW(4,4,20)</filterID><methodID>AIC</methodID><horizontalSlowness><value>16.321213069737997</value></horizontalSlowness><backazimuth><value>243.6118424555785</value></backazimuth><phaseHint>P</phaseHint><evaluationMode>automatic</evaluationMode><comment><text>23.96132565325696</text><id>DFX:rectilinearity</id></comment><comment><text>7.219658077449686</text><id>SNR</id></comment></pick><pick publicID="de.gempa.tb1.Pick/20250414010741.763059.134728"><time><value>2025-04-14T01:07:33.968393Z</value></time><waveformID networkCode="CX" stationCode="PB01" channelCode="HHN"/><filterID>ITAPER(2)&gt;&gt;BW(3,3,20)</filterID><methodID>L2-AIC-GRID</methodID><horizontalSlowness><value>22.187908708202414</value></horizontalSlowness><backazimuth><value>70.64122389907907</value></backazimuth><phaseHint>S</phaseHint><evaluationMode>automatic</evaluationMode><comment><text>945.0155244658581</text><id>DFX:rectilinearity</id></comment><comment><text>de.gempa.tb1.Pick/20250414010720.778403.134712</text><id>RefPickID</id></comment><comment><text>8.122686764656613</text><id>SNR</id></comment></pick><pick publicID="de.gempa.tb1.Pick/20250414010742.799444.134729"><time><value>2025-04-14T01:07:35.568393Z</value></time><waveformID networkCode="CX" stationCode="PB03" channelCode="HHN"/><filterID>ITAPER(2)&gt;&gt;BW(3,3,20)</filterID><methodID>L2-AIC-GRID</methodID><horizontalSlowness><value>22.433410871535127</value></horizontalSlowness><backazimuth><value>189.48951679797364</value></backazimuth><phaseHint>S</phaseHint><evaluationMode>automatic</evaluationMode><comment><text>845.5590891858282</text><id>DFX:rectilinearity</id></comment><comment><text>de.gempa.tb1.Pick/20250414010722.860931.134714</text><id>RefPickID</id></comment><comment><text>14.675483705227611</text><id>SNR</id></comment></pick><pick publicID="de.gempa.tb1.Pick/20250414010745.602937.134730"><time><value>2025-04-14T01:07:38.408393Z</value></time><waveformID networkCode="CX" stationCode="PB02" channelCode="HHN"/><filterID>ITAPER(2)&gt;&gt;BW(3,3,20)</filterID><methodID>L2-AIC-GRID</methodID><horizontalSlowness><value>13.747932743595257</value></horizontalSlowness><backazimuth><value>263.6085081537825</value></backazimuth><phaseHint>S</phaseHint><evaluationMode>automatic</evaluationMode><comment><text>5247.249197806411</text><id>DFX:rectilinearity</id></comment><comment><text>de.gempa.tb1.Pick/20250414010724.665344.134716</text><id>RefPickID</id></comment><comment><text>7.307758713640475</text><id>SNR</id></comment></pick><origin publicID="de.gempa.tb1.Origin/20250414010745.606104.122882"><time><value>2025-04-14T01:06:52.38588Z</value><uncertainty>0.9642104506492615</uncertainty></time><latitude><value>-21.66466522216797</value><uncertainty>5.664004802703857</uncertainty></latitude><longitude><value>-68.52499389648438</value><uncertainty>14.035259246826172</uncertainty></longitude><depth><value>124.57310485839844</value><uncertainty>14.95932960510254</uncertainty></depth><depthType>from location</depthType><methodID>LOCSAT</methodID><earthModelID>iasp91_scanloc</earthModelID><quality><associatedPhaseCount>10</associatedPhaseCount><usedPhaseCount>10</usedPhaseCount><associatedStationCount>7</associatedStationCount><usedStationCount>7</usedStationCount><depthPhaseCount>0</depthPhaseCount><standardError>0.24070801697664895</standardError><azimuthalGap>259.2498474121094</azimuthalGap><maximumDistance>2.5439321994781494</maximumDistance><minimumDistance>0.6793518662452698</minimumDistance><medianDistance>1.3221688270568848</medianDistance></quality><uncertainty><minHorizontalUncertainty>11.961193084716797</minHorizontalUncertainty><maxHorizontalUncertainty>30.16792869567871</maxHorizontalUncertainty><azimuthMaxHorizontalUncertainty>85.64356231689453</azimuthMaxHorizontalUncertainty><preferredDescription>horizontal uncertainty</preferredDescription></uncertainty><evaluationMode>automatic</evaluationMode><evaluationStatus>confirmed</evaluationStatus><comment><text>0.17</text><id>mismatchScore</id></comment><comment><text>mismatchScore</text><id>scevalMethod</id></comment><arrival><pickID>de.gempa.tb1.Pick/20250414010720.778403.134712</pickID><phase>P</phase><azimuth>304.40264892578125</azimuth><distance>1.089587926864624</distance><timeResidual>-0.33626365661621094</timeResidual><timeUsed>true</timeUsed><horizontalSlownessUsed>false</horizontalSlownessUsed><backazimuthUsed>false</backazimuthUsed><weight>1</weight></arrival><arrival><pickID>de.gempa.tb1.Pick/20250414010722.860931.134714</pickID><phase>P</phase><azimuth>251.26402282714844</azimuth><distance>1.2031108140945435</distance><timeResidual>-0.2143115997314453</timeResidual><timeUsed>true</timeUsed><horizontalSlownessUsed>false</horizontalSlownessUsed><backazimuthUsed>false</backazimuthUsed><weight>1</weight></arrival><arrival><pickID>de.gempa.tb1.Pick/20250414010724.665344.134716</pickID><phase>P</phase><azimuth>284.7960510253906</azimuth><distance>1.3221688270568848</distance><timeResidual>-0.15212631225585938</timeResidual><timeUsed>true</timeUsed><horizontalSlownessUsed>false</horizontalSlownessUsed><backazimuthUsed>false</backazimuthUsed><weight>1</weight></arrival><arrival><pickID>de.gempa.tb1.Pick/20250414010725.58725.134718</pickID><phase>P</phase><azimuth>222.9254150390625</azimuth><distance>1.4195151329040527</distance><timeResidual>0.4409656524658203</timeResidual><timeUsed>true</timeUsed><horizontalSlownessUsed>false</horizontalSlownessUsed><backazimuthUsed>false</backazimuthUsed><weight>1</weight></arrival><arrival><pickID>de.gempa.tb1.Pick/20250414010727.895753.134722</pickID><phase>P</phase><azimuth>258.7439880371094</azimuth><distance>0.6793518662452698</distance><timeResidual>0.04827499389648438</timeResidual><timeUsed>true</timeUsed><horizontalSlownessUsed>false</horizontalSlownessUsed><backazimuthUsed>false</backazimuthUsed><weight>1</weight></arrival><arrival><pickID>de.gempa.tb1.Pick/20250414010730.482119.134724</pickID><phase>P</phase><azimuth>298.6471862792969</azimuth><distance>1.7353131771087646</distance><timeResidual>0.12943458557128906</timeResidual><timeUsed>true</timeUsed><horizontalSlownessUsed>false</horizontalSlownessUsed><backazimuthUsed>false</backazimuthUsed><weight>1</weight></arrival><arrival><pickID>de.gempa.tb1.Pick/20250414010738.699527.134726</pickID><phase>P</phase><azimuth>323.6755676269531</azimuth><distance>2.5439321994781494</distance><timeResidual>-0.016132354736328125</timeResidual><timeUsed>true</timeUsed><horizontalSlownessUsed>false</horizontalSlownessUsed><backazimuthUsed>false</backazimuthUsed><weight>1</weight></arrival><arrival><pickID>de.gempa.tb1.Pick/20250414010741.763059.134728</pickID><phase>S</phase><azimuth>304.40264892578125</azimuth><distance>1.089587926864624</distance><timeResidual>0.1595001220703125</timeResidual><timeUsed>true</timeUsed><horizontalSlownessUsed>false</horizontalSlownessUsed><backazimuthUsed>false</backazimuthUsed><weight>1</weight></arrival><arrival><pickID>de.gempa.tb1.Pick/20250414010742.799444.134729</pickID><phase>S</phase><azimuth>251.26402282714844</azimuth><distance>1.2031108140945435</distance><timeResidual>-0.3091564178466797</timeResidual><timeUsed>true</timeUsed><horizontalSlownessUsed>false</horizontalSlownessUsed><backazimuthUsed>false</backazimuthUsed><weight>1</weight></arrival><arrival><pickID>de.gempa.tb1.Pick/20250414010745.602937.134730</pickID><phase>S</phase><azimuth>284.7960510253906</azimuth><distance>1.3221688270568848</distance><timeResidual>0.2498912811279297</timeResidual><timeUsed>true</timeUsed><horizontalSlownessUsed>false</horizontalSlownessUsed><backazimuthUsed>false</backazimuthUsed><weight>1</weight></arrival><magnitude publicID="de.gempa.tb1.Magnitude/20250414010746.977703.415351"><magnitude><value>2.557020811337788</value></magnitude><type>M</type><methodID>weighted average</methodID><stationCount>5</stationCount></magnitude></origin><event publicID="gempa2025hiil"><preferredOriginID>de.gempa.tb1.Origin/20250414010745.606104.122882</preferredOriginID><preferredMagnitudeID>de.gempa.tb1.Magnitude/20250414010746.977703.415351</preferredMagnitudeID><typeCertainty>suspected</typeCertainty><description><text>Chile-Bolivia Border Region</text><type>region name</type></description><originReference>de.gempa.tb1.Origin/20250414010745.606104.122882</originReference></event></EventParameters></seiscomp>