<?xml version="1.0" encoding="UTF-8"?>
<seiscomp xmlns="http://geofon.gfz-potsdam.de/ns/seiscomp3-schema/0.13" version="0.13"><EventParameters><pick publicID="de.gempa.tb1.Pick/20250413025324.609909.128383"><time><value>2025-04-13T02:53:19.588393Z</value></time><waveformID networkCode="CX" stationCode="PB03" channelCode="HHZ"/><filterID>ITAPER(4)&gt;&gt;BW(4,4,20)</filterID><methodID>AIC</methodID><horizontalSlowness><value>19.278525482302133</value></horizontalSlowness><backazimuth><value>73.02468524695389</value></backazimuth><phaseHint>P</phaseHint><evaluationMode>automatic</evaluationMode><comment><text>8.716514021649516</text><id>DFX:rectilinearity</id></comment><comment><text>17.403543621146145</text><id>SNR</id></comment></pick><pick publicID="de.gempa.tb1.Pick/20250413025326.570651.128385"><time><value>2025-04-13T02:53:18.458391Z</value></time><waveformID networkCode="CX" stationCode="PB01" channelCode="HHZ"/><filterID>ITAPER(4)&gt;&gt;BW(4,4,20)</filterID><methodID>AIC</methodID><horizontalSlowness><value>12.313782372719032</value></horizontalSlowness><backazimuth><value>249.64119789976533</value></backazimuth><phaseHint>P</phaseHint><evaluationMode>automatic</evaluationMode><comment><text>28.28761295140849</text><id>DFX:rectilinearity</id></comment><comment><text>34.788223068394494</text><id>SNR</id></comment></pick><pick publicID="de.gempa.tb1.Pick/20250413025327.486306.128387"><time><value>2025-04-13T02:53:21.158393Z</value></time><waveformID networkCode="CX" stationCode="PB02" channelCode="HHZ"/><filterID>ITAPER(4)&gt;&gt;BW(4,4,20)</filterID><methodID>AIC</methodID><horizontalSlowness><value>18.454909037725958</value></horizontalSlowness><backazimuth><value>66.63459177649992</value></backazimuth><phaseHint>P</phaseHint><evaluationMode>automatic</evaluationMode><comment><text>66.17947148397424</text><id>DFX:rectilinearity</id></comment><comment><text>97.72586923485376</text><id>SNR</id></comment></pick><pick publicID="de.gempa.tb1.Pick/20250413025328.78831.128389"><time><value>2025-04-13T02:53:15.11Z</value></time><waveformID networkCode="CX" stationCode="PB09" channelCode="HHZ"/><filterID>ITAPER(4)&gt;&gt;BW(4,4,20)</filterID><methodID>AIC</methodID><horizontalSlowness><value>12.640568401770576</value></horizontalSlowness><backazimuth><value>119.25416071258145</value></backazimuth><phaseHint>P</phaseHint><evaluationMode>automatic</evaluationMode><comment><text>12.74163319792614</text><id>DFX:rectilinearity</id></comment><comment><text>20.697922817178398</text><id>SNR</id></comment></pick><pick publicID="de.gempa.tb1.Pick/20250413025331.246408.128391"><time><value>2025-04-13T02:53:25.890001Z</value></time><waveformID networkCode="CX" stationCode="PATCX" channelCode="HHZ"/><filterID>ITAPER(4)&gt;&gt;BW(4,4,20)</filterID><methodID>AIC</methodID><horizontalSlowness><value>22.316987012756414</value></horizontalSlowness><backazimuth><value>246.109171178619</value></backazimuth><phaseHint>P</phaseHint><evaluationMode>automatic</evaluationMode><comment><text>236.575543986373</text><id>DFX:rectilinearity</id></comment><comment><text>6.50838579522946</text><id>SNR</id></comment></pick><pick publicID="de.gempa.tb1.Pick/20250413025344.785424.128393"><time><value>2025-04-13T02:53:37.328391Z</value></time><waveformID networkCode="CX" stationCode="PB01" channelCode="HHN"/><filterID>ITAPER(2)&gt;&gt;BW(3,3,20)</filterID><methodID>L2-AIC-GRID</methodID><horizontalSlowness><value>19.516703532261879</value></horizontalSlowness><backazimuth><value>349.57330238907116</value></backazimuth><phaseHint>S</phaseHint><evaluationMode>automatic</evaluationMode><comment><text>593.3499583062434</text><id>DFX:rectilinearity</id></comment><comment><text>de.gempa.tb1.Pick/20250413025326.570651.128385</text><id>RefPickID</id></comment><comment><text>12.470054403335286</text><id>SNR</id></comment></pick><pick publicID="de.gempa.tb1.Pick/20250413025350.593042.128396"><time><value>2025-04-13T02:53:39.238393Z</value></time><waveformID networkCode="CX" stationCode="PB03" channelCode="HHN"/><filterID>ITAPER(2)&gt;&gt;BW(3,3,20)</filterID><methodID>L2-AIC-GRID</methodID><horizontalSlowness><value>13.270726563054547</value></horizontalSlowness><backazimuth><value>170.93868864065317</value></backazimuth><phaseHint>S</phaseHint><evaluationMode>automatic</evaluationMode><comment><text>17.633975200320165</text><id>DFX:rectilinearity</id></comment><comment><text>de.gempa.tb1.Pick/20250413025324.609909.128383</text><id>RefPickID</id></comment><comment><text>8.163176594660912</text><id>SNR</id></comment></pick><pick publicID="de.gempa.tb1.Pick/20250413025352.474828.128397"><time><value>2025-04-13T02:53:41.918393Z</value></time><waveformID networkCode="CX" stationCode="PB02" channelCode="HHN"/><filterID>ITAPER(2)&gt;&gt;BW(3,3,20)</filterID><methodID>L2-AIC-GRID</methodID><horizontalSlowness><value>23.239606589532336</value></horizontalSlowness><backazimuth><value>51.89444805251819</value></backazimuth><phaseHint>S</phaseHint><evaluationMode>automatic</evaluationMode><comment><text>525.4594161361866</text><id>DFX:rectilinearity</id></comment><comment><text>de.gempa.tb1.Pick/20250413025327.486306.128387</text><id>RefPickID</id></comment><comment><text>6.525649170506327</text><id>SNR</id></comment></pick><pick publicID="de.gempa.tb1.Pick/20250413025358.467009.128399"><time><value>2025-04-13T02:53:49.840001Z</value></time><waveformID networkCode="CX" stationCode="PATCX" channelCode="HHN"/><filterID>ITAPER(2)&gt;&gt;BW(3,3,20)</filterID><methodID>L2-AIC-GRID</methodID><horizontalSlowness><value>19.262660718891269</value></horizontalSlowness><backazimuth><value>334.77841766405083</value></backazimuth><phaseHint>S</phaseHint><evaluationMode>automatic</evaluationMode><comment><text>389.13579458047866</text><id>DFX:rectilinearity</id></comment><comment><text>de.gempa.tb1.Pick/20250413025331.246408.128391</text><id>RefPickID</id></comment><comment><text>6.56451319463281</text><id>SNR</id></comment></pick><pick publicID="de.gempa.tb1.Pick/20250413025404.632875.128402"><time><value>2025-04-13T02:53:20.608394Z</value></time><waveformID networkCode="CX" stationCode="PB07" channelCode="HHZ"/><filterID>ITAPER(4)&gt;&gt;BW(4,4,20)</filterID><methodID>AIC</methodID><horizontalSlowness><value>20.93271482079897</value></horizontalSlowness><backazimuth><value>244.3304901040398</value></backazimuth><phaseHint>P</phaseHint><evaluationMode>automatic</evaluationMode><comment><text>264.17961273853047</text><id>DFX:rectilinearity</id></comment><comment><text>66.8044978977306</text><id>SNR</id></comment></pick><pick publicID="de.gempa.tb1.Pick/20250413025415.604528.128410"><time><value>2025-04-13T02:53:40.968394Z</value></time><waveformID networkCode="CX" stationCode="PB07" channelCode="HHN"/><filterID>ITAPER(2)&gt;&gt;BW(3,3,20)</filterID><methodID>L2-AIC-GRID</methodID><horizontalSlowness><value>20.782035216506173</value></horizontalSlowness><backazimuth><value>237.908495751644</value></backazimuth><phaseHint>S</phaseHint><evaluationMode>automatic</evaluationMode><comment><text>1995.8905886968566</text><id>DFX:rectilinearity</id></comment><comment><text>de.gempa.tb1.Pick/20250413025404.632875.128402</text><id>RefPickID</id></comment><comment><text>6.28423367587478</text><id>SNR</id></comment></pick><origin publicID="de.gempa.tb1.Origin/20250413025415.608031.98975"><time><value>2025-04-13T02:52:54.44466Z</value><uncertainty>1.0935496091842651</uncertainty></time><latitude><value>-21.66629981994629</value><uncertainty>6.76859188079834</uncertainty></latitude><longitude><value>-68.47700500488281</value><uncertainty>11.642004013061523</uncertainty></longitude><depth><value>129.85556030273438</value><uncertainty>15.120941162109375</uncertainty></depth><depthType>from location</depthType><methodID>LOCSAT</methodID><earthModelID>iasp91_scanloc</earthModelID><quality><associatedPhaseCount>11</associatedPhaseCount><usedPhaseCount>11</usedPhaseCount><associatedStationCount>6</associatedStationCount><usedStationCount>6</usedStationCount><depthPhaseCount>0</depthPhaseCount><standardError>0.1675898504767792</standardError><azimuthalGap>308.80535888671875</azimuthalGap><maximumDistance>1.7753832340240479</maximumDistance><minimumDistance>0.7228870391845703</minimumDistance><medianDistance>1.3119068145751953</medianDistance></quality><uncertainty><minHorizontalUncertainty>14.155648231506348</minHorizontalUncertainty><maxHorizontalUncertainty>25.16526222229004</maxHorizontalUncertainty><azimuthMaxHorizontalUncertainty>81.15921020507812</azimuthMaxHorizontalUncertainty><preferredDescription>horizontal uncertainty</preferredDescription></uncertainty><evaluationMode>automatic</evaluationMode><evaluationStatus>confirmed</evaluationStatus><comment><text>0.08</text><id>mismatchScore</id></comment><comment><text>mismatchScore</text><id>scevalMethod</id></comment><arrival><pickID>de.gempa.tb1.Pick/20250413025324.609909.128383</pickID><phase>P</phase><azimuth>251.9773864746094</azimuth><distance>1.244961142539978</distance><timeResidual>-0.2101593017578125</timeResidual><timeUsed>true</timeUsed><horizontalSlownessUsed>false</horizontalSlownessUsed><backazimuthUsed>false</backazimuthUsed><weight>1</weight></arrival><arrival><pickID>de.gempa.tb1.Pick/20250413025326.570651.128385</pickID><phase>P</phase><azimuth>303.1720275878906</azimuth><distance>1.1275947093963623</distance><timeResidual>-0.15070152282714844</timeResidual><timeUsed>true</timeUsed><horizontalSlownessUsed>false</horizontalSlownessUsed><backazimuthUsed>false</backazimuthUsed><weight>1</weight></arrival><arrival><pickID>de.gempa.tb1.Pick/20250413025327.486306.128387</pickID><phase>P</phase><azimuth>284.3665466308594</azimuth><distance>1.365780234336853</distance><timeResidual>0.07151412963867188</timeResidual><timeUsed>true</timeUsed><horizontalSlownessUsed>false</horizontalSlownessUsed><backazimuthUsed>false</backazimuthUsed><weight>1</weight></arrival><arrival><pickID>de.gempa.tb1.Pick/20250413025328.78831.128389</pickID><phase>P</phase><azimuth>259.5439453125</azimuth><distance>0.7228870391845703</distance><timeResidual>0.10083198547363281</timeResidual><timeUsed>true</timeUsed><horizontalSlownessUsed>false</horizontalSlownessUsed><backazimuthUsed>false</backazimuthUsed><weight>1</weight></arrival><arrival><pickID>de.gempa.tb1.Pick/20250413025331.246408.128391</pickID><phase>P</phase><azimuth>297.9853820800781</azimuth><distance>1.7753832340240479</distance><timeResidual>0.14685630798339844</timeResidual><timeUsed>true</timeUsed><horizontalSlownessUsed>false</horizontalSlownessUsed><backazimuthUsed>false</backazimuthUsed><weight>1</weight></arrival><arrival><pickID>de.gempa.tb1.Pick/20250413025344.785424.128393</pickID><phase>S</phase><azimuth>303.1720275878906</azimuth><distance>1.1275947093963623</distance><timeResidual>-0.0052032470703125</timeResidual><timeUsed>true</timeUsed><horizontalSlownessUsed>false</horizontalSlownessUsed><backazimuthUsed>false</backazimuthUsed><weight>1</weight></arrival><arrival><pickID>de.gempa.tb1.Pick/20250413025350.593042.128396</pickID><phase>S</phase><azimuth>251.9773864746094</azimuth><distance>1.244961142539978</distance><timeResidual>-0.21973228454589844</timeResidual><timeUsed>true</timeUsed><horizontalSlownessUsed>false</horizontalSlownessUsed><backazimuthUsed>false</backazimuthUsed><weight>1</weight></arrival><arrival><pickID>de.gempa.tb1.Pick/20250413025352.474828.128397</pickID><phase>S</phase><azimuth>284.3665466308594</azimuth><distance>1.365780234336853</distance><timeResidual>0.15982627868652344</timeResidual><timeUsed>true</timeUsed><horizontalSlownessUsed>false</horizontalSlownessUsed><backazimuthUsed>false</backazimuthUsed><weight>1</weight></arrival><arrival><pickID>de.gempa.tb1.Pick/20250413025358.467009.128399</pickID><phase>S</phase><azimuth>297.9853820800781</azimuth><distance>1.7753832340240479</distance><timeResidual>-0.2438621520996094</timeResidual><timeUsed>true</timeUsed><horizontalSlownessUsed>false</horizontalSlownessUsed><backazimuthUsed>false</backazimuthUsed><weight>1</weight></arrival><arrival><pickID>de.gempa.tb1.Pick/20250413025404.632875.128402</pickID><phase>P</phase><azimuth>267.1165466308594</azimuth><distance>1.3119068145751953</distance><timeResidual>0.1026763916015625</timeResidual><timeUsed>true</timeUsed><horizontalSlownessUsed>false</horizontalSlownessUsed><backazimuthUsed>false</backazimuthUsed><weight>1</weight></arrival><arrival><pickID>de.gempa.tb1.Pick/20250413025415.604528.128410</pickID><phase>S</phase><azimuth>267.1165466308594</azimuth><distance>1.3119068145751953</distance><timeResidual>0.2477073669433594</timeResidual><timeUsed>true</timeUsed><horizontalSlownessUsed>false</horizontalSlownessUsed><backazimuthUsed>false</backazimuthUsed><weight>1</weight></arrival><magnitude publicID="de.gempa.tb1.Magnitude/20250413025425.938317.305109"><magnitude><value>3.122320261298474</value></magnitude><type>M</type><methodID>weighted average</methodID><stationCount>6</stationCount></magnitude></origin><event publicID="gempa2025hgpz"><preferredOriginID>de.gempa.tb1.Origin/20250413025415.608031.98975</preferredOriginID><preferredMagnitudeID>de.gempa.tb1.Magnitude/20250413025425.938317.305109</preferredMagnitudeID><description><text>Chile-Bolivia Border Region</text><type>region name</type></description><originReference>de.gempa.tb1.Origin/20250413025415.608031.98975</originReference></event></EventParameters></seiscomp>