<?xml version="1.0" encoding="UTF-8"?>
<seiscomp xmlns="http://geofon.gfz-potsdam.de/ns/seiscomp3-schema/0.13" version="0.13"><EventParameters><pick publicID="de.gempa.tb1.Pick/20250414181540.507129.140074"><time><value>2025-04-14T18:15:36.168393Z</value></time><waveformID networkCode="CX" stationCode="PB03" channelCode="HHZ"/><filterID>ITAPER(4)&gt;&gt;BW(4,4,20)</filterID><methodID>AIC</methodID><horizontalSlowness><value>6.196728673012732</value></horizontalSlowness><backazimuth><value>94.18170510991537</value></backazimuth><phaseHint>P</phaseHint><evaluationMode>automatic</evaluationMode><comment><text>41.123069297041567</text><id>DFX:rectilinearity</id></comment><comment><text>38.11774570770128</text><id>SNR</id></comment></pick><pick publicID="de.gempa.tb1.Pick/20250414181542.578649.140076"><time><value>2025-04-14T18:15:36.198393Z</value></time><waveformID networkCode="CX" stationCode="PB01" channelCode="HHZ"/><filterID>ITAPER(4)&gt;&gt;BW(4,4,20)</filterID><methodID>AIC</methodID><horizontalSlowness><value>18.3994685667883</value></horizontalSlowness><backazimuth><value>129.757305125541</value></backazimuth><phaseHint>P</phaseHint><evaluationMode>automatic</evaluationMode><comment><text>11.241453328221553</text><id>DFX:rectilinearity</id></comment><comment><text>8.366901507197506</text><id>SNR</id></comment></pick><pick publicID="de.gempa.tb1.Pick/20250414181544.579733.140078"><time><value>2025-04-14T18:15:38.588394Z</value></time><waveformID networkCode="CX" stationCode="PB02" channelCode="HHZ"/><filterID>ITAPER(4)&gt;&gt;BW(4,4,20)</filterID><methodID>AIC</methodID><horizontalSlowness><value>3.9355993943210446</value></horizontalSlowness><backazimuth><value>33.58717373938353</value></backazimuth><phaseHint>P</phaseHint><evaluationMode>automatic</evaluationMode><comment><text>15.028648599830596</text><id>DFX:rectilinearity</id></comment><comment><text>14.691579587336177</text><id>SNR</id></comment></pick><pick publicID="de.gempa.tb1.Pick/20250414181544.988803.140080"><time><value>2025-04-14T18:15:38.548394Z</value></time><waveformID networkCode="CX" stationCode="PB15" channelCode="HHZ"/><filterID>ITAPER(4)&gt;&gt;BW(4,4,20)</filterID><methodID>AIC</methodID><horizontalSlowness><value>22.142840573652023</value></horizontalSlowness><backazimuth><value>133.7020679580736</value></backazimuth><phaseHint>P</phaseHint><evaluationMode>automatic</evaluationMode><comment><text>192.36869100163216</text><id>DFX:rectilinearity</id></comment><comment><text>12.552593573175134</text><id>SNR</id></comment></pick><pick publicID="de.gempa.tb1.Pick/20250414181545.577497.140082"><time><value>2025-04-14T18:15:36.808393Z</value></time><waveformID networkCode="CX" stationCode="PB06" channelCode="HHZ"/><filterID>ITAPER(4)&gt;&gt;BW(4,4,20)</filterID><methodID>AIC</methodID><horizontalSlowness><value>9.518788927127265</value></horizontalSlowness><backazimuth><value>156.90828127063554</value></backazimuth><phaseHint>P</phaseHint><evaluationMode>automatic</evaluationMode><comment><text>28.74234600424275</text><id>DFX:rectilinearity</id></comment><comment><text>17.015443045631528</text><id>SNR</id></comment></pick><pick publicID="de.gempa.tb1.Pick/20250414181548.152463.140085"><time><value>2025-04-14T18:15:33.03Z</value></time><waveformID networkCode="CX" stationCode="PB09" channelCode="HHZ"/><filterID>ITAPER(4)&gt;&gt;BW(4,4,20)</filterID><methodID>AIC</methodID><horizontalSlowness><value>18.325879636990464</value></horizontalSlowness><backazimuth><value>243.1118151945336</value></backazimuth><phaseHint>P</phaseHint><evaluationMode>automatic</evaluationMode><comment><text>6.252743517365271</text><id>DFX:rectilinearity</id></comment><comment><text>49.53890129477408</text><id>SNR</id></comment></pick><pick publicID="de.gempa.tb1.Pick/20250414181556.176323.140089"><time><value>2025-04-14T18:15:48.5Z</value></time><waveformID networkCode="CX" stationCode="PB10" channelCode="HHZ"/><filterID>ITAPER(4)&gt;&gt;BW(4,4,20)</filterID><methodID>AIC</methodID><horizontalSlowness><value>18.245435961308033</value></horizontalSlowness><backazimuth><value>95.35279574767026</value></backazimuth><phaseHint>P</phaseHint><evaluationMode>automatic</evaluationMode><comment><text>111.17442867846482</text><id>DFX:rectilinearity</id></comment><comment><text>23.686719506370114</text><id>SNR</id></comment></pick><pick publicID="de.gempa.tb1.Pick/20250414181556.766789.140091"><time><value>2025-04-14T18:15:50.48Z</value></time><waveformID networkCode="CX" stationCode="PSGCX" channelCode="HHZ"/><filterID>ITAPER(4)&gt;&gt;BW(4,4,20)</filterID><methodID>AIC</methodID><horizontalSlowness><value>16.854677546597774</value></horizontalSlowness><backazimuth><value>108.2152402383123</value></backazimuth><phaseHint>P</phaseHint><evaluationMode>automatic</evaluationMode><comment><text>16.083505171987287</text><id>DFX:rectilinearity</id></comment><comment><text>27.80303421177835</text><id>SNR</id></comment></pick><pick publicID="de.gempa.tb1.Pick/20250414181611.273257.140093"><time><value>2025-04-14T18:15:37.798393Z</value></time><waveformID networkCode="CX" stationCode="PB07" channelCode="HHZ"/><filterID>ITAPER(4)&gt;&gt;BW(4,4,20)</filterID><methodID>AIC</methodID><horizontalSlowness><value>18.161926014953416</value></horizontalSlowness><backazimuth><value>108.35630258827783</value></backazimuth><phaseHint>P</phaseHint><evaluationMode>automatic</evaluationMode><comment><text>205.10908250379129</text><id>DFX:rectilinearity</id></comment><comment><text>63.25211512767313</text><id>SNR</id></comment></pick><pick publicID="de.gempa.tb1.Pick/20250414181614.565511.140095"><time><value>2025-04-14T18:16:08.168393Z</value></time><waveformID networkCode="CX" stationCode="PB03" channelCode="HHN"/><filterID>ITAPER(2)&gt;&gt;BW(3,3,20)</filterID><methodID>L2-AIC-GRID</methodID><horizontalSlowness><value>15.546049637212395</value></horizontalSlowness><backazimuth><value>241.5249208661459</value></backazimuth><phaseHint>S</phaseHint><evaluationMode>automatic</evaluationMode><comment><text>103.0195783933149</text><id>DFX:rectilinearity</id></comment><comment><text>de.gempa.tb1.Pick/20250414181540.507129.140074</text><id>RefPickID</id></comment><comment><text>8.051735306813432</text><id>SNR</id></comment></pick><pick publicID="de.gempa.tb1.Pick/20250414181615.673271.140098"><time><value>2025-04-14T18:16:07.928393Z</value></time><waveformID networkCode="CX" stationCode="PB01" channelCode="HHN"/><filterID>ITAPER(2)&gt;&gt;BW(3,3,20)</filterID><methodID>L2-AIC-GRID</methodID><horizontalSlowness><value>21.947179322518842</value></horizontalSlowness><backazimuth><value>8.156060687847969</value></backazimuth><phaseHint>S</phaseHint><evaluationMode>automatic</evaluationMode><comment><text>6027.977293442505</text><id>DFX:rectilinearity</id></comment><comment><text>de.gempa.tb1.Pick/20250414181542.578649.140076</text><id>RefPickID</id></comment><comment><text>19.61842825229919</text><id>SNR</id></comment></pick><pick publicID="de.gempa.tb1.Pick/20250414181620.548959.140103"><time><value>2025-04-14T18:16:12.278394Z</value></time><waveformID networkCode="CX" stationCode="PB02" channelCode="HHN"/><filterID>ITAPER(2)&gt;&gt;BW(3,3,20)</filterID><methodID>L2-AIC-GRID</methodID><horizontalSlowness><value>12.622474250517367</value></horizontalSlowness><backazimuth><value>6.540469777718783</value></backazimuth><phaseHint>S</phaseHint><evaluationMode>automatic</evaluationMode><comment><text>3559.943481394832</text><id>DFX:rectilinearity</id></comment><comment><text>de.gempa.tb1.Pick/20250414181544.579733.140078</text><id>RefPickID</id></comment><comment><text>12.426395833607364</text><id>SNR</id></comment></pick><pick publicID="de.gempa.tb1.Pick/20250414181642.614642.140107"><time><value>2025-04-14T18:16:33.04Z</value></time><waveformID networkCode="CX" stationCode="PSGCX" channelCode="HHN"/><filterID>ITAPER(2)&gt;&gt;BW(3,3,20)</filterID><methodID>L2-AIC-GRID</methodID><horizontalSlowness><value>18.158434557535205</value></horizontalSlowness><backazimuth><value>107.26320934329044</value></backazimuth><phaseHint>S</phaseHint><evaluationMode>automatic</evaluationMode><comment><text>88.8805723898515</text><id>DFX:rectilinearity</id></comment><comment><text>de.gempa.tb1.Pick/20250414181556.766789.140091</text><id>RefPickID</id></comment><comment><text>13.183398135989338</text><id>SNR</id></comment></pick><pick publicID="de.gempa.tb1.Pick/20250414181644.778218.140110"><time><value>2025-04-14T18:16:10.698393Z</value></time><waveformID networkCode="CX" stationCode="PB07" channelCode="HHN"/><filterID>ITAPER(2)&gt;&gt;BW(3,3,20)</filterID><methodID>L2-AIC-GRID</methodID><horizontalSlowness><value>22.561514659894847</value></horizontalSlowness><backazimuth><value>232.34403207152707</value></backazimuth><phaseHint>S</phaseHint><evaluationMode>automatic</evaluationMode><comment><text>10775.1449861987</text><id>DFX:rectilinearity</id></comment><comment><text>de.gempa.tb1.Pick/20250414181611.273257.140093</text><id>RefPickID</id></comment><comment><text>15.838011952046875</text><id>SNR</id></comment></pick><origin publicID="de.gempa.tb1.Origin/20250414181644.785196.146805"><time><value>2025-04-14T18:14:56.60608Z</value><uncertainty>0.8919561505317688</uncertainty></time><latitude><value>-21.90214729309082</value><uncertainty>5.610137939453125</uncertainty></latitude><longitude><value>-67.80307006835938</value><uncertainty>17.98461151123047</uncertainty></longitude><depth><value>239.72740173339844</value><uncertainty>15.695526123046875</uncertainty></depth><depthType>from location</depthType><methodID>LOCSAT</methodID><earthModelID>iasp91_scanloc</earthModelID><quality><associatedPhaseCount>14</associatedPhaseCount><usedPhaseCount>14</usedPhaseCount><associatedStationCount>9</associatedStationCount><usedStationCount>9</usedStationCount><depthPhaseCount>0</depthPhaseCount><standardError>0.19996091628739976</standardError><azimuthalGap>273.39605712890625</azimuthalGap><maximumDistance>3.1580488681793213</maximumDistance><minimumDistance>1.3408606052398682</minimumDistance><medianDistance>1.9435700178146362</medianDistance></quality><uncertainty><minHorizontalUncertainty>11.38620948791504</minHorizontalUncertainty><maxHorizontalUncertainty>38.749000549316406</maxHorizontalUncertainty><azimuthMaxHorizontalUncertainty>83.997802734375</azimuthMaxHorizontalUncertainty><preferredDescription>horizontal uncertainty</preferredDescription></uncertainty><evaluationMode>automatic</evaluationMode><evaluationStatus>confirmed</evaluationStatus><comment><text>0.15</text><id>mismatchScore</id></comment><comment><text>mismatchScore</text><id>scevalMethod</id></comment><arrival><pickID>de.gempa.tb1.Pick/20250414181540.507129.140074</pickID><phase>P</phase><azimuth>265.0382080078125</azimuth><distance>1.81587553024292</distance><timeResidual>-0.4552764892578125</timeResidual><timeUsed>true</timeUsed><horizontalSlownessUsed>false</horizontalSlownessUsed><backazimuthUsed>false</backazimuthUsed><weight>1</weight></arrival><arrival><pickID>de.gempa.tb1.Pick/20250414181542.578649.140076</pickID><phase>P</phase><azimuth>298.2730712890625</azimuth><distance>1.7865113019943237</distance><timeResidual>-0.17961883544921875</timeResidual><timeUsed>true</timeUsed><horizontalSlownessUsed>false</horizontalSlownessUsed><backazimuthUsed>false</backazimuthUsed><weight>1</weight></arrival><arrival><pickID>de.gempa.tb1.Pick/20250414181544.579733.140078</pickID><phase>P</phase><azimuth>286.1869201660156</azimuth><distance>2.0319771766662598</distance><timeResidual>-0.005313873291015625</timeResidual><timeUsed>true</timeUsed><horizontalSlownessUsed>false</horizontalSlownessUsed><backazimuthUsed>false</backazimuthUsed><weight>1</weight></arrival><arrival><pickID>de.gempa.tb1.Pick/20250414181544.988803.140080</pickID><phase>P</phase><azimuth>229.5477600097656</azimuth><distance>2.0166609287261963</distance><timeResidual>0.11946487426757812</timeResidual><timeUsed>true</timeUsed><horizontalSlownessUsed>false</horizontalSlownessUsed><backazimuthUsed>false</backazimuthUsed><weight>1</weight></arrival><arrival><pickID>de.gempa.tb1.Pick/20250414181545.577497.140082</pickID><phase>P</phase><azimuth>243.64332580566406</azimuth><distance>1.8228524923324585</distance><timeResidual>0.13055038452148438</timeResidual><timeUsed>true</timeUsed><horizontalSlownessUsed>false</horizontalSlownessUsed><backazimuthUsed>false</backazimuthUsed><weight>1</weight></arrival><arrival><pickID>de.gempa.tb1.Pick/20250414181548.152463.140085</pickID><phase>P</phase><azimuth>274.2357482910156</azimuth><distance>1.3408606052398682</distance><timeResidual>0.22705841064453125</timeResidual><timeUsed>true</timeUsed><horizontalSlownessUsed>false</horizontalSlownessUsed><backazimuthUsed>false</backazimuthUsed><weight>1</weight></arrival><arrival><pickID>de.gempa.tb1.Pick/20250414181556.176323.140089</pickID><phase>P</phase><azimuth>237.2135009765625</azimuth><distance>3.004007577896118</distance><timeResidual>-0.040554046630859375</timeResidual><timeUsed>true</timeUsed><horizontalSlownessUsed>false</horizontalSlownessUsed><backazimuthUsed>false</backazimuthUsed><weight>1</weight></arrival><arrival><pickID>de.gempa.tb1.Pick/20250414181556.766789.140091</pickID><phase>P</phase><azimuth>316.1517028808594</azimuth><distance>3.1580488681793213</distance><timeResidual>0.17065811157226562</timeResidual><timeUsed>true</timeUsed><horizontalSlownessUsed>false</horizontalSlownessUsed><backazimuthUsed>false</backazimuthUsed><weight>1</weight></arrival><arrival><pickID>de.gempa.tb1.Pick/20250414181611.273257.140093</pickID><phase>P</phase><azimuth>274.7693786621094</azimuth><distance>1.9435700178146362</distance><timeResidual>0.02773284912109375</timeResidual><timeUsed>true</timeUsed><horizontalSlownessUsed>false</horizontalSlownessUsed><backazimuthUsed>false</backazimuthUsed><weight>1</weight></arrival><arrival><pickID>de.gempa.tb1.Pick/20250414181614.565511.140095</pickID><phase>S</phase><azimuth>265.0382080078125</azimuth><distance>1.81587553024292</distance><timeResidual>-0.2785682678222656</timeResidual><timeUsed>true</timeUsed><horizontalSlownessUsed>false</horizontalSlownessUsed><backazimuthUsed>false</backazimuthUsed><weight>1</weight></arrival><arrival><pickID>de.gempa.tb1.Pick/20250414181615.673271.140098</pickID><phase>S</phase><azimuth>298.2730712890625</azimuth><distance>1.7865113019943237</distance><timeResidual>-0.0742340087890625</timeResidual><timeUsed>true</timeUsed><horizontalSlownessUsed>false</horizontalSlownessUsed><backazimuthUsed>false</backazimuthUsed><weight>1</weight></arrival><arrival><pickID>de.gempa.tb1.Pick/20250414181620.548959.140103</pickID><phase>S</phase><azimuth>286.1869201660156</azimuth><distance>2.0319771766662598</distance><timeResidual>0.2796134948730469</timeResidual><timeUsed>true</timeUsed><horizontalSlownessUsed>false</horizontalSlownessUsed><backazimuthUsed>false</backazimuthUsed><weight>1</weight></arrival><arrival><pickID>de.gempa.tb1.Pick/20250414181642.614642.140107</pickID><phase>S</phase><azimuth>316.1517028808594</azimuth><distance>3.1580488681793213</distance><timeResidual>-0.10449600219726562</timeResidual><timeUsed>true</timeUsed><horizontalSlownessUsed>false</horizontalSlownessUsed><backazimuthUsed>false</backazimuthUsed><weight>1</weight></arrival><arrival><pickID>de.gempa.tb1.Pick/20250414181644.778218.140110</pickID><phase>S</phase><azimuth>274.7693786621094</azimuth><distance>1.9435700178146362</distance><timeResidual>0.18327713012695312</timeResidual><timeUsed>true</timeUsed><horizontalSlownessUsed>false</horizontalSlownessUsed><backazimuthUsed>false</backazimuthUsed><weight>1</weight></arrival><magnitude publicID="de.gempa.tb1.Magnitude/20250414181650.939099.526566"><magnitude><value>3.029276213982888</value></magnitude><type>M</type><methodID>weighted average</methodID><stationCount>6</stationCount></magnitude></origin><event publicID="gempa2025hjqt"><preferredOriginID>de.gempa.tb1.Origin/20250414181644.785196.146805</preferredOriginID><preferredMagnitudeID>de.gempa.tb1.Magnitude/20250414181650.939099.526566</preferredMagnitudeID><description><text>Chile-Bolivia Border Region</text><type>region name</type></description><originReference>de.gempa.tb1.Origin/20250414181644.785196.146805</originReference></event></EventParameters></seiscomp>