<?xml version="1.0" encoding="UTF-8"?>
<seiscomp xmlns="http://geofon.gfz-potsdam.de/ns/seiscomp3-schema/0.13" version="0.13"><EventParameters><pick publicID="de.gempa.tb1.Pick/20250414084321.775365.136837"><time><value>2025-04-14T08:43:15.888393Z</value></time><waveformID networkCode="CX" stationCode="PB01" channelCode="HHZ"/><filterID>ITAPER(4)&gt;&gt;BW(4,4,20)</filterID><methodID>AIC</methodID><horizontalSlowness><value>3.4697639627959607</value></horizontalSlowness><backazimuth><value>97.25831094336301</value></backazimuth><phaseHint>P</phaseHint><evaluationMode>automatic</evaluationMode><comment><text>41.964939699861873</text><id>DFX:rectilinearity</id></comment><comment><text>120.80455492820978</text><id>SNR</id></comment></pick><pick publicID="de.gempa.tb1.Pick/20250414084327.206175.136839"><time><value>2025-04-14T08:43:20.858393Z</value></time><waveformID networkCode="CX" stationCode="PB08" channelCode="HHZ"/><filterID>ITAPER(4)&gt;&gt;BW(4,4,20)</filterID><methodID>AIC</methodID><horizontalSlowness><value>14.53453322717876</value></horizontalSlowness><backazimuth><value>93.46788333679355</value></backazimuth><phaseHint>P</phaseHint><evaluationMode>automatic</evaluationMode><comment><text>12.060441195351215</text><id>DFX:rectilinearity</id></comment><comment><text>7.051586970547026</text><id>SNR</id></comment></pick><pick publicID="de.gempa.tb1.Pick/20250414084327.536876.136841"><time><value>2025-04-14T08:43:19.788393Z</value></time><waveformID networkCode="CX" stationCode="PB02" channelCode="HHZ"/><filterID>ITAPER(4)&gt;&gt;BW(4,4,20)</filterID><methodID>AIC</methodID><horizontalSlowness><value>9.285997730437549</value></horizontalSlowness><backazimuth><value>70.52388156796518</value></backazimuth><phaseHint>P</phaseHint><evaluationMode>automatic</evaluationMode><comment><text>33.92064794446565</text><id>DFX:rectilinearity</id></comment><comment><text>51.52355977068426</text><id>SNR</id></comment></pick><pick publicID="de.gempa.tb1.Pick/20250414084328.427947.136843"><time><value>2025-04-14T08:43:22.299999Z</value></time><waveformID networkCode="CX" stationCode="PATCX" channelCode="HHZ"/><filterID>ITAPER(4)&gt;&gt;BW(4,4,20)</filterID><methodID>AIC</methodID><horizontalSlowness><value>20.49556196627469</value></horizontalSlowness><backazimuth><value>210.2068300924992</value></backazimuth><phaseHint>P</phaseHint><evaluationMode>automatic</evaluationMode><comment><text>94.90886969210675</text><id>DFX:rectilinearity</id></comment><comment><text>19.124365940824909</text><id>SNR</id></comment></pick><pick publicID="de.gempa.tb1.Pick/20250414084332.639361.136845"><time><value>2025-04-14T08:43:23.598393Z</value></time><waveformID networkCode="CX" stationCode="PB03" channelCode="HHZ"/><filterID>ITAPER(4)&gt;&gt;BW(4,4,20)</filterID><methodID>AIC</methodID><horizontalSlowness><value>15.756396196817782</value></horizontalSlowness><backazimuth><value>102.3410404620869</value></backazimuth><phaseHint>P</phaseHint><evaluationMode>automatic</evaluationMode><comment><text>6.751467332224809</text><id>DFX:rectilinearity</id></comment><comment><text>10.993250280765917</text><id>SNR</id></comment></pick><pick publicID="de.gempa.tb1.Pick/20250414084334.775696.136847"><time><value>2025-04-14T08:43:28.238393Z</value></time><waveformID networkCode="CX" stationCode="PB01" channelCode="HHN"/><filterID>ITAPER(2)&gt;&gt;BW(3,3,20)</filterID><methodID>L2-AIC-GRID</methodID><horizontalSlowness><value>23.2168750832974</value></horizontalSlowness><backazimuth><value>204.3026750766631</value></backazimuth><phaseHint>S</phaseHint><evaluationMode>automatic</evaluationMode><comment><text>196.37773551413886</text><id>DFX:rectilinearity</id></comment><comment><text>de.gempa.tb1.Pick/20250414084321.775365.136837</text><id>RefPickID</id></comment><comment><text>8.723841911368648</text><id>SNR</id></comment></pick><pick publicID="de.gempa.tb1.Pick/20250414084335.575262.136848"><time><value>2025-04-14T08:43:29.61Z</value></time><waveformID networkCode="CX" stationCode="PSGCX" channelCode="HHZ"/><filterID>ITAPER(4)&gt;&gt;BW(4,4,20)</filterID><methodID>AIC</methodID><horizontalSlowness><value>22.80236201299592</value></horizontalSlowness><backazimuth><value>125.04982686684538</value></backazimuth><phaseHint>P</phaseHint><evaluationMode>automatic</evaluationMode><comment><text>12.263223605658938</text><id>DFX:rectilinearity</id></comment><comment><text>32.27158145215737</text><id>SNR</id></comment></pick><pick publicID="de.gempa.tb1.Pick/20250414084335.976175.136850"><time><value>2025-04-14T08:43:19.44Z</value></time><waveformID networkCode="CX" stationCode="PB09" channelCode="HHZ"/><filterID>ITAPER(4)&gt;&gt;BW(4,4,20)</filterID><methodID>AIC</methodID><horizontalSlowness><value>14.473078405326818</value></horizontalSlowness><backazimuth><value>300.17883396924225</value></backazimuth><phaseHint>P</phaseHint><evaluationMode>automatic</evaluationMode><comment><text>13.29781696002908</text><id>DFX:rectilinearity</id></comment><comment><text>21.530431575654887</text><id>SNR</id></comment></pick><pick publicID="de.gempa.tb1.Pick/20250414084341.615913.136852"><time><value>2025-04-14T08:43:34.928393Z</value></time><waveformID networkCode="CX" stationCode="PB02" channelCode="HHN"/><filterID>ITAPER(2)&gt;&gt;BW(3,3,20)</filterID><methodID>L2-AIC-GRID</methodID><horizontalSlowness><value>18.70976359050412</value></horizontalSlowness><backazimuth><value>325.39357663866554</value></backazimuth><phaseHint>S</phaseHint><evaluationMode>automatic</evaluationMode><comment><text>1222.9864454110739</text><id>DFX:rectilinearity</id></comment><comment><text>de.gempa.tb1.Pick/20250414084327.536876.136841</text><id>RefPickID</id></comment><comment><text>7.254703715965226</text><id>SNR</id></comment></pick><pick publicID="de.gempa.tb1.Pick/20250414084343.134966.136853"><time><value>2025-04-14T08:43:21.638394Z</value></time><waveformID networkCode="CX" stationCode="PB07" channelCode="HHZ"/><filterID>ITAPER(4)&gt;&gt;BW(4,4,20)</filterID><methodID>AIC</methodID><horizontalSlowness><value>19.336171463444902</value></horizontalSlowness><backazimuth><value>133.58002619671998</value></backazimuth><phaseHint>P</phaseHint><evaluationMode>automatic</evaluationMode><comment><text>94.08154572887749</text><id>DFX:rectilinearity</id></comment><comment><text>16.525146865912486</text><id>SNR</id></comment></pick><pick publicID="de.gempa.tb1.Pick/20250414084345.231215.136857"><time><value>2025-04-14T08:43:36.528393Z</value></time><waveformID networkCode="CX" stationCode="PB08" channelCode="HHN"/><filterID>ITAPER(2)&gt;&gt;BW(3,3,20)</filterID><methodID>L2-AIC-GRID</methodID><horizontalSlowness><value>15.351227070589392</value></horizontalSlowness><backazimuth><value>207.4184033359473</value></backazimuth><phaseHint>S</phaseHint><evaluationMode>automatic</evaluationMode><comment><text>318.74691903374344</text><id>DFX:rectilinearity</id></comment><comment><text>de.gempa.tb1.Pick/20250414084327.206175.136839</text><id>RefPickID</id></comment><comment><text>9.637781637841586</text><id>SNR</id></comment></pick><pick publicID="de.gempa.tb1.Pick/20250414084347.274053.136858"><time><value>2025-04-14T08:43:39.269999Z</value></time><waveformID networkCode="CX" stationCode="PATCX" channelCode="HHN"/><filterID>ITAPER(2)&gt;&gt;BW(3,3,20)</filterID><methodID>L2-AIC-GRID</methodID><horizontalSlowness><value>23.489932794713976</value></horizontalSlowness><backazimuth><value>70.54799652572636</value></backazimuth><phaseHint>S</phaseHint><evaluationMode>automatic</evaluationMode><comment><text>697.1568116434672</text><id>DFX:rectilinearity</id></comment><comment><text>de.gempa.tb1.Pick/20250414084328.427947.136843</text><id>RefPickID</id></comment><comment><text>7.671152507587697</text><id>SNR</id></comment></pick><pick publicID="de.gempa.tb1.Pick/20250414084347.623555.136859"><time><value>2025-04-14T08:43:40.918393Z</value></time><waveformID networkCode="CX" stationCode="PB03" channelCode="HHN"/><filterID>ITAPER(2)&gt;&gt;BW(3,3,20)</filterID><methodID>L2-AIC-GRID</methodID><horizontalSlowness><value>17.14105556402</value></horizontalSlowness><backazimuth><value>105.98057764764798</value></backazimuth><phaseHint>S</phaseHint><evaluationMode>automatic</evaluationMode><comment><text>36.01901240454661</text><id>DFX:rectilinearity</id></comment><comment><text>de.gempa.tb1.Pick/20250414084332.639361.136845</text><id>RefPickID</id></comment><comment><text>11.64875727015285</text><id>SNR</id></comment></pick><pick publicID="de.gempa.tb1.Pick/20250414084350.851446.136860"><time><value>2025-04-14T08:43:37.998394Z</value></time><waveformID networkCode="CX" stationCode="PB07" channelCode="HHN"/><filterID>ITAPER(2)&gt;&gt;BW(3,3,20)</filterID><methodID>L2-AIC-GRID</methodID><horizontalSlowness><value>22.88029758560617</value></horizontalSlowness><backazimuth><value>301.7819079350244</value></backazimuth><phaseHint>S</phaseHint><evaluationMode>automatic</evaluationMode><comment><text>1162.404263488788</text><id>DFX:rectilinearity</id></comment><comment><text>de.gempa.tb1.Pick/20250414084343.134966.136853</text><id>RefPickID</id></comment><comment><text>6.072496909628619</text><id>SNR</id></comment></pick><pick publicID="de.gempa.tb1.Pick/20250414084401.621845.136866"><time><value>2025-04-14T08:43:53.33Z</value></time><waveformID networkCode="CX" stationCode="PSGCX" channelCode="HHN"/><filterID>ITAPER(2)&gt;&gt;BW(3,3,20)</filterID><methodID>L2-AIC-GRID</methodID><horizontalSlowness><value>13.662916774455736</value></horizontalSlowness><backazimuth><value>45.41067437661113</value></backazimuth><phaseHint>S</phaseHint><evaluationMode>automatic</evaluationMode><comment><text>23.857874464084475</text><id>DFX:rectilinearity</id></comment><comment><text>de.gempa.tb1.Pick/20250414084335.575262.136848</text><id>RefPickID</id></comment><comment><text>5.643583492394885</text><id>SNR</id></comment></pick><origin publicID="de.gempa.tb1.Origin/20250414084401.627792.132861"><time><value>2025-04-14T08:43:00.340851Z</value><uncertainty>0.8096498847007751</uncertainty></time><latitude><value>-21.055845260620117</value><uncertainty>2.8380746841430664</uncertainty></latitude><longitude><value>-69.05492401123047</value><uncertainty>6.174496650695801</uncertainty></longitude><depth><value>108.271728515625</value><uncertainty>6.882826805114746</uncertainty></depth><depthType>from location</depthType><methodID>LOCSAT</methodID><earthModelID>iasp91_scanloc</earthModelID><quality><associatedPhaseCount>15</associatedPhaseCount><usedPhaseCount>15</usedPhaseCount><associatedStationCount>8</associatedStationCount><usedStationCount>8</usedStationCount><depthPhaseCount>0</depthPhaseCount><standardError>0.38041058490358315</standardError><azimuthalGap>199.0740509033203</azimuthalGap><maximumDistance>1.7637685537338257</maximumDistance><minimumDistance>0.4041561782360077</minimumDistance><medianDistance>1.0225918292999268</medianDistance></quality><uncertainty><minHorizontalUncertainty>5.962220668792725</minHorizontalUncertainty><maxHorizontalUncertainty>13.292608261108398</maxHorizontalUncertainty><azimuthMaxHorizontalUncertainty>95.86061096191406</azimuthMaxHorizontalUncertainty><preferredDescription>horizontal uncertainty</preferredDescription></uncertainty><evaluationMode>automatic</evaluationMode><evaluationStatus>confirmed</evaluationStatus><comment><text>0.00</text><id>mismatchScore</id></comment><comment><text>mismatchScore</text><id>scevalMethod</id></comment><arrival><pickID>de.gempa.tb1.Pick/20250414084321.775365.136837</pickID><phase>P</phase><azimuth>271.70257568359375</azimuth><distance>0.4041561782360077</distance><timeResidual>-0.5363988876342773</timeResidual><timeUsed>true</timeUsed><horizontalSlownessUsed>false</horizontalSlownessUsed><backazimuthUsed>false</backazimuthUsed><weight>1</weight></arrival><arrival><pickID>de.gempa.tb1.Pick/20250414084327.206175.136839</pickID><phase>P</phase><azimuth>354.1946716308594</azimuth><distance>0.9147676825523376</distance><timeResidual>0.2940940856933594</timeResidual><timeUsed>true</timeUsed><horizontalSlownessUsed>false</horizontalSlownessUsed><backazimuthUsed>false</backazimuthUsed><weight>1</weight></arrival><arrival><pickID>de.gempa.tb1.Pick/20250414084327.536876.136841</pickID><phase>P</phase><azimuth>251.3529510498047</azimuth><distance>0.8276818990707397</distance><timeResidual>0.07584857940673828</timeResidual><timeUsed>true</timeUsed><horizontalSlownessUsed>false</horizontalSlownessUsed><backazimuthUsed>false</backazimuthUsed><weight>1</weight></arrival><arrival><pickID>de.gempa.tb1.Pick/20250414084328.427947.136843</pickID><phase>P</phase><azimuth>282.646240234375</azimuth><distance>1.0526524782180786</distance><timeResidual>0.3172941207885742</timeResidual><timeUsed>true</timeUsed><horizontalSlownessUsed>false</horizontalSlownessUsed><backazimuthUsed>false</backazimuthUsed><weight>1</weight></arrival><arrival><pickID>de.gempa.tb1.Pick/20250414084332.639361.136845</pickID><phase>P</phase><azimuth>213.21807861328125</azimuth><distance>1.1824036836624146</distance><timeResidual>0.20865440368652344</timeResidual><timeUsed>true</timeUsed><horizontalSlownessUsed>false</horizontalSlownessUsed><backazimuthUsed>false</backazimuthUsed><weight>1</weight></arrival><arrival><pickID>de.gempa.tb1.Pick/20250414084334.775696.136847</pickID><phase>S</phase><azimuth>271.70257568359375</azimuth><distance>0.4041561782360077</distance><timeResidual>-0.5578908920288086</timeResidual><timeUsed>true</timeUsed><horizontalSlownessUsed>false</horizontalSlownessUsed><backazimuthUsed>false</backazimuthUsed><weight>1</weight></arrival><arrival><pickID>de.gempa.tb1.Pick/20250414084335.575262.136848</pickID><phase>P</phase><azimuth>325.18017578125</azimuth><distance>1.7637685537338257</distance><timeResidual>-0.6997671127319336</timeResidual><timeUsed>true</timeUsed><horizontalSlownessUsed>false</horizontalSlownessUsed><backazimuthUsed>false</backazimuthUsed><weight>1</weight></arrival><arrival><pickID>de.gempa.tb1.Pick/20250414084335.976175.136850</pickID><phase>P</phase><azimuth>193.2687225341797</azimuth><distance>0.7572051286697388</distance><timeResidual>0.37987232208251953</timeResidual><timeUsed>true</timeUsed><horizontalSlownessUsed>false</horizontalSlownessUsed><backazimuthUsed>false</backazimuthUsed><weight>1</weight></arrival><arrival><pickID>de.gempa.tb1.Pick/20250414084341.615913.136852</pickID><phase>S</phase><azimuth>251.3529510498047</azimuth><distance>0.8276818990707397</distance><timeResidual>0.27846813201904297</timeResidual><timeUsed>true</timeUsed><horizontalSlownessUsed>false</horizontalSlownessUsed><backazimuthUsed>false</backazimuthUsed><weight>1</weight></arrival><arrival><pickID>de.gempa.tb1.Pick/20250414084343.134966.136853</pickID><phase>P</phase><azimuth>229.09934997558594</azimuth><distance>1.0225918292999268</distance><timeResidual>-0.022024154663085938</timeResidual><timeUsed>true</timeUsed><horizontalSlownessUsed>false</horizontalSlownessUsed><backazimuthUsed>false</backazimuthUsed><weight>1</weight></arrival><arrival><pickID>de.gempa.tb1.Pick/20250414084345.231215.136857</pickID><phase>S</phase><azimuth>354.1946716308594</azimuth><distance>0.9147676825523376</distance><timeResidual>0.3616514205932617</timeResidual><timeUsed>true</timeUsed><horizontalSlownessUsed>false</horizontalSlownessUsed><backazimuthUsed>false</backazimuthUsed><weight>1</weight></arrival><arrival><pickID>de.gempa.tb1.Pick/20250414084347.274053.136858</pickID><phase>S</phase><azimuth>282.646240234375</azimuth><distance>1.0526524782180786</distance><timeResidual>0.571711540222168</timeResidual><timeUsed>true</timeUsed><horizontalSlownessUsed>false</horizontalSlownessUsed><backazimuthUsed>false</backazimuthUsed><weight>1</weight></arrival><arrival><pickID>de.gempa.tb1.Pick/20250414084347.623555.136859</pickID><phase>S</phase><azimuth>213.21807861328125</azimuth><distance>1.1824036836624146</distance><timeResidual>-0.2929716110229492</timeResidual><timeUsed>true</timeUsed><horizontalSlownessUsed>false</horizontalSlownessUsed><backazimuthUsed>false</backazimuthUsed><weight>1</weight></arrival><arrival><pickID>de.gempa.tb1.Pick/20250414084350.851446.136860</pickID><phase>S</phase><azimuth>229.09934997558594</azimuth><distance>1.0225918292999268</distance><timeResidual>-0.12587451934814453</timeResidual><timeUsed>true</timeUsed><horizontalSlownessUsed>false</horizontalSlownessUsed><backazimuthUsed>false</backazimuthUsed><weight>1</weight></arrival><arrival><pickID>de.gempa.tb1.Pick/20250414084401.621845.136866</pickID><phase>S</phase><azimuth>325.18017578125</azimuth><distance>1.7637685537338257</distance><timeResidual>-0.25284671783447266</timeResidual><timeUsed>true</timeUsed><horizontalSlownessUsed>false</horizontalSlownessUsed><backazimuthUsed>false</backazimuthUsed><weight>1</weight></arrival><magnitude publicID="de.gempa.tb1.Magnitude/20250414084410.940168.459238"><magnitude><value>2.0585364754337117</value></magnitude><type>M</type><methodID>weighted average</methodID><stationCount>6</stationCount></magnitude></origin><event publicID="gempa2025hixs"><preferredOriginID>de.gempa.tb1.Origin/20250414084401.627792.132861</preferredOriginID><preferredMagnitudeID>de.gempa.tb1.Magnitude/20250414084410.940168.459238</preferredMagnitudeID><description><text>Northern Chile</text><type>region name</type></description><originReference>de.gempa.tb1.Origin/20250414084401.627792.132861</originReference></event></EventParameters></seiscomp>