<?xml version="1.0" encoding="UTF-8"?>
<seiscomp xmlns="http://geofon.gfz-potsdam.de/ns/seiscomp3-schema/0.13" version="0.13"><EventParameters><pick publicID="de.gempa.tb1.Pick/20250412034446.58093.121680"><time><value>2025-04-12T03:44:41.028393Z</value></time><waveformID networkCode="CX" stationCode="PB01" channelCode="HHZ"/><filterID>ITAPER(4)&gt;&gt;BW(4,4,20)</filterID><methodID>AIC</methodID><horizontalSlowness><value>20.474882169734155</value></horizontalSlowness><backazimuth><value>330.66537214435795</value></backazimuth><phaseHint>P</phaseHint><evaluationMode>automatic</evaluationMode><comment><text>12.602217280795113</text><id>DFX:rectilinearity</id></comment><comment><text>9.581431451743848</text><id>SNR</id></comment></pick><pick publicID="de.gempa.tb1.Pick/20250412034449.641693.121682"><time><value>2025-04-12T03:44:43.988393Z</value></time><waveformID networkCode="CX" stationCode="PB02" channelCode="HHZ"/><filterID>ITAPER(4)&gt;&gt;BW(4,4,20)</filterID><methodID>AIC</methodID><horizontalSlowness><value>22.669591969530817</value></horizontalSlowness><backazimuth><value>271.86319039357977</value></backazimuth><phaseHint>P</phaseHint><evaluationMode>automatic</evaluationMode><comment><text>49.90083379173964</text><id>DFX:rectilinearity</id></comment><comment><text>9.168602024592056</text><id>SNR</id></comment></pick><pick publicID="de.gempa.tb1.Pick/20250412034451.575634.121684"><time><value>2025-04-12T03:44:45.738391Z</value></time><waveformID networkCode="CX" stationCode="PB03" channelCode="HHZ"/><filterID>ITAPER(4)&gt;&gt;BW(4,4,20)</filterID><methodID>AIC</methodID><horizontalSlowness><value>17.42797111742333</value></horizontalSlowness><backazimuth><value>224.43837956336006</value></backazimuth><phaseHint>P</phaseHint><evaluationMode>automatic</evaluationMode><comment><text>10.535735506012516</text><id>DFX:rectilinearity</id></comment><comment><text>13.042959234021353</text><id>SNR</id></comment></pick><pick publicID="de.gempa.tb1.Pick/20250412034500.792668.121686"><time><value>2025-04-12T03:44:54.238393Z</value></time><waveformID networkCode="CX" stationCode="PB01" channelCode="HHN"/><filterID>ITAPER(2)&gt;&gt;BW(3,3,20)</filterID><methodID>L2-AIC-GRID</methodID><horizontalSlowness><value>22.74535324083148</value></horizontalSlowness><backazimuth><value>36.436319446095297</value></backazimuth><phaseHint>S</phaseHint><evaluationMode>automatic</evaluationMode><comment><text>845.2314980210383</text><id>DFX:rectilinearity</id></comment><comment><text>de.gempa.tb1.Pick/20250412034446.58093.121680</text><id>RefPickID</id></comment><comment><text>22.172012143364142</text><id>SNR</id></comment></pick><pick publicID="de.gempa.tb1.Pick/20250412034505.872162.121687"><time><value>2025-04-12T03:44:59.768393Z</value></time><waveformID networkCode="CX" stationCode="PB02" channelCode="HHN"/><filterID>ITAPER(2)&gt;&gt;BW(3,3,20)</filterID><methodID>L2-AIC-GRID</methodID><horizontalSlowness><value>19.287474256536868</value></horizontalSlowness><backazimuth><value>2.4761184313427407</value></backazimuth><phaseHint>S</phaseHint><evaluationMode>automatic</evaluationMode><comment><text>91.42993301406271</text><id>DFX:rectilinearity</id></comment><comment><text>de.gempa.tb1.Pick/20250412034449.641693.121682</text><id>RefPickID</id></comment><comment><text>6.881751253126356</text><id>SNR</id></comment></pick><pick publicID="de.gempa.tb1.Pick/20250412034525.840035.121690"><time><value>2025-04-12T03:44:44.988394Z</value></time><waveformID networkCode="CX" stationCode="PB07" channelCode="HHZ"/><filterID>ITAPER(4)&gt;&gt;BW(4,4,20)</filterID><methodID>AIC</methodID><horizontalSlowness><value>20.84107022825992</value></horizontalSlowness><backazimuth><value>318.71631239274575</value></backazimuth><phaseHint>P</phaseHint><evaluationMode>automatic</evaluationMode><comment><text>105.39698218355691</text><id>DFX:rectilinearity</id></comment><comment><text>16.959308173950173</text><id>SNR</id></comment></pick><origin publicID="de.gempa.tb1.Origin/20250412034526.047408.72941"><time><value>2025-04-12T03:44:23.721611Z</value><uncertainty>1.7881041765213013</uncertainty></time><latitude><value>-21.28976058959961</value><uncertainty>17.710447311401367</uncertainty></latitude><longitude><value>-68.87512969970703</value><uncertainty>20.62543487548828</uncertainty></longitude><depth><value>105.1685562133789</value><uncertainty>24.41775703430176</uncertainty></depth><depthType>from location</depthType><methodID>LOCSAT</methodID><earthModelID>iasp91_scanloc</earthModelID><quality><associatedPhaseCount>6</associatedPhaseCount><usedPhaseCount>6</usedPhaseCount><associatedStationCount>4</associatedStationCount><usedStationCount>4</usedStationCount><depthPhaseCount>0</depthPhaseCount><standardError>0.041828059787643597</standardError><azimuthalGap>293.9643249511719</azimuthalGap><maximumDistance>1.1121864318847656</maximumDistance><minimumDistance>0.6218825578689575</minimumDistance><medianDistance>0.9524341821670532</medianDistance></quality><uncertainty><minHorizontalUncertainty>27.22589874267578</minHorizontalUncertainty><maxHorizontalUncertainty>51.55454635620117</maxHorizontalUncertainty><azimuthMaxHorizontalUncertainty>127.22270965576172</azimuthMaxHorizontalUncertainty><preferredDescription>horizontal uncertainty</preferredDescription></uncertainty><evaluationMode>automatic</evaluationMode><evaluationStatus>confirmed</evaluationStatus><comment><text>0.41</text><id>mismatchScore</id></comment><comment><text>mismatchScore</text><id>scevalMethod</id></comment><arrival><pickID>de.gempa.tb1.Pick/20250412034446.58093.121680</pickID><phase>P</phase><azimuth>293.1220703125</azimuth><distance>0.6218825578689575</distance><timeResidual>0.04858207702636719</timeResidual><timeUsed>true</timeUsed><horizontalSlownessUsed>false</horizontalSlownessUsed><backazimuthUsed>false</backazimuthUsed><weight>1</weight></arrival><arrival><pickID>de.gempa.tb1.Pick/20250412034449.641693.121682</pickID><phase>P</phase><azimuth>268.0213623046875</azimuth><distance>0.9524341821670532</distance><timeResidual>-0.06797409057617188</timeResidual><timeUsed>true</timeUsed><horizontalSlownessUsed>false</horizontalSlownessUsed><backazimuthUsed>false</backazimuthUsed><weight>1</weight></arrival><arrival><pickID>de.gempa.tb1.Pick/20250412034451.575634.121684</pickID><phase>P</phase><azimuth>227.0863952636719</azimuth><distance>1.1121864318847656</distance><timeResidual>-0.022632598876953125</timeResidual><timeUsed>true</timeUsed><horizontalSlownessUsed>false</horizontalSlownessUsed><backazimuthUsed>false</backazimuthUsed><weight>1</weight></arrival><arrival><pickID>de.gempa.tb1.Pick/20250412034500.792668.121686</pickID><phase>S</phase><azimuth>293.1220703125</azimuth><distance>0.6218825578689575</distance><timeResidual>-0.024372100830078125</timeResidual><timeUsed>true</timeUsed><horizontalSlownessUsed>false</horizontalSlownessUsed><backazimuthUsed>false</backazimuthUsed><weight>1</weight></arrival><arrival><pickID>de.gempa.tb1.Pick/20250412034505.872162.121687</pickID><phase>S</phase><azimuth>268.0213623046875</azimuth><distance>0.9524341821670532</distance><timeResidual>0.02300071716308594</timeResidual><timeUsed>true</timeUsed><horizontalSlownessUsed>false</horizontalSlownessUsed><backazimuthUsed>false</backazimuthUsed><weight>1</weight></arrival><arrival><pickID>de.gempa.tb1.Pick/20250412034525.840035.121690</pickID><phase>P</phase><azimuth>245.0296173095703</azimuth><distance>1.0370196104049683</distance><timeResidual>0.043376922607421875</timeResidual><timeUsed>true</timeUsed><horizontalSlownessUsed>false</horizontalSlownessUsed><backazimuthUsed>false</backazimuthUsed><weight>1</weight></arrival><magnitude publicID="de.gempa.tb1.Magnitude/20250412034530.93615.170378"><magnitude><value>2.4218631183744694</value></magnitude><type>M</type><methodID>weighted average</methodID><stationCount>2</stationCount></magnitude></origin><event publicID="gempa2025hevr"><preferredOriginID>de.gempa.tb1.Origin/20250412034526.047408.72941</preferredOriginID><preferredMagnitudeID>de.gempa.tb1.Magnitude/20250412034530.93615.170378</preferredMagnitudeID><typeCertainty>suspected</typeCertainty><description><text>Chile-Bolivia Border Region</text><type>region name</type></description><originReference>de.gempa.tb1.Origin/20250412034526.047408.72941</originReference></event></EventParameters></seiscomp>