<?xml version="1.0" encoding="UTF-8"?>
<seiscomp xmlns="http://geofon.gfz-potsdam.de/ns/seiscomp3-schema/0.13" version="0.13"><EventParameters><pick publicID="de.gempa.tb1.Pick/20250412134121.513826.124236"><time><value>2025-04-12T13:41:12.88Z</value></time><waveformID networkCode="CX" stationCode="PB19" channelCode="HHZ"/><filterID>ITAPER(4)&gt;&gt;BW(4,4,20)</filterID><methodID>AIC</methodID><horizontalSlowness><value>18.382141267652912</value></horizontalSlowness><backazimuth><value>294.6996776012574</value></backazimuth><phaseHint>P</phaseHint><evaluationMode>automatic</evaluationMode><comment><text>15.11937828044557</text><id>DFX:rectilinearity</id></comment><comment><text>10.10325806502443</text><id>SNR</id></comment></pick><pick publicID="de.gempa.tb1.Pick/20250412134123.617523.124238"><time><value>2025-04-12T13:41:14.948393Z</value></time><waveformID networkCode="CX" stationCode="PB06" channelCode="HHZ"/><filterID>ITAPER(4)&gt;&gt;BW(4,4,20)</filterID><methodID>AIC</methodID><horizontalSlowness><value>22.006972686046602</value></horizontalSlowness><backazimuth><value>159.23334992046375</value></backazimuth><phaseHint>P</phaseHint><evaluationMode>automatic</evaluationMode><comment><text>63.2239573293711</text><id>DFX:rectilinearity</id></comment><comment><text>10.637264103316621</text><id>SNR</id></comment></pick><pick publicID="de.gempa.tb1.Pick/20250412134125.532863.124240"><time><value>2025-04-12T13:41:17.978393Z</value></time><waveformID networkCode="CX" stationCode="PB03" channelCode="HHZ"/><filterID>ITAPER(4)&gt;&gt;BW(4,4,20)</filterID><methodID>AIC</methodID><horizontalSlowness><value>15.6302759894105</value></horizontalSlowness><backazimuth><value>280.47213442467756</value></backazimuth><phaseHint>P</phaseHint><evaluationMode>automatic</evaluationMode><comment><text>11.913204292486725</text><id>DFX:rectilinearity</id></comment><comment><text>12.966287777707832</text><id>SNR</id></comment></pick><pick publicID="de.gempa.tb1.Pick/20250412134133.655506.124242"><time><value>2025-04-12T13:41:16.0000Z</value></time><waveformID networkCode="CX" stationCode="PB09" channelCode="HHZ"/><filterID>ITAPER(4)&gt;&gt;BW(4,4,20)</filterID><methodID>AIC</methodID><horizontalSlowness><value>23.158568632931225</value></horizontalSlowness><backazimuth><value>116.16293552251905</value></backazimuth><phaseHint>P</phaseHint><evaluationMode>automatic</evaluationMode><comment><text>10.388429886051627</text><id>DFX:rectilinearity</id></comment><comment><text>12.248629013212819</text><id>SNR</id></comment></pick><pick publicID="de.gempa.tb1.Pick/20250412134137.372783.124244"><time><value>2025-04-12T13:41:20.878391Z</value></time><waveformID networkCode="CX" stationCode="PB07" channelCode="HHZ"/><filterID>ITAPER(4)&gt;&gt;BW(4,4,20)</filterID><methodID>AIC</methodID><horizontalSlowness><value>20.945799883076706</value></horizontalSlowness><backazimuth><value>168.59153241971688</value></backazimuth><phaseHint>P</phaseHint><evaluationMode>automatic</evaluationMode><comment><text>192.0572411389771</text><id>DFX:rectilinearity</id></comment><comment><text>23.187711850360547</text><id>SNR</id></comment></pick><pick publicID="de.gempa.tb1.Pick/20250412134203.656994.124256"><time><value>2025-04-12T13:41:54.938393Z</value></time><waveformID networkCode="CX" stationCode="PB03" channelCode="HHN"/><filterID>ITAPER(2)&gt;&gt;BW(3,3,20)</filterID><methodID>L2-AIC-GRID</methodID><horizontalSlowness><value>20.055266420552329</value></horizontalSlowness><backazimuth><value>244.03818288197505</value></backazimuth><phaseHint>S</phaseHint><evaluationMode>automatic</evaluationMode><comment><text>18.795388350751907</text><id>DFX:rectilinearity</id></comment><comment><text>de.gempa.tb1.Pick/20250412134125.532863.124240</text><id>RefPickID</id></comment><comment><text>8.985550595446732</text><id>SNR</id></comment></pick><pick publicID="de.gempa.tb1.Pick/20250412134207.547129.124257"><time><value>2025-04-12T13:41:50.19Z</value></time><waveformID networkCode="CX" stationCode="PB09" channelCode="HHN"/><filterID>ITAPER(2)&gt;&gt;BW(3,3,20)</filterID><methodID>L2-AIC-GRID</methodID><horizontalSlowness><value>17.21473628447739</value></horizontalSlowness><backazimuth><value>84.06195808347823</value></backazimuth><phaseHint>S</phaseHint><evaluationMode>automatic</evaluationMode><comment><text>77.48681404701266</text><id>DFX:rectilinearity</id></comment><comment><text>de.gempa.tb1.Pick/20250412134133.655506.124242</text><id>RefPickID</id></comment><comment><text>13.359654148806882</text><id>SNR</id></comment></pick><origin publicID="de.gempa.tb1.Origin/20250412134231.097602.83626"><time><value>2025-04-12T13:40:32.391536Z</value><uncertainty>1.4638906717300415</uncertainty></time><latitude><value>-23.15739059448242</value><uncertainty>12.358010292053223</uncertainty></latitude><longitude><value>-67.44876861572266</value><uncertainty>31.996829986572266</uncertainty></longitude><depth><value>244.1750030517578</value><uncertainty>28.12905693054199</uncertainty></depth><depthType>from location</depthType><methodID>LOCSAT</methodID><earthModelID>iasp91_scanloc</earthModelID><quality><associatedPhaseCount>7</associatedPhaseCount><usedPhaseCount>7</usedPhaseCount><associatedStationCount>5</associatedStationCount><usedStationCount>5</usedStationCount><depthPhaseCount>0</depthPhaseCount><standardError>0.24128674435073774</standardError><azimuthalGap>296.9880065917969</azimuthalGap><maximumDistance>2.666848659515381</maximumDistance><minimumDistance>1.8469512462615967</minimumDistance><medianDistance>2.141343355178833</medianDistance></quality><uncertainty><minHorizontalUncertainty>25.22220802307129</minHorizontalUncertainty><maxHorizontalUncertainty>69.09811401367188</maxHorizontalUncertainty><azimuthMaxHorizontalUncertainty>82.73451232910156</azimuthMaxHorizontalUncertainty><preferredDescription>horizontal uncertainty</preferredDescription></uncertainty><evaluationMode>automatic</evaluationMode><evaluationStatus>confirmed</evaluationStatus><comment><text>0.22</text><id>mismatchScore</id></comment><comment><text>mismatchScore</text><id>scevalMethod</id></comment><arrival><pickID>de.gempa.tb1.Pick/20250412134121.513826.124236</pickID><phase>P</phase><azimuth>245.8828125</azimuth><distance>1.8469512462615967</distance><timeResidual>-0.17423248291015625</timeResidual><timeUsed>true</timeUsed><horizontalSlownessUsed>false</horizontalSlownessUsed><backazimuthUsed>false</backazimuthUsed><weight>1</weight></arrival><arrival><pickID>de.gempa.tb1.Pick/20250412134123.617523.124238</pickID><phase>P</phase><azimuth>282.5205078125</azimuth><distance>2.0082263946533203</distance><timeResidual>0.433319091796875</timeResidual><timeUsed>true</timeUsed><horizontalSlownessUsed>false</horizontalSlownessUsed><backazimuthUsed>false</backazimuthUsed><weight>1</weight></arrival><arrival><pickID>de.gempa.tb1.Pick/20250412134125.532863.124240</pickID><phase>P</phase><azimuth>296.95355224609375</azimuth><distance>2.3983917236328125</distance><timeResidual>-0.2950439453125</timeResidual><timeUsed>true</timeUsed><horizontalSlownessUsed>false</horizontalSlownessUsed><backazimuthUsed>false</backazimuthUsed><weight>1</weight></arrival><arrival><pickID>de.gempa.tb1.Pick/20250412134133.655506.124242</pickID><phase>P</phase><azimuth>308.8948059082031</azimuth><distance>2.141343355178833</distance><timeResidual>0.224395751953125</timeResidual><timeUsed>true</timeUsed><horizontalSlownessUsed>false</horizontalSlownessUsed><backazimuthUsed>false</backazimuthUsed><weight>1</weight></arrival><arrival><pickID>de.gempa.tb1.Pick/20250412134137.372783.124244</pickID><phase>P</phase><azimuth>301.80291748046875</azimuth><distance>2.666848659515381</distance><timeResidual>-0.15093994140625</timeResidual><timeUsed>true</timeUsed><horizontalSlownessUsed>false</horizontalSlownessUsed><backazimuthUsed>false</backazimuthUsed><weight>1</weight></arrival><arrival><pickID>de.gempa.tb1.Pick/20250412134203.656994.124256</pickID><phase>S</phase><azimuth>296.95355224609375</azimuth><distance>2.3983917236328125</distance><timeResidual>0.10071945190429688</timeResidual><timeUsed>true</timeUsed><horizontalSlownessUsed>false</horizontalSlownessUsed><backazimuthUsed>false</backazimuthUsed><weight>1</weight></arrival><arrival><pickID>de.gempa.tb1.Pick/20250412134207.547129.124257</pickID><phase>S</phase><azimuth>308.8948059082031</azimuth><distance>2.141343355178833</distance><timeResidual>-0.13813400268554688</timeResidual><timeUsed>true</timeUsed><horizontalSlownessUsed>false</horizontalSlownessUsed><backazimuthUsed>false</backazimuthUsed><weight>1</weight></arrival><magnitude publicID="de.gempa.tb1.Magnitude/20250412134303.635944.232978"><magnitude><value>3.340010496360298</value></magnitude><type>M</type><methodID>weighted average</methodID><stationCount>4</stationCount></magnitude></origin><event publicID="gempa2025hfpo"><preferredOriginID>de.gempa.tb1.Origin/20250412134231.097602.83626</preferredOriginID><preferredMagnitudeID>de.gempa.tb1.Magnitude/20250412134303.635944.232978</preferredMagnitudeID><description><text>Chile-Argentina Border Region</text><type>region name</type></description><originReference>de.gempa.tb1.Origin/20250412134231.097602.83626</originReference></event></EventParameters></seiscomp>