<?xml version="1.0" encoding="UTF-8"?>
<seiscomp xmlns="http://geofon.gfz-potsdam.de/ns/seiscomp3-schema/0.13" version="0.13"><EventParameters><pick publicID="de.gempa.tb1.Pick/20250411234836.593274.120747"><time><value>2025-04-11T23:48:29.89Z</value></time><waveformID networkCode="CX" stationCode="PB09" channelCode="HHZ"/><filterID>ITAPER(4)&gt;&gt;BW(4,4,20)</filterID><methodID>AIC</methodID><horizontalSlowness><value>11.45502505775825</value></horizontalSlowness><backazimuth><value>65.72645998228396</value></backazimuth><phaseHint>P</phaseHint><evaluationMode>automatic</evaluationMode><comment><text>18.2332417781431</text><id>DFX:rectilinearity</id></comment><comment><text>120.58730473895768</text><id>SNR</id></comment></pick><pick publicID="de.gempa.tb1.Pick/20250411234836.672864.120749"><time><value>2025-04-11T23:48:32.278393Z</value></time><waveformID networkCode="CX" stationCode="PB01" channelCode="HHZ"/><filterID>ITAPER(4)&gt;&gt;BW(4,4,20)</filterID><methodID>AIC</methodID><horizontalSlowness><value>5.762762021955707</value></horizontalSlowness><backazimuth><value>162.61678520260847</value></backazimuth><phaseHint>P</phaseHint><evaluationMode>automatic</evaluationMode><comment><text>11.377229369103116</text><id>DFX:rectilinearity</id></comment><comment><text>130.29935464541543</text><id>SNR</id></comment></pick><pick publicID="de.gempa.tb1.Pick/20250411234841.854562.120751"><time><value>2025-04-11T23:48:34.498393Z</value></time><waveformID networkCode="CX" stationCode="PB03" channelCode="HHZ"/><filterID>ITAPER(4)&gt;&gt;BW(4,4,20)</filterID><methodID>AIC</methodID><horizontalSlowness><value>8.310389112879545</value></horizontalSlowness><backazimuth><value>100.74725706769421</value></backazimuth><phaseHint>P</phaseHint><evaluationMode>automatic</evaluationMode><comment><text>6.175301474805382</text><id>DFX:rectilinearity</id></comment><comment><text>25.599456215255575</text><id>SNR</id></comment></pick><pick publicID="de.gempa.tb1.Pick/20250411234842.543776.120753"><time><value>2025-04-11T23:48:35.118393Z</value></time><waveformID networkCode="CX" stationCode="PB02" channelCode="HHZ"/><filterID>ITAPER(4)&gt;&gt;BW(4,4,20)</filterID><methodID>AIC</methodID><horizontalSlowness><value>9.930022143903734</value></horizontalSlowness><backazimuth><value>73.16537102110732</value></backazimuth><phaseHint>P</phaseHint><evaluationMode>automatic</evaluationMode><comment><text>33.738474986446477</text><id>DFX:rectilinearity</id></comment><comment><text>87.36779255051141</text><id>SNR</id></comment></pick><pick publicID="de.gempa.tb1.Pick/20250411234843.179484.120755"><time><value>2025-04-11T23:48:34.858393Z</value></time><waveformID networkCode="CX" stationCode="PB07" channelCode="HHZ"/><filterID>ITAPER(4)&gt;&gt;BW(4,4,20)</filterID><methodID>AIC</methodID><horizontalSlowness><value>13.348907172045536</value></horizontalSlowness><backazimuth><value>96.3038575782944</value></backazimuth><phaseHint>P</phaseHint><evaluationMode>automatic</evaluationMode><comment><text>691.9149474367296</text><id>DFX:rectilinearity</id></comment><comment><text>86.56958621956758</text><id>SNR</id></comment></pick><pick publicID="de.gempa.tb1.Pick/20250411234844.65372.120757"><time><value>2025-04-11T23:48:37.918393Z</value></time><waveformID networkCode="CX" stationCode="PB06" channelCode="HHZ"/><filterID>ITAPER(4)&gt;&gt;BW(4,4,20)</filterID><methodID>AIC</methodID><horizontalSlowness><value>11.022482270945382</value></horizontalSlowness><backazimuth><value>298.96885880138416</value></backazimuth><phaseHint>P</phaseHint><evaluationMode>automatic</evaluationMode><comment><text>24.904903153986385</text><id>DFX:rectilinearity</id></comment><comment><text>12.26697262842849</text><id>SNR</id></comment></pick><pick publicID="de.gempa.tb1.Pick/20250411234845.249064.120759"><time><value>2025-04-11T23:48:39.989999Z</value></time><waveformID networkCode="CX" stationCode="PATCX" channelCode="HHZ"/><filterID>ITAPER(4)&gt;&gt;BW(4,4,20)</filterID><methodID>AIC</methodID><horizontalSlowness><value>13.26495463249679</value></horizontalSlowness><backazimuth><value>101.79365118993452</value></backazimuth><phaseHint>P</phaseHint><evaluationMode>automatic</evaluationMode><comment><text>536.0492602637737</text><id>DFX:rectilinearity</id></comment><comment><text>64.27482802304041</text><id>SNR</id></comment></pick><pick publicID="de.gempa.tb1.Pick/20250411234845.885388.120761"><time><value>2025-04-11T23:48:40.078394Z</value></time><waveformID networkCode="CX" stationCode="PB08" channelCode="HHZ"/><filterID>ITAPER(4)&gt;&gt;BW(4,4,20)</filterID><methodID>AIC</methodID><horizontalSlowness><value>12.824873057944943</value></horizontalSlowness><backazimuth><value>94.35506835817074</value></backazimuth><phaseHint>P</phaseHint><evaluationMode>automatic</evaluationMode><comment><text>11.287272666174355</text><id>DFX:rectilinearity</id></comment><comment><text>12.081832757457798</text><id>SNR</id></comment></pick><pick publicID="de.gempa.tb1.Pick/20250411234850.719208.120763"><time><value>2025-04-11T23:48:43.428393Z</value></time><waveformID networkCode="CX" stationCode="PB15" channelCode="HHZ"/><filterID>ITAPER(4)&gt;&gt;BW(4,4,20)</filterID><methodID>AIC</methodID><horizontalSlowness><value>19.385473774775743</value></horizontalSlowness><backazimuth><value>77.71888423890293</value></backazimuth><phaseHint>P</phaseHint><evaluationMode>automatic</evaluationMode><comment><text>159.44248506133692</text><id>DFX:rectilinearity</id></comment><comment><text>11.904785844600172</text><id>SNR</id></comment></pick><pick publicID="de.gempa.tb1.Pick/20250411234856.63122.120765"><time><value>2025-04-11T23:48:48.819998Z</value></time><waveformID networkCode="CX" stationCode="PSGCX" channelCode="HHZ"/><filterID>ITAPER(4)&gt;&gt;BW(4,4,20)</filterID><methodID>AIC</methodID><horizontalSlowness><value>21.632993210917245</value></horizontalSlowness><backazimuth><value>340.3479213949504</value></backazimuth><phaseHint>P</phaseHint><evaluationMode>automatic</evaluationMode><comment><text>22.433024619128219</text><id>DFX:rectilinearity</id></comment><comment><text>64.08926754350708</text><id>SNR</id></comment></pick><pick publicID="de.gempa.tb1.Pick/20250411234856.859599.120767"><time><value>2025-04-11T23:48:48.258393Z</value></time><waveformID networkCode="CX" stationCode="PB01" channelCode="HHN"/><filterID>ITAPER(2)&gt;&gt;BW(3,3,20)</filterID><methodID>L2-AIC-GRID</methodID><horizontalSlowness><value>21.430089143038757</value></horizontalSlowness><backazimuth><value>67.43800715589366</value></backazimuth><phaseHint>S</phaseHint><evaluationMode>automatic</evaluationMode><comment><text>2483.0522735896043</text><id>DFX:rectilinearity</id></comment><comment><text>de.gempa.tb1.Pick/20250411234836.672864.120749</text><id>RefPickID</id></comment><comment><text>8.362604647089707</text><id>SNR</id></comment></pick><pick publicID="de.gempa.tb1.Pick/20250411234857.514596.120768"><time><value>2025-04-11T23:48:50.55Z</value></time><waveformID networkCode="CX" stationCode="PB19" channelCode="HHZ"/><filterID>ITAPER(4)&gt;&gt;BW(4,4,20)</filterID><methodID>AIC</methodID><horizontalSlowness><value>19.957444736927883</value></horizontalSlowness><backazimuth><value>292.71837513088974</value></backazimuth><phaseHint>P</phaseHint><evaluationMode>automatic</evaluationMode><comment><text>16.030468914595495</text><id>DFX:rectilinearity</id></comment><comment><text>14.148370659786533</text><id>SNR</id></comment></pick><pick publicID="de.gempa.tb1.Pick/20250411234858.550776.120770"><time><value>2025-04-11T23:48:53.028393Z</value></time><waveformID networkCode="CX" stationCode="PB02" channelCode="HHN"/><filterID>ITAPER(2)&gt;&gt;BW(3,3,20)</filterID><methodID>L2-AIC-GRID</methodID><horizontalSlowness><value>9.085231315435566</value></horizontalSlowness><backazimuth><value>347.498747635162</value></backazimuth><phaseHint>S</phaseHint><evaluationMode>automatic</evaluationMode><comment><text>2381.032160155968</text><id>DFX:rectilinearity</id></comment><comment><text>de.gempa.tb1.Pick/20250411234842.543776.120753</text><id>RefPickID</id></comment><comment><text>6.192487508893645</text><id>SNR</id></comment></pick><pick publicID="de.gempa.tb1.Pick/20250411234859.573924.120771"><time><value>2025-04-11T23:48:51.428393Z</value></time><waveformID networkCode="CX" stationCode="PB03" channelCode="HHN"/><filterID>ITAPER(2)&gt;&gt;BW(3,3,20)</filterID><methodID>L2-AIC-GRID</methodID><horizontalSlowness><value>13.778176791102181</value></horizontalSlowness><backazimuth><value>280.5415072206996</value></backazimuth><phaseHint>S</phaseHint><evaluationMode>automatic</evaluationMode><comment><text>375.0646131986403</text><id>DFX:rectilinearity</id></comment><comment><text>de.gempa.tb1.Pick/20250411234841.854562.120751</text><id>RefPickID</id></comment><comment><text>13.276795143994716</text><id>SNR</id></comment></pick><pick publicID="de.gempa.tb1.Pick/20250411234900.803823.120772"><time><value>2025-04-11T23:48:43.71Z</value></time><waveformID networkCode="CX" stationCode="PB09" channelCode="HHN"/><filterID>ITAPER(2)&gt;&gt;BW(3,3,20)</filterID><methodID>L2-AIC-GRID</methodID><horizontalSlowness><value>13.99537743333057</value></horizontalSlowness><backazimuth><value>328.8955407339577</value></backazimuth><phaseHint>S</phaseHint><evaluationMode>automatic</evaluationMode><comment><text>484.3524388447681</text><id>DFX:rectilinearity</id></comment><comment><text>de.gempa.tb1.Pick/20250411234836.593274.120747</text><id>RefPickID</id></comment><comment><text>5.519780672655096</text><id>SNR</id></comment></pick><pick publicID="de.gempa.tb1.Pick/20250411234904.6177.120773"><time><value>2025-04-11T23:48:57.698393Z</value></time><waveformID networkCode="CX" stationCode="PB06" channelCode="HHN"/><filterID>ITAPER(2)&gt;&gt;BW(3,3,20)</filterID><methodID>L2-AIC-GRID</methodID><horizontalSlowness><value>17.519973805670777</value></horizontalSlowness><backazimuth><value>297.12289294493195</value></backazimuth><phaseHint>S</phaseHint><evaluationMode>automatic</evaluationMode><comment><text>433.55692082487735</text><id>DFX:rectilinearity</id></comment><comment><text>de.gempa.tb1.Pick/20250411234844.65372.120757</text><id>RefPickID</id></comment><comment><text>20.134904548810773</text><id>SNR</id></comment></pick><pick publicID="de.gempa.tb1.Pick/20250411234908.732897.120776"><time><value>2025-04-11T23:49:01.418394Z</value></time><waveformID networkCode="CX" stationCode="PB08" channelCode="HHN"/><filterID>ITAPER(2)&gt;&gt;BW(3,3,20)</filterID><methodID>L2-AIC-GRID</methodID><horizontalSlowness><value>12.918925723643055</value></horizontalSlowness><backazimuth><value>223.97274360607446</value></backazimuth><phaseHint>S</phaseHint><evaluationMode>automatic</evaluationMode><comment><text>658.366795724287</text><id>DFX:rectilinearity</id></comment><comment><text>de.gempa.tb1.Pick/20250411234845.885388.120761</text><id>RefPickID</id></comment><comment><text>8.736303067150848</text><id>SNR</id></comment></pick><pick publicID="de.gempa.tb1.Pick/20250411234910.373584.120778"><time><value>2025-04-11T23:49:01.439999Z</value></time><waveformID networkCode="CX" stationCode="PATCX" channelCode="HHN"/><filterID>ITAPER(2)&gt;&gt;BW(3,3,20)</filterID><methodID>L2-AIC-GRID</methodID><horizontalSlowness><value>22.263367016452133</value></horizontalSlowness><backazimuth><value>205.84762279387533</value></backazimuth><phaseHint>S</phaseHint><evaluationMode>automatic</evaluationMode><comment><text>2636.656507984497</text><id>DFX:rectilinearity</id></comment><comment><text>de.gempa.tb1.Pick/20250411234845.249064.120759</text><id>RefPickID</id></comment><comment><text>7.661227793116173</text><id>SNR</id></comment></pick><pick publicID="de.gempa.tb1.Pick/20250411234916.853778.120784"><time><value>2025-04-11T23:49:07.388393Z</value></time><waveformID networkCode="CX" stationCode="PB15" channelCode="HHN"/><filterID>ITAPER(2)&gt;&gt;BW(3,3,20)</filterID><methodID>L2-AIC-GRID</methodID><horizontalSlowness><value>21.905829417538886</value></horizontalSlowness><backazimuth><value>114.89419426338387</value></backazimuth><phaseHint>S</phaseHint><evaluationMode>automatic</evaluationMode><comment><text>13244.971041424988</text><id>DFX:rectilinearity</id></comment><comment><text>de.gempa.tb1.Pick/20250411234850.719208.120763</text><id>RefPickID</id></comment><comment><text>7.456209160018827</text><id>SNR</id></comment></pick><pick publicID="de.gempa.tb1.Pick/20250411234919.288638.120785"><time><value>2025-04-11T23:48:52.378393Z</value></time><waveformID networkCode="CX" stationCode="PB07" channelCode="HHN"/><filterID>ITAPER(2)&gt;&gt;BW(3,3,20)</filterID><methodID>L2-AIC-GRID</methodID><horizontalSlowness><value>21.494208061317295</value></horizontalSlowness><backazimuth><value>259.134711657816</value></backazimuth><phaseHint>S</phaseHint><evaluationMode>automatic</evaluationMode><comment><text>47233.56491811662</text><id>DFX:rectilinearity</id></comment><comment><text>de.gempa.tb1.Pick/20250411234843.179484.120755</text><id>RefPickID</id></comment><comment><text>6.388948057974117</text><id>SNR</id></comment></pick><pick publicID="de.gempa.tb1.Pick/20250411234928.719286.120788"><time><value>2025-04-11T23:49:20.72Z</value></time><waveformID networkCode="CX" stationCode="PB19" channelCode="HHN"/><filterID>ITAPER(2)&gt;&gt;BW(3,3,20)</filterID><methodID>L2-AIC-GRID</methodID><horizontalSlowness><value>21.40722539996418</value></horizontalSlowness><backazimuth><value>58.02509811574754</value></backazimuth><phaseHint>S</phaseHint><evaluationMode>automatic</evaluationMode><comment><text>159.0126272066581</text><id>DFX:rectilinearity</id></comment><comment><text>de.gempa.tb1.Pick/20250411234857.514596.120768</text><id>RefPickID</id></comment><comment><text>6.016753301521664</text><id>SNR</id></comment></pick><origin publicID="de.gempa.tb1.Origin/20250411234928.72422.69047"><time><value>2025-04-11T23:48:12.553692Z</value><uncertainty>0.5917063355445862</uncertainty></time><latitude><value>-21.568096160888672</value><uncertainty>2.1818339824676514</uncertainty></latitude><longitude><value>-68.78250122070312</value><uncertainty>6.614108085632324</uncertainty></longitude><depth><value>118.72613525390625</value><uncertainty>6.731416702270508</uncertainty></depth><depthType>from location</depthType><methodID>LOCSAT</methodID><earthModelID>iasp91_scanloc</earthModelID><quality><associatedPhaseCount>21</associatedPhaseCount><usedPhaseCount>21</usedPhaseCount><associatedStationCount>11</associatedStationCount><usedStationCount>11</usedStationCount><depthPhaseCount>0</depthPhaseCount><standardError>0.5529398615221374</standardError><azimuthalGap>205.10316467285156</azimuthalGap><maximumDistance>2.3725132942199707</maximumDistance><minimumDistance>0.4839351177215576</minimumDistance><medianDistance>1.3481736183166504</medianDistance></quality><uncertainty><minHorizontalUncertainty>4.629825592041016</minHorizontalUncertainty><maxHorizontalUncertainty>14.193864822387695</maxHorizontalUncertainty><azimuthMaxHorizontalUncertainty>87.16647338867188</azimuthMaxHorizontalUncertainty><preferredDescription>horizontal uncertainty</preferredDescription></uncertainty><evaluationMode>automatic</evaluationMode><evaluationStatus>confirmed</evaluationStatus><comment><text>0.00</text><id>mismatchScore</id></comment><comment><text>mismatchScore</text><id>scevalMethod</id></comment><arrival><pickID>de.gempa.tb1.Pick/20250411234836.593274.120747</pickID><phase>P</phase><azimuth>241.919189453125</azimuth><distance>0.4839351177215576</distance><timeResidual>-0.39531707763671875</timeResidual><timeUsed>true</timeUsed><horizontalSlownessUsed>false</horizontalSlownessUsed><backazimuthUsed>false</backazimuthUsed><weight>1</weight></arrival><arrival><pickID>de.gempa.tb1.Pick/20250411234836.672864.120749</pickID><phase>P</phase><azimuth>308.34197998046875</azimuth><distance>0.8395264744758606</distance><timeResidual>-0.7276935577392578</timeResidual><timeUsed>true</timeUsed><horizontalSlownessUsed>false</horizontalSlownessUsed><backazimuthUsed>false</backazimuthUsed><weight>1</weight></arrival><arrival><pickID>de.gempa.tb1.Pick/20250411234841.854562.120751</pickID><phase>P</phase><azimuth>241.89793395996094</azimuth><distance>1.0208081007003784</distance><timeResidual>-0.2228107452392578</timeResidual><timeUsed>true</timeUsed><horizontalSlownessUsed>false</horizontalSlownessUsed><backazimuthUsed>false</backazimuthUsed><weight>1</weight></arrival><arrival><pickID>de.gempa.tb1.Pick/20250411234842.543776.120753</pickID><phase>P</phase><azimuth>283.1976013183594</azimuth><distance>1.0663983821868896</distance><timeResidual>-0.06637763977050781</timeResidual><timeUsed>true</timeUsed><horizontalSlownessUsed>false</horizontalSlownessUsed><backazimuthUsed>false</backazimuthUsed><weight>1</weight></arrival><arrival><pickID>de.gempa.tb1.Pick/20250411234843.179484.120755</pickID><phase>P</phase><azimuth>261.0607604980469</azimuth><distance>1.0388203859329224</distance><timeResidual>-0.04509162902832031</timeResidual><timeUsed>true</timeUsed><horizontalSlownessUsed>false</horizontalSlownessUsed><backazimuthUsed>false</backazimuthUsed><weight>1</weight></arrival><arrival><pickID>de.gempa.tb1.Pick/20250411234844.65372.120757</pickID><phase>P</phase><azimuth>212.73179626464844</azimuth><distance>1.3481736183166504</distance><timeResidual>-0.28277015686035156</timeResidual><timeUsed>true</timeUsed><horizontalSlownessUsed>false</horizontalSlownessUsed><backazimuthUsed>false</backazimuthUsed><weight>1</weight></arrival><arrival><pickID>de.gempa.tb1.Pick/20250411234845.249064.120759</pickID><phase>P</phase><azimuth>299.9323425292969</azimuth><distance>1.4793052673339844</distance><timeResidual>0.2849540710449219</timeResidual><timeUsed>true</timeUsed><horizontalSlownessUsed>false</horizontalSlownessUsed><backazimuthUsed>false</backazimuthUsed><weight>1</weight></arrival><arrival><pickID>de.gempa.tb1.Pick/20250411234845.885388.120761</pickID><phase>P</phase><azimuth>346.2044982910156</azimuth><distance>1.4615830183029175</distance><timeResidual>0.5738754272460938</timeResidual><timeUsed>true</timeUsed><horizontalSlownessUsed>false</horizontalSlownessUsed><backazimuthUsed>false</backazimuthUsed><weight>1</weight></arrival><arrival><pickID>de.gempa.tb1.Pick/20250411234850.719208.120763</pickID><phase>P</phase><azimuth>201.19149780273438</azimuth><distance>1.7523425817489624</distance><timeResidual>0.5022449493408203</timeResidual><timeUsed>true</timeUsed><horizontalSlownessUsed>false</horizontalSlownessUsed><backazimuthUsed>false</backazimuthUsed><weight>1</weight></arrival><arrival><pickID>de.gempa.tb1.Pick/20250411234856.63122.120765</pickID><phase>P</phase><azimuth>327.1235046386719</azimuth><distance>2.328674793243408</distance><timeResidual>-1.3182544708251953</timeResidual><timeUsed>true</timeUsed><horizontalSlownessUsed>false</horizontalSlownessUsed><backazimuthUsed>false</backazimuthUsed><weight>1</weight></arrival><arrival><pickID>de.gempa.tb1.Pick/20250411234856.859599.120767</pickID><phase>S</phase><azimuth>308.34197998046875</azimuth><distance>0.8395264744758606</distance><timeResidual>-0.5422096252441406</timeResidual><timeUsed>true</timeUsed><horizontalSlownessUsed>false</horizontalSlownessUsed><backazimuthUsed>false</backazimuthUsed><weight>1</weight></arrival><arrival><pickID>de.gempa.tb1.Pick/20250411234857.514596.120768</pickID><phase>P</phase><azimuth>191.3076629638672</azimuth><distance>2.3725132942199707</distance><timeResidual>-0.12316513061523438</timeResidual><timeUsed>true</timeUsed><horizontalSlownessUsed>false</horizontalSlownessUsed><backazimuthUsed>false</backazimuthUsed><weight>1</weight></arrival><arrival><pickID>de.gempa.tb1.Pick/20250411234858.550776.120770</pickID><phase>S</phase><azimuth>283.1976013183594</azimuth><distance>1.0663983821868896</distance><timeResidual>0.3409919738769531</timeResidual><timeUsed>true</timeUsed><horizontalSlownessUsed>false</horizontalSlownessUsed><backazimuthUsed>false</backazimuthUs