<?xml version="1.0" encoding="UTF-8"?>
<seiscomp xmlns="http://geofon.gfz-potsdam.de/ns/seiscomp3-schema/0.13" version="0.13"><EventParameters><pick publicID="de.gempa.tb1.Pick/20250412051629.704928.122107"><time><value>2025-04-12T05:16:21.62Z</value></time><waveformID networkCode="CX" stationCode="PB09" channelCode="HHZ"/><filterID>ITAPER(4)&gt;&gt;BW(4,4,20)</filterID><methodID>AIC</methodID><horizontalSlowness><value>20.571330924026018</value></horizontalSlowness><backazimuth><value>341.3857924922145</value></backazimuth><phaseHint>P</phaseHint><evaluationMode>automatic</evaluationMode><comment><text>11.56729780118854</text><id>DFX:rectilinearity</id></comment><comment><text>20.545953553767305</text><id>SNR</id></comment></pick><pick publicID="de.gempa.tb1.Pick/20250412051630.512236.122109"><time><value>2025-04-12T05:16:23.578393Z</value></time><waveformID networkCode="CX" stationCode="PB06" channelCode="HHZ"/><filterID>ITAPER(4)&gt;&gt;BW(4,4,20)</filterID><methodID>AIC</methodID><horizontalSlowness><value>19.63485912290529</value></horizontalSlowness><backazimuth><value>347.54010845972954</value></backazimuth><phaseHint>P</phaseHint><evaluationMode>automatic</evaluationMode><comment><text>94.2856725352504</text><id>DFX:rectilinearity</id></comment><comment><text>8.301765033012293</text><id>SNR</id></comment></pick><pick publicID="de.gempa.tb1.Pick/20250412051630.627549.122111"><time><value>2025-04-12T05:16:24.678393Z</value></time><waveformID networkCode="CX" stationCode="PB15" channelCode="HHZ"/><filterID>ITAPER(4)&gt;&gt;BW(4,4,20)</filterID><methodID>AIC</methodID><horizontalSlowness><value>21.28304314452816</value></horizontalSlowness><backazimuth><value>118.45987791841645</value></backazimuth><phaseHint>P</phaseHint><evaluationMode>automatic</evaluationMode><comment><text>218.08406072599638</text><id>DFX:rectilinearity</id></comment><comment><text>9.735378540930935</text><id>SNR</id></comment></pick><pick publicID="de.gempa.tb1.Pick/20250412051631.541417.122113"><time><value>2025-04-12T05:16:25.188393Z</value></time><waveformID networkCode="CX" stationCode="PB03" channelCode="HHZ"/><filterID>ITAPER(4)&gt;&gt;BW(4,4,20)</filterID><methodID>AIC</methodID><horizontalSlowness><value>9.909189804591273</value></horizontalSlowness><backazimuth><value>114.45603356240736</value></backazimuth><phaseHint>P</phaseHint><evaluationMode>automatic</evaluationMode><comment><text>38.431618363727594</text><id>DFX:rectilinearity</id></comment><comment><text>16.042096617323054</text><id>SNR</id></comment></pick><pick publicID="de.gempa.tb1.Pick/20250412051633.529149.122115"><time><value>2025-04-12T05:16:28.828393Z</value></time><waveformID networkCode="CX" stationCode="PB02" channelCode="HHZ"/><filterID>ITAPER(4)&gt;&gt;BW(4,4,20)</filterID><methodID>AIC</methodID><horizontalSlowness><value>13.23381376980348</value></horizontalSlowness><backazimuth><value>65.79140530986186</value></backazimuth><phaseHint>P</phaseHint><evaluationMode>automatic</evaluationMode><comment><text>30.49379326603458</text><id>DFX:rectilinearity</id></comment><comment><text>13.504634834563664</text><id>SNR</id></comment></pick><pick publicID="de.gempa.tb1.Pick/20250412051635.561055.122117"><time><value>2025-04-12T05:16:27.46Z</value></time><waveformID networkCode="CX" stationCode="PB19" channelCode="HHZ"/><filterID>ITAPER(4)&gt;&gt;BW(4,4,20)</filterID><methodID>AIC</methodID><horizontalSlowness><value>22.583092800053137</value></horizontalSlowness><backazimuth><value>154.4704771139161</value></backazimuth><phaseHint>P</phaseHint><evaluationMode>automatic</evaluationMode><comment><text>34.07641551445736</text><id>DFX:rectilinearity</id></comment><comment><text>7.720804096235756</text><id>SNR</id></comment></pick><pick publicID="de.gempa.tb1.Pick/20250412051635.579869.122119"><time><value>2025-04-12T05:16:26.698393Z</value></time><waveformID networkCode="CX" stationCode="PB01" channelCode="HHZ"/><filterID>ITAPER(4)&gt;&gt;BW(4,4,20)</filterID><methodID>AIC</methodID><horizontalSlowness><value>16.274701370767659</value></horizontalSlowness><backazimuth><value>239.52470150423673</value></backazimuth><phaseHint>P</phaseHint><evaluationMode>automatic</evaluationMode><comment><text>10.18752600985708</text><id>DFX:rectilinearity</id></comment><comment><text>11.00366046790257</text><id>SNR</id></comment></pick><pick publicID="de.gempa.tb1.Pick/20250412051638.773191.122121"><time><value>2025-04-12T05:16:27.248394Z</value></time><waveformID networkCode="CX" stationCode="PB07" channelCode="HHZ"/><filterID>ITAPER(4)&gt;&gt;BW(4,4,20)</filterID><methodID>AIC</methodID><horizontalSlowness><value>20.497942148587708</value></horizontalSlowness><backazimuth><value>80.73217711176186</value></backazimuth><phaseHint>P</phaseHint><evaluationMode>automatic</evaluationMode><comment><text>119.7439137146655</text><id>DFX:rectilinearity</id></comment><comment><text>45.47963381791183</text><id>SNR</id></comment></pick><pick publicID="de.gempa.tb1.Pick/20250412051648.50337.122125"><time><value>2025-04-12T05:16:42.31Z</value></time><waveformID networkCode="CX" stationCode="PSGCX" channelCode="HHZ"/><filterID>ITAPER(4)&gt;&gt;BW(4,4,20)</filterID><methodID>AIC</methodID><horizontalSlowness><value>22.37231589376666</value></horizontalSlowness><backazimuth><value>278.3480333697563</value></backazimuth><phaseHint>P</phaseHint><evaluationMode>automatic</evaluationMode><comment><text>10.970608846213548</text><id>DFX:rectilinearity</id></comment><comment><text>11.765261047025746</text><id>SNR</id></comment></pick><pick publicID="de.gempa.tb1.Pick/20250412051703.573782.122130"><time><value>2025-04-12T05:16:57.268393Z</value></time><waveformID networkCode="CX" stationCode="PB03" channelCode="HHN"/><filterID>ITAPER(2)&gt;&gt;BW(3,3,20)</filterID><methodID>L2-AIC-GRID</methodID><horizontalSlowness><value>15.912314021313232</value></horizontalSlowness><backazimuth><value>236.1315584923747</value></backazimuth><phaseHint>S</phaseHint><evaluationMode>automatic</evaluationMode><comment><text>168.20015051673232</text><id>DFX:rectilinearity</id></comment><comment><text>de.gempa.tb1.Pick/20250412051631.541417.122113</text><id>RefPickID</id></comment><comment><text>13.332937058263926</text><id>SNR</id></comment></pick><pick publicID="de.gempa.tb1.Pick/20250412051707.612432.122133"><time><value>2025-04-12T05:16:55.168393Z</value></time><waveformID networkCode="CX" stationCode="PB06" channelCode="HHN"/><filterID>ITAPER(2)&gt;&gt;BW(3,3,20)</filterID><methodID>L2-AIC-GRID</methodID><horizontalSlowness><value>15.757978936645689</value></horizontalSlowness><backazimuth><value>326.2899415446155</value></backazimuth><phaseHint>S</phaseHint><evaluationMode>automatic</evaluationMode><comment><text>126.62064218022347</text><id>DFX:rectilinearity</id></comment><comment><text>de.gempa.tb1.Pick/20250412051630.512236.122109</text><id>RefPickID</id></comment><comment><text>5.041144269876376</text><id>SNR</id></comment></pick><pick publicID="de.gempa.tb1.Pick/20250412051709.660051.122134"><time><value>2025-04-12T05:17:03.088393Z</value></time><waveformID networkCode="CX" stationCode="PB02" channelCode="HHN"/><filterID>ITAPER(2)&gt;&gt;BW(3,3,20)</filterID><methodID>L2-AIC-GRID</methodID><horizontalSlowness><value>22.24925764523742</value></horizontalSlowness><backazimuth><value>235.06163706101654</value></backazimuth><phaseHint>S</phaseHint><evaluationMode>automatic</evaluationMode><comment><text>276.014816260648</text><id>DFX:rectilinearity</id></comment><comment><text>de.gempa.tb1.Pick/20250412051633.529149.122115</text><id>RefPickID</id></comment><comment><text>11.094312535623674</text><id>SNR</id></comment></pick><pick publicID="de.gempa.tb1.Pick/20250412051709.76966.122135"><time><value>2025-04-12T05:16:59.858393Z</value></time><waveformID networkCode="CX" stationCode="PB01" channelCode="HHN"/><filterID>ITAPER(2)&gt;&gt;BW(3,3,20)</filterID><methodID>L2-AIC-GRID</methodID><horizontalSlowness><value>19.884945580793811</value></horizontalSlowness><backazimuth><value>9.899058826490602</value></backazimuth><phaseHint>S</phaseHint><evaluationMode>automatic</evaluationMode><comment><text>106.82446642880615</text><id>DFX:rectilinearity</id></comment><comment><text>de.gempa.tb1.Pick/20250412051635.579869.122119</text><id>RefPickID</id></comment><comment><text>10.878240215223652</text><id>SNR</id></comment></pick><pick publicID="de.gempa.tb1.Pick/20250412051737.767539.122136"><time><value>2025-04-12T05:17:27.0000Z</value></time><waveformID networkCode="CX" stationCode="PSGCX" channelCode="HHN"/><filterID>ITAPER(2)&gt;&gt;BW(3,3,20)</filterID><methodID>L2-AIC-GRID</methodID><horizontalSlowness><value>19.523371654736103</value></horizontalSlowness><backazimuth><value>125.98325718120753</value></backazimuth><phaseHint>S</phaseHint><evaluationMode>automatic</evaluationMode><comment><text>23.68496292566019</text><id>DFX:rectilinearity</id></comment><comment><text>de.gempa.tb1.Pick/20250412051648.50337.122125</text><id>RefPickID</id></comment><comment><text>7.979048065915253</text><id>SNR</id></comment></pick><pick publicID="de.gempa.tb1.Pick/20250412051751.985847.122137"><time><value>2025-04-12T05:17:00.518394Z</value></time><waveformID networkCode="CX" stationCode="PB07" channelCode="HHN"/><filterID>ITAPER(2)&gt;&gt;BW(3,3,20)</filterID><methodID>L2-AIC-GRID</methodID><horizontalSlowness><value>23.22210387400231</value></horizontalSlowness><backazimuth><value>39.22845326232252</value></backazimuth><phaseHint>S</phaseHint><evaluationMode>automatic</evaluationMode><comment><text>2163.2810750957</text><id>DFX:rectilinearity</id></comment><comment><text>de.gempa.tb1.Pick/20250412051638.773191.122121</text><id>RefPickID</id></comment><comment><text>8.541868463902732</text><id>SNR</id></comment></pick><origin publicID="de.gempa.tb1.Origin/20250412051751.992188.74875"><time><value>2025-04-12T05:15:44.809156Z</value><uncertainty>0.8276851177215576</uncertainty></time><latitude><value>-22.273845672607422</value><uncertainty>6.195292949676514</uncertainty></latitude><longitude><value>-67.69613647460938</value><uncertainty>23.842254638671875</uncertainty></longitude><depth><value>232.7630920410156</value><uncertainty>22.488609313964844</uncertainty></depth><depthType>from location</depthType><methodID>LOCSAT</methodID><earthModelID>iasp91_scanloc</earthModelID><quality><associatedPhaseCount>15</associatedPhaseCount><usedPhaseCount>15</usedPhaseCount><associatedStationCount>9</associatedStationCount><usedStationCount>9</usedStationCount><depthPhaseCount>0</depthPhaseCount><standardError>0.26752306391128955</standardError><azimuthalGap>262.68336486816406</azimuthalGap><maximumDistance>3.4983417987823486</maximumDistance><minimumDistance>1.5108696222305298</minimumDistance><medianDistance>2.067864179611206</medianDistance></quality><uncertainty><minHorizontalUncertainty>9.884821891784668</minHorizontalUncertainty><maxHorizontalUncertainty>51.8751335144043</maxHorizontalUncertainty><azimuthMaxHorizontalUncertainty>79.96923828125</azimuthMaxHorizontalUncertainty><preferredDescription>horizontal uncertainty</preferredDescription></uncertainty><evaluationMode>automatic</evaluationMode><evaluationStatus>confirmed</evaluationStatus><comment><text>0.17</text><id>mismatchScore</id></comment><comment><text>mismatchScore</text><id>scevalMethod</id></comment><arrival><pickID>de.gempa.tb1.Pick/20250412051629.704928.122107</pickID><phase>P</phase><azimuth>288.0408630371094</azimuth><distance>1.5108696222305298</distance><timeResidual>-0.01888275146484375</timeResidual><timeUsed>true</timeUsed><horizontalSlownessUsed>false</horizontalSlownessUsed><backazimuthUsed>false</backazimuthUsed><weight>1</weight></arrival><arrival><pickID>de.gempa.tb1.Pick/20250412051630.512236.122109</pickID><phase>P</phase><azimuth>255.7262420654297</azimuth><distance>1.7872368097305298</distance><timeResidual>-0.38996124267578125</timeResidual><timeUsed>true</timeUsed><horizontalSlownessUsed>false</horizontalSlownessUsed><backazimuthUsed>false</backazimuthUsed><weight>1</weight></arrival><arrival><pickID>de.gempa.tb1.Pick/20250412051630.627549.122111</pickID><phase>P</phase><azimuth>240.0790252685547</azimuth><distance>1.8839974403381348</distance><timeResidual>-0.15627288818359375</timeResidual><timeUsed>true</timeUsed><horizontalSlownessUsed>false</horizontalSlownessUsed><backazimuthUsed>false</backazimuthUsed><weight>1</weight></arrival><arrival><pickID>de.gempa.tb1.Pick/20250412051631.541417.122113</pickID><phase>P</phase><azimuth>276.3222351074219</azimuth><distance>1.9199473857879639</distance><timeResidual>0.010761260986328125</timeResidual><timeUsed>true</timeUsed><horizontalSlownessUsed>false</horizontalSlownessUsed><backazimuthUsed>false</backazimuthUsed><weight>1</weight></arrival><arrival><pickID>de.gempa.tb1.Pick/20250412051633.529149.122115</pickID><phase>P</phase><azimuth>294.5013732910156</azimuth><distance>2.254162073135376</distance><timeResidual>0.417205810546875</timeResidual><timeUsed>true</timeUsed><horizontalSlownessUsed>false</horizontalSlownessUsed><backazimuthUsed>false</backazimuthUsed><weight>1</weight></arrival><arrival><pickID>de.gempa.tb1.Pick/20250412051635.561055.122117</pickID><phase>P</phase><azimuth>221.82066345214844</azimuth><distance>2.1888110637664795</distance><timeResidual>-0.2754173278808594</timeResidual><timeUsed>true</timeUsed><horizontalSlownessUsed>false</horizontalSlownessUsed><backazimuthUsed>false</backazimuthUsed><weight>1</weight></arrival><arrival><pickID>de.gempa.tb1.Pick/20250412051635.579869.122119</pickID><phase>P</phase><azimuth>305.9814453125</azimuth><distance>2.067864179611206</distance><timeResidual>0.11181640625</timeResidual><timeUsed>true</timeUsed><horizontalSlownessUsed>false</horizontalSlownessUsed><backazimuthUsed>false</backazimuthUsed><weight>1</weight></arrival><arrival><pickID>de.gempa.tb1.Pick/20250412051638.773191.122121</pickID><phase>P</phase><azimuth>284.5885925292969</azimuth><distance>2.104123592376709</distance><timeResidual>0.3181419372558594</timeResidual><timeUsed>true</timeUsed><horizontalSlownessUsed>false</horizontalSlownessUsed><backazimuthUsed>false</backazimuthUsed><weight>1</weight></arrival><arrival><pickID>de.gempa.tb1.Pick/20250412051648.50337.122125</pickID><phase>P</phase><azimuth>319.1372985839844</azimuth><distance>3.4983417987823486</distance><timeResidual>0.2806243896484375</timeResidual><timeUsed>true</timeUsed><horizontalSlownessUsed>false</horizontalSlownessUsed><backazimuthUsed>false</backazimuthUsed><weight>1</weight></arrival><arrival><pickID>de.gempa.tb1.Pick/20250412051703.573782.122130</pickID><phase>S</phase><azimuth>276.3222351074219</azimuth><distance>1.9199473857879639</distance><timeResidual>0.02686309814453125</timeResidual><timeUsed>true</timeUsed><horizontalSlownessUsed>false</horizontalSlownessUsed><backazimuthUsed>false</backazimuthUsed><weight>1</weight></arrival><arrival><pickID>de.gempa.tb1.Pick/20250412051707.612432.122133</pickID><phase>S</phase><azimuth>255.7262420654297</azimuth><distance>1.7872368097305298</distance><timeResidual>0.1061859130859375</timeResidual><timeUsed>true</timeUsed><horizontalSlownessUsed>false</horizontalSlownessUsed><backazimuthUsed>false</backazimuthUsed><weight>1</weight></arrival><arrival><pickID>de.gempa.tb1.Pick/20250412051709.660051.122134</pickID><phase>S</phase><azimuth>294.5013732910156</azimuth><distance>2.254162073135376</distance><timeResidual>0.01935577392578125</timeResidual><timeUsed>true</timeUsed><horizontalSlownessUsed>false</horizontalSlownessUsed><backazimuthUsed>false</backazimuthUsed><weight>1</weight></arrival><arrival><pickID>de.gempa.tb1.Pick/20250412051709.76966.122135</pickID><phase>S</phase><azimuth>305.9814453125</azimuth><distance>2.067864179611206</distance><timeResidual>0.07995223999023438</timeResidual><timeUsed>true</timeUsed><horizontalSlownessUsed>false</horizontalSlownessUsed><backazimuthUsed>false</backazimuthUsed><weight>1</weight></arrival><arrival><pickID>de.gempa.tb1.Pick/20250412051737.767539.122136</pickID><phase>S</phase><azimuth>319.1372985839844</azimuth><distance>3.4983417987823486</distance><timeResidual>-0.6491317749023438</timeResidual><timeUsed>true</timeUsed><horizontalSlownessUsed>false</horizontalSlownessUsed><backazimuthUsed>false</backazimuthUsed><weight>1</weight></arrival><arrival><pickID>de.gempa.tb1.Pick/20250412051751.985847.122137</pickID><phase>S</phase><azimuth>284.5885925292969</azimuth><distance>2.104123592376709</distance><timeResidual>0.11851882934570312</timeResidual><timeUsed>true</timeUsed><horizontalSlownessUsed>false</horizontalSlownessUsed><backazimuthUsed>false</backazimuthUsed><weight>1</weight></arrival><magnitude publicID="de.gempa.tb1.Magnitude/20250412051755.939557.180674"><magnitude><value>2.9612797231351737</value></magnitude><type>M</type><methodID>weighted average</methodID><stationCount>7</stationCount></magnitude></origin><event publicID="gempa2025heyt"><preferredOriginID>de.gempa.tb1.Origin/20250412051751.992188.74875</preferredOriginID><preferredMagnitudeID>de.gempa.tb1.Magnitude/20250412051755.939557.180674</preferredMagnitudeID><description><text>Chile-Bolivia Border Region</text><type>region name</type></description><originReference>de.gempa.tb1.Origin/20250412051751.992188.74875</originReference></event></EventParameters></seiscomp>