<?xml version="1.0" encoding="UTF-8"?>
<seiscomp xmlns="http://geofon.gfz-potsdam.de/ns/seiscomp3-schema/0.13" version="0.13"><EventParameters><pick publicID="de.gempa.tb1.Pick/20250414111612.041087.137534"><time><value>2025-04-14T11:16:06.978393Z</value></time><waveformID networkCode="CX" stationCode="PB08" channelCode="HHZ"/><filterID>ITAPER(4)&gt;&gt;BW(4,4,20)</filterID><methodID>AIC</methodID><horizontalSlowness><value>16.815514672937478</value></horizontalSlowness><backazimuth><value>201.27862528165855</value></backazimuth><phaseHint>P</phaseHint><evaluationMode>automatic</evaluationMode><comment><text>3757.79324136947</text><id>DFX:rectilinearity</id></comment><comment><text>989.2105895045461</text><id>SNR</id></comment></pick><pick publicID="de.gempa.tb1.Pick/20250414111617.611591.137538"><time><value>2025-04-14T11:16:13.048393Z</value></time><waveformID networkCode="CX" stationCode="PB01" channelCode="HHZ"/><filterID>ITAPER(4)&gt;&gt;BW(4,4,20)</filterID><methodID>AIC</methodID><horizontalSlowness><value>12.484856592646402</value></horizontalSlowness><backazimuth><value>349.0352357648622</value></backazimuth><phaseHint>P</phaseHint><evaluationMode>automatic</evaluationMode><comment><text>4928.797787076725</text><id>DFX:rectilinearity</id></comment><comment><text>248.550608222359</text><id>SNR</id></comment></pick><pick publicID="de.gempa.tb1.Pick/20250414111619.71362.137542"><time><value>2025-04-14T11:16:13.540001Z</value></time><waveformID networkCode="CX" stationCode="PSGCX" channelCode="HHZ"/><filterID>ITAPER(4)&gt;&gt;BW(4,4,20)</filterID><methodID>AIC</methodID><horizontalSlowness><value>9.885819507041512</value></horizontalSlowness><backazimuth><value>115.63089864878002</value></backazimuth><phaseHint>P</phaseHint><evaluationMode>automatic</evaluationMode><comment><text>3346.8244575822573</text><id>DFX:rectilinearity</id></comment><comment><text>633.6181256938283</text><id>SNR</id></comment></pick><pick publicID="de.gempa.tb1.Pick/20250414111620.255405.137545"><time><value>2025-04-14T11:16:14.929999Z</value></time><waveformID networkCode="CX" stationCode="PATCX" channelCode="HHZ"/><filterID>ITAPER(4)&gt;&gt;BW(4,4,20)</filterID><methodID>AIC</methodID><horizontalSlowness><value>2.444636454004925</value></horizontalSlowness><backazimuth><value>15.234406607185463</value></backazimuth><phaseHint>P</phaseHint><evaluationMode>automatic</evaluationMode><comment><text>2130.1747689560862</text><id>DFX:rectilinearity</id></comment><comment><text>130.45099303033186</text><id>SNR</id></comment></pick><pick publicID="de.gempa.tb1.Pick/20250414111623.448139.137547"><time><value>2025-04-14T11:16:18.088393Z</value></time><waveformID networkCode="CX" stationCode="PB02" channelCode="HHZ"/><filterID>ITAPER(4)&gt;&gt;BW(4,4,20)</filterID><methodID>AIC</methodID><horizontalSlowness><value>7.479653161147682</value></horizontalSlowness><backazimuth><value>9.203237880577404</value></backazimuth><phaseHint>P</phaseHint><evaluationMode>automatic</evaluationMode><comment><text>759.8615959322971</text><id>DFX:rectilinearity</id></comment><comment><text>38.765841124517827</text><id>SNR</id></comment></pick><pick publicID="de.gempa.tb1.Pick/20250414111627.713593.137554"><time><value>2025-04-14T11:16:17.798393Z</value></time><waveformID networkCode="CX" stationCode="PB08" channelCode="HHN"/><filterID>ITAPER(2)&gt;&gt;BW(3,3,20)</filterID><methodID>L2-AIC-GRID</methodID><horizontalSlowness><value>16.966293783018184</value></horizontalSlowness><backazimuth><value>201.45388282777367</value></backazimuth><phaseHint>S</phaseHint><evaluationMode>automatic</evaluationMode><comment><text>35327.645617040267</text><id>DFX:rectilinearity</id></comment><comment><text>de.gempa.tb1.Pick/20250414111612.041087.137534</text><id>RefPickID</id></comment><comment><text>5.724608370869271</text><id>SNR</id></comment></pick><pick publicID="de.gempa.tb1.Pick/20250414111632.633352.137555"><time><value>2025-04-14T11:16:26.228393Z</value></time><waveformID networkCode="CX" stationCode="PB03" channelCode="HHZ"/><filterID>ITAPER(4)&gt;&gt;BW(4,4,20)</filterID><methodID>AIC</methodID><horizontalSlowness><value>9.840075520714512</value></horizontalSlowness><backazimuth><value>348.1971218666769</value></backazimuth><phaseHint>P</phaseHint><evaluationMode>automatic</evaluationMode><comment><text>375.8727177734392</text><id>DFX:rectilinearity</id></comment><comment><text>25.994257607959717</text><id>SNR</id></comment></pick><pick publicID="de.gempa.tb1.Pick/20250414111634.17696.137561"><time><value>2025-04-14T11:16:22.640001Z</value></time><waveformID networkCode="CX" stationCode="PB09" channelCode="HHZ"/><filterID>ITAPER(4)&gt;&gt;BW(4,4,20)</filterID><methodID>AIC</methodID><horizontalSlowness><value>17.33793253746046</value></horizontalSlowness><backazimuth><value>68.03372824390831</value></backazimuth><phaseHint>P</phaseHint><evaluationMode>automatic</evaluationMode><comment><text>495.7320708977592</text><id>DFX:rectilinearity</id></comment><comment><text>24.68051341758319</text><id>SNR</id></comment></pick><pick publicID="de.gempa.tb1.Pick/20250414111634.648652.137563"><time><value>2025-04-14T11:16:28.378393Z</value></time><waveformID networkCode="CX" stationCode="PB01" channelCode="HHN"/><filterID>ITAPER(2)&gt;&gt;BW(3,3,20)</filterID><methodID>L2-AIC-GRID</methodID><horizontalSlowness><value>21.864771784393309</value></horizontalSlowness><backazimuth><value>76.97559524540998</value></backazimuth><phaseHint>S</phaseHint><evaluationMode>automatic</evaluationMode><comment><text>151456.17607699378</text><id>DFX:rectilinearity</id></comment><comment><text>de.gempa.tb1.Pick/20250414111617.611591.137538</text><id>RefPickID</id></comment><comment><text>10.800310508150273</text><id>SNR</id></comment></pick><pick publicID="de.gempa.tb1.Pick/20250414111635.597418.137564"><time><value>2025-04-14T11:16:22.868393Z</value></time><waveformID networkCode="CX" stationCode="PB07" channelCode="HHZ"/><filterID>ITAPER(4)&gt;&gt;BW(4,4,20)</filterID><methodID>AIC</methodID><horizontalSlowness><value>20.270420705922461</value></horizontalSlowness><backazimuth><value>44.3282211685696</value></backazimuth><phaseHint>P</phaseHint><evaluationMode>automatic</evaluationMode><comment><text>4503.794983377872</text><id>DFX:rectilinearity</id></comment><comment><text>14.786756556439705</text><id>SNR</id></comment></pick><pick publicID="de.gempa.tb1.Pick/20250414111636.809498.137568"><time><value>2025-04-14T11:16:29.690001Z</value></time><waveformID networkCode="CX" stationCode="PSGCX" channelCode="HHN"/><filterID>ITAPER(2)&gt;&gt;BW(3,3,20)</filterID><methodID>L2-AIC-GRID</methodID><horizontalSlowness><value>21.771285403011674</value></horizontalSlowness><backazimuth><value>243.93084145694016</value></backazimuth><phaseHint>S</phaseHint><evaluationMode>automatic</evaluationMode><comment><text>148404.2769596813</text><id>DFX:rectilinearity</id></comment><comment><text>de.gempa.tb1.Pick/20250414111619.71362.137542</text><id>RefPickID</id></comment><comment><text>6.907465015670431</text><id>SNR</id></comment></pick><pick publicID="de.gempa.tb1.Pick/20250414111638.419448.137569"><time><value>2025-04-14T11:16:31.959999Z</value></time><waveformID networkCode="CX" stationCode="PATCX" channelCode="HHN"/><filterID>ITAPER(2)&gt;&gt;BW(3,3,20)</filterID><methodID>L2-AIC-GRID</methodID><horizontalSlowness><value>21.465456901798646</value></horizontalSlowness><backazimuth><value>316.5373457687323</value></backazimuth><phaseHint>S</phaseHint><evaluationMode>automatic</evaluationMode><comment><text>45674.1635007084</text><id>DFX:rectilinearity</id></comment><comment><text>de.gempa.tb1.Pick/20250414111620.255405.137545</text><id>RefPickID</id></comment><comment><text>11.011667100814634</text><id>SNR</id></comment></pick><pick publicID="de.gempa.tb1.Pick/20250414111641.453036.137571"><time><value>2025-04-14T11:16:35.088393Z</value></time><waveformID networkCode="CX" stationCode="PB06" channelCode="HHZ"/><filterID>ITAPER(4)&gt;&gt;BW(4,4,20)</filterID><methodID>AIC</methodID><horizontalSlowness><value>5.093101505120944</value></horizontalSlowness><backazimuth><value>20.942409744586826</value></backazimuth><phaseHint>P</phaseHint><evaluationMode>automatic</evaluationMode><comment><text>188.9748302978528</text><id>DFX:rectilinearity</id></comment><comment><text>15.20894724508041</text><id>SNR</id></comment></pick><pick publicID="de.gempa.tb1.Pick/20250414111647.635694.137576"><time><value>2025-04-14T11:16:37.728393Z</value></time><waveformID networkCode="CX" stationCode="PB02" channelCode="HHN"/><filterID>ITAPER(2)&gt;&gt;BW(3,3,20)</filterID><methodID>L2-AIC-GRID</methodID><horizontalSlowness><value>15.090823191047633</value></horizontalSlowness><backazimuth><value>188.72124323981987</value></backazimuth><phaseHint>S</phaseHint><evaluationMode>automatic</evaluationMode><comment><text>150636.36135929613</text><id>DFX:rectilinearity</id></comment><comment><text>de.gempa.tb1.Pick/20250414111623.448139.137547</text><id>RefPickID</id></comment><comment><text>6.411310642804631</text><id>SNR</id></comment></pick><origin publicID="de.gempa.tb1.Origin/20250414111647.639821.136035"><time><value>2025-04-14T11:15:53.8709Z</value><uncertainty>0.7885069251060486</uncertainty></time><latitude><value>-20.101436614990234</value><uncertainty>3.809483289718628</uncertainty></latitude><longitude><value>-69.22039794921875</value><uncertainty>5.32460880279541</uncertainty></longitude><depth><value>95.76036071777344</value><uncertainty>5.590969562530518</uncertainty></depth><depthType>from location</depthType><methodID>LOCSAT</methodID><earthModelID>iasp91_scanloc</earthModelID><quality><associatedPhaseCount>14</associatedPhaseCount><usedPhaseCount>14</usedPhaseCount><associatedStationCount>9</associatedStationCount><usedStationCount>9</usedStationCount><depthPhaseCount>0</depthPhaseCount><standardError>0.41977757111312064</standardError><azimuthalGap>181.69638061523438</azimuthalGap><maximumDistance>2.612147569656372</maximumDistance><minimumDistance>0.07431641221046448</minimumDistance><medianDistance>1.1298727989196777</medianDistance></quality><uncertainty><minHorizontalUncertainty>7.841869354248047</minHorizontalUncertainty><maxHorizontalUncertainty>11.641910552978516</maxHorizontalUncertainty><azimuthMaxHorizontalUncertainty>74.61337280273438</azimuthMaxHorizontalUncertainty><preferredDescription>horizontal uncertainty</preferredDescription></uncertainty><evaluationMode>automatic</evaluationMode><evaluationStatus>confirmed</evaluationStatus><comment><text>0.00</text><id>mismatchScore</id></comment><comment><text>mismatchScore</text><id>scevalMethod</id></comment><arrival><pickID>de.gempa.tb1.Pick/20250414111612.041087.137534</pickID><phase>P</phase><azimuth>122.10174560546875</azimuth><distance>0.07431641221046448</distance><timeResidual>-0.2668180465698242</timeResidual><timeUsed>true</timeUsed><horizontalSlownessUsed>false</horizontalSlownessUsed><backazimuthUsed>false</backazimuthUsed><weight>1</weight></arrival><arrival><pickID>de.gempa.tb1.Pick/20250414111617.611591.137538</pickID><phase>P</phase><azimuth>194.9022216796875</azimuth><distance>0.9698542356491089</distance><timeResidual>-0.5954008102416992</timeResidual><timeUsed>true</timeUsed><horizontalSlownessUsed>false</horizontalSlownessUsed><backazimuthUsed>false</backazimuthUsed><weight>1</weight></arrival><arrival><pickID>de.gempa.tb1.Pick/20250414111619.71362.137542</pickID><phase>P</phase><azimuth>300.4053649902344</azimuth><distance>0.9867146015167236</distance><timeResidual>-0.29482460021972656</timeResidual><timeUsed>true</timeUsed><horizontalSlownessUsed>false</horizontalSlownessUsed><backazimuthUsed>false</backazimuthUsed><weight>1</weight></arrival><arrival><pickID>de.gempa.tb1.Pick/20250414111620.255405.137545</pickID><phase>P</phase><azimuth>230.5400695800781</azimuth><distance>1.1298727989196777</distance><timeResidual>-0.5156993865966797</timeResidual><timeUsed>true</timeUsed><horizontalSlownessUsed>false</horizontalSlownessUsed><backazimuthUsed>false</backazimuthUsed><weight>1</weight></arrival><arrival><pickID>de.gempa.tb1.Pick/20250414111623.448139.137547</pickID><phase>P</phase><azimuth>207.4371337890625</azimuth><distance>1.3672475814819336</distance><timeResidual>-0.17716693878173828</timeResidual><timeUsed>true</timeUsed><horizontalSlownessUsed>false</horizontalSlownessUsed><backazimuthUsed>false</backazimuthUsed><weight>1</weight></arrival><arrival><pickID>de.gempa.tb1.Pick/20250414111627.713593.137554</pickID><phase>S</phase><azimuth>122.10174560546875</azimuth><distance>0.07431641221046448</distance><timeResidual>0.3036775588989258</timeResidual><timeUsed>true</timeUsed><horizontalSlownessUsed>false</horizontalSlownessUsed><backazimuthUsed>false</backazimuthUsed><weight>1</weight></arrival><arrival><pickID>de.gempa.tb1.Pick/20250414111632.633352.137555</pickID><phase>P</phase><azimuth>194.30751037597656</azimuth><distance>2.0001919269561768</distance><timeResidual>-0.04781055450439453</timeResidual><timeUsed>true</timeUsed><horizontalSlownessUsed>false</horizontalSlownessUsed><backazimuthUsed>false</backazimuthUsed><weight>1</weight></arrival><arrival><pickID>de.gempa.tb1.Pick/20250414111634.17696.137561</pickID><phase>P</phase><azimuth>180.6796112060547</azimuth><distance>1.6865936517715454</distance><timeResidual>0.3952322006225586</timeResidual><timeUsed>true</timeUsed><horizontalSlownessUsed>false</horizontalSlownessUsed><backazimuthUsed>false</backazimuthUsed><weight>1</weight></arrival><arrival><pickID>de.gempa.tb1.Pick/20250414111634.648652.137563</pickID><phase>S</phase><azimuth>194.9022216796875</azimuth><distance>0.9698542356491089</distance><timeResidual>-0.5052022933959961</timeResidual><timeUsed>true</timeUsed><horizontalSlownessUsed>false</horizontalSlownessUsed><backazimuthUsed>false</backazimuthUsed><weight>1</weight></arrival><arrival><pickID>de.gempa.tb1.Pick/20250414111635.597418.137564</pickID><phase>P</phase><azimuth>200.93508911132812</azimuth><distance>1.7327501773834229</distance><timeResidual>0.03579902648925781</timeResidual><timeUsed>true</timeUsed><horizontalSlownessUsed>false</horizontalSlownessUsed><backazimuthUsed>false</backazimuthUsed><weight>1</weight></arrival><arrival><pickID>de.gempa.tb1.Pick/20250414111636.809498.137568</pickID><phase>S</phase><azimuth>300.4053649902344</azimuth><distance>0.9867146015167236</distance><timeResidual>0.4672117233276367</timeResidual><timeUsed>true</timeUsed><horizontalSlownessUsed>false</horizontalSlownessUsed><backazimuthUsed>false</backazimuthUsed><weight>1</weight></arrival><arrival><pickID>de.gempa.tb1.Pick/20250414111638.419448.137569</pickID><phase>S</phase><azimuth>230.5400695800781</azimuth><distance>1.1298727989196777</distance><timeResidual>-0.13934803009033203</timeResidual><timeUsed>true</timeUsed><horizontalSlownessUsed>false</horizontalSlownessUsed><backazimuthUsed>false</backazimuthUsed><weight>1</weight></arrival><arrival><pickID>de.gempa.tb1.Pick/20250414111641.453036.137571</pickID><phase>P</phase><azimuth>187.1399383544922</azimuth><distance>2.612147569656372</distance><timeResidual>0.7530431747436523</timeResidual><timeUsed>true</timeUsed><horizontalSlownessUsed>false</horizontalSlownessUsed><backazimuthUsed>false</backazimuthUsed><weight>1</weight></arrival><arrival><pickID>de.gempa.tb1.Pick/20250414111647.635694.137576</pickID><phase>S</phase><azimuth>207.4371337890625</azimuth><distance>1.3672475814819336</distance><timeResidual>0.5873937606811523</timeResidual><timeUsed>true</timeUsed><horizontalSlownessUsed>false</horizontalSlownessUsed><backazimuthUsed>false</backazimuthUsed><weight>1</weight></arrival><magnitude publicID="de.gempa.tb1.Magnitude/20250414111651.904158.477753"><magnitude><value>2.636120348454519</value></magnitude><type>M</type><methodID>weighted average</methodID><stationCount>6</stationCount></magnitude></origin><event publicID="gempa2025hjcu"><preferredOriginID>de.gempa.tb1.Origin/20250414111647.639821.136035</preferredOriginID><preferredMagnitudeID>de.gempa.tb1.Magnitude/20250414111651.904158.477753</preferredMagnitudeID><description><text>Northern Chile</text><type>region name</type></description><originReference>de.gempa.tb1.Origin/20250414111647.639821.136035</originReference></event></EventParameters></seiscomp>