<?xml version="1.0" encoding="UTF-8"?>
<seiscomp xmlns="http://geofon.gfz-potsdam.de/ns/seiscomp3-schema/0.13" version="0.13"><EventParameters><pick publicID="de.gempa.tb1.Pick/20250415074105.354445.120505"><time><value>2025-04-15T07:40:54.868396Z</value></time><waveformID networkCode="CZ" stationCode="HSKC" channelCode="HHZ"/><filterID>ITAPER(2)&gt;&gt;BW(3,3,20)</filterID><methodID>AIC</methodID><horizontalSlowness><value>20.546672271650628</value></horizontalSlowness><backazimuth><value>4.43329209478145</value></backazimuth><phaseHint>P</phaseHint><evaluationMode>automatic</evaluationMode><comment><text>54785.68330466719</text><id>DFX:rectilinearity</id></comment></pick><pick publicID="de.gempa.tb1.Pick/20250415074106.392608.120507"><time><value>2025-04-15T07:40:57.168396Z</value></time><waveformID networkCode="CZ" stationCode="HSKC" channelCode="HHN"/><filterID>ITAPER(3)&gt;&gt;BW(4,3,10)</filterID><methodID>L2-AIC-GRID</methodID><horizontalSlowness><value>19.881506773170418</value></horizontalSlowness><backazimuth><value>1.6206021443980774</value></backazimuth><phaseHint>S</phaseHint><evaluationMode>automatic</evaluationMode><comment><text>51483.09066773816</text><id>DFX:rectilinearity</id></comment><comment><text>de.gempa.tb1.Pick/20250415074105.354445.120505</text><id>RefPickID</id></comment></pick><pick publicID="de.gempa.tb1.Pick/20250415074108.295254.120510"><time><value>2025-04-15T07:41:01.780534Z</value></time><waveformID networkCode="SX" stationCode="MEINS" channelCode="HHZ"/><filterID>ITAPER(2)&gt;&gt;BW(3,3,20)</filterID><methodID>AIC</methodID><horizontalSlowness><value>19.21287404450634</value></horizontalSlowness><backazimuth><value>251.0400971604599</value></backazimuth><phaseHint>P</phaseHint><evaluationMode>automatic</evaluationMode><comment><text>14.875162672954072</text><id>DFX:rectilinearity</id></comment></pick><pick publicID="de.gempa.tb1.Pick/20250415074110.768146.120513"><time><value>2025-04-15T07:41:08.88Z</value></time><waveformID networkCode="TH" stationCode="FRAU" channelCode="HHZ"/><filterID>ITAPER(2)&gt;&gt;BW(3,3,20)</filterID><methodID>AIC</methodID><horizontalSlowness><value>13.86057027313383</value></horizontalSlowness><backazimuth><value>104.71753553425818</value></backazimuth><phaseHint>P</phaseHint><evaluationMode>automatic</evaluationMode><comment><text>63.08695494114162</text><id>DFX:rectilinearity</id></comment></pick><pick publicID="de.gempa.tb1.Pick/20250415074111.201709.120515"><time><value>2025-04-15T07:41:04.94Z</value></time><waveformID networkCode="SX" stationCode="LEUT" channelCode="HHZ"/><filterID>ITAPER(2)&gt;&gt;BW(3,3,20)</filterID><methodID>AIC</methodID><horizontalSlowness><value>15.09598001934684</value></horizontalSlowness><backazimuth><value>87.82270205715044</value></backazimuth><phaseHint>P</phaseHint><evaluationMode>automatic</evaluationMode><comment><text>178.3526665494665</text><id>DFX:rectilinearity</id></comment></pick><pick publicID="de.gempa.tb1.Pick/20250415074112.364335.120517"><time><value>2025-04-15T07:41:04.8Z</value></time><waveformID networkCode="CZ" stationCode="PVCC" channelCode="HHZ"/><filterID>ITAPER(2)&gt;&gt;BW(3,3,20)</filterID><methodID>AIC</methodID><horizontalSlowness><value>15.045907156703487</value></horizontalSlowness><backazimuth><value>347.1468603679101</value></backazimuth><phaseHint>P</phaseHint><evaluationMode>automatic</evaluationMode><comment><text>52.80155755553285</text><id>DFX:rectilinearity</id></comment></pick><pick publicID="de.gempa.tb1.Pick/20250415074112.808593.120519"><time><value>2025-04-15T07:41:09.77Z</value></time><waveformID networkCode="TH" stationCode="HKWD" channelCode="HHZ"/><filterID>ITAPER(2)&gt;&gt;BW(3,3,20)</filterID><methodID>AIC</methodID><horizontalSlowness><value>18.735730671688312</value></horizontalSlowness><backazimuth><value>117.7600215127636</value></backazimuth><phaseHint>P</phaseHint><evaluationMode>automatic</evaluationMode><comment><text>462.2041205330454</text><id>DFX:rectilinearity</id></comment></pick><pick publicID="de.gempa.tb1.Pick/20250415074112.880199.120521"><time><value>2025-04-15T07:41:07.22Z</value></time><waveformID networkCode="TH" stationCode="ABG1" channelCode="HHZ"/><filterID>ITAPER(2)&gt;&gt;BW(3,3,20)</filterID><methodID>AIC</methodID><horizontalSlowness><value>22.032885132535046</value></horizontalSlowness><backazimuth><value>249.83503310618696</value></backazimuth><phaseHint>P</phaseHint><evaluationMode>automatic</evaluationMode><comment><text>1363.3242770722175</text><id>DFX:rectilinearity</id></comment></pick><pick publicID="de.gempa.tb1.Pick/20250415074115.560829.120523"><time><value>2025-04-15T07:41:11.96Z</value></time><waveformID networkCode="TH" stationCode="MLFH" channelCode="HHZ"/><filterID>ITAPER(2)&gt;&gt;BW(3,3,20)</filterID><methodID>AIC</methodID><horizontalSlowness><value>13.43448265982174</value></horizontalSlowness><backazimuth><value>115.5520605207555</value></backazimuth><phaseHint>P</phaseHint><evaluationMode>automatic</evaluationMode><comment><text>2.3088977683001017</text><id>DFX:rectilinearity</id></comment></pick><pick publicID="de.gempa.tb1.Pick/20250415074115.562116.120525"><time><value>2025-04-15T07:41:06.39Z</value></time><waveformID networkCode="SX" stationCode="MULD" channelCode="HHZ"/><filterID>ITAPER(2)&gt;&gt;BW(3,3,20)</filterID><methodID>AIC</methodID><horizontalSlowness><value>8.203915794888367</value></horizontalSlowness><backazimuth><value>71.06076227889368</value></backazimuth><phaseHint>P</phaseHint><evaluationMode>automatic</evaluationMode><comment><text>58.18853472456662</text><id>DFX:rectilinearity</id></comment></pick><pick publicID="de.gempa.tb1.Pick/20250415074115.570458.120528"><time><value>2025-04-15T07:41:05.72Z</value></time><waveformID networkCode="SX" stationCode="TANN" channelCode="HHZ"/><filterID>ITAPER(2)&gt;&gt;BW(3,3,20)</filterID><methodID>AIC</methodID><horizontalSlowness><value>7.272910530987964</value></horizontalSlowness><backazimuth><value>48.41157110769313</value></backazimuth><phaseHint>P</phaseHint><evaluationMode>automatic</evaluationMode><comment><text>204.98441832063932</text><id>DFX:rectilinearity</id></comment></pick><pick publicID="de.gempa.tb1.Pick/20250415074115.570831.120530"><time><value>2025-04-15T07:41:07.1675Z</value></time><waveformID networkCode="SX" stationCode="WERN" channelCode="HHZ"/><filterID>ITAPER(2)&gt;&gt;BW(3,3,20)</filterID><methodID>AIC</methodID><horizontalSlowness><value>13.064495452134842</value></horizontalSlowness><backazimuth><value>78.61731058749575</value></backazimuth><phaseHint>P</phaseHint><evaluationMode>automatic</evaluationMode><comment><text>548.3745177081609</text><id>DFX:rectilinearity</id></comment></pick><pick publicID="de.gempa.tb1.Pick/20250415074116.035998.120532"><time><value>2025-04-15T07:41:05.97Z</value></time><waveformID networkCode="TH" stationCode="ANNA" channelCode="HHZ"/><filterID>ITAPER(2)&gt;&gt;BW(3,3,20)</filterID><methodID>AIC</methodID><horizontalSlowness><value>1.6174556358094374</value></horizontalSlowness><backazimuth><value>19.06492410445128</value></backazimuth><phaseHint>P</phaseHint><evaluationMode>automatic</evaluationMode><comment><text>22.71643009925905</text><id>DFX:rectilinearity</id></comment></pick><pick publicID="de.gempa.tb1.Pick/20250415074118.477452.120534"><time><value>2025-04-15T07:41:08.968393Z</value></time><waveformID networkCode="CZ" stationCode="PRU" channelCode="HHZ"/><filterID>ITAPER(2)&gt;&gt;BW(3,3,20)</filterID><methodID>AIC</methodID><horizontalSlowness><value>8.035320865690192</value></horizontalSlowness><backazimuth><value>310.48382518976973</value></backazimuth><phaseHint>P</phaseHint><evaluationMode>automatic</evaluationMode><comment><text>4.3261361389943307</text><id>DFX:rectilinearity</id></comment></pick><pick publicID="de.gempa.tb1.Pick/20250415074118.542939.120536"><time><value>2025-04-15T07:41:13.71Z</value></time><waveformID networkCode="BW" stationCode="ROTZ" channelCode="HHZ"/><filterID>ITAPER(2)&gt;&gt;BW(3,3,20)</filterID><methodID>AIC</methodID><horizontalSlowness><value>11.768614524304038</value></horizontalSlowness><backazimuth><value>52.70798000807342</value></backazimuth><phaseHint>P</phaseHint><evaluationMode>automatic</evaluationMode><comment><text>94.03966930083125</text><id>DFX:rectilinearity</id></comment></pick><pick publicID="de.gempa.tb1.Pick/20250415074121.529877.120538"><time><value>2025-04-15T07:41:09.639999Z</value></time><waveformID networkCode="TH" stationCode="GRZ1" channelCode="HHZ"/><filterID>ITAPER(2)&gt;&gt;BW(3,3,20)</filterID><methodID>AIC</methodID><horizontalSlowness><value>11.40108935593338</value></horizontalSlowness><backazimuth><value>114.78896381615138</value></backazimuth><phaseHint>P</phaseHint><evaluationMode>automatic</evaluationMode><comment><text>49.75374402841593</text><id>DFX:rectilinearity</id></comment></pick><pick publicID="de.gempa.tb1.Pick/20250415074121.763475.120542"><time><value>2025-04-15T07:41:08.710534Z</value></time><waveformID networkCode="SX" stationCode="MEINS" channelCode="HHN"/><filterID>ITAPER(3)&gt;&gt;BW(4,3,10)</filterID><methodID>L2-AIC-GRID</methodID><horizontalSlowness><value>5.835967475423653</value></horizontalSlowness><backazimuth><value>257.56928918619786</value></backazimuth><phaseHint>S</phaseHint><evaluationMode>automatic</evaluationMode><comment><text>255.915801429264</text><id>DFX:rectilinearity</id></comment><comment><text>de.gempa.tb1.Pick/20250415074108.295254.120510</text><id>RefPickID</id></comment></pick><pick publicID="de.gempa.tb1.Pick/20250415074127.485871.120545"><time><value>2025-04-15T07:41:09.085Z</value></time><waveformID networkCode="TH" stationCode="GEIDO" channelCode="HHZ"/><filterID>ITAPER(2)&gt;&gt;BW(3,3,20)</filterID><methodID>AIC</methodID><horizontalSlowness><value>8.066861290158434</value></horizontalSlowness><backazimuth><value>115.13367517475342</value></backazimuth><phaseHint>P</phaseHint><evaluationMode>automatic</evaluationMode><comment><text>21.661372509561492</text><id>DFX:rectilinearity</id></comment></pick><pick publicID="de.gempa.tb1.Pick/20250415074128.630344.120548"><time><value>2025-04-15T07:41:17.7Z</value></time><waveformID networkCode="SX" stationCode="LANDS" channelCode="HHZ"/><filterID>ITAPER(2)&gt;&gt;BW(3,3,20)</filterID><methodID>AIC</methodID><horizontalSlowness><value>21.773828171689072</value></horizontalSlowness><backazimuth><value>163.73316983137985</value></backazimuth><phaseHint>P</phaseHint><evaluationMode>automatic</evaluationMode><comment><text>6.014039837593969</text><id>DFX:rectilinearity</id></comment></pick><pick publicID="de.gempa.tb1.Pick/20250415074128.63063.120550"><time><value>2025-04-15T07:41:12.47Z</value></time><waveformID networkCode="TH" stationCode="ZEU" channelCode="HHZ"/><filterID>ITAPER(2)&gt;&gt;BW(3,3,20)</filterID><methodID>AIC</methodID><horizontalSlowness><value>15.496130427076046</value></horizontalSlowness><backazimuth><value>173.51952448443834</value></backazimuth><phaseHint>P</phaseHint><evaluationMode>automatic</evaluationMode><comment><text>38.90443012637399</text><id>DFX:rectilinearity</id></comment></pick><pick publicID="de.gempa.tb1.Pick/20250415074131.83892.120554"><time><value>2025-04-15T07:41:08.52Z</value></time><waveformID networkCode="TH" stationCode="MODW" channelCode="HHZ"/><filterID>ITAPER(2)&gt;&gt;BW(3,3,20)</filterID><methodID>AIC</methodID><horizontalSlowness><value>9.044457772557706</value></horizontalSlowness><backazimuth><value>182.58314440224217</value></backazimuth><phaseHint>P</phaseHint><evaluationMode>automatic</evaluationMode><comment><text>30.221354927362654</text><id>DFX:rectilinearity</id></comment></pick><pick publicID="de.gempa.tb1.Pick/20250415074151.270222.120570"><time><value>2025-04-15T07:41:13.029999Z</value></time><waveformID networkCode="TH" stationCode="ZEITZ" channelCode="HHZ"/><filterID>ITAPER(2)&gt;&gt;BW(3,3,20)</filterID><methodID>AIC</methodID><horizontalSlowness><value>23.306953522019477</value></horizontalSlowness><backazimuth><value>3.1043740529186437</value></backazimuth><phaseHint>P</phaseHint><evaluationMode>automatic</evaluationMode><comment><text>2240.6853474228933</text><id>DFX:rectilinearity</id></comment></pick><pick publicID="de.gempa.tb1.Pick/20250415074204.915449.120584"><time><value>2025-04-15T07:41:36.29Z</value></time><waveformID networkCode="SX" stationCode="LANDS" channelCode="HHN"/><filterID>ITAPER(3)&gt;&gt;BW(4,3,10)</filterID><methodID>L2-AIC-GRID</methodID><horizontalSlowness><value>19.16026783544464</value></horizontalSlowness><backazimuth><value>261.46204974640335</value></backazimuth><phaseHint>S</phaseHint><evaluationMode>automatic</evaluationMode><comment><text>87.55331935556677</text><id>DFX:rectilinearity</id></comment><comment><text>de.gempa.tb1.Pick/20250415074128.630344.120548</text><id>RefPickID</id></comment></pick><origin publicID="de.gempa.tb1.Origin/20250415074213.902624.57041"><time><value>2025-04-15T07:40:52.606202Z</value><uncertainty>0.36005881428718567</uncertainty></time><latitude><value>50.48286056518555</value><uncertainty>3.227304697036743</uncertainty></latitude><longitude><value>13.544215202331543</value><uncertainty>2.450162172317505</uncertainty></longitude><depth><value>0.9065420031547546</value><uncertainty>2.6471056938171387</uncertainty></depth><depthType>from location</depthType><methodID>LOCSAT</methodID><earthModelID>iasp91</earthModelID><quality><associatedPhaseCount>23</associatedPhaseCount><usedPhaseCount>23</usedPhaseCount><associatedStationCount>20</associatedStationCount><usedStationCount>20</usedStationCount><depthPhaseCount>0</depthPhaseCount><standardError>0.42747599105336043</standardError><azimuthalGap>115.56217193603516</azimuthalGap><maximumDistance>1.361084222793579</maximumDistance><minimumDistance>0.14371174573898315</minimumDistance><medianDistance>0.8096091747283936</medianDistance></quality><uncertainty><minHorizontalUncertainty>4.739055633544922</minHorizontalUncertainty><maxHorizontalUncertainty>7.277227878570557</maxHorizontalUncertainty><azimuthMaxHorizontalUncertainty>24.178285598754883</azimuthMaxHorizontalUncertainty><preferredDescription>horizontal uncertainty</preferredDescription></uncertainty><evaluationMode>automatic</evaluationMode><evaluationStatus>confirmed</evaluationStatus><comment><text>0.18</text><id>mismatchScore</id></comment><comment><text>mismatchScore</text><id>scevalMethod</id></comment><arrival><pickID>de.gempa.tb1.Pick/20250415074105.354445.120505</pickID><phase>P</phase><azimuth>330.07525634765625</azimuth><distance>0.14371174573898315</distance><timeResidual>-0.7275326251983643</timeResidual><timeUsed>true</timeUsed><horizontalSlownessUsed>false</horizontalSlownessUsed><backazimuthUsed>false</backazimuthUsed><weight>1</weight></arrival><arrival><pickID>de.gempa.tb1.Pick/20250415074106.392608.120507</pickID><phase>S</phase><azimuth>330.07525634765625</azimuth><distance>0.14371174573898315</distance><timeResidual>0.1663680076599121</timeResidual><timeUsed>true</timeUsed><horizontalSlownessUsed>false</horizontalSlownessUsed><backazimuthUsed>false</backazimuthUsed><weight>1</weight></arrival><arrival><pickID>de.gempa.tb1.Pick/20250415074108.295254.120510</pickID><phase>P</phase><azimuth>300.8638000488281</azimuth><distance>0.4908580482006073</distance><timeResidual>-0.36986875534057617</timeResidual><timeUsed>true</timeUsed><horizontalSlownessUsed>false</horizontalSlownessUsed><backazimuthUsed>false</backazimuthUsed><weight>1</weight></arrival><arrival><pickID>de.gempa.tb1.Pick/20250415074110.768146.120513</pickID><phase>P</phase><azimuth>285.692138671875</azimuth><distance>0.8107749819755554</distance><timeResidual>0.6889748573303223</timeResidual><timeUsed>true</timeUsed><horizontalSlownessUsed>false</horizontalSlownessUsed><backazimuthUsed>false</backazimuthUsed><weight>1</weight></arrival><arrival><pickID>de.gempa.tb1.Pick/20250415074111.201709.120515</pickID><phase>P</phase><azimuth>281.21148681640625</azimuth><distance>0.6632757186889648</distance><timeResidual>-0.4661545753479004</timeResidual><timeUsed>true</timeUsed><horizontalSlownessUsed>false</horizontalSlownessUsed><backazimuthUsed>false</backazimuthUsed><weight>1</weight></arrival><arrival><pickID>de.gempa.tb1.Pick/20250415074112.364335.120517</pickID><phase>P</phase><azimuth>85.6374282836914</azimuth><distance>0.6559396982192993</distance><timeResidual>-0.4677786827087402</timeResidual><timeUsed>true</timeUsed><horizontalSlownessUsed>false</horizontalSlownessUsed><backazimuthUsed>false</backazimuthUsed><weight>1</weight></arrival><arrival><pickID>de.gempa.tb1.Pick/20250415074112.808593.120519</pickID><phase>P</phase><azimuth>293.64080810546875</azimuth><distance>0.8833751678466797</distance><timeResidual>0.2084031105041504</timeResidual><timeUsed>true</timeUsed><horizontalSlownessUsed>false</horizontalSlownessUsed><backazimuthUsed>false</backazimuthUsed><weight>1</weight></arrival><arrival><pickID>de.gempa.tb1.Pick/20250415074112.880199.120521</pickID><phase>P</phase><azimuth>308.6425476074219</azimuth><distance>0.7836112380027771</distance><timeResidual>-0.4576449394226074</timeResidual><timeUsed>true</timeUsed><horizontalSlownessUsed>false</horizontalSlownessUsed><backazimuthUsed>false</backazimuthUsed><weight>1</weight></arrival><arrival><pickID>de.gempa.tb1.Pick/20250415074115.560829.120523</pickID><phase>P</phase><azimuth>288.8183288574219</azimuth><distance>0.9811732769012451</distance><timeResidual>0.5517449378967285</timeResidual><timeUsed>true</timeUsed><horizontalSlownessUsed>false</horizontalSlownessUsed><backazimuthUsed>false</backazimuthUsed><weight>1</weight></arrival><arrival><pickID>de.gempa.tb1.Pick/20250415074115.562116.120525</pickID><phase>P</phase><azimuth>264.86456298828125</azimuth><distance>0.7324919104576111</distance><timeResidual>-0.32341909408569336</timeResidual><timeUsed>true</timeUsed><horizontalSlownessUsed>false</horizontalSlownessUsed><backazimuthUsed>false</backazimuthUsed><weight>1</weight></arrival><arrival><pickID>de.gempa.tb1.Pick/20250415074115.570458.120528</pickID><phase>P</phase><azimuth>264.8130798339844</azimuth><distance>0.6958253979682922</distance><timeResidual>-0.301088809967041</timeResidual><timeUsed>true</timeUsed><horizontalSlownessUsed>false</horizontalSlownessUsed><backazimuthUsed>false</backazimuthUsed><weight>1</weight></arrival><arrival><pickID>de.gempa.tb1.Pick/20250415074115.570831.120530</pickID><phase>P</phase><azimuth>255.78326416015625</azimuth><distance>0.7729604244232178</distance><timeResidual>-0.3102545738220215</timeResidual><timeUsed>true</timeUsed><horizontalSlownessUsed>false</horizontalSlownessUsed><backazimuthUsed>false</backazimuthUsed><weight>1</weight></arrival><arrival><pickID>de.gempa.tb1.Pick/20250415074116.035998.120532</pickID><phase>P</phase><azimuth>305.75830078125</azimuth><distance>0.7018412947654724</distance><timeResidual>-0.1638331413269043</timeResidual><timeUsed>true</timeUsed><horizontalSlownessUsed>false</horizontalSlownessUsed><backazimuthUsed>false</backazimuthUsed><weight>1</weight></arrival><arrival><pickID>de.gempa.tb1.Pick/20250415074118.477452.120534</pickID><phase>P</phase><azimuth>127.32120513916016</azimuth><distance>0.8096091747283936</distance><timeResidual>0.7981104850769043</timeResidual><timeUsed>true</timeUsed><horizontalSlownessUsed>false</horizontalSlownessUsed><backazimuthUsed>false</backazimuthUsed><weight>1</weight></arrival><arrival><pickID>de.gempa.tb1.Pick/20250415074118.542939.120536</pickID><phase>P</phase><azimuth>230.72520446777344</azimuth><distance>1.1200617551803589</distance><timeResidual>-0.0352015495300293</timeResidual><timeUsed>true</timeUsed><horizontalSlownessUsed>false</horizontalSlownessUsed><backazimuthUsed>false</backazimuthUsed><weight>1</weight></arrival><arrival><pickID>de.gempa.tb1.Pick/20250415074121.529877.120538</pickID><phase>P</phase><azimuth>284.3616638183594</azimuth><distance>0.8696312308311462</distance><timeResidual>0.3376641273498535</timeResidual><timeUsed>true</timeUsed><hori