<?xml version="1.0" encoding="UTF-8"?>
<seiscomp xmlns="http://geofon.gfz-potsdam.de/ns/seiscomp3-schema/0.13" version="0.13"><EventParameters><pick publicID="de.gempa.tb1.Pick/20250412123525.671717.123939"><time><value>2025-04-12T12:35:20.278391Z</value></time><waveformID networkCode="CX" stationCode="PB06" channelCode="HHZ"/><filterID>ITAPER(4)&gt;&gt;BW(4,4,20)</filterID><methodID>AIC</methodID><horizontalSlowness><value>13.96583383167391</value></horizontalSlowness><backazimuth><value>274.82721360990905</value></backazimuth><phaseHint>P</phaseHint><evaluationMode>automatic</evaluationMode><comment><text>166.12186410297758</text><id>DFX:rectilinearity</id></comment><comment><text>29.98663525406326</text><id>SNR</id></comment></pick><pick publicID="de.gempa.tb1.Pick/20250412123526.712463.123941"><time><value>2025-04-12T12:35:21.008393Z</value></time><waveformID networkCode="CX" stationCode="PB15" channelCode="HHZ"/><filterID>ITAPER(4)&gt;&gt;BW(4,4,20)</filterID><methodID>AIC</methodID><horizontalSlowness><value>18.677188608030267</value></horizontalSlowness><backazimuth><value>116.4246625003882</value></backazimuth><phaseHint>P</phaseHint><evaluationMode>automatic</evaluationMode><comment><text>4069.872653723733</text><id>DFX:rectilinearity</id></comment><comment><text>29.17883135169369</text><id>SNR</id></comment></pick><pick publicID="de.gempa.tb1.Pick/20250412123531.46885.123943"><time><value>2025-04-12T12:35:26.03Z</value></time><waveformID networkCode="CX" stationCode="PB19" channelCode="HHZ"/><filterID>ITAPER(4)&gt;&gt;BW(4,4,20)</filterID><methodID>AIC</methodID><horizontalSlowness><value>18.855196279273105</value></horizontalSlowness><backazimuth><value>258.2338267688799</value></backazimuth><phaseHint>P</phaseHint><evaluationMode>automatic</evaluationMode><comment><text>23.69571061072846</text><id>DFX:rectilinearity</id></comment><comment><text>12.601135769913974</text><id>SNR</id></comment></pick><pick publicID="de.gempa.tb1.Pick/20250412123531.595366.123945"><time><value>2025-04-12T12:35:24.328393Z</value></time><waveformID networkCode="CX" stationCode="PB03" channelCode="HHZ"/><filterID>ITAPER(4)&gt;&gt;BW(4,4,20)</filterID><methodID>AIC</methodID><horizontalSlowness><value>10.172760792669019</value></horizontalSlowness><backazimuth><value>130.94379380667993</value></backazimuth><phaseHint>P</phaseHint><evaluationMode>automatic</evaluationMode><comment><text>33.69496106702506</text><id>DFX:rectilinearity</id></comment><comment><text>56.52220866726834</text><id>SNR</id></comment></pick><pick publicID="de.gempa.tb1.Pick/20250412123536.456932.123947"><time><value>2025-04-12T12:35:31.758393Z</value></time><waveformID networkCode="CX" stationCode="PB02" channelCode="HHZ"/><filterID>ITAPER(4)&gt;&gt;BW(4,4,20)</filterID><methodID>AIC</methodID><horizontalSlowness><value>3.835256015211663</value></horizontalSlowness><backazimuth><value>15.366285375604434</value></backazimuth><phaseHint>P</phaseHint><evaluationMode>automatic</evaluationMode><comment><text>97.22222037581318</text><id>DFX:rectilinearity</id></comment><comment><text>30.02387601293576</text><id>SNR</id></comment></pick><pick publicID="de.gempa.tb1.Pick/20250412123536.682735.123949"><time><value>2025-04-12T12:35:32.518393Z</value></time><waveformID networkCode="CX" stationCode="PB01" channelCode="HHZ"/><filterID>ITAPER(4)&gt;&gt;BW(4,4,20)</filterID><methodID>AIC</methodID><horizontalSlowness><value>18.979379457372033</value></horizontalSlowness><backazimuth><value>221.00063833862222</value></backazimuth><phaseHint>P</phaseHint><evaluationMode>automatic</evaluationMode><comment><text>16.703759571597494</text><id>DFX:rectilinearity</id></comment><comment><text>27.98539457787764</text><id>SNR</id></comment></pick><pick publicID="de.gempa.tb1.Pick/20250412123539.555648.123951"><time><value>2025-04-12T12:35:23.590001Z</value></time><waveformID networkCode="CX" stationCode="PB09" channelCode="HHZ"/><filterID>ITAPER(4)&gt;&gt;BW(4,4,20)</filterID><methodID>AIC</methodID><horizontalSlowness><value>19.435523435342716</value></horizontalSlowness><backazimuth><value>131.86996204267345</value></backazimuth><phaseHint>P</phaseHint><evaluationMode>automatic</evaluationMode><comment><text>30.245945561103895</text><id>DFX:rectilinearity</id></comment><comment><text>80.13589584682713</text><id>SNR</id></comment></pick><pick publicID="de.gempa.tb1.Pick/20250412123542.377677.123953"><time><value>2025-04-12T12:35:28.098397Z</value></time><waveformID networkCode="CX" stationCode="PB07" channelCode="HHZ"/><filterID>ITAPER(4)&gt;&gt;BW(4,4,20)</filterID><methodID>AIC</methodID><horizontalSlowness><value>15.698778545684043</value></horizontalSlowness><backazimuth><value>135.31782145943558</value></backazimuth><phaseHint>P</phaseHint><evaluationMode>automatic</evaluationMode><comment><text>566.7902859640382</text><id>DFX:rectilinearity</id></comment><comment><text>195.08508279609592</text><id>SNR</id></comment></pick><pick publicID="de.gempa.tb1.Pick/20250412123542.637192.123955"><time><value>2025-04-12T12:35:34.968391Z</value></time><waveformID networkCode="CX" stationCode="PB06" channelCode="HHN"/><filterID>ITAPER(2)&gt;&gt;BW(3,3,20)</filterID><methodID>L2-AIC-GRID</methodID><horizontalSlowness><value>17.618317738108072</value></horizontalSlowness><backazimuth><value>99.24334311023142</value></backazimuth><phaseHint>S</phaseHint><evaluationMode>automatic</evaluationMode><comment><text>769.3014715967081</text><id>DFX:rectilinearity</id></comment><comment><text>de.gempa.tb1.Pick/20250412123525.671717.123939</text><id>RefPickID</id></comment><comment><text>18.339540955249923</text><id>SNR</id></comment></pick><pick publicID="de.gempa.tb1.Pick/20250412123546.258808.123956"><time><value>2025-04-12T12:35:36.258393Z</value></time><waveformID networkCode="CX" stationCode="PB15" channelCode="HHN"/><filterID>ITAPER(2)&gt;&gt;BW(3,3,20)</filterID><methodID>L2-AIC-GRID</methodID><horizontalSlowness><value>23.07069318321388</value></horizontalSlowness><backazimuth><value>16.933734212925515</value></backazimuth><phaseHint>S</phaseHint><evaluationMode>automatic</evaluationMode><comment><text>52418.62538638704</text><id>DFX:rectilinearity</id></comment><comment><text>de.gempa.tb1.Pick/20250412123526.712463.123941</text><id>RefPickID</id></comment><comment><text>9.08315763812212</text><id>SNR</id></comment></pick><pick publicID="de.gempa.tb1.Pick/20250412123551.789843.123957"><time><value>2025-04-12T12:35:41.978393Z</value></time><waveformID networkCode="CX" stationCode="PB03" channelCode="HHN"/><filterID>ITAPER(2)&gt;&gt;BW(3,3,20)</filterID><methodID>L2-AIC-GRID</methodID><horizontalSlowness><value>16.52854290330664</value></horizontalSlowness><backazimuth><value>356.55248478677305</value></backazimuth><phaseHint>S</phaseHint><evaluationMode>automatic</evaluationMode><comment><text>242.8336147653985</text><id>DFX:rectilinearity</id></comment><comment><text>de.gempa.tb1.Pick/20250412123531.595366.123945</text><id>RefPickID</id></comment><comment><text>8.625340873260846</text><id>SNR</id></comment></pick><pick publicID="de.gempa.tb1.Pick/20250412123552.693416.123958"><time><value>2025-04-12T12:35:44.94Z</value></time><waveformID networkCode="CX" stationCode="PB19" channelCode="HHN"/><filterID>ITAPER(2)&gt;&gt;BW(3,3,20)</filterID><methodID>L2-AIC-GRID</methodID><horizontalSlowness><value>20.276007269235933</value></horizontalSlowness><backazimuth><value>63.46431940972565</value></backazimuth><phaseHint>S</phaseHint><evaluationMode>automatic</evaluationMode><comment><text>594.9992893530195</text><id>DFX:rectilinearity</id></comment><comment><text>de.gempa.tb1.Pick/20250412123531.46885.123943</text><id>RefPickID</id></comment><comment><text>10.378590247233715</text><id>SNR</id></comment></pick><pick publicID="de.gempa.tb1.Pick/20250412123606.59054.123964"><time><value>2025-04-12T12:35:56.298393Z</value></time><waveformID networkCode="CX" stationCode="PB01" channelCode="HHN"/><filterID>ITAPER(2)&gt;&gt;BW(3,3,20)</filterID><methodID>L2-AIC-GRID</methodID><horizontalSlowness><value>22.538681530009633</value></horizontalSlowness><backazimuth><value>53.37910457144643</value></backazimuth><phaseHint>S</phaseHint><evaluationMode>automatic</evaluationMode><comment><text>165.89491205935846</text><id>DFX:rectilinearity</id></comment><comment><text>de.gempa.tb1.Pick/20250412123536.682735.123949</text><id>RefPickID</id></comment><comment><text>8.065827695584554</text><id>SNR</id></comment></pick><pick publicID="de.gempa.tb1.Pick/20250412123626.894191.123965"><time><value>2025-04-12T12:35:48.598397Z</value></time><waveformID networkCode="CX" stationCode="PB07" channelCode="HHN"/><filterID>ITAPER(2)&gt;&gt;BW(3,3,20)</filterID><methodID>L2-AIC-GRID</methodID><horizontalSlowness><value>23.02091190351251</value></horizontalSlowness><backazimuth><value>257.03507835968753</value></backazimuth><phaseHint>S</phaseHint><evaluationMode>automatic</evaluationMode><comment><text>19098.47645099711</text><id>DFX:rectilinearity</id></comment><comment><text>de.gempa.tb1.Pick/20250412123542.377677.123953</text><id>RefPickID</id></comment><comment><text>7.68103004603694</text><id>SNR</id></comment></pick><origin publicID="de.gempa.tb1.Origin/20250412123626.897028.82517"><time><value>2025-04-12T12:35:01.852841Z</value><uncertainty>0.8400999307632446</uncertainty></time><latitude><value>-22.73161315917969</value><uncertainty>3.8972811698913574</uncertainty></latitude><longitude><value>-68.7843017578125</value><uncertainty>16.18757438659668</uncertainty></longitude><depth><value>111.81668090820312</value><uncertainty>15.6773624420166</uncertainty></depth><depthType>from location</depthType><methodID>LOCSAT</methodID><earthModelID>iasp91_scanloc</earthModelID><quality><associatedPhaseCount>14</associatedPhaseCount><usedPhaseCount>14</usedPhaseCount><associatedStationCount>8</associatedStationCount><usedStationCount>8</usedStationCount><depthPhaseCount>0</depthPhaseCount><standardError>0.1979994153885049</standardError><azimuthalGap>223.0036163330078</azimuthalGap><maximumDistance>1.8026233911514282</maximumDistance><minimumDistance>0.7276453971862793</minimumDistance><medianDistance>1.257102608680725</medianDistance></quality><uncertainty><minHorizontalUncertainty>6.131855487823486</minHorizontalUncertainty><maxHorizontalUncertainty>35.163448333740234</maxHorizontalUncertainty><azimuthMaxHorizontalUncertainty>80.5667953491211</azimuthMaxHorizontalUncertainty><preferredDescription>horizontal uncertainty</preferredDescription></uncertainty><evaluationMode>automatic</evaluationMode><evaluationStatus>confirmed</evaluationStatus><comment><text>0.00</text><id>mismatchScore</id></comment><comment><text>mismatchScore</text><id>scevalMethod</id></comment><arrival><pickID>de.gempa.tb1.Pick/20250412123525.671717.123939</pickID><phase>P</phase><azimuth>271.8722229003906</azimuth><distance>0.7276453971862793</distance><timeResidual>-0.3792266845703125</timeResidual><timeUsed>true</timeUsed><horizontalSlownessUsed>false</horizontalSlownessUsed><backazimuthUsed>false</backazimuthUsed><weight>1</weight></arrival><arrival><pickID>de.gempa.tb1.Pick/20250412123526.712463.123941</pickID><phase>P</phase><azimuth>233.00404357910156</azimuth><distance>0.790947675704956</distance><timeResidual>-0.20311546325683594</timeResidual><timeUsed>true</timeUsed><horizontalSlownessUsed>false</horizontalSlownessUsed><backazimuthUsed>false</backazimuthUsed><weight>1</weight></arrival><arrival><pickID>de.gempa.tb1.Pick/20250412123531.46885.123943</pickID><phase>P</phase><azimuth>201.63343811035156</azimuth><distance>1.257102608680725</distance><timeResidual>0.04025459289550781</timeResidual><timeUsed>true</timeUsed><horizontalSlownessUsed>false</horizontalSlownessUsed><backazimuthUsed>false</backazimuthUsed><weight>1</weight></arrival><arrival><pickID>de.gempa.tb1.Pick/20250412123531.595366.123945</pickID><phase>P</phase><azimuth>306.9876708984375</azimuth><distance>1.1252431869506836</distance><timeResidual>-0.2215404510498047</timeResidual><timeUsed>true</timeUsed><horizontalSlownessUsed>false</horizontalSlownessUsed><backazimuthUsed>false</backazimuthUsed><weight>1</weight></arrival><arrival><pickID>de.gempa.tb1.Pick/20250412123536.456932.123947</pickID><phase>P</phase><azimuth>323.50628662109375</azimuth><distance>1.7430542707443237</distance><timeResidual>0.00858306884765625</timeResidual><timeUsed>true</timeUsed><horizontalSlownessUsed>false</horizontalSlownessUsed><backazimuthUsed>false</backazimuthUsed><weight>1</weight></arrival><arrival><pickID>de.gempa.tb1.Pick/20250412123536.682735.123949</pickID><phase>P</phase><azimuth>338.62982177734375</azimuth><distance>1.8026233911514282</distance><timeResidual>0.032360076904296875</timeResidual><timeUsed>true</timeUsed><horizontalSlownessUsed>false</horizontalSlownessUsed><backazimuthUsed>false</backazimuthUsed><weight>1</weight></arrival><arrival><pickID>de.gempa.tb1.Pick/20250412123539.555648.123951</pickID><phase>P</phase><azimuth>335.4267883300781</azimuth><distance>1.0227410793304443</distance><timeResidual>0.11959266662597656</timeResidual><timeUsed>true</timeUsed><horizontalSlownessUsed>false</horizontalSlownessUsed><backazimuthUsed>false</backazimuthUsed><weight>1</weight></arrival><arrival><pickID>de.gempa.tb1.Pick/20250412123542.377677.123953</pickID><phase>P</phase><azimuth>314.20098876953125</azimuth><distance>1.429182529449463</distance><timeResidual>0.12311744689941406</timeResidual><timeUsed>true</timeUsed><horizontalSlownessUsed>false</horizontalSlownessUsed><backazimuthUsed>false</backazimuthUsed><weight>1</weight></arrival><arrival><pickID>de.gempa.tb1.Pick/20250412123542.637192.123955</pickID><phase>S</phase><azimuth>271.8722229003906</azimuth><distance>0.7276453971862793</distance><timeResidual>-0.18696212768554688</timeResidual><timeUsed>true</timeUsed><horizontalSlownessUsed>false</horizontalSlownessUsed><backazimuthUsed>false</backazimuthUsed><weight>1</weight></arrival><arrival><pickID>de.gempa.tb1.Pick/20250412123546.258808.123956</pickID><phase>S</phase><azimuth>233.00404357910156</azimuth><distance>0.790947675704956</distance><timeResidual>0.11554336547851562</timeResidual><timeUsed>true</timeUsed><horizontalSlownessUsed>false</horizontalSlownessUsed><backazimuthUsed>false</backazimuthUsed><weight>1</weight></arrival><arrival><pickID>de.gempa.tb1.Pick/20250412123551.789843.123957</pickID><phase>S</phase><azimuth>306.9876708984375</azimuth><distance>1.1252431869506836</distance><timeResidual>-0.117645263671875</timeResidual><timeUsed>true</timeUsed><horizontalSlownessUsed>false</horizontalSlownessUsed><backazimuthUsed>false</backazimuthUsed><weight>1</weight></arrival><arrival><pickID>de.gempa.tb1.Pick/20250412123552.693416.123958</pickID><phase>S</phase><azimuth>201.63343811035156</azimuth><distance>1.257102608680725</distance><timeResidual>0.27079200744628906</timeResidual><timeUsed>true</timeUsed><horizontalSlownessUsed>false</horizontalSlownessUsed><backazimuthUsed>false</backazimuthUsed><weight>1</weight></arrival><arrival><pickID>de.gempa.tb1.Pick/20250412123606.59054.123964</pickID><phase>S</phase><azimuth>338.62982177734375</azimuth><distance>1.8026233911514282</distance><timeResidual>0.014734268188476562</timeResidual><timeUsed>true</timeUsed><horizontalSlownessUsed>false</horizontalSlownessUsed><backazimuthUsed>false</backazimuthUsed><weight>1</weight></arrival><arrival><pickID>de.gempa.tb1.Pick/20250412123626.894191.123965</pickID><phase>S</phase><azimuth>314.20098876953125</azimuth><distance>1.429182529449463</distance><timeResidual>0.3831596374511719</timeResidual><timeUsed>true</timeUsed><horizontalSlownessUsed>false</horizontalSlownessUsed><backazimuthUsed>false</backazimuthUsed><weight>1</weight></arrival><magnitude publicID="de.gempa.tb1.Magnitude/20250412123626.905856.225165"><magnitude><value>2.7921776624021124</value></magnitude><type>M</type><methodID>weighted average</methodID><stationCount>7</stationCount></magnitude></origin><event publicID="gempa2025hfnk"><preferredOriginID>de.gempa.tb1.Origin/20250412123626.897028.82517</preferredOriginID><preferredMagnitudeID>de.gempa.tb1.Magnitude/20250412123626.905856.225165</preferredMagnitudeID><description><text>Northern Chile</text><type>region name</type></description><originReference>de.gempa.tb1.Origin/20250412123626.897028.82517</originReference></event></EventParameters></seiscomp>