<?xml version="1.0" encoding="UTF-8"?>
<seiscomp xmlns="http://geofon.gfz-potsdam.de/ns/seiscomp3-schema/0.13" version="0.13"><EventParameters><pick publicID="de.gempa.tb1.Pick/20250414030010.890018.135196"><time><value>2025-04-14T03:00:05.129998Z</value></time><waveformID networkCode="CX" stationCode="PB09" channelCode="HHZ"/><filterID>ITAPER(4)&gt;&gt;BW(4,4,20)</filterID><methodID>AIC</methodID><horizontalSlowness><value>22.477109910974544</value></horizontalSlowness><backazimuth><value>284.4948665699088</value></backazimuth><phaseHint>P</phaseHint><evaluationMode>automatic</evaluationMode><comment><text>24.974465289319564</text><id>DFX:rectilinearity</id></comment><comment><text>287.2682214391946</text><id>SNR</id></comment></pick><pick publicID="de.gempa.tb1.Pick/20250414030015.50652.135198"><time><value>2025-04-14T03:00:09.228391Z</value></time><waveformID networkCode="CX" stationCode="PB03" channelCode="HHZ"/><filterID>ITAPER(4)&gt;&gt;BW(4,4,20)</filterID><methodID>AIC</methodID><horizontalSlowness><value>7.820557773410028</value></horizontalSlowness><backazimuth><value>81.62612063514844</value></backazimuth><phaseHint>P</phaseHint><evaluationMode>automatic</evaluationMode><comment><text>102.30030319380884</text><id>DFX:rectilinearity</id></comment><comment><text>77.08396033513141</text><id>SNR</id></comment></pick><pick publicID="de.gempa.tb1.Pick/20250414030017.215617.135200"><time><value>2025-04-14T03:00:10.408394Z</value></time><waveformID networkCode="CX" stationCode="PB07" channelCode="HHZ"/><filterID>ITAPER(4)&gt;&gt;BW(4,4,20)</filterID><methodID>AIC</methodID><horizontalSlowness><value>3.176009571480566</value></horizontalSlowness><backazimuth><value>70.4889193390777</value></backazimuth><phaseHint>P</phaseHint><evaluationMode>automatic</evaluationMode><comment><text>266.95562405476744</text><id>DFX:rectilinearity</id></comment><comment><text>232.9103826897584</text><id>SNR</id></comment></pick><pick publicID="de.gempa.tb1.Pick/20250414030017.505634.135202"><time><value>2025-04-14T03:00:11.748393Z</value></time><waveformID networkCode="CX" stationCode="PB02" channelCode="HHZ"/><filterID>ITAPER(4)&gt;&gt;BW(4,4,20)</filterID><methodID>AIC</methodID><horizontalSlowness><value>14.458379416220998</value></horizontalSlowness><backazimuth><value>298.6291749277835</value></backazimuth><phaseHint>P</phaseHint><evaluationMode>automatic</evaluationMode><comment><text>34.570807485699845</text><id>DFX:rectilinearity</id></comment><comment><text>53.05850622799421</text><id>SNR</id></comment></pick><pick publicID="de.gempa.tb1.Pick/20250414030017.513456.135204"><time><value>2025-04-14T03:00:11.618393Z</value></time><waveformID networkCode="CX" stationCode="PB06" channelCode="HHZ"/><filterID>ITAPER(4)&gt;&gt;BW(4,4,20)</filterID><methodID>AIC</methodID><horizontalSlowness><value>4.282380198077538</value></horizontalSlowness><backazimuth><value>158.94806713363863</value></backazimuth><phaseHint>P</phaseHint><evaluationMode>automatic</evaluationMode><comment><text>92.50825198934032</text><id>DFX:rectilinearity</id></comment><comment><text>12.919281265674313</text><id>SNR</id></comment></pick><pick publicID="de.gempa.tb1.Pick/20250414030018.694864.135206"><time><value>2025-04-14T03:00:10.198393Z</value></time><waveformID networkCode="CX" stationCode="PB01" channelCode="HHZ"/><filterID>ITAPER(4)&gt;&gt;BW(4,4,20)</filterID><methodID>AIC</methodID><horizontalSlowness><value>5.830060066114832</value></horizontalSlowness><backazimuth><value>190.82579346903813</value></backazimuth><phaseHint>P</phaseHint><evaluationMode>automatic</evaluationMode><comment><text>61.9403707086879</text><id>DFX:rectilinearity</id></comment><comment><text>63.62649275667906</text><id>SNR</id></comment></pick><pick publicID="de.gempa.tb1.Pick/20250414030023.382449.135208"><time><value>2025-04-14T03:00:17.370001Z</value></time><waveformID networkCode="CX" stationCode="PATCX" channelCode="HHZ"/><filterID>ITAPER(4)&gt;&gt;BW(4,4,20)</filterID><methodID>AIC</methodID><horizontalSlowness><value>21.535546860646718</value></horizontalSlowness><backazimuth><value>19.475866661435532</value></backazimuth><phaseHint>P</phaseHint><evaluationMode>automatic</evaluationMode><comment><text>189.2690797442068</text><id>DFX:rectilinearity</id></comment><comment><text>26.846982925648234</text><id>SNR</id></comment></pick><pick publicID="de.gempa.tb1.Pick/20250414030031.662861.135210"><time><value>2025-04-14T03:00:23.68Z</value></time><waveformID networkCode="CX" stationCode="PB19" channelCode="HHZ"/><filterID>ITAPER(4)&gt;&gt;BW(4,4,20)</filterID><methodID>AIC</methodID><horizontalSlowness><value>22.90113040422129</value></horizontalSlowness><backazimuth><value>71.66347348087022</value></backazimuth><phaseHint>P</phaseHint><evaluationMode>automatic</evaluationMode><comment><text>11.836499129316056</text><id>DFX:rectilinearity</id></comment><comment><text>13.274479030884427</text><id>SNR</id></comment></pick><pick publicID="de.gempa.tb1.Pick/20250414030032.534155.135212"><time><value>2025-04-14T03:00:27.89Z</value></time><waveformID networkCode="CX" stationCode="PSGCX" channelCode="HHZ"/><filterID>ITAPER(4)&gt;&gt;BW(4,4,20)</filterID><methodID>AIC</methodID><horizontalSlowness><value>20.079985081612136</value></horizontalSlowness><backazimuth><value>118.06599275462673</value></backazimuth><phaseHint>P</phaseHint><evaluationMode>automatic</evaluationMode><comment><text>19.60029161890073</text><id>DFX:rectilinearity</id></comment><comment><text>11.574928800258764</text><id>SNR</id></comment></pick><pick publicID="de.gempa.tb1.Pick/20250414030032.534519.135214"><time><value>2025-04-14T03:00:25.268391Z</value></time><waveformID networkCode="CX" stationCode="PB03" channelCode="HHN"/><filterID>ITAPER(2)&gt;&gt;BW(3,3,20)</filterID><methodID>L2-AIC-GRID</methodID><horizontalSlowness><value>18.492828709652557</value></horizontalSlowness><backazimuth><value>324.232318327818</value></backazimuth><phaseHint>S</phaseHint><evaluationMode>automatic</evaluationMode><comment><text>3252.460518295908</text><id>DFX:rectilinearity</id></comment><comment><text>de.gempa.tb1.Pick/20250414030015.50652.135198</text><id>RefPickID</id></comment><comment><text>12.388045637408137</text><id>SNR</id></comment></pick><pick publicID="de.gempa.tb1.Pick/20250414030035.800983.135215"><time><value>2025-04-14T03:00:27.378393Z</value></time><waveformID networkCode="CX" stationCode="PB01" channelCode="HHN"/><filterID>ITAPER(2)&gt;&gt;BW(3,3,20)</filterID><methodID>L2-AIC-GRID</methodID><horizontalSlowness><value>19.192687954174364</value></horizontalSlowness><backazimuth><value>275.11303807072045</value></backazimuth><phaseHint>S</phaseHint><evaluationMode>automatic</evaluationMode><comment><text>206.25108674218612</text><id>DFX:rectilinearity</id></comment><comment><text>de.gempa.tb1.Pick/20250414030018.694864.135206</text><id>RefPickID</id></comment><comment><text>6.131470124009632</text><id>SNR</id></comment></pick><pick publicID="de.gempa.tb1.Pick/20250414030037.784155.135216"><time><value>2025-04-14T03:00:29.288393Z</value></time><waveformID networkCode="CX" stationCode="PB06" channelCode="HHN"/><filterID>ITAPER(2)&gt;&gt;BW(3,3,20)</filterID><methodID>L2-AIC-GRID</methodID><horizontalSlowness><value>22.90823314598004</value></horizontalSlowness><backazimuth><value>288.8722511814715</value></backazimuth><phaseHint>S</phaseHint><evaluationMode>automatic</evaluationMode><comment><text>624.0457106058584</text><id>DFX:rectilinearity</id></comment><comment><text>de.gempa.tb1.Pick/20250414030017.513456.135204</text><id>RefPickID</id></comment><comment><text>20.952240615920356</text><id>SNR</id></comment></pick><pick publicID="de.gempa.tb1.Pick/20250414030048.274887.135221"><time><value>2025-04-14T03:00:40.070001Z</value></time><waveformID networkCode="CX" stationCode="PATCX" channelCode="HHN"/><filterID>ITAPER(2)&gt;&gt;BW(3,3,20)</filterID><methodID>L2-AIC-GRID</methodID><horizontalSlowness><value>21.346822108695289</value></horizontalSlowness><backazimuth><value>222.86422004603355</value></backazimuth><phaseHint>S</phaseHint><evaluationMode>automatic</evaluationMode><comment><text>303.3137514645547</text><id>DFX:rectilinearity</id></comment><comment><text>de.gempa.tb1.Pick/20250414030023.382449.135208</text><id>RefPickID</id></comment><comment><text>6.006113583422136</text><id>SNR</id></comment></pick><pick publicID="de.gempa.tb1.Pick/20250414030103.70113.135227"><time><value>2025-04-14T03:00:51.43Z</value></time><waveformID networkCode="CX" stationCode="PB19" channelCode="HHN"/><filterID>ITAPER(2)&gt;&gt;BW(3,3,20)</filterID><methodID>L2-AIC-GRID</methodID><horizontalSlowness><value>18.663915634427287</value></horizontalSlowness><backazimuth><value>207.08918595985116</value></backazimuth><phaseHint>S</phaseHint><evaluationMode>automatic</evaluationMode><comment><text>43.572899082743916</text><id>DFX:rectilinearity</id></comment><comment><text>de.gempa.tb1.Pick/20250414030031.662861.135210</text><id>RefPickID</id></comment><comment><text>5.647867270862738</text><id>SNR</id></comment></pick><origin publicID="de.gempa.tb1.Origin/20250414030103.704822.124909"><time><value>2025-04-14T02:59:48.501952Z</value><uncertainty>0.7804679274559021</uncertainty></time><latitude><value>-21.8072509765625</value><uncertainty>3.1121068000793457</uncertainty></latitude><longitude><value>-68.74203491210938</value><uncertainty>11.068479537963867</uncertainty></longitude><depth><value>111.42514038085938</value><uncertainty>11.284360885620117</uncertainty></depth><depthType>from location</depthType><methodID>LOCSAT</methodID><earthModelID>iasp91_scanloc</earthModelID><quality><associatedPhaseCount>14</associatedPhaseCount><usedPhaseCount>14</usedPhaseCount><associatedStationCount>9</associatedStationCount><usedStationCount>9</usedStationCount><depthPhaseCount>0</depthPhaseCount><standardError>0.43573025187357833</standardError><azimuthalGap>224.22006225585938</azimuthalGap><maximumDistance>2.5508313179016113</maximumDistance><minimumDistance>0.4646842777729034</minimumDistance><medianDistance>1.1792516708374023</medianDistance></quality><uncertainty><minHorizontalUncertainty>5.848694324493408</minHorizontalUncertainty><maxHorizontalUncertainty>23.94713020324707</maxHorizontalUncertainty><azimuthMaxHorizontalUncertainty>82.05097961425781</azimuthMaxHorizontalUncertainty><preferredDescription>horizontal uncertainty</preferredDescription></uncertainty><evaluationMode>automatic</evaluationMode><evaluationStatus>confirmed</evaluationStatus><comment><text>0.04</text><id>mismatchScore</id></comment><comment><text>mismatchScore</text><id>scevalMethod</id></comment><arrival><pickID>de.gempa.tb1.Pick/20250414030010.890018.135196</pickID><phase>P</phase><azimuth>271.2418212890625</azimuth><distance>0.4646842777729034</distance><timeResidual>-0.17210769653320312</timeResidual><timeUsed>true</timeUsed><horizontalSlownessUsed>false</horizontalSlownessUsed><backazimuthUsed>false</backazimuthUsed><weight>1</weight></arrival><arrival><pickID>de.gempa.tb1.Pick/20250414030015.50652.135198</pickID><phase>P</phase><azimuth>255.46937561035156</azimuth><distance>0.9689931273460388</distance><timeResidual>-0.3048744201660156</timeResidual><timeUsed>true</timeUsed><horizontalSlownessUsed>false</horizontalSlownessUsed><backazimuthUsed>false</backazimuthUsed><weight>1</weight></arrival><arrival><pickID>de.gempa.tb1.Pick/20250414030017.215617.135200</pickID><phase>P</phase><azimuth>274.1007995605469</azimuth><distance>1.0665571689605713</distance><timeResidual>-0.1329479217529297</timeResidual><timeUsed>true</timeUsed><horizontalSlownessUsed>false</horizontalSlownessUsed><backazimuthUsed>false</backazimuthUsed><weight>1</weight></arrival><arrival><pickID>de.gempa.tb1.Pick/20250414030017.505634.135202</pickID><phase>P</phase><azimuth>294.0934143066406</azimuth><distance>1.1786552667617798</distance><timeResidual>-0.00142669677734375</timeResidual><timeUsed>true</timeUsed><horizontalSlownessUsed>false</horizontalSlownessUsed><backazimuthUsed>false</backazimuthUsed><weight>1</weight></arrival><arrival><pickID>de.gempa.tb1.Pick/20250414030017.513456.135204</pickID><phase>P</phase><azimuth>220.52906799316406</azimuth><distance>1.1792516708374023</distance><timeResidual>-0.13063621520996094</timeResidual><timeUsed>true</timeUsed><horizontalSlownessUsed>false</horizontalSlownessUsed><backazimuthUsed>false</backazimuthUsed><weight>1</weight></arrival><arrival><pickID>de.gempa.tb1.Pick/20250414030018.694864.135206</pickID><phase>P</phase><azimuth>317.4533996582031</azimuth><distance>1.0296964645385742</distance><timeResidual>0.03876686096191406</timeResidual><timeUsed>true</timeUsed><horizontalSlownessUsed>false</horizontalSlownessUsed><backazimuthUsed>false</backazimuthUsed><weight>1</weight></arrival><arrival><pickID>de.gempa.tb1.Pick/20250414030023.382449.135208</pickID><phase>P</phase><azimuth>306.4747314453125</azimuth><distance>1.6413874626159668</distance><timeResidual>0.2360820770263672</timeResidual><timeUsed>true</timeUsed><horizontalSlownessUsed>false</horizontalSlownessUsed><backazimuthUsed>false</backazimuthUsed><weight>1</weight></arrival><arrival><pickID>de.gempa.tb1.Pick/20250414030031.662861.135210</pickID><phase>P</phase><azimuth>193.52035522460938</azimuth><distance>2.1481382846832275</distance><timeResidual>0.2271919250488281</timeResidual><timeUsed>true</timeUsed><horizontalSlownessUsed>false</horizontalSlownessUsed><backazimuthUsed>false</backazimuthUsed><weight>1</weight></arrival><arrival><pickID>de.gempa.tb1.Pick/20250414030032.534155.135212</pickID><phase>P</phase><azimuth>329.30029296875</azimuth><distance>2.5508313179016113</distance><timeResidual>-0.781686782836914</timeResidual><timeUsed>true</timeUsed><horizontalSlownessUsed>false</horizontalSlownessUsed><backazimuthUsed>false</backazimuthUsed><weight>1</weight></arrival><arrival><pickID>de.gempa.tb1.Pick/20250414030032.534519.135214</pickID><phase>S</phase><azimuth>255.46937561035156</azimuth><distance>0.9689931273460388</distance><timeResidual>-0.5050678253173828</timeResidual><timeUsed>true</timeUsed><horizontalSlownessUsed>false</horizontalSlownessUsed><backazimuthUsed>false</backazimuthUsed><weight>1</weight></arrival><arrival><pickID>de.gempa.tb1.Pick/20250414030035.800983.135215</pickID><phase>S</phase><azimuth>317.4533996582031</azimuth><distance>1.0296964645385742</distance><timeResidual>0.4888858795166016</timeResidual><timeUsed>true</timeUsed><horizontalSlownessUsed>false</horizontalSlownessUsed><backazimuthUsed>false</backazimuthUsed><weight>1</weight></arrival><arrival><pickID>de.gempa.tb1.Pick/20250414030037.784155.135216</pickID><phase>S</phase><azimuth>220.52906799316406</azimuth><distance>1.1792516708374023</distance><timeResidual>-0.44016265869140625</timeResidual><timeUsed>true</timeUsed><horizontalSlownessUsed>false</horizontalSlownessUsed><backazimuthUsed>false</backazimuthUsed><weight>1</weight></arrival><arrival><pickID>de.gempa.tb1.Pick/20250414030048.274887.135221</pickID><phase>S</phase><azimuth>306.4747314453125</azimuth><distance>1.6413874626159668</distance><timeResidual>0.7177677154541016</timeResidual><timeUsed>true</timeUsed><horizontalSlownessUsed>false</horizontalSlownessUsed><backazimuthUsed>false</backazimuthUsed><weight>1</weight></arrival><arrival><pickID>de.gempa.tb1.Pick/20250414030103.70113.135227</pickID><phase>S</phase><azimuth>193.52035522460938</azimuth><distance>2.1481382846832275</distance><timeResidual>0.760141372680664</timeResidual><timeUsed>true</timeUsed><horizontalSlownessUsed>false</horizontalSlownessUsed><backazimuthUsed>false</backazimuthUsed><weight>1</weight></arrival><magnitude publicID="de.gempa.tb1.Magnitude/20250414030110.939471.422161"><magnitude><value>2.414504180440522</value></magnitude><type>M</type><methodID>weighted average</methodID><stationCount>6</stationCount></magnitude></origin><event publicID="gempa2025himg"><preferredOriginID>de.gempa.tb1.Origin/20250414030103.704822.124909</preferredOriginID><preferredMagnitudeID>de.gempa.tb1.Magnitude/20250414030110.939471.422161</preferredMagnitudeID><description><text>Chile-Bolivia Border Region</text><type>region name</type></description><originReference>de.gempa.tb1.Origin/20250414030103.704822.124909</originReference></event></EventParameters></seiscomp>