<?xml version="1.0" encoding="UTF-8"?>
<seiscomp xmlns="http://geofon.gfz-potsdam.de/ns/seiscomp3-schema/0.13" version="0.13"><EventParameters><pick publicID="de.gempa.tb1.Pick/20250415043606.537835.143491"><time><value>2025-04-15T04:36:01.128393Z</value></time><waveformID networkCode="CX" stationCode="PB01" channelCode="HHZ"/><filterID>ITAPER(4)&gt;&gt;BW(4,4,20)</filterID><methodID>AIC</methodID><horizontalSlowness><value>23.50229042449644</value></horizontalSlowness><backazimuth><value>205.18699674058206</value></backazimuth><phaseHint>P</phaseHint><evaluationMode>automatic</evaluationMode><comment><text>9.542250757478138</text><id>DFX:rectilinearity</id></comment><comment><text>14.4373892854249</text><id>SNR</id></comment></pick><pick publicID="de.gempa.tb1.Pick/20250415043611.51148.143493"><time><value>2025-04-15T04:36:04.418394Z</value></time><waveformID networkCode="CX" stationCode="PB02" channelCode="HHZ"/><filterID>ITAPER(4)&gt;&gt;BW(4,4,20)</filterID><methodID>AIC</methodID><horizontalSlowness><value>8.220067274944743</value></horizontalSlowness><backazimuth><value>63.49236682770332</value></backazimuth><phaseHint>P</phaseHint><evaluationMode>automatic</evaluationMode><comment><text>28.351310597709723</text><id>DFX:rectilinearity</id></comment><comment><text>15.252510759678167</text><id>SNR</id></comment></pick><pick publicID="de.gempa.tb1.Pick/20250415043611.572425.143495"><time><value>2025-04-15T04:36:04.028393Z</value></time><waveformID networkCode="CX" stationCode="PB03" channelCode="HHZ"/><filterID>ITAPER(4)&gt;&gt;BW(4,4,20)</filterID><methodID>AIC</methodID><horizontalSlowness><value>10.07374291492955</value></horizontalSlowness><backazimuth><value>287.61336821356093</value></backazimuth><phaseHint>P</phaseHint><evaluationMode>automatic</evaluationMode><comment><text>19.807055600820213</text><id>DFX:rectilinearity</id></comment><comment><text>6.700958993840377</text><id>SNR</id></comment></pick><pick publicID="de.gempa.tb1.Pick/20250415043614.245151.143497"><time><value>2025-04-15T04:36:08.619999Z</value></time><waveformID networkCode="CX" stationCode="PATCX" channelCode="HHZ"/><filterID>ITAPER(4)&gt;&gt;BW(4,4,20)</filterID><methodID>AIC</methodID><horizontalSlowness><value>22.957292809359434</value></horizontalSlowness><backazimuth><value>94.99146964510264</value></backazimuth><phaseHint>P</phaseHint><evaluationMode>automatic</evaluationMode><comment><text>752.9099935845619</text><id>DFX:rectilinearity</id></comment><comment><text>11.294707211112563</text><id>SNR</id></comment></pick><pick publicID="de.gempa.tb1.Pick/20250415043616.876462.143499"><time><value>2025-04-15T04:35:59.31Z</value></time><waveformID networkCode="CX" stationCode="PB09" channelCode="HHZ"/><filterID>ITAPER(4)&gt;&gt;BW(4,4,20)</filterID><methodID>AIC</methodID><horizontalSlowness><value>15.0530559223604</value></horizontalSlowness><backazimuth><value>276.3068155649154</value></backazimuth><phaseHint>P</phaseHint><evaluationMode>automatic</evaluationMode><comment><text>13.632807588257347</text><id>DFX:rectilinearity</id></comment><comment><text>19.111284394058355</text><id>SNR</id></comment></pick><pick publicID="de.gempa.tb1.Pick/20250415043625.151878.143501"><time><value>2025-04-15T04:36:04.288393Z</value></time><waveformID networkCode="CX" stationCode="PB07" channelCode="HHZ"/><filterID>ITAPER(4)&gt;&gt;BW(4,4,20)</filterID><methodID>AIC</methodID><horizontalSlowness><value>23.034250712537574</value></horizontalSlowness><backazimuth><value>112.9200457966908</value></backazimuth><phaseHint>P</phaseHint><evaluationMode>automatic</evaluationMode><comment><text>484.3676702391139</text><id>DFX:rectilinearity</id></comment><comment><text>30.5685499088262</text><id>SNR</id></comment></pick><pick publicID="de.gempa.tb1.Pick/20250415043625.519624.143503"><time><value>2025-04-15T04:36:19.32Z</value></time><waveformID networkCode="CX" stationCode="PB19" channelCode="HHZ"/><filterID>ITAPER(4)&gt;&gt;BW(4,4,20)</filterID><methodID>AIC</methodID><horizontalSlowness><value>16.227201865415996</value></horizontalSlowness><backazimuth><value>168.37188046545785</value></backazimuth><phaseHint>P</phaseHint><evaluationMode>automatic</evaluationMode><comment><text>29.02507526778876</text><id>DFX:rectilinearity</id></comment><comment><text>14.345997253799467</text><id>SNR</id></comment></pick><pick publicID="de.gempa.tb1.Pick/20250415043626.629671.143505"><time><value>2025-04-15T04:36:18.958393Z</value></time><waveformID networkCode="CX" stationCode="PB01" channelCode="HHN"/><filterID>ITAPER(2)&gt;&gt;BW(3,3,20)</filterID><methodID>L2-AIC-GRID</methodID><horizontalSlowness><value>22.622819222143367</value></horizontalSlowness><backazimuth><value>193.85720721058226</value></backazimuth><phaseHint>S</phaseHint><evaluationMode>automatic</evaluationMode><comment><text>64.54542253616265</text><id>DFX:rectilinearity</id></comment><comment><text>de.gempa.tb1.Pick/20250415043606.537835.143491</text><id>RefPickID</id></comment><comment><text>6.857961959759447</text><id>SNR</id></comment></pick><pick publicID="de.gempa.tb1.Pick/20250415043630.630299.143506"><time><value>2025-04-15T04:36:24.448394Z</value></time><waveformID networkCode="CX" stationCode="PB02" channelCode="HHN"/><filterID>ITAPER(2)&gt;&gt;BW(3,3,20)</filterID><methodID>L2-AIC-GRID</methodID><horizontalSlowness><value>18.46430074045599</value></horizontalSlowness><backazimuth><value>265.65076209379606</value></backazimuth><phaseHint>S</phaseHint><evaluationMode>automatic</evaluationMode><comment><text>83.61358275896738</text><id>DFX:rectilinearity</id></comment><comment><text>de.gempa.tb1.Pick/20250415043611.51148.143493</text><id>RefPickID</id></comment><comment><text>5.864359984626274</text><id>SNR</id></comment></pick><pick publicID="de.gempa.tb1.Pick/20250415043630.963627.143507"><time><value>2025-04-15T04:36:15.31Z</value></time><waveformID networkCode="CX" stationCode="PB09" channelCode="HHN"/><filterID>ITAPER(2)&gt;&gt;BW(3,3,20)</filterID><methodID>L2-AIC-GRID</methodID><horizontalSlowness><value>23.309001100773564</value></horizontalSlowness><backazimuth><value>339.43381759979764</value></backazimuth><phaseHint>S</phaseHint><evaluationMode>automatic</evaluationMode><comment><text>49.62053294273579</text><id>DFX:rectilinearity</id></comment><comment><text>de.gempa.tb1.Pick/20250415043616.876462.143499</text><id>RefPickID</id></comment><comment><text>6.355630410086239</text><id>SNR</id></comment></pick><pick publicID="de.gempa.tb1.Pick/20250415043635.577089.143508"><time><value>2025-04-15T04:36:23.548393Z</value></time><waveformID networkCode="CX" stationCode="PB03" channelCode="HHN"/><filterID>ITAPER(2)&gt;&gt;BW(3,3,20)</filterID><methodID>L2-AIC-GRID</methodID><horizontalSlowness><value>9.889903704081611</value></horizontalSlowness><backazimuth><value>277.61653607272297</value></backazimuth><phaseHint>S</phaseHint><evaluationMode>automatic</evaluationMode><comment><text>37.072465466164537</text><id>DFX:rectilinearity</id></comment><comment><text>de.gempa.tb1.Pick/20250415043611.572425.143495</text><id>RefPickID</id></comment><comment><text>19.37325267181133</text><id>SNR</id></comment></pick><pick publicID="de.gempa.tb1.Pick/20250415043642.395461.143511"><time><value>2025-04-15T04:36:31.689999Z</value></time><waveformID networkCode="CX" stationCode="PATCX" channelCode="HHN"/><filterID>ITAPER(2)&gt;&gt;BW(3,3,20)</filterID><methodID>L2-AIC-GRID</methodID><horizontalSlowness><value>21.04667711710453</value></horizontalSlowness><backazimuth><value>69.91335299414094</value></backazimuth><phaseHint>S</phaseHint><evaluationMode>automatic</evaluationMode><comment><text>170.91394635327129</text><id>DFX:rectilinearity</id></comment><comment><text>de.gempa.tb1.Pick/20250415043614.245151.143497</text><id>RefPickID</id></comment><comment><text>5.005943997871929</text><id>SNR</id></comment></pick><pick publicID="de.gempa.tb1.Pick/20250415043651.0795.143514"><time><value>2025-04-15T04:36:24.388393Z</value></time><waveformID networkCode="CX" stationCode="PB07" channelCode="HHN"/><filterID>ITAPER(2)&gt;&gt;BW(3,3,20)</filterID><methodID>L2-AIC-GRID</methodID><horizontalSlowness><value>22.079502397911956</value></horizontalSlowness><backazimuth><value>232.36804473646845</value></backazimuth><phaseHint>S</phaseHint><evaluationMode>automatic</evaluationMode><comment><text>717.9118081754059</text><id>DFX:rectilinearity</id></comment><comment><text>de.gempa.tb1.Pick/20250415043625.151878.143501</text><id>RefPickID</id></comment><comment><text>9.495973411904707</text><id>SNR</id></comment></pick><origin publicID="de.gempa.tb1.Origin/20250415043651.083637.160941"><time><value>2025-04-15T04:35:38.762087Z</value><uncertainty>0.8944953680038452</uncertainty></time><latitude><value>-21.479570388793945</value><uncertainty>5.637773990631104</uncertainty></latitude><longitude><value>-68.53467559814453</value><uncertainty>9.514500617980957</uncertainty></longitude><depth><value>128.53469848632812</value><uncertainty>9.646899223327637</uncertainty></depth><depthType>from location</depthType><methodID>LOCSAT</methodID><earthModelID>iasp91_scanloc</earthModelID><quality><associatedPhaseCount>13</associatedPhaseCount><usedPhaseCount>13</usedPhaseCount><associatedStationCount>7</associatedStationCount><usedStationCount>7</usedStationCount><depthPhaseCount>0</depthPhaseCount><standardError>0.21533486888232795</standardError><azimuthalGap>260.1210632324219</azimuthalGap><maximumDistance>2.5126852989196777</maximumDistance><minimumDistance>0.729627251625061</minimumDistance><medianDistance>1.2785513401031494</medianDistance></quality><uncertainty><minHorizontalUncertainty>10.527321815490723</minHorizontalUncertainty><maxHorizontalUncertainty>21.244857788085938</maxHorizontalUncertainty><azimuthMaxHorizontalUncertainty>71.22750854492188</azimuthMaxHorizontalUncertainty><preferredDescription>horizontal uncertainty</preferredDescription></uncertainty><evaluationMode>automatic</evaluationMode><evaluationStatus>confirmed</evaluationStatus><comment><text>0.15</text><id>mismatchScore</id></comment><comment><text>mismatchScore</text><id>scevalMethod</id></comment><arrival><pickID>de.gempa.tb1.Pick/20250415043606.537835.143491</pickID><phase>P</phase><azimuth>295.86700439453125</azimuth><distance>0.989046037197113</distance><timeResidual>-0.34656524658203125</timeResidual><timeUsed>true</timeUsed><horizontalSlownessUsed>false</horizontalSlownessUsed><backazimuthUsed>false</backazimuthUsed><weight>1</weight></arrival><arrival><pickID>de.gempa.tb1.Pick/20250415043611.51148.143493</pickID><phase>P</phase><azimuth>276.8988342285156</azimuth><distance>1.2785513401031494</distance><timeResidual>0.04724884033203125</timeResidual><timeUsed>true</timeUsed><horizontalSlownessUsed>false</horizontalSlownessUsed><backazimuthUsed>false</backazimuthUsed><weight>1</weight></arrival><arrival><pickID>de.gempa.tb1.Pick/20250415043611.572425.143495</pickID><phase>P</phase><azimuth>243.21844482421875</azimuth><distance>1.2662099599838257</distance><timeResidual>-0.20798873901367188</timeResidual><timeUsed>true</timeUsed><horizontalSlownessUsed>false</horizontalSlownessUsed><backazimuthUsed>false</backazimuthUsed><weight>1</weight></arrival><arrival><pickID>de.gempa.tb1.Pick/20250415043614.245151.143497</pickID><phase>P</phase><azimuth>293.16998291015625</azimuth><distance>1.6466273069381714</distance><timeResidual>0.14734840393066406</timeResidual><timeUsed>true</timeUsed><horizontalSlownessUsed>false</horizontalSlownessUsed><backazimuthUsed>false</backazimuthUsed><weight>1</weight></arrival><arrival><pickID>de.gempa.tb1.Pick/20250415043616.876462.143499</pickID><phase>P</phase><azimuth>244.2708740234375</azimuth><distance>0.729627251625061</distance><timeResidual>0.06596565246582031</timeResidual><timeUsed>true</timeUsed><horizontalSlownessUsed>false</horizontalSlownessUsed><backazimuthUsed>false</backazimuthUsed><weight>1</weight></arrival><arrival><pickID>de.gempa.tb1.Pick/20250415043625.151878.143501</pickID><phase>P</phase><azimuth>258.69097900390625</azimuth><distance>1.2815110683441162</distance><timeResidual>-0.11163711547851562</timeResidual><timeUsed>true</timeUsed><horizontalSlownessUsed>false</horizontalSlownessUsed><backazimuthUsed>false</backazimuthUsed><weight>1</weight></arrival><arrival><pickID>de.gempa.tb1.Pick/20250415043625.519624.143503</pickID><phase>P</phase><azimuth>195.98806762695312</azimuth><distance>2.5126852989196777</distance><timeResidual>0.25542259216308594</timeResidual><timeUsed>true</timeUsed><horizontalSlownessUsed>false</horizontalSlownessUsed><backazimuthUsed>false</backazimuthUsed><weight>1</weight></arrival><arrival><pickID>de.gempa.tb1.Pick/20250415043626.629671.143505</pickID><phase>S</phase><azimuth>295.86700439453125</azimuth><distance>0.989046037197113</distance><timeResidual>-0.09943199157714844</timeResidual><timeUsed>true</timeUsed><horizontalSlownessUsed>false</horizontalSlownessUsed><backazimuthUsed>false</backazimuthUsed><weight>1</weight></arrival><arrival><pickID>de.gempa.tb1.Pick/20250415043630.630299.143506</pickID><phase>S</phase><azimuth>276.8988342285156</azimuth><distance>1.2785513401031494</distance><timeResidual>0.2203521728515625</timeResidual><timeUsed>true</timeUsed><horizontalSlownessUsed>false</horizontalSlownessUsed><backazimuthUsed>false</backazimuthUsed><weight>1</weight></arrival><arrival><pickID>de.gempa.tb1.Pick/20250415043630.963627.143507</pickID><phase>S</phase><azimuth>244.2708740234375</azimuth><distance>0.729627251625061</distance><timeResidual>0.2298622131347656</timeResidual><timeUsed>true</timeUsed><horizontalSlownessUsed>false</horizontalSlownessUsed><backazimuthUsed>false</backazimuthUsed><weight>1</weight></arrival><arrival><pickID>de.gempa.tb1.Pick/20250415043635.577089.143508</pickID><phase>S</phase><azimuth>243.21844482421875</azimuth><distance>1.2662099599838257</distance><timeResidual>-0.43958091735839844</timeResidual><timeUsed>true</timeUsed><horizontalSlownessUsed>false</horizontalSlownessUsed><backazimuthUsed>false</backazimuthUsed><weight>1</weight></arrival><arrival><pickID>de.gempa.tb1.Pick/20250415043642.395461.143511</pickID><phase>S</phase><azimuth>293.16998291015625</azimuth><distance>1.6466273069381714</distance><timeResidual>0.13106918334960938</timeResidual><timeUsed>true</timeUsed><horizontalSlownessUsed>false</horizontalSlownessUsed><backazimuthUsed>false</backazimuthUsed><weight>1</weight></arrival><arrival><pickID>de.gempa.tb1.Pick/20250415043651.0795.143514</pickID><phase>S</phase><azimuth>258.69097900390625</azimuth><distance>1.2815110683441162</distance><timeResidual>0.108367919921875</timeResidual><timeUsed>true</timeUsed><horizontalSlownessUsed>false</horizontalSlownessUsed><backazimuthUsed>false</backazimuthUsed><weight>1</weight></arrival><magnitude publicID="de.gempa.tb1.Magnitude/20250415043706.184143.571690"><magnitude><value>2.3560270092474527</value></magnitude><type>M</type><methodID>weighted average</methodID><stationCount>6</stationCount></magnitude></origin><event publicID="gempa2025hklm"><preferredOriginID>de.gempa.tb1.Origin/20250415043651.083637.160941</preferredOriginID><preferredMagnitudeID>de.gempa.tb1.Magnitude/20250415043706.184143.571690</preferredMagnitudeID><description><text>Chile-Bolivia Border Region</text><type>region name</type></description><originReference>de.gempa.tb1.Origin/20250415043651.083637.160941</originReference></event></EventParameters></seiscomp>