<?xml version="1.0" encoding="UTF-8"?>
<seiscomp xmlns="http://geofon.gfz-potsdam.de/ns/seiscomp3-schema/0.13" version="0.13"><EventParameters><pick publicID="de.gempa.tb1.Pick/20250413092454.133204.186446"><time><value>2025-04-13T09:24:51.365Z</value></time><waveformID networkCode="CH" stationCode="SLE" channelCode="HHZ"/><filterID>ITAPER(4)&gt;&gt;BW(4,4,20)</filterID><methodID>AIC</methodID><phaseHint>P</phaseHint><evaluationMode>automatic</evaluationMode></pick><pick publicID="de.gempa.tb1.Pick/20250413092454.795929.186448"><time><value>2025-04-13T09:24:52.49Z</value></time><waveformID networkCode="CH" stationCode="METMA" channelCode="HHZ"/><filterID>ITAPER(4)&gt;&gt;BW(4,4,20)</filterID><methodID>AIC</methodID><phaseHint>P</phaseHint><evaluationMode>automatic</evaluationMode></pick><pick publicID="de.gempa.tb1.Pick/20250413092455.522952.186450"><time><value>2025-04-13T09:24:51.905Z</value></time><waveformID networkCode="CH" stationCode="BERGE" channelCode="HHZ"/><filterID>ITAPER(4)&gt;&gt;BW(4,4,20)</filterID><methodID>AIC</methodID><phaseHint>P</phaseHint><evaluationMode>automatic</evaluationMode></pick><pick publicID="de.gempa.tb1.Pick/20250413092458.137258.186454"><time><value>2025-04-13T09:24:56.03Z</value></time><waveformID networkCode="CH" stationCode="BOURR" channelCode="HHZ"/><filterID>ITAPER(4)&gt;&gt;BW(4,4,20)</filterID><methodID>AIC</methodID><phaseHint>P</phaseHint><evaluationMode>automatic</evaluationMode></pick><pick publicID="de.gempa.tb1.Pick/20250413092459.113943.186456"><time><value>2025-04-13T09:24:55.225Z</value></time><waveformID networkCode="CH" stationCode="LIENZ" channelCode="HHZ"/><filterID>ITAPER(4)&gt;&gt;BW(4,4,20)</filterID><methodID>AIC</methodID><phaseHint>P</phaseHint><evaluationMode>automatic</evaluationMode></pick><pick publicID="de.gempa.tb1.Pick/20250413092459.143262.186458"><time><value>2025-04-13T09:24:55.55Z</value></time><waveformID networkCode="CH" stationCode="BALST" channelCode="HHZ"/><filterID>ITAPER(4)&gt;&gt;BW(4,4,20)</filterID><methodID>AIC</methodID><phaseHint>P</phaseHint><evaluationMode>automatic</evaluationMode></pick><pick publicID="de.gempa.tb1.Pick/20250413092459.157907.186460"><time><value>2025-04-13T09:24:55.845Z</value></time><waveformID networkCode="CH" stationCode="PANIX" channelCode="HHZ"/><filterID>ITAPER(4)&gt;&gt;BW(4,4,20)</filterID><methodID>AIC</methodID><phaseHint>P</phaseHint><evaluationMode>automatic</evaluationMode></pick><pick publicID="de.gempa.tb1.Pick/20250413092459.232197.186462"><time><value>2025-04-13T09:24:57.54Z</value></time><waveformID networkCode="CH" stationCode="VDL" channelCode="HHZ"/><filterID>ITAPER(4)&gt;&gt;BW(4,4,20)</filterID><methodID>AIC</methodID><phaseHint>P</phaseHint><evaluationMode>automatic</evaluationMode></pick><pick publicID="de.gempa.tb1.Pick/20250413092500.284202.186468"><time><value>2025-04-13T09:24:54.705Z</value></time><waveformID networkCode="CH" stationCode="ROTHE" channelCode="HHZ"/><filterID>ITAPER(4)&gt;&gt;BW(4,4,20)</filterID><methodID>AIC</methodID><phaseHint>P</phaseHint><evaluationMode>automatic</evaluationMode></pick><pick publicID="de.gempa.tb1.Pick/20250413092500.913943.186470"><time><value>2025-04-13T09:24:56.445Z</value></time><waveformID networkCode="CH" stationCode="MUO" channelCode="HHZ"/><filterID>ITAPER(4)&gt;&gt;BW(4,4,20)</filterID><methodID>AIC</methodID><phaseHint>P</phaseHint><evaluationMode>automatic</evaluationMode></pick><pick publicID="de.gempa.tb1.Pick/20250413092503.059829.186476"><time><value>2025-04-13T09:24:58.385Z</value></time><waveformID networkCode="CH" stationCode="DAVOX" channelCode="HHZ"/><filterID>ITAPER(4)&gt;&gt;BW(4,4,20)</filterID><methodID>AIC</methodID><phaseHint>P</phaseHint><evaluationMode>automatic</evaluationMode></pick><origin publicID="de.gempa.tb1.Origin/20250413092503.068732.118088"><time><value>2025-04-13T09:24:21.157931Z</value><uncertainty>5.186447620391846</uncertainty></time><latitude><value>47.98009490966797</value><uncertainty>20.979249954223633</uncertainty></latitude><longitude><value>8.704330444335938</value><uncertainty>14.555546760559082</uncertainty></longitude><depth><value>237.69671630859375</value><uncertainty>44.845436096191406</uncertainty></depth><depthType>from location</depthType><methodID>LOCSAT</methodID><earthModelID>iasp91</earthModelID><quality><associatedPhaseCount>11</associatedPhaseCount><usedPhaseCount>11</usedPhaseCount><associatedStationCount>11</associatedStationCount><usedStationCount>11</usedStationCount><depthPhaseCount>0</depthPhaseCount><standardError>0.9196262278452407</standardError><azimuthalGap>248.7039489746094</azimuthalGap><maximumDistance>1.581409215927124</maximumDistance><minimumDistance>0.25866612792015076</minimumDistance><medianDistance>0.9387248158454895</medianDistance></quality><uncertainty><minHorizontalUncertainty>25.27045440673828</minHorizontalUncertainty><maxHorizontalUncertainty>48.59355926513672</maxHorizontalUncertainty><azimuthMaxHorizontalUncertainty>26.217506408691406</azimuthMaxHorizontalUncertainty><preferredDescription>horizontal uncertainty</preferredDescription></uncertainty><evaluationMode>automatic</evaluationMode><evaluationStatus>confirmed</evaluationStatus><comment><text>0.59</text><id>mismatchScore</id></comment><comment><text>extendedGap</text><id>scevalMethod</id></comment><arrival><pickID>de.gempa.tb1.Pick/20250413092454.133204.186446</pickID><phase>P</phase><azimuth>213.5634765625</azimuth><distance>0.25866612792015076</distance><timeResidual>-1.175802230834961</timeResidual><timeUsed>true</timeUsed><horizontalSlownessUsed>false</horizontalSlownessUsed><backazimuthUsed>false</backazimuthUsed><weight>1</weight></arrival><arrival><pickID>de.gempa.tb1.Pick/20250413092454.795929.186448</pickID><phase>P</phase><azimuth>228.78338623046875</azimuth><distance>0.4055325388908386</distance><timeResidual>-0.4967575073242188</timeResidual><timeUsed>true</timeUsed><horizontalSlownessUsed>false</horizontalSlownessUsed><backazimuthUsed>false</backazimuthUsed><weight>1</weight></arrival><arrival><pickID>de.gempa.tb1.Pick/20250413092455.522952.186450</pickID><phase>P</phase><azimuth>253.14642333984375</azimuth><distance>0.3702767491340637</distance><timeResidual>-0.9687995910644531</timeResidual><timeUsed>true</timeUsed><horizontalSlownessUsed>false</horizontalSlownessUsed><backazimuthUsed>false</backazimuthUsed><weight>1</weight></arrival><arrival><pickID>de.gempa.tb1.Pick/20250413092458.137258.186454</pickID><phase>P</phase><azimuth>240.0454559326172</azimuth><distance>1.1559258699417114</distance><timeResidual>0.14255905151367188</timeResidual><timeUsed>true</timeUsed><horizontalSlownessUsed>false</horizontalSlownessUsed><backazimuthUsed>false</backazimuthUsed><weight>1</weight></arrival><arrival><pickID>de.gempa.tb1.Pick/20250413092459.113943.186456</pickID><phase>P</phase><azimuth>141.85037231445312</azimuth><distance>0.8687394261360168</distance><timeResidual>0.782257080078125</timeResidual><timeUsed>true</timeUsed><horizontalSlownessUsed>false</horizontalSlownessUsed><backazimuthUsed>false</backazimuthUsed><weight>1</weight></arrival><arrival><pickID>de.gempa.tb1.Pick/20250413092459.143262.186458</pickID><phase>P</phase><azimuth>226.99766540527344</azimuth><distance>0.9387248158454895</distance><timeResidual>0.8934497833251953</timeResidual><timeUsed>true</timeUsed><horizontalSlownessUsed>false</horizontalSlownessUsed><backazimuthUsed>false</backazimuthUsed><weight>1</weight></arrival><arrival><pickID>de.gempa.tb1.Pick/20250413092459.157907.186460</pickID><phase>P</phase><azimuth>166.376220703125</azimuth><distance>1.1876587867736816</distance><timeResidual>-0.2714653015136719</timeResidual><timeUsed>true</timeUsed><horizontalSlownessUsed>false</horizontalSlownessUsed><backazimuthUsed>false</backazimuthUsed><weight>1</weight></arrival><arrival><pickID>de.gempa.tb1.Pick/20250413092459.232197.186462</pickID><phase>P</phase><azimuth>160.9944305419922</azimuth><distance>1.581409215927124</distance><timeResidual>-1.5209274291992188</timeResidual><timeUsed>true</timeUsed><horizontalSlownessUsed>false</horizontalSlownessUsed><backazimuthUsed>false</backazimuthUsed><weight>1</weight></arrival><arrival><pickID>de.gempa.tb1.Pick/20250413092500.284202.186468</pickID><phase>P</phase><azimuth>226.6536865234375</azimuth><distance>0.7307651042938232</distance><timeResidual>0.6957015991210938</timeResidual><timeUsed>true</timeUsed><horizontalSlownessUsed>false</horizontalSlownessUsed><backazimuthUsed>false</backazimuthUsed><weight>1</weight></arrival><arrival><pickID>de.gempa.tb1.Pick/20250413092500.913943.186470</pickID><phase>P</phase><azimuth>182.60414123535156</azimuth><distance>1.0140348672866821</distance><timeResidual>1.5033130645751953</timeResidual><timeUsed>true</timeUsed><horizontalSlownessUsed>false</horizontalSlownessUsed><backazimuthUsed>false</backazimuthUsed><weight>1</weight></arrival><arrival><pickID>de.gempa.tb1.Pick/20250413092503.059829.186476</pickID><phase>P</phase><azimuth>145.927490234375</azimuth><distance>1.4416273832321167</distance><timeResidual>0.4166755676269531</timeResidual><timeUsed>true</timeUsed><horizontalSlownessUsed>false</horizontalSlownessUsed><backazimuthUsed>false</backazimuthUsed><weight>1</weight></arrival><magnitude publicID="de.gempa.tb1.Magnitude/20250413092618.052962.338897"><magnitude><value>2.780111161699557</value></magnitude><type>M</type><methodID>weighted average</methodID><stationCount>9</stationCount></magnitude></origin><event publicID="gempa2025hhdc"><preferredOriginID>de.gempa.tb1.Origin/20250413092503.068732.118088</preferredOriginID><preferredMagnitudeID>de.gempa.tb1.Magnitude/20250413092618.052962.338897</preferredMagnitudeID><description><text>Switzerland</text><type>region name</type></description><originReference>de.gempa.tb1.Origin/20250413092503.068732.118088</originReference></event></EventParameters></seiscomp>