<?xml version="1.0" encoding="UTF-8"?>
<seiscomp xmlns="http://geofon.gfz-potsdam.de/ns/seiscomp3-schema/0.13" version="0.13"><EventParameters><pick publicID="de.gempa.tb1.Pick/20250412100304.263468.151645"><time><value>2025-04-12T10:03:00.075Z</value></time><waveformID networkCode="CH" stationCode="FIESA" channelCode="HHZ"/><filterID>ITAPER(4)&gt;&gt;BW(4,4,20)</filterID><methodID>AIC</methodID><phaseHint>P</phaseHint><evaluationMode>automatic</evaluationMode></pick><pick publicID="de.gempa.tb1.Pick/20250412100305.093096.151647"><time><value>2025-04-12T10:03:01.108393Z</value></time><waveformID networkCode="CH" stationCode="GRIMS" channelCode="HHZ"/><filterID>ITAPER(4)&gt;&gt;BW(4,4,20)</filterID><methodID>AIC</methodID><phaseHint>P</phaseHint><evaluationMode>automatic</evaluationMode></pick><pick publicID="de.gempa.tb1.Pick/20250412100306.059216.151649"><time><value>2025-04-12T10:03:03.39Z</value></time><waveformID networkCode="CH" stationCode="SIMPL" channelCode="HHZ"/><filterID>ITAPER(4)&gt;&gt;BW(4,4,20)</filterID><methodID>AIC</methodID><phaseHint>P</phaseHint><evaluationMode>automatic</evaluationMode></pick><pick publicID="de.gempa.tb1.Pick/20250412100306.706642.151651"><time><value>2025-04-12T10:03:03.76Z</value></time><waveformID networkCode="CH" stationCode="NALPS" channelCode="HHZ"/><filterID>ITAPER(4)&gt;&gt;BW(4,4,20)</filterID><methodID>AIC</methodID><phaseHint>P</phaseHint><evaluationMode>automatic</evaluationMode></pick><pick publicID="de.gempa.tb1.Pick/20250412100308.278041.151653"><time><value>2025-04-12T10:03:04.245Z</value></time><waveformID networkCode="CH" stationCode="FUSIO" channelCode="HHZ"/><filterID>ITAPER(4)&gt;&gt;BW(4,4,20)</filterID><methodID>AIC</methodID><phaseHint>P</phaseHint><evaluationMode>automatic</evaluationMode></pick><pick publicID="de.gempa.tb1.Pick/20250412100309.812797.151657"><time><value>2025-04-12T10:03:07.48Z</value></time><waveformID networkCode="CH" stationCode="MMK" channelCode="HHZ"/><filterID>ITAPER(4)&gt;&gt;BW(4,4,20)</filterID><methodID>AIC</methodID><phaseHint>P</phaseHint><evaluationMode>automatic</evaluationMode></pick><pick publicID="de.gempa.tb1.Pick/20250412100310.157801.151659"><time><value>2025-04-12T10:03:06.48Z</value></time><waveformID networkCode="CH" stationCode="BNALP" channelCode="HHZ"/><filterID>ITAPER(4)&gt;&gt;BW(4,4,20)</filterID><methodID>AIC</methodID><phaseHint>P</phaseHint><evaluationMode>automatic</evaluationMode></pick><pick publicID="de.gempa.tb1.Pick/20250412100316.832081.151666"><time><value>2025-04-12T10:03:12.515Z</value></time><waveformID networkCode="CH" stationCode="BALST" channelCode="HHZ"/><filterID>ITAPER(4)&gt;&gt;BW(4,4,20)</filterID><methodID>AIC</methodID><phaseHint>P</phaseHint><evaluationMode>automatic</evaluationMode></pick><pick publicID="de.gempa.tb1.Pick/20250412100317.052165.151668"><time><value>2025-04-12T10:03:15.025Z</value></time><waveformID networkCode="CH" stationCode="GIMEL" channelCode="HHZ"/><filterID>ITAPER(4)&gt;&gt;BW(4,4,20)</filterID><methodID>AIC</methodID><phaseHint>P</phaseHint><evaluationMode>automatic</evaluationMode></pick><pick publicID="de.gempa.tb1.Pick/20250412100318.124499.151670"><time><value>2025-04-12T10:03:12.815001Z</value></time><waveformID networkCode="CH" stationCode="BOURR" channelCode="HHZ"/><filterID>ITAPER(4)&gt;&gt;BW(4,4,20)</filterID><methodID>AIC</methodID><phaseHint>P</phaseHint><evaluationMode>automatic</evaluationMode></pick><origin publicID="de.gempa.tb1.Origin/20250412100318.127284.97978"><time><value>2025-04-12T10:02:54.423816Z</value><uncertainty>0.5719238519668579</uncertainty></time><latitude><value>46.49247741699219</value><uncertainty>5.908729553222656</uncertainty></latitude><longitude><value>8.157418251037598</value><uncertainty>6.426426410675049</uncertainty></longitude><depth><value>34.24250793457031</value><uncertainty>9.267911911010742</uncertainty></depth><depthType>from location</depthType><methodID>LOCSAT</methodID><earthModelID>iasp91</earthModelID><quality><associatedPhaseCount>10</associatedPhaseCount><usedPhaseCount>10</usedPhaseCount><associatedStationCount>10</associatedStationCount><usedStationCount>10</usedStationCount><depthPhaseCount>0</depthPhaseCount><standardError>1.133207091531153</standardError><azimuthalGap>100.997802734375</azimuthalGap><maximumDistance>1.3072469234466553</maximumDistance><minimumDistance>0.06580229103565216</minimumDistance><medianDistance>0.4206479787826538</medianDistance></quality><uncertainty><minHorizontalUncertainty>7.750793933868408</minHorizontalUncertainty><maxHorizontalUncertainty>17.05135726928711</maxHorizontalUncertainty><azimuthMaxHorizontalUncertainty>131.33932495117188</azimuthMaxHorizontalUncertainty><preferredDescription>horizontal uncertainty</preferredDescription></uncertainty><evaluationMode>automatic</evaluationMode><evaluationStatus>confirmed</evaluationStatus><comment><text>0.47</text><id>mismatchScore</id></comment><comment><text>mismatchScore</text><id>scevalMethod</id></comment><arrival><pickID>de.gempa.tb1.Pick/20250412100304.263468.151645</pickID><phase>P</phase><azimuth>209.59475708007812</azimuth><distance>0.06580229103565216</distance><timeResidual>-0.7352428436279297</timeResidual><timeUsed>true</timeUsed><horizontalSlownessUsed>false</horizontalSlownessUsed><backazimuthUsed>false</backazimuthUsed><weight>1</weight></arrival><arrival><pickID>de.gempa.tb1.Pick/20250412100305.093096.151647</pickID><phase>P</phase><azimuth>52.3836784362793</azimuth><distance>0.1405913531780243</distance><timeResidual>-0.6064920425415039</timeResidual><timeUsed>true</timeUsed><horizontalSlownessUsed>false</horizontalSlownessUsed><backazimuthUsed>false</backazimuthUsed><weight>1</weight></arrival><arrival><pickID>de.gempa.tb1.Pick/20250412100306.059216.151649</pickID><phase>P</phase><azimuth>200.72479248046875</azimuth><distance>0.27034303545951843</distance><timeResidual>0.0959925651550293</timeResidual><timeUsed>true</timeUsed><horizontalSlownessUsed>false</horizontalSlownessUsed><backazimuthUsed>false</backazimuthUsed><weight>1</weight></arrival><arrival><pickID>de.gempa.tb1.Pick/20250412100306.706642.151651</pickID><phase>P</phase><azimuth>75.65504455566406</azimuth><distance>0.42055612802505493</distance><timeResidual>-1.3643550872802734</timeResidual><timeUsed>true</timeUsed><horizontalSlownessUsed>false</horizontalSlownessUsed><backazimuthUsed>false</backazimuthUsed><weight>1</weight></arrival><arrival><pickID>de.gempa.tb1.Pick/20250412100308.278041.151653</pickID><phase>P</phase><azimuth>95.95562744140625</azimuth><distance>0.3515414297580719</distance><timeResidual>-0.03829193115234375</timeResidual><timeUsed>true</timeUsed><horizontalSlownessUsed>false</horizontalSlownessUsed><backazimuthUsed>false</backazimuthUsed><weight>1</weight></arrival><arrival><pickID>de.gempa.tb1.Pick/20250412100309.812797.151657</pickID><phase>P</phase><azimuth>196.95343017578125</azimuth><distance>0.4619825482368469</distance><timeResidual>1.8482651710510254</timeResidual><timeUsed>true</timeUsed><horizontalSlownessUsed>false</horizontalSlownessUsed><backazimuthUsed>false</backazimuthUsed><weight>1</weight></arrival><arrival><pickID>de.gempa.tb1.Pick/20250412100310.157801.151659</pickID><phase>P</phase><azimuth>25.878929138183594</azimuth><distance>0.4206479787826538</distance><timeResidual>1.3559260368347168</timeResidual><timeUsed>true</timeUsed><horizontalSlownessUsed>false</horizontalSlownessUsed><backazimuthUsed>false</backazimuthUsed><weight>1</weight></arrival><arrival><pickID>de.gempa.tb1.Pick/20250412100316.832081.151666</pickID><phase>P</phase><azimuth>339.5736389160156</azimuth><distance>0.9012545943260193</distance><timeResidual>1.5521106719970703</timeResidual><timeUsed>true</timeUsed><horizontalSlownessUsed>false</horizontalSlownessUsed><backazimuthUsed>false</backazimuthUsed><weight>1</weight></arrival><arrival><pickID>de.gempa.tb1.Pick/20250412100317.052165.151668</pickID><phase>P</phase><azimuth>272.48907470703125</azimuth><distance>1.3072469234466553</distance><timeResidual>-1.3501501083374023</timeResidual><timeUsed>true</timeUsed><horizontalSlownessUsed>false</horizontalSlownessUsed><backazimuthUsed>false</backazimuthUsed><weight>1</weight></arrival><arrival><pickID>de.gempa.tb1.Pick/20250412100318.124499.151670</pickID><phase>P</phase><azimuth>325.1687316894531</azimuth><distance>1.103001594543457</distance><timeResidual>-0.757925033569336</timeResidual><timeUsed>true</timeUsed><horizontalSlownessUsed>false</horizontalSlownessUsed><backazimuthUsed>false</backazimuthUsed><weight>1</weight></arrival><magnitude publicID="de.gempa.tb1.Magnitude/20250412100343.121313.208725"><magnitude><value>1.4705509720995638</value></magnitude><type>M</type><methodID>weighted average</methodID><stationCount>8</stationCount></magnitude></origin><event publicID="gempa2025hfii"><preferredOriginID>de.gempa.tb1.Origin/20250412100318.127284.97978</preferredOriginID><preferredMagnitudeID>de.gempa.tb1.Magnitude/20250412100343.121313.208725</preferredMagnitudeID><description><text>Switzerland</text><type>region name</type></description><originReference>de.gempa.tb1.Origin/20250412100318.127284.97978</originReference></event></EventParameters></seiscomp>