<?xml version="1.0" encoding="UTF-8"?>
<seiscomp xmlns="http://geofon.gfz-potsdam.de/ns/seiscomp3-schema/0.13" version="0.13"><EventParameters><pick publicID="de.gempa.tb1.Pick/20250411101346.264984.123031"><time><value>2025-04-11T10:13:42.93Z</value></time><waveformID networkCode="CH" stationCode="GIMEL" channelCode="HHZ"/><filterID>ITAPER(4)&gt;&gt;BW(4,4,20)</filterID><methodID>AIC</methodID><phaseHint>P</phaseHint><evaluationMode>automatic</evaluationMode></pick><pick publicID="de.gempa.tb1.Pick/20250411101348.271341.123035"><time><value>2025-04-11T10:13:45.375Z</value></time><waveformID networkCode="CH" stationCode="GRYON" channelCode="HHZ"/><filterID>ITAPER(4)&gt;&gt;BW(4,4,20)</filterID><methodID>AIC</methodID><phaseHint>P</phaseHint><evaluationMode>automatic</evaluationMode></pick><pick publicID="de.gempa.tb1.Pick/20250411101349.040815.123037"><time><value>2025-04-11T10:13:45.16Z</value></time><waveformID networkCode="CH" stationCode="AIGLE" channelCode="HHZ"/><filterID>ITAPER(4)&gt;&gt;BW(4,4,20)</filterID><methodID>AIC</methodID><phaseHint>P</phaseHint><evaluationMode>automatic</evaluationMode></pick><pick publicID="de.gempa.tb1.Pick/20250411101352.128542.123040"><time><value>2025-04-11T10:13:42.869998Z</value></time><waveformID networkCode="CH" stationCode="SALAN" channelCode="HHZ"/><filterID>ITAPER(4)&gt;&gt;BW(4,4,20)</filterID><methodID>AIC</methodID><phaseHint>P</phaseHint><evaluationMode>automatic</evaluationMode></pick><pick publicID="de.gempa.tb1.Pick/20250411101352.401154.123042"><time><value>2025-04-11T10:13:47.085Z</value></time><waveformID networkCode="CH" stationCode="DIX" channelCode="HHZ"/><filterID>ITAPER(4)&gt;&gt;BW(4,4,20)</filterID><methodID>AIC</methodID><phaseHint>P</phaseHint><evaluationMode>automatic</evaluationMode></pick><pick publicID="de.gempa.tb1.Pick/20250411101353.102799.123044"><time><value>2025-04-11T10:13:50.34Z</value></time><waveformID networkCode="CH" stationCode="BRANT" channelCode="HHZ"/><filterID>ITAPER(4)&gt;&gt;BW(4,4,20)</filterID><methodID>AIC</methodID><phaseHint>P</phaseHint><evaluationMode>automatic</evaluationMode></pick><origin publicID="de.gempa.tb1.Origin/20250411101353.106644.59782"><time><value>2025-04-11T10:13:25.527227Z</value><uncertainty>5.123833179473877</uncertainty></time><latitude><value>45.66174697875977</value><uncertainty>26.698482513427734</uncertainty></latitude><longitude><value>5.874815464019775</value><uncertainty>23.688554763793945</uncertainty></longitude><depth><value>0</value></depth><depthType>operator assigned</depthType><methodID>LOCSAT</methodID><earthModelID>iasp91</earthModelID><quality><associatedPhaseCount>6</associatedPhaseCount><usedPhaseCount>6</usedPhaseCount><associatedStationCount>6</associatedStationCount><usedStationCount>6</usedStationCount><depthPhaseCount>0</depthPhaseCount><standardError>0.11955754420647184</standardError><azimuthalGap>309.05178451538086</azimuthalGap><maximumDistance>1.342283010482788</maximumDistance><minimumDistance>0.905968189239502</minimumDistance><medianDistance>1.044290542602539</medianDistance></quality><uncertainty><minHorizontalUncertainty>16.824274063110352</minHorizontalUncertainty><maxHorizontalUncertainty>74.6697998046875</maxHorizontalUncertainty><azimuthMaxHorizontalUncertainty>41.21372985839844</azimuthMaxHorizontalUncertainty><preferredDescription>horizontal uncertainty</preferredDescription></uncertainty><evaluationMode>automatic</evaluationMode><evaluationStatus>confirmed</evaluationStatus><comment><text>0.01</text><id>mismatchScore</id></comment><comment><text>mismatchScore</text><id>scevalMethod</id></comment><arrival><pickID>de.gempa.tb1.Pick/20250411101346.264984.123031</pickID><phase>P</phase><azimuth>17.171459197998047</azimuth><distance>0.9134759306907654</distance><timeResidual>-0.1109771728515625</timeResidual><timeUsed>true</timeUsed><horizontalSlownessUsed>false</horizontalSlownessUsed><backazimuthUsed>false</backazimuthUsed><weight>1</weight></arrival><arrival><pickID>de.gempa.tb1.Pick/20250411101348.271341.123035</pickID><phase>P</phase><azimuth>55.2313232421875</azimuth><distance>1.044290542602539</distance><timeResidual>-0.05133628845214844</timeResidual><timeUsed>true</timeUsed><horizontalSlownessUsed>false</horizontalSlownessUsed><backazimuthUsed>false</backazimuthUsed><weight>1</weight></arrival><arrival><pickID>de.gempa.tb1.Pick/20250411101349.040815.123037</pickID><phase>P</phase><azimuth>47.48470687866211</azimuth><distance>1.0136927366256714</distance><timeResidual>0.2444629669189453</timeResidual><timeUsed>true</timeUsed><horizontalSlownessUsed>false</horizontalSlownessUsed><backazimuthUsed>false</backazimuthUsed><weight>1</weight></arrival><arrival><pickID>de.gempa.tb1.Pick/20250411101352.128542.123040</pickID><phase>P</phase><azimuth>57.43257522583008</azimuth><distance>0.905968189239502</distance><timeResidual>-0.028898239135742191</timeResidual><timeUsed>true</timeUsed><horizontalSlownessUsed>false</horizontalSlownessUsed><backazimuthUsed>false</backazimuthUsed><weight>1</weight></arrival><arrival><pickID>de.gempa.tb1.Pick/20250411101352.401154.123042</pickID><phase>P</phase><azimuth>68.11967468261719</azimuth><distance>1.150094747543335</distance><timeResidual>-0.09291648864746094</timeResidual><timeUsed>true</timeUsed><horizontalSlownessUsed>false</horizontalSlownessUsed><backazimuthUsed>false</backazimuthUsed><weight>1</weight></arrival><arrival><pickID>de.gempa.tb1.Pick/20250411101353.102799.123044</pickID><phase>P</phase><azimuth>17.781314849853516</azimuth><distance>1.342283010482788</distance><timeResidual>0.03977394104003906</timeResidual><timeUsed>true</timeUsed><horizontalSlownessUsed>false</horizontalSlownessUsed><backazimuthUsed>false</backazimuthUsed><weight>1</weight></arrival><magnitude publicID="de.gempa.tb1.Magnitude/20250411101439.292376.116747"><magnitude><value>2.2595174592755165</value></magnitude><type>M</type><methodID>weighted average</methodID><stationCount>4</stationCount></magnitude></origin><event publicID="gempa2025hdmr"><preferredOriginID>de.gempa.tb1.Origin/20250411101353.106644.59782</preferredOriginID><preferredMagnitudeID>de.gempa.tb1.Magnitude/20250411101439.292376.116747</preferredMagnitudeID><description><text>France</text><type>region name</type></description><originReference>de.gempa.tb1.Origin/20250411101353.106644.59782</originReference></event></EventParameters></seiscomp>