<?xml version="1.0" encoding="UTF-8"?>
<seiscomp xmlns="http://geofon.gfz-potsdam.de/ns/seiscomp3-schema/0.13" version="0.13"><EventParameters><pick publicID="de.gempa.tb1.Pick/20250411093124.441674.118095"><time><value>2025-04-11T09:31:19.898393Z</value></time><waveformID networkCode="CX" stationCode="PB02" channelCode="HHZ"/><filterID>ITAPER(4)&gt;&gt;BW(4,4,20)</filterID><methodID>AIC</methodID><horizontalSlowness><value>21.406617615377716</value></horizontalSlowness><backazimuth><value>41.243811572813655</value></backazimuth><phaseHint>P</phaseHint><evaluationMode>automatic</evaluationMode><comment><text>35.257186484184956</text><id>DFX:rectilinearity</id></comment><comment><text>13.79341870442739</text><id>SNR</id></comment></pick><pick publicID="de.gempa.tb1.Pick/20250411093131.588005.118097"><time><value>2025-04-11T09:31:25.148393Z</value></time><waveformID networkCode="CX" stationCode="PB01" channelCode="HHZ"/><filterID>ITAPER(4)&gt;&gt;BW(4,4,20)</filterID><methodID>AIC</methodID><horizontalSlowness><value>16.29904164116305</value></horizontalSlowness><backazimuth><value>301.03282992451625</value></backazimuth><phaseHint>P</phaseHint><evaluationMode>automatic</evaluationMode><comment><text>11.065563554468183</text><id>DFX:rectilinearity</id></comment><comment><text>6.417279111989098</text><id>SNR</id></comment></pick><pick publicID="de.gempa.tb1.Pick/20250411093133.532098.118099"><time><value>2025-04-11T09:31:25.918393Z</value></time><waveformID networkCode="CX" stationCode="PB02" channelCode="HHN"/><filterID>ITAPER(2)&gt;&gt;BW(3,3,20)</filterID><methodID>L2-AIC-GRID</methodID><horizontalSlowness><value>2.4640115243338125</value></horizontalSlowness><backazimuth><value>336.27984917221727</value></backazimuth><phaseHint>S</phaseHint><evaluationMode>automatic</evaluationMode><comment><text>115.4188790289979</text><id>DFX:rectilinearity</id></comment><comment><text>de.gempa.tb1.Pick/20250411093124.441674.118095</text><id>RefPickID</id></comment><comment><text>11.965283154632223</text><id>SNR</id></comment></pick><pick publicID="de.gempa.tb1.Pick/20250411093142.789069.118102"><time><value>2025-04-11T09:31:34.908393Z</value></time><waveformID networkCode="CX" stationCode="PB01" channelCode="HHN"/><filterID>ITAPER(2)&gt;&gt;BW(3,3,20)</filterID><methodID>L2-AIC-GRID</methodID><horizontalSlowness><value>13.87406129322521</value></horizontalSlowness><backazimuth><value>352.24249407216064</value></backazimuth><phaseHint>S</phaseHint><evaluationMode>automatic</evaluationMode><comment><text>27.979330844691397</text><id>DFX:rectilinearity</id></comment><comment><text>de.gempa.tb1.Pick/20250411093131.588005.118097</text><id>RefPickID</id></comment><comment><text>11.852689870134563</text><id>SNR</id></comment></pick><pick publicID="de.gempa.tb1.Pick/20250411093151.658328.118103"><time><value>2025-04-11T09:31:23.578393Z</value></time><waveformID networkCode="CX" stationCode="PB07" channelCode="HHZ"/><filterID>ITAPER(4)&gt;&gt;BW(4,4,20)</filterID><methodID>AIC</methodID><horizontalSlowness><value>22.525948353216705</value></horizontalSlowness><backazimuth><value>283.89339431288164</value></backazimuth><phaseHint>P</phaseHint><evaluationMode>automatic</evaluationMode><comment><text>163.1161441479533</text><id>DFX:rectilinearity</id></comment><comment><text>8.232183962116101</text><id>SNR</id></comment></pick><origin publicID="de.gempa.tb1.Origin/20250411093158.95748.57285"><time><value>2025-04-11T09:31:17.214886Z</value><uncertainty>0.6539853811264038</uncertainty></time><latitude><value>-21.486671447753906</value><uncertainty>3.3006017208099365</uncertainty></latitude><longitude><value>-69.72006225585938</value><uncertainty>3.691941738128662</uncertainty></longitude><depth><value>0</value></depth><depthType>operator assigned</depthType><methodID>LOCSAT</methodID><earthModelID>iasp91_scanloc</earthModelID><quality><associatedPhaseCount>5</associatedPhaseCount><usedPhaseCount>5</usedPhaseCount><associatedStationCount>3</associatedStationCount><usedStationCount>3</usedStationCount><depthPhaseCount>0</depthPhaseCount><standardError>1.3586552303852708</standardError><azimuthalGap>186.65226554870605</azimuthalGap><maximumDistance>0.4917259216308594</maximumDistance><minimumDistance>0.23341594636440277</minimumDistance><medianDistance>0.28448596596717834</medianDistance></quality><uncertainty><minHorizontalUncertainty>6.176291942596436</minHorizontalUncertainty><maxHorizontalUncertainty>8.645806312561035</maxHorizontalUncertainty><azimuthMaxHorizontalUncertainty>124.9349822998047</azimuthMaxHorizontalUncertainty><preferredDescription>horizontal uncertainty</preferredDescription></uncertainty><evaluationMode>automatic</evaluationMode><evaluationStatus>confirmed</evaluationStatus><comment><text>0.00</text><id>mismatchScore</id></comment><comment><text>mismatchScore</text><id>scevalMethod</id></comment><arrival><pickID>de.gempa.tb1.Pick/20250411093124.441674.118095</pickID><phase>P</phase><azimuth>315.340087890625</azimuth><distance>0.23341594636440277</distance><timeResidual>-1.7939832210540771</timeResidual><timeUsed>true</timeUsed><horizontalSlownessUsed>false</horizontalSlownessUsed><backazimuthUsed>false</backazimuthUsed><weight>1</weight></arrival><arrival><pickID>de.gempa.tb1.Pick/20250411093131.588005.118097</pickID><phase>P</phase><azimuth>26.23100471496582</azimuth><distance>0.4917259216308594</distance><timeResidual>-1.4989893436431885</timeResidual><timeUsed>true</timeUsed><horizontalSlownessUsed>false</horizontalSlownessUsed><backazimuthUsed>false</backazimuthUsed><weight>1</weight></arrival><arrival><pickID>de.gempa.tb1.Pick/20250411093133.532098.118099</pickID><phase>S</phase><azimuth>315.340087890625</azimuth><distance>0.23341594636440277</distance><timeResidual>0.9746911525726318</timeResidual><timeUsed>true</timeUsed><horizontalSlownessUsed>false</horizontalSlownessUsed><backazimuthUsed>false</backazimuthUsed><weight>1</weight></arrival><arrival><pickID>de.gempa.tb1.Pick/20250411093142.789069.118102</pickID><phase>S</phase><azimuth>26.23100471496582</azimuth><distance>0.4917259216308594</distance><timeResidual>1.4113643169403076</timeResidual><timeUsed>true</timeUsed><horizontalSlownessUsed>false</horizontalSlownessUsed><backazimuthUsed>false</backazimuthUsed><weight>1</weight></arrival><arrival><pickID>de.gempa.tb1.Pick/20250411093151.658328.118103</pickID><phase>P</phase><azimuth>212.88327026367188</azimuth><distance>0.28448596596717834</distance><timeResidual>0.9068646430969238</timeResidual><timeUsed>true</timeUsed><horizontalSlownessUsed>false</horizontalSlownessUsed><backazimuthUsed>false</backazimuthUsed><weight>1</weight></arrival><magnitude publicID="de.gempa.tb1.Magnitude/20250411093205.461155.111777"><magnitude><value>1.2451668993883156</value></magnitude><type>M</type><methodID>weighted average</methodID><stationCount>3</stationCount></magnitude></origin><event publicID="gempa2025hdlg"><preferredOriginID>de.gempa.tb1.Origin/20250411093158.95748.57285</preferredOriginID><preferredMagnitudeID>de.gempa.tb1.Magnitude/20250411093205.461155.111777</preferredMagnitudeID><description><text>Northern Chile</text><type>region name</type></description><originReference>de.gempa.tb1.Origin/20250411093158.95748.57285</originReference></event></EventParameters></seiscomp>