<?xml version="1.0" encoding="UTF-8"?>
<seiscomp xmlns="http://geofon.gfz-potsdam.de/ns/seiscomp3-schema/0.13" version="0.13"><EventParameters><pick publicID="de.gempa.tb1.Pick/20250411111032.505907.118495"><time><value>2025-04-11T11:10:27.008393Z</value></time><waveformID networkCode="CX" stationCode="PB06" channelCode="HHZ"/><filterID>ITAPER(4)&gt;&gt;BW(4,4,20)</filterID><methodID>AIC</methodID><horizontalSlowness><value>14.87880666007669</value></horizontalSlowness><backazimuth><value>94.04413665992908</value></backazimuth><phaseHint>P</phaseHint><evaluationMode>automatic</evaluationMode><comment><text>45.88857703648611</text><id>DFX:rectilinearity</id></comment><comment><text>8.189285544302219</text><id>SNR</id></comment></pick><pick publicID="de.gempa.tb1.Pick/20250411111035.63737.118497"><time><value>2025-04-11T11:10:30.088393Z</value></time><waveformID networkCode="CX" stationCode="PB03" channelCode="HHZ"/><filterID>ITAPER(4)&gt;&gt;BW(4,4,20)</filterID><methodID>AIC</methodID><horizontalSlowness><value>3.909036798703848</value></horizontalSlowness><backazimuth><value>207.50860298983088</value></backazimuth><phaseHint>P</phaseHint><evaluationMode>automatic</evaluationMode><comment><text>7.754549803892363</text><id>DFX:rectilinearity</id></comment><comment><text>9.1449659755404</text><id>SNR</id></comment></pick><pick publicID="de.gempa.tb1.Pick/20250411111044.658224.118500"><time><value>2025-04-11T11:10:33.218396Z</value></time><waveformID networkCode="CX" stationCode="PB07" channelCode="HHZ"/><filterID>ITAPER(4)&gt;&gt;BW(4,4,20)</filterID><methodID>AIC</methodID><horizontalSlowness><value>22.157019778964422</value></horizontalSlowness><backazimuth><value>78.86538357472814</value></backazimuth><phaseHint>P</phaseHint><evaluationMode>automatic</evaluationMode><comment><text>223.75018272670047</text><id>DFX:rectilinearity</id></comment><comment><text>8.627247373160483</text><id>SNR</id></comment></pick><pick publicID="de.gempa.tb1.Pick/20250411111046.618575.118502"><time><value>2025-04-11T11:10:40.658393Z</value></time><waveformID networkCode="CX" stationCode="PB06" channelCode="HHN"/><filterID>ITAPER(2)&gt;&gt;BW(3,3,20)</filterID><methodID>L2-AIC-GRID</methodID><horizontalSlowness><value>12.13553597788591</value></horizontalSlowness><backazimuth><value>326.42000558802215</value></backazimuth><phaseHint>S</phaseHint><evaluationMode>automatic</evaluationMode><comment><text>47.00801608404606</text><id>DFX:rectilinearity</id></comment><comment><text>de.gempa.tb1.Pick/20250411111032.505907.118495</text><id>RefPickID</id></comment><comment><text>5.79933471848791</text><id>SNR</id></comment></pick><pick publicID="de.gempa.tb1.Pick/20250411111053.655058.118505"><time><value>2025-04-11T11:10:45.368393Z</value></time><waveformID networkCode="CX" stationCode="PB03" channelCode="HHN"/><filterID>ITAPER(2)&gt;&gt;BW(3,3,20)</filterID><methodID>L2-AIC-GRID</methodID><horizontalSlowness><value>11.925227286775096</value></horizontalSlowness><backazimuth><value>305.7044581266948</value></backazimuth><phaseHint>S</phaseHint><evaluationMode>automatic</evaluationMode><comment><text>19.128140658189764</text><id>DFX:rectilinearity</id></comment><comment><text>de.gempa.tb1.Pick/20250411111035.63737.118497</text><id>RefPickID</id></comment><comment><text>11.293177593253624</text><id>SNR</id></comment></pick><pick publicID="de.gempa.tb1.Pick/20250411111059.89385.118508"><time><value>2025-04-11T11:10:50.808396Z</value></time><waveformID networkCode="CX" stationCode="PB07" channelCode="HHN"/><filterID>ITAPER(2)&gt;&gt;BW(3,3,20)</filterID><methodID>L2-AIC-GRID</methodID><horizontalSlowness><value>21.953910648945556</value></horizontalSlowness><backazimuth><value>301.3076787376594</value></backazimuth><phaseHint>S</phaseHint><evaluationMode>automatic</evaluationMode><comment><text>197.21072691844384</text><id>DFX:rectilinearity</id></comment><comment><text>de.gempa.tb1.Pick/20250411111044.658224.118500</text><id>RefPickID</id></comment><comment><text>6.846283227375128</text><id>SNR</id></comment></pick><origin publicID="de.gempa.tb1.Origin/20250411111059.903229.58693"><time><value>2025-04-11T11:10:10.030146Z</value><uncertainty>1.3860787153244019</uncertainty></time><latitude><value>-22.627389907836914</value><uncertainty>34.040462493896484</uncertainty></latitude><longitude><value>-69.22470092773438</value><uncertainty>111.67176055908203</uncertainty></longitude><depth><value>121.23027801513672</value><uncertainty>37.6093864440918</uncertainty></depth><depthType>from location</depthType><methodID>LOCSAT</methodID><earthModelID>iasp91_scanloc</earthModelID><quality><associatedPhaseCount>6</associatedPhaseCount><usedPhaseCount>6</usedPhaseCount><associatedStationCount>3</associatedStationCount><usedStationCount>3</usedStationCount><depthPhaseCount>0</depthPhaseCount><standardError>0.1392299615053515</standardError><azimuthalGap>290.7525329589844</azimuthalGap><maximumDistance>1.0860174894332886</maximumDistance><minimumDistance>0.33003759384155273</minimumDistance><medianDistance>0.7558337450027466</medianDistance></quality><uncertainty><minHorizontalUncertainty>14.75432014465332</minHorizontalUncertainty><maxHorizontalUncertainty>249.9339141845703</maxHorizontalUncertainty><azimuthMaxHorizontalUncertainty>73.34788513183594</azimuthMaxHorizontalUncertainty><preferredDescription>horizontal uncertainty</preferredDescription></uncertainty><evaluationMode>automatic</evaluationMode><evaluationStatus>confirmed</evaluationStatus><comment><text>0.36</text><id>mismatchScore</id></comment><comment><text>mismatchScore</text><id>scevalMethod</id></comment><arrival><pickID>de.gempa.tb1.Pick/20250411111032.505907.118495</pickID><phase>P</phase><azimuth>256.2561340332031</azimuth><distance>0.33003759384155273</distance><timeResidual>-0.2405529022216797</timeResidual><timeUsed>true</timeUsed><horizontalSlownessUsed>false</horizontalSlownessUsed><backazimuthUsed>false</backazimuthUsed><weight>1</weight></arrival><arrival><pickID>de.gempa.tb1.Pick/20250411111035.63737.118497</pickID><phase>P</phase><azimuth>319.5650939941406</azimuth><distance>0.7558337450027466</distance><timeResidual>0.08947944641113281</timeResidual><timeUsed>true</timeUsed><horizontalSlownessUsed>false</horizontalSlownessUsed><backazimuthUsed>false</backazimuthUsed><weight>1</weight></arrival><arrival><pickID>de.gempa.tb1.Pick/20250411111044.658224.118500</pickID><phase>P</phase><azimuth>325.50360107421875</azimuth><distance>1.0860174894332886</distance><timeResidual>0.15019607543945312</timeResidual><timeUsed>true</timeUsed><horizontalSlownessUsed>false</horizontalSlownessUsed><backazimuthUsed>false</backazimuthUsed><weight>1</weight></arrival><arrival><pickID>de.gempa.tb1.Pick/20250411111046.618575.118502</pickID><phase>S</phase><azimuth>256.2561340332031</azimuth><distance>0.33003759384155273</distance><timeResidual>0.13493919372558594</timeResidual><timeUsed>true</timeUsed><horizontalSlownessUsed>false</horizontalSlownessUsed><backazimuthUsed>false</backazimuthUsed><weight>1</weight></arrival><arrival><pickID>de.gempa.tb1.Pick/20250411111053.655058.118505</pickID><phase>S</phase><azimuth>319.5650939941406</azimuth><distance>0.7558337450027466</distance><timeResidual>-0.05063438415527344</timeResidual><timeUsed>true</timeUsed><horizontalSlownessUsed>false</horizontalSlownessUsed><backazimuthUsed>false</backazimuthUsed><weight>1</weight></arrival><arrival><pickID>de.gempa.tb1.Pick/20250411111059.89385.118508</pickID><phase>S</phase><azimuth>325.50360107421875</azimuth><distance>1.0860174894332886</distance><timeResidual>-0.08429908752441406</timeResidual><timeUsed>true</timeUsed><horizontalSlownessUsed>false</horizontalSlownessUsed><backazimuthUsed>false</backazimuthUsed><weight>1</weight></arrival></origin><event publicID="gempa2025hdon"><preferredOriginID>de.gempa.tb1.Origin/20250411111059.903229.58693</preferredOriginID><description><text>Northern Chile</text><type>region name</type></description><originReference>de.gempa.tb1.Origin/20250411111059.903229.58693</originReference></event></EventParameters></seiscomp>