<?xml version="1.0" encoding="UTF-8"?>
<seiscomp xmlns="http://geofon.gfz-potsdam.de/ns/seiscomp3-schema/0.13" version="0.13"><EventParameters><pick publicID="de.gempa.tb1.Pick/20250411145846.598172.118271"><time><value>2025-04-11T14:58:41.338394Z</value></time><waveformID networkCode="CX" stationCode="PB01" channelCode="HHZ"/><filterID>ITAPER(4)&gt;&gt;BW(4,4,20)</filterID><methodID>AIC</methodID><horizontalSlowness><value>12.742007243889478</value></horizontalSlowness><backazimuth><value>291.4999567819995</value></backazimuth><phaseHint>P</phaseHint><evaluationMode>automatic</evaluationMode><comment><text>14.206529344093816</text><id>DFX:rectilinearity</id></comment><comment><text>23.56788832278215</text><id>SNR</id></comment></pick><pick publicID="de.gempa.tb1.Pick/20250411145852.573786.118273"><time><value>2025-04-11T14:58:45.308393Z</value></time><waveformID networkCode="CX" stationCode="PB02" channelCode="HHZ"/><filterID>ITAPER(4)&gt;&gt;BW(4,4,20)</filterID><methodID>AIC</methodID><horizontalSlowness><value>22.282270451088852</value></horizontalSlowness><backazimuth><value>88.42201781754702</value></backazimuth><phaseHint>P</phaseHint><evaluationMode>automatic</evaluationMode><comment><text>26.743614407288973</text><id>DFX:rectilinearity</id></comment><comment><text>11.440794075433667</text><id>SNR</id></comment></pick><pick publicID="de.gempa.tb1.Pick/20250411145856.707463.118275"><time><value>2025-04-11T14:58:47.628394Z</value></time><waveformID networkCode="CX" stationCode="PB03" channelCode="HHZ"/><filterID>ITAPER(4)&gt;&gt;BW(4,4,20)</filterID><methodID>AIC</methodID><horizontalSlowness><value>11.59493182538377</value></horizontalSlowness><backazimuth><value>119.99353064111045</value></backazimuth><phaseHint>P</phaseHint><evaluationMode>automatic</evaluationMode><comment><text>8.612078113360381</text><id>DFX:rectilinearity</id></comment><comment><text>9.887884786491682</text><id>SNR</id></comment></pick><pick publicID="de.gempa.tb1.Pick/20250411145858.530416.118277"><time><value>2025-04-11T14:58:43.06Z</value></time><waveformID networkCode="CX" stationCode="PB09" channelCode="HHZ"/><filterID>ITAPER(4)&gt;&gt;BW(4,4,20)</filterID><methodID>AIC</methodID><horizontalSlowness><value>7.596988009045456</value></horizontalSlowness><backazimuth><value>12.550768980573565</value></backazimuth><phaseHint>P</phaseHint><evaluationMode>automatic</evaluationMode><comment><text>11.652269782351022</text><id>DFX:rectilinearity</id></comment><comment><text>21.066237001956242</text><id>SNR</id></comment></pick><pick publicID="de.gempa.tb1.Pick/20250411145859.934427.118280"><time><value>2025-04-11T14:58:46.468393Z</value></time><waveformID networkCode="CX" stationCode="PB07" channelCode="HHZ"/><filterID>ITAPER(4)&gt;&gt;BW(4,4,20)</filterID><methodID>AIC</methodID><horizontalSlowness><value>22.871423359150036</value></horizontalSlowness><backazimuth><value>128.15586660056908</value></backazimuth><phaseHint>P</phaseHint><evaluationMode>automatic</evaluationMode><comment><text>222.4426467657312</text><id>DFX:rectilinearity</id></comment><comment><text>19.452905127928098</text><id>SNR</id></comment></pick><pick publicID="de.gempa.tb1.Pick/20250411145901.740951.118282"><time><value>2025-04-11T14:58:54.858394Z</value></time><waveformID networkCode="CX" stationCode="PB01" channelCode="HHN"/><filterID>ITAPER(2)&gt;&gt;BW(3,3,20)</filterID><methodID>L2-AIC-GRID</methodID><horizontalSlowness><value>21.997222405381962</value></horizontalSlowness><backazimuth><value>19.160940007218585</value></backazimuth><phaseHint>S</phaseHint><evaluationMode>automatic</evaluationMode><comment><text>110.45572234792888</text><id>DFX:rectilinearity</id></comment><comment><text>de.gempa.tb1.Pick/20250411145846.598172.118271</text><id>RefPickID</id></comment><comment><text>9.840297598497807</text><id>SNR</id></comment></pick><pick publicID="de.gempa.tb1.Pick/20250411145906.599227.118283"><time><value>2025-04-11T14:58:55.91Z</value></time><waveformID networkCode="CX" stationCode="PSGCX" channelCode="HHZ"/><filterID>ITAPER(4)&gt;&gt;BW(4,4,20)</filterID><methodID>AIC</methodID><horizontalSlowness><value>13.338121191049058</value></horizontalSlowness><backazimuth><value>90.52618304936888</value></backazimuth><phaseHint>P</phaseHint><evaluationMode>automatic</evaluationMode><comment><text>13.60523355755338</text><id>DFX:rectilinearity</id></comment><comment><text>7.505118729245499</text><id>SNR</id></comment></pick><pick publicID="de.gempa.tb1.Pick/20250411145909.64124.118285"><time><value>2025-04-11T14:59:01.718393Z</value></time><waveformID networkCode="CX" stationCode="PB02" channelCode="HHN"/><filterID>ITAPER(2)&gt;&gt;BW(3,3,20)</filterID><methodID>L2-AIC-GRID</methodID><horizontalSlowness><value>17.504642904184575</value></horizontalSlowness><backazimuth><value>332.82684731055565</value></backazimuth><phaseHint>S</phaseHint><evaluationMode>automatic</evaluationMode><comment><text>117.60115007177107</text><id>DFX:rectilinearity</id></comment><comment><text>de.gempa.tb1.Pick/20250411145852.573786.118273</text><id>RefPickID</id></comment><comment><text>7.757473473075974</text><id>SNR</id></comment></pick><pick publicID="de.gempa.tb1.Pick/20250411145912.722896.118286"><time><value>2025-04-11T14:59:05.718394Z</value></time><waveformID networkCode="CX" stationCode="PB03" channelCode="HHN"/><filterID>ITAPER(2)&gt;&gt;BW(3,3,20)</filterID><methodID>L2-AIC-GRID</methodID><horizontalSlowness><value>16.068406065993596</value></horizontalSlowness><backazimuth><value>321.25560720194466</value></backazimuth><phaseHint>S</phaseHint><evaluationMode>automatic</evaluationMode><comment><text>32.53701957028069</text><id>DFX:rectilinearity</id></comment><comment><text>de.gempa.tb1.Pick/20250411145856.707463.118275</text><id>RefPickID</id></comment><comment><text>5.930790772236072</text><id>SNR</id></comment></pick><pick publicID="de.gempa.tb1.Pick/20250411145946.127232.118287"><time><value>2025-04-11T14:59:05.178393Z</value></time><waveformID networkCode="CX" stationCode="PB07" channelCode="HHN"/><filterID>ITAPER(2)&gt;&gt;BW(3,3,20)</filterID><methodID>L2-AIC-GRID</methodID><horizontalSlowness><value>22.761514064655806</value></horizontalSlowness><backazimuth><value>97.33248931940979</value></backazimuth><phaseHint>S</phaseHint><evaluationMode>automatic</evaluationMode><comment><text>189.3311497776675</text><id>DFX:rectilinearity</id></comment><comment><text>de.gempa.tb1.Pick/20250411145859.934427.118280</text><id>RefPickID</id></comment><comment><text>5.498771293943515</text><id>SNR</id></comment></pick><origin publicID="de.gempa.tb1.Origin/20250411145946.130688.58385"><time><value>2025-04-11T14:58:23.634155Z</value><uncertainty>0.963779628276825</uncertainty></time><latitude><value>-21.118898391723633</value><uncertainty>5.354544162750244</uncertainty></latitude><longitude><value>-68.80152130126953</value><uncertainty>11.889680862426758</uncertainty></longitude><depth><value>108.09195709228516</value><uncertainty>11.880064010620117</uncertainty></depth><depthType>from location</depthType><methodID>LOCSAT</methodID><earthModelID>iasp91_scanloc</earthModelID><quality><associatedPhaseCount>10</associatedPhaseCount><usedPhaseCount>10</usedPhaseCount><associatedStationCount>6</associatedStationCount><usedStationCount>6</usedStationCount><depthPhaseCount>0</depthPhaseCount><standardError>0.3858238538059124</standardError><azimuthalGap>250.7906494140625</azimuthalGap><maximumDistance>1.9569299221038818</maximumDistance><minimumDistance>0.6449335813522339</minimumDistance><medianDistance>1.1777467727661133</medianDistance></quality><uncertainty><minHorizontalUncertainty>11.377568244934082</minHorizontalUncertainty><maxHorizontalUncertainty>25.541751861572266</maxHorizontalUncertainty><azimuthMaxHorizontalUncertainty>93.86983489990234</azimuthMaxHorizontalUncertainty><preferredDescription>horizontal uncertainty</preferredDescription></uncertainty><evaluationMode>automatic</evaluationMode><evaluationStatus>confirmed</evaluationStatus><comment><text>0.17</text><id>mismatchScore</id></comment><comment><text>mismatchScore</text><id>scevalMethod</id></comment><arrival><pickID>de.gempa.tb1.Pick/20250411145846.598172.118271</pickID><phase>P</phase><azimuth>276.58148193359375</azimuth><distance>0.6449335813522339</distance><timeResidual>-0.03963661193847656</timeResidual><timeUsed>true</timeUsed><horizontalSlownessUsed>false</horizontalSlownessUsed><backazimuthUsed>false</backazimuthUsed><weight>1</weight></arrival><arrival><pickID>de.gempa.tb1.Pick/20250411145852.573786.118273</pickID><phase>P</phase><azimuth>258.7311096191406</azimuth><distance>1.0405595302581787</distance><timeResidual>0.1773853302001953</timeResidual><timeUsed>true</timeUsed><horizontalSlownessUsed>false</horizontalSlownessUsed><backazimuthUsed>false</backazimuthUsed><weight>1</weight></arrival><arrival><pickID>de.gempa.tb1.Pick/20250411145856.707463.118275</pickID><phase>P</phase><azimuth>223.58148193359375</azimuth><distance>1.2806299924850464</distance><timeResidual>-0.15176010131835938</timeResidual><timeUsed>true</timeUsed><horizontalSlownessUsed>false</horizontalSlownessUsed><backazimuthUsed>false</backazimuthUsed><weight>1</weight></arrival><arrival><pickID>de.gempa.tb1.Pick/20250411145858.530416.118277</pickID><phase>P</phase><azimuth>211.24200439453125</azimuth><distance>0.789158821105957</distance><timeResidual>0.43305397033691406</timeResidual><timeUsed>true</timeUsed><horizontalSlownessUsed>false</horizontalSlownessUsed><backazimuthUsed>false</backazimuthUsed><weight>1</weight></arrival><arrival><pickID>de.gempa.tb1.Pick/20250411145859.934427.118280</pickID><phase>P</phase><azimuth>238.9065704345703</azimuth><distance>1.1777467727661133</distance><timeResidual>-0.1514301300048828</timeResidual><timeUsed>true</timeUsed><horizontalSlownessUsed>false</horizontalSlownessUsed><backazimuthUsed>false</backazimuthUsed><weight>1</weight></arrival><arrival><pickID>de.gempa.tb1.Pick/20250411145901.740951.118282</pickID><phase>S</phase><azimuth>276.58148193359375</azimuth><distance>0.6449335813522339</distance><timeResidual>-0.184478759765625</timeResidual><timeUsed>true</timeUsed><horizontalSlownessUsed>false</horizontalSlownessUsed><backazimuthUsed>false</backazimuthUsed><weight>1</weight></arrival><arrival><pickID>de.gempa.tb1.Pick/20250411145906.599227.118283</pickID><phase>P</phase><azimuth>320.45135498046875</azimuth><distance>1.9569299221038818</distance><timeResidual>-0.10912704467773438</timeResidual><timeUsed>true</timeUsed><horizontalSlownessUsed>false</horizontalSlownessUsed><backazimuthUsed>false</backazimuthUsed><weight>1</weight></arrival><arrival><pickID>de.gempa.tb1.Pick/20250411145909.64124.118285</pickID><phase>S</phase><azimuth>258.7311096191406</azimuth><distance>1.0405595302581787</distance><timeResidual>-0.014886856079101562</timeResidual><timeUsed>true</timeUsed><horizontalSlownessUsed>false</horizontalSlownessUsed><backazimuthUsed>false</backazimuthUsed><weight>1</weight></arrival><arrival><pickID>de.gempa.tb1.Pick/20250411145912.722896.118286</pickID><phase>S</phase><azimuth>223.58148193359375</azimuth><distance>1.2806299924850464</distance><timeResidual>-0.7459430694580078</timeResidual><timeUsed>true</timeUsed><horizontalSlownessUsed>false</horizontalSlownessUsed><backazimuthUsed>false</backazimuthUsed><weight>1</weight></arrival><arrival><pickID>de.gempa.tb1.Pick/20250411145946.127232.118287</pickID><phase>S</phase><azimuth>238.9065704345703</azimuth><distance>1.1777467727661133</distance><timeResidual>0.7870655059814453</timeResidual><timeUsed>true</timeUsed><horizontalSlownessUsed>false</horizontalSlownessUsed><backazimuthUsed>false</backazimuthUsed><weight>1</weight></arrival><magnitude publicID="de.gempa.tb1.Magnitude/20250411145946.138547.111156"><magnitude><value>2.5852479049302004</value></magnitude><type>M</type><methodID>weighted average</methodID><stationCount>2</stationCount></magnitude></origin><event publicID="gempa2025hdwd"><preferredOriginID>de.gempa.tb1.Origin/20250411145946.130688.58385</preferredOriginID><preferredMagnitudeID>de.gempa.tb1.Magnitude/20250411145946.138547.111156</preferredMagnitudeID><description><text>Chile-Bolivia Border Region</text><type>region name</type></description><originReference>de.gempa.tb1.Origin/20250411145946.130688.58385</originReference></event></EventParameters></seiscomp>