<?xml version="1.0" encoding="UTF-8"?>
<seiscomp xmlns="http://geofon.gfz-potsdam.de/ns/seiscomp3-schema/0.13" version="0.13"><EventParameters><pick publicID="de.gempa.tb1.Pick/20250412204418.177587.126643"><time><value>2025-04-12T20:44:11.19Z</value></time><waveformID networkCode="CX" stationCode="PB10" channelCode="HHZ"/><filterID>ITAPER(4)&gt;&gt;BW(4,4,20)</filterID><methodID>AIC</methodID><horizontalSlowness><value>2.892559625703957</value></horizontalSlowness><backazimuth><value>176.24850742473711</value></backazimuth><phaseHint>P</phaseHint><evaluationMode>automatic</evaluationMode><comment><text>174.6928337237506</text><id>DFX:rectilinearity</id></comment><comment><text>11.912761468396983</text><id>SNR</id></comment></pick><pick publicID="de.gempa.tb1.Pick/20250412204424.546713.126645"><time><value>2025-04-12T20:44:17.64Z</value></time><waveformID networkCode="CX" stationCode="PB19" channelCode="HHZ"/><filterID>ITAPER(4)&gt;&gt;BW(4,4,20)</filterID><methodID>AIC</methodID><horizontalSlowness><value>8.9083131421764</value></horizontalSlowness><backazimuth><value>199.0806477498276</value></backazimuth><phaseHint>P</phaseHint><evaluationMode>automatic</evaluationMode><comment><text>54.74491122986465</text><id>DFX:rectilinearity</id></comment><comment><text>28.94576126735978</text><id>SNR</id></comment></pick><pick publicID="de.gempa.tb1.Pick/20250412204429.867357.126648"><time><value>2025-04-12T20:44:22.898393Z</value></time><waveformID networkCode="CX" stationCode="PB15" channelCode="HHZ"/><filterID>ITAPER(4)&gt;&gt;BW(4,4,20)</filterID><methodID>AIC</methodID><horizontalSlowness><value>20.52192902163635</value></horizontalSlowness><backazimuth><value>77.6664690995314</value></backazimuth><phaseHint>P</phaseHint><evaluationMode>automatic</evaluationMode><comment><text>197.79999335822103</text><id>DFX:rectilinearity</id></comment><comment><text>7.09010156627734</text><id>SNR</id></comment></pick><pick publicID="de.gempa.tb1.Pick/20250412204435.651495.126650"><time><value>2025-04-12T20:44:27.298394Z</value></time><waveformID networkCode="CX" stationCode="PB06" channelCode="HHZ"/><filterID>ITAPER(4)&gt;&gt;BW(4,4,20)</filterID><methodID>AIC</methodID><horizontalSlowness><value>8.53222003040648</value></horizontalSlowness><backazimuth><value>213.4598340124341</value></backazimuth><phaseHint>P</phaseHint><evaluationMode>automatic</evaluationMode><comment><text>68.78508306636584</text><id>DFX:rectilinearity</id></comment><comment><text>5.929936417036913</text><id>SNR</id></comment></pick><pick publicID="de.gempa.tb1.Pick/20250412204447.505707.126653"><time><value>2025-04-12T20:44:42.308393Z</value></time><waveformID networkCode="CX" stationCode="PB02" channelCode="HHZ"/><filterID>ITAPER(4)&gt;&gt;BW(4,4,20)</filterID><methodID>AIC</methodID><horizontalSlowness><value>19.814322996437792</value></horizontalSlowness><backazimuth><value>97.941058344595</value></backazimuth><phaseHint>P</phaseHint><evaluationMode>automatic</evaluationMode><comment><text>68.88996932533468</text><id>DFX:rectilinearity</id></comment><comment><text>12.182843741706455</text><id>SNR</id></comment></pick><pick publicID="de.gempa.tb1.Pick/20250412204449.577201.126656"><time><value>2025-04-12T20:44:40.43Z</value></time><waveformID networkCode="CX" stationCode="PB09" channelCode="HHZ"/><filterID>ITAPER(4)&gt;&gt;BW(4,4,20)</filterID><methodID>AIC</methodID><horizontalSlowness><value>9.515248118304287</value></horizontalSlowness><backazimuth><value>191.45576267567722</value></backazimuth><phaseHint>P</phaseHint><evaluationMode>automatic</evaluationMode><comment><text>11.06554099593518</text><id>DFX:rectilinearity</id></comment><comment><text>23.741142093240907</text><id>SNR</id></comment></pick><pick publicID="de.gempa.tb1.Pick/20250412204454.575965.126658"><time><value>2025-04-12T20:44:36.868393Z</value></time><waveformID networkCode="CX" stationCode="PB07" channelCode="HHZ"/><filterID>ITAPER(4)&gt;&gt;BW(4,4,20)</filterID><methodID>AIC</methodID><horizontalSlowness><value>20.586337294581657</value></horizontalSlowness><backazimuth><value>28.677916907320196</value></backazimuth><phaseHint>P</phaseHint><evaluationMode>automatic</evaluationMode><comment><text>348.99383959874154</text><id>DFX:rectilinearity</id></comment><comment><text>14.561393107375546</text><id>SNR</id></comment></pick><origin publicID="de.gempa.tb1.Origin/20250412204455.916431.91845"><time><value>2025-04-12T20:43:25.069406Z</value><uncertainty>11.361998558044434</uncertainty></time><latitude><value>-25.970693588256836</value><uncertainty>74.3177490234375</uncertainty></latitude><longitude><value>-72.10102844238281</value><uncertainty>59.18620300292969</uncertainty></longitude><depth><value>0</value></depth><depthType>operator assigned</depthType><methodID>LOCSAT</methodID><earthModelID>iasp91_scanloc</earthModelID><quality><associatedPhaseCount>7</associatedPhaseCount><usedPhaseCount>7</usedPhaseCount><associatedStationCount>7</associatedStationCount><usedStationCount>7</usedStationCount><depthPhaseCount>0</depthPhaseCount><standardError>0.19033853625249939</standardError><azimuthalGap>332.32138633728027</azimuthalGap><maximumDistance>5.051737308502197</maximumDistance><minimumDistance>2.821969509124756</minimumDistance><medianDistance>3.9855942726135254</medianDistance></quality><uncertainty><minHorizontalUncertainty>39.80257797241211</minHorizontalUncertainty><maxHorizontalUncertainty>199.803466796875</maxHorizontalUncertainty><azimuthMaxHorizontalUncertainty>37.98868179321289</azimuthMaxHorizontalUncertainty><preferredDescription>horizontal uncertainty</preferredDescription></uncertainty><evaluationMode>automatic</evaluationMode><evaluationStatus>confirmed</evaluationStatus><comment><text>0.09</text><id>mismatchScore</id></comment><comment><text>mismatchScore</text><id>scevalMethod</id></comment><arrival><pickID>de.gempa.tb1.Pick/20250412204418.177587.126643</pickID><phase>P</phase><azimuth>30.221290588378906</azimuth><distance>2.821969509124756</distance><timeResidual>-0.2349128723144531</timeResidual><timeUsed>true</timeUsed><horizontalSlownessUsed>false</horizontalSlownessUsed><backazimuthUsed>false</backazimuthUsed><weight>1</weight></arrival><arrival><pickID>de.gempa.tb1.Pick/20250412204424.546713.126645</pickID><phase>P</phase><azimuth>51.72021484375</azimuth><distance>3.277085542678833</distance><timeResidual>-0.04645919799804688</timeResidual><timeUsed>true</timeUsed><horizontalSlownessUsed>false</horizontalSlownessUsed><backazimuthUsed>false</backazimuthUsed><weight>1</weight></arrival><arrival><pickID>de.gempa.tb1.Pick/20250412204429.867357.126648</pickID><phase>P</phase><azimuth>41.59510040283203</azimuth><distance>3.646193265914917</distance><timeResidual>0.13315963745117188</timeResidual><timeUsed>true</timeUsed><horizontalSlownessUsed>false</horizontalSlownessUsed><backazimuthUsed>false</backazimuthUsed><weight>1</weight></arrival><arrival><pickID>de.gempa.tb1.Pick/20250412204435.651495.126650</pickID><phase>P</phase><azimuth>35.89194869995117</azimuth><distance>3.9855942726135254</distance><timeResidual>-0.13614654541015625</timeResidual><timeUsed>true</timeUsed><horizontalSlownessUsed>false</horizontalSlownessUsed><backazimuthUsed>false</backazimuthUsed><weight>1</weight></arrival><arrival><pickID>de.gempa.tb1.Pick/20250412204447.505707.126653</pickID><phase>P</phase><azimuth>24.041601181030273</azimuth><distance>5.051737308502197</distance><timeResidual>0.20987319946289062</timeResidual><timeUsed>true</timeUsed><horizontalSlownessUsed>false</horizontalSlownessUsed><backazimuthUsed>false</backazimuthUsed><weight>1</weight></arrival><arrival><pickID>de.gempa.tb1.Pick/20250412204449.577201.126656</pickID><phase>P</phase><azimuth>32.78999710083008</azimuth><distance>4.910440444946289</distance><timeResidual>0.2750358581542969</timeResidual><timeUsed>true</timeUsed><horizontalSlownessUsed>false</horizontalSlownessUsed><backazimuthUsed>false</backazimuthUsed><weight>1</weight></arrival><arrival><pickID>de.gempa.tb1.Pick/20250412204454.575965.126658</pickID><phase>P</phase><azimuth>26.09468078613281</azimuth><distance>4.686029434204102</distance><timeResidual>-0.20074844360351562</timeResidual><timeUsed>true</timeUsed><horizontalSlownessUsed>false</horizontalSlownessUsed><backazimuthUsed>false</backazimuthUsed><weight>1</weight></arrival><magnitude publicID="de.gempa.tb1.Magnitude/20250412204643.378861.281260"><magnitude><value>3.8402185228558117</value></magnitude><type>M</type><methodID>weighted average</methodID><stationCount>6</stationCount></magnitude></origin><event publicID="gempa2025hgdr"><preferredOriginID>de.gempa.tb1.Origin/20250412204455.916431.91845</preferredOriginID><preferredMagnitudeID>de.gempa.tb1.Magnitude/20250412204643.378861.281260</preferredMagnitudeID><description><text>Off Coast of Northern Chile</text><type>region name</type></description><originReference>de.gempa.tb1.Origin/20250412204455.916431.91845</originReference></event></EventParameters></seiscomp>