<?xml version="1.0" encoding="UTF-8"?>
<seiscomp xmlns="http://geofon.gfz-potsdam.de/ns/seiscomp3-schema/0.13" version="0.13"><EventParameters><pick publicID="de.gempa.tb1.Pick/20250413061506.7197.129366"><time><value>2025-04-13T06:15:01.838393Z</value></time><waveformID networkCode="CX" stationCode="PB01" channelCode="HHZ"/><filterID>ITAPER(4)&gt;&gt;BW(4,4,20)</filterID><methodID>AIC</methodID><horizontalSlowness><value>11.491443763357834</value></horizontalSlowness><backazimuth><value>321.551421466753</value></backazimuth><phaseHint>P</phaseHint><evaluationMode>automatic</evaluationMode><comment><text>16.655005401146827</text><id>DFX:rectilinearity</id></comment><comment><text>43.43261988875404</text><id>SNR</id></comment></pick><pick publicID="de.gempa.tb1.Pick/20250413061508.793513.129368"><time><value>2025-04-13T06:15:02.29Z</value></time><waveformID networkCode="CX" stationCode="PB09" channelCode="HHZ"/><filterID>ITAPER(4)&gt;&gt;BW(4,4,20)</filterID><methodID>AIC</methodID><horizontalSlowness><value>14.928289103877233</value></horizontalSlowness><backazimuth><value>63.93174022681144</value></backazimuth><phaseHint>P</phaseHint><evaluationMode>automatic</evaluationMode><comment><text>875.9347455524263</text><id>DFX:rectilinearity</id></comment><comment><text>88.72685232743287</text><id>SNR</id></comment></pick><pick publicID="de.gempa.tb1.Pick/20250413061510.453522.129370"><time><value>2025-04-13T06:15:05.808393Z</value></time><waveformID networkCode="CX" stationCode="PB02" channelCode="HHZ"/><filterID>ITAPER(4)&gt;&gt;BW(4,4,20)</filterID><methodID>AIC</methodID><horizontalSlowness><value>5.90208472762535</value></horizontalSlowness><backazimuth><value>62.21825057656933</value></backazimuth><phaseHint>P</phaseHint><evaluationMode>automatic</evaluationMode><comment><text>108.87335709266149</text><id>DFX:rectilinearity</id></comment><comment><text>68.41190444953902</text><id>SNR</id></comment></pick><pick publicID="de.gempa.tb1.Pick/20250413061514.948101.129372"><time><value>2025-04-13T06:15:07.248393Z</value></time><waveformID networkCode="CX" stationCode="PB03" channelCode="HHZ"/><filterID>ITAPER(4)&gt;&gt;BW(4,4,20)</filterID><methodID>AIC</methodID><horizontalSlowness><value>7.737776730063599</value></horizontalSlowness><backazimuth><value>102.90559580446232</value></backazimuth><phaseHint>P</phaseHint><evaluationMode>automatic</evaluationMode><comment><text>22.7472481843886</text><id>DFX:rectilinearity</id></comment><comment><text>43.5850168108727</text><id>SNR</id></comment></pick><pick publicID="de.gempa.tb1.Pick/20250413061515.448261.129374"><time><value>2025-04-13T06:15:06.688394Z</value></time><waveformID networkCode="CX" stationCode="PB07" channelCode="HHZ"/><filterID>ITAPER(4)&gt;&gt;BW(4,4,20)</filterID><methodID>AIC</methodID><horizontalSlowness><value>20.898471752705394</value></horizontalSlowness><backazimuth><value>82.54962807960111</value></backazimuth><phaseHint>P</phaseHint><evaluationMode>automatic</evaluationMode><comment><text>304.16462424867137</text><id>DFX:rectilinearity</id></comment><comment><text>107.34497071046927</text><id>SNR</id></comment></pick><pick publicID="de.gempa.tb1.Pick/20250413061516.388115.129376"><time><value>2025-04-13T06:15:09.589999Z</value></time><waveformID networkCode="CX" stationCode="PATCX" channelCode="HHZ"/><filterID>ITAPER(4)&gt;&gt;BW(4,4,20)</filterID><methodID>AIC</methodID><horizontalSlowness><value>21.451625573728933</value></horizontalSlowness><backazimuth><value>241.02416565374944</value></backazimuth><phaseHint>P</phaseHint><evaluationMode>automatic</evaluationMode><comment><text>152.54035144940738</text><id>DFX:rectilinearity</id></comment><comment><text>11.475743344637543</text><id>SNR</id></comment></pick><pick publicID="de.gempa.tb1.Pick/20250413061520.815859.129378"><time><value>2025-04-13T06:15:12.428393Z</value></time><waveformID networkCode="CX" stationCode="PB06" channelCode="HHZ"/><filterID>ITAPER(4)&gt;&gt;BW(4,4,20)</filterID><methodID>AIC</methodID><horizontalSlowness><value>12.40169009274734</value></horizontalSlowness><backazimuth><value>303.48938000435146</value></backazimuth><phaseHint>P</phaseHint><evaluationMode>automatic</evaluationMode><comment><text>75.40813901988642</text><id>DFX:rectilinearity</id></comment><comment><text>8.010117223324338</text><id>SNR</id></comment></pick><pick publicID="de.gempa.tb1.Pick/20250413061522.731514.129380"><time><value>2025-04-13T06:15:17.01Z</value></time><waveformID networkCode="CX" stationCode="PSGCX" channelCode="HHZ"/><filterID>ITAPER(4)&gt;&gt;BW(4,4,20)</filterID><methodID>AIC</methodID><horizontalSlowness><value>22.394026512330797</value></horizontalSlowness><backazimuth><value>18.71551907992918</value></backazimuth><phaseHint>P</phaseHint><evaluationMode>automatic</evaluationMode><comment><text>25.52805330664628</text><id>DFX:rectilinearity</id></comment><comment><text>20.085041591593772</text><id>SNR</id></comment></pick><pick publicID="de.gempa.tb1.Pick/20250413061530.777721.129382"><time><value>2025-04-13T06:15:17.478393Z</value></time><waveformID networkCode="CX" stationCode="PB01" channelCode="HHN"/><filterID>ITAPER(2)&gt;&gt;BW(3,3,20)</filterID><methodID>L2-AIC-GRID</methodID><horizontalSlowness><value>22.87665060962775</value></horizontalSlowness><backazimuth><value>24.06758079985812</value></backazimuth><phaseHint>S</phaseHint><evaluationMode>automatic</evaluationMode><comment><text>115.82147757661366</text><id>DFX:rectilinearity</id></comment><comment><text>de.gempa.tb1.Pick/20250413061506.7197.129366</text><id>RefPickID</id></comment><comment><text>5.078741631292816</text><id>SNR</id></comment></pick><pick publicID="de.gempa.tb1.Pick/20250413061533.532695.129383"><time><value>2025-04-13T06:15:26.748393Z</value></time><waveformID networkCode="CX" stationCode="PB03" channelCode="HHN"/><filterID>ITAPER(2)&gt;&gt;BW(3,3,20)</filterID><methodID>L2-AIC-GRID</methodID><horizontalSlowness><value>22.46643229729538</value></horizontalSlowness><backazimuth><value>136.8080612909788</value></backazimuth><phaseHint>S</phaseHint><evaluationMode>automatic</evaluationMode><comment><text>139.41026948643594</text><id>DFX:rectilinearity</id></comment><comment><text>de.gempa.tb1.Pick/20250413061514.948101.129372</text><id>RefPickID</id></comment><comment><text>8.646347791811195</text><id>SNR</id></comment></pick><pick publicID="de.gempa.tb1.Pick/20250413061540.405975.129385"><time><value>2025-04-13T06:15:30.789999Z</value></time><waveformID networkCode="CX" stationCode="PATCX" channelCode="HHN"/><filterID>ITAPER(2)&gt;&gt;BW(3,3,20)</filterID><methodID>L2-AIC-GRID</methodID><horizontalSlowness><value>19.536640366374737</value></horizontalSlowness><backazimuth><value>271.815262486089</value></backazimuth><phaseHint>S</phaseHint><evaluationMode>automatic</evaluationMode><comment><text>458.5888696253138</text><id>DFX:rectilinearity</id></comment><comment><text>de.gempa.tb1.Pick/20250413061516.388115.129376</text><id>RefPickID</id></comment><comment><text>5.884840108503593</text><id>SNR</id></comment></pick><pick publicID="de.gempa.tb1.Pick/20250413061541.71978.129386"><time><value>2025-04-13T06:15:34.588393Z</value></time><waveformID networkCode="CX" stationCode="PB06" channelCode="HHN"/><filterID>ITAPER(2)&gt;&gt;BW(3,3,20)</filterID><methodID>L2-AIC-GRID</methodID><horizontalSlowness><value>17.096364363919072</value></horizontalSlowness><backazimuth><value>260.858934464532</value></backazimuth><phaseHint>S</phaseHint><evaluationMode>automatic</evaluationMode><comment><text>57.07605476084343</text><id>DFX:rectilinearity</id></comment><comment><text>de.gempa.tb1.Pick/20250413061520.815859.129378</text><id>RefPickID</id></comment><comment><text>10.865583014410722</text><id>SNR</id></comment></pick><pick publicID="de.gempa.tb1.Pick/20250413061551.78763.129390"><time><value>2025-04-13T06:15:44.13Z</value></time><waveformID networkCode="CX" stationCode="PSGCX" channelCode="HHN"/><filterID>ITAPER(2)&gt;&gt;BW(3,3,20)</filterID><methodID>L2-AIC-GRID</methodID><horizontalSlowness><value>15.263982053079854</value></horizontalSlowness><backazimuth><value>241.28165146193226</value></backazimuth><phaseHint>S</phaseHint><evaluationMode>automatic</evaluationMode><comment><text>36.38033974818778</text><id>DFX:rectilinearity</id></comment><comment><text>de.gempa.tb1.Pick/20250413061522.731514.129380</text><id>RefPickID</id></comment><comment><text>5.869126694972915</text><id>SNR</id></comment></pick><origin publicID="de.gempa.tb1.Origin/20250413061553.5796.102655"><time><value>2025-04-13T06:14:42.125222Z</value><uncertainty>0.9347633123397827</uncertainty></time><latitude><value>-21.218992233276367</value><uncertainty>3.714834690093994</uncertainty></latitude><longitude><value>-68.59468078613281</value><uncertainty>11.190149307250977</uncertainty></longitude><depth><value>111.9149398803711</value><uncertainty>12.841644287109375</uncertainty></depth><depthType>from location</depthType><methodID>LOCSAT</methodID><earthModelID>iasp91_scanloc</earthModelID><quality><associatedPhaseCount>13</associatedPhaseCount><usedPhaseCount>13</usedPhaseCount><associatedStationCount>8</associatedStationCount><usedStationCount>8</usedStationCount><depthPhaseCount>0</depthPhaseCount><standardError>0.35363920925869025</standardError><azimuthalGap>253.21861267089844</azimuthalGap><maximumDistance>2.158390760421753</maximumDistance><minimumDistance>0.8326866626739502</minimumDistance><medianDistance>1.357545018196106</medianDistance></quality><uncertainty><minHorizontalUncertainty>6.88637924194336</minHorizontalUncertainty><maxHorizontalUncertainty>24.323062896728516</maxHorizontalUncertainty><azimuthMaxHorizontalUncertainty>80.12287139892578</azimuthMaxHorizontalUncertainty><preferredDescription>horizontal uncertainty</preferredDescription></uncertainty><evaluationMode>automatic</evaluationMode><evaluationStatus>confirmed</evaluationStatus><comment><text>0.13</text><id>mismatchScore</id></comment><comment><text>mismatchScore</text><id>scevalMethod</id></comment><arrival><pickID>de.gempa.tb1.Pick/20250413061506.7197.129366</pickID><phase>P</phase><azimuth>281.6911926269531</azimuth><distance>0.851561188697815</distance><timeResidual>-0.21929359436035156</timeResidual><timeUsed>true</timeUsed><horizontalSlownessUsed>false</horizontalSlownessUsed><backazimuthUsed>false</backazimuthUsed><weight>1</weight></arrival><arrival><pickID>de.gempa.tb1.Pick/20250413061508.793513.129368</pickID><phase>P</phase><azimuth>226.25270080566406</azimuth><distance>0.8326866626739502</distance><timeResidual>0.41265869140625</timeResidual><timeUsed>true</timeUsed><horizontalSlownessUsed>false</horizontalSlownessUsed><backazimuthUsed>false</backazimuthUsed><weight>1</weight></arrival><arrival><pickID>de.gempa.tb1.Pick/20250413061510.453522.129370</pickID><phase>P</phase><azimuth>265.04443359375</azimuth><distance>1.2178997993469238</distance><timeResidual>-0.03165245056152344</timeResidual><timeUsed>true</timeUsed><horizontalSlownessUsed>false</horizontalSlownessUsed><backazimuthUsed>false</backazimuthUsed><weight>1</weight></arrival><arrival><pickID>de.gempa.tb1.Pick/20250413061514.948101.129372</pickID><phase>P</phase><azimuth>232.3424377441406</azimuth><distance>1.357545018196106</distance><timeResidual>-0.16693878173828125</timeResidual><timeUsed>true</timeUsed><horizontalSlownessUsed>false</horizontalSlownessUsed><backazimuthUsed>false</backazimuthUsed><weight>1</weight></arrival><arrival><pickID>de.gempa.tb1.Pick/20250413061515.448261.129374</pickID><phase>P</phase><azimuth>246.9855041503906</azimuth><distance>1.3046953678131104</distance><timeResidual>-0.12395858764648438</timeResidual><timeUsed>true</timeUsed><horizontalSlownessUsed>false</horizontalSlownessUsed><backazimuthUsed>false</backazimuthUsed><weight>1</weight></arrival><arrival><pickID>de.gempa.tb1.Pick/20250413061516.388115.129376</pickID><phase>P</phase><azimuth>284.9496765136719</azimuth><distance>1.5087268352508545</distance><timeResidual>0.39986419677734375</timeResidual><timeUsed>true</timeUsed><horizontalSlownessUsed>false</horizontalSlownessUsed><backazimuthUsed>false</backazimuthUsed><weight>1</weight></arrival><arrival><pickID>de.gempa.tb1.Pick/20250413061520.815859.129378</pickID><phase>P</phase><azimuth>211.3313751220703</azimuth><distance>1.7355321645736694</distance><timeResidual>0.5062236785888672</timeResidual><timeUsed>true</timeUsed><horizontalSlownessUsed>false</horizontalSlownessUsed><backazimuthUsed>false</backazimuthUsed><weight>1</weight></arrival><arrival><pickID>de.gempa.tb1.Pick/20250413061522.731514.129380</pickID><phase>P</phase><azimuth>318.1127624511719</azimuth><distance>2.158390760421753</distance><timeResidual>-0.2387371063232422</timeResidual><timeUsed>true</timeUsed><horizontalSlownessUsed>false</horizontalSlownessUsed><backazimuthUsed>false</backazimuthUsed><weight>1</weight></arrival><arrival><pickID>de.gempa.tb1.Pick/20250413061530.777721.129382</pickID><phase>S</phase><azimuth>281.6911926269531</azimuth><distance>0.851561188697815</distance><timeResidual>0.04146385192871094</timeResidual><timeUsed>true</timeUsed><horizontalSlownessUsed>false</horizontalSlownessUsed><backazimuthUsed>false</backazimuthUsed><weight>1</weight></arrival><arrival><pickID>de.gempa.tb1.Pick/20250413061533.532695.129383</pickID><phase>S</phase><azimuth>232.3424377441406</azimuth><distance>1.357545018196106</distance><timeResidual>-0.25371360778808594</timeResidual><timeUsed>true</timeUsed><horizontalSlownessUsed>false</horizontalSlownessUsed><backazimuthUsed>false</backazimuthUsed><weight>1</weight></arrival><arrival><pickID>de.gempa.tb1.Pick/20250413061540.405975.129385</pickID><phase>S</phase><azimuth>284.9496765136719</azimuth><distance>1.5087268352508545</distance><timeResidual>0.6163196563720703</timeResidual><timeUsed>true</timeUsed><horizontalSlownessUsed>false</horizontalSlownessUsed><backazimuthUsed>false</backazimuthUsed><weight>1</weight></arrival><arrival><pickID>de.gempa.tb1.Pick/20250413061541.71978.129386</pickID><phase>S</phase><azimuth>211.3313751220703</azimuth><distance>1.7355321645736694</distance><timeResidual>-0.4745731353759766</timeResidual><timeUsed>true</timeUsed><horizontalSlownessUsed>false</horizontalSlownessUsed><backazimuthUsed>false</backazimuthUsed><weight>1</weight></arrival><arrival><pickID>de.gempa.tb1.Pick/20250413061551.78763.129390</pickID><phase>S</phase><azimuth>318.1127624511719</azimuth><distance>2.158390760421753</distance><timeResidual>-0.4678325653076172</timeResidual><timeUsed>true</timeUsed><horizontalSlownessUsed>false</horizontalSlownessUsed><backazimuthUsed>false</backazimuthUsed><weight>1</weight></arrival><magnitude publicID="de.gempa.tb1.Magnitude/20250413061553.588251.321735"><magnitude><value>2.5328363536042873</value></magnitude><type>M</type><methodID>weighted average</methodID><stationCount>5</stationCount></magnitude></origin><event publicID="gempa2025hgws"><preferredOriginID>de.gempa.tb1.Origin/20250413061553.5796.102655</preferredOriginID><preferredMagnitudeID>de.gempa.tb1.Magnitude/20250413061553.588251.321735</preferredMagnitudeID><description><text>Chile-Bolivia Border Region</text><type>region name</type></description><originReference>de.gempa.tb1.Origin/20250413061553.5796.102655</originReference></event></EventParameters></seiscomp>