<?xml version="1.0" encoding="UTF-8"?>
<seiscomp xmlns="http://geofon.gfz-potsdam.de/ns/seiscomp3-schema/0.13" version="0.13"><EventParameters><pick publicID="de.gempa.tb1.Pick/20250411151159.597336.118363"><time><value>2025-04-11T15:11:50.998394Z</value></time><waveformID networkCode="CX" stationCode="PB01" channelCode="HHZ"/><filterID>ITAPER(4)&gt;&gt;BW(4,4,20)</filterID><methodID>AIC</methodID><horizontalSlowness><value>19.342682736788149</value></horizontalSlowness><backazimuth><value>328.6834534075108</value></backazimuth><phaseHint>P</phaseHint><evaluationMode>automatic</evaluationMode><comment><text>13.508953727552164</text><id>DFX:rectilinearity</id></comment><comment><text>13.73063162527178</text><id>SNR</id></comment></pick><pick publicID="de.gempa.tb1.Pick/20250411151201.777367.118365"><time><value>2025-04-11T15:11:54.408393Z</value></time><waveformID networkCode="CX" stationCode="PB02" channelCode="HHZ"/><filterID>ITAPER(4)&gt;&gt;BW(4,4,20)</filterID><methodID>AIC</methodID><horizontalSlowness><value>23.34699873046293</value></horizontalSlowness><backazimuth><value>244.3847928326006</value></backazimuth><phaseHint>P</phaseHint><evaluationMode>automatic</evaluationMode><comment><text>43.26710415625403</text><id>DFX:rectilinearity</id></comment><comment><text>12.881105383647602</text><id>SNR</id></comment></pick><pick publicID="de.gempa.tb1.Pick/20250411151202.557729.118367"><time><value>2025-04-11T15:11:55.258393Z</value></time><waveformID networkCode="CX" stationCode="PB03" channelCode="HHZ"/><filterID>ITAPER(4)&gt;&gt;BW(4,4,20)</filterID><methodID>AIC</methodID><horizontalSlowness><value>3.417308206271859</value></horizontalSlowness><backazimuth><value>48.62874106905124</value></backazimuth><phaseHint>P</phaseHint><evaluationMode>automatic</evaluationMode><comment><text>12.29737458183154</text><id>DFX:rectilinearity</id></comment><comment><text>8.779391255758025</text><id>SNR</id></comment></pick><pick publicID="de.gempa.tb1.Pick/20250411151210.001186.118369"><time><value>2025-04-11T15:11:50.25Z</value></time><waveformID networkCode="CX" stationCode="PB09" channelCode="HHZ"/><filterID>ITAPER(4)&gt;&gt;BW(4,4,20)</filterID><methodID>AIC</methodID><horizontalSlowness><value>21.021472142190792</value></horizontalSlowness><backazimuth><value>266.9224065092394</value></backazimuth><phaseHint>P</phaseHint><evaluationMode>automatic</evaluationMode><comment><text>11.791766853654565</text><id>DFX:rectilinearity</id></comment><comment><text>29.304291150986995</text><id>SNR</id></comment></pick><pick publicID="de.gempa.tb1.Pick/20250411151213.658075.118371"><time><value>2025-04-11T15:12:05.528394Z</value></time><waveformID networkCode="CX" stationCode="PB01" channelCode="HHN"/><filterID>ITAPER(2)&gt;&gt;BW(3,3,20)</filterID><methodID>L2-AIC-GRID</methodID><horizontalSlowness><value>21.584112079075197</value></horizontalSlowness><backazimuth><value>9.807935963562926</value></backazimuth><phaseHint>S</phaseHint><evaluationMode>automatic</evaluationMode><comment><text>34.22328288740831</text><id>DFX:rectilinearity</id></comment><comment><text>de.gempa.tb1.Pick/20250411151159.597336.118363</text><id>RefPickID</id></comment><comment><text>7.82599965360913</text><id>SNR</id></comment></pick><pick publicID="de.gempa.tb1.Pick/20250411151219.584769.118376"><time><value>2025-04-11T15:12:12.758393Z</value></time><waveformID networkCode="CX" stationCode="PB03" channelCode="HHN"/><filterID>ITAPER(2)&gt;&gt;BW(3,3,20)</filterID><methodID>L2-AIC-GRID</methodID><horizontalSlowness><value>15.24814965888243</value></horizontalSlowness><backazimuth><value>179.1982821435794</value></backazimuth><phaseHint>S</phaseHint><evaluationMode>automatic</evaluationMode><comment><text>20.742842760661816</text><id>DFX:rectilinearity</id></comment><comment><text>de.gempa.tb1.Pick/20250411151202.557729.118367</text><id>RefPickID</id></comment><comment><text>12.769403106423828</text><id>SNR</id></comment></pick><pick publicID="de.gempa.tb1.Pick/20250411151221.409036.118377"><time><value>2025-04-11T15:11:54.878393Z</value></time><waveformID networkCode="CX" stationCode="PB07" channelCode="HHZ"/><filterID>ITAPER(4)&gt;&gt;BW(4,4,20)</filterID><methodID>AIC</methodID><horizontalSlowness><value>21.027977862797577</value></horizontalSlowness><backazimuth><value>242.17167997486297</value></backazimuth><phaseHint>P</phaseHint><evaluationMode>automatic</evaluationMode><comment><text>139.13527617422145</text><id>DFX:rectilinearity</id></comment><comment><text>31.33188621754549</text><id>SNR</id></comment></pick><pick publicID="de.gempa.tb1.Pick/20250411151231.432716.118380"><time><value>2025-04-11T15:12:12.258393Z</value></time><waveformID networkCode="CX" stationCode="PB07" channelCode="HHN"/><filterID>ITAPER(2)&gt;&gt;BW(3,3,20)</filterID><methodID>L2-AIC-GRID</methodID><horizontalSlowness><value>22.426556376190707</value></horizontalSlowness><backazimuth><value>279.86402678163205</value></backazimuth><phaseHint>S</phaseHint><evaluationMode>automatic</evaluationMode><comment><text>210.38799328618111</text><id>DFX:rectilinearity</id></comment><comment><text>de.gempa.tb1.Pick/20250411151221.409036.118377</text><id>RefPickID</id></comment><comment><text>5.019645347442188</text><id>SNR</id></comment></pick><origin publicID="de.gempa.tb1.Origin/20250411151231.435303.58944"><time><value>2025-04-11T15:11:32.529287Z</value><uncertainty>1.291182279586792</uncertainty></time><latitude><value>-21.35441780090332</value><uncertainty>7.62623405456543</uncertainty></latitude><longitude><value>-68.74269104003906</value><uncertainty>14.615262031555176</uncertainty></longitude><depth><value>106.98133087158203</value><uncertainty>16.467004776000977</uncertainty></depth><depthType>from location</depthType><methodID>LOCSAT</methodID><earthModelID>iasp91_scanloc</earthModelID><quality><associatedPhaseCount>8</associatedPhaseCount><usedPhaseCount>8</usedPhaseCount><associatedStationCount>5</associatedStationCount><usedStationCount>5</usedStationCount><depthPhaseCount>0</depthPhaseCount><standardError>0.10736458252409503</standardError><azimuthalGap>292.6014862060547</azimuthalGap><maximumDistance>1.1661654710769653</maximumDistance><minimumDistance>0.639794647693634</minimumDistance><medianDistance>1.1271806955337524</medianDistance></quality><uncertainty><minHorizontalUncertainty>14.413700103759766</minHorizontalUncertainty><maxHorizontalUncertainty>32.278594970703125</maxHorizontalUncertainty><azimuthMaxHorizontalUncertainty>105.51446533203125</azimuthMaxHorizontalUncertainty><preferredDescription>horizontal uncertainty</preferredDescription></uncertainty><evaluationMode>automatic</evaluationMode><evaluationStatus>confirmed</evaluationStatus><comment><text>0.00</text><id>mismatchScore</id></comment><comment><text>mismatchScore</text><id>scevalMethod</id></comment><arrival><pickID>de.gempa.tb1.Pick/20250411151159.597336.118363</pickID><phase>P</phase><azimuth>293.8828125</azimuth><distance>0.7607818245887756</distance><timeResidual>-0.1640911102294922</timeResidual><timeUsed>true</timeUsed><horizontalSlownessUsed>false</horizontalSlownessUsed><backazimuthUsed>false</backazimuthUsed><weight>1</weight></arrival><arrival><pickID>de.gempa.tb1.Pick/20250411151201.777367.118365</pickID><phase>P</phase><azimuth>271.62994384765625</azimuth><distance>1.0757830142974854</distance><timeResidual>0.09311103820800781</timeResidual><timeUsed>true</timeUsed><horizontalSlownessUsed>false</horizontalSlownessUsed><backazimuthUsed>false</backazimuthUsed><weight>1</weight></arrival><arrival><pickID>de.gempa.tb1.Pick/20250411151202.557729.118367</pickID><phase>P</phase><azimuth>233.4983367919922</azimuth><distance>1.1661654710769653</distance><timeResidual>-0.044891357421875</timeResidual><timeUsed>true</timeUsed><horizontalSlownessUsed>false</horizontalSlownessUsed><backazimuthUsed>false</backazimuthUsed><weight>1</weight></arrival><arrival><pickID>de.gempa.tb1.Pick/20250411151210.001186.118369</pickID><phase>P</phase><azimuth>226.4842987060547</azimuth><distance>0.639794647693634</distance><timeResidual>0.1347827911376953</timeResidual><timeUsed>true</timeUsed><horizontalSlownessUsed>false</horizontalSlownessUsed><backazimuthUsed>false</backazimuthUsed><weight>1</weight></arrival><arrival><pickID>de.gempa.tb1.Pick/20250411151213.658075.118371</pickID><phase>S</phase><azimuth>293.8828125</azimuth><distance>0.7607818245887756</distance><timeResidual>0.007692337036132812</timeResidual><timeUsed>true</timeUsed><horizontalSlownessUsed>false</horizontalSlownessUsed><backazimuthUsed>false</backazimuthUsed><weight>1</weight></arrival><arrival><pickID>de.gempa.tb1.Pick/20250411151219.584769.118376</pickID><phase>S</phase><azimuth>233.4983367919922</azimuth><distance>1.1661654710769653</distance><timeResidual>-0.1495952606201172</timeResidual><timeUsed>true</timeUsed><horizontalSlownessUsed>false</horizontalSlownessUsed><backazimuthUsed>false</backazimuthUsed><weight>1</weight></arrival><arrival><pickID>de.gempa.tb1.Pick/20250411151221.409036.118377</pickID><phase>P</phase><azimuth>250.6063232421875</azimuth><distance>1.1271806955337524</distance><timeResidual>0.004949569702148438</timeResidual><timeUsed>true</timeUsed><horizontalSlownessUsed>false</horizontalSlownessUsed><backazimuthUsed>false</backazimuthUsed><weight>1</weight></arrival><arrival><pickID>de.gempa.tb1.Pick/20250411151231.432716.118380</pickID><phase>S</phase><azimuth>250.6063232421875</azimuth><distance>1.1271806955337524</distance><timeResidual>0.1182270050048828</timeResidual><timeUsed>true</timeUsed><horizontalSlownessUsed>false</horizontalSlownessUsed><backazimuthUsed>false</backazimuthUsed><weight>1</weight></arrival><magnitude publicID="de.gempa.tb1.Magnitude/20250411151305.549533.112578"><magnitude><value>2.3714048250405684</value></magnitude><type>M</type><methodID>weighted average</methodID><stationCount>2</stationCount></magnitude></origin><event publicID="gempa2025hdwp"><preferredOriginID>de.gempa.tb1.Origin/20250411151231.435303.58944</preferredOriginID><preferredMagnitudeID>de.gempa.tb1.Magnitude/20250411151305.549533.112578</preferredMagnitudeID><description><text>Chile-Bolivia Border Region</text><type>region name</type></description><originReference>de.gempa.tb1.Origin/20250411151231.435303.58944</originReference></event></EventParameters></seiscomp>