<?xml version="1.0" encoding="UTF-8"?>
<seiscomp xmlns="http://geofon.gfz-potsdam.de/ns/seiscomp3-schema/0.13" version="0.13"><EventParameters><pick publicID="de.gempa.tb1.Pick/20250415001917.957699.142395"><time><value>2025-04-15T00:19:09.708393Z</value></time><waveformID networkCode="CX" stationCode="PB01" channelCode="HHZ"/><filterID>ITAPER(4)&gt;&gt;BW(4,4,20)</filterID><methodID>AIC</methodID><horizontalSlowness><value>23.516673690496724</value></horizontalSlowness><backazimuth><value>190.48027852996128</value></backazimuth><phaseHint>P</phaseHint><evaluationMode>automatic</evaluationMode><comment><text>16.422140176778424</text><id>DFX:rectilinearity</id></comment><comment><text>21.6916883422096</text><id>SNR</id></comment></pick><pick publicID="de.gempa.tb1.Pick/20250415001932.181202.142401"><time><value>2025-04-15T00:19:17.578393Z</value></time><waveformID networkCode="CX" stationCode="PB01" channelCode="HHN"/><filterID>ITAPER(2)&gt;&gt;BW(3,3,20)</filterID><methodID>L2-AIC-GRID</methodID><horizontalSlowness><value>23.053688633793627</value></horizontalSlowness><backazimuth><value>164.74324275166236</value></backazimuth><phaseHint>S</phaseHint><evaluationMode>automatic</evaluationMode><comment><text>18.123733407443233</text><id>DFX:rectilinearity</id></comment><comment><text>de.gempa.tb1.Pick/20250415001917.957699.142395</text><id>RefPickID</id></comment><comment><text>15.274807455997058</text><id>SNR</id></comment></pick><pick publicID="de.gempa.tb1.Pick/20250415001932.58209.142402"><time><value>2025-04-15T00:19:24.119999Z</value></time><waveformID networkCode="CX" stationCode="PATCX" channelCode="HHZ"/><filterID>ITAPER(4)&gt;&gt;BW(4,4,20)</filterID><methodID>AIC</methodID><horizontalSlowness><value>22.59475988360124</value></horizontalSlowness><backazimuth><value>294.5649445262236</value></backazimuth><phaseHint>P</phaseHint><evaluationMode>automatic</evaluationMode><comment><text>130.25480873047184</text><id>DFX:rectilinearity</id></comment><comment><text>13.996791871886819</text><id>SNR</id></comment></pick><pick publicID="de.gempa.tb1.Pick/20250415001940.759343.142404"><time><value>2025-04-15T00:19:32.818393Z</value></time><waveformID networkCode="CX" stationCode="PB02" channelCode="HHN"/><filterID>ITAPER(2)&gt;&gt;BW(3,3,20)</filterID><methodID>L2-AIC-GRID</methodID><horizontalSlowness><value>17.781060738919908</value></horizontalSlowness><backazimuth><value>277.00548743438674</value></backazimuth><phaseHint>S</phaseHint><evaluationMode>automatic</evaluationMode><comment><text>259.72322146028694</text><id>DFX:rectilinearity</id></comment><comment><text>de.gempa.tb1.Pick/20250415001921.758183.142397</text><id>RefPickID</id></comment><comment><text>9.690512568622916</text><id>SNR</id></comment></pick><pick publicID="de.gempa.tb1.Pick/20250415001944.24449.142408"><time><value>2025-04-15T00:19:37.339999Z</value></time><waveformID networkCode="CX" stationCode="PATCX" channelCode="HHN"/><filterID>ITAPER(2)&gt;&gt;BW(3,3,20)</filterID><methodID>L2-AIC-GRID</methodID><horizontalSlowness><value>22.932580964946514</value></horizontalSlowness><backazimuth><value>125.37908374074635</value></backazimuth><phaseHint>S</phaseHint><evaluationMode>automatic</evaluationMode><comment><text>195.37287397995308</text><id>DFX:rectilinearity</id></comment><comment><text>de.gempa.tb1.Pick/20250415001932.58209.142402</text><id>RefPickID</id></comment><comment><text>9.357306317097958</text><id>SNR</id></comment></pick><origin publicID="de.gempa.tb1.Origin/20250415001945.263663.156460"><time><value>2025-04-15T00:19:02.210081Z</value><uncertainty>1.9255470037460327</uncertainty></time><latitude><value>-20.935720443725586</value><uncertainty>8.033884048461914</uncertainty></latitude><longitude><value>-69.00878143310547</value><uncertainty>8.049686431884766</uncertainty></longitude><depth><value>0</value></depth><depthType>operator assigned</depthType><methodID>LOCSAT</methodID><earthModelID>iasp91_scanloc</earthModelID><quality><associatedPhaseCount>5</associatedPhaseCount><usedPhaseCount>5</usedPhaseCount><associatedStationCount>3</associatedStationCount><usedStationCount>3</usedStationCount><depthPhaseCount>0</depthPhaseCount><standardError>0.8712521340625903</standardError><azimuthalGap>329.17552185058594</azimuthalGap><maximumDistance>1.0759822130203247</maximumDistance><minimumDistance>0.459854930639267</minimumDistance><medianDistance>0.9122029542922974</medianDistance></quality><uncertainty><minHorizontalUncertainty>15.017131805419922</minHorizontalUncertainty><maxHorizontalUncertainty>19.22431755065918</maxHorizontalUncertainty><azimuthMaxHorizontalUncertainty>134.7674560546875</azimuthMaxHorizontalUncertainty><preferredDescription>horizontal uncertainty</preferredDescription></uncertainty><evaluationMode>automatic</evaluationMode><evaluationStatus>confirmed</evaluationStatus><comment><text>0.24</text><id>mismatchScore</id></comment><comment><text>mismatchScore</text><id>scevalMethod</id></comment><arrival><pickID>de.gempa.tb1.Pick/20250415001917.957699.142395</pickID><phase>P</phase><azimuth>256.4632873535156</azimuth><distance>0.459854930639267</distance><timeResidual>-1.3223881721496582</timeResidual><timeUsed>true</timeUsed><horizontalSlownessUsed>false</horizontalSlownessUsed><backazimuthUsed>false</backazimuthUsed><weight>1</weight></arrival><arrival><pickID>de.gempa.tb1.Pick/20250415001932.181202.142401</pickID><phase>S</phase><azimuth>256.4632873535156</azimuth><distance>0.459854930639267</distance><timeResidual>0.14244699478149414</timeResidual><timeUsed>true</timeUsed><horizontalSlownessUsed>false</horizontalSlownessUsed><backazimuthUsed>false</backazimuthUsed><weight>1</weight></arrival><arrival><pickID>de.gempa.tb1.Pick/20250415001932.58209.142402</pickID><phase>P</phase><azimuth>275.90228271484375</azimuth><distance>1.0759822130203247</distance><timeResidual>1.2708611488342285</timeResidual><timeUsed>true</timeUsed><horizontalSlownessUsed>false</horizontalSlownessUsed><backazimuthUsed>false</backazimuthUsed><weight>1</weight></arrival><arrival><pickID>de.gempa.tb1.Pick/20250415001940.759343.142404</pickID><phase>S</phase><azimuth>245.0778045654297</azimuth><distance>0.9122029542922974</distance><timeResidual>0.4055352210998535</timeResidual><timeUsed>true</timeUsed><horizontalSlownessUsed>false</horizontalSlownessUsed><backazimuthUsed>false</backazimuthUsed><weight>1</weight></arrival><arrival><pickID>de.gempa.tb1.Pick/20250415001944.24449.142408</pickID><phase>S</phase><azimuth>275.90228271484375</azimuth><distance>1.0759822130203247</distance><timeResidual>-0.4968428611755371</timeResidual><timeUsed>true</timeUsed><horizontalSlownessUsed>false</horizontalSlownessUsed><backazimuthUsed>false</backazimuthUsed><weight>1</weight></arrival><magnitude publicID="de.gempa.tb1.Magnitude/20250415002000.99409.554395"><magnitude><value>1.5511625681268828</value></magnitude><type>M</type><methodID>weighted average</methodID><stationCount>2</stationCount></magnitude></origin><event publicID="gempa2025hkcx"><preferredOriginID>de.gempa.tb1.Origin/20250415001945.263663.156460</preferredOriginID><preferredMagnitudeID>de.gempa.tb1.Magnitude/20250415002000.99409.554395</preferredMagnitudeID><description><text>Northern Chile</text><type>region name</type></description><originReference>de.gempa.tb1.Origin/20250415001945.263663.156460</originReference></event></EventParameters></seiscomp>