<?xml version="1.0" encoding="UTF-8"?>
<seiscomp xmlns="http://geofon.gfz-potsdam.de/ns/seiscomp3-schema/0.13" version="0.13"><EventParameters><pick publicID="de.gempa.tb1.Pick/20250415044700.60582.143558"><time><value>2025-04-15T04:46:53.268393Z</value></time><waveformID networkCode="CX" stationCode="PB01" channelCode="HHZ"/><filterID>ITAPER(4)&gt;&gt;BW(4,4,20)</filterID><methodID>AIC</methodID><horizontalSlowness><value>15.40427716585033</value></horizontalSlowness><backazimuth><value>141.50377839127583</value></backazimuth><phaseHint>P</phaseHint><evaluationMode>automatic</evaluationMode><comment><text>31.59880475543161</text><id>DFX:rectilinearity</id></comment><comment><text>74.12636945861358</text><id>SNR</id></comment></pick><pick publicID="de.gempa.tb1.Pick/20250415044704.595793.143560"><time><value>2025-04-15T04:46:57.138393Z</value></time><waveformID networkCode="CX" stationCode="PB02" channelCode="HHZ"/><filterID>ITAPER(4)&gt;&gt;BW(4,4,20)</filterID><methodID>AIC</methodID><horizontalSlowness><value>9.01779201064697</value></horizontalSlowness><backazimuth><value>31.412731861610695</value></backazimuth><phaseHint>P</phaseHint><evaluationMode>automatic</evaluationMode><comment><text>54.73892508804233</text><id>DFX:rectilinearity</id></comment><comment><text>48.5667955924667</text><id>SNR</id></comment></pick><pick publicID="de.gempa.tb1.Pick/20250415044705.694436.143563"><time><value>2025-04-15T04:46:58.758393Z</value></time><waveformID networkCode="CX" stationCode="PB07" channelCode="HHZ"/><filterID>ITAPER(4)&gt;&gt;BW(4,4,20)</filterID><methodID>AIC</methodID><horizontalSlowness><value>21.223497307679771</value></horizontalSlowness><backazimuth><value>99.30429196291439</value></backazimuth><phaseHint>P</phaseHint><evaluationMode>automatic</evaluationMode><comment><text>252.2208761903225</text><id>DFX:rectilinearity</id></comment><comment><text>46.54667410568452</text><id>SNR</id></comment></pick><pick publicID="de.gempa.tb1.Pick/20250415044706.283051.143565"><time><value>2025-04-15T04:46:59.750001Z</value></time><waveformID networkCode="CX" stationCode="PATCX" channelCode="HHZ"/><filterID>ITAPER(4)&gt;&gt;BW(4,4,20)</filterID><methodID>AIC</methodID><horizontalSlowness><value>22.630608875773497</value></horizontalSlowness><backazimuth><value>79.87609150356153</value></backazimuth><phaseHint>P</phaseHint><evaluationMode>automatic</evaluationMode><comment><text>199.92366224753175</text><id>DFX:rectilinearity</id></comment><comment><text>26.3934831016698</text><id>SNR</id></comment></pick><pick publicID="de.gempa.tb1.Pick/20250415044707.580218.143567"><time><value>2025-04-15T04:47:00.258394Z</value></time><waveformID networkCode="CX" stationCode="PB03" channelCode="HHZ"/><filterID>ITAPER(4)&gt;&gt;BW(4,4,20)</filterID><methodID>AIC</methodID><horizontalSlowness><value>22.4270215667336</value></horizontalSlowness><backazimuth><value>157.79975826818895</value></backazimuth><phaseHint>P</phaseHint><evaluationMode>automatic</evaluationMode><comment><text>10.910301229116792</text><id>DFX:rectilinearity</id></comment><comment><text>12.162543884731498</text><id>SNR</id></comment></pick><pick publicID="de.gempa.tb1.Pick/20250415044708.781151.143569"><time><value>2025-04-15T04:46:56.06Z</value></time><waveformID networkCode="CX" stationCode="PB09" channelCode="HHZ"/><filterID>ITAPER(4)&gt;&gt;BW(4,4,20)</filterID><methodID>AIC</methodID><horizontalSlowness><value>18.307601303240197</value></horizontalSlowness><backazimuth><value>307.1626458971084</value></backazimuth><phaseHint>P</phaseHint><evaluationMode>automatic</evaluationMode><comment><text>12.293029611391534</text><id>DFX:rectilinearity</id></comment><comment><text>40.095729225630677</text><id>SNR</id></comment></pick><pick publicID="de.gempa.tb1.Pick/20250415044711.648275.143571"><time><value>2025-04-15T04:47:06.408393Z</value></time><waveformID networkCode="CX" stationCode="PB01" channelCode="HHN"/><filterID>ITAPER(2)&gt;&gt;BW(3,3,20)</filterID><methodID>L2-AIC-GRID</methodID><horizontalSlowness><value>7.877446006341954</value></horizontalSlowness><backazimuth><value>353.06694041539504</value></backazimuth><phaseHint>S</phaseHint><evaluationMode>automatic</evaluationMode><comment><text>90.63817110225709</text><id>DFX:rectilinearity</id></comment><comment><text>de.gempa.tb1.Pick/20250415044700.60582.143558</text><id>RefPickID</id></comment><comment><text>6.549253161298914</text><id>SNR</id></comment></pick><pick publicID="de.gempa.tb1.Pick/20250415044713.51082.143572"><time><value>2025-04-15T04:47:06.86Z</value></time><waveformID networkCode="CX" stationCode="PSGCX" channelCode="HHZ"/><filterID>ITAPER(4)&gt;&gt;BW(4,4,20)</filterID><methodID>AIC</methodID><horizontalSlowness><value>20.422949970863613</value></horizontalSlowness><backazimuth><value>66.1658982078321</value></backazimuth><phaseHint>P</phaseHint><evaluationMode>automatic</evaluationMode><comment><text>12.387424199805857</text><id>DFX:rectilinearity</id></comment><comment><text>20.563692425132515</text><id>SNR</id></comment></pick><pick publicID="de.gempa.tb1.Pick/20250415044721.477671.143576"><time><value>2025-04-15T04:47:11.15Z</value></time><waveformID networkCode="CX" stationCode="PB09" channelCode="HHN"/><filterID>ITAPER(2)&gt;&gt;BW(3,3,20)</filterID><methodID>L2-AIC-GRID</methodID><horizontalSlowness><value>17.417546389071404</value></horizontalSlowness><backazimuth><value>336.70680374660117</value></backazimuth><phaseHint>S</phaseHint><evaluationMode>automatic</evaluationMode><comment><text>105.2738645811729</text><id>DFX:rectilinearity</id></comment><comment><text>de.gempa.tb1.Pick/20250415044708.781151.143569</text><id>RefPickID</id></comment><comment><text>5.424722024607141</text><id>SNR</id></comment></pick><origin publicID="de.gempa.tb1.Origin/20250415044721.480969.161134"><time><value>2025-04-15T04:46:36.329535Z</value><uncertainty>1.3479535579681396</uncertainty></time><latitude><value>-21.02396011352539</value><uncertainty>7.053422927856445</uncertainty></latitude><longitude><value>-68.93858337402344</value><uncertainty>18.602628707885742</uncertainty></longitude><depth><value>111.14787292480469</value><uncertainty>8.924388885498047</uncertainty></depth><depthType>from location</depthType><methodID>LOCSAT</methodID><earthModelID>iasp91_scanloc</earthModelID><quality><associatedPhaseCount>9</associatedPhaseCount><usedPhaseCount>9</usedPhaseCount><associatedStationCount>7</associatedStationCount><usedStationCount>7</usedStationCount><depthPhaseCount>0</depthPhaseCount><standardError>0.2355196067315762</standardError><azimuthalGap>238.40870666503906</azimuthalGap><maximumDistance>1.8030123710632324</maximumDistance><minimumDistance>0.513044536113739</minimumDistance><medianDistance>0.9408090114593506</medianDistance></quality><uncertainty><minHorizontalUncertainty>11.629566192626953</minHorizontalUncertainty><maxHorizontalUncertainty>41.045066833496094</maxHorizontalUncertainty><azimuthMaxHorizontalUncertainty>75.77902221679688</azimuthMaxHorizontalUncertainty><preferredDescription>horizontal uncertainty</preferredDescription></uncertainty><evaluationMode>automatic</evaluationMode><evaluationStatus>confirmed</evaluationStatus><comment><text>0.09</text><id>mismatchScore</id></comment><comment><text>mismatchScore</text><id>scevalMethod</id></comment><arrival><pickID>de.gempa.tb1.Pick/20250415044700.60582.143558</pickID><phase>P</phase><azimuth>267.76031494140625</azimuth><distance>0.513044536113739</distance><timeResidual>-0.1450519561767578</timeResidual><timeUsed>true</timeUsed><horizontalSlownessUsed>false</horizontalSlownessUsed><backazimuthUsed>false</backazimuthUsed><weight>1</weight></arrival><arrival><pickID>de.gempa.tb1.Pick/20250415044704.595793.143560</pickID><phase>P</phase><azimuth>251.59938049316406</azimuth><distance>0.9408090114593506</distance><timeResidual>0.08259201049804688</timeResidual><timeUsed>true</timeUsed><horizontalSlownessUsed>false</horizontalSlownessUsed><backazimuthUsed>false</backazimuthUsed><weight>1</weight></arrival><arrival><pickID>de.gempa.tb1.Pick/20250415044705.694436.143563</pickID><phase>P</phase><azimuth>231.4596862792969</azimuth><distance>1.1264809370040894</distance><timeResidual>-0.22507286071777344</timeResidual><timeUsed>true</timeUsed><horizontalSlownessUsed>false</horizontalSlownessUsed><backazimuthUsed>false</backazimuthUsed><weight>1</weight></arrival><arrival><pickID>de.gempa.tb1.Pick/20250415044706.283051.143565</pickID><phase>P</phase><azimuth>279.8852844238281</azimuth><distance>1.1530663967132568</distance><timeResidual>0.4735450744628906</timeResidual><timeUsed>true</timeUsed><horizontalSlownessUsed>false</horizontalSlownessUsed><backazimuthUsed>false</backazimuthUsed><weight>1</weight></arrival><arrival><pickID>de.gempa.tb1.Pick/20250415044707.580218.143567</pickID><phase>P</phase><azimuth>216.49546813964844</azimuth><distance>1.2705870866775513</distance><timeResidual>-0.3160820007324219</timeResidual><timeUsed>true</timeUsed><horizontalSlownessUsed>false</horizontalSlownessUsed><backazimuthUsed>false</backazimuthUsed><weight>1</weight></arrival><arrival><pickID>de.gempa.tb1.Pick/20250415044708.781151.143569</pickID><phase>P</phase><azimuth>200.13597106933594</azimuth><distance>0.8189390301704407</distance><timeResidual>0.17760086059570312</timeResidual><timeUsed>true</timeUsed><horizontalSlownessUsed>false</horizontalSlownessUsed><backazimuthUsed>false</backazimuthUsed><weight>1</weight></arrival><arrival><pickID>de.gempa.tb1.Pick/20250415044711.648275.143571</pickID><phase>S</phase><azimuth>267.76031494140625</azimuth><distance>0.513044536113739</distance><timeResidual>-0.1588115692138672</timeResidual><timeUsed>true</timeUsed><horizontalSlownessUsed>false</horizontalSlownessUsed><backazimuthUsed>false</backazimuthUsed><weight>1</weight></arrival><arrival><pickID>de.gempa.tb1.Pick/20250415044713.51082.143572</pickID><phase>P</phase><azimuth>321.7272644042969</azimuth><distance>1.8030123710632324</distance><timeResidual>-0.07401657104492188</timeResidual><timeUsed>true</timeUsed><horizontalSlownessUsed>false</horizontalSlownessUsed><backazimuthUsed>false</backazimuthUsed><weight>1</weight></arrival><arrival><pickID>de.gempa.tb1.Pick/20250415044721.477671.143576</pickID><phase>S</phase><azimuth>200.13597106933594</azimuth><distance>0.8189390301704407</distance><timeResidual>0.18523406982421875</timeResidual><timeUsed>true</timeUsed><horizontalSlownessUsed>false</horizontalSlownessUsed><backazimuthUsed>false</backazimuthUsed><weight>1</weight></arrival><magnitude publicID="de.gempa.tb1.Magnitude/20250415044725.943967.572510"><magnitude><value>2.1872976611020785</value></magnitude><type>M</type><methodID>weighted average</methodID><stationCount>6</stationCount></magnitude></origin><event publicID="gempa2025hklv"><preferredOriginID>de.gempa.tb1.Origin/20250415044721.480969.161134</preferredOriginID><preferredMagnitudeID>de.gempa.tb1.Magnitude/20250415044725.943967.572510</preferredMagnitudeID><description><text>Chile-Bolivia Border Region</text><type>region name</type></description><originReference>de.gempa.tb1.Origin/20250415044721.480969.161134</originReference></event></EventParameters></seiscomp>