<?xml version="1.0" encoding="UTF-8"?>
<seiscomp xmlns="http://geofon.gfz-potsdam.de/ns/seiscomp3-schema/0.13" version="0.13"><EventParameters><pick publicID="de.gempa.tb2.Pick/20250412083300.501762.81459"><time><value>2025-04-12T08:32:57.775Z</value></time><waveformID networkCode="CH" stationCode="EMING" channelCode="HHZ"/><filterID>ITAPER(4)&gt;&gt;BW(4,4,20)</filterID><methodID>AIC</methodID><phaseHint>P</phaseHint><evaluationMode>automatic</evaluationMode></pick><pick publicID="de.gempa.tb2.Pick/20250412083306.151113.81467"><time><value>2025-04-12T08:32:55.525Z</value></time><waveformID networkCode="CH" stationCode="SLE" channelCode="HHZ"/><filterID>ITAPER(4)&gt;&gt;BW(4,4,20)</filterID><methodID>AIC</methodID><phaseHint>P</phaseHint><evaluationMode>automatic</evaluationMode></pick><pick publicID="de.gempa.tb2.Pick/20250412083309.387344.81474"><time><value>2025-04-12T08:33:04.015Z</value></time><waveformID networkCode="CH" stationCode="SULZ" channelCode="HHN"/><filterID>RMHP(1)&gt;&gt;ITAPER(2)&gt;&gt;BW(4,3,20)</filterID><methodID>L2-AIC-GRID</methodID><phaseHint>S</phaseHint><evaluationMode>automatic</evaluationMode><comment><text>de.gempa.tb2.Pick/20250412083306.193487.81469</text><id>RefPickID</id></comment></pick><pick publicID="de.gempa.tb2.Pick/20250412083315.139932.81479"><time><value>2025-04-12T08:33:10.36Z</value></time><waveformID networkCode="CH" stationCode="BOURR" channelCode="HHZ"/><filterID>ITAPER(4)&gt;&gt;BW(4,4,20)</filterID><methodID>AIC</methodID><phaseHint>P</phaseHint><evaluationMode>automatic</evaluationMode></pick><pick publicID="de.gempa.tb2.Pick/20250412083320.206832.81486"><time><value>2025-04-12T08:33:17.78Z</value></time><waveformID networkCode="CH" stationCode="FUSIO" channelCode="HHZ"/><filterID>ITAPER(4)&gt;&gt;BW(4,4,20)</filterID><methodID>AIC</methodID><phaseHint>P</phaseHint><evaluationMode>automatic</evaluationMode></pick><pick publicID="de.gempa.tb2.Pick/20250412083323.809506.81489"><time><value>2025-04-12T08:33:19.54Z</value></time><waveformID networkCode="CH" stationCode="SIMPL" channelCode="HHZ"/><filterID>ITAPER(4)&gt;&gt;BW(4,4,20)</filterID><methodID>AIC</methodID><phaseHint>P</phaseHint><evaluationMode>automatic</evaluationMode></pick><origin publicID="de.gempa.tb2.Origin/20250412083323.821131.43975"><time><value>2025-04-12T08:32:52.081349Z</value><uncertainty>0.8233337998390198</uncertainty></time><latitude><value>47.82771301269531</value><uncertainty>6.842203617095947</uncertainty></latitude><longitude><value>8.400723457336426</value><uncertainty>4.4675540924072266</uncertainty></longitude><depth><value>3.817232847213745</value><uncertainty>3.22305965423584</uncertainty></depth><depthType>from location</depthType><methodID>LOCSAT</methodID><earthModelID>iasp91</earthModelID><quality><associatedPhaseCount>6</associatedPhaseCount><usedPhaseCount>6</usedPhaseCount><associatedStationCount>6</associatedStationCount><usedStationCount>6</usedStationCount><depthPhaseCount>0</depthPhaseCount><standardError>0.8712489085439178</standardError><azimuthalGap>195.46592712402344</azimuthalGap><maximumDistance>1.6100555658340454</maximumDistance><minimumDistance>0.08842185884714127</minimumDistance><medianDistance>0.9032220244407654</medianDistance></quality><uncertainty><minHorizontalUncertainty>6.764117240905762</minHorizontalUncertainty><maxHorizontalUncertainty>16.170856475830078</maxHorizontalUncertainty><azimuthMaxHorizontalUncertainty>152.47247314453125</azimuthMaxHorizontalUncertainty><preferredDescription>horizontal uncertainty</preferredDescription></uncertainty><evaluationMode>automatic</evaluationMode><arrival><pickID>de.gempa.tb2.Pick/20250412083300.501762.81459</pickID><phase>P</phase><azimuth>77.16558837890625</azimuth><distance>0.3078567087650299</distance><timeResidual>-0.6862258911132812</timeResidual><timeUsed>true</timeUsed><horizontalSlownessUsed>false</horizontalSlownessUsed><backazimuthUsed>false</backazimuthUsed><weight>1</weight></arrival><arrival><pickID>de.gempa.tb2.Pick/20250412083306.151113.81467</pickID><phase>P</phase><azimuth>135.63873291015625</azimuth><distance>0.08842185884714127</distance><timeResidual>1.117706298828125</timeResidual><timeUsed>true</timeUsed><horizontalSlownessUsed>false</horizontalSlownessUsed><backazimuthUsed>false</backazimuthUsed><weight>1</weight></arrival><arrival><pickID>de.gempa.tb2.Pick/20250412083309.387344.81474</pickID><phase>S</phase><azimuth>213.1519317626953</azimuth><distance>0.3583853542804718</distance><timeResidual>-0.4838733673095703</timeResidual><timeUsed>true</timeUsed><horizontalSlownessUsed>false</horizontalSlownessUsed><backazimuthUsed>false</backazimuthUsed><weight>1</weight></arrival><arrival><pickID>de.gempa.tb2.Pick/20250412083315.139932.81479</pickID><phase>P</phase><azimuth>241.6996612548828</azimuth><distance>0.9032220244407654</distance><timeResidual>0.8979501724243164</timeResidual><timeUsed>true</timeUsed><horizontalSlownessUsed>false</horizontalSlownessUsed><backazimuthUsed>false</backazimuthUsed><weight>1</weight></arrival><arrival><pickID>de.gempa.tb2.Pick/20250412083320.206832.81486</pickID><phase>P</phase><azimuth>172.472412109375</azimuth><distance>1.3851041793823242</distance><timeResidual>0.42474365234375</timeResidual><timeUsed>true</timeUsed><horizontalSlownessUsed>false</horizontalSlownessUsed><backazimuthUsed>false</backazimuthUsed><weight>1</weight></arrival><arrival><pickID>de.gempa.tb2.Pick/20250412083323.809506.81489</pickID><phase>P</phase><azimuth>189.4579620361328</azimuth><distance>1.6100555658340454</distance><timeResidual>-1.2702045440673828</timeResidual><timeUsed>true</timeUsed><horizontalSlownessUsed>false</horizontalSlownessUsed><backazimuthUsed>false</backazimuthUsed><weight>1</weight></arrival><magnitude publicID="de.gempa.tb2.Magnitude/20250412083333.154132.32066"><magnitude><value>1.8347076015197334</value></magnitude><type>M</type><methodID>weighted average</methodID><stationCount>5</stationCount></magnitude></origin><event publicID="gempa2025hffi"><preferredOriginID>de.gempa.tb2.Origin/20250412083323.821131.43975</preferredOriginID><preferredMagnitudeID>de.gempa.tb2.Magnitude/20250412083333.154132.32066</preferredMagnitudeID><description><text>Switzerland</text><type>region name</type></description><originReference>de.gempa.tb2.Origin/20250412083323.821131.43975</originReference></event></EventParameters></seiscomp>