<?xml version="1.0" encoding="UTF-8"?>
<seiscomp xmlns="http://geofon.gfz-potsdam.de/ns/seiscomp3-schema/0.13" version="0.13"><EventParameters><pick publicID="de.gempa.tb1.Pick/20250415025108.303144.245743"><time><value>2025-04-15T02:51:04.99Z</value></time><waveformID networkCode="CH" stationCode="FUORN" channelCode="HHZ"/><filterID>ITAPER(4)&gt;&gt;BW(4,4,20)</filterID><methodID>AIC</methodID><phaseHint>P</phaseHint><evaluationMode>automatic</evaluationMode></pick><pick publicID="de.gempa.tb1.Pick/20250415025109.04496.245745"><time><value>2025-04-15T02:51:06.695Z</value></time><waveformID networkCode="CH" stationCode="DAVOX" channelCode="HHZ"/><filterID>ITAPER(4)&gt;&gt;BW(4,4,20)</filterID><methodID>AIC</methodID><phaseHint>P</phaseHint><evaluationMode>automatic</evaluationMode></pick><pick publicID="de.gempa.tb1.Pick/20250415025111.147091.245747"><time><value>2025-04-15T02:51:09.16Z</value></time><waveformID networkCode="CH" stationCode="LIENZ" channelCode="HHZ"/><filterID>ITAPER(4)&gt;&gt;BW(4,4,20)</filterID><methodID>AIC</methodID><phaseHint>P</phaseHint><evaluationMode>automatic</evaluationMode></pick><pick publicID="de.gempa.tb1.Pick/20250415025116.61814.245751"><time><value>2025-04-15T02:51:14.015Z</value></time><waveformID networkCode="CH" stationCode="WILA" channelCode="HHZ"/><filterID>ITAPER(4)&gt;&gt;BW(4,4,20)</filterID><methodID>AIC</methodID><phaseHint>P</phaseHint><evaluationMode>automatic</evaluationMode></pick><pick publicID="de.gempa.tb1.Pick/20250415025117.069991.245753"><time><value>2025-04-15T02:51:12.185Z</value></time><waveformID networkCode="CH" stationCode="WALHA" channelCode="HHZ"/><filterID>ITAPER(4)&gt;&gt;BW(4,4,20)</filterID><methodID>AIC</methodID><phaseHint>P</phaseHint><evaluationMode>automatic</evaluationMode></pick><pick publicID="de.gempa.tb1.Pick/20250415025118.536127.245755"><time><value>2025-04-15T02:51:02.495Z</value></time><waveformID networkCode="GR" stationCode="GRB1" channelCode="BHZ"/><filterID>ITAPER(4)&gt;&gt;BW_HP(4,4)</filterID><methodID>AIC</methodID><phaseHint>P</phaseHint><evaluationMode>automatic</evaluationMode></pick><pick publicID="de.gempa.tb1.Pick/20250415025118.926297.245757"><time><value>2025-04-15T02:51:15.795Z</value></time><waveformID networkCode="CH" stationCode="TRULL" channelCode="HHZ"/><filterID>ITAPER(4)&gt;&gt;BW(4,4,20)</filterID><methodID>AIC</methodID><phaseHint>P</phaseHint><evaluationMode>automatic</evaluationMode></pick><origin publicID="de.gempa.tb1.Origin/20250415025118.929017.153654"><time><value>2025-04-15T02:50:19.246057Z</value><uncertainty>10.298867225646973</uncertainty></time><latitude><value>47.44523239135742</value><uncertainty>20.175519943237305</uncertainty></latitude><longitude><value>14.006410598754883</value><uncertainty>57.92513275146484</uncertainty></longitude><depth><value>190.25877380371094</value><uncertainty>95.79003143310547</uncertainty></depth><depthType>from location</depthType><methodID>LOCSAT</methodID><earthModelID>iasp91</earthModelID><quality><associatedPhaseCount>7</associatedPhaseCount><usedPhaseCount>7</usedPhaseCount><associatedStationCount>7</associatedStationCount><usedStationCount>7</usedStationCount><depthPhaseCount>0</depthPhaseCount><standardError>0.18864116142349377</standardError><azimuthalGap>291.4756164550781</azimuthalGap><maximumDistance>3.6123204231262207</maximumDistance><minimumDistance>2.5004191398620605</minimumDistance><medianDistance>3.07133674621582</medianDistance></quality><uncertainty><minHorizontalUncertainty>23.171228408813477</minHorizontalUncertainty><maxHorizontalUncertainty>129.4822998046875</maxHorizontalUncertainty><azimuthMaxHorizontalUncertainty>106.66761779785156</azimuthMaxHorizontalUncertainty><preferredDescription>horizontal uncertainty</preferredDescription></uncertainty><evaluationMode>automatic</evaluationMode><evaluationStatus>rejected</evaluationStatus><comment><text>0.75</text><id>mismatchScore</id></comment><comment><text>mismatchScore</text><id>scevalMethod</id></comment><arrival><pickID>de.gempa.tb1.Pick/20250415025108.303144.245743</pickID><phase>P</phase><azimuth>253.5028991699219</azimuth><distance>2.689677953720093</distance><timeResidual>0.29015350341796875</timeResidual><timeUsed>true</timeUsed><horizontalSlownessUsed>false</horizontalSlownessUsed><backazimuthUsed>false</backazimuthUsed><weight>1</weight></arrival><arrival><pickID>de.gempa.tb1.Pick/20250415025109.04496.245745</pickID><phase>P</phase><azimuth>258.2374267578125</azimuth><distance>2.89570426940918</distance><timeResidual>-0.394744873046875</timeResidual><timeUsed>true</timeUsed><horizontalSlownessUsed>false</horizontalSlownessUsed><backazimuthUsed>false</backazimuthUsed><weight>1</weight></arrival><arrival><pickID>de.gempa.tb1.Pick/20250415025111.147091.245747</pickID><phase>P</phase><azimuth>268.8449401855469</azimuth><distance>3.07133674621582</distance><timeResidual>-0.011486053466796875</timeResidual><timeUsed>true</timeUsed><horizontalSlownessUsed>false</horizontalSlownessUsed><backazimuthUsed>false</backazimuthUsed><weight>1</weight></arrival><arrival><pickID>de.gempa.tb1.Pick/20250415025116.61814.245751</pickID><phase>P</phase><azimuth>271.3662414550781</azimuth><distance>3.4614174365997314</distance><timeResidual>0.09164810180664062</timeResidual><timeUsed>true</timeUsed><horizontalSlownessUsed>false</horizontalSlownessUsed><backazimuthUsed>false</backazimuthUsed><weight>1</weight></arrival><arrival><pickID>de.gempa.tb1.Pick/20250415025117.069991.245753</pickID><phase>P</phase><azimuth>277.1147155761719</azimuth><distance>3.3186752796173096</distance><timeResidual>0.013179779052734375</timeResidual><timeUsed>true</timeUsed><horizontalSlownessUsed>false</horizontalSlownessUsed><backazimuthUsed>false</backazimuthUsed><weight>1</weight></arrival><arrival><pickID>de.gempa.tb1.Pick/20250415025118.536127.245755</pickID><phase>P</phase><azimuth>322.02728271484375</azimuth><distance>2.5004191398620605</distance><timeResidual>-0.007236480712890625</timeResidual><timeUsed>true</timeUsed><horizontalSlownessUsed>false</horizontalSlownessUsed><backazimuthUsed>false</backazimuthUsed><weight>1</weight></arrival><arrival><pickID>de.gempa.tb1.Pick/20250415025118.926297.245757</pickID><phase>P</phase><azimuth>275.1868896484375</azimuth><distance>3.6123204231262207</distance><timeResidual>0.018123626708984375</timeResidual><timeUsed>true</timeUsed><horizontalSlownessUsed>false</horizontalSlownessUsed><backazimuthUsed>false</backazimuthUsed><weight>1</weight></arrival><magnitude publicID="de.gempa.tb1.Magnitude/20250415025216.265798.564165"><magnitude><value>3.2435290588624586</value></magnitude><type>M</type><methodID>weighted average</methodID><stationCount>5</stationCount></magnitude></origin><event publicID="gempa2025hkhy"><preferredOriginID>de.gempa.tb1.Origin/20250415025118.929017.153654</preferredOriginID><preferredMagnitudeID>de.gempa.tb1.Magnitude/20250415025216.265798.564165</preferredMagnitudeID><type>not existing</type><typeCertainty>suspected</typeCertainty><description><text>Austria</text><type>region name</type></description><originReference>de.gempa.tb1.Origin/20250415025118.929017.153654</originReference></event></EventParameters></seiscomp>