<?xml version="1.0" encoding="UTF-8"?>
<seiscomp xmlns="http://geofon.gfz-potsdam.de/ns/seiscomp3-schema/0.13" version="0.13"><EventParameters><pick publicID="de.gempa.tb1.Pick/20250412005538.607804.121071"><time><value>2025-04-12T00:55:33.46Z</value></time><waveformID networkCode="CX" stationCode="PSGCX" channelCode="HHZ"/><filterID>ITAPER(4)&gt;&gt;BW(4,4,20)</filterID><methodID>AIC</methodID><horizontalSlowness><value>3.468352789774247</value></horizontalSlowness><backazimuth><value>1.6318639528005008</value></backazimuth><phaseHint>P</phaseHint><evaluationMode>automatic</evaluationMode><comment><text>1526.3677533576365</text><id>DFX:rectilinearity</id></comment><comment><text>3447.8307428362114</text><id>SNR</id></comment></pick><pick publicID="de.gempa.tb1.Pick/20250412005548.581374.121073"><time><value>2025-04-12T00:55:41.48Z</value></time><waveformID networkCode="CX" stationCode="PSGCX" channelCode="HHN"/><filterID>ITAPER(2)&gt;&gt;BW(3,3,20)</filterID><methodID>L2-AIC-GRID</methodID><horizontalSlowness><value>22.231474175860669</value></horizontalSlowness><backazimuth><value>84.05547593250516</value></backazimuth><phaseHint>S</phaseHint><evaluationMode>automatic</evaluationMode><comment><text>273223.1626774087</text><id>DFX:rectilinearity</id></comment><comment><text>de.gempa.tb1.Pick/20250412005538.607804.121071</text><id>RefPickID</id></comment><comment><text>24.39053564504343</text><id>SNR</id></comment></pick><pick publicID="de.gempa.tb1.Pick/20250412005549.747324.121074"><time><value>2025-04-12T00:55:42.768393Z</value></time><waveformID networkCode="CX" stationCode="PB08" channelCode="HHZ"/><filterID>ITAPER(4)&gt;&gt;BW(4,4,20)</filterID><methodID>AIC</methodID><horizontalSlowness><value>11.628131306978576</value></horizontalSlowness><backazimuth><value>252.38114340939217</value></backazimuth><phaseHint>P</phaseHint><evaluationMode>automatic</evaluationMode><comment><text>82.5550297267592</text><id>DFX:rectilinearity</id></comment><comment><text>89.15667014667137</text><id>SNR</id></comment></pick><pick publicID="de.gempa.tb1.Pick/20250412005554.293069.121078"><time><value>2025-04-12T00:55:46.999999Z</value></time><waveformID networkCode="CX" stationCode="PATCX" channelCode="HHZ"/><filterID>ITAPER(4)&gt;&gt;BW(4,4,20)</filterID><methodID>AIC</methodID><horizontalSlowness><value>20.860388804146577</value></horizontalSlowness><backazimuth><value>318.73509055856016</value></backazimuth><phaseHint>P</phaseHint><evaluationMode>automatic</evaluationMode><comment><text>245.4531509306915</text><id>DFX:rectilinearity</id></comment><comment><text>15.350874531017814</text><id>SNR</id></comment></pick><pick publicID="de.gempa.tb1.Pick/20250412005556.601528.121080"><time><value>2025-04-12T00:55:50.778393Z</value></time><waveformID networkCode="CX" stationCode="PB01" channelCode="HHZ"/><filterID>ITAPER(4)&gt;&gt;BW(4,4,20)</filterID><methodID>AIC</methodID><horizontalSlowness><value>18.433436860482878</value></horizontalSlowness><backazimuth><value>336.9499012577885</value></backazimuth><phaseHint>P</phaseHint><evaluationMode>automatic</evaluationMode><comment><text>23.008134143579735</text><id>DFX:rectilinearity</id></comment><comment><text>34.051901752527876</text><id>SNR</id></comment></pick><pick publicID="de.gempa.tb1.Pick/20250412005600.613144.121083"><time><value>2025-04-12T00:55:54.428393Z</value></time><waveformID networkCode="CX" stationCode="PB02" channelCode="HHZ"/><filterID>ITAPER(4)&gt;&gt;BW(4,4,20)</filterID><methodID>AIC</methodID><horizontalSlowness><value>9.690901594913809</value></horizontalSlowness><backazimuth><value>14.474711845153678</value></backazimuth><phaseHint>P</phaseHint><evaluationMode>automatic</evaluationMode><comment><text>223.40796795230094</text><id>DFX:rectilinearity</id></comment><comment><text>19.700855849772626</text><id>SNR</id></comment></pick><pick publicID="de.gempa.tb1.Pick/20250412005604.864525.121085"><time><value>2025-04-12T00:55:57.928393Z</value></time><waveformID networkCode="CX" stationCode="PB08" channelCode="HHN"/><filterID>ITAPER(2)&gt;&gt;BW(3,3,20)</filterID><methodID>L2-AIC-GRID</methodID><horizontalSlowness><value>15.931394233781054</value></horizontalSlowness><backazimuth><value>204.96621213590436</value></backazimuth><phaseHint>S</phaseHint><evaluationMode>automatic</evaluationMode><comment><text>9625.270708799484</text><id>DFX:rectilinearity</id></comment><comment><text>de.gempa.tb1.Pick/20250412005549.747324.121074</text><id>RefPickID</id></comment><comment><text>21.83968192243594</text><id>SNR</id></comment></pick><pick publicID="de.gempa.tb1.Pick/20250412005607.832928.121087"><time><value>2025-04-12T00:56:00.258394Z</value></time><waveformID networkCode="CX" stationCode="PB07" channelCode="HHZ"/><filterID>ITAPER(4)&gt;&gt;BW(4,4,20)</filterID><methodID>AIC</methodID><horizontalSlowness><value>19.742084212396353</value></horizontalSlowness><backazimuth><value>17.50422680094374</value></backazimuth><phaseHint>P</phaseHint><evaluationMode>automatic</evaluationMode><comment><text>244.0710761445844</text><id>DFX:rectilinearity</id></comment><comment><text>22.365876548425096</text><id>SNR</id></comment></pick><pick publicID="de.gempa.tb1.Pick/20250412005610.571606.121090"><time><value>2025-04-12T00:56:03.11Z</value></time><waveformID networkCode="CX" stationCode="PB09" channelCode="HHZ"/><filterID>ITAPER(4)&gt;&gt;BW(4,4,20)</filterID><methodID>AIC</methodID><horizontalSlowness><value>17.07179446619523</value></horizontalSlowness><backazimuth><value>55.31460958022032</value></backazimuth><phaseHint>P</phaseHint><evaluationMode>automatic</evaluationMode><comment><text>18.171063443371754</text><id>DFX:rectilinearity</id></comment><comment><text>12.275488644642623</text><id>SNR</id></comment></pick><pick publicID="de.gempa.tb1.Pick/20250412005614.550128.121092"><time><value>2025-04-12T00:56:05.518393Z</value></time><waveformID networkCode="CX" stationCode="PB03" channelCode="HHZ"/><filterID>ITAPER(4)&gt;&gt;BW(4,4,20)</filterID><methodID>AIC</methodID><horizontalSlowness><value>14.207432268189875</value></horizontalSlowness><backazimuth><value>22.603524206506194</value></backazimuth><phaseHint>P</phaseHint><evaluationMode>automatic</evaluationMode><comment><text>22.1169736975238</text><id>DFX:rectilinearity</id></comment><comment><text>10.751233383113229</text><id>SNR</id></comment></pick><pick publicID="de.gempa.tb1.Pick/20250412005617.253228.121094"><time><value>2025-04-12T00:56:04.049999Z</value></time><waveformID networkCode="CX" stationCode="PATCX" channelCode="HHN"/><filterID>ITAPER(2)&gt;&gt;BW(3,3,20)</filterID><methodID>L2-AIC-GRID</methodID><horizontalSlowness><value>10.17331240136232</value></horizontalSlowness><backazimuth><value>159.59219030021222</value></backazimuth><phaseHint>S</phaseHint><evaluationMode>automatic</evaluationMode><comment><text>414.5585258596202</text><id>DFX:rectilinearity</id></comment><comment><text>de.gempa.tb1.Pick/20250412005554.293069.121078</text><id>RefPickID</id></comment><comment><text>7.414149649874643</text><id>SNR</id></comment></pick><pick publicID="de.gempa.tb1.Pick/20250412005619.659296.121096"><time><value>2025-04-12T00:56:12.108393Z</value></time><waveformID networkCode="CX" stationCode="PB01" channelCode="HHN"/><filterID>ITAPER(2)&gt;&gt;BW(3,3,20)</filterID><methodID>L2-AIC-GRID</methodID><horizontalSlowness><value>16.43878497770189</value></horizontalSlowness><backazimuth><value>145.2821931892974</value></backazimuth><phaseHint>S</phaseHint><evaluationMode>automatic</evaluationMode><comment><text>947.531977645586</text><id>DFX:rectilinearity</id></comment><comment><text>de.gempa.tb1.Pick/20250412005556.601528.121080</text><id>RefPickID</id></comment><comment><text>7.258102904438857</text><id>SNR</id></comment></pick><pick publicID="de.gempa.tb1.Pick/20250412005626.851652.121100"><time><value>2025-04-12T00:56:17.298393Z</value></time><waveformID networkCode="CX" stationCode="PB02" channelCode="HHN"/><filterID>ITAPER(2)&gt;&gt;BW(3,3,20)</filterID><methodID>L2-AIC-GRID</methodID><horizontalSlowness><value>16.035590028945624</value></horizontalSlowness><backazimuth><value>293.8549995625131</value></backazimuth><phaseHint>S</phaseHint><evaluationMode>automatic</evaluationMode><comment><text>2730.3419128335327</text><id>DFX:rectilinearity</id></comment><comment><text>de.gempa.tb1.Pick/20250412005600.613144.121083</text><id>RefPickID</id></comment><comment><text>5.702469073716801</text><id>SNR</id></comment></pick><origin publicID="de.gempa.tb1.Origin/20250412005626.855593.70457"><time><value>2025-04-12T00:55:25.059132Z</value><uncertainty>0.9649108648300171</uncertainty></time><latitude><value>-19.473793029785156</value><uncertainty>5.668655395507812</uncertainty></latitude><longitude><value>-70.00614166259766</value><uncertainty>5.34907341003418</uncertainty></longitude><depth><value>57.84139633178711</value><uncertainty>6.066105842590332</uncertainty></depth><depthType>from location</depthType><methodID>LOCSAT</methodID><earthModelID>iasp91_scanloc</earthModelID><quality><associatedPhaseCount>13</associatedPhaseCount><usedPhaseCount>13</usedPhaseCount><associatedStationCount>8</associatedStationCount><usedStationCount>8</usedStationCount><depthPhaseCount>0</depthPhaseCount><standardError>0.6818095467018878</standardError><azimuthalGap>267.8128204345703</azimuthalGap><maximumDistance>2.572659730911255</maximumDistance><minimumDistance>0.16498611867427826</minimumDistance><medianDistance>1.6356204748153687</medianDistance></quality><uncertainty><minHorizontalUncertainty>11.47050666809082</minHorizontalUncertainty><maxHorizontalUncertainty>12.156659126281738</maxHorizontalUncertainty><azimuthMaxHorizontalUncertainty>1.3981306552886963</azimuthMaxHorizontalUncertainty><preferredDescription>horizontal uncertainty</preferredDescription></uncertainty><evaluationMode>automatic</evaluationMode><evaluationStatus>confirmed</evaluationStatus><comment><text>0.00</text><id>mismatchScore</id></comment><comment><text>mismatchScore</text><id>scevalMethod</id></comment><arrival><pickID>de.gempa.tb1.Pick/20250412005538.607804.121071</pickID><phase>P</phase><azimuth>221.9154510498047</azimuth><distance>0.16498611867427826</distance><timeResidual>-0.6250934600830078</timeResidual><timeUsed>true</timeUsed><horizontalSlownessUsed>false</horizontalSlownessUsed><backazimuthUsed>false</backazimuthUsed><weight>1</weight></arrival><arrival><pickID>de.gempa.tb1.Pick/20250412005548.581374.121073</pickID><phase>S</phase><azimuth>221.9154510498047</azimuth><distance>0.16498611867427826</distance><timeResidual>0.6087446212768555</timeResidual><timeUsed>true</timeUsed><horizontalSlownessUsed>false</horizontalSlownessUsed><backazimuthUsed>false</backazimuthUsed><weight>1</weight></arrival><arrival><pickID>de.gempa.tb1.Pick/20250412005549.747324.121074</pickID><phase>P</phase><azimuth>129.728271484375</azimuth><distance>1.041818380355835</distance><timeResidual>-0.8131265640258789</timeResidual><timeUsed>true</timeUsed><horizontalSlownessUsed>false</horizontalSlownessUsed><backazimuthUsed>false</backazimuthUsed><weight>1</weight></arrival><arrival><pickID>de.gempa.tb1.Pick/20250412005554.293069.121078</pickID><phase>P</phase><azimuth>185.84915161132812</azimuth><distance>1.347094178199768</distance><timeResidual>-0.6413812637329102</timeResidual><timeUsed>true</timeUsed><horizontalSlownessUsed>false</horizontalSlownessUsed><backazimuthUsed>false</backazimuthUsed><weight>1</weight></arrival><arrival><pickID>de.gempa.tb1.Pick/20250412005556.601528.121080</pickID><phase>P</phase><azimuth>162.76478576660156</azimuth><distance>1.6356204748153687</distance><timeResidual>-0.7553262710571289</timeResidual><timeUsed>true</timeUsed><horizontalSlownessUsed>false</horizontalSlownessUsed><backazimuthUsed>false</backazimuthUsed><weight>1</weight></arrival><arrival><pickID>de.gempa.tb1.Pick/20250412005600.613144.121083</pickID><phase>P</phase><azimuth>176.7998046875</azimuth><distance>1.8394606113433838</distance><timeResidual>0.12816524505615234</timeResidual><timeUsed>true</timeUsed><horizontalSlownessUsed>false</horizontalSlownessUsed><backazimuthUsed>false</backazimuthUsed><weight>1</weight></arrival><arrival><pickID>de.gempa.tb1.Pick/20250412005604.864525.121085</pickID><phase>S</phase><azimuth>129.728271484375</azimuth><distance>1.041818380355835</distance><timeResidual>0.16115474700927734</timeResidual><timeUsed>true</timeUsed><horizontalSlownessUsed>false</horizontalSlownessUsed><backazimuthUsed>false</backazimuthUsed><weight>1</weight></arrival><arrival><pickID>de.gempa.tb1.Pick/20250412005607.832928.121087</pickID><phase>P</phase><azimuth>177.15045166015625</azimuth><distance>2.2443153858184814</distance><timeResidual>0.4428529739379883</timeResidual><timeUsed>true</timeUsed><horizontalSlownessUsed>false</horizontalSlownessUsed><backazimuthUsed>false</backazimuthUsed><weight>1</weight></arrival><arrival><pickID>de.gempa.tb1.Pick/20250412005610.571606.121090</pickID><phase>P</phase><azimuth>162.92236328125</azimuth><distance>2.4191672801971436</distance><timeResidual>0.908228874206543</timeResidual><timeUsed>true</timeUsed><horizontalSlownessUsed>false</horizontalSlownessUsed><backazimuthUsed>false</backazimuthUsed><weight>1</weight></arrival><arrival><pickID>de.gempa.tb1.Pick/20250412005614.550128.121092</pickID><phase>P</phase><azimuth>174.7626495361328</azimuth><distance>2.572659730911255</distance><timeResidual>1.2198915481567383</timeResidual><timeUsed>true</timeUsed><horizontalSlownessUsed>false</horizontalSlownessUsed><backazimuthUsed>false</backazimuthUsed><weight>1</weight></arrival><arrival><pickID>de.gempa.tb1.Pick/20250412005617.253228.121094</pickID><phase>S</phase><azimuth>185.84915161132812</azimuth><distance>1.347094178199768</distance><timeResidual>-0.9981851577758789</timeResidual><timeUsed>true</timeUsed><horizontalSlownessUsed>false</horizontalSlownessUsed><backazimuthUsed>false</backazimuthUsed><weight>1</weight></arrival><arrival><pickID>de.gempa.tb1.Pick/20250412005619.659296.121096</pickID><phase>S</phase><azimuth>162.76478576660156</azimuth><distance>1.6356204748153687</distance><timeResidual>0.07093143463134766</timeResidual><timeUsed>true</timeUsed><horizontalSlownessUsed>false</horizontalSlownessUsed><backazimuthUsed>false</backazimuthUsed><weight>1</weight></arrival><arrival><pickID>de.gempa.tb1.Pick/20250412005626.851652.121100</pickID><phase>S</phase><azimuth>176.7998046875</azimuth><distance>1.8394606113433838</distance><timeResidual>0.29312992095947266</timeResidual><timeUsed>true</timeUsed><horizontalSlownessUsed>false</horizontalSlownessUsed><backazimuthUsed>false</backazimuthUsed><weight>1</weight></arrival><magnitude publicID="de.gempa.tb1.Magnitude/20250412005626.863928.159621"><magnitude><value>2.7201399403400166</value></magnitude><type>M</type><methodID>weighted average</methodID><stationCount>6</stationCount></magnitude></origin><event publicID="gempa2025heqb"><preferredOriginID>de.gempa.tb1.Origin/20250412005626.855593.70457</preferredOriginID><preferredMagnitudeID>de.gempa.tb1.Magnitude/20250412005626.863928.159621</preferredMagnitudeID><description><text>Near Coast of Northern Chile</text><type>region name</type></description><originReference>de.gempa.tb1.Origin/20250412005626.855593.70457</originReference></event></EventParameters></seiscomp>