<?xml version="1.0" encoding="UTF-8"?>
<seiscomp xmlns="http://geofon.gfz-potsdam.de/ns/seiscomp3-schema/0.13" version="0.13"><EventParameters><pick publicID="de.gempa.tb1.Pick/20250412201813.183073.188759"><time><value>2025-04-12T20:17:09.28Z</value></time><waveformID networkCode="SX" stationCode="LEUT" channelCode="HHZ"/><filterID>ITAPER(2)&gt;&gt;BW(3,3,20)</filterID><methodID>AIC</methodID><horizontalSlowness><value>22.73242883399233</value></horizontalSlowness><backazimuth><value>251.9058002048766</value></backazimuth><phaseHint>P</phaseHint><evaluationMode>automatic</evaluationMode><comment><text>3.430533943448049</text><id>DFX:rectilinearity</id></comment></pick><pick publicID="de.gempa.tb1.Pick/20250412201813.783439.188778"><time><value>2025-04-12T20:17:04.5875Z</value></time><waveformID networkCode="SX" stationCode="WERN" channelCode="HHZ"/><filterID>ITAPER(2)&gt;&gt;BW(3,3,20)</filterID><methodID>AIC</methodID><horizontalSlowness><value>22.850048871468385</value></horizontalSlowness><backazimuth><value>244.7698678029844</value></backazimuth><phaseHint>P</phaseHint><evaluationMode>automatic</evaluationMode><comment><text>37.830325635829375</text><id>DFX:rectilinearity</id></comment></pick><pick publicID="de.gempa.tb1.Pick/20250412201813.827322.188784"><time><value>2025-04-12T20:17:05.52Z</value></time><waveformID networkCode="SX" stationCode="GUNZ" channelCode="HHZ"/><filterID>ITAPER(2)&gt;&gt;BW(3,3,20)</filterID><methodID>AIC</methodID><horizontalSlowness><value>22.212314366485884</value></horizontalSlowness><backazimuth><value>279.1790915401969</value></backazimuth><phaseHint>P</phaseHint><evaluationMode>automatic</evaluationMode><comment><text>16.091850907248748</text><id>DFX:rectilinearity</id></comment></pick><pick publicID="de.gempa.tb1.Pick/20250412201813.862944.188789"><time><value>2025-04-12T20:17:05.85Z</value></time><waveformID networkCode="SX" stationCode="MULD" channelCode="HHZ"/><filterID>ITAPER(2)&gt;&gt;BW(3,3,20)</filterID><methodID>AIC</methodID><horizontalSlowness><value>22.370173542512056</value></horizontalSlowness><backazimuth><value>165.22529705750452</value></backazimuth><phaseHint>P</phaseHint><evaluationMode>automatic</evaluationMode><comment><text>9.772116567381783</text><id>DFX:rectilinearity</id></comment></pick><pick publicID="de.gempa.tb1.Pick/20250412201813.887731.188794"><time><value>2025-04-12T20:17:06.0775Z</value></time><waveformID networkCode="SX" stationCode="WERN" channelCode="HHN"/><filterID>ITAPER(3)&gt;&gt;BW(4,3,10)</filterID><methodID>L2-AIC-GRID</methodID><horizontalSlowness><value>22.896282613095725</value></horizontalSlowness><backazimuth><value>250.34400890696165</value></backazimuth><phaseHint>S</phaseHint><evaluationMode>automatic</evaluationMode><comment><text>34.63778605419295</text><id>DFX:rectilinearity</id></comment><comment><text>de.gempa.tb1.Pick/20250412201813.783439.188778</text><id>RefPickID</id></comment></pick><pick publicID="de.gempa.tb1.Pick/20250412201813.889172.188795"><time><value>2025-04-12T20:17:07.55Z</value></time><waveformID networkCode="SX" stationCode="GUNZ" channelCode="HHN"/><filterID>ITAPER(3)&gt;&gt;BW(4,3,10)</filterID><methodID>L2-AIC-GRID</methodID><horizontalSlowness><value>22.19089711520724</value></horizontalSlowness><backazimuth><value>279.11222814935525</value></backazimuth><phaseHint>S</phaseHint><evaluationMode>automatic</evaluationMode><comment><text>16.111155604204843</text><id>DFX:rectilinearity</id></comment><comment><text>de.gempa.tb1.Pick/20250412201813.827322.188784</text><id>RefPickID</id></comment></pick><pick publicID="de.gempa.tb1.Pick/20250412201813.93536.188797"><time><value>2025-04-12T20:17:09.56Z</value></time><waveformID networkCode="SX" stationCode="WERD" channelCode="HHN"/><filterID>ITAPER(3)&gt;&gt;BW(4,3,10)</filterID><methodID>L2-AIC-GRID</methodID><horizontalSlowness><value>18.562547119034551</value></horizontalSlowness><backazimuth><value>52.16100351102131</value></backazimuth><phaseHint>S</phaseHint><evaluationMode>automatic</evaluationMode><comment><text>21.54495523239713</text><id>DFX:rectilinearity</id></comment><comment><text>de.gempa.tb1.Pick/20250412201813.688307.188771</text><id>RefPickID</id></comment></pick><pick publicID="de.gempa.tb1.Pick/20250412201813.948921.188798"><time><value>2025-04-12T20:17:11.05Z</value></time><waveformID networkCode="SX" stationCode="SCHF" channelCode="HHZ"/><filterID>ITAPER(2)&gt;&gt;BW(3,3,20)</filterID><methodID>AIC</methodID><horizontalSlowness><value>21.560258827368525</value></horizontalSlowness><backazimuth><value>125.76830930461094</value></backazimuth><phaseHint>P</phaseHint><evaluationMode>automatic</evaluationMode><comment><text>4.506215801102629</text><id>DFX:rectilinearity</id></comment></pick><pick publicID="de.gempa.tb1.Pick/20250412201814.022683.188804"><time><value>2025-04-12T20:17:08.18Z</value></time><waveformID networkCode="SX" stationCode="MULD" channelCode="HHN"/><filterID>ITAPER(3)&gt;&gt;BW(4,3,10)</filterID><methodID>L2-AIC-GRID</methodID><horizontalSlowness><value>22.516049173669956</value></horizontalSlowness><backazimuth><value>165.99492848281096</value></backazimuth><phaseHint>S</phaseHint><evaluationMode>automatic</evaluationMode><comment><text>8.260987663369363</text><id>DFX:rectilinearity</id></comment><comment><text>de.gempa.tb1.Pick/20250412201813.862944.188789</text><id>RefPickID</id></comment></pick><origin publicID="de.gempa.tb1.Origin/20250412201814.103103.123419"><time><value>2025-04-12T20:17:02.925737Z</value><uncertainty>1.0920426845550537</uncertainty></time><latitude><value>50.30536651611328</value><uncertainty>4.1437087059021</uncertainty></latitude><longitude><value>12.437044143676758</value><uncertainty>8.621700286865234</uncertainty></longitude><depth><value>5.774253368377686</value><uncertainty>9.399323463439941</uncertainty></depth><depthType>from location</depthType><methodID>LOCSAT</methodID><earthModelID>iasp91</earthModelID><quality><associatedPhaseCount>9</associatedPhaseCount><usedPhaseCount>9</usedPhaseCount><associatedStationCount>6</associatedStationCount><usedStationCount>6</usedStationCount><depthPhaseCount>0</depthPhaseCount><standardError>0.18197658167828226</standardError><azimuthalGap>235.0284299850464</azimuthalGap><maximumDistance>0.3729326128959656</maximumDistance><minimumDistance>0.043027933686971664</minimumDistance><medianDistance>0.10865861922502518</medianDistance></quality><uncertainty><minHorizontalUncertainty>5.316515922546387</minHorizontalUncertainty><maxHorizontalUncertainty>19.81074333190918</maxHorizontalUncertainty><azimuthMaxHorizontalUncertainty>111.90350341796875</azimuthMaxHorizontalUncertainty><preferredDescription>horizontal uncertainty</preferredDescription></uncertainty><evaluationMode>automatic</evaluationMode><evaluationStatus>confirmed</evaluationStatus><comment><text>0.00</text><id>mismatchScore</id></comment><comment><text>mismatchScore</text><id>scevalMethod</id></comment><arrival><pickID>de.gempa.tb1.Pick/20250412201813.183073.188759</pickID><phase>P</phase><azimuth>10.281659126281738</azimuth><distance>0.30717578530311584</distance><timeResidual>-0.21774601936340332</timeResidual><timeUsed>true</timeUsed><horizontalSlownessUsed>false</horizontalSlownessUsed><backazimuthUsed>false</backazimuthUsed><weight>1</weight></arrival><arrival><pickID>de.gempa.tb1.Pick/20250412201813.783439.188778</pickID><phase>P</phase><azimuth>245.3100891113281</azimuth><distance>0.043027933686971664</distance><timeResidual>-0.11389052867889404</timeResidual><timeUsed>true</timeUsed><horizontalSlownessUsed>false</horizontalSlownessUsed><backazimuthUsed>false</backazimuthUsed><weight>1</weight></arrival><arrival><pickID>de.gempa.tb1.Pick/20250412201813.827322.188784</pickID><phase>P</phase><azimuth>310.7799987792969</azimuth><distance>0.0891837552189827</distance><timeResidual>-0.019434690475463867</timeResidual><timeUsed>true</timeUsed><horizontalSlownessUsed>false</horizontalSlownessUsed><backazimuthUsed>false</backazimuthUsed><weight>1</weight></arrival><arrival><pickID>de.gempa.tb1.Pick/20250412201813.862944.188789</pickID><phase>P</phase><azimuth>348.7459716796875</azimuth><distance>0.10865861922502518</distance><timeResidual>-0.04300045967102051</timeResidual><timeUsed>true</timeUsed><horizontalSlownessUsed>false</horizontalSlownessUsed><backazimuthUsed>false</backazimuthUsed><weight>1</weight></arrival><arrival><pickID>de.gempa.tb1.Pick/20250412201813.887731.188794</pickID><phase>S</phase><azimuth>245.3100891113281</azimuth><distance>0.043027933686971664</distance><timeResidual>0.07968592643737793</timeResidual><timeUsed>true</timeUsed><horizontalSlownessUsed>false</horizontalSlownessUsed><backazimuthUsed>false</backazimuthUsed><weight>1</weight></arrival><arrival><pickID>de.gempa.tb1.Pick/20250412201813.889172.188795</pickID><phase>S</phase><azimuth>310.7799987792969</azimuth><distance>0.0891837552189827</distance><timeResidual>0.1047828197479248</timeResidual><timeUsed>true</timeUsed><horizontalSlownessUsed>false</horizontalSlownessUsed><backazimuthUsed>false</backazimuthUsed><weight>1</weight></arrival><arrival><pickID>de.gempa.tb1.Pick/20250412201813.93536.188797</pickID><phase>S</phase><azimuth>329.80615234375</azimuth><distance>0.16531157493591309</distance><timeResidual>-0.2726905345916748</timeResidual><timeUsed>true</timeUsed><horizontalSlownessUsed>false</horizontalSlownessUsed><backazimuthUsed>false</backazimuthUsed><weight>1</weight></arrival><arrival><pickID>de.gempa.tb1.Pick/20250412201813.948921.188798</pickID><phase>P</phase><azimuth>356.6801452636719</azimuth><distance>0.3729326128959656</distance><timeResidual>0.3582298755645752</timeResidual><timeUsed>true</timeUsed><horizontalSlownessUsed>false</horizontalSlownessUsed><backazimuthUsed>false</backazimuthUsed><weight>1</weight></arrival><arrival><pickID>de.gempa.tb1.Pick/20250412201814.022683.188804</pickID><phase>S</phase><azimuth>348.7459716796875</azimuth><distance>0.10865861922502518</distance><timeResidual>0.12413740158081055</timeResidual><timeUsed>true</timeUsed><horizontalSlownessUsed>false</horizontalSlownessUsed><backazimuthUsed>false</backazimuthUsed><weight>1</weight></arrival><magnitude publicID="de.gempa.tb1.Magnitude/20250412201836.137988.278554"><magnitude><value>0.14356537764354743</value></magnitude><type>M</type><methodID>weighted average</methodID><stationCount>5</stationCount></magnitude></origin><event publicID="gempa2025hgcu"><preferredOriginID>de.gempa.tb1.Origin/20250412201814.103103.123419</preferredOriginID><preferredMagnitudeID>de.gempa.tb1.Magnitude/20250412201836.137988.278554</preferredMagnitudeID><description><text>Germany</text><type>region name</type></description><originReference>de.gempa.tb1.Origin/20250412201814.103103.123419</originReference></event></EventParameters></seiscomp>