<?xml version="1.0" encoding="UTF-8"?>
<seiscomp xmlns="http://geofon.gfz-potsdam.de/ns/seiscomp3-schema/0.13" version="0.13"><EventParameters><pick publicID="de.gempa.tb1.Pick/20250412000100.778578.120856"><time><value>2025-04-12T00:00:52.71Z</value></time><waveformID networkCode="CX" stationCode="PB19" channelCode="HHZ"/><filterID>ITAPER(4)&gt;&gt;BW(4,4,20)</filterID><methodID>AIC</methodID><horizontalSlowness><value>18.632327890476265</value></horizontalSlowness><backazimuth><value>249.9532614041981</value></backazimuth><phaseHint>P</phaseHint><evaluationMode>automatic</evaluationMode><comment><text>20.62640802935719</text><id>DFX:rectilinearity</id></comment><comment><text>16.923989207074225</text><id>SNR</id></comment></pick><pick publicID="de.gempa.tb1.Pick/20250412000101.568009.120858"><time><value>2025-04-12T00:00:55.208393Z</value></time><waveformID networkCode="CX" stationCode="PB15" channelCode="HHZ"/><filterID>ITAPER(4)&gt;&gt;BW(4,4,20)</filterID><methodID>AIC</methodID><horizontalSlowness><value>20.37438996144036</value></horizontalSlowness><backazimuth><value>101.55413835107959</value></backazimuth><phaseHint>P</phaseHint><evaluationMode>automatic</evaluationMode><comment><text>40.05754690519202</text><id>DFX:rectilinearity</id></comment><comment><text>15.415370886828414</text><id>SNR</id></comment></pick><pick publicID="de.gempa.tb1.Pick/20250412000103.843971.120860"><time><value>2025-04-12T00:00:57.958393Z</value></time><waveformID networkCode="CX" stationCode="PB06" channelCode="HHZ"/><filterID>ITAPER(4)&gt;&gt;BW(4,4,20)</filterID><methodID>AIC</methodID><horizontalSlowness><value>8.098854502790648</value></horizontalSlowness><backazimuth><value>18.958907184399663</value></backazimuth><phaseHint>P</phaseHint><evaluationMode>automatic</evaluationMode><comment><text>10.644797204477072</text><id>DFX:rectilinearity</id></comment><comment><text>15.188933276965544</text><id>SNR</id></comment></pick><pick publicID="de.gempa.tb1.Pick/20250412000111.602079.120862"><time><value>2025-04-12T00:01:03.048391Z</value></time><waveformID networkCode="CX" stationCode="PB03" channelCode="HHZ"/><filterID>ITAPER(4)&gt;&gt;BW(4,4,20)</filterID><methodID>AIC</methodID><horizontalSlowness><value>10.825872651351046</value></horizontalSlowness><backazimuth><value>126.29630036009587</value></backazimuth><phaseHint>P</phaseHint><evaluationMode>automatic</evaluationMode><comment><text>12.894545145315615</text><id>DFX:rectilinearity</id></comment><comment><text>35.30867315634166</text><id>SNR</id></comment></pick><pick publicID="de.gempa.tb1.Pick/20250412000114.810806.120864"><time><value>2025-04-12T00:01:01.56Z</value></time><waveformID networkCode="CX" stationCode="PB09" channelCode="HHZ"/><filterID>ITAPER(4)&gt;&gt;BW(4,4,20)</filterID><methodID>AIC</methodID><horizontalSlowness><value>15.690103132737445</value></horizontalSlowness><backazimuth><value>80.06681296039977</value></backazimuth><phaseHint>P</phaseHint><evaluationMode>automatic</evaluationMode><comment><text>6.944795135127782</text><id>DFX:rectilinearity</id></comment><comment><text>23.776461902422255</text><id>SNR</id></comment></pick><pick publicID="de.gempa.tb1.Pick/20250412000114.945415.120866"><time><value>2025-04-12T00:01:08.648393Z</value></time><waveformID networkCode="CX" stationCode="PB01" channelCode="HHZ"/><filterID>ITAPER(4)&gt;&gt;BW(4,4,20)</filterID><methodID>AIC</methodID><horizontalSlowness><value>10.797617797558187</value></horizontalSlowness><backazimuth><value>227.28354993799664</value></backazimuth><phaseHint>P</phaseHint><evaluationMode>automatic</evaluationMode><comment><text>2.794259413896722</text><id>DFX:rectilinearity</id></comment><comment><text>8.203854727871356</text><id>SNR</id></comment></pick><pick publicID="de.gempa.tb1.Pick/20250412000116.617118.120868"><time><value>2025-04-12T00:01:09.328393Z</value></time><waveformID networkCode="CX" stationCode="PB02" channelCode="HHZ"/><filterID>ITAPER(4)&gt;&gt;BW(4,4,20)</filterID><methodID>AIC</methodID><horizontalSlowness><value>9.763005198840471</value></horizontalSlowness><backazimuth><value>338.75866852643736</value></backazimuth><phaseHint>P</phaseHint><evaluationMode>automatic</evaluationMode><comment><text>32.37158975099134</text><id>DFX:rectilinearity</id></comment><comment><text>6.361220209970714</text><id>SNR</id></comment></pick><pick publicID="de.gempa.tb1.Pick/20250412000127.721268.120870"><time><value>2025-04-12T00:01:06.228397Z</value></time><waveformID networkCode="CX" stationCode="PB07" channelCode="HHZ"/><filterID>ITAPER(4)&gt;&gt;BW(4,4,20)</filterID><methodID>AIC</methodID><horizontalSlowness><value>22.232135054995904</value></horizontalSlowness><backazimuth><value>29.80084679634061</value></backazimuth><phaseHint>P</phaseHint><evaluationMode>automatic</evaluationMode><comment><text>115.6459767628757</text><id>DFX:rectilinearity</id></comment><comment><text>30.824080824824524</text><id>SNR</id></comment></pick><pick publicID="de.gempa.tb1.Pick/20250412000147.758192.120878"><time><value>2025-04-12T00:01:33.958393Z</value></time><waveformID networkCode="CX" stationCode="PB06" channelCode="HHN"/><filterID>ITAPER(2)&gt;&gt;BW(3,3,20)</filterID><methodID>L2-AIC-GRID</methodID><horizontalSlowness><value>10.909308864508313</value></horizontalSlowness><backazimuth><value>289.92656325088706</value></backazimuth><phaseHint>S</phaseHint><evaluationMode>automatic</evaluationMode><comment><text>17.389818605915774</text><id>DFX:rectilinearity</id></comment><comment><text>de.gempa.tb1.Pick/20250412000103.843971.120860</text><id>RefPickID</id></comment><comment><text>7.247704305336862</text><id>SNR</id></comment></pick><pick publicID="de.gempa.tb1.Pick/20250412000155.180694.120881"><time><value>2025-04-12T00:01:42.848391Z</value></time><waveformID networkCode="CX" stationCode="PB03" channelCode="HHN"/><filterID>ITAPER(2)&gt;&gt;BW(3,3,20)</filterID><methodID>L2-AIC-GRID</methodID><horizontalSlowness><value>14.618142204404085</value></horizontalSlowness><backazimuth><value>330.50794441949097</value></backazimuth><phaseHint>S</phaseHint><evaluationMode>automatic</evaluationMode><comment><text>6.343372323369937</text><id>DFX:rectilinearity</id></comment><comment><text>de.gempa.tb1.Pick/20250412000111.602079.120862</text><id>RefPickID</id></comment><comment><text>6.881157124259892</text><id>SNR</id></comment></pick><pick publicID="de.gempa.tb1.Pick/20250412000158.060433.120882"><time><value>2025-04-12T00:01:50.398393Z</value></time><waveformID networkCode="CX" stationCode="PB01" channelCode="HHN"/><filterID>ITAPER(2)&gt;&gt;BW(3,3,20)</filterID><methodID>L2-AIC-GRID</methodID><horizontalSlowness><value>21.574798582551306</value></horizontalSlowness><backazimuth><value>309.04261712988074</value></backazimuth><phaseHint>S</phaseHint><evaluationMode>automatic</evaluationMode><comment><text>104.70998367026384</text><id>DFX:rectilinearity</id></comment><comment><text>de.gempa.tb1.Pick/20250412000114.945415.120866</text><id>RefPickID</id></comment><comment><text>56.24596426226125</text><id>SNR</id></comment></pick><pick publicID="de.gempa.tb1.Pick/20250412000203.417544.120888"><time><value>2025-04-12T00:01:48.698397Z</value></time><waveformID networkCode="CX" stationCode="PB07" channelCode="HHN"/><filterID>ITAPER(2)&gt;&gt;BW(3,3,20)</filterID><methodID>L2-AIC-GRID</methodID><horizontalSlowness><value>23.334321400597595</value></horizontalSlowness><backazimuth><value>118.87033115290347</value></backazimuth><phaseHint>S</phaseHint><evaluationMode>automatic</evaluationMode><comment><text>235.37941191447806</text><id>DFX:rectilinearity</id></comment><comment><text>de.gempa.tb1.Pick/20250412000127.721268.120870</text><id>RefPickID</id></comment><comment><text>5.279935533114437</text><id>SNR</id></comment></pick><origin publicID="de.gempa.tb1.Origin/20250412000203.421007.69672"><time><value>2025-04-12T00:00:13.10119Z</value><uncertainty>0.9116763472557068</uncertainty></time><latitude><value>-23.555898666381836</value><uncertainty>8.155546188354492</uncertainty></latitude><longitude><value>-66.80430603027344</value><uncertainty>23.7028865814209</uncertainty></longitude><depth><value>180.1129150390625</value><uncertainty>40.97978210449219</uncertainty></depth><depthType>from location</depthType><methodID>LOCSAT</methodID><earthModelID>iasp91_scanloc</earthModelID><quality><associatedPhaseCount>12</associatedPhaseCount><usedPhaseCount>12</usedPhaseCount><associatedStationCount>8</associatedStationCount><usedStationCount>8</usedStationCount><depthPhaseCount>0</depthPhaseCount><standardError>0.7098031754047288</standardError><azimuthalGap>306.16943359375</azimuthalGap><maximumDistance>3.6239824295043945</maximumDistance><minimumDistance>2.3048667907714844</minimumDistance><medianDistance>3.107144832611084</medianDistance></quality><uncertainty><minHorizontalUncertainty>14.897089958190918</minHorizontalUncertainty><maxHorizontalUncertainty>51.65215682983398</maxHorizontalUncertainty><azimuthMaxHorizontalUncertainty>79.32156372070312</azimuthMaxHorizontalUncertainty><preferredDescription>horizontal uncertainty</preferredDescription></uncertainty><evaluationMode>automatic</evaluationMode><evaluationStatus>confirmed</evaluationStatus><comment><text>0.00</text><id>mismatchScore</id></comment><comment><text>mismatchScore</text><id>scevalMethod</id></comment><arrival><pickID>de.gempa.tb1.Pick/20250412000100.778578.120856</pickID><phase>P</phase><azimuth>260.837646484375</azimuth><distance>2.3048667907714844</distance><timeResidual>-0.8695259094238281</timeResidual><timeUsed>true</timeUsed><horizontalSlownessUsed>false</horizontalSlownessUsed><backazimuthUsed>false</backazimuthUsed><weight>1</weight></arrival><arrival><pickID>de.gempa.tb1.Pick/20250412000101.568009.120858</pickID><phase>P</phase><azimuth>277.5092468261719</azimuth><distance>2.4744651317596436</distance><timeResidual>-0.3147773742675781</timeResidual><timeUsed>true</timeUsed><horizontalSlownessUsed>false</horizontalSlownessUsed><backazimuthUsed>false</backazimuthUsed><weight>1</weight></arrival><arrival><pickID>de.gempa.tb1.Pick/20250412000103.843971.120860</pickID><phase>P</phase><azimuth>287.828369140625</azimuth><distance>2.684478282928467</distance><timeResidual>-0.036922454833984375</timeResidual><timeUsed>true</timeUsed><horizontalSlownessUsed>false</horizontalSlownessUsed><backazimuthUsed>false</backazimuthUsed><weight>1</weight></arrival><arrival><pickID>de.gempa.tb1.Pick/20250412000111.602079.120862</pickID><phase>P</phase><azimuth>298.29718017578125</azimuth><distance>3.107144832611084</distance><timeResidual>-0.0427398681640625</timeResidual><timeUsed>true</timeUsed><horizontalSlownessUsed>false</horizontalSlownessUsed><backazimuthUsed>false</backazimuthUsed><weight>1</weight></arrival><arrival><pickID>de.gempa.tb1.Pick/20250412000114.810806.120864</pickID><phase>P</phase><azimuth>307.4042053222656</azimuth><distance>2.852177858352661</distance><timeResidual>1.5593643188476562</timeResidual><timeUsed>true</timeUsed><horizontalSlownessUsed>false</horizontalSlownessUsed><backazimuthUsed>false</backazimuthUsed><weight>1</weight></arrival><arrival><pickID>de.gempa.tb1.Pick/20250412000114.945415.120866</pickID><phase>P</phase><azimuth>314.668212890625</azimuth><distance>3.5250468254089355</distance><timeResidual>0.3746795654296875</timeResidual><timeUsed>true</timeUsed><horizontalSlownessUsed>false</horizontalSlownessUsed><backazimuthUsed>false</backazimuthUsed><weight>1</weight></arrival><arrival><pickID>de.gempa.tb1.Pick/20250412000116.617118.120868</pickID><phase>P</phase><azimuth>307.2888488769531</azimuth><distance>3.6239824295043945</distance><timeResidual>-0.17765426635742188</timeResidual><timeUsed>true</timeUsed><horizontalSlownessUsed>false</horizontalSlownessUsed><backazimuthUsed>false</backazimuthUsed><weight>1</weight></arrival><arrival><pickID>de.gempa.tb1.Pick/20250412000127.721268.120870</pickID><phase>P</phase><azimuth>301.9989318847656</azimuth><distance>3.3792929649353027</distance><timeResidual>-0.22681427001953125</timeResidual><timeUsed>true</timeUsed><horizontalSlownessUsed>false</horizontalSlownessUsed><backazimuthUsed>false</backazimuthUsed><weight>1</weight></arrival><arrival><pickID>de.gempa.tb1.Pick/20250412000147.758192.120878</pickID><phase>S</phase><azimuth>287.828369140625</azimuth><distance>2.684478282928467</distance><timeResidual>0.6254997253417969</timeResidual><timeUsed>true</timeUsed><horizontalSlownessUsed>false</horizontalSlownessUsed><backazimuthUsed>false</backazimuthUsed><weight>1</weight></arrival><arrival><pickID>de.gempa.tb1.Pick/20250412000155.180694.120881</pickID><phase>S</phase><azimuth>298.29718017578125</azimuth><distance>3.107144832611084</distance><timeResidual>0.35894775390625</timeResidual><timeUsed>true</timeUsed><horizontalSlownessUsed>false</horizontalSlownessUsed><backazimuthUsed>false</backazimuthUsed><weight>1</weight></arrival><arrival><pickID>de.gempa.tb1.Pick/20250412000158.060433.120882</pickID><phase>S</phase><azimuth>314.668212890625</azimuth><distance>3.5250468254089355</distance><timeResidual>-1.40960693359375</timeResidual><timeUsed>true</timeUsed><horizontalSlownessUsed>false</horizontalSlownessUsed><backazimuthUsed>false</backazimuthUsed><weight>1</weight></arrival><arrival><pickID>de.gempa.tb1.Pick/20250412000203.417544.120888</pickID><phase>S</phase><azimuth>301.9989318847656</azimuth><distance>3.3792929649353027</distance><timeResidual>0.15938568115234375</timeResidual><timeUsed>true</timeUsed><horizontalSlownessUsed>false</horizontalSlownessUsed><backazimuthUsed>false</backazimuthUsed><weight>1</weight></arrival><magnitude publicID="de.gempa.tb1.Magnitude/20250412000327.127597.156642"><magnitude><value>3.6327025476897936</value></magnitude><type>M</type><methodID>weighted average</methodID><stationCount>3</stationCount></magnitude></origin><event publicID="gempa2025heof"><preferredOriginID>de.gempa.tb1.Origin/20250412000203.421007.69672</preferredOriginID><preferredMagnitudeID>de.gempa.tb1.Magnitude/20250412000327.127597.156642</preferredMagnitudeID><description><text>Jujuy Province, Argentina</text><type>region name</type></description><originReference>de.gempa.tb1.Origin/20250412000203.421007.69672</originReference></event></EventParameters></seiscomp>