<?xml version="1.0" encoding="UTF-8"?>
<seiscomp xmlns="http://geofon.gfz-potsdam.de/ns/seiscomp3-schema/0.13" version="0.13"><EventParameters><pick publicID="de.gempa.tb1.Pick/20250414152540.694012.268543"><time><value>2025-04-14T15:25:34.97Z</value></time><waveformID networkCode="SX" stationCode="WERD" channelCode="HHZ"/><filterID>ITAPER(2)&gt;&gt;BW(3,3,20)</filterID><methodID>AIC</methodID><horizontalSlowness><value>23.281679656356225</value></horizontalSlowness><backazimuth><value>55.05375884316159</value></backazimuth><phaseHint>P</phaseHint><evaluationMode>automatic</evaluationMode><comment><text>4.825963493809104</text><id>DFX:rectilinearity</id></comment></pick><pick publicID="de.gempa.tb1.Pick/20250414152546.012571.268550"><time><value>2025-04-14T15:25:40.66Z</value></time><waveformID networkCode="SX" stationCode="LEUT" channelCode="HHZ"/><filterID>ITAPER(2)&gt;&gt;BW(3,3,20)</filterID><methodID>AIC</methodID><horizontalSlowness><value>23.208325911075747</value></horizontalSlowness><backazimuth><value>228.6291570715618</value></backazimuth><phaseHint>P</phaseHint><evaluationMode>automatic</evaluationMode><comment><text>3.236875585293759</text><id>DFX:rectilinearity</id></comment></pick><pick publicID="de.gempa.tb1.Pick/20250414152546.345643.268552"><time><value>2025-04-14T15:25:37.31Z</value></time><waveformID networkCode="SX" stationCode="MULD" channelCode="HHZ"/><filterID>ITAPER(2)&gt;&gt;BW(3,3,20)</filterID><methodID>AIC</methodID><horizontalSlowness><value>5.457033496417407</value></horizontalSlowness><backazimuth><value>84.08945991410825</value></backazimuth><phaseHint>P</phaseHint><evaluationMode>automatic</evaluationMode><comment><text>1.2748418099563523</text><id>DFX:rectilinearity</id></comment></pick><pick publicID="de.gempa.tb1.Pick/20250414152548.85609.268554"><time><value>2025-04-14T15:25:38.63Z</value></time><waveformID networkCode="SX" stationCode="SCHF" channelCode="HHZ"/><filterID>ITAPER(2)&gt;&gt;BW(3,3,20)</filterID><methodID>AIC</methodID><horizontalSlowness><value>19.4597123853515</value></horizontalSlowness><backazimuth><value>241.26830404246874</value></backazimuth><phaseHint>P</phaseHint><evaluationMode>automatic</evaluationMode><comment><text>5.01993994832407</text><id>DFX:rectilinearity</id></comment></pick><pick publicID="de.gempa.tb1.Pick/20250414152549.850047.268556"><time><value>2025-04-14T15:25:38.12Z</value></time><waveformID networkCode="SX" stationCode="TANN" channelCode="HHZ"/><filterID>ITAPER(2)&gt;&gt;BW(3,3,20)</filterID><methodID>AIC</methodID><horizontalSlowness><value>23.57455601259284</value></horizontalSlowness><backazimuth><value>4.0570153544789775</value></backazimuth><phaseHint>P</phaseHint><evaluationMode>automatic</evaluationMode><comment><text>2.705228137354801</text><id>DFX:rectilinearity</id></comment></pick><pick publicID="de.gempa.tb1.Pick/20250414152556.298834.268563"><time><value>2025-04-14T15:25:53.53Z</value></time><waveformID networkCode="SX" stationCode="LANDS" channelCode="HHZ"/><filterID>ITAPER(2)&gt;&gt;BW(3,3,20)</filterID><methodID>AIC</methodID><horizontalSlowness><value>20.31723278069228</value></horizontalSlowness><backazimuth><value>45.32565140706021</value></backazimuth><phaseHint>P</phaseHint><evaluationMode>automatic</evaluationMode><comment><text>1.2485500950990949</text><id>DFX:rectilinearity</id></comment></pick><origin publicID="de.gempa.tb1.Origin/20250414152608.540428.238425"><time><value>2025-04-14T15:25:32.529315Z</value><uncertainty>2.4403629302978516</uncertainty></time><latitude><value>50.42271041870117</value><uncertainty>12.236825942993164</uncertainty></latitude><longitude><value>12.037200927734375</value><uncertainty>13.204251289367676</uncertainty></longitude><depth><value>0</value></depth><depthType>operator assigned</depthType><methodID>LOCSAT</methodID><earthModelID>iasp91</earthModelID><quality><associatedPhaseCount>6</associatedPhaseCount><usedPhaseCount>6</usedPhaseCount><associatedStationCount>6</associatedStationCount><usedStationCount>6</usedStationCount><depthPhaseCount>0</depthPhaseCount><standardError>0.6821834375274451</standardError><azimuthalGap>271.54373931884766</azimuthalGap><maximumDistance>1.1076605319976807</maximumDistance><minimumDistance>0.1743820160627365</minimumDistance><medianDistance>0.34556689858436584</medianDistance></quality><uncertainty><minHorizontalUncertainty>10.833531379699707</minHorizontalUncertainty><maxHorizontalUncertainty>37.060272216796875</maxHorizontalUncertainty><azimuthMaxHorizontalUncertainty>47.58565902709961</azimuthMaxHorizontalUncertainty><preferredDescription>horizontal uncertainty</preferredDescription></uncertainty><evaluationMode>automatic</evaluationMode><comment><text>0.72</text><id>mismatchScore</id></comment><arrival><pickID>de.gempa.tb1.Pick/20250414152540.694012.268543</pickID><phase>P</phase><azimuth>81.54655456542969</azimuth><distance>0.1743820160627365</distance><timeResidual>-1.0210857391357422</timeResidual><timeUsed>true</timeUsed><horizontalSlownessUsed>false</horizontalSlownessUsed><backazimuthUsed>false</backazimuthUsed><weight>1</weight></arrival><arrival><pickID>de.gempa.tb1.Pick/20250414152546.012571.268550</pickID><phase>P</phase><azimuth>59.03955078125</azimuth><distance>0.3610355854034424</distance><timeResidual>1.1211037635803223</timeResidual><timeUsed>true</timeUsed><horizontalSlownessUsed>false</horizontalSlownessUsed><backazimuthUsed>false</backazimuthUsed><weight>1</weight></arrival><arrival><pickID>de.gempa.tb1.Pick/20250414152546.345643.268552</pickID><phase>P</phase><azimuth>92.52510070800781</azimuth><distance>0.23484328389167786</distance><timeResidual>0.16955018043518066</timeResidual><timeUsed>true</timeUsed><horizontalSlownessUsed>false</horizontalSlownessUsed><backazimuthUsed>false</backazimuthUsed><weight>1</weight></arrival><arrival><pickID>de.gempa.tb1.Pick/20250414152548.85609.268554</pickID><phase>P</phase><azimuth>42.35079574584961</azimuth><distance>0.34556689858436584</distance><timeResidual>-0.6147346496582031</timeResidual><timeUsed>true</timeUsed><horizontalSlownessUsed>false</horizontalSlownessUsed><backazimuthUsed>false</backazimuthUsed><weight>1</weight></arrival><arrival><pickID>de.gempa.tb1.Pick/20250414152549.850047.268556</pickID><phase>P</phase><azimuth>91.468017578125</azimuth><distance>0.2712186276912689</distance><timeResidual>0.2880995273590088</timeResidual><timeUsed>true</timeUsed><horizontalSlownessUsed>false</horizontalSlownessUsed><backazimuthUsed>false</backazimuthUsed><weight>1</weight></arrival><arrival><pickID>de.gempa.tb1.Pick/20250414152556.298834.268563</pickID><phase>P</phase><azimuth>4.068840026855469</azimuth><distance>1.1076605319976807</distance><timeResidual>0.05575323104858398</timeResidual><timeUsed>true</timeUsed><horizontalSlownessUsed>false</horizontalSlownessUsed><backazimuthUsed>false</backazimuthUsed><weight>1</weight></arrival><magnitude publicID="de.gempa.tb1.Magnitude/20250414152646.013783.507217"><magnitude><value>0.500455516718524</value></magnitude><type>M</type><methodID>weighted average</methodID><stationCount>5</stationCount></magnitude></origin><event publicID="gempa2025hjlc"><preferredOriginID>de.gempa.tb1.Origin/20250414152608.540428.238425</preferredOriginID><preferredMagnitudeID>de.gempa.tb1.Magnitude/20250414152646.013783.507217</preferredMagnitudeID><description><text>Germany</text><type>region name</type></description><originReference>de.gempa.tb1.Origin/20250414152608.540428.238425</originReference></event></EventParameters></seiscomp>