<?xml version="1.0" encoding="UTF-8"?>
<seiscomp xmlns="http://geofon.gfz-potsdam.de/ns/seiscomp3-schema/0.13" version="0.13"><EventParameters><pick publicID="de.gempa.tb1.Pick/20250414173629.600635.139688"><time><value>2025-04-14T17:36:20.718393Z</value></time><waveformID networkCode="CX" stationCode="PB01" channelCode="HHZ"/><filterID>ITAPER(4)&gt;&gt;BW(4,4,20)</filterID><methodID>AIC</methodID><horizontalSlowness><value>17.626305379371956</value></horizontalSlowness><backazimuth><value>79.1803024936354</value></backazimuth><phaseHint>P</phaseHint><evaluationMode>automatic</evaluationMode><comment><text>72.80723753631035</text><id>DFX:rectilinearity</id></comment><comment><text>18.845133614059932</text><id>SNR</id></comment></pick><pick publicID="de.gempa.tb1.Pick/20250414173631.517762.139690"><time><value>2025-04-14T17:36:25.128393Z</value></time><waveformID networkCode="CX" stationCode="PB02" channelCode="HHZ"/><filterID>ITAPER(4)&gt;&gt;BW(4,4,20)</filterID><methodID>AIC</methodID><horizontalSlowness><value>13.480737233412993</value></horizontalSlowness><backazimuth><value>68.00627414485653</value></backazimuth><phaseHint>P</phaseHint><evaluationMode>automatic</evaluationMode><comment><text>243.84457382181395</text><id>DFX:rectilinearity</id></comment><comment><text>11.16764417899985</text><id>SNR</id></comment></pick><pick publicID="de.gempa.tb1.Pick/20250414173634.704965.139692"><time><value>2025-04-14T17:36:27.018393Z</value></time><waveformID networkCode="CX" stationCode="PB01" channelCode="HHN"/><filterID>ITAPER(2)&gt;&gt;BW(3,3,20)</filterID><methodID>L2-AIC-GRID</methodID><horizontalSlowness><value>16.910542661206875</value></horizontalSlowness><backazimuth><value>81.1685428349011</value></backazimuth><phaseHint>S</phaseHint><evaluationMode>automatic</evaluationMode><comment><text>980.8452686783144</text><id>DFX:rectilinearity</id></comment><comment><text>de.gempa.tb1.Pick/20250414173629.600635.139688</text><id>RefPickID</id></comment><comment><text>5.618535664643401</text><id>SNR</id></comment></pick><pick publicID="de.gempa.tb1.Pick/20250414173645.526057.139700"><time><value>2025-04-14T17:36:34.538393Z</value></time><waveformID networkCode="CX" stationCode="PB02" channelCode="HHN"/><filterID>ITAPER(2)&gt;&gt;BW(3,3,20)</filterID><methodID>L2-AIC-GRID</methodID><horizontalSlowness><value>14.356829686405568</value></horizontalSlowness><backazimuth><value>69.74682466468194</value></backazimuth><phaseHint>S</phaseHint><evaluationMode>automatic</evaluationMode><comment><text>1605.4027756282264</text><id>DFX:rectilinearity</id></comment><comment><text>de.gempa.tb1.Pick/20250414173631.517762.139690</text><id>RefPickID</id></comment><comment><text>7.144737588313455</text><id>SNR</id></comment></pick><pick publicID="de.gempa.tb1.Pick/20250414173648.523091.139701"><time><value>2025-04-14T17:36:38.089999Z</value></time><waveformID networkCode="CX" stationCode="PATCX" channelCode="HHN"/><filterID>ITAPER(2)&gt;&gt;BW(3,3,20)</filterID><methodID>L2-AIC-GRID</methodID><horizontalSlowness><value>6.812552309262665</value></horizontalSlowness><backazimuth><value>112.18788363785028</value></backazimuth><phaseHint>S</phaseHint><evaluationMode>automatic</evaluationMode><comment><text>122.39988995833725</text><id>DFX:rectilinearity</id></comment><comment><text>de.gempa.tb1.Pick/20250414173645.408492.139698</text><id>RefPickID</id></comment><comment><text>5.735705480767716</text><id>SNR</id></comment></pick><pick publicID="de.gempa.tb1.Pick/20250414173648.527837.139702"><time><value>2025-04-14T17:36:37.840001Z</value></time><waveformID networkCode="CX" stationCode="PSGCX" channelCode="HHZ"/><filterID>ITAPER(4)&gt;&gt;BW(4,4,20)</filterID><methodID>AIC</methodID><horizontalSlowness><value>14.29419771661896</value></horizontalSlowness><backazimuth><value>126.94970382272834</value></backazimuth><phaseHint>P</phaseHint><evaluationMode>automatic</evaluationMode><comment><text>24.35291593392443</text><id>DFX:rectilinearity</id></comment><comment><text>9.68986769825707</text><id>SNR</id></comment></pick><pick publicID="de.gempa.tb1.Pick/20250414173654.470605.139706"><time><value>2025-04-14T17:36:44.038394Z</value></time><waveformID networkCode="CX" stationCode="PB06" channelCode="HHZ"/><filterID>ITAPER(4)&gt;&gt;BW(4,4,20)</filterID><methodID>AIC</methodID><horizontalSlowness><value>8.277938316923649</value></horizontalSlowness><backazimuth><value>52.67862976387573</value></backazimuth><phaseHint>P</phaseHint><evaluationMode>automatic</evaluationMode><comment><text>170.01099073453489</text><id>DFX:rectilinearity</id></comment><comment><text>10.639611987671735</text><id>SNR</id></comment></pick><pick publicID="de.gempa.tb1.Pick/20250414173702.689742.139715"><time><value>2025-04-14T17:36:52.608393Z</value></time><waveformID networkCode="CX" stationCode="PB15" channelCode="HHZ"/><filterID>ITAPER(4)&gt;&gt;BW(4,4,20)</filterID><methodID>AIC</methodID><horizontalSlowness><value>21.836651483352355</value></horizontalSlowness><backazimuth><value>91.39874294415952</value></backazimuth><phaseHint>P</phaseHint><evaluationMode>automatic</evaluationMode><comment><text>5736.939433460692</text><id>DFX:rectilinearity</id></comment><comment><text>7.254827132824374</text><id>SNR</id></comment></pick><pick publicID="de.gempa.tb1.Pick/20250414173704.33826.139717"><time><value>2025-04-14T17:36:30.958393Z</value></time><waveformID networkCode="CX" stationCode="PB07" channelCode="HHZ"/><filterID>ITAPER(4)&gt;&gt;BW(4,4,20)</filterID><methodID>AIC</methodID><horizontalSlowness><value>19.12566216705016</value></horizontalSlowness><backazimuth><value>86.21531714905868</value></backazimuth><phaseHint>P</phaseHint><evaluationMode>automatic</evaluationMode><comment><text>269.0763175055497</text><id>DFX:rectilinearity</id></comment><comment><text>10.82989487840065</text><id>SNR</id></comment></pick><origin publicID="de.gempa.tb1.Origin/20250414173704.692072.144671"><time><value>2025-04-14T17:36:15.070798Z</value><uncertainty>0.5835936665534973</uncertainty></time><latitude><value>-20.8927001953125</value><uncertainty>4.1425838470458984</uncertainty></latitude><longitude><value>-69.48894500732422</value><uncertainty>4.487950801849365</uncertainty></longitude><depth><value>36.12055206298828</value><uncertainty>4.166243076324463</uncertainty></depth><depthType>from location</depthType><methodID>LOCSAT</methodID><earthModelID>iasp91_scanloc</earthModelID><quality><associatedPhaseCount>9</associatedPhaseCount><usedPhaseCount>9</usedPhaseCount><associatedStationCount>7</associatedStationCount><usedStationCount>7</usedStationCount><depthPhaseCount>0</depthPhaseCount><standardError>1.0924628190049821</standardError><azimuthalGap>204.35049438476562</azimuthalGap><maximumDistance>2.3045315742492676</maximumDistance><minimumDistance>0.14978507161140442</minimumDistance><medianDistance>0.6250705122947693</medianDistance></quality><uncertainty><minHorizontalUncertainty>8.097665786743164</minHorizontalUncertainty><maxHorizontalUncertainty>10.301596641540527</maxHorizontalUncertainty><azimuthMaxHorizontalUncertainty>54.88751220703125</azimuthMaxHorizontalUncertainty><preferredDescription>horizontal uncertainty</preferredDescription></uncertainty><evaluationMode>automatic</evaluationMode><evaluationStatus>confirmed</evaluationStatus><comment><text>0.37</text><id>mismatchScore</id></comment><comment><text>mismatchScore</text><id>scevalMethod</id></comment><arrival><pickID>de.gempa.tb1.Pick/20250414173629.600635.139688</pickID><phase>P</phase><azimuth>179.44659423828125</azimuth><distance>0.14978507161140442</distance><timeResidual>-0.8013982772827148</timeResidual><timeUsed>true</timeUsed><horizontalSlownessUsed>false</horizontalSlownessUsed><backazimuthUsed>false</backazimuthUsed><weight>1</weight></arrival><arrival><pickID>de.gempa.tb1.Pick/20250414173631.517762.139690</pickID><phase>P</phase><azimuth>221.74159240722656</azimuth><distance>0.5701069831848145</distance><timeResidual>-1.5741243362426758</timeResidual><timeUsed>true</timeUsed><horizontalSlownessUsed>false</horizontalSlownessUsed><backazimuthUsed>false</backazimuthUsed><weight>1</weight></arrival><arrival><pickID>de.gempa.tb1.Pick/20250414173634.704965.139692</pickID><phase>S</phase><azimuth>179.44659423828125</azimuth><distance>0.14978507161140442</distance><timeResidual>0.7735233306884766</timeResidual><timeUsed>true</timeUsed><horizontalSlownessUsed>false</horizontalSlownessUsed><backazimuthUsed>false</backazimuthUsed><weight>1</weight></arrival><arrival><pickID>de.gempa.tb1.Pick/20250414173645.526057.139700</pickID><phase>S</phase><azimuth>221.74159240722656</azimuth><distance>0.5701069831848145</distance><timeResidual>-0.7683439254760742</timeResidual><timeUsed>true</timeUsed><horizontalSlownessUsed>false</horizontalSlownessUsed><backazimuthUsed>false</backazimuthUsed><weight>1</weight></arrival><arrival><pickID>de.gempa.tb1.Pick/20250414173648.523091.139701</pickID><phase>S</phase><azimuth>276.46270751953125</azimuth><distance>0.6250705122947693</distance><timeResidual>1.3638887405395508</timeResidual><timeUsed>true</timeUsed><horizontalSlownessUsed>false</horizontalSlownessUsed><backazimuthUsed>false</backazimuthUsed><weight>1</weight></arrival><arrival><pickID>de.gempa.tb1.Pick/20250414173648.527837.139702</pickID><phase>P</phase><azimuth>335.0960998535156</azimuth><distance>1.4197860956192017</distance><timeResidual>-0.6579351425170898</timeResidual><timeUsed>true</timeUsed><horizontalSlownessUsed>false</horizontalSlownessUsed><backazimuthUsed>false</backazimuthUsed><weight>1</weight></arrival><arrival><pickID>de.gempa.tb1.Pick/20250414173654.470605.139706</pickID><phase>P</phase><azimuth>182.43075561523438</azimuth><distance>1.8059279918670654</distance><timeResidual>0.23795413970947266</timeResidual><timeUsed>true</timeUsed><horizontalSlownessUsed>false</horizontalSlownessUsed><backazimuthUsed>false</backazimuthUsed><weight>1</weight></arrival><arrival><pickID>de.gempa.tb1.Pick/20250414173702.689742.139715</pickID><phase>P</phase><azimuth>179.58750915527344</azimuth><distance>2.3045315742492676</distance><timeResidual>1.951249122619629</timeResidual><timeUsed>true</timeUsed><horizontalSlownessUsed>false</horizontalSlownessUsed><backazimuthUsed>false</backazimuthUsed><weight>1</weight></arrival><arrival><pickID>de.gempa.tb1.Pick/20250414173704.33826.139717</pickID><phase>P</phase><azimuth>203.98191833496094</azimuth><distance>0.9087580442428589</distance><timeResidual>-0.5247964859008789</timeResidual><timeUsed>true</timeUsed><horizontalSlownessUsed>false</horizontalSlownessUsed><backazimuthUsed>false</backazimuthUsed><weight>1</weight></arrival><magnitude publicID="de.gempa.tb1.Magnitude/20250414173710.622651.520922"><magnitude><value>2.6055156949395717</value></magnitude><type>M</type><methodID>weighted average</methodID><stationCount>6</stationCount></magnitude></origin><event publicID="gempa2025hjpm"><preferredOriginID>de.gempa.tb1.Origin/20250414173704.692072.144671</preferredOriginID><preferredMagnitudeID>de.gempa.tb1.Magnitude/20250414173710.622651.520922</preferredMagnitudeID><description><text>Northern Chile</text><type>region name</type></description><originReference>de.gempa.tb1.Origin/20250414173704.692072.144671</originReference></event></EventParameters></seiscomp>