<?xml version="1.0" encoding="UTF-8"?>
<seiscomp xmlns="http://geofon.gfz-potsdam.de/ns/seiscomp3-schema/0.13" version="0.13"><EventParameters><pick publicID="de.gempa.tb1.Pick/20250411153349.932706.118509"><time><value>2025-04-11T15:33:45.4Z</value></time><waveformID networkCode="CX" stationCode="PB09" channelCode="HHZ"/><filterID>ITAPER(4)&gt;&gt;BW(4,4,20)</filterID><methodID>AIC</methodID><horizontalSlowness><value>16.044440210625211</value></horizontalSlowness><backazimuth><value>79.63432293428401</value></backazimuth><phaseHint>P</phaseHint><evaluationMode>automatic</evaluationMode><comment><text>10.835893944015517</text><id>DFX:rectilinearity</id></comment><comment><text>18.843088111496545</text><id>SNR</id></comment></pick><pick publicID="de.gempa.tb1.Pick/20250411153354.616806.118511"><time><value>2025-04-11T15:33:49.288393Z</value></time><waveformID networkCode="CX" stationCode="PB01" channelCode="HHZ"/><filterID>ITAPER(4)&gt;&gt;BW(4,4,20)</filterID><methodID>AIC</methodID><horizontalSlowness><value>3.6481382366250057</value></horizontalSlowness><backazimuth><value>77.79556955019521</value></backazimuth><phaseHint>P</phaseHint><evaluationMode>automatic</evaluationMode><comment><text>189.56462699870906</text><id>DFX:rectilinearity</id></comment><comment><text>33.682353940795466</text><id>SNR</id></comment></pick><pick publicID="de.gempa.tb1.Pick/20250411153356.630688.118513"><time><value>2025-04-11T15:33:51.828394Z</value></time><waveformID networkCode="CX" stationCode="PB02" channelCode="HHZ"/><filterID>ITAPER(4)&gt;&gt;BW(4,4,20)</filterID><methodID>AIC</methodID><horizontalSlowness><value>12.41275589885414</value></horizontalSlowness><backazimuth><value>89.110007568891</value></backazimuth><phaseHint>P</phaseHint><evaluationMode>automatic</evaluationMode><comment><text>92.49904719865853</text><id>DFX:rectilinearity</id></comment><comment><text>30.35003397342326</text><id>SNR</id></comment></pick><pick publicID="de.gempa.tb1.Pick/20250411153356.691929.118515"><time><value>2025-04-11T15:33:51.008393Z</value></time><waveformID networkCode="CX" stationCode="PB07" channelCode="HHZ"/><filterID>ITAPER(4)&gt;&gt;BW(4,4,20)</filterID><methodID>AIC</methodID><horizontalSlowness><value>13.840467602849555</value></horizontalSlowness><backazimuth><value>101.61188608480661</value></backazimuth><phaseHint>P</phaseHint><evaluationMode>automatic</evaluationMode><comment><text>302.00011370473084</text><id>DFX:rectilinearity</id></comment><comment><text>17.40399149936862</text><id>SNR</id></comment></pick><pick publicID="de.gempa.tb1.Pick/20250411153357.603631.118517"><time><value>2025-04-11T15:33:49.778393Z</value></time><waveformID networkCode="CX" stationCode="PB03" channelCode="HHZ"/><filterID>ITAPER(4)&gt;&gt;BW(4,4,20)</filterID><methodID>AIC</methodID><horizontalSlowness><value>18.776742063787214</value></horizontalSlowness><backazimuth><value>201.73843782530557</value></backazimuth><phaseHint>P</phaseHint><evaluationMode>automatic</evaluationMode><comment><text>10.861611235270544</text><id>DFX:rectilinearity</id></comment><comment><text>9.220139470417008</text><id>SNR</id></comment></pick><pick publicID="de.gempa.tb1.Pick/20250411153358.557163.118519"><time><value>2025-04-11T15:33:51.728393Z</value></time><waveformID networkCode="CX" stationCode="PB06" channelCode="HHZ"/><filterID>ITAPER(4)&gt;&gt;BW(4,4,20)</filterID><methodID>AIC</methodID><horizontalSlowness><value>7.98203848524561</value></horizontalSlowness><backazimuth><value>304.42886414212796</value></backazimuth><phaseHint>P</phaseHint><evaluationMode>automatic</evaluationMode><comment><text>46.20154272571195</text><id>DFX:rectilinearity</id></comment><comment><text>5.910292216925189</text><id>SNR</id></comment></pick><pick publicID="de.gempa.tb1.Pick/20250411153401.534042.118522"><time><value>2025-04-11T15:33:56.958393Z</value></time><waveformID networkCode="CX" stationCode="PB08" channelCode="HHZ"/><filterID>ITAPER(4)&gt;&gt;BW(4,4,20)</filterID><methodID>AIC</methodID><horizontalSlowness><value>17.952591499027147</value></horizontalSlowness><backazimuth><value>215.24371213956596</value></backazimuth><phaseHint>P</phaseHint><evaluationMode>automatic</evaluationMode><comment><text>75.4065117752461</text><id>DFX:rectilinearity</id></comment><comment><text>19.745294774065407</text><id>SNR</id></comment></pick><pick publicID="de.gempa.tb1.Pick/20250411153405.235224.118524"><time><value>2025-04-11T15:33:56.669999Z</value></time><waveformID networkCode="CX" stationCode="PATCX" channelCode="HHZ"/><filterID>ITAPER(4)&gt;&gt;BW(4,4,20)</filterID><methodID>AIC</methodID><horizontalSlowness><value>20.17259822945218</value></horizontalSlowness><backazimuth><value>83.86788765843797</value></backazimuth><phaseHint>P</phaseHint><evaluationMode>automatic</evaluationMode><comment><text>205.6226100746783</text><id>DFX:rectilinearity</id></comment><comment><text>25.48218051630356</text><id>SNR</id></comment></pick><pick publicID="de.gempa.tb1.Pick/20250411153412.59021.118526"><time><value>2025-04-11T15:34:05.770001Z</value></time><waveformID networkCode="CX" stationCode="PSGCX" channelCode="HHZ"/><filterID>ITAPER(4)&gt;&gt;BW(4,4,20)</filterID><methodID>AIC</methodID><horizontalSlowness><value>1.8435798364710463</value></horizontalSlowness><backazimuth><value>337.97534770255413</value></backazimuth><phaseHint>P</phaseHint><evaluationMode>automatic</evaluationMode><comment><text>15.382017926545226</text><id>DFX:rectilinearity</id></comment><comment><text>21.610218928130575</text><id>SNR</id></comment></pick><pick publicID="de.gempa.tb1.Pick/20250411153413.620918.118528"><time><value>2025-04-11T15:34:04.320001Z</value></time><waveformID networkCode="CX" stationCode="PB19" channelCode="HHZ"/><filterID>ITAPER(4)&gt;&gt;BW(4,4,20)</filterID><methodID>AIC</methodID><horizontalSlowness><value>19.526371276172355</value></horizontalSlowness><backazimuth><value>198.6351912423546</value></backazimuth><phaseHint>P</phaseHint><evaluationMode>automatic</evaluationMode><comment><text>35.350748992715815</text><id>DFX:rectilinearity</id></comment><comment><text>6.310978230077825</text><id>SNR</id></comment></pick><pick publicID="de.gempa.tb1.Pick/20250411153414.818557.118530"><time><value>2025-04-11T15:34:07.708393Z</value></time><waveformID networkCode="CX" stationCode="PB03" channelCode="HHN"/><filterID>ITAPER(2)&gt;&gt;BW(3,3,20)</filterID><methodID>L2-AIC-GRID</methodID><horizontalSlowness><value>15.58960314877459</value></horizontalSlowness><backazimuth><value>299.5340667986693</value></backazimuth><phaseHint>S</phaseHint><evaluationMode>automatic</evaluationMode><comment><text>1753.887499952672</text><id>DFX:rectilinearity</id></comment><comment><text>de.gempa.tb1.Pick/20250411153357.603631.118517</text><id>RefPickID</id></comment><comment><text>14.791294116055903</text><id>SNR</id></comment></pick><pick publicID="de.gempa.tb1.Pick/20250411153418.587018.118531"><time><value>2025-04-11T15:34:11.768394Z</value></time><waveformID networkCode="CX" stationCode="PB02" channelCode="HHN"/><filterID>ITAPER(2)&gt;&gt;BW(3,3,20)</filterID><methodID>L2-AIC-GRID</methodID><horizontalSlowness><value>18.94557462301204</value></horizontalSlowness><backazimuth><value>30.01499512050836</value></backazimuth><phaseHint>S</phaseHint><evaluationMode>automatic</evaluationMode><comment><text>1683.188508287284</text><id>DFX:rectilinearity</id></comment><comment><text>de.gempa.tb1.Pick/20250411153356.630688.118513</text><id>RefPickID</id></comment><comment><text>5.928234408111154</text><id>SNR</id></comment></pick><pick publicID="de.gempa.tb1.Pick/20250411153418.801873.118532"><time><value>2025-04-11T15:34:09.728393Z</value></time><waveformID networkCode="CX" stationCode="PB07" channelCode="HHN"/><filterID>ITAPER(2)&gt;&gt;BW(3,3,20)</filterID><methodID>L2-AIC-GRID</methodID><horizontalSlowness><value>21.951913474813455</value></horizontalSlowness><backazimuth><value>219.05853927515852</value></backazimuth><phaseHint>S</phaseHint><evaluationMode>automatic</evaluationMode><comment><text>18887.509970363953</text><id>DFX:rectilinearity</id></comment><comment><text>de.gempa.tb1.Pick/20250411153356.691929.118515</text><id>RefPickID</id></comment><comment><text>6.216235678013218</text><id>SNR</id></comment></pick><pick publicID="de.gempa.tb1.Pick/20250411153419.829708.118533"><time><value>2025-04-11T15:34:11.638393Z</value></time><waveformID networkCode="CX" stationCode="PB06" channelCode="HHN"/><filterID>ITAPER(2)&gt;&gt;BW(3,3,20)</filterID><methodID>L2-AIC-GRID</methodID><horizontalSlowness><value>17.850051768061874</value></horizontalSlowness><backazimuth><value>313.03533626132673</value></backazimuth><phaseHint>S</phaseHint><evaluationMode>automatic</evaluationMode><comment><text>467.1310516693802</text><id>DFX:rectilinearity</id></comment><comment><text>de.gempa.tb1.Pick/20250411153358.557163.118519</text><id>RefPickID</id></comment><comment><text>12.341350640556772</text><id>SNR</id></comment></pick><pick publicID="de.gempa.tb1.Pick/20250411153438.570169.118540"><time><value>2025-04-11T15:34:31.600001Z</value></time><waveformID networkCode="CX" stationCode="PB19" channelCode="HHN"/><filterID>ITAPER(2)&gt;&gt;BW(3,3,20)</filterID><methodID>L2-AIC-GRID</methodID><horizontalSlowness><value>21.543904034243603</value></horizontalSlowness><backazimuth><value>53.1828088949979</value></backazimuth><phaseHint>S</phaseHint><evaluationMode>automatic</evaluationMode><comment><text>91.3473309571887</text><id>DFX:rectilinearity</id></comment><comment><text>de.gempa.tb1.Pick/20250411153413.620918.118528</text><id>RefPickID</id></comment><comment><text>5.848139802133372</text><id>SNR</id></comment></pick><origin publicID="de.gempa.tb1.Origin/20250411153438.575374.59519"><time><value>2025-04-11T15:33:26.425642Z</value><uncertainty>0.7383067011833191</uncertainty></time><latitude><value>-21.741506576538086</value><uncertainty>3.478205680847168</uncertainty></latitude><longitude><value>-68.64616394042969</value><uncertainty>12.335883140563965</uncertainty></longitude><depth><value>128.16932678222656</value><uncertainty>15.161128997802734</uncertainty></depth><depthType>from location</depthType><methodID>LOCSAT</methodID><earthModelID>iasp91_scanloc</earthModelID><quality><associatedPhaseCount>15</associatedPhaseCount><usedPhaseCount>15</usedPhaseCount><associatedStationCount>10</associatedStationCount><usedStationCount>10</usedStationCount><depthPhaseCount>0</depthPhaseCount><standardError>0.5740817535339673</standardError><azimuthalGap>211.98680114746094</azimuthalGap><maximumDistance>2.542485475540161</maximumDistance><minimumDistance>0.5564650893211365</minimumDistance><medianDistance>1.237062931060791</medianDistance></quality><uncertainty><minHorizontalUncertainty>6.679462432861328</minHorizontalUncertainty><maxHorizontalUncertainty>26.657018661499023</maxHorizontalUncertainty><azimuthMaxHorizontalUncertainty>82.61505126953125</azimuthMaxHorizontalUncertainty><preferredDescription>horizontal uncertainty</preferredDescription></uncertainty><evaluationMode>automatic</evaluationMode><evaluationStatus>confirmed</evaluationStatus><comment><text>0.03</text><id>mismatchScore</id></comment><comment><text>mismatchScore</text><id>scevalMethod</id></comment><arrival><pickID>de.gempa.tb1.Pick/20250411153349.932706.118509</pickID><phase>P</phase><azimuth>264.2587890625</azimuth><distance>0.5564650893211365</distance><timeResidual>-0.24860382080078125</timeResidual><timeUsed>true</timeUsed><horizontalSlownessUsed>false</horizontalSlownessUsed><backazimuthUsed>false</backazimuthUsed><weight>1</weight></arrival><arrival><pickID>de.gempa.tb1.Pick/20250411153354.616806.118511</pickID><phase>P</phase><azimuth>311.3974304199219</azimuth><distance>1.047566294670105</distance><timeResidual>-0.3759346008300781</timeResidual><timeUsed>true</timeUsed><horizontalSlownessUsed>false</horizontalSlownessUsed><backazimuthUsed>false</backazimuthUsed><weight>1</weight></arrival><arrival><pickID>de.gempa.tb1.Pick/20250411153356.630688.118513</pickID><phase>P</phase><azimuth>289.6039123535156</azimuth><distance>1.237062931060791</distance><timeResidual>0.25698280334472656</timeResidual><timeUsed>true</timeUsed><horizontalSlownessUsed>false</horizontalSlownessUsed><backazimuthUsed>false</backazimuthUsed><weight>1</weight></arrival><arrival><pickID>de.gempa.tb1.Pick/20250411153356.691929.118515</pickID><phase>P</phase><azimuth>270.50543212890625</azimuth><distance>1.153010368347168</distance><timeResidual>0.30478858947753906</timeResidual><timeUsed>true</timeUsed><horizontalSlownessUsed>false</horizontalSlownessUsed><backazimuthUsed>false</backazimuthUsed><weight>1</weight></arrival><arrival><pickID>de.gempa.tb1.Pick/20250411153357.603631.118517</pickID><phase>P</phase><azimuth>253.24639892578125</azimuth><distance>1.0724644660949707</distance><timeResidual>-0.1215534210205078</timeResidual><timeUsed>true</timeUsed><horizontalSlownessUsed>false</horizontalSlownessUsed><backazimuthUsed>false</backazimuthUsed><weight>1</weight></arrival><arrival><pickID>de.gempa.tb1.Pick/20250411153358.557163.118519</pickID><phase>P</phase><azimuth>221.6176300048828</azimuth><distance>1.2871274948120117</distance><timeResidual>-0.3624610900878906</timeResidual><timeUsed>true</timeUsed><horizontalSlownessUsed>false</horizontalSlownessUsed><backazimuthUsed>false</backazimuthUsed><weight>1</weight></arrival><arrival><pickID>de.gempa.tb1.Pick/20250411153401.534042.118522</pickID><phase>P</phase><azimuth>343.3283996582031</azimuth><distance>1.6614686250686646</distance><timeResidual>0.6671066284179688</timeResidual><timeUsed>true</timeUsed><horizontalSlownessUsed>false</horizontalSlownessUsed><backazimuthUsed>false</backazimuthUsed><weight>1</weight></arrival><arrival><pickID>de.gempa.tb1.Pick/20250411153405.235224.118524</pickID><phase>P</phase><azimuth>302.83209228515625</azimuth><distance>1.6775089502334595</distance><timeResidual>0.19597434997558594</timeResidual><timeUsed>true</timeUsed><horizontalSlownessUsed>false</horizontalSlownessUsed><backazimuthUsed>false</backazimuthUsed><weight>1</weight></arrival><arrival><pickID>de.gempa.tb1.Pick/20250411153412.59021.118526</pickID><phase>P</phase><azimuth>326.7862548828125</azimuth><distance>2.542485475540161</distance><timeResidual>-1.3512248992919922</timeResidual><timeUsed>true</timeUsed><horizontalSlownessUsed>false</horizontalSlownessUsed><backazimuthUsed>false</backazimuthUsed><weight>1</weight></arrival><arrival><pickID>de.gempa.tb1.Pick/20250411153413.620918.118528</pickID><phase>P</phase><azimuth>195.31520080566406</azimuth><distance>2.233701229095459</distance><timeResidual>1.11578369140625</timeResidual><timeUsed>true</timeUsed><horizontalSlownessUsed>false</horizontalSlownessUsed><backazimuthUsed>false</backazimuthUsed><weight>1</weight></arrival><arrival><pickID>de.gempa.tb1.Pick/20250411153414.818557.118530</pickID><phase>S</phase><azimuth>253.24639892578125</azimuth><distance>1.0724644660949707</distance><timeResidual>-0.3720684051513672</timeResidual><timeUsed>true</timeUsed><horizontalSlownessUsed>false</horizontalSlownessUsed><backazimuthUsed>false</backazimuthUsed><weight>1</weight></arrival><arrival><pickID>de.gempa.tb1.Pick/20250411153418.587018.118531</pickID><phase>S</phase><azimuth>289.6039123535156</azimuth><distance>1.237062931060791</distance><timeResidual>0.7049884796142578</timeResidual><timeUsed>true</timeUsed><horizontalSlownessUsed>false</horizontalSlownessUsed><backazimuthUsed>false</backazimuthUsed><weight>1</weight></arrival><arrival><pickID>de.gempa.tb1.Pick/20250411153418.801873.118532</pickID><phase>S</phase><azimuth>270.50543212890625</azimuth><distance>1.153010368347168</distance><timeResidual>0.21349334716796875</timeResidual><timeUsed>true</timeUsed><horizontalSlownessUsed>false</horizontalSlownessUsed><backazimuthUsed>false</backazimuthUsed><weight>1</weight></arrival><arrival><pickID>de.gempa.tb1.Pick/20250411153419.829708.118533</pickID><phase>S</phase><azimuth>221.6176300048828</azimuth><distance>1.2871274948120117</distance><timeResidual>-0.3534259796142578</timeResidual><timeUsed>true</timeUsed><horizontalSlownessUsed>false</horizontalSlownessUsed><backazimuthUsed>false</backazimuthUsed><weight>1</weight></arrival><arrival><pickID>de.gempa.tb1.Pick/20250411153438.570169.118540</pickID><phase>S</phase><azimuth>195.31520080566406</azimuth><distance>2.233701229095459</distance><timeResidual>-0.2741813659667969</timeResidual><timeUsed>true</timeUsed><horizontalSlownessUsed>false</horizontalSlownessUsed><backazimuthUsed>false</backazimuthUsed><weight>1</weight></arrival><magnitude publicID="de.gempa.tb1.Magnitude/20250411153450.939778.114840"><magnitude><value>2.7396012460459183</value></magnitude><type>M</type><methodID>weighted average</methodID><stationCount>7</stationCount></magnitude></origin><event publicID="gempa2025hdxi"><preferredOriginID>de.gempa.tb1.Origin/20250411153438.575374.59519</preferredOriginID><preferredMagnitudeID>de.gempa.tb1.Magnitude/20250411153450.939778.114840</preferredMagnitudeID><description><text>Chile-Bolivia Border Region</text><type>region name</type></description><originReference>de.gempa.tb1.Origin/20250411153438.575374.59519</originReference></event></EventParameters></seiscomp>