<?xml version="1.0" encoding="UTF-8"?>
<seiscomp xmlns="http://geofon.gfz-potsdam.de/ns/seiscomp3-schema/0.13" version="0.13"><EventParameters><pick publicID="de.gempa.tb1.Pick/20250414011247.669481.134746"><time><value>2025-04-14T01:12:43.558393Z</value></time><waveformID networkCode="CX" stationCode="PB01" channelCode="HHZ"/><filterID>ITAPER(4)&gt;&gt;BW(4,4,20)</filterID><methodID>AIC</methodID><horizontalSlowness><value>14.772866619918446</value></horizontalSlowness><backazimuth><value>18.295351617155347</value></backazimuth><phaseHint>P</phaseHint><evaluationMode>automatic</evaluationMode><comment><text>14.377722016743194</text><id>DFX:rectilinearity</id></comment><comment><text>134.59580040283578</text><id>SNR</id></comment></pick><pick publicID="de.gempa.tb1.Pick/20250414011255.578477.134748"><time><value>2025-04-14T01:12:47.958393Z</value></time><waveformID networkCode="CX" stationCode="PB02" channelCode="HHZ"/><filterID>ITAPER(4)&gt;&gt;BW(4,4,20)</filterID><methodID>AIC</methodID><horizontalSlowness><value>21.653940134547494</value></horizontalSlowness><backazimuth><value>265.39997006205726</value></backazimuth><phaseHint>P</phaseHint><evaluationMode>automatic</evaluationMode><comment><text>14.287132370658227</text><id>DFX:rectilinearity</id></comment><comment><text>8.0347082950546</text><id>SNR</id></comment></pick><pick publicID="de.gempa.tb1.Pick/20250414011255.921321.134750"><time><value>2025-04-14T01:12:48.87Z</value></time><waveformID networkCode="CX" stationCode="PB09" channelCode="HHZ"/><filterID>ITAPER(4)&gt;&gt;BW(4,4,20)</filterID><methodID>AIC</methodID><horizontalSlowness><value>22.52405518417247</value></horizontalSlowness><backazimuth><value>319.87551999521213</value></backazimuth><phaseHint>P</phaseHint><evaluationMode>automatic</evaluationMode><comment><text>10.150903978319617</text><id>DFX:rectilinearity</id></comment><comment><text>10.411919390602018</text><id>SNR</id></comment></pick><pick publicID="de.gempa.tb1.Pick/20250414011303.998816.134752"><time><value>2025-04-14T01:12:55.918393Z</value></time><waveformID networkCode="CX" stationCode="PB01" channelCode="HHN"/><filterID>ITAPER(2)&gt;&gt;BW(3,3,20)</filterID><methodID>L2-AIC-GRID</methodID><horizontalSlowness><value>21.806339655340356</value></horizontalSlowness><backazimuth><value>289.5685786501105</value></backazimuth><phaseHint>S</phaseHint><evaluationMode>automatic</evaluationMode><comment><text>189.88215336973948</text><id>DFX:rectilinearity</id></comment><comment><text>de.gempa.tb1.Pick/20250414011247.669481.134746</text><id>RefPickID</id></comment><comment><text>17.61917919726065</text><id>SNR</id></comment></pick><pick publicID="de.gempa.tb1.Pick/20250414011311.670737.134753"><time><value>2025-04-14T01:13:02.518393Z</value></time><waveformID networkCode="CX" stationCode="PB02" channelCode="HHN"/><filterID>ITAPER(2)&gt;&gt;BW(3,3,20)</filterID><methodID>L2-AIC-GRID</methodID><horizontalSlowness><value>23.384003859418417</value></horizontalSlowness><backazimuth><value>66.79071785587915</value></backazimuth><phaseHint>S</phaseHint><evaluationMode>automatic</evaluationMode><comment><text>184.27613254762502</text><id>DFX:rectilinearity</id></comment><comment><text>de.gempa.tb1.Pick/20250414011255.578477.134748</text><id>RefPickID</id></comment><comment><text>9.515628946406872</text><id>SNR</id></comment></pick><pick publicID="de.gempa.tb1.Pick/20250414011312.996846.134754"><time><value>2025-04-14T01:13:05.15Z</value></time><waveformID networkCode="CX" stationCode="PB09" channelCode="HHN"/><filterID>ITAPER(2)&gt;&gt;BW(3,3,20)</filterID><methodID>L2-AIC-GRID</methodID><horizontalSlowness><value>14.359423913875116</value></horizontalSlowness><backazimuth><value>318.4073098241517</value></backazimuth><phaseHint>S</phaseHint><evaluationMode>automatic</evaluationMode><comment><text>46.98992809918082</text><id>DFX:rectilinearity</id></comment><comment><text>de.gempa.tb1.Pick/20250414011255.921321.134750</text><id>RefPickID</id></comment><comment><text>7.632618015657338</text><id>SNR</id></comment></pick><origin publicID="de.gempa.tb1.Origin/20250414011313.003032.123007"><time><value>2025-04-14T01:12:28.111508Z</value><uncertainty>1.5038827657699585</uncertainty></time><latitude><value>-20.783485412597656</value><uncertainty>9.995774269104004</uncertainty></latitude><longitude><value>-69.1436996459961</value><uncertainty>12.212652206420898</uncertainty></longitude><depth><value>104.10674285888672</value><uncertainty>11.327445030212402</uncertainty></depth><depthType>from location</depthType><methodID>LOCSAT</methodID><earthModelID>iasp91_scanloc</earthModelID><quality><associatedPhaseCount>6</associatedPhaseCount><usedPhaseCount>6</usedPhaseCount><associatedStationCount>3</associatedStationCount><usedStationCount>3</usedStationCount><depthPhaseCount>0</depthPhaseCount><standardError>0.18553886364908062</standardError><azimuthalGap>312.5183868408203</azimuthalGap><maximumDistance>1.0120397806167603</maximumDistance><minimumDistance>0.412365198135376</minimumDistance><medianDistance>0.882332444190979</medianDistance></quality><uncertainty><minHorizontalUncertainty>17.801719665527344</minHorizontalUncertainty><maxHorizontalUncertainty>28.78571128845215</maxHorizontalUncertainty><azimuthMaxHorizontalUncertainty>58.13199615478516</azimuthMaxHorizontalUncertainty><preferredDescription>horizontal uncertainty</preferredDescription></uncertainty><evaluationMode>automatic</evaluationMode><evaluationStatus>confirmed</evaluationStatus><comment><text>0.23</text><id>mismatchScore</id></comment><comment><text>mismatchScore</text><id>scevalMethod</id></comment><arrival><pickID>de.gempa.tb1.Pick/20250414011247.669481.134746</pickID><phase>P</phase><azimuth>231.1292419433594</azimuth><distance>0.412365198135376</distance><timeResidual>-0.20878887176513672</timeResidual><timeUsed>true</timeUsed><horizontalSlownessUsed>false</horizontalSlownessUsed><backazimuthUsed>false</backazimuthUsed><weight>1</weight></arrival><arrival><pickID>de.gempa.tb1.Pick/20250414011255.578477.134748</pickID><phase>P</phase><azimuth>232.6568145751953</azimuth><distance>0.882332444190979</distance><timeResidual>0.31849193572998047</timeResidual><timeUsed>true</timeUsed><horizontalSlownessUsed>false</horizontalSlownessUsed><backazimuthUsed>false</backazimuthUsed><weight>1</weight></arrival><arrival><pickID>de.gempa.tb1.Pick/20250414011255.921321.134750</pickID><phase>P</phase><azimuth>185.17520141601562</azimuth><distance>1.0120397806167603</distance><timeResidual>-0.1101522445678711</timeResidual><timeUsed>true</timeUsed><horizontalSlownessUsed>false</horizontalSlownessUsed><backazimuthUsed>false</backazimuthUsed><weight>1</weight></arrival><arrival><pickID>de.gempa.tb1.Pick/20250414011303.998816.134752</pickID><phase>S</phase><azimuth>231.1292419433594</azimuth><distance>0.412365198135376</distance><timeResidual>0.11706161499023438</timeResidual><timeUsed>true</timeUsed><horizontalSlownessUsed>false</horizontalSlownessUsed><backazimuthUsed>false</backazimuthUsed><weight>1</weight></arrival><arrival><pickID>de.gempa.tb1.Pick/20250414011311.670737.134753</pickID><phase>S</phase><azimuth>232.6568145751953</azimuth><distance>0.882332444190979</distance><timeResidual>-0.17851924896240234</timeResidual><timeUsed>true</timeUsed><horizontalSlownessUsed>false</horizontalSlownessUsed><backazimuthUsed>false</backazimuthUsed><weight>1</weight></arrival><arrival><pickID>de.gempa.tb1.Pick/20250414011312.996846.134754</pickID><phase>S</phase><azimuth>185.17520141601562</azimuth><distance>1.0120397806167603</distance><timeResidual>0.06174182891845703</timeResidual><timeUsed>true</timeUsed><horizontalSlownessUsed>false</horizontalSlownessUsed><backazimuthUsed>false</backazimuthUsed><weight>1</weight></arrival></origin><event publicID="gempa2025hiir"><preferredOriginID>de.gempa.tb1.Origin/20250414011313.003032.123007</preferredOriginID><description><text>Northern Chile</text><type>region name</type></description><originReference>de.gempa.tb1.Origin/20250414011313.003032.123007</originReference></event></EventParameters></seiscomp>