<?xml version="1.0" encoding="UTF-8"?>
<seiscomp xmlns="http://geofon.gfz-potsdam.de/ns/seiscomp3-schema/0.13" version="0.13"><EventParameters><pick publicID="de.gempa.tb1.Pick/20250411203703.587256.119966"><time><value>2025-04-11T20:36:53.378393Z</value></time><waveformID networkCode="CX" stationCode="PB01" channelCode="HHZ"/><filterID>ITAPER(4)&gt;&gt;BW(4,4,20)</filterID><methodID>AIC</methodID><horizontalSlowness><value>16.097987708090422</value></horizontalSlowness><backazimuth><value>80.5352339365309</value></backazimuth><phaseHint>P</phaseHint><evaluationMode>automatic</evaluationMode><comment><text>103.8667009271968</text><id>DFX:rectilinearity</id></comment><comment><text>7.461961826188415</text><id>SNR</id></comment></pick><pick publicID="de.gempa.tb1.Pick/20250411203710.500564.119968"><time><value>2025-04-11T20:37:00.518393Z</value></time><waveformID networkCode="CX" stationCode="PB02" channelCode="HHZ"/><filterID>ITAPER(4)&gt;&gt;BW(4,4,20)</filterID><methodID>AIC</methodID><horizontalSlowness><value>12.61585215793656</value></horizontalSlowness><backazimuth><value>64.41324644055422</value></backazimuth><phaseHint>P</phaseHint><evaluationMode>automatic</evaluationMode><comment><text>1984.2136597588687</text><id>DFX:rectilinearity</id></comment><comment><text>9.773812714892507</text><id>SNR</id></comment></pick><pick publicID="de.gempa.tb1.Pick/20250411203710.797051.119970"><time><value>2025-04-11T20:37:01.498393Z</value></time><waveformID networkCode="CX" stationCode="PB01" channelCode="HHN"/><filterID>ITAPER(2)&gt;&gt;BW(3,3,20)</filterID><methodID>L2-AIC-GRID</methodID><horizontalSlowness><value>19.186800974509044</value></horizontalSlowness><backazimuth><value>81.96409819718406</value></backazimuth><phaseHint>S</phaseHint><evaluationMode>automatic</evaluationMode><comment><text>1218.8930630586276</text><id>DFX:rectilinearity</id></comment><comment><text>de.gempa.tb1.Pick/20250411203703.587256.119966</text><id>RefPickID</id></comment><comment><text>5.140674358191662</text><id>SNR</id></comment></pick><pick publicID="de.gempa.tb1.Pick/20250411203712.054968.119971"><time><value>2025-04-11T20:36:55.49Z</value></time><waveformID networkCode="CX" stationCode="PB09" channelCode="HHZ"/><filterID>ITAPER(4)&gt;&gt;BW(4,4,20)</filterID><methodID>AIC</methodID><horizontalSlowness><value>17.06904398906632</value></horizontalSlowness><backazimuth><value>22.411019955743626</value></backazimuth><phaseHint>P</phaseHint><evaluationMode>automatic</evaluationMode><comment><text>41.017568215365067</text><id>DFX:rectilinearity</id></comment><comment><text>11.377917448051635</text><id>SNR</id></comment></pick><pick publicID="de.gempa.tb1.Pick/20250411203725.018444.119979"><time><value>2025-04-11T20:37:05.24Z</value></time><waveformID networkCode="CX" stationCode="PB09" channelCode="HHN"/><filterID>ITAPER(2)&gt;&gt;BW(3,3,20)</filterID><methodID>L2-AIC-GRID</methodID><horizontalSlowness><value>15.975319973532688</value></horizontalSlowness><backazimuth><value>19.89530385934384</value></backazimuth><phaseHint>S</phaseHint><evaluationMode>automatic</evaluationMode><comment><text>3230.8589698350747</text><id>DFX:rectilinearity</id></comment><comment><text>de.gempa.tb1.Pick/20250411203712.054968.119971</text><id>RefPickID</id></comment><comment><text>6.733593375463032</text><id>SNR</id></comment></pick><pick publicID="de.gempa.tb1.Pick/20250411203725.548446.119980"><time><value>2025-04-11T20:37:14.518393Z</value></time><waveformID networkCode="CX" stationCode="PB06" channelCode="HHZ"/><filterID>ITAPER(4)&gt;&gt;BW(4,4,20)</filterID><methodID>AIC</methodID><horizontalSlowness><value>10.985790235998021</value></horizontalSlowness><backazimuth><value>305.4642075515852</value></backazimuth><phaseHint>P</phaseHint><evaluationMode>automatic</evaluationMode><comment><text>102.50885656417039</text><id>DFX:rectilinearity</id></comment><comment><text>12.034458081021475</text><id>SNR</id></comment></pick><pick publicID="de.gempa.tb1.Pick/20250411203728.539503.119983"><time><value>2025-04-11T20:37:09.038393Z</value></time><waveformID networkCode="CX" stationCode="PB02" channelCode="HHN"/><filterID>ITAPER(2)&gt;&gt;BW(3,3,20)</filterID><methodID>L2-AIC-GRID</methodID><horizontalSlowness><value>12.220475613370574</value></horizontalSlowness><backazimuth><value>51.79195838365996</value></backazimuth><phaseHint>S</phaseHint><evaluationMode>automatic</evaluationMode><comment><text>28022.35863070378</text><id>DFX:rectilinearity</id></comment><comment><text>de.gempa.tb1.Pick/20250411203710.500564.119968</text><id>RefPickID</id></comment><comment><text>5.000521241486002</text><id>SNR</id></comment></pick><pick publicID="de.gempa.tb1.Pick/20250411203730.664183.119987"><time><value>2025-04-11T20:37:22.948393Z</value></time><waveformID networkCode="CX" stationCode="PB15" channelCode="HHZ"/><filterID>ITAPER(4)&gt;&gt;BW(4,4,20)</filterID><methodID>AIC</methodID><horizontalSlowness><value>19.104439695441656</value></horizontalSlowness><backazimuth><value>63.68385876129895</value></backazimuth><phaseHint>P</phaseHint><evaluationMode>automatic</evaluationMode><comment><text>1965.1037126432986</text><id>DFX:rectilinearity</id></comment><comment><text>7.148060325773288</text><id>SNR</id></comment></pick><pick publicID="de.gempa.tb1.Pick/20250411203747.358413.119993"><time><value>2025-04-11T20:37:03.028389Z</value></time><waveformID networkCode="CX" stationCode="PB07" channelCode="HHZ"/><filterID>ITAPER(4)&gt;&gt;BW(4,4,20)</filterID><methodID>AIC</methodID><horizontalSlowness><value>16.784070284608344</value></horizontalSlowness><backazimuth><value>63.08944501918178</value></backazimuth><phaseHint>P</phaseHint><evaluationMode>automatic</evaluationMode><comment><text>281.48429075011376</text><id>DFX:rectilinearity</id></comment><comment><text>12.560204574154811</text><id>SNR</id></comment></pick><pick publicID="de.gempa.tb1.Pick/20250411203848.774786.120000"><time><value>2025-04-11T20:37:11.878389Z</value></time><waveformID networkCode="CX" stationCode="PB07" channelCode="HHN"/><filterID>ITAPER(2)&gt;&gt;BW(3,3,20)</filterID><methodID>L2-AIC-GRID</methodID><horizontalSlowness><value>19.10130005487137</value></horizontalSlowness><backazimuth><value>77.65317109251</value></backazimuth><phaseHint>S</phaseHint><evaluationMode>automatic</evaluationMode><comment><text>13492.998757409145</text><id>DFX:rectilinearity</id></comment><comment><text>de.gempa.tb1.Pick/20250411203747.358413.119993</text><id>RefPickID</id></comment><comment><text>5.802017980059592</text><id>SNR</id></comment></pick><origin publicID="de.gempa.tb1.Origin/20250411203848.779048.65574"><time><value>2025-04-11T20:36:47.922506Z</value><uncertainty>0.643373966217041</uncertainty></time><latitude><value>-21.310335159301758</value><uncertainty>2.5616958141326904</uncertainty></latitude><longitude><value>-69.2115478515625</value><uncertainty>3.6452958583831787</uncertainty></longitude><depth><value>0</value></depth><depthType>operator assigned</depthType><methodID>LOCSAT</methodID><earthModelID>iasp91_scanloc</earthModelID><quality><associatedPhaseCount>10</associatedPhaseCount><usedPhaseCount>10</usedPhaseCount><associatedStationCount>6</associatedStationCount><usedStationCount>6</usedStationCount><depthPhaseCount>0</depthPhaseCount><standardError>1.1216371315375484</standardError><azimuthalGap>227.47706604003906</azimuthalGap><maximumDistance>1.9041308164596558</maximumDistance><minimumDistance>0.3700222671031952</minimumDistance><medianDistance>0.6382884383201599</medianDistance></quality><uncertainty><minHorizontalUncertainty>4.3813910484313965</minHorizontalUncertainty><maxHorizontalUncertainty>8.495216369628906</maxHorizontalUncertainty><azimuthMaxHorizontalUncertainty>62.88045883178711</azimuthMaxHorizontalUncertainty><preferredDescription>horizontal uncertainty</preferredDescription></uncertainty><evaluationMode>automatic</evaluationMode><evaluationStatus>confirmed</evaluationStatus><comment><text>0.32</text><id>mismatchScore</id></comment><comment><text>mismatchScore</text><id>scevalMethod</id></comment><arrival><pickID>de.gempa.tb1.Pick/20250411203703.587256.119966</pickID><phase>P</phase><azimuth>315.863037109375</azimuth><distance>0.3700222671031952</distance><timeResidual>-1.6420726776123047</timeResidual><timeUsed>true</timeUsed><horizontalSlownessUsed>false</horizontalSlownessUsed><backazimuthUsed>false</backazimuthUsed><weight>1</weight></arrival><arrival><pickID>de.gempa.tb1.Pick/20250411203710.500564.119968</pickID><phase>P</phase><azimuth>269.0370788574219</azimuth><distance>0.6382884383201599</distance><timeResidual>0.3526740074157715</timeResidual><timeUsed>true</timeUsed><horizontalSlownessUsed>false</horizontalSlownessUsed><backazimuthUsed>false</backazimuthUsed><weight>1</weight></arrival><arrival><pickID>de.gempa.tb1.Pick/20250411203710.797051.119970</pickID><phase>S</phase><azimuth>315.863037109375</azimuth><distance>0.3700222671031952</distance><timeResidual>1.3237624168395996</timeResidual><timeUsed>true</timeUsed><horizontalSlownessUsed>false</horizontalSlownessUsed><backazimuthUsed>false</backazimuthUsed><weight>1</weight></arrival><arrival><pickID>de.gempa.tb1.Pick/20250411203712.054968.119971</pickID><phase>P</phase><azimuth>183.34010314941406</azimuth><distance>0.4844868779182434</distance><timeResidual>-1.725116729736328</timeResidual><timeUsed>true</timeUsed><horizontalSlownessUsed>false</horizontalSlownessUsed><backazimuthUsed>false</backazimuthUsed><weight>1</weight></arrival><arrival><pickID>de.gempa.tb1.Pick/20250411203725.018444.119979</pickID><phase>S</phase><azimuth>183.34010314941406</azimuth><distance>0.4844868779182434</distance><timeResidual>1.2771191596984863</timeResidual><timeUsed>true</timeUsed><horizontalSlownessUsed>false</horizontalSlownessUsed><backazimuthUsed>false</backazimuthUsed><weight>1</weight></arrival><arrival><pickID>de.gempa.tb1.Pick/20250411203725.548446.119980</pickID><phase>P</phase><azimuth>193.47152709960938</azimuth><distance>1.4284125566482544</distance><timeResidual>-0.5827670097351074</timeResidual><timeUsed>true</timeUsed><horizontalSlownessUsed>false</horizontalSlownessUsed><backazimuthUsed>false</backazimuthUsed><weight>1</weight></arrival><arrival><pickID>de.gempa.tb1.Pick/20250411203728.539503.119983</pickID><phase>S</phase><azimuth>269.0370788574219</azimuth><distance>0.6382884383201599</distance><timeResidual>-0.017974376678466797</timeResidual><timeUsed>true</timeUsed><horizontalSlownessUsed>false</horizontalSlownessUsed><backazimuthUsed>false</backazimuthUsed><weight>1</weight></arrival><arrival><pickID>de.gempa.tb1.Pick/20250411203730.664183.119987</pickID><phase>P</phase><azimuth>187.2006072998047</azimuth><distance>1.9041308164596558</distance><timeResidual>1.2999958992004395</timeResidual><timeUsed>true</timeUsed><horizontalSlownessUsed>false</horizontalSlownessUsed><backazimuthUsed>false</backazimuthUsed><weight>1</weight></arrival><arrival><pickID>de.gempa.tb1.Pick/20250411203747.358413.119993</pickID><phase>P</phase><azimuth>236.47174072265625</azimuth><distance>0.752484381198883</distance><timeResidual>0.6727147102355957</timeResidual><timeUsed>true</timeUsed><horizontalSlownessUsed>false</horizontalSlownessUsed><backazimuthUsed>false</backazimuthUsed><weight>1</weight></arrival><arrival><pickID>de.gempa.tb1.Pick/20250411203848.774786.120000</pickID><phase>S</phase><azimuth>236.47174072265625</azimuth><distance>0.752484381198883</distance><timeResidual>-0.9581408500671387</timeResidual><timeUsed>true</timeUsed><horizontalSlownessUsed>false</horizontalSlownessUsed><backazimuthUsed>false</backazimuthUsed><weight>1</weight></arrival><magnitude publicID="de.gempa.tb1.Magnitude/20250411203848.786809.140671"><magnitude><value>2.4683114863058586</value></magnitude><type>M</type><methodID>weighted average</methodID><stationCount>6</stationCount></magnitude></origin><event publicID="gempa2025hehl"><preferredOriginID>de.gempa.tb1.Origin/20250411203848.779048.65574</preferredOriginID><preferredMagnitudeID>de.gempa.tb1.Magnitude/20250411203848.786809.140671</preferredMagnitudeID><description><text>Northern Chile</text><type>region name</type></description><originReference>de.gempa.tb1.Origin/20250411203848.779048.65574</originReference></event></EventParameters></seiscomp>