<?xml version="1.0" encoding="UTF-8"?>
<seiscomp xmlns="http://geofon.gfz-potsdam.de/ns/seiscomp3-schema/0.13" version="0.13"><EventParameters><pick publicID="de.gempa.tb1.Pick/20250414002637.55179.134507"><time><value>2025-04-14T00:26:30.988393Z</value></time><waveformID networkCode="CX" stationCode="PB01" channelCode="HHZ"/><filterID>ITAPER(4)&gt;&gt;BW(4,4,20)</filterID><methodID>AIC</methodID><horizontalSlowness><value>19.203883625661856</value></horizontalSlowness><backazimuth><value>356.30984369171324</value></backazimuth><phaseHint>P</phaseHint><evaluationMode>automatic</evaluationMode><comment><text>8.544389768072904</text><id>DFX:rectilinearity</id></comment><comment><text>38.027788488048913</text><id>SNR</id></comment></pick><pick publicID="de.gempa.tb1.Pick/20250414002637.834302.134509"><time><value>2025-04-14T00:26:32.61Z</value></time><waveformID networkCode="CX" stationCode="PB09" channelCode="HHZ"/><filterID>ITAPER(4)&gt;&gt;BW(4,4,20)</filterID><methodID>AIC</methodID><horizontalSlowness><value>6.999409559363806</value></horizontalSlowness><backazimuth><value>241.63908165489167</value></backazimuth><phaseHint>P</phaseHint><evaluationMode>automatic</evaluationMode><comment><text>9.297085998544157</text><id>DFX:rectilinearity</id></comment><comment><text>8.32715690420939</text><id>SNR</id></comment></pick><pick publicID="de.gempa.tb1.Pick/20250414002641.558997.134511"><time><value>2025-04-14T00:26:34.708393Z</value></time><waveformID networkCode="CX" stationCode="PB02" channelCode="HHZ"/><filterID>ITAPER(4)&gt;&gt;BW(4,4,20)</filterID><methodID>AIC</methodID><horizontalSlowness><value>11.876844150988285</value></horizontalSlowness><backazimuth><value>274.89730694961565</value></backazimuth><phaseHint>P</phaseHint><evaluationMode>automatic</evaluationMode><comment><text>22.926183826968675</text><id>DFX:rectilinearity</id></comment><comment><text>7.968274284827112</text><id>SNR</id></comment></pick><pick publicID="de.gempa.tb1.Pick/20250414002643.272724.134513"><time><value>2025-04-14T00:26:37.979999Z</value></time><waveformID networkCode="CX" stationCode="PATCX" channelCode="HHZ"/><filterID>ITAPER(4)&gt;&gt;BW(4,4,20)</filterID><methodID>AIC</methodID><horizontalSlowness><value>17.790464064936266</value></horizontalSlowness><backazimuth><value>235.44997431033667</value></backazimuth><phaseHint>P</phaseHint><evaluationMode>automatic</evaluationMode><comment><text>235.3333785036748</text><id>DFX:rectilinearity</id></comment><comment><text>15.728407083838757</text><id>SNR</id></comment></pick><pick publicID="de.gempa.tb1.Pick/20250414002651.592016.134515"><time><value>2025-04-14T00:26:45.99Z</value></time><waveformID networkCode="CX" stationCode="PSGCX" channelCode="HHZ"/><filterID>ITAPER(4)&gt;&gt;BW(4,4,20)</filterID><methodID>AIC</methodID><horizontalSlowness><value>14.52366575001557</value></horizontalSlowness><backazimuth><value>121.32467717793867</value></backazimuth><phaseHint>P</phaseHint><evaluationMode>automatic</evaluationMode><comment><text>14.686328977527243</text><id>DFX:rectilinearity</id></comment><comment><text>19.83738790072563</text><id>SNR</id></comment></pick><pick publicID="de.gempa.tb1.Pick/20250414002655.784926.134517"><time><value>2025-04-14T00:26:44.508393Z</value></time><waveformID networkCode="CX" stationCode="PB01" channelCode="HHN"/><filterID>ITAPER(2)&gt;&gt;BW(3,3,20)</filterID><methodID>L2-AIC-GRID</methodID><horizontalSlowness><value>22.062185128845577</value></horizontalSlowness><backazimuth><value>264.3779966111229</value></backazimuth><phaseHint>S</phaseHint><evaluationMode>automatic</evaluationMode><comment><text>31.165789149484</text><id>DFX:rectilinearity</id></comment><comment><text>de.gempa.tb1.Pick/20250414002637.55179.134507</text><id>RefPickID</id></comment><comment><text>5.400121636973345</text><id>SNR</id></comment></pick><pick publicID="de.gempa.tb1.Pick/20250414002657.484925.134520"><time><value>2025-04-14T00:26:50.568393Z</value></time><waveformID networkCode="CX" stationCode="PB02" channelCode="HHN"/><filterID>ITAPER(2)&gt;&gt;BW(3,3,20)</filterID><methodID>L2-AIC-GRID</methodID><horizontalSlowness><value>17.321503252225593</value></horizontalSlowness><backazimuth><value>63.55010532947419</value></backazimuth><phaseHint>S</phaseHint><evaluationMode>automatic</evaluationMode><comment><text>124.17159002056827</text><id>DFX:rectilinearity</id></comment><comment><text>de.gempa.tb1.Pick/20250414002641.558997.134511</text><id>RefPickID</id></comment><comment><text>6.549108106631045</text><id>SNR</id></comment></pick><origin publicID="de.gempa.tb1.Origin/20250414002657.560556.121964"><time><value>2025-04-14T00:26:14.116494Z</value><uncertainty>1.1091521978378296</uncertainty></time><latitude><value>-21.137617111206055</value><uncertainty>8.711319923400879</uncertainty></latitude><longitude><value>-68.87508392333984</value><uncertainty>12.812063217163086</uncertainty></longitude><depth><value>106.8474349975586</value><uncertainty>11.60847568511963</uncertainty></depth><depthType>from location</depthType><methodID>LOCSAT</methodID><earthModelID>iasp91_scanloc</earthModelID><quality><associatedPhaseCount>7</associatedPhaseCount><usedPhaseCount>7</usedPhaseCount><associatedStationCount>5</associatedStationCount><usedStationCount>5</usedStationCount><depthPhaseCount>0</depthPhaseCount><standardError>0.17235082900154614</standardError><azimuthalGap>245.0613708496094</azimuthalGap><maximumDistance>1.9286671876907349</maximumDistance><minimumDistance>0.5794512629508972</minimumDistance><medianDistance>0.9695801138877869</medianDistance></quality><uncertainty><minHorizontalUncertainty>17.417570114135742</minHorizontalUncertainty><maxHorizontalUncertainty>28.2933292388916</maxHorizontalUncertainty><azimuthMaxHorizontalUncertainty>72.36653900146484</azimuthMaxHorizontalUncertainty><preferredDescription>horizontal uncertainty</preferredDescription></uncertainty><evaluationMode>automatic</evaluationMode><evaluationStatus>confirmed</evaluationStatus><comment><text>0.20</text><id>mismatchScore</id></comment><comment><text>mismatchScore</text><id>scevalMethod</id></comment><arrival><pickID>de.gempa.tb1.Pick/20250414002637.55179.134507</pickID><phase>P</phase><azimuth>279.218017578125</azimuth><distance>0.5794512629508972</distance><timeResidual>-0.22719764709472656</timeResidual><timeUsed>true</timeUsed><horizontalSlownessUsed>false</horizontalSlownessUsed><backazimuthUsed>false</backazimuthUsed><weight>1</weight></arrival><arrival><pickID>de.gempa.tb1.Pick/20250414002637.834302.134509</pickID><phase>P</phase><azimuth>207.46441650390625</azimuth><distance>0.7392320036888123</distance><timeResidual>0.07171058654785156</timeResidual><timeUsed>true</timeUsed><horizontalSlownessUsed>false</horizontalSlownessUsed><backazimuthUsed>false</backazimuthUsed><weight>1</weight></arrival><arrival><pickID>de.gempa.tb1.Pick/20250414002641.558997.134511</pickID><phase>P</phase><azimuth>259.0447998046875</azimuth><distance>0.9695801138877869</distance><timeResidual>-0.06030845642089844</timeResidual><timeUsed>true</timeUsed><horizontalSlownessUsed>false</horizontalSlownessUsed><backazimuthUsed>false</backazimuthUsed><weight>1</weight></arrival><arrival><pickID>de.gempa.tb1.Pick/20250414002643.272724.134513</pickID><phase>P</phase><azimuth>284.56427001953125</azimuth><distance>1.23503839969635</distance><timeResidual>0.31859779357910156</timeResidual><timeUsed>true</timeUsed><horizontalSlownessUsed>false</horizontalSlownessUsed><backazimuthUsed>false</backazimuthUsed><weight>1</weight></arrival><arrival><pickID>de.gempa.tb1.Pick/20250414002651.592016.134515</pickID><phase>P</phase><azimuth>322.4030456542969</azimuth><distance>1.9286671876907349</distance><timeResidual>-0.09556198120117188</timeResidual><timeUsed>true</timeUsed><horizontalSlownessUsed>false</horizontalSlownessUsed><backazimuthUsed>false</backazimuthUsed><weight>1</weight></arrival><arrival><pickID>de.gempa.tb1.Pick/20250414002655.784926.134517</pickID><phase>S</phase><azimuth>279.218017578125</azimuth><distance>0.5794512629508972</distance><timeResidual>0.13212966918945312</timeResidual><timeUsed>true</timeUsed><horizontalSlownessUsed>false</horizontalSlownessUsed><backazimuthUsed>false</backazimuthUsed><weight>1</weight></arrival><arrival><pickID>de.gempa.tb1.Pick/20250414002657.484925.134520</pickID><phase>S</phase><azimuth>259.0447998046875</azimuth><distance>0.9695801138877869</distance><timeResidual>-0.13942909240722656</timeResidual><timeUsed>true</timeUsed><horizontalSlownessUsed>false</horizontalSlownessUsed><backazimuthUsed>false</backazimuthUsed><weight>1</weight></arrival><magnitude publicID="de.gempa.tb1.Magnitude/20250414002700.936404.412989"><magnitude><value>1.9067252211194403</value></magnitude><type>M</type><methodID>weighted average</methodID><stationCount>2</stationCount></magnitude></origin><event publicID="gempa2025hihd"><preferredOriginID>de.gempa.tb1.Origin/20250414002657.560556.121964</preferredOriginID><preferredMagnitudeID>de.gempa.tb1.Magnitude/20250414002700.936404.412989</preferredMagnitudeID><description><text>Chile-Bolivia Border Region</text><type>region name</type></description><originReference>de.gempa.tb1.Origin/20250414002657.560556.121964</originReference></event></EventParameters></seiscomp>