<?xml version="1.0" encoding="UTF-8"?>
<seiscomp xmlns="http://geofon.gfz-potsdam.de/ns/seiscomp3-schema/0.13" version="0.13"><EventParameters><pick publicID="de.gempa.tb2.Pick/20250412200712.349701.108792"><time><value>2025-04-12T20:06:50.945Z</value></time><waveformID networkCode="GR" stationCode="GRB1" channelCode="BHZ"/><filterID>BW(4,4,8)</filterID><methodID>AIC</methodID><phaseHint>P</phaseHint><evaluationMode>automatic</evaluationMode></pick><pick publicID="de.gempa.tb2.Pick/20250412200712.855812.108797"><time><value>2025-04-12T20:06:49.089999Z</value></time><waveformID networkCode="GR" stationCode="GRB4" channelCode="BHZ"/><filterID>BW(4,4,8)</filterID><methodID>AIC</methodID><phaseHint>P</phaseHint><evaluationMode>automatic</evaluationMode></pick><pick publicID="de.gempa.tb2.Pick/20250412200712.867461.108802"><time><value>2025-04-12T20:06:50.105Z</value></time><waveformID networkCode="GR" stationCode="GRA1" channelCode="BHZ"/><filterID>BW(4,4,8)</filterID><methodID>AIC</methodID><phaseHint>P</phaseHint><evaluationMode>automatic</evaluationMode></pick><pick publicID="de.gempa.tb2.Pick/20250412200713.398922.108810"><time><value>2025-04-12T20:06:47.889999Z</value></time><waveformID networkCode="GR" stationCode="GRA2" channelCode="BHZ"/><filterID>BW(4,4,8)</filterID><methodID>AIC</methodID><phaseHint>P</phaseHint><evaluationMode>automatic</evaluationMode></pick><pick publicID="de.gempa.tb2.Pick/20250412200745.887393.108850"><time><value>2025-04-12T20:07:34.455Z</value></time><waveformID networkCode="CH" stationCode="ACB" channelCode="HHZ"/><filterID>ITAPER(4)&gt;&gt;BW(4,4,20)</filterID><methodID>AIC</methodID><phaseHint>P</phaseHint><evaluationMode>automatic</evaluationMode></pick><pick publicID="de.gempa.tb2.Pick/20250412200752.394942.108879"><time><value>2025-04-12T20:06:53.295Z</value></time><waveformID networkCode="GR" stationCode="GRB2" channelCode="BHZ"/><filterID>BW(4,4,8)</filterID><methodID>AIC</methodID><phaseHint>P</phaseHint><evaluationMode>automatic</evaluationMode></pick><origin publicID="de.gempa.tb2.Origin/20250412200752.40254.52259"><time><value>2025-04-12T20:06:45.913694Z</value><uncertainty>2.4589009284973145</uncertainty></time><latitude><value>49.63408660888672</value><uncertainty>18.604669570922852</uncertainty></latitude><longitude><value>11.523146629333496</value><uncertainty>18.096681594848633</uncertainty></longitude><depth><value>0</value></depth><depthType>operator assigned</depthType><methodID>LOCSAT</methodID><earthModelID>iasp91</earthModelID><quality><associatedPhaseCount>6</associatedPhaseCount><usedPhaseCount>6</usedPhaseCount><associatedStationCount>6</associatedStationCount><usedStationCount>6</usedStationCount><depthPhaseCount>0</depthPhaseCount><standardError>0.146147031910866</standardError><azimuthalGap>234.3180694580078</azimuthalGap><maximumDistance>2.9830095767974854</maximumDistance><minimumDistance>0.10849539935588837</minimumDistance><medianDistance>0.25708243250846863</medianDistance></quality><uncertainty><minHorizontalUncertainty>6.645736217498779</minHorizontalUncertainty><maxHorizontalUncertainty>55.26018142700195</maxHorizontalUncertainty><azimuthMaxHorizontalUncertainty>44.18373489379883</azimuthMaxHorizontalUncertainty><preferredDescription>horizontal uncertainty</preferredDescription></uncertainty><evaluationMode>automatic</evaluationMode><arrival><pickID>de.gempa.tb2.Pick/20250412200712.349701.108792</pickID><phase>P</phase><azimuth>160.8903350830078</azimuth><distance>0.25708243250846863</distance><timeResidual>-0.003156304359436035</timeResidual><timeUsed>true</timeUsed><horizontalSlownessUsed>false</horizontalSlownessUsed><backazimuthUsed>false</backazimuthUsed><weight>1</weight></arrival><arrival><pickID>de.gempa.tb2.Pick/20250412200712.855812.108797</pickID><phase>P</phase><azimuth>171.53797912597656</azimuth><distance>0.16713500022888184</distance><timeResidual>-0.1481558084487915</timeResidual><timeUsed>true</timeUsed><horizontalSlownessUsed>false</horizontalSlownessUsed><backazimuthUsed>false</backazimuthUsed><weight>1</weight></arrival><arrival><pickID>de.gempa.tb2.Pick/20250412200712.867461.108802</pickID><phase>P</phase><azimuth>286.572265625</azimuth><distance>0.2042367309331894</distance><timeResidual>0.16193640232086182</timeResidual><timeUsed>true</timeUsed><horizontalSlownessUsed>false</horizontalSlownessUsed><backazimuthUsed>false</backazimuthUsed><weight>1</weight></arrival><arrival><pickID>de.gempa.tb2.Pick/20250412200713.398922.108810</pickID><phase>P</phase><azimuth>281.30035400390625</azimuth><distance>0.10849539935588837</distance><timeResidual>-0.2331184148788452</timeResidual><timeUsed>true</timeUsed><horizontalSlownessUsed>false</horizontalSlownessUsed><backazimuthUsed>false</backazimuthUsed><weight>1</weight></arrival><arrival><pickID>de.gempa.tb2.Pick/20250412200745.887393.108850</pickID><phase>P</phase><azimuth>227.87791442871094</azimuth><distance>2.9830095767974854</distance><timeResidual>0.13433659076690674</timeResidual><timeUsed>true</timeUsed><horizontalSlownessUsed>false</horizontalSlownessUsed><backazimuthUsed>false</backazimuthUsed><weight>1</weight></arrival><arrival><pickID>de.gempa.tb2.Pick/20250412200752.394942.108879</pickID><phase>P</phase><azimuth>165.17909240722656</azimuth><distance>0.3759470582008362</distance><timeResidual>0.08706152439117432</timeResidual><timeUsed>true</timeUsed><horizontalSlownessUsed>false</horizontalSlownessUsed><backazimuthUsed>false</backazimuthUsed><weight>1</weight></arrival><magnitude publicID="de.gempa.tb2.Magnitude/20250412200752.463643.32483"><magnitude><value>1.0324850721069303</value></magnitude><type>M</type><methodID>weighted average</methodID><stationCount>4</stationCount></magnitude></origin><event publicID="gempa2025hgco"><preferredOriginID>de.gempa.tb2.Origin/20250412200752.40254.52259</preferredOriginID><preferredMagnitudeID>de.gempa.tb2.Magnitude/20250412200752.463643.32483</preferredMagnitudeID><description><text>Germany</text><type>region name</type></description><originReference>de.gempa.tb2.Origin/20250412200752.40254.52259</originReference></event></EventParameters></seiscomp>