<?xml version="1.0" encoding="UTF-8"?>
<seiscomp xmlns="http://geofon.gfz-potsdam.de/ns/seiscomp3-schema/0.13" version="0.13"><EventParameters><pick publicID="de.gempa.tb1.Pick/20250415055628.541874.143853"><time><value>2025-04-15T05:56:17.569998Z</value></time><waveformID networkCode="CX" stationCode="PSGCX" channelCode="HHZ"/><filterID>ITAPER(4)&gt;&gt;BW(4,4,20)</filterID><methodID>AIC</methodID><horizontalSlowness><value>14.431271509606532</value></horizontalSlowness><backazimuth><value>314.40935504797733</value></backazimuth><phaseHint>P</phaseHint><evaluationMode>automatic</evaluationMode><comment><text>75.6061391421237</text><id>DFX:rectilinearity</id></comment><comment><text>15.422828669140753</text><id>SNR</id></comment></pick><pick publicID="de.gempa.tb1.Pick/20250415055635.435268.143855"><time><value>2025-04-15T05:56:29.979999Z</value></time><waveformID networkCode="CX" stationCode="PATCX" channelCode="HHZ"/><filterID>ITAPER(4)&gt;&gt;BW(4,4,20)</filterID><methodID>AIC</methodID><horizontalSlowness><value>18.874638101415577</value></horizontalSlowness><backazimuth><value>69.61810536001</value></backazimuth><phaseHint>P</phaseHint><evaluationMode>automatic</evaluationMode><comment><text>474.56944397757</text><id>DFX:rectilinearity</id></comment><comment><text>8.95347082319647</text><id>SNR</id></comment></pick><pick publicID="de.gempa.tb1.Pick/20250415055644.036808.143857"><time><value>2025-04-15T05:56:34.498393Z</value></time><waveformID networkCode="CX" stationCode="PB08" channelCode="HHZ"/><filterID>ITAPER(4)&gt;&gt;BW(4,4,20)</filterID><methodID>AIC</methodID><horizontalSlowness><value>19.43599533166218</value></horizontalSlowness><backazimuth><value>241.751353003472</value></backazimuth><phaseHint>P</phaseHint><evaluationMode>automatic</evaluationMode><comment><text>26.677210560848074</text><id>DFX:rectilinearity</id></comment><comment><text>7.97342849068436</text><id>SNR</id></comment></pick><pick publicID="de.gempa.tb1.Pick/20250415055644.457551.143859"><time><value>2025-04-15T05:56:36.918393Z</value></time><waveformID networkCode="CX" stationCode="PB02" channelCode="HHZ"/><filterID>ITAPER(4)&gt;&gt;BW(4,4,20)</filterID><methodID>AIC</methodID><horizontalSlowness><value>9.461142179844549</value></horizontalSlowness><backazimuth><value>322.9370824629226</value></backazimuth><phaseHint>P</phaseHint><evaluationMode>automatic</evaluationMode><comment><text>200.56884803154472</text><id>DFX:rectilinearity</id></comment><comment><text>9.47740193025831</text><id>SNR</id></comment></pick><pick publicID="de.gempa.tb1.Pick/20250415055644.71618.143861"><time><value>2025-04-15T05:56:36.998393Z</value></time><waveformID networkCode="CX" stationCode="PB01" channelCode="HHZ"/><filterID>ITAPER(4)&gt;&gt;BW(4,4,20)</filterID><methodID>AIC</methodID><horizontalSlowness><value>16.043371645730161</value></horizontalSlowness><backazimuth><value>304.1117694167151</value></backazimuth><phaseHint>P</phaseHint><evaluationMode>automatic</evaluationMode><comment><text>65.8946446331522</text><id>DFX:rectilinearity</id></comment><comment><text>8.810806970823959</text><id>SNR</id></comment></pick><pick publicID="de.gempa.tb1.Pick/20250415055707.803893.143866"><time><value>2025-04-15T05:56:48.39Z</value></time><waveformID networkCode="CX" stationCode="PB09" channelCode="HHZ"/><filterID>ITAPER(4)&gt;&gt;BW(4,4,20)</filterID><methodID>AIC</methodID><horizontalSlowness><value>12.599970749745815</value></horizontalSlowness><backazimuth><value>291.79248278352094</value></backazimuth><phaseHint>P</phaseHint><evaluationMode>automatic</evaluationMode><comment><text>28.559968239919204</text><id>DFX:rectilinearity</id></comment><comment><text>10.135756949115661</text><id>SNR</id></comment></pick><origin publicID="de.gempa.tb1.Origin/20250415055707.907837.162575"><time><value>2025-04-15T05:56:02.528505Z</value><uncertainty>9.991219520568848</uncertainty></time><latitude><value>-19.57006072998047</value><uncertainty>47.52791213989258</uncertainty></latitude><longitude><value>-70.95402526855469</value><uncertainty>56.52987289428711</uncertainty></longitude><depth><value>1.6051180362701416</value><uncertainty>18.39464569091797</uncertainty></depth><depthType>from location</depthType><methodID>LOCSAT</methodID><earthModelID>iasp91_scanloc</earthModelID><quality><associatedPhaseCount>6</associatedPhaseCount><usedPhaseCount>6</usedPhaseCount><associatedStationCount>6</associatedStationCount><usedStationCount>6</usedStationCount><depthPhaseCount>0</depthPhaseCount><standardError>0.4784850096674661</standardError><azimuthalGap>301.60858154296875</azimuthalGap><maximumDistance>2.7342464923858643</maximumDistance><minimumDistance>0.7839598059654236</minimumDistance><medianDistance>2.003654956817627</medianDistance></quality><uncertainty><minHorizontalUncertainty>27.202484130859375</minHorizontalUncertainty><maxHorizontalUncertainty>156.04452514648438</maxHorizontalUncertainty><azimuthMaxHorizontalUncertainty>129.7423553466797</azimuthMaxHorizontalUncertainty><preferredDescription>horizontal uncertainty</preferredDescription></uncertainty><evaluationMode>automatic</evaluationMode><evaluationStatus>confirmed</evaluationStatus><comment><text>0.05</text><id>mismatchScore</id></comment><comment><text>mismatchScore</text><id>scevalMethod</id></comment><arrival><pickID>de.gempa.tb1.Pick/20250415055628.541874.143853</pickID><phase>P</phase><azimuth>92.10975646972656</azimuth><distance>0.7839598059654236</distance><timeResidual>0.00021076202392578125</timeResidual><timeUsed>true</timeUsed><horizontalSlownessUsed>false</horizontalSlownessUsed><backazimuthUsed>false</backazimuthUsed><weight>1</weight></arrival><arrival><pickID>de.gempa.tb1.Pick/20250415055635.435268.143855</pickID><phase>P</phase><azimuth>148.97215270996094</azimuth><distance>1.4540919065475464</distance><timeResidual>0.1103057861328125</timeResidual><timeUsed>true</timeUsed><horizontalSlownessUsed>false</horizontalSlownessUsed><backazimuthUsed>false</backazimuthUsed><weight>1</weight></arrival><arrival><pickID>de.gempa.tb1.Pick/20250415055644.036808.143857</pickID><phase>P</phase><azimuth>108.83320617675781</azimuth><distance>1.787551760673523</distance><timeResidual>0.037850379943847656</timeResidual><timeUsed>true</timeUsed><horizontalSlownessUsed>false</horizontalSlownessUsed><backazimuthUsed>false</backazimuthUsed><weight>1</weight></arrival><arrival><pickID>de.gempa.tb1.Pick/20250415055644.457551.143859</pickID><phase>P</phase><azimuth>150.5011749267578</azimuth><distance>2.003654956817627</distance><timeResidual>-0.5154390335083008</timeResidual><timeUsed>true</timeUsed><horizontalSlownessUsed>false</horizontalSlownessUsed><backazimuthUsed>false</backazimuthUsed><weight>1</weight></arrival><arrival><pickID>de.gempa.tb1.Pick/20250415055644.71618.143861</pickID><phase>P</phase><azimuth>137.0458526611328</azimuth><distance>2.0107190608978271</distance><timeResidual>-0.5330038070678711</timeResidual><timeUsed>true</timeUsed><horizontalSlownessUsed>false</horizontalSlownessUsed><backazimuthUsed>false</backazimuthUsed><weight>1</weight></arrival><arrival><pickID>de.gempa.tb1.Pick/20250415055707.803893.143866</pickID><phase>P</phase><azimuth>144.40338134765625</azimuth><distance>2.7342464923858643</distance><timeResidual>0.9001760482788086</timeResidual><timeUsed>true</timeUsed><horizontalSlownessUsed>false</horizontalSlownessUsed><backazimuthUsed>false</backazimuthUsed><weight>1</weight></arrival><magnitude publicID="de.gempa.tb1.Magnitude/20250415055707.911407.579071"><magnitude><value>2.2002379022106964</value></magnitude><type>M</type><methodID>weighted average</methodID><stationCount>5</stationCount></magnitude></origin><event publicID="gempa2025hkod"><preferredOriginID>de.gempa.tb1.Origin/20250415055707.907837.162575</preferredOriginID><preferredMagnitudeID>de.gempa.tb1.Magnitude/20250415055707.911407.579071</preferredMagnitudeID><description><text>Near Coast of Northern Chile</text><type>region name</type></description><originReference>de.gempa.tb1.Origin/20250415055707.907837.162575</originReference></event></EventParameters></seiscomp>