<?xml version="1.0" encoding="UTF-8"?>
<seiscomp xmlns="http://geofon.gfz-potsdam.de/ns/seiscomp3-schema/0.13" version="0.13"><EventParameters><pick publicID="de.gempa.tb1.Pick/20250412040701.377543.146616"><time><value>2025-04-12T04:06:05.5Z</value></time><waveformID networkCode="SX" stationCode="WERD" channelCode="HHZ"/><filterID>ITAPER(2)&gt;&gt;BW(3,3,20)</filterID><methodID>AIC</methodID><horizontalSlowness><value>1.6146182477623918</value></horizontalSlowness><backazimuth><value>32.895736816434805</value></backazimuth><phaseHint>P</phaseHint><evaluationMode>automatic</evaluationMode><comment><text>5671.274261581333</text><id>DFX:rectilinearity</id></comment></pick><pick publicID="de.gempa.tb1.Pick/20250412040701.472148.146624"><time><value>2025-04-12T04:06:04.62Z</value></time><waveformID networkCode="TH" stationCode="ANNA" channelCode="HHZ"/><filterID>ITAPER(2)&gt;&gt;BW(3,3,20)</filterID><methodID>AIC</methodID><horizontalSlowness><value>3.072238110767488</value></horizontalSlowness><backazimuth><value>31.99702857274127</value></backazimuth><phaseHint>P</phaseHint><evaluationMode>automatic</evaluationMode><comment><text>6908.36933243712</text><id>DFX:rectilinearity</id></comment></pick><pick publicID="de.gempa.tb1.Pick/20250412040701.560721.146641"><time><value>2025-04-12T04:06:06.1175Z</value></time><waveformID networkCode="SX" stationCode="WERN" channelCode="HHZ"/><filterID>ITAPER(2)&gt;&gt;BW(3,3,20)</filterID><methodID>AIC</methodID><horizontalSlowness><value>1.1998393438546344</value></horizontalSlowness><backazimuth><value>156.9185199114559</value></backazimuth><phaseHint>P</phaseHint><evaluationMode>automatic</evaluationMode><comment><text>3190.5496109590836</text><id>DFX:rectilinearity</id></comment></pick><pick publicID="de.gempa.tb1.Pick/20250412040701.610775.146649"><time><value>2025-04-12T04:06:06.03Z</value></time><waveformID networkCode="SX" stationCode="LEUT" channelCode="HHN"/><filterID>ITAPER(3)&gt;&gt;BW(4,3,10)</filterID><methodID>L2-AIC-GRID</methodID><horizontalSlowness><value>2.5525753019314847</value></horizontalSlowness><backazimuth><value>78.16899037469884</value></backazimuth><phaseHint>S</phaseHint><evaluationMode>automatic</evaluationMode><comment><text>3906.213168453256</text><id>DFX:rectilinearity</id></comment><comment><text>de.gempa.tb1.Pick/20250412040701.577705.146643</text><id>RefPickID</id></comment></pick><pick publicID="de.gempa.tb1.Pick/20250412040701.680579.146655"><time><value>2025-04-12T04:06:05.42Z</value></time><waveformID networkCode="SX" stationCode="TANN" channelCode="HHZ"/><filterID>ITAPER(2)&gt;&gt;BW(3,3,20)</filterID><methodID>AIC</methodID><horizontalSlowness><value>1.8473537818691605</value></horizontalSlowness><backazimuth><value>70.70574311015999</value></backazimuth><phaseHint>P</phaseHint><evaluationMode>automatic</evaluationMode><comment><text>1594.5267215473334</text><id>DFX:rectilinearity</id></comment></pick><pick publicID="de.gempa.tb1.Pick/20250412040702.164781.146692"><time><value>2025-04-12T04:06:04.62Z</value></time><waveformID networkCode="SX" stationCode="FROHN" locationCode="00" channelCode="HHZ"/><filterID>ITAPER(2)&gt;&gt;BW(3,3,20)</filterID><methodID>AIC</methodID><horizontalSlowness><value>2.7792419983108965</value></horizontalSlowness><backazimuth><value>13.18624904841755</value></backazimuth><phaseHint>P</phaseHint><evaluationMode>automatic</evaluationMode><comment><text>4062.88715831803</text><id>DFX:rectilinearity</id></comment></pick><pick publicID="de.gempa.tb1.Pick/20250412040702.212717.146697"><time><value>2025-04-12T04:06:03.67Z</value></time><waveformID networkCode="TH" stationCode="MODW" channelCode="HHZ"/><filterID>ITAPER(2)&gt;&gt;BW(3,3,20)</filterID><methodID>AIC</methodID><horizontalSlowness><value>6.84114031886383</value></horizontalSlowness><backazimuth><value>0.014895085918112727</value></backazimuth><phaseHint>P</phaseHint><evaluationMode>automatic</evaluationMode><comment><text>12217.34639321546</text><id>DFX:rectilinearity</id></comment></pick><origin publicID="de.gempa.tb1.Origin/20250412040702.240831.96944"><time><value>2025-04-12T04:05:56.560857Z</value><uncertainty>0.9046561121940613</uncertainty></time><latitude><value>50.6900520324707</value><uncertainty>3.678837537765503</uncertainty></latitude><longitude><value>12.56374740600586</value><uncertainty>6.79192590713501</uncertainty></longitude><depth><value>25.97016906738281</value><uncertainty>7.815279006958008</uncertainty></depth><depthType>from location</depthType><methodID>LOCSAT</methodID><earthModelID>iasp91</earthModelID><quality><associatedPhaseCount>7</associatedPhaseCount><usedPhaseCount>7</usedPhaseCount><associatedStationCount>7</associatedStationCount><usedStationCount>7</usedStationCount><depthPhaseCount>0</depthPhaseCount><standardError>0.6043029016033427</standardError><azimuthalGap>132.45594787597656</azimuthalGap><maximumDistance>0.42060020565986633</maximumDistance><minimumDistance>0.0869026929140091</minimumDistance><medianDistance>0.2830931842327118</medianDistance></quality><uncertainty><minHorizontalUncertainty>7.305031299591064</minHorizontalUncertainty><maxHorizontalUncertainty>14.868955612182617</maxHorizontalUncertainty><azimuthMaxHorizontalUncertainty>103.3111343383789</azimuthMaxHorizontalUncertainty><preferredDescription>horizontal uncertainty</preferredDescription></uncertainty><evaluationMode>automatic</evaluationMode><evaluationStatus>confirmed</evaluationStatus><comment><text>0.02</text><id>mismatchScore</id></comment><comment><text>mismatchScore</text><id>scevalMethod</id></comment><arrival><pickID>de.gempa.tb1.Pick/20250412040701.377543.146616</pickID><phase>P</phase><azimuth>214.13990783691406</azimuth><distance>0.29247868061065674</distance><timeResidual>0.5258564949035645</timeResidual><timeUsed>true</timeUsed><horizontalSlownessUsed>false</horizontalSlownessUsed><backazimuthUsed>false</backazimuthUsed><weight>1</weight></arrival><arrival><pickID>de.gempa.tb1.Pick/20250412040701.472148.146624</pickID><phase>P</phase><azimuth>14.479801177978516</azimuth><distance>0.2057962268590927</distance><timeResidual>0.8448052406311035</timeResidual><timeUsed>true</timeUsed><horizontalSlownessUsed>false</horizontalSlownessUsed><backazimuthUsed>false</backazimuthUsed><weight>1</weight></arrival><arrival><pickID>de.gempa.tb1.Pick/20250412040701.560721.146641</pickID><phase>P</phase><azimuth>196.6300811767578</azimuth><distance>0.42060020565986633</distance><timeResidual>-0.6266818046569824</timeResidual><timeUsed>true</timeUsed><horizontalSlownessUsed>false</horizontalSlownessUsed><backazimuthUsed>false</backazimuthUsed><weight>1</weight></arrival><arrival><pickID>de.gempa.tb1.Pick/20250412040701.610775.146649</pickID><phase>S</phase><azimuth>197.34356689453125</azimuth><distance>0.0869026929140091</distance><timeResidual>-0.18995094299316406</timeResidual><timeUsed>true</timeUsed><horizontalSlownessUsed>false</horizontalSlownessUsed><backazimuthUsed>false</backazimuthUsed><weight>1</weight></arrival><arrival><pickID>de.gempa.tb1.Pick/20250412040701.680579.146655</pickID><phase>P</phase><azimuth>193.4265594482422</azimuth><distance>0.2830931842327118</distance><timeResidual>0.5753302574157715</timeResidual><timeUsed>true</timeUsed><horizontalSlownessUsed>false</horizontalSlownessUsed><backazimuthUsed>false</backazimuthUsed><weight>1</weight></arrival><arrival><pickID>de.gempa.tb1.Pick/20250412040702.164781.146692</pickID><phase>P</phase><azimuth>109.06294250488281</azimuth><distance>0.2867576479911804</distance><timeResidual>-0.2745089530944824</timeResidual><timeUsed>true</timeUsed><horizontalSlownessUsed>false</horizontalSlownessUsed><backazimuthUsed>false</backazimuthUsed><weight>1</weight></arrival><arrival><pickID>de.gempa.tb1.Pick/20250412040702.212717.146697</pickID><phase>P</phase><azimuth>346.5958557128906</azimuth><distance>0.2601008415222168</distance><timeResidual>-0.8549160957336426</timeResidual><timeUsed>true</timeUsed><horizontalSlownessUsed>false</horizontalSlownessUsed><backazimuthUsed>false</backazimuthUsed><weight>1</weight></arrival><magnitude publicID="de.gempa.tb1.Magnitude/20250412040702.246351.174072"><magnitude><value>1.3448727671902265</value></magnitude><type>M</type><methodID>weighted average</methodID><stationCount>6</stationCount></magnitude></origin><event publicID="gempa2025hewk"><preferredOriginID>de.gempa.tb1.Origin/20250412040702.240831.96944</preferredOriginID><preferredMagnitudeID>de.gempa.tb1.Magnitude/20250412040702.246351.174072</preferredMagnitudeID><description><text>Germany</text><type>region name</type></description><originReference>de.gempa.tb1.Origin/20250412040702.240831.96944</originReference></event></EventParameters></seiscomp>