<?xml version="1.0" encoding="UTF-8"?>
<seiscomp xmlns="http://geofon.gfz-potsdam.de/ns/seiscomp3-schema/0.13" version="0.13"><EventParameters><pick publicID="de.gempa.tb1.Pick/20250411130041.605397.117748"><time><value>2025-04-11T13:00:33.948393Z</value></time><waveformID networkCode="CX" stationCode="PB01" channelCode="HHZ"/><filterID>ITAPER(4)&gt;&gt;BW(4,4,20)</filterID><methodID>AIC</methodID><horizontalSlowness><value>11.60861817734605</value></horizontalSlowness><backazimuth><value>272.34761789267293</value></backazimuth><phaseHint>P</phaseHint><evaluationMode>automatic</evaluationMode><comment><text>18.060010071366456</text><id>DFX:rectilinearity</id></comment><comment><text>23.947910836652085</text><id>SNR</id></comment></pick><pick publicID="de.gempa.tb1.Pick/20250411130043.470075.117750"><time><value>2025-04-11T13:00:37.318394Z</value></time><waveformID networkCode="CX" stationCode="PB02" channelCode="HHZ"/><filterID>ITAPER(4)&gt;&gt;BW(4,4,20)</filterID><methodID>AIC</methodID><horizontalSlowness><value>18.3711521672262</value></horizontalSlowness><backazimuth><value>59.25022766480585</value></backazimuth><phaseHint>P</phaseHint><evaluationMode>automatic</evaluationMode><comment><text>35.17099673865355</text><id>DFX:rectilinearity</id></comment><comment><text>9.032219833589181</text><id>SNR</id></comment></pick><pick publicID="de.gempa.tb1.Pick/20250411130053.001757.117752"><time><value>2025-04-11T13:00:34.51Z</value></time><waveformID networkCode="CX" stationCode="PB09" channelCode="HHZ"/><filterID>ITAPER(4)&gt;&gt;BW(4,4,20)</filterID><methodID>AIC</methodID><horizontalSlowness><value>12.233609110638074</value></horizontalSlowness><backazimuth><value>299.3723416978893</value></backazimuth><phaseHint>P</phaseHint><evaluationMode>automatic</evaluationMode><comment><text>15.03313008020107</text><id>DFX:rectilinearity</id></comment><comment><text>12.720270964579893</text><id>SNR</id></comment></pick><pick publicID="de.gempa.tb1.Pick/20250411130056.253475.117756"><time><value>2025-04-11T13:00:38.058399Z</value></time><waveformID networkCode="CX" stationCode="PB07" channelCode="HHZ"/><filterID>ITAPER(4)&gt;&gt;BW(4,4,20)</filterID><methodID>AIC</methodID><horizontalSlowness><value>19.225555896332075</value></horizontalSlowness><backazimuth><value>78.35082270318142</value></backazimuth><phaseHint>P</phaseHint><evaluationMode>automatic</evaluationMode><comment><text>198.93648183607377</text><id>DFX:rectilinearity</id></comment><comment><text>9.309933702735846</text><id>SNR</id></comment></pick><pick publicID="de.gempa.tb1.Pick/20250411130057.854778.117758"><time><value>2025-04-11T13:00:47.598393Z</value></time><waveformID networkCode="CX" stationCode="PB01" channelCode="HHN"/><filterID>ITAPER(2)&gt;&gt;BW(3,3,20)</filterID><methodID>L2-AIC-GRID</methodID><horizontalSlowness><value>16.959827778077177</value></horizontalSlowness><backazimuth><value>329.691805238225</value></backazimuth><phaseHint>S</phaseHint><evaluationMode>automatic</evaluationMode><comment><text>19.0210555215573</text><id>DFX:rectilinearity</id></comment><comment><text>de.gempa.tb1.Pick/20250411130041.605397.117748</text><id>RefPickID</id></comment><comment><text>6.824047612464897</text><id>SNR</id></comment></pick><pick publicID="de.gempa.tb1.Pick/20250411130105.02879.117765"><time><value>2025-04-11T13:00:54.618399Z</value></time><waveformID networkCode="CX" stationCode="PB07" channelCode="HHN"/><filterID>ITAPER(2)&gt;&gt;BW(3,3,20)</filterID><methodID>L2-AIC-GRID</methodID><horizontalSlowness><value>21.513602896076005</value></horizontalSlowness><backazimuth><value>240.5356145339603</value></backazimuth><phaseHint>S</phaseHint><evaluationMode>automatic</evaluationMode><comment><text>373.7569246339531</text><id>DFX:rectilinearity</id></comment><comment><text>de.gempa.tb1.Pick/20250411130056.253475.117756</text><id>RefPickID</id></comment><comment><text>8.54446909885826</text><id>SNR</id></comment></pick><pick publicID="de.gempa.tb1.Pick/20250411130106.55282.117766"><time><value>2025-04-11T13:00:53.418394Z</value></time><waveformID networkCode="CX" stationCode="PB02" channelCode="HHN"/><filterID>ITAPER(2)&gt;&gt;BW(3,3,20)</filterID><methodID>L2-AIC-GRID</methodID><horizontalSlowness><value>14.016604373824332</value></horizontalSlowness><backazimuth><value>348.41411002184157</value></backazimuth><phaseHint>S</phaseHint><evaluationMode>automatic</evaluationMode><comment><text>70.79276693445551</text><id>DFX:rectilinearity</id></comment><comment><text>de.gempa.tb1.Pick/20250411130043.470075.117750</text><id>RefPickID</id></comment><comment><text>6.440396011526733</text><id>SNR</id></comment></pick><origin publicID="de.gempa.tb1.Origin/20250411130106.556633.56372"><time><value>2025-04-11T13:00:16.579334Z</value><uncertainty>1.4676131010055542</uncertainty></time><latitude><value>-21.263765335083008</value><uncertainty>10.245613098144531</uncertainty></latitude><longitude><value>-68.88558959960938</value><uncertainty>12.423355102539062</uncertainty></longitude><depth><value>109.53077697753906</value><uncertainty>15.196287155151367</uncertainty></depth><depthType>from location</depthType><methodID>LOCSAT</methodID><earthModelID>iasp91_scanloc</earthModelID><quality><associatedPhaseCount>7</associatedPhaseCount><usedPhaseCount>7</usedPhaseCount><associatedStationCount>4</associatedStationCount><usedStationCount>4</usedStationCount><depthPhaseCount>0</depthPhaseCount><standardError>0.1939090804401418</standardError><azimuthalGap>280.7510986328125</azimuthalGap><maximumDistance>1.0394601821899414</maximumDistance><minimumDistance>0.6030827164649963</minimumDistance><medianDistance>0.9439399838447571</medianDistance></quality><uncertainty><minHorizontalUncertainty>19.36482810974121</minHorizontalUncertainty><maxHorizontalUncertainty>28.592702865600586</maxHorizontalUncertainty><azimuthMaxHorizontalUncertainty>119.5676040649414</azimuthMaxHorizontalUncertainty><preferredDescription>horizontal uncertainty</preferredDescription></uncertainty><evaluationMode>automatic</evaluationMode><evaluationStatus>confirmed</evaluationStatus><comment><text>0.00</text><id>mismatchScore</id></comment><comment><text>mismatchScore</text><id>scevalMethod</id></comment><arrival><pickID>de.gempa.tb1.Pick/20250411130041.605397.117748</pickID><phase>P</phase><azimuth>291.2295227050781</azimuth><distance>0.6030827164649963</distance><timeResidual>-0.1923809051513672</timeResidual><timeUsed>true</timeUsed><horizontalSlownessUsed>false</horizontalSlownessUsed><backazimuthUsed>false</backazimuthUsed><weight>1</weight></arrival><arrival><pickID>de.gempa.tb1.Pick/20250411130043.470075.117750</pickID><phase>P</phase><azimuth>266.4355163574219</azimuth><distance>0.9439399838447571</distance><timeResidual>0.1198253631591797</timeResidual><timeUsed>true</timeUsed><horizontalSlownessUsed>false</horizontalSlownessUsed><backazimuthUsed>false</backazimuthUsed><weight>1</weight></arrival><arrival><pickID>de.gempa.tb1.Pick/20250411130053.001757.117752</pickID><phase>P</phase><azimuth>211.98062133789062</azimuth><distance>0.6252745985984802</distance><timeResidual>0.19986724853515625</timeResidual><timeUsed>true</timeUsed><horizontalSlownessUsed>false</horizontalSlownessUsed><backazimuthUsed>false</backazimuthUsed><weight>1</weight></arrival><arrival><pickID>de.gempa.tb1.Pick/20250411130056.253475.117756</pickID><phase>P</phase><azimuth>243.5138702392578</azimuth><distance>1.0394601821899414</distance><timeResidual>-0.12073135375976562</timeResidual><timeUsed>true</timeUsed><horizontalSlownessUsed>false</horizontalSlownessUsed><backazimuthUsed>false</backazimuthUsed><weight>1</weight></arrival><arrival><pickID>de.gempa.tb1.Pick/20250411130057.854778.117758</pickID><phase>S</phase><azimuth>291.2295227050781</azimuth><distance>0.6030827164649963</distance><timeResidual>-0.06630897521972656</timeResidual><timeUsed>true</timeUsed><horizontalSlownessUsed>false</horizontalSlownessUsed><backazimuthUsed>false</backazimuthUsed><weight>1</weight></arrival><arrival><pickID>de.gempa.tb1.Pick/20250411130105.02879.117765</pickID><phase>S</phase><azimuth>243.5138702392578</azimuth><distance>1.0394601821899414</distance><timeResidual>-0.24513816833496094</timeResidual><timeUsed>true</timeUsed><horizontalSlownessUsed>false</horizontalSlownessUsed><backazimuthUsed>false</backazimuthUsed><weight>1</weight></arrival><arrival><pickID>de.gempa.tb1.Pick/20250411130106.55282.117766</pickID><phase>S</phase><azimuth>266.4355163574219</azimuth><distance>0.9439399838447571</distance><timeResidual>0.3046703338623047</timeResidual><timeUsed>true</timeUsed><horizontalSlownessUsed>false</horizontalSlownessUsed><backazimuthUsed>false</backazimuthUsed><weight>1</weight></arrival><magnitude publicID="de.gempa.tb1.Magnitude/20250411130129.203776.100899"><magnitude><value>2.0035026568895105</value></magnitude><type>M</type><methodID>weighted average</methodID><stationCount>1</stationCount></magnitude></origin><event publicID="gempa2025hdsf"><preferredOriginID>de.gempa.tb1.Origin/20250411130106.556633.56372</preferredOriginID><preferredMagnitudeID>de.gempa.tb1.Magnitude/20250411130129.203776.100899</preferredMagnitudeID><description><text>Chile-Bolivia Border Region</text><type>region name</type></description><originReference>de.gempa.tb1.Origin/20250411130106.556633.56372</originReference></event></EventParameters></seiscomp>