<?xml version="1.0" encoding="UTF-8"?>
<seiscomp xmlns="http://geofon.gfz-potsdam.de/ns/seiscomp3-schema/0.13" version="0.13"><EventParameters><pick publicID="de.gempa.tb1.Pick/20250413061758.529634.129397"><time><value>2025-04-13T06:17:52.83Z</value></time><waveformID networkCode="CX" stationCode="PB19" channelCode="HHZ"/><filterID>ITAPER(4)&gt;&gt;BW(4,4,20)</filterID><methodID>AIC</methodID><horizontalSlowness><value>20.316836341432317</value></horizontalSlowness><backazimuth><value>110.1982469722357</value></backazimuth><phaseHint>P</phaseHint><evaluationMode>automatic</evaluationMode><comment><text>29.35905696365453</text><id>DFX:rectilinearity</id></comment><comment><text>37.565642822909545</text><id>SNR</id></comment></pick><pick publicID="de.gempa.tb1.Pick/20250413061758.585763.129399"><time><value>2025-04-13T06:17:51.998393Z</value></time><waveformID networkCode="CX" stationCode="PB06" channelCode="HHZ"/><filterID>ITAPER(4)&gt;&gt;BW(4,4,20)</filterID><methodID>AIC</methodID><horizontalSlowness><value>10.115299874267428</value></horizontalSlowness><backazimuth><value>133.13500911618615</value></backazimuth><phaseHint>P</phaseHint><evaluationMode>automatic</evaluationMode><comment><text>145.5445333579427</text><id>DFX:rectilinearity</id></comment><comment><text>94.14507814930859</text><id>SNR</id></comment></pick><pick publicID="de.gempa.tb1.Pick/20250413061800.574025.129401"><time><value>2025-04-13T06:17:56.458393Z</value></time><waveformID networkCode="CX" stationCode="PB03" channelCode="HHZ"/><filterID>ITAPER(4)&gt;&gt;BW(4,4,20)</filterID><methodID>AIC</methodID><horizontalSlowness><value>10.627038489268028</value></horizontalSlowness><backazimuth><value>120.02802786633953</value></backazimuth><phaseHint>P</phaseHint><evaluationMode>automatic</evaluationMode><comment><text>136.95865755707712</text><id>DFX:rectilinearity</id></comment><comment><text>112.8404196591674</text><id>SNR</id></comment></pick><pick publicID="de.gempa.tb1.Pick/20250413061806.196074.129403"><time><value>2025-04-13T06:17:54.990001Z</value></time><waveformID networkCode="CX" stationCode="PB09" channelCode="HHZ"/><filterID>ITAPER(4)&gt;&gt;BW(4,4,20)</filterID><methodID>AIC</methodID><horizontalSlowness><value>19.289350315217636</value></horizontalSlowness><backazimuth><value>137.28400357379579</value></backazimuth><phaseHint>P</phaseHint><evaluationMode>automatic</evaluationMode><comment><text>100.84081150915068</text><id>DFX:rectilinearity</id></comment><comment><text>156.8373202010121</text><id>SNR</id></comment></pick><pick publicID="de.gempa.tb1.Pick/20250413061808.544583.129406"><time><value>2025-04-13T06:18:03.248393Z</value></time><waveformID networkCode="CX" stationCode="PB02" channelCode="HHZ"/><filterID>ITAPER(4)&gt;&gt;BW(4,4,20)</filterID><methodID>AIC</methodID><horizontalSlowness><value>7.465768209592435</value></horizontalSlowness><backazimuth><value>142.72074231027565</value></backazimuth><phaseHint>P</phaseHint><evaluationMode>automatic</evaluationMode><comment><text>88.70659889304328</text><id>DFX:rectilinearity</id></comment><comment><text>41.4684024617789</text><id>SNR</id></comment></pick><pick publicID="de.gempa.tb1.Pick/20250413061809.541629.129408"><time><value>2025-04-13T06:18:03.298393Z</value></time><waveformID networkCode="CX" stationCode="PB01" channelCode="HHZ"/><filterID>ITAPER(4)&gt;&gt;BW(4,4,20)</filterID><methodID>AIC</methodID><horizontalSlowness><value>21.002805787837037</value></horizontalSlowness><backazimuth><value>357.5569468880123</value></backazimuth><phaseHint>P</phaseHint><evaluationMode>automatic</evaluationMode><comment><text>23.18034877682617</text><id>DFX:rectilinearity</id></comment><comment><text>48.80483699929002</text><id>SNR</id></comment></pick><pick publicID="de.gempa.tb1.Pick/20250413061818.566775.129410"><time><value>2025-04-13T06:18:11.748393Z</value></time><waveformID networkCode="CX" stationCode="PB06" channelCode="HHN"/><filterID>ITAPER(2)&gt;&gt;BW(3,3,20)</filterID><methodID>L2-AIC-GRID</methodID><horizontalSlowness><value>21.523108758756255</value></horizontalSlowness><backazimuth><value>162.02597705525378</value></backazimuth><phaseHint>S</phaseHint><evaluationMode>automatic</evaluationMode><comment><text>3484.7383204156567</text><id>DFX:rectilinearity</id></comment><comment><text>de.gempa.tb1.Pick/20250413061758.585763.129399</text><id>RefPickID</id></comment><comment><text>13.82759081446508</text><id>SNR</id></comment></pick><pick publicID="de.gempa.tb1.Pick/20250413061821.662961.129411"><time><value>2025-04-13T06:18:13.7Z</value></time><waveformID networkCode="CX" stationCode="PB19" channelCode="HHN"/><filterID>ITAPER(2)&gt;&gt;BW(3,3,20)</filterID><methodID>L2-AIC-GRID</methodID><horizontalSlowness><value>19.987646937420482</value></horizontalSlowness><backazimuth><value>22.75717345920532</value></backazimuth><phaseHint>S</phaseHint><evaluationMode>automatic</evaluationMode><comment><text>7838.894208826223</text><id>DFX:rectilinearity</id></comment><comment><text>de.gempa.tb1.Pick/20250413061758.529634.129397</text><id>RefPickID</id></comment><comment><text>14.77148283414325</text><id>SNR</id></comment></pick><pick publicID="de.gempa.tb1.Pick/20250413061827.766597.129414"><time><value>2025-04-13T06:18:19.788393Z</value></time><waveformID networkCode="CX" stationCode="PB03" channelCode="HHN"/><filterID>ITAPER(2)&gt;&gt;BW(3,3,20)</filterID><methodID>L2-AIC-GRID</methodID><horizontalSlowness><value>20.230431907376346</value></horizontalSlowness><backazimuth><value>16.972242902890457</value></backazimuth><phaseHint>S</phaseHint><evaluationMode>automatic</evaluationMode><comment><text>2184.2237824628328</text><id>DFX:rectilinearity</id></comment><comment><text>de.gempa.tb1.Pick/20250413061800.574025.129401</text><id>RefPickID</id></comment><comment><text>14.212242291365646</text><id>SNR</id></comment></pick><pick publicID="de.gempa.tb1.Pick/20250413061838.51457.129416"><time><value>2025-04-13T06:18:31.968393Z</value></time><waveformID networkCode="CX" stationCode="PB02" channelCode="HHN"/><filterID>ITAPER(2)&gt;&gt;BW(3,3,20)</filterID><methodID>L2-AIC-GRID</methodID><horizontalSlowness><value>17.516767759650474</value></horizontalSlowness><backazimuth><value>258.4512184117097</value></backazimuth><phaseHint>S</phaseHint><evaluationMode>automatic</evaluationMode><comment><text>442.50260917075553</text><id>DFX:rectilinearity</id></comment><comment><text>de.gempa.tb1.Pick/20250413061808.544583.129406</text><id>RefPickID</id></comment><comment><text>6.272340894513</text><id>SNR</id></comment></pick><pick publicID="de.gempa.tb1.Pick/20250413061840.791434.129417"><time><value>2025-04-13T06:18:31.438393Z</value></time><waveformID networkCode="CX" stationCode="PB01" channelCode="HHN"/><filterID>ITAPER(2)&gt;&gt;BW(3,3,20)</filterID><methodID>L2-AIC-GRID</methodID><horizontalSlowness><value>21.72179079804046</value></horizontalSlowness><backazimuth><value>65.11468167344647</value></backazimuth><phaseHint>S</phaseHint><evaluationMode>automatic</evaluationMode><comment><text>99.25996331518465</text><id>DFX:rectilinearity</id></comment><comment><text>de.gempa.tb1.Pick/20250413061809.541629.129408</text><id>RefPickID</id></comment><comment><text>7.06826243343787</text><id>SNR</id></comment></pick><origin publicID="de.gempa.tb1.Origin/20250413061840.794578.102816"><time><value>2025-04-13T06:17:26.532044Z</value><uncertainty>1.0465803146362305</uncertainty></time><latitude><value>-22.95234680175781</value><uncertainty>5.384959697723389</uncertainty></latitude><longitude><value>-68.29890441894531</value><uncertainty>22.339746475219727</uncertainty></longitude><depth><value>136.36697387695312</value><uncertainty>26.36407470703125</uncertainty></depth><depthType>from location</depthType><methodID>LOCSAT</methodID><earthModelID>iasp91_scanloc</earthModelID><quality><associatedPhaseCount>11</associatedPhaseCount><usedPhaseCount>11</usedPhaseCount><associatedStationCount>6</associatedStationCount><usedStationCount>6</usedStationCount><depthPhaseCount>0</depthPhaseCount><standardError>0.23222793312410747</standardError><azimuthalGap>254.02232360839844</azimuthalGap><maximumDistance>2.1982734203338623</maximumDistance><minimumDistance>1.1997933387756348</minimumDistance><medianDistance>1.617929458618164</medianDistance></quality><uncertainty><minHorizontalUncertainty>8.037598609924316</minHorizontalUncertainty><maxHorizontalUncertainty>48.61055374145508</maxHorizontalUncertainty><azimuthMaxHorizontalUncertainty>80.04383087158203</azimuthMaxHorizontalUncertainty><preferredDescription>horizontal uncertainty</preferredDescription></uncertainty><evaluationMode>automatic</evaluationMode><evaluationStatus>confirmed</evaluationStatus><comment><text>0.10</text><id>mismatchScore</id></comment><comment><text>mismatchScore</text><id>scevalMethod</id></comment><arrival><pickID>de.gempa.tb1.Pick/20250413061758.529634.129397</pickID><phase>P</phase><azimuth>223.66127014160156</azimuth><distance>1.3147610425949097</distance><timeResidual>-0.2781944274902344</timeResidual><timeUsed>true</timeUsed><horizontalSlownessUsed>false</horizontalSlownessUsed><backazimuthUsed>false</backazimuthUsed><weight>1</weight></arrival><arrival><pickID>de.gempa.tb1.Pick/20250413061758.585763.129399</pickID><phase>P</phase><azimuth>281.55572509765625</azimuth><distance>1.1997933387756348</distance><timeResidual>0.05446815490722656</timeResidual><timeUsed>true</timeUsed><horizontalSlownessUsed>false</horizontalSlownessUsed><backazimuthUsed>false</backazimuthUsed><weight>1</weight></arrival><arrival><pickID>de.gempa.tb1.Pick/20250413061800.574025.129401</pickID><phase>P</phase><azimuth>303.50140380859375</azimuth><distance>1.617929458618164</distance><timeResidual>0.04259300231933594</timeResidual><timeUsed>true</timeUsed><horizontalSlownessUsed>false</horizontalSlownessUsed><backazimuthUsed>false</backazimuthUsed><weight>1</weight></arrival><arrival><pickID>de.gempa.tb1.Pick/20250413061806.196074.129403</pickID><phase>P</phase><azimuth>322.63232421875</azimuth><distance>1.4440912008285522</distance><timeResidual>0.4941806793212891</timeResidual><timeUsed>true</timeUsed><horizontalSlownessUsed>false</horizontalSlownessUsed><backazimuthUsed>false</backazimuthUsed><weight>1</weight></arrival><arrival><pickID>de.gempa.tb1.Pick/20250413061808.544583.129406</pickID><phase>P</phase><azimuth>317.3520812988281</azimuth><distance>2.1982734203338623</distance><timeResidual>-0.04173088073730469</timeResidual><timeUsed>true</timeUsed><horizontalSlownessUsed>false</horizontalSlownessUsed><backazimuthUsed>false</backazimuthUsed><weight>1</weight></arrival><arrival><pickID>de.gempa.tb1.Pick/20250413061809.541629.129408</pickID><phase>P</phase><azimuth>329.6389465332031</azimuth><distance>2.196824550628662</distance><timeResidual>0.02412986755371094</timeResidual><timeUsed>true</timeUsed><horizontalSlownessUsed>false</horizontalSlownessUsed><backazimuthUsed>false</backazimuthUsed><weight>1</weight></arrival><arrival><pickID>de.gempa.tb1.Pick/20250413061818.566775.129410</pickID><phase>S</phase><azimuth>281.55572509765625</azimuth><distance>1.1997933387756348</distance><timeResidual>0.08498954772949219</timeResidual><timeUsed>true</timeUsed><horizontalSlownessUsed>false</horizontalSlownessUsed><backazimuthUsed>false</backazimuthUsed><weight>1</weight></arrival><arrival><pickID>de.gempa.tb1.Pick/20250413061821.662961.129411</pickID><phase>S</phase><azimuth>223.66127014160156</azimuth><distance>1.3147610425949097</distance><timeResidual>-0.04244804382324219</timeResidual><timeUsed>true</timeUsed><horizontalSlownessUsed>false</horizontalSlownessUsed><backazimuthUsed>false</backazimuthUsed><weight>1</weight></arrival><arrival><pickID>de.gempa.tb1.Pick/20250413061827.766597.129414</pickID><phase>S</phase><azimuth>303.50140380859375</azimuth><distance>1.617929458618164</distance><timeResidual>0.13496971130371094</timeResidual><timeUsed>true</timeUsed><horizontalSlownessUsed>false</horizontalSlownessUsed><backazimuthUsed>false</backazimuthUsed><weight>1</weight></arrival><arrival><pickID>de.gempa.tb1.Pick/20250413061838.51457.129416</pickID><phase>S</phase><azimuth>317.3520812988281</azimuth><distance>2.1982734203338623</distance><timeResidual>0.013910293579101562</timeResidual><timeUsed>true</timeUsed><horizontalSlownessUsed>false</horizontalSlownessUsed><backazimuthUsed>false</backazimuthUsed><weight>1</weight></arrival><arrival><pickID>de.gempa.tb1.Pick/20250413061840.791434.129417</pickID><phase>S</phase><azimuth>329.6389465332031</azimuth><distance>2.196824550628662</distance><timeResidual>-0.4869098663330078</timeResidual><timeUsed>true</timeUsed><horizontalSlownessUsed>false</horizontalSlownessUsed><backazimuthUsed>false</backazimuthUsed><weight>1</weight></arrival><magnitude publicID="de.gempa.tb1.Magnitude/20250413061845.937542.322789"><magnitude><value>3.0181791183766316</value></magnitude><type>M</type><methodID>weighted average</methodID><stationCount>5</stationCount></magnitude></origin><event publicID="gempa2025hgwv"><preferredOriginID>de.gempa.tb1.Origin/20250413061840.794578.102816</preferredOriginID><preferredMagnitudeID>de.gempa.tb1.Magnitude/20250413061845.937542.322789</preferredMagnitudeID><description><text>Northern Chile</text><type>region name</type></description><originReference>de.gempa.tb1.Origin/20250413061840.794578.102816</originReference></event></EventParameters></seiscomp>