<?xml version="1.0" encoding="UTF-8"?>
<seiscomp xmlns="http://geofon.gfz-potsdam.de/ns/seiscomp3-schema/0.13" version="0.13"><EventParameters><pick publicID="de.gempa.tb1.Pick/20250413032943.588123.128595"><time><value>2025-04-13T03:29:38.31Z</value></time><waveformID networkCode="CX" stationCode="PSGCX" channelCode="HHZ"/><filterID>ITAPER(4)&gt;&gt;BW(4,4,20)</filterID><methodID>AIC</methodID><horizontalSlowness><value>13.46859836604806</value></horizontalSlowness><backazimuth><value>336.3940741345639</value></backazimuth><phaseHint>P</phaseHint><evaluationMode>automatic</evaluationMode><comment><text>12856.452649664083</text><id>DFX:rectilinearity</id></comment><comment><text>277.861759242218</text><id>SNR</id></comment></pick><pick publicID="de.gempa.tb1.Pick/20250413032946.472123.128597"><time><value>2025-04-13T03:29:40.308393Z</value></time><waveformID networkCode="CX" stationCode="PB16" channelCode="HHZ"/><filterID>ITAPER(4)&gt;&gt;BW(4,4,20)</filterID><methodID>AIC</methodID><horizontalSlowness><value>6.150082675935557</value></horizontalSlowness><backazimuth><value>317.0254684762375</value></backazimuth><phaseHint>P</phaseHint><evaluationMode>automatic</evaluationMode><comment><text>9741.824774089091</text><id>DFX:rectilinearity</id></comment><comment><text>1266.4611687670915</text><id>SNR</id></comment></pick><pick publicID="de.gempa.tb1.Pick/20250413032959.465353.128601"><time><value>2025-04-13T03:29:51.809999Z</value></time><waveformID networkCode="CX" stationCode="PATCX" channelCode="HHZ"/><filterID>ITAPER(4)&gt;&gt;BW(4,4,20)</filterID><methodID>AIC</methodID><horizontalSlowness><value>16.774342468278363</value></horizontalSlowness><backazimuth><value>288.42399088900186</value></backazimuth><phaseHint>P</phaseHint><evaluationMode>automatic</evaluationMode><comment><text>312.1305377707644</text><id>DFX:rectilinearity</id></comment><comment><text>18.239829200517768</text><id>SNR</id></comment></pick><pick publicID="de.gempa.tb1.Pick/20250413033001.805093.128603"><time><value>2025-04-13T03:29:53.978393Z</value></time><waveformID networkCode="CX" stationCode="PB08" channelCode="HHZ"/><filterID>ITAPER(4)&gt;&gt;BW(4,4,20)</filterID><methodID>AIC</methodID><horizontalSlowness><value>14.095541919335934</value></horizontalSlowness><backazimuth><value>229.45436332816544</value></backazimuth><phaseHint>P</phaseHint><evaluationMode>automatic</evaluationMode><comment><text>141.09007048785494</text><id>DFX:rectilinearity</id></comment><comment><text>27.202033305241557</text><id>SNR</id></comment></pick><pick publicID="de.gempa.tb1.Pick/20250413033005.584983.128605"><time><value>2025-04-13T03:29:58.828394Z</value></time><waveformID networkCode="CX" stationCode="PB01" channelCode="HHZ"/><filterID>ITAPER(4)&gt;&gt;BW(4,4,20)</filterID><methodID>AIC</methodID><horizontalSlowness><value>15.450993387418459</value></horizontalSlowness><backazimuth><value>315.4542137812419</value></backazimuth><phaseHint>P</phaseHint><evaluationMode>automatic</evaluationMode><comment><text>404.91346392709653</text><id>DFX:rectilinearity</id></comment><comment><text>68.68910933195099</text><id>SNR</id></comment></pick><pick publicID="de.gempa.tb1.Pick/20250413033005.807399.128607"><time><value>2025-04-13T03:29:59.638393Z</value></time><waveformID networkCode="CX" stationCode="PB02" channelCode="HHZ"/><filterID>ITAPER(4)&gt;&gt;BW(4,4,20)</filterID><methodID>AIC</methodID><horizontalSlowness><value>10.703048122356968</value></horizontalSlowness><backazimuth><value>11.940214266153873</value></backazimuth><phaseHint>P</phaseHint><evaluationMode>automatic</evaluationMode><comment><text>820.07720987821</text><id>DFX:rectilinearity</id></comment><comment><text>76.3499839908437</text><id>SNR</id></comment></pick><pick publicID="de.gempa.tb1.Pick/20250413033009.978139.128609"><time><value>2025-04-13T03:30:02.798393Z</value></time><waveformID networkCode="CX" stationCode="PB16" channelCode="HHN"/><filterID>ITAPER(2)&gt;&gt;BW(3,3,20)</filterID><methodID>L2-AIC-GRID</methodID><horizontalSlowness><value>8.612298033144976</value></horizontalSlowness><backazimuth><value>337.0886718856533</value></backazimuth><phaseHint>S</phaseHint><evaluationMode>automatic</evaluationMode><comment><text>498045.4939587907</text><id>DFX:rectilinearity</id></comment><comment><text>de.gempa.tb1.Pick/20250413032946.472123.128597</text><id>RefPickID</id></comment><comment><text>5.131258406966892</text><id>SNR</id></comment></pick><pick publicID="de.gempa.tb1.Pick/20250413033014.439802.128612"><time><value>2025-04-13T03:30:09.138393Z</value></time><waveformID networkCode="CX" stationCode="PB03" channelCode="HHZ"/><filterID>ITAPER(4)&gt;&gt;BW(4,4,20)</filterID><methodID>AIC</methodID><horizontalSlowness><value>9.765490739494798</value></horizontalSlowness><backazimuth><value>330.42589130596286</value></backazimuth><phaseHint>P</phaseHint><evaluationMode>automatic</evaluationMode><comment><text>264.45043047074313</text><id>DFX:rectilinearity</id></comment><comment><text>59.72137714180732</text><id>SNR</id></comment></pick><pick publicID="de.gempa.tb1.Pick/20250413033021.648077.128614"><time><value>2025-04-13T03:30:10.21Z</value></time><waveformID networkCode="CX" stationCode="PB09" channelCode="HHZ"/><filterID>ITAPER(4)&gt;&gt;BW(4,4,20)</filterID><methodID>AIC</methodID><horizontalSlowness><value>14.153873999721926</value></horizontalSlowness><backazimuth><value>53.34624651122954</value></backazimuth><phaseHint>P</phaseHint><evaluationMode>automatic</evaluationMode><comment><text>158.5044952401291</text><id>DFX:rectilinearity</id></comment><comment><text>65.66998131143035</text><id>SNR</id></comment></pick><pick publicID="de.gempa.tb1.Pick/20250413033024.655397.128616"><time><value>2025-04-13T03:30:17.668393Z</value></time><waveformID networkCode="CX" stationCode="PB06" channelCode="HHZ"/><filterID>ITAPER(4)&gt;&gt;BW(4,4,20)</filterID><methodID>AIC</methodID><horizontalSlowness><value>8.094167216614121</value></horizontalSlowness><backazimuth><value>143.29675880114164</value></backazimuth><phaseHint>P</phaseHint><evaluationMode>automatic</evaluationMode><comment><text>36.365927307020876</text><id>DFX:rectilinearity</id></comment><comment><text>14.974154484082067</text><id>SNR</id></comment></pick><pick publicID="de.gempa.tb1.Pick/20250413033026.212304.128618"><time><value>2025-04-13T03:30:04.498394Z</value></time><waveformID networkCode="CX" stationCode="PB07" channelCode="HHZ"/><filterID>ITAPER(4)&gt;&gt;BW(4,4,20)</filterID><methodID>AIC</methodID><horizontalSlowness><value>22.90890353659087</value></horizontalSlowness><backazimuth><value>23.18677472646115</value></backazimuth><phaseHint>P</phaseHint><evaluationMode>automatic</evaluationMode><comment><text>832.3409245875214</text><id>DFX:rectilinearity</id></comment><comment><text>61.98524845445088</text><id>SNR</id></comment></pick><pick publicID="de.gempa.tb1.Pick/20250413033033.175325.128622"><time><value>2025-04-13T03:30:24.49Z</value></time><waveformID networkCode="CX" stationCode="PB10" channelCode="HHZ"/><filterID>ITAPER(4)&gt;&gt;BW(4,4,20)</filterID><methodID>AIC</methodID><horizontalSlowness><value>12.71246210975178</value></horizontalSlowness><backazimuth><value>60.32531750667984</value></backazimuth><phaseHint>P</phaseHint><evaluationMode>automatic</evaluationMode><comment><text>262.2697940463025</text><id>DFX:rectilinearity</id></comment><comment><text>6.46210310627294</text><id>SNR</id></comment></pick><pick publicID="de.gempa.tb1.Pick/20250413033034.251093.128625"><time><value>2025-04-13T03:30:26.458393Z</value></time><waveformID networkCode="CX" stationCode="PB08" channelCode="HHN"/><filterID>ITAPER(2)&gt;&gt;BW(3,3,20)</filterID><methodID>L2-AIC-GRID</methodID><horizontalSlowness><value>15.772802909661582</value></horizontalSlowness><backazimuth><value>208.1085368398323</value></backazimuth><phaseHint>S</phaseHint><evaluationMode>automatic</evaluationMode><comment><text>3816.0913237447844</text><id>DFX:rectilinearity</id></comment><comment><text>de.gempa.tb1.Pick/20250413033001.805093.128603</text><id>RefPickID</id></comment><comment><text>6.684373940553884</text><id>SNR</id></comment></pick><pick publicID="de.gempa.tb1.Pick/20250413033043.849695.128626"><time><value>2025-04-13T03:30:35.55Z</value></time><waveformID networkCode="CX" stationCode="PB19" channelCode="HHZ"/><filterID>ITAPER(4)&gt;&gt;BW(4,4,20)</filterID><methodID>AIC</methodID><horizontalSlowness><value>23.219018999986424</value></horizontalSlowness><backazimuth><value>46.95239539794238</value></backazimuth><phaseHint>P</phaseHint><evaluationMode>automatic</evaluationMode><comment><text>24.610015691505307</text><id>DFX:rectilinearity</id></comment><comment><text>10.868379498286298</text><id>SNR</id></comment></pick><pick publicID="de.gempa.tb1.Pick/20250413033044.771264.128628"><time><value>2025-04-13T03:30:35.398394Z</value></time><waveformID networkCode="CX" stationCode="PB01" channelCode="HHN"/><filterID>ITAPER(2)&gt;&gt;BW(3,3,20)</filterID><methodID>L2-AIC-GRID</methodID><horizontalSlowness><value>18.8432111469122</value></horizontalSlowness><backazimuth><value>149.36260818337297</value></backazimuth><phaseHint>S</phaseHint><evaluationMode>automatic</evaluationMode><comment><text>5468.062660435133</text><id>DFX:rectilinearity</id></comment><comment><text>de.gempa.tb1.Pick/20250413033005.584983.128605</text><id>RefPickID</id></comment><comment><text>5.229861109146571</text><id>SNR</id></comment></pick><origin publicID="de.gempa.tb1.Origin/20250413033044.774747.99984"><time><value>2025-04-13T03:29:09.583258Z</value><uncertainty>0.912976861000061</uncertainty></time><latitude><value>-18.525005340576172</value><uncertainty>5.733198642730713</uncertainty></latitude><longitude><value>-71.2795639038086</value><uncertainty>5.445662975311279</uncertainty></longitude><depth><value>0</value></depth><depthType>operator assigned</depthType><methodID>LOCSAT</methodID><earthModelID>iasp91_scanloc</earthModelID><quality><associatedPhaseCount>15</associatedPhaseCount><usedPhaseCount>15</usedPhaseCount><associatedStationCount>12</associatedStationCount><usedStationCount>12</usedStationCount><depthPhaseCount>0</depthPhaseCount><standardError>0.8225858047324528</standardError><azimuthalGap>271.5209426879883</azimuthalGap><maximumDistance>5.665363311767578</maximumDistance><minimumDistance>1.527732253074646</minimumDistance><medianDistance>3.0205326080322266</medianDistance></quality><uncertainty><minHorizontalUncertainty>8.650028228759766</minHorizontalUncertainty><maxHorizontalUncertainty>14.58577823638916</maxHorizontalUncertainty><azimuthMaxHorizontalUncertainty>138.07659912109375</azimuthMaxHorizontalUncertainty><preferredDescription>horizontal uncertainty</preferredDescription></uncertainty><evaluationMode>automatic</evaluationMode><evaluationStatus>confirmed</evaluationStatus><comment><text>0.00</text><id>mismatchScore</id></comment><comment><text>mismatchScore</text><id>scevalMethod</id></comment><arrival><pickID>de.gempa.tb1.Pick/20250413032943.588123.128595</pickID><phase>P</phase><azimuth>134.46023559570312</azimuth><distance>1.527732253074646</distance><timeResidual>0.17798614501953125</timeResidual><timeUsed>true</timeUsed><horizontalSlownessUsed>false</horizontalSlownessUsed><backazimuthUsed>false</backazimuthUsed><weight>1</weight></arrival><arrival><pickID>de.gempa.tb1.Pick/20250413032946.472123.128597</pickID><phase>P</phase><azimuth>83.87207794189453</azimuth><distance>1.6927026510238647</distance><timeResidual>-0.09592819213867188</timeResidual><timeUsed>true</timeUsed><horizontalSlownessUsed>false</horizontalSlownessUsed><backazimuthUsed>false</backazimuthUsed><weight>1</weight></arrival><arrival><pickID>de.gempa.tb1.Pick/20250413032959.465353.128601</pickID><phase>P</phase><azimuth>155.25291442871094</azimuth><distance>2.5184826850891113</distance><timeResidual>0.040828704833984375</timeResidual><timeUsed>true</timeUsed><horizontalSlownessUsed>false</horizontalSlownessUsed><backazimuthUsed>false</backazimuthUsed><weight>1</weight></arrival><arrival><pickID>de.gempa.tb1.Pick/20250413033001.805093.128603</pickID><phase>P</phase><azimuth>129.0309295654297</azimuth><distance>2.571992874145508</distance><timeResidual>1.4719161987304688</timeResidual><timeUsed>true</timeUsed><horizontalSlownessUsed>false</horizontalSlownessUsed><backazimuthUsed>false</backazimuthUsed><weight>1</weight></arrival><arrival><pickID>de.gempa.tb1.Pick/20250413033005.584983.128605</pickID><phase>P</phase><azimuth>146.33042907714844</azimuth><distance>3.0205326080322266</distance><timeResidual>0.148406982421875</timeResidual><timeUsed>true</timeUsed><horizontalSlownessUsed>false</horizontalSlownessUsed><backazimuthUsed>false</backazimuthUsed><weight>1</weight></arrival><arrival><pickID>de.gempa.tb1.Pick/20250413033005.807399.128607</pickID><phase>P</phase><azimuth>155.14222717285156</azimuth><distance>3.0699033737182617</distance><timeResidual>0.2791633605957031</timeResidual><timeUsed>true</timeUsed><horizontalSlownessUsed>false</horizontalSlownessUsed><backazimuthUsed>false</backazimuthUsed><weight>1</weight></arrival><arrival><pickID>de.gempa.tb1.Pick/20250413033009.978139.128609</pickID><phase>S</phase><azimuth>83.87207794189453</azimuth><distance>1.6927026510238647</distance><timeResidual>-0.9532108306884766</timeResidual><timeUsed>true</timeUsed><horizontalSlownessUsed>false</horizontalSlownessUsed><backazimuthUsed>false</backazimuthUsed><weight>1</weight></arrival><arrival><pickID>de.gempa.tb1.Pick/20250413033014.439802.128612</pickID><phase>P</phase><azimuth>158.0259246826172</azimuth><distance>3.786947250366211</distance><timeResidual>-0.08808135986328125</timeResidual><timeUsed>true</timeUsed><horizontalSlownessUsed>false</horizontalSlownessUsed><backazimuthUsed>false</backazimuthUsed><weight>1</weight></arrival><arrival><pickID>de.gempa.tb1.Pick/20250413033021.648077.128614</pickID><phase>P</phase><azimuth>149.88009643554688</azimuth><distance>3.775692939758301</distance><timeResidual>1.1381359100341797</timeResidual><timeUsed>true</timeUsed><horizontalSlownessUsed>false</horizontalSlownessUsed><backazimuthUsed>false</backazimuthUsed><weight>1</weight></arrival><arrival><pickID>de.gempa.tb1.Pick/20250413033024.655397.128616</pickID><phase>P</phase><azimuth>159.2587127685547</azimuth><distance>4.4565038681030273</distance><timeResidual>-0.7698745727539062</timeResidual><timeUsed>true</timeUsed><horizontalSlownessUsed>false</horizontalSlownessUsed><backazimuthUsed>false</backazimuthUsed><weight>1</weight></arrival><arrival><pickID>de.gempa.tb1.Pick/20250413033026.212304.128618</pickID><phase>P</phase><azimuth>157.8892059326172</azimuth><distance>3.4437904357910156</distance><timeResidual>-0.006143569946289062</timeResidual><timeUsed>true</timeUsed><horizontalSlownessUsed>false</horizontalSlownessUsed><backazimuthUsed>false</backazimuthUsed><weight>1</weight></arrival><arrival><pickID>de.gempa.tb1.Pick/20250413033033.175325.128622</pickID><phase>P</phase><azimuth>172.35113525390625</azimuth><distance>5.009603977203369</distance><timeResidual>-1.556041717529297</timeResidual><timeUsed>true</timeUsed><horizontalSlownessUsed>false</horizontalSlownessUsed><backazimuthUsed>false</backazimuthUsed><weight>1</weight></arrival><arrival><pickID>de.gempa.tb1.Pick/20250413033034.251093.128625</pickID><phase>S</phase><azimuth>129.0309295654297</azimuth><distance>2.571992874145508</distance><timeResidual>0.9411659240722656</timeResidual><timeUsed>true</timeUsed><horizontalSlownessUsed>false</horizontalSlownessUsed><backazimuthUsed>false</backazimuthUsed><weight>1</weight></arrival><arrival><pickID>de.gempa.tb1.Pick/20250413033043.849695.128626</pickID><phase>P</phase><azimuth>161.2304229736328</azimuth><distance>5.665363311767578</distance><timeResidual>0.4912872314453125</timeResidual><timeUsed>true</timeUsed><horizontalSlownessUsed>false</horizontalSlownessUsed><backazimuthUsed>false</backazimuthUsed><weight>1</weight></arrival><arrival><pickID>de.gempa.tb1.Pick/20250413033044.771264.128628</pickID><phase>S</phase><azimuth>146.33042907714844</azimuth><distance>3.0205326080322266</distance><timeResidual>-1.219745635986328</timeResidual><timeUsed>true</timeUsed><horizontalSlownessUsed>false</horizontalSlownessUsed><backazimuthUsed>false</backazimuthUsed><weight>1</weight></arrival><magnitude publicID="de.gempa.tb1.Magnitude/20250413033050.93945.307089"><magnitude><value>3.734646580063468</value></magnitude><type>M</type><methodID>weighted average</methodID><stationCount>10</stationCount></magnitude></origin><event publicID="gempa2025hgrf"><preferredOriginID>de.gempa.tb1.Origin/20250413033044.774747.99984</preferredOriginID><preferredMagnitudeID>de.gempa.tb1.Magnitude/20250413033050.93945.307089</preferredMagnitudeID><description><text>Off Coast of Northern Chile</text><type>region name</type></description><originReference>de.gempa.tb1.Origin/20250413033044.774747.99984</originReference></event></EventParameters></seiscomp>