<?xml version="1.0" encoding="UTF-8"?>
<seiscomp xmlns="http://geofon.gfz-potsdam.de/ns/seiscomp3-schema/0.13" version="0.13"><EventParameters><pick publicID="de.gempa.tb1.Pick/20250413092407.128441.186407"><time><value>2025-04-13T09:24:03.57Z</value></time><waveformID networkCode="CH" stationCode="FIESA" channelCode="HHZ"/><filterID>ITAPER(4)&gt;&gt;BW(4,4,20)</filterID><methodID>AIC</methodID><phaseHint>P</phaseHint><evaluationMode>automatic</evaluationMode></pick><pick publicID="de.gempa.tb1.Pick/20250413092417.125768.186417"><time><value>2025-04-13T09:24:08.868393Z</value></time><waveformID networkCode="CH" stationCode="GRIMS" channelCode="HHZ"/><filterID>ITAPER(4)&gt;&gt;BW(4,4,20)</filterID><methodID>AIC</methodID><phaseHint>P</phaseHint><evaluationMode>automatic</evaluationMode></pick><pick publicID="de.gempa.tb1.Pick/20250413092418.165323.186421"><time><value>2025-04-13T09:24:12.385Z</value></time><waveformID networkCode="CH" stationCode="BNALP" channelCode="HHZ"/><filterID>ITAPER(4)&gt;&gt;BW(4,4,20)</filterID><methodID>AIC</methodID><phaseHint>P</phaseHint><evaluationMode>automatic</evaluationMode></pick><pick publicID="de.gempa.tb1.Pick/20250413092418.189255.186423"><time><value>2025-04-13T09:24:06.395Z</value></time><waveformID networkCode="CH" stationCode="HASLI" channelCode="HHZ"/><filterID>ITAPER(4)&gt;&gt;BW(4,4,20)</filterID><methodID>AIC</methodID><phaseHint>P</phaseHint><evaluationMode>automatic</evaluationMode></pick><pick publicID="de.gempa.tb1.Pick/20250413092420.762544.186427"><time><value>2025-04-13T09:24:10.795Z</value></time><waveformID networkCode="CH" stationCode="MMK" channelCode="HHZ"/><filterID>ITAPER(4)&gt;&gt;BW(4,4,20)</filterID><methodID>AIC</methodID><phaseHint>P</phaseHint><evaluationMode>automatic</evaluationMode></pick><pick publicID="de.gempa.tb1.Pick/20250413092439.253628.186432"><time><value>2025-04-13T09:24:20.61Z</value></time><waveformID networkCode="CH" stationCode="MUGIO" channelCode="HHZ"/><filterID>ITAPER(4)&gt;&gt;BW(4,4,20)</filterID><methodID>AIC</methodID><phaseHint>P</phaseHint><evaluationMode>automatic</evaluationMode></pick><origin publicID="de.gempa.tb1.Origin/20250413092439.257419.117845"><time><value>2025-04-13T09:24:01.562382Z</value><uncertainty>1.1331709623336792</uncertainty></time><latitude><value>46.50442886352539</value><uncertainty>3.7939553260803223</uncertainty></latitude><longitude><value>7.887855052947998</value><uncertainty>8.964187622070312</uncertainty></longitude><depth><value>0</value></depth><depthType>operator assigned</depthType><methodID>LOCSAT</methodID><earthModelID>iasp91</earthModelID><quality><associatedPhaseCount>6</associatedPhaseCount><usedPhaseCount>6</usedPhaseCount><associatedStationCount>6</associatedStationCount><usedStationCount>6</usedStationCount><depthPhaseCount>0</depthPhaseCount><standardError>0.9880840748532915</standardError><azimuthalGap>222.2721939086914</azimuthalGap><maximumDistance>0.9906861186027527</maximumDistance><minimumDistance>0.16867618262767792</minimumDistance><medianDistance>0.4570855796337128</medianDistance></quality><uncertainty><minHorizontalUncertainty>7.529818058013916</minHorizontalUncertainty><maxHorizontalUncertainty>19.475378036499023</maxHorizontalUncertainty><azimuthMaxHorizontalUncertainty>99.89973449707031</azimuthMaxHorizontalUncertainty><preferredDescription>horizontal uncertainty</preferredDescription></uncertainty><evaluationMode>automatic</evaluationMode><comment><text>0.64</text><id>mismatchScore</id></comment><arrival><pickID>de.gempa.tb1.Pick/20250413092407.128441.186407</pickID><phase>P</phase><azimuth>114.1338653564453</azimuth><distance>0.16867618262767792</distance><timeResidual>-1.3464710712432861</timeResidual><timeUsed>true</timeUsed><horizontalSlownessUsed>false</horizontalSlownessUsed><backazimuthUsed>false</backazimuthUsed><weight>1</weight></arrival><arrival><pickID>de.gempa.tb1.Pick/20250413092417.125768.186417</pickID><phase>P</phase><azimuth>75.92273712158203</azimuth><distance>0.30651208758354187</distance><timeResidual>1.3315541744232178</timeResidual><timeUsed>true</timeUsed><horizontalSlownessUsed>false</horizontalSlownessUsed><backazimuthUsed>false</backazimuthUsed><weight>1</weight></arrival><arrival><pickID>de.gempa.tb1.Pick/20250413092418.165323.186421</pickID><phase>P</phase><azimuth>45.08516693115234</azimuth><distance>0.5204276442527771</distance><timeResidual>0.7815811634063721</timeResidual><timeUsed>true</timeUsed><horizontalSlownessUsed>false</horizontalSlownessUsed><backazimuthUsed>false</backazimuthUsed><weight>1</weight></arrival><arrival><pickID>de.gempa.tb1.Pick/20250413092418.189255.186423</pickID><phase>P</phase><azimuth>35.61064910888672</azimuth><distance>0.310916006565094</distance><timeResidual>-1.2252612113952637</timeResidual><timeUsed>true</timeUsed><horizontalSlownessUsed>false</horizontalSlownessUsed><backazimuthUsed>false</backazimuthUsed><weight>1</weight></arrival><arrival><pickID>de.gempa.tb1.Pick/20250413092420.762544.186427</pickID><phase>P</phase><azimuth>173.3384552001953</azimuth><distance>0.4570855796337128</distance><timeResidual>0.3944547176361084</timeResidual><timeUsed>true</timeUsed><horizontalSlownessUsed>false</horizontalSlownessUsed><backazimuthUsed>false</backazimuthUsed><weight>1</weight></arrival><arrival><pickID>de.gempa.tb1.Pick/20250413092439.253628.186432</pickID><phase>P</phase><azimuth>125.61246490478516</azimuth><distance>0.9906861186027527</distance><timeResidual>0.06411957740783691</timeResidual><timeUsed>true</timeUsed><horizontalSlownessUsed>false</horizontalSlownessUsed><backazimuthUsed>false</backazimuthUsed><weight>1</weight></arrival><magnitude publicID="de.gempa.tb1.Magnitude/20250413092535.872697.338345"><magnitude><value>1.8992304644048121</value></magnitude><type>M</type><methodID>weighted average</methodID><stationCount>6</stationCount></magnitude></origin><event publicID="gempa2025hhdb"><preferredOriginID>de.gempa.tb1.Origin/20250413092439.257419.117845</preferredOriginID><preferredMagnitudeID>de.gempa.tb1.Magnitude/20250413092535.872697.338345</preferredMagnitudeID><description><text>Switzerland</text><type>region name</type></description><originReference>de.gempa.tb1.Origin/20250413092439.257419.117845</originReference></event></EventParameters></seiscomp>