<?xml version="1.0" encoding="UTF-8"?>
<seiscomp xmlns="http://geofon.gfz-potsdam.de/ns/seiscomp3-schema/0.13" version="0.13"><EventParameters><pick publicID="de.gempa.tb1.Pick/20250414170515.573039.139467"><time><value>2025-04-14T17:05:10.728393Z</value></time><waveformID networkCode="CX" stationCode="PB01" channelCode="HHZ"/><filterID>ITAPER(4)&gt;&gt;BW(4,4,20)</filterID><methodID>AIC</methodID><horizontalSlowness><value>22.89965549202389</value></horizontalSlowness><backazimuth><value>352.17076318381987</value></backazimuth><phaseHint>P</phaseHint><evaluationMode>automatic</evaluationMode><comment><text>11.995642146858813</text><id>DFX:rectilinearity</id></comment><comment><text>71.47825305958847</text><id>SNR</id></comment></pick><pick publicID="de.gempa.tb1.Pick/20250414170516.710541.139469"><time><value>2025-04-14T17:05:08.298393Z</value></time><waveformID networkCode="CX" stationCode="PB08" channelCode="HHZ"/><filterID>ITAPER(4)&gt;&gt;BW(4,4,20)</filterID><methodID>AIC</methodID><horizontalSlowness><value>17.66266699132142</value></horizontalSlowness><backazimuth><value>218.21747414777661</value></backazimuth><phaseHint>P</phaseHint><evaluationMode>automatic</evaluationMode><comment><text>20.991773282510245</text><id>DFX:rectilinearity</id></comment><comment><text>22.16367181405144</text><id>SNR</id></comment></pick><pick publicID="de.gempa.tb1.Pick/20250414170522.565006.139477"><time><value>2025-04-14T17:05:16.058393Z</value></time><waveformID networkCode="CX" stationCode="PB02" channelCode="HHZ"/><filterID>ITAPER(4)&gt;&gt;BW(4,4,20)</filterID><methodID>AIC</methodID><horizontalSlowness><value>6.086490426238324</value></horizontalSlowness><backazimuth><value>34.64040763906226</value></backazimuth><phaseHint>P</phaseHint><evaluationMode>automatic</evaluationMode><comment><text>89.69287522764633</text><id>DFX:rectilinearity</id></comment><comment><text>22.31825513557921</text><id>SNR</id></comment></pick><pick publicID="de.gempa.tb1.Pick/20250414170525.585305.139479"><time><value>2025-04-14T17:05:18.0000Z</value></time><waveformID networkCode="CX" stationCode="PSGCX" channelCode="HHZ"/><filterID>ITAPER(4)&gt;&gt;BW(4,4,20)</filterID><methodID>AIC</methodID><horizontalSlowness><value>19.342045865455166</value></horizontalSlowness><backazimuth><value>210.53895166925125</value></backazimuth><phaseHint>P</phaseHint><evaluationMode>automatic</evaluationMode><comment><text>13.738568981794813</text><id>DFX:rectilinearity</id></comment><comment><text>31.521139754023736</text><id>SNR</id></comment></pick><pick publicID="de.gempa.tb1.Pick/20250414170526.976228.139481"><time><value>2025-04-14T17:05:19.188393Z</value></time><waveformID networkCode="CX" stationCode="PB07" channelCode="HHZ"/><filterID>ITAPER(4)&gt;&gt;BW(4,4,20)</filterID><methodID>AIC</methodID><horizontalSlowness><value>23.370632210605766</value></horizontalSlowness><backazimuth><value>83.59021344631215</value></backazimuth><phaseHint>P</phaseHint><evaluationMode>automatic</evaluationMode><comment><text>171.51052952751868</text><id>DFX:rectilinearity</id></comment><comment><text>33.48072071174907</text><id>SNR</id></comment></pick><pick publicID="de.gempa.tb1.Pick/20250414170527.550765.139483"><time><value>2025-04-14T17:05:22.018393Z</value></time><waveformID networkCode="CX" stationCode="PB03" channelCode="HHZ"/><filterID>ITAPER(4)&gt;&gt;BW(4,4,20)</filterID><methodID>AIC</methodID><horizontalSlowness><value>12.28140194829471</value></horizontalSlowness><backazimuth><value>76.0244183075837</value></backazimuth><phaseHint>P</phaseHint><evaluationMode>automatic</evaluationMode><comment><text>8.354540919033843</text><id>DFX:rectilinearity</id></comment><comment><text>19.462852090160137</text><id>SNR</id></comment></pick><pick publicID="de.gempa.tb1.Pick/20250414170531.812236.139485"><time><value>2025-04-14T17:05:27.168393Z</value></time><waveformID networkCode="CX" stationCode="PB16" channelCode="HHZ"/><filterID>ITAPER(4)&gt;&gt;BW(4,4,20)</filterID><methodID>AIC</methodID><horizontalSlowness><value>12.669924170171196</value><uncertainty>5.316832284280686</uncertainty></horizontalSlowness><backazimuth><value>160.05513799295395</value><uncertainty>24.223725035663996</uncertainty></backazimuth><phaseHint>P</phaseHint><evaluationMode>automatic</evaluationMode><comment><text>0.7227383527716676</text><id>DFX:rectilinearity</id></comment><comment><text>8.263269653877703</text><id>SNR</id></comment></pick><pick publicID="de.gempa.tb1.Pick/20250414170532.28631.139487"><time><value>2025-04-14T17:05:17.37Z</value></time><waveformID networkCode="CX" stationCode="PB09" channelCode="HHZ"/><filterID>ITAPER(4)&gt;&gt;BW(4,4,20)</filterID><methodID>AIC</methodID><horizontalSlowness><value>20.255918322828432</value></horizontalSlowness><backazimuth><value>330.6253216977972</value></backazimuth><phaseHint>P</phaseHint><evaluationMode>automatic</evaluationMode><comment><text>11.010683347405617</text><id>DFX:rectilinearity</id></comment><comment><text>24.6295469030806</text><id>SNR</id></comment></pick><pick publicID="de.gempa.tb1.Pick/20250414170533.194365.139489"><time><value>2025-04-14T17:05:21.358393Z</value></time><waveformID networkCode="CX" stationCode="PB08" channelCode="HHN"/><filterID>ITAPER(2)&gt;&gt;BW(3,3,20)</filterID><methodID>L2-AIC-GRID</methodID><horizontalSlowness><value>16.231576910188956</value></horizontalSlowness><backazimuth><value>208.55038572671367</value></backazimuth><phaseHint>S</phaseHint><evaluationMode>automatic</evaluationMode><comment><text>421.7215966599485</text><id>DFX:rectilinearity</id></comment><comment><text>de.gempa.tb1.Pick/20250414170516.710541.139469</text><id>RefPickID</id></comment><comment><text>13.062812792622323</text><id>SNR</id></comment></pick><pick publicID="de.gempa.tb1.Pick/20250414170533.81853.139490"><time><value>2025-04-14T17:05:25.638393Z</value></time><waveformID networkCode="CX" stationCode="PB01" channelCode="HHN"/><filterID>ITAPER(2)&gt;&gt;BW(3,3,20)</filterID><methodID>L2-AIC-GRID</methodID><horizontalSlowness><value>20.344642187876758</value></horizontalSlowness><backazimuth><value>275.60754638412584</value></backazimuth><phaseHint>S</phaseHint><evaluationMode>automatic</evaluationMode><comment><text>806.9848783465283</text><id>DFX:rectilinearity</id></comment><comment><text>de.gempa.tb1.Pick/20250414170515.573039.139467</text><id>RefPickID</id></comment><comment><text>12.640034752686073</text><id>SNR</id></comment></pick><pick publicID="de.gempa.tb1.Pick/20250414170543.624991.139493"><time><value>2025-04-14T17:05:35.268393Z</value></time><waveformID networkCode="CX" stationCode="PB02" channelCode="HHN"/><filterID>ITAPER(2)&gt;&gt;BW(3,3,20)</filterID><methodID>L2-AIC-GRID</methodID><horizontalSlowness><value>22.99773214640865</value></horizontalSlowness><backazimuth><value>236.0864412025382</value></backazimuth><phaseHint>S</phaseHint><evaluationMode>automatic</evaluationMode><comment><text>1604.812676306399</text><id>DFX:rectilinearity</id></comment><comment><text>de.gempa.tb1.Pick/20250414170522.565006.139477</text><id>RefPickID</id></comment><comment><text>7.39205678756805</text><id>SNR</id></comment></pick><pick publicID="de.gempa.tb1.Pick/20250414170546.747732.139494"><time><value>2025-04-14T17:05:38.57Z</value></time><waveformID networkCode="CX" stationCode="PSGCX" channelCode="HHN"/><filterID>ITAPER(2)&gt;&gt;BW(3,3,20)</filterID><methodID>L2-AIC-GRID</methodID><horizontalSlowness><value>16.347966146253736</value></horizontalSlowness><backazimuth><value>10.232725006739798</value></backazimuth><phaseHint>S</phaseHint><evaluationMode>automatic</evaluationMode><comment><text>17.611636822148874</text><id>DFX:rectilinearity</id></comment><comment><text>de.gempa.tb1.Pick/20250414170525.585305.139479</text><id>RefPickID</id></comment><comment><text>5.270334073582676</text><id>SNR</id></comment></pick><origin publicID="de.gempa.tb1.Origin/20250414170546.751629.143936"><time><value>2025-04-14T17:04:51.607115Z</value><uncertainty>0.7600231170654297</uncertainty></time><latitude><value>-20.467769622802734</value><uncertainty>3.2677295207977295</uncertainty></latitude><longitude><value>-68.88567352294922</value><uncertainty>7.780759334564209</uncertainty></longitude><depth><value>112.8243179321289</value><uncertainty>6.442927360534668</uncertainty></depth><depthType>from location</depthType><methodID>LOCSAT</methodID><earthModelID>iasp91_scanloc</earthModelID><quality><associatedPhaseCount>12</associatedPhaseCount><usedPhaseCount>12</usedPhaseCount><associatedStationCount>8</associatedStationCount><usedStationCount>8</usedStationCount><depthPhaseCount>0</depthPhaseCount><standardError>0.3040233383808471</standardError><azimuthalGap>209.62991333007812</azimuthalGap><maximumDistance>2.2012453079223633</maximumDistance><minimumDistance>0.41080501675605774</minimumDistance><medianDistance>1.363197684288025</medianDistance></quality><uncertainty><minHorizontalUncertainty>7.002055644989014</minHorizontalUncertainty><maxHorizontalUncertainty>16.684053421020508</maxHorizontalUncertainty><azimuthMaxHorizontalUncertainty>90.90838623046875</azimuthMaxHorizontalUncertainty><preferredDescription>horizontal uncertainty</preferredDescription></uncertainty><evaluationMode>automatic</evaluationMode><evaluationStatus>confirmed</evaluationStatus><comment><text>0.00</text><id>mismatchScore</id></comment><comment><text>mismatchScore</text><id>scevalMethod</id></comment><arrival><pickID>de.gempa.tb1.Pick/20250414170515.573039.139467</pickID><phase>P</phase><azimuth>224.41896057128906</azimuth><distance>0.803094208240509</distance><timeResidual>-0.4447765350341797</timeResidual><timeUsed>true</timeUsed><horizontalSlownessUsed>false</horizontalSlownessUsed><backazimuthUsed>false</backazimuthUsed><weight>1</weight></arrival><arrival><pickID>de.gempa.tb1.Pick/20250414170516.710541.139469</pickID><phase>P</phase><azimuth>322.24127197265625</azimuth><distance>0.41080501675605774</distance><timeResidual>0.04715347290039062</timeResidual><timeUsed>true</timeUsed><horizontalSlownessUsed>false</horizontalSlownessUsed><backazimuthUsed>false</backazimuthUsed><weight>1</weight></arrival><arrival><pickID>de.gempa.tb1.Pick/20250414170522.565006.139477</pickID><phase>P</phase><azimuth>227.9201965332031</azimuth><distance>1.269273281097412</distance><timeResidual>0.10057640075683594</timeResidual><timeUsed>true</timeUsed><horizontalSlownessUsed>false</horizontalSlownessUsed><backazimuthUsed>false</backazimuthUsed><weight>1</weight></arrival><arrival><pickID>de.gempa.tb1.Pick/20250414170525.585305.139479</pickID><phase>P</phase><azimuth>306.45440673828125</azimuth><distance>1.450408697128296</distance><timeResidual>-0.04503059387207031</timeResidual><timeUsed>true</timeUsed><horizontalSlownessUsed>false</horizontalSlownessUsed><backazimuthUsed>false</backazimuthUsed><weight>1</weight></arrival><arrival><pickID>de.gempa.tb1.Pick/20250414170526.976228.139481</pickID><phase>P</phase><azimuth>216.5386962890625</azimuth><distance>1.5626484155654907</distance><timeResidual>-0.17369842529296875</timeResidual><timeUsed>true</timeUsed><horizontalSlownessUsed>false</horizontalSlownessUsed><backazimuthUsed>false</backazimuthUsed><weight>1</weight></arrival><arrival><pickID>de.gempa.tb1.Pick/20250414170527.550765.139483</pickID><phase>P</phase><azimuth>207.0667724609375</azimuth><distance>1.7687692642211914</distance><timeResidual>0.1563243865966797</timeResidual><timeUsed>true</timeUsed><horizontalSlownessUsed>false</horizontalSlownessUsed><backazimuthUsed>false</backazimuthUsed><weight>1</weight></arrival><arrival><pickID>de.gempa.tb1.Pick/20250414170531.812236.139485</pickID><phase>P</phase><azimuth>344.427490234375</azimuth><distance>2.2012453079223633</distance><timeResidual>-0.15239524841308594</timeResidual><timeUsed>true</timeUsed><horizontalSlownessUsed>false</horizontalSlownessUsed><backazimuthUsed>false</backazimuthUsed><weight>1</weight></arrival><arrival><pickID>de.gempa.tb1.Pick/20250414170532.28631.139487</pickID><phase>P</phase><azimuth>194.05740356445312</azimuth><distance>1.363197684288025</distance><timeResidual>0.3479633331298828</timeResidual><timeUsed>true</timeUsed><horizontalSlownessUsed>false</horizontalSlownessUsed><backazimuthUsed>false</backazimuthUsed><weight>1</weight></arrival><arrival><pickID>de.gempa.tb1.Pick/20250414170533.194365.139489</pickID><phase>S</phase><azimuth>322.24127197265625</azimuth><distance>0.41080501675605774</distance><timeResidual>0.29437828063964844</timeResidual><timeUsed>true</timeUsed><horizontalSlownessUsed>false</horizontalSlownessUsed><backazimuthUsed>false</backazimuthUsed><weight>1</weight></arrival><arrival><pickID>de.gempa.tb1.Pick/20250414170533.81853.139490</pickID><phase>S</phase><azimuth>224.41896057128906</azimuth><distance>0.803094208240509</distance><timeResidual>-0.6291828155517578</timeResidual><timeUsed>true</timeUsed><horizontalSlownessUsed>false</horizontalSlownessUsed><backazimuthUsed>false</backazimuthUsed><weight>1</weight></arrival><arrival><pickID>de.gempa.tb1.Pick/20250414170543.624991.139493</pickID><phase>S</phase><azimuth>227.9201965332031</azimuth><distance>1.269273281097412</distance><timeResidual>0.4628562927246094</timeResidual><timeUsed>true</timeUsed><horizontalSlownessUsed>false</horizontalSlownessUsed><backazimuthUsed>false</backazimuthUsed><weight>1</weight></arrival><arrival><pickID>de.gempa.tb1.Pick/20250414170546.747732.139494</pickID><phase>S</phase><azimuth>306.45440673828125</azimuth><distance>1.450408697128296</distance><timeResidual>0.03595161437988281</timeResidual><timeUsed>true</timeUsed><horizontalSlownessUsed>false</horizontalSlownessUsed><backazimuthUsed>false</backazimuthUsed><weight>1</weight></arrival><magnitude publicID="de.gempa.tb1.Magnitude/20250414170555.938409.517780"><magnitude><value>2.2986057864289813</value></magnitude><type>M</type><methodID>weighted average</methodID><stationCount>6</stationCount></magnitude></origin><event publicID="gempa2025hjol"><preferredOriginID>de.gempa.tb1.Origin/20250414170546.751629.143936</preferredOriginID><preferredMagnitudeID>de.gempa.tb1.Magnitude/20250414170555.938409.517780</preferredMagnitudeID><description><text>Chile-Bolivia Border Region</text><type>region name</type></description><originReference>de.gempa.tb1.Origin/20250414170546.751629.143936</originReference></event></EventParameters></seiscomp>