<?xml version="1.0" encoding="UTF-8"?>
<seiscomp xmlns="http://geofon.gfz-potsdam.de/ns/seiscomp3-schema/0.13" version="0.13"><EventParameters><pick publicID="de.gempa.tb1.Pick/20250412115417.563927.123749"><time><value>2025-04-12T11:54:10.578393Z</value></time><waveformID networkCode="CX" stationCode="PB08" channelCode="HHZ"/><filterID>ITAPER(4)&gt;&gt;BW(4,4,20)</filterID><methodID>AIC</methodID><horizontalSlowness><value>8.855283400169823</value></horizontalSlowness><backazimuth><value>122.34863599583412</value></backazimuth><phaseHint>P</phaseHint><evaluationMode>automatic</evaluationMode><comment><text>12.03296439238681</text><id>DFX:rectilinearity</id></comment><comment><text>32.481706502547773</text><id>SNR</id></comment></pick><pick publicID="de.gempa.tb1.Pick/20250412115424.492249.123753"><time><value>2025-04-12T11:54:21.198393Z</value></time><waveformID networkCode="CX" stationCode="PB02" channelCode="HHZ"/><filterID>ITAPER(4)&gt;&gt;BW(4,4,20)</filterID><methodID>AIC</methodID><horizontalSlowness><value>4.41980096216667</value></horizontalSlowness><backazimuth><value>9.07697522209773</value></backazimuth><phaseHint>P</phaseHint><evaluationMode>automatic</evaluationMode><comment><text>23.2479211305953</text><id>DFX:rectilinearity</id></comment><comment><text>8.617780691919473</text><id>SNR</id></comment></pick><pick publicID="de.gempa.tb1.Pick/20250412115426.589787.123756"><time><value>2025-04-12T11:54:17.589998Z</value></time><waveformID networkCode="CX" stationCode="PSGCX" channelCode="HHZ"/><filterID>ITAPER(4)&gt;&gt;BW(4,4,20)</filterID><methodID>AIC</methodID><horizontalSlowness><value>23.229754121396436</value></horizontalSlowness><backazimuth><value>68.3326597718192</value></backazimuth><phaseHint>P</phaseHint><evaluationMode>automatic</evaluationMode><comment><text>23.4629430245973</text><id>DFX:rectilinearity</id></comment><comment><text>32.744578876518716</text><id>SNR</id></comment></pick><pick publicID="de.gempa.tb1.Pick/20250412115427.771536.123758"><time><value>2025-04-12T11:54:21.098393Z</value></time><waveformID networkCode="CX" stationCode="PB08" channelCode="HHN"/><filterID>ITAPER(2)&gt;&gt;BW(3,3,20)</filterID><methodID>L2-AIC-GRID</methodID><horizontalSlowness><value>13.026938148059017</value></horizontalSlowness><backazimuth><value>219.77215385991548</value></backazimuth><phaseHint>S</phaseHint><evaluationMode>automatic</evaluationMode><comment><text>1534.594303475737</text><id>DFX:rectilinearity</id></comment><comment><text>de.gempa.tb1.Pick/20250412115417.563927.123749</text><id>RefPickID</id></comment><comment><text>20.34534737537113</text><id>SNR</id></comment></pick><pick publicID="de.gempa.tb1.Pick/20250412115435.514023.123760"><time><value>2025-04-12T11:54:28.758393Z</value></time><waveformID networkCode="CX" stationCode="PB03" channelCode="HHZ"/><filterID>ITAPER(4)&gt;&gt;BW(4,4,20)</filterID><methodID>AIC</methodID><horizontalSlowness><value>19.650335204937925</value></horizontalSlowness><backazimuth><value>183.94283869983403</value></backazimuth><phaseHint>P</phaseHint><evaluationMode>automatic</evaluationMode><comment><text>4.724484994866953</text><id>DFX:rectilinearity</id></comment><comment><text>5.88472051324823</text><id>SNR</id></comment></pick><pick publicID="de.gempa.tb1.Pick/20250412115441.59398.123762"><time><value>2025-04-12T11:54:34.109998Z</value></time><waveformID networkCode="CX" stationCode="PSGCX" channelCode="HHN"/><filterID>ITAPER(2)&gt;&gt;BW(3,3,20)</filterID><methodID>L2-AIC-GRID</methodID><horizontalSlowness><value>16.768105787286125</value></horizontalSlowness><backazimuth><value>129.8765782594861</value></backazimuth><phaseHint>S</phaseHint><evaluationMode>automatic</evaluationMode><comment><text>195.10764753251735</text><id>DFX:rectilinearity</id></comment><comment><text>de.gempa.tb1.Pick/20250412115426.589787.123756</text><id>RefPickID</id></comment><comment><text>7.46828395712534</text><id>SNR</id></comment></pick><pick publicID="de.gempa.tb1.Pick/20250412115446.584951.123764"><time><value>2025-04-12T11:54:38.768393Z</value></time><waveformID networkCode="CX" stationCode="PB02" channelCode="HHN"/><filterID>ITAPER(2)&gt;&gt;BW(3,3,20)</filterID><methodID>L2-AIC-GRID</methodID><horizontalSlowness><value>12.931228947269464</value></horizontalSlowness><backazimuth><value>266.99186491224253</value></backazimuth><phaseHint>S</phaseHint><evaluationMode>automatic</evaluationMode><comment><text>152.9013247314114</text><id>DFX:rectilinearity</id></comment><comment><text>de.gempa.tb1.Pick/20250412115424.492249.123753</text><id>RefPickID</id></comment><comment><text>6.547553896299075</text><id>SNR</id></comment></pick><pick publicID="de.gempa.tb1.Pick/20250412115446.807281.123765"><time><value>2025-04-12T11:54:24.719998Z</value></time><waveformID networkCode="CX" stationCode="PB09" channelCode="HHZ"/><filterID>ITAPER(4)&gt;&gt;BW(4,4,20)</filterID><methodID>AIC</methodID><horizontalSlowness><value>19.012669572100965</value></horizontalSlowness><backazimuth><value>282.1932839925205</value></backazimuth><phaseHint>P</phaseHint><evaluationMode>automatic</evaluationMode><comment><text>12.589382287074498</text><id>DFX:rectilinearity</id></comment><comment><text>7.065571863338049</text><id>SNR</id></comment></pick><pick publicID="de.gempa.tb1.Pick/20250412115505.511632.123768"><time><value>2025-04-12T11:54:53.598393Z</value></time><waveformID networkCode="CX" stationCode="PB03" channelCode="HHN"/><filterID>ITAPER(2)&gt;&gt;BW(3,3,20)</filterID><methodID>L2-AIC-GRID</methodID><horizontalSlowness><value>18.925024823520214</value></horizontalSlowness><backazimuth><value>209.6028334314374</value></backazimuth><phaseHint>S</phaseHint><evaluationMode>automatic</evaluationMode><comment><text>16.332480951320473</text><id>DFX:rectilinearity</id></comment><comment><text>de.gempa.tb1.Pick/20250412115435.514023.123760</text><id>RefPickID</id></comment><comment><text>5.610843678630717</text><id>SNR</id></comment></pick><pick publicID="de.gempa.tb1.Pick/20250412115508.50983.123769"><time><value>2025-04-12T11:54:24.898397Z</value></time><waveformID networkCode="CX" stationCode="PB07" channelCode="HHZ"/><filterID>ITAPER(4)&gt;&gt;BW(4,4,20)</filterID><methodID>AIC</methodID><horizontalSlowness><value>19.329849789010755</value></horizontalSlowness><backazimuth><value>290.30797650892413</value></backazimuth><phaseHint>P</phaseHint><evaluationMode>automatic</evaluationMode><comment><text>173.66441602713124</text><id>DFX:rectilinearity</id></comment><comment><text>10.003235553647436</text><id>SNR</id></comment></pick><pick publicID="de.gempa.tb1.Pick/20250412115523.898801.123773"><time><value>2025-04-12T11:54:46.868397Z</value></time><waveformID networkCode="CX" stationCode="PB07" channelCode="HHN"/><filterID>ITAPER(2)&gt;&gt;BW(3,3,20)</filterID><methodID>L2-AIC-GRID</methodID><horizontalSlowness><value>23.200517445051617</value></horizontalSlowness><backazimuth><value>263.1641168611506</value></backazimuth><phaseHint>S</phaseHint><evaluationMode>automatic</evaluationMode><comment><text>866.5017749660124</text><id>DFX:rectilinearity</id></comment><comment><text>de.gempa.tb1.Pick/20250412115508.50983.123769</text><id>RefPickID</id></comment><comment><text>5.316733821223172</text><id>SNR</id></comment></pick><origin publicID="de.gempa.tb1.Origin/20250412115523.902063.81954"><time><value>2025-04-12T11:53:57.221898Z</value><uncertainty>0.9864148497581482</uncertainty></time><latitude><value>-20.185766220092773</value><uncertainty>3.561272144317627</uncertainty></latitude><longitude><value>-69.2062759399414</value><uncertainty>6.64262580871582</uncertainty></longitude><depth><value>96.7796401977539</value><uncertainty>6.922205448150635</uncertainty></depth><depthType>from location</depthType><methodID>LOCSAT</methodID><earthModelID>iasp91_scanloc</earthModelID><quality><associatedPhaseCount>11</associatedPhaseCount><usedPhaseCount>11</usedPhaseCount><associatedStationCount>6</associatedStationCount><usedStationCount>6</usedStationCount><depthPhaseCount>0</depthPhaseCount><standardError>0.29049717930138746</standardError><azimuthalGap>132.9750633239746</azimuthalGap><maximumDistance>1.9224671125411987</maximumDistance><minimumDistance>0.06663897633552551</minimumDistance><medianDistance>1.299877166748047</medianDistance></quality><uncertainty><minHorizontalUncertainty>7.36466646194458</minHorizontalUncertainty><maxHorizontalUncertainty>14.38479232788086</maxHorizontalUncertainty><azimuthMaxHorizontalUncertainty>80.60578918457031</azimuthMaxHorizontalUncertainty><preferredDescription>horizontal uncertainty</preferredDescription></uncertainty><evaluationMode>automatic</evaluationMode><evaluationStatus>confirmed</evaluationStatus><comment><text>0.38</text><id>mismatchScore</id></comment><comment><text>mismatchScore</text><id>scevalMethod</id></comment><arrival><pickID>de.gempa.tb1.Pick/20250412115417.563927.123749</pickID><phase>P</phase><azimuth>48.20927810668945</azimuth><distance>0.06663897633552551</distance><timeResidual>-0.13483047485351562</timeResidual><timeUsed>true</timeUsed><horizontalSlownessUsed>false</horizontalSlownessUsed><backazimuthUsed>false</backazimuthUsed><weight>1</weight></arrival><arrival><pickID>de.gempa.tb1.Pick/20250412115424.492249.123753</pickID><phase>P</phase><azimuth>209.6553497314453</azimuth><distance>1.299877166748047</distance><timeResidual>0.3394308090209961</timeResidual><timeUsed>true</timeUsed><horizontalSlownessUsed>false</horizontalSlownessUsed><backazimuthUsed>false</backazimuthUsed><weight>1</weight></arrival><arrival><pickID>de.gempa.tb1.Pick/20250412115426.589787.123756</pickID><phase>P</phase><azimuth>304.00982666015625</azimuth><distance>1.042685866355896</distance><timeResidual>-0.289027214050293</timeResidual><timeUsed>true</timeUsed><horizontalSlownessUsed>false</horizontalSlownessUsed><backazimuthUsed>false</backazimuthUsed><weight>1</weight></arrival><arrival><pickID>de.gempa.tb1.Pick/20250412115427.771536.123758</pickID><phase>S</phase><azimuth>48.20927810668945</azimuth><distance>0.06663897633552551</distance><timeResidual>0.04280662536621094</timeResidual><timeUsed>true</timeUsed><horizontalSlownessUsed>false</horizontalSlownessUsed><backazimuthUsed>false</backazimuthUsed><weight>1</weight></arrival><arrival><pickID>de.gempa.tb1.Pick/20250412115435.514023.123760</pickID><phase>P</phase><azimuth>195.3033447265625</azimuth><distance>1.9224671125411987</distance><timeResidual>0.0996856689453125</timeResidual><timeUsed>true</timeUsed><horizontalSlownessUsed>false</horizontalSlownessUsed><backazimuthUsed>false</backazimuthUsed><weight>1</weight></arrival><arrival><pickID>de.gempa.tb1.Pick/20250412115441.59398.123762</pickID><phase>S</phase><azimuth>304.00982666015625</azimuth><distance>1.042685866355896</distance><timeResidual>0.2977104187011719</timeResidual><timeUsed>true</timeUsed><horizontalSlownessUsed>false</horizontalSlownessUsed><backazimuthUsed>false</backazimuthUsed><weight>1</weight></arrival><arrival><pickID>de.gempa.tb1.Pick/20250412115446.584951.123764</pickID><phase>S</phase><azimuth>209.6553497314453</azimuth><distance>1.299877166748047</distance><timeResidual>-0.3695697784423828</timeResidual><timeUsed>true</timeUsed><horizontalSlownessUsed>false</horizontalSlownessUsed><backazimuthUsed>false</backazimuthUsed><weight>1</weight></arrival><arrival><pickID>de.gempa.tb1.Pick/20250412115446.807281.123765</pickID><phase>P</phase><azimuth>181.18434143066406</azimuth><distance>1.6029218435287476</distance><timeResidual>0.13538742065429688</timeResidual><timeUsed>true</timeUsed><horizontalSlownessUsed>false</horizontalSlownessUsed><backazimuthUsed>false</backazimuthUsed><weight>1</weight></arrival><arrival><pickID>de.gempa.tb1.Pick/20250412115505.511632.123768</pickID><phase>S</phase><azimuth>195.3033447265625</azimuth><distance>1.9224671125411987</distance><timeResidual>0.4973335266113281</timeResidual><timeUsed>true</timeUsed><horizontalSlownessUsed>false</horizontalSlownessUsed><backazimuthUsed>false</backazimuthUsed><weight>1</weight></arrival><arrival><pickID>de.gempa.tb1.Pick/20250412115508.50983.123769</pickID><phase>P</phase><azimuth>202.39259338378906</azimuth><distance>1.6596707105636597</distance><timeResidual>-0.40219688415527344</timeResidual><timeUsed>true</timeUsed><horizontalSlownessUsed>false</horizontalSlownessUsed><backazimuthUsed>false</backazimuthUsed><weight>1</weight></arrival><arrival><pickID>de.gempa.tb1.Pick/20250412115523.898801.123773</pickID><phase>S</phase><azimuth>202.39259338378906</azimuth><distance>1.6596707105636597</distance><timeResidual>-0.21663284301757812</timeResidual><timeUsed>true</timeUsed><horizontalSlownessUsed>false</horizontalSlownessUsed><backazimuthUsed>false</backazimuthUsed><weight>1</weight></arrival><magnitude publicID="de.gempa.tb1.Magnitude/20250412115527.611216.221098"><magnitude><value>2.0769568780412957</value></magnitude><type>M</type><methodID>weighted average</methodID><stationCount>4</stationCount></magnitude></origin><event publicID="gempa2025hfma"><preferredOriginID>de.gempa.tb1.Origin/20250412115523.902063.81954</preferredOriginID><preferredMagnitudeID>de.gempa.tb1.Magnitude/20250412115527.611216.221098</preferredMagnitudeID><description><text>Northern Chile</text><type>region name</type></description><originReference>de.gempa.tb1.Origin/20250412115523.902063.81954</originReference></event></EventParameters></seiscomp>