<?xml version="1.0" encoding="UTF-8"?>
<seiscomp xmlns="http://geofon.gfz-potsdam.de/ns/seiscomp3-schema/0.13" version="0.13"><EventParameters><pick publicID="de.gempa.tb1.Pick/20250411191605.578566.130582"><time><value>2025-04-11T19:16:00.02Z</value></time><waveformID networkCode="SX" stationCode="ROHR" channelCode="HHZ"/><filterID>ITAPER(2)&gt;&gt;BW(3,3,20)</filterID><methodID>AIC</methodID><horizontalSlowness><value>18.758273384523353</value></horizontalSlowness><backazimuth><value>274.9991043980037</value></backazimuth><phaseHint>P</phaseHint><evaluationMode>automatic</evaluationMode><comment><text>2.8442041287958206</text><id>DFX:rectilinearity</id></comment></pick><pick publicID="de.gempa.tb1.Pick/20250411191606.843217.130584"><time><value>2025-04-11T19:15:59.03Z</value></time><waveformID networkCode="SX" stationCode="GUNZ" channelCode="HHZ"/><filterID>ITAPER(2)&gt;&gt;BW(3,3,20)</filterID><methodID>AIC</methodID><horizontalSlowness><value>18.554193258273738</value></horizontalSlowness><backazimuth><value>271.0543394754133</value></backazimuth><phaseHint>P</phaseHint><evaluationMode>automatic</evaluationMode><comment><text>5.193869430107124</text><id>DFX:rectilinearity</id></comment></pick><pick publicID="de.gempa.tb1.Pick/20250411191606.843578.130586"><time><value>2025-04-11T19:15:59.37Z</value></time><waveformID networkCode="SX" stationCode="TANN" channelCode="HHZ"/><filterID>ITAPER(2)&gt;&gt;BW(3,3,20)</filterID><methodID>AIC</methodID><horizontalSlowness><value>16.856288665784426</value></horizontalSlowness><backazimuth><value>322.34529620940577</value></backazimuth><phaseHint>P</phaseHint><evaluationMode>automatic</evaluationMode><comment><text>4.0106118559518613</text><id>DFX:rectilinearity</id></comment></pick><pick publicID="de.gempa.tb1.Pick/20250411191607.15323.130588"><time><value>2025-04-11T19:16:00.37Z</value></time><waveformID networkCode="SX" stationCode="TRIB" channelCode="HHZ"/><filterID>ITAPER(2)&gt;&gt;BW(3,3,20)</filterID><methodID>AIC</methodID><horizontalSlowness><value>22.294835196842975</value></horizontalSlowness><backazimuth><value>283.1637920438286</value></backazimuth><phaseHint>P</phaseHint><evaluationMode>automatic</evaluationMode><comment><text>2.3582813379580685</text><id>DFX:rectilinearity</id></comment></pick><pick publicID="de.gempa.tb1.Pick/20250411191608.482368.130590"><time><value>2025-04-11T19:15:58.1575Z</value></time><waveformID networkCode="SX" stationCode="WERN" channelCode="HHZ"/><filterID>ITAPER(2)&gt;&gt;BW(3,3,20)</filterID><methodID>AIC</methodID><horizontalSlowness><value>21.64989487239593</value></horizontalSlowness><backazimuth><value>273.2966239330744</value></backazimuth><phaseHint>P</phaseHint><evaluationMode>automatic</evaluationMode><comment><text>6.913041848483146</text><id>DFX:rectilinearity</id></comment></pick><pick publicID="de.gempa.tb1.Pick/20250411191609.328555.130592"><time><value>2025-04-11T19:15:59.22Z</value></time><waveformID networkCode="SX" stationCode="MULD" channelCode="HHZ"/><filterID>ITAPER(2)&gt;&gt;BW(3,3,20)</filterID><methodID>AIC</methodID><horizontalSlowness><value>18.363814059801012</value></horizontalSlowness><backazimuth><value>120.90438940775319</value></backazimuth><phaseHint>P</phaseHint><evaluationMode>automatic</evaluationMode><comment><text>2.548125573603663</text><id>DFX:rectilinearity</id></comment></pick><pick publicID="de.gempa.tb1.Pick/20250411191611.91266.130596"><time><value>2025-04-11T19:16:01.62Z</value></time><waveformID networkCode="SX" stationCode="MULD" channelCode="HHN"/><filterID>ITAPER(3)&gt;&gt;BW(4,3,10)</filterID><methodID>L2-AIC-GRID</methodID><horizontalSlowness><value>20.601012465957034</value></horizontalSlowness><backazimuth><value>127.0056028369546</value></backazimuth><phaseHint>S</phaseHint><evaluationMode>automatic</evaluationMode><comment><text>2.401626542900815</text><id>DFX:rectilinearity</id></comment><comment><text>de.gempa.tb1.Pick/20250411191609.328555.130592</text><id>RefPickID</id></comment></pick><pick publicID="de.gempa.tb1.Pick/20250411191611.925693.130597"><time><value>2025-04-11T19:16:01.71Z</value></time><waveformID networkCode="SX" stationCode="TANN" channelCode="HHN"/><filterID>ITAPER(3)&gt;&gt;BW(4,3,10)</filterID><methodID>L2-AIC-GRID</methodID><horizontalSlowness><value>17.284058113846335</value></horizontalSlowness><backazimuth><value>320.4871155831351</value></backazimuth><phaseHint>S</phaseHint><evaluationMode>automatic</evaluationMode><comment><text>3.990722789400858</text><id>DFX:rectilinearity</id></comment><comment><text>de.gempa.tb1.Pick/20250411191606.843578.130586</text><id>RefPickID</id></comment></pick><pick publicID="de.gempa.tb1.Pick/20250411191613.499467.130598"><time><value>2025-04-11T19:15:59.6875Z</value></time><waveformID networkCode="SX" stationCode="WERN" channelCode="HHN"/><filterID>ITAPER(3)&gt;&gt;BW(4,3,10)</filterID><methodID>L2-AIC-GRID</methodID><horizontalSlowness><value>22.58442088226672</value></horizontalSlowness><backazimuth><value>278.9178345936948</value></backazimuth><phaseHint>S</phaseHint><evaluationMode>automatic</evaluationMode><comment><text>6.765356616603455</text><id>DFX:rectilinearity</id></comment><comment><text>de.gempa.tb1.Pick/20250411191608.482368.130590</text><id>RefPickID</id></comment></pick><pick publicID="de.gempa.tb1.Pick/20250411191613.847279.130601"><time><value>2025-04-11T19:16:01.09Z</value></time><waveformID networkCode="SX" stationCode="GUNZ" channelCode="HHN"/><filterID>ITAPER(3)&gt;&gt;BW(4,3,10)</filterID><methodID>L2-AIC-GRID</methodID><horizontalSlowness><value>18.4869527830085</value></horizontalSlowness><backazimuth><value>271.22877342883487</value></backazimuth><phaseHint>S</phaseHint><evaluationMode>automatic</evaluationMode><comment><text>5.145407236791336</text><id>DFX:rectilinearity</id></comment><comment><text>de.gempa.tb1.Pick/20250411191606.843217.130584</text><id>RefPickID</id></comment></pick><pick publicID="de.gempa.tb1.Pick/20250411191707.60276.130622"><time><value>2025-04-11T19:17:01.66Z</value></time><waveformID networkCode="PL" stationCode="GKP" channelCode="HHZ"/><filterID>ITAPER(2)&gt;&gt;BW(3,3,20)</filterID><methodID>AIC</methodID><horizontalSlowness><value>13.944624756646276</value></horizontalSlowness><backazimuth><value>322.26361639341934</value></backazimuth><phaseHint>P</phaseHint><evaluationMode>automatic</evaluationMode><comment><text>33.54492579879782</text><id>DFX:rectilinearity</id></comment></pick><origin publicID="de.gempa.tb1.Origin/20250411191711.632419.63225"><time><value>2025-04-11T19:15:56.718675Z</value><uncertainty>0.574979841709137</uncertainty></time><latitude><value>50.31549835205078</value><uncertainty>2.407252788543701</uncertainty></latitude><longitude><value>12.413862228393555</value><uncertainty>4.183541774749756</uncertainty></longitude><depth><value>5.812834739685059</value><uncertainty>3.2858166694641113</uncertainty></depth><depthType>from location</depthType><methodID>LOCSAT</methodID><earthModelID>iasp91</earthModelID><quality><associatedPhaseCount>11</associatedPhaseCount><usedPhaseCount>11</usedPhaseCount><associatedStationCount>7</associatedStationCount><usedStationCount>7</usedStationCount><depthPhaseCount>0</depthPhaseCount><standardError>0.30994899088464806</standardError><azimuthalGap>173.85290145874023</azimuthalGap><maximumDistance>4.208524703979492</maximumDistance><minimumDistance>0.03712039440870285</minimumDistance><medianDistance>0.09663127362728119</medianDistance></quality><uncertainty><minHorizontalUncertainty>3.812974214553833</minHorizontalUncertainty><maxHorizontalUncertainty>9.621114730834961</maxHorizontalUncertainty><azimuthMaxHorizontalUncertainty>113.1932830810547</azimuthMaxHorizontalUncertainty><preferredDescription>horizontal uncertainty</preferredDescription></uncertainty><evaluationMode>automatic</evaluationMode><evaluationStatus>confirmed</evaluationStatus><comment><text>0.46</text><id>mismatchScore</id></comment><comment><text>mismatchScore</text><id>scevalMethod</id></comment><arrival><pickID>de.gempa.tb1.Pick/20250411191605.578566.130582</pickID><phase>P</phase><azimuth>217.3334197998047</azimuth><distance>0.10256988555192947</distance><timeResidual>0.4383195638656616</timeResidual><timeUsed>true</timeUsed><horizontalSlownessUsed>false</horizontalSlownessUsed><backazimuthUsed>false</backazimuthUsed><weight>1</weight></arrival><arrival><pickID>de.gempa.tb1.Pick/20250411191606.843217.130584</pickID><phase>P</phase><azimuth>312.3881530761719</azimuth><distance>0.07133148610591888</distance><timeResidual>0.01569211483001709</timeResidual><timeUsed>true</timeUsed><horizontalSlownessUsed>false</horizontalSlownessUsed><backazimuthUsed>false</backazimuthUsed><weight>1</weight></arrival><arrival><pickID>de.gempa.tb1.Pick/20250411191606.843578.130586</pickID><phase>P</phase><azimuth>16.839975357055664</azimuth><distance>0.10409842431545258</distance><timeResidual>-0.2390180826187134</timeResidual><timeUsed>true</timeUsed><horizontalSlownessUsed>false</horizontalSlownessUsed><backazimuthUsed>false</backazimuthUsed><weight>1</weight></arrival><arrival><pickID>de.gempa.tb1.Pick/20250411191607.15323.130588</pickID><phase>P</phase><azimuth>281.7455139160156</azimuth><distance>0.18115288019180298</distance><timeResidual>-0.6379495859146118</timeResidual><timeUsed>true</timeUsed><horizontalSlownessUsed>false</horizontalSlownessUsed><backazimuthUsed>false</backazimuthUsed><weight>1</weight></arrival><arrival><pickID>de.gempa.tb1.Pick/20250411191608.482368.130590</pickID><phase>P</phase><azimuth>220.73590087890625</azimuth><distance>0.03712039440870285</distance><timeResidual>-0.23593783378601074</timeResidual><timeUsed>true</timeUsed><horizontalSlownessUsed>false</horizontalSlownessUsed><backazimuthUsed>false</backazimuthUsed><weight>1</weight></arrival><arrival><pickID>de.gempa.tb1.Pick/20250411191609.328555.130592</pickID><phase>P</phase><azimuth>356.218017578125</azimuth><distance>0.09663127362728119</distance><timeResidual>-0.2534719705581665</timeResidual><timeUsed>true</timeUsed><horizontalSlownessUsed>false</horizontalSlownessUsed><backazimuthUsed>false</backazimuthUsed><weight>1</weight></arrival><arrival><pickID>de.gempa.tb1.Pick/20250411191611.91266.130596</pickID><phase>S</phase><azimuth>356.218017578125</azimuth><distance>0.09663127362728119</distance><timeResidual>0.13781678676605225</timeResidual><timeUsed>true</timeUsed><horizontalSlownessUsed>false</horizontalSlownessUsed><backazimuthUsed>false</backazimuthUsed><weight>1</weight></arrival><arrival><pickID>de.gempa.tb1.Pick/20250411191611.925693.130597</pickID><phase>S</phase><azimuth>16.839975357055664</azimuth><distance>0.10409842431545258</distance><timeResidual>-0.006296753883361816</timeResidual><timeUsed>true</timeUsed><horizontalSlownessUsed>false</horizontalSlownessUsed><backazimuthUsed>false</backazimuthUsed><weight>1</weight></arrival><arrival><pickID>de.gempa.tb1.Pick/20250411191613.499467.130598</pickID><phase>S</phase><azimuth>220.73590087890625</azimuth><distance>0.03712039440870285</distance><timeResidual>0.07070529460906982</timeResidual><timeUsed>true</timeUsed><horizontalSlownessUsed>false</horizontalSlownessUsed><backazimuthUsed>false</backazimuthUsed><weight>1</weight></arrival><arrival><pickID>de.gempa.tb1.Pick/20250411191613.847279.130601</pickID><phase>S</phase><azimuth>312.3881530761719</azimuth><distance>0.07133148610591888</distance><timeResidual>0.40086662769317627</timeResidual><timeUsed>true</timeUsed><horizontalSlownessUsed>false</horizontalSlownessUsed><backazimuthUsed>false</backazimuthUsed><weight>1</weight></arrival><arrival><pickID>de.gempa.tb1.Pick/20250411191707.60276.130622</pickID><phase>P</phase><azimuth>43.480518341064453</azimuth><distance>4.208524703979492</distance><timeResidual>0.3092433214187622</timeResidual><timeUsed>true</timeUsed><horizontalSlownessUsed>false</horizontalSlownessUsed><backazimuthUsed>false</backazimuthUsed><weight>1</weight></arrival><magnitude publicID="de.gempa.tb1.Magnitude/20250411191721.035497.135419"><magnitude><value>0.13365984557420035</value></magnitude><type>M</type><methodID>weighted average</methodID><stationCount>6</stationCount></magnitude></origin><event publicID="gempa2025heet"><preferredOriginID>de.gempa.tb1.Origin/20250411191711.632419.63225</preferredOriginID><preferredMagnitudeID>de.gempa.tb1.Magnitude/20250411191721.035497.135419</preferredMagnitudeID><description><text>Germany</text><type>region name</type></description><originReference>de.gempa.tb1.Origin/20250411191711.632419.63225</originReference></event></EventParameters></seiscomp>