<?xml version="1.0" encoding="UTF-8"?>
<seiscomp xmlns="http://geofon.gfz-potsdam.de/ns/seiscomp3-schema/0.13" version="0.13"><EventParameters><pick publicID="de.gempa.tb1.Pick/20250413203059.780341.133649"><time><value>2025-04-13T20:30:53.54Z</value></time><waveformID networkCode="CX" stationCode="PSGCX" channelCode="HHZ"/><filterID>ITAPER(4)&gt;&gt;BW(4,4,20)</filterID><methodID>AIC</methodID><horizontalSlowness><value>16.38518540683554</value></horizontalSlowness><backazimuth><value>79.32885908645852</value></backazimuth><phaseHint>P</phaseHint><evaluationMode>automatic</evaluationMode><comment><text>37.044637982859655</text><id>DFX:rectilinearity</id></comment><comment><text>61.60957621476987</text><id>SNR</id></comment></pick><pick publicID="de.gempa.tb1.Pick/20250413203101.038293.133651"><time><value>2025-04-13T20:30:54.668393Z</value></time><waveformID networkCode="CX" stationCode="PB08" channelCode="HHZ"/><filterID>ITAPER(4)&gt;&gt;BW(4,4,20)</filterID><methodID>AIC</methodID><horizontalSlowness><value>15.136300108826633</value></horizontalSlowness><backazimuth><value>87.24224362970212</value></backazimuth><phaseHint>P</phaseHint><evaluationMode>automatic</evaluationMode><comment><text>7.950159968992299</text><id>DFX:rectilinearity</id></comment><comment><text>7.94555251879149</text><id>SNR</id></comment></pick><pick publicID="de.gempa.tb1.Pick/20250413203113.593041.133653"><time><value>2025-04-13T20:31:04.768393Z</value></time><waveformID networkCode="CX" stationCode="PB01" channelCode="HHZ"/><filterID>ITAPER(4)&gt;&gt;BW(4,4,20)</filterID><methodID>AIC</methodID><horizontalSlowness><value>23.511688742167973</value></horizontalSlowness><backazimuth><value>3.0885725358130287</value></backazimuth><phaseHint>P</phaseHint><evaluationMode>automatic</evaluationMode><comment><text>25.573782522005807</text><id>DFX:rectilinearity</id></comment><comment><text>12.831480350962662</text><id>SNR</id></comment></pick><pick publicID="de.gempa.tb1.Pick/20250413203114.588801.133655"><time><value>2025-04-13T20:31:08.21Z</value></time><waveformID networkCode="CX" stationCode="PSGCX" channelCode="HHN"/><filterID>ITAPER(2)&gt;&gt;BW(3,3,20)</filterID><methodID>L2-AIC-GRID</methodID><horizontalSlowness><value>4.421275572009894</value></horizontalSlowness><backazimuth><value>227.0685799114503</value></backazimuth><phaseHint>S</phaseHint><evaluationMode>automatic</evaluationMode><comment><text>16.92544166429186</text><id>DFX:rectilinearity</id></comment><comment><text>de.gempa.tb1.Pick/20250413203059.780341.133649</text><id>RefPickID</id></comment><comment><text>6.998829397485705</text><id>SNR</id></comment></pick><pick publicID="de.gempa.tb1.Pick/20250413203117.767007.133656"><time><value>2025-04-13T20:31:09.888393Z</value></time><waveformID networkCode="CX" stationCode="PB08" channelCode="HHN"/><filterID>ITAPER(2)&gt;&gt;BW(3,3,20)</filterID><methodID>L2-AIC-GRID</methodID><horizontalSlowness><value>15.23235366180186</value></horizontalSlowness><backazimuth><value>197.82978372635068</value></backazimuth><phaseHint>S</phaseHint><evaluationMode>automatic</evaluationMode><comment><text>84.28877088699421</text><id>DFX:rectilinearity</id></comment><comment><text>de.gempa.tb1.Pick/20250413203101.038293.133651</text><id>RefPickID</id></comment><comment><text>13.28836558164558</text><id>SNR</id></comment></pick><pick publicID="de.gempa.tb1.Pick/20250413203136.77657.133658"><time><value>2025-04-13T20:31:27.728393Z</value></time><waveformID networkCode="CX" stationCode="PB01" channelCode="HHN"/><filterID>ITAPER(2)&gt;&gt;BW(3,3,20)</filterID><methodID>L2-AIC-GRID</methodID><horizontalSlowness><value>23.54495022064732</value></horizontalSlowness><backazimuth><value>144.820313678944</value></backazimuth><phaseHint>S</phaseHint><evaluationMode>automatic</evaluationMode><comment><text>178.3043888722869</text><id>DFX:rectilinearity</id></comment><comment><text>de.gempa.tb1.Pick/20250413203113.593041.133653</text><id>RefPickID</id></comment><comment><text>10.40488051046559</text><id>SNR</id></comment></pick><origin publicID="de.gempa.tb1.Origin/20250413203136.780793.118939"><time><value>2025-04-13T20:30:34.882388Z</value><uncertainty>1.5009829998016357</uncertainty></time><latitude><value>-19.284399032592773</value><uncertainty>9.14676284790039</uncertainty></latitude><longitude><value>-69.3734130859375</value><uncertainty>9.269792556762695</uncertainty></longitude><depth><value>107.40299224853516</value><uncertainty>10.617250442504883</uncertainty></depth><depthType>from location</depthType><methodID>LOCSAT</methodID><earthModelID>iasp91_scanloc</earthModelID><quality><associatedPhaseCount>6</associatedPhaseCount><usedPhaseCount>6</usedPhaseCount><associatedStationCount>3</associatedStationCount><usedStationCount>3</usedStationCount><depthPhaseCount>0</depthPhaseCount><standardError>0.07726362751686479</standardError><azimuthalGap>280.2320251464844</azimuthalGap><maximumDistance>1.7531054019927979</maximumDistance><minimumDistance>0.7728148698806763</minimumDistance><medianDistance>0.877123773097992</medianDistance></quality><uncertainty><minHorizontalUncertainty>12.147324562072754</minHorizontalUncertainty><maxHorizontalUncertainty>25.148216247558594</maxHorizontalUncertainty><azimuthMaxHorizontalUncertainty>45.61573791503906</azimuthMaxHorizontalUncertainty><preferredDescription>horizontal uncertainty</preferredDescription></uncertainty><evaluationMode>automatic</evaluationMode><evaluationStatus>confirmed</evaluationStatus><comment><text>0.44</text><id>mismatchScore</id></comment><comment><text>mismatchScore</text><id>scevalMethod</id></comment><arrival><pickID>de.gempa.tb1.Pick/20250413203059.780341.133649</pickID><phase>P</phase><azimuth>246.1354217529297</azimuth><distance>0.7728148698806763</distance><timeResidual>-0.1246337890625</timeResidual><timeUsed>true</timeUsed><horizontalSlownessUsed>false</horizontalSlownessUsed><backazimuthUsed>false</backazimuthUsed><weight>1</weight></arrival><arrival><pickID>de.gempa.tb1.Pick/20250413203101.038293.133651</pickID><phase>P</phase><azimuth>166.36744689941406</azimuth><distance>0.877123773097992</distance><timeResidual>0.017284393310546875</timeResidual><timeUsed>true</timeUsed><horizontalSlownessUsed>false</horizontalSlownessUsed><backazimuthUsed>false</backazimuthUsed><weight>1</weight></arrival><arrival><pickID>de.gempa.tb1.Pick/20250413203113.593041.133653</pickID><phase>P</phase><azimuth>183.48248291015625</azimuth><distance>1.7531054019927979</distance><timeResidual>0.10715484619140625</timeResidual><timeUsed>true</timeUsed><horizontalSlownessUsed>false</horizontalSlownessUsed><backazimuthUsed>false</backazimuthUsed><weight>1</weight></arrival><arrival><pickID>de.gempa.tb1.Pick/20250413203114.588801.133655</pickID><phase>S</phase><azimuth>246.1354217529297</azimuth><distance>0.7728148698806763</distance><timeResidual>0.06978034973144531</timeResidual><timeUsed>true</timeUsed><horizontalSlownessUsed>false</horizontalSlownessUsed><backazimuthUsed>false</backazimuthUsed><weight>1</weight></arrival><arrival><pickID>de.gempa.tb1.Pick/20250413203117.767007.133656</pickID><phase>S</phase><azimuth>166.36744689941406</azimuth><distance>0.877123773097992</distance><timeResidual>-0.0102081298828125</timeResidual><timeUsed>true</timeUsed><horizontalSlownessUsed>false</horizontalSlownessUsed><backazimuthUsed>false</backazimuthUsed><weight>1</weight></arrival><arrival><pickID>de.gempa.tb1.Pick/20250413203136.77657.133658</pickID><phase>S</phase><azimuth>183.48248291015625</azimuth><distance>1.7531054019927979</distance><timeResidual>-0.05941390991210938</timeResidual><timeUsed>true</timeUsed><horizontalSlownessUsed>false</horizontalSlownessUsed><backazimuthUsed>false</backazimuthUsed><weight>1</weight></arrival><magnitude publicID="de.gempa.tb1.Magnitude/20250413203514.94806.401087"><magnitude><value>2.0636538407419045</value></magnitude><type>M</type><methodID>weighted average</methodID><stationCount>2</stationCount></magnitude></origin><event publicID="gempa2025hhzh"><preferredOriginID>de.gempa.tb1.Origin/20250413203136.780793.118939</preferredOriginID><preferredMagnitudeID>de.gempa.tb1.Magnitude/20250413203514.94806.401087</preferredMagnitudeID><description><text>Northern Chile</text><type>region name</type></description><originReference>de.gempa.tb1.Origin/20250413203136.780793.118939</originReference></event></EventParameters></seiscomp>