<?xml version="1.0" encoding="UTF-8"?>
<seiscomp xmlns="http://geofon.gfz-potsdam.de/ns/seiscomp3-schema/0.13" version="0.13"><EventParameters><pick publicID="de.gempa.tb1.Pick/20250412064943.535934.122551"><time><value>2025-04-12T06:49:38.12Z</value></time><waveformID networkCode="CX" stationCode="PB19" channelCode="HHZ"/><filterID>ITAPER(4)&gt;&gt;BW(4,4,20)</filterID><methodID>AIC</methodID><horizontalSlowness><value>16.966413734273118</value></horizontalSlowness><backazimuth><value>140.7022364534264</value></backazimuth><phaseHint>P</phaseHint><evaluationMode>automatic</evaluationMode><comment><text>25.55034644218641</text><id>DFX:rectilinearity</id></comment><comment><text>31.08140083161725</text><id>SNR</id></comment></pick><pick publicID="de.gempa.tb1.Pick/20250412064946.585191.122553"><time><value>2025-04-12T06:49:40.608393Z</value></time><waveformID networkCode="CX" stationCode="PB15" channelCode="HHZ"/><filterID>ITAPER(4)&gt;&gt;BW(4,4,20)</filterID><methodID>AIC</methodID><horizontalSlowness><value>20.407478671694882</value></horizontalSlowness><backazimuth><value>123.27786610224717</value></backazimuth><phaseHint>P</phaseHint><evaluationMode>automatic</evaluationMode><comment><text>176.68138179509623</text><id>DFX:rectilinearity</id></comment><comment><text>35.126111661633715</text><id>SNR</id></comment></pick><pick publicID="de.gempa.tb1.Pick/20250412064948.511494.122555"><time><value>2025-04-12T06:49:43.478393Z</value></time><waveformID networkCode="CX" stationCode="PB06" channelCode="HHZ"/><filterID>ITAPER(4)&gt;&gt;BW(4,4,20)</filterID><methodID>AIC</methodID><horizontalSlowness><value>14.59955749243604</value></horizontalSlowness><backazimuth><value>161.75825104279883</value></backazimuth><phaseHint>P</phaseHint><evaluationMode>automatic</evaluationMode><comment><text>75.04787122270059</text><id>DFX:rectilinearity</id></comment><comment><text>29.81281627522093</text><id>SNR</id></comment></pick><pick publicID="de.gempa.tb1.Pick/20250412064953.566263.122563"><time><value>2025-04-12T06:49:49.098393Z</value></time><waveformID networkCode="CX" stationCode="PB03" channelCode="HHZ"/><filterID>ITAPER(4)&gt;&gt;BW(4,4,20)</filterID><methodID>AIC</methodID><horizontalSlowness><value>5.39722615733899</value></horizontalSlowness><backazimuth><value>173.79609477892487</value></backazimuth><phaseHint>P</phaseHint><evaluationMode>automatic</evaluationMode><comment><text>23.61856056408225</text><id>DFX:rectilinearity</id></comment><comment><text>31.078375957804475</text><id>SNR</id></comment></pick><pick publicID="de.gempa.tb1.Pick/20250412064957.198072.122565"><time><value>2025-04-12T06:49:50.87Z</value></time><waveformID networkCode="CX" stationCode="PB10" channelCode="HHZ"/><filterID>ITAPER(4)&gt;&gt;BW(4,4,20)</filterID><methodID>AIC</methodID><horizontalSlowness><value>15.948006386455907</value></horizontalSlowness><backazimuth><value>109.29530245005628</value></backazimuth><phaseHint>P</phaseHint><evaluationMode>automatic</evaluationMode><comment><text>120.90143721236454</text><id>DFX:rectilinearity</id></comment><comment><text>16.615324259872462</text><id>SNR</id></comment></pick><pick publicID="de.gempa.tb1.Pick/20250412064958.545105.122567"><time><value>2025-04-12T06:49:53.068393Z</value></time><waveformID networkCode="CX" stationCode="PB01" channelCode="HHZ"/><filterID>ITAPER(4)&gt;&gt;BW(4,4,20)</filterID><methodID>AIC</methodID><horizontalSlowness><value>19.418360188452006</value></horizontalSlowness><backazimuth><value>340.18808046456007</value></backazimuth><phaseHint>P</phaseHint><evaluationMode>automatic</evaluationMode><comment><text>18.553072226165408</text><id>DFX:rectilinearity</id></comment><comment><text>10.727081401764732</text><id>SNR</id></comment></pick><pick publicID="de.gempa.tb1.Pick/20250412065002.612373.122570"><time><value>2025-04-12T06:49:56.498393Z</value></time><waveformID networkCode="CX" stationCode="PB02" channelCode="HHZ"/><filterID>ITAPER(4)&gt;&gt;BW(4,4,20)</filterID><methodID>AIC</methodID><horizontalSlowness><value>22.707019479487936</value></horizontalSlowness><backazimuth><value>67.29595624435824</value></backazimuth><phaseHint>P</phaseHint><evaluationMode>automatic</evaluationMode><comment><text>39.03544001031326</text><id>DFX:rectilinearity</id></comment><comment><text>8.615201993074079</text><id>SNR</id></comment></pick><origin publicID="de.gempa.tb1.Origin/20250412065002.69512.77183"><time><value>2025-04-12T06:47:36.767011Z</value><uncertainty>3.2160515785217285</uncertainty></time><latitude><value>-26.10747718811035</value><uncertainty>31.252634048461914</uncertainty></latitude><longitude><value>-60.25015640258789</value><uncertainty>27.215587615966797</uncertainty></longitude><depth><value>319.1618347167969</value><uncertainty>72.84115600585938</uncertainty></depth><depthType>from location</depthType><methodID>LOCSAT</methodID><earthModelID>iasp91_scanloc</earthModelID><quality><associatedPhaseCount>7</associatedPhaseCount><usedPhaseCount>7</usedPhaseCount><associatedStationCount>7</associatedStationCount><usedStationCount>7</usedStationCount><depthPhaseCount>0</depthPhaseCount><standardError>0.919354672280162</standardError><azimuthalGap>344.1948547363281</azimuthalGap><maximumDistance>10.038765907287598</maximumDistance><minimumDistance>8.488720893859863</minimumDistance><medianDistance>9.575584411621094</medianDistance></quality><uncertainty><minHorizontalUncertainty>57.95037841796875</minHorizontalUncertainty><maxHorizontalUncertainty>67.41205596923828</maxHorizontalUncertainty><azimuthMaxHorizontalUncertainty>168.15138244628906</azimuthMaxHorizontalUncertainty><preferredDescription>horizontal uncertainty</preferredDescription></uncertainty><evaluationMode>automatic</evaluationMode><evaluationStatus>confirmed</evaluationStatus><comment><text>0.14</text><id>mismatchScore</id></comment><comment><text>mismatchScore</text><id>scevalMethod</id></comment><arrival><pickID>de.gempa.tb1.Pick/20250412064943.535934.122551</pickID><phase>P</phase><azimuth>283.0345764160156</azimuth><distance>8.488720893859863</distance><timeResidual>1.5476455688476562</timeResidual><timeUsed>true</timeUsed><horizontalSlownessUsed>false</horizontalSlownessUsed><backazimuthUsed>false</backazimuthUsed><weight>1</weight></arrival><arrival><pickID>de.gempa.tb1.Pick/20250412064946.585191.122553</pickID><phase>P</phase><azimuth>287.02880859375</azimuth><distance>8.869511604309082</distance><timeResidual>-0.5871658325195312</timeResidual><timeUsed>true</timeUsed><horizontalSlownessUsed>false</horizontalSlownessUsed><backazimuthUsed>false</backazimuthUsed><weight>1</weight></arrival><arrival><pickID>de.gempa.tb1.Pick/20250412064948.511494.122555</pickID><phase>P</phase><azimuth>289.76153564453125</azimuth><distance>9.144976615905762</distance><timeResidual>-1.051727294921875</timeResidual><timeUsed>true</timeUsed><horizontalSlownessUsed>false</horizontalSlownessUsed><backazimuthUsed>false</backazimuthUsed><weight>1</weight></arrival><arrival><pickID>de.gempa.tb1.Pick/20250412064953.566263.122563</pickID><phase>P</phase><azimuth>292.961669921875</azimuth><distance>9.575584411621094</distance><timeResidual>-0.6234207153320312</timeResidual><timeUsed>true</timeUsed><horizontalSlownessUsed>false</horizontalSlownessUsed><backazimuthUsed>false</backazimuthUsed><weight>1</weight></arrival><arrival><pickID>de.gempa.tb1.Pick/20250412064957.198072.122565</pickID><phase>P</phase><azimuth>283.223876953125</azimuth><distance>9.710162162780762</distance><timeResidual>-0.44857025146484375</timeResidual><timeUsed>true</timeUsed><horizontalSlownessUsed>false</horizontalSlownessUsed><backazimuthUsed>false</backazimuthUsed><weight>1</weight></arrival><arrival><pickID>de.gempa.tb1.Pick/20250412064958.545105.122567</pickID><phase>P</phase><azimuth>298.8397216796875</azimuth><distance>9.856268882751465</distance><timeResidual>-0.02924346923828125</timeResidual><timeUsed>true</timeUsed><horizontalSlownessUsed>false</horizontalSlownessUsed><backazimuthUsed>false</backazimuthUsed><weight>1</weight></arrival><arrival><pickID>de.gempa.tb1.Pick/20250412065002.612373.122570</pickID><phase>P</phase><azimuth>296.3305969238281</azimuth><distance>10.038765907287598</distance><timeResidual>1.2164154052734375</timeResidual><timeUsed>true</timeUsed><horizontalSlownessUsed>false</horizontalSlownessUsed><backazimuthUsed>false</backazimuthUsed><weight>1</weight></arrival><magnitude publicID="de.gempa.tb1.Magnitude/20250412065009.7598.189680"><magnitude><value>4.745078248926142</value></magnitude><type>M</type><methodID>weighted average</methodID><stationCount>5</stationCount></magnitude></origin><event publicID="gempa2025hfbw"><preferredOriginID>de.gempa.tb1.Origin/20250412065002.69512.77183</preferredOriginID><preferredMagnitudeID>de.gempa.tb1.Magnitude/20250412065009.7598.189680</preferredMagnitudeID><typeCertainty>suspected</typeCertainty><description><text>Northeastern Argentina</text><type>region name</type></description><originReference>de.gempa.tb1.Origin/20250412065002.69512.77183</originReference></event></EventParameters></seiscomp>