<?xml version="1.0" encoding="UTF-8"?>
<seiscomp xmlns="http://geofon.gfz-potsdam.de/ns/seiscomp3-schema/0.13" version="0.13"><EventParameters><pick publicID="de.gempa.tb1.Pick/20250414192920.517103.140637"><time><value>2025-04-14T19:29:12.37Z</value></time><waveformID networkCode="CX" stationCode="PB19" channelCode="HHZ"/><filterID>ITAPER(4)&gt;&gt;BW(4,4,20)</filterID><methodID>AIC</methodID><horizontalSlowness><value>15.838318488835785</value></horizontalSlowness><backazimuth><value>213.15329753102037</value></backazimuth><phaseHint>P</phaseHint><evaluationMode>automatic</evaluationMode><comment><text>20.315756494404084</text><id>DFX:rectilinearity</id></comment><comment><text>9.301503466184762</text><id>SNR</id></comment></pick><pick publicID="de.gempa.tb1.Pick/20250414192922.671208.140639"><time><value>2025-04-14T19:29:15.808393Z</value></time><waveformID networkCode="CX" stationCode="PB15" channelCode="HHZ"/><filterID>ITAPER(4)&gt;&gt;BW(4,4,20)</filterID><methodID>AIC</methodID><horizontalSlowness><value>22.776280284376636</value></horizontalSlowness><backazimuth><value>121.1598100152855</value></backazimuth><phaseHint>P</phaseHint><evaluationMode>automatic</evaluationMode><comment><text>95.21218628100067</text><id>DFX:rectilinearity</id></comment><comment><text>12.75148699878594</text><id>SNR</id></comment></pick><pick publicID="de.gempa.tb1.Pick/20250414192928.615453.140641"><time><value>2025-04-14T19:29:18.808393Z</value></time><waveformID networkCode="CX" stationCode="PB06" channelCode="HHZ"/><filterID>ITAPER(4)&gt;&gt;BW(4,4,20)</filterID><methodID>AIC</methodID><horizontalSlowness><value>9.54209009673621</value></horizontalSlowness><backazimuth><value>307.4831056634464</value></backazimuth><phaseHint>P</phaseHint><evaluationMode>automatic</evaluationMode><comment><text>111.63408433705939</text><id>DFX:rectilinearity</id></comment><comment><text>10.403368039957002</text><id>SNR</id></comment></pick><pick publicID="de.gempa.tb1.Pick/20250414192932.588617.140643"><time><value>2025-04-14T19:29:24.028393Z</value></time><waveformID networkCode="CX" stationCode="PB03" channelCode="HHZ"/><filterID>ITAPER(4)&gt;&gt;BW(4,4,20)</filterID><methodID>AIC</methodID><horizontalSlowness><value>9.122835929010163</value></horizontalSlowness><backazimuth><value>117.18245254271564</value></backazimuth><phaseHint>P</phaseHint><evaluationMode>automatic</evaluationMode><comment><text>9.293432876391881</text><id>DFX:rectilinearity</id></comment><comment><text>17.947547651701807</text><id>SNR</id></comment></pick><pick publicID="de.gempa.tb1.Pick/20250414192933.374332.140645"><time><value>2025-04-14T19:29:25.56Z</value></time><waveformID networkCode="CX" stationCode="PB10" channelCode="HHZ"/><filterID>ITAPER(4)&gt;&gt;BW(4,4,20)</filterID><methodID>AIC</methodID><horizontalSlowness><value>15.272691349095464</value></horizontalSlowness><backazimuth><value>43.242760207847965</value></backazimuth><phaseHint>P</phaseHint><evaluationMode>automatic</evaluationMode><comment><text>60.96554907469984</text><id>DFX:rectilinearity</id></comment><comment><text>13.250546874666387</text><id>SNR</id></comment></pick><pick publicID="de.gempa.tb1.Pick/20250414192938.094595.140647"><time><value>2025-04-14T19:29:22.81Z</value></time><waveformID networkCode="CX" stationCode="PB09" channelCode="HHZ"/><filterID>ITAPER(4)&gt;&gt;BW(4,4,20)</filterID><methodID>AIC</methodID><horizontalSlowness><value>17.12609925875271</value></horizontalSlowness><backazimuth><value>270.020967300859</value></backazimuth><phaseHint>P</phaseHint><evaluationMode>automatic</evaluationMode><comment><text>13.75373268159943</text><id>DFX:rectilinearity</id></comment><comment><text>13.095349632253967</text><id>SNR</id></comment></pick><pick publicID="de.gempa.tb1.Pick/20250414192938.563084.140649"><time><value>2025-04-14T19:29:31.308393Z</value></time><waveformID networkCode="CX" stationCode="PB02" channelCode="HHZ"/><filterID>ITAPER(4)&gt;&gt;BW(4,4,20)</filterID><methodID>AIC</methodID><horizontalSlowness><value>21.822472978808367</value></horizontalSlowness><backazimuth><value>84.25714945639682</value></backazimuth><phaseHint>P</phaseHint><evaluationMode>automatic</evaluationMode><comment><text>9.939920584786005</text><id>DFX:rectilinearity</id></comment><comment><text>5.785498730369062</text><id>SNR</id></comment></pick><pick publicID="de.gempa.tb1.Pick/20250414192950.532747.140652"><time><value>2025-04-14T19:29:27.268391Z</value></time><waveformID networkCode="CX" stationCode="PB07" channelCode="HHZ"/><filterID>ITAPER(4)&gt;&gt;BW(4,4,20)</filterID><methodID>AIC</methodID><horizontalSlowness><value>21.077244246646028</value></horizontalSlowness><backazimuth><value>40.141419397020826</value></backazimuth><phaseHint>P</phaseHint><evaluationMode>automatic</evaluationMode><comment><text>107.88031527081037</text><id>DFX:rectilinearity</id></comment><comment><text>21.432248700595977</text><id>SNR</id></comment></pick><pick publicID="de.gempa.tb1.Pick/20250414192956.879669.140660"><time><value>2025-04-14T19:29:49.688393Z</value></time><waveformID networkCode="CX" stationCode="PB15" channelCode="HHN"/><filterID>ITAPER(2)&gt;&gt;BW(3,3,20)</filterID><methodID>L2-AIC-GRID</methodID><horizontalSlowness><value>22.597077083866616</value></horizontalSlowness><backazimuth><value>142.39908147310828</value></backazimuth><phaseHint>S</phaseHint><evaluationMode>automatic</evaluationMode><comment><text>331.46254023992657</text><id>DFX:rectilinearity</id></comment><comment><text>de.gempa.tb1.Pick/20250414192922.671208.140639</text><id>RefPickID</id></comment><comment><text>5.119453454257183</text><id>SNR</id></comment></pick><pick publicID="de.gempa.tb1.Pick/20250414192957.628472.140661"><time><value>2025-04-14T19:29:44.78Z</value></time><waveformID networkCode="CX" stationCode="PB19" channelCode="HHN"/><filterID>ITAPER(2)&gt;&gt;BW(3,3,20)</filterID><methodID>L2-AIC-GRID</methodID><horizontalSlowness><value>18.436771609401443</value></horizontalSlowness><backazimuth><value>86.03425925223685</value></backazimuth><phaseHint>S</phaseHint><evaluationMode>automatic</evaluationMode><comment><text>32.832162227170606</text><id>DFX:rectilinearity</id></comment><comment><text>de.gempa.tb1.Pick/20250414192920.517103.140637</text><id>RefPickID</id></comment><comment><text>7.796537477248272</text><id>SNR</id></comment></pick><pick publicID="de.gempa.tb1.Pick/20250414193012.613661.140665"><time><value>2025-04-14T19:30:04.218393Z</value></time><waveformID networkCode="CX" stationCode="PB03" channelCode="HHN"/><filterID>ITAPER(2)&gt;&gt;BW(3,3,20)</filterID><methodID>L2-AIC-GRID</methodID><horizontalSlowness><value>12.870772904284172</value></horizontalSlowness><backazimuth><value>352.5106754947379</value></backazimuth><phaseHint>S</phaseHint><evaluationMode>automatic</evaluationMode><comment><text>14.530928000239914</text><id>DFX:rectilinearity</id></comment><comment><text>de.gempa.tb1.Pick/20250414192932.588617.140643</text><id>RefPickID</id></comment><comment><text>7.509288608578603</text><id>SNR</id></comment></pick><origin publicID="de.gempa.tb1.Origin/20250414193012.618198.148859"><time><value>2025-04-14T19:28:33.346948Z</value><uncertainty>1.1557703018188477</uncertainty></time><latitude><value>-23.89539909362793</value><uncertainty>9.289402961730957</uncertainty></latitude><longitude><value>-67.24958801269531</value><uncertainty>24.78079032897949</uncertainty></longitude><depth><value>230.75140380859375</value><uncertainty>22.56465721130371</uncertainty></depth><depthType>from location</depthType><methodID>LOCSAT</methodID><earthModelID>iasp91_scanloc</earthModelID><quality><associatedPhaseCount>11</associatedPhaseCount><usedPhaseCount>11</usedPhaseCount><associatedStationCount>8</associatedStationCount><usedStationCount>8</usedStationCount><depthPhaseCount>0</depthPhaseCount><standardError>0.3425706339037156</standardError><azimuthalGap>311.0303039550781</azimuthalGap><maximumDistance>3.542630910873413</maximumDistance><minimumDistance>1.8681014776229858</minimumDistance><medianDistance>2.7824180126190186</medianDistance></quality><uncertainty><minHorizontalUncertainty>18.772174835205078</minHorizontalUncertainty><maxHorizontalUncertainty>53.54993438720703</maxHorizontalUncertainty><azimuthMaxHorizontalUncertainty>82.37042236328125</azimuthMaxHorizontalUncertainty><preferredDescription>horizontal uncertainty</preferredDescription></uncertainty><evaluationMode>automatic</evaluationMode><evaluationStatus>confirmed</evaluationStatus><comment><text>0.00</text><id>mismatchScore</id></comment><comment><text>mismatchScore</text><id>scevalMethod</id></comment><arrival><pickID>de.gempa.tb1.Pick/20250414192920.517103.140637</pickID><phase>P</phase><azimuth>269.3024597167969</azimuth><distance>1.8681014776229858</distance><timeResidual>-0.6938323974609375</timeResidual><timeUsed>true</timeUsed><horizontalSlownessUsed>false</horizontalSlownessUsed><backazimuthUsed>false</backazimuthUsed><weight>1</weight></arrival><arrival><pickID>de.gempa.tb1.Pick/20250414192922.671208.140639</pickID><phase>P</phase><azimuth>288.1034240722656</azimuth><distance>2.1500964164733887</distance><timeResidual>0.049896240234375</timeResidual><timeUsed>true</timeUsed><horizontalSlownessUsed>false</horizontalSlownessUsed><backazimuthUsed>false</backazimuthUsed><weight>1</weight></arrival><arrival><pickID>de.gempa.tb1.Pick/20250414192928.615453.140641</pickID><phase>P</phase><azimuth>298.5516662597656</azimuth><distance>2.4414119720458984</distance><timeResidual>0.10678863525390625</timeResidual><timeUsed>true</timeUsed><horizontalSlownessUsed>false</horizontalSlownessUsed><backazimuthUsed>false</backazimuthUsed><weight>1</weight></arrival><arrival><pickID>de.gempa.tb1.Pick/20250414192932.588617.140643</pickID><phase>P</phase><azimuth>308.05377197265625</azimuth><distance>2.949955940246582</distance><timeResidual>-0.15478134155273438</timeResidual><timeUsed>true</timeUsed><horizontalSlownessUsed>false</horizontalSlownessUsed><backazimuthUsed>false</backazimuthUsed><weight>1</weight></arrival><arrival><pickID>de.gempa.tb1.Pick/20250414192933.374332.140645</pickID><phase>P</phase><azimuth>276.4924011230469</azimuth><distance>3.05265998840332</distance><timeResidual>0.2424736022949219</timeResidual><timeUsed>true</timeUsed><horizontalSlownessUsed>false</horizontalSlownessUsed><backazimuthUsed>false</backazimuthUsed><weight>1</weight></arrival><arrival><pickID>de.gempa.tb1.Pick/20250414192938.094595.140647</pickID><phase>P</phase><azimuth>318.27215576171875</azimuth><distance>2.7824180126190186</distance><timeResidual>0.4604301452636719</timeResidual><timeUsed>true</timeUsed><horizontalSlownessUsed>false</horizontalSlownessUsed><backazimuthUsed>false</backazimuthUsed><weight>1</weight></arrival><arrival><pickID>de.gempa.tb1.Pick/20250414192938.563084.140649</pickID><phase>P</phase><azimuth>315.8359375</azimuth><distance>3.542630910873413</distance><timeResidual>0.3310279846191406</timeResidual><timeUsed>true</timeUsed><horizontalSlownessUsed>false</horizontalSlownessUsed><backazimuthUsed>false</backazimuthUsed><weight>1</weight></arrival><arrival><pickID>de.gempa.tb1.Pick/20250414192950.532747.140652</pickID><phase>P</phase><azimuth>311.06634521484375</azimuth><distance>3.2521812915802</distance><timeResidual>-0.3466377258300781</timeResidual><timeUsed>true</timeUsed><horizontalSlownessUsed>false</horizontalSlownessUsed><backazimuthUsed>false</backazimuthUsed><weight>1</weight></arrival><arrival><pickID>de.gempa.tb1.Pick/20250414192956.879669.140660</pickID><phase>S</phase><azimuth>288.1034240722656</azimuth><distance>2.1500964164733887</distance><timeResidual>0.24019622802734375</timeResidual><timeUsed>true</timeUsed><horizontalSlownessUsed>false</horizontalSlownessUsed><backazimuthUsed>false</backazimuthUsed><weight>1</weight></arrival><arrival><pickID>de.gempa.tb1.Pick/20250414192957.628472.140661</pickID><phase>S</phase><azimuth>269.3024597167969</azimuth><distance>1.8681014776229858</distance><timeResidual>0.186798095703125</timeResidual><timeUsed>true</timeUsed><horizontalSlownessUsed>false</horizontalSlownessUsed><backazimuthUsed>false</backazimuthUsed><weight>1</weight></arrival><arrival><pickID>de.gempa.tb1.Pick/20250414193012.613661.140665</pickID><phase>S</phase><azimuth>308.05377197265625</azimuth><distance>2.949955940246582</distance><timeResidual>-0.4225311279296875</timeResidual><timeUsed>true</timeUsed><horizontalSlownessUsed>false</horizontalSlownessUsed><backazimuthUsed>false</backazimuthUsed><weight>1</weight></arrival><magnitude publicID="de.gempa.tb1.Magnitude/20250414193124.572694.533780"><magnitude><value>3.081129409696785</value></magnitude><type>M</type><methodID>weighted average</methodID><stationCount>6</stationCount></magnitude></origin><event publicID="gempa2025hjtf"><preferredOriginID>de.gempa.tb1.Origin/20250414193012.618198.148859</preferredOriginID><preferredMagnitudeID>de.gempa.tb1.Magnitude/20250414193124.572694.533780</preferredMagnitudeID><description><text>Chile-Argentina Border Region</text><type>region name</type></description><originReference>de.gempa.tb1.Origin/20250414193012.618198.148859</originReference></event></EventParameters></seiscomp>