<?xml version="1.0" encoding="UTF-8"?>
<seiscomp xmlns="http://geofon.gfz-potsdam.de/ns/seiscomp3-schema/0.13" version="0.13"><EventParameters><pick publicID="de.gempa.tb1.Pick/20250414071900.712874.136500"><time><value>2025-04-14T07:18:55.5Z</value></time><waveformID networkCode="CX" stationCode="PB09" channelCode="HHZ"/><filterID>ITAPER(4)&gt;&gt;BW(4,4,20)</filterID><methodID>AIC</methodID><horizontalSlowness><value>15.806270259475108</value></horizontalSlowness><backazimuth><value>276.98699372969185</value></backazimuth><phaseHint>P</phaseHint><evaluationMode>automatic</evaluationMode><comment><text>9.126751527900932</text><id>DFX:rectilinearity</id></comment><comment><text>11.804819472140233</text><id>SNR</id></comment></pick><pick publicID="de.gempa.tb1.Pick/20250414071901.723941.136502"><time><value>2025-04-14T07:18:54.718393Z</value></time><waveformID networkCode="CX" stationCode="PB01" channelCode="HHZ"/><filterID>ITAPER(4)&gt;&gt;BW(4,4,20)</filterID><methodID>AIC</methodID><horizontalSlowness><value>3.870298237253887</value></horizontalSlowness><backazimuth><value>109.33189085094534</value></backazimuth><phaseHint>P</phaseHint><evaluationMode>automatic</evaluationMode><comment><text>28.344517252702005</text><id>DFX:rectilinearity</id></comment><comment><text>35.51717394621646</text><id>SNR</id></comment></pick><pick publicID="de.gempa.tb1.Pick/20250414071906.573239.136507"><time><value>2025-04-14T07:18:59.448394Z</value></time><waveformID networkCode="CX" stationCode="PB03" channelCode="HHZ"/><filterID>ITAPER(4)&gt;&gt;BW(4,4,20)</filterID><methodID>AIC</methodID><horizontalSlowness><value>21.94185688047909</value></horizontalSlowness><backazimuth><value>343.99041529235853</value></backazimuth><phaseHint>P</phaseHint><evaluationMode>automatic</evaluationMode><comment><text>6.31342944060107</text><id>DFX:rectilinearity</id></comment><comment><text>11.063885392947745</text><id>SNR</id></comment></pick><pick publicID="de.gempa.tb1.Pick/20250414071910.028729.136511"><time><value>2025-04-14T07:18:58.618394Z</value></time><waveformID networkCode="CX" stationCode="PB07" channelCode="HHZ"/><filterID>ITAPER(4)&gt;&gt;BW(4,4,20)</filterID><methodID>AIC</methodID><horizontalSlowness><value>23.443483139021343</value></horizontalSlowness><backazimuth><value>71.96285859709269</value></backazimuth><phaseHint>P</phaseHint><evaluationMode>automatic</evaluationMode><comment><text>56.930175181666</text><id>DFX:rectilinearity</id></comment><comment><text>21.71530387725409</text><id>SNR</id></comment></pick><pick publicID="de.gempa.tb1.Pick/20250414071916.641328.136513"><time><value>2025-04-14T07:19:08.648393Z</value></time><waveformID networkCode="CX" stationCode="PB01" channelCode="HHN"/><filterID>ITAPER(2)&gt;&gt;BW(3,3,20)</filterID><methodID>L2-AIC-GRID</methodID><horizontalSlowness><value>20.999416289313675</value></horizontalSlowness><backazimuth><value>290.05930598681857</value></backazimuth><phaseHint>S</phaseHint><evaluationMode>automatic</evaluationMode><comment><text>339.52484047248157</text><id>DFX:rectilinearity</id></comment><comment><text>de.gempa.tb1.Pick/20250414071901.723941.136502</text><id>RefPickID</id></comment><comment><text>12.326403548965445</text><id>SNR</id></comment></pick><pick publicID="de.gempa.tb1.Pick/20250414071918.620226.136514"><time><value>2025-04-14T07:19:09.38Z</value></time><waveformID networkCode="CX" stationCode="PSGCX" channelCode="HHZ"/><filterID>ITAPER(4)&gt;&gt;BW(4,4,20)</filterID><methodID>AIC</methodID><horizontalSlowness><value>20.005366666234185</value></horizontalSlowness><backazimuth><value>240.469092088818</value></backazimuth><phaseHint>P</phaseHint><evaluationMode>automatic</evaluationMode><comment><text>12.248045093029981</text><id>DFX:rectilinearity</id></comment><comment><text>14.13539990721233</text><id>SNR</id></comment></pick><pick publicID="de.gempa.tb1.Pick/20250414071924.580509.136520"><time><value>2025-04-14T07:19:16.948394Z</value></time><waveformID networkCode="CX" stationCode="PB03" channelCode="HHN"/><filterID>ITAPER(2)&gt;&gt;BW(3,3,20)</filterID><methodID>L2-AIC-GRID</methodID><horizontalSlowness><value>15.269979143099828</value></horizontalSlowness><backazimuth><value>277.08033321851116</value></backazimuth><phaseHint>S</phaseHint><evaluationMode>automatic</evaluationMode><comment><text>8.957724715970357</text><id>DFX:rectilinearity</id></comment><comment><text>de.gempa.tb1.Pick/20250414071906.573239.136507</text><id>RefPickID</id></comment><comment><text>7.208248035677899</text><id>SNR</id></comment></pick><pick publicID="de.gempa.tb1.Pick/20250414071932.79085.136522"><time><value>2025-04-14T07:19:09.76Z</value></time><waveformID networkCode="CX" stationCode="PB09" channelCode="HHN"/><filterID>ITAPER(2)&gt;&gt;BW(3,3,20)</filterID><methodID>L2-AIC-GRID</methodID><horizontalSlowness><value>14.839918938363988</value></horizontalSlowness><backazimuth><value>316.40604362665454</value></backazimuth><phaseHint>S</phaseHint><evaluationMode>automatic</evaluationMode><comment><text>52.52042785196075</text><id>DFX:rectilinearity</id></comment><comment><text>de.gempa.tb1.Pick/20250414071900.712874.136500</text><id>RefPickID</id></comment><comment><text>5.608911533329998</text><id>SNR</id></comment></pick><origin publicID="de.gempa.tb1.Origin/20250414071932.796486.131452"><time><value>2025-04-14T07:18:36.770446Z</value><uncertainty>1.181849479675293</uncertainty></time><latitude><value>-21.239463806152344</value><uncertainty>5.25310754776001</uncertainty></latitude><longitude><value>-69.01443481445312</value><uncertainty>14.58149814605713</uncertainty></longitude><depth><value>120.7615966796875</value><uncertainty>7.792889595031738</uncertainty></depth><depthType>from location</depthType><methodID>LOCSAT</methodID><earthModelID>iasp91_scanloc</earthModelID><quality><associatedPhaseCount>8</associatedPhaseCount><usedPhaseCount>8</usedPhaseCount><associatedStationCount>5</associatedStationCount><usedStationCount>5</usedStationCount><depthPhaseCount>0</depthPhaseCount><standardError>0.11458349900302023</standardError><azimuthalGap>233.54209899902344</azimuthalGap><maximumDistance>1.9367214441299438</maximumDistance><minimumDistance>0.4827607870101929</minimumDistance><medianDistance>0.9456349611282349</medianDistance></quality><uncertainty><minHorizontalUncertainty>11.246137619018555</minHorizontalUncertainty><maxHorizontalUncertainty>31.27476501464844</maxHorizontalUncertainty><azimuthMaxHorizontalUncertainty>88.7341079711914</azimuthMaxHorizontalUncertainty><preferredDescription>horizontal uncertainty</preferredDescription></uncertainty><evaluationMode>automatic</evaluationMode><evaluationStatus>confirmed</evaluationStatus><comment><text>0.24</text><id>mismatchScore</id></comment><comment><text>mismatchScore</text><id>scevalMethod</id></comment><arrival><pickID>de.gempa.tb1.Pick/20250414071900.712874.136500</pickID><phase>P</phase><azimuth>200.87660217285156</azimuth><distance>0.5932833552360535</distance><timeResidual>0.06081581115722656</timeResidual><timeUsed>true</timeUsed><horizontalSlownessUsed>false</horizontalSlownessUsed><backazimuthUsed>false</backazimuthUsed><weight>1</weight></arrival><arrival><pickID>de.gempa.tb1.Pick/20250414071901.723941.136502</pickID><phase>P</phase><azimuth>293.7725524902344</azimuth><distance>0.4827607870101929</distance><timeResidual>-0.006265640258789062</timeResidual><timeUsed>true</timeUsed><horizontalSlownessUsed>false</horizontalSlownessUsed><backazimuthUsed>false</backazimuthUsed><weight>1</weight></arrival><arrival><pickID>de.gempa.tb1.Pick/20250414071906.573239.136507</pickID><phase>P</phase><azimuth>220.349853515625</azimuth><distance>1.0584650039672852</distance><timeResidual>-0.035541534423828125</timeResidual><timeUsed>true</timeUsed><horizontalSlownessUsed>false</horizontalSlownessUsed><backazimuthUsed>false</backazimuthUsed><weight>1</weight></arrival><arrival><pickID>de.gempa.tb1.Pick/20250414071910.028729.136511</pickID><phase>P</phase><azimuth>238.99925231933594</azimuth><distance>0.9456349611282349</distance><timeResidual>0.23569679260253906</timeResidual><timeUsed>true</timeUsed><horizontalSlownessUsed>false</horizontalSlownessUsed><backazimuthUsed>false</backazimuthUsed><weight>1</weight></arrival><arrival><pickID>de.gempa.tb1.Pick/20250414071916.641328.136513</pickID><phase>S</phase><azimuth>293.7725524902344</azimuth><distance>0.4827607870101929</distance><timeResidual>0.07739448547363281</timeResidual><timeUsed>true</timeUsed><horizontalSlownessUsed>false</horizontalSlownessUsed><backazimuthUsed>false</backazimuthUsed><weight>1</weight></arrival><arrival><pickID>de.gempa.tb1.Pick/20250414071918.620226.136514</pickID><phase>P</phase><azimuth>327.3345031738281</azimuth><distance>1.9367214441299438</distance><timeResidual>-0.14191627502441406</timeResidual><timeUsed>true</timeUsed><horizontalSlownessUsed>false</horizontalSlownessUsed><backazimuthUsed>false</backazimuthUsed><weight>1</weight></arrival><arrival><pickID>de.gempa.tb1.Pick/20250414071924.580509.136520</pickID><phase>S</phase><azimuth>220.349853515625</azimuth><distance>1.0584650039672852</distance><timeResidual>-0.10654067993164062</timeResidual><timeUsed>true</timeUsed><horizontalSlownessUsed>false</horizontalSlownessUsed><backazimuthUsed>false</backazimuthUsed><weight>1</weight></arrival><arrival><pickID>de.gempa.tb1.Pick/20250414071932.79085.136522</pickID><phase>S</phase><azimuth>200.87660217285156</azimuth><distance>0.5932833552360535</distance><timeResidual>-0.08366584777832031</timeResidual><timeUsed>true</timeUsed><horizontalSlownessUsed>false</horizontalSlownessUsed><backazimuthUsed>false</backazimuthUsed><weight>1</weight></arrival><magnitude publicID="de.gempa.tb1.Magnitude/20250414071941.554393.445238"><magnitude><value>1.8084075444847882</value></magnitude><type>M</type><methodID>weighted average</methodID><stationCount>2</stationCount></magnitude></origin><event publicID="gempa2025hiuw"><preferredOriginID>de.gempa.tb1.Origin/20250414071932.796486.131452</preferredOriginID><preferredMagnitudeID>de.gempa.tb1.Magnitude/20250414071941.554393.445238</preferredMagnitudeID><description><text>Northern Chile</text><type>region name</type></description><originReference>de.gempa.tb1.Origin/20250414071932.796486.131452</originReference></event></EventParameters></seiscomp>