<?xml version="1.0" encoding="UTF-8"?>
<seiscomp xmlns="http://geofon.gfz-potsdam.de/ns/seiscomp3-schema/0.13" version="0.13"><EventParameters><pick publicID="de.gempa.tb1.Pick/20250411094005.377348.121947"><time><value>2025-04-11T09:40:02.965Z</value></time><waveformID networkCode="CH" stationCode="METMA" channelCode="HHZ"/><filterID>ITAPER(4)&gt;&gt;BW(4,4,20)</filterID><methodID>AIC</methodID><phaseHint>P</phaseHint><evaluationMode>automatic</evaluationMode></pick><pick publicID="de.gempa.tb1.Pick/20250411094008.168151.121951"><time><value>2025-04-11T09:40:04.835Z</value></time><waveformID networkCode="CH" stationCode="SLE" channelCode="HHZ"/><filterID>ITAPER(4)&gt;&gt;BW(4,4,20)</filterID><methodID>AIC</methodID><phaseHint>P</phaseHint><evaluationMode>automatic</evaluationMode></pick><pick publicID="de.gempa.tb1.Pick/20250411094009.21269.121953"><time><value>2025-04-11T09:40:06.17Z</value></time><waveformID networkCode="CH" stationCode="SULZ" channelCode="HHZ"/><filterID>ITAPER(4)&gt;&gt;BW(4,4,20)</filterID><methodID>AIC</methodID><phaseHint>P</phaseHint><evaluationMode>automatic</evaluationMode></pick><pick publicID="de.gempa.tb1.Pick/20250411094009.528426.121955"><time><value>2025-04-11T09:40:06.14Z</value></time><waveformID networkCode="CH" stationCode="BERGE" channelCode="HHZ"/><filterID>ITAPER(4)&gt;&gt;BW(4,4,20)</filterID><methodID>AIC</methodID><phaseHint>P</phaseHint><evaluationMode>automatic</evaluationMode></pick><pick publicID="de.gempa.tb1.Pick/20250411094010.630652.121961"><time><value>2025-04-11T09:40:07.16Z</value></time><waveformID networkCode="CH" stationCode="TRULL" channelCode="HHZ"/><filterID>ITAPER(4)&gt;&gt;BW(4,4,20)</filterID><methodID>AIC</methodID><phaseHint>P</phaseHint><evaluationMode>automatic</evaluationMode></pick><pick publicID="de.gempa.tb1.Pick/20250411094016.061363.121966"><time><value>2025-04-11T09:40:09.26Z</value></time><waveformID networkCode="CH" stationCode="BERGE" channelCode="HHN"/><filterID>RMHP(1)&gt;&gt;ITAPER(2)&gt;&gt;BW(4,3,20)</filterID><methodID>L2-AIC-GRID</methodID><phaseHint>S</phaseHint><evaluationMode>automatic</evaluationMode><comment><text>de.gempa.tb1.Pick/20250411094009.528426.121955</text><id>RefPickID</id></comment></pick><pick publicID="de.gempa.tb1.Pick/20250411094023.136139.121969"><time><value>2025-04-11T09:40:20.98Z</value></time><waveformID networkCode="CH" stationCode="LIENZ" channelCode="HHZ"/><filterID>ITAPER(4)&gt;&gt;BW(4,4,20)</filterID><methodID>AIC</methodID><phaseHint>P</phaseHint><evaluationMode>automatic</evaluationMode></pick><pick publicID="de.gempa.tb1.Pick/20250411094024.147369.121971"><time><value>2025-04-11T09:40:18.515Z</value></time><waveformID networkCode="CH" stationCode="BNALP" channelCode="HHZ"/><filterID>ITAPER(4)&gt;&gt;BW(4,4,20)</filterID><methodID>AIC</methodID><phaseHint>P</phaseHint><evaluationMode>automatic</evaluationMode></pick><pick publicID="de.gempa.tb1.Pick/20250411094025.888385.121973"><time><value>2025-04-11T09:40:22.245Z</value></time><waveformID networkCode="CH" stationCode="PLONS" channelCode="HHZ"/><filterID>ITAPER(4)&gt;&gt;BW(4,4,20)</filterID><methodID>AIC</methodID><phaseHint>P</phaseHint><evaluationMode>automatic</evaluationMode></pick><pick publicID="de.gempa.tb1.Pick/20250411094026.162495.121975"><time><value>2025-04-11T09:40:23.07Z</value></time><waveformID networkCode="CH" stationCode="PANIX" channelCode="HHZ"/><filterID>ITAPER(4)&gt;&gt;BW(4,4,20)</filterID><methodID>AIC</methodID><phaseHint>P</phaseHint><evaluationMode>automatic</evaluationMode></pick><pick publicID="de.gempa.tb1.Pick/20250411094026.952295.121977"><time><value>2025-04-11T09:40:08.885Z</value></time><waveformID networkCode="CH" stationCode="ROTHE" channelCode="HHZ"/><filterID>ITAPER(4)&gt;&gt;BW(4,4,20)</filterID><methodID>AIC</methodID><phaseHint>P</phaseHint><evaluationMode>automatic</evaluationMode></pick><pick publicID="de.gempa.tb1.Pick/20250411094027.99786.121979"><time><value>2025-04-11T09:40:24.33Z</value></time><waveformID networkCode="CH" stationCode="NALPS" channelCode="HHZ"/><filterID>ITAPER(4)&gt;&gt;BW(4,4,20)</filterID><methodID>AIC</methodID><phaseHint>P</phaseHint><evaluationMode>automatic</evaluationMode></pick><pick publicID="de.gempa.tb1.Pick/20250411094030.116537.121984"><time><value>2025-04-11T09:40:26.055Z</value></time><waveformID networkCode="CH" stationCode="FIESA" channelCode="HHZ"/><filterID>ITAPER(4)&gt;&gt;BW(4,4,20)</filterID><methodID>AIC</methodID><phaseHint>P</phaseHint><evaluationMode>automatic</evaluationMode></pick><pick publicID="de.gempa.tb1.Pick/20250411094033.069067.121992"><time><value>2025-04-11T09:40:29.595Z</value></time><waveformID networkCode="CH" stationCode="DAVOX" channelCode="HHZ"/><filterID>ITAPER(4)&gt;&gt;BW(4,4,20)</filterID><methodID>AIC</methodID><phaseHint>P</phaseHint><evaluationMode>automatic</evaluationMode></pick><pick publicID="de.gempa.tb1.Pick/20250411094038.290723.122009"><time><value>2025-04-11T09:40:32.82Z</value></time><waveformID networkCode="CH" stationCode="BNALP" channelCode="HHN"/><filterID>RMHP(1)&gt;&gt;ITAPER(2)&gt;&gt;BW(4,3,20)</filterID><methodID>L2-AIC-GRID</methodID><phaseHint>S</phaseHint><evaluationMode>automatic</evaluationMode><comment><text>de.gempa.tb1.Pick/20250411094024.147369.121971</text><id>RefPickID</id></comment></pick><pick publicID="de.gempa.tb1.Pick/20250411094039.645163.122011"><time><value>2025-04-11T09:40:35.045Z</value></time><waveformID networkCode="CH" stationCode="FUORN" channelCode="HHZ"/><filterID>ITAPER(4)&gt;&gt;BW(4,4,20)</filterID><methodID>AIC</methodID><phaseHint>P</phaseHint><evaluationMode>automatic</evaluationMode></pick><pick publicID="de.gempa.tb1.Pick/20250411094041.583024.122014"><time><value>2025-04-11T09:40:30.92Z</value></time><waveformID networkCode="CH" stationCode="SIMPL" channelCode="HHZ"/><filterID>ITAPER(4)&gt;&gt;BW(4,4,20)</filterID><methodID>AIC</methodID><phaseHint>P</phaseHint><evaluationMode>automatic</evaluationMode></pick><origin publicID="de.gempa.tb1.Origin/20250411094041.585378.59028"><time><value>2025-04-11T09:40:02.635948Z</value><uncertainty>0.4186317026615143</uncertainty></time><latitude><value>47.72819900512695</value><uncertainty>2.309436082839966</uncertainty></latitude><longitude><value>8.268595695495605</value><uncertainty>2.9079747200012207</uncertainty></longitude><depth><value>2.713721513748169</value><uncertainty>2.7740957736968994</uncertainty></depth><depthType>from location</depthType><methodID>LOCSAT</methodID><earthModelID>iasp91</earthModelID><quality><associatedPhaseCount>17</associatedPhaseCount><usedPhaseCount>17</usedPhaseCount><associatedStationCount>15</associatedStationCount><usedStationCount>15</usedStationCount><depthPhaseCount>0</depthPhaseCount><standardError>0.9480979013187968</standardError><azimuthalGap>113.83546447753906</azimuthalGap><maximumDistance>1.7552028894424438</maximumDistance><minimumDistance>0.019329320639371872</minimumDistance><medianDistance>0.8647293448448181</medianDistance></quality><uncertainty><minHorizontalUncertainty>4.867038249969482</minHorizontalUncertainty><maxHorizontalUncertainty>6.305639743804932</maxHorizontalUncertainty><azimuthMaxHorizontalUncertainty>103.31256866455078</azimuthMaxHorizontalUncertainty><preferredDescription>horizontal uncertainty</preferredDescription></uncertainty><evaluationMode>automatic</evaluationMode><evaluationStatus>confirmed</evaluationStatus><comment><text>0.62</text><id>mismatchScore</id></comment><comment><text>extendedGap</text><id>scevalMethod</id></comment><arrival><pickID>de.gempa.tb1.Pick/20250411094005.377348.121947</pickID><phase>P</phase><azimuth>213.9290771484375</azimuth><distance>0.019329320639371872</distance><timeResidual>-0.5656611919403076</timeResidual><timeUsed>true</timeUsed><horizontalSlownessUsed>false</horizontalSlownessUsed><backazimuthUsed>false</backazimuthUsed><weight>1</weight></arrival><arrival><pickID>de.gempa.tb1.Pick/20250411094008.168151.121951</pickID><phase>P</phase><azimuth>76.39320373535156</azimuth><distance>0.15532222390174866</distance><timeResidual>-1.229189395904541</timeResidual><timeUsed>true</timeUsed><horizontalSlownessUsed>false</horizontalSlownessUsed><backazimuthUsed>false</backazimuthUsed><weight>1</weight></arrival><arrival><pickID>de.gempa.tb1.Pick/20250411094009.21269.121953</pickID><phase>P</phase><azimuth>207.93626403808594</azimuth><distance>0.22720593214035034</distance><timeResidual>-1.233900547027588</timeResidual><timeUsed>true</timeUsed><horizontalSlownessUsed>false</horizontalSlownessUsed><backazimuthUsed>false</backazimuthUsed><weight>1</weight></arrival><arrival><pickID>de.gempa.tb1.Pick/20250411094009.528426.121955</pickID><phase>P</phase><azimuth>336.97259521484375</azimuth><distance>0.1559637039899826</distance><timeResidual>0.06407210230827332</timeResidual><timeUsed>true</timeUsed><horizontalSlownessUsed>false</horizontalSlownessUsed><backazimuthUsed>false</backazimuthUsed><weight>1</weight></arrival><arrival><pickID>de.gempa.tb1.Pick/20250411094010.630652.121961</pickID><phase>P</phase><azimuth>105.75877380371094</azimuth><distance>0.2901616394519806</distance><timeResidual>-1.4165620803833008</timeResidual><timeUsed>true</timeUsed><horizontalSlownessUsed>false</horizontalSlownessUsed><backazimuthUsed>false</backazimuthUsed><weight>1</weight></arrival><arrival><pickID>de.gempa.tb1.Pick/20250411094016.061363.121966</pickID><phase>S</phase><azimuth>336.97259521484375</azimuth><distance>0.1559637039899826</distance><timeResidual>1.11179780960083</timeResidual><timeUsed>true</timeUsed><horizontalSlownessUsed>false</horizontalSlownessUsed><backazimuthUsed>false</backazimuthUsed><weight>1</weight></arrival><arrival><pickID>de.gempa.tb1.Pick/20250411094023.136139.121969</pickID><phase>P</phase><azimuth>117.1501007080078</azimuth><distance>0.9363797903060913</distance><timeResidual>0.3632945716381073</timeResidual><timeUsed>true</timeUsed><horizontalSlownessUsed>false</horizontalSlownessUsed><backazimuthUsed>false</backazimuthUsed><weight>1</weight></arrival><arrival><pickID>de.gempa.tb1.Pick/20250411094024.147369.121971</pickID><phase>P</phase><azimuth>172.870361328125</azimuth><distance>0.8647293448448181</distance><timeResidual>-0.7676687240600586</timeResidual><timeUsed>true</timeUsed><horizontalSlownessUsed>false</horizontalSlownessUsed><backazimuthUsed>false</backazimuthUsed><weight>1</weight></arrival><arrival><pickID>de.gempa.tb1.Pick/20250411094025.888385.121973</pickID><phase>P</phase><azimuth>131.54739379882812</azimuth><distance>1.0161175727844238</distance><timeResidual>0.17957684397697449</timeResidual><timeUsed>true</timeUsed><horizontalSlownessUsed>false</horizontalSlownessUsed><backazimuthUsed>false</backazimuthUsed><weight>1</weight></arrival><arrival><pickID>de.gempa.tb1.Pick/20250411094026.162495.121975</pickID><phase>P</phase><azimuth>147.24183654785156</azimuth><distance>1.0699511766433716</distance><timeResidual>0.12912556529045105</timeResidual><timeUsed>true</timeUsed><horizontalSlownessUsed>false</horizontalSlownessUsed><backazimuthUsed>false</backazimuthUsed><weight>1</weight></arrival><arrival><pickID>de.gempa.tb1.Pick/20250411094026.952295.121977</pickID><phase>P</phase><azimuth>223.1371307373047</azimuth><distance>0.3449268937110901</distance><timeResidual>-0.712216854095459</timeResidual><timeUsed>true</timeUsed><horizontalSlownessUsed>false</horizontalSlownessUsed><backazimuthUsed>false</backazimuthUsed><weight>1</weight></arrival><arrival><pickID>de.gempa.tb1.Pick/20250411094027.99786.121979</pickID><phase>P</phase><azimuth>163.7185516357422</azimuth><distance>1.1799324750900269</distance><timeResidual>-0.3834209740161896</timeResidual><timeUsed>true</timeUsed><horizontalSlownessUsed>false</horizontalSlownessUsed><backazimuthUsed>false</backazimuthUsed><weight>1</weight></arrival><arrival><pickID>de.gempa.tb1.Pick/20250411094030.116537.121984</pickID><phase>P</phase><azimuth>184.83453369140625</azimuth><distance>1.2980396747589111</distance><timeResidual>-0.5385208129882812</timeResidual><timeUsed>true</timeUsed><horizontalSlownessUsed>false</horizontalSlownessUsed><backazimuthUsed>false</backazimuthUsed><weight>1</weight></arrival><arrival><pickID>de.gempa.tb1.Pick/20250411094033.069067.121992</pickID><phase>P</phase><azimuth>130.2368621826172</azimuth><distance>1.4502012729644775</distance><timeResidual>0.6158676147460938</timeResidual><timeUsed>true</timeUsed><horizontalSlownessUsed>false</horizontalSlownessUsed><backazimuthUsed>false</backazimuthUsed><weight>1</weight></arrival><arrival><pickID>de.gempa.tb1.Pick/20250411094038.290723.122009</pickID><phase>S</phase><azimuth>172.870361328125</azimuth><distance>0.8647293448448181</distance><timeResidual>1.7942676544189453</timeResidual><timeUsed>true</timeUsed><horizontalSlownessUsed>false</horizontalSlownessUsed><backazimuthUsed>false</backazimuthUsed><weight>1</weight></arrival><arrival><pickID>de.gempa.tb1.Pick/20250411094039.645163.122011</pickID><phase>P</phase><azimuth>128.43008422851562</azimuth><distance>1.7552028894424438</distance><timeResidual>1.4025039672851562</timeResidual><timeUsed>true</timeUsed><horizontalSlownessUsed>false</horizontalSlownessUsed><backazimuthUsed>false</backazimuthUsed><weight>1</weight></arrival><arrival><pickID>de.gempa.tb1.Pick/20250411094041.583024.122014</pickID><phase>P</phase><azimuth>186.62176513671875</azimuth><distance>1.4989619255065918</distance><timeResidual>1.1835079193115234</timeResidual><timeUsed>true</timeUsed><horizontalSlownessUsed>false</horizontalSlownessUsed><backazimuthUsed>false</backazimuthUsed><weight>1</weight></arrival><magnitude publicID="de.gempa.tb1.Magnitude/20250411094101.714687.112856"><magnitude><value>1.7773304875487514</value></magnitude><type>M</type><methodID>weighted average</methodID><stationCount>12</stationCount></magnitude></origin><event publicID="gempa2025hdln"><preferredOriginID>de.gempa.tb1.Origin/20250411094041.585378.59028</preferredOriginID><preferredMagnitudeID>de.gempa.tb1.Magnitude/20250411094101.714687.112856</preferredMagnitudeID><description><text>Switzerland</text><type>region name</type></description><originReference>de.gempa.tb1.Origin/20250411094041.585378.59028</originReference></event></EventParameters></seiscomp>