<?xml version="1.0" encoding="UTF-8"?>
<seiscomp xmlns="http://geofon.gfz-potsdam.de/ns/seiscomp3-schema/0.13" version="0.13"><EventParameters><pick publicID="de.gempa.tb1.Pick/20250412143444.30277.163294"><time><value>2025-04-12T14:34:41.475Z</value></time><waveformID networkCode="CH" stationCode="ZUR" channelCode="HHZ"/><filterID>ITAPER(4)&gt;&gt;BW(4,4,20)</filterID><methodID>AIC</methodID><phaseHint>P</phaseHint><evaluationMode>automatic</evaluationMode></pick><pick publicID="de.gempa.tb1.Pick/20250412143451.15211.163302"><time><value>2025-04-12T14:34:45.970001Z</value></time><waveformID networkCode="CH" stationCode="SLE" channelCode="HHZ"/><filterID>ITAPER(4)&gt;&gt;BW(4,4,20)</filterID><methodID>AIC</methodID><phaseHint>P</phaseHint><evaluationMode>automatic</evaluationMode></pick><pick publicID="de.gempa.tb1.Pick/20250412143452.028205.163304"><time><value>2025-04-12T14:34:49.02Z</value></time><waveformID networkCode="CH" stationCode="EMMET" channelCode="HHZ"/><filterID>ITAPER(4)&gt;&gt;BW(4,4,20)</filterID><methodID>AIC</methodID><phaseHint>P</phaseHint><evaluationMode>automatic</evaluationMode></pick><pick publicID="de.gempa.tb1.Pick/20250412143453.497252.163307"><time><value>2025-04-12T14:34:47.24Z</value></time><waveformID networkCode="CH" stationCode="ROTHE" channelCode="HHZ"/><filterID>ITAPER(4)&gt;&gt;BW(4,4,20)</filterID><methodID>AIC</methodID><phaseHint>P</phaseHint><evaluationMode>automatic</evaluationMode></pick><pick publicID="de.gempa.tb1.Pick/20250412143458.093956.163312"><time><value>2025-04-12T14:34:52.575001Z</value></time><waveformID networkCode="CH" stationCode="WIMIS" channelCode="HHZ"/><filterID>ITAPER(4)&gt;&gt;BW(4,4,20)</filterID><methodID>AIC</methodID><phaseHint>P</phaseHint><evaluationMode>automatic</evaluationMode></pick><pick publicID="de.gempa.tb1.Pick/20250412143504.188378.163321"><time><value>2025-04-12T14:35:00.695Z</value></time><waveformID networkCode="CH" stationCode="DIX" channelCode="HHZ"/><filterID>ITAPER(4)&gt;&gt;BW(4,4,20)</filterID><methodID>AIC</methodID><phaseHint>P</phaseHint><evaluationMode>automatic</evaluationMode></pick><origin publicID="de.gempa.tb1.Origin/20250412143504.19026.104376"><time><value>2025-04-12T14:34:33.173077Z</value><uncertainty>2.667410373687744</uncertainty></time><latitude><value>47.26232147216797</value><uncertainty>10.742853164672852</uncertainty></latitude><longitude><value>9.018956184387207</value><uncertainty>23.517454147338867</uncertainty></longitude><depth><value>24.183300018310547</value><uncertainty>12.807672500610352</uncertainty></depth><depthType>from location</depthType><methodID>LOCSAT</methodID><earthModelID>iasp91</earthModelID><quality><associatedPhaseCount>6</associatedPhaseCount><usedPhaseCount>6</usedPhaseCount><associatedStationCount>6</associatedStationCount><usedStationCount>6</usedStationCount><depthPhaseCount>0</depthPhaseCount><standardError>0.9079481303133918</standardError><azimuthalGap>258.9490051269531</azimuthalGap><maximumDistance>1.6213923692703247</maximumDistance><minimumDistance>0.316677063703537</minimumDistance><medianDistance>0.7764038443565369</medianDistance></quality><uncertainty><minHorizontalUncertainty>21.14341926574707</minHorizontalUncertainty><maxHorizontalUncertainty>51.27321243286133</maxHorizontalUncertainty><azimuthMaxHorizontalUncertainty>101.31586456298828</azimuthMaxHorizontalUncertainty><preferredDescription>horizontal uncertainty</preferredDescription></uncertainty><evaluationMode>automatic</evaluationMode><evaluationStatus>rejected</evaluationStatus><comment><text>0.84</text><id>mismatchScore</id></comment><comment><text>mismatchScore</text><id>scevalMethod</id></comment><arrival><pickID>de.gempa.tb1.Pick/20250412143444.30277.163294</pickID><phase>P</phase><azimuth>289.8974914550781</azimuth><distance>0.316677063703537</distance><timeResidual>-0.2926321029663086</timeResidual><timeUsed>true</timeUsed><horizontalSlownessUsed>false</horizontalSlownessUsed><backazimuthUsed>false</backazimuthUsed><weight>1</weight></arrival><arrival><pickID>de.gempa.tb1.Pick/20250412143451.15211.163302</pickID><phase>P</phase><azimuth>324.8017578125</azimuth><distance>0.616353690624237</distance><timeResidual>-0.07004737854003906</timeResidual><timeUsed>true</timeUsed><horizontalSlownessUsed>false</horizontalSlownessUsed><backazimuthUsed>false</backazimuthUsed><weight>1</weight></arrival><arrival><pickID>de.gempa.tb1.Pick/20250412143452.028205.163304</pickID><phase>P</phase><azimuth>284.7535095214844</azimuth><distance>0.7057549357414246</distance><timeResidual>1.6996726989746094</timeResidual><timeUsed>true</timeUsed><horizontalSlownessUsed>false</horizontalSlownessUsed><backazimuthUsed>false</backazimuthUsed><weight>1</weight></arrival><arrival><pickID>de.gempa.tb1.Pick/20250412143453.497252.163307</pickID><phase>P</phase><azimuth>286.3948669433594</azimuth><distance>0.7764038443565369</distance><timeResidual>-1.0908479690551758</timeResidual><timeUsed>true</timeUsed><horizontalSlownessUsed>false</horizontalSlownessUsed><backazimuthUsed>false</backazimuthUsed><weight>1</weight></arrival><arrival><pickID>de.gempa.tb1.Pick/20250412143458.093956.163312</pickID><phase>P</phase><azimuth>238.47633361816406</azimuth><distance>1.1268436908721924</distance><timeResidual>-0.734039306640625</timeResidual><timeUsed>true</timeUsed><horizontalSlownessUsed>false</horizontalSlownessUsed><backazimuthUsed>false</backazimuthUsed><weight>1</weight></arrival><arrival><pickID>de.gempa.tb1.Pick/20250412143504.188378.163321</pickID><phase>P</phase><azimuth>223.75076293945312</azimuth><distance>1.6213923692703247</distance><timeResidual>0.4878816604614258</timeResidual><timeUsed>true</timeUsed><horizontalSlownessUsed>false</horizontalSlownessUsed><backazimuthUsed>false</backazimuthUsed><weight>1</weight></arrival><magnitude publicID="de.gempa.tb1.Magnitude/20250412143524.591584.240386"><magnitude><value>1.8282421743254247</value></magnitude><type>M</type><methodID>weighted average</methodID><stationCount>6</stationCount></magnitude></origin><event publicID="gempa2025hfrj"><preferredOriginID>de.gempa.tb1.Origin/20250412143504.19026.104376</preferredOriginID><preferredMagnitudeID>de.gempa.tb1.Magnitude/20250412143524.591584.240386</preferredMagnitudeID><type>not existing</type><typeCertainty>suspected</typeCertainty><description><text>Germany</text><type>region name</type></description><originReference>de.gempa.tb1.Origin/20250412143504.19026.104376</originReference></event></EventParameters></seiscomp>