<?xml version="1.0" encoding="UTF-8"?>
<seiscomp xmlns="http://geofon.gfz-potsdam.de/ns/seiscomp3-schema/0.13" version="0.13"><EventParameters><pick publicID="de.gempa.tb1.Pick/20250413114224.546209.130890"><time><value>2025-04-13T11:42:18.538394Z</value></time><waveformID networkCode="CX" stationCode="PB06" channelCode="HHZ"/><filterID>ITAPER(4)&gt;&gt;BW(4,4,20)</filterID><methodID>AIC</methodID><horizontalSlowness><value>22.246744785544443</value></horizontalSlowness><backazimuth><value>268.8098584007759</value></backazimuth><phaseHint>P</phaseHint><evaluationMode>automatic</evaluationMode><comment><text>66.90593168063839</text><id>DFX:rectilinearity</id></comment><comment><text>11.288428418843273</text><id>SNR</id></comment></pick><pick publicID="de.gempa.tb1.Pick/20250413114226.583938.130892"><time><value>2025-04-13T11:42:21.85Z</value></time><waveformID networkCode="CX" stationCode="PB09" channelCode="HHZ"/><filterID>ITAPER(4)&gt;&gt;BW(4,4,20)</filterID><methodID>AIC</methodID><horizontalSlowness><value>20.844253315034695</value></horizontalSlowness><backazimuth><value>310.40761892570424</value></backazimuth><phaseHint>P</phaseHint><evaluationMode>automatic</evaluationMode><comment><text>16.840149413472194</text><id>DFX:rectilinearity</id></comment><comment><text>16.289128840633822</text><id>SNR</id></comment></pick><pick publicID="de.gempa.tb1.Pick/20250413114228.48345.130894"><time><value>2025-04-13T11:42:20.388393Z</value></time><waveformID networkCode="CX" stationCode="PB03" channelCode="HHZ"/><filterID>ITAPER(4)&gt;&gt;BW(4,4,20)</filterID><methodID>AIC</methodID><horizontalSlowness><value>13.27632342611076</value></horizontalSlowness><backazimuth><value>202.4312402443949</value></backazimuth><phaseHint>P</phaseHint><evaluationMode>automatic</evaluationMode><comment><text>14.813267509466533</text><id>DFX:rectilinearity</id></comment><comment><text>28.756647355222327</text><id>SNR</id></comment></pick><pick publicID="de.gempa.tb1.Pick/20250413114235.470899.130896"><time><value>2025-04-13T11:42:28.678393Z</value></time><waveformID networkCode="CX" stationCode="PB02" channelCode="HHZ"/><filterID>ITAPER(4)&gt;&gt;BW(4,4,20)</filterID><methodID>AIC</methodID><horizontalSlowness><value>23.029885874256887</value></horizontalSlowness><backazimuth><value>108.300039738728</value></backazimuth><phaseHint>P</phaseHint><evaluationMode>automatic</evaluationMode><comment><text>48.42571427668696</text><id>DFX:rectilinearity</id></comment><comment><text>7.338581068237369</text><id>SNR</id></comment></pick><pick publicID="de.gempa.tb1.Pick/20250413114235.674037.130898"><time><value>2025-04-13T11:42:28.498394Z</value></time><waveformID networkCode="CX" stationCode="PB06" channelCode="HHN"/><filterID>ITAPER(2)&gt;&gt;BW(3,3,20)</filterID><methodID>L2-AIC-GRID</methodID><horizontalSlowness><value>14.167625815472602</value></horizontalSlowness><backazimuth><value>318.2284866563698</value></backazimuth><phaseHint>S</phaseHint><evaluationMode>automatic</evaluationMode><comment><text>53.62041222291361</text><id>DFX:rectilinearity</id></comment><comment><text>de.gempa.tb1.Pick/20250413114224.546209.130890</text><id>RefPickID</id></comment><comment><text>7.858192317155091</text><id>SNR</id></comment></pick><pick publicID="de.gempa.tb1.Pick/20250413114236.564046.130901"><time><value>2025-04-13T11:42:30.688393Z</value></time><waveformID networkCode="CX" stationCode="PB01" channelCode="HHZ"/><filterID>ITAPER(4)&gt;&gt;BW(4,4,20)</filterID><methodID>AIC</methodID><horizontalSlowness><value>23.24437913629515</value></horizontalSlowness><backazimuth><value>25.45266356516126</value></backazimuth><phaseHint>P</phaseHint><evaluationMode>automatic</evaluationMode><comment><text>11.813740897795014</text><id>DFX:rectilinearity</id></comment><comment><text>15.18210645544633</text><id>SNR</id></comment></pick><pick publicID="de.gempa.tb1.Pick/20250413114239.767817.130903"><time><value>2025-04-13T11:42:31.638393Z</value></time><waveformID networkCode="CX" stationCode="PB03" channelCode="HHN"/><filterID>ITAPER(2)&gt;&gt;BW(3,3,20)</filterID><methodID>L2-AIC-GRID</methodID><horizontalSlowness><value>2.4701285344787616</value></horizontalSlowness><backazimuth><value>324.0180431936784</value></backazimuth><phaseHint>S</phaseHint><evaluationMode>automatic</evaluationMode><comment><text>10.530020023071087</text><id>DFX:rectilinearity</id></comment><comment><text>de.gempa.tb1.Pick/20250413114228.48345.130894</text><id>RefPickID</id></comment><comment><text>14.183498869233183</text><id>SNR</id></comment></pick><pick publicID="de.gempa.tb1.Pick/20250413114243.791712.130906"><time><value>2025-04-13T11:42:34.29Z</value></time><waveformID networkCode="CX" stationCode="PB09" channelCode="HHN"/><filterID>ITAPER(2)&gt;&gt;BW(3,3,20)</filterID><methodID>L2-AIC-GRID</methodID><horizontalSlowness><value>9.641246294602649</value></horizontalSlowness><backazimuth><value>276.9405891049546</value></backazimuth><phaseHint>S</phaseHint><evaluationMode>automatic</evaluationMode><comment><text>10.819956735308146</text><id>DFX:rectilinearity</id></comment><comment><text>de.gempa.tb1.Pick/20250413114226.583938.130892</text><id>RefPickID</id></comment><comment><text>5.336695849015774</text><id>SNR</id></comment></pick><pick publicID="de.gempa.tb1.Pick/20250413114250.910563.130907"><time><value>2025-04-13T11:42:24.308394Z</value></time><waveformID networkCode="CX" stationCode="PB07" channelCode="HHZ"/><filterID>ITAPER(4)&gt;&gt;BW(4,4,20)</filterID><methodID>AIC</methodID><horizontalSlowness><value>21.650966176211202</value></horizontalSlowness><backazimuth><value>291.4896327071808</value></backazimuth><phaseHint>P</phaseHint><evaluationMode>automatic</evaluationMode><comment><text>230.69127268478474</text><id>DFX:rectilinearity</id></comment><comment><text>16.367283048664365</text><id>SNR</id></comment></pick><pick publicID="de.gempa.tb1.Pick/20250413114254.905418.130911"><time><value>2025-04-13T11:42:45.778393Z</value></time><waveformID networkCode="CX" stationCode="PB02" channelCode="HHN"/><filterID>ITAPER(2)&gt;&gt;BW(3,3,20)</filterID><methodID>L2-AIC-GRID</methodID><horizontalSlowness><value>22.31227919953508</value></horizontalSlowness><backazimuth><value>93.21245859459786</value></backazimuth><phaseHint>S</phaseHint><evaluationMode>automatic</evaluationMode><comment><text>41.932968775269323</text><id>DFX:rectilinearity</id></comment><comment><text>de.gempa.tb1.Pick/20250413114235.470899.130896</text><id>RefPickID</id></comment><comment><text>7.95839067898204</text><id>SNR</id></comment></pick><pick publicID="de.gempa.tb1.Pick/20250413114255.192455.130912"><time><value>2025-04-13T11:42:38.198394Z</value></time><waveformID networkCode="CX" stationCode="PB07" channelCode="HHN"/><filterID>ITAPER(2)&gt;&gt;BW(3,3,20)</filterID><methodID>L2-AIC-GRID</methodID><horizontalSlowness><value>21.879942994078426</value></horizontalSlowness><backazimuth><value>87.09326923511196</value></backazimuth><phaseHint>S</phaseHint><evaluationMode>automatic</evaluationMode><comment><text>282.1066391968436</text><id>DFX:rectilinearity</id></comment><comment><text>de.gempa.tb1.Pick/20250413114250.910563.130907</text><id>RefPickID</id></comment><comment><text>6.3553271665763</text><id>SNR</id></comment></pick><pick publicID="de.gempa.tb1.Pick/20250413114258.577118.130913"><time><value>2025-04-13T11:42:49.638393Z</value></time><waveformID networkCode="CX" stationCode="PB01" channelCode="HHN"/><filterID>ITAPER(2)&gt;&gt;BW(3,3,20)</filterID><methodID>L2-AIC-GRID</methodID><horizontalSlowness><value>15.627892301908338</value></horizontalSlowness><backazimuth><value>35.24049399880221</value></backazimuth><phaseHint>S</phaseHint><evaluationMode>automatic</evaluationMode><comment><text>14.369337804706575</text><id>DFX:rectilinearity</id></comment><comment><text>de.gempa.tb1.Pick/20250413114236.564046.130901</text><id>RefPickID</id></comment><comment><text>9.086677646015282</text><id>SNR</id></comment></pick><origin publicID="de.gempa.tb1.Origin/20250413114258.580473.108534"><time><value>2025-04-13T11:42:06.009747Z</value><uncertainty>0.9896519184112549</uncertainty></time><latitude><value>-22.484243392944336</value><uncertainty>3.966618299484253</uncertainty></latitude><longitude><value>-69.36402893066406</value><uncertainty>7.788921356201172</uncertainty></longitude><depth><value>83.6584701538086</value><uncertainty>6.955626964569092</uncertainty></depth><depthType>from location</depthType><methodID>LOCSAT</methodID><earthModelID>iasp91_scanloc</earthModelID><quality><associatedPhaseCount>12</associatedPhaseCount><usedPhaseCount>12</usedPhaseCount><associatedStationCount>6</associatedStationCount><usedStationCount>6</usedStationCount><depthPhaseCount>0</depthPhaseCount><standardError>0.18201945740970113</standardError><azimuthalGap>211.60591411590576</azimuthalGap><maximumDistance>1.4385757446289062</maximumDistance><minimumDistance>0.2924366295337677</minimumDistance><medianDistance>0.896032452583313</medianDistance></quality><uncertainty><minHorizontalUncertainty>8.490447998046875</minHorizontalUncertainty><maxHorizontalUncertainty>16.706287384033203</maxHorizontalUncertainty><azimuthMaxHorizontalUncertainty>88.066162109375</azimuthMaxHorizontalUncertainty><preferredDescription>horizontal uncertainty</preferredDescription></uncertainty><evaluationMode>automatic</evaluationMode><evaluationStatus>confirmed</evaluationStatus><comment><text>0.14</text><id>mismatchScore</id></comment><comment><text>mismatchScore</text><id>scevalMethod</id></comment><arrival><pickID>de.gempa.tb1.Pick/20250413114224.546209.130890</pickID><phase>P</phase><azimuth>221.01942443847656</azimuth><distance>0.2924366295337677</distance><timeResidual>-0.12881088256835938</timeResidual><timeUsed>true</timeUsed><horizontalSlownessUsed>false</horizontalSlownessUsed><backazimuthUsed>false</backazimuthUsed><weight>1</weight></arrival><arrival><pickID>de.gempa.tb1.Pick/20250413114226.583938.130892</pickID><phase>P</phase><azimuth>9.4135103225708</azimuth><distance>0.6938551068305969</distance><timeResidual>-0.08041858673095703</timeResidual><timeUsed>true</timeUsed><horizontalSlownessUsed>false</horizontalSlownessUsed><backazimuthUsed>false</backazimuthUsed><weight>1</weight></arrival><arrival><pickID>de.gempa.tb1.Pick/20250413114228.48345.130894</pickID><phase>P</phase><azimuth>320.1993408203125</azimuth><distance>0.563891351222992</distance><timeResidual>-0.2954263687133789</timeResidual><timeUsed>true</timeUsed><horizontalSlownessUsed>false</horizontalSlownessUsed><backazimuthUsed>false</backazimuthUsed><weight>1</weight></arrival><arrival><pickID>de.gempa.tb1.Pick/20250413114235.470899.130896</pickID><phase>P</phase><azimuth>336.8109130859375</azimuth><distance>1.2597850561141968</distance><timeResidual>0.2275571823120117</timeResidual><timeUsed>true</timeUsed><horizontalSlownessUsed>false</horizontalSlownessUsed><backazimuthUsed>false</backazimuthUsed><weight>1</weight></arrival><arrival><pickID>de.gempa.tb1.Pick/20250413114235.674037.130898</pickID><phase>S</phase><azimuth>221.01942443847656</azimuth><distance>0.2924366295337677</distance><timeResidual>0.1653308868408203</timeResidual><timeUsed>true</timeUsed><horizontalSlownessUsed>false</horizontalSlownessUsed><backazimuthUsed>false</backazimuthUsed><weight>1</weight></arrival><arrival><pickID>de.gempa.tb1.Pick/20250413114236.564046.130901</pickID><phase>P</phase><azimuth>355.40484619140625</azimuth><distance>1.4385757446289062</distance><timeResidual>-0.016391754150390625</timeResidual><timeUsed>true</timeUsed><horizontalSlownessUsed>false</horizontalSlownessUsed><backazimuthUsed>false</backazimuthUsed><weight>1</weight></arrival><arrival><pickID>de.gempa.tb1.Pick/20250413114239.767817.130903</pickID><phase>S</phase><azimuth>320.1993408203125</azimuth><distance>0.563891351222992</distance><timeResidual>-0.27460575103759766</timeResidual><timeUsed>true</timeUsed><horizontalSlownessUsed>false</horizontalSlownessUsed><backazimuthUsed>false</backazimuthUsed><weight>1</weight></arrival><arrival><pickID>de.gempa.tb1.Pick/20250413114243.791712.130906</pickID><phase>S</phase><azimuth>9.4135103225708</azimuth><distance>0.6938551068305969</distance><timeResidual>0.15982913970947266</timeResidual><timeUsed>true</timeUsed><horizontalSlownessUsed>false</horizontalSlownessUsed><backazimuthUsed>false</backazimuthUsed><weight>1</weight></arrival><arrival><pickID>de.gempa.tb1.Pick/20250413114250.910563.130907</pickID><phase>P</phase><azimuth>327.1905822753906</azimuth><distance>0.896032452583313</distance><timeResidual>0.20428752899169922</timeResidual><timeUsed>true</timeUsed><horizontalSlownessUsed>false</horizontalSlownessUsed><backazimuthUsed>false</backazimuthUsed><weight>1</weight></arrival><arrival><pickID>de.gempa.tb1.Pick/20250413114254.905418.130911</pickID><phase>S</phase><azimuth>336.8109130859375</azimuth><distance>1.2597850561141968</distance><timeResidual>0.009026527404785156</timeResidual><timeUsed>true</timeUsed><horizontalSlownessUsed>false</horizontalSlownessUsed><backazimuthUsed>false</backazimuthUsed><weight>1</weight></arrival><arrival><pickID>de.gempa.tb1.Pick/20250413114255.192455.130912</pickID><phase>S</phase><azimuth>327.1905822753906</azimuth><distance>0.896032452583313</distance><timeResidual>0.19466686248779297</timeResidual><timeUsed>true</timeUsed><horizontalSlownessUsed>false</horizontalSlownessUsed><backazimuthUsed>false</backazimuthUsed><weight>1</weight></arrival><arrival><pickID>de.gempa.tb1.Pick/20250413114258.577118.130913</pickID><phase>S</phase><azimuth>355.40484619140625</azimuth><distance>1.4385757446289062</distance><timeResidual>-0.1648874282836914</timeResidual><timeUsed>true</timeUsed><horizontalSlownessUsed>false</horizontalSlownessUsed><backazimuthUsed>false</backazimuthUsed><weight>1</weight></arrival><magnitude publicID="de.gempa.tb1.Magnitude/20250413114323.53824.352767"><magnitude><value>2.4023254844594306</value></magnitude><type>M</type><methodID>weighted average</methodID><stationCount>3</stationCount></magnitude></origin><event publicID="gempa2025hhhq"><preferredOriginID>de.gempa.tb1.Origin/20250413114258.580473.108534</preferredOriginID><preferredMagnitudeID>de.gempa.tb1.Magnitude/20250413114323.53824.352767</preferredMagnitudeID><description><text>Northern Chile</text><type>region name</type></description><originReference>de.gempa.tb1.Origin/20250413114258.580473.108534</originReference></event></EventParameters></seiscomp>