<?xml version="1.0" encoding="UTF-8"?>
<seiscomp xmlns="http://geofon.gfz-potsdam.de/ns/seiscomp3-schema/0.13" version="0.13"><EventParameters><pick publicID="de.gempa.tb1.Pick/20250414053037.22943.135988"><time><value>2025-04-14T05:30:31.63Z</value></time><waveformID networkCode="CX" stationCode="PB10" channelCode="HHZ"/><filterID>ITAPER(4)&gt;&gt;BW(4,4,20)</filterID><methodID>AIC</methodID><horizontalSlowness><value>10.441996242236016</value></horizontalSlowness><backazimuth><value>178.4162612667817</value></backazimuth><phaseHint>P</phaseHint><evaluationMode>automatic</evaluationMode><comment><text>111.75198126102948</text><id>DFX:rectilinearity</id></comment><comment><text>192.83644460628082</text><id>SNR</id></comment></pick><pick publicID="de.gempa.tb1.Pick/20250414053047.626163.135990"><time><value>2025-04-14T05:30:40.67Z</value></time><waveformID networkCode="CX" stationCode="PB19" channelCode="HHZ"/><filterID>ITAPER(4)&gt;&gt;BW(4,4,20)</filterID><methodID>AIC</methodID><horizontalSlowness><value>10.143892179113314</value></horizontalSlowness><backazimuth><value>251.4710555250838</value></backazimuth><phaseHint>P</phaseHint><evaluationMode>automatic</evaluationMode><comment><text>51.52857351111125</text><id>DFX:rectilinearity</id></comment><comment><text>23.8002140741013</text><id>SNR</id></comment></pick><pick publicID="de.gempa.tb1.Pick/20250414053055.624633.135992"><time><value>2025-04-14T05:30:49.538393Z</value></time><waveformID networkCode="CX" stationCode="PB06" channelCode="HHZ"/><filterID>ITAPER(4)&gt;&gt;BW(4,4,20)</filterID><methodID>AIC</methodID><horizontalSlowness><value>13.696340594099889</value></horizontalSlowness><backazimuth><value>324.2720398118645</value></backazimuth><phaseHint>P</phaseHint><evaluationMode>automatic</evaluationMode><comment><text>59.71342508001169</text><id>DFX:rectilinearity</id></comment><comment><text>10.96320012935418</text><id>SNR</id></comment></pick><pick publicID="de.gempa.tb1.Pick/20250414053103.572827.135995"><time><value>2025-04-14T05:30:55.488393Z</value></time><waveformID networkCode="CX" stationCode="PB03" channelCode="HHZ"/><filterID>ITAPER(4)&gt;&gt;BW(4,4,20)</filterID><methodID>AIC</methodID><horizontalSlowness><value>10.389238125045203</value></horizontalSlowness><backazimuth><value>243.2821296341495</value></backazimuth><phaseHint>P</phaseHint><evaluationMode>automatic</evaluationMode><comment><text>6.22207118849361</text><id>DFX:rectilinearity</id></comment><comment><text>6.280873553154869</text><id>SNR</id></comment></pick><pick publicID="de.gempa.tb1.Pick/20250414053103.707143.135997"><time><value>2025-04-14T05:30:57.31Z</value></time><waveformID networkCode="CX" stationCode="PB19" channelCode="HHN"/><filterID>ITAPER(2)&gt;&gt;BW(3,3,20)</filterID><methodID>L2-AIC-GRID</methodID><horizontalSlowness><value>23.099630026952497</value></horizontalSlowness><backazimuth><value>55.94237726126462</value></backazimuth><phaseHint>S</phaseHint><evaluationMode>automatic</evaluationMode><comment><text>21348.40249414379</text><id>DFX:rectilinearity</id></comment><comment><text>de.gempa.tb1.Pick/20250414053047.626163.135990</text><id>RefPickID</id></comment><comment><text>8.063587994907241</text><id>SNR</id></comment></pick><pick publicID="de.gempa.tb1.Pick/20250414053120.62455.135999"><time><value>2025-04-14T05:31:12.678393Z</value></time><waveformID networkCode="CX" stationCode="PB06" channelCode="HHN"/><filterID>ITAPER(2)&gt;&gt;BW(3,3,20)</filterID><methodID>L2-AIC-GRID</methodID><horizontalSlowness><value>17.73460181150184</value></horizontalSlowness><backazimuth><value>38.44709138062592</value></backazimuth><phaseHint>S</phaseHint><evaluationMode>automatic</evaluationMode><comment><text>599.8689466940741</text><id>DFX:rectilinearity</id></comment><comment><text>de.gempa.tb1.Pick/20250414053055.624633.135992</text><id>RefPickID</id></comment><comment><text>7.602560213733672</text><id>SNR</id></comment></pick><pick publicID="de.gempa.tb1.Pick/20250414053138.532658.136001"><time><value>2025-04-14T05:31:24.688393Z</value></time><waveformID networkCode="CX" stationCode="PB03" channelCode="HHN"/><filterID>ITAPER(2)&gt;&gt;BW(3,3,20)</filterID><methodID>L2-AIC-GRID</methodID><horizontalSlowness><value>18.90942416001868</value></horizontalSlowness><backazimuth><value>283.89155845234654</value></backazimuth><phaseHint>S</phaseHint><evaluationMode>automatic</evaluationMode><comment><text>51.00665075323305</text><id>DFX:rectilinearity</id></comment><comment><text>de.gempa.tb1.Pick/20250414053103.572827.135995</text><id>RefPickID</id></comment><comment><text>5.99645451820305</text><id>SNR</id></comment></pick><origin publicID="de.gempa.tb1.Origin/20250414053138.535398.128887"><time><value>2025-04-14T05:30:18.158063Z</value><uncertainty>1.4833003282546997</uncertainty></time><latitude><value>-24.20827102661133</value><uncertainty>9.817852973937988</uncertainty></latitude><longitude><value>-70.54121398925781</value><uncertainty>5.105712890625</uncertainty></longitude><depth><value>6.744654178619385</value><uncertainty>5.70307445526123</uncertainty></depth><depthType>from location</depthType><methodID>LOCSAT</methodID><earthModelID>iasp91_scanloc</earthModelID><quality><associatedPhaseCount>7</associatedPhaseCount><usedPhaseCount>7</usedPhaseCount><associatedStationCount>4</associatedStationCount><usedStationCount>4</usedStationCount><depthPhaseCount>0</depthPhaseCount><standardError>0.4652064568316517</standardError><azimuthalGap>283.57169342041016</azimuthalGap><maximumDistance>2.268876075744629</maximumDistance><minimumDistance>0.6918004155158997</minimumDistance><medianDistance>1.7404258251190186</medianDistance></quality><uncertainty><minHorizontalUncertainty>9.270112037658691</minHorizontalUncertainty><maxHorizontalUncertainty>21.847293853759766</maxHorizontalUncertainty><azimuthMaxHorizontalUncertainty>17.132951736450195</azimuthMaxHorizontalUncertainty><preferredDescription>horizontal uncertainty</preferredDescription></uncertainty><evaluationMode>automatic</evaluationMode><evaluationStatus>confirmed</evaluationStatus><comment><text>0.13</text><id>mismatchScore</id></comment><comment><text>mismatchScore</text><id>scevalMethod</id></comment><arrival><pickID>de.gempa.tb1.Pick/20250414053037.22943.135988</pickID><phase>P</phase><azimuth>359.0220031738281</azimuth><distance>0.6918004155158997</distance><timeResidual>0.1567840576171875</timeResidual><timeUsed>true</timeUsed><horizontalSlownessUsed>false</horizontalSlownessUsed><backazimuthUsed>false</backazimuthUsed><weight>1</weight></arrival><arrival><pickID>de.gempa.tb1.Pick/20250414053047.626163.135990</pickID><phase>P</phase><azimuth>75.45030975341797</azimuth><distance>1.1824575662612915</distance><timeResidual>-0.17687320709228516</timeResidual><timeUsed>true</timeUsed><horizontalSlownessUsed>false</horizontalSlownessUsed><backazimuthUsed>false</backazimuthUsed><weight>1</weight></arrival><arrival><pickID>de.gempa.tb1.Pick/20250414053055.624633.135992</pickID><phase>P</phase><azimuth>30.95440673828125</azimuth><distance>1.7404258251190186</distance><timeResidual>0.7156047821044922</timeResidual><timeUsed>true</timeUsed><horizontalSlownessUsed>false</horizontalSlownessUsed><backazimuthUsed>false</backazimuthUsed><weight>1</weight></arrival><arrival><pickID>de.gempa.tb1.Pick/20250414053103.572827.135995</pickID><phase>P</phase><azimuth>18.804101943969727</azimuth><distance>2.268876075744629</distance><timeResidual>-0.6079864501953125</timeResidual><timeUsed>true</timeUsed><horizontalSlownessUsed>false</horizontalSlownessUsed><backazimuthUsed>false</backazimuthUsed><weight>1</weight></arrival><arrival><pickID>de.gempa.tb1.Pick/20250414053103.707143.135997</pickID><phase>S</phase><azimuth>75.45030975341797</azimuth><distance>1.1824575662612915</distance><timeResidual>-0.03294944763183594</timeResidual><timeUsed>true</timeUsed><horizontalSlownessUsed>false</horizontalSlownessUsed><backazimuthUsed>false</backazimuthUsed><weight>1</weight></arrival><arrival><pickID>de.gempa.tb1.Pick/20250414053120.62455.135999</pickID><phase>S</phase><azimuth>30.95440673828125</azimuth><distance>1.7404258251190186</distance><timeResidual>0.5086688995361328</timeResidual><timeUsed>true</timeUsed><horizontalSlownessUsed>false</horizontalSlownessUsed><backazimuthUsed>false</backazimuthUsed><weight>1</weight></arrival><arrival><pickID>de.gempa.tb1.Pick/20250414053138.532658.136001</pickID><phase>S</phase><azimuth>18.804101943969727</azimuth><distance>2.268876075744629</distance><timeResidual>-0.5634593963623047</timeResidual><timeUsed>true</timeUsed><horizontalSlownessUsed>false</horizontalSlownessUsed><backazimuthUsed>false</backazimuthUsed><weight>1</weight></arrival><magnitude publicID="de.gempa.tb1.Magnitude/20250414053151.701909.433858"><magnitude><value>2.658739800899387</value></magnitude><type>M</type><methodID>weighted average</methodID><stationCount>4</stationCount></magnitude></origin><event publicID="gempa2025hirh"><preferredOriginID>de.gempa.tb1.Origin/20250414053138.535398.128887</preferredOriginID><preferredMagnitudeID>de.gempa.tb1.Magnitude/20250414053151.701909.433858</preferredMagnitudeID><description><text>Near Coast of Northern Chile</text><type>region name</type></description><originReference>de.gempa.tb1.Origin/20250414053138.535398.128887</originReference></event></EventParameters></seiscomp>