<?xml version="1.0" encoding="UTF-8"?>
<seiscomp xmlns="http://geofon.gfz-potsdam.de/ns/seiscomp3-schema/0.13" version="0.13"><EventParameters><pick publicID="de.gempa.tb1.Pick/20250413185820.545116.133239"><time><value>2025-04-13T18:58:15.87Z</value></time><waveformID networkCode="CX" stationCode="PB19" channelCode="HHZ"/><filterID>ITAPER(4)&gt;&gt;BW(4,4,20)</filterID><methodID>AIC</methodID><horizontalSlowness><value>5.534715922269951</value></horizontalSlowness><backazimuth><value>291.6661739632883</value></backazimuth><phaseHint>P</phaseHint><evaluationMode>automatic</evaluationMode><comment><text>43.573582915904147</text><id>DFX:rectilinearity</id></comment><comment><text>77.92265987585604</text><id>SNR</id></comment></pick><pick publicID="de.gempa.tb1.Pick/20250413185822.177092.133241"><time><value>2025-04-13T18:58:17.91Z</value></time><waveformID networkCode="CX" stationCode="PB10" channelCode="HHZ"/><filterID>ITAPER(4)&gt;&gt;BW(4,4,20)</filterID><methodID>AIC</methodID><horizontalSlowness><value>13.99201010742448</value></horizontalSlowness><backazimuth><value>105.41217737164398</value></backazimuth><phaseHint>P</phaseHint><evaluationMode>automatic</evaluationMode><comment><text>108.39668790150294</text><id>DFX:rectilinearity</id></comment><comment><text>28.032452362378397</text><id>SNR</id></comment></pick><pick publicID="de.gempa.tb1.Pick/20250413185828.504127.133243"><time><value>2025-04-13T18:58:21.758393Z</value></time><waveformID networkCode="CX" stationCode="PB15" channelCode="HHZ"/><filterID>ITAPER(4)&gt;&gt;BW(4,4,20)</filterID><methodID>AIC</methodID><horizontalSlowness><value>21.878996724053753</value></horizontalSlowness><backazimuth><value>76.84706295427107</value></backazimuth><phaseHint>P</phaseHint><evaluationMode>automatic</evaluationMode><comment><text>272.6559526798929</text><id>DFX:rectilinearity</id></comment><comment><text>45.21851567629758</text><id>SNR</id></comment></pick><pick publicID="de.gempa.tb1.Pick/20250413185835.494049.133245"><time><value>2025-04-13T18:58:27.448391Z</value></time><waveformID networkCode="CX" stationCode="PB06" channelCode="HHZ"/><filterID>ITAPER(4)&gt;&gt;BW(4,4,20)</filterID><methodID>AIC</methodID><horizontalSlowness><value>16.519913753240395</value></horizontalSlowness><backazimuth><value>336.1610894208939</value></backazimuth><phaseHint>P</phaseHint><evaluationMode>automatic</evaluationMode><comment><text>24.3928987648974</text><id>DFX:rectilinearity</id></comment><comment><text>13.577413236547647</text><id>SNR</id></comment></pick><pick publicID="de.gempa.tb1.Pick/20250413185837.681824.133247"><time><value>2025-04-13T18:58:26.6Z</value></time><waveformID networkCode="CX" stationCode="PB19" channelCode="HHN"/><filterID>ITAPER(2)&gt;&gt;BW(3,3,20)</filterID><methodID>L2-AIC-GRID</methodID><horizontalSlowness><value>22.75288440871106</value></horizontalSlowness><backazimuth><value>121.4923032826204</value></backazimuth><phaseHint>S</phaseHint><evaluationMode>automatic</evaluationMode><comment><text>4411.880450073688</text><id>DFX:rectilinearity</id></comment><comment><text>de.gempa.tb1.Pick/20250413185820.545116.133239</text><id>RefPickID</id></comment><comment><text>16.122737727697604</text><id>SNR</id></comment></pick><pick publicID="de.gempa.tb1.Pick/20250413185847.158556.133248"><time><value>2025-04-13T18:58:36.928393Z</value></time><waveformID networkCode="CX" stationCode="PB15" channelCode="HHN"/><filterID>ITAPER(2)&gt;&gt;BW(3,3,20)</filterID><methodID>L2-AIC-GRID</methodID><horizontalSlowness><value>20.444927075156503</value></horizontalSlowness><backazimuth><value>111.09873834556927</value></backazimuth><phaseHint>S</phaseHint><evaluationMode>automatic</evaluationMode><comment><text>44313.856996088194</text><id>DFX:rectilinearity</id></comment><comment><text>de.gempa.tb1.Pick/20250413185828.504127.133243</text><id>RefPickID</id></comment><comment><text>9.902044043620581</text><id>SNR</id></comment></pick><pick publicID="de.gempa.tb1.Pick/20250413185850.560203.133250"><time><value>2025-04-13T18:58:39.938391Z</value></time><waveformID networkCode="CX" stationCode="PB07" channelCode="HHZ"/><filterID>ITAPER(4)&gt;&gt;BW(4,4,20)</filterID><methodID>AIC</methodID><horizontalSlowness><value>23.24987784794619</value></horizontalSlowness><backazimuth><value>48.09858968769072</value></backazimuth><phaseHint>P</phaseHint><evaluationMode>automatic</evaluationMode><comment><text>186.02556707350925</text><id>DFX:rectilinearity</id></comment><comment><text>7.099412508555156</text><id>SNR</id></comment></pick><pick publicID="de.gempa.tb1.Pick/20250413185856.491498.133253"><time><value>2025-04-13T18:58:47.628391Z</value></time><waveformID networkCode="CX" stationCode="PB06" channelCode="HHN"/><filterID>ITAPER(2)&gt;&gt;BW(3,3,20)</filterID><methodID>L2-AIC-GRID</methodID><horizontalSlowness><value>22.369131012074586</value></horizontalSlowness><backazimuth><value>341.6157493290343</value></backazimuth><phaseHint>S</phaseHint><evaluationMode>automatic</evaluationMode><comment><text>118.82233498581385</text><id>DFX:rectilinearity</id></comment><comment><text>de.gempa.tb1.Pick/20250413185835.494049.133245</text><id>RefPickID</id></comment><comment><text>13.393751033548117</text><id>SNR</id></comment></pick><origin publicID="de.gempa.tb1.Origin/20250413185856.494776.117619"><time><value>2025-04-13T18:58:01.433889Z</value><uncertainty>1.2039117813110352</uncertainty></time><latitude><value>-24.24735641479492</value><uncertainty>16.130220413208008</uncertainty></latitude><longitude><value>-70.02259826660156</value><uncertainty>7.02000904083252</uncertainty></longitude><depth><value>29.74386787414551</value><uncertainty>14.039250373840332</uncertainty></depth><depthType>from location</depthType><methodID>LOCSAT</methodID><earthModelID>iasp91_scanloc</earthModelID><quality><associatedPhaseCount>8</associatedPhaseCount><usedPhaseCount>8</usedPhaseCount><associatedStationCount>5</associatedStationCount><usedStationCount>5</usedStationCount><depthPhaseCount>0</depthPhaseCount><standardError>0.1602165256550362</standardError><azimuthalGap>263.09517669677734</azimuthalGap><maximumDistance>2.5120689868927</maximumDistance><minimumDistance>0.7509248852729797</minimumDistance><medianDistance>1.1512553691864014</medianDistance></quality><uncertainty><minHorizontalUncertainty>10.111478805541992</minHorizontalUncertainty><maxHorizontalUncertainty>36.3426628112793</maxHorizontalUncertainty><azimuthMaxHorizontalUncertainty>161.36900329589844</azimuthMaxHorizontalUncertainty><preferredDescription>horizontal uncertainty</preferredDescription></uncertainty><evaluationMode>automatic</evaluationMode><evaluationStatus>confirmed</evaluationStatus><comment><text>0.03</text><id>mismatchScore</id></comment><comment><text>mismatchScore</text><id>scevalMethod</id></comment><arrival><pickID>de.gempa.tb1.Pick/20250413185820.545116.133239</pickID><phase>P</phase><azimuth>63.1379165649414</azimuth><distance>0.7509248852729797</distance><timeResidual>-0.05014610290527344</timeResidual><timeUsed>true</timeUsed><horizontalSlownessUsed>false</horizontalSlownessUsed><backazimuthUsed>false</backazimuthUsed><weight>1</weight></arrival><arrival><pickID>de.gempa.tb1.Pick/20250413185822.177092.133241</pickID><phase>P</phase><azimuth>326.23309326171875</azimuth><distance>0.8777710795402527</distance><timeResidual>0.16363048553466797</timeResidual><timeUsed>true</timeUsed><horizontalSlownessUsed>false</horizontalSlownessUsed><backazimuthUsed>false</backazimuthUsed><weight>1</weight></arrival><arrival><pickID>de.gempa.tb1.Pick/20250413185828.504127.133243</pickID><phase>P</phase><azimuth>26.161449432373047</azimuth><distance>1.1512553691864014</distance><timeResidual>0.23884010314941406</timeResidual><timeUsed>true</timeUsed><horizontalSlownessUsed>false</horizontalSlownessUsed><backazimuthUsed>false</backazimuthUsed><weight>1</weight></arrival><arrival><pickID>de.gempa.tb1.Pick/20250413185835.494049.133245</pickID><phase>P</phase><azimuth>15.18331241607666</azimuth><distance>1.589310884475708</distance><timeResidual>-0.1007547378540039</timeResidual><timeUsed>true</timeUsed><horizontalSlownessUsed>false</horizontalSlownessUsed><backazimuthUsed>false</backazimuthUsed><weight>1</weight></arrival><arrival><pickID>de.gempa.tb1.Pick/20250413185837.681824.133247</pickID><phase>S</phase><azimuth>63.1379165649414</azimuth><distance>0.7509248852729797</distance><timeResidual>0.014303207397460938</timeResidual><timeUsed>true</timeUsed><horizontalSlownessUsed>false</horizontalSlownessUsed><backazimuthUsed>false</backazimuthUsed><weight>1</weight></arrival><arrival><pickID>de.gempa.tb1.Pick/20250413185847.158556.133248</pickID><phase>S</phase><azimuth>26.161449432373047</azimuth><distance>1.1512553691864014</distance><timeResidual>0.09510612487792969</timeResidual><timeUsed>true</timeUsed><horizontalSlownessUsed>false</horizontalSlownessUsed><backazimuthUsed>false</backazimuthUsed><weight>1</weight></arrival><arrival><pickID>de.gempa.tb1.Pick/20250413185850.560203.133250</pickID><phase>P</phase><azimuth>2.8952839374542236</azimuth><distance>2.5120689868927</distance><timeResidual>-0.3117046356201172</timeResidual><timeUsed>true</timeUsed><horizontalSlownessUsed>false</horizontalSlownessUsed><backazimuthUsed>false</backazimuthUsed><weight>1</weight></arrival><arrival><pickID>de.gempa.tb1.Pick/20250413185856.491498.133253</pickID><phase>S</phase><azimuth>15.18331241607666</azimuth><distance>1.589310884475708</distance><timeResidual>-0.04959297180175781</timeResidual><timeUsed>true</timeUsed><horizontalSlownessUsed>false</horizontalSlownessUsed><backazimuthUsed>false</backazimuthUsed><weight>1</weight></arrival><magnitude publicID="de.gempa.tb1.Magnitude/20250413185900.937714.391355"><magnitude><value>2.695173022639144</value></magnitude><type>M</type><methodID>weighted average</methodID><stationCount>4</stationCount></magnitude></origin><event publicID="gempa2025hhwe"><preferredOriginID>de.gempa.tb1.Origin/20250413185856.494776.117619</preferredOriginID><preferredMagnitudeID>de.gempa.tb1.Magnitude/20250413185900.937714.391355</preferredMagnitudeID><description><text>Near Coast of Northern Chile</text><type>region name</type></description><originReference>de.gempa.tb1.Origin/20250413185856.494776.117619</originReference></event></EventParameters></seiscomp>