<?xml version="1.0" encoding="UTF-8"?>
<seiscomp xmlns="http://geofon.gfz-potsdam.de/ns/seiscomp3-schema/0.13" version="0.13"><EventParameters><pick publicID="de.gempa.tb1.Pick/20250411221314.608782.135676"><time><value>2025-04-11T22:13:10.24Z</value></time><waveformID networkCode="SX" stationCode="WERD" channelCode="HHZ"/><filterID>ITAPER(2)&gt;&gt;BW(3,3,20)</filterID><methodID>AIC</methodID><horizontalSlowness><value>23.510938055852037</value></horizontalSlowness><backazimuth><value>86.63321421065946</value></backazimuth><phaseHint>P</phaseHint><evaluationMode>automatic</evaluationMode><comment><text>3.874990142228341</text><id>DFX:rectilinearity</id></comment></pick><pick publicID="de.gempa.tb1.Pick/20250411221316.842969.135678"><time><value>2025-04-11T22:13:09.31Z</value></time><waveformID networkCode="SX" stationCode="TANN" channelCode="HHZ"/><filterID>ITAPER(2)&gt;&gt;BW(3,3,20)</filterID><methodID>AIC</methodID><horizontalSlowness><value>18.416320488984525</value></horizontalSlowness><backazimuth><value>312.37739924262587</value></backazimuth><phaseHint>P</phaseHint><evaluationMode>automatic</evaluationMode><comment><text>1.8249257459036226</text><id>DFX:rectilinearity</id></comment></pick><pick publicID="de.gempa.tb1.Pick/20250411221317.006403.135682"><time><value>2025-04-11T22:13:09.94Z</value></time><waveformID networkCode="SX" stationCode="ROHR" channelCode="HHZ"/><filterID>ITAPER(2)&gt;&gt;BW(3,3,20)</filterID><methodID>AIC</methodID><horizontalSlowness><value>3.859227052921053</value></horizontalSlowness><backazimuth><value>62.06668312597623</value></backazimuth><phaseHint>P</phaseHint><evaluationMode>automatic</evaluationMode><comment><text>10.307576377561706</text><id>DFX:rectilinearity</id></comment></pick><pick publicID="de.gempa.tb1.Pick/20250411221317.496066.135684"><time><value>2025-04-11T22:13:08.0775Z</value></time><waveformID networkCode="SX" stationCode="WERN" channelCode="HHZ"/><filterID>ITAPER(2)&gt;&gt;BW(3,3,20)</filterID><methodID>AIC</methodID><horizontalSlowness><value>23.405470697272083</value></horizontalSlowness><backazimuth><value>246.15751493811746</value></backazimuth><phaseHint>P</phaseHint><evaluationMode>automatic</evaluationMode><comment><text>23.7454103844625</text><id>DFX:rectilinearity</id></comment></pick><pick publicID="de.gempa.tb1.Pick/20250411221318.805214.135693"><time><value>2025-04-11T22:13:13.31Z</value></time><waveformID networkCode="SX" stationCode="TRIB" channelCode="HHZ"/><filterID>ITAPER(2)&gt;&gt;BW(3,3,20)</filterID><methodID>AIC</methodID><horizontalSlowness><value>18.38234600320371</value></horizontalSlowness><backazimuth><value>296.5908683934148</value></backazimuth><phaseHint>P</phaseHint><evaluationMode>automatic</evaluationMode><comment><text>1.3889849837899564</text><id>DFX:rectilinearity</id></comment></pick><pick publicID="de.gempa.tb1.Pick/20250411221318.93102.135695"><time><value>2025-04-11T22:13:17.215Z</value></time><waveformID networkCode="BW" stationCode="MANZ" channelCode="HHZ"/><filterID>ITAPER(2)&gt;&gt;BW(3,3,20)</filterID><methodID>AIC</methodID><horizontalSlowness><value>21.415605809515196</value><uncertainty>1.8685382146798906</uncertainty></horizontalSlowness><backazimuth><value>106.21498798105827</value><uncertainty>5.00071502829062</uncertainty></backazimuth><phaseHint>P</phaseHint><evaluationMode>automatic</evaluationMode><comment><text>1.1235241438846293</text><id>DFX:rectilinearity</id></comment></pick><pick publicID="de.gempa.tb1.Pick/20250411221321.349918.135701"><time><value>2025-04-11T22:13:11.6Z</value></time><waveformID networkCode="SX" stationCode="MULD" channelCode="HHZ"/><filterID>ITAPER(2)&gt;&gt;BW(3,3,20)</filterID><methodID>AIC</methodID><horizontalSlowness><value>21.2738702674637</value></horizontalSlowness><backazimuth><value>140.01200816274343</value></backazimuth><phaseHint>P</phaseHint><evaluationMode>automatic</evaluationMode><comment><text>3.284096046308265</text><id>DFX:rectilinearity</id></comment></pick><pick publicID="de.gempa.tb1.Pick/20250411221322.480664.135704"><time><value>2025-04-11T22:13:09.5675Z</value></time><waveformID networkCode="SX" stationCode="WERN" channelCode="HHN"/><filterID>ITAPER(3)&gt;&gt;BW(4,3,10)</filterID><methodID>L2-AIC-GRID</methodID><horizontalSlowness><value>23.200801664744553</value></horizontalSlowness><backazimuth><value>247.772598676124</value></backazimuth><phaseHint>S</phaseHint><evaluationMode>automatic</evaluationMode><comment><text>22.968979718286736</text><id>DFX:rectilinearity</id></comment><comment><text>de.gempa.tb1.Pick/20250411221317.496066.135684</text><id>RefPickID</id></comment></pick><pick publicID="de.gempa.tb1.Pick/20250411221323.627065.135712"><time><value>2025-04-11T22:13:13.03Z</value></time><waveformID networkCode="SX" stationCode="WERD" channelCode="HHN"/><filterID>ITAPER(3)&gt;&gt;BW(4,3,10)</filterID><methodID>L2-AIC-GRID</methodID><horizontalSlowness><value>22.751167786626134</value></horizontalSlowness><backazimuth><value>86.78047771556534</value></backazimuth><phaseHint>S</phaseHint><evaluationMode>automatic</evaluationMode><comment><text>3.8357469919316345</text><id>DFX:rectilinearity</id></comment><comment><text>de.gempa.tb1.Pick/20250411221314.608782.135676</text><id>RefPickID</id></comment></pick><pick publicID="de.gempa.tb1.Pick/20250411221323.8791.135713"><time><value>2025-04-11T22:13:11.67Z</value></time><waveformID networkCode="SX" stationCode="TANN" channelCode="HHN"/><filterID>ITAPER(3)&gt;&gt;BW(4,3,10)</filterID><methodID>L2-AIC-GRID</methodID><horizontalSlowness><value>18.882125640944874</value></horizontalSlowness><backazimuth><value>320.7519254664091</value></backazimuth><phaseHint>S</phaseHint><evaluationMode>automatic</evaluationMode><comment><text>1.7121568134870613</text><id>DFX:rectilinearity</id></comment><comment><text>de.gempa.tb1.Pick/20250411221316.842969.135678</text><id>RefPickID</id></comment></pick><origin publicID="de.gempa.tb1.Origin/20250411221326.351159.90532"><time><value>2025-04-11T22:13:08.092193Z</value><uncertainty>0.6966319680213928</uncertainty></time><latitude><value>50.31503677368164</value><uncertainty>2.857220411300659</uncertainty></latitude><longitude><value>12.439343452453613</value><uncertainty>5.488598346710205</uncertainty></longitude><depth><value>1.3891960382461548</value><uncertainty>2.7813572883605957</uncertainty></depth><depthType>from location</depthType><methodID>LOCSAT</methodID><earthModelID>iasp91</earthModelID><quality><associatedPhaseCount>10</associatedPhaseCount><usedPhaseCount>10</usedPhaseCount><associatedStationCount>7</associatedStationCount><usedStationCount>7</usedStationCount><depthPhaseCount>0</depthPhaseCount><standardError>0.9790408089810255</standardError><azimuthalGap>205.14253854751587</azimuthalGap><maximumDistance>0.3920997381210327</maximumDistance><minimumDistance>0.0490979440510273</minimumDistance><medianDistance>0.11289407312870026</medianDistance></quality><uncertainty><minHorizontalUncertainty>4.0245070457458496</minHorizontalUncertainty><maxHorizontalUncertainty>12.649011611938477</maxHorizontalUncertainty><azimuthMaxHorizontalUncertainty>112.67506408691406</azimuthMaxHorizontalUncertainty><preferredDescription>horizontal uncertainty</preferredDescription></uncertainty><evaluationMode>automatic</evaluationMode><evaluationStatus>confirmed</evaluationStatus><comment><text>0.23</text><id>mismatchScore</id></comment><comment><text>mismatchScore</text><id>scevalMethod</id></comment><arrival><pickID>de.gempa.tb1.Pick/20250411221314.608782.135676</pickID><phase>P</phase><azimuth>327.5767822265625</azimuth><distance>0.15780408680438995</distance><timeResidual>-1.166237235069275</timeResidual><timeUsed>true</timeUsed><horizontalSlownessUsed>false</horizontalSlownessUsed><backazimuthUsed>false</backazimuthUsed><weight>1</weight></arrival><arrival><pickID>de.gempa.tb1.Pick/20250411221316.842969.135678</pickID><phase>P</phase><azimuth>7.881371974945068</azimuth><distance>0.10104350745677948</distance><timeResidual>-1.0283986330032349</timeResidual><timeUsed>true</timeUsed><horizontalSlownessUsed>false</horizontalSlownessUsed><backazimuthUsed>false</backazimuthUsed><weight>1</weight></arrival><arrival><pickID>de.gempa.tb1.Pick/20250411221317.006403.135682</pickID><phase>P</phase><azimuth>224.10218811035156</azimuth><distance>0.11289407312870026</distance><timeResidual>-0.6216892004013062</timeResidual><timeUsed>true</timeUsed><horizontalSlownessUsed>false</horizontalSlownessUsed><backazimuthUsed>false</backazimuthUsed><weight>1</weight></arrival><arrival><pickID>de.gempa.tb1.Pick/20250411221317.496066.135684</pickID><phase>P</phase><azimuth>235.71990966796875</azimuth><distance>0.0490979440510273</distance><timeResidual>-1.283824324607849</timeResidual><timeUsed>true</timeUsed><horizontalSlownessUsed>false</horizontalSlownessUsed><backazimuthUsed>false</backazimuthUsed><weight>1</weight></arrival><arrival><pickID>de.gempa.tb1.Pick/20250411221318.805214.135693</pickID><phase>P</phase><azimuth>280.9297790527344</azimuth><distance>0.19726142287254333</distance><timeResidual>1.161232590675354</timeResidual><timeUsed>true</timeUsed><horizontalSlownessUsed>false</horizontalSlownessUsed><backazimuthUsed>false</backazimuthUsed><weight>1</weight></arrival><arrival><pickID>de.gempa.tb1.Pick/20250411221318.93102.135695</pickID><phase>P</phase><azimuth>213.02391052246094</azimuth><distance>0.3920997381210327</distance><timeResidual>1.39985191822052</timeResidual><timeUsed>true</timeUsed><horizontalSlownessUsed>false</horizontalSlownessUsed><backazimuthUsed>false</backazimuthUsed><weight>1</weight></arrival><arrival><pickID>de.gempa.tb1.Pick/20250411221321.349918.135701</pickID><phase>P</phase><azimuth>346.8269348144531</azimuth><distance>0.09950633347034454</distance><timeResidual>1.2905157804489136</timeResidual><timeUsed>true</timeUsed><horizontalSlownessUsed>false</horizontalSlownessUsed><backazimuthUsed>false</backazimuthUsed><weight>1</weight></arrival><arrival><pickID>de.gempa.tb1.Pick/20250411221322.480664.135704</pickID><phase>S</phase><azimuth>235.71990966796875</azimuth><distance>0.0490979440510273</distance><timeResidual>-0.02394523099064827</timeResidual><timeUsed>true</timeUsed><horizontalSlownessUsed>false</horizontalSlownessUsed><backazimuthUsed>false</backazimuthUsed><weight>1</weight></arrival><arrival><pickID>de.gempa.tb1.Pick/20250411221323.627065.135712</pickID><phase>S</phase><azimuth>327.5767822265625</azimuth><distance>0.15780408680438995</distance><timeResidual>-0.11058367788791656</timeResidual><timeUsed>true</timeUsed><horizontalSlownessUsed>false</horizontalSlownessUsed><backazimuthUsed>false</backazimuthUsed><weight>1</weight></arrival><arrival><pickID>de.gempa.tb1.Pick/20250411221323.8791.135713</pickID><phase>S</phase><azimuth>7.881371974945068</azimuth><distance>0.10104350745677948</distance><timeResidual>0.3827713429927826</timeResidual><timeUsed>true</timeUsed><horizontalSlownessUsed>false</horizontalSlownessUsed><backazimuthUsed>false</backazimuthUsed><weight>1</weight></arrival><magnitude publicID="de.gempa.tb1.Magnitude/20250411221348.496431.147564"><magnitude><value>0.2686074664752714</value></magnitude><type>M</type><methodID>weighted average</methodID><stationCount>7</stationCount></magnitude></origin><event publicID="gempa2025hekq"><preferredOriginID>de.gempa.tb1.Origin/20250411221326.351159.90532</preferredOriginID><preferredMagnitudeID>de.gempa.tb1.Magnitude/20250411221348.496431.147564</preferredMagnitudeID><description><text>Germany</text><type>region name</type></description><originReference>de.gempa.tb1.Origin/20250411221326.351159.90532</originReference></event></EventParameters></seiscomp>