<?xml version="1.0" encoding="UTF-8"?>
<seiscomp xmlns="http://geofon.gfz-potsdam.de/ns/seiscomp3-schema/0.13" version="0.13"><EventParameters><pick publicID="de.gempa.tb1.Pick/20250411140717.247165.118065"><time><value>2025-04-11T14:07:10.388393Z</value></time><waveformID networkCode="CX" stationCode="PB08" channelCode="HHZ"/><filterID>ITAPER(4)&gt;&gt;BW(4,4,20)</filterID><methodID>AIC</methodID><horizontalSlowness><value>20.626822844822811</value></horizontalSlowness><backazimuth><value>73.98483254793709</value></backazimuth><phaseHint>P</phaseHint><evaluationMode>automatic</evaluationMode><comment><text>7.508948778189177</text><id>DFX:rectilinearity</id></comment><comment><text>34.64520911103923</text><id>SNR</id></comment></pick><pick publicID="de.gempa.tb1.Pick/20250411140719.588444.118067"><time><value>2025-04-11T14:07:14.688393Z</value></time><waveformID networkCode="CX" stationCode="PB01" channelCode="HHZ"/><filterID>ITAPER(4)&gt;&gt;BW(4,4,20)</filterID><methodID>AIC</methodID><horizontalSlowness><value>18.933060778030633</value></horizontalSlowness><backazimuth><value>0.5838771359988186</value></backazimuth><phaseHint>P</phaseHint><evaluationMode>automatic</evaluationMode><comment><text>20.426347758952087</text><id>DFX:rectilinearity</id></comment><comment><text>75.21784737669071</text><id>SNR</id></comment></pick><pick publicID="de.gempa.tb1.Pick/20250411140720.275995.118069"><time><value>2025-04-11T14:07:14.230001Z</value></time><waveformID networkCode="CX" stationCode="PATCX" channelCode="HHZ"/><filterID>ITAPER(4)&gt;&gt;BW(4,4,20)</filterID><methodID>AIC</methodID><horizontalSlowness><value>22.62552729500131</value></horizontalSlowness><backazimuth><value>35.82890228924313</value></backazimuth><phaseHint>P</phaseHint><evaluationMode>automatic</evaluationMode><comment><text>198.78737808138635</text><id>DFX:rectilinearity</id></comment><comment><text>9.848662631552786</text><id>SNR</id></comment></pick><pick publicID="de.gempa.tb1.Pick/20250411140720.574161.118071"><time><value>2025-04-11T14:07:12.42Z</value></time><waveformID networkCode="CX" stationCode="PSGCX" channelCode="HHZ"/><filterID>ITAPER(4)&gt;&gt;BW(4,4,20)</filterID><methodID>AIC</methodID><horizontalSlowness><value>9.426821495245182</value></horizontalSlowness><backazimuth><value>215.05646467489265</value></backazimuth><phaseHint>P</phaseHint><evaluationMode>automatic</evaluationMode><comment><text>12.665650949880789</text><id>DFX:rectilinearity</id></comment><comment><text>54.27919579106202</text><id>SNR</id></comment></pick><pick publicID="de.gempa.tb1.Pick/20250411140722.52348.118073"><time><value>2025-04-11T14:07:18.418393Z</value></time><waveformID networkCode="CX" stationCode="PB02" channelCode="HHZ"/><filterID>ITAPER(4)&gt;&gt;BW(4,4,20)</filterID><methodID>AIC</methodID><horizontalSlowness><value>3.9838196126688805</value></horizontalSlowness><backazimuth><value>102.42011067941144</value></backazimuth><phaseHint>P</phaseHint><evaluationMode>automatic</evaluationMode><comment><text>46.41047433840122</text><id>DFX:rectilinearity</id></comment><comment><text>20.146618687515279</text><id>SNR</id></comment></pick><pick publicID="de.gempa.tb1.Pick/20250411140731.730005.118075"><time><value>2025-04-11T14:07:25.52Z</value></time><waveformID networkCode="CX" stationCode="PSGCX" channelCode="HHN"/><filterID>ITAPER(2)&gt;&gt;BW(3,3,20)</filterID><methodID>L2-AIC-GRID</methodID><horizontalSlowness><value>20.068496652715922</value></horizontalSlowness><backazimuth><value>20.761123155472944</value></backazimuth><phaseHint>S</phaseHint><evaluationMode>automatic</evaluationMode><comment><text>515.5361668366497</text><id>DFX:rectilinearity</id></comment><comment><text>de.gempa.tb1.Pick/20250411140720.574161.118071</text><id>RefPickID</id></comment><comment><text>13.712146164320023</text><id>SNR</id></comment></pick><pick publicID="de.gempa.tb1.Pick/20250411140732.271552.118076"><time><value>2025-04-11T14:07:22.118393Z</value></time><waveformID networkCode="CX" stationCode="PB08" channelCode="HHN"/><filterID>ITAPER(2)&gt;&gt;BW(3,3,20)</filterID><methodID>L2-AIC-GRID</methodID><horizontalSlowness><value>18.745317654975505</value></horizontalSlowness><backazimuth><value>202.74943980509966</value></backazimuth><phaseHint>S</phaseHint><evaluationMode>automatic</evaluationMode><comment><text>124.53480071388535</text><id>DFX:rectilinearity</id></comment><comment><text>de.gempa.tb1.Pick/20250411140717.247165.118065</text><id>RefPickID</id></comment><comment><text>11.629221263297325</text><id>SNR</id></comment></pick><pick publicID="de.gempa.tb1.Pick/20250411140739.642873.118077"><time><value>2025-04-11T14:07:29.418393Z</value></time><waveformID networkCode="CX" stationCode="PB01" channelCode="HHN"/><filterID>ITAPER(2)&gt;&gt;BW(3,3,20)</filterID><methodID>L2-AIC-GRID</methodID><horizontalSlowness><value>23.58703538679274</value></horizontalSlowness><backazimuth><value>77.52804007791049</value></backazimuth><phaseHint>S</phaseHint><evaluationMode>automatic</evaluationMode><comment><text>1645.62176780829</text><id>DFX:rectilinearity</id></comment><comment><text>de.gempa.tb1.Pick/20250411140719.588444.118067</text><id>RefPickID</id></comment><comment><text>22.72325181676822</text><id>SNR</id></comment></pick><pick publicID="de.gempa.tb1.Pick/20250411140743.968714.118079"><time><value>2025-04-11T14:07:24.49Z</value></time><waveformID networkCode="CX" stationCode="PB09" channelCode="HHZ"/><filterID>ITAPER(4)&gt;&gt;BW(4,4,20)</filterID><methodID>AIC</methodID><horizontalSlowness><value>19.24373445927267</value></horizontalSlowness><backazimuth><value>254.7477167182699</value></backazimuth><phaseHint>P</phaseHint><evaluationMode>automatic</evaluationMode><comment><text>12.233689307124166</text><id>DFX:rectilinearity</id></comment><comment><text>9.479276673611341</text><id>SNR</id></comment></pick><pick publicID="de.gempa.tb1.Pick/20250411140744.670511.118081"><time><value>2025-04-11T14:07:35.758393Z</value></time><waveformID networkCode="CX" stationCode="PB02" channelCode="HHN"/><filterID>ITAPER(2)&gt;&gt;BW(3,3,20)</filterID><methodID>L2-AIC-GRID</methodID><horizontalSlowness><value>18.165167702634314</value></horizontalSlowness><backazimuth><value>254.3931386369068</value></backazimuth><phaseHint>S</phaseHint><evaluationMode>automatic</evaluationMode><comment><text>524.0222921437745</text><id>DFX:rectilinearity</id></comment><comment><text>de.gempa.tb1.Pick/20250411140722.52348.118073</text><id>RefPickID</id></comment><comment><text>9.085516889881699</text><id>SNR</id></comment></pick><pick publicID="de.gempa.tb1.Pick/20250411140747.102574.118083"><time><value>2025-04-11T14:07:23.208393Z</value></time><waveformID networkCode="CX" stationCode="PB07" channelCode="HHZ"/><filterID>ITAPER(4)&gt;&gt;BW(4,4,20)</filterID><methodID>AIC</methodID><horizontalSlowness><value>21.949759241916542</value></horizontalSlowness><backazimuth><value>40.596633088263985</value></backazimuth><phaseHint>P</phaseHint><evaluationMode>automatic</evaluationMode><comment><text>174.88203459134584</text><id>DFX:rectilinearity</id></comment><comment><text>20.217083543378987</text><id>SNR</id></comment></pick><pick publicID="de.gempa.tb1.Pick/20250411140755.804533.118087"><time><value>2025-04-11T14:07:43.558393Z</value></time><waveformID networkCode="CX" stationCode="PB07" channelCode="HHN"/><filterID>ITAPER(2)&gt;&gt;BW(3,3,20)</filterID><methodID>L2-AIC-GRID</methodID><horizontalSlowness><value>22.75945575458913</value></horizontalSlowness><backazimuth><value>276.22744953368476</value></backazimuth><phaseHint>S</phaseHint><evaluationMode>automatic</evaluationMode><comment><text>1201.7658668635918</text><id>DFX:rectilinearity</id></comment><comment><text>de.gempa.tb1.Pick/20250411140747.102574.118083</text><id>RefPickID</id></comment><comment><text>7.738562498241539</text><id>SNR</id></comment></pick><pick publicID="de.gempa.tb1.Pick/20250411140757.37385.118088"><time><value>2025-04-11T14:07:46.65Z</value></time><waveformID networkCode="CX" stationCode="PB09" channelCode="HHN"/><filterID>ITAPER(2)&gt;&gt;BW(3,3,20)</filterID><methodID>L2-AIC-GRID</methodID><horizontalSlowness><value>13.356613676544235</value></horizontalSlowness><backazimuth><value>284.7481008677009</value></backazimuth><phaseHint>S</phaseHint><evaluationMode>automatic</evaluationMode><comment><text>81.35518203056387</text><id>DFX:rectilinearity</id></comment><comment><text>de.gempa.tb1.Pick/20250411140743.968714.118079</text><id>RefPickID</id></comment><comment><text>6.073007124357598</text><id>SNR</id></comment></pick><origin publicID="de.gempa.tb1.Origin/20250411140757.376742.57549"><time><value>2025-04-11T14:06:55.883612Z</value><uncertainty>0.970046877861023</uncertainty></time><latitude><value>-20.128501892089844</value><uncertainty>3.318349599838257</uncertainty></latitude><longitude><value>-69.64515686035156</value><uncertainty>5.372561931610107</uncertainty></longitude><depth><value>92.8712158203125</value><uncertainty>7.9267578125</uncertainty></depth><depthType>from location</depthType><methodID>LOCSAT</methodID><earthModelID>iasp91_scanloc</earthModelID><quality><associatedPhaseCount>13</associatedPhaseCount><usedPhaseCount>13</usedPhaseCount><associatedStationCount>7</associatedStationCount><usedStationCount>7</usedStationCount><depthPhaseCount>0</depthPhaseCount><standardError>0.26917518997148304</standardError><azimuthalGap>132.1177520751953</azimuthalGap><maximumDistance>1.7017970085144043</maximumDistance><minimumDistance>0.4622422754764557</minimumDistance><medianDistance>0.9220303893089294</medianDistance></quality><uncertainty><minHorizontalUncertainty>6.504861354827881</minHorizontalUncertainty><maxHorizontalUncertainty>11.873183250427246</maxHorizontalUncertainty><azimuthMaxHorizontalUncertainty>73.1393051147461</azimuthMaxHorizontalUncertainty><preferredDescription>horizontal uncertainty</preferredDescription></uncertainty><evaluationMode>automatic</evaluationMode><evaluationStatus>confirmed</evaluationStatus><comment><text>0.10</text><id>mismatchScore</id></comment><comment><text>mismatchScore</text><id>scevalMethod</id></comment><arrival><pickID>de.gempa.tb1.Pick/20250411140717.247165.118065</pickID><phase>P</phase><azimuth>91.64045715332031</azimuth><distance>0.4622422754764557</distance><timeResidual>-0.2576742172241211</timeResidual><timeUsed>true</timeUsed><horizontalSlownessUsed>false</horizontalSlownessUsed><backazimuthUsed>false</backazimuthUsed><weight>1</weight></arrival><arrival><pickID>de.gempa.tb1.Pick/20250411140719.588444.118067</pickID><phase>P</phase><azimuth>170.8026885986328</azimuth><distance>0.9220303893089294</distance><timeResidual>-0.2362537384033203</timeResidual><timeUsed>true</timeUsed><horizontalSlownessUsed>false</horizontalSlownessUsed><backazimuthUsed>false</backazimuthUsed><weight>1</weight></arrival><arrival><pickID>de.gempa.tb1.Pick/20250411140720.275995.118069</pickID><phase>P</phase><azimuth>214.56471252441406</azimuth><distance>0.8372040390968323</distance><timeResidual>0.20713520050048828</timeResidual><timeUsed>true</timeUsed><horizontalSlownessUsed>false</horizontalSlownessUsed><backazimuthUsed>false</backazimuthUsed><weight>1</weight></arrival><arrival><pickID>de.gempa.tb1.Pick/20250411140720.574161.118071</pickID><phase>P</phase><azimuth>319.522705078125</azimuth><distance>0.6940678954124451</distance><timeResidual>-0.18205738067626953</timeResidual><timeUsed>true</timeUsed><horizontalSlownessUsed>false</horizontalSlownessUsed><backazimuthUsed>false</backazimuthUsed><weight>1</weight></arrival><arrival><pickID>de.gempa.tb1.Pick/20250411140722.52348.118073</pickID><phase>P</phase><azimuth>191.1630859375</azimuth><distance>1.208274006843567</distance><timeResidual>0.2200927734375</timeResidual><timeUsed>true</timeUsed><horizontalSlownessUsed>false</horizontalSlownessUsed><backazimuthUsed>false</backazimuthUsed><weight>1</weight></arrival><arrival><pickID>de.gempa.tb1.Pick/20250411140731.730005.118075</pickID><phase>S</phase><azimuth>319.522705078125</azimuth><distance>0.6940678954124451</distance><timeResidual>0.07558727264404297</timeResidual><timeUsed>true</timeUsed><horizontalSlownessUsed>false</horizontalSlownessUsed><backazimuthUsed>false</backazimuthUsed><weight>1</weight></arrival><arrival><pickID>de.gempa.tb1.Pick/20250411140732.271552.118076</pickID><phase>S</phase><azimuth>91.64045715332031</azimuth><distance>0.4622422754764557</distance><timeResidual>0.15262889862060547</timeResidual><timeUsed>true</timeUsed><horizontalSlownessUsed>false</horizontalSlownessUsed><backazimuthUsed>false</backazimuthUsed><weight>1</weight></arrival><arrival><pickID>de.gempa.tb1.Pick/20250411140739.642873.118077</pickID><phase>S</phase><azimuth>170.8026885986328</azimuth><distance>0.9220303893089294</distance><timeResidual>-0.16676807403564453</timeResidual><timeUsed>true</timeUsed><horizontalSlownessUsed>false</horizontalSlownessUsed><backazimuthUsed>false</backazimuthUsed><weight>1</weight></arrival><arrival><pickID>de.gempa.tb1.Pick/20250411140743.968714.118079</pickID><phase>P</phase><azimuth>167.2768096923828</azimuth><distance>1.7017970085144043</distance><timeResidual>0.16272926330566406</timeResidual><timeUsed>true</timeUsed><horizontalSlownessUsed>false</horizontalSlownessUsed><backazimuthUsed>false</backazimuthUsed><weight>1</weight></arrival><arrival><pickID>de.gempa.tb1.Pick/20250411140744.670511.118081</pickID><phase>S</phase><azimuth>191.1630859375</azimuth><distance>1.208274006843567</distance><timeResidual>0.32804203033447266</timeResidual><timeUsed>true</timeUsed><horizontalSlownessUsed>false</horizontalSlownessUsed><backazimuthUsed>false</backazimuthUsed><weight>1</weight></arrival><arrival><pickID>de.gempa.tb1.Pick/20250411140747.102574.118083</pickID><phase>P</phase><azimuth>188.02203369140625</azimuth><distance>1.6060582399368286</distance><timeResidual>0.10112667083740234</timeResidual><timeUsed>true</timeUsed><horizontalSlownessUsed>false</horizontalSlownessUsed><backazimuthUsed>false</backazimuthUsed><weight>1</weight></arrival><arrival><pickID>de.gempa.tb1.Pick/20250411140755.804533.118087</pickID><phase>S</phase><azimuth>188.02203369140625</azimuth><distance>1.6060582399368286</distance><timeResidual>-0.6562871932983398</timeResidual><timeUsed>true</timeUsed><horizontalSlownessUsed>false</horizontalSlownessUsed><backazimuthUsed>false</backazimuthUsed><weight>1</weight></arrival><arrival><pickID>de.gempa.tb1.Pick/20250411140757.37385.118088</pickID><phase>S</phase><azimuth>167.2768096923828</azimuth><distance>1.7017970085144043</distance><timeResidual>0.2517213821411133</timeResidual><timeUsed>true</timeUsed><horizontalSlownessUsed>false</horizontalSlownessUsed><backazimuthUsed>false</backazimuthUsed><weight>1</weight></arrival><magnitude publicID="de.gempa.tb1.Magnitude/20250411140805.939488.107244"><magnitude><value>2.2749432964066134</value></magnitude><type>M</type><methodID>weighted average</methodID><stationCount>5</stationCount></magnitude></origin><event publicID="gempa2025hdul"><preferredOriginID>de.gempa.tb1.Origin/20250411140757.376742.57549</preferredOriginID><preferredMagnitudeID>de.gempa.tb1.Magnitude/20250411140805.939488.107244</preferredMagnitudeID><description><text>Northern Chile</text><type>region name</type></description><originReference>de.gempa.tb1.Origin/20250411140757.376742.57549</originReference></event></EventParameters></seiscomp>