<?xml version="1.0" encoding="UTF-8"?>
<seiscomp xmlns="http://geofon.gfz-potsdam.de/ns/seiscomp3-schema/0.13" version="0.13"><EventParameters><pick publicID="de.gempa.tb1.Pick/20250412143847.395758.163449"><time><value>2025-04-12T14:38:42.735Z</value></time><waveformID networkCode="CH" stationCode="AIGLE" channelCode="HHZ"/><filterID>ITAPER(4)&gt;&gt;BW(4,4,20)</filterID><methodID>AIC</methodID><phaseHint>P</phaseHint><evaluationMode>automatic</evaluationMode></pick><pick publicID="de.gempa.tb1.Pick/20250412143849.145127.163453"><time><value>2025-04-12T14:38:45.795Z</value></time><waveformID networkCode="CH" stationCode="VANNI" channelCode="HHZ"/><filterID>ITAPER(4)&gt;&gt;BW(4,4,20)</filterID><methodID>AIC</methodID><phaseHint>P</phaseHint><evaluationMode>automatic</evaluationMode></pick><pick publicID="de.gempa.tb1.Pick/20250412143850.212331.163455"><time><value>2025-04-12T14:38:46.455Z</value></time><waveformID networkCode="CH" stationCode="WIMIS" channelCode="HHZ"/><filterID>ITAPER(4)&gt;&gt;BW(4,4,20)</filterID><methodID>AIC</methodID><phaseHint>P</phaseHint><evaluationMode>automatic</evaluationMode></pick><pick publicID="de.gempa.tb1.Pick/20250412143854.908356.163461"><time><value>2025-04-12T14:38:49.13Z</value></time><waveformID networkCode="CH" stationCode="LAUCH" channelCode="HHZ"/><filterID>ITAPER(4)&gt;&gt;BW(4,4,20)</filterID><methodID>AIC</methodID><phaseHint>P</phaseHint><evaluationMode>automatic</evaluationMode></pick><pick publicID="de.gempa.tb1.Pick/20250412143855.149549.163465"><time><value>2025-04-12T14:38:52.76Z</value></time><waveformID networkCode="CH" stationCode="SIMPL" channelCode="HHZ"/><filterID>ITAPER(4)&gt;&gt;BW(4,4,20)</filterID><methodID>AIC</methodID><phaseHint>P</phaseHint><evaluationMode>automatic</evaluationMode></pick><pick publicID="de.gempa.tb1.Pick/20250412143857.797592.163469"><time><value>2025-04-12T14:38:52.875Z</value></time><waveformID networkCode="CH" stationCode="MMK" channelCode="HHZ"/><filterID>ITAPER(4)&gt;&gt;BW(4,4,20)</filterID><methodID>AIC</methodID><phaseHint>P</phaseHint><evaluationMode>automatic</evaluationMode></pick><pick publicID="de.gempa.tb1.Pick/20250412143909.278653.163475"><time><value>2025-04-12T14:39:05.81Z</value></time><waveformID networkCode="CH" stationCode="WILA" channelCode="HHZ"/><filterID>ITAPER(4)&gt;&gt;BW(4,4,20)</filterID><methodID>AIC</methodID><phaseHint>P</phaseHint><evaluationMode>automatic</evaluationMode></pick><pick publicID="de.gempa.tb1.Pick/20250412143912.33806.163477"><time><value>2025-04-12T14:39:10.04Z</value></time><waveformID networkCode="CH" stationCode="TRULL" channelCode="HHZ"/><filterID>ITAPER(4)&gt;&gt;BW(4,4,20)</filterID><methodID>AIC</methodID><phaseHint>P</phaseHint><evaluationMode>automatic</evaluationMode></pick><origin publicID="de.gempa.tb1.Origin/20250412143912.34023.104562"><time><value>2025-04-12T14:38:39.42611Z</value><uncertainty>0.5495792031288147</uncertainty></time><latitude><value>46.44268417358398</value><uncertainty>4.2038583755493164</uncertainty></latitude><longitude><value>7.134063720703125</value><uncertainty>3.9655370712280273</uncertainty></longitude><depth><value>0</value></depth><depthType>operator assigned</depthType><methodID>LOCSAT</methodID><earthModelID>iasp91</earthModelID><quality><associatedPhaseCount>8</associatedPhaseCount><usedPhaseCount>8</usedPhaseCount><associatedStationCount>8</associatedStationCount><usedStationCount>8</usedStationCount><depthPhaseCount>0</depthPhaseCount><standardError>1.1503347415432243</standardError><azimuthalGap>169.5781478881836</azimuthalGap><maximumDistance>1.604869246482849</maximumDistance><minimumDistance>0.16082733869552612</minimumDistance><medianDistance>0.6462224125862122</medianDistance></quality><uncertainty><minHorizontalUncertainty>7.475394248962402</minHorizontalUncertainty><maxHorizontalUncertainty>9.891327857971191</maxHorizontalUncertainty><azimuthMaxHorizontalUncertainty>141.16610717773438</azimuthMaxHorizontalUncertainty><preferredDescription>horizontal uncertainty</preferredDescription></uncertainty><evaluationMode>automatic</evaluationMode><evaluationStatus>rejected</evaluationStatus><comment><text>0.79</text><id>mismatchScore</id></comment><comment><text>mismatchScore</text><id>scevalMethod</id></comment><arrival><pickID>de.gempa.tb1.Pick/20250412143847.395758.163449</pickID><phase>P</phase><azimuth>231.1142883300781</azimuth><distance>0.16082733869552612</distance><timeResidual>0.10396242141723633</timeResidual><timeUsed>true</timeUsed><horizontalSlownessUsed>false</horizontalSlownessUsed><backazimuthUsed>false</backazimuthUsed><weight>1</weight></arrival><arrival><pickID>de.gempa.tb1.Pick/20250412143849.145127.163453</pickID><phase>P</phase><azimuth>125.8009262084961</azimuth><distance>0.3961823284626007</distance><timeResidual>-1.310983657836914</timeResidual><timeUsed>true</timeUsed><horizontalSlownessUsed>false</horizontalSlownessUsed><backazimuthUsed>false</backazimuthUsed><weight>1</weight></arrival><arrival><pickID>de.gempa.tb1.Pick/20250412143850.212331.163455</pickID><phase>P</phase><azimuth>56.5116958618164</azimuth><distance>0.4047267436981201</distance><timeResidual>-0.8126482963562012</timeResidual><timeUsed>true</timeUsed><horizontalSlownessUsed>false</horizontalSlownessUsed><backazimuthUsed>false</backazimuthUsed><weight>1</weight></arrival><arrival><pickID>de.gempa.tb1.Pick/20250412143854.908356.163461</pickID><phase>P</phase><azimuth>93.29308319091797</azimuth><distance>0.4418453872203827</distance><timeResidual>1.1561975479125977</timeResidual><timeUsed>true</timeUsed><horizontalSlownessUsed>false</horizontalSlownessUsed><backazimuthUsed>false</backazimuthUsed><weight>1</weight></arrival><arrival><pickID>de.gempa.tb1.Pick/20250412143855.149549.163465</pickID><phase>P</phase><azimuth>108.00023651123047</azimuth><distance>0.6462224125862122</distance><timeResidual>0.9001498222351074</timeResidual><timeUsed>true</timeUsed><horizontalSlownessUsed>false</horizontalSlownessUsed><backazimuthUsed>false</backazimuthUsed><weight>1</weight></arrival><arrival><pickID>de.gempa.tb1.Pick/20250412143857.797592.163469</pickID><phase>P</phase><azimuth>123.95823669433594</azimuth><distance>0.6968335509300232</distance><timeResidual>0.05257081985473633</timeResidual><timeUsed>true</timeUsed><horizontalSlownessUsed>false</horizontalSlownessUsed><backazimuthUsed>false</backazimuthUsed><weight>1</weight></arrival><arrival><pickID>de.gempa.tb1.Pick/20250412143909.278653.163475</pickID><phase>P</phase><azimuth>50.69630432128906</azimuth><distance>1.556479573249817</distance><timeResidual>-1.78279447555542</timeResidual><timeUsed>true</timeUsed><horizontalSlownessUsed>false</horizontalSlownessUsed><backazimuthUsed>false</backazimuthUsed><weight>1</weight></arrival><arrival><pickID>de.gempa.tb1.Pick/20250412143912.33806.163477</pickID><phase>P</phase><azimuth>40.69243621826172</azimuth><distance>1.604869246482849</distance><timeResidual>1.693544864654541</timeResidual><timeUsed>true</timeUsed><horizontalSlownessUsed>false</horizontalSlownessUsed><backazimuthUsed>false</backazimuthUsed><weight>1</weight></arrival><magnitude publicID="de.gempa.tb1.Magnitude/20250412143920.007727.240760"><magnitude><value>1.3713425022214731</value></magnitude><type>M</type><methodID>weighted average</methodID><stationCount>7</stationCount></magnitude></origin><event publicID="gempa2025hfrn"><preferredOriginID>de.gempa.tb1.Origin/20250412143912.34023.104562</preferredOriginID><preferredMagnitudeID>de.gempa.tb1.Magnitude/20250412143920.007727.240760</preferredMagnitudeID><type>not existing</type><typeCertainty>suspected</typeCertainty><description><text>Switzerland</text><type>region name</type></description><originReference>de.gempa.tb1.Origin/20250412143912.34023.104562</originReference></event></EventParameters></seiscomp>