<?xml version="1.0" encoding="UTF-8"?>
<seiscomp xmlns="http://geofon.gfz-potsdam.de/ns/seiscomp3-schema/0.13" version="0.13"><EventParameters><pick publicID="de.gempa.tb2.Pick/20250415081708.520676.203951"><time><value>2025-04-15T08:17:05.915Z</value></time><waveformID networkCode="CH" stationCode="EMING" channelCode="HHZ"/><filterID>ITAPER(4)&gt;&gt;BW(4,4,20)</filterID><methodID>AIC</methodID><phaseHint>P</phaseHint><evaluationMode>automatic</evaluationMode></pick><pick publicID="de.gempa.tb2.Pick/20250415081711.151607.203953"><time><value>2025-04-15T08:17:08.18Z</value></time><waveformID networkCode="CH" stationCode="SLE" channelCode="HHZ"/><filterID>ITAPER(4)&gt;&gt;BW(4,4,20)</filterID><methodID>AIC</methodID><phaseHint>P</phaseHint><evaluationMode>automatic</evaluationMode></pick><pick publicID="de.gempa.tb2.Pick/20250415081711.312504.203955"><time><value>2025-04-15T08:17:07.845Z</value></time><waveformID networkCode="CH" stationCode="BERGE" channelCode="HHZ"/><filterID>ITAPER(4)&gt;&gt;BW(4,4,20)</filterID><methodID>AIC</methodID><phaseHint>P</phaseHint><evaluationMode>automatic</evaluationMode></pick><pick publicID="de.gempa.tb2.Pick/20250415081715.295815.203957"><time><value>2025-04-15T08:17:09.255Z</value></time><waveformID networkCode="CH" stationCode="METMA" channelCode="HHZ"/><filterID>ITAPER(4)&gt;&gt;BW(4,4,20)</filterID><methodID>AIC</methodID><phaseHint>P</phaseHint><evaluationMode>automatic</evaluationMode></pick><pick publicID="de.gempa.tb2.Pick/20250415081718.303807.203969"><time><value>2025-04-15T08:17:13.935Z</value></time><waveformID networkCode="CH" stationCode="SULZ" channelCode="HHZ"/><filterID>ITAPER(4)&gt;&gt;BW(4,4,20)</filterID><methodID>AIC</methodID><phaseHint>P</phaseHint><evaluationMode>automatic</evaluationMode></pick><pick publicID="de.gempa.tb2.Pick/20250415081724.166573.203974"><time><value>2025-04-15T08:17:20.96Z</value></time><waveformID networkCode="CH" stationCode="BNALP" channelCode="HHZ"/><filterID>ITAPER(4)&gt;&gt;BW(4,4,20)</filterID><methodID>AIC</methodID><phaseHint>P</phaseHint><evaluationMode>automatic</evaluationMode></pick><pick publicID="de.gempa.tb2.Pick/20250415081818.717729.204020"><time><value>2025-04-15T08:16:59.919538Z</value></time><waveformID networkCode="GR" stationCode="BFO" channelCode="BHZ"/><filterID>BW(4,4,8)</filterID><methodID>AIC</methodID><phaseHint>P</phaseHint><evaluationMode>automatic</evaluationMode></pick><origin publicID="de.gempa.tb2.Origin/20250415081818.736767.82227"><time><value>2025-04-15T08:16:41.932455Z</value><uncertainty>4.2012739181518555</uncertainty></time><latitude><value>49.16733169555664</value><uncertainty>32.043025970458984</uncertainty></latitude><longitude><value>8.999303817749023</value><uncertainty>17.7413330078125</uncertainty></longitude><depth><value>0</value></depth><depthType>operator assigned</depthType><methodID>LOCSAT</methodID><earthModelID>iasp91</earthModelID><quality><associatedPhaseCount>7</associatedPhaseCount><usedPhaseCount>7</usedPhaseCount><associatedStationCount>7</associatedStationCount><usedStationCount>7</usedStationCount><depthPhaseCount>0</depthPhaseCount><standardError>0.4607962784265726</standardError><azimuthalGap>336.4783935546875</azimuthalGap><maximumDistance>2.330505609512329</maximumDistance><minimumDistance>0.946846604347229</minimumDistance><medianDistance>1.4439024925231934</medianDistance></quality><uncertainty><minHorizontalUncertainty>35.7283935546875</minHorizontalUncertainty><maxHorizontalUncertainty>69.95018768310547</maxHorizontalUncertainty><azimuthMaxHorizontalUncertainty>167.43992614746094</azimuthMaxHorizontalUncertainty><preferredDescription>horizontal uncertainty</preferredDescription></uncertainty><evaluationMode>automatic</evaluationMode><arrival><pickID>de.gempa.tb2.Pick/20250415081708.520676.203951</pickID><phase>P</phase><azimuth>184.61061096191406</azimuth><distance>1.2771936655044556</distance><timeResidual>0.25901222229003906</timeResidual><timeUsed>true</timeUsed><horizontalSlownessUsed>false</horizontalSlownessUsed><backazimuthUsed>false</backazimuthUsed><weight>1</weight></arrival><arrival><pickID>de.gempa.tb2.Pick/20250415081711.151607.203953</pickID><phase>P</phase><azimuth>193.70289611816406</azimuth><distance>1.4439024925231934</distance><timeResidual>-0.14711952209472656</timeResidual><timeUsed>true</timeUsed><horizontalSlownessUsed>false</horizontalSlownessUsed><backazimuthUsed>false</backazimuthUsed><weight>1</weight></arrival><arrival><pickID>de.gempa.tb2.Pick/20250415081711.312504.203955</pickID><phase>P</phase><azimuth>203.14346313476562</azimuth><distance>1.4070223569869995</distance><timeResidual>0.10414505004882812</timeResidual><timeUsed>true</timeUsed><horizontalSlownessUsed>false</horizontalSlownessUsed><backazimuthUsed>false</backazimuthUsed><weight>1</weight></arrival><arrival><pickID>de.gempa.tb2.Pick/20250415081715.295815.203957</pickID><phase>P</phase><azimuth>199.13040161132812</azimuth><distance>1.5388211011886597</distance><timeResidual>-0.5680656433105469</timeResidual><timeUsed>true</timeUsed><horizontalSlownessUsed>false</horizontalSlownessUsed><backazimuthUsed>false</backazimuthUsed><weight>1</weight></arrival><arrival><pickID>de.gempa.tb2.Pick/20250415081718.303807.203969</pickID><phase>P</phase><azimuth>200.175048828125</azimuth><distance>1.7446571588516235</distance><timeResidual>0.9297676086425781</timeResidual><timeUsed>true</timeUsed><horizontalSlownessUsed>false</horizontalSlownessUsed><backazimuthUsed>false</backazimuthUsed><weight>1</weight></arrival><arrival><pickID>de.gempa.tb2.Pick/20250415081724.166573.203974</pickID><phase>P</phase><azimuth>189.73611450195312</azimuth><distance>2.330505609512329</distance><timeResidual>-0.41674041748046875</timeResidual><timeUsed>true</timeUsed><horizontalSlownessUsed>false</horizontalSlownessUsed><backazimuthUsed>false</backazimuthUsed><weight>1</weight></arrival><arrival><pickID>de.gempa.tb2.Pick/20250415081818.717729.204020</pickID><phase>P</phase><azimuth>208.13221740722656</azimuth><distance>0.946846604347229</distance><timeResidual>-0.16098403930664062</timeResidual><timeUsed>true</timeUsed><horizontalSlownessUsed>false</horizontalSlownessUsed><backazimuthUsed>false</backazimuthUsed><weight>1</weight></arrival><magnitude publicID="de.gempa.tb2.Magnitude/20250415081818.780558.39559"><magnitude><value>2.634036293660706</value></magnitude><type>M</type><methodID>weighted average</methodID><stationCount>6</stationCount></magnitude></origin><event publicID="gempa2025hksv"><preferredOriginID>de.gempa.tb2.Origin/20250415081818.736767.82227</preferredOriginID><preferredMagnitudeID>de.gempa.tb2.Magnitude/20250415081818.780558.39559</preferredMagnitudeID><description><text>Germany</text><type>region name</type></description><originReference>de.gempa.tb2.Origin/20250415081818.736767.82227</originReference></event></EventParameters></seiscomp>