<?xml version="1.0" encoding="UTF-8"?>
<seiscomp xmlns="http://geofon.gfz-potsdam.de/ns/seiscomp3-schema/0.13" version="0.13"><EventParameters><pick publicID="de.gempa.tb1.Pick/20250413115005.60518.130953"><time><value>2025-04-13T11:49:59.948394Z</value></time><waveformID networkCode="CX" stationCode="PB02" channelCode="HHZ"/><filterID>ITAPER(4)&gt;&gt;BW(4,4,20)</filterID><methodID>AIC</methodID><horizontalSlowness><value>5.222236768744181</value></horizontalSlowness><backazimuth><value>227.24079611976185</value></backazimuth><phaseHint>P</phaseHint><evaluationMode>automatic</evaluationMode><comment><text>34.09244063278816</text><id>DFX:rectilinearity</id></comment><comment><text>18.014721324235104</text><id>SNR</id></comment></pick><pick publicID="de.gempa.tb1.Pick/20250413115011.521953.130955"><time><value>2025-04-13T11:50:05.098393Z</value></time><waveformID networkCode="CX" stationCode="PB01" channelCode="HHZ"/><filterID>ITAPER(4)&gt;&gt;BW(4,4,20)</filterID><methodID>AIC</methodID><horizontalSlowness><value>21.953801838951016</value></horizontalSlowness><backazimuth><value>279.22809632652576</value></backazimuth><phaseHint>P</phaseHint><evaluationMode>automatic</evaluationMode><comment><text>6.13609958747971</text><id>DFX:rectilinearity</id></comment><comment><text>14.550377480518314</text><id>SNR</id></comment></pick><pick publicID="de.gempa.tb1.Pick/20250413115012.595926.130957"><time><value>2025-04-13T11:50:05.138393Z</value></time><waveformID networkCode="CX" stationCode="PB03" channelCode="HHZ"/><filterID>ITAPER(4)&gt;&gt;BW(4,4,20)</filterID><methodID>AIC</methodID><horizontalSlowness><value>14.642612837136392</value></horizontalSlowness><backazimuth><value>334.40627023161267</value></backazimuth><phaseHint>P</phaseHint><evaluationMode>automatic</evaluationMode><comment><text>9.194413461512482</text><id>DFX:rectilinearity</id></comment><comment><text>21.855958193181948</text><id>SNR</id></comment></pick><pick publicID="de.gempa.tb1.Pick/20250413115012.606163.130959"><time><value>2025-04-13T11:50:05.528394Z</value></time><waveformID networkCode="CX" stationCode="PB02" channelCode="HHN"/><filterID>ITAPER(2)&gt;&gt;BW(3,3,20)</filterID><methodID>L2-AIC-GRID</methodID><horizontalSlowness><value>16.759741735005996</value></horizontalSlowness><backazimuth><value>70.34782404993861</value></backazimuth><phaseHint>S</phaseHint><evaluationMode>automatic</evaluationMode><comment><text>530.8913782127019</text><id>DFX:rectilinearity</id></comment><comment><text>de.gempa.tb1.Pick/20250413115005.60518.130953</text><id>RefPickID</id></comment><comment><text>12.026748288066706</text><id>SNR</id></comment></pick><pick publicID="de.gempa.tb1.Pick/20250413115022.567573.130960"><time><value>2025-04-13T11:50:14.718393Z</value></time><waveformID networkCode="CX" stationCode="PB01" channelCode="HHN"/><filterID>ITAPER(2)&gt;&gt;BW(3,3,20)</filterID><methodID>L2-AIC-GRID</methodID><horizontalSlowness><value>22.96427948581926</value></horizontalSlowness><backazimuth><value>295.7807432854381</value></backazimuth><phaseHint>S</phaseHint><evaluationMode>automatic</evaluationMode><comment><text>59.74123322809191</text><id>DFX:rectilinearity</id></comment><comment><text>de.gempa.tb1.Pick/20250413115011.521953.130955</text><id>RefPickID</id></comment><comment><text>10.095630833399289</text><id>SNR</id></comment></pick><pick publicID="de.gempa.tb1.Pick/20250413115022.768444.130961"><time><value>2025-04-13T11:50:14.798393Z</value></time><waveformID networkCode="CX" stationCode="PB03" channelCode="HHN"/><filterID>ITAPER(2)&gt;&gt;BW(3,3,20)</filterID><methodID>L2-AIC-GRID</methodID><horizontalSlowness><value>21.634744494327553</value></horizontalSlowness><backazimuth><value>221.2124231290501</value></backazimuth><phaseHint>S</phaseHint><evaluationMode>automatic</evaluationMode><comment><text>15.600017320793889</text><id>DFX:rectilinearity</id></comment><comment><text>de.gempa.tb1.Pick/20250413115012.595926.130957</text><id>RefPickID</id></comment><comment><text>5.025866274339729</text><id>SNR</id></comment></pick><pick publicID="de.gempa.tb1.Pick/20250413115023.578293.130962"><time><value>2025-04-13T11:50:07.95Z</value></time><waveformID networkCode="CX" stationCode="PB09" channelCode="HHZ"/><filterID>ITAPER(4)&gt;&gt;BW(4,4,20)</filterID><methodID>AIC</methodID><horizontalSlowness><value>20.03945921012582</value></horizontalSlowness><backazimuth><value>324.0467321471476</value></backazimuth><phaseHint>P</phaseHint><evaluationMode>automatic</evaluationMode><comment><text>14.724510509320677</text><id>DFX:rectilinearity</id></comment><comment><text>58.39757874716564</text><id>SNR</id></comment></pick><pick publicID="de.gempa.tb1.Pick/20250413115032.572809.130964"><time><value>2025-04-13T11:50:21.57Z</value></time><waveformID networkCode="CX" stationCode="PSGCX" channelCode="HHZ"/><filterID>ITAPER(4)&gt;&gt;BW(4,4,20)</filterID><methodID>AIC</methodID><horizontalSlowness><value>9.092579079111037</value></horizontalSlowness><backazimuth><value>302.89214907752307</value></backazimuth><phaseHint>P</phaseHint><evaluationMode>automatic</evaluationMode><comment><text>23.09840825637265</text><id>DFX:rectilinearity</id></comment><comment><text>8.353981781680766</text><id>SNR</id></comment></pick><pick publicID="de.gempa.tb1.Pick/20250413115038.433308.130966"><time><value>2025-04-13T11:50:01.158394Z</value></time><waveformID networkCode="CX" stationCode="PB07" channelCode="HHZ"/><filterID>ITAPER(4)&gt;&gt;BW(4,4,20)</filterID><methodID>AIC</methodID><horizontalSlowness><value>23.18453865037912</value></horizontalSlowness><backazimuth><value>56.92758567620109</value></backazimuth><phaseHint>P</phaseHint><evaluationMode>automatic</evaluationMode><comment><text>197.32412266776765</text><id>DFX:rectilinearity</id></comment><comment><text>27.76697445753439</text><id>SNR</id></comment></pick><pick publicID="de.gempa.tb1.Pick/20250413115039.118896.130968"><time><value>2025-04-13T11:50:19.66Z</value></time><waveformID networkCode="CX" stationCode="PB09" channelCode="HHN"/><filterID>ITAPER(2)&gt;&gt;BW(3,3,20)</filterID><methodID>L2-AIC-GRID</methodID><horizontalSlowness><value>19.102578120714167</value></horizontalSlowness><backazimuth><value>226.6046505179941</value></backazimuth><phaseHint>S</phaseHint><evaluationMode>automatic</evaluationMode><comment><text>52.88831999749546</text><id>DFX:rectilinearity</id></comment><comment><text>de.gempa.tb1.Pick/20250413115023.578293.130962</text><id>RefPickID</id></comment><comment><text>6.364964912393005</text><id>SNR</id></comment></pick><pick publicID="de.gempa.tb1.Pick/20250413115041.829751.130969"><time><value>2025-04-13T11:50:07.598394Z</value></time><waveformID networkCode="CX" stationCode="PB07" channelCode="HHN"/><filterID>ITAPER(2)&gt;&gt;BW(3,3,20)</filterID><methodID>L2-AIC-GRID</methodID><horizontalSlowness><value>22.51348784337225</value></horizontalSlowness><backazimuth><value>110.50803594033481</value></backazimuth><phaseHint>S</phaseHint><evaluationMode>automatic</evaluationMode><comment><text>5623.035624683022</text><id>DFX:rectilinearity</id></comment><comment><text>de.gempa.tb1.Pick/20250413115038.433308.130966</text><id>RefPickID</id></comment><comment><text>7.481847784718933</text><id>SNR</id></comment></pick><origin publicID="de.gempa.tb1.Origin/20250413115041.832856.108837"><time><value>2025-04-13T11:49:52.303291Z</value><uncertainty>0.6939429640769958</uncertainty></time><latitude><value>-21.442729949951172</value><uncertainty>2.7690274715423584</uncertainty></latitude><longitude><value>-70.05535888671875</value><uncertainty>5.514096736907959</uncertainty></longitude><depth><value>43.124366760253906</value><uncertainty>5.440730571746826</uncertainty></depth><depthType>from location</depthType><methodID>LOCSAT</methodID><earthModelID>iasp91_scanloc</earthModelID><quality><associatedPhaseCount>11</associatedPhaseCount><usedPhaseCount>11</usedPhaseCount><associatedStationCount>6</associatedStationCount><usedStationCount>6</usedStationCount><depthPhaseCount>0</depthPhaseCount><standardError>0.2497234704981574</standardError><azimuthalGap>202.9477996826172</azimuthalGap><maximumDistance>1.837312936782837</maximumDistance><minimumDistance>0.1924361139535904</minimumDistance><medianDistance>0.662379801273346</medianDistance></quality><uncertainty><minHorizontalUncertainty>5.918700218200684</minHorizontalUncertainty><maxHorizontalUncertainty>11.832053184509277</maxHorizontalUncertainty><azimuthMaxHorizontalUncertainty>87.38712310791016</azimuthMaxHorizontalUncertainty><preferredDescription>horizontal uncertainty</preferredDescription></uncertainty><evaluationMode>automatic</evaluationMode><evaluationStatus>confirmed</evaluationStatus><comment><text>0.21</text><id>mismatchScore</id></comment><comment><text>mismatchScore</text><id>scevalMethod</id></comment><arrival><pickID>de.gempa.tb1.Pick/20250413115005.60518.130953</pickID><phase>P</phase><azimuth>50.53337478637695</azimuth><distance>0.1924361139535904</distance><timeResidual>0.08976602554321289</timeResidual><timeUsed>true</timeUsed><horizontalSlownessUsed>false</horizontalSlownessUsed><backazimuthUsed>false</backazimuthUsed><weight>1</weight></arrival><arrival><pickID>de.gempa.tb1.Pick/20250413115011.521953.130955</pickID><phase>P</phase><azimuth>53.22261047363281</azimuth><distance>0.662379801273346</distance><timeResidual>-0.2179570198059082</timeResidual><timeUsed>true</timeUsed><horizontalSlownessUsed>false</horizontalSlownessUsed><backazimuthUsed>false</backazimuthUsed><weight>1</weight></arrival><arrival><pickID>de.gempa.tb1.Pick/20250413115012.595926.130957</pickID><phase>P</phase><azimuth>155.06141662597656</azimuth><distance>0.6650708317756653</distance><timeResidual>-0.20970582962036133</timeResidual><timeUsed>true</timeUsed><horizontalSlownessUsed>false</horizontalSlownessUsed><backazimuthUsed>false</backazimuthUsed><weight>1</weight></arrival><arrival><pickID>de.gempa.tb1.Pick/20250413115012.606163.130959</pickID><phase>S</phase><azimuth>50.53337478637695</azimuth><distance>0.1924361139535904</distance><timeResidual>0.08028221130371094</timeResidual><timeUsed>true</timeUsed><horizontalSlownessUsed>false</horizontalSlownessUsed><backazimuthUsed>false</backazimuthUsed><weight>1</weight></arrival><arrival><pickID>de.gempa.tb1.Pick/20250413115022.567573.130960</pickID><phase>S</phase><azimuth>53.22261047363281</azimuth><distance>0.662379801273346</distance><timeResidual>-0.3833589553833008</timeResidual><timeUsed>true</timeUsed><horizontalSlownessUsed>false</horizontalSlownessUsed><backazimuthUsed>false</backazimuthUsed><weight>1</weight></arrival><arrival><pickID>de.gempa.tb1.Pick/20250413115022.768444.130961</pickID><phase>S</phase><azimuth>155.06141662597656</azimuth><distance>0.6650708317756653</distance><timeResidual>-0.3604621887207031</timeResidual><timeUsed>true</timeUsed><horizontalSlownessUsed>false</horizontalSlownessUsed><backazimuthUsed>false</backazimuthUsed><weight>1</weight></arrival><arrival><pickID>de.gempa.tb1.Pick/20250413115023.578293.130962</pickID><phase>P</phase><azimuth>115.0845718383789</azimuth><distance>0.8347095251083374</distance><timeResidual>0.3136777877807617</timeResidual><timeUsed>true</timeUsed><horizontalSlownessUsed>false</horizontalSlownessUsed><backazimuthUsed>false</backazimuthUsed><weight>1</weight></arrival><arrival><pickID>de.gempa.tb1.Pick/20250413115032.572809.130964</pickID><phase>P</phase><azimuth>358.00921630859375</azimuth><distance>1.837312936782837</distance><timeResidual>0.19497203826904297</timeResidual><timeUsed>true</timeUsed><horizontalSlownessUsed>false</horizontalSlownessUsed><backazimuthUsed>false</backazimuthUsed><weight>1</weight></arrival><arrival><pickID>de.gempa.tb1.Pick/20250413115038.433308.130966</pickID><phase>P</phase><azimuth>150.900634765625</azimuth><distance>0.323461651802063</distance><timeResidual>0.0777597427368164</timeResidual><timeUsed>true</timeUsed><horizontalSlownessUsed>false</horizontalSlownessUsed><backazimuthUsed>false</backazimuthUsed><weight>1</weight></arrival><arrival><pickID>de.gempa.tb1.Pick/20250413115039.118896.130968</pickID><phase>S</phase><azimuth>115.0845718383789</azimuth><distance>0.8347095251083374</distance><timeResidual>0.4005556106567383</timeResidual><timeUsed>true</timeUsed><horizontalSlownessUsed>false</horizontalSlownessUsed><backazimuthUsed>false</backazimuthUsed><weight>1</weight></arrival><arrival><pickID>de.gempa.tb1.Pick/20250413115041.829751.130969</pickID><phase>S</phase><azimuth>150.900634765625</azimuth><distance>0.323461651802063</distance><timeResidual>0.014094829559326172</timeResidual><timeUsed>true</timeUsed><horizontalSlownessUsed>false</horizontalSlownessUsed><backazimuthUsed>false</backazimuthUsed><weight>1</weight></arrival><magnitude publicID="de.gempa.tb1.Magnitude/20250413115045.939183.353555"><magnitude><value>1.7839893898751769</value></magnitude><type>M</type><methodID>weighted average</methodID><stationCount>5</stationCount></magnitude></origin><event publicID="gempa2025hhhx"><preferredOriginID>de.gempa.tb1.Origin/20250413115041.832856.108837</preferredOriginID><preferredMagnitudeID>de.gempa.tb1.Magnitude/20250413115045.939183.353555</preferredMagnitudeID><description><text>Near Coast of Northern Chile</text><type>region name</type></description><originReference>de.gempa.tb1.Origin/20250413115041.832856.108837</originReference></event></EventParameters></seiscomp>