<?xml version="1.0" encoding="UTF-8"?>
<seiscomp xmlns="http://geofon.gfz-potsdam.de/ns/seiscomp3-schema/0.13" version="0.13"><EventParameters><pick publicID="de.gempa.tb1.Pick/20250414164242.349209.139306"><time><value>2025-04-14T16:42:34.22Z</value></time><waveformID networkCode="CX" stationCode="PB09" channelCode="HHZ"/><filterID>ITAPER(4)&gt;&gt;BW(4,4,20)</filterID><methodID>AIC</methodID><horizontalSlowness><value>17.883251489000646</value></horizontalSlowness><backazimuth><value>111.09484866269158</value></backazimuth><phaseHint>P</phaseHint><evaluationMode>automatic</evaluationMode><comment><text>20.406730068537058</text><id>DFX:rectilinearity</id></comment><comment><text>62.14643682751159</text><id>SNR</id></comment></pick><pick publicID="de.gempa.tb1.Pick/20250414164243.971084.139308"><time><value>2025-04-14T16:42:37.558393Z</value></time><waveformID networkCode="CX" stationCode="PB03" channelCode="HHZ"/><filterID>ITAPER(4)&gt;&gt;BW(4,4,20)</filterID><methodID>AIC</methodID><horizontalSlowness><value>8.261537009443845</value></horizontalSlowness><backazimuth><value>128.41817003484434</value></backazimuth><phaseHint>P</phaseHint><evaluationMode>automatic</evaluationMode><comment><text>13.930336036643142</text><id>DFX:rectilinearity</id></comment><comment><text>34.113873816843174</text><id>SNR</id></comment></pick><pick publicID="de.gempa.tb1.Pick/20250414164245.515988.139310"><time><value>2025-04-14T16:42:41.288393Z</value></time><waveformID networkCode="CX" stationCode="PB02" channelCode="HHZ"/><filterID>ITAPER(4)&gt;&gt;BW(4,4,20)</filterID><methodID>AIC</methodID><horizontalSlowness><value>15.249110629575245</value></horizontalSlowness><backazimuth><value>313.47315352293145</value></backazimuth><phaseHint>P</phaseHint><evaluationMode>automatic</evaluationMode><comment><text>9.675048116079648</text><id>DFX:rectilinearity</id></comment><comment><text>12.17710400469304</text><id>SNR</id></comment></pick><pick publicID="de.gempa.tb1.Pick/20250414164247.541633.139312"><time><value>2025-04-14T16:42:39.918391Z</value></time><waveformID networkCode="CX" stationCode="PB01" channelCode="HHZ"/><filterID>ITAPER(4)&gt;&gt;BW(4,4,20)</filterID><methodID>AIC</methodID><horizontalSlowness><value>22.351192370478806</value></horizontalSlowness><backazimuth><value>320.5518987178659</value></backazimuth><phaseHint>P</phaseHint><evaluationMode>automatic</evaluationMode><comment><text>34.069965046281673</text><id>DFX:rectilinearity</id></comment><comment><text>18.261497100575493</text><id>SNR</id></comment></pick><pick publicID="de.gempa.tb1.Pick/20250414164247.56463.139314"><time><value>2025-04-14T16:42:38.228393Z</value></time><waveformID networkCode="CX" stationCode="PB06" channelCode="HHZ"/><filterID>ITAPER(4)&gt;&gt;BW(4,4,20)</filterID><methodID>AIC</methodID><horizontalSlowness><value>8.570406808787313</value></horizontalSlowness><backazimuth><value>13.861117202625053</value></backazimuth><phaseHint>P</phaseHint><evaluationMode>automatic</evaluationMode><comment><text>78.66681575318123</text><id>DFX:rectilinearity</id></comment><comment><text>7.456953552857238</text><id>SNR</id></comment></pick><pick publicID="de.gempa.tb1.Pick/20250414164256.570502.139316"><time><value>2025-04-14T16:42:47.569999Z</value></time><waveformID networkCode="CX" stationCode="PATCX" channelCode="HHZ"/><filterID>ITAPER(4)&gt;&gt;BW(4,4,20)</filterID><methodID>AIC</methodID><horizontalSlowness><value>20.865877757145416</value></horizontalSlowness><backazimuth><value>351.571262779171</value></backazimuth><phaseHint>P</phaseHint><evaluationMode>automatic</evaluationMode><comment><text>65.23910170439646</text><id>DFX:rectilinearity</id></comment><comment><text>5.692580493831669</text><id>SNR</id></comment></pick><pick publicID="de.gempa.tb1.Pick/20250414164256.953573.139318"><time><value>2025-04-14T16:42:39.358393Z</value></time><waveformID networkCode="CX" stationCode="PB07" channelCode="HHZ"/><filterID>ITAPER(4)&gt;&gt;BW(4,4,20)</filterID><methodID>AIC</methodID><horizontalSlowness><value>21.260102733154483</value></horizontalSlowness><backazimuth><value>65.12676442300493</value></backazimuth><phaseHint>P</phaseHint><evaluationMode>automatic</evaluationMode><comment><text>123.18166133993965</text><id>DFX:rectilinearity</id></comment><comment><text>59.64883879004037</text><id>SNR</id></comment></pick><pick publicID="de.gempa.tb1.Pick/20250414164301.577669.139320"><time><value>2025-04-14T16:42:54.838393Z</value></time><waveformID networkCode="CX" stationCode="PB03" channelCode="HHN"/><filterID>ITAPER(2)&gt;&gt;BW(3,3,20)</filterID><methodID>L2-AIC-GRID</methodID><horizontalSlowness><value>8.677207085299797</value></horizontalSlowness><backazimuth><value>279.4775095395111</value></backazimuth><phaseHint>S</phaseHint><evaluationMode>automatic</evaluationMode><comment><text>29.26609005162401</text><id>DFX:rectilinearity</id></comment><comment><text>de.gempa.tb1.Pick/20250414164243.971084.139308</text><id>RefPickID</id></comment><comment><text>6.256560397534565</text><id>SNR</id></comment></pick><pick publicID="de.gempa.tb1.Pick/20250414164301.62462.139321"><time><value>2025-04-14T16:42:55.498393Z</value></time><waveformID networkCode="CX" stationCode="PB06" channelCode="HHN"/><filterID>ITAPER(2)&gt;&gt;BW(3,3,20)</filterID><methodID>L2-AIC-GRID</methodID><horizontalSlowness><value>21.715451248631638</value></horizontalSlowness><backazimuth><value>151.96319509818741</value></backazimuth><phaseHint>S</phaseHint><evaluationMode>automatic</evaluationMode><comment><text>233.8266631772406</text><id>DFX:rectilinearity</id></comment><comment><text>de.gempa.tb1.Pick/20250414164247.56463.139314</text><id>RefPickID</id></comment><comment><text>7.053675027065953</text><id>SNR</id></comment></pick><pick publicID="de.gempa.tb1.Pick/20250414164307.619468.139322"><time><value>2025-04-14T16:42:58.898391Z</value></time><waveformID networkCode="CX" stationCode="PB01" channelCode="HHN"/><filterID>ITAPER(2)&gt;&gt;BW(3,3,20)</filterID><methodID>L2-AIC-GRID</methodID><horizontalSlowness><value>20.111970221717776</value></horizontalSlowness><backazimuth><value>33.14891972964449</value></backazimuth><phaseHint>S</phaseHint><evaluationMode>automatic</evaluationMode><comment><text>115.76104002309546</text><id>DFX:rectilinearity</id></comment><comment><text>de.gempa.tb1.Pick/20250414164247.541633.139312</text><id>RefPickID</id></comment><comment><text>7.350399909574558</text><id>SNR</id></comment></pick><pick publicID="de.gempa.tb1.Pick/20250414164309.727346.139323"><time><value>2025-04-14T16:43:01.068393Z</value></time><waveformID networkCode="CX" stationCode="PB02" channelCode="HHN"/><filterID>ITAPER(2)&gt;&gt;BW(3,3,20)</filterID><methodID>L2-AIC-GRID</methodID><horizontalSlowness><value>13.837334381643448</value></horizontalSlowness><backazimuth><value>43.59512554825949</value></backazimuth><phaseHint>S</phaseHint><evaluationMode>automatic</evaluationMode><comment><text>132.67514222598302</text><id>DFX:rectilinearity</id></comment><comment><text>de.gempa.tb1.Pick/20250414164245.515988.139310</text><id>RefPickID</id></comment><comment><text>6.57909300522095</text><id>SNR</id></comment></pick><pick publicID="de.gempa.tb1.Pick/20250414164331.782043.139331"><time><value>2025-04-14T16:42:57.578393Z</value></time><waveformID networkCode="CX" stationCode="PB07" channelCode="HHN"/><filterID>ITAPER(2)&gt;&gt;BW(3,3,20)</filterID><methodID>L2-AIC-GRID</methodID><horizontalSlowness><value>22.161262678598387</value></horizontalSlowness><backazimuth><value>23.033116280378636</value></backazimuth><phaseHint>S</phaseHint><evaluationMode>automatic</evaluationMode><comment><text>842.7570484453098</text><id>DFX:rectilinearity</id></comment><comment><text>de.gempa.tb1.Pick/20250414164256.953573.139318</text><id>RefPickID</id></comment><comment><text>6.667454403148332</text><id>SNR</id></comment></pick><origin publicID="de.gempa.tb1.Origin/20250414164331.787182.143324"><time><value>2025-04-14T16:42:15.860587Z</value><uncertainty>1.0071921348571777</uncertainty></time><latitude><value>-22.035720825195312</value><uncertainty>4.563280582427979</uncertainty></latitude><longitude><value>-68.64752960205078</value><uncertainty>12.343721389770508</uncertainty></longitude><depth><value>113.99105834960938</value><uncertainty>14.826581001281738</uncertainty></depth><depthType>from location</depthType><methodID>LOCSAT</methodID><earthModelID>iasp91_scanloc</earthModelID><quality><associatedPhaseCount>12</associatedPhaseCount><usedPhaseCount>12</usedPhaseCount><associatedStationCount>7</associatedStationCount><usedStationCount>7</usedStationCount><depthPhaseCount>0</depthPhaseCount><standardError>0.2005390707834502</standardError><azimuthalGap>270.41552734375</azimuthalGap><maximumDistance>1.8516910076141357</maximumDistance><minimumDistance>0.601146399974823</minimumDistance><medianDistance>1.1908743381500244</medianDistance></quality><uncertainty><minHorizontalUncertainty>9.603144645690918</minHorizontalUncertainty><maxHorizontalUncertainty>26.53071403503418</maxHorizontalUncertainty><azimuthMaxHorizontalUncertainty>85.662841796875</azimuthMaxHorizontalUncertainty><preferredDescription>horizontal uncertainty</preferredDescription></uncertainty><evaluationMode>automatic</evaluationMode><evaluationStatus>confirmed</evaluationStatus><comment><text>0.05</text><id>mismatchScore</id></comment><comment><text>mismatchScore</text><id>scevalMethod</id></comment><arrival><pickID>de.gempa.tb1.Pick/20250414164242.349209.139306</pickID><phase>P</phase><azimuth>293.23114013671875</azimuth><distance>0.601146399974823</distance><timeResidual>0.3462238311767578</timeResidual><timeUsed>true</timeUsed><horizontalSlownessUsed>false</horizontalSlownessUsed><backazimuthUsed>false</backazimuthUsed><weight>1</weight></arrival><arrival><pickID>de.gempa.tb1.Pick/20250414164243.971084.139308</pickID><phase>P</phase><azimuth>269.0851135253906</azimuth><distance>1.0258007049560547</distance><timeResidual>-0.12654876708984375</timeResidual><timeUsed>true</timeUsed><horizontalSlownessUsed>false</horizontalSlownessUsed><backazimuthUsed>false</backazimuthUsed><weight>1</weight></arrival><arrival><pickID>de.gempa.tb1.Pick/20250414164245.515988.139310</pickID><phase>P</phase><azimuth>301.30096435546875</azimuth><distance>1.3623991012573242</distance><timeResidual>-0.064910888671875</timeResidual><timeUsed>true</timeUsed><horizontalSlownessUsed>false</horizontalSlownessUsed><backazimuthUsed>false</backazimuthUsed><weight>1</weight></arrival><arrival><pickID>de.gempa.tb1.Pick/20250414164247.541633.139312</pickID><phase>P</phase><azimuth>321.47662353515625</azimuth><distance>1.2596712112426758</distance><timeResidual>-0.2765331268310547</timeResidual><timeUsed>true</timeUsed><horizontalSlownessUsed>false</horizontalSlownessUsed><backazimuthUsed>false</backazimuthUsed><weight>1</weight></arrival><arrival><pickID>de.gempa.tb1.Pick/20250414164247.56463.139314</pickID><phase>P</phase><azimuth>231.89215087890625</azimuth><distance>1.0847957134246826</distance><timeResidual>-0.0639801025390625</timeResidual><timeUsed>true</timeUsed><horizontalSlownessUsed>false</horizontalSlownessUsed><backazimuthUsed>false</backazimuthUsed><weight>1</weight></arrival><arrival><pickID>de.gempa.tb1.Pick/20250414164256.570502.139316</pickID><phase>P</phase><azimuth>310.4867248535156</azimuth><distance>1.8516910076141357</distance><timeResidual>0.358306884765625</timeResidual><timeUsed>true</timeUsed><horizontalSlownessUsed>false</horizontalSlownessUsed><backazimuthUsed>false</backazimuthUsed><weight>1</weight></arrival><arrival><pickID>de.gempa.tb1.Pick/20250414164256.953573.139318</pickID><phase>P</phase><azimuth>284.736572265625</azimuth><distance>1.1908743381500244</distance><timeResidual>-0.07442283630371094</timeResidual><timeUsed>true</timeUsed><horizontalSlownessUsed>false</horizontalSlownessUsed><backazimuthUsed>false</backazimuthUsed><weight>1</weight></arrival><arrival><pickID>de.gempa.tb1.Pick/20250414164301.577669.139320</pickID><phase>S</phase><azimuth>269.0851135253906</azimuth><distance>1.0258007049560547</distance><timeResidual>0.28907012939453125</timeResidual><timeUsed>true</timeUsed><horizontalSlownessUsed>false</horizontalSlownessUsed><backazimuthUsed>false</backazimuthUsed><weight>1</weight></arrival><arrival><pickID>de.gempa.tb1.Pick/20250414164301.62462.139321</pickID><phase>S</phase><azimuth>231.89215087890625</azimuth><distance>1.0847957134246826</distance><timeResidual>-0.13550186157226562</timeResidual><timeUsed>true</timeUsed><horizontalSlownessUsed>false</horizontalSlownessUsed><backazimuthUsed>false</backazimuthUsed><weight>1</weight></arrival><arrival><pickID>de.gempa.tb1.Pick/20250414164307.619468.139322</pickID><phase>S</phase><azimuth>321.47662353515625</azimuth><distance>1.2596712112426758</distance><timeResidual>-0.130218505859375</timeResidual><timeUsed>true</timeUsed><horizontalSlownessUsed>false</horizontalSlownessUsed><backazimuthUsed>false</backazimuthUsed><weight>1</weight></arrival><arrival><pickID>de.gempa.tb1.Pick/20250414164309.727346.139323</pickID><phase>S</phase><azimuth>301.30096435546875</azimuth><distance>1.3623991012573242</distance><timeResidual>-0.030792236328125</timeResidual><timeUsed>true</timeUsed><horizontalSlownessUsed>false</horizontalSlownessUsed><backazimuthUsed>false</backazimuthUsed><weight>1</weight></arrival><arrival><pickID>de.gempa.tb1.Pick/20250414164331.782043.139331</pickID><phase>S</phase><azimuth>284.736572265625</azimuth><distance>1.1908743381500244</distance><timeResidual>-0.09043312072753906</timeResidual><timeUsed>true</timeUsed><horizontalSlownessUsed>false</horizontalSlownessUsed><backazimuthUsed>false</backazimuthUsed><weight>1</weight></arrival><magnitude publicID="de.gempa.tb1.Magnitude/20250414164340.93874.515312"><magnitude><value>2.1893329273305384</value></magnitude><type>M</type><methodID>weighted average</methodID><stationCount>3</stationCount></magnitude></origin><event publicID="gempa2025hjnr"><preferredOriginID>de.gempa.tb1.Origin/20250414164331.787182.143324</preferredOriginID><preferredMagnitudeID>de.gempa.tb1.Magnitude/20250414164340.93874.515312</preferredMagnitudeID><description><text>Northern Chile</text><type>region name</type></description><originReference>de.gempa.tb1.Origin/20250414164331.787182.143324</originReference></event></EventParameters></seiscomp>