<?xml version="1.0" encoding="UTF-8"?>
<seiscomp xmlns="http://geofon.gfz-potsdam.de/ns/seiscomp3-schema/0.13" version="0.13"><EventParameters><pick publicID="de.gempa.tb1.Pick/20250415081200.803136.118225"><time><value>2025-04-15T08:11:56.708393Z</value></time><waveformID networkCode="CX" stationCode="PB01" channelCode="HHZ"/><filterID>ITAPER(4)&gt;&gt;BW(4,4,20)</filterID><methodID>AIC</methodID><horizontalSlowness><value>9.894120719405784</value></horizontalSlowness><backazimuth><value>20.64243317612599</value></backazimuth><phaseHint>P</phaseHint><evaluationMode>automatic</evaluationMode><comment><text>1606.8799139015487</text><id>DFX:rectilinearity</id></comment><comment><text>624.5237061940625</text><id>SNR</id></comment></pick><pick publicID="de.gempa.tb1.Pick/20250415081203.921782.118227"><time><value>2025-04-15T08:11:57.178393Z</value></time><waveformID networkCode="CX" stationCode="PB08" channelCode="HHZ"/><filterID>ITAPER(4)&gt;&gt;BW(4,4,20)</filterID><methodID>AIC</methodID><horizontalSlowness><value>15.808068081923523</value></horizontalSlowness><backazimuth><value>206.67396742444723</value></backazimuth><phaseHint>P</phaseHint><evaluationMode>automatic</evaluationMode><comment><text>614.7713839309059</text><id>DFX:rectilinearity</id></comment><comment><text>82.74888702094565</text><id>SNR</id></comment></pick><pick publicID="de.gempa.tb1.Pick/20250415081207.272636.118229"><time><value>2025-04-15T08:12:02.219999Z</value></time><waveformID networkCode="CX" stationCode="PATCX" channelCode="HHZ"/><filterID>ITAPER(4)&gt;&gt;BW(4,4,20)</filterID><methodID>AIC</methodID><horizontalSlowness><value>20.453703755866663</value></horizontalSlowness><backazimuth><value>271.34769729003176</value></backazimuth><phaseHint>P</phaseHint><evaluationMode>automatic</evaluationMode><comment><text>273.1639751227964</text><id>DFX:rectilinearity</id></comment><comment><text>132.79722274066583</text><id>SNR</id></comment></pick><pick publicID="de.gempa.tb1.Pick/20250415081207.641474.118231"><time><value>2025-04-15T08:12:01.648393Z</value></time><waveformID networkCode="CX" stationCode="PB02" channelCode="HHZ"/><filterID>ITAPER(4)&gt;&gt;BW(4,4,20)</filterID><methodID>AIC</methodID><horizontalSlowness><value>8.657890813902869</value></horizontalSlowness><backazimuth><value>59.00616238360648</value></backazimuth><phaseHint>P</phaseHint><evaluationMode>automatic</evaluationMode><comment><text>1119.4581078950416</text><id>DFX:rectilinearity</id></comment><comment><text>84.2545555662347</text><id>SNR</id></comment></pick><pick publicID="de.gempa.tb1.Pick/20250415081209.680805.118233"><time><value>2025-04-15T08:12:02.5Z</value></time><waveformID networkCode="CX" stationCode="PB09" channelCode="HHZ"/><filterID>ITAPER(4)&gt;&gt;BW(4,4,20)</filterID><methodID>AIC</methodID><horizontalSlowness><value>16.988229519932364</value></horizontalSlowness><backazimuth><value>71.16938645068224</value></backazimuth><phaseHint>P</phaseHint><evaluationMode>automatic</evaluationMode><comment><text>61.12469913045125</text><id>DFX:rectilinearity</id></comment><comment><text>105.01906585684885</text><id>SNR</id></comment></pick><pick publicID="de.gempa.tb1.Pick/20250415081214.628438.118235"><time><value>2025-04-15T08:12:07.208393Z</value></time><waveformID networkCode="CX" stationCode="PB03" channelCode="HHZ"/><filterID>ITAPER(4)&gt;&gt;BW(4,4,20)</filterID><methodID>AIC</methodID><horizontalSlowness><value>6.964247199141996</value></horizontalSlowness><backazimuth><value>5.100673175921543</value></backazimuth><phaseHint>P</phaseHint><evaluationMode>automatic</evaluationMode><comment><text>87.4341100610405</text><id>DFX:rectilinearity</id></comment><comment><text>62.34055982944803</text><id>SNR</id></comment></pick><pick publicID="de.gempa.tb1.Pick/20250415081214.654874.118237"><time><value>2025-04-15T08:12:06.9Z</value></time><waveformID networkCode="CX" stationCode="PSGCX" channelCode="HHZ"/><filterID>ITAPER(4)&gt;&gt;BW(4,4,20)</filterID><methodID>AIC</methodID><horizontalSlowness><value>4.955022361344045</value></horizontalSlowness><backazimuth><value>158.13993482515875</value></backazimuth><phaseHint>P</phaseHint><evaluationMode>automatic</evaluationMode><comment><text>78.12629385599425</text><id>DFX:rectilinearity</id></comment><comment><text>327.29668732112515</text><id>SNR</id></comment></pick><pick publicID="de.gempa.tb1.Pick/20250415081217.104112.118240"><time><value>2025-04-15T08:12:10.198393Z</value></time><waveformID networkCode="CX" stationCode="PB08" channelCode="HHN"/><filterID>ITAPER(2)&gt;&gt;BW(3,3,20)</filterID><methodID>L2-AIC-GRID</methodID><horizontalSlowness><value>16.297635450336532</value></horizontalSlowness><backazimuth><value>203.70396112638113</value></backazimuth><phaseHint>S</phaseHint><evaluationMode>automatic</evaluationMode><comment><text>16348.539835948683</text><id>DFX:rectilinearity</id></comment><comment><text>de.gempa.tb1.Pick/20250415081203.921782.118227</text><id>RefPickID</id></comment><comment><text>8.14002075434732</text><id>SNR</id></comment></pick><pick publicID="de.gempa.tb1.Pick/20250415081219.819065.118241"><time><value>2025-04-15T08:12:14.578393Z</value></time><waveformID networkCode="CX" stationCode="PB06" channelCode="HHZ"/><filterID>ITAPER(4)&gt;&gt;BW(4,4,20)</filterID><methodID>AIC</methodID><horizontalSlowness><value>8.799415238408592</value></horizontalSlowness><backazimuth><value>3.9296223929650864</value></backazimuth><phaseHint>P</phaseHint><evaluationMode>automatic</evaluationMode><comment><text>54.84441421011969</text><id>DFX:rectilinearity</id></comment><comment><text>30.185158019923847</text><id>SNR</id></comment></pick><pick publicID="de.gempa.tb1.Pick/20250415081225.682177.118245"><time><value>2025-04-15T08:12:18.958393Z</value></time><waveformID networkCode="CX" stationCode="PB02" channelCode="HHN"/><filterID>ITAPER(2)&gt;&gt;BW(3,3,20)</filterID><methodID>L2-AIC-GRID</methodID><horizontalSlowness><value>20.961941070100128</value></horizontalSlowness><backazimuth><value>253.135209184624</value></backazimuth><phaseHint>S</phaseHint><evaluationMode>automatic</evaluationMode><comment><text>125310.24320702082</text><id>DFX:rectilinearity</id></comment><comment><text>de.gempa.tb1.Pick/20250415081207.641474.118231</text><id>RefPickID</id></comment><comment><text>6.60489130312181</text><id>SNR</id></comment></pick><origin publicID="de.gempa.tb1.Origin/20250415081225.85407.58529"><time><value>2025-04-15T08:11:39.943319Z</value><uncertainty>0.9722140431404114</uncertainty></time><latitude><value>-20.671323776245117</value><uncertainty>4.66896390914917</uncertainty></latitude><longitude><value>-68.97484588623047</value><uncertainty>9.155149459838867</uncertainty></longitude><depth><value>108.1169204711914</value><uncertainty>8.73436164855957</uncertainty></depth><depthType>from location</depthType><methodID>LOCSAT</methodID><earthModelID>iasp91_scanloc</earthModelID><quality><associatedPhaseCount>10</associatedPhaseCount><usedPhaseCount>10</usedPhaseCount><associatedStationCount>8</associatedStationCount><usedStationCount>8</usedStationCount><depthPhaseCount>0</depthPhaseCount><standardError>0.28120034462154964</standardError><azimuthalGap>210.1451873779297</azimuthalGap><maximumDistance>2.099302053451538</maximumDistance><minimumDistance>0.5534579753875732</minimumDistance><medianDistance>1.1125421524047852</medianDistance></quality><uncertainty><minHorizontalUncertainty>9.48865795135498</minHorizontalUncertainty><maxHorizontalUncertainty>19.88863182067871</maxHorizontalUncertainty><azimuthMaxHorizontalUncertainty>100.52386474609375</azimuthMaxHorizontalUncertainty><preferredDescription>horizontal uncertainty</preferredDescription></uncertainty><evaluationMode>automatic</evaluationMode><evaluationStatus>confirmed</evaluationStatus><comment><text>0.13</text><id>mismatchScore</id></comment><comment><text>mismatchScore</text><id>scevalMethod</id></comment><arrival><pickID>de.gempa.tb1.Pick/20250415081200.803136.118225</pickID><phase>P</phase><azimuth>232.24363708496094</azimuth><distance>0.6055777668952942</distance><timeResidual>-0.6660747528076172</timeResidual><timeUsed>true</timeUsed><horizontalSlownessUsed>false</horizontalSlownessUsed><backazimuthUsed>false</backazimuthUsed><weight>1</weight></arrival><arrival><pickID>de.gempa.tb1.Pick/20250415081203.921782.118227</pickID><phase>P</phase><azimuth>342.3546142578125</azimuth><distance>0.5534579753875732</distance><timeResidual>0.19186973571777344</timeResidual><timeUsed>true</timeUsed><horizontalSlownessUsed>false</horizontalSlownessUsed><backazimuthUsed>false</backazimuthUsed><weight>1</weight></arrival><arrival><pickID>de.gempa.tb1.Pick/20250415081207.272636.118229</pickID><phase>P</phase><azimuth>262.1152648925781</azimuth><distance>1.1125421524047852</distance><timeResidual>0.004009246826171875</timeResidual><timeUsed>true</timeUsed><horizontalSlownessUsed>false</horizontalSlownessUsed><backazimuthUsed>false</backazimuthUsed><weight>1</weight></arrival><arrival><pickID>de.gempa.tb1.Pick/20250415081207.641474.118231</pickID><phase>P</phase><azimuth>232.9837341308594</azimuth><distance>1.0757044553756714</distance><timeResidual>-0.16685867309570312</timeResidual><timeUsed>true</timeUsed><horizontalSlownessUsed>false</horizontalSlownessUsed><backazimuthUsed>false</backazimuthUsed><weight>1</weight></arrival><arrival><pickID>de.gempa.tb1.Pick/20250415081209.680805.118233</pickID><phase>P</phase><azimuth>192.4998016357422</azimuth><distance>1.1468746662139893</distance><timeResidual>-0.08736610412597656</timeResidual><timeUsed>true</timeUsed><horizontalSlownessUsed>false</horizontalSlownessUsed><backazimuthUsed>false</backazimuthUsed><weight>1</weight></arrival><arrival><pickID>de.gempa.tb1.Pick/20250415081214.628438.118235</pickID><phase>P</phase><azimuth>207.75582885742188</azimuth><distance>1.5505120754241943</distance><timeResidual>-0.06473350524902344</timeResidual><timeUsed>true</timeUsed><horizontalSlownessUsed>false</horizontalSlownessUsed><backazimuthUsed>false</backazimuthUsed><weight>1</weight></arrival><arrival><pickID>de.gempa.tb1.Pick/20250415081214.654874.118237</pickID><phase>P</phase><azimuth>314.5291442871094</azimuth><distance>1.518539547920227</distance><timeResidual>0.000415802001953125</timeResidual><timeUsed>true</timeUsed><horizontalSlownessUsed>false</horizontalSlownessUsed><backazimuthUsed>false</backazimuthUsed><weight>1</weight></arrival><arrival><pickID>de.gempa.tb1.Pick/20250415081217.104112.118240</pickID><phase>S</phase><azimuth>342.3546142578125</azimuth><distance>0.5534579753875732</distance><timeResidual>0.09417343139648438</timeResidual><timeUsed>true</timeUsed><horizontalSlownessUsed>false</horizontalSlownessUsed><backazimuthUsed>false</backazimuthUsed><weight>1</weight></arrival><arrival><pickID>de.gempa.tb1.Pick/20250415081219.819065.118241</pickID><phase>P</phase><azimuth>195.22850036621094</azimuth><distance>2.099302053451538</distance><timeResidual>0.4484367370605469</timeResidual><timeUsed>true</timeUsed><horizontalSlownessUsed>false</horizontalSlownessUsed><backazimuthUsed>false</backazimuthUsed><weight>1</weight></arrival><arrival><pickID>de.gempa.tb1.Pick/20250415081225.682177.118245</pickID><phase>S</phase><azimuth>232.9837341308594</azimuth><distance>1.0757044553756714</distance><timeResidual>0.2462139129638672</timeResidual><timeUsed>true</timeUsed><horizontalSlownessUsed>false</horizontalSlownessUsed><backazimuthUsed>false</backazimuthUsed><weight>1</weight></arrival><magnitude publicID="de.gempa.tb1.Magnitude/20250415081225.86021.108974"><magnitude><value>2.808537930894211</value></magnitude><type>M</type><methodID>weighted average</methodID><stationCount>6</stationCount></magnitude></origin><event publicID="gempa2025hksr"><preferredOriginID>de.gempa.tb1.Origin/20250415081225.85407.58529</preferredOriginID><preferredMagnitudeID>de.gempa.tb1.Magnitude/20250415081225.86021.108974</preferredMagnitudeID><description><text>Chile-Bolivia Border Region</text><type>region name</type></description><originReference>de.gempa.tb1.Origin/20250415081225.85407.58529</originReference></event></EventParameters></seiscomp>