<?xml version="1.0" encoding="UTF-8"?>
<seiscomp xmlns="http://geofon.gfz-potsdam.de/ns/seiscomp3-schema/0.13" version="0.13"><EventParameters><pick publicID="de.gempa.tb1.Pick/20250412043237.553967.121973"><time><value>2025-04-12T04:32:33.020001Z</value></time><waveformID networkCode="CX" stationCode="PSGCX" channelCode="HHZ"/><filterID>ITAPER(4)&gt;&gt;BW(4,4,20)</filterID><methodID>AIC</methodID><horizontalSlowness><value>14.74691679873293</value></horizontalSlowness><backazimuth><value>344.1362611397391</value></backazimuth><phaseHint>P</phaseHint><evaluationMode>automatic</evaluationMode><comment><text>52.87090757390429</text><id>DFX:rectilinearity</id></comment><comment><text>30.05986900776582</text><id>SNR</id></comment></pick><pick publicID="de.gempa.tb1.Pick/20250412043253.222725.121975"><time><value>2025-04-12T04:32:47.278393Z</value></time><waveformID networkCode="CX" stationCode="PB08" channelCode="HHZ"/><filterID>ITAPER(4)&gt;&gt;BW(4,4,20)</filterID><methodID>AIC</methodID><horizontalSlowness><value>13.401236342391464</value></horizontalSlowness><backazimuth><value>79.65760941110184</value></backazimuth><phaseHint>P</phaseHint><evaluationMode>automatic</evaluationMode><comment><text>8.071297963156619</text><id>DFX:rectilinearity</id></comment><comment><text>7.993812422251046</text><id>SNR</id></comment></pick><pick publicID="de.gempa.tb1.Pick/20250412043300.528295.121977"><time><value>2025-04-12T04:32:53.588393Z</value></time><waveformID networkCode="CX" stationCode="PB01" channelCode="HHZ"/><filterID>ITAPER(4)&gt;&gt;BW(4,4,20)</filterID><methodID>AIC</methodID><horizontalSlowness><value>17.14611284923454</value></horizontalSlowness><backazimuth><value>212.39029396006865</value></backazimuth><phaseHint>P</phaseHint><evaluationMode>automatic</evaluationMode><comment><text>16.368026985897103</text><id>DFX:rectilinearity</id></comment><comment><text>7.922241634268651</text><id>SNR</id></comment></pick><pick publicID="de.gempa.tb1.Pick/20250412043303.530026.121979"><time><value>2025-04-12T04:32:54.688393Z</value></time><waveformID networkCode="CX" stationCode="PB02" channelCode="HHZ"/><filterID>ITAPER(4)&gt;&gt;BW(4,4,20)</filterID><methodID>AIC</methodID><horizontalSlowness><value>14.069288064699775</value></horizontalSlowness><backazimuth><value>260.4890935743612</value></backazimuth><phaseHint>P</phaseHint><evaluationMode>automatic</evaluationMode><comment><text>37.265970259261593</text><id>DFX:rectilinearity</id></comment><comment><text>17.496083073602943</text><id>SNR</id></comment></pick><pick publicID="de.gempa.tb1.Pick/20250412043310.564919.121981"><time><value>2025-04-12T04:33:04.728393Z</value></time><waveformID networkCode="CX" stationCode="PB03" channelCode="HHZ"/><filterID>ITAPER(4)&gt;&gt;BW(4,4,20)</filterID><methodID>AIC</methodID><horizontalSlowness><value>23.161996237418325</value></horizontalSlowness><backazimuth><value>320.3591713424836</value></backazimuth><phaseHint>P</phaseHint><evaluationMode>automatic</evaluationMode><comment><text>7.53438952305488</text><id>DFX:rectilinearity</id></comment><comment><text>10.702706925863222</text><id>SNR</id></comment></pick><pick publicID="de.gempa.tb1.Pick/20250412043312.132821.121983"><time><value>2025-04-12T04:32:59.888394Z</value></time><waveformID networkCode="CX" stationCode="PB07" channelCode="HHZ"/><filterID>ITAPER(4)&gt;&gt;BW(4,4,20)</filterID><methodID>AIC</methodID><horizontalSlowness><value>23.297712922833064</value></horizontalSlowness><backazimuth><value>79.33652248414789</value></backazimuth><phaseHint>P</phaseHint><evaluationMode>automatic</evaluationMode><comment><text>163.6384224645629</text><id>DFX:rectilinearity</id></comment><comment><text>16.075193502375253</text><id>SNR</id></comment></pick><pick publicID="de.gempa.tb1.Pick/20250412043312.582552.121985"><time><value>2025-04-12T04:33:05.25Z</value></time><waveformID networkCode="CX" stationCode="PB09" channelCode="HHZ"/><filterID>ITAPER(4)&gt;&gt;BW(4,4,20)</filterID><methodID>AIC</methodID><horizontalSlowness><value>16.214218951509682</value></horizontalSlowness><backazimuth><value>139.7861181316297</value></backazimuth><phaseHint>P</phaseHint><evaluationMode>automatic</evaluationMode><comment><text>8.630445648203999</text><id>DFX:rectilinearity</id></comment><comment><text>12.68106286787069</text><id>SNR</id></comment></pick><origin publicID="de.gempa.tb1.Origin/20250412043314.60723.74410"><time><value>2025-04-12T04:32:06.445883Z</value><uncertainty>3.893789052963257</uncertainty></time><latitude><value>-18.565073013305664</value><uncertainty>31.38551139831543</uncertainty></latitude><longitude><value>-71.1136474609375</value><uncertainty>16.041770935058594</uncertainty></longitude><depth><value>0</value></depth><depthType>operator assigned</depthType><methodID>LOCSAT</methodID><earthModelID>iasp91_scanloc</earthModelID><quality><associatedPhaseCount>7</associatedPhaseCount><usedPhaseCount>7</usedPhaseCount><associatedStationCount>7</associatedStationCount><usedStationCount>7</usedStationCount><depthPhaseCount>0</depthPhaseCount><standardError>0.35954322969644964</standardError><azimuthalGap>330.5148162841797</azimuthalGap><maximumDistance>3.693350553512573</maximumDistance><minimumDistance>1.3898390531539917</minimumDistance><medianDistance>2.9701881408691406</medianDistance></quality><uncertainty><minHorizontalUncertainty>32.24351119995117</minHorizontalUncertainty><maxHorizontalUncertainty>68.36456298828125</maxHorizontalUncertainty><azimuthMaxHorizontalUncertainty>168.52708435058594</azimuthMaxHorizontalUncertainty><preferredDescription>horizontal uncertainty</preferredDescription></uncertainty><evaluationMode>automatic</evaluationMode><evaluationStatus>confirmed</evaluationStatus><comment><text>0.08</text><id>mismatchScore</id></comment><comment><text>mismatchScore</text><id>scevalMethod</id></comment><arrival><pickID>de.gempa.tb1.Pick/20250412043237.553967.121973</pickID><phase>P</phase><azimuth>137.77874755859375</azimuth><distance>1.3898390531539917</distance><timeResidual>-0.030912399291992191</timeResidual><timeUsed>true</timeUsed><horizontalSlownessUsed>false</horizontalSlownessUsed><backazimuthUsed>false</backazimuthUsed><weight>1</weight></arrival><arrival><pickID>de.gempa.tb1.Pick/20250412043253.222725.121975</pickID><phase>P</phase><azimuth>130.58627319335938</azimuth><distance>2.4255452156066895</distance><timeResidual>-0.07473182678222656</timeResidual><timeUsed>true</timeUsed><horizontalSlownessUsed>false</horizontalSlownessUsed><backazimuthUsed>false</backazimuthUsed><weight>1</weight></arrival><arrival><pickID>de.gempa.tb1.Pick/20250412043300.528295.121977</pickID><phase>P</phase><azimuth>148.42559814453125</azimuth><distance>2.902088403701782</distance><timeResidual>-0.323760986328125</timeResidual><timeUsed>true</timeUsed><horizontalSlownessUsed>false</horizontalSlownessUsed><backazimuthUsed>false</backazimuthUsed><weight>1</weight></arrival><arrival><pickID>de.gempa.tb1.Pick/20250412043303.530026.121979</pickID><phase>P</phase><azimuth>157.51925659179688</azimuth><distance>2.9701881408691406</distance><timeResidual>-0.1609172821044922</timeResidual><timeUsed>true</timeUsed><horizontalSlownessUsed>false</horizontalSlownessUsed><backazimuthUsed>false</backazimuthUsed><weight>1</weight></arrival><arrival><pickID>de.gempa.tb1.Pick/20250412043310.564919.121981</pickID><phase>P</phase><azimuth>160.00344848632812</azimuth><distance>3.693350553512573</distance><timeResidual>-0.07270050048828125</timeResidual><timeUsed>true</timeUsed><horizontalSlownessUsed>false</horizontalSlownessUsed><backazimuthUsed>false</backazimuthUsed><weight>1</weight></arrival><arrival><pickID>de.gempa.tb1.Pick/20250412043312.132821.121983</pickID><phase>P</phase><azimuth>160.0714569091797</azimuth><distance>3.350111246109009</distance><timeResidual>-0.1894969940185547</timeResidual><timeUsed>true</timeUsed><horizontalSlownessUsed>false</horizontalSlownessUsed><backazimuthUsed>false</backazimuthUsed><weight>1</weight></arrival><arrival><pickID>de.gempa.tb1.Pick/20250412043312.582552.121985</pickID><phase>P</phase><azimuth>151.64089965820312</azimuth><distance>3.664016008377075</distance><timeResidual>0.8523197174072266</timeResidual><timeUsed>true</timeUsed><horizontalSlownessUsed>false</horizontalSlownessUsed><backazimuthUsed>false</backazimuthUsed><weight>1</weight></arrival><magnitude publicID="de.gempa.tb1.Magnitude/20250412043341.547764.176370"><magnitude><value>3.178187139363753</value></magnitude><type>M</type><methodID>weighted average</methodID><stationCount>4</stationCount></magnitude></origin><event publicID="gempa2025hexh"><preferredOriginID>de.gempa.tb1.Origin/20250412043314.60723.74410</preferredOriginID><preferredMagnitudeID>de.gempa.tb1.Magnitude/20250412043341.547764.176370</preferredMagnitudeID><description><text>Off Coast of Northern Chile</text><type>region name</type></description><originReference>de.gempa.tb1.Origin/20250412043314.60723.74410</originReference></event></EventParameters></seiscomp>