<?xml version="1.0" encoding="UTF-8"?>
<seiscomp xmlns="http://geofon.gfz-potsdam.de/ns/seiscomp3-schema/0.13" version="0.13"><EventParameters><pick publicID="de.gempa.tb1.Pick/20250412085635.526325.123108"><time><value>2025-04-12T08:56:26.27Z</value></time><waveformID networkCode="CX" stationCode="PB19" channelCode="HHZ"/><filterID>ITAPER(4)&gt;&gt;BW(4,4,20)</filterID><methodID>AIC</methodID><horizontalSlowness><value>17.717636975307347</value></horizontalSlowness><backazimuth><value>263.8863961673003</value></backazimuth><phaseHint>P</phaseHint><evaluationMode>automatic</evaluationMode><comment><text>37.29613835756709</text><id>DFX:rectilinearity</id></comment><comment><text>7.38832346101549</text><id>SNR</id></comment></pick><pick publicID="de.gempa.tb1.Pick/20250412085636.51051.123110"><time><value>2025-04-12T08:56:31.228393Z</value></time><waveformID networkCode="CX" stationCode="PB06" channelCode="HHZ"/><filterID>ITAPER(4)&gt;&gt;BW(4,4,20)</filterID><methodID>AIC</methodID><horizontalSlowness><value>5.391382535215409</value></horizontalSlowness><backazimuth><value>213.2588388635965</value></backazimuth><phaseHint>P</phaseHint><evaluationMode>automatic</evaluationMode><comment><text>36.9032396376102</text><id>DFX:rectilinearity</id></comment><comment><text>28.278923580586</text><id>SNR</id></comment></pick><pick publicID="de.gempa.tb1.Pick/20250412085643.564679.123112"><time><value>2025-04-12T08:56:36.218393Z</value></time><waveformID networkCode="CX" stationCode="PB03" channelCode="HHZ"/><filterID>ITAPER(4)&gt;&gt;BW(4,4,20)</filterID><methodID>AIC</methodID><horizontalSlowness><value>10.18807148663242</value></horizontalSlowness><backazimuth><value>124.39337051613448</value></backazimuth><phaseHint>P</phaseHint><evaluationMode>automatic</evaluationMode><comment><text>39.883132530308444</text><id>DFX:rectilinearity</id></comment><comment><text>40.22626739752026</text><id>SNR</id></comment></pick><pick publicID="de.gempa.tb1.Pick/20250412085649.015922.123114"><time><value>2025-04-12T08:56:34.67Z</value></time><waveformID networkCode="CX" stationCode="PB09" channelCode="HHZ"/><filterID>ITAPER(4)&gt;&gt;BW(4,4,20)</filterID><methodID>AIC</methodID><horizontalSlowness><value>14.230298416110688</value></horizontalSlowness><backazimuth><value>305.6487722755812</value></backazimuth><phaseHint>P</phaseHint><evaluationMode>automatic</evaluationMode><comment><text>9.96040713043038</text><id>DFX:rectilinearity</id></comment><comment><text>55.30562432219303</text><id>SNR</id></comment></pick><pick publicID="de.gempa.tb1.Pick/20250412085650.526655.123116"><time><value>2025-04-12T08:56:42.498393Z</value></time><waveformID networkCode="CX" stationCode="PB02" channelCode="HHZ"/><filterID>ITAPER(4)&gt;&gt;BW(4,4,20)</filterID><methodID>AIC</methodID><horizontalSlowness><value>2.573103222037876</value></horizontalSlowness><backazimuth><value>126.39468772171875</value></backazimuth><phaseHint>P</phaseHint><evaluationMode>automatic</evaluationMode><comment><text>23.629513093836557</text><id>DFX:rectilinearity</id></comment><comment><text>12.764768754026086</text><id>SNR</id></comment></pick><pick publicID="de.gempa.tb1.Pick/20250412085650.548147.123118"><time><value>2025-04-12T08:56:41.798393Z</value></time><waveformID networkCode="CX" stationCode="PB01" channelCode="HHZ"/><filterID>ITAPER(4)&gt;&gt;BW(4,4,20)</filterID><methodID>AIC</methodID><horizontalSlowness><value>21.94191964950786</value></horizontalSlowness><backazimuth><value>198.25409297881578</value></backazimuth><phaseHint>P</phaseHint><evaluationMode>automatic</evaluationMode><comment><text>26.076006054894236</text><id>DFX:rectilinearity</id></comment><comment><text>22.737921558138684</text><id>SNR</id></comment></pick><pick publicID="de.gempa.tb1.Pick/20250412085706.610351.123122"><time><value>2025-04-12T08:56:58.27Z</value></time><waveformID networkCode="CX" stationCode="PB19" channelCode="HHN"/><filterID>ITAPER(2)&gt;&gt;BW(3,3,20)</filterID><methodID>L2-AIC-GRID</methodID><horizontalSlowness><value>15.391862025716017</value></horizontalSlowness><backazimuth><value>105.48975622116885</value></backazimuth><phaseHint>S</phaseHint><evaluationMode>automatic</evaluationMode><comment><text>232.65551827964237</text><id>DFX:rectilinearity</id></comment><comment><text>de.gempa.tb1.Pick/20250412085635.526325.123108</text><id>RefPickID</id></comment><comment><text>13.36752000912013</text><id>SNR</id></comment></pick><origin publicID="de.gempa.tb1.Origin/20250412085706.613879.79414"><time><value>2025-04-12T08:55:44.568489Z</value><uncertainty>2.5313124656677246</uncertainty></time><latitude><value>-23.51845169067383</value><uncertainty>15.108431816101074</uncertainty></latitude><longitude><value>-66.61540985107422</value><uncertainty>16.40314483642578</uncertainty></longitude><depth><value>0</value></depth><depthType>operator assigned</depthType><methodID>LOCSAT</methodID><earthModelID>iasp91_scanloc</earthModelID><quality><associatedPhaseCount>7</associatedPhaseCount><usedPhaseCount>7</usedPhaseCount><associatedStationCount>6</associatedStationCount><usedStationCount>6</usedStationCount><depthPhaseCount>0</depthPhaseCount><standardError>0.7908677514404319</standardError><azimuthalGap>308.3017883300781</azimuthalGap><maximumDistance>3.7418341636657715</maximumDistance><minimumDistance>2.481977701187134</minimumDistance><medianDistance>2.9703991413116455</medianDistance></quality><uncertainty><minHorizontalUncertainty>14.266575813293457</minHorizontalUncertainty><maxHorizontalUncertainty>45.654296875</maxHorizontalUncertainty><azimuthMaxHorizontalUncertainty>132.13644409179688</azimuthMaxHorizontalUncertainty><preferredDescription>horizontal uncertainty</preferredDescription></uncertainty><evaluationMode>automatic</evaluationMode><evaluationStatus>confirmed</evaluationStatus><comment><text>0.13</text><id>mismatchScore</id></comment><comment><text>mismatchScore</text><id>scevalMethod</id></comment><arrival><pickID>de.gempa.tb1.Pick/20250412085635.526325.123108</pickID><phase>P</phase><azimuth>260.55316162109375</azimuth><distance>2.481977701187134</distance><timeResidual>0.024059295654296875</timeResidual><timeUsed>true</timeUsed><horizontalSlownessUsed>false</horizontalSlownessUsed><backazimuthUsed>false</backazimuthUsed><weight>1</weight></arrival><arrival><pickID>de.gempa.tb1.Pick/20250412085636.51051.123110</pickID><phase>P</phase><azimuth>285.96942138671875</azimuth><distance>2.839540481567383</distance><timeResidual>0.0599517822265625</timeResidual><timeUsed>true</timeUsed><horizontalSlownessUsed>false</horizontalSlownessUsed><backazimuthUsed>false</backazimuthUsed><weight>1</weight></arrival><arrival><pickID>de.gempa.tb1.Pick/20250412085643.564679.123112</pickID><phase>P</phase><azimuth>296.19427490234375</azimuth><distance>3.2442314624786377</distance><timeResidual>-0.5198936462402344</timeResidual><timeUsed>true</timeUsed><horizontalSlownessUsed>false</horizontalSlownessUsed><backazimuthUsed>false</backazimuthUsed><weight>1</weight></arrival><arrival><pickID>de.gempa.tb1.Pick/20250412085649.015922.123114</pickID><phase>P</phase><azimuth>304.7295227050781</azimuth><distance>2.9703991413116455</distance><timeResidual>1.699451446533203</timeResidual><timeUsed>true</timeUsed><horizontalSlownessUsed>false</horizontalSlownessUsed><backazimuthUsed>false</backazimuthUsed><weight>1</weight></arrival><arrival><pickID>de.gempa.tb1.Pick/20250412085650.526655.123116</pickID><phase>P</phase><azimuth>305.1549987792969</azimuth><distance>3.7418341636657715</distance><timeResidual>-1.0871429443359375</timeResidual><timeUsed>true</timeUsed><horizontalSlownessUsed>false</horizontalSlownessUsed><backazimuthUsed>false</backazimuthUsed><weight>1</weight></arrival><arrival><pickID>de.gempa.tb1.Pick/20250412085650.548147.123118</pickID><phase>P</phase><azimuth>312.2513732910156</azimuth><distance>3.6252660751342773</distance><timeResidual>-0.18378067016601562</timeResidual><timeUsed>true</timeUsed><horizontalSlownessUsed>false</horizontalSlownessUsed><backazimuthUsed>false</backazimuthUsed><weight>1</weight></arrival><arrival><pickID>de.gempa.tb1.Pick/20250412085706.610351.123122</pickID><phase>S</phase><azimuth>260.55316162109375</azimuth><distance>2.481977701187134</distance><timeResidual>0.007061004638671875</timeResidual><timeUsed>true</timeUsed><horizontalSlownessUsed>false</horizontalSlownessUsed><backazimuthUsed>false</backazimuthUsed><weight>1</weight></arrival><magnitude publicID="de.gempa.tb1.Magnitude/20250412085758.522648.201046"><magnitude><value>3.3125562787004754</value></magnitude><type>M</type><methodID>weighted average</methodID><stationCount>6</stationCount></magnitude></origin><event publicID="gempa2025hfgb"><preferredOriginID>de.gempa.tb1.Origin/20250412085706.613879.79414</preferredOriginID><preferredMagnitudeID>de.gempa.tb1.Magnitude/20250412085758.522648.201046</preferredMagnitudeID><description><text>Jujuy Province, Argentina</text><type>region name</type></description><originReference>de.gempa.tb1.Origin/20250412085706.613879.79414</originReference></event></EventParameters></seiscomp>