<?xml version="1.0" encoding="UTF-8"?>
<seiscomp xmlns="http://geofon.gfz-potsdam.de/ns/seiscomp3-schema/0.13" version="0.13"><EventParameters><pick publicID="de.gempa.tb1.Pick/20250412161219.697277.178351"><time><value>2025-04-12T16:12:09.71Z</value></time><waveformID networkCode="SX" stationCode="ROHR" channelCode="HHZ"/><filterID>ITAPER(2)&gt;&gt;BW(3,3,20)</filterID><methodID>AIC</methodID><horizontalSlowness><value>1.1008956757864199</value></horizontalSlowness><backazimuth><value>107.97050607924312</value></backazimuth><phaseHint>P</phaseHint><evaluationMode>automatic</evaluationMode><comment><text>10.585131434614354</text><id>DFX:rectilinearity</id></comment></pick><pick publicID="de.gempa.tb1.Pick/20250412161219.702023.178355"><time><value>2025-04-12T16:12:11.69Z</value></time><waveformID networkCode="SX" stationCode="TRIB" channelCode="HHZ"/><filterID>ITAPER(2)&gt;&gt;BW(3,3,20)</filterID><methodID>AIC</methodID><horizontalSlowness><value>7.42131122584362</value><uncertainty>2.7285645994582515</uncertainty></horizontalSlowness><backazimuth><value>228.17540055001024</value><uncertainty>21.186208901683521</uncertainty></backazimuth><phaseHint>P</phaseHint><evaluationMode>automatic</evaluationMode><comment><text>1.0595720385110279</text><id>DFX:rectilinearity</id></comment></pick><pick publicID="de.gempa.tb1.Pick/20250412161219.702351.178357"><time><value>2025-04-12T16:12:09.4675Z</value></time><waveformID networkCode="SX" stationCode="WERN" channelCode="HHZ"/><filterID>ITAPER(2)&gt;&gt;BW(3,3,20)</filterID><methodID>AIC</methodID><horizontalSlowness><value>23.279161853373985</value></horizontalSlowness><backazimuth><value>62.56175162211765</value></backazimuth><phaseHint>P</phaseHint><evaluationMode>automatic</evaluationMode><comment><text>33.554473733403803</text><id>DFX:rectilinearity</id></comment></pick><pick publicID="de.gempa.tb1.Pick/20250412161219.724151.178359"><time><value>2025-04-12T16:12:10.9575Z</value></time><waveformID networkCode="SX" stationCode="WERN" channelCode="HHN"/><filterID>ITAPER(3)&gt;&gt;BW(4,3,10)</filterID><methodID>L2-AIC-GRID</methodID><horizontalSlowness><value>23.328691379964983</value></horizontalSlowness><backazimuth><value>63.46323738324753</value></backazimuth><phaseHint>S</phaseHint><evaluationMode>automatic</evaluationMode><comment><text>30.982631789715686</text><id>DFX:rectilinearity</id></comment><comment><text>de.gempa.tb1.Pick/20250412161219.702351.178357</text><id>RefPickID</id></comment></pick><pick publicID="de.gempa.tb1.Pick/20250412161219.735308.178360"><time><value>2025-04-12T16:12:11.64Z</value></time><waveformID networkCode="SX" stationCode="WERD" channelCode="HHZ"/><filterID>ITAPER(2)&gt;&gt;BW(3,3,20)</filterID><methodID>AIC</methodID><horizontalSlowness><value>18.793282137778753</value></horizontalSlowness><backazimuth><value>224.8066640884356</value></backazimuth><phaseHint>P</phaseHint><evaluationMode>automatic</evaluationMode><comment><text>4.594382548220771</text><id>DFX:rectilinearity</id></comment></pick><pick publicID="de.gempa.tb1.Pick/20250412161220.838163.178364"><time><value>2025-04-12T16:12:10.73Z</value></time><waveformID networkCode="SX" stationCode="TANN" channelCode="HHZ"/><filterID>ITAPER(2)&gt;&gt;BW(3,3,20)</filterID><methodID>AIC</methodID><horizontalSlowness><value>22.243179362945302</value></horizontalSlowness><backazimuth><value>304.53006100081035</value></backazimuth><phaseHint>P</phaseHint><evaluationMode>automatic</evaluationMode><comment><text>2.447395807473719</text><id>DFX:rectilinearity</id></comment></pick><pick publicID="de.gempa.tb1.Pick/20250412161221.178148.178366"><time><value>2025-04-12T16:12:17.29Z</value></time><waveformID networkCode="BW" stationCode="ROTZ" channelCode="HHZ"/><filterID>ITAPER(2)&gt;&gt;BW(3,3,20)</filterID><methodID>AIC</methodID><horizontalSlowness><value>15.70195507566347</value><uncertainty>5.515359523349762</uncertainty></horizontalSlowness><backazimuth><value>223.2467358958882</value><uncertainty>20.23023976121085</uncertainty></backazimuth><phaseHint>P</phaseHint><evaluationMode>automatic</evaluationMode><comment><text>0.6879530891618273</text><id>DFX:rectilinearity</id></comment></pick><pick publicID="de.gempa.tb1.Pick/20250412161223.63838.178370"><time><value>2025-04-12T16:12:14.42Z</value></time><waveformID networkCode="SX" stationCode="WERD" channelCode="HHN"/><filterID>ITAPER(3)&gt;&gt;BW(4,3,10)</filterID><methodID>L2-AIC-GRID</methodID><horizontalSlowness><value>19.005236982016175</value></horizontalSlowness><backazimuth><value>222.08334889372418</value></backazimuth><phaseHint>S</phaseHint><evaluationMode>automatic</evaluationMode><comment><text>4.543746022307025</text><id>DFX:rectilinearity</id></comment><comment><text>de.gempa.tb1.Pick/20250412161219.735308.178360</text><id>RefPickID</id></comment></pick><pick publicID="de.gempa.tb1.Pick/20250412161223.860722.178371"><time><value>2025-04-12T16:12:13.07Z</value></time><waveformID networkCode="SX" stationCode="TANN" channelCode="HHN"/><filterID>ITAPER(3)&gt;&gt;BW(4,3,10)</filterID><methodID>L2-AIC-GRID</methodID><horizontalSlowness><value>22.126793985251012</value></horizontalSlowness><backazimuth><value>293.37090187389163</value></backazimuth><phaseHint>S</phaseHint><evaluationMode>automatic</evaluationMode><comment><text>2.77628396941216</text><id>DFX:rectilinearity</id></comment><comment><text>de.gempa.tb1.Pick/20250412161220.838163.178364</text><id>RefPickID</id></comment></pick><origin publicID="de.gempa.tb1.Origin/20250412161226.880862.112556"><time><value>2025-04-12T16:12:06.849603Z</value><uncertainty>0.723557710647583</uncertainty></time><latitude><value>50.26820373535156</value><uncertainty>3.97986102104187</uncertainty></latitude><longitude><value>12.487467765808105</value><uncertainty>5.609616279602051</uncertainty></longitude><depth><value>4.835534572601318</value><uncertainty>3.9691314697265625</uncertainty></depth><depthType>from location</depthType><methodID>LOCSAT</methodID><earthModelID>iasp91</earthModelID><quality><associatedPhaseCount>9</associatedPhaseCount><usedPhaseCount>9</usedPhaseCount><associatedStationCount>6</associatedStationCount><usedStationCount>6</usedStationCount><depthPhaseCount>0</depthPhaseCount><standardError>0.33328552408865714</standardError><azimuthalGap>206.50302124023438</azimuthalGap><maximumDistance>0.533495306968689</maximumDistance><minimumDistance>0.07399366796016693</minimumDistance><medianDistance>0.14795203506946564</medianDistance></quality><uncertainty><minHorizontalUncertainty>6.454562187194824</minHorizontalUncertainty><maxHorizontalUncertainty>13.261578559875488</maxHorizontalUncertainty><azimuthMaxHorizontalUncertainty>118.81218719482422</azimuthMaxHorizontalUncertainty><preferredDescription>horizontal uncertainty</preferredDescription></uncertainty><evaluationMode>automatic</evaluationMode><evaluationStatus>confirmed</evaluationStatus><comment><text>0.08</text><id>mismatchScore</id></comment><comment><text>mismatchScore</text><id>scevalMethod</id></comment><arrival><pickID>de.gempa.tb1.Pick/20250412161219.697277.178351</pickID><phase>P</phase><azimuth>252.6894989013672</azimuth><distance>0.11466605216264725</distance><timeResidual>-0.07898473739624023</timeResidual><timeUsed>true</timeUsed><horizontalSlownessUsed>false</horizontalSlownessUsed><backazimuthUsed>false</backazimuthUsed><weight>1</weight></arrival><arrival><pickID>de.gempa.tb1.Pick/20250412161219.702023.178355</pickID><phase>P</phase><azimuth>290.60845947265625</azimuth><distance>0.23986105620861053</distance><timeResidual>-0.39362406730651855</timeResidual><timeUsed>true</timeUsed><horizontalSlownessUsed>false</horizontalSlownessUsed><backazimuthUsed>false</backazimuthUsed><weight>1</weight></arrival><arrival><pickID>de.gempa.tb1.Pick/20250412161219.702351.178357</pickID><phase>P</phase><azimuth>285.0970764160156</azimuth><distance>0.07399366796016693</distance><timeResidual>0.4241800308227539</timeResidual><timeUsed>true</timeUsed><horizontalSlownessUsed>false</horizontalSlownessUsed><backazimuthUsed>false</backazimuthUsed><weight>1</weight></arrival><arrival><pickID>de.gempa.tb1.Pick/20250412161219.724151.178359</pickID><phase>S</phase><azimuth>285.0970764160156</azimuth><distance>0.07399366796016693</distance><timeResidual>0.3521437644958496</timeResidual><timeUsed>true</timeUsed><horizontalSlownessUsed>false</horizontalSlownessUsed><backazimuthUsed>false</backazimuthUsed><weight>1</weight></arrival><arrival><pickID>de.gempa.tb1.Pick/20250412161219.735308.178360</pickID><phase>P</phase><azimuth>327.3638000488281</azimuth><distance>0.21393638849258423</distance><timeResidual>0.031798362731933594</timeResidual><timeUsed>true</timeUsed><horizontalSlownessUsed>false</horizontalSlownessUsed><backazimuthUsed>false</backazimuthUsed><weight>1</weight></arrival><arrival><pickID>de.gempa.tb1.Pick/20250412161220.838163.178364</pickID><phase>P</phase><azimuth>353.42822265625</azimuth><distance>0.14795203506946564</distance><timeResidual>0.33125758171081543</timeResidual><timeUsed>true</timeUsed><horizontalSlownessUsed>false</horizontalSlownessUsed><backazimuthUsed>false</backazimuthUsed><weight>1</weight></arrival><arrival><pickID>de.gempa.tb1.Pick/20250412161221.178148.178366</pickID><phase>P</phase><azimuth>199.93124389648438</azimuth><distance>0.533495306968689</distance><timeResidual>-0.1773836612701416</timeResidual><timeUsed>true</timeUsed><horizontalSlownessUsed>false</horizontalSlownessUsed><backazimuthUsed>false</backazimuthUsed><weight>1</weight></arrival><arrival><pickID>de.gempa.tb1.Pick/20250412161223.63838.178370</pickID><phase>S</phase><azimuth>327.3638000488281</azimuth><distance>0.21393638849258423</distance><timeResidual>-0.613945722579956</timeResidual><timeUsed>true</timeUsed><horizontalSlownessUsed>false</horizontalSlownessUsed><backazimuthUsed>false</backazimuthUsed><weight>1</weight></arrival><arrival><pickID>de.gempa.tb1.Pick/20250412161223.860722.178371</pickID><phase>S</phase><azimuth>353.42822265625</azimuth><distance>0.14795203506946564</distance><timeResidual>0.12435317039489746</timeResidual><timeUsed>true</timeUsed><horizontalSlownessUsed>false</horizontalSlownessUsed><backazimuthUsed>false</backazimuthUsed><weight>1</weight></arrival><magnitude publicID="de.gempa.tb1.Magnitude/20250412161251.579046.251073"><magnitude><value>-0.02636301033233358</value></magnitude><type>M</type><methodID>weighted average</methodID><stationCount>6</stationCount></magnitude></origin><event publicID="gempa2025hfuq"><preferredOriginID>de.gempa.tb1.Origin/20250412161226.880862.112556</preferredOriginID><preferredMagnitudeID>de.gempa.tb1.Magnitude/20250412161251.579046.251073</preferredMagnitudeID><description><text>Germany</text><type>region name</type></description><originReference>de.gempa.tb1.Origin/20250412161226.880862.112556</originReference></event></EventParameters></seiscomp>