<?xml version="1.0" encoding="UTF-8"?>
<seiscomp xmlns="http://geofon.gfz-potsdam.de/ns/seiscomp3-schema/0.13" version="0.13"><EventParameters><pick publicID="de.gempa.tb1.Pick/20250414155845.904587.233576"><time><value>2025-04-14T15:58:42.82Z</value></time><waveformID networkCode="CH" stationCode="VANNI" channelCode="HHZ"/><filterID>ITAPER(4)&gt;&gt;BW(4,4,20)</filterID><methodID>AIC</methodID><phaseHint>P</phaseHint><evaluationMode>automatic</evaluationMode></pick><pick publicID="de.gempa.tb1.Pick/20250414155846.149268.233578"><time><value>2025-04-14T15:58:42.135Z</value></time><waveformID networkCode="CH" stationCode="WIMIS" channelCode="HHZ"/><filterID>ITAPER(4)&gt;&gt;BW(4,4,20)</filterID><methodID>AIC</methodID><phaseHint>P</phaseHint><evaluationMode>automatic</evaluationMode></pick><pick publicID="de.gempa.tb1.Pick/20250414155857.264945.233586"><time><value>2025-04-14T15:58:48.355Z</value></time><waveformID networkCode="CH" stationCode="WIMIS" channelCode="HHN"/><filterID>RMHP(1)&gt;&gt;ITAPER(2)&gt;&gt;BW(4,3,20)</filterID><methodID>L2-AIC-GRID</methodID><phaseHint>S</phaseHint><evaluationMode>automatic</evaluationMode><comment><text>de.gempa.tb1.Pick/20250414155846.149268.233578</text><id>RefPickID</id></comment></pick><pick publicID="de.gempa.tb1.Pick/20250414155858.154159.233587"><time><value>2025-04-14T15:58:49.145001Z</value></time><waveformID networkCode="CH" stationCode="DIX" channelCode="HHZ"/><filterID>ITAPER(4)&gt;&gt;BW(4,4,20)</filterID><methodID>AIC</methodID><phaseHint>P</phaseHint><evaluationMode>automatic</evaluationMode></pick><pick publicID="de.gempa.tb1.Pick/20250414155859.309429.233590"><time><value>2025-04-14T15:58:42.02Z</value></time><waveformID networkCode="CH" stationCode="EMBD" channelCode="HHZ"/><filterID>ITAPER(4)&gt;&gt;BW(4,4,20)</filterID><methodID>AIC</methodID><phaseHint>P</phaseHint><evaluationMode>automatic</evaluationMode></pick><origin publicID="de.gempa.tb1.Origin/20250414155859.313222.145061"><time><value>2025-04-14T15:58:32.422401Z</value><uncertainty>2.7131006717681885</uncertainty></time><latitude><value>46.55967712402344</value><uncertainty>10.513283729553223</uncertainty></latitude><longitude><value>8.336206436157227</value><uncertainty>13.287196159362793</uncertainty></longitude><depth><value>0</value></depth><depthType>operator assigned</depthType><methodID>LOCSAT</methodID><earthModelID>iasp91</earthModelID><quality><associatedPhaseCount>5</associatedPhaseCount><usedPhaseCount>5</usedPhaseCount><associatedStationCount>4</associatedStationCount><usedStationCount>4</usedStationCount><depthPhaseCount>0</depthPhaseCount><standardError>0.9082248313358217</standardError><azimuthalGap>303.2856750488281</azimuthalGap><maximumDistance>0.802394688129425</maximumDistance><minimumDistance>0.4894115030765533</minimumDistance><medianDistance>0.5019994974136353</medianDistance></quality><uncertainty><minHorizontalUncertainty>10.147993087768555</minHorizontalUncertainty><maxHorizontalUncertainty>34.898319244384766</maxHorizontalUncertainty><azimuthMaxHorizontalUncertainty>52.90527725219727</azimuthMaxHorizontalUncertainty><preferredDescription>horizontal uncertainty</preferredDescription></uncertainty><evaluationMode>automatic</evaluationMode><arrival><pickID>de.gempa.tb1.Pick/20250414155845.904587.233576</pickID><phase>P</phase><azimuth>235.92469787597656</azimuth><distance>0.6199184060096741</distance><timeResidual>-1.536219596862793</timeResidual><timeUsed>true</timeUsed><horizontalSlownessUsed>false</horizontalSlownessUsed><backazimuthUsed>false</backazimuthUsed><weight>1</weight></arrival><arrival><pickID>de.gempa.tb1.Pick/20250414155846.149268.233578</pickID><phase>P</phase><azimuth>282.35894775390625</azimuth><distance>0.5019994974136353</distance><timeResidual>0.02150440216064453</timeResidual><timeUsed>true</timeUsed><horizontalSlownessUsed>false</horizontalSlownessUsed><backazimuthUsed>false</backazimuthUsed><weight>1</weight></arrival><arrival><pickID>de.gempa.tb1.Pick/20250414155857.264945.233586</pickID><phase>S</phase><azimuth>282.35894775390625</azimuth><distance>0.5019994974136353</distance><timeResidual>0.05037307739257812</timeResidual><timeUsed>true</timeUsed><horizontalSlownessUsed>false</horizontalSlownessUsed><backazimuthUsed>false</backazimuthUsed><weight>1</weight></arrival><arrival><pickID>de.gempa.tb1.Pick/20250414155858.154159.233587</pickID><phase>P</phase><azimuth>233.6167297363281</azimuth><distance>0.802394688129425</distance><timeResidual>1.319223403930664</timeResidual><timeUsed>true</timeUsed><horizontalSlownessUsed>false</horizontalSlownessUsed><backazimuthUsed>false</backazimuthUsed><weight>1</weight></arrival><arrival><pickID>de.gempa.tb1.Pick/20250414155859.309429.233590</pickID><phase>P</phase><azimuth>225.6446228027344</azimuth><distance>0.4894115030765533</distance><timeResidual>0.14505481719970703</timeResidual><timeUsed>true</timeUsed><horizontalSlownessUsed>false</horizontalSlownessUsed><backazimuthUsed>false</backazimuthUsed><weight>1</weight></arrival><magnitude publicID="de.gempa.tb1.Magnitude/20250414155905.382053.510889"><magnitude><value>1.9358862573130542</value></magnitude><type>M</type><methodID>weighted average</methodID><stationCount>4</stationCount></magnitude></origin><event publicID="gempa2025hjmf"><preferredOriginID>de.gempa.tb1.Origin/20250414155859.313222.145061</preferredOriginID><preferredMagnitudeID>de.gempa.tb1.Magnitude/20250414155905.382053.510889</preferredMagnitudeID><typeCertainty>suspected</typeCertainty><description><text>Switzerland</text><type>region name</type></description><originReference>de.gempa.tb1.Origin/20250414155859.313222.145061</originReference></event></EventParameters></seiscomp>