<?xml version="1.0" encoding="UTF-8"?>
<seiscomp xmlns="http://geofon.gfz-potsdam.de/ns/seiscomp3-schema/0.13" version="0.13"><EventParameters><pick publicID="de.gempa.tb1.Pick/20250411194907.572938.119823"><time><value>2025-04-11T19:49:02.028393Z</value></time><waveformID networkCode="CX" stationCode="PB01" channelCode="HHZ"/><filterID>ITAPER(4)&gt;&gt;BW(4,4,20)</filterID><methodID>AIC</methodID><horizontalSlowness><value>2.2849083278377065</value></horizontalSlowness><backazimuth><value>198.92322165396914</value></backazimuth><phaseHint>P</phaseHint><evaluationMode>automatic</evaluationMode><comment><text>19.387248861377977</text><id>DFX:rectilinearity</id></comment><comment><text>48.10210353606499</text><id>SNR</id></comment></pick><pick publicID="de.gempa.tb1.Pick/20250411194909.503191.119825"><time><value>2025-04-11T19:49:05.018393Z</value></time><waveformID networkCode="CX" stationCode="PB02" channelCode="HHZ"/><filterID>ITAPER(4)&gt;&gt;BW(4,4,20)</filterID><methodID>AIC</methodID><horizontalSlowness><value>18.085264754687842</value></horizontalSlowness><backazimuth><value>357.59603526843063</value></backazimuth><phaseHint>P</phaseHint><evaluationMode>automatic</evaluationMode><comment><text>18.437050375092678</text><id>DFX:rectilinearity</id></comment><comment><text>28.56743274611466</text><id>SNR</id></comment></pick><pick publicID="de.gempa.tb1.Pick/20250411194909.587667.119827"><time><value>2025-04-11T19:48:58.8Z</value></time><waveformID networkCode="CX" stationCode="PB09" channelCode="HHZ"/><filterID>ITAPER(4)&gt;&gt;BW(4,4,20)</filterID><methodID>AIC</methodID><horizontalSlowness><value>22.097906601139655</value></horizontalSlowness><backazimuth><value>262.5275378543207</value></backazimuth><phaseHint>P</phaseHint><evaluationMode>automatic</evaluationMode><comment><text>9.391795695943461</text><id>DFX:rectilinearity</id></comment><comment><text>12.05153162838898</text><id>SNR</id></comment></pick><pick publicID="de.gempa.tb1.Pick/20250411194910.787322.119829"><time><value>2025-04-11T19:49:04.408389Z</value></time><waveformID networkCode="CX" stationCode="PB07" channelCode="HHZ"/><filterID>ITAPER(4)&gt;&gt;BW(4,4,20)</filterID><methodID>AIC</methodID><horizontalSlowness><value>21.60565270375272</value></horizontalSlowness><backazimuth><value>285.30360498990757</value></backazimuth><phaseHint>P</phaseHint><evaluationMode>automatic</evaluationMode><comment><text>120.17090609256988</text><id>DFX:rectilinearity</id></comment><comment><text>66.86020984576656</text><id>SNR</id></comment></pick><pick publicID="de.gempa.tb1.Pick/20250411194911.516328.119831"><time><value>2025-04-11T19:49:03.398394Z</value></time><waveformID networkCode="CX" stationCode="PB03" channelCode="HHZ"/><filterID>ITAPER(4)&gt;&gt;BW(4,4,20)</filterID><methodID>AIC</methodID><horizontalSlowness><value>15.12493971792531</value></horizontalSlowness><backazimuth><value>78.5353504738152</value></backazimuth><phaseHint>P</phaseHint><evaluationMode>automatic</evaluationMode><comment><text>6.544002383918759</text><id>DFX:rectilinearity</id></comment><comment><text>21.166266737693341</text><id>SNR</id></comment></pick><pick publicID="de.gempa.tb1.Pick/20250411194915.10509.119833"><time><value>2025-04-11T19:49:05.478393Z</value></time><waveformID networkCode="CX" stationCode="PB08" channelCode="HHZ"/><filterID>ITAPER(4)&gt;&gt;BW(4,4,20)</filterID><methodID>AIC</methodID><horizontalSlowness><value>17.899875632187726</value></horizontalSlowness><backazimuth><value>218.05460982596003</value></backazimuth><phaseHint>P</phaseHint><evaluationMode>automatic</evaluationMode><comment><text>14.759139187326843</text><id>DFX:rectilinearity</id></comment><comment><text>9.244532958839478</text><id>SNR</id></comment></pick><pick publicID="de.gempa.tb1.Pick/20250411194918.63411.119835"><time><value>2025-04-11T19:49:09.430001Z</value></time><waveformID networkCode="CX" stationCode="PATCX" channelCode="HHZ"/><filterID>ITAPER(4)&gt;&gt;BW(4,4,20)</filterID><methodID>AIC</methodID><horizontalSlowness><value>22.965191449270005</value></horizontalSlowness><backazimuth><value>218.75560778367532</value></backazimuth><phaseHint>P</phaseHint><evaluationMode>automatic</evaluationMode><comment><text>153.28791301037938</text><id>DFX:rectilinearity</id></comment><comment><text>13.84416134202499</text><id>SNR</id></comment></pick><pick publicID="de.gempa.tb1.Pick/20250411194922.615267.119837"><time><value>2025-04-11T19:49:15.6Z</value></time><waveformID networkCode="CX" stationCode="PSGCX" channelCode="HHZ"/><filterID>ITAPER(4)&gt;&gt;BW(4,4,20)</filterID><methodID>AIC</methodID><horizontalSlowness><value>21.293084531897183</value></horizontalSlowness><backazimuth><value>185.9356037157451</value></backazimuth><phaseHint>P</phaseHint><evaluationMode>automatic</evaluationMode><comment><text>26.527152707622047</text><id>DFX:rectilinearity</id></comment><comment><text>35.96918947662004</text><id>SNR</id></comment></pick><pick publicID="de.gempa.tb1.Pick/20250411194941.004419.119841"><time><value>2025-04-11T19:49:32.148393Z</value></time><waveformID networkCode="CX" stationCode="PB01" channelCode="HHN"/><filterID>ITAPER(2)&gt;&gt;BW(3,3,20)</filterID><methodID>L2-AIC-GRID</methodID><horizontalSlowness><value>21.325270744323266</value></horizontalSlowness><backazimuth><value>5.917716079865556</value></backazimuth><phaseHint>S</phaseHint><evaluationMode>automatic</evaluationMode><comment><text>566.4592880984003</text><id>DFX:rectilinearity</id></comment><comment><text>de.gempa.tb1.Pick/20250411194907.572938.119823</text><id>RefPickID</id></comment><comment><text>8.76011902597488</text><id>SNR</id></comment></pick><pick publicID="de.gempa.tb1.Pick/20250411194941.005484.119842"><time><value>2025-04-11T19:49:33.708394Z</value></time><waveformID networkCode="CX" stationCode="PB03" channelCode="HHN"/><filterID>ITAPER(2)&gt;&gt;BW(3,3,20)</filterID><methodID>L2-AIC-GRID</methodID><horizontalSlowness><value>19.207663378427458</value></horizontalSlowness><backazimuth><value>323.53972902750013</value></backazimuth><phaseHint>S</phaseHint><evaluationMode>automatic</evaluationMode><comment><text>40.72380510270707</text><id>DFX:rectilinearity</id></comment><comment><text>de.gempa.tb1.Pick/20250411194911.516328.119831</text><id>RefPickID</id></comment><comment><text>17.682692745379057</text><id>SNR</id></comment></pick><pick publicID="de.gempa.tb1.Pick/20250411194942.731208.119846"><time><value>2025-04-11T19:49:35.788389Z</value></time><waveformID networkCode="CX" stationCode="PB07" channelCode="HHN"/><filterID>ITAPER(2)&gt;&gt;BW(3,3,20)</filterID><methodID>L2-AIC-GRID</methodID><horizontalSlowness><value>22.10272537932084</value></horizontalSlowness><backazimuth><value>237.51508667499706</value></backazimuth><phaseHint>S</phaseHint><evaluationMode>automatic</evaluationMode><comment><text>2913.8717587320566</text><id>DFX:rectilinearity</id></comment><comment><text>de.gempa.tb1.Pick/20250411194910.787322.119829</text><id>RefPickID</id></comment><comment><text>11.072535663707786</text><id>SNR</id></comment></pick><pick publicID="de.gempa.tb1.Pick/20250411194943.615969.119847"><time><value>2025-04-11T19:49:36.628393Z</value></time><waveformID networkCode="CX" stationCode="PB02" channelCode="HHN"/><filterID>ITAPER(2)&gt;&gt;BW(3,3,20)</filterID><methodID>L2-AIC-GRID</methodID><horizontalSlowness><value>21.531489911273827</value></horizontalSlowness><backazimuth><value>29.272785524991065</value></backazimuth><phaseHint>S</phaseHint><evaluationMode>automatic</evaluationMode><comment><text>277.240004260181</text><id>DFX:rectilinearity</id></comment><comment><text>de.gempa.tb1.Pick/20250411194909.503191.119825</text><id>RefPickID</id></comment><comment><text>9.564809302040629</text><id>SNR</id></comment></pick><origin publicID="de.gempa.tb1.Origin/20250411194944.474036.64622"><time><value>2025-04-11T19:48:24.701325Z</value><uncertainty>1.0113362073898315</uncertainty></time><latitude><value>-21.751218795776367</value><uncertainty>9.347046852111816</uncertainty></latitude><longitude><value>-67.77023315429688</value><uncertainty>19.13835906982422</uncertainty></longitude><depth><value>218.14932250976562</value><uncertainty>18.889711380004883</uncertainty></depth><depthType>from location</depthType><methodID>LOCSAT</methodID><earthModelID>iasp91_scanloc</earthModelID><quality><associatedPhaseCount>12</associatedPhaseCount><usedPhaseCount>12</usedPhaseCount><associatedStationCount>8</associatedStationCount><usedStationCount>8</usedStationCount><depthPhaseCount>0</depthPhaseCount><standardError>0.29315470191695625</standardError><azimuthalGap>299.6591491699219</azimuthalGap><maximumDistance>3.073465347290039</maximumDistance><minimumDistance>1.3686798810958862</minimumDistance><medianDistance>1.9673980474472046</medianDistance></quality><uncertainty><minHorizontalUncertainty>19.850971221923828</minHorizontalUncertainty><maxHorizontalUncertainty>41.12540054321289</maxHorizontalUncertainty><azimuthMaxHorizontalUncertainty>94.3777084350586</azimuthMaxHorizontalUncertainty><preferredDescription>horizontal uncertainty</preferredDescription></uncertainty><evaluationMode>automatic</evaluationMode><evaluationStatus>confirmed</evaluationStatus><comment><text>0.10</text><id>mismatchScore</id></comment><comment><text>mismatchScore</text><id>scevalMethod</id></comment><arrival><pickID>de.gempa.tb1.Pick/20250411194907.572938.119823</pickID><phase>P</phase><azimuth>293.4483642578125</azimuth><distance>1.7484204769134521</distance><timeResidual>-0.23284912109375</timeResidual><timeUsed>true</timeUsed><horizontalSlownessUsed>false</horizontalSlownessUsed><backazimuthUsed>false</backazimuthUsed><weight>1</weight></arrival><arrival><pickID>de.gempa.tb1.Pick/20250411194909.503191.119825</pickID><phase>P</phase><azimuth>281.85101318359375</azimuth><distance>2.025191068649292</distance><timeResidual>0.12408065795898438</timeResidual><timeUsed>true</timeUsed><horizontalSlownessUsed>false</horizontalSlownessUsed><backazimuthUsed>false</backazimuthUsed><weight>1</weight></arrival><arrival><pickID>de.gempa.tb1.Pick/20250411194909.587667.119827</pickID><phase>P</phase><azimuth>267.8470764160156</azimuth><distance>1.3686798810958862</distance><timeResidual>-0.206298828125</timeResidual><timeUsed>true</timeUsed><horizontalSlownessUsed>false</horizontalSlownessUsed><backazimuthUsed>false</backazimuthUsed><weight>1</weight></arrival><arrival><pickID>de.gempa.tb1.Pick/20250411194910.787322.119829</pickID><phase>P</phase><azimuth>270.32177734375</azimuth><distance>1.9673980474472046</distance><timeResidual>0.08619308471679688</timeResidual><timeUsed>true</timeUsed><horizontalSlownessUsed>false</horizontalSlownessUsed><backazimuthUsed>false</backazimuthUsed><weight>1</weight></arrival><arrival><pickID>de.gempa.tb1.Pick/20250411194911.516328.119831</pickID><phase>P</phase><azimuth>260.50738525390625</azimuth><distance>1.8650777339935303</distance><timeResidual>0.06136322021484375</timeResidual><timeUsed>true</timeUsed><horizontalSlownessUsed>false</horizontalSlownessUsed><backazimuthUsed>false</backazimuthUsed><weight>1</weight></arrival><arrival><pickID>de.gempa.tb1.Pick/20250411194915.10509.119833</pickID><phase>P</phase><azimuth>320.8482360839844</azimuth><distance>2.0586152076721191</distance><timeResidual>0.23854827880859375</timeResidual><timeUsed>true</timeUsed><horizontalSlownessUsed>false</horizontalSlownessUsed><backazimuthUsed>false</backazimuthUsed><weight>1</weight></arrival><arrival><pickID>de.gempa.tb1.Pick/20250411194918.63411.119835</pickID><phase>P</phase><azimuth>292.1878356933594</azimuth><distance>2.4071953296661377</distance><timeResidual>0.6129379272460938</timeResidual><timeUsed>true</timeUsed><horizontalSlownessUsed>false</horizontalSlownessUsed><backazimuthUsed>false</backazimuthUsed><weight>1</weight></arrival><arrival><pickID>de.gempa.tb1.Pick/20250411194922.615267.119837</pickID><phase>P</phase><azimuth>313.7912292480469</azimuth><distance>3.073465347290039</distance><timeResidual>-0.6202621459960938</timeResidual><timeUsed>true</timeUsed><horizontalSlownessUsed>false</horizontalSlownessUsed><backazimuthUsed>false</backazimuthUsed><weight>1</weight></arrival><arrival><pickID>de.gempa.tb1.Pick/20250411194941.004419.119841</pickID><phase>S</phase><azimuth>293.4483642578125</azimuth><distance>1.7484204769134521</distance><timeResidual>0.16082000732421875</timeResidual><timeUsed>true</timeUsed><horizontalSlownessUsed>false</horizontalSlownessUsed><backazimuthUsed>false</backazimuthUsed><weight>1</weight></arrival><arrival><pickID>de.gempa.tb1.Pick/20250411194941.005484.119842</pickID><phase>S</phase><azimuth>260.50738525390625</azimuth><distance>1.8650777339935303</distance><timeResidual>-0.21623611450195312</timeResidual><timeUsed>true</timeUsed><horizontalSlownessUsed>false</horizontalSlownessUsed><backazimuthUsed>false</backazimuthUsed><weight>1</weight></arrival><arrival><pickID>de.gempa.tb1.Pick/20250411194942.731208.119846</pickID><phase>S</phase><azimuth>270.32177734375</azimuth><distance>1.9673980474472046</distance><timeResidual>0.09073257446289062</timeResidual><timeUsed>true</timeUsed><horizontalSlownessUsed>false</horizontalSlownessUsed><backazimuthUsed>false</backazimuthUsed><weight>1</weight></arrival><arrival><pickID>de.gempa.tb1.Pick/20250411194943.615969.119847</pickID><phase>S</phase><azimuth>281.85101318359375</azimuth><distance>2.025191068649292</distance><timeResidual>-0.09864425659179688</timeResidual><timeUsed>true</timeUsed><horizontalSlownessUsed>false</horizontalSlownessUsed><backazimuthUsed>false</backazimuthUsed><weight>1</weight></arrival><magnitude publicID="de.gempa.tb1.Magnitude/20250411195031.18185.137289"><magnitude><value>2.5227597676768077</value></magnitude><type>M</type><methodID>weighted average</methodID><stationCount>3</stationCount></magnitude></origin><event publicID="gempa2025hefv"><preferredOriginID>de.gempa.tb1.Origin/20250411194944.474036.64622</preferredOriginID><preferredMagnitudeID>de.gempa.tb1.Magnitude/20250411195031.18185.137289</preferredMagnitudeID><description><text>Chile-Bolivia Border Region</text><type>region name</type></description><originReference>de.gempa.tb1.Origin/20250411194944.474036.64622</originReference></event></EventParameters></seiscomp>