<?xml version="1.0" encoding="UTF-8"?>
<seiscomp xmlns="http://geofon.gfz-potsdam.de/ns/seiscomp3-schema/0.13" version="0.13"><EventParameters><pick publicID="de.gempa.tb1.Pick/20250413191154.60224.133326"><time><value>2025-04-13T19:11:49.418393Z</value></time><waveformID networkCode="CX" stationCode="PB01" channelCode="HHZ"/><filterID>ITAPER(4)&gt;&gt;BW(4,4,20)</filterID><methodID>AIC</methodID><horizontalSlowness><value>17.320031971819233</value></horizontalSlowness><backazimuth><value>83.97055578768224</value></backazimuth><phaseHint>P</phaseHint><evaluationMode>automatic</evaluationMode><comment><text>2181.2782194234255</text><id>DFX:rectilinearity</id></comment><comment><text>53.25927845589838</text><id>SNR</id></comment></pick><pick publicID="de.gempa.tb1.Pick/20250413191159.765239.133328"><time><value>2025-04-13T19:11:53.53Z</value></time><waveformID networkCode="CX" stationCode="PB09" channelCode="HHZ"/><filterID>ITAPER(4)&gt;&gt;BW(4,4,20)</filterID><methodID>AIC</methodID><horizontalSlowness><value>13.407423351428665</value></horizontalSlowness><backazimuth><value>12.3117151587754</value></backazimuth><phaseHint>P</phaseHint><evaluationMode>automatic</evaluationMode><comment><text>1665.5996190900566</text><id>DFX:rectilinearity</id></comment><comment><text>87.21655826005255</text><id>SNR</id></comment></pick><pick publicID="de.gempa.tb1.Pick/20250413191201.671025.133330"><time><value>2025-04-13T19:11:54.118393Z</value></time><waveformID networkCode="CX" stationCode="PB08" channelCode="HHZ"/><filterID>ITAPER(4)&gt;&gt;BW(4,4,20)</filterID><methodID>AIC</methodID><horizontalSlowness><value>17.222974350041813</value></horizontalSlowness><backazimuth><value>207.40362021502312</value></backazimuth><phaseHint>P</phaseHint><evaluationMode>automatic</evaluationMode><comment><text>349.91217073124136</text><id>DFX:rectilinearity</id></comment><comment><text>10.259142999482114</text><id>SNR</id></comment></pick><pick publicID="de.gempa.tb1.Pick/20250413191204.466212.133332"><time><value>2025-04-13T19:11:57.248393Z</value></time><waveformID networkCode="CX" stationCode="PB02" channelCode="HHZ"/><filterID>ITAPER(4)&gt;&gt;BW(4,4,20)</filterID><methodID>AIC</methodID><horizontalSlowness><value>13.02610856371248</value></horizontalSlowness><backazimuth><value>55.57824989567007</value></backazimuth><phaseHint>P</phaseHint><evaluationMode>automatic</evaluationMode><comment><text>13663.946290951075</text><id>DFX:rectilinearity</id></comment><comment><text>120.86688573039076</text><id>SNR</id></comment></pick><pick publicID="de.gempa.tb1.Pick/20250413191207.217584.133334"><time><value>2025-04-13T19:12:00.719999Z</value></time><waveformID networkCode="CX" stationCode="PATCX" channelCode="HHZ"/><filterID>ITAPER(4)&gt;&gt;BW(4,4,20)</filterID><methodID>AIC</methodID><horizontalSlowness><value>11.608085685695654</value></horizontalSlowness><backazimuth><value>144.44891672154228</value></backazimuth><phaseHint>P</phaseHint><evaluationMode>automatic</evaluationMode><comment><text>2181.8381702333431</text><id>DFX:rectilinearity</id></comment><comment><text>28.95470022744233</text><id>SNR</id></comment></pick><pick publicID="de.gempa.tb1.Pick/20250413191207.541588.133336"><time><value>2025-04-13T19:12:02.408393Z</value></time><waveformID networkCode="CX" stationCode="PB03" channelCode="HHZ"/><filterID>ITAPER(4)&gt;&gt;BW(4,4,20)</filterID><methodID>AIC</methodID><horizontalSlowness><value>12.625887714386952</value></horizontalSlowness><backazimuth><value>45.02471148131909</value></backazimuth><phaseHint>P</phaseHint><evaluationMode>automatic</evaluationMode><comment><text>1079.3071755849253</text><id>DFX:rectilinearity</id></comment><comment><text>57.24770503094647</text><id>SNR</id></comment></pick><pick publicID="de.gempa.tb1.Pick/20250413191210.386967.133338"><time><value>2025-04-13T19:12:00.248391Z</value></time><waveformID networkCode="CX" stationCode="PB07" channelCode="HHZ"/><filterID>ITAPER(4)&gt;&gt;BW(4,4,20)</filterID><methodID>AIC</methodID><horizontalSlowness><value>18.463433402934452</value></horizontalSlowness><backazimuth><value>92.91939795609902</value></backazimuth><phaseHint>P</phaseHint><evaluationMode>automatic</evaluationMode><comment><text>10438.210554157758</text><id>DFX:rectilinearity</id></comment><comment><text>65.8189003919353</text><id>SNR</id></comment></pick><pick publicID="de.gempa.tb1.Pick/20250413191216.643682.133340"><time><value>2025-04-13T19:12:10.918393Z</value></time><waveformID networkCode="CX" stationCode="PB06" channelCode="HHZ"/><filterID>ITAPER(4)&gt;&gt;BW(4,4,20)</filterID><methodID>AIC</methodID><horizontalSlowness><value>12.47318560175902</value></horizontalSlowness><backazimuth><value>46.77201746499233</value></backazimuth><phaseHint>P</phaseHint><evaluationMode>automatic</evaluationMode><comment><text>1774.4915365040245</text><id>DFX:rectilinearity</id></comment><comment><text>26.53409578378516</text><id>SNR</id></comment></pick><pick publicID="de.gempa.tb1.Pick/20250413191217.588367.133342"><time><value>2025-04-13T19:12:10.08Z</value></time><waveformID networkCode="CX" stationCode="PSGCX" channelCode="HHZ"/><filterID>ITAPER(4)&gt;&gt;BW(4,4,20)</filterID><methodID>AIC</methodID><horizontalSlowness><value>14.311417065719414</value></horizontalSlowness><backazimuth><value>119.1516263230675</value></backazimuth><phaseHint>P</phaseHint><evaluationMode>automatic</evaluationMode><comment><text>2252.225719151362</text><id>DFX:rectilinearity</id></comment><comment><text>127.5246388573057</text><id>SNR</id></comment></pick><pick publicID="de.gempa.tb1.Pick/20250413191227.229849.133345"><time><value>2025-04-13T19:12:18.708393Z</value></time><waveformID networkCode="CX" stationCode="PB15" channelCode="HHZ"/><filterID>ITAPER(4)&gt;&gt;BW(4,4,20)</filterID><methodID>AIC</methodID><horizontalSlowness><value>17.294276217087074</value></horizontalSlowness><backazimuth><value>98.41861444192048</value></backazimuth><phaseHint>P</phaseHint><evaluationMode>automatic</evaluationMode><comment><text>69760.1489328564</text><id>DFX:rectilinearity</id></comment><comment><text>36.378224287952854</text><id>SNR</id></comment></pick><origin publicID="de.gempa.tb1.Origin/20250413191227.635252.117845"><time><value>2025-04-13T19:11:38.006041Z</value><uncertainty>0.6944513916969299</uncertainty></time><latitude><value>-20.980009078979492</value><uncertainty>3.0820627212524414</uncertainty></latitude><longitude><value>-68.90154266357422</value><uncertainty>5.968193054199219</uncertainty></longitude><depth><value>0</value></depth><depthType>operator assigned</depthType><methodID>LOCSAT</methodID><earthModelID>iasp91_scanloc</earthModelID><quality><associatedPhaseCount>10</associatedPhaseCount><usedPhaseCount>10</usedPhaseCount><associatedStationCount>10</associatedStationCount><usedStationCount>10</usedStationCount><depthPhaseCount>0</depthPhaseCount><standardError>0.8419548105015219</standardError><azimuthalGap>209.1214141845703</azimuthalGap><maximumDistance>2.2795920372009277</maximumDistance><minimumDistance>0.5509710311889648</minimumDistance><medianDistance>1.18086838722229</medianDistance></quality><uncertainty><minHorizontalUncertainty>6.593268394470215</minHorizontalUncertainty><maxHorizontalUncertainty>12.8093900680542</maxHorizontalUncertainty><azimuthMaxHorizontalUncertainty>87.51815795898438</azimuthMaxHorizontalUncertainty><preferredDescription>horizontal uncertainty</preferredDescription></uncertainty><evaluationMode>automatic</evaluationMode><evaluationStatus>confirmed</evaluationStatus><comment><text>0.01</text><id>mismatchScore</id></comment><comment><text>mismatchScore</text><id>scevalMethod</id></comment><arrival><pickID>de.gempa.tb1.Pick/20250413191154.60224.133326</pickID><phase>P</phase><azimuth>263.3397521972656</azimuth><distance>0.5509710311889648</distance><timeResidual>0.843907356262207</timeResidual><timeUsed>true</timeUsed><horizontalSlownessUsed>false</horizontalSlownessUsed><backazimuthUsed>false</backazimuthUsed><weight>1</weight></arrival><arrival><pickID>de.gempa.tb1.Pick/20250413191159.765239.133328</pickID><phase>P</phase><azimuth>201.26895141601562</azimuth><distance>0.8720846772193909</distance><timeResidual>-1.203023910522461</timeResidual><timeUsed>true</timeUsed><horizontalSlownessUsed>false</horizontalSlownessUsed><backazimuthUsed>false</backazimuthUsed><weight>1</weight></arrival><arrival><pickID>de.gempa.tb1.Pick/20250413191201.671025.133330</pickID><phase>P</phase><azimuth>344.1670227050781</azimuth><distance>0.8673703074455261</distance><timeResidual>-0.5261125564575195</timeResidual><timeUsed>true</timeUsed><horizontalSlownessUsed>false</horizontalSlownessUsed><backazimuthUsed>false</backazimuthUsed><weight>1</weight></arrival><arrival><pickID>de.gempa.tb1.Pick/20250413191204.466212.133332</pickID><phase>P</phase><azimuth>249.8133850097656</azimuth><distance>0.9879299998283386</distance><timeResidual>0.2927837371826172</timeResidual><timeUsed>true</timeUsed><horizontalSlownessUsed>false</horizontalSlownessUsed><backazimuthUsed>false</backazimuthUsed><weight>1</weight></arrival><arrival><pickID>de.gempa.tb1.Pick/20250413191207.217584.133334</pickID><phase>P</phase><azimuth>277.49285888671875</azimuth><distance>1.180678129196167</distance><timeResidual>0.06670093536376953</timeResidual><timeUsed>true</timeUsed><horizontalSlownessUsed>false</horizontalSlownessUsed><backazimuthUsed>false</backazimuthUsed><weight>1</weight></arrival><arrival><pickID>de.gempa.tb1.Pick/20250413191207.541588.133336</pickID><phase>P</phase><azimuth>216.56085205078125</azimuth><distance>1.3263286352157593</distance><timeResidual>-1.0265178680419922</timeResidual><timeUsed>true</timeUsed><horizontalSlownessUsed>false</horizontalSlownessUsed><backazimuthUsed>false</backazimuthUsed><weight>1</weight></arrival><arrival><pickID>de.gempa.tb1.Pick/20250413191210.386967.133338</pickID><phase>P</phase><azimuth>230.83349609375</azimuth><distance>1.18086838722229</distance><timeResidual>-0.4075126647949219</timeResidual><timeUsed>true</timeUsed><horizontalSlownessUsed>false</horizontalSlownessUsed><backazimuthUsed>false</backazimuthUsed><weight>1</weight></arrival><arrival><pickID>de.gempa.tb1.Pick/20250413191216.643682.133340</pickID><phase>P</phase><azimuth>199.80905151367188</azimuth><distance>1.8268320560455322</distance><timeResidual>0.2497844696044922</timeResidual><timeUsed>true</timeUsed><horizontalSlownessUsed>false</horizontalSlownessUsed><backazimuthUsed>false</backazimuthUsed><weight>1</weight></arrival><arrival><pickID>de.gempa.tb1.Pick/20250413191217.588367.133342</pickID><phase>P</phase><azimuth>319.9784851074219</azimuth><distance>1.7909454107284546</distance><timeResidual>-0.09823989868164062</timeResidual><timeUsed>true</timeUsed><horizontalSlownessUsed>false</horizontalSlownessUsed><backazimuthUsed>false</backazimuthUsed><weight>1</weight></arrival><arrival><pickID>de.gempa.tb1.Pick/20250413191227.229849.133345</pickID><phase>P</phase><azimuth>193.28843688964844</azimuth><distance>2.2795920372009277</distance><timeResidual>1.8084850311279297</timeResidual><timeUsed>true</timeUsed><horizontalSlownessUsed>false</horizontalSlownessUsed><backazimuthUsed>false</backazimuthUsed><weight>1</weight></arrival><magnitude publicID="de.gempa.tb1.Magnitude/20250413191227.64064.392736"><magnitude><value>2.6952866924341667</value></magnitude><type>M</type><methodID>weighted average</methodID><stationCount>8</stationCount></magnitude></origin><event publicID="gempa2025hhwq"><preferredOriginID>de.gempa.tb1.Origin/20250413191227.635252.117845</preferredOriginID><preferredMagnitudeID>de.gempa.tb1.Magnitude/20250413191227.64064.392736</preferredMagnitudeID><description><text>Chile-Bolivia Border Region</text><type>region name</type></description><originReference>de.gempa.tb1.Origin/20250413191227.635252.117845</originReference></event></EventParameters></seiscomp>