<?xml version="1.0" encoding="UTF-8"?>
<seiscomp xmlns="http://geofon.gfz-potsdam.de/ns/seiscomp3-schema/0.13" version="0.13"><EventParameters><pick publicID="de.gempa.tb1.Pick/20250412210542.569075.126791"><time><value>2025-04-12T21:05:37.538394Z</value></time><waveformID networkCode="CX" stationCode="PB06" channelCode="HHZ"/><filterID>ITAPER(4)&gt;&gt;BW(4,4,20)</filterID><methodID>AIC</methodID><horizontalSlowness><value>3.3776745412617557</value></horizontalSlowness><backazimuth><value>239.6461581275605</value></backazimuth><phaseHint>P</phaseHint><evaluationMode>automatic</evaluationMode><comment><text>910.8999644776335</text><id>DFX:rectilinearity</id></comment><comment><text>20.704666209401093</text><id>SNR</id></comment></pick><pick publicID="de.gempa.tb1.Pick/20250412210550.684901.126793"><time><value>2025-04-12T21:05:43.298393Z</value></time><waveformID networkCode="CX" stationCode="PB03" channelCode="HHZ"/><filterID>ITAPER(4)&gt;&gt;BW(4,4,20)</filterID><methodID>AIC</methodID><horizontalSlowness><value>14.734212813710037</value></horizontalSlowness><backazimuth><value>196.63628825963755</value></backazimuth><phaseHint>P</phaseHint><evaluationMode>automatic</evaluationMode><comment><text>2462.497923333534</text><id>DFX:rectilinearity</id></comment><comment><text>8.398309676235465</text><id>SNR</id></comment></pick><pick publicID="de.gempa.tb1.Pick/20250412210550.69701.126795"><time><value>2025-04-12T21:05:45.378393Z</value></time><waveformID networkCode="CX" stationCode="PB15" channelCode="HHZ"/><filterID>ITAPER(4)&gt;&gt;BW(4,4,20)</filterID><methodID>AIC</methodID><horizontalSlowness><value>20.241775808062986</value></horizontalSlowness><backazimuth><value>25.47448973957259</value></backazimuth><phaseHint>P</phaseHint><evaluationMode>automatic</evaluationMode><comment><text>24888.19850787764</text><id>DFX:rectilinearity</id></comment><comment><text>14.234942062718643</text><id>SNR</id></comment></pick><pick publicID="de.gempa.tb1.Pick/20250412210559.179241.126800"><time><value>2025-04-12T21:05:51.08Z</value></time><waveformID networkCode="CX" stationCode="PB10" channelCode="HHZ"/><filterID>ITAPER(4)&gt;&gt;BW(4,4,20)</filterID><methodID>AIC</methodID><horizontalSlowness><value>11.97654511916316</value></horizontalSlowness><backazimuth><value>60.60897502486205</value></backazimuth><phaseHint>P</phaseHint><evaluationMode>automatic</evaluationMode><comment><text>188.41787709076522</text><id>DFX:rectilinearity</id></comment><comment><text>16.06862918798852</text><id>SNR</id></comment></pick><pick publicID="de.gempa.tb1.Pick/20250412210559.56066.126802"><time><value>2025-04-12T21:05:51.36Z</value></time><waveformID networkCode="CX" stationCode="PB09" channelCode="HHZ"/><filterID>ITAPER(4)&gt;&gt;BW(4,4,20)</filterID><methodID>AIC</methodID><horizontalSlowness><value>21.017422502026655</value></horizontalSlowness><backazimuth><value>149.5906140073337</value></backazimuth><phaseHint>P</phaseHint><evaluationMode>automatic</evaluationMode><comment><text>286.99292339754237</text><id>DFX:rectilinearity</id></comment><comment><text>15.138512709802876</text><id>SNR</id></comment></pick><pick publicID="de.gempa.tb1.Pick/20250412210603.646783.126804"><time><value>2025-04-12T21:05:57.53Z</value></time><waveformID networkCode="CX" stationCode="PB19" channelCode="HHZ"/><filterID>ITAPER(4)&gt;&gt;BW(4,4,20)</filterID><methodID>AIC</methodID><horizontalSlowness><value>23.329421184126165</value></horizontalSlowness><backazimuth><value>167.79118254580376</value></backazimuth><phaseHint>P</phaseHint><evaluationMode>automatic</evaluationMode><comment><text>72.01366447812997</text><id>DFX:rectilinearity</id></comment><comment><text>13.965090995253473</text><id>SNR</id></comment></pick><origin publicID="de.gempa.tb1.Origin/20250412210604.628678.92412"><time><value>2025-04-12T21:05:31.292142Z</value><uncertainty>0.5567081570625305</uncertainty></time><latitude><value>-22.63821220397949</value><uncertainty>3.5159008502960205</uncertainty></latitude><longitude><value>-69.93476867675781</value><uncertainty>5.259300708770752</uncertainty></longitude><depth><value>3.6187915802001953</value><uncertainty>9.239585876464844</uncertainty></depth><depthType>from location</depthType><methodID>LOCSAT</methodID><earthModelID>iasp91_scanloc</earthModelID><quality><associatedPhaseCount>6</associatedPhaseCount><usedPhaseCount>6</usedPhaseCount><associatedStationCount>6</associatedStationCount><usedStationCount>6</usedStationCount><depthPhaseCount>0</depthPhaseCount><standardError>0.2777950018192143</standardError><azimuthalGap>162.93228721618652</azimuthalGap><maximumDistance>1.3929239511489868</maximumDistance><minimumDistance>0.3418658971786499</minimumDistance><medianDistance>1.041235089302063</medianDistance></quality><uncertainty><minHorizontalUncertainty>7.076430797576904</minHorizontalUncertainty><maxHorizontalUncertainty>11.575861930847168</maxHorizontalUncertainty><azimuthMaxHorizontalUncertainty>106.51274871826172</azimuthMaxHorizontalUncertainty><preferredDescription>horizontal uncertainty</preferredDescription></uncertainty><evaluationMode>automatic</evaluationMode><evaluationStatus>confirmed</evaluationStatus><comment><text>0.09</text><id>mismatchScore</id></comment><comment><text>mismatchScore</text><id>scevalMethod</id></comment><arrival><pickID>de.gempa.tb1.Pick/20250412210542.569075.126791</pickID><phase>P</phase><azimuth>101.41744232177734</azimuth><distance>0.3418658971786499</distance><timeResidual>-0.3399062156677246</timeResidual><timeUsed>true</timeUsed><horizontalSlownessUsed>false</horizontalSlownessUsed><backazimuthUsed>false</backazimuthUsed><weight>1</weight></arrival><arrival><pickID>de.gempa.tb1.Pick/20250412210550.684901.126793</pickID><phase>P</phase><azimuth>16.02498435974121</azimuth><distance>0.6105502247810364</distance><timeResidual>0.2801051139831543</timeResidual><timeUsed>true</timeUsed><horizontalSlownessUsed>false</horizontalSlownessUsed><backazimuthUsed>false</backazimuthUsed><weight>1</weight></arrival><arrival><pickID>de.gempa.tb1.Pick/20250412210550.69701.126795</pickID><phase>P</phase><azimuth>143.08668518066406</azimuth><distance>0.7105568647384644</distance><timeResidual>0.44643354415893555</timeResidual><timeUsed>true</timeUsed><horizontalSlownessUsed>false</horizontalSlownessUsed><backazimuthUsed>false</backazimuthUsed><weight>1</weight></arrival><arrival><pickID>de.gempa.tb1.Pick/20250412210559.179241.126800</pickID><phase>P</phase><azimuth>213.0926971435547</azimuth><distance>1.041235089302063</distance><timeResidual>-0.1884598731994629</timeResidual><timeUsed>true</timeUsed><horizontalSlownessUsed>false</horizontalSlownessUsed><backazimuthUsed>false</backazimuthUsed><weight>1</weight></arrival><arrival><pickID>de.gempa.tb1.Pick/20250412210559.56066.126802</pickID><phase>P</phase><azimuth>37.59456253051758</azimuth><distance>1.0555007457733154</distance><timeResidual>-0.18443632125854492</timeResidual><timeUsed>true</timeUsed><horizontalSlownessUsed>false</horizontalSlownessUsed><backazimuthUsed>false</backazimuthUsed><weight>1</weight></arrival><arrival><pickID>de.gempa.tb1.Pick/20250412210603.646783.126804</pickID><phase>P</phase><azimuth>154.9598846435547</azimuth><distance>1.3929239511489868</distance><timeResidual>-0.013728618621826172</timeResidual><timeUsed>true</timeUsed><horizontalSlownessUsed>false</horizontalSlownessUsed><backazimuthUsed>false</backazimuthUsed><weight>1</weight></arrival><magnitude publicID="de.gempa.tb1.Magnitude/20250412210644.024944.283448"><magnitude><value>2.3892361879587263</value></magnitude><type>M</type><methodID>weighted average</methodID><stationCount>6</stationCount></magnitude></origin><event publicID="gempa2025hgel"><preferredOriginID>de.gempa.tb1.Origin/20250412210604.628678.92412</preferredOriginID><preferredMagnitudeID>de.gempa.tb1.Magnitude/20250412210644.024944.283448</preferredMagnitudeID><description><text>Northern Chile</text><type>region name</type></description><originReference>de.gempa.tb1.Origin/20250412210604.628678.92412</originReference></event></EventParameters></seiscomp>