<?xml version="1.0" encoding="UTF-8"?>
<seiscomp xmlns="http://geofon.gfz-potsdam.de/ns/seiscomp3-schema/0.13" version="0.13"><EventParameters><pick publicID="de.gempa.tb1.Pick/20250412195215.881516.187693"><time><value>2025-04-12T19:52:09.82Z</value></time><waveformID networkCode="SX" stationCode="TRIB" channelCode="HHZ"/><filterID>ITAPER(2)&gt;&gt;BW(3,3,20)</filterID><methodID>AIC</methodID><horizontalSlowness><value>23.20837990683286</value></horizontalSlowness><backazimuth><value>330.48393470355</value></backazimuth><phaseHint>P</phaseHint><evaluationMode>automatic</evaluationMode><comment><text>1.2662698118435083</text><id>DFX:rectilinearity</id></comment></pick><pick publicID="de.gempa.tb1.Pick/20250412195215.990816.187695"><time><value>2025-04-12T19:52:09.45Z</value></time><waveformID networkCode="SX" stationCode="ROHR" channelCode="HHZ"/><filterID>ITAPER(2)&gt;&gt;BW(3,3,20)</filterID><methodID>AIC</methodID><horizontalSlowness><value>0.8107048160922626</value></horizontalSlowness><backazimuth><value>166.43806426883157</value></backazimuth><phaseHint>P</phaseHint><evaluationMode>automatic</evaluationMode><comment><text>15.783830416166033</text><id>DFX:rectilinearity</id></comment></pick><pick publicID="de.gempa.tb1.Pick/20250412195216.354487.187697"><time><value>2025-04-12T19:52:08.86Z</value></time><waveformID networkCode="SX" stationCode="MULD" channelCode="HHZ"/><filterID>ITAPER(2)&gt;&gt;BW(3,3,20)</filterID><methodID>AIC</methodID><horizontalSlowness><value>23.434991662805974</value></horizontalSlowness><backazimuth><value>332.02219136030885</value></backazimuth><phaseHint>P</phaseHint><evaluationMode>automatic</evaluationMode><comment><text>1.5931850311713458</text><id>DFX:rectilinearity</id></comment></pick><pick publicID="de.gempa.tb1.Pick/20250412195216.854644.187699"><time><value>2025-04-12T19:52:08.84Z</value></time><waveformID networkCode="SX" stationCode="TANN" channelCode="HHZ"/><filterID>ITAPER(2)&gt;&gt;BW(3,3,20)</filterID><methodID>AIC</methodID><horizontalSlowness><value>17.050995261939956</value></horizontalSlowness><backazimuth><value>297.1159233786256</value></backazimuth><phaseHint>P</phaseHint><evaluationMode>automatic</evaluationMode><comment><text>2.0159846409375657</text><id>DFX:rectilinearity</id></comment></pick><pick publicID="de.gempa.tb1.Pick/20250412195217.212629.187703"><time><value>2025-04-12T19:52:11.87Z</value></time><waveformID networkCode="SX" stationCode="LEUT" channelCode="HHZ"/><filterID>ITAPER(2)&gt;&gt;BW(3,3,20)</filterID><methodID>AIC</methodID><horizontalSlowness><value>21.782294471994106</value></horizontalSlowness><backazimuth><value>77.45524559611812</value></backazimuth><phaseHint>P</phaseHint><evaluationMode>automatic</evaluationMode><comment><text>2.5409589433940085</text><id>DFX:rectilinearity</id></comment></pick><pick publicID="de.gempa.tb1.Pick/20250412195217.47742.187705"><time><value>2025-04-12T19:52:07.5875Z</value></time><waveformID networkCode="SX" stationCode="WERN" channelCode="HHZ"/><filterID>ITAPER(2)&gt;&gt;BW(3,3,20)</filterID><methodID>AIC</methodID><horizontalSlowness><value>23.37114243262631</value></horizontalSlowness><backazimuth><value>73.09214933168421</value></backazimuth><phaseHint>P</phaseHint><evaluationMode>automatic</evaluationMode><comment><text>23.74526529645971</text><id>DFX:rectilinearity</id></comment></pick><pick publicID="de.gempa.tb1.Pick/20250412195223.459432.187720"><time><value>2025-04-12T19:52:12.49Z</value></time><waveformID networkCode="SX" stationCode="TRIB" channelCode="HHN"/><filterID>ITAPER(3)&gt;&gt;BW(4,3,10)</filterID><methodID>L2-AIC-GRID</methodID><horizontalSlowness><value>20.641979457648205</value></horizontalSlowness><backazimuth><value>239.03778239599103</value></backazimuth><phaseHint>S</phaseHint><evaluationMode>automatic</evaluationMode><comment><text>1.286873711845401</text><id>DFX:rectilinearity</id></comment><comment><text>de.gempa.tb1.Pick/20250412195215.881516.187693</text><id>RefPickID</id></comment></pick><origin publicID="de.gempa.tb1.Origin/20250412195224.016058.117958"><time><value>2025-04-12T19:52:06.2138Z</value><uncertainty>0.9509075880050659</uncertainty></time><latitude><value>50.33587646484375</value><uncertainty>3.2652084827423096</uncertainty></latitude><longitude><value>12.379913330078125</value><uncertainty>5.399100780487061</uncertainty></longitude><depth><value>4.703114986419678</value><uncertainty>6.669744491577148</uncertainty></depth><depthType>from location</depthType><methodID>LOCSAT</methodID><earthModelID>iasp91</earthModelID><quality><associatedPhaseCount>7</associatedPhaseCount><usedPhaseCount>7</usedPhaseCount><associatedStationCount>6</associatedStationCount><usedStationCount>6</usedStationCount><depthPhaseCount>0</depthPhaseCount><standardError>0.3004777301166972</standardError><azimuthalGap>149.67705535888672</azimuthalGap><maximumDistance>0.28665658831596375</maximumDistance><minimumDistance>0.04859773442149162</minimumDistance><medianDistance>0.10969315469264984</medianDistance></quality><uncertainty><minHorizontalUncertainty>5.984513282775879</minHorizontalUncertainty><maxHorizontalUncertainty>12.135950088500977</maxHorizontalUncertainty><azimuthMaxHorizontalUncertainty>110.14297485351562</azimuthMaxHorizontalUncertainty><preferredDescription>horizontal uncertainty</preferredDescription></uncertainty><evaluationMode>automatic</evaluationMode><evaluationStatus>confirmed</evaluationStatus><comment><text>0.33</text><id>mismatchScore</id></comment><comment><text>mismatchScore</text><id>scevalMethod</id></comment><arrival><pickID>de.gempa.tb1.Pick/20250412195215.881516.187693</pickID><phase>P</phase><azimuth>276.015380859375</azimuth><distance>0.1564735472202301</distance><timeResidual>-0.08341348171234131</timeResidual><timeUsed>true</timeUsed><horizontalSlownessUsed>false</horizontalSlownessUsed><backazimuthUsed>false</backazimuthUsed><weight>1</weight></arrival><arrival><pickID>de.gempa.tb1.Pick/20250412195215.990816.187695</pickID><phase>P</phase><azimuth>201.61199951171875</azimuth><distance>0.10969315469264984</distance><timeResidual>0.40470898151397705</timeResidual><timeUsed>true</timeUsed><horizontalSlownessUsed>false</horizontalSlownessUsed><backazimuthUsed>false</backazimuthUsed><weight>1</weight></arrival><arrival><pickID>de.gempa.tb1.Pick/20250412195216.354487.187697</pickID><phase>P</phase><azimuth>11.41347312927246</azimuth><distance>0.07755354046821594</distance><timeResidual>0.4048265218734741</timeResidual><timeUsed>true</timeUsed><horizontalSlownessUsed>false</horizontalSlownessUsed><backazimuthUsed>false</backazimuthUsed><weight>1</weight></arrival><arrival><pickID>de.gempa.tb1.Pick/20250412195216.854644.187699</pickID><phase>P</phase><azimuth>33.20844268798828</azimuth><distance>0.09471934288740158</distance><timeResidual>0.06985628604888916</timeResidual><timeUsed>true</timeUsed><horizontalSlownessUsed>false</horizontalSlownessUsed><backazimuthUsed>false</backazimuthUsed><weight>1</weight></arrival><arrival><pickID>de.gempa.tb1.Pick/20250412195217.212629.187703</pickID><phase>P</phase><azimuth>18.557340621948242</azimuth><distance>0.28665658831596375</distance><timeResidual>-0.42160403728485107</timeResidual><timeUsed>true</timeUsed><horizontalSlownessUsed>false</horizontalSlownessUsed><backazimuthUsed>false</backazimuthUsed><weight>1</weight></arrival><arrival><pickID>de.gempa.tb1.Pick/20250412195217.47742.187705</pickID><phase>P</phase><azimuth>182.885498046875</azimuth><distance>0.04859773442149162</distance><timeResidual>-0.33662962913513184</timeResidual><timeUsed>true</timeUsed><horizontalSlownessUsed>false</horizontalSlownessUsed><backazimuthUsed>false</backazimuthUsed><weight>1</weight></arrival><arrival><pickID>de.gempa.tb1.Pick/20250412195223.459432.187720</pickID><phase>S</phase><azimuth>276.015380859375</azimuth><distance>0.1564735472202301</distance><timeResidual>-0.03777587413787842</timeResidual><timeUsed>true</timeUsed><horizontalSlownessUsed>false</horizontalSlownessUsed><backazimuthUsed>false</backazimuthUsed><weight>1</weight></arrival><magnitude publicID="de.gempa.tb1.Magnitude/20250412195244.461593.272087"><magnitude><value>0.15050506700118255</value></magnitude><type>M</type><methodID>weighted average</methodID><stationCount>6</stationCount></magnitude></origin><event publicID="gempa2025hgbz"><preferredOriginID>de.gempa.tb1.Origin/20250412195224.016058.117958</preferredOriginID><preferredMagnitudeID>de.gempa.tb1.Magnitude/20250412195244.461593.272087</preferredMagnitudeID><description><text>Germany</text><type>region name</type></description><originReference>de.gempa.tb1.Origin/20250412195224.016058.117958</originReference></event></EventParameters></seiscomp>