<?xml version="1.0" encoding="UTF-8"?>
<seiscomp xmlns="http://geofon.gfz-potsdam.de/ns/seiscomp3-schema/0.13" version="0.13"><EventParameters><pick publicID="de.gempa.tb1.Pick/20250414114623.387142.258183"><time><value>2025-04-14T11:46:18.54Z</value></time><waveformID networkCode="TH" stationCode="CHRS" channelCode="HHZ"/><filterID>ITAPER(2)&gt;&gt;BW(3,3,20)</filterID><methodID>AIC</methodID><horizontalSlowness><value>16.920117913635565</value></horizontalSlowness><backazimuth><value>322.93966691090554</value></backazimuth><phaseHint>P</phaseHint><evaluationMode>automatic</evaluationMode><comment><text>111.54871449864646</text><id>DFX:rectilinearity</id></comment></pick><pick publicID="de.gempa.tb1.Pick/20250414114624.159938.258185"><time><value>2025-04-14T11:46:21.48Z</value></time><waveformID networkCode="TH" stationCode="MUEN" channelCode="HHZ"/><filterID>ITAPER(2)&gt;&gt;BW(3,3,20)</filterID><methodID>AIC</methodID><horizontalSlowness><value>23.483695798620253</value></horizontalSlowness><backazimuth><value>354.7794638184806</value></backazimuth><phaseHint>P</phaseHint><evaluationMode>automatic</evaluationMode><comment><text>447.4106154380355</text><id>DFX:rectilinearity</id></comment></pick><pick publicID="de.gempa.tb1.Pick/20250414114625.406674.258187"><time><value>2025-04-14T11:46:24.05Z</value></time><waveformID networkCode="TH" stationCode="MEHR" channelCode="HHZ"/><filterID>ITAPER(2)&gt;&gt;BW(3,3,20)</filterID><methodID>AIC</methodID><horizontalSlowness><value>14.2508053270225</value></horizontalSlowness><backazimuth><value>52.14733755814876</value></backazimuth><phaseHint>P</phaseHint><evaluationMode>automatic</evaluationMode><comment><text>313.17418050235534</text><id>DFX:rectilinearity</id></comment></pick><pick publicID="de.gempa.tb1.Pick/20250414114625.938426.258189"><time><value>2025-04-14T11:46:24.465Z</value></time><waveformID networkCode="TH" stationCode="GLEI" channelCode="HHZ"/><filterID>ITAPER(2)&gt;&gt;BW(3,3,20)</filterID><methodID>AIC</methodID><horizontalSlowness><value>11.80482289065283</value></horizontalSlowness><backazimuth><value>139.30561159763948</value></backazimuth><phaseHint>P</phaseHint><evaluationMode>automatic</evaluationMode><comment><text>791.6164941288871</text><id>DFX:rectilinearity</id></comment></pick><pick publicID="de.gempa.tb1.Pick/20250414114626.188961.258191"><time><value>2025-04-14T11:46:23.635Z</value></time><waveformID networkCode="TH" stationCode="MENTE" channelCode="HHZ"/><filterID>ITAPER(2)&gt;&gt;BW(3,3,20)</filterID><methodID>AIC</methodID><horizontalSlowness><value>18.057833378433376</value></horizontalSlowness><backazimuth><value>312.06720809175886</value></backazimuth><phaseHint>P</phaseHint><evaluationMode>automatic</evaluationMode><comment><text>531.7388771098393</text><id>DFX:rectilinearity</id></comment></pick><pick publicID="de.gempa.tb1.Pick/20250414114626.902078.258194"><time><value>2025-04-14T11:46:24.44Z</value></time><waveformID networkCode="TH" stationCode="LUHNE" channelCode="HHZ"/><filterID>ITAPER(2)&gt;&gt;BW(3,3,20)</filterID><methodID>AIC</methodID><horizontalSlowness><value>14.015456909688318</value></horizontalSlowness><backazimuth><value>1.66609913796799</value></backazimuth><phaseHint>P</phaseHint><evaluationMode>automatic</evaluationMode><comment><text>637.3920229976543</text><id>DFX:rectilinearity</id></comment></pick><pick publicID="de.gempa.tb1.Pick/20250414114628.041149.258197"><time><value>2025-04-14T11:46:19.075Z</value></time><waveformID networkCode="TH" stationCode="SONN" channelCode="HHZ"/><filterID>ITAPER(2)&gt;&gt;BW(3,3,20)</filterID><methodID>AIC</methodID><horizontalSlowness><value>22.2579196872669</value></horizontalSlowness><backazimuth><value>249.61479138522674</value></backazimuth><phaseHint>P</phaseHint><evaluationMode>automatic</evaluationMode><comment><text>1072.6109879506207</text><id>DFX:rectilinearity</id></comment></pick><pick publicID="de.gempa.tb1.Pick/20250414114630.889138.258202"><time><value>2025-04-14T11:46:19.334999Z</value></time><waveformID networkCode="TH" stationCode="NEUST" channelCode="HHZ"/><filterID>ITAPER(2)&gt;&gt;BW(3,3,20)</filterID><methodID>AIC</methodID><horizontalSlowness><value>14.838226583899013</value></horizontalSlowness><backazimuth><value>305.912918300696</value></backazimuth><phaseHint>P</phaseHint><evaluationMode>automatic</evaluationMode><comment><text>7.84519215214234</text><id>DFX:rectilinearity</id></comment></pick><pick publicID="de.gempa.tb1.Pick/20250414114631.254556.258204"><time><value>2025-04-14T11:46:23.635Z</value></time><waveformID networkCode="TH" stationCode="POSS" channelCode="HHZ"/><filterID>ITAPER(2)&gt;&gt;BW(3,3,20)</filterID><methodID>AIC</methodID><horizontalSlowness><value>5.00312678918028</value></horizontalSlowness><backazimuth><value>315.1643447933444</value></backazimuth><phaseHint>P</phaseHint><evaluationMode>automatic</evaluationMode><comment><text>215.55322954848586</text><id>DFX:rectilinearity</id></comment></pick><pick publicID="de.gempa.tb1.Pick/20250414114632.759101.258210"><time><value>2025-04-14T11:46:24.07Z</value></time><waveformID networkCode="TH" stationCode="SONN" channelCode="HHN"/><filterID>ITAPER(3)&gt;&gt;BW(4,3,10)</filterID><methodID>L2-AIC-GRID</methodID><horizontalSlowness><value>23.273789204785544</value></horizontalSlowness><backazimuth><value>273.0817328443229</value></backazimuth><phaseHint>S</phaseHint><evaluationMode>automatic</evaluationMode><comment><text>76209.36039699515</text><id>DFX:rectilinearity</id></comment><comment><text>de.gempa.tb1.Pick/20250414114628.041149.258197</text><id>RefPickID</id></comment></pick><pick publicID="de.gempa.tb1.Pick/20250414114637.358354.258213"><time><value>2025-04-14T11:46:32.78Z</value></time><waveformID networkCode="TH" stationCode="GLEI" channelCode="HHN"/><filterID>ITAPER(3)&gt;&gt;BW(4,3,10)</filterID><methodID>L2-AIC-GRID</methodID><horizontalSlowness><value>22.69328705349992</value></horizontalSlowness><backazimuth><value>320.95586587621</value></backazimuth><phaseHint>S</phaseHint><evaluationMode>automatic</evaluationMode><comment><text>35714.812711208055</text><id>DFX:rectilinearity</id></comment><comment><text>de.gempa.tb1.Pick/20250414114625.938426.258189</text><id>RefPickID</id></comment></pick><pick publicID="de.gempa.tb1.Pick/20250414114637.797221.258215"><time><value>2025-04-14T11:46:33.93Z</value></time><waveformID networkCode="SX" stationCode="LANDS" channelCode="HHZ"/><filterID>ITAPER(2)&gt;&gt;BW(3,3,20)</filterID><methodID>AIC</methodID><horizontalSlowness><value>16.29424091366925</value></horizontalSlowness><backazimuth><value>306.95768486507183</value></backazimuth><phaseHint>P</phaseHint><evaluationMode>automatic</evaluationMode><comment><text>7.882628640004109</text><id>DFX:rectilinearity</id></comment></pick><origin publicID="de.gempa.tb1.Origin/20250414114641.998773.232118"><time><value>2025-04-14T11:46:12.362446Z</value><uncertainty>1.5465096235275269</uncertainty></time><latitude><value>51.89012908935547</value><uncertainty>8.100395202636719</uncertainty></latitude><longitude><value>10.516670227050781</value><uncertainty>7.340967178344727</uncertainty></longitude><depth><value>0</value></depth><depthType>operator assigned</depthType><methodID>LOCSAT</methodID><earthModelID>iasp91</earthModelID><quality><associatedPhaseCount>12</associatedPhaseCount><usedPhaseCount>12</usedPhaseCount><associatedStationCount>10</associatedStationCount><usedStationCount>10</usedStationCount><depthPhaseCount>0</depthPhaseCount><standardError>0.38861291284944643</standardError><azimuthalGap>270.9045715332031</azimuthalGap><maximumDistance>1.087347149848938</maximumDistance><minimumDistance>0.33761125802993774</minimumDistance><medianDistance>0.5994669795036316</medianDistance></quality><uncertainty><minHorizontalUncertainty>7.16012191772461</minHorizontalUncertainty><maxHorizontalUncertainty>22.317697525024414</maxHorizontalUncertainty><azimuthMaxHorizontalUncertainty>138.46461486816406</azimuthMaxHorizontalUncertainty><preferredDescription>horizontal uncertainty</preferredDescription></uncertainty><evaluationMode>automatic</evaluationMode><evaluationStatus>confirmed</evaluationStatus><comment><text>0.04</text><id>mismatchScore</id></comment><comment><text>mismatchScore</text><id>scevalMethod</id></comment><arrival><pickID>de.gempa.tb1.Pick/20250414114623.387142.258183</pickID><phase>P</phase><azimuth>146.10391235351562</azimuth><distance>0.33761125802993774</distance><timeResidual>-0.3870863914489746</timeResidual><timeUsed>true</timeUsed><horizontalSlownessUsed>false</horizontalSlownessUsed><backazimuthUsed>false</backazimuthUsed><weight>1</weight></arrival><arrival><pickID>de.gempa.tb1.Pick/20250414114624.159938.258185</pickID><phase>P</phase><azimuth>168.62295532226562</azimuth><distance>0.4779579043388367</distance><timeResidual>-0.1150527000427246</timeResidual><timeUsed>true</timeUsed><horizontalSlownessUsed>false</horizontalSlownessUsed><backazimuthUsed>false</backazimuthUsed><weight>1</weight></arrival><arrival><pickID>de.gempa.tb1.Pick/20250414114625.406674.258187</pickID><phase>P</phase><azimuth>171.64556884765625</azimuth><distance>0.6141781806945801</distance><timeResidual>-0.13450145721435547</timeResidual><timeUsed>true</timeUsed><horizontalSlownessUsed>false</horizontalSlownessUsed><backazimuthUsed>false</backazimuthUsed><weight>1</weight></arrival><arrival><pickID>de.gempa.tb1.Pick/20250414114625.938426.258189</pickID><phase>P</phase><azimuth>198.04559326171875</azimuth><distance>0.6292639374732971</distance><timeResidual>-0.006229400634765625</timeResidual><timeUsed>true</timeUsed><horizontalSlownessUsed>false</horizontalSlownessUsed><backazimuthUsed>false</backazimuthUsed><weight>1</weight></arrival><arrival><pickID>de.gempa.tb1.Pick/20250414114626.188961.258191</pickID><phase>P</phase><azimuth>176.06124877929688</azimuth><distance>0.5767926573753357</distance><timeResidual>0.16116046905517578</timeResidual><timeUsed>true</timeUsed><horizontalSlownessUsed>false</horizontalSlownessUsed><backazimuthUsed>false</backazimuthUsed><weight>1</weight></arrival><arrival><pickID>de.gempa.tb1.Pick/20250414114626.902078.258194</pickID><phase>P</phase><azimuth>185.48143005371094</azimuth><distance>0.6401332020759583</distance><timeResidual>-0.23789310455322266</timeResidual><timeUsed>true</timeUsed><horizontalSlownessUsed>false</horizontalSlownessUsed><backazimuthUsed>false</backazimuthUsed><weight>1</weight></arrival><arrival><pickID>de.gempa.tb1.Pick/20250414114628.041149.258197</pickID><phase>P</phase><azimuth>188.98097229003906</azimuth><distance>0.36284369230270386</distance><timeResidual>-0.33182525634765625</timeResidual><timeUsed>true</timeUsed><horizontalSlownessUsed>false</horizontalSlownessUsed><backazimuthUsed>false</backazimuthUsed><weight>1</weight></arrival><arrival><pickID>de.gempa.tb1.Pick/20250414114630.889138.258202</pickID><phase>P</phase><azimuth>145.1743621826172</azimuth><distance>0.3798464238643646</distance><timeResidual>-0.394927978515625</timeResidual><timeUsed>true</timeUsed><horizontalSlownessUsed>false</horizontalSlownessUsed><backazimuthUsed>false</backazimuthUsed><weight>1</weight></arrival><arrival><pickID>de.gempa.tb1.Pick/20250414114631.254556.258204</pickID><phase>P</phase><azimuth>158.50680541992188</azimuth><distance>0.5994669795036316</distance><timeResidual>-0.2697935104370117</timeResidual><timeUsed>true</timeUsed><horizontalSlownessUsed>false</horizontalSlownessUsed><backazimuthUsed>false</backazimuthUsed><weight>1</weight></arrival><arrival><pickID>de.gempa.tb1.Pick/20250414114632.759101.258210</pickID><phase>S</phase><azimuth>188.98097229003906</azimuth><distance>0.36284369230270386</distance><timeResidual>0.42803287506103516</timeResidual><timeUsed>true</timeUsed><horizontalSlownessUsed>false</horizontalSlownessUsed><backazimuthUsed>false</backazimuthUsed><weight>1</weight></arrival><arrival><pickID>de.gempa.tb1.Pick/20250414114637.358354.258213</pickID><phase>S</phase><azimuth>198.04559326171875</azimuth><distance>0.6292639374732971</distance><timeResidual>0.3303251266479492</timeResidual><timeUsed>true</timeUsed><horizontalSlownessUsed>false</horizontalSlownessUsed><backazimuthUsed>false</backazimuthUsed><weight>1</weight></arrival><arrival><pickID>de.gempa.tb1.Pick/20250414114637.797221.258215</pickID><phase>P</phase><azimuth>108.95016479492188</azimuth><distance>1.087347149848938</distance><timeResidual>0.9577474594116211</timeResidual><timeUsed>true</timeUsed><horizontalSlownessUsed>false</horizontalSlownessUsed><backazimuthUsed>false</backazimuthUsed><weight>1</weight></arrival><magnitude publicID="de.gempa.tb1.Magnitude/20250414114644.578163.481803"><magnitude><value>1.9915359297570336</value></magnitude><type>M</type><methodID>weighted average</methodID><stationCount>8</stationCount></magnitude></origin><event publicID="gempa2025hjdu"><preferredOriginID>de.gempa.tb1.Origin/20250414114641.998773.232118</preferredOriginID><preferredMagnitudeID>de.gempa.tb1.Magnitude/20250414114644.578163.481803</preferredMagnitudeID><description><text>Germany</text><type>region name</type></description><originReference>de.gempa.tb1.Origin/20250414114641.998773.232118</originReference></event></EventParameters></seiscomp>