<?xml version="1.0" encoding="UTF-8"?>
<seiscomp xmlns="http://geofon.gfz-potsdam.de/ns/seiscomp3-schema/0.13" version="0.13"><EventParameters><pick publicID="de.gempa.tb1.Pick/20250414065550.488111.136381"><time><value>2025-04-14T06:55:46.228393Z</value></time><waveformID networkCode="CX" stationCode="PB02" channelCode="HHZ"/><filterID>ITAPER(4)&gt;&gt;BW(4,4,20)</filterID><methodID>AIC</methodID><horizontalSlowness><value>2.783785301744065</value></horizontalSlowness><backazimuth><value>203.09662330219965</value></backazimuth><phaseHint>P</phaseHint><evaluationMode>automatic</evaluationMode><comment><text>122.85823092990684</text><id>DFX:rectilinearity</id></comment><comment><text>298.3663126850534</text><id>SNR</id></comment></pick><pick publicID="de.gempa.tb1.Pick/20250414065556.526828.136383"><time><value>2025-04-14T06:55:51.118393Z</value></time><waveformID networkCode="CX" stationCode="PB02" channelCode="HHN"/><filterID>ITAPER(2)&gt;&gt;BW(3,3,20)</filterID><methodID>L2-AIC-GRID</methodID><horizontalSlowness><value>17.976707910649392</value></horizontalSlowness><backazimuth><value>21.046336181652833</value></backazimuth><phaseHint>S</phaseHint><evaluationMode>automatic</evaluationMode><comment><text>13338.489698444993</text><id>DFX:rectilinearity</id></comment><comment><text>de.gempa.tb1.Pick/20250414065550.488111.136381</text><id>RefPickID</id></comment><comment><text>12.41293735463656</text><id>SNR</id></comment></pick><pick publicID="de.gempa.tb1.Pick/20250414065557.785899.136384"><time><value>2025-04-14T06:55:50.488393Z</value></time><waveformID networkCode="CX" stationCode="PB01" channelCode="HHZ"/><filterID>ITAPER(4)&gt;&gt;BW(4,4,20)</filterID><methodID>AIC</methodID><horizontalSlowness><value>12.133729828499748</value></horizontalSlowness><backazimuth><value>235.16979100498537</value></backazimuth><phaseHint>P</phaseHint><evaluationMode>automatic</evaluationMode><comment><text>37.112202213625537</text><id>DFX:rectilinearity</id></comment><comment><text>88.9543506795741</text><id>SNR</id></comment></pick><pick publicID="de.gempa.tb1.Pick/20250414065557.786445.136386"><time><value>2025-04-14T06:55:52.248394Z</value></time><waveformID networkCode="CX" stationCode="PB03" channelCode="HHZ"/><filterID>ITAPER(4)&gt;&gt;BW(4,4,20)</filterID><methodID>AIC</methodID><horizontalSlowness><value>12.091136811430179</value></horizontalSlowness><backazimuth><value>330.3764317628651</value></backazimuth><phaseHint>P</phaseHint><evaluationMode>automatic</evaluationMode><comment><text>22.91411088165768</text><id>DFX:rectilinearity</id></comment><comment><text>96.05382144962118</text><id>SNR</id></comment></pick><pick publicID="de.gempa.tb1.Pick/20250414065558.974814.136388"><time><value>2025-04-14T06:55:47.958394Z</value></time><waveformID networkCode="CX" stationCode="PB07" channelCode="HHZ"/><filterID>ITAPER(4)&gt;&gt;BW(4,4,20)</filterID><methodID>AIC</methodID><horizontalSlowness><value>21.430197762907792</value></horizontalSlowness><backazimuth><value>249.5250427366587</value></backazimuth><phaseHint>P</phaseHint><evaluationMode>automatic</evaluationMode><comment><text>459.7180069544856</text><id>DFX:rectilinearity</id></comment><comment><text>125.40925496330836</text><id>SNR</id></comment></pick><pick publicID="de.gempa.tb1.Pick/20250414065600.278011.136390"><time><value>2025-04-14T06:55:51.439999Z</value></time><waveformID networkCode="CX" stationCode="PATCX" channelCode="HHZ"/><filterID>ITAPER(4)&gt;&gt;BW(4,4,20)</filterID><methodID>AIC</methodID><horizontalSlowness><value>22.25301451847298</value></horizontalSlowness><backazimuth><value>6.006240474926187</value></backazimuth><phaseHint>P</phaseHint><evaluationMode>automatic</evaluationMode><comment><text>169.38996713523008</text><id>DFX:rectilinearity</id></comment><comment><text>11.648045896263223</text><id>SNR</id></comment></pick><pick publicID="de.gempa.tb1.Pick/20250414065604.939361.136392"><time><value>2025-04-14T06:55:53.77Z</value></time><waveformID networkCode="CX" stationCode="PB09" channelCode="HHZ"/><filterID>ITAPER(4)&gt;&gt;BW(4,4,20)</filterID><methodID>AIC</methodID><horizontalSlowness><value>19.093613777059883</value></horizontalSlowness><backazimuth><value>294.42634428337635</value></backazimuth><phaseHint>P</phaseHint><evaluationMode>automatic</evaluationMode><comment><text>12.831626287317448</text><id>DFX:rectilinearity</id></comment><comment><text>85.51135842068575</text><id>SNR</id></comment></pick><origin publicID="de.gempa.tb1.Origin/20250414065605.361445.130830"><time><value>2025-04-14T06:55:39.181182Z</value><uncertainty>0.7038193345069885</uncertainty></time><latitude><value>-21.393854141235352</value><uncertainty>4.779422283172607</uncertainty></latitude><longitude><value>-69.94187927246094</value><uncertainty>8.787616729736328</uncertainty></longitude><depth><value>42.708309173583984</value><uncertainty>6.027958869934082</uncertainty></depth><depthType>from location</depthType><methodID>LOCSAT</methodID><earthModelID>iasp91_scanloc</earthModelID><quality><associatedPhaseCount>7</associatedPhaseCount><usedPhaseCount>7</usedPhaseCount><associatedStationCount>6</associatedStationCount><usedStationCount>6</usedStationCount><depthPhaseCount>0</depthPhaseCount><standardError>0.13625245922736676</standardError><azimuthalGap>169.79234313964844</azimuthalGap><maximumDistance>0.7647114396095276</maximumDistance><minimumDistance>0.08524706214666367</minimumDistance><medianDistance>0.5491205453872681</medianDistance></quality><uncertainty><minHorizontalUncertainty>9.8702392578125</minHorizontalUncertainty><maxHorizontalUncertainty>19.04617691040039</maxHorizontalUncertainty><azimuthMaxHorizontalUncertainty>80.23811340332031</azimuthMaxHorizontalUncertainty><preferredDescription>horizontal uncertainty</preferredDescription></uncertainty><evaluationMode>automatic</evaluationMode><evaluationStatus>confirmed</evaluationStatus><comment><text>0.00</text><id>mismatchScore</id></comment><comment><text>mismatchScore</text><id>scevalMethod</id></comment><arrival><pickID>de.gempa.tb1.Pick/20250414065550.488111.136381</pickID><phase>P</phase><azimuth>30.100156784057617</azimuth><distance>0.08524706214666367</distance><timeResidual>0.16134214401245117</timeResidual><timeUsed>true</timeUsed><horizontalSlownessUsed>false</horizontalSlownessUsed><backazimuthUsed>false</backazimuthUsed><weight>1</weight></arrival><arrival><pickID>de.gempa.tb1.Pick/20250414065556.526828.136383</pickID><phase>S</phase><azimuth>30.100156784057617</azimuth><distance>0.08524706214666367</distance><timeResidual>-0.036421775817871094</timeResidual><timeUsed>true</timeUsed><horizontalSlownessUsed>false</horizontalSlownessUsed><backazimuthUsed>false</backazimuthUsed><weight>1</weight></arrival><arrival><pickID>de.gempa.tb1.Pick/20250414065557.785899.136384</pickID><phase>P</phase><azimuth>50.63568496704102</azimuth><distance>0.5491205453872681</distance><timeResidual>-0.19336509704589844</timeResidual><timeUsed>true</timeUsed><horizontalSlownessUsed>false</horizontalSlownessUsed><backazimuthUsed>false</backazimuthUsed><weight>1</weight></arrival><arrival><pickID>de.gempa.tb1.Pick/20250414065557.786445.136386</pickID><phase>P</phase><azimuth>164.95347595214844</azimuth><distance>0.6746599078178406</distance><timeResidual>-0.09385299682617188</timeResidual><timeUsed>true</timeUsed><horizontalSlownessUsed>false</horizontalSlownessUsed><backazimuthUsed>false</backazimuthUsed><weight>1</weight></arrival><arrival><pickID>de.gempa.tb1.Pick/20250414065558.974814.136388</pickID><phase>P</phase><azimuth>171.11192321777344</azimuth><distance>0.3352183997631073</distance><timeResidual>-0.09500265121459961</timeResidual><timeUsed>true</timeUsed><horizontalSlownessUsed>false</horizontalSlownessUsed><backazimuthUsed>false</backazimuthUsed><weight>1</weight></arrival><arrival><pickID>de.gempa.tb1.Pick/20250414065600.278011.136390</pickID><phase>P</phase><azimuth>340.9042663574219</azimuth><distance>0.603365421295166</distance><timeResidual>0.04408740997314453</timeResidual><timeUsed>true</timeUsed><horizontalSlownessUsed>false</horizontalSlownessUsed><backazimuthUsed>false</backazimuthUsed><weight>1</weight></arrival><arrival><pickID>de.gempa.tb1.Pick/20250414065604.939361.136392</pickID><phase>P</phase><azimuth>121.71495056152344</azimuth><distance>0.7647114396095276</distance><timeResidual>0.21313762664794922</timeResidual><timeUsed>true</timeUsed><horizontalSlownessUsed>false</horizontalSlownessUsed><backazimuthUsed>false</backazimuthUsed><weight>1</weight></arrival><magnitude publicID="de.gempa.tb1.Magnitude/20250414065622.584047.442800"><magnitude><value>2.1403517060396848</value></magnitude><type>M</type><methodID>weighted average</methodID><stationCount>6</stationCount></magnitude></origin><event publicID="gempa2025hiuc"><preferredOriginID>de.gempa.tb1.Origin/20250414065605.361445.130830</preferredOriginID><preferredMagnitudeID>de.gempa.tb1.Magnitude/20250414065622.584047.442800</preferredMagnitudeID><description><text>Northern Chile</text><type>region name</type></description><originReference>de.gempa.tb1.Origin/20250414065605.361445.130830</originReference></event></EventParameters></seiscomp>