<?xml version="1.0" encoding="UTF-8"?>
<seiscomp xmlns="http://geofon.gfz-potsdam.de/ns/seiscomp3-schema/0.13" version="0.13"><EventParameters><pick publicID="de.gempa.tb1.Pick/20250411112142.548776.118533"><time><value>2025-04-11T11:21:37.088393Z</value></time><waveformID networkCode="CX" stationCode="PB02" channelCode="HHZ"/><filterID>ITAPER(4)&gt;&gt;BW(4,4,20)</filterID><methodID>AIC</methodID><horizontalSlowness><value>19.956892485142252</value></horizontalSlowness><backazimuth><value>243.9695095736808</value></backazimuth><phaseHint>P</phaseHint><evaluationMode>automatic</evaluationMode><comment><text>58.28844324521923</text><id>DFX:rectilinearity</id></comment><comment><text>9.634955651657918</text><id>SNR</id></comment></pick><pick publicID="de.gempa.tb1.Pick/20250411112145.528797.118535"><time><value>2025-04-11T11:21:38.768393Z</value></time><waveformID networkCode="CX" stationCode="PB03" channelCode="HHZ"/><filterID>ITAPER(4)&gt;&gt;BW(4,4,20)</filterID><methodID>AIC</methodID><horizontalSlowness><value>14.334594386552556</value></horizontalSlowness><backazimuth><value>110.71801068919046</value></backazimuth><phaseHint>P</phaseHint><evaluationMode>automatic</evaluationMode><comment><text>5.613398123480227</text><id>DFX:rectilinearity</id></comment><comment><text>9.779524419336527</text><id>SNR</id></comment></pick><pick publicID="de.gempa.tb1.Pick/20250411112156.548986.118537"><time><value>2025-04-11T11:21:34.1Z</value></time><waveformID networkCode="CX" stationCode="PB09" channelCode="HHZ"/><filterID>ITAPER(4)&gt;&gt;BW(4,4,20)</filterID><methodID>AIC</methodID><horizontalSlowness><value>20.739634265495923</value></horizontalSlowness><backazimuth><value>265.4649791943279</value></backazimuth><phaseHint>P</phaseHint><evaluationMode>automatic</evaluationMode><comment><text>24.14747593453603</text><id>DFX:rectilinearity</id></comment><comment><text>24.82340495987579</text><id>SNR</id></comment></pick><pick publicID="de.gempa.tb1.Pick/20250411112205.500065.118541"><time><value>2025-04-11T11:21:55.538393Z</value></time><waveformID networkCode="CX" stationCode="PB02" channelCode="HHN"/><filterID>ITAPER(2)&gt;&gt;BW(3,3,20)</filterID><methodID>L2-AIC-GRID</methodID><horizontalSlowness><value>15.122813086553895</value></horizontalSlowness><backazimuth><value>183.19576671023603</value></backazimuth><phaseHint>S</phaseHint><evaluationMode>automatic</evaluationMode><comment><text>63.50206787534803</text><id>DFX:rectilinearity</id></comment><comment><text>de.gempa.tb1.Pick/20250411112142.548776.118533</text><id>RefPickID</id></comment><comment><text>9.531895818288836</text><id>SNR</id></comment></pick><pick publicID="de.gempa.tb1.Pick/20250411112207.705604.118544"><time><value>2025-04-11T11:21:58.908393Z</value></time><waveformID networkCode="CX" stationCode="PB03" channelCode="HHN"/><filterID>ITAPER(2)&gt;&gt;BW(3,3,20)</filterID><methodID>L2-AIC-GRID</methodID><horizontalSlowness><value>20.861697054455753</value></horizontalSlowness><backazimuth><value>150.2028283642229</value></backazimuth><phaseHint>S</phaseHint><evaluationMode>automatic</evaluationMode><comment><text>20.954428328210795</text><id>DFX:rectilinearity</id></comment><comment><text>de.gempa.tb1.Pick/20250411112145.528797.118535</text><id>RefPickID</id></comment><comment><text>9.987237818100962</text><id>SNR</id></comment></pick><pick publicID="de.gempa.tb1.Pick/20250411112216.080942.118546"><time><value>2025-04-11T11:21:38.008396Z</value></time><waveformID networkCode="CX" stationCode="PB07" channelCode="HHZ"/><filterID>ITAPER(4)&gt;&gt;BW(4,4,20)</filterID><methodID>AIC</methodID><horizontalSlowness><value>23.39839732344448</value></horizontalSlowness><backazimuth><value>69.09769421633848</value></backazimuth><phaseHint>P</phaseHint><evaluationMode>automatic</evaluationMode><comment><text>285.8728812256726</text><id>DFX:rectilinearity</id></comment><comment><text>11.851574707561918</text><id>SNR</id></comment></pick><origin publicID="de.gempa.tb1.Origin/20250411112216.086824.58796"><time><value>2025-04-11T11:21:13.004827Z</value><uncertainty>1.5387283563613892</uncertainty></time><latitude><value>-21.193536758422852</value><uncertainty>13.035622596740723</uncertainty></latitude><longitude><value>-68.7335205078125</value><uncertainty>20.686233520507812</uncertainty></longitude><depth><value>132.01580810546875</value><uncertainty>26.359493255615234</uncertainty></depth><depthType>from location</depthType><methodID>LOCSAT</methodID><earthModelID>iasp91_scanloc</earthModelID><quality><associatedPhaseCount>6</associatedPhaseCount><usedPhaseCount>6</usedPhaseCount><associatedStationCount>4</associatedStationCount><usedStationCount>4</usedStationCount><depthPhaseCount>0</depthPhaseCount><standardError>0.05500628848198842</standardError><azimuthalGap>315.0051727294922</azimuthalGap><maximumDistance>1.2742773294448853</maximumDistance><minimumDistance>0.7642143368721008</minimumDistance><medianDistance>1.1976090669631958</medianDistance></quality><uncertainty><minHorizontalUncertainty>25.2300968170166</minHorizontalUncertainty><maxHorizontalUncertainty>45.96806716918945</maxHorizontalUncertainty><azimuthMaxHorizontalUncertainty>71.73896026611328</azimuthMaxHorizontalUncertainty><preferredDescription>horizontal uncertainty</preferredDescription></uncertainty><evaluationMode>automatic</evaluationMode><comment><text>0.64</text><id>mismatchScore</id></comment><arrival><pickID>de.gempa.tb1.Pick/20250411112142.548776.118533</pickID><phase>P</phase><azimuth>263.185302734375</azimuth><distance>1.0916109085083008</distance><timeResidual>0.09601211547851562</timeResidual><timeUsed>true</timeUsed><horizontalSlownessUsed>false</horizontalSlownessUsed><backazimuthUsed>false</backazimuthUsed><weight>1</weight></arrival><arrival><pickID>de.gempa.tb1.Pick/20250411112145.528797.118535</pickID><phase>P</phase><azimuth>227.9299774169922</azimuth><distance>1.2742773294448853</distance><timeResidual>-0.06055450439453125</timeResidual><timeUsed>true</timeUsed><horizontalSlownessUsed>false</horizontalSlownessUsed><backazimuthUsed>false</backazimuthUsed><weight>1</weight></arrival><arrival><pickID>de.gempa.tb1.Pick/20250411112156.548986.118537</pickID><phase>P</phase><azimuth>218.1904754638672</azimuth><distance>0.7642143368721008</distance><timeResidual>-0.0031566619873046875</timeResidual><timeUsed>true</timeUsed><horizontalSlownessUsed>false</horizontalSlownessUsed><backazimuthUsed>false</backazimuthUsed><weight>1</weight></arrival><arrival><pickID>de.gempa.tb1.Pick/20250411112205.500065.118541</pickID><phase>S</phase><azimuth>263.185302734375</azimuth><distance>1.0916109085083008</distance><timeResidual>-0.04510116577148438</timeResidual><timeUsed>true</timeUsed><horizontalSlownessUsed>false</horizontalSlownessUsed><backazimuthUsed>false</backazimuthUsed><weight>1</weight></arrival><arrival><pickID>de.gempa.tb1.Pick/20250411112207.705604.118544</pickID><phase>S</phase><azimuth>227.9299774169922</azimuth><distance>1.2742773294448853</distance><timeResidual>0.04611396789550781</timeResidual><timeUsed>true</timeUsed><horizontalSlownessUsed>false</horizontalSlownessUsed><backazimuthUsed>false</backazimuthUsed><weight>1</weight></arrival><arrival><pickID>de.gempa.tb1.Pick/20250411112216.080942.118546</pickID><phase>P</phase><azimuth>243.4975128173828</azimuth><distance>1.1976090669631958</distance><timeResidual>-0.03314208984375</timeResidual><timeUsed>true</timeUsed><horizontalSlownessUsed>false</horizontalSlownessUsed><backazimuthUsed>false</backazimuthUsed><weight>1</weight></arrival><magnitude publicID="de.gempa.tb1.Magnitude/20250411112250.514798.123556"><magnitude><value>2.3050690631151305</value></magnitude><type>M</type><methodID>weighted average</methodID><stationCount>2</stationCount></magnitude></origin><event publicID="gempa2025hdox"><preferredOriginID>de.gempa.tb1.Origin/20250411112216.086824.58796</preferredOriginID><preferredMagnitudeID>de.gempa.tb1.Magnitude/20250411112250.514798.123556</preferredMagnitudeID><description><text>Chile-Bolivia Border Region</text><type>region name</type></description><originReference>de.gempa.tb1.Origin/20250411112216.086824.58796</originReference></event></EventParameters></seiscomp>