<?xml version="1.0" encoding="UTF-8"?>
<seiscomp xmlns="http://geofon.gfz-potsdam.de/ns/seiscomp3-schema/0.13" version="0.13"><EventParameters><pick publicID="de.gempa.tb1.Pick/20250411182828.575803.119418"><time><value>2025-04-11T18:28:21.288391Z</value></time><waveformID networkCode="CX" stationCode="PB01" channelCode="HHZ"/><filterID>ITAPER(4)&gt;&gt;BW(4,4,20)</filterID><methodID>AIC</methodID><horizontalSlowness><value>5.574130597403895</value></horizontalSlowness><backazimuth><value>31.07988147452727</value></backazimuth><phaseHint>P</phaseHint><evaluationMode>automatic</evaluationMode><comment><text>241.95415211163893</text><id>DFX:rectilinearity</id></comment><comment><text>406.80961832006477</text><id>SNR</id></comment></pick><pick publicID="de.gempa.tb1.Pick/20250411182830.504233.119420"><time><value>2025-04-11T18:28:25.248393Z</value></time><waveformID networkCode="CX" stationCode="PB02" channelCode="HHZ"/><filterID>ITAPER(4)&gt;&gt;BW(4,4,20)</filterID><methodID>AIC</methodID><horizontalSlowness><value>6.398019421280448</value></horizontalSlowness><backazimuth><value>32.824740830871633</value></backazimuth><phaseHint>P</phaseHint><evaluationMode>automatic</evaluationMode><comment><text>206.79510025438228</text><id>DFX:rectilinearity</id></comment><comment><text>78.79210998764806</text><id>SNR</id></comment></pick><pick publicID="de.gempa.tb1.Pick/20250411182831.411042.119422"><time><value>2025-04-11T18:28:23.568393Z</value></time><waveformID networkCode="CX" stationCode="PB08" channelCode="HHZ"/><filterID>ITAPER(4)&gt;&gt;BW(4,4,20)</filterID><methodID>AIC</methodID><horizontalSlowness><value>11.259151528946875</value></horizontalSlowness><backazimuth><value>190.09376725062725</value></backazimuth><phaseHint>P</phaseHint><evaluationMode>automatic</evaluationMode><comment><text>4.612455760725163</text><id>DFX:rectilinearity</id></comment><comment><text>12.94020731723097</text><id>SNR</id></comment></pick><pick publicID="de.gempa.tb1.Pick/20250411182837.568601.119424"><time><value>2025-04-11T18:28:31.218393Z</value></time><waveformID networkCode="CX" stationCode="PB03" channelCode="HHZ"/><filterID>ITAPER(4)&gt;&gt;BW(4,4,20)</filterID><methodID>AIC</methodID><horizontalSlowness><value>10.523688194823924</value></horizontalSlowness><backazimuth><value>80.22765444224308</value></backazimuth><phaseHint>P</phaseHint><evaluationMode>automatic</evaluationMode><comment><text>6.30610077536473</text><id>DFX:rectilinearity</id></comment><comment><text>8.473213422177299</text><id>SNR</id></comment></pick><pick publicID="de.gempa.tb1.Pick/20250411182839.498428.119426"><time><value>2025-04-11T18:28:31.1Z</value></time><waveformID networkCode="CX" stationCode="PSGCX" channelCode="HHZ"/><filterID>ITAPER(4)&gt;&gt;BW(4,4,20)</filterID><methodID>AIC</methodID><horizontalSlowness><value>8.693668451139576</value></horizontalSlowness><backazimuth><value>210.06547170674514</value></backazimuth><phaseHint>P</phaseHint><evaluationMode>automatic</evaluationMode><comment><text>18.590217821736058</text><id>DFX:rectilinearity</id></comment><comment><text>25.361990711527387</text><id>SNR</id></comment></pick><pick publicID="de.gempa.tb1.Pick/20250411182840.777743.119428"><time><value>2025-04-11T18:28:33.008391Z</value></time><waveformID networkCode="CX" stationCode="PB01" channelCode="HHN"/><filterID>ITAPER(2)&gt;&gt;BW(3,3,20)</filterID><methodID>L2-AIC-GRID</methodID><horizontalSlowness><value>22.5842312882203</value></horizontalSlowness><backazimuth><value>84.24437741617659</value></backazimuth><phaseHint>S</phaseHint><evaluationMode>automatic</evaluationMode><comment><text>106.48829755788081</text><id>DFX:rectilinearity</id></comment><comment><text>de.gempa.tb1.Pick/20250411182828.575803.119418</text><id>RefPickID</id></comment><comment><text>7.995473150561732</text><id>SNR</id></comment></pick><pick publicID="de.gempa.tb1.Pick/20250411182844.82475.119429"><time><value>2025-04-11T18:28:37.188393Z</value></time><waveformID networkCode="CX" stationCode="PB08" channelCode="HHN"/><filterID>ITAPER(2)&gt;&gt;BW(3,3,20)</filterID><methodID>L2-AIC-GRID</methodID><horizontalSlowness><value>14.670195250385456</value></horizontalSlowness><backazimuth><value>210.67169532955407</value></backazimuth><phaseHint>S</phaseHint><evaluationMode>automatic</evaluationMode><comment><text>50.54951314626943</text><id>DFX:rectilinearity</id></comment><comment><text>de.gempa.tb1.Pick/20250411182831.411042.119422</text><id>RefPickID</id></comment><comment><text>8.688160769042385</text><id>SNR</id></comment></pick><pick publicID="de.gempa.tb1.Pick/20250411182844.989738.119430"><time><value>2025-04-11T18:28:27.8Z</value></time><waveformID networkCode="CX" stationCode="PB09" channelCode="HHZ"/><filterID>ITAPER(4)&gt;&gt;BW(4,4,20)</filterID><methodID>AIC</methodID><horizontalSlowness><value>18.216117035796785</value></horizontalSlowness><backazimuth><value>282.80243551682594</value></backazimuth><phaseHint>P</phaseHint><evaluationMode>automatic</evaluationMode><comment><text>5.141670466694261</text><id>DFX:rectilinearity</id></comment><comment><text>14.618799936460206</text><id>SNR</id></comment></pick><pick publicID="de.gempa.tb1.Pick/20250411182851.75876.119432"><time><value>2025-04-11T18:28:28.398396Z</value></time><waveformID networkCode="CX" stationCode="PB07" channelCode="HHZ"/><filterID>ITAPER(4)&gt;&gt;BW(4,4,20)</filterID><methodID>AIC</methodID><horizontalSlowness><value>19.964720115668126</value></horizontalSlowness><backazimuth><value>243.8457696928606</value></backazimuth><phaseHint>P</phaseHint><evaluationMode>automatic</evaluationMode><comment><text>169.08604819254637</text><id>DFX:rectilinearity</id></comment><comment><text>25.52947251656681</text><id>SNR</id></comment></pick><pick publicID="de.gempa.tb1.Pick/20250411182857.651707.119434"><time><value>2025-04-11T18:28:49.568393Z</value></time><waveformID networkCode="CX" stationCode="PB03" channelCode="HHN"/><filterID>ITAPER(2)&gt;&gt;BW(3,3,20)</filterID><methodID>L2-AIC-GRID</methodID><horizontalSlowness><value>14.575645670416487</value></horizontalSlowness><backazimuth><value>248.98414998019837</value></backazimuth><phaseHint>S</phaseHint><evaluationMode>automatic</evaluationMode><comment><text>29.63435885360474</text><id>DFX:rectilinearity</id></comment><comment><text>de.gempa.tb1.Pick/20250411182837.568601.119424</text><id>RefPickID</id></comment><comment><text>11.54949407389722</text><id>SNR</id></comment></pick><pick publicID="de.gempa.tb1.Pick/20250411182857.929311.119435"><time><value>2025-04-11T18:28:44.14Z</value></time><waveformID networkCode="CX" stationCode="PB09" channelCode="HHN"/><filterID>ITAPER(2)&gt;&gt;BW(3,3,20)</filterID><methodID>L2-AIC-GRID</methodID><horizontalSlowness><value>19.729131169781432</value></horizontalSlowness><backazimuth><value>340.10470757738693</value></backazimuth><phaseHint>S</phaseHint><evaluationMode>automatic</evaluationMode><comment><text>141.6092613364362</text><id>DFX:rectilinearity</id></comment><comment><text>de.gempa.tb1.Pick/20250411182844.989738.119430</text><id>RefPickID</id></comment><comment><text>6.819622777043397</text><id>SNR</id></comment></pick><pick publicID="de.gempa.tb1.Pick/20250411182859.773543.119437"><time><value>2025-04-11T18:28:50.26Z</value></time><waveformID networkCode="CX" stationCode="PSGCX" channelCode="HHN"/><filterID>ITAPER(2)&gt;&gt;BW(3,3,20)</filterID><methodID>L2-AIC-GRID</methodID><horizontalSlowness><value>20.02930347732569</value></horizontalSlowness><backazimuth><value>64.33035153364098</value></backazimuth><phaseHint>S</phaseHint><evaluationMode>automatic</evaluationMode><comment><text>76.17784914596905</text><id>DFX:rectilinearity</id></comment><comment><text>de.gempa.tb1.Pick/20250411182839.498428.119426</text><id>RefPickID</id></comment><comment><text>6.706255900540772</text><id>SNR</id></comment></pick><pick publicID="de.gempa.tb1.Pick/20250411182901.774805.119438"><time><value>2025-04-11T18:28:44.978396Z</value></time><waveformID networkCode="CX" stationCode="PB07" channelCode="HHN"/><filterID>ITAPER(2)&gt;&gt;BW(3,3,20)</filterID><methodID>L2-AIC-GRID</methodID><horizontalSlowness><value>21.188393582262265</value></horizontalSlowness><backazimuth><value>239.8026151630771</value></backazimuth><phaseHint>S</phaseHint><evaluationMode>automatic</evaluationMode><comment><text>2524.606324941061</text><id>DFX:rectilinearity</id></comment><comment><text>de.gempa.tb1.Pick/20250411182851.75876.119432</text><id>RefPickID</id></comment><comment><text>5.966544693460111</text><id>SNR</id></comment></pick><origin publicID="de.gempa.tb1.Origin/20250411182901.778694.63295"><time><value>2025-04-11T18:28:06.646161Z</value><uncertainty>0.8984543085098267</uncertainty></time><latitude><value>-20.751296997070312</value><uncertainty>2.44525408744812</uncertainty></latitude><longitude><value>-69.36576843261719</value><uncertainty>6.878155708312988</uncertainty></longitude><depth><value>102.59961700439453</value><uncertainty>6.764098167419434</uncertainty></depth><depthType>from location</depthType><methodID>LOCSAT</methodID><earthModelID>iasp91_scanloc</earthModelID><quality><associatedPhaseCount>13</associatedPhaseCount><usedPhaseCount>13</usedPhaseCount><associatedStationCount>7</associatedStationCount><usedStationCount>7</usedStationCount><depthPhaseCount>0</depthPhaseCount><standardError>0.24116691859966785</standardError><azimuthalGap>155.48476791381836</azimuthalGap><maximumDistance>1.3507250547409058</maximumDistance><minimumDistance>0.31194067001342773</minimumDistance><medianDistance>1.046308159828186</medianDistance></quality><uncertainty><minHorizontalUncertainty>5.241619110107422</minHorizontalUncertainty><maxHorizontalUncertainty>14.746376037597656</maxHorizontalUncertainty><azimuthMaxHorizontalUncertainty>90.37348937988281</azimuthMaxHorizontalUncertainty><preferredDescription>horizontal uncertainty</preferredDescription></uncertainty><evaluationMode>automatic</evaluationMode><evaluationStatus>confirmed</evaluationStatus><comment><text>0.10</text><id>mismatchScore</id></comment><comment><text>mismatchScore</text><id>scevalMethod</id></comment><arrival><pickID>de.gempa.tb1.Pick/20250411182828.575803.119418</pickID><phase>P</phase><azimuth>201.35951232910156</azimuth><distance>0.31194067001342773</distance><timeResidual>-0.2980175018310547</timeResidual><timeUsed>true</timeUsed><horizontalSlownessUsed>false</horizontalSlownessUsed><backazimuthUsed>false</backazimuthUsed><weight>1</weight></arrival><arrival><pickID>de.gempa.tb1.Pick/20250411182830.504233.119420</pickID><phase>P</phase><azimuth>221.11720275878906</azimuth><distance>0.7518441677093506</distance><timeResidual>0.4712600708007812</timeResidual><timeUsed>true</timeUsed><horizontalSlownessUsed>false</horizontalSlownessUsed><backazimuthUsed>false</backazimuthUsed><weight>1</weight></arrival><arrival><pickID>de.gempa.tb1.Pick/20250411182831.411042.119422</pickID><phase>P</phase><azimuth>18.199237823486328</azimuth><distance>0.6389116048812866</distance><timeResidual>-0.21620845794677734</timeResidual><timeUsed>true</timeUsed><horizontalSlownessUsed>false</horizontalSlownessUsed><backazimuthUsed>false</backazimuthUsed><weight>1</weight></arrival><arrival><pickID>de.gempa.tb1.Pick/20250411182837.568601.119424</pickID><phase>P</phase><azimuth>195.55288696289062</azimuth><distance>1.3402957916259766</distance><timeResidual>0.09973812103271484</timeResidual><timeUsed>true</timeUsed><horizontalSlownessUsed>false</horizontalSlownessUsed><backazimuthUsed>false</backazimuthUsed><weight>1</weight></arrival><arrival><pickID>de.gempa.tb1.Pick/20250411182839.498428.119426</pickID><phase>P</phase><azimuth>328.08905029296875</azimuth><distance>1.3507250547409058</distance><timeResidual>-0.15386295318603516</timeResidual><timeUsed>true</timeUsed><horizontalSlownessUsed>false</horizontalSlownessUsed><backazimuthUsed>false</backazimuthUsed><weight>1</weight></arrival><arrival><pickID>de.gempa.tb1.Pick/20250411182840.777743.119428</pickID><phase>S</phase><azimuth>201.35951232910156</azimuth><distance>0.31194067001342773</distance><timeResidual>-0.05462455749511719</timeResidual><timeUsed>true</timeUsed><horizontalSlownessUsed>false</horizontalSlownessUsed><backazimuthUsed>false</backazimuthUsed><weight>1</weight></arrival><arrival><pickID>de.gempa.tb1.Pick/20250411182844.82475.119429</pickID><phase>S</phase><azimuth>18.199237823486328</azimuth><distance>0.6389116048812866</distance><timeResidual>0.21690082550048828</timeResidual><timeUsed>true</timeUsed><horizontalSlownessUsed>false</horizontalSlownessUsed><backazimuthUsed>false</backazimuthUsed><weight>1</weight></arrival><arrival><pickID>de.gempa.tb1.Pick/20250411182844.989738.119430</pickID><phase>P</phase><azimuth>173.6840057373047</azimuth><distance>1.046308159828186</distance><timeResidual>0.03568840026855469</timeResidual><timeUsed>true</timeUsed><horizontalSlownessUsed>false</horizontalSlownessUsed><backazimuthUsed>false</backazimuthUsed><weight>1</weight></arrival><arrival><pickID>de.gempa.tb1.Pick/20250411182851.75876.119432</pickID><phase>P</phase><azimuth>206.48193359375</azimuth><distance>1.0851918458938599</distance><timeResidual>0.2072429656982422</timeResidual><timeUsed>true</timeUsed><horizontalSlownessUsed>false</horizontalSlownessUsed><backazimuthUsed>false</backazimuthUsed><weight>1</weight></arrival><arrival><pickID>de.gempa.tb1.Pick/20250411182857.651707.119434</pickID><phase>S</phase><azimuth>195.55288696289062</azimuth><distance>1.3402957916259766</distance><timeResidual>-0.4914827346801758</timeResidual><timeUsed>true</timeUsed><horizontalSlownessUsed>false</horizontalSlownessUsed><backazimuthUsed>false</backazimuthUsed><weight>1</weight></arrival><arrival><pickID>de.gempa.tb1.Pick/20250411182857.929311.119435</pickID><phase>S</phase><azimuth>173.6840057373047</azimuth><distance>1.046308159828186</distance><timeResidual>0.07252788543701172</timeResidual><timeUsed>true</timeUsed><horizontalSlownessUsed>false</horizontalSlownessUsed><backazimuthUsed>false</backazimuthUsed><weight>1</weight></arrival><arrival><pickID>de.gempa.tb1.Pick/20250411182859.773543.119437</pickID><phase>S</phase><azimuth>328.08905029296875</azimuth><distance>1.3507250547409058</distance><timeResidual>-0.038527488708496094</timeResidual><timeUsed>true</timeUsed><horizontalSlownessUsed>false</horizontalSlownessUsed><backazimuthUsed>false</backazimuthUsed><weight>1</weight></arrival><arrival><pickID>de.gempa.tb1.Pick/20250411182901.774805.119438</pickID><phase>S</phase><azimuth>206.48193359375</azimuth><distance>1.0851918458938599</distance><timeResidual>0.14925861358642578</timeResidual><timeUsed>true</timeUsed><horizontalSlownessUsed>false</horizontalSlownessUsed><backazimuthUsed>false</backazimuthUsed><weight>1</weight></arrival><magnitude publicID="de.gempa.tb1.Magnitude/20250411182910.940147.130664"><magnitude><value>2.374612382959585</value></magnitude><type>M</type><methodID>weighted average</methodID><stationCount>4</stationCount></magnitude></origin><event publicID="gempa2025hedd"><preferredOriginID>de.gempa.tb1.Origin/20250411182901.778694.63295</preferredOriginID><preferredMagnitudeID>de.gempa.tb1.Magnitude/20250411182910.940147.130664</preferredMagnitudeID><description><text>Northern Chile</text><type>region name</type></description><originReference>de.gempa.tb1.Origin/20250411182901.778694.63295</originReference></event></EventParameters></seiscomp>