<?xml version="1.0" encoding="UTF-8"?>
<seiscomp xmlns="http://geofon.gfz-potsdam.de/ns/seiscomp3-schema/0.13" version="0.13"><EventParameters><pick publicID="de.gempa.tb1.Pick/20250413161313.541459.132314"><time><value>2025-04-13T16:13:09.158393Z</value></time><waveformID networkCode="CX" stationCode="PB01" channelCode="HHZ"/><filterID>ITAPER(4)&gt;&gt;BW(4,4,20)</filterID><methodID>AIC</methodID><horizontalSlowness><value>15.011223312628383</value></horizontalSlowness><backazimuth><value>217.4494217829569</value></backazimuth><phaseHint>P</phaseHint><evaluationMode>automatic</evaluationMode><comment><text>16.471150889062606</text><id>DFX:rectilinearity</id></comment><comment><text>51.32966128438008</text><id>SNR</id></comment></pick><pick publicID="de.gempa.tb1.Pick/20250413161313.589915.132316"><time><value>2025-04-13T16:13:07.438393Z</value></time><waveformID networkCode="CX" stationCode="PB08" channelCode="HHZ"/><filterID>ITAPER(4)&gt;&gt;BW(4,4,20)</filterID><methodID>AIC</methodID><horizontalSlowness><value>15.064528833797993</value></horizontalSlowness><backazimuth><value>208.56545971200217</value></backazimuth><phaseHint>P</phaseHint><evaluationMode>automatic</evaluationMode><comment><text>17.840088238734342</text><id>DFX:rectilinearity</id></comment><comment><text>37.8448739898757</text><id>SNR</id></comment></pick><pick publicID="de.gempa.tb1.Pick/20250413161319.476831.132318"><time><value>2025-04-13T16:13:14.588393Z</value></time><waveformID networkCode="CX" stationCode="PB02" channelCode="HHZ"/><filterID>ITAPER(4)&gt;&gt;BW(4,4,20)</filterID><methodID>AIC</methodID><horizontalSlowness><value>15.349862105640756</value></horizontalSlowness><backazimuth><value>243.74548797483834</value></backazimuth><phaseHint>P</phaseHint><evaluationMode>automatic</evaluationMode><comment><text>31.51257266814819</text><id>DFX:rectilinearity</id></comment><comment><text>18.500568234642014</text><id>SNR</id></comment></pick><pick publicID="de.gempa.tb1.Pick/20250413161321.58098.132320"><time><value>2025-04-13T16:13:16.98Z</value></time><waveformID networkCode="CX" stationCode="PSGCX" channelCode="HHZ"/><filterID>ITAPER(4)&gt;&gt;BW(4,4,20)</filterID><methodID>AIC</methodID><horizontalSlowness><value>15.022004106269161</value></horizontalSlowness><backazimuth><value>195.5966196731596</value></backazimuth><phaseHint>P</phaseHint><evaluationMode>automatic</evaluationMode><comment><text>22.530281867578434</text><id>DFX:rectilinearity</id></comment><comment><text>23.055847297274813</text><id>SNR</id></comment></pick><pick publicID="de.gempa.tb1.Pick/20250413161327.57537.132322"><time><value>2025-04-13T16:13:21.578393Z</value></time><waveformID networkCode="CX" stationCode="PB03" channelCode="HHZ"/><filterID>ITAPER(4)&gt;&gt;BW(4,4,20)</filterID><methodID>AIC</methodID><horizontalSlowness><value>11.769559188366452</value></horizontalSlowness><backazimuth><value>114.04272621518143</value></backazimuth><phaseHint>P</phaseHint><evaluationMode>automatic</evaluationMode><comment><text>6.277106194173744</text><id>DFX:rectilinearity</id></comment><comment><text>8.819967242952744</text><id>SNR</id></comment></pick><pick publicID="de.gempa.tb1.Pick/20250413161329.393658.132324"><time><value>2025-04-13T16:13:17.420001Z</value></time><waveformID networkCode="CX" stationCode="PB09" channelCode="HHZ"/><filterID>ITAPER(4)&gt;&gt;BW(4,4,20)</filterID><methodID>AIC</methodID><horizontalSlowness><value>4.2682294563219765</value></horizontalSlowness><backazimuth><value>248.5201559025371</value></backazimuth><phaseHint>P</phaseHint><evaluationMode>automatic</evaluationMode><comment><text>9.219750011514561</text><id>DFX:rectilinearity</id></comment><comment><text>11.817808794892128</text><id>SNR</id></comment></pick><pick publicID="de.gempa.tb1.Pick/20250413161329.662712.132326"><time><value>2025-04-13T16:13:19.258393Z</value></time><waveformID networkCode="CX" stationCode="PB08" channelCode="HHN"/><filterID>ITAPER(2)&gt;&gt;BW(3,3,20)</filterID><methodID>L2-AIC-GRID</methodID><horizontalSlowness><value>17.793065585282164</value></horizontalSlowness><backazimuth><value>189.0934790323802</value></backazimuth><phaseHint>S</phaseHint><evaluationMode>automatic</evaluationMode><comment><text>138.28750662807218</text><id>DFX:rectilinearity</id></comment><comment><text>de.gempa.tb1.Pick/20250413161313.589915.132316</text><id>RefPickID</id></comment><comment><text>14.1866641492558</text><id>SNR</id></comment></pick><pick publicID="de.gempa.tb1.Pick/20250413161330.77468.132327"><time><value>2025-04-13T16:13:22.898393Z</value></time><waveformID networkCode="CX" stationCode="PB01" channelCode="HHN"/><filterID>ITAPER(2)&gt;&gt;BW(3,3,20)</filterID><methodID>L2-AIC-GRID</methodID><horizontalSlowness><value>23.06323944750291</value></horizontalSlowness><backazimuth><value>309.5500504975048</value></backazimuth><phaseHint>S</phaseHint><evaluationMode>automatic</evaluationMode><comment><text>95.91552828249648</text><id>DFX:rectilinearity</id></comment><comment><text>de.gempa.tb1.Pick/20250413161313.541459.132314</text><id>RefPickID</id></comment><comment><text>8.18572960461479</text><id>SNR</id></comment></pick><pick publicID="de.gempa.tb1.Pick/20250413161339.703797.132328"><time><value>2025-04-13T16:13:17.868391Z</value></time><waveformID networkCode="CX" stationCode="PB07" channelCode="HHZ"/><filterID>ITAPER(4)&gt;&gt;BW(4,4,20)</filterID><methodID>AIC</methodID><horizontalSlowness><value>22.57650197512809</value></horizontalSlowness><backazimuth><value>269.91196929573107</value></backazimuth><phaseHint>P</phaseHint><evaluationMode>automatic</evaluationMode><comment><text>289.62502792883953</text><id>DFX:rectilinearity</id></comment><comment><text>18.32653976476339</text><id>SNR</id></comment></pick><pick publicID="de.gempa.tb1.Pick/20250413161340.522265.132330"><time><value>2025-04-13T16:13:32.628393Z</value></time><waveformID networkCode="CX" stationCode="PB02" channelCode="HHN"/><filterID>ITAPER(2)&gt;&gt;BW(3,3,20)</filterID><methodID>L2-AIC-GRID</methodID><horizontalSlowness><value>22.607096054674376</value></horizontalSlowness><backazimuth><value>230.0648976126483</value></backazimuth><phaseHint>S</phaseHint><evaluationMode>automatic</evaluationMode><comment><text>620.0518565940213</text><id>DFX:rectilinearity</id></comment><comment><text>de.gempa.tb1.Pick/20250413161319.476831.132318</text><id>RefPickID</id></comment><comment><text>6.84113969687211</text><id>SNR</id></comment></pick><pick publicID="de.gempa.tb1.Pick/20250413161349.782725.132333"><time><value>2025-04-13T16:13:37.12Z</value></time><waveformID networkCode="CX" stationCode="PSGCX" channelCode="HHN"/><filterID>ITAPER(2)&gt;&gt;BW(3,3,20)</filterID><methodID>L2-AIC-GRID</methodID><horizontalSlowness><value>16.365044389333118</value></horizontalSlowness><backazimuth><value>90.3909854594875</value></backazimuth><phaseHint>S</phaseHint><evaluationMode>automatic</evaluationMode><comment><text>62.41328257981187</text><id>DFX:rectilinearity</id></comment><comment><text>de.gempa.tb1.Pick/20250413161321.58098.132320</text><id>RefPickID</id></comment><comment><text>5.224588366392573</text><id>SNR</id></comment></pick><pick publicID="de.gempa.tb1.Pick/20250413161355.780882.132334"><time><value>2025-04-13T16:13:45.468393Z</value></time><waveformID networkCode="CX" stationCode="PB03" channelCode="HHN"/><filterID>ITAPER(2)&gt;&gt;BW(3,3,20)</filterID><methodID>L2-AIC-GRID</methodID><horizontalSlowness><value>9.598866564350006</value></horizontalSlowness><backazimuth><value>269.64153220443796</value></backazimuth><phaseHint>S</phaseHint><evaluationMode>automatic</evaluationMode><comment><text>21.768751856732749</text><id>DFX:rectilinearity</id></comment><comment><text>de.gempa.tb1.Pick/20250413161327.57537.132322</text><id>RefPickID</id></comment><comment><text>7.052327355188187</text><id>SNR</id></comment></pick><pick publicID="de.gempa.tb1.Pick/20250413161427.791697.132337"><time><value>2025-04-13T16:13:39.118391Z</value></time><waveformID networkCode="CX" stationCode="PB07" channelCode="HHN"/><filterID>ITAPER(2)&gt;&gt;BW(3,3,20)</filterID><methodID>L2-AIC-GRID</methodID><horizontalSlowness><value>22.983493114414813</value></horizontalSlowness><backazimuth><value>108.82468995353862</value></backazimuth><phaseHint>S</phaseHint><evaluationMode>automatic</evaluationMode><comment><text>688.4041934026516</text><id>DFX:rectilinearity</id></comment><comment><text>de.gempa.tb1.Pick/20250413161339.703797.132328</text><id>RefPickID</id></comment><comment><text>5.082326412955312</text><id>SNR</id></comment></pick><origin publicID="de.gempa.tb1.Origin/20250413161427.796458.114516"><time><value>2025-04-13T16:12:52.357122Z</value><uncertainty>0.8919869065284729</uncertainty></time><latitude><value>-20.47545623779297</value><uncertainty>2.966325044631958</uncertainty></latitude><longitude><value>-68.9746322631836</value><uncertainty>7.150235176086426</uncertainty></longitude><depth><value>100.12983703613281</value><uncertainty>6.619701862335205</uncertainty></depth><depthType>from location</depthType><methodID>LOCSAT</methodID><earthModelID>iasp91_scanloc</earthModelID><quality><associatedPhaseCount>13</associatedPhaseCount><usedPhaseCount>13</usedPhaseCount><associatedStationCount>7</associatedStationCount><usedStationCount>7</usedStationCount><depthPhaseCount>0</depthPhaseCount><standardError>0.6956108651256246</standardError><azimuthalGap>217.49998474121094</azimuthalGap><maximumDistance>1.7254388332366943</maximumDistance><minimumDistance>0.3725537359714508</minimumDistance><medianDistance>1.3378350734710693</medianDistance></quality><uncertainty><minHorizontalUncertainty>6.343486309051514</minHorizontalUncertainty><maxHorizontalUncertainty>15.341022491455078</maxHorizontalUncertainty><azimuthMaxHorizontalUncertainty>91.9503402709961</azimuthMaxHorizontalUncertainty><preferredDescription>horizontal uncertainty</preferredDescription></uncertainty><evaluationMode>automatic</evaluationMode><evaluationStatus>confirmed</evaluationStatus><comment><text>0.07</text><id>mismatchScore</id></comment><comment><text>mismatchScore</text><id>scevalMethod</id></comment><arrival><pickID>de.gempa.tb1.Pick/20250413161313.541459.132314</pickID><phase>P</phase><azimuth>220.25650024414062</azimuth><distance>0.7412240505218506</distance><timeResidual>-0.9965677261352539</timeResidual><timeUsed>true</timeUsed><horizontalSlownessUsed>false</horizontalSlownessUsed><backazimuthUsed>false</backazimuthUsed><weight>1</weight></arrival><arrival><pickID>de.gempa.tb1.Pick/20250413161313.589915.132316</pickID><phase>P</phase><azimuth>333.2016906738281</azimuth><distance>0.3725537359714508</distance><timeResidual>0.11034011840820312</timeResidual><timeUsed>true</timeUsed><horizontalSlownessUsed>false</horizontalSlownessUsed><backazimuthUsed>false</backazimuthUsed><weight>1</weight></arrival><arrival><pickID>de.gempa.tb1.Pick/20250413161319.476831.132318</pickID><phase>P</phase><azimuth>225.56031799316406</azimuth><distance>1.203275203704834</distance><timeResidual>-0.4709272384643555</timeResidual><timeUsed>true</timeUsed><horizontalSlownessUsed>false</horizontalSlownessUsed><backazimuthUsed>false</backazimuthUsed><weight>1</weight></arrival><arrival><pickID>de.gempa.tb1.Pick/20250413161321.58098.132320</pickID><phase>P</phase><azimuth>308.78424072265625</azimuth><distance>1.3889979124069214</distance><timeResidual>-0.2856016159057617</timeResidual><timeUsed>true</timeUsed><horizontalSlownessUsed>false</horizontalSlownessUsed><backazimuthUsed>false</backazimuthUsed><weight>1</weight></arrival><arrival><pickID>de.gempa.tb1.Pick/20250413161327.57537.132322</pickID><phase>P</phase><azimuth>204.74737548828125</azimuth><distance>1.7254388332366943</distance><timeResidual>0.1601409912109375</timeResidual><timeUsed>true</timeUsed><horizontalSlownessUsed>false</horizontalSlownessUsed><backazimuthUsed>false</backazimuthUsed><weight>1</weight></arrival><arrival><pickID>de.gempa.tb1.Pick/20250413161329.393658.132324</pickID><phase>P</phase><azimuth>190.70167541503906</azimuth><distance>1.3378350734710693</distance><timeResidual>0.7785930633544922</timeResidual><timeUsed>true</timeUsed><horizontalSlownessUsed>false</horizontalSlownessUsed><backazimuthUsed>false</backazimuthUsed><weight>1</weight></arrival><arrival><pickID>de.gempa.tb1.Pick/20250413161329.662712.132326</pickID><phase>S</phase><azimuth>333.2016906738281</azimuth><distance>0.3725537359714508</distance><timeResidual>0.43276119232177734</timeResidual><timeUsed>true</timeUsed><horizontalSlownessUsed>false</horizontalSlownessUsed><backazimuthUsed>false</backazimuthUsed><weight>1</weight></arrival><arrival><pickID>de.gempa.tb1.Pick/20250413161330.77468.132327</pickID><phase>S</phase><azimuth>220.25650024414062</azimuth><distance>0.7412240505218506</distance><timeResidual>-0.9583024978637695</timeResidual><timeUsed>true</timeUsed><horizontalSlownessUsed>false</horizontalSlownessUsed><backazimuthUsed>false</backazimuthUsed><weight>1</weight></arrival><arrival><pickID>de.gempa.tb1.Pick/20250413161339.703797.132328</pickID><phase>P</phase><azimuth>214.19708251953125</azimuth><distance>1.508121371269226</distance><timeResidual>-0.8395490646362305</timeResidual><timeUsed>true</timeUsed><horizontalSlownessUsed>false</horizontalSlownessUsed><backazimuthUsed>false</backazimuthUsed><weight>1</weight></arrival><arrival><pickID>de.gempa.tb1.Pick/20250413161340.522265.132330</pickID><phase>S</phase><azimuth>225.56031799316406</azimuth><distance>1.203275203704834</distance><timeResidual>0.022461891174316406</timeResidual><timeUsed>true</timeUsed><horizontalSlownessUsed>false</horizontalSlownessUsed><backazimuthUsed>false</backazimuthUsed><weight>1</weight></arrival><arrival><pickID>de.gempa.tb1.Pick/20250413161349.782725.132333</pickID><phase>S</phase><azimuth>308.78424072265625</azimuth><distance>1.3889979124069214</distance><timeResidual>0.5716276168823242</timeResidual><timeUsed>true</timeUsed><horizontalSlownessUsed>false</horizontalSlownessUsed><backazimuthUsed>false</backazimuthUsed><weight>1</weight></arrival><arrival><pickID>de.gempa.tb1.Pick/20250413161355.780882.132334</pickID><phase>S</phase><azimuth>204.74737548828125</azimuth><distance>1.7254388332366943</distance><timeResidual>1.487269401550293</timeResidual><timeUsed>true</timeUsed><horizontalSlownessUsed>false</horizontalSlownessUsed><backazimuthUsed>false</backazimuthUsed><weight>1</weight></arrival><arrival><pickID>de.gempa.tb1.Pick/20250413161427.791697.132337</pickID><phase>S</phase><azimuth>214.19708251953125</azimuth><distance>1.508121371269226</distance><timeResidual>-0.012305259704589844</timeResidual><timeUsed>true</timeUsed><horizontalSlownessUsed>false</horizontalSlownessUsed><backazimuthUsed>false</backazimuthUsed><weight>1</weight></arrival><magnitude publicID="de.gempa.tb1.Magnitude/20250413161435.94062.377453"><magnitude><value>2.5074320952300426</value></magnitude><type>M</type><methodID>weighted average</methodID><stationCount>5</stationCount></magnitude></origin><event publicID="gempa2025hhqr"><preferredOriginID>de.gempa.tb1.Origin/20250413161427.796458.114516</preferredOriginID><preferredMagnitudeID>de.gempa.tb1.Magnitude/20250413161435.94062.377453</preferredMagnitudeID><description><text>Chile-Bolivia Border Region</text><type>region name</type></description><originReference>de.gempa.tb1.Origin/20250413161427.796458.114516</originReference></event></EventParameters></seiscomp>