<?xml version="1.0" encoding="UTF-8"?>
<seiscomp xmlns="http://geofon.gfz-potsdam.de/ns/seiscomp3-schema/0.13" version="0.13"><EventParameters><pick publicID="de.gempa.tb1.Pick/20250414175049.417227.236874"><time><value>2025-04-14T17:50:44.93Z</value></time><waveformID networkCode="CH" stationCode="SIMPL" channelCode="HHZ"/><filterID>ITAPER(4)&gt;&gt;BW(4,4,20)</filterID><methodID>AIC</methodID><phaseHint>P</phaseHint><evaluationMode>automatic</evaluationMode></pick><pick publicID="de.gempa.tb1.Pick/20250414175050.112776.236878"><time><value>2025-04-14T17:50:45.65Z</value></time><waveformID networkCode="CH" stationCode="LAUCH" channelCode="HHZ"/><filterID>ITAPER(4)&gt;&gt;BW(4,4,20)</filterID><methodID>AIC</methodID><phaseHint>P</phaseHint><evaluationMode>automatic</evaluationMode></pick><pick publicID="de.gempa.tb1.Pick/20250414175055.123572.236881"><time><value>2025-04-14T17:50:45.738393Z</value></time><waveformID networkCode="CH" stationCode="GRIMS" channelCode="HHZ"/><filterID>ITAPER(4)&gt;&gt;BW(4,4,20)</filterID><methodID>AIC</methodID><phaseHint>P</phaseHint><evaluationMode>automatic</evaluationMode></pick><pick publicID="de.gempa.tb1.Pick/20250414175059.151327.236883"><time><value>2025-04-14T17:50:52.645001Z</value></time><waveformID networkCode="CH" stationCode="DIX" channelCode="HHZ"/><filterID>ITAPER(4)&gt;&gt;BW(4,4,20)</filterID><methodID>AIC</methodID><phaseHint>P</phaseHint><evaluationMode>automatic</evaluationMode></pick><pick publicID="de.gempa.tb1.Pick/20250414175059.970821.236885"><time><value>2025-04-14T17:50:57.8Z</value></time><waveformID networkCode="CH" stationCode="AIGLE" channelCode="HHZ"/><filterID>ITAPER(4)&gt;&gt;BW(4,4,20)</filterID><methodID>AIC</methodID><phaseHint>P</phaseHint><evaluationMode>automatic</evaluationMode></pick><origin publicID="de.gempa.tb1.Origin/20250414175059.975938.146815"><time><value>2025-04-14T17:50:41.381398Z</value><uncertainty>0.6185659766197205</uncertainty></time><latitude><value>46.4001579284668</value><uncertainty>5.449894905090332</uncertainty></latitude><longitude><value>8.12955379486084</value><uncertainty>5.26083517074585</uncertainty></longitude><depth><value>0</value></depth><depthType>operator assigned</depthType><methodID>LOCSAT</methodID><earthModelID>iasp91</earthModelID><quality><associatedPhaseCount>5</associatedPhaseCount><usedPhaseCount>5</usedPhaseCount><associatedStationCount>5</associatedStationCount><usedStationCount>5</usedStationCount><depthPhaseCount>0</depthPhaseCount><standardError>0.43542821103534335</standardError><azimuthalGap>169.196590423584</azimuthalGap><maximumDistance>0.8165062665939331</maximumDistance><minimumDistance>0.17775347828865051</minimumDistance><medianDistance>0.24812068045139313</medianDistance></quality><uncertainty><minHorizontalUncertainty>7.59767484664917</minHorizontalUncertainty><maxHorizontalUncertainty>14.359373092651367</maxHorizontalUncertainty><azimuthMaxHorizontalUncertainty>136.7984161376953</azimuthMaxHorizontalUncertainty><preferredDescription>horizontal uncertainty</preferredDescription></uncertainty><evaluationMode>automatic</evaluationMode><arrival><pickID>de.gempa.tb1.Pick/20250414175049.417227.236874</pickID><phase>P</phase><azimuth>205.43006896972656</azimuth><distance>0.17775347828865051</distance><timeResidual>0.021753549575805664</timeResidual><timeUsed>true</timeUsed><horizontalSlownessUsed>false</horizontalSlownessUsed><backazimuthUsed>false</backazimuthUsed><weight>1</weight></arrival><arrival><pickID>de.gempa.tb1.Pick/20250414175050.112776.236878</pickID><phase>P</phase><azimuth>273.6842956542969</azimuth><distance>0.24812068045139313</distance><timeResidual>-0.5958104133605957</timeResidual><timeUsed>true</timeUsed><horizontalSlownessUsed>false</horizontalSlownessUsed><backazimuthUsed>false</backazimuthUsed><weight>1</weight></arrival><arrival><pickID>de.gempa.tb1.Pick/20250414175055.123572.236881</pickID><phase>P</phase><azimuth>36.23347854614258</azimuth><distance>0.2209281325340271</distance><timeResidual>0.009867191314697266</timeResidual><timeUsed>true</timeUsed><horizontalSlownessUsed>false</horizontalSlownessUsed><backazimuthUsed>false</backazimuthUsed><weight>1</weight></arrival><arrival><pickID>de.gempa.tb1.Pick/20250414175059.151327.236883</pickID><phase>P</phase><azimuth>237.6628875732422</azimuth><distance>0.5943084359169006</distance><timeResidual>-0.18334341049194336</timeResidual><timeUsed>true</timeUsed><horizontalSlownessUsed>false</horizontalSlownessUsed><backazimuthUsed>false</backazimuthUsed><weight>1</weight></arrival><arrival><pickID>de.gempa.tb1.Pick/20250414175059.970821.236885</pickID><phase>P</phase><azimuth>266.3113098144531</azimuth><distance>0.8165062665939331</distance><timeResidual>0.7475380897521973</timeResidual><timeUsed>true</timeUsed><horizontalSlownessUsed>false</horizontalSlownessUsed><backazimuthUsed>false</backazimuthUsed><weight>1</weight></arrival><magnitude publicID="de.gempa.tb1.Magnitude/20250414175122.269844.522826"><magnitude><value>1.1985998492095102</value></magnitude><type>M</type><methodID>weighted average</methodID><stationCount>5</stationCount></magnitude></origin><event publicID="gempa2025hjpy"><preferredOriginID>de.gempa.tb1.Origin/20250414175059.975938.146815</preferredOriginID><preferredMagnitudeID>de.gempa.tb1.Magnitude/20250414175122.269844.522826</preferredMagnitudeID><typeCertainty>suspected</typeCertainty><description><text>Switzerland</text><type>region name</type></description><originReference>de.gempa.tb1.Origin/20250414175059.975938.146815</originReference></event></EventParameters></seiscomp>