<?xml version="1.0" encoding="UTF-8"?>
<seiscomp xmlns="http://geofon.gfz-potsdam.de/ns/seiscomp3-schema/0.13" version="0.13"><EventParameters><pick publicID="de.gempa.tb1.Pick/20250413092112.580717.130345"><time><value>2025-04-13T09:21:06.418393Z</value></time><waveformID networkCode="CX" stationCode="PB03" channelCode="HHZ"/><filterID>ITAPER(4)&gt;&gt;BW(4,4,20)</filterID><methodID>AIC</methodID><horizontalSlowness><value>8.318351710494213</value></horizontalSlowness><backazimuth><value>145.2563302139808</value></backazimuth><phaseHint>P</phaseHint><evaluationMode>automatic</evaluationMode><comment><text>10.06957138092327</text><id>DFX:rectilinearity</id></comment><comment><text>38.837182346895695</text><id>SNR</id></comment></pick><pick publicID="de.gempa.tb1.Pick/20250413092114.428122.130347"><time><value>2025-04-13T09:21:07.318393Z</value></time><waveformID networkCode="CX" stationCode="PB02" channelCode="HHZ"/><filterID>ITAPER(4)&gt;&gt;BW(4,4,20)</filterID><methodID>AIC</methodID><horizontalSlowness><value>16.732429565076728</value></horizontalSlowness><backazimuth><value>305.9757755995869</value></backazimuth><phaseHint>P</phaseHint><evaluationMode>automatic</evaluationMode><comment><text>82.42312950001519</text><id>DFX:rectilinearity</id></comment><comment><text>14.93106385552457</text><id>SNR</id></comment></pick><pick publicID="de.gempa.tb1.Pick/20250413092118.578401.130349"><time><value>2025-04-13T09:21:10.73Z</value></time><waveformID networkCode="CX" stationCode="PB09" channelCode="HHZ"/><filterID>ITAPER(4)&gt;&gt;BW(4,4,20)</filterID><methodID>AIC</methodID><horizontalSlowness><value>17.277022625209206</value></horizontalSlowness><backazimuth><value>332.0289846379352</value></backazimuth><phaseHint>P</phaseHint><evaluationMode>automatic</evaluationMode><comment><text>32.13545040305423</text><id>DFX:rectilinearity</id></comment><comment><text>28.681653495402507</text><id>SNR</id></comment></pick><pick publicID="de.gempa.tb1.Pick/20250413092122.57017.130351"><time><value>2025-04-13T09:21:15.248393Z</value></time><waveformID networkCode="CX" stationCode="PB03" channelCode="HHN"/><filterID>ITAPER(2)&gt;&gt;BW(3,3,20)</filterID><methodID>L2-AIC-GRID</methodID><horizontalSlowness><value>21.137124103238524</value></horizontalSlowness><backazimuth><value>55.28522214035389</value></backazimuth><phaseHint>S</phaseHint><evaluationMode>automatic</evaluationMode><comment><text>9.157505410336883</text><id>DFX:rectilinearity</id></comment><comment><text>de.gempa.tb1.Pick/20250413092112.580717.130345</text><id>RefPickID</id></comment><comment><text>7.203002260161156</text><id>SNR</id></comment></pick><pick publicID="de.gempa.tb1.Pick/20250413092125.512848.130352"><time><value>2025-04-13T09:21:16.778393Z</value></time><waveformID networkCode="CX" stationCode="PB02" channelCode="HHN"/><filterID>ITAPER(2)&gt;&gt;BW(3,3,20)</filterID><methodID>L2-AIC-GRID</methodID><horizontalSlowness><value>7.67772895405635</value></horizontalSlowness><backazimuth><value>213.4725740798625</value></backazimuth><phaseHint>S</phaseHint><evaluationMode>automatic</evaluationMode><comment><text>39.72600954145066</text><id>DFX:rectilinearity</id></comment><comment><text>de.gempa.tb1.Pick/20250413092114.428122.130347</text><id>RefPickID</id></comment><comment><text>6.955804727113403</text><id>SNR</id></comment></pick><pick publicID="de.gempa.tb1.Pick/20250413092131.546712.130355"><time><value>2025-04-13T09:21:05.178393Z</value></time><waveformID networkCode="CX" stationCode="PB07" channelCode="HHZ"/><filterID>ITAPER(4)&gt;&gt;BW(4,4,20)</filterID><methodID>AIC</methodID><horizontalSlowness><value>20.189383341412107</value></horizontalSlowness><backazimuth><value>66.2097716589558</value></backazimuth><phaseHint>P</phaseHint><evaluationMode>automatic</evaluationMode><comment><text>97.79288961600234</text><id>DFX:rectilinearity</id></comment><comment><text>39.218180256039176</text><id>SNR</id></comment></pick><pick publicID="de.gempa.tb1.Pick/20250413092135.626698.130357"><time><value>2025-04-13T09:21:13.148393Z</value></time><waveformID networkCode="CX" stationCode="PB07" channelCode="HHN"/><filterID>ITAPER(2)&gt;&gt;BW(3,3,20)</filterID><methodID>L2-AIC-GRID</methodID><horizontalSlowness><value>23.58169219466298</value></horizontalSlowness><backazimuth><value>217.31851014398273</value></backazimuth><phaseHint>S</phaseHint><evaluationMode>automatic</evaluationMode><comment><text>452.0318963523276</text><id>DFX:rectilinearity</id></comment><comment><text>de.gempa.tb1.Pick/20250413092131.546712.130355</text><id>RefPickID</id></comment><comment><text>12.54915521268268</text><id>SNR</id></comment></pick><pick publicID="de.gempa.tb1.Pick/20250413092136.531739.130358"><time><value>2025-04-13T09:21:22.65Z</value></time><waveformID networkCode="CX" stationCode="PB09" channelCode="HHN"/><filterID>ITAPER(2)&gt;&gt;BW(3,3,20)</filterID><methodID>L2-AIC-GRID</methodID><horizontalSlowness><value>8.732015822103346</value></horizontalSlowness><backazimuth><value>237.1881106941476</value></backazimuth><phaseHint>S</phaseHint><evaluationMode>automatic</evaluationMode><comment><text>13.169033197955214</text><id>DFX:rectilinearity</id></comment><comment><text>de.gempa.tb1.Pick/20250413092118.578401.130349</text><id>RefPickID</id></comment><comment><text>7.66106074044486</text><id>SNR</id></comment></pick><origin publicID="de.gempa.tb1.Origin/20250413092136.535836.106540"><time><value>2025-04-13T09:20:54.73487Z</value><uncertainty>1.2542052268981934</uncertainty></time><latitude><value>-21.788009643554688</value><uncertainty>5.558126926422119</uncertainty></latitude><longitude><value>-70.09555053710938</value><uncertainty>7.993462562561035</uncertainty></longitude><depth><value>67.46124267578125</value><uncertainty>7.675048828125</uncertainty></depth><depthType>from location</depthType><methodID>LOCSAT</methodID><earthModelID>iasp91_scanloc</earthModelID><quality><associatedPhaseCount>8</associatedPhaseCount><usedPhaseCount>8</usedPhaseCount><associatedStationCount>4</associatedStationCount><usedStationCount>4</usedStationCount><depthPhaseCount>0</depthPhaseCount><standardError>0.15114394790712585</standardError><azimuthalGap>252.52160835266113</azimuthalGap><maximumDistance>0.7933991551399231</maximumDistance><minimumDistance>0.20398405194282532</minimumDistance><medianDistance>0.5016363859176636</medianDistance></quality><uncertainty><minHorizontalUncertainty>10.42898941040039</minHorizontalUncertainty><maxHorizontalUncertainty>18.086076736450195</maxHorizontalUncertainty><azimuthMaxHorizontalUncertainty>67.01544952392578</azimuthMaxHorizontalUncertainty><preferredDescription>horizontal uncertainty</preferredDescription></uncertainty><evaluationMode>automatic</evaluationMode><evaluationStatus>confirmed</evaluationStatus><comment><text>0.00</text><id>mismatchScore</id></comment><comment><text>mismatchScore</text><id>scevalMethod</id></comment><arrival><pickID>de.gempa.tb1.Pick/20250413092112.580717.130345</pickID><phase>P</phase><azimuth>129.24693298339844</azimuth><distance>0.4102492928504944</distance><timeResidual>-0.09264373779296875</timeResidual><timeUsed>true</timeUsed><horizontalSlownessUsed>false</horizontalSlownessUsed><backazimuthUsed>false</backazimuthUsed><weight>1</weight></arrival><arrival><pickID>de.gempa.tb1.Pick/20250413092114.428122.130347</pickID><phase>P</phase><azimuth>21.76854133605957</azimuth><distance>0.5016363859176636</distance><timeResidual>-0.043435096740722656</timeResidual><timeUsed>true</timeUsed><horizontalSlownessUsed>false</horizontalSlownessUsed><backazimuthUsed>false</backazimuthUsed><weight>1</weight></arrival><arrival><pickID>de.gempa.tb1.Pick/20250413092118.578401.130349</pickID><phase>P</phase><azimuth>90.75900268554688</azimuth><distance>0.7933991551399231</distance><timeResidual>0.1590414047241211</timeResidual><timeUsed>true</timeUsed><horizontalSlownessUsed>false</horizontalSlownessUsed><backazimuthUsed>false</backazimuthUsed><weight>1</weight></arrival><arrival><pickID>de.gempa.tb1.Pick/20250413092122.57017.130351</pickID><phase>S</phase><azimuth>129.24693298339844</azimuth><distance>0.4102492928504944</distance><timeResidual>-0.1974925994873047</timeResidual><timeUsed>true</timeUsed><horizontalSlownessUsed>false</horizontalSlownessUsed><backazimuthUsed>false</backazimuthUsed><weight>1</weight></arrival><arrival><pickID>de.gempa.tb1.Pick/20250413092125.512848.130352</pickID><phase>S</phase><azimuth>21.76854133605957</azimuth><distance>0.5016363859176636</distance><timeResidual>-0.17557525634765625</timeResidual><timeUsed>true</timeUsed><horizontalSlownessUsed>false</horizontalSlownessUsed><backazimuthUsed>false</backazimuthUsed><weight>1</weight></arrival><arrival><pickID>de.gempa.tb1.Pick/20250413092131.546712.130355</pickID><phase>P</phase><azimuth>72.626220703125</azimuth><distance>0.20398405194282532</distance><timeResidual>0.11003494262695312</timeResidual><timeUsed>true</timeUsed><horizontalSlownessUsed>false</horizontalSlownessUsed><backazimuthUsed>false</backazimuthUsed><weight>1</weight></arrival><arrival><pickID>de.gempa.tb1.Pick/20250413092135.626698.130357</pickID><phase>S</phase><azimuth>72.626220703125</azimuth><distance>0.20398405194282532</distance><timeResidual>0.2546548843383789</timeResidual><timeUsed>true</timeUsed><horizontalSlownessUsed>false</horizontalSlownessUsed><backazimuthUsed>false</backazimuthUsed><weight>1</weight></arrival><arrival><pickID>de.gempa.tb1.Pick/20250413092136.531739.130358</pickID><phase>S</phase><azimuth>90.75900268554688</azimuth><distance>0.7933991551399231</distance><timeResidual>-0.01433563232421875</timeResidual><timeUsed>true</timeUsed><horizontalSlownessUsed>false</horizontalSlownessUsed><backazimuthUsed>false</backazimuthUsed><weight>1</weight></arrival><magnitude publicID="de.gempa.tb1.Magnitude/20250413092157.744827.336593"><magnitude><value>1.9973609431663268</value></magnitude><type>M</type><methodID>weighted average</methodID><stationCount>4</stationCount></magnitude></origin><event publicID="gempa2025hhcy"><preferredOriginID>de.gempa.tb1.Origin/20250413092136.535836.106540</preferredOriginID><preferredMagnitudeID>de.gempa.tb1.Magnitude/20250413092157.744827.336593</preferredMagnitudeID><description><text>Near Coast of Northern Chile</text><type>region name</type></description><originReference>de.gempa.tb1.Origin/20250413092136.535836.106540</originReference></event></EventParameters></seiscomp>