<?xml version="1.0" encoding="UTF-8"?>
<seiscomp xmlns="http://geofon.gfz-potsdam.de/ns/seiscomp3-schema/0.13" version="0.13"><EventParameters><pick publicID="de.gempa.tb1.Pick/20250413003950.880872.127819"><time><value>2025-04-13T00:39:45.288391Z</value></time><waveformID networkCode="CX" stationCode="PB15" channelCode="HHZ"/><filterID>ITAPER(4)&gt;&gt;BW(4,4,20)</filterID><methodID>AIC</methodID><horizontalSlowness><value>21.09743142140558</value></horizontalSlowness><backazimuth><value>82.67018509717843</value></backazimuth><phaseHint>P</phaseHint><evaluationMode>automatic</evaluationMode><comment><text>2376.8244819032343</text><id>DFX:rectilinearity</id></comment><comment><text>24.015749150917674</text><id>SNR</id></comment></pick><pick publicID="de.gempa.tb1.Pick/20250413003951.76659.127821"><time><value>2025-04-13T00:39:44.248393Z</value></time><waveformID networkCode="CX" stationCode="PB06" channelCode="HHZ"/><filterID>ITAPER(4)&gt;&gt;BW(4,4,20)</filterID><methodID>AIC</methodID><horizontalSlowness><value>16.631939541300568</value></horizontalSlowness><backazimuth><value>324.49411375636714</value></backazimuth><phaseHint>P</phaseHint><evaluationMode>automatic</evaluationMode><comment><text>61.42382252818196</text><id>DFX:rectilinearity</id></comment><comment><text>16.060257693010104</text><id>SNR</id></comment></pick><pick publicID="de.gempa.tb1.Pick/20250413003954.529396.127823"><time><value>2025-04-13T00:39:47.448393Z</value></time><waveformID networkCode="CX" stationCode="PB03" channelCode="HHZ"/><filterID>ITAPER(4)&gt;&gt;BW(4,4,20)</filterID><methodID>AIC</methodID><horizontalSlowness><value>2.3200607032800193</value></horizontalSlowness><backazimuth><value>246.0431185821991</value></backazimuth><phaseHint>P</phaseHint><evaluationMode>automatic</evaluationMode><comment><text>15.699732497801426</text><id>DFX:rectilinearity</id></comment><comment><text>15.666002212586397</text><id>SNR</id></comment></pick><pick publicID="de.gempa.tb1.Pick/20250413003954.599828.127825"><time><value>2025-04-13T00:39:50.13Z</value></time><waveformID networkCode="CX" stationCode="PB19" channelCode="HHZ"/><filterID>ITAPER(4)&gt;&gt;BW(4,4,20)</filterID><methodID>AIC</methodID><horizontalSlowness><value>1.7422943237235868</value></horizontalSlowness><backazimuth><value>122.36119441629081</value></backazimuth><phaseHint>P</phaseHint><evaluationMode>automatic</evaluationMode><comment><text>28.469548800021364</text><id>DFX:rectilinearity</id></comment><comment><text>19.888993490145655</text><id>SNR</id></comment></pick><pick publicID="de.gempa.tb1.Pick/20250413003955.656345.127827"><time><value>2025-04-13T00:39:51.038394Z</value></time><waveformID networkCode="CX" stationCode="PB07" channelCode="HHZ"/><filterID>ITAPER(4)&gt;&gt;BW(4,4,20)</filterID><methodID>AIC</methodID><horizontalSlowness><value>21.699475122587273</value></horizontalSlowness><backazimuth><value>91.8933718725855</value></backazimuth><phaseHint>P</phaseHint><evaluationMode>automatic</evaluationMode><comment><text>452.7626235270262</text><id>DFX:rectilinearity</id></comment><comment><text>13.700555260451523</text><id>SNR</id></comment></pick><pick publicID="de.gempa.tb1.Pick/20250413003956.654147.127829"><time><value>2025-04-13T00:39:46.21Z</value></time><waveformID networkCode="CX" stationCode="PB09" channelCode="HHZ"/><filterID>ITAPER(4)&gt;&gt;BW(4,4,20)</filterID><methodID>AIC</methodID><horizontalSlowness><value>13.54980066334993</value></horizontalSlowness><backazimuth><value>312.46681621214924</value></backazimuth><phaseHint>P</phaseHint><evaluationMode>automatic</evaluationMode><comment><text>15.60054912380841</text><id>DFX:rectilinearity</id></comment><comment><text>12.961400910261036</text><id>SNR</id></comment></pick><pick publicID="de.gempa.tb1.Pick/20250413004009.786245.127831"><time><value>2025-04-13T00:39:59.988393Z</value></time><waveformID networkCode="CX" stationCode="PB06" channelCode="HHN"/><filterID>ITAPER(2)&gt;&gt;BW(3,3,20)</filterID><methodID>L2-AIC-GRID</methodID><horizontalSlowness><value>22.62046463140127</value></horizontalSlowness><backazimuth><value>254.27957755335913</value></backazimuth><phaseHint>S</phaseHint><evaluationMode>automatic</evaluationMode><comment><text>230.68657249092823</text><id>DFX:rectilinearity</id></comment><comment><text>de.gempa.tb1.Pick/20250413003951.76659.127821</text><id>RefPickID</id></comment><comment><text>11.42389481620994</text><id>SNR</id></comment></pick><pick publicID="de.gempa.tb1.Pick/20250413004012.780728.127832"><time><value>2025-04-13T00:40:05.238393Z</value></time><waveformID networkCode="CX" stationCode="PB03" channelCode="HHN"/><filterID>ITAPER(2)&gt;&gt;BW(3,3,20)</filterID><methodID>L2-AIC-GRID</methodID><horizontalSlowness><value>23.232537844117857</value></horizontalSlowness><backazimuth><value>43.78559997146121</value></backazimuth><phaseHint>S</phaseHint><evaluationMode>automatic</evaluationMode><comment><text>155.1229895974253</text><id>DFX:rectilinearity</id></comment><comment><text>de.gempa.tb1.Pick/20250413003954.529396.127823</text><id>RefPickID</id></comment><comment><text>10.891742524977468</text><id>SNR</id></comment></pick><pick publicID="de.gempa.tb1.Pick/20250413004045.989543.127839"><time><value>2025-04-13T00:40:10.938394Z</value></time><waveformID networkCode="CX" stationCode="PB07" channelCode="HHN"/><filterID>ITAPER(2)&gt;&gt;BW(3,3,20)</filterID><methodID>L2-AIC-GRID</methodID><horizontalSlowness><value>22.211426621905044</value></horizontalSlowness><backazimuth><value>264.99853165321406</value></backazimuth><phaseHint>S</phaseHint><evaluationMode>automatic</evaluationMode><comment><text>589.4686726983066</text><id>DFX:rectilinearity</id></comment><comment><text>de.gempa.tb1.Pick/20250413003955.656345.127827</text><id>RefPickID</id></comment><comment><text>5.072284060152963</text><id>SNR</id></comment></pick><origin publicID="de.gempa.tb1.Origin/20250413004046.193431.96564"><time><value>2025-04-13T00:39:24.418391Z</value><uncertainty>1.0814493894577026</uncertainty></time><latitude><value>-22.64617347717285</value><uncertainty>6.561910152435303</uncertainty></latitude><longitude><value>-68.77043151855469</value><uncertainty>20.792470932006836</uncertainty></longitude><depth><value>122.09092712402344</value><uncertainty>19.93058967590332</uncertainty></depth><depthType>from location</depthType><methodID>LOCSAT</methodID><earthModelID>iasp91_scanloc</earthModelID><quality><associatedPhaseCount>9</associatedPhaseCount><usedPhaseCount>9</usedPhaseCount><associatedStationCount>6</associatedStationCount><usedStationCount>6</usedStationCount><depthPhaseCount>0</depthPhaseCount><standardError>0.16810601754982019</standardError><azimuthalGap>228.20701599121094</azimuthalGap><maximumDistance>1.3808531761169434</maximumDistance><minimumDistance>0.7426015734672546</minimumDistance><medianDistance>1.0869511365890503</medianDistance></quality><uncertainty><minHorizontalUncertainty>10.530211448669434</minHorizontalUncertainty><maxHorizontalUncertainty>45.55110931396484</maxHorizontalUncertainty><azimuthMaxHorizontalUncertainty>77.84344482421875</azimuthMaxHorizontalUncertainty><preferredDescription>horizontal uncertainty</preferredDescription></uncertainty><evaluationMode>automatic</evaluationMode><evaluationStatus>confirmed</evaluationStatus><comment><text>0.00</text><id>mismatchScore</id></comment><comment><text>mismatchScore</text><id>scevalMethod</id></comment><arrival><pickID>de.gempa.tb1.Pick/20250413003950.880872.127819</pickID><phase>P</phase><azimuth>228.95863342285156</azimuth><distance>0.8544762134552002</distance><timeResidual>-0.0222015380859375</timeResidual><timeUsed>true</timeUsed><horizontalSlownessUsed>false</horizontalSlownessUsed><backazimuthUsed>false</backazimuthUsed><weight>1</weight></arrival><arrival><pickID>de.gempa.tb1.Pick/20250413003951.76659.127821</pickID><phase>P</phase><azimuth>265.2628479003906</azimuth><distance>0.7426015734672546</distance><timeResidual>-0.11116409301757812</timeResidual><timeUsed>true</timeUsed><horizontalSlownessUsed>false</horizontalSlownessUsed><backazimuthUsed>false</backazimuthUsed><weight>1</weight></arrival><arrival><pickID>de.gempa.tb1.Pick/20250413003954.529396.127823</pickID><phase>P</phase><azimuth>302.9928283691406</azimuth><distance>1.0869511365890503</distance><timeResidual>-0.08623886108398438</timeResidual><timeUsed>true</timeUsed><horizontalSlownessUsed>false</horizontalSlownessUsed><backazimuthUsed>false</backazimuthUsed><weight>1</weight></arrival><arrival><pickID>de.gempa.tb1.Pick/20250413003954.599828.127825</pickID><phase>P</phase><azimuth>200.7976837158203</azimuth><distance>1.3410135507583618</distance><timeResidual>-0.09028244018554688</timeResidual><timeUsed>true</timeUsed><horizontalSlownessUsed>false</horizontalSlownessUsed><backazimuthUsed>false</backazimuthUsed><weight>1</weight></arrival><arrival><pickID>de.gempa.tb1.Pick/20250413003955.656345.127827</pickID><phase>P</phase><azimuth>311.29486083984375</azimuth><distance>1.3808531761169434</distance><timeResidual>0.36250877380371094</timeResidual><timeUsed>true</timeUsed><horizontalSlownessUsed>false</horizontalSlownessUsed><backazimuthUsed>false</backazimuthUsed><weight>1</weight></arrival><arrival><pickID>de.gempa.tb1.Pick/20250413003956.654147.127829</pickID><phase>P</phase><azimuth>332.5906677246094</azimuth><distance>0.9518970847129822</distance><timeResidual>-0.003360748291015625</timeResidual><timeUsed>true</timeUsed><horizontalSlownessUsed>false</horizontalSlownessUsed><backazimuthUsed>false</backazimuthUsed><weight>1</weight></arrival><arrival><pickID>de.gempa.tb1.Pick/20250413004009.786245.127831</pickID><phase>S</phase><azimuth>265.2628479003906</azimuth><distance>0.7426015734672546</distance><timeResidual>0.22786521911621094</timeResidual><timeUsed>true</timeUsed><horizontalSlownessUsed>false</horizontalSlownessUsed><backazimuthUsed>false</backazimuthUsed><weight>1</weight></arrival><arrival><pickID>de.gempa.tb1.Pick/20250413004012.780728.127832</pickID><phase>S</phase><azimuth>302.9928283691406</azimuth><distance>1.0869511365890503</distance><timeResidual>-0.1840343475341797</timeResidual><timeUsed>true</timeUsed><horizontalSlownessUsed>false</horizontalSlownessUsed><backazimuthUsed>false</backazimuthUsed><weight>1</weight></arrival><arrival><pickID>de.gempa.tb1.Pick/20250413004045.989543.127839</pickID><phase>S</phase><azimuth>311.29486083984375</azimuth><distance>1.3808531761169434</distance><timeResidual>-0.09318351745605469</timeResidual><timeUsed>true</timeUsed><horizontalSlownessUsed>false</horizontalSlownessUsed><backazimuthUsed>false</backazimuthUsed><weight>1</weight></arrival><magnitude publicID="de.gempa.tb1.Magnitude/20250413004050.937624.296506"><magnitude><value>2.6472244282859423</value></magnitude><type>M</type><methodID>weighted average</methodID><stationCount>3</stationCount></magnitude></origin><event publicID="gempa2025hglo"><preferredOriginID>de.gempa.tb1.Origin/20250413004046.193431.96564</preferredOriginID><preferredMagnitudeID>de.gempa.tb1.Magnitude/20250413004050.937624.296506</preferredMagnitudeID><description><text>Northern Chile</text><type>region name</type></description><originReference>de.gempa.tb1.Origin/20250413004046.193431.96564</originReference></event></EventParameters></seiscomp>