<?xml version="1.0" encoding="UTF-8"?>
<seiscomp xmlns="http://geofon.gfz-potsdam.de/ns/seiscomp3-schema/0.13" version="0.13"><EventParameters><pick publicID="de.gempa.tb1.Pick/20250414063730.513198.136251"><time><value>2025-04-14T06:37:24.698393Z</value></time><waveformID networkCode="CX" stationCode="PB03" channelCode="HHZ"/><filterID>ITAPER(4)&gt;&gt;BW(4,4,20)</filterID><methodID>AIC</methodID><horizontalSlowness><value>11.803511916387613</value></horizontalSlowness><backazimuth><value>135.22921409660836</value></backazimuth><phaseHint>P</phaseHint><evaluationMode>automatic</evaluationMode><comment><text>8.356205035283116</text><id>DFX:rectilinearity</id></comment><comment><text>25.56853064379323</text><id>SNR</id></comment></pick><pick publicID="de.gempa.tb1.Pick/20250414063730.578206.136253"><time><value>2025-04-14T06:37:24.228391Z</value></time><waveformID networkCode="CX" stationCode="PB01" channelCode="HHZ"/><filterID>ITAPER(4)&gt;&gt;BW(4,4,20)</filterID><methodID>AIC</methodID><horizontalSlowness><value>2.713560963300285</value></horizontalSlowness><backazimuth><value>140.00672101410905</value></backazimuth><phaseHint>P</phaseHint><evaluationMode>automatic</evaluationMode><comment><text>14.622440049898206</text><id>DFX:rectilinearity</id></comment><comment><text>32.240792635820675</text><id>SNR</id></comment></pick><pick publicID="de.gempa.tb1.Pick/20250414063731.193205.136255"><time><value>2025-04-14T06:37:20.66Z</value></time><waveformID networkCode="CX" stationCode="PB09" channelCode="HHZ"/><filterID>ITAPER(4)&gt;&gt;BW(4,4,20)</filterID><methodID>AIC</methodID><horizontalSlowness><value>21.401019165346863</value></horizontalSlowness><backazimuth><value>72.70064892130213</value></backazimuth><phaseHint>P</phaseHint><evaluationMode>automatic</evaluationMode><comment><text>8.569839773690791</text><id>DFX:rectilinearity</id></comment><comment><text>38.72055019464029</text><id>SNR</id></comment></pick><pick publicID="de.gempa.tb1.Pick/20250414063732.51691.136258"><time><value>2025-04-14T06:37:26.628393Z</value></time><waveformID networkCode="CX" stationCode="PB02" channelCode="HHZ"/><filterID>ITAPER(4)&gt;&gt;BW(4,4,20)</filterID><methodID>AIC</methodID><horizontalSlowness><value>6.63468492564764</value></horizontalSlowness><backazimuth><value>338.2593521678829</value></backazimuth><phaseHint>P</phaseHint><evaluationMode>automatic</evaluationMode><comment><text>27.54603310008248</text><id>DFX:rectilinearity</id></comment><comment><text>33.20271859397573</text><id>SNR</id></comment></pick><pick publicID="de.gempa.tb1.Pick/20250414063739.259263.136262"><time><value>2025-04-14T06:37:31.439999Z</value></time><waveformID networkCode="CX" stationCode="PATCX" channelCode="HHZ"/><filterID>ITAPER(4)&gt;&gt;BW(4,4,20)</filterID><methodID>AIC</methodID><horizontalSlowness><value>16.671159306159037</value></horizontalSlowness><backazimuth><value>318.767388458935</value></backazimuth><phaseHint>P</phaseHint><evaluationMode>automatic</evaluationMode><comment><text>88.90097642433335</text><id>DFX:rectilinearity</id></comment><comment><text>7.736528741431462</text><id>SNR</id></comment></pick><pick publicID="de.gempa.tb1.Pick/20250414063743.511007.136264"><time><value>2025-04-14T06:37:36.41Z</value></time><waveformID networkCode="CX" stationCode="PB19" channelCode="HHZ"/><filterID>ITAPER(4)&gt;&gt;BW(4,4,20)</filterID><methodID>AIC</methodID><horizontalSlowness><value>15.37201489447906</value></horizontalSlowness><backazimuth><value>48.33550585879036</value></backazimuth><phaseHint>P</phaseHint><evaluationMode>automatic</evaluationMode><comment><text>12.351881955298694</text><id>DFX:rectilinearity</id></comment><comment><text>7.552869772308136</text><id>SNR</id></comment></pick><pick publicID="de.gempa.tb1.Pick/20250414063751.779841.136266"><time><value>2025-04-14T06:37:44.638393Z</value></time><waveformID networkCode="CX" stationCode="PB03" channelCode="HHN"/><filterID>ITAPER(2)&gt;&gt;BW(3,3,20)</filterID><methodID>L2-AIC-GRID</methodID><horizontalSlowness><value>17.814044403529223</value></horizontalSlowness><backazimuth><value>315.8421776698972</value></backazimuth><phaseHint>S</phaseHint><evaluationMode>automatic</evaluationMode><comment><text>75.34892572000108</text><id>DFX:rectilinearity</id></comment><comment><text>de.gempa.tb1.Pick/20250414063730.513198.136251</text><id>RefPickID</id></comment><comment><text>16.396297205789445</text><id>SNR</id></comment></pick><pick publicID="de.gempa.tb1.Pick/20250414063756.16457.136269"><time><value>2025-04-14T06:37:38.61Z</value></time><waveformID networkCode="CX" stationCode="PB09" channelCode="HHN"/><filterID>ITAPER(2)&gt;&gt;BW(3,3,20)</filterID><methodID>L2-AIC-GRID</methodID><horizontalSlowness><value>19.654292061943085</value></horizontalSlowness><backazimuth><value>337.58564263457146</value></backazimuth><phaseHint>S</phaseHint><evaluationMode>automatic</evaluationMode><comment><text>25.819834560746823</text><id>DFX:rectilinearity</id></comment><comment><text>de.gempa.tb1.Pick/20250414063731.193205.136255</text><id>RefPickID</id></comment><comment><text>5.006718693735935</text><id>SNR</id></comment></pick><pick publicID="de.gempa.tb1.Pick/20250414063806.187079.136271"><time><value>2025-04-14T06:37:25.848394Z</value></time><waveformID networkCode="CX" stationCode="PB07" channelCode="HHZ"/><filterID>ITAPER(4)&gt;&gt;BW(4,4,20)</filterID><methodID>AIC</methodID><horizontalSlowness><value>21.488956092095144</value></horizontalSlowness><backazimuth><value>76.06414760216073</value></backazimuth><phaseHint>P</phaseHint><evaluationMode>automatic</evaluationMode><comment><text>192.21263398953283</text><id>DFX:rectilinearity</id></comment><comment><text>77.53346613873254</text><id>SNR</id></comment></pick><pick publicID="de.gempa.tb1.Pick/20250414063814.891668.136274"><time><value>2025-04-14T06:37:46.898394Z</value></time><waveformID networkCode="CX" stationCode="PB07" channelCode="HHN"/><filterID>ITAPER(2)&gt;&gt;BW(3,3,20)</filterID><methodID>L2-AIC-GRID</methodID><horizontalSlowness><value>22.117884619444919</value></horizontalSlowness><backazimuth><value>220.3635353739627</value></backazimuth><phaseHint>S</phaseHint><evaluationMode>automatic</evaluationMode><comment><text>2687.366144084406</text><id>DFX:rectilinearity</id></comment><comment><text>de.gempa.tb1.Pick/20250414063806.187079.136271</text><id>RefPickID</id></comment><comment><text>9.945419468643713</text><id>SNR</id></comment></pick><origin publicID="de.gempa.tb1.Origin/20250414063814.894907.130225"><time><value>2025-04-14T06:36:58.519018Z</value><uncertainty>0.9159430861473083</uncertainty></time><latitude><value>-21.78504753112793</value><uncertainty>7.417384147644043</uncertainty></latitude><longitude><value>-68.55863189697266</value><uncertainty>12.97173309326172</uncertainty></longitude><depth><value>152.4491424560547</value><uncertainty>9.978269577026367</uncertainty></depth><depthType>from location</depthType><methodID>LOCSAT</methodID><earthModelID>iasp91_scanloc</earthModelID><quality><associatedPhaseCount>10</associatedPhaseCount><usedPhaseCount>10</usedPhaseCount><associatedStationCount>7</associatedStationCount><usedStationCount>7</usedStationCount><depthPhaseCount>0</depthPhaseCount><standardError>0.290658447913485</standardError><azimuthalGap>247.31471252441406</azimuthalGap><maximumDistance>2.2152020931243896</maximumDistance><minimumDistance>0.6351486444473267</minimumDistance><medianDistance>1.235480785369873</medianDistance></quality><uncertainty><minHorizontalUncertainty>15.13548469543457</minHorizontalUncertainty><maxHorizontalUncertainty>28.240333557128906</maxHorizontalUncertainty><azimuthMaxHorizontalUncertainty>78.17420196533203</azimuthMaxHorizontalUncertainty><preferredDescription>horizontal uncertainty</preferredDescription></uncertainty><evaluationMode>automatic</evaluationMode><evaluationStatus>confirmed</evaluationStatus><comment><text>0.14</text><id>mismatchScore</id></comment><comment><text>mismatchScore</text><id>scevalMethod</id></comment><arrival><pickID>de.gempa.tb1.Pick/20250414063730.513198.136251</pickID><phase>P</phase><azimuth>256.4813232421875</azimuth><distance>1.1397230625152588</distance><timeResidual>-0.03613853454589844</timeResidual><timeUsed>true</timeUsed><horizontalSlownessUsed>false</horizontalSlownessUsed><backazimuthUsed>false</backazimuthUsed><weight>1</weight></arrival><arrival><pickID>de.gempa.tb1.Pick/20250414063730.578206.136253</pickID><phase>P</phase><azimuth>310.2933654785156</azimuth><distance>1.1374610662460327</distance><timeResidual>-0.4929370880126953</timeResidual><timeUsed>true</timeUsed><horizontalSlownessUsed>false</horizontalSlownessUsed><backazimuthUsed>false</backazimuthUsed><weight>1</weight></arrival><arrival><pickID>de.gempa.tb1.Pick/20250414063731.193205.136255</pickID><phase>P</phase><azimuth>268.85662841796875</azimuth><distance>0.6351486444473267</distance><timeResidual>-0.2107219696044922</timeResidual><timeUsed>true</timeUsed><horizontalSlownessUsed>false</horizontalSlownessUsed><backazimuthUsed>false</backazimuthUsed><weight>1</weight></arrival><arrival><pickID>de.gempa.tb1.Pick/20250414063732.51691.136258</pickID><phase>P</phase><azimuth>290.1557312011719</azimuth><distance>1.3283169269561768</distance><timeResidual>0.1022186279296875</timeResidual><timeUsed>true</timeUsed><horizontalSlownessUsed>false</horizontalSlownessUsed><backazimuthUsed>false</backazimuthUsed><weight>1</weight></arrival><arrival><pickID>de.gempa.tb1.Pick/20250414063739.259263.136262</pickID><phase>P</phase><azimuth>302.5511169433594</azimuth><distance>1.769390106201172</distance><timeResidual>0.2632465362548828</timeResidual><timeUsed>true</timeUsed><horizontalSlownessUsed>false</horizontalSlownessUsed><backazimuthUsed>false</backazimuthUsed><weight>1</weight></arrival><arrival><pickID>de.gempa.tb1.Pick/20250414063743.511007.136264</pickID><phase>P</phase><azimuth>197.6080780029297</azimuth><distance>2.2152020931243896</distance><timeResidual>0.10170936584472656</timeResidual><timeUsed>true</timeUsed><horizontalSlownessUsed>false</horizontalSlownessUsed><backazimuthUsed>false</backazimuthUsed><weight>1</weight></arrival><arrival><pickID>de.gempa.tb1.Pick/20250414063751.779841.136266</pickID><phase>S</phase><azimuth>256.4813232421875</azimuth><distance>1.1397230625152588</distance><timeResidual>-0.4966487884521484</timeResidual><timeUsed>true</timeUsed><horizontalSlownessUsed>false</horizontalSlownessUsed><backazimuthUsed>false</backazimuthUsed><weight>1</weight></arrival><arrival><pickID>de.gempa.tb1.Pick/20250414063756.16457.136269</pickID><phase>S</phase><azimuth>268.85662841796875</azimuth><distance>0.6351486444473267</distance><timeResidual>0.3741931915283203</timeResidual><timeUsed>true</timeUsed><horizontalSlownessUsed>false</horizontalSlownessUsed><backazimuthUsed>false</backazimuthUsed><weight>1</weight></arrival><arrival><pickID>de.gempa.tb1.Pick/20250414063806.187079.136271</pickID><phase>P</phase><azimuth>272.45037841796875</azimuth><distance>1.235480785369873</distance><timeResidual>0.22289657592773438</timeResidual><timeUsed>true</timeUsed><horizontalSlownessUsed>false</horizontalSlownessUsed><backazimuthUsed>false</backazimuthUsed><weight>1</weight></arrival><arrival><pickID>de.gempa.tb1.Pick/20250414063814.891668.136274</pickID><phase>S</phase><azimuth>272.45037841796875</azimuth><distance>1.235480785369873</distance><timeResidual>0.17225265502929688</timeResidual><timeUsed>true</timeUsed><horizontalSlownessUsed>false</horizontalSlownessUsed><backazimuthUsed>false</backazimuthUsed><weight>1</weight></arrival><magnitude publicID="de.gempa.tb1.Magnitude/20250414063846.026587.440416"><magnitude><value>2.4579863292872375</value></magnitude><type>M</type><methodID>weighted average</methodID><stationCount>4</stationCount></magnitude></origin><event publicID="gempa2025hito"><preferredOriginID>de.gempa.tb1.Origin/20250414063814.894907.130225</preferredOriginID><preferredMagnitudeID>de.gempa.tb1.Magnitude/20250414063846.026587.440416</preferredMagnitudeID><description><text>Chile-Bolivia Border Region</text><type>region name</type></description><originReference>de.gempa.tb1.Origin/20250414063814.894907.130225</originReference></event></EventParameters></seiscomp>