<?xml version="1.0" encoding="UTF-8"?>
<seiscomp xmlns="http://geofon.gfz-potsdam.de/ns/seiscomp3-schema/0.13" version="0.13"><EventParameters><pick publicID="de.gempa.tb1.Pick/20250415072707.511596.118054"><time><value>2025-04-15T07:27:01.03Z</value></time><waveformID networkCode="CX" stationCode="PB09" channelCode="HHZ"/><filterID>ITAPER(4)&gt;&gt;BW(4,4,20)</filterID><methodID>AIC</methodID><horizontalSlowness><value>19.488963387355383</value></horizontalSlowness><backazimuth><value>80.71191295651002</value></backazimuth><phaseHint>P</phaseHint><evaluationMode>automatic</evaluationMode><comment><text>13.107999099131154</text><id>DFX:rectilinearity</id></comment><comment><text>48.4191496670632</text><id>SNR</id></comment></pick><pick publicID="de.gempa.tb1.Pick/20250415072710.794677.118056"><time><value>2025-04-15T07:27:05.208393Z</value></time><waveformID networkCode="CX" stationCode="PB03" channelCode="HHZ"/><filterID>ITAPER(4)&gt;&gt;BW(4,4,20)</filterID><methodID>AIC</methodID><horizontalSlowness><value>11.01650874501383</value></horizontalSlowness><backazimuth><value>140.9519924048476</value></backazimuth><phaseHint>P</phaseHint><evaluationMode>automatic</evaluationMode><comment><text>10.130329933938825</text><id>DFX:rectilinearity</id></comment><comment><text>18.427857934864821</text><id>SNR</id></comment></pick><pick publicID="de.gempa.tb1.Pick/20250415072711.566519.118058"><time><value>2025-04-15T07:27:06.888393Z</value></time><waveformID networkCode="CX" stationCode="PB06" channelCode="HHZ"/><filterID>ITAPER(4)&gt;&gt;BW(4,4,20)</filterID><methodID>AIC</methodID><horizontalSlowness><value>20.318916189908379</value></horizontalSlowness><backazimuth><value>349.79719348972</value></backazimuth><phaseHint>P</phaseHint><evaluationMode>automatic</evaluationMode><comment><text>36.10735885425362</text><id>DFX:rectilinearity</id></comment><comment><text>15.123695216570457</text><id>SNR</id></comment></pick><pick publicID="de.gempa.tb1.Pick/20250415072712.525243.118060"><time><value>2025-04-15T07:27:05.968393Z</value></time><waveformID networkCode="CX" stationCode="PB01" channelCode="HHZ"/><filterID>ITAPER(4)&gt;&gt;BW(4,4,20)</filterID><methodID>AIC</methodID><horizontalSlowness><value>18.882899160772318</value></horizontalSlowness><backazimuth><value>68.95138173990516</value></backazimuth><phaseHint>P</phaseHint><evaluationMode>automatic</evaluationMode><comment><text>8.46149534668502</text><id>DFX:rectilinearity</id></comment><comment><text>19.083743707896158</text><id>SNR</id></comment></pick><pick publicID="de.gempa.tb1.Pick/20250415072714.510362.118065"><time><value>2025-04-15T07:27:07.718393Z</value></time><waveformID networkCode="CX" stationCode="PB02" channelCode="HHZ"/><filterID>ITAPER(4)&gt;&gt;BW(4,4,20)</filterID><methodID>AIC</methodID><horizontalSlowness><value>22.96174804704816</value></horizontalSlowness><backazimuth><value>260.8901544341965</value></backazimuth><phaseHint>P</phaseHint><evaluationMode>automatic</evaluationMode><comment><text>35.524128770272945</text><id>DFX:rectilinearity</id></comment><comment><text>18.028528524841427</text><id>SNR</id></comment></pick><pick publicID="de.gempa.tb1.Pick/20250415072721.208762.118069"><time><value>2025-04-15T07:27:06.698396Z</value></time><waveformID networkCode="CX" stationCode="PB07" channelCode="HHZ"/><filterID>ITAPER(4)&gt;&gt;BW(4,4,20)</filterID><methodID>AIC</methodID><horizontalSlowness><value>20.260055578601484</value></horizontalSlowness><backazimuth><value>268.972984793412</value></backazimuth><phaseHint>P</phaseHint><evaluationMode>automatic</evaluationMode><comment><text>226.13801631409194</text><id>DFX:rectilinearity</id></comment><comment><text>72.99538534898949</text><id>SNR</id></comment></pick><pick publicID="de.gempa.tb1.Pick/20250415072724.434345.118073"><time><value>2025-04-15T07:27:13.409999Z</value></time><waveformID networkCode="CX" stationCode="PATCX" channelCode="HHZ"/><filterID>ITAPER(4)&gt;&gt;BW(4,4,20)</filterID><methodID>AIC</methodID><horizontalSlowness><value>23.583847291423957</value></horizontalSlowness><backazimuth><value>64.00457929623909</value></backazimuth><phaseHint>P</phaseHint><evaluationMode>automatic</evaluationMode><comment><text>330.4147878916665</text><id>DFX:rectilinearity</id></comment><comment><text>8.533649473666262</text><id>SNR</id></comment></pick><pick publicID="de.gempa.tb1.Pick/20250415072729.579235.118075"><time><value>2025-04-15T07:27:22.608393Z</value></time><waveformID networkCode="CX" stationCode="PB03" channelCode="HHN"/><filterID>ITAPER(2)&gt;&gt;BW(3,3,20)</filterID><methodID>L2-AIC-GRID</methodID><horizontalSlowness><value>15.343088030182598</value></horizontalSlowness><backazimuth><value>226.61612436037987</value></backazimuth><phaseHint>S</phaseHint><evaluationMode>automatic</evaluationMode><comment><text>286.7096104641435</text><id>DFX:rectilinearity</id></comment><comment><text>de.gempa.tb1.Pick/20250415072710.794677.118056</text><id>RefPickID</id></comment><comment><text>18.45197987768976</text><id>SNR</id></comment></pick><pick publicID="de.gempa.tb1.Pick/20250415072730.767982.118076"><time><value>2025-04-15T07:27:24.358393Z</value></time><waveformID networkCode="CX" stationCode="PB01" channelCode="HHN"/><filterID>ITAPER(2)&gt;&gt;BW(3,3,20)</filterID><methodID>L2-AIC-GRID</methodID><horizontalSlowness><value>19.834314797928034</value></horizontalSlowness><backazimuth><value>9.124949144387159</value></backazimuth><phaseHint>S</phaseHint><evaluationMode>automatic</evaluationMode><comment><text>277.8456300853722</text><id>DFX:rectilinearity</id></comment><comment><text>de.gempa.tb1.Pick/20250415072712.525243.118060</text><id>RefPickID</id></comment><comment><text>12.9209275656565</text><id>SNR</id></comment></pick><pick publicID="de.gempa.tb1.Pick/20250415072732.655528.118077"><time><value>2025-04-15T07:27:25.888393Z</value></time><waveformID networkCode="CX" stationCode="PB06" channelCode="HHN"/><filterID>ITAPER(2)&gt;&gt;BW(3,3,20)</filterID><methodID>L2-AIC-GRID</methodID><horizontalSlowness><value>10.051857870901566</value></horizontalSlowness><backazimuth><value>97.14082039214748</value></backazimuth><phaseHint>S</phaseHint><evaluationMode>automatic</evaluationMode><comment><text>283.0268753197078</text><id>DFX:rectilinearity</id></comment><comment><text>de.gempa.tb1.Pick/20250415072711.566519.118058</text><id>RefPickID</id></comment><comment><text>9.311279488612591</text><id>SNR</id></comment></pick><pick publicID="de.gempa.tb1.Pick/20250415072733.191575.118078"><time><value>2025-04-15T07:27:16.12Z</value></time><waveformID networkCode="CX" stationCode="PB09" channelCode="HHN"/><filterID>ITAPER(2)&gt;&gt;BW(3,3,20)</filterID><methodID>L2-AIC-GRID</methodID><horizontalSlowness><value>15.54869200215473</value></horizontalSlowness><backazimuth><value>304.80852159821757</value></backazimuth><phaseHint>S</phaseHint><evaluationMode>automatic</evaluationMode><comment><text>614.3012300500043</text><id>DFX:rectilinearity</id></comment><comment><text>de.gempa.tb1.Pick/20250415072707.511596.118054</text><id>RefPickID</id></comment><comment><text>5.102357142931917</text><id>SNR</id></comment></pick><pick publicID="de.gempa.tb1.Pick/20250415072733.524239.118079"><time><value>2025-04-15T07:27:24.19Z</value></time><waveformID networkCode="CX" stationCode="PSGCX" channelCode="HHZ"/><filterID>ITAPER(4)&gt;&gt;BW(4,4,20)</filterID><methodID>AIC</methodID><horizontalSlowness><value>9.659316130267571</value></horizontalSlowness><backazimuth><value>287.699019303512</value></backazimuth><phaseHint>P</phaseHint><evaluationMode>automatic</evaluationMode><comment><text>9.180381527426977</text><id>DFX:rectilinearity</id></comment><comment><text>10.408707863720817</text><id>SNR</id></comment></pick><pick publicID="de.gempa.tb1.Pick/20250415072733.639046.118081"><time><value>2025-04-15T07:27:27.118393Z</value></time><waveformID networkCode="CX" stationCode="PB02" channelCode="HHN"/><filterID>ITAPER(2)&gt;&gt;BW(3,3,20)</filterID><methodID>L2-AIC-GRID</methodID><horizontalSlowness><value>8.298529055429556</value></horizontalSlowness><backazimuth><value>48.69038521986775</value></backazimuth><phaseHint>S</phaseHint><evaluationMode>automatic</evaluationMode><comment><text>407.24152389031536</text><id>DFX:rectilinearity</id></comment><comment><text>de.gempa.tb1.Pick/20250415072714.510362.118065</text><id>RefPickID</id></comment><comment><text>10.176358908089455</text><id>SNR</id></comment></pick><pick publicID="de.gempa.tb1.Pick/20250415072743.428361.118086"><time><value>2025-04-15T07:27:36.279999Z</value></time><waveformID networkCode="CX" stationCode="PATCX" channelCode="HHN"/><filterID>ITAPER(2)&gt;&gt;BW(3,3,20)</filterID><methodID>L2-AIC-GRID</methodID><horizontalSlowness><value>23.04543896122775</value></horizontalSlowness><backazimuth><value>262.688907276839</value></backazimuth><phaseHint>S</phaseHint><evaluationMode>automatic</evaluationMode><comment><text>542.7583601342493</text><id>DFX:rectilinearity</id></comment><comment><text>de.gempa.tb1.Pick/20250415072724.434345.118073</text><id>RefPickID</id></comment><comment><text>8.300526298538921</text><id>SNR</id></comment></pick><pick publicID="de.gempa.tb1.Pick/20250415072751.977647.118088"><time><value>2025-04-15T07:27:24.928396Z</value></time><waveformID networkCode="CX" stationCode="PB07" channelCode="HHN"/><filterID>ITAPER(2)&gt;&gt;BW(3,3,20)</filterID><methodID>L2-AIC-GRID</methodID><horizontalSlowness><value>22.373884065372945</value></horizontalSlowness><backazimuth><value>142.9544193209535</value></backazimuth><phaseHint>S</phaseHint><evaluationMode>automatic</evaluationMode><comment><text>3827.461107268231</text><id>DFX:rectilinearity</id></comment><comment><text>de.gempa.tb1.Pick/20250415072721.208762.118069</text><id>RefPickID</id></comment><comment><text>11.124969652212705</text><id>SNR</id></comment></pick><pick publicID="de.gempa.tb1.Pick/20250415072806.570802.118093"><time><value>2025-04-15T07:27:55.47Z</value></time><waveformID networkCode="CX" stationCode="PSGCX" channelCode="HHN"/><filterID>ITAPER(2)&gt;&gt;BW(3,3,20)</filterID><methodID>L2-AIC-GRID</methodID><horizontalSlowness><value>12.683096757585927</value></horizontalSlowness><backazimuth><value>289.1988496094864</value></backazimuth><phaseHint>S</phaseHint><evaluationMode>automatic</evaluationMode><comment><text>11.328169042685102</text><id>DFX:rectilinearity</id></comment><comment><text>de.gempa.tb1.Pick/20250415072733.524239.118079</text><id>RefPickID</id></comment><comment><text>6.415025994373177</text><id>SNR</id></comment></pick><origin publicID="de.gempa.tb1.Origin/20250415072806.577317.57797"><time><value>2025-04-15T07:26:42.580146Z</value><uncertainty>0.8431568741798401</uncertainty></time><latitude><value>-21.837902069091797</value><uncertainty>3.717684268951416</uncertainty></latitude><longitude><value>-68.6891860961914</value><uncertainty>8.950996398925781</uncertainty></longitude><depth><value>126.49597930908203</value><uncertainty>7.928408145904541</uncertainty></depth><depthType>from location</depthType><methodID>LOCSAT</methodID><earthModelID>iasp91_scanloc</earthModelID><quality><associatedPhaseCount>16</associatedPhaseCount><usedPhaseCount>16</usedPhaseCount><associatedStationCount>8</associatedStationCount><usedStationCount>8</usedStationCount><depthPhaseCount>0</depthPhaseCount><standardError>0.3214740925694693</standardError><azimuthalGap>254.56874084472656</azimuthalGap><maximumDistance>2.6022706031799316</maximumDistance><minimumDistance>0.5152773261070251</minimumDistance><medianDistance>1.1893428564071655</medianDistance></quality><uncertainty><minHorizontalUncertainty>7.496542930603027</minHorizontalUncertainty><maxHorizontalUncertainty>19.377735137939453</maxHorizontalUncertainty><azimuthMaxHorizontalUncertainty>81.29425048828125</azimuthMaxHorizontalUncertainty><preferredDescription>horizontal uncertainty</preferredDescription></uncertainty><evaluationMode>automatic</evaluationMode><evaluationStatus>confirmed</evaluationStatus><comment><text>0.20</text><id>mismatchScore</id></comment><comment><text>mismatchScore</text><id>scevalMethod</id></comment><arrival><pickID>de.gempa.tb1.Pick/20250415072707.511596.118054</pickID><phase>P</phase><azimuth>274.4974365234375</azimuth><distance>0.5152773261070251</distance><timeResidual>-0.33504676818847656</timeResidual><timeUsed>true</timeUsed><horizontalSlownessUsed>false</horizontalSlownessUsed><backazimuthUsed>false</backazimuthUsed><weight>1</weight></arrival><arrival><pickID>de.gempa.tb1.Pick/20250415072710.794677.118056</pickID><phase>P</phase><azimuth>257.8252258300781</azimuth><distance>1.0097370147705078</distance><timeResidual>-0.0970611572265625</timeResidual><timeUsed>true</timeUsed><horizontalSlownessUsed>false</horizontalSlownessUsed><backazimuthUsed>false</backazimuthUsed><weight>1</weight></arrival><arrival><pickID>de.gempa.tb1.Pick/20250415072711.566519.118058</pickID><phase>P</phase><azimuth>223.2632598876953</azimuth><distance>1.1893428564071655</distance><timeResidual>-0.20238685607910156</timeResidual><timeUsed>true</timeUsed><horizontalSlownessUsed>false</horizontalSlownessUsed><backazimuthUsed>false</backazimuthUsed><weight>1</weight></arrival><arrival><pickID>de.gempa.tb1.Pick/20250415072712.525243.118060</pickID><phase>P</phase><azimuth>316.6134948730469</azimuth><distance>1.0854878425598145</distance><timeResidual>-0.08021354675292969</timeResidual><timeUsed>true</timeUsed><horizontalSlownessUsed>false</horizontalSlownessUsed><backazimuthUsed>false</backazimuthUsed><weight>1</weight></arrival><arrival><pickID>de.gempa.tb1.Pick/20250415072714.510362.118065</pickID><phase>P</phase><azimuth>294.435791015625</azimuth><distance>1.2359591722488403</distance><timeResidual>0.13257789611816406</timeResidual><timeUsed>true</timeUsed><horizontalSlownessUsed>false</horizontalSlownessUsed><backazimuthUsed>false</backazimuthUsed><weight>1</weight></arrival><arrival><pickID>de.gempa.tb1.Pick/20250415072721.208762.118069</pickID><phase>P</phase><azimuth>275.4608459472656</azimuth><distance>1.1180391311645508</distance><timeResidual>0.328948974609375</timeResidual><timeUsed>true</timeUsed><horizontalSlownessUsed>false</horizontalSlownessUsed><backazimuthUsed>false</backazimuthUsed><weight>1</weight></arrival><arrival><pickID>de.gempa.tb1.Pick/20250415072724.434345.118073</pickID><phase>P</phase><azimuth>306.2982482910156</azimuth><distance>1.6990149021148682</distance><timeResidual>0.6304569244384766</timeResidual><timeUsed>true</timeUsed><horizontalSlownessUsed>false</horizontalSlownessUsed><backazimuthUsed>false</backazimuthUsed><weight>1</weight></arrival><arrival><pickID>de.gempa.tb1.Pick/20250415072729.579235.118075</pickID><phase>S</phase><azimuth>257.8252258300781</azimuth><distance>1.0097370147705078</distance><timeResidual>-0.28664207458496094</timeResidual><timeUsed>true</timeUsed><horizontalSlownessUsed>false</horizontalSlownessUsed><backazimuthUsed>false</backazimuthUsed><weight>1</weight></arrival><arrival><pickID>de.gempa.tb1.Pick/20250415072730.767982.118076</pickID><phase>S</phase><azimuth>316.6134948730469</azimuth><distance>1.0854878425598145</distance><timeResidual>0.1385631561279297</timeResidual><timeUsed>true</timeUsed><horizontalSlownessUsed>false</horizontalSlownessUsed><backazimuthUsed>false</backazimuthUsed><weight>1</weight></arrival><arrival><pickID>de.gempa.tb1.Pick/20250415072732.655528.118077</pickID><phase>S</phase><azimuth>223.2632598876953</azimuth><distance>1.1893428564071655</distance><timeResidual>-0.19373703002929688</timeResidual><timeUsed>true</timeUsed><horizontalSlownessUsed>false</horizontalSlownessUsed><backazimuthUsed>false</backazimuthUsed><weight>1</weight></arrival><arrival><pickID>de.gempa.tb1.Pick/20250415072733.191575.118078</pickID><phase>S</phase><azimuth>274.4974365234375</azimuth><distance>0.5152773261070251</distance><timeResidual>0.24945640563964844</timeResidual><timeUsed>true</timeUsed><horizontalSlownessUsed>false</horizontalSlownessUsed><backazimuthUsed>false</backazimuthUsed><weight>1</weight></arrival><arrival><pickID>de.gempa.tb1.Pick/20250415072733.524239.118079</pickID><phase>P</phase><azimuth>328.69451904296875</azimuth><distance>2.6022706031799316</distance><timeResidual>0.2141704559326172</timeResidual><timeUsed>true</timeUsed><horizontalSlownessUsed>false</horizontalSlownessUsed><backazimuthUsed>false</backazimuthUsed><weight>1</weight></arrival><arrival><pickID>de.gempa.tb1.Pick/20250415072733.639046.118081</pickID><phase>S</phase><azimuth>294.435791015625</azimuth><distance>1.2359591722488403</distance><timeResidual>0.1538543701171875</timeResidual><timeUsed>true</timeUsed><horizontalSlownessUsed>false</horizontalSlownessUsed><backazimuthUsed>false</backazimuthUsed><weight>1</weight></arrival><arrival><pickID>de.gempa.tb1.Pick/20250415072743.428361.118086</pickID><phase>S</phase><azimuth>306.2982482910156</azimuth><distance>1.6990149021148682</distance><timeResidual>0.03248023986816406</timeResidual><timeUsed>true</timeUsed><horizontalSlownessUsed>false</horizontalSlownessUsed><backazimuthUsed>false</backazimuthUsed><weight>1</weight></arrival><arrival><pickID>de.gempa.tb1.Pick/20250415072751.977647.118088</pickID><phase>S</phase><azimuth>275.4608459472656</azimuth><distance>1.1180391311645508</distance><timeResidual>0.1346263885498047</timeResidual><timeUsed>true</timeUsed><horizontalSlownessUsed>false</horizontalSlownessUsed><backazimuthUsed>false</backazimuthUsed><weight>1</weight></arrival><arrival><pickID>de.gempa.tb1.Pick/20250415072806.570802.118093</pickID><phase>S</phase><azimuth>328.69451904296875</azimuth><distance>2.6022706031799316</distance><timeResidual>-0.8193607330322266</timeResidual><timeUsed>true</timeUsed><horizontalSlownessUsed>false</horizontalSlownessUsed><backazimuthUsed>false</backazimuthUsed><weight>1</weight></arrival><magnitude publicID="de.gempa.tb1.Magnitude/20250415072816.551912.104159"><magnitude><value>2.320933551033587</value></magnitude><type>M</type><methodID>weighted average</methodID><stationCount>6</stationCount></magnitude></origin><event publicID="gempa2025hkre"><preferredOriginID>de.gempa.tb1.Origin/20250415072806.577317.57797</preferredOriginID><preferredMagnitudeID>de.gempa.tb1.Magnitude/20250415072816.551912.104159</preferredMagnitudeID><description><text>Chile-Bolivia Border Region</text><type>region name</type></description><originReference>de.gempa.tb1.Origin/20250415072806.577317.57797</originReference></event></EventParameters></seiscomp>