<?xml version="1.0" encoding="UTF-8"?>
<seiscomp xmlns="http://geofon.gfz-potsdam.de/ns/seiscomp3-schema/0.13" version="0.13"><EventParameters><pick publicID="de.gempa.tb1.Pick/20250412053331.543437.122218"><time><value>2025-04-12T05:33:26.218393Z</value></time><waveformID networkCode="CX" stationCode="PB01" channelCode="HHZ"/><filterID>ITAPER(4)&gt;&gt;BW(4,4,20)</filterID><methodID>AIC</methodID><horizontalSlowness><value>22.75485114280541</value></horizontalSlowness><backazimuth><value>347.8885680354366</value></backazimuth><phaseHint>P</phaseHint><evaluationMode>automatic</evaluationMode><comment><text>16.813361663747564</text><id>DFX:rectilinearity</id></comment><comment><text>67.81322230800737</text><id>SNR</id></comment></pick><pick publicID="de.gempa.tb1.Pick/20250412053335.528914.122220"><time><value>2025-04-12T05:33:30.108393Z</value></time><waveformID networkCode="CX" stationCode="PB02" channelCode="HHZ"/><filterID>ITAPER(4)&gt;&gt;BW(4,4,20)</filterID><methodID>AIC</methodID><horizontalSlowness><value>14.794775362503579</value></horizontalSlowness><backazimuth><value>83.2533135312741</value></backazimuth><phaseHint>P</phaseHint><evaluationMode>automatic</evaluationMode><comment><text>32.41672180943869</text><id>DFX:rectilinearity</id></comment><comment><text>46.0125661486496</text><id>SNR</id></comment></pick><pick publicID="de.gempa.tb1.Pick/20250412053338.495558.122222"><time><value>2025-04-12T05:33:32.949999Z</value></time><waveformID networkCode="CX" stationCode="PATCX" channelCode="HHZ"/><filterID>ITAPER(4)&gt;&gt;BW(4,4,20)</filterID><methodID>AIC</methodID><horizontalSlowness><value>22.683005510781584</value></horizontalSlowness><backazimuth><value>91.02620365709741</value></backazimuth><phaseHint>P</phaseHint><evaluationMode>automatic</evaluationMode><comment><text>353.6770251488095</text><id>DFX:rectilinearity</id></comment><comment><text>21.390267788819546</text><id>SNR</id></comment></pick><pick publicID="de.gempa.tb1.Pick/20250412053339.578935.122224"><time><value>2025-04-12T05:33:32.978393Z</value></time><waveformID networkCode="CX" stationCode="PB03" channelCode="HHZ"/><filterID>ITAPER(4)&gt;&gt;BW(4,4,20)</filterID><methodID>AIC</methodID><horizontalSlowness><value>3.991032061875209</value></horizontalSlowness><backazimuth><value>268.09646040961093</value></backazimuth><phaseHint>P</phaseHint><evaluationMode>automatic</evaluationMode><comment><text>6.616853140470334</text><id>DFX:rectilinearity</id></comment><comment><text>14.149955574791747</text><id>SNR</id></comment></pick><pick publicID="de.gempa.tb1.Pick/20250412053348.172235.122226"><time><value>2025-04-12T05:33:28.820001Z</value></time><waveformID networkCode="CX" stationCode="PB09" channelCode="HHZ"/><filterID>ITAPER(4)&gt;&gt;BW(4,4,20)</filterID><methodID>AIC</methodID><horizontalSlowness><value>12.87990076702546</value></horizontalSlowness><backazimuth><value>15.632987526346255</value></backazimuth><phaseHint>P</phaseHint><evaluationMode>automatic</evaluationMode><comment><text>12.84343837166795</text><id>DFX:rectilinearity</id></comment><comment><text>27.05309289533652</text><id>SNR</id></comment></pick><pick publicID="de.gempa.tb1.Pick/20250412053348.569836.122228"><time><value>2025-04-12T05:33:40.79Z</value></time><waveformID networkCode="CX" stationCode="PSGCX" channelCode="HHZ"/><filterID>ITAPER(4)&gt;&gt;BW(4,4,20)</filterID><methodID>AIC</methodID><horizontalSlowness><value>22.67377236857808</value></horizontalSlowness><backazimuth><value>71.46906091691565</value></backazimuth><phaseHint>P</phaseHint><evaluationMode>automatic</evaluationMode><comment><text>26.29842769233002</text><id>DFX:rectilinearity</id></comment><comment><text>10.739791435519033</text><id>SNR</id></comment></pick><pick publicID="de.gempa.tb1.Pick/20250412053358.707236.122232"><time><value>2025-04-12T05:33:50.908393Z</value></time><waveformID networkCode="CX" stationCode="PB03" channelCode="HHN"/><filterID>ITAPER(2)&gt;&gt;BW(3,3,20)</filterID><methodID>L2-AIC-GRID</methodID><horizontalSlowness><value>15.802161892721358</value></horizontalSlowness><backazimuth><value>287.52321680653205</value></backazimuth><phaseHint>S</phaseHint><evaluationMode>automatic</evaluationMode><comment><text>14.792109376420019</text><id>DFX:rectilinearity</id></comment><comment><text>de.gempa.tb1.Pick/20250412053339.578935.122224</text><id>RefPickID</id></comment><comment><text>7.277533649607502</text><id>SNR</id></comment></pick><pick publicID="de.gempa.tb1.Pick/20250412053401.408009.122233"><time><value>2025-04-12T05:33:51.059999Z</value></time><waveformID networkCode="CX" stationCode="PATCX" channelCode="HHN"/><filterID>ITAPER(2)&gt;&gt;BW(3,3,20)</filterID><methodID>L2-AIC-GRID</methodID><horizontalSlowness><value>22.486822505659244</value></horizontalSlowness><backazimuth><value>252.4612990067467</value></backazimuth><phaseHint>S</phaseHint><evaluationMode>automatic</evaluationMode><comment><text>200.14522847107526</text><id>DFX:rectilinearity</id></comment><comment><text>de.gempa.tb1.Pick/20250412053338.495558.122222</text><id>RefPickID</id></comment><comment><text>7.688749374352714</text><id>SNR</id></comment></pick><pick publicID="de.gempa.tb1.Pick/20250412053401.564976.122234"><time><value>2025-04-12T05:33:31.638394Z</value></time><waveformID networkCode="CX" stationCode="PB07" channelCode="HHZ"/><filterID>ITAPER(4)&gt;&gt;BW(4,4,20)</filterID><methodID>AIC</methodID><horizontalSlowness><value>23.19645751441548</value></horizontalSlowness><backazimuth><value>215.25918822699163</value></backazimuth><phaseHint>P</phaseHint><evaluationMode>automatic</evaluationMode><comment><text>152.93533677907578</text><id>DFX:rectilinearity</id></comment><comment><text>21.91599741174162</text><id>SNR</id></comment></pick><origin publicID="de.gempa.tb1.Origin/20250412053402.514661.75519"><time><value>2025-04-12T05:33:09.407848Z</value><uncertainty>1.2688004970550537</uncertainty></time><latitude><value>-21.113027572631836</value><uncertainty>6.227762699127197</uncertainty></latitude><longitude><value>-68.91851043701172</value><uncertainty>12.46120834350586</uncertainty></longitude><depth><value>111.08668518066406</value><uncertainty>19.173099517822266</uncertainty></depth><depthType>from location</depthType><methodID>LOCSAT</methodID><earthModelID>iasp91_scanloc</earthModelID><quality><associatedPhaseCount>9</associatedPhaseCount><usedPhaseCount>9</usedPhaseCount><associatedStationCount>7</associatedStationCount><usedStationCount>7</usedStationCount><depthPhaseCount>0</depthPhaseCount><standardError>0.287835342278505</standardError><azimuthalGap>240.8956756591797</azimuthalGap><maximumDistance>1.8846263885498047</maximumDistance><minimumDistance>0.5358006358146667</minimumDistance><medianDistance>1.1897199153900146</medianDistance></quality><uncertainty><minHorizontalUncertainty>10.961931228637695</minHorizontalUncertainty><maxHorizontalUncertainty>27.78821563720703</maxHorizontalUncertainty><azimuthMaxHorizontalUncertainty>72.62026977539062</azimuthMaxHorizontalUncertainty><preferredDescription>horizontal uncertainty</preferredDescription></uncertainty><evaluationMode>automatic</evaluationMode><evaluationStatus>confirmed</evaluationStatus><comment><text>0.07</text><id>mismatchScore</id></comment><comment><text>mismatchScore</text><id>scevalMethod</id></comment><arrival><pickID>de.gempa.tb1.Pick/20250412053331.543437.122218</pickID><phase>P</phase><azimuth>277.3458251953125</azimuth><distance>0.5358006358146667</distance><timeResidual>-0.42334938049316406</timeResidual><timeUsed>true</timeUsed><horizontalSlownessUsed>false</horizontalSlownessUsed><backazimuthUsed>false</backazimuthUsed><weight>1</weight></arrival><arrival><pickID>de.gempa.tb1.Pick/20250412053335.528914.122220</pickID><phase>P</phase><azimuth>257.1162109375</azimuth><distance>0.9349595308303833</distance><timeResidual>0.03736686706542969</timeResidual><timeUsed>true</timeUsed><horizontalSlownessUsed>false</horizontalSlownessUsed><backazimuthUsed>false</backazimuthUsed><weight>1</weight></arrival><arrival><pickID>de.gempa.tb1.Pick/20250412053338.495558.122222</pickID><phase>P</phase><azimuth>283.93072509765625</azimuth><distance>1.1897199153900146</distance><timeResidual>0.19789695739746094</timeResidual><timeUsed>true</timeUsed><horizontalSlownessUsed>false</horizontalSlownessUsed><backazimuthUsed>false</backazimuthUsed><weight>1</weight></arrival><arrival><pickID>de.gempa.tb1.Pick/20250412053339.578935.122224</pickID><phase>P</phase><azimuth>219.69252014160156</azimuth><distance>1.2123833894729614</distance><timeResidual>-0.0183258056640625</timeResidual><timeUsed>true</timeUsed><horizontalSlownessUsed>false</horizontalSlownessUsed><backazimuthUsed>false</backazimuthUsed><weight>1</weight></arrival><arrival><pickID>de.gempa.tb1.Pick/20250412053348.172235.122226</pickID><phase>P</phase><azimuth>203.83705139160156</azimuth><distance>0.7437398433685303</distance><timeResidual>0.5407466888427734</timeResidual><timeUsed>true</timeUsed><horizontalSlownessUsed>false</horizontalSlownessUsed><backazimuthUsed>false</backazimuthUsed><weight>1</weight></arrival><arrival><pickID>de.gempa.tb1.Pick/20250412053348.569836.122228</pickID><phase>P</phase><azimuth>322.9413757324219</azimuth><distance>1.8846263885498047</distance><timeResidual>-0.2357673645019531</timeResidual><timeUsed>true</timeUsed><horizontalSlownessUsed>false</horizontalSlownessUsed><backazimuthUsed>false</backazimuthUsed><weight>1</weight></arrival><arrival><pickID>de.gempa.tb1.Pick/20250412053358.707236.122232</pickID><phase>S</phase><azimuth>219.69252014160156</azimuth><distance>1.2123833894729614</distance><timeResidual>-0.33606719970703125</timeResidual><timeUsed>true</timeUsed><horizontalSlownessUsed>false</horizontalSlownessUsed><backazimuthUsed>false</backazimuthUsed><weight>1</weight></arrival><arrival><pickID>de.gempa.tb1.Pick/20250412053401.408009.122233</pickID><phase>S</phase><azimuth>283.93072509765625</azimuth><distance>1.1897199153900146</distance><timeResidual>0.25362586975097656</timeResidual><timeUsed>true</timeUsed><horizontalSlownessUsed>false</horizontalSlownessUsed><backazimuthUsed>false</backazimuthUsed><weight>1</weight></arrival><arrival><pickID>de.gempa.tb1.Pick/20250412053401.564976.122234</pickID><phase>P</phase><azimuth>235.7176818847656</azimuth><distance>1.0889369249343872</distance><timeResidual>-0.016191482543945312</timeResidual><timeUsed>true</timeUsed><horizontalSlownessUsed>false</horizontalSlownessUsed><backazimuthUsed>false</backazimuthUsed><weight>1</weight></arrival><magnitude publicID="de.gempa.tb1.Magnitude/20250412053440.575868.182706"><magnitude><value>2.258722028375135</value></magnitude><type>M</type><methodID>weighted average</methodID><stationCount>4</stationCount></magnitude></origin><event publicID="gempa2025hezi"><preferredOriginID>de.gempa.tb1.Origin/20250412053402.514661.75519</preferredOriginID><preferredMagnitudeID>de.gempa.tb1.Magnitude/20250412053440.575868.182706</preferredMagnitudeID><description><text>Chile-Bolivia Border Region</text><type>region name</type></description><originReference>de.gempa.tb1.Origin/20250412053402.514661.75519</originReference></event></EventParameters></seiscomp>