<?xml version="1.0" encoding="UTF-8"?>
<seiscomp xmlns="http://geofon.gfz-potsdam.de/ns/seiscomp3-schema/0.13" version="0.13"><EventParameters><pick publicID="de.gempa.tb1.Pick/20250413062609.509681.129427"><time><value>2025-04-13T06:26:04.608393Z</value></time><waveformID networkCode="CX" stationCode="PB01" channelCode="HHZ"/><filterID>ITAPER(4)&gt;&gt;BW(4,4,20)</filterID><methodID>AIC</methodID><horizontalSlowness><value>2.7690319353682797</value></horizontalSlowness><backazimuth><value>260.92577294322155</value></backazimuth><phaseHint>P</phaseHint><evaluationMode>automatic</evaluationMode><comment><text>11.635217541024305</text><id>DFX:rectilinearity</id></comment><comment><text>29.6137145098154</text><id>SNR</id></comment></pick><pick publicID="de.gempa.tb1.Pick/20250413062620.566296.129433"><time><value>2025-04-13T06:26:13.548393Z</value></time><waveformID networkCode="CX" stationCode="PB03" channelCode="HHZ"/><filterID>ITAPER(4)&gt;&gt;BW(4,4,20)</filterID><methodID>AIC</methodID><horizontalSlowness><value>16.080559200499284</value></horizontalSlowness><backazimuth><value>272.6228795857523</value></backazimuth><phaseHint>P</phaseHint><evaluationMode>automatic</evaluationMode><comment><text>7.742454475193402</text><id>DFX:rectilinearity</id></comment><comment><text>9.714920883032212</text><id>SNR</id></comment></pick><pick publicID="de.gempa.tb1.Pick/20250413062623.778029.129435"><time><value>2025-04-13T06:26:17.308393Z</value></time><waveformID networkCode="CX" stationCode="PB01" channelCode="HHN"/><filterID>ITAPER(2)&gt;&gt;BW(3,3,20)</filterID><methodID>L2-AIC-GRID</methodID><horizontalSlowness><value>21.385509173320795</value></horizontalSlowness><backazimuth><value>257.9533642467405</value></backazimuth><phaseHint>S</phaseHint><evaluationMode>automatic</evaluationMode><comment><text>96.02389080973369</text><id>DFX:rectilinearity</id></comment><comment><text>de.gempa.tb1.Pick/20250413062609.509681.129427</text><id>RefPickID</id></comment><comment><text>9.212286811125615</text><id>SNR</id></comment></pick><pick publicID="de.gempa.tb1.Pick/20250413062626.580769.129437"><time><value>2025-04-13T06:26:09.52Z</value></time><waveformID networkCode="CX" stationCode="PB09" channelCode="HHZ"/><filterID>ITAPER(4)&gt;&gt;BW(4,4,20)</filterID><methodID>AIC</methodID><horizontalSlowness><value>10.686988562370622</value></horizontalSlowness><backazimuth><value>28.09169415519054</value></backazimuth><phaseHint>P</phaseHint><evaluationMode>automatic</evaluationMode><comment><text>18.648752495668418</text><id>DFX:rectilinearity</id></comment><comment><text>12.156687066347088</text><id>SNR</id></comment></pick><pick publicID="de.gempa.tb1.Pick/20250413062641.794463.129444"><time><value>2025-04-13T06:26:11.788368Z</value></time><waveformID networkCode="CX" stationCode="PB07" channelCode="HHZ"/><filterID>ITAPER(4)&gt;&gt;BW(4,4,20)</filterID><methodID>AIC</methodID><horizontalSlowness><value>23.30416777313259</value></horizontalSlowness><backazimuth><value>280.51707197399276</value></backazimuth><phaseHint>P</phaseHint><evaluationMode>automatic</evaluationMode><comment><text>553.2445233034106</text><id>DFX:rectilinearity</id></comment><comment><text>13.010545691523163</text><id>SNR</id></comment></pick><pick publicID="de.gempa.tb1.Pick/20250413062642.715471.129449"><time><value>2025-04-13T06:26:33.948393Z</value></time><waveformID networkCode="CX" stationCode="PB03" channelCode="HHN"/><filterID>ITAPER(2)&gt;&gt;BW(3,3,20)</filterID><methodID>L2-AIC-GRID</methodID><horizontalSlowness><value>16.765074137446383</value></horizontalSlowness><backazimuth><value>163.26183507653357</value></backazimuth><phaseHint>S</phaseHint><evaluationMode>automatic</evaluationMode><comment><text>43.48535098382537</text><id>DFX:rectilinearity</id></comment><comment><text>de.gempa.tb1.Pick/20250413062620.566296.129433</text><id>RefPickID</id></comment><comment><text>5.808711387243727</text><id>SNR</id></comment></pick><pick publicID="de.gempa.tb1.Pick/20250413062651.974807.129450"><time><value>2025-04-13T06:26:30.328368Z</value></time><waveformID networkCode="CX" stationCode="PB07" channelCode="HHN"/><filterID>ITAPER(2)&gt;&gt;BW(3,3,20)</filterID><methodID>L2-AIC-GRID</methodID><horizontalSlowness><value>22.526786891597</value></horizontalSlowness><backazimuth><value>285.97800902095327</value></backazimuth><phaseHint>S</phaseHint><evaluationMode>automatic</evaluationMode><comment><text>21031.089569650972</text><id>DFX:rectilinearity</id></comment><comment><text>de.gempa.tb1.Pick/20250413062641.794463.129444</text><id>RefPickID</id></comment><comment><text>6.969274249862651</text><id>SNR</id></comment></pick><origin publicID="de.gempa.tb1.Origin/20250413062651.978422.103067"><time><value>2025-04-13T06:25:47.875056Z</value><uncertainty>1.4652161598205566</uncertainty></time><latitude><value>-20.771881103515625</value><uncertainty>11.307480812072754</uncertainty></latitude><longitude><value>-68.9993667602539</value><uncertainty>19.79430389404297</uncertainty></longitude><depth><value>106.51542663574219</value><uncertainty>13.95893955230713</uncertainty></depth><depthType>from location</depthType><methodID>LOCSAT</methodID><earthModelID>iasp91_scanloc</earthModelID><quality><associatedPhaseCount>7</associatedPhaseCount><usedPhaseCount>7</usedPhaseCount><associatedStationCount>4</associatedStationCount><usedStationCount>4</usedStationCount><depthPhaseCount>0</depthPhaseCount><standardError>0.20871671187169902</standardError><azimuthalGap>313.16737365722656</azimuthalGap><maximumDistance>1.451522946357727</maximumDistance><minimumDistance>0.5301790833473206</minimumDistance><medianDistance>1.2597320079803467</medianDistance></quality><uncertainty><minHorizontalUncertainty>17.40972900390625</minHorizontalUncertainty><maxHorizontalUncertainty>45.68165588378906</maxHorizontalUncertainty><azimuthMaxHorizontalUncertainty>113.5569076538086</azimuthMaxHorizontalUncertainty><preferredDescription>horizontal uncertainty</preferredDescription></uncertainty><evaluationMode>automatic</evaluationMode><evaluationStatus>confirmed</evaluationStatus><comment><text>0.48</text><id>mismatchScore</id></comment><comment><text>mismatchScore</text><id>scevalMethod</id></comment><arrival><pickID>de.gempa.tb1.Pick/20250413062609.509681.129427</pickID><phase>P</phase><azimuth>239.30006408691406</azimuth><distance>0.5301790833473206</distance><timeResidual>0.034397125244140625</timeResidual><timeUsed>true</timeUsed><horizontalSlownessUsed>false</horizontalSlownessUsed><backazimuthUsed>false</backazimuthUsed><weight>1</weight></arrival><arrival><pickID>de.gempa.tb1.Pick/20250413062620.566296.129433</pickID><phase>P</phase><azimuth>208.80197143554688</azimuth><distance>1.451522946357727</distance><timeResidual>-0.3705883026123047</timeResidual><timeUsed>true</timeUsed><horizontalSlownessUsed>false</horizontalSlownessUsed><backazimuthUsed>false</backazimuthUsed><weight>1</weight></arrival><arrival><pickID>de.gempa.tb1.Pick/20250413062623.778029.129435</pickID><phase>S</phase><azimuth>239.30006408691406</azimuth><distance>0.5301790833473206</distance><timeResidual>-0.11438751220703125</timeResidual><timeUsed>true</timeUsed><horizontalSlownessUsed>false</horizontalSlownessUsed><backazimuthUsed>false</backazimuthUsed><weight>1</weight></arrival><arrival><pickID>de.gempa.tb1.Pick/20250413062626.580769.129437</pickID><phase>P</phase><azimuth>192.46743774414062</azimuth><distance>1.044227123260498</distance><timeResidual>0.2389488220214844</timeResidual><timeUsed>true</timeUsed><horizontalSlownessUsed>false</horizontalSlownessUsed><backazimuthUsed>false</backazimuthUsed><weight>1</weight></arrival><arrival><pickID>de.gempa.tb1.Pick/20250413062641.794463.129444</pickID><phase>P</phase><azimuth>220.88804626464844</azimuth><distance>1.2597320079803467</distance><timeResidual>0.1155261993408203</timeResidual><timeUsed>true</timeUsed><horizontalSlownessUsed>false</horizontalSlownessUsed><backazimuthUsed>false</backazimuthUsed><weight>1</weight></arrival><arrival><pickID>de.gempa.tb1.Pick/20250413062642.715471.129449</pickID><phase>S</phase><azimuth>208.80197143554688</azimuth><distance>1.451522946357727</distance><timeResidual>-0.1497344970703125</timeResidual><timeUsed>true</timeUsed><horizontalSlownessUsed>false</horizontalSlownessUsed><backazimuthUsed>false</backazimuthUsed><weight>1</weight></arrival><arrival><pickID>de.gempa.tb1.Pick/20250413062651.974807.129450</pickID><phase>S</phase><azimuth>220.88804626464844</azimuth><distance>1.2597320079803467</distance><timeResidual>0.24591064453125</timeResidual><timeUsed>true</timeUsed><horizontalSlownessUsed>false</horizontalSlownessUsed><backazimuthUsed>false</backazimuthUsed><weight>1</weight></arrival><magnitude publicID="de.gempa.tb1.Magnitude/20250413062655.9368.323423"><magnitude><value>2.4133872723655463</value></magnitude><type>M</type><methodID>weighted average</methodID><stationCount>2</stationCount></magnitude></origin><event publicID="gempa2025hgxd"><preferredOriginID>de.gempa.tb1.Origin/20250413062651.978422.103067</preferredOriginID><preferredMagnitudeID>de.gempa.tb1.Magnitude/20250413062655.9368.323423</preferredMagnitudeID><description><text>Chile-Bolivia Border Region</text><type>region name</type></description><originReference>de.gempa.tb1.Origin/20250413062651.978422.103067</originReference></event></EventParameters></seiscomp>