<?xml version="1.0" encoding="UTF-8"?>
<seiscomp xmlns="http://geofon.gfz-potsdam.de/ns/seiscomp3-schema/0.13" version="0.13"><EventParameters><pick publicID="de.gempa.tb1.Pick/20250413201733.382865.133579"><time><value>2025-04-13T20:17:26.260001Z</value></time><waveformID networkCode="CX" stationCode="PB09" channelCode="HHZ"/><filterID>ITAPER(4)&gt;&gt;BW(4,4,20)</filterID><methodID>AIC</methodID><horizontalSlowness><value>9.328383472520512</value></horizontalSlowness><backazimuth><value>130.63089796406314</value></backazimuth><phaseHint>P</phaseHint><evaluationMode>automatic</evaluationMode><comment><text>22.984838077783817</text><id>DFX:rectilinearity</id></comment><comment><text>19.625959978362918</text><id>SNR</id></comment></pick><pick publicID="de.gempa.tb1.Pick/20250413201736.587885.133581"><time><value>2025-04-13T20:17:29.048393Z</value></time><waveformID networkCode="CX" stationCode="PB03" channelCode="HHZ"/><filterID>ITAPER(4)&gt;&gt;BW(4,4,20)</filterID><methodID>AIC</methodID><horizontalSlowness><value>6.14047313237568</value></horizontalSlowness><backazimuth><value>227.3593338259686</value></backazimuth><phaseHint>P</phaseHint><evaluationMode>automatic</evaluationMode><comment><text>64.04774121609398</text><id>DFX:rectilinearity</id></comment><comment><text>19.395845279816093</text><id>SNR</id></comment></pick><pick publicID="de.gempa.tb1.Pick/20250413201737.505867.133583"><time><value>2025-04-13T20:17:29.018393Z</value></time><waveformID networkCode="CX" stationCode="PB06" channelCode="HHZ"/><filterID>ITAPER(4)&gt;&gt;BW(4,4,20)</filterID><methodID>AIC</methodID><horizontalSlowness><value>3.392489406609579</value></horizontalSlowness><backazimuth><value>316.8334344322218</value></backazimuth><phaseHint>P</phaseHint><evaluationMode>automatic</evaluationMode><comment><text>61.75410973705231</text><id>DFX:rectilinearity</id></comment><comment><text>17.138245488590385</text><id>SNR</id></comment></pick><pick publicID="de.gempa.tb1.Pick/20250413201753.564027.133587"><time><value>2025-04-13T20:17:46.128393Z</value></time><waveformID networkCode="CX" stationCode="PB03" channelCode="HHN"/><filterID>ITAPER(2)&gt;&gt;BW(3,3,20)</filterID><methodID>L2-AIC-GRID</methodID><horizontalSlowness><value>6.505861571399942</value></horizontalSlowness><backazimuth><value>241.60179206504873</value></backazimuth><phaseHint>S</phaseHint><evaluationMode>automatic</evaluationMode><comment><text>56.50515817249347</text><id>DFX:rectilinearity</id></comment><comment><text>de.gempa.tb1.Pick/20250413201736.587885.133581</text><id>RefPickID</id></comment><comment><text>9.222581396984127</text><id>SNR</id></comment></pick><pick publicID="de.gempa.tb1.Pick/20250413201758.623426.133590"><time><value>2025-04-13T20:17:46.188393Z</value></time><waveformID networkCode="CX" stationCode="PB06" channelCode="HHN"/><filterID>ITAPER(2)&gt;&gt;BW(3,3,20)</filterID><methodID>L2-AIC-GRID</methodID><horizontalSlowness><value>9.09105818900624</value></horizontalSlowness><backazimuth><value>291.90377651391714</value></backazimuth><phaseHint>S</phaseHint><evaluationMode>automatic</evaluationMode><comment><text>67.7863160796969</text><id>DFX:rectilinearity</id></comment><comment><text>de.gempa.tb1.Pick/20250413201737.505867.133583</text><id>RefPickID</id></comment><comment><text>5.742435943821985</text><id>SNR</id></comment></pick><pick publicID="de.gempa.tb1.Pick/20250413201802.212313.133594"><time><value>2025-04-13T20:17:31.128396Z</value></time><waveformID networkCode="CX" stationCode="PB07" channelCode="HHZ"/><filterID>ITAPER(4)&gt;&gt;BW(4,4,20)</filterID><methodID>AIC</methodID><horizontalSlowness><value>21.215088302638634</value></horizontalSlowness><backazimuth><value>231.86297011280746</value></backazimuth><phaseHint>P</phaseHint><evaluationMode>automatic</evaluationMode><comment><text>335.2133529861651</text><id>DFX:rectilinearity</id></comment><comment><text>42.7887176202214</text><id>SNR</id></comment></pick><pick publicID="de.gempa.tb1.Pick/20250413201822.216935.133598"><time><value>2025-04-13T20:17:49.508396Z</value></time><waveformID networkCode="CX" stationCode="PB07" channelCode="HHN"/><filterID>ITAPER(2)&gt;&gt;BW(3,3,20)</filterID><methodID>L2-AIC-GRID</methodID><horizontalSlowness><value>21.28579310659059</value></horizontalSlowness><backazimuth><value>317.9373233740565</value></backazimuth><phaseHint>S</phaseHint><evaluationMode>automatic</evaluationMode><comment><text>882.4524448998656</text><id>DFX:rectilinearity</id></comment><comment><text>de.gempa.tb1.Pick/20250413201802.212313.133594</text><id>RefPickID</id></comment><comment><text>7.297810114683275</text><id>SNR</id></comment></pick><origin publicID="de.gempa.tb1.Origin/20250413201822.219948.118794"><time><value>2025-04-13T20:17:07.065055Z</value><uncertainty>1.45841383934021</uncertainty></time><latitude><value>-22.154422760009766</value><uncertainty>8.565369606018066</uncertainty></latitude><longitude><value>-68.75725555419922</value><uncertainty>18.19756317138672</uncertainty></longitude><depth><value>126.86456298828125</value><uncertainty>20.68483543395996</uncertainty></depth><depthType>from location</depthType><methodID>LOCSAT</methodID><earthModelID>iasp91_scanloc</earthModelID><quality><associatedPhaseCount>7</associatedPhaseCount><usedPhaseCount>7</usedPhaseCount><associatedStationCount>4</associatedStationCount><usedStationCount>4</usedStationCount><depthPhaseCount>0</depthPhaseCount><standardError>0.060427340472189</standardError><azimuthalGap>285.4994659423828</azimuthalGap><maximumDistance>1.1312718391418457</maximumDistance><minimumDistance>0.5738834738731384</minimumDistance><medianDistance>0.9323194622993469</medianDistance></quality><uncertainty><minHorizontalUncertainty>16.40406036376953</minHorizontalUncertainty><maxHorizontalUncertainty>39.88954544067383</maxHorizontalUncertainty><azimuthMaxHorizontalUncertainty>76.86277770996094</azimuthMaxHorizontalUncertainty><preferredDescription>horizontal uncertainty</preferredDescription></uncertainty><evaluationMode>automatic</evaluationMode><evaluationStatus>confirmed</evaluationStatus><comment><text>0.00</text><id>mismatchScore</id></comment><comment><text>mismatchScore</text><id>scevalMethod</id></comment><arrival><pickID>de.gempa.tb1.Pick/20250413201733.382865.133579</pickID><phase>P</phase><azimuth>308.2899475097656</azimuth><distance>0.5738834738731384</distance><timeResidual>-0.00055694580078125</timeResidual><timeUsed>true</timeUsed><horizontalSlownessUsed>false</horizontalSlownessUsed><backazimuthUsed>false</backazimuthUsed><weight>1</weight></arrival><arrival><pickID>de.gempa.tb1.Pick/20250413201736.587885.133581</pickID><phase>P</phase><azimuth>276.3269958496094</azimuth><distance>0.9295374155044556</distance><timeResidual>-0.028324127197265625</timeResidual><timeUsed>true</timeUsed><horizontalSlownessUsed>false</horizontalSlownessUsed><backazimuthUsed>false</backazimuthUsed><weight>1</weight></arrival><arrival><pickID>de.gempa.tb1.Pick/20250413201737.505867.133583</pickID><phase>P</phase><azimuth>233.78941345214844</azimuth><distance>0.9323194622993469</distance><timeResidual>-0.07966804504394531</timeResidual><timeUsed>true</timeUsed><horizontalSlownessUsed>false</horizontalSlownessUsed><backazimuthUsed>false</backazimuthUsed><weight>1</weight></arrival><arrival><pickID>de.gempa.tb1.Pick/20250413201753.564027.133587</pickID><phase>S</phase><azimuth>276.3269958496094</azimuth><distance>0.9295374155044556</distance><timeResidual>0.02132415771484375</timeResidual><timeUsed>true</timeUsed><horizontalSlownessUsed>false</horizontalSlownessUsed><backazimuthUsed>false</backazimuthUsed><weight>1</weight></arrival><arrival><pickID>de.gempa.tb1.Pick/20250413201758.623426.133590</pickID><phase>S</phase><azimuth>233.78941345214844</azimuth><distance>0.9323194622993469</distance><timeResidual>0.04278755187988281</timeResidual><timeUsed>true</timeUsed><horizontalSlownessUsed>false</horizontalSlownessUsed><backazimuthUsed>false</backazimuthUsed><weight>1</weight></arrival><arrival><pickID>de.gempa.tb1.Pick/20250413201802.212313.133594</pickID><phase>P</phase><azimuth>291.89337158203125</azimuth><distance>1.1312718391418457</distance><timeResidual>0.10912513732910156</timeResidual><timeUsed>true</timeUsed><horizontalSlownessUsed>false</horizontalSlownessUsed><backazimuthUsed>false</backazimuthUsed><weight>1</weight></arrival><arrival><pickID>de.gempa.tb1.Pick/20250413201822.216935.133598</pickID><phase>S</phase><azimuth>291.89337158203125</azimuth><distance>1.1312718391418457</distance><timeResidual>-0.06493759155273438</timeResidual><timeUsed>true</timeUsed><horizontalSlownessUsed>false</horizontalSlownessUsed><backazimuthUsed>false</backazimuthUsed><weight>1</weight></arrival><magnitude publicID="de.gempa.tb1.Magnitude/20250413201824.555236.398581"><magnitude><value>2.0010657840478676</value></magnitude><type>M</type><methodID>weighted average</methodID><stationCount>1</stationCount></magnitude></origin><event publicID="gempa2025hhyv"><preferredOriginID>de.gempa.tb1.Origin/20250413201822.219948.118794</preferredOriginID><preferredMagnitudeID>de.gempa.tb1.Magnitude/20250413201824.555236.398581</preferredMagnitudeID><description><text>Northern Chile</text><type>region name</type></description><originReference>de.gempa.tb1.Origin/20250413201822.219948.118794</originReference></event></EventParameters></seiscomp>