<?xml version="1.0" encoding="UTF-8"?>
<seiscomp xmlns="http://geofon.gfz-potsdam.de/ns/seiscomp3-schema/0.13" version="0.13"><EventParameters><pick publicID="de.gempa.tb1.Pick/20250412072436.730098.122701"><time><value>2025-04-12T07:24:30.278393Z</value></time><waveformID networkCode="CX" stationCode="PB15" channelCode="HHZ"/><filterID>ITAPER(4)&gt;&gt;BW(4,4,20)</filterID><methodID>AIC</methodID><horizontalSlowness><value>22.191760433923108</value></horizontalSlowness><backazimuth><value>119.49493279311267</value></backazimuth><phaseHint>P</phaseHint><evaluationMode>automatic</evaluationMode><comment><text>272.49548377975833</text><id>DFX:rectilinearity</id></comment><comment><text>9.867511331624868</text><id>SNR</id></comment></pick><pick publicID="de.gempa.tb1.Pick/20250412072442.503128.122705"><time><value>2025-04-12T07:24:37.26Z</value></time><waveformID networkCode="CX" stationCode="PB19" channelCode="HHZ"/><filterID>ITAPER(4)&gt;&gt;BW(4,4,20)</filterID><methodID>AIC</methodID><horizontalSlowness><value>23.22926178953792</value></horizontalSlowness><backazimuth><value>134.2385391665996</value></backazimuth><phaseHint>P</phaseHint><evaluationMode>automatic</evaluationMode><comment><text>44.05396478089398</text><id>DFX:rectilinearity</id></comment><comment><text>9.474940881874202</text><id>SNR</id></comment></pick><pick publicID="de.gempa.tb1.Pick/20250412072447.545938.122710"><time><value>2025-04-12T07:24:38.288393Z</value></time><waveformID networkCode="CX" stationCode="PB01" channelCode="HHZ"/><filterID>ITAPER(4)&gt;&gt;BW(4,4,20)</filterID><methodID>AIC</methodID><horizontalSlowness><value>7.239193668354884</value></horizontalSlowness><backazimuth><value>99.37285854658164</value></backazimuth><phaseHint>P</phaseHint><evaluationMode>automatic</evaluationMode><comment><text>9.110567902477483</text><id>DFX:rectilinearity</id></comment><comment><text>10.332825377270801</text><id>SNR</id></comment></pick><pick publicID="de.gempa.tb1.Pick/20250412072448.762867.122712"><time><value>2025-04-12T07:24:31.24Z</value></time><waveformID networkCode="CX" stationCode="PB09" channelCode="HHZ"/><filterID>ITAPER(4)&gt;&gt;BW(4,4,20)</filterID><methodID>AIC</methodID><horizontalSlowness><value>22.89264147038246</value></horizontalSlowness><backazimuth><value>75.44245123590701</value></backazimuth><phaseHint>P</phaseHint><evaluationMode>automatic</evaluationMode><comment><text>8.093231246979073</text><id>DFX:rectilinearity</id></comment><comment><text>43.916119024601876</text><id>SNR</id></comment></pick><pick publicID="de.gempa.tb1.Pick/20250412072453.501635.122715"><time><value>2025-04-12T07:24:39.108391Z</value></time><waveformID networkCode="CX" stationCode="PB07" channelCode="HHZ"/><filterID>ITAPER(4)&gt;&gt;BW(4,4,20)</filterID><methodID>AIC</methodID><horizontalSlowness><value>21.720850150950238</value></horizontalSlowness><backazimuth><value>311.6263867834116</value></backazimuth><phaseHint>P</phaseHint><evaluationMode>automatic</evaluationMode><comment><text>135.48211910429416</text><id>DFX:rectilinearity</id></comment><comment><text>9.342879651915727</text><id>SNR</id></comment></pick><pick publicID="de.gempa.tb1.Pick/20250412072501.575222.122717"><time><value>2025-04-12T07:24:54.358393Z</value></time><waveformID networkCode="CX" stationCode="PB03" channelCode="HHN"/><filterID>ITAPER(2)&gt;&gt;BW(3,3,20)</filterID><methodID>L2-AIC-GRID</methodID><horizontalSlowness><value>21.653107379417182</value></horizontalSlowness><backazimuth><value>213.69053988566503</value></backazimuth><phaseHint>S</phaseHint><evaluationMode>automatic</evaluationMode><comment><text>40.1593466149698</text><id>DFX:rectilinearity</id></comment><comment><text>de.gempa.tb1.Pick/20250412072443.572631.122708</text><id>RefPickID</id></comment><comment><text>12.978966261980512</text><id>SNR</id></comment></pick><pick publicID="de.gempa.tb1.Pick/20250412072509.537451.122724"><time><value>2025-04-12T07:25:01.19Z</value></time><waveformID networkCode="CX" stationCode="PSGCX" channelCode="HHZ"/><filterID>ITAPER(4)&gt;&gt;BW(4,4,20)</filterID><methodID>AIC</methodID><horizontalSlowness><value>10.68941508418661</value></horizontalSlowness><backazimuth><value>24.551870321398695</value></backazimuth><phaseHint>P</phaseHint><evaluationMode>automatic</evaluationMode><comment><text>12.208199170196314</text><id>DFX:rectilinearity</id></comment><comment><text>15.203884119985487</text><id>SNR</id></comment></pick><pick publicID="de.gempa.tb1.Pick/20250412072529.483314.122727"><time><value>2025-04-12T07:24:56.628391Z</value></time><waveformID networkCode="CX" stationCode="PB07" channelCode="HHN"/><filterID>ITAPER(2)&gt;&gt;BW(3,3,20)</filterID><methodID>L2-AIC-GRID</methodID><horizontalSlowness><value>22.430575267112957</value></horizontalSlowness><backazimuth><value>299.4026691940177</value></backazimuth><phaseHint>S</phaseHint><evaluationMode>automatic</evaluationMode><comment><text>269.8743331885409</text><id>DFX:rectilinearity</id></comment><comment><text>de.gempa.tb1.Pick/20250412072453.501635.122715</text><id>RefPickID</id></comment><comment><text>8.520732606261003</text><id>SNR</id></comment></pick><origin publicID="de.gempa.tb1.Origin/20250412072529.48852.77737"><time><value>2025-04-12T07:24:10.062643Z</value><uncertainty>0.9335997104644775</uncertainty></time><latitude><value>-22.559064865112305</value><uncertainty>5.658735275268555</uncertainty></latitude><longitude><value>-68.34088134765625</value><uncertainty>15.933091163635254</uncertainty></longitude><depth><value>79.4453353881836</value><uncertainty>39.411109924316406</uncertainty></depth><depthType>from location</depthType><methodID>LOCSAT</methodID><earthModelID>iasp91_scanloc</earthModelID><quality><associatedPhaseCount>8</associatedPhaseCount><usedPhaseCount>8</usedPhaseCount><associatedStationCount>7</associatedStationCount><usedStationCount>7</usedStationCount><depthPhaseCount>0</depthPhaseCount><standardError>1.3988058774468446</standardError><azimuthalGap>242.7070770263672</azimuthalGap><maximumDistance>3.3845131397247314</maximumDistance><minimumDistance>1.1285440921783447</minimumDistance><medianDistance>1.6549164056777954</medianDistance></quality><uncertainty><minHorizontalUncertainty>9.966695785522461</minHorizontalUncertainty><maxHorizontalUncertainty>34.88980484008789</maxHorizontalUncertainty><azimuthMaxHorizontalUncertainty>78.02376556396484</azimuthMaxHorizontalUncertainty><preferredDescription>horizontal uncertainty</preferredDescription></uncertainty><evaluationMode>automatic</evaluationMode><evaluationStatus>confirmed</evaluationStatus><comment><text>0.38</text><id>mismatchScore</id></comment><comment><text>mismatchScore</text><id>scevalMethod</id></comment><arrival><pickID>de.gempa.tb1.Pick/20250412072436.730098.122701</pickID><phase>P</phase><azimuth>237.9797668457031</azimuth><distance>1.2262394428253174</distance><timeResidual>-1.5826644897460938</timeResidual><timeUsed>true</timeUsed><horizontalSlownessUsed>false</horizontalSlownessUsed><backazimuthUsed>false</backazimuthUsed><weight>1</weight></arrival><arrival><pickID>de.gempa.tb1.Pick/20250412072442.503128.122705</pickID><phase>P</phase><azimuth>212.92881774902344</azimuth><distance>1.5992056131362915</distance><timeResidual>0.6154861450195312</timeResidual><timeUsed>true</timeUsed><horizontalSlownessUsed>false</horizontalSlownessUsed><backazimuthUsed>false</backazimuthUsed><weight>1</weight></arrival><arrival><pickID>de.gempa.tb1.Pick/20250412072447.545938.122710</pickID><phase>P</phase><azimuth>324.5513610839844</azimuth><distance>1.8467923402786255</distance><timeResidual>-1.627859115600586</timeResidual><timeUsed>true</timeUsed><horizontalSlownessUsed>false</horizontalSlownessUsed><backazimuthUsed>false</backazimuthUsed><weight>1</weight></arrival><arrival><pickID>de.gempa.tb1.Pick/20250412072448.762867.122712</pickID><phase>P</phase><azimuth>312.0953674316406</azimuth><distance>1.1285440921783447</distance><timeResidual>0.5879364013671875</timeResidual><timeUsed>true</timeUsed><horizontalSlownessUsed>false</horizontalSlownessUsed><backazimuthUsed>false</backazimuthUsed><weight>1</weight></arrival><arrival><pickID>de.gempa.tb1.Pick/20250412072453.501635.122715</pickID><phase>P</phase><azimuth>299.74566650390625</azimuth><distance>1.6549164056777954</distance><timeResidual>1.724376678466797</timeResidual><timeUsed>true</timeUsed><horizontalSlownessUsed>false</horizontalSlownessUsed><backazimuthUsed>false</backazimuthUsed><weight>1</weight></arrival><arrival><pickID>de.gempa.tb1.Pick/20250412072501.575222.122717</pickID><phase>S</phase><azimuth>290.9661865234375</azimuth><distance>1.4030609130859375</distance><timeResidual>1.6590805053710938</timeResidual><timeUsed>true</timeUsed><horizontalSlownessUsed>false</horizontalSlownessUsed><backazimuthUsed>false</backazimuthUsed><weight>1</weight></arrival><arrival><pickID>de.gempa.tb1.Pick/20250412072509.537451.122724</pickID><phase>P</phase><azimuth>330.22174072265625</azimuth><distance>3.3845131397247314</distance><timeResidual>0.5565509796142578</timeResidual><timeUsed>true</timeUsed><horizontalSlownessUsed>false</horizontalSlownessUsed><backazimuthUsed>false</backazimuthUsed><weight>1</weight></arrival><arrival><pickID>de.gempa.tb1.Pick/20250412072529.483314.122727</pickID><phase>S</phase><azimuth>299.74566650390625</azimuth><distance>1.6549164056777954</distance><timeResidual>-1.9334545135498047</timeResidual><timeUsed>true</timeUsed><horizontalSlownessUsed>false</horizontalSlownessUsed><backazimuthUsed>false</backazimuthUsed><weight>1</weight></arrival><magnitude publicID="de.gempa.tb1.Magnitude/20250412072546.628469.192514"><magnitude><value>2.670873186116088</value></magnitude><type>M</type><methodID>weighted average</methodID><stationCount>5</stationCount></magnitude></origin><event publicID="gempa2025hfda"><preferredOriginID>de.gempa.tb1.Origin/20250412072529.48852.77737</preferredOriginID><preferredMagnitudeID>de.gempa.tb1.Magnitude/20250412072546.628469.192514</preferredMagnitudeID><description><text>Northern Chile</text><type>region name</type></description><originReference>de.gempa.tb1.Origin/20250412072529.48852.77737</originReference></event></EventParameters></seiscomp>