<?xml version="1.0" encoding="UTF-8"?>
<seiscomp xmlns="http://geofon.gfz-potsdam.de/ns/seiscomp3-schema/0.13" version="0.13"><EventParameters><pick publicID="de.gempa.tb1.Pick/20250414121233.540299.137868"><time><value>2025-04-14T12:12:28.728391Z</value></time><waveformID networkCode="CX" stationCode="PB01" channelCode="HHZ"/><filterID>ITAPER(4)&gt;&gt;BW(4,4,20)</filterID><methodID>AIC</methodID><horizontalSlowness><value>1.1431461363343676</value></horizontalSlowness><backazimuth><value>124.12684748474265</value></backazimuth><phaseHint>P</phaseHint><evaluationMode>automatic</evaluationMode><comment><text>16.19112907677194</text><id>DFX:rectilinearity</id></comment><comment><text>160.66806209328388</text><id>SNR</id></comment></pick><pick publicID="de.gempa.tb1.Pick/20250414121237.703881.137870"><time><value>2025-04-14T12:12:32.488393Z</value></time><waveformID networkCode="CX" stationCode="PB02" channelCode="HHZ"/><filterID>ITAPER(4)&gt;&gt;BW(4,4,20)</filterID><methodID>AIC</methodID><horizontalSlowness><value>12.260227412030554</value></horizontalSlowness><backazimuth><value>88.98430557014616</value></backazimuth><phaseHint>P</phaseHint><evaluationMode>automatic</evaluationMode><comment><text>95.89152224186017</text><id>DFX:rectilinearity</id></comment><comment><text>122.35356440934002</text><id>SNR</id></comment></pick><pick publicID="de.gempa.tb1.Pick/20250414121240.504268.137873"><time><value>2025-04-14T12:12:32.638393Z</value></time><waveformID networkCode="CX" stationCode="PB03" channelCode="HHZ"/><filterID>ITAPER(4)&gt;&gt;BW(4,4,20)</filterID><methodID>AIC</methodID><horizontalSlowness><value>9.482017511076249</value></horizontalSlowness><backazimuth><value>60.26915371638005</value></backazimuth><phaseHint>P</phaseHint><evaluationMode>automatic</evaluationMode><comment><text>48.10202295262322</text><id>DFX:rectilinearity</id></comment><comment><text>109.24830732489374</text><id>SNR</id></comment></pick><pick publicID="de.gempa.tb1.Pick/20250414121240.565808.137875"><time><value>2025-04-14T12:12:34.528393Z</value></time><waveformID networkCode="CX" stationCode="PB06" channelCode="HHZ"/><filterID>ITAPER(4)&gt;&gt;BW(4,4,20)</filterID><methodID>AIC</methodID><horizontalSlowness><value>13.794688596745686</value></horizontalSlowness><backazimuth><value>244.70583766335693</value></backazimuth><phaseHint>P</phaseHint><evaluationMode>automatic</evaluationMode><comment><text>20.847789505364755</text><id>DFX:rectilinearity</id></comment><comment><text>21.036966942162103</text><id>SNR</id></comment></pick><pick publicID="de.gempa.tb1.Pick/20250414121241.722675.137877"><time><value>2025-04-14T12:12:27.590001Z</value></time><waveformID networkCode="CX" stationCode="PB09" channelCode="HHZ"/><filterID>ITAPER(4)&gt;&gt;BW(4,4,20)</filterID><methodID>AIC</methodID><horizontalSlowness><value>16.404471205113612</value></horizontalSlowness><backazimuth><value>73.81085152418868</value></backazimuth><phaseHint>P</phaseHint><evaluationMode>automatic</evaluationMode><comment><text>22.293789691388817</text><id>DFX:rectilinearity</id></comment><comment><text>37.922631000876926</text><id>SNR</id></comment></pick><pick publicID="de.gempa.tb1.Pick/20250414121242.531159.137879"><time><value>2025-04-14T12:12:36.389999Z</value></time><waveformID networkCode="CX" stationCode="PATCX" channelCode="HHZ"/><filterID>ITAPER(4)&gt;&gt;BW(4,4,20)</filterID><methodID>AIC</methodID><horizontalSlowness><value>22.14186671767499</value></horizontalSlowness><backazimuth><value>242.46195162011227</value></backazimuth><phaseHint>P</phaseHint><evaluationMode>automatic</evaluationMode><comment><text>95.4178606936202</text><id>DFX:rectilinearity</id></comment><comment><text>34.40200744136817</text><id>SNR</id></comment></pick><pick publicID="de.gempa.tb1.Pick/20250414121244.626533.137881"><time><value>2025-04-14T12:12:37.988393Z</value></time><waveformID networkCode="CX" stationCode="PB15" channelCode="HHZ"/><filterID>ITAPER(4)&gt;&gt;BW(4,4,20)</filterID><methodID>AIC</methodID><horizontalSlowness><value>22.939995122570043</value></horizontalSlowness><backazimuth><value>79.44616340949221</value></backazimuth><phaseHint>P</phaseHint><evaluationMode>automatic</evaluationMode><comment><text>205.25537598370383</text><id>DFX:rectilinearity</id></comment><comment><text>10.960932146567457</text><id>SNR</id></comment></pick><pick publicID="de.gempa.tb1.Pick/20250414121248.526536.137884"><time><value>2025-04-14T12:12:41.62Z</value></time><waveformID networkCode="CX" stationCode="PSGCX" channelCode="HHZ"/><filterID>ITAPER(4)&gt;&gt;BW(4,4,20)</filterID><methodID>AIC</methodID><horizontalSlowness><value>21.50165964162553</value></horizontalSlowness><backazimuth><value>28.62411172891399</value></backazimuth><phaseHint>P</phaseHint><evaluationMode>automatic</evaluationMode><comment><text>8.473830461253426</text><id>DFX:rectilinearity</id></comment><comment><text>37.50613175973305</text><id>SNR</id></comment></pick><pick publicID="de.gempa.tb1.Pick/20250414121248.654637.137886"><time><value>2025-04-14T12:12:42.69Z</value></time><waveformID networkCode="CX" stationCode="PB19" channelCode="HHZ"/><filterID>ITAPER(4)&gt;&gt;BW(4,4,20)</filterID><methodID>AIC</methodID><horizontalSlowness><value>22.31755335406071</value></horizontalSlowness><backazimuth><value>166.8931554601543</value></backazimuth><phaseHint>P</phaseHint><evaluationMode>automatic</evaluationMode><comment><text>23.76234113841322</text><id>DFX:rectilinearity</id></comment><comment><text>13.330221456302473</text><id>SNR</id></comment></pick><pick publicID="de.gempa.tb1.Pick/20250414121250.879519.137888"><time><value>2025-04-14T12:12:32.468393Z</value></time><waveformID networkCode="CX" stationCode="PB07" channelCode="HHZ"/><filterID>ITAPER(4)&gt;&gt;BW(4,4,20)</filterID><methodID>AIC</methodID><horizontalSlowness><value>12.897609257468458</value></horizontalSlowness><backazimuth><value>95.98056977113959</value></backazimuth><phaseHint>P</phaseHint><evaluationMode>automatic</evaluationMode><comment><text>2723.9351599945694</text><id>DFX:rectilinearity</id></comment><comment><text>377.86013221753666</text><id>SNR</id></comment></pick><pick publicID="de.gempa.tb1.Pick/20250414121255.194137.137892"><time><value>2025-04-14T12:12:48.19Z</value></time><waveformID networkCode="CX" stationCode="PB10" channelCode="HHZ"/><filterID>ITAPER(4)&gt;&gt;BW(4,4,20)</filterID><methodID>AIC</methodID><horizontalSlowness><value>14.549752368472685</value></horizontalSlowness><backazimuth><value>139.82046478566977</value></backazimuth><phaseHint>P</phaseHint><evaluationMode>automatic</evaluationMode><comment><text>28.259420249779723</text><id>DFX:rectilinearity</id></comment><comment><text>10.120541447838821</text><id>SNR</id></comment></pick><pick publicID="de.gempa.tb1.Pick/20250414121313.769123.137895"><time><value>2025-04-14T12:13:04.278393Z</value></time><waveformID networkCode="CX" stationCode="PB03" channelCode="HHN"/><filterID>ITAPER(2)&gt;&gt;BW(3,3,20)</filterID><methodID>L2-AIC-GRID</methodID><horizontalSlowness><value>13.329489762608796</value></horizontalSlowness><backazimuth><value>271.46392633527546</value></backazimuth><phaseHint>S</phaseHint><evaluationMode>automatic</evaluationMode><comment><text>153.01754107928272</text><id>DFX:rectilinearity</id></comment><comment><text>de.gempa.tb1.Pick/20250414121240.504268.137873</text><id>RefPickID</id></comment><comment><text>7.002357441759447</text><id>SNR</id></comment></pick><pick publicID="de.gempa.tb1.Pick/20250414121319.409929.137898"><time><value>2025-04-14T12:13:10.589999Z</value></time><waveformID networkCode="CX" stationCode="PATCX" channelCode="HHN"/><filterID>ITAPER(2)&gt;&gt;BW(3,3,20)</filterID><methodID>L2-AIC-GRID</methodID><horizontalSlowness><value>23.258998979236093</value></horizontalSlowness><backazimuth><value>61.52676066339359</value></backazimuth><phaseHint>S</phaseHint><evaluationMode>automatic</evaluationMode><comment><text>2098.329033227888</text><id>DFX:rectilinearity</id></comment><comment><text>de.gempa.tb1.Pick/20250414121242.531159.137879</text><id>RefPickID</id></comment><comment><text>16.33692878871085</text><id>SNR</id></comment></pick><pick publicID="de.gempa.tb1.Pick/20250414121325.839651.137899"><time><value>2025-04-14T12:13:19.3Z</value></time><waveformID networkCode="CX" stationCode="PSGCX" channelCode="HHN"/><filterID>ITAPER(2)&gt;&gt;BW(3,3,20)</filterID><methodID>L2-AIC-GRID</methodID><horizontalSlowness><value>21.30921086262208</value></horizontalSlowness><backazimuth><value>159.189749179571</value></backazimuth><phaseHint>S</phaseHint><evaluationMode>automatic</evaluationMode><comment><text>86.38496493598885</text><id>DFX:rectilinearity</id></comment><comment><text>de.gempa.tb1.Pick/20250414121248.526536.137884</text><id>RefPickID</id></comment><comment><text>13.6310440396375</text><id>SNR</id></comment></pick><origin publicID="de.gempa.tb1.Origin/20250414121327.580339.137047"><time><value>2025-04-14T12:11:52.576596Z</value><uncertainty>0.979071319103241</uncertainty></time><latitude><value>-21.290735244750977</value><uncertainty>5.877289772033691</uncertainty></latitude><longitude><value>-67.59451293945312</value><uncertainty>18.958898544311523</uncertainty></longitude><depth><value>201.5636749267578</value><uncertainty>23.08109474182129</uncertainty></depth><depthType>from location</depthType><methodID>LOCSAT</methodID><earthModelID>iasp91_scanloc</earthModelID><quality><associatedPhaseCount>14</associatedPhaseCount><usedPhaseCount>14</usedPhaseCount><associatedStationCount>11</associatedStationCount><usedStationCount>11</usedStationCount><depthPhaseCount>0</depthPhaseCount><standardError>0.3666383224638</standardError><azimuthalGap>265.7949981689453</azimuthalGap><maximumDistance>3.520390748977661</maximumDistance><minimumDistance>1.6141126155853271</minimumDistance><medianDistance>2.434907913208008</medianDistance></quality><uncertainty><minHorizontalUncertainty>10.499086380004883</minHorizontalUncertainty><maxHorizontalUncertainty>41.239086151123047</maxHorizontalUncertainty><azimuthMaxHorizontalUncertainty>79.93882751464844</azimuthMaxHorizontalUncertainty><preferredDescription>horizontal uncertainty</preferredDescription></uncertainty><evaluationMode>automatic</evaluationMode><evaluationStatus>confirmed</evaluationStatus><comment><text>0.14</text><id>mismatchScore</id></comment><comment><text>mismatchScore</text><id>scevalMethod</id></comment><arrival><pickID>de.gempa.tb1.Pick/20250414121233.540299.137868</pickID><phase>P</phase><azimuth>277.5953063964844</azimuth><distance>1.7837823629379272</distance><timeResidual>-0.32332611083984375</timeResidual><timeUsed>true</timeUsed><horizontalSlownessUsed>false</horizontalSlownessUsed><backazimuthUsed>false</backazimuthUsed><weight>1</weight></arrival><arrival><pickID>de.gempa.tb1.Pick/20250414121237.703881.137870</pickID><phase>P</phase><azimuth>268.81414794921875</azimuth><distance>2.1462900638580322</distance><timeResidual>-0.24683380126953125</timeResidual><timeUsed>true</timeUsed><horizontalSlownessUsed>false</horizontalSlownessUsed><backazimuthUsed>false</backazimuthUsed><weight>1</weight></arrival><arrival><pickID>de.gempa.tb1.Pick/20250414121240.504268.137873</pickID><phase>P</phase><azimuth>249.02288818359375</azimuth><distance>2.1447436809539795</distance><timeResidual>-0.07366943359375</timeResidual><timeUsed>true</timeUsed><horizontalSlownessUsed>false</horizontalSlownessUsed><backazimuthUsed>false</backazimuthUsed><weight>1</weight></arrival><arrival><pickID>de.gempa.tb1.Pick/20250414121240.565808.137875</pickID><phase>P</phase><azimuth>232.1333923339844</azimuth><distance>2.3131093978881836</distance><timeResidual>0.022891998291015625</timeResidual><timeUsed>true</timeUsed><horizontalSlownessUsed>false</horizontalSlownessUsed><backazimuthUsed>false</backazimuthUsed><weight>1</weight></arrival><arrival><pickID>de.gempa.tb1.Pick/20250414121241.722675.137877</pickID><phase>P</phase><azimuth>251.53724670410156</azimuth><distance>1.6141126155853271</distance><timeResidual>0.14989471435546875</timeResidual><timeUsed>true</timeUsed><horizontalSlownessUsed>false</horizontalSlownessUsed><backazimuthUsed>false</backazimuthUsed><weight>1</weight></arrival><arrival><pickID>de.gempa.tb1.Pick/20250414121242.531159.137879</pickID><phase>P</phase><azimuth>280.6149597167969</azimuth><distance>2.434907913208008</distance><timeResidual>0.5388069152832031</timeResidual><timeUsed>true</timeUsed><horizontalSlownessUsed>false</horizontalSlownessUsed><backazimuthUsed>false</backazimuthUsed><weight>1</weight></arrival><arrival><pickID>de.gempa.tb1.Pick/20250414121244.626533.137881</pickID><phase>P</phase><azimuth>221.98065185546875</azimuth><distance>2.581371307373047</distance><timeResidual>0.5231208801269531</timeResidual><timeUsed>true</timeUsed><horizontalSlownessUsed>false</horizontalSlownessUsed><backazimuthUsed>false</backazimuthUsed><weight>1</weight></arrival><arrival><pickID>de.gempa.tb1.Pick/20250414121248.526536.137884</pickID><phase>P</phase><azimuth>304.95306396484375</azimuth><distance>2.9087886810302734</distance><timeResidual>0.3696250915527344</timeResidual><timeUsed>true</timeUsed><horizontalSlownessUsed>false</horizontalSlownessUsed><backazimuthUsed>false</backazimuthUsed><weight>1</weight></arrival><arrival><pickID>de.gempa.tb1.Pick/20250414121248.654637.137886</pickID><phase>P</phase><azimuth>210.74806213378906</azimuth><distance>3.037264585494995</distance><timeResidual>-0.024936676025390625</timeResidual><timeUsed>true</timeUsed><horizontalSlownessUsed>false</horizontalSlownessUsed><backazimuthUsed>false</backazimuthUsed><weight>1</weight></arrival><arrival><pickID>de.gempa.tb1.Pick/20250414121250.879519.137888</pickID><phase>P</phase><azimuth>258.0933837890625</azimuth><distance>2.177610158920288</distance><timeResidual>-0.59466552734375</timeResidual><timeUsed>true</timeUsed><horizontalSlownessUsed>false</horizontalSlownessUsed><backazimuthUsed>false</backazimuthUsed><weight>1</weight></arrival><arrival><pickID>de.gempa.tb1.Pick/20250414121255.194137.137892</pickID><phase>P</phase><azimuth>230.52020263671875</azimuth><distance>3.520390748977661</distance><timeResidual>-0.33330535888671875</timeResidual><timeUsed>true</timeUsed><horizontalSlownessUsed>false</horizontalSlownessUsed><backazimuthUsed>false</backazimuthUsed><weight>1</weight></arrival><arrival><pickID>de.gempa.tb1.Pick/20250414121313.769123.137895</pickID><phase>S</phase><azimuth>249.02288818359375</azimuth><distance>2.1447436809539795</distance><timeResidual>-0.11170196533203125</timeResidual><timeUsed>true</timeUsed><horizontalSlownessUsed>false</horizontalSlownessUsed><backazimuthUsed>false</backazimuthUsed><weight>1</weight></arrival><arrival><pickID>de.gempa.tb1.Pick/20250414121319.409929.137898</pickID><phase>S</phase><azimuth>280.6149597167969</azimuth><distance>2.434907913208008</distance><timeResidual>0.5542373657226562</timeResidual><timeUsed>true</timeUsed><horizontalSlownessUsed>false</horizontalSlownessUsed><backazimuthUsed>false</backazimuthUsed><weight>1</weight></arrival><arrival><pickID>de.gempa.tb1.Pick/20250414121325.839651.137899</pickID><phase>S</phase><azimuth>304.95306396484375</azimuth><distance>2.9087886810302734</distance><timeResidual>-0.449951171875</timeResidual><timeUsed>true</timeUsed><horizontalSlownessUsed>false</horizontalSlownessUsed><backazimuthUsed>false</backazimuthUsed><weight>1</weight></arrival><magnitude publicID="de.gempa.tb1.Magnitude/20250414121404.53906.485740"><magnitude><value>2.974248260591171</value></magnitude><type>M</type><methodID>weighted average</methodID><stationCount>7</stationCount></magnitude></origin><event publicID="gempa2025hjer"><preferredOriginID>de.gempa.tb1.Origin/20250414121327.580339.137047</preferredOriginID><preferredMagnitudeID>de.gempa.tb1.Magnitude/20250414121404.53906.485740</preferredMagnitudeID><description><text>Chile-Bolivia Border Region</text><type>region name</type></description><originReference>de.gempa.tb1.Origin/20250414121327.580339.137047</originReference></event></EventParameters></seiscomp>