<?xml version="1.0" encoding="UTF-8"?>
<seiscomp xmlns="http://geofon.gfz-potsdam.de/ns/seiscomp3-schema/0.13" version="0.13"><EventParameters><pick publicID="de.gempa.tb1.Pick/20250413135752.509265.131603"><time><value>2025-04-13T13:57:45.438393Z</value></time><waveformID networkCode="CX" stationCode="PB01" channelCode="HHZ"/><filterID>ITAPER(4)&gt;&gt;BW(4,4,20)</filterID><methodID>AIC</methodID><horizontalSlowness><value>14.89555380424575</value></horizontalSlowness><backazimuth><value>189.48110441710057</value></backazimuth><phaseHint>P</phaseHint><evaluationMode>automatic</evaluationMode><comment><text>29.622835103250893</text><id>DFX:rectilinearity</id></comment><comment><text>74.13718525543972</text><id>SNR</id></comment></pick><pick publicID="de.gempa.tb1.Pick/20250413135755.528896.131605"><time><value>2025-04-13T13:57:49.238393Z</value></time><waveformID networkCode="CX" stationCode="PB02" channelCode="HHZ"/><filterID>ITAPER(4)&gt;&gt;BW(4,4,20)</filterID><methodID>AIC</methodID><horizontalSlowness><value>15.88554138197787</value></horizontalSlowness><backazimuth><value>97.06248722814325</value></backazimuth><phaseHint>P</phaseHint><evaluationMode>automatic</evaluationMode><comment><text>45.12700620067599</text><id>DFX:rectilinearity</id></comment><comment><text>38.488691814934946</text><id>SNR</id></comment></pick><pick publicID="de.gempa.tb1.Pick/20250413135758.455173.131607"><time><value>2025-04-13T13:57:48.19Z</value></time><waveformID networkCode="CX" stationCode="PB09" channelCode="HHZ"/><filterID>ITAPER(4)&gt;&gt;BW(4,4,20)</filterID><methodID>AIC</methodID><horizontalSlowness><value>22.88851981650117</value></horizontalSlowness><backazimuth><value>28.268550469384053</value></backazimuth><phaseHint>P</phaseHint><evaluationMode>automatic</evaluationMode><comment><text>11.683083862595073</text><id>DFX:rectilinearity</id></comment><comment><text>34.91480950610807</text><id>SNR</id></comment></pick><pick publicID="de.gempa.tb1.Pick/20250413135758.516008.131609"><time><value>2025-04-13T13:57:52.338393Z</value></time><waveformID networkCode="CX" stationCode="PB03" channelCode="HHZ"/><filterID>ITAPER(4)&gt;&gt;BW(4,4,20)</filterID><methodID>AIC</methodID><horizontalSlowness><value>2.1701349871282671</value></horizontalSlowness><backazimuth><value>271.8479377545866</value></backazimuth><phaseHint>P</phaseHint><evaluationMode>automatic</evaluationMode><comment><text>9.39291394419655</text><id>DFX:rectilinearity</id></comment><comment><text>15.232391091809964</text><id>SNR</id></comment></pick><pick publicID="de.gempa.tb1.Pick/20250413135759.774018.131611"><time><value>2025-04-13T13:57:50.868394Z</value></time><waveformID networkCode="CX" stationCode="PB07" channelCode="HHZ"/><filterID>ITAPER(4)&gt;&gt;BW(4,4,20)</filterID><methodID>AIC</methodID><horizontalSlowness><value>21.827977553228848</value></horizontalSlowness><backazimuth><value>105.35106155313643</value></backazimuth><phaseHint>P</phaseHint><evaluationMode>automatic</evaluationMode><comment><text>319.01061924446935</text><id>DFX:rectilinearity</id></comment><comment><text>27.63111364440375</text><id>SNR</id></comment></pick><pick publicID="de.gempa.tb1.Pick/20250413135802.403192.131613"><time><value>2025-04-13T13:57:52.169999Z</value></time><waveformID networkCode="CX" stationCode="PATCX" channelCode="HHZ"/><filterID>ITAPER(4)&gt;&gt;BW(4,4,20)</filterID><methodID>AIC</methodID><horizontalSlowness><value>20.270493977455086</value></horizontalSlowness><backazimuth><value>70.83022827127017</value></backazimuth><phaseHint>P</phaseHint><evaluationMode>automatic</evaluationMode><comment><text>226.63682113954485</text><id>DFX:rectilinearity</id></comment><comment><text>7.10280151293997</text><id>SNR</id></comment></pick><pick publicID="de.gempa.tb1.Pick/20250413135806.815156.131615"><time><value>2025-04-13T13:57:58.318393Z</value></time><waveformID networkCode="CX" stationCode="PB01" channelCode="HHN"/><filterID>ITAPER(2)&gt;&gt;BW(3,3,20)</filterID><methodID>L2-AIC-GRID</methodID><horizontalSlowness><value>22.068973579949883</value></horizontalSlowness><backazimuth><value>19.351390976170137</value></backazimuth><phaseHint>S</phaseHint><evaluationMode>automatic</evaluationMode><comment><text>605.229015397773</text><id>DFX:rectilinearity</id></comment><comment><text>de.gempa.tb1.Pick/20250413135752.509265.131603</text><id>RefPickID</id></comment><comment><text>11.637196730747332</text><id>SNR</id></comment></pick><pick publicID="de.gempa.tb1.Pick/20250413135813.658477.131616"><time><value>2025-04-13T13:58:04.708393Z</value></time><waveformID networkCode="CX" stationCode="PB02" channelCode="HHN"/><filterID>ITAPER(2)&gt;&gt;BW(3,3,20)</filterID><methodID>L2-AIC-GRID</methodID><horizontalSlowness><value>16.634981272430103</value></horizontalSlowness><backazimuth><value>253.3102178719267</value></backazimuth><phaseHint>S</phaseHint><evaluationMode>automatic</evaluationMode><comment><text>552.743022849383</text><id>DFX:rectilinearity</id></comment><comment><text>de.gempa.tb1.Pick/20250413135755.528896.131605</text><id>RefPickID</id></comment><comment><text>6.950957869272891</text><id>SNR</id></comment></pick><pick publicID="de.gempa.tb1.Pick/20250413135818.42611.131618"><time><value>2025-04-13T13:58:09.239999Z</value></time><waveformID networkCode="CX" stationCode="PATCX" channelCode="HHN"/><filterID>ITAPER(2)&gt;&gt;BW(3,3,20)</filterID><methodID>L2-AIC-GRID</methodID><horizontalSlowness><value>20.0080678184651</value></horizontalSlowness><backazimuth><value>74.69602088017106</value></backazimuth><phaseHint>S</phaseHint><evaluationMode>automatic</evaluationMode><comment><text>344.19757073648344</text><id>DFX:rectilinearity</id></comment><comment><text>de.gempa.tb1.Pick/20250413135802.403192.131613</text><id>RefPickID</id></comment><comment><text>9.144052535944839</text><id>SNR</id></comment></pick><pick publicID="de.gempa.tb1.Pick/20250413135821.697339.131619"><time><value>2025-04-13T13:58:10.058393Z</value></time><waveformID networkCode="CX" stationCode="PB03" channelCode="HHN"/><filterID>ITAPER(2)&gt;&gt;BW(3,3,20)</filterID><methodID>L2-AIC-GRID</methodID><horizontalSlowness><value>8.942244091754548</value></horizontalSlowness><backazimuth><value>122.00912316920034</value></backazimuth><phaseHint>S</phaseHint><evaluationMode>automatic</evaluationMode><comment><text>13.363518717885833</text><id>DFX:rectilinearity</id></comment><comment><text>de.gempa.tb1.Pick/20250413135758.516008.131609</text><id>RefPickID</id></comment><comment><text>5.947663031353495</text><id>SNR</id></comment></pick><origin publicID="de.gempa.tb1.Origin/20250413135821.700959.111754"><time><value>2025-04-13T13:57:29.533658Z</value><uncertainty>1.1272668838500977</uncertainty></time><latitude><value>-21.103681564331055</value><uncertainty>6.06541109085083</uncertainty></latitude><longitude><value>-68.96578216552734</value><uncertainty>9.352746963500977</uncertainty></longitude><depth><value>105.22196960449219</value><uncertainty>9.847378730773926</uncertainty></depth><depthType>from location</depthType><methodID>LOCSAT</methodID><earthModelID>iasp91_scanloc</earthModelID><quality><associatedPhaseCount>10</associatedPhaseCount><usedPhaseCount>10</usedPhaseCount><associatedStationCount>6</associatedStationCount><usedStationCount>6</usedStationCount><depthPhaseCount>0</depthPhaseCount><standardError>0.21637052763145614</standardError><azimuthalGap>276.38734436035156</azimuthalGap><maximumDistance>1.1920115947723389</maximumDistance><minimumDistance>0.4908482730388641</minimumDistance><medianDistance>1.0582007169723511</medianDistance></quality><uncertainty><minHorizontalUncertainty>12.110100746154785</minHorizontalUncertainty><maxHorizontalUncertainty>20.607120513916016</maxHorizontalUncertainty><azimuthMaxHorizontalUncertainty>73.47669219970703</azimuthMaxHorizontalUncertainty><preferredDescription>horizontal uncertainty</preferredDescription></uncertainty><evaluationMode>automatic</evaluationMode><evaluationStatus>confirmed</evaluationStatus><comment><text>0.04</text><id>mismatchScore</id></comment><comment><text>mismatchScore</text><id>scevalMethod</id></comment><arrival><pickID>de.gempa.tb1.Pick/20250413135752.509265.131603</pickID><phase>P</phase><azimuth>276.9456787109375</azimuth><distance>0.4908482730388641</distance><timeResidual>-0.3791990280151367</timeResidual><timeUsed>true</timeUsed><horizontalSlownessUsed>false</horizontalSlownessUsed><backazimuthUsed>false</backazimuthUsed><weight>1</weight></arrival><arrival><pickID>de.gempa.tb1.Pick/20250413135755.528896.131605</pickID><phase>P</phase><azimuth>255.9220886230469</azimuth><distance>0.894203245639801</distance><timeResidual>-0.04122352600097656</timeResidual><timeUsed>true</timeUsed><horizontalSlownessUsed>false</horizontalSlownessUsed><backazimuthUsed>false</backazimuthUsed><weight>1</weight></arrival><arrival><pickID>de.gempa.tb1.Pick/20250413135758.455173.131607</pickID><phase>P</phase><azimuth>200.41542053222656</azimuth><distance>0.7357264161109924</distance><timeResidual>0.42279052734375</timeResidual><timeUsed>true</timeUsed><horizontalSlownessUsed>false</horizontalSlownessUsed><backazimuthUsed>false</backazimuthUsed><weight>1</weight></arrival><arrival><pickID>de.gempa.tb1.Pick/20250413135758.516008.131609</pickID><phase>P</phase><azimuth>217.79153442382812</azimuth><distance>1.1920115947723389</distance><timeResidual>-0.12969112396240234</timeResidual><timeUsed>true</timeUsed><horizontalSlownessUsed>false</horizontalSlownessUsed><backazimuthUsed>false</backazimuthUsed><weight>1</weight></arrival><arrival><pickID>de.gempa.tb1.Pick/20250413135759.774018.131611</pickID><phase>P</phase><azimuth>233.9726257324219</azimuth><distance>1.0582007169723511</distance><timeResidual>-0.12031269073486328</timeResidual><timeUsed>true</timeUsed><horizontalSlownessUsed>false</horizontalSlownessUsed><backazimuthUsed>false</backazimuthUsed><weight>1</weight></arrival><arrival><pickID>de.gempa.tb1.Pick/20250413135802.403192.131613</pickID><phase>P</phase><azimuth>284.028076171875</azimuth><distance>1.1446425914764404</distance><timeResidual>0.22750377655029297</timeResidual><timeUsed>true</timeUsed><horizontalSlownessUsed>false</horizontalSlownessUsed><backazimuthUsed>false</backazimuthUsed><weight>1</weight></arrival><arrival><pickID>de.gempa.tb1.Pick/20250413135806.815156.131615</pickID><phase>S</phase><azimuth>276.9456787109375</azimuth><distance>0.4908482730388641</distance><timeResidual>-0.02307701110839844</timeResidual><timeUsed>true</timeUsed><horizontalSlownessUsed>false</horizontalSlownessUsed><backazimuthUsed>false</backazimuthUsed><weight>1</weight></arrival><arrival><pickID>de.gempa.tb1.Pick/20250413135813.658477.131616</pickID><phase>S</phase><azimuth>255.9220886230469</azimuth><distance>0.894203245639801</distance><timeResidual>0.20103740692138672</timeResidual><timeUsed>true</timeUsed><horizontalSlownessUsed>false</horizontalSlownessUsed><backazimuthUsed>false</backazimuthUsed><weight>1</weight></arrival><arrival><pickID>de.gempa.tb1.Pick/20250413135818.42611.131618</pickID><phase>S</phase><azimuth>284.028076171875</azimuth><distance>1.1446425914764404</distance><timeResidual>-0.018273353576660156</timeResidual><timeUsed>true</timeUsed><horizontalSlownessUsed>false</horizontalSlownessUsed><backazimuthUsed>false</backazimuthUsed><weight>1</weight></arrival><arrival><pickID>de.gempa.tb1.Pick/20250413135821.697339.131619</pickID><phase>S</phase><azimuth>217.79153442382812</azimuth><distance>1.1920115947723389</distance><timeResidual>-0.13994121551513672</timeResidual><timeUsed>true</timeUsed><horizontalSlownessUsed>false</horizontalSlownessUsed><backazimuthUsed>false</backazimuthUsed><weight>1</weight></arrival><magnitude publicID="de.gempa.tb1.Magnitude/20250413135831.577222.364724"><magnitude><value>2.172760263447469</value></magnitude><type>M</type><methodID>weighted average</methodID><stationCount>3</stationCount></magnitude></origin><event publicID="gempa2025hhme"><preferredOriginID>de.gempa.tb1.Origin/20250413135821.700959.111754</preferredOriginID><preferredMagnitudeID>de.gempa.tb1.Magnitude/20250413135831.577222.364724</preferredMagnitudeID><description><text>Chile-Bolivia Border Region</text><type>region name</type></description><originReference>de.gempa.tb1.Origin/20250413135821.700959.111754</originReference></event></EventParameters></seiscomp>