<?xml version="1.0" encoding="UTF-8"?>
<seiscomp xmlns="http://geofon.gfz-potsdam.de/ns/seiscomp3-schema/0.13" version="0.13"><EventParameters><pick publicID="de.gempa.tb1.Pick/20250414193912.784408.140751"><time><value>2025-04-14T19:39:06.538393Z</value></time><waveformID networkCode="CX" stationCode="PB01" channelCode="HHZ"/><filterID>ITAPER(4)&gt;&gt;BW(4,4,20)</filterID><methodID>AIC</methodID><horizontalSlowness><value>23.574443929433134</value></horizontalSlowness><backazimuth><value>332.17802398073314</value></backazimuth><phaseHint>P</phaseHint><evaluationMode>automatic</evaluationMode><comment><text>23.922685629164476</text><id>DFX:rectilinearity</id></comment><comment><text>10.220087560060778</text><id>SNR</id></comment></pick><pick publicID="de.gempa.tb1.Pick/20250414193920.485251.140753"><time><value>2025-04-14T19:39:13.009999Z</value></time><waveformID networkCode="CX" stationCode="PATCX" channelCode="HHZ"/><filterID>ITAPER(4)&gt;&gt;BW(4,4,20)</filterID><methodID>AIC</methodID><horizontalSlowness><value>20.512324306422485</value></horizontalSlowness><backazimuth><value>74.60345254230506</value></backazimuth><phaseHint>P</phaseHint><evaluationMode>automatic</evaluationMode><comment><text>119.10304647885253</text><id>DFX:rectilinearity</id></comment><comment><text>11.076827394338862</text><id>SNR</id></comment></pick><pick publicID="de.gempa.tb1.Pick/20250414193924.584486.140755"><time><value>2025-04-14T19:39:18.800001Z</value></time><waveformID networkCode="CX" stationCode="PSGCX" channelCode="HHZ"/><filterID>ITAPER(4)&gt;&gt;BW(4,4,20)</filterID><methodID>AIC</methodID><horizontalSlowness><value>19.894046928084133</value></horizontalSlowness><backazimuth><value>128.70430031050194</value></backazimuth><phaseHint>P</phaseHint><evaluationMode>automatic</evaluationMode><comment><text>15.595798481095432</text><id>DFX:rectilinearity</id></comment><comment><text>9.686497782484238</text><id>SNR</id></comment></pick><pick publicID="de.gempa.tb1.Pick/20250414193928.591663.140759"><time><value>2025-04-14T19:39:19.558393Z</value></time><waveformID networkCode="CX" stationCode="PB01" channelCode="HHN"/><filterID>ITAPER(2)&gt;&gt;BW(3,3,20)</filterID><methodID>L2-AIC-GRID</methodID><horizontalSlowness><value>21.698345980961175</value></horizontalSlowness><backazimuth><value>293.1247127171761</value></backazimuth><phaseHint>S</phaseHint><evaluationMode>automatic</evaluationMode><comment><text>304.357362683302</text><id>DFX:rectilinearity</id></comment><comment><text>de.gempa.tb1.Pick/20250414193912.784408.140751</text><id>RefPickID</id></comment><comment><text>9.319254196264948</text><id>SNR</id></comment></pick><pick publicID="de.gempa.tb1.Pick/20250414193940.4967.140760"><time><value>2025-04-14T19:39:30.639999Z</value></time><waveformID networkCode="CX" stationCode="PATCX" channelCode="HHN"/><filterID>ITAPER(2)&gt;&gt;BW(3,3,20)</filterID><methodID>L2-AIC-GRID</methodID><horizontalSlowness><value>23.26981930237852</value></horizontalSlowness><backazimuth><value>111.03434847321948</value></backazimuth><phaseHint>S</phaseHint><evaluationMode>automatic</evaluationMode><comment><text>185.48011503987388</text><id>DFX:rectilinearity</id></comment><comment><text>de.gempa.tb1.Pick/20250414193920.485251.140753</text><id>RefPickID</id></comment><comment><text>6.45021890360597</text><id>SNR</id></comment></pick><pick publicID="de.gempa.tb1.Pick/20250414193951.600794.140765"><time><value>2025-04-14T19:39:41.610001Z</value></time><waveformID networkCode="CX" stationCode="PSGCX" channelCode="HHN"/><filterID>ITAPER(2)&gt;&gt;BW(3,3,20)</filterID><methodID>L2-AIC-GRID</methodID><horizontalSlowness><value>22.112538550007418</value></horizontalSlowness><backazimuth><value>181.60662510663306</value></backazimuth><phaseHint>S</phaseHint><evaluationMode>automatic</evaluationMode><comment><text>27.204468423874477</text><id>DFX:rectilinearity</id></comment><comment><text>de.gempa.tb1.Pick/20250414193924.584486.140755</text><id>RefPickID</id></comment><comment><text>5.347590246428662</text><id>SNR</id></comment></pick><pick publicID="de.gempa.tb1.Pick/20250414194002.375772.140766"><time><value>2025-04-14T19:39:13.718393Z</value></time><waveformID networkCode="CX" stationCode="PB07" channelCode="HHZ"/><filterID>ITAPER(4)&gt;&gt;BW(4,4,20)</filterID><methodID>AIC</methodID><horizontalSlowness><value>23.43809769413942</value></horizontalSlowness><backazimuth><value>63.68964464603287</value></backazimuth><phaseHint>P</phaseHint><evaluationMode>automatic</evaluationMode><comment><text>678.8147245505811</text><id>DFX:rectilinearity</id></comment><comment><text>10.903615409870747</text><id>SNR</id></comment></pick><origin publicID="de.gempa.tb1.Origin/20250414194002.444954.149182"><time><value>2025-04-14T19:38:49.6749Z</value><uncertainty>1.2205482721328735</uncertainty></time><latitude><value>-20.84199333190918</value><uncertainty>6.421730518341064</uncertainty></latitude><longitude><value>-68.81626892089844</value><uncertainty>12.527190208435059</uncertainty></longitude><depth><value>98.31761932373047</value><uncertainty>13.291418075561523</uncertainty></depth><depthType>from location</depthType><methodID>LOCSAT</methodID><earthModelID>iasp91_scanloc</earthModelID><quality><associatedPhaseCount>7</associatedPhaseCount><usedPhaseCount>7</usedPhaseCount><associatedStationCount>4</associatedStationCount><usedStationCount>4</usedStationCount><depthPhaseCount>0</depthPhaseCount><standardError>0.08832360691155311</standardError><azimuthalGap>273.3533020019531</azimuthalGap><maximumDistance>1.7434988021850586</maximumDistance><minimumDistance>0.6585060954093933</minimumDistance><medianDistance>1.2504676580429077</medianDistance></quality><uncertainty><minHorizontalUncertainty>11.709771156311035</minHorizontalUncertainty><maxHorizontalUncertainty>27.82468032836914</maxHorizontalUncertainty><azimuthMaxHorizontalUncertainty>73.31324768066406</azimuthMaxHorizontalUncertainty><preferredDescription>horizontal uncertainty</preferredDescription></uncertainty><evaluationMode>automatic</evaluationMode><comment><text>0.57</text><id>mismatchScore</id></comment><arrival><pickID>de.gempa.tb1.Pick/20250414193912.784408.140751</pickID><phase>P</phase><azimuth>252.17884826660156</azimuth><distance>0.6585060954093933</distance><timeResidual>-0.019659042358398438</timeResidual><timeUsed>true</timeUsed><horizontalSlownessUsed>false</horizontalSlownessUsed><backazimuthUsed>false</backazimuthUsed><weight>1</weight></arrival><arrival><pickID>de.gempa.tb1.Pick/20250414193920.485251.140753</pickID><phase>P</phase><azimuth>270.73406982421875</azimuth><distance>1.2504676580429077</distance><timeResidual>0.19063377380371094</timeResidual><timeUsed>true</timeUsed><horizontalSlownessUsed>false</horizontalSlownessUsed><backazimuthUsed>false</backazimuthUsed><weight>1</weight></arrival><arrival><pickID>de.gempa.tb1.Pick/20250414193924.584486.140755</pickID><phase>P</phase><azimuth>315.03485107421875</azimuth><distance>1.7434988021850586</distance><timeResidual>-0.09565353393554688</timeResidual><timeUsed>true</timeUsed><horizontalSlownessUsed>false</horizontalSlownessUsed><backazimuthUsed>false</backazimuthUsed><weight>1</weight></arrival><arrival><pickID>de.gempa.tb1.Pick/20250414193928.591663.140759</pickID><phase>S</phase><azimuth>252.17884826660156</azimuth><distance>0.6585060954093933</distance><timeResidual>0.016828536987304688</timeResidual><timeUsed>true</timeUsed><horizontalSlownessUsed>false</horizontalSlownessUsed><backazimuthUsed>false</backazimuthUsed><weight>1</weight></arrival><arrival><pickID>de.gempa.tb1.Pick/20250414193940.4967.140760</pickID><phase>S</phase><azimuth>270.73406982421875</azimuth><distance>1.2504676580429077</distance><timeResidual>-0.07081985473632812</timeResidual><timeUsed>true</timeUsed><horizontalSlownessUsed>false</horizontalSlownessUsed><backazimuthUsed>false</backazimuthUsed><weight>1</weight></arrival><arrival><pickID>de.gempa.tb1.Pick/20250414193951.600794.140765</pickID><phase>S</phase><azimuth>315.03485107421875</azimuth><distance>1.7434988021850586</distance><timeResidual>0.029432296752929691</timeResidual><timeUsed>true</timeUsed><horizontalSlownessUsed>false</horizontalSlownessUsed><backazimuthUsed>false</backazimuthUsed><weight>1</weight></arrival><arrival><pickID>de.gempa.tb1.Pick/20250414194002.375772.140766</pickID><phase>P</phase><azimuth>228.3881530761719</azimuth><distance>1.3306084871292114</distance><timeResidual>-0.05064773559570312</timeResidual><timeUsed>true</timeUsed><horizontalSlownessUsed>false</horizontalSlownessUsed><backazimuthUsed>false</backazimuthUsed><weight>1</weight></arrival><magnitude publicID="de.gempa.tb1.Magnitude/20250414194010.937184.534725"><magnitude><value>2.1932754422608496</value></magnitude><type>M</type><methodID>weighted average</methodID><stationCount>2</stationCount></magnitude></origin><event publicID="gempa2025hjto"><preferredOriginID>de.gempa.tb1.Origin/20250414194002.444954.149182</preferredOriginID><preferredMagnitudeID>de.gempa.tb1.Magnitude/20250414194010.937184.534725</preferredMagnitudeID><description><text>Chile-Bolivia Border Region</text><type>region name</type></description><originReference>de.gempa.tb1.Origin/20250414194002.444954.149182</originReference></event></EventParameters></seiscomp>