<?xml version="1.0" encoding="UTF-8"?>
<seiscomp xmlns="http://geofon.gfz-potsdam.de/ns/seiscomp3-schema/0.13" version="0.13"><EventParameters><pick publicID="de.gempa.tb1.Pick/20250413002555.533549.127778"><time><value>2025-04-13T00:25:51.388393Z</value></time><waveformID networkCode="CX" stationCode="PB06" channelCode="HHZ"/><filterID>ITAPER(4)&gt;&gt;BW(4,4,20)</filterID><methodID>AIC</methodID><horizontalSlowness><value>6.979313696860187</value></horizontalSlowness><backazimuth><value>277.5612143260874</value></backazimuth><phaseHint>P</phaseHint><evaluationMode>automatic</evaluationMode><comment><text>230.09298503477186</text><id>DFX:rectilinearity</id></comment><comment><text>4.996059971827003</text><id>SNR</id></comment></pick><pick publicID="de.gempa.tb1.Pick/20250413002556.488908.127780"><time><value>2025-04-13T00:25:51.128393Z</value></time><waveformID networkCode="CX" stationCode="PB02" channelCode="HHZ"/><filterID>ITAPER(4)&gt;&gt;BW(4,4,20)</filterID><methodID>AIC</methodID><horizontalSlowness><value>21.610829234699853</value></horizontalSlowness><backazimuth><value>87.69359020638974</value></backazimuth><phaseHint>P</phaseHint><evaluationMode>automatic</evaluationMode><comment><text>37.465478919555956</text><id>DFX:rectilinearity</id></comment><comment><text>7.11095886135497</text><id>SNR</id></comment></pick><pick publicID="de.gempa.tb1.Pick/20250413002600.69376.127783"><time><value>2025-04-13T00:25:56.198393Z</value></time><waveformID networkCode="CX" stationCode="PB15" channelCode="HHZ"/><filterID>ITAPER(4)&gt;&gt;BW(4,4,20)</filterID><methodID>AIC</methodID><horizontalSlowness><value>22.11168354269423</value></horizontalSlowness><backazimuth><value>108.1586825654837</value></backazimuth><phaseHint>P</phaseHint><evaluationMode>automatic</evaluationMode><comment><text>324.71063772423037</text><id>DFX:rectilinearity</id></comment><comment><text>8.320731604456851</text><id>SNR</id></comment></pick><pick publicID="de.gempa.tb1.Pick/20250413002604.82263.127787"><time><value>2025-04-13T00:25:56.508391Z</value></time><waveformID networkCode="CX" stationCode="PB03" channelCode="HHN"/><filterID>ITAPER(2)&gt;&gt;BW(3,3,20)</filterID><methodID>L2-AIC-GRID</methodID><horizontalSlowness><value>23.41729273718959</value></horizontalSlowness><backazimuth><value>168.6719070362235</value></backazimuth><phaseHint>S</phaseHint><evaluationMode>automatic</evaluationMode><comment><text>35.453342877880843</text><id>DFX:rectilinearity</id></comment><comment><text>de.gempa.tb1.Pick/20250413002551.754647.127776</text><id>RefPickID</id></comment><comment><text>17.755647821575945</text><id>SNR</id></comment></pick><pick publicID="de.gempa.tb1.Pick/20250413002619.339029.127790"><time><value>2025-04-13T00:25:46.928394Z</value></time><waveformID networkCode="CX" stationCode="PB07" channelCode="HHZ"/><filterID>ITAPER(4)&gt;&gt;BW(4,4,20)</filterID><methodID>AIC</methodID><horizontalSlowness><value>23.4843748524973</value></horizontalSlowness><backazimuth><value>324.1954573709337</value></backazimuth><phaseHint>P</phaseHint><evaluationMode>automatic</evaluationMode><comment><text>215.06271928153333</text><id>DFX:rectilinearity</id></comment><comment><text>28.946841855623067</text><id>SNR</id></comment></pick><pick publicID="de.gempa.tb1.Pick/20250413002619.49143.127792"><time><value>2025-04-13T00:26:10.828393Z</value></time><waveformID networkCode="CX" stationCode="PB02" channelCode="HHN"/><filterID>ITAPER(2)&gt;&gt;BW(3,3,20)</filterID><methodID>L2-AIC-GRID</methodID><horizontalSlowness><value>12.933830564591029</value></horizontalSlowness><backazimuth><value>54.93336586821081</value></backazimuth><phaseHint>S</phaseHint><evaluationMode>automatic</evaluationMode><comment><text>53.597357701976</text><id>DFX:rectilinearity</id></comment><comment><text>de.gempa.tb1.Pick/20250413002556.488908.127780</text><id>RefPickID</id></comment><comment><text>5.358994363522727</text><id>SNR</id></comment></pick><origin publicID="de.gempa.tb1.Origin/20250413002623.746653.96398"><time><value>2025-04-13T00:25:30.5494Z</value><uncertainty>1.427775740623474</uncertainty></time><latitude><value>-22.292070388793945</value><uncertainty>4.4190659523010254</uncertainty></latitude><longitude><value>-70.5888900756836</value><uncertainty>7.623034477233887</uncertainty></longitude><depth><value>7.136056423187256</value><uncertainty>12.17038345336914</uncertainty></depth><depthType>from location</depthType><methodID>LOCSAT</methodID><earthModelID>iasp91_scanloc</earthModelID><quality><associatedPhaseCount>6</associatedPhaseCount><usedPhaseCount>6</usedPhaseCount><associatedStationCount>5</associatedStationCount><usedStationCount>5</usedStationCount><depthPhaseCount>0</depthPhaseCount><standardError>1.1781958099759127</standardError><azimuthalGap>262.0904006958008</azimuthalGap><maximumDistance>1.377204179763794</maximumDistance><minimumDistance>0.811779260635376</minimumDistance><medianDistance>1.1622564792633057</medianDistance></quality><uncertainty><minHorizontalUncertainty>9.21848201751709</minHorizontalUncertainty><maxHorizontalUncertainty>16.504323959350586</maxHorizontalUncertainty><azimuthMaxHorizontalUncertainty>80.68692779541016</azimuthMaxHorizontalUncertainty><preferredDescription>horizontal uncertainty</preferredDescription></uncertainty><evaluationMode>automatic</evaluationMode><evaluationStatus>confirmed</evaluationStatus><comment><text>0.05</text><id>mismatchScore</id></comment><comment><text>mismatchScore</text><id>scevalMethod</id></comment><arrival><pickID>de.gempa.tb1.Pick/20250413002555.533549.127778</pickID><phase>P</phase><azimuth>113.83678436279297</azimuth><distance>1.0267066955566406</distance><timeResidual>1.1170024871826172</timeResidual><timeUsed>true</timeUsed><horizontalSlownessUsed>false</horizontalSlownessUsed><backazimuthUsed>false</backazimuthUsed><weight>1</weight></arrival><arrival><pickID>de.gempa.tb1.Pick/20250413002556.488908.127780</pickID><phase>P</phase><azimuth>33.76966094970703</azimuth><distance>1.1622564792633057</distance><timeResidual>-1.7302303314208984</timeResidual><timeUsed>true</timeUsed><horizontalSlownessUsed>false</horizontalSlownessUsed><backazimuthUsed>false</backazimuthUsed><weight>1</weight></arrival><arrival><pickID>de.gempa.tb1.Pick/20250413002600.69376.127783</pickID><phase>P</phase><azimuth>131.67926025390625</azimuth><distance>1.377204179763794</distance><timeResidual>0.03209114074707031</timeResidual><timeUsed>true</timeUsed><horizontalSlownessUsed>false</horizontalSlownessUsed><backazimuthUsed>false</backazimuthUsed><weight>1</weight></arrival><arrival><pickID>de.gempa.tb1.Pick/20250413002604.82263.127787</pickID><phase>S</phase><azimuth>72.7811279296875</azimuth><distance>0.811779260635376</distance><timeResidual>-0.9909515380859375</timeResidual><timeUsed>true</timeUsed><horizontalSlownessUsed>false</horizontalSlownessUsed><backazimuthUsed>false</backazimuthUsed><weight>1</weight></arrival><arrival><pickID>de.gempa.tb1.Pick/20250413002619.339029.127790</pickID><phase>P</phase><azimuth>49.34235382080078</azimuth><distance>0.8613030314445496</distance><timeResidual>-0.18053436279296875</timeResidual><timeUsed>true</timeUsed><horizontalSlownessUsed>false</horizontalSlownessUsed><backazimuthUsed>false</backazimuthUsed><weight>1</weight></arrival><arrival><pickID>de.gempa.tb1.Pick/20250413002619.49143.127792</pickID><phase>S</phase><azimuth>33.76966094970703</azimuth><distance>1.1622564792633057</distance><timeResidual>1.752676010131836</timeResidual><timeUsed>true</timeUsed><horizontalSlownessUsed>false</horizontalSlownessUsed><backazimuthUsed>false</backazimuthUsed><weight>1</weight></arrival><magnitude publicID="de.gempa.tb1.Magnitude/20250413002703.630949.295994"><magnitude><value>2.2788943296052873</value></magnitude><type>M</type><methodID>weighted average</methodID><stationCount>4</stationCount></magnitude></origin><event publicID="gempa2025hglc"><preferredOriginID>de.gempa.tb1.Origin/20250413002623.746653.96398</preferredOriginID><preferredMagnitudeID>de.gempa.tb1.Magnitude/20250413002703.630949.295994</preferredMagnitudeID><description><text>Near Coast of Northern Chile</text><type>region name</type></description><originReference>de.gempa.tb1.Origin/20250413002623.746653.96398</originReference></event></EventParameters></seiscomp>