<?xml version="1.0" encoding="UTF-8"?>
<seiscomp xmlns="http://geofon.gfz-potsdam.de/ns/seiscomp3-schema/0.13" version="0.13"><EventParameters><pick publicID="de.gempa.tb1.Pick/20250415071111.514155.117913"><time><value>2025-04-15T07:11:02.77Z</value></time><waveformID networkCode="CX" stationCode="PB09" channelCode="HHZ"/><filterID>ITAPER(4)&gt;&gt;BW(4,4,20)</filterID><methodID>AIC</methodID><horizontalSlowness><value>15.293176359180602</value></horizontalSlowness><backazimuth><value>82.00399699790323</value></backazimuth><phaseHint>P</phaseHint><evaluationMode>automatic</evaluationMode><comment><text>25.646032961159307</text><id>DFX:rectilinearity</id></comment><comment><text>42.816664747042964</text><id>SNR</id></comment></pick><pick publicID="de.gempa.tb1.Pick/20250415071112.768714.117915"><time><value>2025-04-15T07:11:06.798393Z</value></time><waveformID networkCode="CX" stationCode="PB03" channelCode="HHZ"/><filterID>ITAPER(4)&gt;&gt;BW(4,4,20)</filterID><methodID>AIC</methodID><horizontalSlowness><value>5.401588808206996</value></horizontalSlowness><backazimuth><value>62.95458845465761</value></backazimuth><phaseHint>P</phaseHint><evaluationMode>automatic</evaluationMode><comment><text>15.499440075526154</text><id>DFX:rectilinearity</id></comment><comment><text>17.08780209767905</text><id>SNR</id></comment></pick><pick publicID="de.gempa.tb1.Pick/20250415071114.627633.117917"><time><value>2025-04-15T07:11:07.168393Z</value></time><waveformID networkCode="CX" stationCode="PB01" channelCode="HHZ"/><filterID>ITAPER(4)&gt;&gt;BW(4,4,20)</filterID><methodID>AIC</methodID><horizontalSlowness><value>2.33354725132318</value></horizontalSlowness><backazimuth><value>95.60887064233678</value></backazimuth><phaseHint>P</phaseHint><evaluationMode>automatic</evaluationMode><comment><text>20.263243321785058</text><id>DFX:rectilinearity</id></comment><comment><text>35.808070268615566</text><id>SNR</id></comment></pick><pick publicID="de.gempa.tb1.Pick/20250415071116.554778.117919"><time><value>2025-04-15T07:11:09.458393Z</value></time><waveformID networkCode="CX" stationCode="PB02" channelCode="HHZ"/><filterID>ITAPER(4)&gt;&gt;BW(4,4,20)</filterID><methodID>AIC</methodID><horizontalSlowness><value>3.975293711093107</value></horizontalSlowness><backazimuth><value>98.4188769833534</value></backazimuth><phaseHint>P</phaseHint><evaluationMode>automatic</evaluationMode><comment><text>85.47957833489585</text><id>DFX:rectilinearity</id></comment><comment><text>28.55287537352123</text><id>SNR</id></comment></pick><pick publicID="de.gempa.tb1.Pick/20250415071118.685589.117921"><time><value>2025-04-15T07:11:08.458393Z</value></time><waveformID networkCode="CX" stationCode="PB06" channelCode="HHZ"/><filterID>ITAPER(4)&gt;&gt;BW(4,4,20)</filterID><methodID>AIC</methodID><horizontalSlowness><value>11.39038573825287</value></horizontalSlowness><backazimuth><value>307.8346207970525</value></backazimuth><phaseHint>P</phaseHint><evaluationMode>automatic</evaluationMode><comment><text>49.37241520035497</text><id>DFX:rectilinearity</id></comment><comment><text>9.858881639634062</text><id>SNR</id></comment></pick><pick publicID="de.gempa.tb1.Pick/20250415071119.255311.117923"><time><value>2025-04-15T07:11:14.389999Z</value></time><waveformID networkCode="CX" stationCode="PATCX" channelCode="HHZ"/><filterID>ITAPER(4)&gt;&gt;BW(4,4,20)</filterID><methodID>AIC</methodID><horizontalSlowness><value>18.37141023446895</value></horizontalSlowness><backazimuth><value>95.35525556291314</value></backazimuth><phaseHint>P</phaseHint><evaluationMode>automatic</evaluationMode><comment><text>94.09783500108129</text><id>DFX:rectilinearity</id></comment><comment><text>32.21619706526805</text><id>SNR</id></comment></pick><pick publicID="de.gempa.tb1.Pick/20250415071131.784691.117925"><time><value>2025-04-15T07:11:26.368393Z</value></time><waveformID networkCode="CX" stationCode="PB01" channelCode="HHN"/><filterID>ITAPER(2)&gt;&gt;BW(3,3,20)</filterID><methodID>L2-AIC-GRID</methodID><horizontalSlowness><value>19.58644874950577</value></horizontalSlowness><backazimuth><value>341.73291829670973</value></backazimuth><phaseHint>S</phaseHint><evaluationMode>automatic</evaluationMode><comment><text>569.6622094603459</text><id>DFX:rectilinearity</id></comment><comment><text>de.gempa.tb1.Pick/20250415071114.627633.117917</text><id>RefPickID</id></comment><comment><text>6.172329566081994</text><id>SNR</id></comment></pick><pick publicID="de.gempa.tb1.Pick/20250415071132.729546.117926"><time><value>2025-04-15T07:11:25.178393Z</value></time><waveformID networkCode="CX" stationCode="PB03" channelCode="HHN"/><filterID>ITAPER(2)&gt;&gt;BW(3,3,20)</filterID><methodID>L2-AIC-GRID</methodID><horizontalSlowness><value>20.494780029492262</value></horizontalSlowness><backazimuth><value>220.8205890136603</value></backazimuth><phaseHint>S</phaseHint><evaluationMode>automatic</evaluationMode><comment><text>207.5019966697833</text><id>DFX:rectilinearity</id></comment><comment><text>de.gempa.tb1.Pick/20250415071112.768714.117915</text><id>RefPickID</id></comment><comment><text>10.738797117542278</text><id>SNR</id></comment></pick><pick publicID="de.gempa.tb1.Pick/20250415071135.690716.117927"><time><value>2025-04-15T07:11:28.278393Z</value></time><waveformID networkCode="CX" stationCode="PB06" channelCode="HHN"/><filterID>ITAPER(2)&gt;&gt;BW(3,3,20)</filterID><methodID>L2-AIC-GRID</methodID><horizontalSlowness><value>22.84044675683634</value></horizontalSlowness><backazimuth><value>343.00659351247623</value></backazimuth><phaseHint>S</phaseHint><evaluationMode>automatic</evaluationMode><comment><text>374.7438247671801</text><id>DFX:rectilinearity</id></comment><comment><text>de.gempa.tb1.Pick/20250415071118.685589.117921</text><id>RefPickID</id></comment><comment><text>12.68754513914472</text><id>SNR</id></comment></pick><pick publicID="de.gempa.tb1.Pick/20250415071144.643246.117937"><time><value>2025-04-15T07:11:08.248396Z</value></time><waveformID networkCode="CX" stationCode="PB07" channelCode="HHZ"/><filterID>ITAPER(4)&gt;&gt;BW(4,4,20)</filterID><methodID>AIC</methodID><horizontalSlowness><value>22.861138791775264</value></horizontalSlowness><backazimuth><value>297.3765039736115</value></backazimuth><phaseHint>P</phaseHint><evaluationMode>automatic</evaluationMode><comment><text>644.8876776741114</text><id>DFX:rectilinearity</id></comment><comment><text>70.20991190127204</text><id>SNR</id></comment></pick><pick publicID="de.gempa.tb1.Pick/20250415071146.414219.117939"><time><value>2025-04-15T07:11:38.479999Z</value></time><waveformID networkCode="CX" stationCode="PATCX" channelCode="HHN"/><filterID>ITAPER(2)&gt;&gt;BW(3,3,20)</filterID><methodID>L2-AIC-GRID</methodID><horizontalSlowness><value>17.196686046759005</value></horizontalSlowness><backazimuth><value>44.158878010493595</value></backazimuth><phaseHint>S</phaseHint><evaluationMode>automatic</evaluationMode><comment><text>295.26875900030973</text><id>DFX:rectilinearity</id></comment><comment><text>de.gempa.tb1.Pick/20250415071119.255311.117923</text><id>RefPickID</id></comment><comment><text>5.233251479465455</text><id>SNR</id></comment></pick><pick publicID="de.gempa.tb1.Pick/20250415071214.573851.117944"><time><value>2025-04-15T07:11:27.928396Z</value></time><waveformID networkCode="CX" stationCode="PB07" channelCode="HHN"/><filterID>ITAPER(2)&gt;&gt;BW(3,3,20)</filterID><methodID>L2-AIC-GRID</methodID><horizontalSlowness><value>18.382635747200506</value></horizontalSlowness><backazimuth><value>322.1396910339056</value></backazimuth><phaseHint>S</phaseHint><evaluationMode>automatic</evaluationMode><comment><text>7003.279681828198</text><id>DFX:rectilinearity</id></comment><comment><text>de.gempa.tb1.Pick/20250415071144.643246.117937</text><id>RefPickID</id></comment><comment><text>8.006081887693769</text><id>SNR</id></comment></pick><origin publicID="de.gempa.tb1.Origin/20250415071214.578148.57032"><time><value>2025-04-15T07:10:42.998924Z</value><uncertainty>1.0308867692947388</uncertainty></time><latitude><value>-21.834484100341797</value><uncertainty>4.627392768859863</uncertainty></latitude><longitude><value>-68.5699234008789</value><uncertainty>11.836518287658691</uncertainty></longitude><depth><value>128.4072723388672</value><uncertainty>13.89634609222412</uncertainty></depth><depthType>from location</depthType><methodID>LOCSAT</methodID><earthModelID>iasp91_scanloc</earthModelID><quality><associatedPhaseCount>12</associatedPhaseCount><usedPhaseCount>12</usedPhaseCount><associatedStationCount>7</associatedStationCount><usedStationCount>7</usedStationCount><depthPhaseCount>0</depthPhaseCount><standardError>0.21222570545237912</standardError><azimuthalGap>274.2746887207031</azimuthalGap><maximumDistance>1.7876380681991577</maximumDistance><minimumDistance>0.6255979537963867</minimumDistance><medianDistance>1.2281044721603394</medianDistance></quality><uncertainty><minHorizontalUncertainty>9.481450080871582</minHorizontalUncertainty><maxHorizontalUncertainty>25.54485321044922</maxHorizontalUncertainty><azimuthMaxHorizontalUncertainty>82.92739868164062</azimuthMaxHorizontalUncertainty><preferredDescription>horizontal uncertainty</preferredDescription></uncertainty><evaluationMode>automatic</evaluationMode><evaluationStatus>confirmed</evaluationStatus><comment><text>0.07</text><id>mismatchScore</id></comment><comment><text>mismatchScore</text><id>scevalMethod</id></comment><arrival><pickID>de.gempa.tb1.Pick/20250415071111.514155.117913</pickID><phase>P</phase><azimuth>273.3508605957031</azimuth><distance>0.6255979537963867</distance><timeResidual>0.06365013122558594</timeResidual><timeUsed>true</timeUsed><horizontalSlownessUsed>false</horizontalSlownessUsed><backazimuthUsed>false</backazimuthUsed><weight>1</weight></arrival><arrival><pickID>de.gempa.tb1.Pick/20250415071112.768714.117915</pickID><phase>P</phase><azimuth>258.8095703125</azimuth><distance>1.1189427375793457</distance><timeResidual>-0.15395545959472656</timeResidual><timeUsed>true</timeUsed><horizontalSlownessUsed>false</horizontalSlownessUsed><backazimuthUsed>false</backazimuthUsed><weight>1</weight></arrival><arrival><pickID>de.gempa.tb1.Pick/20250415071114.627633.117917</pickID><phase>P</phase><azimuth>312.48236083984375</azimuth><distance>1.1621193885803223</distance><timeResidual>-0.22463607788085938</timeResidual><timeUsed>true</timeUsed><horizontalSlownessUsed>false</horizontalSlownessUsed><backazimuthUsed>false</backazimuthUsed><weight>1</weight></arrival><arrival><pickID>de.gempa.tb1.Pick/20250415071116.554778.117919</pickID><phase>P</phase><azimuth>292.29510498046875</azimuth><distance>1.336348056793213</distance><timeResidual>0.2402763366699219</timeResidual><timeUsed>true</timeUsed><horizontalSlownessUsed>false</horizontalSlownessUsed><backazimuthUsed>false</backazimuthUsed><weight>1</weight></arrival><arrival><pickID>de.gempa.tb1.Pick/20250415071118.685589.117921</pickID><phase>P</phase><azimuth>226.7570495605469</azimuth><distance>1.270153045654297</distance><timeResidual>-0.04428291320800781</timeResidual><timeUsed>true</timeUsed><horizontalSlownessUsed>false</horizontalSlownessUsed><backazimuthUsed>false</backazimuthUsed><weight>1</weight></arrival><arrival><pickID>de.gempa.tb1.Pick/20250415071119.255311.117923</pickID><phase>P</phase><azimuth>304.06500244140625</azimuth><distance>1.7876380681991577</distance><timeResidual>0.03130340576171875</timeResidual><timeUsed>true</timeUsed><horizontalSlownessUsed>false</horizontalSlownessUsed><backazimuthUsed>false</backazimuthUsed><weight>1</weight></arrival><arrival><pickID>de.gempa.tb1.Pick/20250415071131.784691.117925</pickID><phase>S</phase><azimuth>312.48236083984375</azimuth><distance>1.1621193885803223</distance><timeResidual>0.0736846923828125</timeResidual><timeUsed>true</timeUsed><horizontalSlownessUsed>false</horizontalSlownessUsed><backazimuthUsed>false</backazimuthUsed><weight>1</weight></arrival><arrival><pickID>de.gempa.tb1.Pick/20250415071132.729546.117926</pickID><phase>S</phase><azimuth>258.8095703125</azimuth><distance>1.1189427375793457</distance><timeResidual>-0.33104705810546875</timeResidual><timeUsed>true</timeUsed><horizontalSlownessUsed>false</horizontalSlownessUsed><backazimuthUsed>false</backazimuthUsed><weight>1</weight></arrival><arrival><pickID>de.gempa.tb1.Pick/20250415071135.690716.117927</pickID><phase>S</phase><azimuth>226.7570495605469</azimuth><distance>1.270153045654297</distance><timeResidual>0.001155853271484375</timeResidual><timeUsed>true</timeUsed><horizontalSlownessUsed>false</horizontalSlownessUsed><backazimuthUsed>false</backazimuthUsed><weight>1</weight></arrival><arrival><pickID>de.gempa.tb1.Pick/20250415071144.643246.117937</pickID><phase>P</phase><azimuth>274.76885986328125</azimuth><distance>1.2281044721603394</distance><timeResidual>0.18083572387695312</timeResidual><timeUsed>true</timeUsed><horizontalSlownessUsed>false</horizontalSlownessUsed><backazimuthUsed>false</backazimuthUsed><weight>1</weight></arrival><arrival><pickID>de.gempa.tb1.Pick/20250415071146.414219.117939</pickID><phase>S</phase><azimuth>304.06500244140625</azimuth><distance>1.7876380681991577</distance><timeResidual>-0.2650947570800781</timeResidual><timeUsed>true</timeUsed><horizontalSlownessUsed>false</horizontalSlownessUsed><backazimuthUsed>false</backazimuthUsed><weight>1</weight></arrival><arrival><pickID>de.gempa.tb1.Pick/20250415071214.573851.117944</pickID><phase>S</phase><azimuth>274.76885986328125</azimuth><distance>1.2281044721603394</distance><timeResidual>0.42847251892089844</timeResidual><timeUsed>true</timeUsed><horizontalSlownessUsed>false</horizontalSlownessUsed><backazimuthUsed>false</backazimuthUsed><weight>1</weight></arrival><magnitude publicID="de.gempa.tb1.Magnitude/20250415071223.63818.102315"><magnitude><value>2.282526060919532</value></magnitude><type>M</type><methodID>weighted average</methodID><stationCount>6</stationCount></magnitude></origin><event publicID="gempa2025hkqq"><preferredOriginID>de.gempa.tb1.Origin/20250415071214.578148.57032</preferredOriginID><preferredMagnitudeID>de.gempa.tb1.Magnitude/20250415071223.63818.102315</preferredMagnitudeID><description><text>Chile-Bolivia Border Region</text><type>region name</type></description><originReference>de.gempa.tb1.Origin/20250415071214.578148.57032</originReference></event></EventParameters></seiscomp>