<?xml version="1.0" encoding="UTF-8"?>
<seiscomp xmlns="http://geofon.gfz-potsdam.de/ns/seiscomp3-schema/0.13" version="0.13"><EventParameters><pick publicID="de.gempa.tb1.Pick/20250412203820.483177.189612"><time><value>2025-04-12T20:38:14.1175Z</value></time><waveformID networkCode="SX" stationCode="WERN" channelCode="HHZ"/><filterID>ITAPER(2)&gt;&gt;BW(3,3,20)</filterID><methodID>AIC</methodID><horizontalSlowness><value>23.542944472794264</value></horizontalSlowness><backazimuth><value>52.91601541870456</value></backazimuth><phaseHint>P</phaseHint><evaluationMode>automatic</evaluationMode><comment><text>34.3789186550267</text><id>DFX:rectilinearity</id></comment></pick><pick publicID="de.gempa.tb1.Pick/20250412203823.460095.189614"><time><value>2025-04-12T20:38:14.36Z</value></time><waveformID networkCode="SX" stationCode="ROHR" channelCode="HHZ"/><filterID>ITAPER(2)&gt;&gt;BW(3,3,20)</filterID><methodID>AIC</methodID><horizontalSlowness><value>1.0764911060282012</value></horizontalSlowness><backazimuth><value>162.63848076366702</value></backazimuth><phaseHint>P</phaseHint><evaluationMode>automatic</evaluationMode><comment><text>14.326040084641537</text><id>DFX:rectilinearity</id></comment></pick><pick publicID="de.gempa.tb1.Pick/20250412203823.560458.189618"><time><value>2025-04-12T20:38:15.37Z</value></time><waveformID networkCode="SX" stationCode="TANN" channelCode="HHZ"/><filterID>ITAPER(2)&gt;&gt;BW(3,3,20)</filterID><methodID>AIC</methodID><horizontalSlowness><value>17.847685139550752</value></horizontalSlowness><backazimuth><value>323.6035926308929</value></backazimuth><phaseHint>P</phaseHint><evaluationMode>automatic</evaluationMode><comment><text>1.8624465082916595</text><id>DFX:rectilinearity</id></comment></pick><pick publicID="de.gempa.tb1.Pick/20250412203823.856568.189620"><time><value>2025-04-12T20:38:16.39Z</value></time><waveformID networkCode="SX" stationCode="TRIB" channelCode="HHZ"/><filterID>ITAPER(2)&gt;&gt;BW(3,3,20)</filterID><methodID>AIC</methodID><horizontalSlowness><value>9.658720912762474</value></horizontalSlowness><backazimuth><value>291.5388129449887</value></backazimuth><phaseHint>P</phaseHint><evaluationMode>automatic</evaluationMode><comment><text>2.2672233319806563</text><id>DFX:rectilinearity</id></comment></pick><pick publicID="de.gempa.tb1.Pick/20250412203825.532278.189626"><time><value>2025-04-12T20:38:15.5975Z</value></time><waveformID networkCode="SX" stationCode="WERN" channelCode="HHN"/><filterID>ITAPER(3)&gt;&gt;BW(4,3,10)</filterID><methodID>L2-AIC-GRID</methodID><horizontalSlowness><value>23.41877765503118</value></horizontalSlowness><backazimuth><value>235.57383431861814</value></backazimuth><phaseHint>S</phaseHint><evaluationMode>automatic</evaluationMode><comment><text>32.290534422828294</text><id>DFX:rectilinearity</id></comment><comment><text>de.gempa.tb1.Pick/20250412203820.483177.189612</text><id>RefPickID</id></comment></pick><pick publicID="de.gempa.tb1.Pick/20250412203826.316296.189627"><time><value>2025-04-12T20:38:15.39Z</value></time><waveformID networkCode="SX" stationCode="MULD" channelCode="HHZ"/><filterID>ITAPER(2)&gt;&gt;BW(3,3,20)</filterID><methodID>AIC</methodID><horizontalSlowness><value>22.233370484547212</value></horizontalSlowness><backazimuth><value>143.13950683698366</value></backazimuth><phaseHint>P</phaseHint><evaluationMode>automatic</evaluationMode><comment><text>7.208486388410709</text><id>DFX:rectilinearity</id></comment></pick><pick publicID="de.gempa.tb1.Pick/20250412203826.317662.189629"><time><value>2025-04-12T20:38:17.67Z</value></time><waveformID networkCode="SX" stationCode="MULD" channelCode="HHN"/><filterID>ITAPER(3)&gt;&gt;BW(4,3,10)</filterID><methodID>L2-AIC-GRID</methodID><horizontalSlowness><value>22.827270867208604</value></horizontalSlowness><backazimuth><value>150.10123547997705</value></backazimuth><phaseHint>S</phaseHint><evaluationMode>automatic</evaluationMode><comment><text>7.447110419908852</text><id>DFX:rectilinearity</id></comment><comment><text>de.gempa.tb1.Pick/20250412203826.316296.189627</text><id>RefPickID</id></comment></pick><pick publicID="de.gempa.tb1.Pick/20250412203827.853026.189632"><time><value>2025-04-12T20:38:17.73Z</value></time><waveformID networkCode="SX" stationCode="TANN" channelCode="HHN"/><filterID>ITAPER(3)&gt;&gt;BW(4,3,10)</filterID><methodID>L2-AIC-GRID</methodID><horizontalSlowness><value>18.44966926447697</value></horizontalSlowness><backazimuth><value>305.5896420666236</value></backazimuth><phaseHint>S</phaseHint><evaluationMode>automatic</evaluationMode><comment><text>1.7389402861351233</text><id>DFX:rectilinearity</id></comment><comment><text>de.gempa.tb1.Pick/20250412203823.560458.189618</text><id>RefPickID</id></comment></pick><origin publicID="de.gempa.tb1.Origin/20250412203832.343842.172719"><time><value>2025-04-12T20:38:11.533242Z</value><uncertainty>1.2172223329544067</uncertainty></time><latitude><value>50.27994537353516</value><uncertainty>7.826831817626953</uncertainty></latitude><longitude><value>12.466741561889648</value><uncertainty>9.572720527648926</uncertainty></longitude><depth><value>6.936295032501221</value><uncertainty>11.123431205749512</uncertainty></depth><depthType>from location</depthType><methodID>LOCSAT</methodID><earthModelID>iasp91</earthModelID><quality><associatedPhaseCount>8</associatedPhaseCount><usedPhaseCount>8</usedPhaseCount><associatedStationCount>5</associatedStationCount><usedStationCount>5</usedStationCount><depthPhaseCount>0</depthPhaseCount><standardError>0.2435165413352638</standardError><azimuthalGap>246.0383758544922</azimuthalGap><maximumDistance>0.22336569428443909</maximumDistance><minimumDistance>0.05862601101398468</minimumDistance><medianDistance>0.1352710723876953</medianDistance></quality><uncertainty><minHorizontalUncertainty>5.801177024841309</minHorizontalUncertainty><maxHorizontalUncertainty>25.87350654602051</maxHorizontalUncertainty><azimuthMaxHorizontalUncertainty>128.6538543701172</azimuthMaxHorizontalUncertainty><preferredDescription>horizontal uncertainty</preferredDescription></uncertainty><evaluationMode>automatic</evaluationMode><evaluationStatus>confirmed</evaluationStatus><comment><text>0.03</text><id>mismatchScore</id></comment><comment><text>mismatchScore</text><id>scevalMethod</id></comment><arrival><pickID>de.gempa.tb1.Pick/20250412203820.483177.189612</pickID><phase>P</phase><azimuth>277.34820556640625</azimuth><distance>0.05862601101398468</distance><timeResidual>0.33823394775390625</timeResidual><timeUsed>true</timeUsed><horizontalSlownessUsed>false</horizontalSlownessUsed><backazimuthUsed>false</backazimuthUsed><weight>1</weight></arrival><arrival><pickID>de.gempa.tb1.Pick/20250412203823.460095.189614</pickID><phase>P</phase><azimuth>244.4824676513672</azimuth><distance>0.1065564900636673</distance><timeResidual>-0.27927303314208984</timeResidual><timeUsed>true</timeUsed><horizontalSlownessUsed>false</horizontalSlownessUsed><backazimuthUsed>false</backazimuthUsed><weight>1</weight></arrival><arrival><pickID>de.gempa.tb1.Pick/20250412203823.560458.189618</pickID><phase>P</phase><azimuth>358.444091796875</azimuth><distance>0.1352710723876953</distance><timeResidual>0.21601319313049316</timeResidual><timeUsed>true</timeUsed><horizontalSlownessUsed>false</horizontalSlownessUsed><backazimuthUsed>false</backazimuthUsed><weight>1</weight></arrival><arrival><pickID>de.gempa.tb1.Pick/20250412203823.856568.189620</pickID><phase>P</phase><azimuth>288.969970703125</azimuth><distance>0.22336569428443909</distance><timeResidual>-0.34456729888916016</timeResidual><timeUsed>true</timeUsed><horizontalSlownessUsed>false</horizontalSlownessUsed><backazimuthUsed>false</backazimuthUsed><weight>1</weight></arrival><arrival><pickID>de.gempa.tb1.Pick/20250412203825.532278.189626</pickID><phase>S</phase><azimuth>277.34820556640625</azimuth><distance>0.05862601101398468</distance><timeResidual>0.17163801193237305</timeResidual><timeUsed>true</timeUsed><horizontalSlownessUsed>false</horizontalSlownessUsed><backazimuthUsed>false</backazimuthUsed><weight>1</weight></arrival><arrival><pickID>de.gempa.tb1.Pick/20250412203826.316296.189627</pickID><phase>P</phase><azimuth>343.06365966796875</azimuth><distance>0.13801951706409454</distance><timeResidual>0.18669795989990234</timeResidual><timeUsed>true</timeUsed><horizontalSlownessUsed>false</horizontalSlownessUsed><backazimuthUsed>false</backazimuthUsed><weight>1</weight></arrival><arrival><pickID>de.gempa.tb1.Pick/20250412203826.317662.189629</pickID><phase>S</phase><azimuth>343.06365966796875</azimuth><distance>0.13801951706409454</distance><timeResidual>-0.21711039543151855</timeResidual><timeUsed>true</timeUsed><horizontalSlownessUsed>false</horizontalSlownessUsed><backazimuthUsed>false</backazimuthUsed><weight>1</weight></arrival><arrival><pickID>de.gempa.tb1.Pick/20250412203827.853026.189632</pickID><phase>S</phase><azimuth>358.444091796875</azimuth><distance>0.1352710723876953</distance><timeResidual>-0.07187366485595703</timeResidual><timeUsed>true</timeUsed><horizontalSlownessUsed>false</horizontalSlownessUsed><backazimuthUsed>false</backazimuthUsed><weight>1</weight></arrival><magnitude publicID="de.gempa.tb1.Magnitude/20250412203859.504947.280385"><magnitude><value>0.14317608989538808</value></magnitude><type>M</type><methodID>weighted average</methodID><stationCount>5</stationCount></magnitude></origin><event publicID="gempa2025hgdm"><preferredOriginID>de.gempa.tb1.Origin/20250412203832.343842.172719</preferredOriginID><preferredMagnitudeID>de.gempa.tb1.Magnitude/20250412203859.504947.280385</preferredMagnitudeID><description><text>Germany</text><type>region name</type></description><originReference>de.gempa.tb1.Origin/20250412203832.343842.172719</originReference></event></EventParameters></seiscomp>