<?xml version="1.0" encoding="UTF-8"?>
<seiscomp xmlns="http://geofon.gfz-potsdam.de/ns/seiscomp3-schema/0.13" version="0.13"><EventParameters><pick publicID="de.gempa.tb1.Pick/20250412172456.776605.125493"><time><value>2025-04-12T17:24:51.038394Z</value></time><waveformID networkCode="CX" stationCode="PB01" channelCode="HHZ"/><filterID>ITAPER(4)&gt;&gt;BW(4,4,20)</filterID><methodID>AIC</methodID><horizontalSlowness><value>9.681694975030249</value></horizontalSlowness><backazimuth><value>163.00815553784469</value></backazimuth><phaseHint>P</phaseHint><evaluationMode>automatic</evaluationMode><comment><text>761.830541782893</text><id>DFX:rectilinearity</id></comment><comment><text>502.3394944935051</text><id>SNR</id></comment></pick><pick publicID="de.gempa.tb1.Pick/20250412172459.656683.125495"><time><value>2025-04-12T17:24:55.088394Z</value></time><waveformID networkCode="CX" stationCode="PB02" channelCode="HHZ"/><filterID>ITAPER(4)&gt;&gt;BW(4,4,20)</filterID><methodID>AIC</methodID><horizontalSlowness><value>7.873523392420031</value></horizontalSlowness><backazimuth><value>65.12099054972248</value></backazimuth><phaseHint>P</phaseHint><evaluationMode>automatic</evaluationMode><comment><text>1723.3859988297745</text><id>DFX:rectilinearity</id></comment><comment><text>409.1788384952125</text><id>SNR</id></comment></pick><pick publicID="de.gempa.tb1.Pick/20250412172501.60973.125497"><time><value>2025-04-12T17:24:55.328393Z</value></time><waveformID networkCode="CX" stationCode="PB08" channelCode="HHZ"/><filterID>ITAPER(4)&gt;&gt;BW(4,4,20)</filterID><methodID>AIC</methodID><horizontalSlowness><value>16.486843338974225</value></horizontalSlowness><backazimuth><value>215.30906865795941</value></backazimuth><phaseHint>P</phaseHint><evaluationMode>automatic</evaluationMode><comment><text>35.88882466949714</text><id>DFX:rectilinearity</id></comment><comment><text>14.89128382804007</text><id>SNR</id></comment></pick><pick publicID="de.gempa.tb1.Pick/20250412172503.245848.125499"><time><value>2025-04-12T17:24:57.369999Z</value></time><waveformID networkCode="CX" stationCode="PATCX" channelCode="HHZ"/><filterID>ITAPER(4)&gt;&gt;BW(4,4,20)</filterID><methodID>AIC</methodID><horizontalSlowness><value>13.388045183810096</value></horizontalSlowness><backazimuth><value>129.2912662607903</value></backazimuth><phaseHint>P</phaseHint><evaluationMode>automatic</evaluationMode><comment><text>728.2531812513794</text><id>DFX:rectilinearity</id></comment><comment><text>104.15000868480442</text><id>SNR</id></comment></pick><pick publicID="de.gempa.tb1.Pick/20250412172503.770927.125501"><time><value>2025-04-12T17:24:58.548393Z</value></time><waveformID networkCode="CX" stationCode="PB03" channelCode="HHZ"/><filterID>ITAPER(4)&gt;&gt;BW(4,4,20)</filterID><methodID>AIC</methodID><horizontalSlowness><value>6.835023266302881</value></horizontalSlowness><backazimuth><value>35.741694138617873</value></backazimuth><phaseHint>P</phaseHint><evaluationMode>automatic</evaluationMode><comment><text>64.978352383779</text><id>DFX:rectilinearity</id></comment><comment><text>21.4656595773391</text><id>SNR</id></comment></pick><pick publicID="de.gempa.tb1.Pick/20250412172505.069502.125503"><time><value>2025-04-12T17:24:54.18Z</value></time><waveformID networkCode="CX" stationCode="PB09" channelCode="HHZ"/><filterID>ITAPER(4)&gt;&gt;BW(4,4,20)</filterID><methodID>AIC</methodID><horizontalSlowness><value>16.899438468947153</value></horizontalSlowness><backazimuth><value>64.86757440175511</value></backazimuth><phaseHint>P</phaseHint><evaluationMode>automatic</evaluationMode><comment><text>143.7362835045113</text><id>DFX:rectilinearity</id></comment><comment><text>294.7416136316881</text><id>SNR</id></comment></pick><pick publicID="de.gempa.tb1.Pick/20250412172509.536681.125505"><time><value>2025-04-12T17:25:04.758393Z</value></time><waveformID networkCode="CX" stationCode="PB06" channelCode="HHZ"/><filterID>ITAPER(4)&gt;&gt;BW(4,4,20)</filterID><methodID>AIC</methodID><horizontalSlowness><value>11.051241303547261</value></horizontalSlowness><backazimuth><value>321.39656436757713</value></backazimuth><phaseHint>P</phaseHint><evaluationMode>automatic</evaluationMode><comment><text>101.1489869178166</text><id>DFX:rectilinearity</id></comment><comment><text>17.150372032136108</text><id>SNR</id></comment></pick><pick publicID="de.gempa.tb1.Pick/20250412172509.77773.125507"><time><value>2025-04-12T17:25:04.118394Z</value></time><waveformID networkCode="CX" stationCode="PB01" channelCode="HHN"/><filterID>ITAPER(2)&gt;&gt;BW(3,3,20)</filterID><methodID>L2-AIC-GRID</methodID><horizontalSlowness><value>21.436813973924963</value></horizontalSlowness><backazimuth><value>255.67263965019163</value></backazimuth><phaseHint>S</phaseHint><evaluationMode>automatic</evaluationMode><comment><text>29791.08624727873</text><id>DFX:rectilinearity</id></comment><comment><text>de.gempa.tb1.Pick/20250412172456.776605.125493</text><id>RefPickID</id></comment><comment><text>10.842206099968125</text><id>SNR</id></comment></pick><pick publicID="de.gempa.tb1.Pick/20250412172510.557643.125508"><time><value>2025-04-12T17:25:04.45Z</value></time><waveformID networkCode="CX" stationCode="PSGCX" channelCode="HHZ"/><filterID>ITAPER(4)&gt;&gt;BW(4,4,20)</filterID><methodID>AIC</methodID><horizontalSlowness><value>16.118130487640116</value></horizontalSlowness><backazimuth><value>105.91500134011827</value></backazimuth><phaseHint>P</phaseHint><evaluationMode>automatic</evaluationMode><comment><text>26.6026149528888</text><id>DFX:rectilinearity</id></comment><comment><text>52.71192254668937</text><id>SNR</id></comment></pick><pick publicID="de.gempa.tb1.Pick/20250412172517.594898.125510"><time><value>2025-04-12T17:25:11.098394Z</value></time><waveformID networkCode="CX" stationCode="PB02" channelCode="HHN"/><filterID>ITAPER(2)&gt;&gt;BW(3,3,20)</filterID><methodID>L2-AIC-GRID</methodID><horizontalSlowness><value>8.441560259478139</value></horizontalSlowness><backazimuth><value>110.8842788606082</value></backazimuth><phaseHint>S</phaseHint><evaluationMode>automatic</evaluationMode><comment><text>38689.693676462135</text><id>DFX:rectilinearity</id></comment><comment><text>de.gempa.tb1.Pick/20250412172459.656683.125495</text><id>RefPickID</id></comment><comment><text>7.54133711546027</text><id>SNR</id></comment></pick><pick publicID="de.gempa.tb1.Pick/20250412172517.87378.125511"><time><value>2025-04-12T17:25:10.1Z</value></time><waveformID networkCode="CX" stationCode="PB09" channelCode="HHN"/><filterID>ITAPER(2)&gt;&gt;BW(3,3,20)</filterID><methodID>L2-AIC-GRID</methodID><horizontalSlowness><value>15.2488628749857</value></horizontalSlowness><backazimuth><value>316.63678040951214</value></backazimuth><phaseHint>S</phaseHint><evaluationMode>automatic</evaluationMode><comment><text>14625.348745737374</text><id>DFX:rectilinearity</id></comment><comment><text>de.gempa.tb1.Pick/20250412172505.069502.125503</text><id>RefPickID</id></comment><comment><text>5.538410713126048</text><id>SNR</id></comment></pick><pick publicID="de.gempa.tb1.Pick/20250412172520.224131.125512"><time><value>2025-04-12T17:25:11.318393Z</value></time><waveformID networkCode="CX" stationCode="PB08" channelCode="HHN"/><filterID>ITAPER(2)&gt;&gt;BW(3,3,20)</filterID><methodID>L2-AIC-GRID</methodID><horizontalSlowness><value>14.897841382202923</value></horizontalSlowness><backazimuth><value>212.2112383433801</value></backazimuth><phaseHint>S</phaseHint><evaluationMode>automatic</evaluationMode><comment><text>222.41707444692358</text><id>DFX:rectilinearity</id></comment><comment><text>de.gempa.tb1.Pick/20250412172501.60973.125497</text><id>RefPickID</id></comment><comment><text>8.942754042172917</text><id>SNR</id></comment></pick><pick publicID="de.gempa.tb1.Pick/20250412172521.396786.125513"><time><value>2025-04-12T17:25:15.399999Z</value></time><waveformID networkCode="CX" stationCode="PATCX" channelCode="HHN"/><filterID>ITAPER(2)&gt;&gt;BW(3,3,20)</filterID><methodID>L2-AIC-GRID</methodID><horizontalSlowness><value>23.22756804356565</value></horizontalSlowness><backazimuth><value>53.49596633362624</value></backazimuth><phaseHint>S</phaseHint><evaluationMode>automatic</evaluationMode><comment><text>7417.781947208771</text><id>DFX:rectilinearity</id></comment><comment><text>de.gempa.tb1.Pick/20250412172503.245848.125499</text><id>RefPickID</id></comment><comment><text>9.045848861504712</text><id>SNR</id></comment></pick><pick publicID="de.gempa.tb1.Pick/20250412172522.777308.125514"><time><value>2025-04-12T17:25:16.888393Z</value></time><waveformID networkCode="CX" stationCode="PB03" channelCode="HHN"/><filterID>ITAPER(2)&gt;&gt;BW(3,3,20)</filterID><methodID>L2-AIC-GRID</methodID><horizontalSlowness><value>21.248598584211152</value></horizontalSlowness><backazimuth><value>246.39866678350464</value></backazimuth><phaseHint>S</phaseHint><evaluationMode>automatic</evaluationMode><comment><text>2240.5634922885133</text><id>DFX:rectilinearity</id></comment><comment><text>de.gempa.tb1.Pick/20250412172503.770927.125501</text><id>RefPickID</id></comment><comment><text>12.01577641196278</text><id>SNR</id></comment></pick><pick publicID="de.gempa.tb1.Pick/20250412172525.567562.125516"><time><value>2025-04-12T17:25:19.56Z</value></time><waveformID networkCode="CX" stationCode="PB19" channelCode="HHZ"/><filterID>ITAPER(4)&gt;&gt;BW(4,4,20)</filterID><methodID>AIC</methodID><horizontalSlowness><value>16.493469297282008</value></horizontalSlowness><backazimuth><value>171.96501566154566</value></backazimuth><phaseHint>P</phaseHint><evaluationMode>automatic</evaluationMode><comment><text>20.78038143104206</text><id>DFX:rectilinearity</id></comment><comment><text>8.521284008218712</text><id>SNR</id></comment></pick><pick publicID="de.gempa.tb1.Pick/20250412172526.62761.125518"><time><value>2025-04-12T17:25:18.978393Z</value></time><waveformID networkCode="CX" stationCode="PB16" channelCode="HHZ"/><filterID>ITAPER(4)&gt;&gt;BW(4,4,20)</filterID><methodID>AIC</methodID><horizontalSlowness><value>19.806859054784631</value></horizontalSlowness><backazimuth><value>207.87092775900896</value></backazimuth><phaseHint>P</phaseHint><evaluationMode>automatic</evaluationMode><comment><text>2.477767139139957</text><id>DFX:rectilinearity</id></comment><comment><text>12.589247689599485</text><id>SNR</id></comment></pick><pick publicID="de.gempa.tb1.Pick/20250412172535.591684.125525"><time><value>2025-04-12T17:25:27.888393Z</value></time><waveformID networkCode="CX" stationCode="PB06" channelCode="HHN"/><filterID>ITAPER(2)&gt;&gt;BW(3,3,20)</filterID><methodID>L2-AIC-GRID</methodID><horizontalSlowness><value>21.30223809739692</value></horizontalSlowness><backazimuth><value>124.85544145300753</value></backazimuth><phaseHint>S</phaseHint><evaluationMode>automatic</evaluationMode><comment><text>1358.223985564526</text><id>DFX:rectilinearity</id></comment><comment><text>de.gempa.tb1.Pick/20250412172509.536681.125505</text><id>RefPickID</id></comment><comment><text>13.179113373193625</text><id>SNR</id></comment></pick><pick publicID="de.gempa.tb1.Pick/20250412172535.980681.125526"><time><value>2025-04-12T17:24:56.818393Z</value></time><waveformID networkCode="CX" stationCode="PB07" channelCode="HHZ"/><filterID>ITAPER(4)&gt;&gt;BW(4,4,20)</filterID><methodID>AIC</methodID><horizontalSlowness><value>19.141832135245128</value></horizontalSlowness><backazimuth><value>63.38546808337117</value></backazimuth><phaseHint>P</phaseHint><evaluationMode>automatic</evaluationMode><comment><text>1137.6550487363875</text><id>DFX:rectilinearity</id></comment><comment><text>227.50166131960427</text><id>SNR</id></comment></pick><pick publicID="de.gempa.tb1.Pick/20250412172538.708826.125529"><time><value>2025-04-12T17:25:27.46Z</value></time><waveformID networkCode="CX" stationCode="PSGCX" channelCode="HHN"/><filterID>ITAPER(2)&gt;&gt;BW(3,3,20)</filterID><methodID>L2-AIC-GRID</methodID><horizontalSlowness><value>16.327535400759231</value></horizontalSlowness><backazimuth><value>68.14978786688738</value></backazimuth><phaseHint>S</phaseHint><evaluationMode>automatic</evaluationMode><comment><text>171.9648918384681</text><id>DFX:rectilinearity</id></comment><comment><text>de.gempa.tb1.Pick/20250412172510.557643.125508</text><id>RefPickID</id></comment><comment><text>6.281101027667819</text><id>SNR</id></comment></pick><pick publicID="de.gempa.tb1.Pick/20250412172544.779934.125530"><time><value>2025-04-12T17:25:14.538393Z</value></time><waveformID networkCode="CX" stationCode="PB07" channelCode="HHN"/><filterID>ITAPER(2)&gt;&gt;BW(3,3,20)</filterID><methodID>L2-AIC-GRID</methodID><horizontalSlowness><value>22.455888140441981</value></horizontalSlowness><backazimuth><value>109.31168053488335</value></backazimuth><phaseHint>S</phaseHint><evaluationMode>automatic</evaluationMode><comment><text>31047.53347094175</text><id>DFX:rectilinearity</id></comment><comment><text>de.gempa.tb1.Pick/20250412172535.980681.125526</text><id>RefPickID</id></comment><comment><text>6.885658337998476</text><id>SNR</id></comment></pick><pick publicID="de.gempa.tb1.Pick/20250412172603.673359.125535"><time><value>2025-04-12T17:25:53.33Z</value></time><waveformID networkCode="CX" stationCode="PB19" channelCode="HHN"/><filterID>ITAPER(2)&gt;&gt;BW(3,3,20)</filterID><methodID>L2-AIC-GRID</methodID><horizontalSlowness><value>10.157378994953815</value></horizontalSlowness><backazimuth><value>292.91859592977346</value></backazimuth><phaseHint>S</phaseHint><evaluationMode>automatic</evaluationMode><comment><text>118.17917176204242</text><id>DFX:rectilinearity</id></comment><comment><text>de.gempa.tb1.Pick/20250412172525.567562.125516</text><id>RefPickID</id></comment><comment><text>7.092105343822307</text><id>SNR</id></comment></pick><origin publicID="de.gempa.tb1.Origin/20250412172603.676512.88240"><time><value>2025-04-12T17:24:34.851686Z</value><uncertainty>0.5457470417022705</uncertainty></time><latitude><value>-21.03456687927246</value><uncertainty>2.03853178024292</uncertainty></latitude><longitude><value>-69.02029418945312</value><uncertainty>5.598433017730713</uncertainty></longitude><depth><value>113.63768005371094</value><uncertainty>5.419778823852539</uncertainty></depth><depthType>from location</depthType><methodID>LOCSAT</methodID><earthModelID>iasp91_scanloc</earthModelID><quality><associatedPhaseCount>21</associatedPhaseCount><usedPhaseCount>21</usedPhaseCount><associatedStationCount>11</associatedStationCount><usedStationCount>11</usedStationCount><depthPhaseCount>0</depthPhaseCount><standardError>0.6016152142319008</standardError><azimuthalGap>192.96128845214844</azimuthalGap><maximumDistance>2.8674933910369873</maximumDistance><minimumDistance>0.43642395734786987</minimumDistance><medianDistance>1.0799393653869629</medianDistance></quality><uncertainty><minHorizontalUncertainty>4.34950590133667</minHorizontalUncertainty><maxHorizontalUncertainty>12.009313583374023</maxHorizontalUncertainty><azimuthMaxHorizontalUncertainty>87.82707977294922</azimuthMaxHorizontalUncertainty><preferredDescription>horizontal uncertainty</preferredDescription></uncertainty><evaluationMode>automatic</evaluationMode><evaluationStatus>confirmed</evaluationStatus><comment><text>0.05</text><id>mismatchScore</id></comment><comment><text>mismatchScore</text><id>scevalMethod</id></comment><arrival><pickID>de.gempa.tb1.Pick/20250412172456.776605.125493</pickID><phase>P</phase><azimuth>268.784912109375</azimuth><distance>0.43642395734786987</distance><timeResidual>-0.6930999755859375</timeResidual><timeUsed>true</timeUsed><horizontalSlownessUsed>false</horizontalSlownessUsed><backazimuthUsed>false</backazimuthUsed><weight>1</weight></arrival><arrival><pickID>de.gempa.tb1.Pick/20250412172459.656683.125495</pickID><phase>P</phase><azimuth>250.6972961425781</azimuth><distance>0.8651567697525024</distance><timeResidual>0.021745681762695312</timeResidual><timeUsed>true</timeUsed><horizontalSlownessUsed>false</horizontalSlownessUsed><backazimuthUsed>false</backazimuthUsed><weight>1</weight></arrival><arrival><pickID>de.gempa.tb1.Pick/20250412172501.60973.125497</pickID><phase>P</phase><azimuth>351.990966796875</azimuth><distance>0.8976359963417053</distance><timeResidual>-0.05227470397949219</timeResidual><timeUsed>true</timeUsed><horizontalSlownessUsed>false</horizontalSlownessUsed><backazimuthUsed>false</backazimuthUsed><weight>1</weight></arrival><arrival><pickID>de.gempa.tb1.Pick/20250412172503.245848.125499</pickID><phase>P</phase><azimuth>281.1622619628906</azimuth><distance>1.0799393653869629</distance><timeResidual>0.15944862365722656</timeResidual><timeUsed>true</timeUsed><horizontalSlownessUsed>false</horizontalSlownessUsed><backazimuthUsed>false</backazimuthUsed><weight>1</weight></arrival><arrival><pickID>de.gempa.tb1.Pick/20250412172503.770927.125501</pickID><phase>P</phase><azimuth>213.93324279785156</azimuth><distance>1.2179338932037354</distance><timeResidual>-0.14040565490722656</timeResidual><timeUsed>true</timeUsed><horizontalSlownessUsed>false</horizontalSlownessUsed><backazimuthUsed>false</backazimuthUsed><weight>1</weight></arrival><arrival><pickID>de.gempa.tb1.Pick/20250412172505.069502.125503</pickID><phase>P</phase><azimuth>195.1984405517578</azimuth><distance>0.7856851816177368</distance><timeResidual>-0.15694236755371094</timeResidual><timeUsed>true</timeUsed><horizontalSlownessUsed>false</horizontalSlownessUsed><backazimuthUsed>false</backazimuthUsed><weight>1</weight></arrival><arrival><pickID>de.gempa.tb1.Pick/20250412172509.536681.125505</pickID><phase>P</phase><azimuth>197.02105712890625</azimuth><distance>1.7402496337890625</distance><timeResidual>-0.04041290283203125</timeResidual><timeUsed>true</timeUsed><horizontalSlownessUsed>false</horizontalSlownessUsed><backazimuthUsed>false</backazimuthUsed><weight>1</weight></arrival><arrival><pickID>de.gempa.tb1.Pick/20250412172509.77773.125507</pickID><phase>S</phase><azimuth>268.784912109375</azimuth><distance>0.43642395734786987</distance><timeResidual>-0.6110877990722656</timeResidual><timeUsed>true</timeUsed><horizontalSlownessUsed>false</horizontalSlownessUsed><backazimuthUsed>false</backazimuthUsed><weight>1</weight></arrival><arrival><pickID>de.gempa.tb1.Pick/20250412172510.557643.125508</pickID><phase>P</phase><azimuth>323.913818359375</azimuth><distance>1.7652846574783325</distance><timeResidual>-0.6718368530273438</timeResidual><timeUsed>true</timeUsed><horizontalSlownessUsed>false</horizontalSlownessUsed><backazimuthUsed>false</backazimuthUsed><weight>1</weight></arrival><arrival><pickID>de.gempa.tb1.Pick/20250412172517.594898.125510</pickID><phase>S</phase><azimuth>250.6972961425781</azimuth><distance>0.8651567697525024</distance><timeResidual>0.4289436340332031</timeResidual><timeUsed>true</timeUsed><horizontalSlownessUsed>false</horizontalSlownessUsed><backazimuthUsed>false</backazimuthUsed><weight>1</weight></arrival><arrival><pickID>de.gempa.tb1.Pick/20250412172517.87378.125511</pickID><phase>S</phase><azimuth>195.1984405517578</azimuth><distance>0.7856851816177368</distance><timeResidual>0.7307014465332031</timeResidual><timeUsed>true</timeUsed><horizontalSlownessUsed>false</horizontalSlownessUsed><backazimuthUsed>false</backazimuthUsed><weight>1</weight></arrival><arrival><pickID>de.gempa.tb1.Pick/20250412172520.224131.125512</pickID><phase>S</phase><azimuth>351.990966796875</azimuth><distance>0.8976359963417053</distance><timeResidual>0.09077644348144531</timeResidual><timeUsed>true</timeUsed><horizontalSlownessUsed>false</horizontalSlownessUsed><backazimuthUsed>false</backazimuthUsed><weight>1</weight></arrival><arrival><pickID>de.gempa.tb1.Pick/20250412172521.396786.125513</pickID><phase>S</phase><azimuth>281.1622619628906</azimuth><distance>1.0799393653869629</distance><timeResidual>0.9065513610839844</timeResidual><timeUsed>true</timeUsed><horizontalSlownessUsed>false</horizontalSlownessUsed><backazimuthUsed>false</backazimuthUsed><weight>1</we