<?xml version="1.0" encoding="UTF-8"?>
<seiscomp xmlns="http://geofon.gfz-potsdam.de/ns/seiscomp3-schema/0.13" version="0.13"><EventParameters><pick publicID="de.gempa.tb1.Pick/20250414074945.614003.136614"><time><value>2025-04-14T07:49:41.37Z</value></time><waveformID networkCode="CX" stationCode="PB19" channelCode="HHZ"/><filterID>ITAPER(4)&gt;&gt;BW(4,4,20)</filterID><methodID>AIC</methodID><horizontalSlowness><value>21.313533698680043</value></horizontalSlowness><backazimuth><value>208.26061900556465</value></backazimuth><phaseHint>P</phaseHint><evaluationMode>automatic</evaluationMode><comment><text>18.29667506839558</text><id>DFX:rectilinearity</id></comment><comment><text>19.865513206455741</text><id>SNR</id></comment></pick><pick publicID="de.gempa.tb1.Pick/20250414074951.643892.136616"><time><value>2025-04-14T07:49:44.268391Z</value></time><waveformID networkCode="CX" stationCode="PB15" channelCode="HHZ"/><filterID>ITAPER(4)&gt;&gt;BW(4,4,20)</filterID><methodID>AIC</methodID><horizontalSlowness><value>22.56661673083458</value></horizontalSlowness><backazimuth><value>112.9259602602526</value></backazimuth><phaseHint>P</phaseHint><evaluationMode>automatic</evaluationMode><comment><text>258.73036318207505</text><id>DFX:rectilinearity</id></comment><comment><text>21.491946131853954</text><id>SNR</id></comment></pick><pick publicID="de.gempa.tb1.Pick/20250414074954.659105.136618"><time><value>2025-04-14T07:49:47.358393Z</value></time><waveformID networkCode="CX" stationCode="PB06" channelCode="HHZ"/><filterID>ITAPER(4)&gt;&gt;BW(4,4,20)</filterID><methodID>AIC</methodID><horizontalSlowness><value>19.276994525583977</value></horizontalSlowness><backazimuth><value>305.23635699585765</value></backazimuth><phaseHint>P</phaseHint><evaluationMode>automatic</evaluationMode><comment><text>120.20891303793084</text><id>DFX:rectilinearity</id></comment><comment><text>26.001898804324615</text><id>SNR</id></comment></pick><pick publicID="de.gempa.tb1.Pick/20250414074959.176762.136620"><time><value>2025-04-14T07:49:54.07Z</value></time><waveformID networkCode="CX" stationCode="PB10" channelCode="HHZ"/><filterID>ITAPER(4)&gt;&gt;BW(4,4,20)</filterID><methodID>AIC</methodID><horizontalSlowness><value>2.4605668225242523</value></horizontalSlowness><backazimuth><value>199.46366644321364</value></backazimuth><phaseHint>P</phaseHint><evaluationMode>automatic</evaluationMode><comment><text>39.146629339186077</text><id>DFX:rectilinearity</id></comment><comment><text>14.462714341505034</text><id>SNR</id></comment></pick><pick publicID="de.gempa.tb1.Pick/20250414075000.49181.136622"><time><value>2025-04-14T07:49:52.938393Z</value></time><waveformID networkCode="CX" stationCode="PB03" channelCode="HHZ"/><filterID>ITAPER(4)&gt;&gt;BW(4,4,20)</filterID><methodID>AIC</methodID><horizontalSlowness><value>4.337382995317739</value></horizontalSlowness><backazimuth><value>146.86204941034774</value></backazimuth><phaseHint>P</phaseHint><evaluationMode>automatic</evaluationMode><comment><text>13.165656736265216</text><id>DFX:rectilinearity</id></comment><comment><text>39.91777022987545</text><id>SNR</id></comment></pick><pick publicID="de.gempa.tb1.Pick/20250414075001.462326.136624"><time><value>2025-04-14T07:49:51.61Z</value></time><waveformID networkCode="CX" stationCode="PB09" channelCode="HHZ"/><filterID>ITAPER(4)&gt;&gt;BW(4,4,20)</filterID><methodID>AIC</methodID><horizontalSlowness><value>18.52845875597215</value></horizontalSlowness><backazimuth><value>130.49509106088237</value></backazimuth><phaseHint>P</phaseHint><evaluationMode>automatic</evaluationMode><comment><text>11.28827373587166</text><id>DFX:rectilinearity</id></comment><comment><text>17.34740902968831</text><id>SNR</id></comment></pick><pick publicID="de.gempa.tb1.Pick/20250414075008.71359.136626"><time><value>2025-04-14T07:49:59.028393Z</value></time><waveformID networkCode="CX" stationCode="PB01" channelCode="HHZ"/><filterID>ITAPER(4)&gt;&gt;BW(4,4,20)</filterID><methodID>AIC</methodID><horizontalSlowness><value>5.631375008690017</value></horizontalSlowness><backazimuth><value>117.83548513177793</value></backazimuth><phaseHint>P</phaseHint><evaluationMode>automatic</evaluationMode><comment><text>4.332186187232911</text><id>DFX:rectilinearity</id></comment><comment><text>11.710248185666838</text><id>SNR</id></comment></pick><pick publicID="de.gempa.tb1.Pick/20250414075018.537094.136628"><time><value>2025-04-14T07:49:56.168394Z</value></time><waveformID networkCode="CX" stationCode="PB07" channelCode="HHZ"/><filterID>ITAPER(4)&gt;&gt;BW(4,4,20)</filterID><methodID>AIC</methodID><horizontalSlowness><value>23.133158599427016</value></horizontalSlowness><backazimuth><value>96.42343495126275</value></backazimuth><phaseHint>P</phaseHint><evaluationMode>automatic</evaluationMode><comment><text>187.67050925126208</text><id>DFX:rectilinearity</id></comment><comment><text>40.78396118476555</text><id>SNR</id></comment></pick><pick publicID="de.gempa.tb1.Pick/20250414075020.683961.136630"><time><value>2025-04-14T07:50:13.14Z</value></time><waveformID networkCode="CX" stationCode="PB19" channelCode="HHN"/><filterID>ITAPER(2)&gt;&gt;BW(3,3,20)</filterID><methodID>L2-AIC-GRID</methodID><horizontalSlowness><value>9.143846933899601</value></horizontalSlowness><backazimuth><value>184.10516412783042</value></backazimuth><phaseHint>S</phaseHint><evaluationMode>automatic</evaluationMode><comment><text>206.94050969166952</text><id>DFX:rectilinearity</id></comment><comment><text>de.gempa.tb1.Pick/20250414074945.614003.136614</text><id>RefPickID</id></comment><comment><text>9.773178319074535</text><id>SNR</id></comment></pick><pick publicID="de.gempa.tb1.Pick/20250414075025.891186.136633"><time><value>2025-04-14T07:50:18.468391Z</value></time><waveformID networkCode="CX" stationCode="PB15" channelCode="HHN"/><filterID>ITAPER(2)&gt;&gt;BW(3,3,20)</filterID><methodID>L2-AIC-GRID</methodID><horizontalSlowness><value>22.29571740575728</value></horizontalSlowness><backazimuth><value>96.55967994862618</value></backazimuth><phaseHint>S</phaseHint><evaluationMode>automatic</evaluationMode><comment><text>12004.595002133097</text><id>DFX:rectilinearity</id></comment><comment><text>de.gempa.tb1.Pick/20250414074951.643892.136616</text><id>RefPickID</id></comment><comment><text>9.86996546941142</text><id>SNR</id></comment></pick><pick publicID="de.gempa.tb1.Pick/20250414075036.566766.136637"><time><value>2025-04-14T07:50:23.798393Z</value></time><waveformID networkCode="CX" stationCode="PB06" channelCode="HHN"/><filterID>ITAPER(2)&gt;&gt;BW(3,3,20)</filterID><methodID>L2-AIC-GRID</methodID><horizontalSlowness><value>19.89668045620526</value></horizontalSlowness><backazimuth><value>113.93090687353363</value></backazimuth><phaseHint>S</phaseHint><evaluationMode>automatic</evaluationMode><comment><text>272.64807418864194</text><id>DFX:rectilinearity</id></comment><comment><text>de.gempa.tb1.Pick/20250414074954.659105.136618</text><id>RefPickID</id></comment><comment><text>10.755071653520481</text><id>SNR</id></comment></pick><pick publicID="de.gempa.tb1.Pick/20250414075039.617964.136640"><time><value>2025-04-14T07:50:33.458393Z</value></time><waveformID networkCode="CX" stationCode="PB03" channelCode="HHN"/><filterID>ITAPER(2)&gt;&gt;BW(3,3,20)</filterID><methodID>L2-AIC-GRID</methodID><horizontalSlowness><value>18.690918213350042</value></horizontalSlowness><backazimuth><value>348.2728650719135</value></backazimuth><phaseHint>S</phaseHint><evaluationMode>automatic</evaluationMode><comment><text>350.2080657658138</text><id>DFX:rectilinearity</id></comment><comment><text>de.gempa.tb1.Pick/20250414075000.49181.136622</text><id>RefPickID</id></comment><comment><text>11.257605862015751</text><id>SNR</id></comment></pick><pick publicID="de.gempa.tb1.Pick/20250414075054.375729.136645"><time><value>2025-04-14T07:50:31.52Z</value></time><waveformID networkCode="CX" stationCode="PB09" channelCode="HHN"/><filterID>ITAPER(2)&gt;&gt;BW(3,3,20)</filterID><methodID>L2-AIC-GRID</methodID><horizontalSlowness><value>17.34031646931912</value></horizontalSlowness><backazimuth><value>330.4944222185451</value></backazimuth><phaseHint>S</phaseHint><evaluationMode>automatic</evaluationMode><comment><text>108.44382097073479</text><id>DFX:rectilinearity</id></comment><comment><text>de.gempa.tb1.Pick/20250414075001.462326.136624</text><id>RefPickID</id></comment><comment><text>6.571965016312197</text><id>SNR</id></comment></pick><pick publicID="de.gempa.tb1.Pick/20250414075113.78409.136650"><time><value>2025-04-14T07:50:39.348394Z</value></time><waveformID networkCode="CX" stationCode="PB07" channelCode="HHN"/><filterID>ITAPER(2)&gt;&gt;BW(3,3,20)</filterID><methodID>L2-AIC-GRID</methodID><horizontalSlowness><value>20.97607530995607</value></horizontalSlowness><backazimuth><value>81.0352523153314</value></backazimuth><phaseHint>S</phaseHint><evaluationMode>automatic</evaluationMode><comment><text>2436.391683065674</text><id>DFX:rectilinearity</id></comment><comment><text>de.gempa.tb1.Pick/20250414075018.537094.136628</text><id>RefPickID</id></comment><comment><text>8.435270635575334</text><id>SNR</id></comment></pick><origin publicID="de.gempa.tb1.Origin/20250414075113.787494.131968"><time><value>2025-04-14T07:49:01.743138Z</value><uncertainty>0.9426790475845337</uncertainty></time><latitude><value>-23.955013275146484</value><uncertainty>6.57040548324585</uncertainty></latitude><longitude><value>-67.3618392944336</value><uncertainty>20.497272491455078</uncertainty></longitude><depth><value>243.14866638183594</value><uncertainty>17.721397399902344</uncertainty></depth><depthType>from location</depthType><methodID>LOCSAT</methodID><earthModelID>iasp91_scanloc</earthModelID><quality><associatedPhaseCount>14</associatedPhaseCount><usedPhaseCount>14</usedPhaseCount><associatedStationCount>8</associatedStationCount><usedStationCount>8</usedStationCount><depthPhaseCount>0</depthPhaseCount><standardError>0.3464705507770614</standardError><azimuthalGap>305.7933349609375</azimuthalGap><maximumDistance>3.501542091369629</maximumDistance><minimumDistance>1.765647530555725</minimumDistance><medianDistance>2.760828495025635</medianDistance></quality><uncertainty><minHorizontalUncertainty>13.39997673034668</minHorizontalUncertainty><maxHorizontalUncertainty>44.158119201660156</maxHorizontalUncertainty><azimuthMaxHorizontalUncertainty>84.0751953125</azimuthMaxHorizontalUncertainty><preferredDescription>horizontal uncertainty</preferredDescription></uncertainty><evaluationMode>automatic</evaluationMode><evaluationStatus>confirmed</evaluationStatus><comment><text>0.00</text><id>mismatchScore</id></comment><comment><text>mismatchScore</text><id>scevalMethod</id></comment><arrival><pickID>de.gempa.tb1.Pick/20250414074945.614003.136614</pickID><phase>P</phase><azimuth>271.2337951660156</azimuth><distance>1.765647530555725</distance><timeResidual>-0.2499961853027344</timeResidual><timeUsed>true</timeUsed><horizontalSlownessUsed>false</horizontalSlownessUsed><backazimuthUsed>false</backazimuthUsed><weight>1</weight></arrival><arrival><pickID>de.gempa.tb1.Pick/20250414074951.643892.136616</pickID><phase>P</phase><azimuth>290.5906066894531</azimuth><distance>2.0728211402893066</distance><timeResidual>-0.11994171142578125</timeResidual><timeUsed>true</timeUsed><horizontalSlownessUsed>false</horizontalSlownessUsed><backazimuthUsed>false</backazimuthUsed><weight>1</weight></arrival><arrival><pickID>de.gempa.tb1.Pick/20250414074954.659105.136618</pickID><phase>P</phase><azimuth>301.0318298339844</azimuth><distance>2.3817408084869385</distance><timeResidual>-0.0257415771484375</timeResidual><timeUsed>true</timeUsed><horizontalSlownessUsed>false</horizontalSlownessUsed><backazimuthUsed>false</backazimuthUsed><weight>1</weight></arrival><arrival><pickID>de.gempa.tb1.Pick/20250414074959.176762.136620</pickID><phase>P</phase><azimuth>277.9042663574219</azimuth><distance>2.9581799507141113</distance><timeResidual>0.6678504943847656</timeResidual><timeUsed>true</timeUsed><horizontalSlownessUsed>false</horizontalSlownessUsed><backazimuthUsed>false</backazimuthUsed><weight>1</weight></arrival><arrival><pickID>de.gempa.tb1.Pick/20250414075000.49181.136622</pickID><phase>P</phase><azimuth>310.2663879394531</azimuth><distance>2.907777786254883</distance><timeResidual>0.06234359741210938</timeResidual><timeUsed>true</timeUsed><horizontalSlownessUsed>false</horizontalSlownessUsed><backazimuthUsed>false</backazimuthUsed><weight>1</weight></arrival><arrival><pickID>de.gempa.tb1.Pick/20250414075001.462326.136624</pickID><phase>P</phase><azimuth>320.7271423339844</azimuth><distance>2.760828495025635</distance><timeResidual>0.300048828125</timeResidual><timeUsed>true</timeUsed><horizontalSlownessUsed>false</horizontalSlownessUsed><backazimuthUsed>false</backazimuthUsed><weight>1</weight></arrival><arrival><pickID>de.gempa.tb1.Pick/20250414075008.71359.136626</pickID><phase>P</phase><azimuth>325.4404602050781</azimuth><distance>3.501542091369629</distance><timeResidual>-0.4990043640136719</timeResidual><timeUsed>true</timeUsed><horizontalSlownessUsed>false</horizontalSlownessUsed><backazimuthUsed>false</backazimuthUsed><weight>1</weight></arrival><arrival><pickID>de.gempa.tb1.Pick/20250414075018.537094.136628</pickID><phase>P</phase><azimuth>313.1096496582031</azimuth><distance>3.215723752975464</distance><timeResidual>-0.11522293090820312</timeResidual><timeUsed>true</timeUsed><horizontalSlownessUsed>false</horizontalSlownessUsed><backazimuthUsed>false</backazimuthUsed><weight>1</weight></arrival><arrival><pickID>de.gempa.tb1.Pick/20250414075020.683961.136630</pickID><phase>S</phase><azimuth>271.2337951660156</azimuth><distance>1.765647530555725</distance><timeResidual>-0.20962905883789062</timeResidual><timeUsed>true</timeUsed><horizontalSlownessUsed>false</horizontalSlownessUsed><backazimuthUsed>false</backazimuthUsed><weight>1</weight></arrival><arrival><pickID>de.gempa.tb1.Pick/20250414075025.891186.136633</pickID><phase>S</phase><azimuth>290.5906066894531</azimuth><distance>2.0728211402893066</distance><timeResidual>0.12631607055664062</timeResidual><timeUsed>true</timeUsed><horizontalSlownessUsed>false</horizontalSlownessUsed><backazimuthUsed>false</backazimuthUsed><weight>1</weight></arrival><arrival><pickID>de.gempa.tb1.Pick/20250414075036.566766.136637</pickID><phase>S</phase><azimuth>301.0318298339844</azimuth><distance>2.3817408084869385</distance><timeResidual>0.05111312866210938</timeResidual><timeUsed>true</timeUsed><horizontalSlownessUsed>false</horizontalSlownessUsed><backazimuthUsed>false</backazimuthUsed><weight>1</weight></arrival><arrival><pickID>de.gempa.tb1.Pick/20250414075039.617964.136640</pickID><phase>S</phase><azimuth>310.2663879394531</azimuth><distance>2.907777786254883</distance><timeResidual>-0.2039337158203125</timeResidual><timeUsed>true</timeUsed><horizontalSlownessUsed>false</horizontalSlownessUsed><backazimuthUsed>false</backazimuthUsed><weight>1</weight></arrival><arrival><pickID>de.gempa.tb1.Pick/20250414075054.375729.136645</pickID><phase>S</phase><azimuth>320.7271423339844</azimuth><distance>2.760828495025635</distance><timeResidual>0.6880340576171875</timeResidual><timeUsed>true</timeUsed><horizontalSlownessUsed>false</horizontalSlownessUsed><backazimuthUsed>false</backazimuthUsed><weight>1</weight></arrival><arrival><pickID>de.gempa.tb1.Pick/20250414075113.78409.136650</pickID><phase>S</phase><azimuth>313.1096496582031</azimuth><distance>3.215723752975464</distance><timeResidual>-0.4725723266601562</timeResidual><timeUsed>true</timeUsed><horizontalSlownessUsed>false</horizontalSlownessUsed><backazimuthUsed>false</backazimuthUsed><weight>1</weight></arrival><magnitude publicID="de.gempa.tb1.Magnitude/20250414075113.801223.448117"><magnitude><value>3.152111822215078</value></magnitude><type>M</type><methodID>weighted average</methodID><stationCount>6</stationCount></magnitude></origin><event publicID="gempa2025hivx"><preferredOriginID>de.gempa.tb1.Origin/20250414075113.787494.131968</preferredOriginID><preferredMagnitudeID>de.gempa.tb1.Magnitude/20250414075113.801223.448117</preferredMagnitudeID><description><text>Chile-Argentina Border Region</text><type>region name</type></description><originReference>de.gempa.tb1.Origin/20250414075113.787494.131968</originReference></event></EventParameters></seiscomp>