<?xml version="1.0" encoding="UTF-8"?>
<seiscomp xmlns="http://geofon.gfz-potsdam.de/ns/seiscomp3-schema/0.13" version="0.13"><EventParameters><pick publicID="de.gempa.tb1.Pick/20250412003202.475242.120931"><time><value>2025-04-12T00:31:58.118393Z</value></time><waveformID networkCode="CX" stationCode="PB02" channelCode="HHZ"/><filterID>ITAPER(4)&gt;&gt;BW(4,4,20)</filterID><methodID>AIC</methodID><horizontalSlowness><value>10.038057408739371</value></horizontalSlowness><backazimuth><value>339.8786490263725</value></backazimuth><phaseHint>P</phaseHint><evaluationMode>automatic</evaluationMode><comment><text>30.11258175181951</text><id>DFX:rectilinearity</id></comment><comment><text>23.014959556000353</text><id>SNR</id></comment></pick><pick publicID="de.gempa.tb1.Pick/20250412003208.578303.120933"><time><value>2025-04-12T00:32:04.478393Z</value></time><waveformID networkCode="CX" stationCode="PB01" channelCode="HHZ"/><filterID>ITAPER(4)&gt;&gt;BW(4,4,20)</filterID><methodID>AIC</methodID><horizontalSlowness><value>18.702792558933076</value></horizontalSlowness><backazimuth><value>261.2749534160991</value></backazimuth><phaseHint>P</phaseHint><evaluationMode>automatic</evaluationMode><comment><text>9.671368040993618</text><id>DFX:rectilinearity</id></comment><comment><text>10.458556425445114</text><id>SNR</id></comment></pick><pick publicID="de.gempa.tb1.Pick/20250412003214.563073.120938"><time><value>2025-04-12T00:32:06.888393Z</value></time><waveformID networkCode="CX" stationCode="PB02" channelCode="HHN"/><filterID>ITAPER(2)&gt;&gt;BW(3,3,20)</filterID><methodID>L2-AIC-GRID</methodID><horizontalSlowness><value>12.8359062945692</value></horizontalSlowness><backazimuth><value>56.29042046278964</value></backazimuth><phaseHint>S</phaseHint><evaluationMode>automatic</evaluationMode><comment><text>32.618892140276827</text><id>DFX:rectilinearity</id></comment><comment><text>de.gempa.tb1.Pick/20250412003202.475242.120931</text><id>RefPickID</id></comment><comment><text>5.688160506520113</text><id>SNR</id></comment></pick><pick publicID="de.gempa.tb1.Pick/20250412003226.215049.120943"><time><value>2025-04-12T00:32:07.43Z</value></time><waveformID networkCode="CX" stationCode="PB09" channelCode="HHZ"/><filterID>ITAPER(4)&gt;&gt;BW(4,4,20)</filterID><methodID>AIC</methodID><horizontalSlowness><value>19.013376926765236</value></horizontalSlowness><backazimuth><value>297.7035862050649</value></backazimuth><phaseHint>P</phaseHint><evaluationMode>automatic</evaluationMode><comment><text>11.121676027718738</text><id>DFX:rectilinearity</id></comment><comment><text>13.73889041707885</text><id>SNR</id></comment></pick><pick publicID="de.gempa.tb1.Pick/20250412003226.705631.120945"><time><value>2025-04-12T00:32:17.188393Z</value></time><waveformID networkCode="CX" stationCode="PB01" channelCode="HHN"/><filterID>ITAPER(2)&gt;&gt;BW(3,3,20)</filterID><methodID>L2-AIC-GRID</methodID><horizontalSlowness><value>22.778463997542847</value></horizontalSlowness><backazimuth><value>67.04213036147024</value></backazimuth><phaseHint>S</phaseHint><evaluationMode>automatic</evaluationMode><comment><text>16.507386890279786</text><id>DFX:rectilinearity</id></comment><comment><text>de.gempa.tb1.Pick/20250412003208.578303.120933</text><id>RefPickID</id></comment><comment><text>5.317274590235262</text><id>SNR</id></comment></pick><pick publicID="de.gempa.tb1.Pick/20250412003229.476444.120947"><time><value>2025-04-12T00:31:58.778394Z</value></time><waveformID networkCode="CX" stationCode="PB07" channelCode="HHZ"/><filterID>ITAPER(4)&gt;&gt;BW(4,4,20)</filterID><methodID>AIC</methodID><horizontalSlowness><value>21.70159367256477</value></horizontalSlowness><backazimuth><value>297.62243177770216</value></backazimuth><phaseHint>P</phaseHint><evaluationMode>automatic</evaluationMode><comment><text>150.9862798040305</text><id>DFX:rectilinearity</id></comment><comment><text>27.800195916351196</text><id>SNR</id></comment></pick><pick publicID="de.gempa.tb1.Pick/20250412003237.517495.120949"><time><value>2025-04-12T00:32:07.738394Z</value></time><waveformID networkCode="CX" stationCode="PB07" channelCode="HHN"/><filterID>ITAPER(2)&gt;&gt;BW(3,3,20)</filterID><methodID>L2-AIC-GRID</methodID><horizontalSlowness><value>20.147939183238744</value></horizontalSlowness><backazimuth><value>141.77762677678189</value></backazimuth><phaseHint>S</phaseHint><evaluationMode>automatic</evaluationMode><comment><text>250.3461012872554</text><id>DFX:rectilinearity</id></comment><comment><text>de.gempa.tb1.Pick/20250412003229.476444.120947</text><id>RefPickID</id></comment><comment><text>6.764324093495609</text><id>SNR</id></comment></pick><pick publicID="de.gempa.tb1.Pick/20250412003243.91529.120954"><time><value>2025-04-12T00:32:22.51Z</value></time><waveformID networkCode="CX" stationCode="PB09" channelCode="HHN"/><filterID>ITAPER(2)&gt;&gt;BW(3,3,20)</filterID><methodID>L2-AIC-GRID</methodID><horizontalSlowness><value>16.77406650917949</value></horizontalSlowness><backazimuth><value>304.1971468725277</value></backazimuth><phaseHint>S</phaseHint><evaluationMode>automatic</evaluationMode><comment><text>43.208561073839483</text><id>DFX:rectilinearity</id></comment><comment><text>de.gempa.tb1.Pick/20250412003226.215049.120943</text><id>RefPickID</id></comment><comment><text>9.85321891781731</text><id>SNR</id></comment></pick><origin publicID="de.gempa.tb1.Origin/20250412003243.934432.69948"><time><value>2025-04-12T00:31:47.084912Z</value><uncertainty>1.2858489751815796</uncertainty></time><latitude><value>-21.448076248168945</value><uncertainty>5.469693660736084</uncertainty></latitude><longitude><value>-70.44874572753906</value><uncertainty>8.446093559265137</uncertainty></longitude><depth><value>40.245677947998047</value><uncertainty>16.568435668945312</uncertainty></depth><depthType>from location</depthType><methodID>LOCSAT</methodID><earthModelID>iasp91_scanloc</earthModelID><quality><associatedPhaseCount>8</associatedPhaseCount><usedPhaseCount>8</usedPhaseCount><associatedStationCount>4</associatedStationCount><usedStationCount>4</usedStationCount><depthPhaseCount>0</depthPhaseCount><standardError>0.2870769256343507</standardError><azimuthalGap>307.9808578491211</azimuthalGap><maximumDistance>1.1751916408538818</maximumDistance><minimumDistance>0.5307212471961975</minimumDistance><medianDistance>0.9831177592277527</medianDistance></quality><uncertainty><minHorizontalUncertainty>11.709124565124512</minHorizontalUncertainty><maxHorizontalUncertainty>18.125165939331055</maxHorizontalUncertainty><azimuthMaxHorizontalUncertainty>92.8545913696289</azimuthMaxHorizontalUncertainty><preferredDescription>horizontal uncertainty</preferredDescription></uncertainty><evaluationMode>automatic</evaluationMode><evaluationStatus>confirmed</evaluationStatus><comment><text>0.29</text><id>mismatchScore</id></comment><comment><text>mismatchScore</text><id>scevalMethod</id></comment><arrival><pickID>de.gempa.tb1.Pick/20250412003202.475242.120931</pickID><phase>P</phase><azimuth>76.17597198486328</azimuth><distance>0.5307212471961975</distance><timeResidual>-0.12707805633544922</timeResidual><timeUsed>true</timeUsed><horizontalSlownessUsed>false</horizontalSlownessUsed><backazimuthUsed>false</backazimuthUsed><weight>1</weight></arrival><arrival><pickID>de.gempa.tb1.Pick/20250412003208.578303.120933</pickID><phase>P</phase><azimuth>65.98408508300781</azimuth><distance>0.9831177592277527</distance><timeResidual>0.07350921630859375</timeResidual><timeUsed>true</timeUsed><horizontalSlownessUsed>false</horizontalSlownessUsed><backazimuthUsed>false</backazimuthUsed><weight>1</weight></arrival><arrival><pickID>de.gempa.tb1.Pick/20250412003214.563073.120938</pickID><phase>S</phase><azimuth>76.17597198486328</azimuth><distance>0.5307212471961975</distance><timeResidual>0.332148551940918</timeResidual><timeUsed>true</timeUsed><horizontalSlownessUsed>false</horizontalSlownessUsed><backazimuthUsed>false</backazimuthUsed><weight>1</weight></arrival><arrival><pickID>de.gempa.tb1.Pick/20250412003226.215049.120943</pickID><phase>P</phase><azimuth>107.37370300292969</azimuth><distance>1.1751916408538818</distance><timeResidual>0.39211177825927734</timeResidual><timeUsed>true</timeUsed><horizontalSlownessUsed>false</horizontalSlownessUsed><backazimuthUsed>false</backazimuthUsed><weight>1</weight></arrival><arrival><pickID>de.gempa.tb1.Pick/20250412003226.705631.120945</pickID><phase>S</phase><azimuth>65.98408508300781</azimuth><distance>0.9831177592277527</distance><timeResidual>-0.4176206588745117</timeResidual><timeUsed>true</timeUsed><horizontalSlownessUsed>false</horizontalSlownessUsed><backazimuthUsed>false</backazimuthUsed><weight>1</weight></arrival><arrival><pickID>de.gempa.tb1.Pick/20250412003229.476444.120947</pickID><phase>P</phase><azimuth>118.00322723388672</azimuth><distance>0.5924463272094727</distance><timeResidual>-0.2923851013183594</timeResidual><timeUsed>true</timeUsed><horizontalSlownessUsed>false</horizontalSlownessUsed><backazimuthUsed>false</backazimuthUsed><weight>1</weight></arrival><arrival><pickID>de.gempa.tb1.Pick/20250412003237.517495.120949</pickID><phase>S</phase><azimuth>118.00322723388672</azimuth><distance>0.5924463272094727</distance><timeResidual>-0.2907991409301758</timeResidual><timeUsed>true</timeUsed><horizontalSlownessUsed>false</horizontalSlownessUsed><backazimuthUsed>false</backazimuthUsed><weight>1</weight></arrival><arrival><pickID>de.gempa.tb1.Pick/20250412003243.91529.120954</pickID><phase>S</phase><azimuth>107.37370300292969</azimuth><distance>1.1751916408538818</distance><timeResidual>0.17093372344970703</timeResidual><timeUsed>true</timeUsed><horizontalSlownessUsed>false</horizontalSlownessUsed><backazimuthUsed>false</backazimuthUsed><weight>1</weight></arrival><magnitude publicID="de.gempa.tb1.Magnitude/20250412003251.531731.158160"><magnitude><value>2.0889236315513022</value></magnitude><type>M</type><methodID>weighted average</methodID><stationCount>4</stationCount></magnitude></origin><event publicID="gempa2025hepg"><preferredOriginID>de.gempa.tb1.Origin/20250412003243.934432.69948</preferredOriginID><preferredMagnitudeID>de.gempa.tb1.Magnitude/20250412003251.531731.158160</preferredMagnitudeID><description><text>Near Coast of Northern Chile</text><type>region name</type></description><originReference>de.gempa.tb1.Origin/20250412003243.934432.69948</originReference></event></EventParameters></seiscomp>