<?xml version="1.0" encoding="UTF-8"?>
<seiscomp xmlns="http://geofon.gfz-potsdam.de/ns/seiscomp3-schema/0.13" version="0.13"><EventParameters><pick publicID="de.gempa.tb1.Pick/20250415002054.992481.142418"><time><value>2025-04-15T00:20:46.518393Z</value></time><waveformID networkCode="CX" stationCode="PB01" channelCode="HHZ"/><filterID>ITAPER(4)&gt;&gt;BW(4,4,20)</filterID><methodID>AIC</methodID><horizontalSlowness><value>22.692939005764465</value></horizontalSlowness><backazimuth><value>193.9009467522561</value></backazimuth><phaseHint>P</phaseHint><evaluationMode>automatic</evaluationMode><comment><text>40.255498804371626</text><id>DFX:rectilinearity</id></comment><comment><text>14.58329596610911</text><id>SNR</id></comment></pick><pick publicID="de.gempa.tb1.Pick/20250415002059.65054.142420"><time><value>2025-04-15T00:20:50.638393Z</value></time><waveformID networkCode="CX" stationCode="PB02" channelCode="HHZ"/><filterID>ITAPER(4)&gt;&gt;BW(4,4,20)</filterID><methodID>AIC</methodID><horizontalSlowness><value>22.49277959792915</value></horizontalSlowness><backazimuth><value>74.7400238033533</value></backazimuth><phaseHint>P</phaseHint><evaluationMode>automatic</evaluationMode><comment><text>52.54708957548596</text><id>DFX:rectilinearity</id></comment><comment><text>21.87427327731287</text><id>SNR</id></comment></pick><pick publicID="de.gempa.tb1.Pick/20250415002110.023798.142422"><time><value>2025-04-15T00:20:59.79Z</value></time><waveformID networkCode="CX" stationCode="PSGCX" channelCode="HHZ"/><filterID>ITAPER(4)&gt;&gt;BW(4,4,20)</filterID><methodID>AIC</methodID><horizontalSlowness><value>20.107996453973936</value></horizontalSlowness><backazimuth><value>252.94832687571164</value></backazimuth><phaseHint>P</phaseHint><evaluationMode>automatic</evaluationMode><comment><text>17.80776722859004</text><id>DFX:rectilinearity</id></comment><comment><text>14.203397123425347</text><id>SNR</id></comment></pick><pick publicID="de.gempa.tb1.Pick/20250415002110.412842.142424"><time><value>2025-04-15T00:20:47.73Z</value></time><waveformID networkCode="CX" stationCode="PB09" channelCode="HHZ"/><filterID>ITAPER(4)&gt;&gt;BW(4,4,20)</filterID><methodID>AIC</methodID><horizontalSlowness><value>16.687297500522558</value></horizontalSlowness><backazimuth><value>295.36677132245353</value></backazimuth><phaseHint>P</phaseHint><evaluationMode>automatic</evaluationMode><comment><text>17.158953604410783</text><id>DFX:rectilinearity</id></comment><comment><text>22.38492439989151</text><id>SNR</id></comment></pick><pick publicID="de.gempa.tb1.Pick/20250415002111.026219.142426"><time><value>2025-04-15T00:21:02.708393Z</value></time><waveformID networkCode="CX" stationCode="PB01" channelCode="HHN"/><filterID>ITAPER(2)&gt;&gt;BW(3,3,20)</filterID><methodID>L2-AIC-GRID</methodID><horizontalSlowness><value>23.00505804567615</value></horizontalSlowness><backazimuth><value>288.59810550223233</value></backazimuth><phaseHint>S</phaseHint><evaluationMode>automatic</evaluationMode><comment><text>18.916741332198768</text><id>DFX:rectilinearity</id></comment><comment><text>de.gempa.tb1.Pick/20250415002054.992481.142418</text><id>RefPickID</id></comment><comment><text>9.33765810427079</text><id>SNR</id></comment></pick><pick publicID="de.gempa.tb1.Pick/20250415002117.568674.142427"><time><value>2025-04-15T00:21:09.718393Z</value></time><waveformID networkCode="CX" stationCode="PB02" channelCode="HHN"/><filterID>ITAPER(2)&gt;&gt;BW(3,3,20)</filterID><methodID>L2-AIC-GRID</methodID><horizontalSlowness><value>20.718246082097302</value></horizontalSlowness><backazimuth><value>49.97115023932309</value></backazimuth><phaseHint>S</phaseHint><evaluationMode>automatic</evaluationMode><comment><text>111.66052386799699</text><id>DFX:rectilinearity</id></comment><comment><text>de.gempa.tb1.Pick/20250415002059.65054.142420</text><id>RefPickID</id></comment><comment><text>7.049905367605025</text><id>SNR</id></comment></pick><pick publicID="de.gempa.tb1.Pick/20250415002134.881458.142430"><time><value>2025-04-15T00:21:25.93Z</value></time><waveformID networkCode="CX" stationCode="PSGCX" channelCode="HHN"/><filterID>ITAPER(2)&gt;&gt;BW(3,3,20)</filterID><methodID>L2-AIC-GRID</methodID><horizontalSlowness><value>21.320399759582727</value></horizontalSlowness><backazimuth><value>279.4148204063299</value></backazimuth><phaseHint>S</phaseHint><evaluationMode>automatic</evaluationMode><comment><text>16.9546562809265</text><id>DFX:rectilinearity</id></comment><comment><text>de.gempa.tb1.Pick/20250415002110.023798.142422</text><id>RefPickID</id></comment><comment><text>5.216880870239887</text><id>SNR</id></comment></pick><pick publicID="de.gempa.tb1.Pick/20250415002143.229179.142432"><time><value>2025-04-15T00:20:51.618393Z</value></time><waveformID networkCode="CX" stationCode="PB07" channelCode="HHZ"/><filterID>ITAPER(4)&gt;&gt;BW(4,4,20)</filterID><methodID>AIC</methodID><horizontalSlowness><value>20.896796586740187</value></horizontalSlowness><backazimuth><value>277.1988223411886</value></backazimuth><phaseHint>P</phaseHint><evaluationMode>automatic</evaluationMode><comment><text>260.16520402392536</text><id>DFX:rectilinearity</id></comment><comment><text>29.62521167373004</text><id>SNR</id></comment></pick><pick publicID="de.gempa.tb1.Pick/20250415002150.225483.142434"><time><value>2025-04-15T00:21:11.998393Z</value></time><waveformID networkCode="CX" stationCode="PB07" channelCode="HHN"/><filterID>ITAPER(2)&gt;&gt;BW(3,3,20)</filterID><methodID>L2-AIC-GRID</methodID><horizontalSlowness><value>21.933226458565112</value></horizontalSlowness><backazimuth><value>271.6426746376935</value></backazimuth><phaseHint>S</phaseHint><evaluationMode>automatic</evaluationMode><comment><text>210.92054731868552</text><id>DFX:rectilinearity</id></comment><comment><text>de.gempa.tb1.Pick/20250415002143.229179.142432</text><id>RefPickID</id></comment><comment><text>6.472702591928616</text><id>SNR</id></comment></pick><origin publicID="de.gempa.tb1.Origin/20250415002150.228613.156652"><time><value>2025-04-15T00:20:25.695113Z</value><uncertainty>1.0906438827514648</uncertainty></time><latitude><value>-21.05471420288086</value><uncertainty>5.300881385803223</uncertainty></latitude><longitude><value>-68.64877319335938</value><uncertainty>12.722075462341309</uncertainty></longitude><depth><value>128.12527465820312</value><uncertainty>13.72789764404297</uncertainty></depth><depthType>from location</depthType><methodID>LOCSAT</methodID><earthModelID>iasp91_scanloc</earthModelID><quality><associatedPhaseCount>9</associatedPhaseCount><usedPhaseCount>9</usedPhaseCount><associatedStationCount>5</associatedStationCount><usedStationCount>5</usedStationCount><depthPhaseCount>0</depthPhaseCount><standardError>0.1595088455550725</standardError><azimuthalGap>260.63165283203125</azimuthalGap><maximumDistance>2.00424861907959</maximumDistance><minimumDistance>0.7834218740463257</minimumDistance><medianDistance>1.1934529542922974</medianDistance></quality><uncertainty><minHorizontalUncertainty>10.483463287353516</minHorizontalUncertainty><maxHorizontalUncertainty>27.631032943725586</maxHorizontalUncertainty><azimuthMaxHorizontalUncertainty>80.1061782836914</azimuthMaxHorizontalUncertainty><preferredDescription>horizontal uncertainty</preferredDescription></uncertainty><evaluationMode>automatic</evaluationMode><evaluationStatus>confirmed</evaluationStatus><comment><text>0.17</text><id>mismatchScore</id></comment><comment><text>mismatchScore</text><id>scevalMethod</id></comment><arrival><pickID>de.gempa.tb1.Pick/20250415002054.992481.142418</pickID><phase>P</phase><azimuth>270.6860046386719</azimuth><distance>0.7834218740463257</distance><timeResidual>-0.04697227478027344</timeResidual><timeUsed>true</timeUsed><horizontalSlownessUsed>false</horizontalSlownessUsed><backazimuthUsed>false</backazimuthUsed><weight>1</weight></arrival><arrival><pickID>de.gempa.tb1.Pick/20250415002059.65054.142420</pickID><phase>P</phase><azimuth>257.0111999511719</azimuth><distance>1.1934529542922974</distance><timeResidual>0.2567787170410156</timeResidual><timeUsed>true</timeUsed><horizontalSlownessUsed>false</horizontalSlownessUsed><backazimuthUsed>false</backazimuthUsed><weight>1</weight></arrival><arrival><pickID>de.gempa.tb1.Pick/20250415002110.023798.142422</pickID><phase>P</phase><azimuth>316.088134765625</azimuth><distance>2.00424861907959</distance><timeResidual>0.13609695434570312</timeResidual><timeUsed>true</timeUsed><horizontalSlownessUsed>false</horizontalSlownessUsed><backazimuthUsed>false</backazimuthUsed><weight>1</weight></arrival><arrival><pickID>de.gempa.tb1.Pick/20250415002110.412842.142424</pickID><phase>P</phase><azimuth>216.71978759765625</azimuth><distance>0.9219972491264343</distance><timeResidual>-0.019899368286132812</timeResidual><timeUsed>true</timeUsed><horizontalSlownessUsed>false</horizontalSlownessUsed><backazimuthUsed>false</backazimuthUsed><weight>1</weight></arrival><arrival><pickID>de.gempa.tb1.Pick/20250415002111.026219.142426</pickID><phase>S</phase><azimuth>270.6860046386719</azimuth><distance>0.7834218740463257</distance><timeResidual>0.0040874481201171875</timeResidual><timeUsed>true</timeUsed><horizontalSlownessUsed>false</horizontalSlownessUsed><backazimuthUsed>false</backazimuthUsed><weight>1</weight></arrival><arrival><pickID>de.gempa.tb1.Pick/20250415002117.568674.142427</pickID><phase>S</phase><azimuth>257.0111999511719</azimuth><distance>1.1934529542922974</distance><timeResidual>0.20457077026367188</timeResidual><timeUsed>true</timeUsed><horizontalSlownessUsed>false</horizontalSlownessUsed><backazimuthUsed>false</backazimuthUsed><weight>1</weight></arrival><arrival><pickID>de.gempa.tb1.Pick/20250415002134.881458.142430</pickID><phase>S</phase><azimuth>316.088134765625</azimuth><distance>2.00424861907959</distance><timeResidual>-0.1609039306640625</timeResidual><timeUsed>true</timeUsed><horizontalSlownessUsed>false</horizontalSlownessUsed><backazimuthUsed>false</backazimuthUsed><weight>1</weight></arrival><arrival><pickID>de.gempa.tb1.Pick/20250415002143.229179.142432</pickID><phase>P</phase><azimuth>239.6706848144531</azimuth><distance>1.3330045938491821</distance><timeResidual>-0.2332897186279297</timeResidual><timeUsed>true</timeUsed><horizontalSlownessUsed>false</horizontalSlownessUsed><backazimuthUsed>false</backazimuthUsed><weight>1</weight></arrival><arrival><pickID>de.gempa.tb1.Pick/20250415002150.225483.142434</pickID><phase>S</phase><azimuth>239.6706848144531</azimuth><distance>1.3330045938491821</distance><timeResidual>-0.14052581787109375</timeResidual><timeUsed>true</timeUsed><horizontalSlownessUsed>false</horizontalSlownessUsed><backazimuthUsed>false</backazimuthUsed><weight>1</weight></arrival><magnitude publicID="de.gempa.tb1.Magnitude/20250415002150.234919.554578"><magnitude><value>2.0411547813818633</value></magnitude><type>M</type><methodID>weighted average</methodID><stationCount>3</stationCount></magnitude></origin><event publicID="gempa2025hkcy"><preferredOriginID>de.gempa.tb1.Origin/20250415002150.228613.156652</preferredOriginID><preferredMagnitudeID>de.gempa.tb1.Magnitude/20250415002150.234919.554578</preferredMagnitudeID><description><text>Chile-Bolivia Border Region</text><type>region name</type></description><originReference>de.gempa.tb1.Origin/20250415002150.228613.156652</originReference></event></EventParameters></seiscomp>