<?xml version="1.0" encoding="UTF-8"?>
<seiscomp xmlns="http://geofon.gfz-potsdam.de/ns/seiscomp3-schema/0.13" version="0.13"><EventParameters><pick publicID="de.gempa.tb1.Pick/20250414021635.484883.134972"><time><value>2025-04-14T02:16:30.468394Z</value></time><waveformID networkCode="CX" stationCode="PB02" channelCode="HHZ"/><filterID>ITAPER(4)&gt;&gt;BW(4,4,20)</filterID><methodID>AIC</methodID><horizontalSlowness><value>6.728476461146981</value></horizontalSlowness><backazimuth><value>73.61719130284223</value></backazimuth><phaseHint>P</phaseHint><evaluationMode>automatic</evaluationMode><comment><text>31.087149055597234</text><id>DFX:rectilinearity</id></comment><comment><text>55.52776810433531</text><id>SNR</id></comment></pick><pick publicID="de.gempa.tb1.Pick/20250414021638.524421.134974"><time><value>2025-04-14T02:16:31.278393Z</value></time><waveformID networkCode="CX" stationCode="PB01" channelCode="HHZ"/><filterID>ITAPER(4)&gt;&gt;BW(4,4,20)</filterID><methodID>AIC</methodID><horizontalSlowness><value>18.678240904821205</value></horizontalSlowness><backazimuth><value>341.46245027018563</value></backazimuth><phaseHint>P</phaseHint><evaluationMode>automatic</evaluationMode><comment><text>11.93904985286304</text><id>DFX:rectilinearity</id></comment><comment><text>46.73598001087642</text><id>SNR</id></comment></pick><pick publicID="de.gempa.tb1.Pick/20250414021639.769534.134976"><time><value>2025-04-14T02:16:33.878393Z</value></time><waveformID networkCode="CX" stationCode="PB03" channelCode="HHZ"/><filterID>ITAPER(4)&gt;&gt;BW(4,4,20)</filterID><methodID>AIC</methodID><horizontalSlowness><value>23.5674624802409</value></horizontalSlowness><backazimuth><value>101.93755258254888</value></backazimuth><phaseHint>P</phaseHint><evaluationMode>automatic</evaluationMode><comment><text>5.46737352030245</text><id>DFX:rectilinearity</id></comment><comment><text>14.315133574896368</text><id>SNR</id></comment></pick><pick publicID="de.gempa.tb1.Pick/20250414021642.431236.134978"><time><value>2025-04-14T02:16:33.830001Z</value></time><waveformID networkCode="CX" stationCode="PATCX" channelCode="HHZ"/><filterID>ITAPER(4)&gt;&gt;BW(4,4,20)</filterID><methodID>AIC</methodID><horizontalSlowness><value>22.930002106432443</value></horizontalSlowness><backazimuth><value>236.8966712945901</value></backazimuth><phaseHint>P</phaseHint><evaluationMode>automatic</evaluationMode><comment><text>456.7786394846464</text><id>DFX:rectilinearity</id></comment><comment><text>6.81888746691564</text><id>SNR</id></comment></pick><pick publicID="de.gempa.tb1.Pick/20250414021644.597217.134980"><time><value>2025-04-14T02:16:31.448394Z</value></time><waveformID networkCode="CX" stationCode="PB07" channelCode="HHZ"/><filterID>ITAPER(4)&gt;&gt;BW(4,4,20)</filterID><methodID>AIC</methodID><horizontalSlowness><value>18.265549007732556</value></horizontalSlowness><backazimuth><value>330.5506705777997</value></backazimuth><phaseHint>P</phaseHint><evaluationMode>automatic</evaluationMode><comment><text>151.04409501015755</text><id>DFX:rectilinearity</id></comment><comment><text>21.19515214307718</text><id>SNR</id></comment></pick><pick publicID="de.gempa.tb1.Pick/20250414021646.194526.134982"><time><value>2025-04-14T02:16:33.63Z</value></time><waveformID networkCode="CX" stationCode="PB09" channelCode="HHZ"/><filterID>ITAPER(4)&gt;&gt;BW(4,4,20)</filterID><methodID>AIC</methodID><horizontalSlowness><value>12.320281830199589</value></horizontalSlowness><backazimuth><value>287.28224927443324</value></backazimuth><phaseHint>P</phaseHint><evaluationMode>automatic</evaluationMode><comment><text>14.602814950441504</text><id>DFX:rectilinearity</id></comment><comment><text>17.962109425257264</text><id>SNR</id></comment></pick><pick publicID="de.gempa.tb1.Pick/20250414021647.671531.134984"><time><value>2025-04-14T02:16:39.548394Z</value></time><waveformID networkCode="CX" stationCode="PB02" channelCode="HHN"/><filterID>ITAPER(2)&gt;&gt;BW(3,3,20)</filterID><methodID>L2-AIC-GRID</methodID><horizontalSlowness><value>22.8216047075292</value></horizontalSlowness><backazimuth><value>282.14873466058583</value></backazimuth><phaseHint>S</phaseHint><evaluationMode>automatic</evaluationMode><comment><text>201.88852987222188</text><id>DFX:rectilinearity</id></comment><comment><text>de.gempa.tb1.Pick/20250414021635.484883.134972</text><id>RefPickID</id></comment><comment><text>11.26721195195668</text><id>SNR</id></comment></pick><pick publicID="de.gempa.tb1.Pick/20250414021648.306165.134985"><time><value>2025-04-14T02:16:41.308394Z</value></time><waveformID networkCode="CX" stationCode="PB07" channelCode="HHN"/><filterID>ITAPER(2)&gt;&gt;BW(3,3,20)</filterID><methodID>L2-AIC-GRID</methodID><horizontalSlowness><value>23.36623570013497</value></horizontalSlowness><backazimuth><value>119.51392619620582</value></backazimuth><phaseHint>S</phaseHint><evaluationMode>automatic</evaluationMode><comment><text>2667.459890561164</text><id>DFX:rectilinearity</id></comment><comment><text>de.gempa.tb1.Pick/20250414021644.597217.134980</text><id>RefPickID</id></comment><comment><text>16.39082939079691</text><id>SNR</id></comment></pick><pick publicID="de.gempa.tb1.Pick/20250414021652.769037.134986"><time><value>2025-04-14T02:16:45.328393Z</value></time><waveformID networkCode="CX" stationCode="PB03" channelCode="HHN"/><filterID>ITAPER(2)&gt;&gt;BW(3,3,20)</filterID><methodID>L2-AIC-GRID</methodID><horizontalSlowness><value>6.797307956060089</value></horizontalSlowness><backazimuth><value>127.37417711979286</value></backazimuth><phaseHint>S</phaseHint><evaluationMode>automatic</evaluationMode><comment><text>20.523302714637392</text><id>DFX:rectilinearity</id></comment><comment><text>de.gempa.tb1.Pick/20250414021639.769534.134976</text><id>RefPickID</id></comment><comment><text>8.042861746931939</text><id>SNR</id></comment></pick><pick publicID="de.gempa.tb1.Pick/20250414021653.745578.134987"><time><value>2025-04-14T02:16:41.158393Z</value></time><waveformID networkCode="CX" stationCode="PB01" channelCode="HHN"/><filterID>ITAPER(2)&gt;&gt;BW(3,3,20)</filterID><methodID>L2-AIC-GRID</methodID><horizontalSlowness><value>20.135164906372893</value></horizontalSlowness><backazimuth><value>203.58483612380178</value></backazimuth><phaseHint>S</phaseHint><evaluationMode>automatic</evaluationMode><comment><text>32.788542894567627</text><id>DFX:rectilinearity</id></comment><comment><text>de.gempa.tb1.Pick/20250414021638.524421.134974</text><id>RefPickID</id></comment><comment><text>11.918147296123642</text><id>SNR</id></comment></pick><pick publicID="de.gempa.tb1.Pick/20250414021703.260033.134988"><time><value>2025-04-14T02:16:45.28Z</value></time><waveformID networkCode="CX" stationCode="PB09" channelCode="HHN"/><filterID>ITAPER(2)&gt;&gt;BW(3,3,20)</filterID><methodID>L2-AIC-GRID</methodID><horizontalSlowness><value>18.89656320525264</value></horizontalSlowness><backazimuth><value>313.21633683253697</value></backazimuth><phaseHint>S</phaseHint><evaluationMode>automatic</evaluationMode><comment><text>19.549674142410275</text><id>DFX:rectilinearity</id></comment><comment><text>de.gempa.tb1.Pick/20250414021646.194526.134982</text><id>RefPickID</id></comment><comment><text>6.688540424493462</text><id>SNR</id></comment></pick><origin publicID="de.gempa.tb1.Origin/20250414021703.265877.123701"><time><value>2025-04-14T02:16:18.349431Z</value><uncertainty>0.9560170769691467</uncertainty></time><latitude><value>-21.36920928955078</value><uncertainty>3.732271909713745</uncertainty></latitude><longitude><value>-69.73416137695312</value><uncertainty>5.665902614593506</uncertainty></longitude><depth><value>81.80107116699219</value><uncertainty>6.570777416229248</uncertainty></depth><depthType>from location</depthType><methodID>LOCSAT</methodID><earthModelID>iasp91_scanloc</earthModelID><quality><associatedPhaseCount>11</associatedPhaseCount><usedPhaseCount>11</usedPhaseCount><associatedStationCount>6</associatedStationCount><usedStationCount>6</usedStationCount><depthPhaseCount>0</depthPhaseCount><standardError>0.2647911061831269</standardError><azimuthalGap>97.531494140625</azimuthalGap><maximumDistance>0.6761764287948608</maximumDistance><minimumDistance>0.15872514247894287</minimumDistance><medianDistance>0.39778053760528564</medianDistance></quality><uncertainty><minHorizontalUncertainty>7.961238861083984</minHorizontalUncertainty><maxHorizontalUncertainty>12.175408363342285</maxHorizontalUncertainty><azimuthMaxHorizontalUncertainty>84.94947052001953</azimuthMaxHorizontalUncertainty><preferredDescription>horizontal uncertainty</preferredDescription></uncertainty><evaluationMode>automatic</evaluationMode><evaluationStatus>confirmed</evaluationStatus><comment><text>0.00</text><id>mismatchScore</id></comment><comment><text>mismatchScore</text><id>scevalMethod</id></comment><arrival><pickID>de.gempa.tb1.Pick/20250414021635.484883.134972</pickID><phase>P</phase><azimuth>288.0411376953125</azimuth><distance>0.15872514247894287</distance><timeResidual>0.26920032501220703</timeResidual><timeUsed>true</timeUsed><horizontalSlownessUsed>false</horizontalSlownessUsed><backazimuthUsed>false</backazimuthUsed><weight>1</weight></arrival><arrival><pickID>de.gempa.tb1.Pick/20250414021638.524421.134974</pickID><phase>P</phase><azimuth>35.41432189941406</azimuth><distance>0.39778053760528564</distance><timeResidual>-0.20039844512939453</timeResidual><timeUsed>true</timeUsed><horizontalSlownessUsed>false</horizontalSlownessUsed><backazimuthUsed>false</backazimuthUsed><weight>1</weight></arrival><arrival><pickID>de.gempa.tb1.Pick/20250414021639.769534.134976</pickID><phase>P</phase><azimuth>181.4888153076172</azimuth><distance>0.6761764287948608</distance><timeResidual>-0.05106830596923828</timeResidual><timeUsed>true</timeUsed><horizontalSlownessUsed>false</horizontalSlownessUsed><backazimuthUsed>false</backazimuthUsed><weight>1</weight></arrival><arrival><pickID>de.gempa.tb1.Pick/20250414021642.431236.134978</pickID><phase>P</phase><azimuth>324.3067932128906</azimuth><distance>0.6713727712631226</distance><timeResidual>-0.0567779541015625</timeResidual><timeUsed>true</timeUsed><horizontalSlownessUsed>false</horizontalSlownessUsed><backazimuthUsed>false</backazimuthUsed><weight>1</weight></arrival><arrival><pickID>de.gempa.tb1.Pick/20250414021644.597217.134980</pickID><phase>P</phase><azimuth>201.6675262451172</azimuth><distance>0.38282525539398193</distance><timeResidual>0.07918167114257812</timeResidual><timeUsed>true</timeUsed><horizontalSlownessUsed>false</horizontalSlownessUsed><backazimuthUsed>false</backazimuthUsed><weight>1</weight></arrival><arrival><pickID>de.gempa.tb1.Pick/20250414021646.194526.134982</pickID><phase>P</phase><azimuth>132.94581604003906</azimuth><distance>0.6249669790267944</distance><timeResidual>0.20711612701416016</timeResidual><timeUsed>true</timeUsed><horizontalSlownessUsed>false</horizontalSlownessUsed><backazimuthUsed>false</backazimuthUsed><weight>1</weight></arrival><arrival><pickID>de.gempa.tb1.Pick/20250414021647.671531.134984</pickID><phase>S</phase><azimuth>288.0411376953125</azimuth><distance>0.15872514247894287</distance><timeResidual>0.31244850158691406</timeResidual><timeUsed>true</timeUsed><horizontalSlownessUsed>false</horizontalSlownessUsed><backazimuthUsed>false</backazimuthUsed><weight>1</weight></arrival><arrival><pickID>de.gempa.tb1.Pick/20250414021648.306165.134985</pickID><phase>S</phase><azimuth>201.6675262451172</azimuth><distance>0.38282525539398193</distance><timeResidual>-0.002368927001953125</timeResidual><timeUsed>true</timeUsed><horizontalSlownessUsed>false</horizontalSlownessUsed><backazimuthUsed>false</backazimuthUsed><weight>1</weight></arrival><arrival><pickID>de.gempa.tb1.Pick/20250414021652.769037.134986</pickID><phase>S</phase><azimuth>181.4888153076172</azimuth><distance>0.6761764287948608</distance><timeResidual>-0.532073974609375</timeResidual><timeUsed>true</timeUsed><horizontalSlownessUsed>false</horizontalSlownessUsed><backazimuthUsed>false</backazimuthUsed><weight>1</weight></arrival><arrival><pickID>de.gempa.tb1.Pick/20250414021653.745578.134987</pickID><phase>S</phase><azimuth>35.41432189941406</azimuth><distance>0.39778053760528564</distance><timeResidual>-0.3462200164794922</timeResidual><timeUsed>true</timeUsed><horizontalSlownessUsed>false</horizontalSlownessUsed><backazimuthUsed>false</backazimuthUsed><weight>1</weight></arrival><arrival><pickID>de.gempa.tb1.Pick/20250414021703.260033.134988</pickID><phase>S</phase><azimuth>132.94581604003906</azimuth><distance>0.6249669790267944</distance><timeResidual>0.3209829330444336</timeResidual><timeUsed>true</timeUsed><horizontalSlownessUsed>false</horizontalSlownessUsed><backazimuthUsed>false</backazimuthUsed><weight>1</weight></arrival><magnitude publicID="de.gempa.tb1.Magnitude/20250414021710.960496.419568"><magnitude><value>1.5680253704044418</value></magnitude><type>M</type><methodID>weighted average</methodID><stationCount>3</stationCount></magnitude></origin><event publicID="gempa2025hiku"><preferredOriginID>de.gempa.tb1.Origin/20250414021703.265877.123701</preferredOriginID><preferredMagnitudeID>de.gempa.tb1.Magnitude/20250414021710.960496.419568</preferredMagnitudeID><description><text>Northern Chile</text><type>region name</type></description><originReference>de.gempa.tb1.Origin/20250414021703.265877.123701</originReference></event></EventParameters></seiscomp>