<?xml version="1.0" encoding="UTF-8"?>
<seiscomp xmlns="http://geofon.gfz-potsdam.de/ns/seiscomp3-schema/0.13" version="0.13"><EventParameters><pick publicID="de.gempa.tb1.Pick/20250412222603.535135.127218"><time><value>2025-04-12T22:25:57.578393Z</value></time><waveformID networkCode="CX" stationCode="PB01" channelCode="HHZ"/><filterID>ITAPER(4)&gt;&gt;BW(4,4,20)</filterID><methodID>AIC</methodID><horizontalSlowness><value>16.55570503338149</value></horizontalSlowness><backazimuth><value>16.038977967560868</value></backazimuth><phaseHint>P</phaseHint><evaluationMode>automatic</evaluationMode><comment><text>28.004479020281554</text><id>DFX:rectilinearity</id></comment><comment><text>58.19158779664527</text><id>SNR</id></comment></pick><pick publicID="de.gempa.tb1.Pick/20250412222607.224295.127220"><time><value>2025-04-12T22:26:00.188393Z</value></time><waveformID networkCode="CX" stationCode="PB08" channelCode="HHZ"/><filterID>ITAPER(4)&gt;&gt;BW(4,4,20)</filterID><methodID>AIC</methodID><horizontalSlowness><value>15.159342151688042</value></horizontalSlowness><backazimuth><value>196.65126119174477</value></backazimuth><phaseHint>P</phaseHint><evaluationMode>automatic</evaluationMode><comment><text>55.73725220253571</text><id>DFX:rectilinearity</id></comment><comment><text>29.925141523647255</text><id>SNR</id></comment></pick><pick publicID="de.gempa.tb1.Pick/20250412222608.561679.127222"><time><value>2025-04-12T22:26:01.278393Z</value></time><waveformID networkCode="CX" stationCode="PB02" channelCode="HHZ"/><filterID>ITAPER(4)&gt;&gt;BW(4,4,20)</filterID><methodID>AIC</methodID><horizontalSlowness><value>5.029258339660695</value></horizontalSlowness><backazimuth><value>75.30390349329424</value></backazimuth><phaseHint>P</phaseHint><evaluationMode>automatic</evaluationMode><comment><text>109.59133445449504</text><id>DFX:rectilinearity</id></comment><comment><text>39.950511021416013</text><id>SNR</id></comment></pick><pick publicID="de.gempa.tb1.Pick/20250412222609.578258.127224"><time><value>2025-04-12T22:26:01.718393Z</value></time><waveformID networkCode="CX" stationCode="PB03" channelCode="HHZ"/><filterID>ITAPER(4)&gt;&gt;BW(4,4,20)</filterID><methodID>AIC</methodID><horizontalSlowness><value>2.795230323134046</value></horizontalSlowness><backazimuth><value>108.26080943158817</value></backazimuth><phaseHint>P</phaseHint><evaluationMode>automatic</evaluationMode><comment><text>26.66756941550485</text><id>DFX:rectilinearity</id></comment><comment><text>16.954648049861618</text><id>SNR</id></comment></pick><pick publicID="de.gempa.tb1.Pick/20250412222611.23931.127226"><time><value>2025-04-12T22:26:04.829999Z</value></time><waveformID networkCode="CX" stationCode="PATCX" channelCode="HHZ"/><filterID>ITAPER(4)&gt;&gt;BW(4,4,20)</filterID><methodID>AIC</methodID><horizontalSlowness><value>23.43830854136879</value></horizontalSlowness><backazimuth><value>26.662451505694406</value></backazimuth><phaseHint>P</phaseHint><evaluationMode>automatic</evaluationMode><comment><text>350.6352099027024</text><id>DFX:rectilinearity</id></comment><comment><text>20.86369246648919</text><id>SNR</id></comment></pick><pick publicID="de.gempa.tb1.Pick/20250412222611.485611.127228"><time><value>2025-04-12T22:25:56.98Z</value></time><waveformID networkCode="CX" stationCode="PB09" channelCode="HHZ"/><filterID>ITAPER(4)&gt;&gt;BW(4,4,20)</filterID><methodID>AIC</methodID><horizontalSlowness><value>5.74005917574477</value></horizontalSlowness><backazimuth><value>254.3947695437687</value></backazimuth><phaseHint>P</phaseHint><evaluationMode>automatic</evaluationMode><comment><text>12.745443399011052</text><id>DFX:rectilinearity</id></comment><comment><text>23.994136414761794</text><id>SNR</id></comment></pick><pick publicID="de.gempa.tb1.Pick/20250412222615.532226.127230"><time><value>2025-04-12T22:26:09.9Z</value></time><waveformID networkCode="CX" stationCode="PSGCX" channelCode="HHZ"/><filterID>ITAPER(4)&gt;&gt;BW(4,4,20)</filterID><methodID>AIC</methodID><horizontalSlowness><value>9.825967773447637</value></horizontalSlowness><backazimuth><value>153.55895671155028</value></backazimuth><phaseHint>P</phaseHint><evaluationMode>automatic</evaluationMode><comment><text>38.74811680193662</text><id>DFX:rectilinearity</id></comment><comment><text>52.30190130209046</text><id>SNR</id></comment></pick><pick publicID="de.gempa.tb1.Pick/20250412222626.493833.127232"><time><value>2025-04-12T22:26:20.448393Z</value></time><waveformID networkCode="CX" stationCode="PB16" channelCode="HHZ"/><filterID>ITAPER(4)&gt;&gt;BW(4,4,20)</filterID><methodID>AIC</methodID><horizontalSlowness><value>9.331562702064664</value></horizontalSlowness><backazimuth><value>177.94864291047077</value></backazimuth><phaseHint>P</phaseHint><evaluationMode>automatic</evaluationMode><comment><text>8.595337434134947</text><id>DFX:rectilinearity</id></comment><comment><text>23.422924874513193</text><id>SNR</id></comment></pick><pick publicID="de.gempa.tb1.Pick/20250412222627.570992.127234"><time><value>2025-04-12T22:26:20.128393Z</value></time><waveformID networkCode="CX" stationCode="PB01" channelCode="HHN"/><filterID>ITAPER(2)&gt;&gt;BW(3,3,20)</filterID><methodID>L2-AIC-GRID</methodID><horizontalSlowness><value>23.38508721155784</value></horizontalSlowness><backazimuth><value>244.2783718587362</value></backazimuth><phaseHint>S</phaseHint><evaluationMode>automatic</evaluationMode><comment><text>314.09112555061307</text><id>DFX:rectilinearity</id></comment><comment><text>de.gempa.tb1.Pick/20250412222603.535135.127218</text><id>RefPickID</id></comment><comment><text>16.59402705338573</text><id>SNR</id></comment></pick><pick publicID="de.gempa.tb1.Pick/20250412222634.395547.127240"><time><value>2025-04-12T22:26:01.72836Z</value></time><waveformID networkCode="CX" stationCode="PB07" channelCode="HHZ"/><filterID>ITAPER(4)&gt;&gt;BW(4,4,20)</filterID><methodID>AIC</methodID><horizontalSlowness><value>20.751609557290074</value></horizontalSlowness><backazimuth><value>96.69828514070008</value></backazimuth><phaseHint>P</phaseHint><evaluationMode>automatic</evaluationMode><comment><text>172.7599889054679</text><id>DFX:rectilinearity</id></comment><comment><text>74.32319218418651</text><id>SNR</id></comment></pick><pick publicID="de.gempa.tb1.Pick/20250412222635.263193.127242"><time><value>2025-04-12T22:26:18.84Z</value></time><waveformID networkCode="CX" stationCode="PB09" channelCode="HHN"/><filterID>ITAPER(2)&gt;&gt;BW(3,3,20)</filterID><methodID>L2-AIC-GRID</methodID><horizontalSlowness><value>12.637631341269632</value></horizontalSlowness><backazimuth><value>338.17923229054537</value></backazimuth><phaseHint>S</phaseHint><evaluationMode>automatic</evaluationMode><comment><text>424.56753903387056</text><id>DFX:rectilinearity</id></comment><comment><text>de.gempa.tb1.Pick/20250412222611.485611.127228</text><id>RefPickID</id></comment><comment><text>5.537601225972967</text><id>SNR</id></comment></pick><pick publicID="de.gempa.tb1.Pick/20250412222635.619613.127243"><time><value>2025-04-12T22:26:25.858393Z</value></time><waveformID networkCode="CX" stationCode="PB02" channelCode="HHN"/><filterID>ITAPER(2)&gt;&gt;BW(3,3,20)</filterID><methodID>L2-AIC-GRID</methodID><horizontalSlowness><value>15.447987708244888</value></horizontalSlowness><backazimuth><value>281.20943786248483</value></backazimuth><phaseHint>S</phaseHint><evaluationMode>automatic</evaluationMode><comment><text>18870.010495337505</text><id>DFX:rectilinearity</id></comment><comment><text>de.gempa.tb1.Pick/20250412222608.561679.127222</text><id>RefPickID</id></comment><comment><text>9.395325605004274</text><id>SNR</id></comment></pick><pick publicID="de.gempa.tb1.Pick/20250412222637.807039.127245"><time><value>2025-04-12T22:26:26.528393Z</value></time><waveformID networkCode="CX" stationCode="PB03" channelCode="HHN"/><filterID>ITAPER(2)&gt;&gt;BW(3,3,20)</filterID><methodID>L2-AIC-GRID</methodID><horizontalSlowness><value>16.388826466324272</value></horizontalSlowness><backazimuth><value>282.0571437569448</value></backazimuth><phaseHint>S</phaseHint><evaluationMode>automatic</evaluationMode><comment><text>587.579525228495</text><id>DFX:rectilinearity</id></comment><comment><text>de.gempa.tb1.Pick/20250412222609.578258.127224</text><id>RefPickID</id></comment><comment><text>24.903761995958675</text><id>SNR</id></comment></pick><pick publicID="de.gempa.tb1.Pick/20250412222640.278628.127251"><time><value>2025-04-12T22:26:31.989999Z</value></time><waveformID networkCode="CX" stationCode="PATCX" channelCode="HHN"/><filterID>ITAPER(2)&gt;&gt;BW(3,3,20)</filterID><methodID>L2-AIC-GRID</methodID><horizontalSlowness><value>23.218564050846027</value></horizontalSlowness><backazimuth><value>204.7056985205211</value></backazimuth><phaseHint>S</phaseHint><evaluationMode>automatic</evaluationMode><comment><text>2723.3011612611485</text><id>DFX:rectilinearity</id></comment><comment><text>de.gempa.tb1.Pick/20250412222611.23931.127226</text><id>RefPickID</id></comment><comment><text>12.515223600739798</text><id>SNR</id></comment></pick><origin publicID="de.gempa.tb1.Origin/20250412222640.288449.94108"><time><value>2025-04-12T22:25:29.410916Z</value><uncertainty>0.8756091594696045</uncertainty></time><latitude><value>-21.295400619506836</value><uncertainty>5.959869861602783</uncertainty></latitude><longitude><value>-68.27983093261719</value><uncertainty>11.004768371582031</uncertainty></longitude><depth><value>176.1019744873047</value><uncertainty>10.874313354492188</uncertainty></depth><depthType>from location</depthType><methodID>LOCSAT</methodID><earthModelID>iasp91_scanloc</earthModelID><quality><associatedPhaseCount>14</associatedPhaseCount><usedPhaseCount>14</usedPhaseCount><associatedStationCount>9</associatedStationCount><usedStationCount>9</usedStationCount><depthPhaseCount>0</depthPhaseCount><standardError>0.42439840933961243</standardError><azimuthalGap>262.36671447753906</azimuthalGap><maximumDistance>3.163705348968506</maximumDistance><minimumDistance>1.0250543355941772</minimumDistance><medianDistance>1.556135892868042</medianDistance></quality><uncertainty><minHorizontalUncertainty>12.671398162841797</minHorizontalUncertainty><maxHorizontalUncertainty>23.651418685913086</maxHorizontalUncertainty><azimuthMaxHorizontalUncertainty>85.27188110351562</azimuthMaxHorizontalUncertainty><preferredDescription>horizontal uncertainty</preferredDescription></uncertainty><evaluationMode>automatic</evaluationMode><evaluationStatus>confirmed</evaluationStatus><comment><text>0.22</text><id>mismatchScore</id></comment><comment><text>mismatchScore</text><id>scevalMethod</id></comment><arrival><pickID>de.gempa.tb1.Pick/20250412222603.535135.127218</pickID><phase>P</phase><azimuth>282.3339538574219</azimuth><distance>1.1546462774276733</distance><timeResidual>-0.39735984802246094</timeResidual><timeUsed>true</timeUsed><horizontalSlownessUsed>false</horizontalSlownessUsed><backazimuthUsed>false</backazimuthUsed><weight>1</weight></arrival><arrival><pickID>de.gempa.tb1.Pick/20250412222607.224295.127220</pickID><phase>P</phase><azimuth>324.3930358886719</azimuth><distance>1.409850001335144</distance><timeResidual>-0.04424476623535156</timeResidual><timeUsed>true</timeUsed><horizontalSlownessUsed>false</horizontalSlownessUsed><backazimuthUsed>false</backazimuthUsed><weight>1</weight></arrival><arrival><pickID>de.gempa.tb1.Pick/20250412222608.561679.127222</pickID><phase>P</phase><azimuth>268.7877502441406</azimuth><distance>1.50723397731781</distance><timeResidual>0.132598876953125</timeResidual><timeUsed>true</timeUsed><horizontalSlownessUsed>false</horizontalSlownessUsed><backazimuthUsed>false</backazimuthUsed><weight>1</weight></arrival><arrival><pickID>de.gempa.tb1.Pick/20250412222609.578258.127224</pickID><phase>P</phase><azimuth>241.05889892578125</azimuth><distance>1.5618767738342285</distance><timeResidual>0.04684066772460938</timeResidual><timeUsed>true</timeUsed><horizontalSlownessUsed>false</horizontalSlownessUsed><backazimuthUsed>false</backazimuthUsed><weight>1</weight></arrival><arrival><pickID>de.gempa.tb1.Pick/20250412222611.23931.127226</pickID><phase>P</phase><azimuth>284.7727966308594</azimuth><distance>1.812088966369629</distance><timeResidual>0.6037330627441406</timeResidual><timeUsed>true</timeUsed><horizontalSlownessUsed>false</horizontalSlownessUsed><backazimuthUsed>false</backazimuthUsed><weight>1</weight></arrival><arrival><pickID>de.gempa.tb1.Pick/20250412222611.485611.127228</pickID><phase>P</phase><azimuth>240.7250518798828</azimuth><distance>1.0250543355941772</distance><timeResidual>0.0426025390625</timeResidual><timeUsed>true</timeUsed><horizontalSlownessUsed>false</horizontalSlownessUsed><backazimuthUsed>false</backazimuthUsed><weight>1</weight></arrival><arrival><pickID>de.gempa.tb1.Pick/20250412222615.532226.127230</pickID><phase>P</phase><azimuth>314.02459716796875</azimuth><distance>2.4170591831207275</distance><timeResidual>-1.056386947631836</timeResidual><timeUsed>true</timeUsed><horizontalSlownessUsed>false</horizontalSlownessUsed><backazimuthUsed>false</backazimuthUsed><weight>1</weight></arrival><arrival><pickID>de.gempa.tb1.Pick/20250412222626.493833.127232</pickID><phase>P</phase><azimuth>338.35833740234375</azimuth><distance>3.163705348968506</distance><timeResidual>0.5086574554443359</timeResidual><timeUsed>true</timeUsed><horizontalSlownessUsed>false</horizontalSlownessUsed><backazimuthUsed>false</backazimuthUsed><weight>1</weight></arrival><arrival><pickID>de.gempa.tb1.Pick/20250412222627.570992.127234</pickID><phase>S</phase><azimuth>282.3339538574219</azimuth><distance>1.1546462774276733</distance><timeResidual>-0.2023448944091797</timeResidual><timeUsed>true</timeUsed><horizontalSlownessUsed>false</horizontalSlownessUsed><backazimuthUsed>false</backazimuthUsed><weight>1</weight></arrival><arrival><pickID>de.gempa.tb1.Pick/20250412222634.395547.127240</pickID><phase>P</phase><azimuth>253.69981384277344</azimuth><distance>1.556135892868042</distance><timeResidual>0.11045074462890625</timeResidual><timeUsed>true</timeUsed><horizontalSlownessUsed>false</horizontalSlownessUsed><backazimuthUsed>false</backazimuthUsed><weight>1</weight></arrival><arrival><pickID>de.gempa.tb1.Pick/20250412222635.263193.127242</pickID><phase>S</phase><azimuth>240.7250518798828</azimuth><distance>1.0250543355941772</distance><timeResidual>0.3681449890136719</timeResidual><timeUsed>true</timeUsed><horizontalSlownessUsed>false</horizontalSlownessUsed><backazimuthUsed>false</backazimuthUsed><weight>1</weight></arrival><arrival><pickID>de.gempa.tb1.Pick/20250412222635.619613.127243</pickID><phase>S</phase><azimuth>268.7877502441406</azimuth><distance>1.50723397731781</distance><timeResidual>-0.15039634704589844</timeResidual><timeUsed>true</timeUsed><horizontalSlownessUsed>false</horizontalSlownessUsed><backazimuthUsed>false</backazimuthUsed><weight>1</weight></arrival><arrival><pickID>de.gempa.tb1.Pick/20250412222637.807039.127245</pickID><phase>S</phase><azimuth>241.05889892578125</azimuth><distance>1.5618767738342285</distance><timeResidual>-0.42214202880859375</timeResidual><timeUsed>true</timeUsed><horizontalSlownessUsed>false</horizontalSlownessUsed><backazimuthUsed>false</backazimuthUsed><weight>1</weight></arrival><arrival><pickID>de.gempa.tb1.Pick/20250412222640.278628.127251</pickID><phase>S</phase><azimuth>284.7727966308594</azimuth><distance>1.812088966369629</distance><timeResidual>0.4598655700683594</timeResidual><timeUsed>true</timeUsed><horizontalSlownessUsed>false</horizontalSlownessUsed><backazimuthUsed>false</backazimuthUsed><weight>1</weight></arrival><magnitude publicID="de.gempa.tb1.Magnitude/20250412222640.299424.289245"><magnitude><value>2.9212654653685406</value></magnitude><type>M</type><methodID>weighted average</methodID><stationCount>7</stationCount></magnitude></origin><event publicID="gempa2025hghc"><preferredOriginID>de.gempa.tb1.Origin/20250412222640.288449.94108</preferredOriginID><preferredMagnitudeID>de.gempa.tb1.Magnitude/20250412222640.299424.289245</preferredMagnitudeID><description><text>Chile-Bolivia Border Region</text><type>region name</type></description><originReference>de.gempa.tb1.Origin/20250412222640.288449.94108</originReference></event></EventParameters></seiscomp>