<?xml version="1.0" encoding="UTF-8"?>
<seiscomp xmlns="http://geofon.gfz-potsdam.de/ns/seiscomp3-schema/0.13" version="0.13"><EventParameters><pick publicID="de.gempa.tb1.Pick/20250411212514.539687.120109"><time><value>2025-04-11T21:25:08.7Z</value></time><waveformID networkCode="CX" stationCode="PB19" channelCode="HHZ"/><filterID>ITAPER(4)&gt;&gt;BW(4,4,20)</filterID><methodID>AIC</methodID><horizontalSlowness><value>18.33425336769169</value></horizontalSlowness><backazimuth><value>95.84967685341118</value></backazimuth><phaseHint>P</phaseHint><evaluationMode>automatic</evaluationMode><comment><text>32.22784999135356</text><id>DFX:rectilinearity</id></comment><comment><text>32.47849445583383</text><id>SNR</id></comment></pick><pick publicID="de.gempa.tb1.Pick/20250411212514.692467.120111"><time><value>2025-04-11T21:25:08.328393Z</value></time><waveformID networkCode="CX" stationCode="PB15" channelCode="HHZ"/><filterID>ITAPER(4)&gt;&gt;BW(4,4,20)</filterID><methodID>AIC</methodID><horizontalSlowness><value>20.946876788549908</value></horizontalSlowness><backazimuth><value>136.15329928983215</value></backazimuth><phaseHint>P</phaseHint><evaluationMode>automatic</evaluationMode><comment><text>292.4475489295725</text><id>DFX:rectilinearity</id></comment><comment><text>39.501376845435843</text><id>SNR</id></comment></pick><pick publicID="de.gempa.tb1.Pick/20250411212515.590456.120113"><time><value>2025-04-11T21:25:08.798393Z</value></time><waveformID networkCode="CX" stationCode="PB06" channelCode="HHZ"/><filterID>ITAPER(4)&gt;&gt;BW(4,4,20)</filterID><methodID>AIC</methodID><horizontalSlowness><value>21.912540418391988</value></horizontalSlowness><backazimuth><value>89.48554336359595</value></backazimuth><phaseHint>P</phaseHint><evaluationMode>automatic</evaluationMode><comment><text>28.853431976863057</text><id>DFX:rectilinearity</id></comment><comment><text>32.68750754724711</text><id>SNR</id></comment></pick><pick publicID="de.gempa.tb1.Pick/20250411212517.753352.120115"><time><value>2025-04-11T21:25:11.538393Z</value></time><waveformID networkCode="CX" stationCode="PB03" channelCode="HHZ"/><filterID>ITAPER(4)&gt;&gt;BW(4,4,20)</filterID><methodID>AIC</methodID><horizontalSlowness><value>11.208195847171101</value></horizontalSlowness><backazimuth><value>109.78986458232531</value></backazimuth><phaseHint>P</phaseHint><evaluationMode>automatic</evaluationMode><comment><text>15.629553877116077</text><id>DFX:rectilinearity</id></comment><comment><text>59.27751717716242</text><id>SNR</id></comment></pick><pick publicID="de.gempa.tb1.Pick/20250411212520.555648.120117"><time><value>2025-04-11T21:25:13.538393Z</value></time><waveformID networkCode="CX" stationCode="PB01" channelCode="HHZ"/><filterID>ITAPER(4)&gt;&gt;BW(4,4,20)</filterID><methodID>AIC</methodID><horizontalSlowness><value>21.760078688855536</value></horizontalSlowness><backazimuth><value>193.6889899340264</value></backazimuth><phaseHint>P</phaseHint><evaluationMode>automatic</evaluationMode><comment><text>11.309053034259971</text><id>DFX:rectilinearity</id></comment><comment><text>40.077181534906657</text><id>SNR</id></comment></pick><pick publicID="de.gempa.tb1.Pick/20250411212523.567114.120119"><time><value>2025-04-11T21:25:15.818393Z</value></time><waveformID networkCode="CX" stationCode="PB02" channelCode="HHZ"/><filterID>ITAPER(4)&gt;&gt;BW(4,4,20)</filterID><methodID>AIC</methodID><horizontalSlowness><value>8.533783629421672</value></horizontalSlowness><backazimuth><value>73.89572483475438</value></backazimuth><phaseHint>P</phaseHint><evaluationMode>automatic</evaluationMode><comment><text>15.330511918852457</text><id>DFX:rectilinearity</id></comment><comment><text>19.448297943877773</text><id>SNR</id></comment></pick><pick publicID="de.gempa.tb1.Pick/20250411212523.752656.120121"><time><value>2025-04-11T21:25:09.3Z</value></time><waveformID networkCode="CX" stationCode="PB09" channelCode="HHZ"/><filterID>ITAPER(4)&gt;&gt;BW(4,4,20)</filterID><methodID>AIC</methodID><horizontalSlowness><value>8.671035277711697</value></horizontalSlowness><backazimuth><value>1.9433790410761276</value></backazimuth><phaseHint>P</phaseHint><evaluationMode>automatic</evaluationMode><comment><text>11.885410387528056</text><id>DFX:rectilinearity</id></comment><comment><text>16.687626753484487</text><id>SNR</id></comment></pick><pick publicID="de.gempa.tb1.Pick/20250411212525.18947.120123"><time><value>2025-04-11T21:25:13.988389Z</value></time><waveformID networkCode="CX" stationCode="PB07" channelCode="HHZ"/><filterID>ITAPER(4)&gt;&gt;BW(4,4,20)</filterID><methodID>AIC</methodID><horizontalSlowness><value>19.647072801647322</value></horizontalSlowness><backazimuth><value>258.0556170738564</value></backazimuth><phaseHint>P</phaseHint><evaluationMode>automatic</evaluationMode><comment><text>152.95474838696725</text><id>DFX:rectilinearity</id></comment><comment><text>97.76804140256884</text><id>SNR</id></comment></pick><pick publicID="de.gempa.tb1.Pick/20250411212527.231762.120125"><time><value>2025-04-11T21:25:19.13Z</value></time><waveformID networkCode="CX" stationCode="PB10" channelCode="HHZ"/><filterID>ITAPER(4)&gt;&gt;BW(4,4,20)</filterID><methodID>AIC</methodID><horizontalSlowness><value>10.300121681685949</value></horizontalSlowness><backazimuth><value>282.3909650805907</value></backazimuth><phaseHint>P</phaseHint><evaluationMode>automatic</evaluationMode><comment><text>70.7771966378869</text><id>DFX:rectilinearity</id></comment><comment><text>11.98239577372383</text><id>SNR</id></comment></pick><pick publicID="de.gempa.tb1.Pick/20250411212534.667931.120127"><time><value>2025-04-11T21:25:28.29Z</value></time><waveformID networkCode="CX" stationCode="PSGCX" channelCode="HHZ"/><filterID>ITAPER(4)&gt;&gt;BW(4,4,20)</filterID><methodID>AIC</methodID><horizontalSlowness><value>16.692089246835902</value></horizontalSlowness><backazimuth><value>111.36697464777453</value></backazimuth><phaseHint>P</phaseHint><evaluationMode>automatic</evaluationMode><comment><text>24.03430723822264</text><id>DFX:rectilinearity</id></comment><comment><text>28.099440361427597</text><id>SNR</id></comment></pick><pick publicID="de.gempa.tb1.Pick/20250411212550.838473.120132"><time><value>2025-04-11T21:25:45.688393Z</value></time><waveformID networkCode="CX" stationCode="PB15" channelCode="HHN"/><filterID>ITAPER(2)&gt;&gt;BW(3,3,20)</filterID><methodID>L2-AIC-GRID</methodID><horizontalSlowness><value>21.24796319863847</value></horizontalSlowness><backazimuth><value>81.18249261108232</value></backazimuth><phaseHint>S</phaseHint><evaluationMode>automatic</evaluationMode><comment><text>40327.305623902786</text><id>DFX:rectilinearity</id></comment><comment><text>de.gempa.tb1.Pick/20250411212514.692467.120111</text><id>RefPickID</id></comment><comment><text>9.716887931393028</text><id>SNR</id></comment></pick><pick publicID="de.gempa.tb1.Pick/20250411212553.584657.120133"><time><value>2025-04-11T21:25:46.588393Z</value></time><waveformID networkCode="CX" stationCode="PB06" channelCode="HHN"/><filterID>ITAPER(2)&gt;&gt;BW(3,3,20)</filterID><methodID>L2-AIC-GRID</methodID><horizontalSlowness><value>23.289287810667627</value></horizontalSlowness><backazimuth><value>250.96853998202883</value></backazimuth><phaseHint>S</phaseHint><evaluationMode>automatic</evaluationMode><comment><text>717.6657544008451</text><id>DFX:rectilinearity</id></comment><comment><text>de.gempa.tb1.Pick/20250411212515.590456.120113</text><id>RefPickID</id></comment><comment><text>17.534158734501062</text><id>SNR</id></comment></pick><pick publicID="de.gempa.tb1.Pick/20250411212558.628875.120134"><time><value>2025-04-11T21:25:51.058393Z</value></time><waveformID networkCode="CX" stationCode="PB03" channelCode="HHN"/><filterID>ITAPER(2)&gt;&gt;BW(3,3,20)</filterID><methodID>L2-AIC-GRID</methodID><horizontalSlowness><value>22.933817290392504</value></horizontalSlowness><backazimuth><value>198.72451943052695</value></backazimuth><phaseHint>S</phaseHint><evaluationMode>automatic</evaluationMode><comment><text>1919.8033407801447</text><id>DFX:rectilinearity</id></comment><comment><text>de.gempa.tb1.Pick/20250411212517.753352.120115</text><id>RefPickID</id></comment><comment><text>21.668370077704985</text><id>SNR</id></comment></pick><pick publicID="de.gempa.tb1.Pick/20250411212602.659226.120136"><time><value>2025-04-11T21:25:55.008393Z</value></time><waveformID networkCode="CX" stationCode="PB01" channelCode="HHN"/><filterID>ITAPER(2)&gt;&gt;BW(3,3,20)</filterID><methodID>L2-AIC-GRID</methodID><horizontalSlowness><value>20.406224186231729</value></horizontalSlowness><backazimuth><value>328.3200580110283</value></backazimuth><phaseHint>S</phaseHint><evaluationMode>automatic</evaluationMode><comment><text>507.2926306784124</text><id>DFX:rectilinearity</id></comment><comment><text>de.gempa.tb1.Pick/20250411212520.555648.120117</text><id>RefPickID</id></comment><comment><text>21.875505548540485</text><id>SNR</id></comment></pick><pick publicID="de.gempa.tb1.Pick/20250411212616.958632.120140"><time><value>2025-04-11T21:26:04.94Z</value></time><waveformID networkCode="CX" stationCode="PB10" channelCode="HHN"/><filterID>ITAPER(2)&gt;&gt;BW(3,3,20)</filterID><methodID>L2-AIC-GRID</methodID><horizontalSlowness><value>21.023816052267776</value></horizontalSlowness><backazimuth><value>205.21866375273092</value></backazimuth><phaseHint>S</phaseHint><evaluationMode>automatic</evaluationMode><comment><text>213.6196726371309</text><id>DFX:rectilinearity</id></comment><comment><text>de.gempa.tb1.Pick/20250411212527.231762.120125</text><id>RefPickID</id></comment><comment><text>5.931201374246625</text><id>SNR</id></comment></pick><pick publicID="de.gempa.tb1.Pick/20250411212624.79014.120141"><time><value>2025-04-11T21:25:54.998389Z</value></time><waveformID networkCode="CX" stationCode="PB07" channelCode="HHN"/><filterID>ITAPER(2)&gt;&gt;BW(3,3,20)</filterID><methodID>L2-AIC-GRID</methodID><horizontalSlowness><value>21.838403752147656</value></horizontalSlowness><backazimuth><value>332.2608517453448</value></backazimuth><phaseHint>S</phaseHint><evaluationMode>automatic</evaluationMode><comment><text>28306.52916074039</text><id>DFX:rectilinearity</id></comment><comment><text>de.gempa.tb1.Pick/20250411212525.18947.120123</text><id>RefPickID</id></comment><comment><text>14.63445105494542</text><id>SNR</id></comment></pick><origin publicID="de.gempa.tb1.Origin/20250411212624.796724.66141"><time><value>2025-04-11T21:24:21.885278Z</value><uncertainty>0.8155040740966797</uncertainty></time><latitude><value>-22.719358444213867</value><uncertainty>5.776413440704346</uncertainty></latitude><longitude><value>-67.07190704345703</value><uncertainty>14.927277565002441</uncertainty></longitude><depth><value>271.2367858886719</value><uncertainty>16.54612159729004</uncertainty></depth><depthType>from location</depthType><methodID>LOCSAT</methodID><earthModelID>iasp91_scanloc</earthModelID><quality><associatedPhaseCount>16</associatedPhaseCount><usedPhaseCount>16</usedPhaseCount><associatedStationCount>10</associatedStationCount><usedStationCount>10</usedStationCount><depthPhaseCount>0</depthPhaseCount><standardError>0.4569267856494939</standardError><azimuthalGap>282.5880584716797</azimuthalGap><maximumDistance>4.2141575813293457</maximumDistance><minimumDistance>2.2101240158081055</minimumDistance><medianDistance>2.7884981632232666</medianDistance></quality><uncertainty><minHorizontalUncertainty>12.329316139221191</minHorizontalUncertainty><maxHorizontalUncertainty>32.02301788330078</maxHorizontalUncertainty><azimuthMaxHorizontalUncertainty>92.25048065185547</azimuthMaxHorizontalUncertainty><preferredDescription>horizontal uncertainty</preferredDescription></uncertainty><evaluationMode>automatic</evaluationMode><evaluationStatus>confirmed</evaluationStatus><comment><text>0.16</text><id>mismatchScore</id></comment><comment><text>mismatchScore</text><id>scevalMethod</id></comment><arrival><pickID>de.gempa.tb1.Pick/20250411212514.539687.120109</pickID><phase>P</phase><azimuth>239.5183868408203</azimuth><distance>2.3563804626464844</distance><timeResidual>-0.6638107299804688</timeResidual><timeUsed>true</timeUsed><horizontalSlownessUsed>false</horizontalSlownessUsed><backazimuthUsed>false</backazimuthUsed><weight>1</weight></arrival><arrival><pickID>de.gempa.tb1.Pick/20250411212514.692467.120111</pickID><phase>P</phase><azimuth>257.12298583984375</azimuth><distance>2.264033555984497</distance><timeResidual>-0.19401931762695312</timeResidual><timeUsed>true</timeUsed><horizontalSlownessUsed>false</horizontalSlownessUsed><backazimuthUsed>false</backazimuthUsed><weight>1</weight></arrival><arrival><pickID>de.gempa.tb1.Pick/20250411212515.590456.120113</pickID><phase>P</phase><azimuth>269.8549499511719</azimuth><distance>2.308414936065674</distance><timeResidual>-0.13680267333984375</timeResidual><timeUsed>true</timeUsed><horizontalSlownessUsed>false</horizontalSlownessUsed><backazimuthUsed>false</backazimuthUsed><weight>1</weight></arrival><arrival><pickID>de.gempa.tb1.Pick/20250411212517.753352.120115</pickID><phase>P</phase><azimuth>284.5489501953125</azimuth><distance>2.5697758197784424</distance><timeResidual>0.1170501708984375</timeResidual><timeUsed>true</timeUsed><horizontalSlownessUsed>false</horizontalSlownessUsed><backazimuthUsed>false</backazimuthUsed><weight>1</weight></arrival><arrival><pickID>de.gempa.tb1.Pick/20250411212520.555648.120117</pickID><phase>P</phase><azimuth>306.17681884765625</azimuth><distance>2.795553922653198</distance><timeResidual>-0.13988494873046875</timeResidual><timeUsed>true</timeUsed><horizontalSlownessUsed>false</horizontalSlownessUsed><backazimuthUsed>false</backazimuthUsed><weight>1</weight></arrival><arrival><pickID>de.gempa.tb1.Pick/20250411212523.567114.120119</pickID><phase>P</phase><azimuth>297.4593505859375</azimuth><distance>2.9676270484924316</distance><timeResidual>0.39117431640625</timeResidual><timeUsed>true</timeUsed><horizontalSlownessUsed>false</horizontalSlownessUsed><backazimuthUsed>false</backazimuthUsed><weight>1</weight></arrival><arrival><pickID>de.gempa.tb1.Pick/20250411212523.752656.120121</pickID><phase>P</phase><azimuth>294.14599609375</azimuth><distance>2.2101240158081055</distance><timeResidual>1.2488632202148438</timeResidual><timeUsed>true</timeUsed><horizontalSlownessUsed>false</horizontalSlownessUsed><backazimuthUsed>false</backazimuthUsed><weight>1</weight></arrival><arrival><pickID>de.gempa.tb1.Pick/20250411212525.18947.120123</pickID><phase>P</phase><azimuth>290.2158508300781</azimuth><distance>2.7884981632232666</distance><timeResidual>0.3897857666015625</timeResidual><timeUsed>true</timeUsed><horizontalSlownessUsed>false</horizontalSlownessUsed><backazimuthUsed>false</backazimuthUsed><weight>1</weight></arrival><arrival><pickID>de.gempa.tb1.Pick/20250411212527.231762.120125</pickID><phase>P</phase><azimuth>255.4747772216797</azimuth><distance>3.301764726638794</distance><timeResidual>0.17357635498046875</timeResidual><timeUsed>true</timeUsed><horizontalSlownessUsed>false</horizontalSlownessUsed><backazimuthUsed>false</backazimuthUsed><weight>1</weight></arrival><arrival><pickID>de.gempa.tb1.Pick/20250411212534.667931.120127</pickID><phase>P</phase><azimuth>316.9303283691406</azimuth><distance>4.2141575813293457</distance><timeResidual>-0.9011383056640625</timeResidual><timeUsed>true</timeUsed><horizontalSlownessUsed>false</horizontalSlownessUsed><backazimuthUsed>false</backazimuthUsed><weight>1</weight></arrival><arrival><pickID>de.gempa.tb1.Pick/20250411212550.838473.120132</pickID><phase>S</phase><azimuth>257.12298583984375</azimuth><distance>2.264033555984497</distance><timeResidual>-0.17436981201171875</timeResidual><timeUsed>true</timeUsed><horizontalSlownessUsed>false</horizontalSlownessUsed><backazimuthUsed>false</backazimuthUsed><weight>1</weight></arrival><arrival><pickID>de.gempa.tb1.Pick/20250411212553.584657.120133</pickID><phase>S</phase><azimuth>269.8549499511719</azimuth><distance>2.308414936065674</distance><timeResidual>-0.021366119384765625</timeResidual><timeUsed>true</timeUsed><horizontalSlownessUsed>false</horizontalSlownessUsed><backazimuthUsed>false</backazimuthUsed><weight>1</weight></arrival><arrival><pickID>de.gempa.tb1.Pick/20250411212558.628875.120134</pickID><phase>S</phase><azimuth>284.5489501953125</azimuth><distance>2.5697758197784424</distance><timeResidual>-0.04864883422851562</timeResidual><timeUsed>true</timeUsed><horizontalSlownessUsed>false</horizontalSlownessUsed><backazimuthUsed>false</backazimuthUsed><weight>1</weight></arrival><arrival><pickID>de.gempa.tb1.Pick/20250411212602.659226.120136</pickID><phase>S</phase><azimuth>306.17681884765625</azimuth><distance>2.795553922653198</distance><timeResidual>-0.18039703369140625</timeResidual><timeUsed>true</timeUsed><horizontalSlownessUsed>false</horizontalSlownessUsed><backazimuthUsed>false</backazimuthUsed><weight>1</weight></arrival><arrival><pickID>de.gempa.tb1.Pick/20250411212616.958632.120140</pickID><phase>S</phase><azimuth>255.4747772216797</azimuth><distance>3.301764726638794</distance><timeResidual>0.18805313110351562</timeResidual><timeUsed>true</timeUsed><horizontalSlownessUsed>false</horizontalSlownessUsed><backazimuthUsed>false</backazimuthUsed><weight>1</weight></arrival><arrival><pickID>de.gempa.tb1.Pick/20250411212624.79014.120141</pickID><phase>S</phase><azimuth>290.2158508300781</azimuth><distance>2.7884981632232666</distance><timeResidual>-0.04814529418945312</timeResidual><timeUsed>true</timeUsed><horizontalSlownessUsed>false</horizontalSlownessUsed><backazimuthUsed>false</backazimuthUsed><weight>1</weight></arrival><magnitude publicID="de.gempa.tb1.Magnitude/20250411212635.939594.144199"><magnitude><value>3.4922145130595403</value></magnitude><type>M</type><methodID>weighted average</methodID><stationCount>6</stationCount></magnitude></origin><event publicID="gempa2025heja"><preferredOriginID>de.gempa.tb1.Origin/20250411212624.796724.66141</preferredOriginID><preferredMagnitudeID>de.gempa.tb1.Magnitude/20250411212635.939594.144199</preferredMagnitudeID><description><text>Chile-Bolivia Border Region</text><type>region name</type></description><originReference>de.gempa.tb1.Origin/20250411212624.796724.66141</originReference></event></EventParameters></seiscomp>