<?xml version="1.0" encoding="UTF-8"?>
<seiscomp xmlns="http://geofon.gfz-potsdam.de/ns/seiscomp3-schema/0.13" version="0.13"><EventParameters><pick publicID="de.gempa.tb1.Pick/20250414071320.639097.136472"><time><value>2025-04-14T07:13:15.848394Z</value></time><waveformID networkCode="CX" stationCode="PB15" channelCode="HHZ"/><filterID>ITAPER(4)&gt;&gt;BW(4,4,20)</filterID><methodID>AIC</methodID><horizontalSlowness><value>22.066338561418473</value></horizontalSlowness><backazimuth><value>155.47965947167845</value></backazimuth><phaseHint>P</phaseHint><evaluationMode>automatic</evaluationMode><comment><text>102.24467575863414</text><id>DFX:rectilinearity</id></comment><comment><text>14.699804743728892</text><id>SNR</id></comment></pick><pick publicID="de.gempa.tb1.Pick/20250414071321.662991.136474"><time><value>2025-04-14T07:13:14.089998Z</value></time><waveformID networkCode="CX" stationCode="PB19" channelCode="HHZ"/><filterID>ITAPER(4)&gt;&gt;BW(4,4,20)</filterID><methodID>AIC</methodID><horizontalSlowness><value>22.691456386111476</value></horizontalSlowness><backazimuth><value>175.39765395260892</value></backazimuth><phaseHint>P</phaseHint><evaluationMode>automatic</evaluationMode><comment><text>21.345069487731248</text><id>DFX:rectilinearity</id></comment><comment><text>40.216551495567337</text><id>SNR</id></comment></pick><pick publicID="de.gempa.tb1.Pick/20250414071329.532327.136476"><time><value>2025-04-14T07:13:21.248393Z</value></time><waveformID networkCode="CX" stationCode="PB06" channelCode="HHZ"/><filterID>ITAPER(4)&gt;&gt;BW(4,4,20)</filterID><methodID>AIC</methodID><horizontalSlowness><value>15.52450290592836</value></horizontalSlowness><backazimuth><value>308.51089523193536</value></backazimuth><phaseHint>P</phaseHint><evaluationMode>automatic</evaluationMode><comment><text>90.44795861408251</text><id>DFX:rectilinearity</id></comment><comment><text>10.279594755839238</text><id>SNR</id></comment></pick><pick publicID="de.gempa.tb1.Pick/20250414071330.596124.136478"><time><value>2025-04-14T07:13:23.179998Z</value></time><waveformID networkCode="CX" stationCode="PB19" channelCode="HHN"/><filterID>ITAPER(2)&gt;&gt;BW(3,3,20)</filterID><methodID>L2-AIC-GRID</methodID><horizontalSlowness><value>22.207049096603313</value></horizontalSlowness><backazimuth><value>213.73688473814883</value></backazimuth><phaseHint>S</phaseHint><evaluationMode>automatic</evaluationMode><comment><text>30.061937040642054</text><id>DFX:rectilinearity</id></comment><comment><text>de.gempa.tb1.Pick/20250414071321.662991.136474</text><id>RefPickID</id></comment><comment><text>6.954152579234932</text><id>SNR</id></comment></pick><pick publicID="de.gempa.tb1.Pick/20250414071331.884349.136479"><time><value>2025-04-14T07:13:25.738394Z</value></time><waveformID networkCode="CX" stationCode="PB15" channelCode="HHN"/><filterID>ITAPER(2)&gt;&gt;BW(3,3,20)</filterID><methodID>L2-AIC-GRID</methodID><horizontalSlowness><value>20.676057851094122</value></horizontalSlowness><backazimuth><value>82.46359047647991</value></backazimuth><phaseHint>S</phaseHint><evaluationMode>automatic</evaluationMode><comment><text>13802.344926771693</text><id>DFX:rectilinearity</id></comment><comment><text>de.gempa.tb1.Pick/20250414071320.639097.136472</text><id>RefPickID</id></comment><comment><text>11.449642255188136</text><id>SNR</id></comment></pick><pick publicID="de.gempa.tb1.Pick/20250414071342.562952.136482"><time><value>2025-04-14T07:13:35.488393Z</value></time><waveformID networkCode="CX" stationCode="PB06" channelCode="HHN"/><filterID>ITAPER(2)&gt;&gt;BW(3,3,20)</filterID><methodID>L2-AIC-GRID</methodID><horizontalSlowness><value>13.87884747967931</value></horizontalSlowness><backazimuth><value>339.0742123171914</value></backazimuth><phaseHint>S</phaseHint><evaluationMode>automatic</evaluationMode><comment><text>74.64212903872549</text><id>DFX:rectilinearity</id></comment><comment><text>de.gempa.tb1.Pick/20250414071329.532327.136476</text><id>RefPickID</id></comment><comment><text>10.110512569006485</text><id>SNR</id></comment></pick><pick publicID="de.gempa.tb1.Pick/20250414071353.887238.136484"><time><value>2025-04-14T07:13:35.94Z</value></time><waveformID networkCode="CX" stationCode="PB09" channelCode="HHZ"/><filterID>ITAPER(4)&gt;&gt;BW(4,4,20)</filterID><methodID>AIC</methodID><horizontalSlowness><value>10.032990897969441</value></horizontalSlowness><backazimuth><value>290.90313550789665</value></backazimuth><phaseHint>P</phaseHint><evaluationMode>automatic</evaluationMode><comment><text>6.306251968443707</text><id>DFX:rectilinearity</id></comment><comment><text>8.57287696152568</text><id>SNR</id></comment></pick><origin publicID="de.gempa.tb1.Origin/20250414071354.072322.131308"><time><value>2025-04-14T07:13:00.440381Z</value><uncertainty>1.4745851755142212</uncertainty></time><latitude><value>-23.72421646118164</value><uncertainty>3.94160795211792</uncertainty></latitude><longitude><value>-70.03926849365234</value><uncertainty>7.18767786026001</uncertainty></longitude><depth><value>2.6565709114074707</value><uncertainty>11.043049812316895</uncertainty></depth><depthType>from location</depthType><methodID>LOCSAT</methodID><earthModelID>iasp91_scanloc</earthModelID><quality><associatedPhaseCount>7</associatedPhaseCount><usedPhaseCount>7</usedPhaseCount><associatedStationCount>4</associatedStationCount><usedStationCount>4</usedStationCount><depthPhaseCount>0</depthPhaseCount><standardError>0.893396254696399</standardError><azimuthalGap>276.29998207092285</azimuthalGap><maximumDistance>2.0550596714019775</maximumDistance><minimumDistance>0.7087945342063904</minimumDistance><medianDistance>0.7321687340736389</medianDistance></quality><uncertainty><minHorizontalUncertainty>6.489678859710693</minHorizontalUncertainty><maxHorizontalUncertainty>16.342792510986328</maxHorizontalUncertainty><azimuthMaxHorizontalUncertainty>68.81845092773438</azimuthMaxHorizontalUncertainty><preferredDescription>horizontal uncertainty</preferredDescription></uncertainty><evaluationMode>automatic</evaluationMode><evaluationStatus>confirmed</evaluationStatus><comment><text>0.42</text><id>mismatchScore</id></comment><comment><text>mismatchScore</text><id>scevalMethod</id></comment><arrival><pickID>de.gempa.tb1.Pick/20250414071320.639097.136472</pickID><phase>P</phase><azimuth>45.57682800292969</azimuth><distance>0.7321687340736389</distance><timeResidual>1.3585777282714844</timeResidual><timeUsed>true</timeUsed><horizontalSlownessUsed>false</horizontalSlownessUsed><backazimuthUsed>false</backazimuthUsed><weight>1</weight></arrival><arrival><pickID>de.gempa.tb1.Pick/20250414071321.662991.136474</pickID><phase>P</phase><azimuth>104.84027862548828</azimuth><distance>0.7087945342063904</distance><timeResidual>0.04928016662597656</timeResidual><timeUsed>true</timeUsed><horizontalSlownessUsed>false</horizontalSlownessUsed><backazimuthUsed>false</backazimuthUsed><weight>1</weight></arrival><arrival><pickID>de.gempa.tb1.Pick/20250414071329.532327.136476</pickID><phase>P</phase><azimuth>23.077775955200195</azimuth><distance>1.101125955581665</distance><timeResidual>-0.31514930725097656</timeResidual><timeUsed>true</timeUsed><horizontalSlownessUsed>false</horizontalSlownessUsed><backazimuthUsed>false</backazimuthUsed><weight>1</weight></arrival><arrival><pickID>de.gempa.tb1.Pick/20250414071330.596124.136478</pickID><phase>S</phase><azimuth>104.84027862548828</azimuth><distance>0.7087945342063904</distance><timeResidual>-0.7370061874389648</timeResidual><timeUsed>true</timeUsed><horizontalSlownessUsed>false</horizontalSlownessUsed><backazimuthUsed>false</backazimuthUsed><weight>1</weight></arrival><arrival><pickID>de.gempa.tb1.Pick/20250414071331.884349.136479</pickID><phase>S</phase><azimuth>45.57682800292969</azimuth><distance>0.7321687340736389</distance><timeResidual>1.0459280014038086</timeResidual><timeUsed>true</timeUsed><horizontalSlownessUsed>false</horizontalSlownessUsed><backazimuthUsed>false</backazimuthUsed><weight>1</weight></arrival><arrival><pickID>de.gempa.tb1.Pick/20250414071342.562952.136482</pickID><phase>S</phase><azimuth>23.077775955200195</azimuth><distance>1.101125955581665</distance><timeResidual>-1.415022850036621</timeResidual><timeUsed>true</timeUsed><horizontalSlownessUsed>false</horizontalSlownessUsed><backazimuthUsed>false</backazimuthUsed><weight>1</weight></arrival><arrival><pickID>de.gempa.tb1.Pick/20250414071353.887238.136484</pickID><phase>P</phase><azimuth>21.140260696411133</azimuth><distance>2.0550596714019775</distance><timeResidual>0.01355457305908203</timeResidual><timeUsed>true</timeUsed><horizontalSlownessUsed>false</horizontalSlownessUsed><backazimuthUsed>false</backazimuthUsed><weight>1</weight></arrival><magnitude publicID="de.gempa.tb1.Magnitude/20250414071400.937543.444737"><magnitude><value>2.2009346805702759</value></magnitude><type>M</type><methodID>weighted average</methodID><stationCount>3</stationCount></magnitude></origin><event publicID="gempa2025hiur"><preferredOriginID>de.gempa.tb1.Origin/20250414071354.072322.131308</preferredOriginID><preferredMagnitudeID>de.gempa.tb1.Magnitude/20250414071400.937543.444737</preferredMagnitudeID><description><text>Near Coast of Northern Chile</text><type>region name</type></description><originReference>de.gempa.tb1.Origin/20250414071354.072322.131308</originReference></event></EventParameters></seiscomp>