<?xml version="1.0" encoding="UTF-8"?>
<seiscomp xmlns="http://geofon.gfz-potsdam.de/ns/seiscomp3-schema/0.13" version="0.13"><EventParameters><pick publicID="de.gempa.tb1.Pick/20250413075457.501738.129960"><time><value>2025-04-13T07:54:49.648393Z</value></time><waveformID networkCode="CX" stationCode="PB01" channelCode="HHZ"/><filterID>ITAPER(4)&gt;&gt;BW(4,4,20)</filterID><methodID>AIC</methodID><horizontalSlowness><value>18.194078026080625</value></horizontalSlowness><backazimuth><value>294.49944129940036</value></backazimuth><phaseHint>P</phaseHint><evaluationMode>automatic</evaluationMode><comment><text>13.278715890369332</text><id>DFX:rectilinearity</id></comment><comment><text>19.8108462840088</text><id>SNR</id></comment></pick><pick publicID="de.gempa.tb1.Pick/20250413075459.492452.129962"><time><value>2025-04-13T07:54:53.528393Z</value></time><waveformID networkCode="CX" stationCode="PB02" channelCode="HHZ"/><filterID>ITAPER(4)&gt;&gt;BW(4,4,20)</filterID><methodID>AIC</methodID><horizontalSlowness><value>20.916163238035303</value></horizontalSlowness><backazimuth><value>102.89039225794042</value></backazimuth><phaseHint>P</phaseHint><evaluationMode>automatic</evaluationMode><comment><text>24.24568823392607</text><id>DFX:rectilinearity</id></comment><comment><text>8.508592658172834</text><id>SNR</id></comment></pick><pick publicID="de.gempa.tb1.Pick/20250413075511.580026.129964"><time><value>2025-04-13T07:55:03.248393Z</value></time><waveformID networkCode="CX" stationCode="PB01" channelCode="HHN"/><filterID>ITAPER(2)&gt;&gt;BW(3,3,20)</filterID><methodID>L2-AIC-GRID</methodID><horizontalSlowness><value>22.053020445892187</value></horizontalSlowness><backazimuth><value>271.2184734006957</value></backazimuth><phaseHint>S</phaseHint><evaluationMode>automatic</evaluationMode><comment><text>64.81186402970445</text><id>DFX:rectilinearity</id></comment><comment><text>de.gempa.tb1.Pick/20250413075457.501738.129960</text><id>RefPickID</id></comment><comment><text>11.68245385670079</text><id>SNR</id></comment></pick><pick publicID="de.gempa.tb1.Pick/20250413075511.902494.129965"><time><value>2025-04-13T07:54:54.788393Z</value></time><waveformID networkCode="CX" stationCode="PB07" channelCode="HHZ"/><filterID>ITAPER(4)&gt;&gt;BW(4,4,20)</filterID><methodID>AIC</methodID><horizontalSlowness><value>22.381422876326958</value></horizontalSlowness><backazimuth><value>356.60677853340525</value></backazimuth><phaseHint>P</phaseHint><evaluationMode>automatic</evaluationMode><comment><text>212.84676333734535</text><id>DFX:rectilinearity</id></comment><comment><text>6.45615646799098</text><id>SNR</id></comment></pick><pick publicID="de.gempa.tb1.Pick/20250413075513.030698.129967"><time><value>2025-04-13T07:54:51.22Z</value></time><waveformID networkCode="CX" stationCode="PB09" channelCode="HHZ"/><filterID>ITAPER(4)&gt;&gt;BW(4,4,20)</filterID><methodID>AIC</methodID><horizontalSlowness><value>14.436146092155521</value></horizontalSlowness><backazimuth><value>292.0490583179508</value></backazimuth><phaseHint>P</phaseHint><evaluationMode>automatic</evaluationMode><comment><text>16.98560622840107</text><id>DFX:rectilinearity</id></comment><comment><text>9.981982807546181</text><id>SNR</id></comment></pick><pick publicID="de.gempa.tb1.Pick/20250413075519.681632.129969"><time><value>2025-04-13T07:55:09.628393Z</value></time><waveformID networkCode="CX" stationCode="PB02" channelCode="HHN"/><filterID>ITAPER(2)&gt;&gt;BW(3,3,20)</filterID><methodID>L2-AIC-GRID</methodID><horizontalSlowness><value>22.773328267445386</value></horizontalSlowness><backazimuth><value>97.99614278953788</value></backazimuth><phaseHint>S</phaseHint><evaluationMode>automatic</evaluationMode><comment><text>88.91167158262073</text><id>DFX:rectilinearity</id></comment><comment><text>de.gempa.tb1.Pick/20250413075459.492452.129962</text><id>RefPickID</id></comment><comment><text>9.07849515880209</text><id>SNR</id></comment></pick><pick publicID="de.gempa.tb1.Pick/20250413075520.367708.129970"><time><value>2025-04-13T07:55:11.658393Z</value></time><waveformID networkCode="CX" stationCode="PB07" channelCode="HHN"/><filterID>ITAPER(2)&gt;&gt;BW(3,3,20)</filterID><methodID>L2-AIC-GRID</methodID><horizontalSlowness><value>20.01857277555116</value></horizontalSlowness><backazimuth><value>280.4052498458152</value></backazimuth><phaseHint>S</phaseHint><evaluationMode>automatic</evaluationMode><comment><text>225.33011526869873</text><id>DFX:rectilinearity</id></comment><comment><text>de.gempa.tb1.Pick/20250413075511.902494.129965</text><id>RefPickID</id></comment><comment><text>11.41238865170174</text><id>SNR</id></comment></pick><origin publicID="de.gempa.tb1.Origin/20250413075522.986412.105223"><time><value>2025-04-13T07:54:32.65948Z</value><uncertainty>1.4661306142807007</uncertainty></time><latitude><value>-21.157480239868164</value><uncertainty>10.81533432006836</uncertainty></latitude><longitude><value>-68.87316131591797</value><uncertainty>12.660143852233887</uncertainty></longitude><depth><value>108.09827423095703</value><uncertainty>14.993962287902832</uncertainty></depth><depthType>from location</depthType><methodID>LOCSAT</methodID><earthModelID>iasp91_scanloc</earthModelID><quality><associatedPhaseCount>7</associatedPhaseCount><usedPhaseCount>7</usedPhaseCount><associatedStationCount>4</associatedStationCount><usedStationCount>4</usedStationCount><depthPhaseCount>0</depthPhaseCount><standardError>0.18287805554046752</standardError><azimuthalGap>287.21156311035156</azimuthalGap><maximumDistance>1.1006524562835693</maximumDistance><minimumDistance>0.5847048163414001</minimumDistance><medianDistance>0.9677873253822327</medianDistance></quality><uncertainty><minHorizontalUncertainty>19.79610824584961</minHorizontalUncertainty><maxHorizontalUncertainty>29.7177619934082</maxHorizontalUncertainty><azimuthMaxHorizontalUncertainty>123.04132843017578</azimuthMaxHorizontalUncertainty><preferredDescription>horizontal uncertainty</preferredDescription></uncertainty><evaluationMode>automatic</evaluationMode><evaluationStatus>confirmed</evaluationStatus><comment><text>0.01</text><id>mismatchScore</id></comment><comment><text>mismatchScore</text><id>scevalMethod</id></comment><arrival><pickID>de.gempa.tb1.Pick/20250413075457.501738.129960</pickID><phase>P</phase><azimuth>281.1011657714844</azimuth><distance>0.5847048163414001</distance><timeResidual>-0.28180694580078125</timeResidual><timeUsed>true</timeUsed><horizontalSlownessUsed>false</horizontalSlownessUsed><backazimuthUsed>false</backazimuthUsed><weight>1</weight></arrival><arrival><pickID>de.gempa.tb1.Pick/20250413075459.492452.129962</pickID><phase>P</phase><azimuth>260.2130432128906</azimuth><distance>0.9677873253822327</distance><timeResidual>0.12996864318847656</timeResidual><timeUsed>true</timeUsed><horizontalSlownessUsed>false</horizontalSlownessUsed><backazimuthUsed>false</backazimuthUsed><weight>1</weight></arrival><arrival><pickID>de.gempa.tb1.Pick/20250413075511.580026.129964</pickID><phase>S</phase><azimuth>281.1011657714844</azimuth><distance>0.5847048163414001</distance><timeResidual>0.02243804931640625</timeResidual><timeUsed>true</timeUsed><horizontalSlownessUsed>false</horizontalSlownessUsed><backazimuthUsed>false</backazimuthUsed><weight>1</weight></arrival><arrival><pickID>de.gempa.tb1.Pick/20250413075511.902494.129965</pickID><phase>P</phase><azimuth>238.84657287597656</azimuth><distance>1.1006524562835693</distance><timeResidual>-0.010175704956054688</timeResidual><timeUsed>true</timeUsed><horizontalSlownessUsed>false</horizontalSlownessUsed><backazimuthUsed>false</backazimuthUsed><weight>1</weight></arrival><arrival><pickID>de.gempa.tb1.Pick/20250413075513.030698.129967</pickID><phase>P</phase><azimuth>208.31272888183594</azimuth><distance>0.7226020097732544</distance><timeResidual>0.1644115447998047</timeResidual><timeUsed>true</timeUsed><horizontalSlownessUsed>false</horizontalSlownessUsed><backazimuthUsed>false</backazimuthUsed><weight>1</weight></arrival><arrival><pickID>de.gempa.tb1.Pick/20250413075519.681632.129969</pickID><phase>S</phase><azimuth>260.2130432128906</azimuth><distance>0.9677873253822327</distance><timeResidual>0.2219867706298828</timeResidual><timeUsed>true</timeUsed><horizontalSlownessUsed>false</horizontalSlownessUsed><backazimuthUsed>false</backazimuthUsed><weight>1</weight></arrival><arrival><pickID>de.gempa.tb1.Pick/20250413075520.367708.129970</pickID><phase>S</phase><azimuth>238.84657287597656</azimuth><distance>1.1006524562835693</distance><timeResidual>-0.2467536926269531</timeResidual><timeUsed>true</timeUsed><horizontalSlownessUsed>false</horizontalSlownessUsed><backazimuthUsed>false</backazimuthUsed><weight>1</weight></arrival><magnitude publicID="de.gempa.tb1.Magnitude/20250413075602.483537.330033"><magnitude><value>2.3242597535010527</value></magnitude><type>M</type><methodID>weighted average</methodID><stationCount>1</stationCount></magnitude></origin><event publicID="gempa2025hhab"><preferredOriginID>de.gempa.tb1.Origin/20250413075522.986412.105223</preferredOriginID><preferredMagnitudeID>de.gempa.tb1.Magnitude/20250413075602.483537.330033</preferredMagnitudeID><description><text>Chile-Bolivia Border Region</text><type>region name</type></description><originReference>de.gempa.tb1.Origin/20250413075522.986412.105223</originReference></event></EventParameters></seiscomp>