<?xml version="1.0" encoding="UTF-8"?>
<seiscomp xmlns="http://geofon.gfz-potsdam.de/ns/seiscomp3-schema/0.13" version="0.13"><EventParameters><pick publicID="de.gempa.tb1.Pick/20250411151646.714089.118395"><time><value>2025-04-11T15:16:40.388393Z</value></time><waveformID networkCode="CX" stationCode="PB01" channelCode="HHZ"/><filterID>ITAPER(4)&gt;&gt;BW(4,4,20)</filterID><methodID>AIC</methodID><horizontalSlowness><value>22.35369657213333</value></horizontalSlowness><backazimuth><value>173.96448128049863</value></backazimuth><phaseHint>P</phaseHint><evaluationMode>automatic</evaluationMode><comment><text>12.780308169594543</text><id>DFX:rectilinearity</id></comment><comment><text>19.507551930006237</text><id>SNR</id></comment></pick><pick publicID="de.gempa.tb1.Pick/20250411151653.488708.118397"><time><value>2025-04-11T15:16:45.098393Z</value></time><waveformID networkCode="CX" stationCode="PB02" channelCode="HHZ"/><filterID>ITAPER(4)&gt;&gt;BW(4,4,20)</filterID><methodID>AIC</methodID><horizontalSlowness><value>6.490271431770821</value></horizontalSlowness><backazimuth><value>317.083650954444</value></backazimuth><phaseHint>P</phaseHint><evaluationMode>automatic</evaluationMode><comment><text>43.91308958880697</text><id>DFX:rectilinearity</id></comment><comment><text>16.412736706561258</text><id>SNR</id></comment></pick><pick publicID="de.gempa.tb1.Pick/20250411151657.598141.118399"><time><value>2025-04-11T15:16:49.118393Z</value></time><waveformID networkCode="CX" stationCode="PB03" channelCode="HHZ"/><filterID>ITAPER(4)&gt;&gt;BW(4,4,20)</filterID><methodID>AIC</methodID><horizontalSlowness><value>3.595567770430154</value></horizontalSlowness><backazimuth><value>111.32861024286302</value></backazimuth><phaseHint>P</phaseHint><evaluationMode>automatic</evaluationMode><comment><text>7.818387926249187</text><id>DFX:rectilinearity</id></comment><comment><text>8.836893260534834</text><id>SNR</id></comment></pick><pick publicID="de.gempa.tb1.Pick/20250411151659.209673.118401"><time><value>2025-04-11T15:16:44.580001Z</value></time><waveformID networkCode="CX" stationCode="PB09" channelCode="HHZ"/><filterID>ITAPER(4)&gt;&gt;BW(4,4,20)</filterID><methodID>AIC</methodID><horizontalSlowness><value>19.990144208284196</value></horizontalSlowness><backazimuth><value>294.6259859250438</value></backazimuth><phaseHint>P</phaseHint><evaluationMode>automatic</evaluationMode><comment><text>10.954323397194932</text><id>DFX:rectilinearity</id></comment><comment><text>10.762633020417054</text><id>SNR</id></comment></pick><pick publicID="de.gempa.tb1.Pick/20250411151701.595631.118403"><time><value>2025-04-11T15:16:53.598393Z</value></time><waveformID networkCode="CX" stationCode="PB01" channelCode="HHN"/><filterID>ITAPER(2)&gt;&gt;BW(3,3,20)</filterID><methodID>L2-AIC-GRID</methodID><horizontalSlowness><value>19.12733133387212</value></horizontalSlowness><backazimuth><value>12.477582274623614</value></backazimuth><phaseHint>S</phaseHint><evaluationMode>automatic</evaluationMode><comment><text>56.95705603451074</text><id>DFX:rectilinearity</id></comment><comment><text>de.gempa.tb1.Pick/20250411151646.714089.118395</text><id>RefPickID</id></comment><comment><text>10.508594641581992</text><id>SNR</id></comment></pick><pick publicID="de.gempa.tb1.Pick/20250411151709.769567.118404"><time><value>2025-04-11T15:16:47.168393Z</value></time><waveformID networkCode="CX" stationCode="PB07" channelCode="HHZ"/><filterID>ITAPER(4)&gt;&gt;BW(4,4,20)</filterID><methodID>AIC</methodID><horizontalSlowness><value>23.099421950832433</value></horizontalSlowness><backazimuth><value>293.4698513499254</value></backazimuth><phaseHint>P</phaseHint><evaluationMode>automatic</evaluationMode><comment><text>220.57911626688005</text><id>DFX:rectilinearity</id></comment><comment><text>13.206778385367768</text><id>SNR</id></comment></pick><pick publicID="de.gempa.tb1.Pick/20250411151711.625253.118406"><time><value>2025-04-11T15:17:02.038393Z</value></time><waveformID networkCode="CX" stationCode="PB02" channelCode="HHN"/><filterID>ITAPER(2)&gt;&gt;BW(3,3,20)</filterID><methodID>L2-AIC-GRID</methodID><horizontalSlowness><value>11.494946877933605</value></horizontalSlowness><backazimuth><value>37.770998937015833</value></backazimuth><phaseHint>S</phaseHint><evaluationMode>automatic</evaluationMode><comment><text>235.08591548843617</text><id>DFX:rectilinearity</id></comment><comment><text>de.gempa.tb1.Pick/20250411151653.488708.118397</text><id>RefPickID</id></comment><comment><text>8.79896501140275</text><id>SNR</id></comment></pick><pick publicID="de.gempa.tb1.Pick/20250411151715.202793.118407"><time><value>2025-04-11T15:17:07.67Z</value></time><waveformID networkCode="CX" stationCode="PB10" channelCode="HHZ"/><filterID>ITAPER(4)&gt;&gt;BW(4,4,20)</filterID><methodID>AIC</methodID><horizontalSlowness><value>22.97963411246848</value></horizontalSlowness><backazimuth><value>308.37228339653353</value></backazimuth><phaseHint>P</phaseHint><evaluationMode>automatic</evaluationMode><comment><text>163.52415934306134</text><id>DFX:rectilinearity</id></comment><comment><text>9.647135760736798</text><id>SNR</id></comment></pick><pick publicID="de.gempa.tb1.Pick/20250411151715.541044.118409"><time><value>2025-04-11T15:17:05.778393Z</value></time><waveformID networkCode="CX" stationCode="PB07" channelCode="HHN"/><filterID>ITAPER(2)&gt;&gt;BW(3,3,20)</filterID><methodID>L2-AIC-GRID</methodID><horizontalSlowness><value>22.012857425750727</value></horizontalSlowness><backazimuth><value>308.7637677855795</value></backazimuth><phaseHint>S</phaseHint><evaluationMode>automatic</evaluationMode><comment><text>338.3050450878582</text><id>DFX:rectilinearity</id></comment><comment><text>de.gempa.tb1.Pick/20250411151709.769567.118404</text><id>RefPickID</id></comment><comment><text>5.256029551594381</text><id>SNR</id></comment></pick><origin publicID="de.gempa.tb1.Origin/20250411151715.544553.59035"><time><value>2025-04-11T15:16:22.507829Z</value><uncertainty>1.3317373991012573</uncertainty></time><latitude><value>-20.88370704650879</value><uncertainty>12.43336296081543</uncertainty></latitude><longitude><value>-68.90508270263672</value><uncertainty>14.247693061828613</uncertainty></longitude><depth><value>116.93209075927734</value><uncertainty>11.990601539611816</uncertainty></depth><depthType>from location</depthType><methodID>LOCSAT</methodID><earthModelID>iasp91_scanloc</earthModelID><quality><associatedPhaseCount>9</associatedPhaseCount><usedPhaseCount>9</usedPhaseCount><associatedStationCount>6</associatedStationCount><usedStationCount>6</usedStationCount><depthPhaseCount>0</depthPhaseCount><standardError>0.6899298189010142</standardError><azimuthalGap>305.3761291503906</azimuthalGap><maximumDistance>3.030527353286743</maximumDistance><minimumDistance>0.5669078826904297</minimumDistance><medianDistance>1.0219547748565674</medianDistance></quality><uncertainty><minHorizontalUncertainty>20.64171600341797</minHorizontalUncertainty><maxHorizontalUncertainty>34.910369873046875</maxHorizontalUncertainty><azimuthMaxHorizontalUncertainty>126.84262084960938</azimuthMaxHorizontalUncertainty><preferredDescription>horizontal uncertainty</preferredDescription></uncertainty><evaluationMode>automatic</evaluationMode><evaluationStatus>confirmed</evaluationStatus><comment><text>0.48</text><id>mismatchScore</id></comment><comment><text>mismatchScore</text><id>scevalMethod</id></comment><arrival><pickID>de.gempa.tb1.Pick/20250411151646.714089.118395</pickID><phase>P</phase><azimuth>253.6372375488281</azimuth><distance>0.5669078826904297</distance><timeResidual>-0.19817543029785156</timeResidual><timeUsed>true</timeUsed><horizontalSlownessUsed>false</horizontalSlownessUsed><backazimuthUsed>false</backazimuthUsed><weight>1</weight></arrival><arrival><pickID>de.gempa.tb1.Pick/20250411151653.488708.118397</pickID><phase>P</phase><azimuth>244.70216369628906</azimuth><distance>1.0219547748565674</distance><timeResidual>0.5609798431396484</timeResidual><timeUsed>true</timeUsed><horizontalSlownessUsed>false</horizontalSlownessUsed><backazimuthUsed>false</backazimuthUsed><weight>1</weight></arrival><arrival><pickID>de.gempa.tb1.Pick/20250411151657.598141.118399</pickID><phase>P</phase><azimuth>214.12158203125</azimuth><distance>1.4025945663452148</distance><timeResidual>0.4686660766601562</timeResidual><timeUsed>true</timeUsed><horizontalSlownessUsed>false</horizontalSlownessUsed><backazimuthUsed>false</backazimuthUsed><weight>1</weight></arrival><arrival><pickID>de.gempa.tb1.Pick/20250411151659.209673.118401</pickID><phase>P</phase><azimuth>199.01336669921875</azimuth><distance>0.9609233140945435</distance><timeResidual>0.6501579284667969</timeResidual><timeUsed>true</timeUsed><horizontalSlownessUsed>false</horizontalSlownessUsed><backazimuthUsed>false</backazimuthUsed><weight>1</weight></arrival><arrival><pickID>de.gempa.tb1.Pick/20250411151701.595631.118403</pickID><phase>S</phase><azimuth>253.6372375488281</azimuth><distance>0.5669078826904297</distance><timeResidual>-0.9258403778076172</timeResidual><timeUsed>true</timeUsed><horizontalSlownessUsed>false</horizontalSlownessUsed><backazimuthUsed>false</backazimuthUsed><weight>1</weight></arrival><arrival><pickID>de.gempa.tb1.Pick/20250411151709.769567.118404</pickID><phase>P</phase><azimuth>227.3070526123047</azimuth><distance>1.241171956062317</distance><timeResidual>0.3245868682861328</timeResidual><timeUsed>true</timeUsed><horizontalSlownessUsed>false</horizontalSlownessUsed><backazimuthUsed>false</backazimuthUsed><weight>1</weight></arrival><arrival><pickID>de.gempa.tb1.Pick/20250411151711.625253.118406</pickID><phase>S</phase><azimuth>244.70216369628906</azimuth><distance>1.0219547748565674</distance><timeResidual>0.4719047546386719</timeResidual><timeUsed>true</timeUsed><horizontalSlownessUsed>false</horizontalSlownessUsed><backazimuthUsed>false</backazimuthUsed><weight>1</weight></arrival><arrival><pickID>de.gempa.tb1.Pick/20250411151715.202793.118407</pickID><phase>P</phase><azimuth>209.97630310058594</azimuth><distance>3.030527353286743</distance><timeResidual>-1.4469032287597656</timeResidual><timeUsed>true</timeUsed><horizontalSlownessUsed>false</horizontalSlownessUsed><backazimuthUsed>false</backazimuthUsed><weight>1</weight></arrival><arrival><pickID>de.gempa.tb1.Pick/20250411151715.541044.118409</pickID><phase>S</phase><azimuth>227.3070526123047</azimuth><distance>1.241171956062317</distance><timeResidual>0.09456825256347656</timeResidual><timeUsed>true</timeUsed><horizontalSlownessUsed>false</horizontalSlownessUsed><backazimuthUsed>false</backazimuthUsed><weight>1</weight></arrival><magnitude publicID="de.gempa.tb1.Magnitude/20250411151739.619735.113109"><magnitude><value>2.4045907958301656</value></magnitude><type>M</type><methodID>weighted average</methodID><stationCount>2</stationCount></magnitude></origin><event publicID="gempa2025hdwt"><preferredOriginID>de.gempa.tb1.Origin/20250411151715.544553.59035</preferredOriginID><preferredMagnitudeID>de.gempa.tb1.Magnitude/20250411151739.619735.113109</preferredMagnitudeID><description><text>Chile-Bolivia Border Region</text><type>region name</type></description><originReference>de.gempa.tb1.Origin/20250411151715.544553.59035</originReference></event></EventParameters></seiscomp>