<?xml version="1.0" encoding="UTF-8"?>
<seiscomp xmlns="http://geofon.gfz-potsdam.de/ns/seiscomp3-schema/0.13" version="0.13"><EventParameters><pick publicID="de.gempa.tb1.Pick/20250412042527.538761.121954"><time><value>2025-04-12T04:25:23.538391Z</value></time><waveformID networkCode="CX" stationCode="PB01" channelCode="HHZ"/><filterID>ITAPER(4)&gt;&gt;BW(4,4,20)</filterID><methodID>AIC</methodID><horizontalSlowness><value>12.989879354211775</value></horizontalSlowness><backazimuth><value>357.39932753183916</value></backazimuth><phaseHint>P</phaseHint><evaluationMode>automatic</evaluationMode><comment><text>40.745771231466264</text><id>DFX:rectilinearity</id></comment><comment><text>14.74923658519367</text><id>SNR</id></comment></pick><pick publicID="de.gempa.tb1.Pick/20250412042528.829201.121956"><time><value>2025-04-12T04:25:22.758393Z</value></time><waveformID networkCode="CX" stationCode="PB08" channelCode="HHZ"/><filterID>ITAPER(4)&gt;&gt;BW(4,4,20)</filterID><methodID>AIC</methodID><horizontalSlowness><value>14.469200384853425</value></horizontalSlowness><backazimuth><value>90.98484655060182</value></backazimuth><phaseHint>P</phaseHint><evaluationMode>automatic</evaluationMode><comment><text>11.052064611677144</text><id>DFX:rectilinearity</id></comment><comment><text>7.782718332175338</text><id>SNR</id></comment></pick><pick publicID="de.gempa.tb1.Pick/20250412042537.684794.121958"><time><value>2025-04-12T04:25:31.480001Z</value></time><waveformID networkCode="CX" stationCode="PSGCX" channelCode="HHZ"/><filterID>ITAPER(4)&gt;&gt;BW(4,4,20)</filterID><methodID>AIC</methodID><horizontalSlowness><value>7.583209082559582</value></horizontalSlowness><backazimuth><value>107.89496913348633</value></backazimuth><phaseHint>P</phaseHint><evaluationMode>automatic</evaluationMode><comment><text>31.851455009780807</text><id>DFX:rectilinearity</id></comment><comment><text>10.198309749589754</text><id>SNR</id></comment></pick><pick publicID="de.gempa.tb1.Pick/20250412042544.183133.121964"><time><value>2025-04-12T04:25:34.738393Z</value></time><waveformID networkCode="CX" stationCode="PB08" channelCode="HHN"/><filterID>ITAPER(2)&gt;&gt;BW(3,3,20)</filterID><methodID>L2-AIC-GRID</methodID><horizontalSlowness><value>10.301245115424614</value></horizontalSlowness><backazimuth><value>117.55309582759774</value></backazimuth><phaseHint>S</phaseHint><evaluationMode>automatic</evaluationMode><comment><text>15.201098687153028</text><id>DFX:rectilinearity</id></comment><comment><text>de.gempa.tb1.Pick/20250412042528.829201.121956</text><id>RefPickID</id></comment><comment><text>8.304016912172516</text><id>SNR</id></comment></pick><pick publicID="de.gempa.tb1.Pick/20250412042550.709474.121965"><time><value>2025-04-12T04:25:36.228391Z</value></time><waveformID networkCode="CX" stationCode="PB01" channelCode="HHN"/><filterID>ITAPER(2)&gt;&gt;BW(3,3,20)</filterID><methodID>L2-AIC-GRID</methodID><horizontalSlowness><value>19.44391682612076</value></horizontalSlowness><backazimuth><value>158.60040870461503</value></backazimuth><phaseHint>S</phaseHint><evaluationMode>automatic</evaluationMode><comment><text>121.7580400972254</text><id>DFX:rectilinearity</id></comment><comment><text>de.gempa.tb1.Pick/20250412042527.538761.121954</text><id>RefPickID</id></comment><comment><text>11.052276043242038</text><id>SNR</id></comment></pick><pick publicID="de.gempa.tb1.Pick/20250412042559.684731.121966"><time><value>2025-04-12T04:25:50.160001Z</value></time><waveformID networkCode="CX" stationCode="PSGCX" channelCode="HHN"/><filterID>ITAPER(2)&gt;&gt;BW(3,3,20)</filterID><methodID>L2-AIC-GRID</methodID><horizontalSlowness><value>22.352264171128468</value></horizontalSlowness><backazimuth><value>126.61523321304236</value></backazimuth><phaseHint>S</phaseHint><evaluationMode>automatic</evaluationMode><comment><text>14.968573285615248</text><id>DFX:rectilinearity</id></comment><comment><text>de.gempa.tb1.Pick/20250412042537.684794.121958</text><id>RefPickID</id></comment><comment><text>9.334961346849523</text><id>SNR</id></comment></pick><origin publicID="de.gempa.tb1.Origin/20250412042559.68891.74349"><time><value>2025-04-12T04:25:07.181487Z</value><uncertainty>1.5039142370224</uncertainty></time><latitude><value>-20.575523376464844</value><uncertainty>4.795810222625732</uncertainty></latitude><longitude><value>-69.1715087890625</value><uncertainty>9.204176902770996</uncertainty></longitude><depth><value>102.32476043701172</value><uncertainty>9.151248931884766</uncertainty></depth><depthType>from location</depthType><methodID>LOCSAT</methodID><earthModelID>iasp91_scanloc</earthModelID><quality><associatedPhaseCount>6</associatedPhaseCount><usedPhaseCount>6</usedPhaseCount><associatedStationCount>3</associatedStationCount><usedStationCount>3</usedStationCount><depthPhaseCount>0</depthPhaseCount><standardError>0.03289277165766788</standardError><azimuthalGap>210.1073293685913</azimuthalGap><maximumDistance>1.3218337297439575</maximumDistance><minimumDistance>0.4325263500213623</minimumDistance><medianDistance>0.5512683391571045</medianDistance></quality><uncertainty><minHorizontalUncertainty>10.22723388671875</minHorizontalUncertainty><maxHorizontalUncertainty>19.769004821777344</maxHorizontalUncertainty><azimuthMaxHorizontalUncertainty>86.31199645996094</azimuthMaxHorizontalUncertainty><preferredDescription>horizontal uncertainty</preferredDescription></uncertainty><evaluationMode>automatic</evaluationMode><evaluationStatus>confirmed</evaluationStatus><comment><text>0.10</text><id>mismatchScore</id></comment><comment><text>mismatchScore</text><id>scevalMethod</id></comment><arrival><pickID>de.gempa.tb1.Pick/20250412042527.538761.121954</pickID><phase>P</phase><azimuth>212.36227416992188</azimuth><distance>0.5512683391571045</distance><timeResidual>-0.04754543304443359</timeResidual><timeUsed>true</timeUsed><horizontalSlownessUsed>false</horizontalSlownessUsed><backazimuthUsed>false</backazimuthUsed><weight>1</weight></arrival><arrival><pickID>de.gempa.tb1.Pick/20250412042528.829201.121956</pickID><phase>P</phase><azimuth>2.2549448013305664</azimuth><distance>0.4325263500213623</distance><timeResidual>-0.0041656494140625</timeResidual><timeUsed>true</timeUsed><horizontalSlownessUsed>false</horizontalSlownessUsed><backazimuthUsed>false</backazimuthUsed><weight>1</weight></arrival><arrival><pickID>de.gempa.tb1.Pick/20250412042537.684794.121958</pickID><phase>P</phase><azimuth>317.2576904296875</azimuth><distance>1.3218337297439575</distance><timeResidual>0.05162334442138672</timeResidual><timeUsed>true</timeUsed><horizontalSlownessUsed>false</horizontalSlownessUsed><backazimuthUsed>false</backazimuthUsed><weight>1</weight></arrival><arrival><pickID>de.gempa.tb1.Pick/20250412042544.183133.121964</pickID><phase>S</phase><azimuth>2.2549448013305664</azimuth><distance>0.4325263500213623</distance><timeResidual>0.0022525787353515625</timeResidual><timeUsed>true</timeUsed><horizontalSlownessUsed>false</horizontalSlownessUsed><backazimuthUsed>false</backazimuthUsed><weight>1</weight></arrival><arrival><pickID>de.gempa.tb1.Pick/20250412042550.709474.121965</pickID><phase>S</phase><azimuth>212.36227416992188</azimuth><distance>0.5512683391571045</distance><timeResidual>0.02663898468017578</timeResidual><timeUsed>true</timeUsed><horizontalSlownessUsed>false</horizontalSlownessUsed><backazimuthUsed>false</backazimuthUsed><weight>1</weight></arrival><arrival><pickID>de.gempa.tb1.Pick/20250412042559.684731.121966</pickID><phase>S</phase><azimuth>317.2576904296875</azimuth><distance>1.3218337297439575</distance><timeResidual>-0.028879165649414059</timeResidual><timeUsed>true</timeUsed><horizontalSlownessUsed>false</horizontalSlownessUsed><backazimuthUsed>false</backazimuthUsed><weight>1</weight></arrival></origin><event publicID="gempa2025hexb"><preferredOriginID>de.gempa.tb1.Origin/20250412042559.68891.74349</preferredOriginID><description><text>Northern Chile</text><type>region name</type></description><originReference>de.gempa.tb1.Origin/20250412042559.68891.74349</originReference></event></EventParameters></seiscomp>