<?xml version="1.0" encoding="UTF-8"?>
<seiscomp xmlns="http://geofon.gfz-potsdam.de/ns/seiscomp3-schema/0.13" version="0.13"><EventParameters><pick publicID="de.gempa.tb1.Pick/20250414015906.784344.134919"><time><value>2025-04-14T01:59:01.878393Z</value></time><waveformID networkCode="CX" stationCode="PB03" channelCode="HHZ"/><filterID>ITAPER(4)&gt;&gt;BW(4,4,20)</filterID><methodID>AIC</methodID><horizontalSlowness><value>18.633767579456475</value></horizontalSlowness><backazimuth><value>229.4097639335919</value></backazimuth><phaseHint>P</phaseHint><evaluationMode>automatic</evaluationMode><comment><text>10.298888792200016</text><id>DFX:rectilinearity</id></comment><comment><text>19.06297755962407</text><id>SNR</id></comment></pick><pick publicID="de.gempa.tb1.Pick/20250414015916.466723.134921"><time><value>2025-04-14T01:59:08.118393Z</value></time><waveformID networkCode="CX" stationCode="PB02" channelCode="HHZ"/><filterID>ITAPER(4)&gt;&gt;BW(4,4,20)</filterID><methodID>AIC</methodID><horizontalSlowness><value>22.97168279235604</value></horizontalSlowness><backazimuth><value>67.71940306436835</value></backazimuth><phaseHint>P</phaseHint><evaluationMode>automatic</evaluationMode><comment><text>50.39698669428886</text><id>DFX:rectilinearity</id></comment><comment><text>6.206354072903584</text><id>SNR</id></comment></pick><pick publicID="de.gempa.tb1.Pick/20250414015921.172207.134923"><time><value>2025-04-14T01:59:02.070001Z</value></time><waveformID networkCode="CX" stationCode="PB09" channelCode="HHZ"/><filterID>ITAPER(4)&gt;&gt;BW(4,4,20)</filterID><methodID>AIC</methodID><horizontalSlowness><value>13.285015096849955</value></horizontalSlowness><backazimuth><value>293.7318701653468</value></backazimuth><phaseHint>P</phaseHint><evaluationMode>automatic</evaluationMode><comment><text>15.397757867166993</text><id>DFX:rectilinearity</id></comment><comment><text>14.900834956684786</text><id>SNR</id></comment></pick><pick publicID="de.gempa.tb1.Pick/20250414015922.777311.134925"><time><value>2025-04-14T01:59:12.108393Z</value></time><waveformID networkCode="CX" stationCode="PB03" channelCode="HHN"/><filterID>ITAPER(2)&gt;&gt;BW(3,3,20)</filterID><methodID>L2-AIC-GRID</methodID><horizontalSlowness><value>18.80828054752567</value></horizontalSlowness><backazimuth><value>166.90348159334997</value></backazimuth><phaseHint>S</phaseHint><evaluationMode>automatic</evaluationMode><comment><text>8.951653763157859</text><id>DFX:rectilinearity</id></comment><comment><text>de.gempa.tb1.Pick/20250414015906.784344.134919</text><id>RefPickID</id></comment><comment><text>7.459791101027476</text><id>SNR</id></comment></pick><pick publicID="de.gempa.tb1.Pick/20250414015929.189972.134926"><time><value>2025-04-14T01:59:04.338394Z</value></time><waveformID networkCode="CX" stationCode="PB07" channelCode="HHZ"/><filterID>ITAPER(4)&gt;&gt;BW(4,4,20)</filterID><methodID>AIC</methodID><horizontalSlowness><value>23.25980725414671</value></horizontalSlowness><backazimuth><value>280.1872702547663</value></backazimuth><phaseHint>P</phaseHint><evaluationMode>automatic</evaluationMode><comment><text>295.656876370737</text><id>DFX:rectilinearity</id></comment><comment><text>27.23288872850907</text><id>SNR</id></comment></pick><pick publicID="de.gempa.tb1.Pick/20250414015931.517686.134930"><time><value>2025-04-14T01:59:23.048393Z</value></time><waveformID networkCode="CX" stationCode="PB02" channelCode="HHN"/><filterID>ITAPER(2)&gt;&gt;BW(3,3,20)</filterID><methodID>L2-AIC-GRID</methodID><horizontalSlowness><value>17.25314381164707</value></horizontalSlowness><backazimuth><value>252.9824086722266</value></backazimuth><phaseHint>S</phaseHint><evaluationMode>automatic</evaluationMode><comment><text>44.95998176643478</text><id>DFX:rectilinearity</id></comment><comment><text>de.gempa.tb1.Pick/20250414015916.466723.134921</text><id>RefPickID</id></comment><comment><text>9.299053758168494</text><id>SNR</id></comment></pick><pick publicID="de.gempa.tb1.Pick/20250414015937.602964.134932"><time><value>2025-04-14T01:59:16.368394Z</value></time><waveformID networkCode="CX" stationCode="PB07" channelCode="HHN"/><filterID>ITAPER(2)&gt;&gt;BW(3,3,20)</filterID><methodID>L2-AIC-GRID</methodID><horizontalSlowness><value>21.435481649948457</value></horizontalSlowness><backazimuth><value>89.60688592294787</value></backazimuth><phaseHint>S</phaseHint><evaluationMode>automatic</evaluationMode><comment><text>250.98659316127794</text><id>DFX:rectilinearity</id></comment><comment><text>de.gempa.tb1.Pick/20250414015929.189972.134926</text><id>RefPickID</id></comment><comment><text>6.709665254230324</text><id>SNR</id></comment></pick><origin publicID="de.gempa.tb1.Origin/20250414015937.605791.123522"><time><value>2025-04-14T01:58:48.608116Z</value><uncertainty>1.48371160030365</uncertainty></time><latitude><value>-22.208585739135742</value><uncertainty>9.73550033569336</uncertainty></latitude><longitude><value>-69.36181640625</value><uncertainty>12.390995979309082</uncertainty></longitude><depth><value>83.29432678222656</value><uncertainty>12.188151359558105</uncertainty></depth><depthType>from location</depthType><methodID>LOCSAT</methodID><earthModelID>iasp91_scanloc</earthModelID><quality><associatedPhaseCount>7</associatedPhaseCount><usedPhaseCount>7</usedPhaseCount><associatedStationCount>4</associatedStationCount><usedStationCount>4</usedStationCount><depthPhaseCount>0</depthPhaseCount><standardError>0.06591441022511811</standardError><azimuthalGap>278.43981742858887</azimuthalGap><maximumDistance>1.0143861770629883</maximumDistance><minimumDistance>0.3962540924549103</minimumDistance><medianDistance>0.683315634727478</medianDistance></quality><uncertainty><minHorizontalUncertainty>16.778928756713867</minHorizontalUncertainty><maxHorizontalUncertainty>29.33279609680176</maxHorizontalUncertainty><azimuthMaxHorizontalUncertainty>58.91261672973633</azimuthMaxHorizontalUncertainty><preferredDescription>horizontal uncertainty</preferredDescription></uncertainty><evaluationMode>automatic</evaluationMode><evaluationStatus>confirmed</evaluationStatus><comment><text>0.20</text><id>mismatchScore</id></comment><comment><text>mismatchScore</text><id>scevalMethod</id></comment><arrival><pickID>de.gempa.tb1.Pick/20250414015906.784344.134919</pickID><phase>P</phase><azimuth>293.6380920410156</azimuth><distance>0.3962540924549103</distance><timeResidual>-0.0059967041015625</timeResidual><timeUsed>true</timeUsed><horizontalSlownessUsed>false</horizontalSlownessUsed><backazimuthUsed>false</backazimuthUsed><weight>1</weight></arrival><arrival><pickID>de.gempa.tb1.Pick/20250414015916.466723.134921</pickID><phase>P</phase><azimuth>330.59063720703125</azimuth><distance>1.0143861770629883</distance><timeResidual>0.07145881652832031</timeResidual><timeUsed>true</timeUsed><horizontalSlownessUsed>false</horizontalSlownessUsed><backazimuthUsed>false</backazimuthUsed><weight>1</weight></arrival><arrival><pickID>de.gempa.tb1.Pick/20250414015921.172207.134923</pickID><phase>P</phase><azimuth>15.198274612426758</azimuth><distance>0.42503786087036133</distance><timeResidual>-0.025487899780273441</timeResidual><timeUsed>true</timeUsed><horizontalSlownessUsed>false</horizontalSlownessUsed><backazimuthUsed>false</backazimuthUsed><weight>1</weight></arrival><arrival><pickID>de.gempa.tb1.Pick/20250414015922.777311.134925</pickID><phase>S</phase><azimuth>293.6380920410156</azimuth><distance>0.3962540924549103</distance><timeResidual>0.08038711547851562</timeResidual><timeUsed>true</timeUsed><horizontalSlownessUsed>false</horizontalSlownessUsed><backazimuthUsed>false</backazimuthUsed><weight>1</weight></arrival><arrival><pickID>de.gempa.tb1.Pick/20250414015929.189972.134926</pickID><phase>P</phase><azimuth>314.477783203125</azimuth><distance>0.683315634727478</distance><timeResidual>-0.05284690856933594</timeResidual><timeUsed>true</timeUsed><horizontalSlownessUsed>false</horizontalSlownessUsed><backazimuthUsed>false</backazimuthUsed><weight>1</weight></arrival><arrival><pickID>de.gempa.tb1.Pick/20250414015931.517686.134930</pickID><phase>S</phase><azimuth>330.59063720703125</azimuth><distance>1.0143861770629883</distance><timeResidual>0.04709625244140625</timeResidual><timeUsed>true</timeUsed><horizontalSlownessUsed>false</horizontalSlownessUsed><backazimuthUsed>false</backazimuthUsed><weight>1</weight></arrival><arrival><pickID>de.gempa.tb1.Pick/20250414015937.602964.134932</pickID><phase>S</phase><azimuth>314.477783203125</azimuth><distance>0.683315634727478</distance><timeResidual>-0.11466503143310547</timeResidual><timeUsed>true</timeUsed><horizontalSlownessUsed>false</horizontalSlownessUsed><backazimuthUsed>false</backazimuthUsed><weight>1</weight></arrival><magnitude publicID="de.gempa.tb1.Magnitude/20250414020017.529454.418715"><magnitude><value>2.139729155579238</value></magnitude><type>M</type><methodID>weighted average</methodID><stationCount>1</stationCount></magnitude></origin><event publicID="gempa2025hikf"><preferredOriginID>de.gempa.tb1.Origin/20250414015937.605791.123522</preferredOriginID><preferredMagnitudeID>de.gempa.tb1.Magnitude/20250414020017.529454.418715</preferredMagnitudeID><description><text>Northern Chile</text><type>region name</type></description><originReference>de.gempa.tb1.Origin/20250414015937.605791.123522</originReference></event></EventParameters></seiscomp>