<?xml version="1.0" encoding="UTF-8"?>
<seiscomp xmlns="http://geofon.gfz-potsdam.de/ns/seiscomp3-schema/0.13" version="0.13"><EventParameters><pick publicID="de.gempa.tb1.Pick/20250414123156.531263.138010"><time><value>2025-04-14T12:31:51.708393Z</value></time><waveformID networkCode="CX" stationCode="PB02" channelCode="HHZ"/><filterID>ITAPER(4)&gt;&gt;BW(4,4,20)</filterID><methodID>AIC</methodID><horizontalSlowness><value>14.08837311122719</value></horizontalSlowness><backazimuth><value>317.78643988043177</value></backazimuth><phaseHint>P</phaseHint><evaluationMode>automatic</evaluationMode><comment><text>13.314061859819594</text><id>DFX:rectilinearity</id></comment><comment><text>6.966381730654379</text><id>SNR</id></comment></pick><pick publicID="de.gempa.tb1.Pick/20250414123157.738513.138012"><time><value>2025-04-14T12:31:50.358393Z</value></time><waveformID networkCode="CX" stationCode="PB01" channelCode="HHZ"/><filterID>ITAPER(4)&gt;&gt;BW(4,4,20)</filterID><methodID>AIC</methodID><horizontalSlowness><value>6.775925342665366</value></horizontalSlowness><backazimuth><value>47.42475539380473</value></backazimuth><phaseHint>P</phaseHint><evaluationMode>automatic</evaluationMode><comment><text>11.501849602915158</text><id>DFX:rectilinearity</id></comment><comment><text>9.940523898186129</text><id>SNR</id></comment></pick><pick publicID="de.gempa.tb1.Pick/20250414123208.040676.138020"><time><value>2025-04-14T12:31:50.148393Z</value></time><waveformID networkCode="CX" stationCode="PB07" channelCode="HHZ"/><filterID>ITAPER(4)&gt;&gt;BW(4,4,20)</filterID><methodID>AIC</methodID><horizontalSlowness><value>22.816802374589333</value></horizontalSlowness><backazimuth><value>270.5370947532323</value></backazimuth><phaseHint>P</phaseHint><evaluationMode>automatic</evaluationMode><comment><text>83.75227604781341</text><id>DFX:rectilinearity</id></comment><comment><text>12.299804311161564</text><id>SNR</id></comment></pick><pick publicID="de.gempa.tb1.Pick/20250414123208.481503.138022"><time><value>2025-04-14T12:32:00.378393Z</value></time><waveformID networkCode="CX" stationCode="PB02" channelCode="HHN"/><filterID>ITAPER(2)&gt;&gt;BW(3,3,20)</filterID><methodID>L2-AIC-GRID</methodID><horizontalSlowness><value>23.349768693260344</value></horizontalSlowness><backazimuth><value>158.02574825088095</value></backazimuth><phaseHint>S</phaseHint><evaluationMode>automatic</evaluationMode><comment><text>12.66753717560247</text><id>DFX:rectilinearity</id></comment><comment><text>de.gempa.tb1.Pick/20250414123156.531263.138010</text><id>RefPickID</id></comment><comment><text>6.617753094892298</text><id>SNR</id></comment></pick><pick publicID="de.gempa.tb1.Pick/20250414123215.547682.138027"><time><value>2025-04-14T12:32:06.98Z</value></time><waveformID networkCode="CX" stationCode="PSGCX" channelCode="HHZ"/><filterID>ITAPER(4)&gt;&gt;BW(4,4,20)</filterID><methodID>AIC</methodID><horizontalSlowness><value>9.202608205767845</value></horizontalSlowness><backazimuth><value>157.7894968387041</value></backazimuth><phaseHint>P</phaseHint><evaluationMode>automatic</evaluationMode><comment><text>15.353731483101885</text><id>DFX:rectilinearity</id></comment><comment><text>15.065430203557955</text><id>SNR</id></comment></pick><pick publicID="de.gempa.tb1.Pick/20250414123217.195021.138029"><time><value>2025-04-14T12:32:00.83Z</value></time><waveformID networkCode="CX" stationCode="PB09" channelCode="HHN"/><filterID>ITAPER(2)&gt;&gt;BW(3,3,20)</filterID><methodID>L2-AIC-GRID</methodID><horizontalSlowness><value>14.706703534484424</value></horizontalSlowness><backazimuth><value>283.08318528498643</value></backazimuth><phaseHint>S</phaseHint><evaluationMode>automatic</evaluationMode><comment><text>18.303693811432453</text><id>DFX:rectilinearity</id></comment><comment><text>de.gempa.tb1.Pick/20250414123158.294519.138014</text><id>RefPickID</id></comment><comment><text>6.325047038646025</text><id>SNR</id></comment></pick><pick publicID="de.gempa.tb1.Pick/20250414123219.778609.138032"><time><value>2025-04-14T12:32:03.588393Z</value></time><waveformID networkCode="CX" stationCode="PB07" channelCode="HHN"/><filterID>ITAPER(2)&gt;&gt;BW(3,3,20)</filterID><methodID>L2-AIC-GRID</methodID><horizontalSlowness><value>21.160136242576932</value></horizontalSlowness><backazimuth><value>101.5999819966988</value></backazimuth><phaseHint>S</phaseHint><evaluationMode>automatic</evaluationMode><comment><text>61.10411248928435</text><id>DFX:rectilinearity</id></comment><comment><text>de.gempa.tb1.Pick/20250414123208.040676.138020</text><id>RefPickID</id></comment><comment><text>7.426989409136332</text><id>SNR</id></comment></pick><pick publicID="de.gempa.tb1.Pick/20250414123238.534626.138051"><time><value>2025-04-14T12:32:28.97Z</value></time><waveformID networkCode="CX" stationCode="PSGCX" channelCode="HHN"/><filterID>ITAPER(2)&gt;&gt;BW(3,3,20)</filterID><methodID>L2-AIC-GRID</methodID><horizontalSlowness><value>23.09773301905321</value></horizontalSlowness><backazimuth><value>249.00408094614176</value></backazimuth><phaseHint>S</phaseHint><evaluationMode>automatic</evaluationMode><comment><text>21.856051701559153</text><id>DFX:rectilinearity</id></comment><comment><text>de.gempa.tb1.Pick/20250414123215.547682.138027</text><id>RefPickID</id></comment><comment><text>5.468948241984085</text><id>SNR</id></comment></pick><origin publicID="de.gempa.tb1.Origin/20250414123238.547164.137887"><time><value>2025-04-14T12:31:36.659495Z</value><uncertainty>1.277275562286377</uncertainty></time><latitude><value>-21.327510833740234</value><uncertainty>5.509708404541016</uncertainty></latitude><longitude><value>-69.41325378417969</value><uncertainty>7.337276935577393</uncertainty></longitude><depth><value>83.4022216796875</value><uncertainty>10.571340560913086</uncertainty></depth><depthType>from location</depthType><methodID>LOCSAT</methodID><earthModelID>iasp91_scanloc</earthModelID><quality><associatedPhaseCount>8</associatedPhaseCount><usedPhaseCount>8</usedPhaseCount><associatedStationCount>5</associatedStationCount><usedStationCount>5</usedStationCount><depthPhaseCount>0</depthPhaseCount><standardError>0.9303954603452484</standardError><azimuthalGap>174.9176788330078</azimuthalGap><maximumDistance>1.8457242250442505</maximumDistance><minimumDistance>0.2912100553512573</minimumDistance><medianDistance>0.5930066704750061</medianDistance></quality><uncertainty><minHorizontalUncertainty>10.66987419128418</minHorizontalUncertainty><maxHorizontalUncertainty>16.539710998535156</maxHorizontalUncertainty><azimuthMaxHorizontalUncertainty>66.2826156616211</azimuthMaxHorizontalUncertainty><preferredDescription>horizontal uncertainty</preferredDescription></uncertainty><evaluationMode>automatic</evaluationMode><evaluationStatus>confirmed</evaluationStatus><comment><text>0.29</text><id>mismatchScore</id></comment><comment><text>mismatchScore</text><id>scevalMethod</id></comment><arrival><pickID>de.gempa.tb1.Pick/20250414123156.531263.138010</pickID><phase>P</phase><azimuth>270.8980712890625</azimuth><distance>0.4501865804195404</distance><timeResidual>1.3596925735473633</timeResidual><timeUsed>true</timeUsed><horizontalSlownessUsed>false</horizontalSlownessUsed><backazimuthUsed>false</backazimuthUsed><weight>1</weight></arrival><arrival><pickID>de.gempa.tb1.Pick/20250414123157.738513.138012</pickID><phase>P</phase><azimuth>346.24163818359375</azimuth><distance>0.2912100553512573</distance><timeResidual>1.0739974975585938</timeResidual><timeUsed>true</timeUsed><horizontalSlownessUsed>false</horizontalSlownessUsed><backazimuthUsed>false</backazimuthUsed><weight>1</weight></arrival><arrival><pickID>de.gempa.tb1.Pick/20250414123208.040676.138020</pickID><phase>P</phase><azimuth>227.86187744140625</azimuth><distance>0.5930066704750061</distance><timeResidual>-1.4245004653930664</timeResidual><timeUsed>true</timeUsed><horizontalSlownessUsed>false</horizontalSlownessUsed><backazimuthUsed>false</backazimuthUsed><weight>1</weight></arrival><arrival><pickID>de.gempa.tb1.Pick/20250414123208.481503.138022</pickID><phase>S</phase><azimuth>270.8980712890625</azimuth><distance>0.4501865804195404</distance><timeResidual>-0.4342489242553711</timeResidual><timeUsed>true</timeUsed><horizontalSlownessUsed>false</horizontalSlownessUsed><backazimuthUsed>false</backazimuthUsed><weight>1</weight></arrival><arrival><pickID>de.gempa.tb1.Pick/20250414123215.547682.138027</pickID><phase>P</phase><azimuth>338.7394104003906</azimuth><distance>1.8457242250442505</distance><timeResidual>0.35045528411865234</timeResidual><timeUsed>true</timeUsed><horizontalSlownessUsed>false</horizontalSlownessUsed><backazimuthUsed>false</backazimuthUsed><weight>1</weight></arrival><arrival><pickID>de.gempa.tb1.Pick/20250414123217.195021.138029</pickID><phase>S</phase><azimuth>161.15931701660156</azimuth><distance>0.4930759072303772</distance><timeResidual>-0.5917587280273438</timeResidual><timeUsed>true</timeUsed><horizontalSlownessUsed>false</horizontalSlownessUsed><backazimuthUsed>false</backazimuthUsed><weight>1</weight></arrival><arrival><pickID>de.gempa.tb1.Pick/20250414123219.778609.138032</pickID><phase>S</phase><azimuth>227.86187744140625</azimuth><distance>0.5930066704750061</distance><timeResidual>0.6001100540161133</timeResidual><timeUsed>true</timeUsed><horizontalSlownessUsed>false</horizontalSlownessUsed><backazimuthUsed>false</backazimuthUsed><weight>1</weight></arrival><arrival><pickID>de.gempa.tb1.Pick/20250414123238.534626.138051</pickID><phase>S</phase><azimuth>338.7394104003906</azimuth><distance>1.8457242250442505</distance><timeResidual>-0.933781623840332</timeResidual><timeUsed>true</timeUsed><horizontalSlownessUsed>false</horizontalSlownessUsed><backazimuthUsed>false</backazimuthUsed><weight>1</weight></arrival><magnitude publicID="de.gempa.tb1.Magnitude/20250414123434.035612.488191"><magnitude><value>2.063649245176845</value></magnitude><type>M</type><methodID>weighted average</methodID><stationCount>3</stationCount></magnitude></origin><event publicID="gempa2025hjfj"><preferredOriginID>de.gempa.tb1.Origin/20250414123238.547164.137887</preferredOriginID><preferredMagnitudeID>de.gempa.tb1.Magnitude/20250414123434.035612.488191</preferredMagnitudeID><description><text>Northern Chile</text><type>region name</type></description><originReference>de.gempa.tb1.Origin/20250414123238.547164.137887</originReference></event></EventParameters></seiscomp>