<?xml version="1.0" encoding="UTF-8"?>
<seiscomp xmlns="http://geofon.gfz-potsdam.de/ns/seiscomp3-schema/0.13" version="0.13"><EventParameters><pick publicID="de.gempa.tb1.Pick/20250412235223.614059.127576"><time><value>2025-04-12T23:52:15.348393Z</value></time><waveformID networkCode="CX" stationCode="PB01" channelCode="HHZ"/><filterID>ITAPER(4)&gt;&gt;BW(4,4,20)</filterID><methodID>AIC</methodID><horizontalSlowness><value>22.129865361643553</value></horizontalSlowness><backazimuth><value>34.651241046948314</value></backazimuth><phaseHint>P</phaseHint><evaluationMode>automatic</evaluationMode><comment><text>9.196000053099992</text><id>DFX:rectilinearity</id></comment><comment><text>14.71389981364327</text><id>SNR</id></comment></pick><pick publicID="de.gempa.tb1.Pick/20250412235224.979972.127578"><time><value>2025-04-12T23:52:09.59Z</value></time><waveformID networkCode="CX" stationCode="PB09" channelCode="HHZ"/><filterID>ITAPER(4)&gt;&gt;BW(4,4,20)</filterID><methodID>AIC</methodID><horizontalSlowness><value>15.308483659563644</value></horizontalSlowness><backazimuth><value>315.30361941281586</value></backazimuth><phaseHint>P</phaseHint><evaluationMode>automatic</evaluationMode><comment><text>18.406502406388075</text><id>DFX:rectilinearity</id></comment><comment><text>18.23753993848435</text><id>SNR</id></comment></pick><pick publicID="de.gempa.tb1.Pick/20250412235230.573571.127580"><time><value>2025-04-12T23:52:14.538394Z</value></time><waveformID networkCode="CX" stationCode="PB07" channelCode="HHZ"/><filterID>ITAPER(4)&gt;&gt;BW(4,4,20)</filterID><methodID>AIC</methodID><horizontalSlowness><value>21.957687209408022</value></horizontalSlowness><backazimuth><value>59.88675027029245</value></backazimuth><phaseHint>P</phaseHint><evaluationMode>automatic</evaluationMode><comment><text>308.31539434986496</text><id>DFX:rectilinearity</id></comment><comment><text>9.522315643212632</text><id>SNR</id></comment></pick><pick publicID="de.gempa.tb1.Pick/20250412235238.368436.127586"><time><value>2025-04-12T23:52:31.358394Z</value></time><waveformID networkCode="CX" stationCode="PB07" channelCode="HHN"/><filterID>ITAPER(2)&gt;&gt;BW(3,3,20)</filterID><methodID>L2-AIC-GRID</methodID><horizontalSlowness><value>23.304751844760915</value></horizontalSlowness><backazimuth><value>223.95326676850826</value></backazimuth><phaseHint>S</phaseHint><evaluationMode>automatic</evaluationMode><comment><text>371.221459500488</text><id>DFX:rectilinearity</id></comment><comment><text>de.gempa.tb1.Pick/20250412235230.573571.127580</text><id>RefPickID</id></comment><comment><text>13.351922944590294</text><id>SNR</id></comment></pick><pick publicID="de.gempa.tb1.Pick/20250412235240.513311.127589"><time><value>2025-04-12T23:52:33.828393Z</value></time><waveformID networkCode="CX" stationCode="PB01" channelCode="HHN"/><filterID>ITAPER(2)&gt;&gt;BW(3,3,20)</filterID><methodID>L2-AIC-GRID</methodID><horizontalSlowness><value>22.66000455333623</value></horizontalSlowness><backazimuth><value>250.23334613861647</value></backazimuth><phaseHint>S</phaseHint><evaluationMode>automatic</evaluationMode><comment><text>4.886569645131508</text><id>DFX:rectilinearity</id></comment><comment><text>de.gempa.tb1.Pick/20250412235223.614059.127576</text><id>RefPickID</id></comment><comment><text>6.340339978046459</text><id>SNR</id></comment></pick><pick publicID="de.gempa.tb1.Pick/20250412235242.165913.127590"><time><value>2025-04-12T23:52:23.14Z</value></time><waveformID networkCode="CX" stationCode="PB09" channelCode="HHN"/><filterID>ITAPER(2)&gt;&gt;BW(3,3,20)</filterID><methodID>L2-AIC-GRID</methodID><horizontalSlowness><value>22.80450730384216</value></horizontalSlowness><backazimuth><value>22.92121523632406</value></backazimuth><phaseHint>S</phaseHint><evaluationMode>automatic</evaluationMode><comment><text>15.817659659744518</text><id>DFX:rectilinearity</id></comment><comment><text>de.gempa.tb1.Pick/20250412235224.979972.127578</text><id>RefPickID</id></comment><comment><text>7.726983922366936</text><id>SNR</id></comment></pick><origin publicID="de.gempa.tb1.Origin/20250412235242.168875.95333"><time><value>2025-04-12T23:51:52.087423Z</value><uncertainty>1.4960206747055054</uncertainty></time><latitude><value>-22.01361083984375</value><uncertainty>9.75080680847168</uncertainty></latitude><longitude><value>-68.83024597167969</value><uncertainty>12.061819076538086</uncertainty></longitude><depth><value>119.21446990966797</value><uncertainty>10.29689884185791</uncertainty></depth><depthType>from location</depthType><methodID>LOCSAT</methodID><earthModelID>iasp91_scanloc</earthModelID><quality><associatedPhaseCount>6</associatedPhaseCount><usedPhaseCount>6</usedPhaseCount><associatedStationCount>3</associatedStationCount><usedStationCount>3</usedStationCount><depthPhaseCount>0</depthPhaseCount><standardError>0.14541003943445652</standardError><azimuthalGap>318.51605224609375</azimuthalGap><maximumDistance>1.1431423425674438</maximumDistance><minimumDistance>0.43919548392295837</minimumDistance><medianDistance>1.0215616226196289</medianDistance></quality><uncertainty><minHorizontalUncertainty>20.910589218139648</minHorizontalUncertainty><maxHorizontalUncertainty>25.868303298950195</maxHorizontalUncertainty><azimuthMaxHorizontalUncertainty>89.28748321533203</azimuthMaxHorizontalUncertainty><preferredDescription>horizontal uncertainty</preferredDescription></uncertainty><evaluationMode>automatic</evaluationMode><evaluationStatus>confirmed</evaluationStatus><comment><text>0.19</text><id>mismatchScore</id></comment><comment><text>mismatchScore</text><id>scevalMethod</id></comment><arrival><pickID>de.gempa.tb1.Pick/20250412235223.614059.127576</pickID><phase>P</phase><azimuth>327.51959228515625</azimuth><distance>1.1431423425674438</distance><timeResidual>-0.20617103576660156</timeResidual><timeUsed>true</timeUsed><horizontalSlownessUsed>false</horizontalSlownessUsed><backazimuthUsed>false</backazimuthUsed><weight>1</weight></arrival><arrival><pickID>de.gempa.tb1.Pick/20250412235224.979972.127578</pickID><phase>P</phase><azimuth>299.4098205566406</azimuth><distance>0.43919548392295837</distance><timeResidual>-0.02493095397949219</timeResidual><timeUsed>true</timeUsed><horizontalSlownessUsed>false</horizontalSlownessUsed><backazimuthUsed>false</backazimuthUsed><weight>1</weight></arrival><arrival><pickID>de.gempa.tb1.Pick/20250412235230.573571.127580</pickID><phase>P</phase><azimuth>286.03564453125</azimuth><distance>1.0215616226196289</distance><timeResidual>0.23108863830566406</timeResidual><timeUsed>true</timeUsed><horizontalSlownessUsed>false</horizontalSlownessUsed><backazimuthUsed>false</backazimuthUsed><weight>1</weight></arrival><arrival><pickID>de.gempa.tb1.Pick/20250412235238.368436.127586</pickID><phase>S</phase><azimuth>286.03564453125</azimuth><distance>1.0215616226196289</distance><timeResidual>-0.1296367645263672</timeResidual><timeUsed>true</timeUsed><horizontalSlownessUsed>false</horizontalSlownessUsed><backazimuthUsed>false</backazimuthUsed><weight>1</weight></arrival><arrival><pickID>de.gempa.tb1.Pick/20250412235240.513311.127589</pickID><phase>S</phase><azimuth>327.51959228515625</azimuth><distance>1.1431423425674438</distance><timeResidual>0.1154632568359375</timeResidual><timeUsed>true</timeUsed><horizontalSlownessUsed>false</horizontalSlownessUsed><backazimuthUsed>false</backazimuthUsed><weight>1</weight></arrival><arrival><pickID>de.gempa.tb1.Pick/20250412235242.165913.127590</pickID><phase>S</phase><azimuth>299.4098205566406</azimuth><distance>0.43919548392295837</distance><timeResidual>0.014036178588867188</timeResidual><timeUsed>true</timeUsed><horizontalSlownessUsed>false</horizontalSlownessUsed><backazimuthUsed>false</backazimuthUsed><weight>1</weight></arrival></origin><event publicID="gempa2025hgjy"><preferredOriginID>de.gempa.tb1.Origin/20250412235242.168875.95333</preferredOriginID><description><text>Northern Chile</text><type>region name</type></description><originReference>de.gempa.tb1.Origin/20250412235242.168875.95333</originReference></event></EventParameters></seiscomp>