<?xml version="1.0" encoding="UTF-8"?>
<seiscomp xmlns="http://geofon.gfz-potsdam.de/ns/seiscomp3-schema/0.13" version="0.13"><EventParameters><pick publicID="de.gempa.tb1.Pick/20250412175708.02205.169902"><time><value>2025-04-12T17:57:03.945Z</value></time><waveformID networkCode="CH" stationCode="LAUCH" channelCode="HHZ"/><filterID>ITAPER(4)&gt;&gt;BW(4,4,20)</filterID><methodID>AIC</methodID><phaseHint>P</phaseHint><evaluationMode>automatic</evaluationMode></pick><pick publicID="de.gempa.tb1.Pick/20250412175709.256754.169908"><time><value>2025-04-12T17:57:05.885Z</value></time><waveformID networkCode="CH" stationCode="SIMPL" channelCode="HHZ"/><filterID>ITAPER(4)&gt;&gt;BW(4,4,20)</filterID><methodID>AIC</methodID><phaseHint>P</phaseHint><evaluationMode>automatic</evaluationMode></pick><pick publicID="de.gempa.tb1.Pick/20250412175711.124214.169910"><time><value>2025-04-12T17:57:06.295Z</value></time><waveformID networkCode="CH" stationCode="FIESA" channelCode="HHZ"/><filterID>ITAPER(4)&gt;&gt;BW(4,4,20)</filterID><methodID>AIC</methodID><phaseHint>P</phaseHint><evaluationMode>automatic</evaluationMode></pick><pick publicID="de.gempa.tb1.Pick/20250412175713.455061.169912"><time><value>2025-04-12T17:57:08.48Z</value></time><waveformID networkCode="CH" stationCode="EMBD" channelCode="HHZ"/><filterID>ITAPER(4)&gt;&gt;BW(4,4,20)</filterID><methodID>AIC</methodID><phaseHint>P</phaseHint><evaluationMode>automatic</evaluationMode></pick><pick publicID="de.gempa.tb1.Pick/20250412175716.119157.169914"><time><value>2025-04-12T17:57:12.024998Z</value></time><waveformID networkCode="CH" stationCode="SALAN" channelCode="HHZ"/><filterID>ITAPER(4)&gt;&gt;BW(4,4,20)</filterID><methodID>AIC</methodID><phaseHint>P</phaseHint><evaluationMode>automatic</evaluationMode></pick><pick publicID="de.gempa.tb1.Pick/20250412175739.222192.169947"><time><value>2025-04-12T17:57:14.52Z</value></time><waveformID networkCode="CH" stationCode="EMBD" channelCode="HHN"/><filterID>RMHP(1)&gt;&gt;ITAPER(2)&gt;&gt;BW(4,3,20)</filterID><methodID>L2-AIC-GRID</methodID><phaseHint>S</phaseHint><evaluationMode>automatic</evaluationMode><comment><text>de.gempa.tb1.Pick/20250412175713.455061.169912</text><id>RefPickID</id></comment></pick><origin publicID="de.gempa.tb1.Origin/20250412175739.230636.108116"><time><value>2025-04-12T17:56:57.623517Z</value><uncertainty>1.103985071182251</uncertainty></time><latitude><value>46.5883674621582</value><uncertainty>14.663178443908691</uncertainty></latitude><longitude><value>7.796327590942383</value><uncertainty>10.811729431152344</uncertainty></longitude><depth><value>26.80263137817383</value><uncertainty>19.50386619567871</uncertainty></depth><depthType>from location</depthType><methodID>LOCSAT</methodID><earthModelID>iasp91</earthModelID><quality><associatedPhaseCount>6</associatedPhaseCount><usedPhaseCount>6</usedPhaseCount><associatedStationCount>5</associatedStationCount><usedStationCount>5</usedStationCount><depthPhaseCount>0</depthPhaseCount><standardError>0.8490538363390635</standardError><azimuthalGap>252.74578857421875</azimuthalGap><maximumDistance>0.7228620052337646</maximumDistance><minimumDistance>0.17372329533100128</minimumDistance><medianDistance>0.37279173731803894</medianDistance></quality><uncertainty><minHorizontalUncertainty>15.855619430541992</minHorizontalUncertainty><maxHorizontalUncertainty>35.717529296875</maxHorizontalUncertainty><azimuthMaxHorizontalUncertainty>148.0748748779297</azimuthMaxHorizontalUncertainty><preferredDescription>horizontal uncertainty</preferredDescription></uncertainty><evaluationMode>automatic</evaluationMode><comment><text>0.51</text><id>mismatchScore</id></comment><arrival><pickID>de.gempa.tb1.Pick/20250412175708.02205.169902</pickID><phase>P</phase><azimuth>185.6377716064453</azimuth><distance>0.17372329533100128</distance><timeResidual>-0.5502686500549316</timeResidual><timeUsed>true</timeUsed><horizontalSlownessUsed>false</horizontalSlownessUsed><backazimuthUsed>false</backazimuthUsed><weight>1</weight></arrival><arrival><pickID>de.gempa.tb1.Pick/20250412175709.256754.169908</pickID><phase>P</phase><azimuth>156.0371856689453</azimuth><distance>0.3815203607082367</distance><timeResidual>-1.4442167282104492</timeResidual><timeUsed>true</timeUsed><horizontalSlownessUsed>false</horizontalSlownessUsed><backazimuthUsed>false</backazimuthUsed><weight>1</weight></arrival><arrival><pickID>de.gempa.tb1.Pick/20250412175711.124214.169910</pickID><phase>P</phase><azimuth>125.10797119140625</azimuth><distance>0.2655433416366577</distance><timeResidual>0.5479135513305664</timeResidual><timeUsed>true</timeUsed><horizontalSlownessUsed>false</horizontalSlownessUsed><backazimuthUsed>false</backazimuthUsed><weight>1</weight></arrival><arrival><pickID>de.gempa.tb1.Pick/20250412175713.455061.169912</pickID><phase>P</phase><azimuth>176.16566467285156</azimuth><distance>0.37279173731803894</distance><timeResidual>1.2696919441223145</timeResidual><timeUsed>true</timeUsed><horizontalSlownessUsed>false</horizontalSlownessUsed><backazimuthUsed>false</backazimuthUsed><weight>1</weight></arrival><arrival><pickID>de.gempa.tb1.Pick/20250412175716.119157.169914</pickID><phase>P</phase><azimuth>232.3621826171875</azimuth><distance>0.7228620052337646</distance><timeResidual>0.021843433380126953</timeResidual><timeUsed>true</timeUsed><horizontalSlownessUsed>false</horizontalSlownessUsed><backazimuthUsed>false</backazimuthUsed><weight>1</weight></arrival><arrival><pickID>de.gempa.tb1.Pick/20250412175739.222192.169947</pickID><phase>S</phase><azimuth>176.16566467285156</azimuth><distance>0.37279173731803894</distance><timeResidual>0.15489625930786133</timeResidual><timeUsed>true</timeUsed><horizontalSlownessUsed>false</horizontalSlownessUsed><backazimuthUsed>false</backazimuthUsed><weight>1</weight></arrival><magnitude publicID="de.gempa.tb1.Magnitude/20250412175856.106546.260738"><magnitude><value>0.8717850635477374</value></magnitude><type>M</type><methodID>weighted average</methodID><stationCount>4</stationCount></magnitude></origin><event publicID="gempa2025hfye"><preferredOriginID>de.gempa.tb1.Origin/20250412175739.230636.108116</preferredOriginID><preferredMagnitudeID>de.gempa.tb1.Magnitude/20250412175856.106546.260738</preferredMagnitudeID><description><text>Switzerland</text><type>region name</type></description><originReference>de.gempa.tb1.Origin/20250412175739.230636.108116</originReference></event></EventParameters></seiscomp>