<?xml version="1.0" encoding="UTF-8"?>
<seiscomp xmlns="http://geofon.gfz-potsdam.de/ns/seiscomp3-schema/0.13" version="0.13"><EventParameters><pick publicID="de.gempa.tb1.Pick/20250413080817.569454.130021"><time><value>2025-04-13T08:08:10.678393Z</value></time><waveformID networkCode="CX" stationCode="PB03" channelCode="HHZ"/><filterID>ITAPER(4)&gt;&gt;BW(4,4,20)</filterID><methodID>AIC</methodID><horizontalSlowness><value>13.691668467564913</value></horizontalSlowness><backazimuth><value>65.13234237850975</value></backazimuth><phaseHint>P</phaseHint><evaluationMode>automatic</evaluationMode><comment><text>12.268874534768514</text><id>DFX:rectilinearity</id></comment><comment><text>11.5143036409215</text><id>SNR</id></comment></pick><pick publicID="de.gempa.tb1.Pick/20250413080819.543855.130023"><time><value>2025-04-13T08:08:10.688394Z</value></time><waveformID networkCode="CX" stationCode="PB06" channelCode="HHZ"/><filterID>ITAPER(4)&gt;&gt;BW(4,4,20)</filterID><methodID>AIC</methodID><horizontalSlowness><value>22.71189080386728</value></horizontalSlowness><backazimuth><value>309.01642915571136</value></backazimuth><phaseHint>P</phaseHint><evaluationMode>automatic</evaluationMode><comment><text>40.047660856208203</text><id>DFX:rectilinearity</id></comment><comment><text>12.998332059957548</text><id>SNR</id></comment></pick><pick publicID="de.gempa.tb1.Pick/20250413080825.911031.130026"><time><value>2025-04-13T08:08:07.51Z</value></time><waveformID networkCode="CX" stationCode="PB09" channelCode="HHZ"/><filterID>ITAPER(4)&gt;&gt;BW(4,4,20)</filterID><methodID>AIC</methodID><horizontalSlowness><value>10.957888170381059</value></horizontalSlowness><backazimuth><value>283.796741579298</value></backazimuth><phaseHint>P</phaseHint><evaluationMode>automatic</evaluationMode><comment><text>11.112443008659657</text><id>DFX:rectilinearity</id></comment><comment><text>12.881765244948227</text><id>SNR</id></comment></pick><pick publicID="de.gempa.tb1.Pick/20250413080836.567726.130030"><time><value>2025-04-13T08:08:27.538393Z</value></time><waveformID networkCode="CX" stationCode="PB03" channelCode="HHN"/><filterID>ITAPER(2)&gt;&gt;BW(3,3,20)</filterID><methodID>L2-AIC-GRID</methodID><horizontalSlowness><value>16.526335868393048</value></horizontalSlowness><backazimuth><value>243.2516530547918</value></backazimuth><phaseHint>S</phaseHint><evaluationMode>automatic</evaluationMode><comment><text>13.004673138526297</text><id>DFX:rectilinearity</id></comment><comment><text>de.gempa.tb1.Pick/20250413080817.569454.130021</text><id>RefPickID</id></comment><comment><text>7.358257192288495</text><id>SNR</id></comment></pick><pick publicID="de.gempa.tb1.Pick/20250413080842.16686.130031"><time><value>2025-04-13T08:08:12.928393Z</value></time><waveformID networkCode="CX" stationCode="PB07" channelCode="HHZ"/><filterID>ITAPER(4)&gt;&gt;BW(4,4,20)</filterID><methodID>AIC</methodID><horizontalSlowness><value>18.396258027553447</value></horizontalSlowness><backazimuth><value>263.52633027763204</value></backazimuth><phaseHint>P</phaseHint><evaluationMode>automatic</evaluationMode><comment><text>191.91923276274892</text><id>DFX:rectilinearity</id></comment><comment><text>18.365980982457152</text><id>SNR</id></comment></pick><pick publicID="de.gempa.tb1.Pick/20250413080905.182721.130037"><time><value>2025-04-13T08:08:31.178393Z</value></time><waveformID networkCode="CX" stationCode="PB07" channelCode="HHN"/><filterID>ITAPER(2)&gt;&gt;BW(3,3,20)</filterID><methodID>L2-AIC-GRID</methodID><horizontalSlowness><value>23.513245093879785</value></horizontalSlowness><backazimuth><value>182.2033235152225</value></backazimuth><phaseHint>S</phaseHint><evaluationMode>automatic</evaluationMode><comment><text>265.1199658411393</text><id>DFX:rectilinearity</id></comment><comment><text>de.gempa.tb1.Pick/20250413080842.16686.130031</text><id>RefPickID</id></comment><comment><text>6.089763114462346</text><id>SNR</id></comment></pick><origin publicID="de.gempa.tb1.Origin/20250413080905.185784.105358"><time><value>2025-04-13T08:07:49.127579Z</value><uncertainty>1.6519804000854492</uncertainty></time><latitude><value>-22.15632438659668</value><uncertainty>12.610133171081543</uncertainty></latitude><longitude><value>-68.68531036376953</value><uncertainty>17.268022537231445</uncertainty></longitude><depth><value>115.51256561279297</value><uncertainty>25.206106185913086</uncertainty></depth><depthType>from location</depthType><methodID>LOCSAT</methodID><earthModelID>iasp91_scanloc</earthModelID><quality><associatedPhaseCount>6</associatedPhaseCount><usedPhaseCount>6</usedPhaseCount><associatedStationCount>4</associatedStationCount><usedStationCount>4</usedStationCount><depthPhaseCount>0</depthPhaseCount><standardError>0.05484866732527469</standardError><azimuthalGap>291.51158142089844</azimuthalGap><maximumDistance>1.1940926313400269</maximumDistance><minimumDistance>0.628677487373352</minimumDistance><medianDistance>0.9960523843765259</medianDistance></quality><uncertainty><minHorizontalUncertainty>26.273412704467773</minHorizontalUncertainty><maxHorizontalUncertainty>37.58273696899414</maxHorizontalUncertainty><azimuthMaxHorizontalUncertainty>76.20659637451172</azimuthMaxHorizontalUncertainty><preferredDescription>horizontal uncertainty</preferredDescription></uncertainty><evaluationMode>automatic</evaluationMode><evaluationStatus>confirmed</evaluationStatus><comment><text>0.00</text><id>mismatchScore</id></comment><comment><text>mismatchScore</text><id>scevalMethod</id></comment><arrival><pickID>de.gempa.tb1.Pick/20250413080817.569454.130021</pickID><phase>P</phase><azimuth>275.986328125</azimuth><distance>0.9960523843765259</distance><timeResidual>-0.10005950927734375</timeResidual><timeUsed>true</timeUsed><horizontalSlownessUsed>false</horizontalSlownessUsed><backazimuthUsed>false</backazimuthUsed><weight>1</weight></arrival><arrival><pickID>de.gempa.tb1.Pick/20250413080819.543855.130023</pickID><phase>P</phase><azimuth>236.1422882080078</azimuth><distance>0.985856294631958</distance><timeResidual>0.015254974365234375</timeResidual><timeUsed>true</timeUsed><horizontalSlownessUsed>false</horizontalSlownessUsed><backazimuthUsed>false</backazimuthUsed><weight>1</weight></arrival><arrival><pickID>de.gempa.tb1.Pick/20250413080825.911031.130026</pickID><phase>P</phase><azimuth>304.6307067871094</azimuth><distance>0.628677487373352</distance><timeResidual>0.002437591552734375</timeResidual><timeUsed>true</timeUsed><horizontalSlownessUsed>false</horizontalSlownessUsed><backazimuthUsed>false</backazimuthUsed><weight>1</weight></arrival><arrival><pickID>de.gempa.tb1.Pick/20250413080836.567726.130030</pickID><phase>S</phase><azimuth>275.986328125</azimuth><distance>0.9960523843765259</distance><timeResidual>0.029970169067382809</timeResidual><timeUsed>true</timeUsed><horizontalSlownessUsed>false</horizontalSlownessUsed><backazimuthUsed>false</backazimuthUsed><weight>1</weight></arrival><arrival><pickID>de.gempa.tb1.Pick/20250413080842.16686.130031</pickID><phase>P</phase><azimuth>290.75811767578125</azimuth><distance>1.1940926313400269</distance><timeResidual>0.07882118225097656</timeResidual><timeUsed>true</timeUsed><horizontalSlownessUsed>false</horizontalSlownessUsed><backazimuthUsed>false</backazimuthUsed><weight>1</weight></arrival><arrival><pickID>de.gempa.tb1.Pick/20250413080905.182721.130037</pickID><phase>S</phase><azimuth>290.75811767578125</azimuth><distance>1.1940926313400269</distance><timeResidual>-0.026243209838867191</timeResidual><timeUsed>true</timeUsed><horizontalSlownessUsed>false</horizontalSlownessUsed><backazimuthUsed>false</backazimuthUsed><weight>1</weight></arrival><magnitude publicID="de.gempa.tb1.Magnitude/20250413080921.511357.330769"><magnitude><value>2.2383628404952867</value></magnitude><type>M</type><methodID>weighted average</methodID><stationCount>1</stationCount></magnitude></origin><event publicID="gempa2025hham"><preferredOriginID>de.gempa.tb1.Origin/20250413080905.185784.105358</preferredOriginID><preferredMagnitudeID>de.gempa.tb1.Magnitude/20250413080921.511357.330769</preferredMagnitudeID><description><text>Northern Chile</text><type>region name</type></description><originReference>de.gempa.tb1.Origin/20250413080905.185784.105358</originReference></event></EventParameters></seiscomp>