<?xml version="1.0" encoding="UTF-8"?>
<seiscomp xmlns="http://geofon.gfz-potsdam.de/ns/seiscomp3-schema/0.13" version="0.13"><EventParameters><pick publicID="de.gempa.tb1.Pick/20250413190007.656817.133255"><time><value>2025-04-13T19:00:03.078393Z</value></time><waveformID networkCode="CX" stationCode="PB06" channelCode="HHZ"/><filterID>ITAPER(4)&gt;&gt;BW(4,4,20)</filterID><methodID>AIC</methodID><horizontalSlowness><value>14.90947920258835</value></horizontalSlowness><backazimuth><value>107.25314097721136</value></backazimuth><phaseHint>P</phaseHint><evaluationMode>automatic</evaluationMode><comment><text>2123.3347352582991</text><id>DFX:rectilinearity</id></comment><comment><text>321.0660250817563</text><id>SNR</id></comment></pick><pick publicID="de.gempa.tb1.Pick/20250413190011.700159.133257"><time><value>2025-04-13T19:00:05.828394Z</value></time><waveformID networkCode="CX" stationCode="PB15" channelCode="HHZ"/><filterID>ITAPER(4)&gt;&gt;BW(4,4,20)</filterID><methodID>AIC</methodID><horizontalSlowness><value>21.498678488355093</value></horizontalSlowness><backazimuth><value>82.74697415030121</value></backazimuth><phaseHint>P</phaseHint><evaluationMode>automatic</evaluationMode><comment><text>25798.356856270126</text><id>DFX:rectilinearity</id></comment><comment><text>70.2597484705649</text><id>SNR</id></comment></pick><pick publicID="de.gempa.tb1.Pick/20250413190018.459817.133259"><time><value>2025-04-13T19:00:13.268393Z</value></time><waveformID networkCode="CX" stationCode="PB03" channelCode="HHZ"/><filterID>ITAPER(4)&gt;&gt;BW(4,4,20)</filterID><methodID>AIC</methodID><horizontalSlowness><value>14.555261148811914</value></horizontalSlowness><backazimuth><value>149.72129115490793</value></backazimuth><phaseHint>P</phaseHint><evaluationMode>automatic</evaluationMode><comment><text>439.9500430460432</text><id>DFX:rectilinearity</id></comment><comment><text>126.0826933235539</text><id>SNR</id></comment></pick><pick publicID="de.gempa.tb1.Pick/20250413190024.577742.133261"><time><value>2025-04-13T19:00:16.19Z</value></time><waveformID networkCode="CX" stationCode="PB09" channelCode="HHZ"/><filterID>ITAPER(4)&gt;&gt;BW(4,4,20)</filterID><methodID>AIC</methodID><horizontalSlowness><value>20.632039689654267</value></horizontalSlowness><backazimuth><value>138.5897815469168</value></backazimuth><phaseHint>P</phaseHint><evaluationMode>automatic</evaluationMode><comment><text>316.09675761699714</text><id>DFX:rectilinearity</id></comment><comment><text>162.9564391567845</text><id>SNR</id></comment></pick><pick publicID="de.gempa.tb1.Pick/20250413190025.770762.133263"><time><value>2025-04-13T19:00:18.38Z</value></time><waveformID networkCode="CX" stationCode="PB19" channelCode="HHZ"/><filterID>ITAPER(4)&gt;&gt;BW(4,4,20)</filterID><methodID>AIC</methodID><horizontalSlowness><value>12.534069125928305</value></horizontalSlowness><backazimuth><value>180.17208596222747</value></backazimuth><phaseHint>P</phaseHint><evaluationMode>automatic</evaluationMode><comment><text>84.02889523141886</text><id>DFX:rectilinearity</id></comment><comment><text>24.86838832911281</text><id>SNR</id></comment></pick><pick publicID="de.gempa.tb1.Pick/20250413190027.182955.133265"><time><value>2025-04-13T19:00:22.04Z</value></time><waveformID networkCode="CX" stationCode="PB10" channelCode="HHZ"/><filterID>ITAPER(4)&gt;&gt;BW(4,4,20)</filterID><methodID>AIC</methodID><horizontalSlowness><value>18.307908104603062</value></horizontalSlowness><backazimuth><value>70.13848693265548</value></backazimuth><phaseHint>P</phaseHint><evaluationMode>automatic</evaluationMode><comment><text>421.3358684262737</text><id>DFX:rectilinearity</id></comment><comment><text>27.228898322420633</text><id>SNR</id></comment></pick><pick publicID="de.gempa.tb1.Pick/20250413190030.42809.133267"><time><value>2025-04-13T19:00:25.378394Z</value></time><waveformID networkCode="CX" stationCode="PB02" channelCode="HHZ"/><filterID>ITAPER(4)&gt;&gt;BW(4,4,20)</filterID><methodID>AIC</methodID><horizontalSlowness><value>21.343875643040796</value></horizontalSlowness><backazimuth><value>113.32054074444996</value></backazimuth><phaseHint>P</phaseHint><evaluationMode>automatic</evaluationMode><comment><text>38.92254625490856</text><id>DFX:rectilinearity</id></comment><comment><text>84.16534021942414</text><id>SNR</id></comment></pick><pick publicID="de.gempa.tb1.Pick/20250413190034.777493.133269"><time><value>2025-04-13T19:00:29.338393Z</value></time><waveformID networkCode="CX" stationCode="PB01" channelCode="HHZ"/><filterID>ITAPER(4)&gt;&gt;BW(4,4,20)</filterID><methodID>AIC</methodID><horizontalSlowness><value>14.48270163952751</value></horizontalSlowness><backazimuth><value>182.52951484274843</value></backazimuth><phaseHint>P</phaseHint><evaluationMode>automatic</evaluationMode><comment><text>914.5498757374053</text><id>DFX:rectilinearity</id></comment><comment><text>205.87747681745014</text><id>SNR</id></comment></pick><pick publicID="de.gempa.tb1.Pick/20250413190039.391902.133275"><time><value>2025-04-13T19:00:34.799999Z</value></time><waveformID networkCode="CX" stationCode="PATCX" channelCode="HHZ"/><filterID>ITAPER(4)&gt;&gt;BW(4,4,20)</filterID><methodID>AIC</methodID><horizontalSlowness><value>21.179098408273685</value></horizontalSlowness><backazimuth><value>65.46553948504614</value></backazimuth><phaseHint>P</phaseHint><evaluationMode>automatic</evaluationMode><comment><text>388.1924033265442</text><id>DFX:rectilinearity</id></comment><comment><text>22.38246473696164</text><id>SNR</id></comment></pick><origin publicID="de.gempa.tb1.Origin/20250413190043.395946.117677"><time><value>2025-04-13T18:59:57.249833Z</value><uncertainty>0.5905380845069885</uncertainty></time><latitude><value>-22.80312919616699</value><uncertainty>2.7837188243865967</uncertainty></latitude><longitude><value>-69.3092269897461</value><uncertainty>6.147768020629883</uncertainty></longitude><depth><value>0.9062162637710571</value><uncertainty>6.485371112823486</uncertainty></depth><depthType>from location</depthType><methodID>LOCSAT</methodID><earthModelID>iasp91_scanloc</earthModelID><quality><associatedPhaseCount>9</associatedPhaseCount><usedPhaseCount>9</usedPhaseCount><associatedStationCount>9</associatedStationCount><usedStationCount>9</usedStationCount><depthPhaseCount>0</depthPhaseCount><standardError>0.659549063341303</standardError><azimuthalGap>175.5389802455902</azimuthalGap><maximumDistance>2.1228296756744385</maximumDistance><minimumDistance>0.2610863149166107</minimumDistance><medianDistance>1.096707820892334</medianDistance></quality><uncertainty><minHorizontalUncertainty>5.967129707336426</minHorizontalUncertainty><maxHorizontalUncertainty>13.186309814453125</maxHorizontalUncertainty><azimuthMaxHorizontalUncertainty>90.92681884765625</azimuthMaxHorizontalUncertainty><preferredDescription>horizontal uncertainty</preferredDescription></uncertainty><evaluationMode>automatic</evaluationMode><evaluationStatus>confirmed</evaluationStatus><comment><text>0.07</text><id>mismatchScore</id></comment><comment><text>mismatchScore</text><id>scevalMethod</id></comment><arrival><pickID>de.gempa.tb1.Pick/20250413190007.656817.133255</pickID><phase>P</phase><azimuth>291.7288513183594</azimuth><distance>0.2610863149166107</distance><timeResidual>0.8140373229980469</timeResidual><timeUsed>true</timeUsed><horizontalSlownessUsed>false</horizontalSlownessUsed><backazimuthUsed>false</backazimuthUsed><weight>1</weight></arrival><arrival><pickID>de.gempa.tb1.Pick/20250413190011.700159.133257</pickID><phase>P</phase><azimuth>200.24246215820312</azimuth><distance>0.42995265126228333</distance><timeResidual>0.32855796813964844</timeResidual><timeUsed>true</timeUsed><horizontalSlownessUsed>false</horizontalSlownessUsed><backazimuthUsed>false</backazimuthUsed><weight>1</weight></arrival><arrival><pickID>de.gempa.tb1.Pick/20250413190018.459817.133259</pickID><phase>P</phase><azimuth>331.2445983886719</azimuth><distance>0.8560212850570679</distance><timeResidual>-0.4026985168457031</timeResidual><timeUsed>true</timeUsed><horizontalSlownessUsed>false</horizontalSlownessUsed><backazimuthUsed>false</backazimuthUsed><weight>1</weight></arrival><arrival><pickID>de.gempa.tb1.Pick/20250413190024.577742.133261</pickID><phase>P</phase><azimuth>3.57265305519104</azimuth><distance>1.0038726329803467</distance><timeResidual>-0.3167552947998047</timeResidual><timeUsed>true</timeUsed><horizontalSlownessUsed>false</horizontalSlownessUsed><backazimuthUsed>false</backazimuthUsed><weight>1</weight></arrival><arrival><pickID>de.gempa.tb1.Pick/20250413190025.770762.133263</pickID><phase>P</phase><azimuth>179.11163330078125</azimuth><distance>1.096707820892334</distance><timeResidual>0.09568405151367188</timeResidual><timeUsed>true</timeUsed><horizontalSlownessUsed>false</horizontalSlownessUsed><backazimuthUsed>false</backazimuthUsed><weight>1</weight></arrival><arrival><pickID>de.gempa.tb1.Pick/20250413190027.182955.133265</pickID><phase>P</phase><azimuth>238.07984924316406</azimuth><distance>1.346294403076172</distance><timeResidual>-0.9639263153076172</timeResidual><timeUsed>true</timeUsed><horizontalSlownessUsed>false</horizontalSlownessUsed><backazimuthUsed>false</backazimuthUsed><weight>1</weight></arrival><arrival><pickID>de.gempa.tb1.Pick/20250413190030.42809.133267</pickID><phase>P</phase><azimuth>339.64892578125</azimuth><distance>1.5734028816223145</distance><timeResidual>-0.9389629364013672</timeResidual><timeUsed>true</timeUsed><horizontalSlownessUsed>false</horizontalSlownessUsed><backazimuthUsed>false</backazimuthUsed><weight>1</weight></arrival><arrival><pickID>de.gempa.tb1.Pick/20250413190034.777493.133269</pickID><phase>P</phase><azimuth>354.5704345703125</azimuth><distance>1.7591722011566162</distance><timeResidual>0.4639015197753906</timeResidual><timeUsed>true</timeUsed><horizontalSlownessUsed>false</horizontalSlownessUsed><backazimuthUsed>false</backazimuthUsed><weight>1</weight></arrival><arrival><pickID>de.gempa.tb1.Pick/20250413190039.391902.133275</pickID><phase>P</phase><azimuth>338.1701965332031</azimuth><distance>2.1228296756744385</distance><timeResidual>0.9202022552490234</timeResidual><timeUsed>true</timeUsed><horizontalSlownessUsed>false</horizontalSlownessUsed><backazimuthUsed>false</backazimuthUsed><weight>1</weight></arrival><magnitude publicID="de.gempa.tb1.Magnitude/20250413190043.401202.391724"><magnitude><value>2.685612837762619</value></magnitude><type>M</type><methodID>weighted average</methodID><stationCount>7</stationCount></magnitude></origin><event publicID="gempa2025hhwg"><preferredOriginID>de.gempa.tb1.Origin/20250413190043.395946.117677</preferredOriginID><preferredMagnitudeID>de.gempa.tb1.Magnitude/20250413190043.401202.391724</preferredMagnitudeID><type>mining explosion</type><description><text>Northern Chile</text><type>region name</type></description><originReference>de.gempa.tb1.Origin/20250413190043.395946.117677</originReference></event></EventParameters></seiscomp>