<?xml version="1.0" encoding="UTF-8"?>
<seiscomp xmlns="http://geofon.gfz-potsdam.de/ns/seiscomp3-schema/0.13" version="0.13"><EventParameters><pick publicID="de.gempa.tb1.Pick/20250413015455.789426.128170"><time><value>2025-04-13T01:54:51.248393Z</value></time><waveformID networkCode="CX" stationCode="PB01" channelCode="HHZ"/><filterID>ITAPER(4)&gt;&gt;BW(4,4,20)</filterID><methodID>AIC</methodID><horizontalSlowness><value>7.43025019603407</value></horizontalSlowness><backazimuth><value>59.8811188442197</value></backazimuth><phaseHint>P</phaseHint><evaluationMode>automatic</evaluationMode><comment><text>148.09683431015048</text><id>DFX:rectilinearity</id></comment><comment><text>363.2912020966295</text><id>SNR</id></comment></pick><pick publicID="de.gempa.tb1.Pick/20250413015501.555809.128174"><time><value>2025-04-13T01:54:54.438394Z</value></time><waveformID networkCode="CX" stationCode="PB08" channelCode="HHZ"/><filterID>ITAPER(4)&gt;&gt;BW(4,4,20)</filterID><methodID>AIC</methodID><horizontalSlowness><value>11.528940917273188</value></horizontalSlowness><backazimuth><value>184.23142800478433</value></backazimuth><phaseHint>P</phaseHint><evaluationMode>automatic</evaluationMode><comment><text>19.026489552483685</text><id>DFX:rectilinearity</id></comment><comment><text>26.02958499446856</text><id>SNR</id></comment></pick><pick publicID="de.gempa.tb1.Pick/20250413015501.556161.128176"><time><value>2025-04-13T01:54:55.888393Z</value></time><waveformID networkCode="CX" stationCode="PB02" channelCode="HHZ"/><filterID>ITAPER(4)&gt;&gt;BW(4,4,20)</filterID><methodID>AIC</methodID><horizontalSlowness><value>7.524580521643826</value></horizontalSlowness><backazimuth><value>60.19025347359576</value></backazimuth><phaseHint>P</phaseHint><evaluationMode>automatic</evaluationMode><comment><text>2823.189387683744</text><id>DFX:rectilinearity</id></comment><comment><text>164.6093479708469</text><id>SNR</id></comment></pick><pick publicID="de.gempa.tb1.Pick/20250413015501.671341.128178"><time><value>2025-04-13T01:54:55.86Z</value></time><waveformID networkCode="CX" stationCode="PB09" channelCode="HHZ"/><filterID>ITAPER(4)&gt;&gt;BW(4,4,20)</filterID><methodID>AIC</methodID><horizontalSlowness><value>16.67452810215089</value></horizontalSlowness><backazimuth><value>61.40210558105974</value></backazimuth><phaseHint>P</phaseHint><evaluationMode>automatic</evaluationMode><comment><text>251.61449160716583</text><id>DFX:rectilinearity</id></comment><comment><text>214.2796707308104</text><id>SNR</id></comment></pick><pick publicID="de.gempa.tb1.Pick/20250413015503.326561.128180"><time><value>2025-04-13T01:54:57.789999Z</value></time><waveformID networkCode="CX" stationCode="PATCX" channelCode="HHZ"/><filterID>ITAPER(4)&gt;&gt;BW(4,4,20)</filterID><methodID>AIC</methodID><horizontalSlowness><value>10.415209147067042</value></horizontalSlowness><backazimuth><value>88.74694085868737</value></backazimuth><phaseHint>P</phaseHint><evaluationMode>automatic</evaluationMode><comment><text>614.1540178151419</text><id>DFX:rectilinearity</id></comment><comment><text>45.92306530409114</text><id>SNR</id></comment></pick><pick publicID="de.gempa.tb1.Pick/20250413015506.603857.128182"><time><value>2025-04-13T01:55:00.478393Z</value></time><waveformID networkCode="CX" stationCode="PB03" channelCode="HHZ"/><filterID>ITAPER(4)&gt;&gt;BW(4,4,20)</filterID><methodID>AIC</methodID><horizontalSlowness><value>8.789466148282541</value></horizontalSlowness><backazimuth><value>45.05430845446057</value></backazimuth><phaseHint>P</phaseHint><evaluationMode>automatic</evaluationMode><comment><text>201.45312838355773</text><id>DFX:rectilinearity</id></comment><comment><text>126.19635779818806</text><id>SNR</id></comment></pick><pick publicID="de.gempa.tb1.Pick/20250413015510.571998.128184"><time><value>2025-04-13T01:55:04.08Z</value></time><waveformID networkCode="CX" stationCode="PSGCX" channelCode="HHZ"/><filterID>ITAPER(4)&gt;&gt;BW(4,4,20)</filterID><methodID>AIC</methodID><horizontalSlowness><value>14.881635090384073</value></horizontalSlowness><backazimuth><value>150.785001567927</value></backazimuth><phaseHint>P</phaseHint><evaluationMode>automatic</evaluationMode><comment><text>49.748332145831</text><id>DFX:rectilinearity</id></comment><comment><text>86.37857065079778</text><id>SNR</id></comment></pick><pick publicID="de.gempa.tb1.Pick/20250413015514.787325.128186"><time><value>2025-04-13T01:55:03.898393Z</value></time><waveformID networkCode="CX" stationCode="PB01" channelCode="HHN"/><filterID>ITAPER(2)&gt;&gt;BW(3,3,20)</filterID><methodID>L2-AIC-GRID</methodID><horizontalSlowness><value>20.287453346968714</value></horizontalSlowness><backazimuth><value>263.28780458125703</value></backazimuth><phaseHint>S</phaseHint><evaluationMode>automatic</evaluationMode><comment><text>14183.116611367956</text><id>DFX:rectilinearity</id></comment><comment><text>de.gempa.tb1.Pick/20250413015455.789426.128170</text><id>RefPickID</id></comment><comment><text>11.96093150223072</text><id>SNR</id></comment></pick><pick publicID="de.gempa.tb1.Pick/20250413015515.569571.128187"><time><value>2025-04-13T01:55:07.748393Z</value></time><waveformID networkCode="CX" stationCode="PB06" channelCode="HHZ"/><filterID>ITAPER(4)&gt;&gt;BW(4,4,20)</filterID><methodID>AIC</methodID><horizontalSlowness><value>9.611251540455761</value></horizontalSlowness><backazimuth><value>84.63854562642332</value></backazimuth><phaseHint>P</phaseHint><evaluationMode>automatic</evaluationMode><comment><text>84.52384885049284</text><id>DFX:rectilinearity</id></comment><comment><text>36.909607511805035</text><id>SNR</id></comment></pick><pick publicID="de.gempa.tb1.Pick/20250413015518.6231.128189"><time><value>2025-04-13T01:55:08.108394Z</value></time><waveformID networkCode="CX" stationCode="PB08" channelCode="HHN"/><filterID>ITAPER(2)&gt;&gt;BW(3,3,20)</filterID><methodID>L2-AIC-GRID</methodID><horizontalSlowness><value>15.867318458130542</value></horizontalSlowness><backazimuth><value>204.92895719841533</value></backazimuth><phaseHint>S</phaseHint><evaluationMode>automatic</evaluationMode><comment><text>680.5117990210189</text><id>DFX:rectilinearity</id></comment><comment><text>de.gempa.tb1.Pick/20250413015501.555809.128174</text><id>RefPickID</id></comment><comment><text>7.829065964956314</text><id>SNR</id></comment></pick><pick publicID="de.gempa.tb1.Pick/20250413015521.660822.128190"><time><value>2025-04-13T01:55:15.458393Z</value></time><waveformID networkCode="CX" stationCode="PB15" channelCode="HHZ"/><filterID>ITAPER(4)&gt;&gt;BW(4,4,20)</filterID><methodID>AIC</methodID><horizontalSlowness><value>18.361794113899997</value></horizontalSlowness><backazimuth><value>68.20943177683053</value></backazimuth><phaseHint>P</phaseHint><evaluationMode>automatic</evaluationMode><comment><text>357.47841759609787</text><id>DFX:rectilinearity</id></comment><comment><text>19.032562102253795</text><id>SNR</id></comment></pick><pick publicID="de.gempa.tb1.Pick/20250413015524.661836.128193"><time><value>2025-04-13T01:55:17.858393Z</value></time><waveformID networkCode="CX" stationCode="PB16" channelCode="HHZ"/><filterID>ITAPER(4)&gt;&gt;BW(4,4,20)</filterID><methodID>AIC</methodID><horizontalSlowness><value>17.230947162995147</value></horizontalSlowness><backazimuth><value>179.37938711885747</value></backazimuth><phaseHint>P</phaseHint><evaluationMode>automatic</evaluationMode><comment><text>2.634892215895152</text><id>DFX:rectilinearity</id></comment><comment><text>29.4592213699989</text><id>SNR</id></comment></pick><pick publicID="de.gempa.tb1.Pick/20250413015529.431914.128198"><time><value>2025-04-13T01:55:15.059999Z</value></time><waveformID networkCode="CX" stationCode="PATCX" channelCode="HHN"/><filterID>ITAPER(2)&gt;&gt;BW(3,3,20)</filterID><methodID>L2-AIC-GRID</methodID><horizontalSlowness><value>19.457697170215464</value></horizontalSlowness><backazimuth><value>67.10002266514776</value></backazimuth><phaseHint>S</phaseHint><evaluationMode>automatic</evaluationMode><comment><text>14619.93542321</text><id>DFX:rectilinearity</id></comment><comment><text>de.gempa.tb1.Pick/20250413015503.326561.128180</text><id>RefPickID</id></comment><comment><text>9.117269314374917</text><id>SNR</id></comment></pick><pick publicID="de.gempa.tb1.Pick/20250413015531.773646.128202"><time><value>2025-04-13T01:55:20.528393Z</value></time><waveformID networkCode="CX" stationCode="PB03" channelCode="HHN"/><filterID>ITAPER(2)&gt;&gt;BW(3,3,20)</filterID><methodID>L2-AIC-GRID</methodID><horizontalSlowness><value>7.14030276878327</value></horizontalSlowness><backazimuth><value>257.65916496196326</value></backazimuth><phaseHint>S</phaseHint><evaluationMode>automatic</evaluationMode><comment><text>2329.774585130436</text><id>DFX:rectilinearity</id></comment><comment><text>de.gempa.tb1.Pick/20250413015506.603857.128182</text><id>RefPickID</id></comment><comment><text>5.212075517540579</text><id>SNR</id></comment></pick><origin publicID="de.gempa.tb1.Origin/20250413015531.777044.98084"><time><value>2025-04-13T01:54:36.925043Z</value><uncertainty>0.5959791541099548</uncertainty></time><latitude><value>-20.882020950317383</value><uncertainty>2.9027533531188965</uncertainty></latitude><longitude><value>-68.98371887207031</value><uncertainty>6.588268756866455</uncertainty></longitude><depth><value>94.7173843383789</value><uncertainty>6.872268199920654</uncertainty></depth><depthType>from location</depthType><methodID>LOCSAT</methodID><earthModelID>iasp91_scanloc</earthModelID><quality><associatedPhaseCount>14</associatedPhaseCount><usedPhaseCount>14</usedPhaseCount><associatedStationCount>10</associatedStationCount><usedStationCount>10</usedStationCount><depthPhaseCount>0</depthPhaseCount><standardError>0.6905513367039532</standardError><azimuthalGap>202.0770721435547</azimuthalGap><maximumDistance>2.5813684463500977</maximumDistance><minimumDistance>0.4973209500312805</minimumDistance><medianDistance>1.0952098369598389</medianDistance></quality><uncertainty><minHorizontalUncertainty>6.039756298065186</minHorizontalUncertainty><maxHorizontalUncertainty>14.20815658569336</maxHorizontalUncertainty><azimuthMaxHorizontalUncertainty>96.72620391845703</azimuthMaxHorizontalUncertainty><preferredDescription>horizontal uncertainty</preferredDescription></uncertainty><evaluationMode>automatic</evaluationMode><evaluationStatus>confirmed</evaluationStatus><comment><text>0.08</text><id>mismatchScore</id></comment><comment><text>mismatchScore</text><id>scevalMethod</id></comment><arrival><pickID>de.gempa.tb1.Pick/20250413015455.789426.128170</pickID><phase>P</phase><azimuth>251.0942077636719</azimuth><distance>0.4973209500312805</distance><timeResidual>-0.8872146606445312</timeResidual><timeUsed>true</timeUsed><horizontalSlownessUsed>false</horizontalSlownessUsed><backazimuthUsed>false</backazimuthUsed><weight>1</weight></arrival><arrival><pickID>de.gempa.tb1.Pick/20250413015501.555809.128174</pickID><phase>P</phase><azimuth>347.7945861816406</azimuth><distance>0.7541111707687378</distance><timeResidual>0.05673885345458984</timeResidual><timeUsed>true</timeUsed><horizontalSlownessUsed>false</horizontalSlownessUsed><backazimuthUsed>false</backazimuthUsed><weight>1</weight></arrival><arrival><pickID>de.gempa.tb1.Pick/20250413015501.556161.128176</pickID><phase>P</phase><azimuth>242.7582092285156</azimuth><distance>0.9567491412162781</distance><timeResidual>-0.5920467376708984</timeResidual><timeUsed>true</timeUsed><horizontalSlownessUsed>false</horizontalSlownessUsed><backazimuthUsed>false</backazimuthUsed><weight>1</weight></arrival><arrival><pickID>de.gempa.tb1.Pick/20250413015501.671341.128178</pickID><phase>P</phase><azimuth>194.7723846435547</azimuth><distance>0.9411473870277405</distance><timeResidual>-0.44851016998291016</timeResidual><timeUsed>true</timeUsed><horizontalSlownessUsed>false</horizontalSlownessUsed><backazimuthUsed>false</backazimuthUsed><weight>1</weight></arrival><arrival><pickID>de.gempa.tb1.Pick/20250413015503.326561.128180</pickID><phase>P</phase><azimuth>272.9861145019531</azimuth><distance>1.0952098369598389</distance><timeResidual>-0.24517822265625</timeResidual><timeUsed>true</timeUsed><horizontalSlownessUsed>false</horizontalSlownessUsed><backazimuthUsed>false</backazimuthUsed><weight>1</weight></arrival><arrival><pickID>de.gempa.tb1.Pick/20250413015506.603857.128182</pickID><phase>P</phase><azimuth>211.5531005859375</azimuth><distance>1.364120602607727</distance><timeResidual>-0.7458734512329102</timeResidual><timeUsed>true</timeUsed><horizontalSlownessUsed>false</horizontalSlownessUsed><backazimuthUsed>false</backazimuthUsed><weight>1</weight></arrival><arrival><pickID>de.gempa.tb1.Pick/20250413015510.571998.128184</pickID><phase>P</phase><azimuth>319.8757629394531</azimuth><distance>1.6668840646743774</distance><timeResidual>-0.9349212646484375</timeResidual><timeUsed>true</timeUsed><horizontalSlownessUsed>false</horizontalSlownessUsed><backazimuthUsed>false</backazimuthUsed><weight>1</weight></arrival><arrival><pickID>de.gempa.tb1.Pick/20250413015514.787325.128186</pickID><phase>S</phase><azimuth>251.0942077636719</azimuth><distance>0.4973209500312805</distance><timeResidual>0.09018802642822266</timeResidual><timeUsed>true</timeUsed><horizontalSlownessUsed>false</horizontalSlownessUsed><backazimuthUsed>false</backazimuthUsed><weight>1</weight></arrival><arrival><pickID>de.gempa.tb1.Pick/20250413015515.569571.128187</pickID><phase>P</phase><azimuth>196.65371704101562</azimuth><distance>1.8954291343688965</distance><timeResidual>-0.18355464935302734</timeResidual><timeUsed>true</timeUsed><horizontalSlownessUsed>false</horizontalSlownessUsed><backazimuthUsed>false</backazimuthUsed><weight>1</weight></arrival><arrival><pickID>de.gempa.tb1.Pick/20250413015518.6231.128189</pickID><phase>S</phase><azimuth>347.7945861816406</azimuth><distance>0.7541111707687378</distance><timeResidual>0.30411434173583984</timeResidual><timeUsed>true</timeUsed><horizontalSlownessUsed>false</horizontalSlownessUsed><backazimuthUsed>false</backazimuthUsed><weight>1</weight></arrival><arrival><pickID>de.gempa.tb1.Pick/20250413015521.660822.128190</pickID><phase>P</phase><azimuth>190.95741271972656</azimuth><distance>2.358799934387207</distance><timeResidual>1.458115577697754</timeResidual><timeUsed>true</timeUsed><horizontalSlownessUsed>false</horizontalSlownessUsed><backazimuthUsed>false</backazimuthUsed><weight>1</weight></arrival><arrival><pickID>de.gempa.tb1.Pick/20250413015524.661836.128193</pickID><phase>P</phase><azimuth>348.8803405761719</azimuth><distance>2.5813684463500977</distance><timeResidual>0.8845338821411133</timeResidual><timeUsed>true</timeUsed><horizontalSlownessUsed>false</horizontalSlownessUsed><backazimuthUsed>false</backazimuthUsed><weight>1</weight></arrival><arrival><pickID>de.gempa.tb1.Pick/20250413015529.431914.128198</pickID><phase>S</phase><azimuth>272.9861145019531</azimuth><distance>1.0952098369598389</distance><timeResidual>0.738642692565918</timeResidual><timeUsed>true</timeUsed><horizontalSlownessUsed>false</horizontalSlownessUsed><backazimuthUsed>false</backazimuthUsed><weight>1</weight></arrival><arrival><pickID>de.gempa.tb1.Pick/20250413015531.773646.128202</pickID><phase>S</phase><azimuth>211.5531005859375</azimuth><distance>1.364120602607727</distance><timeResidual>0.5050573348999023</timeResidual><timeUsed>true</timeUsed><horizontalSlownessUsed>false</horizontalSlownessUsed><backazimuthUsed>false</backazimuthUsed><weight>1</weight></arrival><magnitude publicID="de.gempa.tb1.Magnitude/20250413015531.78505.300756"><magnitude><value>2.8112844847144083</value></magnitude><type>M</type><methodID>weighted average</methodID><stationCount>7</stationCount></magnitude></origin><event publicID="gempa2025hgob"><preferredOriginID>de.gempa.tb1.Origin/20250413015531.777044.98084</preferredOriginID><preferredMagnitudeID>de.gempa.tb1.Magnitude/20250413015531.78505.300756</preferredMagnitudeID><description><text>Chile-Bolivia Border Region</text><type>region name</type></description><originReference>de.gempa.tb1.Origin/20250413015531.777044.98084</originReference></event></EventParameters></seiscomp>