<?xml version="1.0" encoding="UTF-8"?>
<seiscomp xmlns="http://geofon.gfz-potsdam.de/ns/seiscomp3-schema/0.13" version="0.13"><EventParameters><pick publicID="de.gempa.tb1.Pick/20250412093127.517077.123213"><time><value>2025-04-12T09:31:21.198393Z</value></time><waveformID networkCode="CX" stationCode="PB01" channelCode="HHZ"/><filterID>ITAPER(4)&gt;&gt;BW(4,4,20)</filterID><methodID>AIC</methodID><horizontalSlowness><value>20.223031490008804</value></horizontalSlowness><backazimuth><value>326.62607572709857</value></backazimuth><phaseHint>P</phaseHint><evaluationMode>automatic</evaluationMode><comment><text>12.492034659156925</text><id>DFX:rectilinearity</id></comment><comment><text>30.4674139942329</text><id>SNR</id></comment></pick><pick publicID="de.gempa.tb1.Pick/20250412093129.666206.123215"><time><value>2025-04-12T09:31:24.178391Z</value></time><waveformID networkCode="CX" stationCode="PB07" channelCode="HHZ"/><filterID>ITAPER(4)&gt;&gt;BW(4,4,20)</filterID><methodID>AIC</methodID><horizontalSlowness><value>23.192590000294054</value></horizontalSlowness><backazimuth><value>75.55913790394767</value></backazimuth><phaseHint>P</phaseHint><evaluationMode>automatic</evaluationMode><comment><text>346.85938561079837</text><id>DFX:rectilinearity</id></comment><comment><text>22.63053693626665</text><id>SNR</id></comment></pick><pick publicID="de.gempa.tb1.Pick/20250412093130.501153.123217"><time><value>2025-04-12T09:31:24.588393Z</value></time><waveformID networkCode="CX" stationCode="PB02" channelCode="HHZ"/><filterID>ITAPER(4)&gt;&gt;BW(4,4,20)</filterID><methodID>AIC</methodID><horizontalSlowness><value>23.016198815159285</value></horizontalSlowness><backazimuth><value>26.66899866754727</value></backazimuth><phaseHint>P</phaseHint><evaluationMode>automatic</evaluationMode><comment><text>44.833281370712534</text><id>DFX:rectilinearity</id></comment><comment><text>19.633458619698708</text><id>SNR</id></comment></pick><pick publicID="de.gempa.tb1.Pick/20250412093131.586405.123219"><time><value>2025-04-12T09:31:23.628393Z</value></time><waveformID networkCode="CX" stationCode="PB03" channelCode="HHZ"/><filterID>ITAPER(4)&gt;&gt;BW(4,4,20)</filterID><methodID>AIC</methodID><horizontalSlowness><value>11.313352825509716</value></horizontalSlowness><backazimuth><value>217.05556540638574</value></backazimuth><phaseHint>P</phaseHint><evaluationMode>automatic</evaluationMode><comment><text>4.836487854613208</text><id>DFX:rectilinearity</id></comment><comment><text>13.735055990214018</text><id>SNR</id></comment></pick><pick publicID="de.gempa.tb1.Pick/20250412093132.715668.123221"><time><value>2025-04-12T09:31:18.750001Z</value></time><waveformID networkCode="CX" stationCode="PB09" channelCode="HHZ"/><filterID>ITAPER(4)&gt;&gt;BW(4,4,20)</filterID><methodID>AIC</methodID><horizontalSlowness><value>23.00775031934175</value></horizontalSlowness><backazimuth><value>84.37027352581525</value></backazimuth><phaseHint>P</phaseHint><evaluationMode>automatic</evaluationMode><comment><text>8.52400446860081</text><id>DFX:rectilinearity</id></comment><comment><text>28.14794323516362</text><id>SNR</id></comment></pick><pick publicID="de.gempa.tb1.Pick/20250412093133.060519.123223"><time><value>2025-04-12T09:31:27.408393Z</value></time><waveformID networkCode="CX" stationCode="PB08" channelCode="HHZ"/><filterID>ITAPER(4)&gt;&gt;BW(4,4,20)</filterID><methodID>AIC</methodID><horizontalSlowness><value>14.8624796266514</value></horizontalSlowness><backazimuth><value>202.1373230340755</value></backazimuth><phaseHint>P</phaseHint><evaluationMode>automatic</evaluationMode><comment><text>37.11445227035341</text><id>DFX:rectilinearity</id></comment><comment><text>16.20263466351016</text><id>SNR</id></comment></pick><pick publicID="de.gempa.tb1.Pick/20250412093142.572929.123225"><time><value>2025-04-12T09:31:36.88Z</value></time><waveformID networkCode="CX" stationCode="PSGCX" channelCode="HHZ"/><filterID>ITAPER(4)&gt;&gt;BW(4,4,20)</filterID><methodID>AIC</methodID><horizontalSlowness><value>13.556634246959675</value></horizontalSlowness><backazimuth><value>115.47178897112624</value></backazimuth><phaseHint>P</phaseHint><evaluationMode>automatic</evaluationMode><comment><text>15.247463509954574</text><id>DFX:rectilinearity</id></comment><comment><text>39.51165994025707</text><id>SNR</id></comment></pick><pick publicID="de.gempa.tb1.Pick/20250412093142.575917.123227"><time><value>2025-04-12T09:31:37.93Z</value></time><waveformID networkCode="CX" stationCode="PB19" channelCode="HHZ"/><filterID>ITAPER(4)&gt;&gt;BW(4,4,20)</filterID><methodID>AIC</methodID><horizontalSlowness><value>22.032856942467873</value></horizontalSlowness><backazimuth><value>28.558620880496875</value></backazimuth><phaseHint>P</phaseHint><evaluationMode>automatic</evaluationMode><comment><text>28.27190347570651</text><id>DFX:rectilinearity</id></comment><comment><text>11.79173729672521</text><id>SNR</id></comment></pick><pick publicID="de.gempa.tb1.Pick/20250412093147.764155.123229"><time><value>2025-04-12T09:31:39.528393Z</value></time><waveformID networkCode="CX" stationCode="PB01" channelCode="HHN"/><filterID>ITAPER(2)&gt;&gt;BW(3,3,20)</filterID><methodID>L2-AIC-GRID</methodID><horizontalSlowness><value>21.530417387814282</value></horizontalSlowness><backazimuth><value>0.2531191171646583</value></backazimuth><phaseHint>S</phaseHint><evaluationMode>automatic</evaluationMode><comment><text>914.7505090788216</text><id>DFX:rectilinearity</id></comment><comment><text>de.gempa.tb1.Pick/20250412093127.517077.123213</text><id>RefPickID</id></comment><comment><text>9.920449119245601</text><id>SNR</id></comment></pick><pick publicID="de.gempa.tb1.Pick/20250412093148.576212.123230"><time><value>2025-04-12T09:31:42.958393Z</value></time><waveformID networkCode="CX" stationCode="PB03" channelCode="HHN"/><filterID>ITAPER(2)&gt;&gt;BW(3,3,20)</filterID><methodID>L2-AIC-GRID</methodID><horizontalSlowness><value>19.731951408062827</value></horizontalSlowness><backazimuth><value>242.30256201879314</value></backazimuth><phaseHint>S</phaseHint><evaluationMode>automatic</evaluationMode><comment><text>50.9882015348631</text><id>DFX:rectilinearity</id></comment><comment><text>de.gempa.tb1.Pick/20250412093131.586405.123219</text><id>RefPickID</id></comment><comment><text>9.600722352949504</text><id>SNR</id></comment></pick><pick publicID="de.gempa.tb1.Pick/20250412093152.546136.123231"><time><value>2025-04-12T09:31:44.368393Z</value></time><waveformID networkCode="CX" stationCode="PB02" channelCode="HHN"/><filterID>ITAPER(2)&gt;&gt;BW(3,3,20)</filterID><methodID>L2-AIC-GRID</methodID><horizontalSlowness><value>17.384820290960747</value></horizontalSlowness><backazimuth><value>330.0753452834334</value></backazimuth><phaseHint>S</phaseHint><evaluationMode>automatic</evaluationMode><comment><text>473.0094837942374</text><id>DFX:rectilinearity</id></comment><comment><text>de.gempa.tb1.Pick/20250412093130.501153.123217</text><id>RefPickID</id></comment><comment><text>7.15454739943601</text><id>SNR</id></comment></pick><pick publicID="de.gempa.tb1.Pick/20250412093202.677859.123234"><time><value>2025-04-12T09:31:50.568393Z</value></time><waveformID networkCode="CX" stationCode="PB08" channelCode="HHN"/><filterID>ITAPER(2)&gt;&gt;BW(3,3,20)</filterID><methodID>L2-AIC-GRID</methodID><horizontalSlowness><value>13.430937656053654</value></horizontalSlowness><backazimuth><value>204.34754434015156</value></backazimuth><phaseHint>S</phaseHint><evaluationMode>automatic</evaluationMode><comment><text>80.02337955416426</text><id>DFX:rectilinearity</id></comment><comment><text>de.gempa.tb1.Pick/20250412093133.060519.123223</text><id>RefPickID</id></comment><comment><text>6.284554608388054</text><id>SNR</id></comment></pick><pick publicID="de.gempa.tb1.Pick/20250412093214.704701.123236"><time><value>2025-04-12T09:32:08.45Z</value></time><waveformID networkCode="CX" stationCode="PB19" channelCode="HHN"/><filterID>ITAPER(2)&gt;&gt;BW(3,3,20)</filterID><methodID>L2-AIC-GRID</methodID><horizontalSlowness><value>22.2949175465526</value></horizontalSlowness><backazimuth><value>323.50186788693156</value></backazimuth><phaseHint>S</phaseHint><evaluationMode>automatic</evaluationMode><comment><text>28.64177995590502</text><id>DFX:rectilinearity</id></comment><comment><text>de.gempa.tb1.Pick/20250412093142.575917.123227</text><id>RefPickID</id></comment><comment><text>5.333396941370274</text><id>SNR</id></comment></pick><pick publicID="de.gempa.tb1.Pick/20250412093217.725789.123237"><time><value>2025-04-12T09:32:08.01Z</value></time><waveformID networkCode="CX" stationCode="PSGCX" channelCode="HHN"/><filterID>ITAPER(2)&gt;&gt;BW(3,3,20)</filterID><methodID>L2-AIC-GRID</methodID><horizontalSlowness><value>17.41337038382018</value></horizontalSlowness><backazimuth><value>276.5075955230335</value></backazimuth><phaseHint>S</phaseHint><evaluationMode>automatic</evaluationMode><comment><text>58.11300918330983</text><id>DFX:rectilinearity</id></comment><comment><text>de.gempa.tb1.Pick/20250412093142.572929.123225</text><id>RefPickID</id></comment><comment><text>7.409388833574862</text><id>SNR</id></comment></pick><origin publicID="de.gempa.tb1.Origin/20250412093217.736842.80085"><time><value>2025-04-12T09:30:58.108544Z</value><uncertainty>0.7834281921386719</uncertainty></time><latitude><value>-21.56608772277832</value><uncertainty>2.780010938644409</uncertainty></latitude><longitude><value>-68.679443359375</value><uncertainty>9.854796409606934</uncertainty></longitude><depth><value>145.57669067382812</value><uncertainty>9.638484001159668</uncertainty></depth><depthType>from location</depthType><methodID>LOCSAT</methodID><earthModelID>iasp91_scanloc</earthModelID><quality><associatedPhaseCount>14</associatedPhaseCount><usedPhaseCount>14</usedPhaseCount><associatedStationCount>8</associatedStationCount><usedStationCount>8</usedStationCount><depthPhaseCount>0</depthPhaseCount><standardError>0.4803740034019982</standardError><azimuthalGap>210.9564971923828</azimuthalGap><maximumDistance>2.395083427429199</maximumDistance><minimumDistance>0.5711511373519897</minimumDistance><medianDistance>1.1595900058746338</medianDistance></quality><uncertainty><minHorizontalUncertainty>5.921314239501953</minHorizontalUncertainty><maxHorizontalUncertainty>21.140308380126953</maxHorizontalUncertainty><azimuthMaxHorizontalUncertainty>88.07283020019531</azimuthMaxHorizontalUncertainty><preferredDescription>horizontal uncertainty</preferredDescription></uncertainty><evaluationMode>automatic</evaluationMode><evaluationStatus>confirmed</evaluationStatus><comment><text>0.22</text><id>mismatchScore</id></comment><comment><text>mismatchScore</text><id>scevalMethod</id></comment><arrival><pickID>de.gempa.tb1.Pick/20250412093127.517077.123213</pickID><phase>P</phase><azimuth>304.4811706542969</azimuth><distance>0.9155836701393127</distance><timeResidual>-0.55120849609375</timeResidual><timeUsed>true</timeUsed><horizontalSlownessUsed>false</horizontalSlownessUsed><backazimuthUsed>false</backazimuthUsed><weight>1</weight></arrival><arrival><pickID>de.gempa.tb1.Pick/20250412093129.666206.123215</pickID><phase>P</phase><azimuth>261.67803955078125</azimuth><distance>1.1339646577835083</distance><timeResidual>0.5189228057861328</timeResidual><timeUsed>true</timeUsed><horizontalSlownessUsed>false</horizontalSlownessUsed><backazimuthUsed>false</backazimuthUsed><weight>1</weight></arrival><arrival><pickID>de.gempa.tb1.Pick/20250412093130.501153.123217</pickID><phase>P</phase><azimuth>281.98321533203125</azimuth><distance>1.1595900058746338</distance><timeResidual>0.6860790252685547</timeResidual><timeUsed>true</timeUsed><horizontalSlownessUsed>false</horizontalSlownessUsed><backazimuthUsed>false</backazimuthUsed><weight>1</weight></arrival><arrival><pickID>de.gempa.tb1.Pick/20250412093131.586405.123219</pickID><phase>P</phase><azimuth>244.10914611816406</azimuth><distance>1.1072081327438354</distance><timeResidual>0.21879196166992188</timeResidual><timeUsed>true</timeUsed><horizontalSlownessUsed>false</horizontalSlownessUsed><backazimuthUsed>false</backazimuthUsed><weight>1</weight></arrival><arrival><pickID>de.gempa.tb1.Pick/20250412093132.715668.123221</pickID><phase>P</phase><azimuth>246.2413787841797</azimuth><distance>0.5711511373519897</distance><timeResidual>-0.5754280090332031</timeResidual><timeUsed>true</timeUsed><horizontalSlownessUsed>false</horizontalSlownessUsed><backazimuthUsed>false</backazimuthUsed><weight>1</weight></arrival><arrival><pickID>de.gempa.tb1.Pick/20250412093133.060519.123223</pickID><phase>P</phase><azimuth>342.5538635253906</azimuth><distance>1.4855009317398071</distance><timeResidual>0.21865272521972656</timeResidual><timeUsed>true</timeUsed><horizontalSlownessUsed>false</horizontalSlownessUsed><backazimuthUsed>false</backazimuthUsed><weight>1</weight></arrival><arrival><pickID>de.gempa.tb1.Pick/20250412093142.572929.123225</pickID><phase>P</phase><azimuth>325.1217041015625</azimuth><distance>2.38049578666687</distance><timeResidual>-0.6770687103271484</timeResidual><timeUsed>true</timeUsed><horizontalSlownessUsed>false</horizontalSlownessUsed><backazimuthUsed>false</backazimuthUsed><weight>1</weight></arrival><arrival><pickID>de.gempa.tb1.Pick/20250412093142.575917.123227</pickID><phase>P</phase><azimuth>193.51036071777344</azimuth><distance>2.395083427429199</distance><timeResidual>0.2241077423095703</timeResidual><timeUsed>true</timeUsed><horizontalSlownessUsed>false</horizontalSlownessUsed><backazimuthUsed>false</backazimuthUsed><weight>1</weight></arrival><arrival><pickID>de.gempa.tb1.Pick/20250412093147.764155.123229</pickID><phase>S</phase><azimuth>304.4811706542969</azimuth><distance>0.9155836701393127</distance><timeResidual>-0.57403564453125</timeResidual><timeUsed>true</timeUsed><horizontalSlownessUsed>false</horizontalSlownessUsed><backazimuthUsed>false</backazimuthUsed><weight>1</weight></arrival><arrival><pickID>de.gempa.tb1.Pick/20250412093148.576212.123230</pickID><phase>S</phase><azimuth>244.10914611816406</azimuth><distance>1.1072081327438354</distance><timeResidual>-0.10885429382324219</timeResidual><timeUsed>true</timeUsed><horizontalSlownessUsed>false</horizontalSlownessUsed><backazimuthUsed>false</backazimuthUsed><weight>1</weight></arrival><arrival><pickID>de.gempa.tb1.Pick/20250412093152.546136.123231</pickID><phase>S</phase><azimuth>281.98321533203125</azimuth><distance>1.1595900058746338</distance><timeResidual>0.42156982421875</timeResidual><timeUsed>true</timeUsed><horizontalSlownessUsed>false</horizontalSlownessUsed><backazimuthUsed>false</backazimuthUsed><weight>1</weight></arrival><arrival><pickID>de.gempa.tb1.Pick/20250412093202.677859.123234</pickID><phase>S</phase><azimuth>342.5538635253906</azimuth><distance>1.4855009317398071</distance><timeResidual>0.7514286041259766</timeResidual><timeUsed>true</timeUsed><horizontalSlownessUsed>false</horizontalSlownessUsed><backazimuthUsed>false</backazimuthUsed><weight>1</weight></arrival><arrival><pickID>de.gempa.tb1.Pick/20250412093214.704701.123236</pickID><phase>S</phase><azimuth>193.51036071777344</azimuth><distance>2.395083427429199</distance><timeResidual>-0.19149017333984375</timeResidual><timeUsed>true</timeUsed><horizontalSlownessUsed>false</horizontalSlownessUsed><backazimuthUsed>false</backazimuthUsed><weight>1</weight></arrival><arrival><pickID>de.gempa.tb1.Pick/20250412093217.725789.123237</pickID><phase>S</phase><azimuth>325.1217041015625</azimuth><distance>2.38049578666687</distance><timeResidual>-0.3618965148925781</timeResidual><timeUsed>true</timeUsed><horizontalSlownessUsed>false</horizontalSlownessUsed><backazimuthUsed>false</backazimuthUsed><weight>1</weight></arrival><magnitude publicID="de.gempa.tb1.Magnitude/20250412093225.939733.205071"><magnitude><value>2.438690599777767</value></magnitude><type>M</type><methodID>weighted average</methodID><stationCount>4</stationCount></magnitude></origin><event publicID="gempa2025hfhg"><preferredOriginID>de.gempa.tb1.Origin/20250412093217.736842.80085</preferredOriginID><preferredMagnitudeID>de.gempa.tb1.Magnitude/20250412093225.939733.205071</preferredMagnitudeID><description><text>Chile-Bolivia Border Region</text><type>region name</type></description><originReference>de.gempa.tb1.Origin/20250412093217.736842.80085</originReference></event></EventParameters></seiscomp>