<?xml version="1.0" encoding="UTF-8"?>
<seiscomp xmlns="http://geofon.gfz-potsdam.de/ns/seiscomp3-schema/0.13" version="0.13"><EventParameters><pick publicID="de.gempa.tb1.Pick/20250412223226.471807.127257"><time><value>2025-04-12T22:32:21.529999Z</value></time><waveformID networkCode="CX" stationCode="PATCX" channelCode="HHZ"/><filterID>ITAPER(4)&gt;&gt;BW(4,4,20)</filterID><methodID>AIC</methodID><horizontalSlowness><value>20.699638633308066</value></horizontalSlowness><backazimuth><value>224.81622513778134</value></backazimuth><phaseHint>P</phaseHint><evaluationMode>automatic</evaluationMode><comment><text>297.50248432665126</text><id>DFX:rectilinearity</id></comment><comment><text>8.480171189156314</text><id>SNR</id></comment></pick><pick publicID="de.gempa.tb1.Pick/20250412223228.472296.127259"><time><value>2025-04-12T22:32:23.158393Z</value></time><waveformID networkCode="CX" stationCode="PB02" channelCode="HHZ"/><filterID>ITAPER(4)&gt;&gt;BW(4,4,20)</filterID><methodID>AIC</methodID><horizontalSlowness><value>11.19427426936395</value></horizontalSlowness><backazimuth><value>259.90875989391986</value></backazimuth><phaseHint>P</phaseHint><evaluationMode>automatic</evaluationMode><comment><text>42.361842015072504</text><id>DFX:rectilinearity</id></comment><comment><text>19.960944560530567</text><id>SNR</id></comment></pick><pick publicID="de.gempa.tb1.Pick/20250412223235.624097.127263"><time><value>2025-04-12T22:32:29.108393Z</value></time><waveformID networkCode="CX" stationCode="PB02" channelCode="HHN"/><filterID>ITAPER(2)&gt;&gt;BW(3,3,20)</filterID><methodID>L2-AIC-GRID</methodID><horizontalSlowness><value>7.455527970053832</value></horizontalSlowness><backazimuth><value>265.91294438835223</value></backazimuth><phaseHint>S</phaseHint><evaluationMode>automatic</evaluationMode><comment><text>116.30948790132497</text><id>DFX:rectilinearity</id></comment><comment><text>de.gempa.tb1.Pick/20250412223228.472296.127259</text><id>RefPickID</id></comment><comment><text>11.75219070851642</text><id>SNR</id></comment></pick><pick publicID="de.gempa.tb1.Pick/20250412223238.436051.127266"><time><value>2025-04-12T22:32:26.419999Z</value></time><waveformID networkCode="CX" stationCode="PATCX" channelCode="HHN"/><filterID>ITAPER(2)&gt;&gt;BW(3,3,20)</filterID><methodID>L2-AIC-GRID</methodID><horizontalSlowness><value>21.935493769190032</value></horizontalSlowness><backazimuth><value>239.15208096043716</value></backazimuth><phaseHint>S</phaseHint><evaluationMode>automatic</evaluationMode><comment><text>626.136429405438</text><id>DFX:rectilinearity</id></comment><comment><text>de.gempa.tb1.Pick/20250412223226.471807.127257</text><id>RefPickID</id></comment><comment><text>17.53691277183631</text><id>SNR</id></comment></pick><pick publicID="de.gempa.tb1.Pick/20250412223241.151926.127267"><time><value>2025-04-12T22:32:28.368385Z</value></time><waveformID networkCode="CX" stationCode="PB07" channelCode="HHZ"/><filterID>ITAPER(4)&gt;&gt;BW(4,4,20)</filterID><methodID>AIC</methodID><horizontalSlowness><value>22.223792561916142</value></horizontalSlowness><backazimuth><value>63.30425163883726</value></backazimuth><phaseHint>P</phaseHint><evaluationMode>automatic</evaluationMode><comment><text>188.70869035671032</text><id>DFX:rectilinearity</id></comment><comment><text>9.176157459731565</text><id>SNR</id></comment></pick><pick publicID="de.gempa.tb1.Pick/20250412223244.798798.127269"><time><value>2025-04-12T22:32:38.308385Z</value></time><waveformID networkCode="CX" stationCode="PB07" channelCode="HHN"/><filterID>ITAPER(2)&gt;&gt;BW(3,3,20)</filterID><methodID>L2-AIC-GRID</methodID><horizontalSlowness><value>23.168013958410555</value></horizontalSlowness><backazimuth><value>77.62845351589877</value></backazimuth><phaseHint>S</phaseHint><evaluationMode>automatic</evaluationMode><comment><text>371.46306553323564</text><id>DFX:rectilinearity</id></comment><comment><text>de.gempa.tb1.Pick/20250412223241.151926.127267</text><id>RefPickID</id></comment><comment><text>5.845333589564206</text><id>SNR</id></comment></pick><pick publicID="de.gempa.tb1.Pick/20250412223246.695249.127270"><time><value>2025-04-12T22:32:38.84Z</value></time><waveformID networkCode="CX" stationCode="PSGCX" channelCode="HHZ"/><filterID>ITAPER(4)&gt;&gt;BW(4,4,20)</filterID><methodID>AIC</methodID><horizontalSlowness><value>13.789499782020924</value></horizontalSlowness><backazimuth><value>188.9619827737098</value></backazimuth><phaseHint>P</phaseHint><evaluationMode>automatic</evaluationMode><comment><text>32.179669400505546</text><id>DFX:rectilinearity</id></comment><comment><text>6.793058029346563</text><id>SNR</id></comment></pick><origin publicID="de.gempa.tb1.Origin/20250412223309.036141.94356"><time><value>2025-04-12T22:32:14.539205Z</value><uncertainty>0.8597207069396973</uncertainty></time><latitude><value>-21.07088279724121</value><uncertainty>6.689338207244873</uncertainty></latitude><longitude><value>-70.181884765625</value><uncertainty>18.154315948486328</uncertainty></longitude><depth><value>31.38594436645508</value><uncertainty>7.537140369415283</uncertainty></depth><depthType>from location</depthType><methodID>LOCSAT</methodID><earthModelID>iasp91_scanloc</earthModelID><quality><associatedPhaseCount>7</associatedPhaseCount><usedPhaseCount>7</usedPhaseCount><associatedStationCount>4</associatedStationCount><usedStationCount>4</usedStationCount><depthPhaseCount>0</depthPhaseCount><standardError>0.09918388363051008</standardError><azimuthalGap>205.00725769996643</azimuthalGap><maximumDistance>1.4672497510910034</maximumDistance><minimumDistance>0.2503955364227295</minimumDistance><medianDistance>0.3639642298221588</medianDistance></quality><uncertainty><minHorizontalUncertainty>5.327487468719482</minHorizontalUncertainty><maxHorizontalUncertainty>41.146766662597656</maxHorizontalUncertainty><azimuthMaxHorizontalUncertainty>70.94676971435547</azimuthMaxHorizontalUncertainty><preferredDescription>horizontal uncertainty</preferredDescription></uncertainty><evaluationMode>automatic</evaluationMode><evaluationStatus>confirmed</evaluationStatus><comment><text>0.20</text><id>mismatchScore</id></comment><comment><text>mismatchScore</text><id>scevalMethod</id></comment><arrival><pickID>de.gempa.tb1.Pick/20250412223226.471807.127257</pickID><phase>P</phase><azimuth>6.221437454223633</azimuth><distance>0.2503955364227295</distance><timeResidual>0.06303024291992188</timeResidual><timeUsed>true</timeUsed><horizontalSlownessUsed>false</horizontalSlownessUsed><backazimuthUsed>false</backazimuthUsed><weight>1</weight></arrival><arrival><pickID>de.gempa.tb1.Pick/20250412223228.472296.127259</pickID><phase>P</phase><azimuth>132.92030334472656</azimuth><distance>0.3639642298221588</distance><timeResidual>0.18231725692749023</timeResidual><timeUsed>true</timeUsed><horizontalSlownessUsed>false</horizontalSlownessUsed><backazimuthUsed>false</backazimuthUsed><weight>1</weight></arrival><arrival><pickID>de.gempa.tb1.Pick/20250412223235.624097.127263</pickID><phase>S</phase><azimuth>132.92030334472656</azimuth><distance>0.3639642298221588</distance><timeResidual>-0.02753591537475586</timeResidual><timeUsed>true</timeUsed><horizontalSlownessUsed>false</horizontalSlownessUsed><backazimuthUsed>false</backazimuthUsed><weight>1</weight></arrival><arrival><pickID>de.gempa.tb1.Pick/20250412223238.436051.127266</pickID><phase>S</phase><azimuth>6.221437454223633</azimuth><distance>0.2503955364227295</distance><timeResidual>-0.10154342651367188</timeResidual><timeUsed>true</timeUsed><horizontalSlownessUsed>false</horizontalSlownessUsed><backazimuthUsed>false</backazimuthUsed><weight>1</weight></arrival><arrival><pickID>de.gempa.tb1.Pick/20250412223241.151926.127267</pickID><phase>P</phase><azimuth>157.15963745117188</azimuth><distance>0.7083537578582764</distance><timeResidual>0.04077291488647461</timeResidual><timeUsed>true</timeUsed><horizontalSlownessUsed>false</horizontalSlownessUsed><backazimuthUsed>false</backazimuthUsed><weight>1</weight></arrival><arrival><pickID>de.gempa.tb1.Pick/20250412223244.798798.127269</pickID><phase>S</phase><azimuth>157.15963745117188</azimuth><distance>0.7083537578582764</distance><timeResidual>-0.1358942985534668</timeResidual><timeUsed>true</timeUsed><horizontalSlownessUsed>false</horizontalSlownessUsed><backazimuthUsed>false</backazimuthUsed><weight>1</weight></arrival><arrival><pickID>de.gempa.tb1.Pick/20250412223246.695249.127270</pickID><phase>P</phase><azimuth>2.1668951511383057</azimuth><distance>1.4672497510910034</distance><timeResidual>-0.021230220794677734</timeResidual><timeUsed>true</timeUsed><horizontalSlownessUsed>false</horizontalSlownessUsed><backazimuthUsed>false</backazimuthUsed><weight>1</weight></arrival><magnitude publicID="de.gempa.tb1.Magnitude/20250412223314.504555.289585"><magnitude><value>2.5179054565607437</value></magnitude><type>M</type><methodID>weighted average</methodID><stationCount>3</stationCount></magnitude></origin><event publicID="gempa2025hghh"><preferredOriginID>de.gempa.tb1.Origin/20250412223309.036141.94356</preferredOriginID><preferredMagnitudeID>de.gempa.tb1.Magnitude/20250412223314.504555.289585</preferredMagnitudeID><description><text>Near Coast of Northern Chile</text><type>region name</type></description><originReference>de.gempa.tb1.Origin/20250412223309.036141.94356</originReference></event></EventParameters></seiscomp>