<?xml version="1.0" encoding="UTF-8"?>
<seiscomp xmlns="http://geofon.gfz-potsdam.de/ns/seiscomp3-schema/0.13" version="0.13"><EventParameters><pick publicID="de.gempa.tb1.Pick/20250411102654.21456.124982"><time><value>2025-04-11T10:26:52.185Z</value></time><waveformID networkCode="TH" stationCode="MORAS" channelCode="HHZ"/><filterID>ITAPER(2)&gt;&gt;BW(3,3,20)</filterID><methodID>AIC</methodID><horizontalSlowness><value>18.804489844649932</value></horizontalSlowness><backazimuth><value>259.866224975452</value></backazimuth><phaseHint>P</phaseHint><evaluationMode>automatic</evaluationMode><comment><text>4025.3430976475647</text><id>DFX:rectilinearity</id></comment></pick><pick publicID="de.gempa.tb1.Pick/20250411102658.128159.124986"><time><value>2025-04-11T10:26:52.909999Z</value></time><waveformID networkCode="TH" stationCode="LEIB1" channelCode="HHZ"/><filterID>ITAPER(2)&gt;&gt;BW(3,3,20)</filterID><methodID>AIC</methodID><horizontalSlowness><value>18.775101019443163</value></horizontalSlowness><backazimuth><value>293.5955446937029</value></backazimuth><phaseHint>P</phaseHint><evaluationMode>automatic</evaluationMode><comment><text>1425.9303094083864</text><id>DFX:rectilinearity</id></comment></pick><pick publicID="de.gempa.tb1.Pick/20250411102659.000632.124988"><time><value>2025-04-11T10:26:54.23Z</value></time><waveformID networkCode="TH" stationCode="MORAS" channelCode="HHN"/><filterID>ITAPER(3)&gt;&gt;BW(4,3,10)</filterID><methodID>L2-AIC-GRID</methodID><horizontalSlowness><value>6.505427353192233</value></horizontalSlowness><backazimuth><value>66.12120842582343</value></backazimuth><phaseHint>S</phaseHint><evaluationMode>automatic</evaluationMode><comment><text>15481.973196955389</text><id>DFX:rectilinearity</id></comment><comment><text>de.gempa.tb1.Pick/20250411102654.21456.124982</text><id>RefPickID</id></comment></pick><pick publicID="de.gempa.tb1.Pick/20250411102703.134864.124992"><time><value>2025-04-11T10:26:55.699999Z</value></time><waveformID networkCode="TH" stationCode="LEIB1" channelCode="HHN"/><filterID>ITAPER(3)&gt;&gt;BW(4,3,10)</filterID><methodID>L2-AIC-GRID</methodID><horizontalSlowness><value>6.799063044748905</value></horizontalSlowness><backazimuth><value>142.06254547594403</value></backazimuth><phaseHint>S</phaseHint><evaluationMode>automatic</evaluationMode><comment><text>25201.775033344995</text><id>DFX:rectilinearity</id></comment><comment><text>de.gempa.tb1.Pick/20250411102658.128159.124986</text><id>RefPickID</id></comment></pick><pick publicID="de.gempa.tb1.Pick/20250411102704.6368.124995"><time><value>2025-04-11T10:26:55.84Z</value></time><waveformID networkCode="TH" stationCode="CRUX" channelCode="HHZ"/><filterID>ITAPER(2)&gt;&gt;BW(3,3,20)</filterID><methodID>AIC</methodID><horizontalSlowness><value>15.80339879333565</value></horizontalSlowness><backazimuth><value>130.16809874202562</value></backazimuth><phaseHint>P</phaseHint><evaluationMode>automatic</evaluationMode><comment><text>42.78516152012783</text><id>DFX:rectilinearity</id></comment></pick><pick publicID="de.gempa.tb1.Pick/20250411102707.497144.124997"><time><value>2025-04-11T10:27:01.13Z</value></time><waveformID networkCode="SX" stationCode="TRIB" channelCode="HHZ"/><filterID>ITAPER(2)&gt;&gt;BW(3,3,20)</filterID><methodID>AIC</methodID><horizontalSlowness><value>10.907141281797845</value></horizontalSlowness><backazimuth><value>224.35372624410593</value></backazimuth><phaseHint>P</phaseHint><evaluationMode>automatic</evaluationMode><comment><text>7.714300498267597</text><id>DFX:rectilinearity</id></comment></pick><pick publicID="de.gempa.tb1.Pick/20250411102707.497431.124999"><time><value>2025-04-11T10:27:03.925Z</value></time><waveformID networkCode="BW" stationCode="MANZ" channelCode="HHZ"/><filterID>ITAPER(2)&gt;&gt;BW(3,3,20)</filterID><methodID>AIC</methodID><horizontalSlowness><value>16.8642011398503</value></horizontalSlowness><backazimuth><value>278.1028657619709</value></backazimuth><phaseHint>P</phaseHint><evaluationMode>automatic</evaluationMode><comment><text>13.104344272742704</text><id>DFX:rectilinearity</id></comment></pick><pick publicID="de.gempa.tb1.Pick/20250411102709.480381.125001"><time><value>2025-04-11T10:27:04.3275Z</value></time><waveformID networkCode="SX" stationCode="WERN" channelCode="HHZ"/><filterID>ITAPER(2)&gt;&gt;BW(3,3,20)</filterID><methodID>AIC</methodID><horizontalSlowness><value>13.673427255777934</value></horizontalSlowness><backazimuth><value>320.0528739739558</value></backazimuth><phaseHint>P</phaseHint><evaluationMode>automatic</evaluationMode><comment><text>8.410712377095377</text><id>DFX:rectilinearity</id></comment></pick><pick publicID="de.gempa.tb1.Pick/20250411102710.55778.125006"><time><value>2025-04-11T10:27:07.53Z</value></time><waveformID networkCode="BW" stationCode="ROTZ" channelCode="HHZ"/><filterID>ITAPER(2)&gt;&gt;BW(3,3,20)</filterID><methodID>AIC</methodID><horizontalSlowness><value>15.842620153009642</value></horizontalSlowness><backazimuth><value>316.1989621653993</value></backazimuth><phaseHint>P</phaseHint><evaluationMode>automatic</evaluationMode><comment><text>17.517354371503107</text><id>DFX:rectilinearity</id></comment></pick><pick publicID="de.gempa.tb1.Pick/20250411102713.852107.125010"><time><value>2025-04-11T10:27:06.44Z</value></time><waveformID networkCode="SX" stationCode="TANN" channelCode="HHZ"/><filterID>ITAPER(2)&gt;&gt;BW(3,3,20)</filterID><methodID>AIC</methodID><horizontalSlowness><value>15.21159902166989</value></horizontalSlowness><backazimuth><value>264.2663936833839</value></backazimuth><phaseHint>P</phaseHint><evaluationMode>automatic</evaluationMode><comment><text>14.964148856275656</text><id>DFX:rectilinearity</id></comment></pick><pick publicID="de.gempa.tb1.Pick/20250411102716.020248.125012"><time><value>2025-04-11T10:27:09.41Z</value></time><waveformID networkCode="TH" stationCode="ANNA" channelCode="HHZ"/><filterID>ITAPER(2)&gt;&gt;BW(3,3,20)</filterID><methodID>AIC</methodID><horizontalSlowness><value>20.334796756304947</value></horizontalSlowness><backazimuth><value>247.05476663466675</value></backazimuth><phaseHint>P</phaseHint><evaluationMode>automatic</evaluationMode><comment><text>40.03586148932837</text><id>DFX:rectilinearity</id></comment></pick><pick publicID="de.gempa.tb1.Pick/20250411102716.653332.125015"><time><value>2025-04-11T10:27:09.029999Z</value></time><waveformID networkCode="TH" stationCode="POSS" channelCode="HHZ"/><filterID>ITAPER(2)&gt;&gt;BW(3,3,20)</filterID><methodID>AIC</methodID><horizontalSlowness><value>23.07644338197595</value></horizontalSlowness><backazimuth><value>251.4535603320948</value></backazimuth><phaseHint>P</phaseHint><evaluationMode>automatic</evaluationMode><comment><text>107.0848840352436</text><id>DFX:rectilinearity</id></comment></pick><pick publicID="de.gempa.tb1.Pick/20250411102716.654243.125017"><time><value>2025-04-11T10:27:06.9Z</value></time><waveformID networkCode="TH" stationCode="SPAHL" channelCode="HHZ"/><filterID>ITAPER(2)&gt;&gt;BW(3,3,20)</filterID><methodID>AIC</methodID><horizontalSlowness><value>23.03747515522981</value></horizontalSlowness><backazimuth><value>210.82298189996476</value></backazimuth><phaseHint>P</phaseHint><evaluationMode>automatic</evaluationMode><comment><text>33.297074914297184</text><id>DFX:rectilinearity</id></comment></pick><pick publicID="de.gempa.tb1.Pick/20250411102719.678893.125021"><time><value>2025-04-11T10:27:06.104999Z</value></time><waveformID networkCode="TH" stationCode="VITZ" channelCode="HHZ"/><filterID>ITAPER(2)&gt;&gt;BW(3,3,20)</filterID><methodID>AIC</methodID><horizontalSlowness><value>21.02049625532262</value></horizontalSlowness><backazimuth><value>39.52796627189383</value></backazimuth><phaseHint>P</phaseHint><evaluationMode>automatic</evaluationMode><comment><text>1603.003587349118</text><id>DFX:rectilinearity</id></comment></pick><pick publicID="de.gempa.tb1.Pick/20250411102723.155156.125029"><time><value>2025-04-11T10:27:08.639999Z</value></time><waveformID networkCode="TH" stationCode="MODW" channelCode="HHZ"/><filterID>ITAPER(2)&gt;&gt;BW(3,3,20)</filterID><methodID>AIC</methodID><horizontalSlowness><value>10.269526700273211</value></horizontalSlowness><backazimuth><value>0.8044817320286484</value></backazimuth><phaseHint>P</phaseHint><evaluationMode>automatic</evaluationMode><comment><text>105.69836627618625</text><id>DFX:rectilinearity</id></comment></pick><pick publicID="de.gempa.tb1.Pick/20250411102723.454718.125031"><time><value>2025-04-11T10:27:12.464999Z</value></time><waveformID networkCode="TH" stationCode="NEUST" channelCode="HHZ"/><filterID>ITAPER(2)&gt;&gt;BW(3,3,20)</filterID><methodID>AIC</methodID><horizontalSlowness><value>12.401919881571862</value></horizontalSlowness><backazimuth><value>174.1955712725663</value></backazimuth><phaseHint>P</phaseHint><evaluationMode>automatic</evaluationMode><comment><text>3.9816480445504414</text><id>DFX:rectilinearity</id></comment></pick><pick publicID="de.gempa.tb1.Pick/20250411102724.493471.125034"><time><value>2025-04-11T10:27:15.2575Z</value></time><waveformID networkCode="SX" stationCode="WERN" channelCode="HHN"/><filterID>ITAPER(3)&gt;&gt;BW(4,3,10)</filterID><methodID>L2-AIC-GRID</methodID><horizontalSlowness><value>23.25307684530083</value></horizontalSlowness><backazimuth><value>328.2072062948631</value></backazimuth><phaseHint>S</phaseHint><evaluationMode>automatic</evaluationMode><comment><text>194.02218621631334</text><id>DFX:rectilinearity</id></comment><comment><text>de.gempa.tb1.Pick/20250411102709.480381.125001</text><id>RefPickID</id></comment></pick><pick publicID="de.gempa.tb1.Pick/20250411102725.739536.125035"><time><value>2025-04-11T10:27:20.6Z</value></time><waveformID networkCode="BW" stationCode="ROTZ" channelCode="HHN"/><filterID>ITAPER(3)&gt;&gt;BW(4,3,10)</filterID><methodID>L2-AIC-GRID</methodID><horizontalSlowness><value>23.47232776109096</value></horizontalSlowness><backazimuth><value>228.5861614668956</value></backazimuth><phaseHint>S</phaseHint><evaluationMode>automatic</evaluationMode><comment><text>72.43094054404406</text><id>DFX:rectilinearity</id></comment><comment><text>de.gempa.tb1.Pick/20250411102710.55778.125006</text><id>RefPickID</id></comment></pick><pick publicID="de.gempa.tb1.Pick/20250411102725.889655.125036"><time><value>2025-04-11T10:27:09.3Z</value></time><waveformID networkCode="SX" stationCode="TRIB" channelCode="HHN"/><filterID>ITAPER(3)&gt;&gt;BW(4,3,10)</filterID><methodID>L2-AIC-GRID</methodID><horizontalSlowness><value>6.402565212703353</value></horizontalSlowness><backazimuth><value>268.095312248885</value></backazimuth><phaseHint>S</phaseHint><evaluationMode>automatic</evaluationMode><comment><text>89.45017584759566</text><id>DFX:rectilinearity</id></comment><comment><text>de.gempa.tb1.Pick/20250411102707.497144.124997</text><id>RefPickID</id></comment></pick><pick publicID="de.gempa.tb1.Pick/20250411102733.376544.125045"><time><value>2025-04-11T10:27:24.23Z</value></time><waveformID networkCode="TH" stationCode="ANNA" channelCode="HHN"/><filterID>ITAPER(3)&gt;&gt;BW(4,3,10)</filterID><methodID>L2-AIC-GRID</methodID><horizontalSlowness><value>19.400737069599113</value></horizontalSlowness><backazimuth><value>311.0042010086014</value></backazimuth><phaseHint>S</phaseHint><evaluationMode>automatic</evaluationMode><comment><text>131.59005999844334</text><id>DFX:rectilinearity</id></comment><comment><text>de.gempa.tb1.Pick/20250411102716.020248.125012</text><id>RefPickID</id></comment></pick><origin publicID="de.gempa.tb1.Origin/20250411102740.785881.107311"><time><value>2025-04-11T10:26:50.005004Z</value><uncertainty>0.3418191969394684</uncertainty></time><latitude><value>50.41239547729492</value><uncertainty>2.447173833847046</uncertainty></latitude><longitude><value>11.194159507751465</value><uncertainty>2.1984636783599854</uncertainty></longitude><depth><value>1.792231559753418</value><uncertainty>2.2059853076934814</uncertainty></depth><depthType>from location</depthType><methodID>LOCSAT</methodID><earthModelID>iasp91</earthModelID><quality><associatedPhaseCount>20</associatedPhaseCount><usedPhaseCount>20</usedPhaseCount><associatedStationCount>14</associatedStationCount><usedStationCount>14</usedStationCount><depthPhaseCount>0</depthPhaseCount><standardError>0.4821887466283751</standardError><azimuthalGap>152.508056640625</azimuthalGap><maximumDistance>1.1859480142593384</maximumDistance><minimumDistance>0.1253672093153</minimumDistance><medianDistance>0.810494065284729</medianDistance></quality><uncertainty><minHorizontalUncertainty>3.001880168914795</minHorizontalUncertainty><maxHorizontalUncertainty>6.380772113800049</maxHorizontalUncertainty><azimuthMaxHorizontalUncertainty>40.17987060546875</azimuthMaxHorizontalUncertainty><preferredDescription>horizontal uncertainty</preferredDescription></uncertainty><evaluationMode>automatic</evaluationMode><evaluationStatus>confirmed</evaluationStatus><comment><text>0.52</text><id>mismatchScore</id></comment><comment><text>mismatchScore</text><id>scevalMethod</id></comment><arrival><pickID>de.gempa.tb1.Pick/20250411102654.21456.124982</pickID><phase>P</phase><azimuth>8.943182945251465</azimuth><distance>0.1253672093153</distance><timeResidual>-0.5742311477661133</timeResidual><timeUsed>true</timeUsed><horizontalSlownessUsed>false</horizontalSlownessUsed><backazimuthUsed>false</backazimuthUsed><weight>1</weight></arrival><arrival><pickID>de.gempa.tb1.Pick/20250411102658.128159.124986</pickID><phase>P</phase><azimuth>0.8114050030708313</azimuth><distance>0.16389602422714233</distance><timeResidual>-0.5718598365783691</timeResidual><timeUsed>true</timeUsed><horizontalSlownessUsed>false</horizontalSlownessUsed><backazimuthUsed>false</backazimuthUsed><weight>1</weight></arrival><arrival><pickID>de.gempa.tb1.Pick/20250411102659.000632.124988</pickID><phase>S</phase><azimuth>8.943182945251465</azimuth><distance>0.1253672093153</distance><timeResidual>0.072998046875</timeResidual><timeUsed>true</timeUsed><horizontalSlownessUsed>false</horizontalSlownessUsed><backazimuthUsed>false</backazimuthUsed><weight>1</weight></arrival><arrival><pickID>de.gempa.tb1.Pick/20250411102703.134864.124992</pickID><phase>S</phase><azimuth>0.8114050030708313</azimuth><distance>0.16389602422714233</distance><timeResidual>0.28954267501831055</timeResidual><timeUsed>true</timeUsed><horizontalSlownessUsed>false</horizontalSlownessUsed><backazimuthUsed>false</backazimuthUsed><weight>1</weight></arrival><arrival><pickID>de.gempa.tb1.Pick/20250411102704.6368.124995</pickID><phase>P</phase><azimuth>306.6326599121094</azimuth><distance>0.3192431628704071</distance><timeResidual>-0.5557262897491455</timeResidual><timeUsed>true</timeUsed><horizontalSlownessUsed>false</horizontalSlownessUsed><backazimuthUsed>false</backazimuthUsed><weight>1</weight></arrival><arrival><pickID>de.gempa.tb1.Pick/20250411102707.497144.124997</pickID><phase>P</phase><azimuth>95.35845184326172</azimuth><distance>0.606626570224762</distance><timeResidual>-0.6567730903625488</timeResidual><timeUsed>true</timeUsed><horizontalSlownessUsed>false</horizontalSlownessUsed><backazimuthUsed>false</backazimuthUsed><weight>1</weight></arrival><arrival><pickID>de.gempa.tb1.Pick/20250411102707.497431.124999</pickID><phase>P</phase><azimuth>125.641357421875</azimuth><distance>0.7260809540748596</distance><timeResidual>-0.10312128067016602</timeResidual><timeUsed>true</timeUsed><horizontalSlownessUsed>false</horizontalSlownessUsed><backazimuthUsed>false</backazimuthUsed><weight>1</weight></arrival><arrival><pickID>de.gempa.tb1.Pick/20250411102709.480381.125001</pickID><phase>P</phase><azimuth>98.93092346191406</azimuth><distance>0.7674581408500671</distance><timeResidual>-0.4761815071105957</timeResidual><timeUsed>true</timeUsed><horizontalSlownessUsed>false</horizontalSlownessUsed><backazimuthUsed>false</backazimuthUsed><weight>1</weight></arrival><arrival><pickID>de.gempa.tb1.Pick/20250411102710.55778.125006</pickID><phase>P</phase><azimuth>134.34066772460938</azimuth><distance>0.9182719588279724</distance><timeResidual>-0.1035456657409668</timeResidual><timeUsed>true</timeUsed><horizontalSlownessUsed>false</horizontalSlownessUsed><backazimuthUsed>false</backazimuthUsed><weight>1</weight></arrival><arrival><pickID>de.gempa.tb1.Pick/20250411102713.852107.125010</pickID><phase>P</phase><azimuth>89.32876586914062</azimuth><distance>0.810494065284729</distance><timeResidual>0.8293156623840332</timeResidual><timeUsed>true</timeUsed><horizontalSlownessUsed>false</horizontalSlownessUsed><backazimuthUsed>false</backazimuthUsed><weight>1</weight></arrival><arrival><pickID>de.gempa.tb1.Pick/20250411102716.020248.125012</pickID><phase>P</phase><azimuth>62.11528015136719</azimuth><distance>1.0395750999450684</distance><timeResidual>-0.40470361709594727</timeResidual><timeUsed>true</timeUsed><horizontalSlownessUsed>false</horizontalSlownessUsed><backazimuthUsed>false</backazimuthUsed><weight>1</weight></arrival><arrival><pickID>de.gempa.tb1.Pick/20250411102716.653332.125015</pickID><phase>P</phase><azimuth>347.44061279296875</azimuth><distance>0.9445674419403076</distance><timeResidual>0.9061484336853027</timeResidual><timeUsed>true</timeUsed><horizontalSlownessUsed>false</horizontalSlownessUsed><backazimuthUsed>false</backazimuthUsed><weight>1</weight></arrival><arrival><pickID>de.gempa.tb1.Pick/20250411102716.654243.125017</pickID><phase>P</phase><azimuth>286.8487243652344</azimuth><distance>0.8541430234909058</distance><timeResidual>0.4710173606872559</timeResidual><timeUsed>true</timeUsed><horizontalSlownessUsed>false</horizontalSlownessUsed><backazimuthUsed>false</backazimuthUsed><weight>1</weight></arrival><arrival><pickID>de.gempa.tb1.Pick/20250411102719.678893.125021</pickID><phase>P</phase><azimuth>304.55926513671875</azimuth><distance>0.8479301929473877</distance><timeResidual>-0.20700788497924805</timeResidual><timeUsed>true</timeUsed><horizontalSlownessUsed>false</horizontalSlownessUsed><backazimuthUsed>false</backazimuthUsed><weight>1</weight></arrival><arrival><pickID>de.gempa.tb1.Pick/20250411102723.155156.125029</pickID><phase>P</phase><azimuth>56.28702545166016</azimuth><distance>0.9691213369369507</distance><timeResidual>0.05485868453979492</timeResidual><timeUsed>true</timeUsed><horizontalSlownessUsed>false</horizontalSlownessUsed><backazimuthUsed>false</backazimuthUsed><weight>1</weight></arrival><arrival><pickID>de.gempa.tb1.Pick/20250411102723.454718.125031</pickID><phase>P</phase><azimuth>350.00439453125</azimuth><distance>1.1859480142593384</distance><timeResidual>0.2712588310241699</timeResidual><timeUsed>true</timeUsed><horizontalSlownessUsed>false</horizontalSlownessUsed><backazimuthUsed>false</backazimuthUsed><weight>1</weight></arrival><arrival><pickID>de.gempa.tb1.Pick/20250411102724.493471.125034</pickID><phase>S</phase><azimuth>98.93092346191406</azimuth><distance>0.7674581408500671</distance><timeResidual>0.20807981491088867</timeResidual><timeUsed>true</timeUsed><horizontalSlownessUsed>false</horizontalSlownessUsed><backazimuthUsed>false</backazimuthUsed><weight>1</weight></arrival><arrival><pickID>de.gempa.tb1.Pick/20250411102725.739536.125035</pickID><phase>S</phase><azimuth>134.34066772460938</azimuth><distance>0.9182719588279724</distance><timeResidual>0.6416792869567871</timeResidual><timeUsed>true</timeUsed><horizontalSlownessUsed>false</horizontalSlownessUsed><backazimuthUsed>false</backazimuthUsed><weight>1</weight></arrival><arrival><pickID>de.gempa.tb1.Pick/20250411102725.889655.125036</pickID><phase>S</phase><azimuth>95.35845184326172</azimuth><distance>0.606626570224762</distance><timeResidual>-0.5162606239318848</timeResidual><timeUsed>true</timeUsed><horizontalSlownessUsed>false</horizontalSlownessUsed><backazimuthUsed>false</backazimuthUsed><weight>1</weight></arrival><arrival><pickID>de.gempa.tb1.Pick/20250411102733.376544.125045</pickID><phase>S</phase><azimuth>62.11528015136719</azimuth><distance>1