<?xml version="1.0" encoding="UTF-8"?>
<seiscomp xmlns="http://geofon.gfz-potsdam.de/ns/seiscomp3-schema/0.13" version="0.13"><EventParameters><pick publicID="de.gempa.tb1.Pick/20250412055923.517767.122317"><time><value>2025-04-12T05:59:14.56Z</value></time><waveformID networkCode="CX" stationCode="PB19" channelCode="HHZ"/><filterID>ITAPER(4)&gt;&gt;BW(4,4,20)</filterID><methodID>AIC</methodID><horizontalSlowness><value>10.158540542215936</value></horizontalSlowness><backazimuth><value>275.1309152333772</value></backazimuth><phaseHint>P</phaseHint><evaluationMode>automatic</evaluationMode><comment><text>15.048972635438602</text><id>DFX:rectilinearity</id></comment><comment><text>10.292210461673811</text><id>SNR</id></comment></pick><pick publicID="de.gempa.tb1.Pick/20250412055931.619519.122319"><time><value>2025-04-12T05:59:22.298393Z</value></time><waveformID networkCode="CX" stationCode="PB06" channelCode="HHZ"/><filterID>ITAPER(4)&gt;&gt;BW(4,4,20)</filterID><methodID>AIC</methodID><horizontalSlowness><value>9.105023827366097</value></horizontalSlowness><backazimuth><value>116.88322956042512</value></backazimuth><phaseHint>P</phaseHint><evaluationMode>automatic</evaluationMode><comment><text>44.78470919210433</text><id>DFX:rectilinearity</id></comment><comment><text>10.785979396632364</text><id>SNR</id></comment></pick><pick publicID="de.gempa.tb1.Pick/20250412055936.409974.122321"><time><value>2025-04-12T05:59:28.17Z</value></time><waveformID networkCode="CX" stationCode="PB09" channelCode="HHZ"/><filterID>ITAPER(4)&gt;&gt;BW(4,4,20)</filterID><methodID>AIC</methodID><horizontalSlowness><value>13.267661862003964</value></horizontalSlowness><backazimuth><value>276.26444865245924</value></backazimuth><phaseHint>P</phaseHint><evaluationMode>automatic</evaluationMode><comment><text>11.612724124501058</text><id>DFX:rectilinearity</id></comment><comment><text>10.621403542350464</text><id>SNR</id></comment></pick><pick publicID="de.gempa.tb1.Pick/20250412055946.366307.122323"><time><value>2025-04-12T05:59:32.298394Z</value></time><waveformID networkCode="CX" stationCode="PB07" channelCode="HHZ"/><filterID>ITAPER(4)&gt;&gt;BW(4,4,20)</filterID><methodID>AIC</methodID><horizontalSlowness><value>22.267531244495366</value></horizontalSlowness><backazimuth><value>266.5324471718693</value></backazimuth><phaseHint>P</phaseHint><evaluationMode>automatic</evaluationMode><comment><text>236.96212633178797</text><id>DFX:rectilinearity</id></comment><comment><text>15.597164624340502</text><id>SNR</id></comment></pick><pick publicID="de.gempa.tb1.Pick/20250412055950.609921.122327"><time><value>2025-04-12T05:59:42.11Z</value></time><waveformID networkCode="CX" stationCode="PB19" channelCode="HHN"/><filterID>ITAPER(2)&gt;&gt;BW(3,3,20)</filterID><methodID>L2-AIC-GRID</methodID><horizontalSlowness><value>19.384841889673783</value></horizontalSlowness><backazimuth><value>357.03533522739127</value></backazimuth><phaseHint>S</phaseHint><evaluationMode>automatic</evaluationMode><comment><text>50.20633349313273</text><id>DFX:rectilinearity</id></comment><comment><text>de.gempa.tb1.Pick/20250412055923.517767.122317</text><id>RefPickID</id></comment><comment><text>7.092792119717164</text><id>SNR</id></comment></pick><pick publicID="de.gempa.tb1.Pick/20250412060004.565539.122328"><time><value>2025-04-12T05:59:55.458393Z</value></time><waveformID networkCode="CX" stationCode="PB06" channelCode="HHN"/><filterID>ITAPER(2)&gt;&gt;BW(3,3,20)</filterID><methodID>L2-AIC-GRID</methodID><horizontalSlowness><value>8.458329535685088</value></horizontalSlowness><backazimuth><value>248.1378440903007</value></backazimuth><phaseHint>S</phaseHint><evaluationMode>automatic</evaluationMode><comment><text>29.277701068215137</text><id>DFX:rectilinearity</id></comment><comment><text>de.gempa.tb1.Pick/20250412055931.619519.122319</text><id>RefPickID</id></comment><comment><text>5.501538553986567</text><id>SNR</id></comment></pick><origin publicID="de.gempa.tb1.Origin/20250412060004.56854.75697"><time><value>2025-04-12T05:58:39.33203Z</value><uncertainty>1.4864134788513184</uncertainty></time><latitude><value>-23.91164779663086</value><uncertainty>10.47256851196289</uncertainty></latitude><longitude><value>-67.07612609863281</value><uncertainty>8.253255844116211</uncertainty></longitude><depth><value>0</value></depth><depthType>operator assigned</depthType><methodID>LOCSAT</methodID><earthModelID>iasp91_scanloc</earthModelID><quality><associatedPhaseCount>6</associatedPhaseCount><usedPhaseCount>6</usedPhaseCount><associatedStationCount>4</associatedStationCount><usedStationCount>4</usedStationCount><depthPhaseCount>0</depthPhaseCount><standardError>0.752659546350139</standardError><azimuthalGap>313.66864013671875</azimuthalGap><maximumDistance>3.3838090896606445</maximumDistance><minimumDistance>2.0267212390899658</minimumDistance><medianDistance>2.5893633365631104</medianDistance></quality><uncertainty><minHorizontalUncertainty>15.908544540405273</minHorizontalUncertainty><maxHorizontalUncertainty>23.76570510864258</maxHorizontalUncertainty><azimuthMaxHorizontalUncertainty>153.91412353515625</azimuthMaxHorizontalUncertainty><preferredDescription>horizontal uncertainty</preferredDescription></uncertainty><evaluationMode>automatic</evaluationMode><evaluationStatus>confirmed</evaluationStatus><comment><text>0.24</text><id>mismatchScore</id></comment><comment><text>mismatchScore</text><id>scevalMethod</id></comment><arrival><pickID>de.gempa.tb1.Pick/20250412055923.517767.122317</pickID><phase>P</phase><azimuth>269.7469787597656</azimuth><distance>2.0267212390899658</distance><timeResidual>-0.18392562866210938</timeResidual><timeUsed>true</timeUsed><horizontalSlownessUsed>false</horizontalSlownessUsed><backazimuthUsed>false</backazimuthUsed><weight>1</weight></arrival><arrival><pickID>de.gempa.tb1.Pick/20250412055931.619519.122319</pickID><phase>P</phase><azimuth>297.119873046875</azimuth><distance>2.5893633365631104</distance><timeResidual>-0.19031906127929688</timeResidual><timeUsed>true</timeUsed><horizontalSlownessUsed>false</horizontalSlownessUsed><backazimuthUsed>false</backazimuthUsed><weight>1</weight></arrival><arrival><pickID>de.gempa.tb1.Pick/20250412055936.409974.122321</pickID><phase>P</phase><azimuth>316.0783386230469</azimuth><distance>2.90221905708313</distance><timeResidual>1.3744964599609375</timeResidual><timeUsed>true</timeUsed><horizontalSlownessUsed>false</horizontalSlownessUsed><backazimuthUsed>false</backazimuthUsed><weight>1</weight></arrival><arrival><pickID>de.gempa.tb1.Pick/20250412055946.366307.122323</pickID><phase>P</phase><azimuth>309.43988037109375</azimuth><distance>3.3838090896606445</distance><timeResidual>-1.1239585876464844</timeResidual><timeUsed>true</timeUsed><horizontalSlownessUsed>false</horizontalSlownessUsed><backazimuthUsed>false</backazimuthUsed><weight>1</weight></arrival><arrival><pickID>de.gempa.tb1.Pick/20250412055950.609921.122327</pickID><phase>S</phase><azimuth>269.7469787597656</azimuth><distance>2.0267212390899658</distance><timeResidual>0.35223388671875</timeResidual><timeUsed>true</timeUsed><horizontalSlownessUsed>false</horizontalSlownessUsed><backazimuthUsed>false</backazimuthUsed><weight>1</weight></arrival><arrival><pickID>de.gempa.tb1.Pick/20250412060004.565539.122328</pickID><phase>S</phase><azimuth>297.119873046875</azimuth><distance>2.5893633365631104</distance><timeResidual>-0.2287712097167969</timeResidual><timeUsed>true</timeUsed><horizontalSlownessUsed>false</horizontalSlownessUsed><backazimuthUsed>false</backazimuthUsed><weight>1</weight></arrival><magnitude publicID="de.gempa.tb1.Magnitude/20250412060103.512609.185279"><magnitude><value>3.3853168925931336</value></magnitude><type>M</type><methodID>weighted average</methodID><stationCount>4</stationCount></magnitude></origin><event publicID="gempa2025hfae"><preferredOriginID>de.gempa.tb1.Origin/20250412060004.56854.75697</preferredOriginID><preferredMagnitudeID>de.gempa.tb1.Magnitude/20250412060103.512609.185279</preferredMagnitudeID><description><text>Chile-Argentina Border Region</text><type>region name</type></description><originReference>de.gempa.tb1.Origin/20250412060004.56854.75697</originReference></event></EventParameters></seiscomp>