<?xml version="1.0" encoding="UTF-8"?>
<seiscomp xmlns="http://geofon.gfz-potsdam.de/ns/seiscomp3-schema/0.13" version="0.13"><EventParameters><pick publicID="de.gempa.tb1.Pick/20250415073904.613974.118113"><time><value>2025-04-15T07:38:57.838394Z</value></time><waveformID networkCode="CX" stationCode="PB15" channelCode="HHZ"/><filterID>ITAPER(4)&gt;&gt;BW(4,4,20)</filterID><methodID>AIC</methodID><horizontalSlowness><value>22.08996702319229</value></horizontalSlowness><backazimuth><value>68.98354830392401</value></backazimuth><phaseHint>P</phaseHint><evaluationMode>automatic</evaluationMode><comment><text>141.49293486801886</text><id>DFX:rectilinearity</id></comment><comment><text>10.124829557236932</text><id>SNR</id></comment></pick><pick publicID="de.gempa.tb1.Pick/20250415073905.491831.118115"><time><value>2025-04-15T07:38:59.708393Z</value></time><waveformID networkCode="CX" stationCode="PB06" channelCode="HHZ"/><filterID>ITAPER(4)&gt;&gt;BW(4,4,20)</filterID><methodID>AIC</methodID><horizontalSlowness><value>20.50179811699897</value></horizontalSlowness><backazimuth><value>134.21779242560203</value></backazimuth><phaseHint>P</phaseHint><evaluationMode>automatic</evaluationMode><comment><text>44.28399467235362</text><id>DFX:rectilinearity</id></comment><comment><text>5.905752734997947</text><id>SNR</id></comment></pick><pick publicID="de.gempa.tb1.Pick/20250415073905.492291.118117"><time><value>2025-04-15T07:38:59.88Z</value></time><waveformID networkCode="CX" stationCode="PB19" channelCode="HHZ"/><filterID>ITAPER(4)&gt;&gt;BW(4,4,20)</filterID><methodID>AIC</methodID><horizontalSlowness><value>14.112018962280452</value></horizontalSlowness><backazimuth><value>78.93172493666468</value></backazimuth><phaseHint>P</phaseHint><evaluationMode>automatic</evaluationMode><comment><text>20.380073505038066</text><id>DFX:rectilinearity</id></comment><comment><text>9.95389869271192</text><id>SNR</id></comment></pick><pick publicID="de.gempa.tb1.Pick/20250415073923.665685.118121"><time><value>2025-04-15T07:39:17.088393Z</value></time><waveformID networkCode="CX" stationCode="PB06" channelCode="HHN"/><filterID>ITAPER(2)&gt;&gt;BW(3,3,20)</filterID><methodID>L2-AIC-GRID</methodID><horizontalSlowness><value>15.28299725406755</value></horizontalSlowness><backazimuth><value>332.41853101682904</value></backazimuth><phaseHint>S</phaseHint><evaluationMode>automatic</evaluationMode><comment><text>77.48263647255618</text><id>DFX:rectilinearity</id></comment><comment><text>de.gempa.tb1.Pick/20250415073905.491831.118115</text><id>RefPickID</id></comment><comment><text>12.316022325214092</text><id>SNR</id></comment></pick><pick publicID="de.gempa.tb1.Pick/20250415073923.901544.118122"><time><value>2025-04-15T07:39:14.298394Z</value></time><waveformID networkCode="CX" stationCode="PB15" channelCode="HHN"/><filterID>ITAPER(2)&gt;&gt;BW(3,3,20)</filterID><methodID>L2-AIC-GRID</methodID><horizontalSlowness><value>21.279862199586933</value></horizontalSlowness><backazimuth><value>108.90632394875026</value></backazimuth><phaseHint>S</phaseHint><evaluationMode>automatic</evaluationMode><comment><text>1567.142393452377</text><id>DFX:rectilinearity</id></comment><comment><text>de.gempa.tb1.Pick/20250415073904.613974.118113</text><id>RefPickID</id></comment><comment><text>6.604736000263629</text><id>SNR</id></comment></pick><pick publicID="de.gempa.tb1.Pick/20250415073926.570337.118127"><time><value>2025-04-15T07:39:17.85Z</value></time><waveformID networkCode="CX" stationCode="PB19" channelCode="HHN"/><filterID>ITAPER(2)&gt;&gt;BW(3,3,20)</filterID><methodID>L2-AIC-GRID</methodID><horizontalSlowness><value>19.989674957910108</value></horizontalSlowness><backazimuth><value>311.7012060780588</value></backazimuth><phaseHint>S</phaseHint><evaluationMode>automatic</evaluationMode><comment><text>47.91795836920087</text><id>DFX:rectilinearity</id></comment><comment><text>de.gempa.tb1.Pick/20250415073905.492291.118117</text><id>RefPickID</id></comment><comment><text>5.35172020736382</text><id>SNR</id></comment></pick><origin publicID="de.gempa.tb1.Origin/20250415073926.58646.57963"><time><value>2025-04-15T07:38:36.433468Z</value><uncertainty>1.8991715908050537</uncertainty></time><latitude><value>-23.019596099853516</value><uncertainty>9.499919891357422</uncertainty></latitude><longitude><value>-68.18080139160156</value><uncertainty>28.88361167907715</uncertainty></longitude><depth><value>21.855825424194336</value><uncertainty>50.26446533203125</uncertainty></depth><depthType>from location</depthType><methodID>LOCSAT</methodID><earthModelID>iasp91_scanloc</earthModelID><quality><associatedPhaseCount>6</associatedPhaseCount><usedPhaseCount>6</usedPhaseCount><associatedStationCount>3</associatedStationCount><usedStationCount>3</usedStationCount><depthPhaseCount>0</depthPhaseCount><standardError>0.08479515568798621</standardError><azimuthalGap>305.5250244140625</azimuthalGap><maximumDistance>1.3472343683242798</maximumDistance><minimumDistance>1.2025344371795654</minimumDistance><medianDistance>1.3205419778823853</medianDistance></quality><uncertainty><minHorizontalUncertainty>12.6428804397583</minHorizontalUncertainty><maxHorizontalUncertainty>63.97015762329102</maxHorizontalUncertainty><azimuthMaxHorizontalUncertainty>75.2403335571289</azimuthMaxHorizontalUncertainty><preferredDescription>horizontal uncertainty</preferredDescription></uncertainty><evaluationMode>automatic</evaluationMode><evaluationStatus>confirmed</evaluationStatus><comment><text>0.00</text><id>mismatchScore</id></comment><comment><text>mismatchScore</text><id>scevalMethod</id></comment><arrival><pickID>de.gempa.tb1.Pick/20250415073904.613974.118113</pickID><phase>P</phase><azimuth>260.76092529296875</azimuth><distance>1.2025344371795654</distance><timeResidual>-0.09908294677734375</timeResidual><timeUsed>true</timeUsed><horizontalSlownessUsed>false</horizontalSlownessUsed><backazimuthUsed>false</backazimuthUsed><weight>1</weight></arrival><arrival><pickID>de.gempa.tb1.Pick/20250415073905.491831.118115</pickID><phase>P</phase><azimuth>283.411376953125</azimuth><distance>1.3205419778823853</distance><timeResidual>0.1455097198486328</timeResidual><timeUsed>true</timeUsed><horizontalSlownessUsed>false</horizontalSlownessUsed><backazimuthUsed>false</backazimuthUsed><weight>1</weight></arrival><arrival><pickID>de.gempa.tb1.Pick/20250415073905.492291.118117</pickID><phase>P</phase><azimuth>228.9364013671875</azimuth><distance>1.3472343683242798</distance><timeResidual>-0.04688262939453125</timeResidual><timeUsed>true</timeUsed><horizontalSlownessUsed>false</horizontalSlownessUsed><backazimuthUsed>false</backazimuthUsed><weight>1</weight></arrival><arrival><pickID>de.gempa.tb1.Pick/20250415073923.665685.118121</pickID><phase>S</phase><azimuth>283.411376953125</azimuth><distance>1.3205419778823853</distance><timeResidual>-0.07989120483398438</timeResidual><timeUsed>true</timeUsed><horizontalSlownessUsed>false</horizontalSlownessUsed><backazimuthUsed>false</backazimuthUsed><weight>1</weight></arrival><arrival><pickID>de.gempa.tb1.Pick/20250415073923.901544.118122</pickID><phase>S</phase><azimuth>260.76092529296875</azimuth><distance>1.2025344371795654</distance><timeResidual>0.05341720581054688</timeResidual><timeUsed>true</timeUsed><horizontalSlownessUsed>false</horizontalSlownessUsed><backazimuthUsed>false</backazimuthUsed><weight>1</weight></arrival><arrival><pickID>de.gempa.tb1.Pick/20250415073926.570337.118127</pickID><phase>S</phase><azimuth>228.9364013671875</azimuth><distance>1.3472343683242798</distance><timeResidual>0.026773452758789059</timeResidual><timeUsed>true</timeUsed><horizontalSlownessUsed>false</horizontalSlownessUsed><backazimuthUsed>false</backazimuthUsed><weight>1</weight></arrival><magnitude publicID="de.gempa.tb1.Magnitude/20250415073931.550531.104872"><magnitude><value>2.221387577995663</value></magnitude><type>M</type><methodID>weighted average</methodID><stationCount>3</stationCount></magnitude></origin><event publicID="gempa2025hkro"><preferredOriginID>de.gempa.tb1.Origin/20250415073926.58646.57963</preferredOriginID><preferredMagnitudeID>de.gempa.tb1.Magnitude/20250415073931.550531.104872</preferredMagnitudeID><description><text>Northern Chile</text><type>region name</type></description><originReference>de.gempa.tb1.Origin/20250415073926.58646.57963</originReference></event></EventParameters></seiscomp>