<?xml version="1.0" encoding="UTF-8"?>
<seiscomp xmlns="http://geofon.gfz-potsdam.de/ns/seiscomp3-schema/0.13" version="0.13"><EventParameters><pick publicID="de.gempa.tb1.Pick/20250412201610.56918.126530"><time><value>2025-04-12T20:16:03.358393Z</value></time><waveformID networkCode="CX" stationCode="PB01" channelCode="HHZ"/><filterID>ITAPER(4)&gt;&gt;BW(4,4,20)</filterID><methodID>AIC</methodID><horizontalSlowness><value>19.937129090891535</value></horizontalSlowness><backazimuth><value>313.4041190325837</value></backazimuth><phaseHint>P</phaseHint><evaluationMode>automatic</evaluationMode><comment><text>11.717935769552424</text><id>DFX:rectilinearity</id></comment><comment><text>34.581269849020345</text><id>SNR</id></comment></pick><pick publicID="de.gempa.tb1.Pick/20250412201613.49068.126532"><time><value>2025-04-12T20:16:04.6Z</value></time><waveformID networkCode="CX" stationCode="PB09" channelCode="HHZ"/><filterID>ITAPER(4)&gt;&gt;BW(4,4,20)</filterID><methodID>AIC</methodID><horizontalSlowness><value>18.141267552568017</value></horizontalSlowness><backazimuth><value>281.9764062936519</value></backazimuth><phaseHint>P</phaseHint><evaluationMode>automatic</evaluationMode><comment><text>16.850795315375304</text><id>DFX:rectilinearity</id></comment><comment><text>13.154866614157855</text><id>SNR</id></comment></pick><pick publicID="de.gempa.tb1.Pick/20250412201615.215838.126537"><time><value>2025-04-12T20:16:07.048393Z</value></time><waveformID networkCode="CX" stationCode="PB08" channelCode="HHZ"/><filterID>ITAPER(4)&gt;&gt;BW(4,4,20)</filterID><methodID>AIC</methodID><horizontalSlowness><value>14.87987002107952</value></horizontalSlowness><backazimuth><value>212.5401629471531</value></backazimuth><phaseHint>P</phaseHint><evaluationMode>automatic</evaluationMode><comment><text>16.603847643276154</text><id>DFX:rectilinearity</id></comment><comment><text>10.493817637331279</text><id>SNR</id></comment></pick><pick publicID="de.gempa.tb1.Pick/20250412201615.420058.126539"><time><value>2025-04-12T20:16:07.468393Z</value></time><waveformID networkCode="CX" stationCode="PB02" channelCode="HHZ"/><filterID>ITAPER(4)&gt;&gt;BW(4,4,20)</filterID><methodID>AIC</methodID><horizontalSlowness><value>20.793510989867197</value></horizontalSlowness><backazimuth><value>247.99626380546945</value></backazimuth><phaseHint>P</phaseHint><evaluationMode>automatic</evaluationMode><comment><text>60.3886381103325</text><id>DFX:rectilinearity</id></comment><comment><text>17.128686291823076</text><id>SNR</id></comment></pick><pick publicID="de.gempa.tb1.Pick/20250412201617.475621.126541"><time><value>2025-04-12T20:16:10.260001Z</value></time><waveformID networkCode="CX" stationCode="PATCX" channelCode="HHZ"/><filterID>ITAPER(4)&gt;&gt;BW(4,4,20)</filterID><methodID>AIC</methodID><horizontalSlowness><value>16.659446896761498</value></horizontalSlowness><backazimuth><value>90.50403858724638</value></backazimuth><phaseHint>P</phaseHint><evaluationMode>automatic</evaluationMode><comment><text>410.2761117451339</text><id>DFX:rectilinearity</id></comment><comment><text>6.115512080118675</text><id>SNR</id></comment></pick><pick publicID="de.gempa.tb1.Pick/20250412201617.589768.126543"><time><value>2025-04-12T20:16:09.038394Z</value></time><waveformID networkCode="CX" stationCode="PB03" channelCode="HHZ"/><filterID>ITAPER(4)&gt;&gt;BW(4,4,20)</filterID><methodID>AIC</methodID><horizontalSlowness><value>6.464417446798601</value></horizontalSlowness><backazimuth><value>290.79116092985856</value></backazimuth><phaseHint>P</phaseHint><evaluationMode>automatic</evaluationMode><comment><text>18.64398396299292</text><id>DFX:rectilinearity</id></comment><comment><text>11.245011907849024</text><id>SNR</id></comment></pick><pick publicID="de.gempa.tb1.Pick/20250412201624.570633.126545"><time><value>2025-04-12T20:16:17.030001Z</value></time><waveformID networkCode="CX" stationCode="PSGCX" channelCode="HHZ"/><filterID>ITAPER(4)&gt;&gt;BW(4,4,20)</filterID><methodID>AIC</methodID><horizontalSlowness><value>22.42745625495489</value></horizontalSlowness><backazimuth><value>82.76479423861598</value></backazimuth><phaseHint>P</phaseHint><evaluationMode>automatic</evaluationMode><comment><text>28.16691752163783</text><id>DFX:rectilinearity</id></comment><comment><text>7.944567660994086</text><id>SNR</id></comment></pick><pick publicID="de.gempa.tb1.Pick/20250412201627.777313.126550"><time><value>2025-04-12T20:16:19.368393Z</value></time><waveformID networkCode="CX" stationCode="PB01" channelCode="HHN"/><filterID>ITAPER(2)&gt;&gt;BW(3,3,20)</filterID><methodID>L2-AIC-GRID</methodID><horizontalSlowness><value>20.61757998257706</value></horizontalSlowness><backazimuth><value>267.54382612161214</value></backazimuth><phaseHint>S</phaseHint><evaluationMode>automatic</evaluationMode><comment><text>316.1175076250348</text><id>DFX:rectilinearity</id></comment><comment><text>de.gempa.tb1.Pick/20250412201610.56918.126530</text><id>RefPickID</id></comment><comment><text>12.11524610199742</text><id>SNR</id></comment></pick><pick publicID="de.gempa.tb1.Pick/20250412201630.693811.126551"><time><value>2025-04-12T20:16:08.348393Z</value></time><waveformID networkCode="CX" stationCode="PB07" channelCode="HHZ"/><filterID>ITAPER(4)&gt;&gt;BW(4,4,20)</filterID><methodID>AIC</methodID><horizontalSlowness><value>21.270493830588656</value></horizontalSlowness><backazimuth><value>83.5656266714103</value></backazimuth><phaseHint>P</phaseHint><evaluationMode>automatic</evaluationMode><comment><text>127.0302547008817</text><id>DFX:rectilinearity</id></comment><comment><text>33.440972740441296</text><id>SNR</id></comment></pick><pick publicID="de.gempa.tb1.Pick/20250412201634.711535.126554"><time><value>2025-04-12T20:16:28.988394Z</value></time><waveformID networkCode="CX" stationCode="PB03" channelCode="HHN"/><filterID>ITAPER(2)&gt;&gt;BW(3,3,20)</filterID><methodID>L2-AIC-GRID</methodID><horizontalSlowness><value>17.811538152531945</value></horizontalSlowness><backazimuth><value>281.85662747374266</value></backazimuth><phaseHint>S</phaseHint><evaluationMode>automatic</evaluationMode><comment><text>179.47731997659224</text><id>DFX:rectilinearity</id></comment><comment><text>de.gempa.tb1.Pick/20250412201617.589768.126543</text><id>RefPickID</id></comment><comment><text>11.711388030307372</text><id>SNR</id></comment></pick><pick publicID="de.gempa.tb1.Pick/20250412201635.644247.126555"><time><value>2025-04-12T20:16:26.078393Z</value></time><waveformID networkCode="CX" stationCode="PB02" channelCode="HHN"/><filterID>ITAPER(2)&gt;&gt;BW(3,3,20)</filterID><methodID>L2-AIC-GRID</methodID><horizontalSlowness><value>20.327558704549606</value></horizontalSlowness><backazimuth><value>250.6806577566094</value></backazimuth><phaseHint>S</phaseHint><evaluationMode>automatic</evaluationMode><comment><text>1361.9064054874564</text><id>DFX:rectilinearity</id></comment><comment><text>de.gempa.tb1.Pick/20250412201615.420058.126539</text><id>RefPickID</id></comment><comment><text>7.645810525645377</text><id>SNR</id></comment></pick><pick publicID="de.gempa.tb1.Pick/20250412201639.08972.126561"><time><value>2025-04-12T20:16:21.31Z</value></time><waveformID networkCode="CX" stationCode="PB09" channelCode="HHN"/><filterID>ITAPER(2)&gt;&gt;BW(3,3,20)</filterID><methodID>L2-AIC-GRID</methodID><horizontalSlowness><value>16.428628076109892</value></horizontalSlowness><backazimuth><value>309.7908662818391</value></backazimuth><phaseHint>S</phaseHint><evaluationMode>automatic</evaluationMode><comment><text>221.05910355186592</text><id>DFX:rectilinearity</id></comment><comment><text>de.gempa.tb1.Pick/20250412201613.49068.126532</text><id>RefPickID</id></comment><comment><text>6.236339802672519</text><id>SNR</id></comment></pick><pick publicID="de.gempa.tb1.Pick/20250412201652.014075.126568"><time><value>2025-04-12T20:16:28.138393Z</value></time><waveformID networkCode="CX" stationCode="PB07" channelCode="HHN"/><filterID>ITAPER(2)&gt;&gt;BW(3,3,20)</filterID><methodID>L2-AIC-GRID</methodID><horizontalSlowness><value>21.726447287601115</value></horizontalSlowness><backazimuth><value>291.6395155579727</value></backazimuth><phaseHint>S</phaseHint><evaluationMode>automatic</evaluationMode><comment><text>2660.217663600097</text><id>DFX:rectilinearity</id></comment><comment><text>de.gempa.tb1.Pick/20250412201630.693811.126551</text><id>RefPickID</id></comment><comment><text>7.434524623636922</text><id>SNR</id></comment></pick><origin publicID="de.gempa.tb1.Origin/20250412201652.0201.91504"><time><value>2025-04-12T20:15:43.08849Z</value><uncertainty>0.9215945601463318</uncertainty></time><latitude><value>-21.142093658447266</value><uncertainty>5.016308307647705</uncertainty></latitude><longitude><value>-68.72837829589844</value><uncertainty>9.425686836242676</uncertainty></longitude><depth><value>131.2777557373047</value><uncertainty>8.858741760253906</uncertainty></depth><depthType>from location</depthType><methodID>LOCSAT</methodID><earthModelID>iasp91_scanloc</earthModelID><quality><associatedPhaseCount>13</associatedPhaseCount><usedPhaseCount>13</usedPhaseCount><associatedStationCount>8</associatedStationCount><usedStationCount>8</usedStationCount><depthPhaseCount>0</depthPhaseCount><standardError>0.32164049883067114</standardError><azimuthalGap>238.07252502441406</azimuthalGap><maximumDistance>2.0185706615448</maximumDistance><minimumDistance>0.7155694365501404</minimumDistance><medianDistance>1.1035959720611572</medianDistance></quality><uncertainty><minHorizontalUncertainty>10.652332305908203</minHorizontalUncertainty><maxHorizontalUncertainty>20.262554168701172</maxHorizontalUncertainty><azimuthMaxHorizontalUncertainty>94.9291763305664</azimuthMaxHorizontalUncertainty><preferredDescription>horizontal uncertainty</preferredDescription></uncertainty><evaluationMode>automatic</evaluationMode><evaluationStatus>confirmed</evaluationStatus><comment><text>0.04</text><id>mismatchScore</id></comment><comment><text>mismatchScore</text><id>scevalMethod</id></comment><arrival><pickID>de.gempa.tb1.Pick/20250412201610.56918.126530</pickID><phase>P</phase><azimuth>277.7657775878906</azimuth><distance>0.7155694365501404</distance><timeResidual>-0.38588714599609375</timeResidual><timeUsed>true</timeUsed><horizontalSlownessUsed>false</horizontalSlownessUsed><backazimuthUsed>false</backazimuthUsed><weight>1</weight></arrival><arrival><pickID>de.gempa.tb1.Pick/20250412201613.49068.126532</pickID><phase>P</phase><azimuth>216.21144104003906</azimuth><distance>0.8078947067260742</distance><timeResidual>0.13788604736328125</timeResidual><timeUsed>true</timeUsed><horizontalSlownessUsed>false</horizontalSlownessUsed><backazimuthUsed>false</backazimuthUsed><weight>1</weight></arrival><arrival><pickID>de.gempa.tb1.Pick/20250412201615.215838.126537</pickID><phase>P</phase><azimuth>338.138916015625</azimuth><distance>1.0725263357162476</distance><timeResidual>0.21231651306152344</timeResidual><timeUsed>true</timeUsed><horizontalSlownessUsed>false</horizontalSlownessUsed><backazimuthUsed>false</backazimuthUsed><weight>1</weight></arrival><arrival><pickID>de.gempa.tb1.Pick/20250412201615.420058.126539</pickID><phase>P</phase><azimuth>260.5736999511719</azimuth><distance>1.1035959720611572</distance><timeResidual>0.33815574645996094</timeResidual><timeUsed>true</timeUsed><horizontalSlownessUsed>false</horizontalSlownessUsed><backazimuthUsed>false</backazimuthUsed><weight>1</weight></arrival><arrival><pickID>de.gempa.tb1.Pick/20250412201617.475621.126541</pickID><phase>P</phase><azimuth>283.25347900390625</azimuth><distance>1.3690533638000488</distance><timeResidual>0.3896598815917969</timeResidual><timeUsed>true</timeUsed><horizontalSlownessUsed>false</horizontalSlownessUsed><backazimuthUsed>false</backazimuthUsed><weight>1</weight></arrival><arrival><pickID>de.gempa.tb1.Pick/20250412201617.589768.126543</pickID><phase>P</phase><azimuth>226.4099578857422</azimuth><distance>1.3125993013381958</distance><timeResidual>-0.22088050842285156</timeResidual><timeUsed>true</timeUsed><horizontalSlownessUsed>false</horizontalSlownessUsed><backazimuthUsed>false</backazimuthUsed><weight>1</weight></arrival><arrival><pickID>de.gempa.tb1.Pick/20250412201624.570633.126545</pickID><phase>P</phase><azimuth>319.3485107421875</azimuth><distance>2.0185706615448</distance><timeResidual>-0.3582134246826172</timeResidual><timeUsed>true</timeUsed><horizontalSlownessUsed>false</horizontalSlownessUsed><backazimuthUsed>false</backazimuthUsed><weight>1</weight></arrival><arrival><pickID>de.gempa.tb1.Pick/20250412201627.777313.126550</pickID><phase>S</phase><azimuth>277.7657775878906</azimuth><distance>0.7155694365501404</distance><timeResidual>-0.35346221923828125</timeResidual><timeUsed>true</timeUsed><horizontalSlownessUsed>false</horizontalSlownessUsed><backazimuthUsed>false</backazimuthUsed><weight>1</weight></arrival><arrival><pickID>de.gempa.tb1.Pick/20250412201630.693811.126551</pickID><phase>P</phase><azimuth>241.45404052734375</azimuth><distance>1.2255247831344604</distance><timeResidual>-0.0034465789794921875</timeResidual><timeUsed>true</timeUsed><horizontalSlownessUsed>false</horizontalSlownessUsed><backazimuthUsed>false</backazimuthUsed><weight>1</weight></arrival><arrival><pickID>de.gempa.tb1.Pick/20250412201634.711535.126554</pickID><phase>S</phase><azimuth>226.4099578857422</azimuth><distance>1.3125993013381958</distance><timeResidual>-0.575174331665039</timeResidual><timeUsed>true</timeUsed><horizontalSlownessUsed>false</horizontalSlownessUsed><backazimuthUsed>false</backazimuthUsed><weight>1</weight></arrival><arrival><pickID>de.gempa.tb1.Pick/20250412201635.644247.126555</pickID><phase>S</phase><azimuth>260.5736999511719</azimuth><distance>1.1035959720611572</distance><timeResidual>0.3160247802734375</timeResidual><timeUsed>true</timeUsed><horizontalSlownessUsed>false</horizontalSlownessUsed><backazimuthUsed>false</backazimuthUsed><weight>1</weight></arrival><arrival><pickID>de.gempa.tb1.Pick/20250412201639.08972.126561</pickID><phase>S</phase><azimuth>216.21144104003906</azimuth><distance>0.8078947067260742</distance><timeResidual>0.30805397033691406</timeResidual><timeUsed>true</timeUsed><horizontalSlownessUsed>false</horizontalSlownessUsed><backazimuthUsed>false</backazimuthUsed><weight>1</weight></arrival><arrival><pickID>de.gempa.tb1.Pick/20250412201652.014075.126568</pickID><phase>S</phase><azimuth>241.45404052734375</azimuth><distance>1.2255247831344604</distance><timeResidual>0.19507217407226562</timeResidual><timeUsed>true</timeUsed><horizontalSlownessUsed>false</horizontalSlownessUsed><backazimuthUsed>false</backazimuthUsed><weight>1</weight></arrival><magnitude publicID="de.gempa.tb1.Magnitude/20250412201700.938396.278119"><magnitude><value>2.519582439499005</value></magnitude><type>M</type><methodID>weighted average</methodID><stationCount>7</stationCount></magnitude></origin><event publicID="gempa2025hgct"><preferredOriginID>de.gempa.tb1.Origin/20250412201652.0201.91504</preferredOriginID><preferredMagnitudeID>de.gempa.tb1.Magnitude/20250412201700.938396.278119</preferredMagnitudeID><description><text>Chile-Bolivia Border Region</text><type>region name</type></description><originReference>de.gempa.tb1.Origin/20250412201652.0201.91504</originReference></event></EventParameters></seiscomp>