<?xml version="1.0" encoding="UTF-8"?>
<seiscomp xmlns="http://geofon.gfz-potsdam.de/ns/seiscomp3-schema/0.13" version="0.13"><EventParameters><pick publicID="de.gempa.tb1.Pick/20250415072006.392912.117957"><time><value>2025-04-15T07:19:59.03Z</value></time><waveformID networkCode="CX" stationCode="PB09" channelCode="HHZ"/><filterID>ITAPER(4)&gt;&gt;BW(4,4,20)</filterID><methodID>AIC</methodID><horizontalSlowness><value>14.873083105794175</value></horizontalSlowness><backazimuth><value>89.23965312612513</value></backazimuth><phaseHint>P</phaseHint><evaluationMode>automatic</evaluationMode><comment><text>66.2856681330198</text><id>DFX:rectilinearity</id></comment><comment><text>93.75601409613155</text><id>SNR</id></comment></pick><pick publicID="de.gempa.tb1.Pick/20250415072006.792915.117959"><time><value>2025-04-15T07:20:01.668393Z</value></time><waveformID networkCode="CX" stationCode="PB01" channelCode="HHZ"/><filterID>ITAPER(4)&gt;&gt;BW(4,4,20)</filterID><methodID>AIC</methodID><horizontalSlowness><value>6.969437211373128</value></horizontalSlowness><backazimuth><value>37.85618773029117</value></backazimuth><phaseHint>P</phaseHint><evaluationMode>automatic</evaluationMode><comment><text>55.12850686883443</text><id>DFX:rectilinearity</id></comment><comment><text>256.1999620723259</text><id>SNR</id></comment></pick><pick publicID="de.gempa.tb1.Pick/20250415072009.629884.117961"><time><value>2025-04-15T07:20:03.808393Z</value></time><waveformID networkCode="CX" stationCode="PB03" channelCode="HHZ"/><filterID>ITAPER(4)&gt;&gt;BW(4,4,20)</filterID><methodID>AIC</methodID><horizontalSlowness><value>13.395873241483415</value></horizontalSlowness><backazimuth><value>42.27404710528913</value></backazimuth><phaseHint>P</phaseHint><evaluationMode>automatic</evaluationMode><comment><text>26.39495106969209</text><id>DFX:rectilinearity</id></comment><comment><text>42.20999473813776</text><id>SNR</id></comment></pick><pick publicID="de.gempa.tb1.Pick/20250415072010.528782.117963"><time><value>2025-04-15T07:20:04.428393Z</value></time><waveformID networkCode="CX" stationCode="PB02" channelCode="HHZ"/><filterID>ITAPER(4)&gt;&gt;BW(4,4,20)</filterID><methodID>AIC</methodID><horizontalSlowness><value>6.909536432220013</value></horizontalSlowness><backazimuth><value>74.10418974723434</value></backazimuth><phaseHint>P</phaseHint><evaluationMode>automatic</evaluationMode><comment><text>732.1930343684941</text><id>DFX:rectilinearity</id></comment><comment><text>225.5129432794372</text><id>SNR</id></comment></pick><pick publicID="de.gempa.tb1.Pick/20250415072013.548335.117965"><time><value>2025-04-15T07:20:06.628394Z</value></time><waveformID networkCode="CX" stationCode="PB06" channelCode="HHZ"/><filterID>ITAPER(4)&gt;&gt;BW(4,4,20)</filterID><methodID>AIC</methodID><horizontalSlowness><value>4.585469834155723</value></horizontalSlowness><backazimuth><value>74.09657656852463</value></backazimuth><phaseHint>P</phaseHint><evaluationMode>automatic</evaluationMode><comment><text>41.33310786823587</text><id>DFX:rectilinearity</id></comment><comment><text>8.674483375303216</text><id>SNR</id></comment></pick><pick publicID="de.gempa.tb1.Pick/20250415072015.69023.117967"><time><value>2025-04-15T07:20:08.008393Z</value></time><waveformID networkCode="CX" stationCode="PB08" channelCode="HHZ"/><filterID>ITAPER(4)&gt;&gt;BW(4,4,20)</filterID><methodID>AIC</methodID><horizontalSlowness><value>12.285469239629414</value></horizontalSlowness><backazimuth><value>179.35753137321902</value></backazimuth><phaseHint>P</phaseHint><evaluationMode>automatic</evaluationMode><comment><text>32.994285143271156</text><id>DFX:rectilinearity</id></comment><comment><text>9.928721902533921</text><id>SNR</id></comment></pick><pick publicID="de.gempa.tb1.Pick/20250415072017.241066.117969"><time><value>2025-04-15T07:20:08.999999Z</value></time><waveformID networkCode="CX" stationCode="PATCX" channelCode="HHZ"/><filterID>ITAPER(4)&gt;&gt;BW(4,4,20)</filterID><methodID>AIC</methodID><horizontalSlowness><value>11.853772176970953</value></horizontalSlowness><backazimuth><value>124.5320316507262</value></backazimuth><phaseHint>P</phaseHint><evaluationMode>automatic</evaluationMode><comment><text>827.5614069758115</text><id>DFX:rectilinearity</id></comment><comment><text>146.12190729732433</text><id>SNR</id></comment></pick><pick publicID="de.gempa.tb1.Pick/20250415072018.380803.117971"><time><value>2025-04-15T07:20:04.268396Z</value></time><waveformID networkCode="CX" stationCode="PB07" channelCode="HHZ"/><filterID>ITAPER(4)&gt;&gt;BW(4,4,20)</filterID><methodID>AIC</methodID><horizontalSlowness><value>13.912272788854212</value></horizontalSlowness><backazimuth><value>94.26731852305973</value></backazimuth><phaseHint>P</phaseHint><evaluationMode>automatic</evaluationMode><comment><text>2362.1215076365806</text><id>DFX:rectilinearity</id></comment><comment><text>497.1085265100792</text><id>SNR</id></comment></pick><pick publicID="de.gempa.tb1.Pick/20250415072026.576425.117973"><time><value>2025-04-15T07:20:17.29Z</value></time><waveformID networkCode="CX" stationCode="PSGCX" channelCode="HHZ"/><filterID>ITAPER(4)&gt;&gt;BW(4,4,20)</filterID><methodID>AIC</methodID><horizontalSlowness><value>9.817457302006082</value></horizontalSlowness><backazimuth><value>143.55274612101346</value></backazimuth><phaseHint>P</phaseHint><evaluationMode>automatic</evaluationMode><comment><text>15.511859784431522</text><id>DFX:rectilinearity</id></comment><comment><text>75.36205243568526</text><id>SNR</id></comment></pick><pick publicID="de.gempa.tb1.Pick/20250415072028.770577.117975"><time><value>2025-04-15T07:20:23.298393Z</value></time><waveformID networkCode="CX" stationCode="PB03" channelCode="HHN"/><filterID>ITAPER(2)&gt;&gt;BW(3,3,20)</filterID><methodID>L2-AIC-GRID</methodID><horizontalSlowness><value>9.234958326785783</value></horizontalSlowness><backazimuth><value>240.96023203727634</value></backazimuth><phaseHint>S</phaseHint><evaluationMode>automatic</evaluationMode><comment><text>1042.1246222878672</text><id>DFX:rectilinearity</id></comment><comment><text>de.gempa.tb1.Pick/20250415072009.629884.117961</text><id>RefPickID</id></comment><comment><text>11.455678029354596</text><id>SNR</id></comment></pick><pick publicID="de.gempa.tb1.Pick/20250415072031.831116.117976"><time><value>2025-04-15T07:20:15.92Z</value></time><waveformID networkCode="CX" stationCode="PB09" channelCode="HHN"/><filterID>ITAPER(2)&gt;&gt;BW(3,3,20)</filterID><methodID>L2-AIC-GRID</methodID><horizontalSlowness><value>22.446594375876913</value></horizontalSlowness><backazimuth><value>301.09828978784674</value></backazimuth><phaseHint>S</phaseHint><evaluationMode>automatic</evaluationMode><comment><text>456.1524990470689</text><id>DFX:rectilinearity</id></comment><comment><text>de.gempa.tb1.Pick/20250415072006.392912.117957</text><id>RefPickID</id></comment><comment><text>5.238918258210484</text><id>SNR</id></comment></pick><pick publicID="de.gempa.tb1.Pick/20250415072033.697754.117978"><time><value>2025-04-15T07:20:28.158394Z</value></time><waveformID networkCode="CX" stationCode="PB06" channelCode="HHN"/><filterID>ITAPER(2)&gt;&gt;BW(3,3,20)</filterID><methodID>L2-AIC-GRID</methodID><horizontalSlowness><value>20.199881483093158</value></horizontalSlowness><backazimuth><value>271.15514335828823</value></backazimuth><phaseHint>S</phaseHint><evaluationMode>automatic</evaluationMode><comment><text>405.93677829608</text><id>DFX:rectilinearity</id></comment><comment><text>de.gempa.tb1.Pick/20250415072013.548335.117965</text><id>RefPickID</id></comment><comment><text>12.996607958581443</text><id>SNR</id></comment></pick><pick publicID="de.gempa.tb1.Pick/20250415072047.591357.117988"><time><value>2025-04-15T07:20:31.168393Z</value></time><waveformID networkCode="CX" stationCode="PB08" channelCode="HHN"/><filterID>ITAPER(2)&gt;&gt;BW(3,3,20)</filterID><methodID>L2-AIC-GRID</methodID><horizontalSlowness><value>14.19145561090555</value></horizontalSlowness><backazimuth><value>214.45208374270157</value></backazimuth><phaseHint>S</phaseHint><evaluationMode>automatic</evaluationMode><comment><text>170.55849363135107</text><id>DFX:rectilinearity</id></comment><comment><text>de.gempa.tb1.Pick/20250415072015.69023.117967</text><id>RefPickID</id></comment><comment><text>6.35411124748386</text><id>SNR</id></comment></pick><pick publicID="de.gempa.tb1.Pick/20250415072058.595637.117992"><time><value>2025-04-15T07:20:48.85Z</value></time><waveformID networkCode="CX" stationCode="PSGCX" channelCode="HHN"/><filterID>ITAPER(2)&gt;&gt;BW(3,3,20)</filterID><methodID>L2-AIC-GRID</methodID><horizontalSlowness><value>22.143074813735453</value></horizontalSlowness><backazimuth><value>19.4222006639624</value></backazimuth><phaseHint>S</phaseHint><evaluationMode>automatic</evaluationMode><comment><text>70.42209522097471</text><id>DFX:rectilinearity</id></comment><comment><text>de.gempa.tb1.Pick/20250415072026.576425.117973</text><id>RefPickID</id></comment><comment><text>5.09712076837388</text><id>SNR</id></comment></pick><pick publicID="de.gempa.tb1.Pick/20250415072106.712719.117994"><time><value>2025-04-15T07:20:24.878396Z</value></time><waveformID networkCode="CX" stationCode="PB07" channelCode="HHN"/><filterID>ITAPER(2)&gt;&gt;BW(3,3,20)</filterID><methodID>L2-AIC-GRID</methodID><horizontalSlowness><value>22.041692022658712</value></horizontalSlowness><backazimuth><value>282.03801391650524</value></backazimuth><phaseHint>S</phaseHint><evaluationMode>automatic</evaluationMode><comment><text>44654.619280186416</text><id>DFX:rectilinearity</id></comment><comment><text>de.gempa.tb1.Pick/20250415072018.380803.117971</text><id>RefPickID</id></comment><comment><text>7.741437317508034</text><id>SNR</id></comment></pick><origin publicID="de.gempa.tb1.Origin/20250415072106.720402.57305"><time><value>2025-04-15T07:19:37.947517Z</value><uncertainty>0.9089983105659485</uncertainty></time><latitude><value>-21.59421730041504</value><uncertainty>3.3800384998321533</uncertainty></latitude><longitude><value>-68.63402557373047</value><uncertainty>9.502249717712402</uncertainty></longitude><depth><value>147.093994140625</value><uncertainty>7.897972106933594</uncertainty></depth><depthType>from location</depthType><methodID>LOCSAT</methodID><earthModelID>iasp91_scanloc</earthModelID><quality><associatedPhaseCount>15</associatedPhaseCount><usedPhaseCount>15</usedPhaseCount><associatedStationCount>9</associatedStationCount><usedStationCount>9</usedStationCount><depthPhaseCount>0</depthPhaseCount><standardError>0.441839204840824</standardError><azimuthalGap>236.6533203125</azimuthalGap><maximumDistance>2.427706718444824</maximumDistance><minimumDistance>0.6000751852989197</minimumDistance><medianDistance>1.2068936824798584</medianDistance></quality><uncertainty><minHorizontalUncertainty>7.182013034820557</minHorizontalUncertainty><maxHorizontalUncertainty>20.394920349121094</maxHorizontalUncertainty><azimuthMaxHorizontalUncertainty>92.8974380493164</azimuthMaxHorizontalUncertainty><preferredDescription>horizontal uncertainty</preferredDescription></uncertainty><evaluationMode>automatic</evaluationMode><evaluationStatus>confirmed</evaluationStatus><comment><text>0.06</text><id>mismatchScore</id></comment><comment><text>mismatchScore</text><id>scevalMethod</id></comment><arrival><pickID>de.gempa.tb1.Pick/20250415072006.392912.117957</pickID><phase>P</phase><azimuth>250.3007507324219</azimuth><distance>0.6000751852989197</distance><timeResidual>-0.4690456390380859</timeResidual><timeUsed>true</timeUsed><horizontalSlownessUsed>false</horizontalSlownessUsed><backazimuthUsed>false</backazimuthUsed><weight>1</weight></arrival><arrival><pickID>de.gempa.tb1.Pick/20250415072006.792915.117959</pickID><phase>P</phase><azimuth>304.41412353515625</azimuth><distance>0.9662769436836243</distance><timeResidual>-0.4847087860107422</timeResidual><timeUsed>true</timeUsed><horizontalSlownessUsed>false</horizontalSlownessUsed><backazimuthUsed>false</backazimuthUsed><weight>1</weight></arrival><arrival><pickID>de.gempa.tb1.Pick/20250415072009.629884.117961</pickID><phase>P</phase><azimuth>246.2982635498047</azimuth><distance>1.1338485479354858</distance><timeResidual>0.18117141723632812</timeResidual><timeUsed>true</timeUsed><horizontalSlownessUsed>false</horizontalSlownessUsed><backazimuthUsed>false</backazimuthUsed><weight>1</weight></arrival><arrival><pickID>de.gempa.tb1.Pick/20250415072010.528782.117963</pickID><phase>P</phase><azimuth>282.85009765625</azimuth><distance>1.2068936824798584</distance><timeResidual>0.10875129699707031</timeResidual><timeUsed>true</timeUsed><horizontalSlownessUsed>false</horizontalSlownessUsed><backazimuthUsed>false</backazimuthUsed><weight>1</weight></arrival><arrival><pickID>de.gempa.tb1.Pick/20250415072013.548335.117965</pickID><phase>P</phase><azimuth>217.99127197265625</azimuth><distance>1.4070154428482056</distance><timeResidual>0.3249340057373047</timeResidual><timeUsed>true</timeUsed><horizontalSlownessUsed>false</horizontalSlownessUsed><backazimuthUsed>false</backazimuthUsed><weight>1</weight></arrival><arrival><pickID>de.gempa.tb1.Pick/20250415072015.69023.117967</pickID><phase>P</phase><azimuth>341.33795166015625</azimuth><distance>1.5252175331115723</distance><timeResidual>0.4456348419189453</timeResidual><timeUsed>true</timeUsed><horizontalSlownessUsed>false</horizontalSlownessUsed><backazimuthUsed>false</backazimuthUsed><weight>1</weight></arrival><arrival><pickID>de.gempa.tb1.Pick/20250415072017.241066.117969</pickID><phase>P</phase><azimuth>298.23095703125</azimuth><distance>1.6127229928970337</distance><timeResidual>0.4972991943359375</timeResidual><timeUsed>true</timeUsed><horizontalSlownessUsed>false</horizontalSlownessUsed><backazimuthUsed>false</backazimuthUsed><weight>1</weight></arrival><arrival><pickID>de.gempa.tb1.Pick/20250415072018.380803.117971</pickID><phase>P</phase><azimuth>263.31451416015625</azimuth><distance>1.1722235679626465</distance><timeResidual>0.28076744079589844</timeResidual><timeUsed>true</timeUsed><horizontalSlownessUsed>false</horizontalSlownessUsed><backazimuthUsed>false</backazimuthUsed><weight>1</weight></arrival><arrival><pickID>de.gempa.tb1.Pick/20250415072026.576425.117973</pickID><phase>P</phase><azimuth>324.6648254394531</azimuth><distance>2.427706718444824</distance><timeResidual>-0.75738525390625</timeResidual><timeUsed>true</timeUsed><horizontalSlownessUsed>false</horizontalSlownessUsed><backazimuthUsed>false</backazimuthUsed><weight>1</weight></arrival><arrival><pickID>de.gempa.tb1.Pick/20250415072028.770577.117975</pickID><phase>S</phase><azimuth>246.2982635498047</azimuth><distance>1.1338485479354858</distance><timeResidual>-0.2886962890625</timeResidual><timeUsed>true</timeUsed><horizontalSlownessUsed>false</horizontalSlownessUsed><backazimuthUsed>false</backazimuthUsed><weight>1</weight></arrival><arrival><pickID>de.gempa.tb1.Pick/20250415072031.831116.117976</pickID><phase>S</phase><azimuth>250.3007507324219</azimuth><distance>0.6000751852989197</distance><timeResidual>-0.2990283966064453</timeResidual><timeUsed>true</timeUsed><horizontalSlownessUsed>false</horizontalSlownessUsed><backazimuthUsed>false</backazimuthUsed><weight>1</weight></arrival><arrival><pickID>de.gempa.tb1.Pick/20250415072033.697754.117978</pickID><phase>S</phase><azimuth>217.99127197265625</azimuth><distance>1.4070154428482056</distance><timeResidual>-0.20830535888671875</timeResidual><timeUsed>true</timeUsed><horizontalSlownessUsed>false</horizontalSlownessUsed><backazimuthUsed>false</backazimuthUsed><weight>1</weight></arrival><arrival><pickID>de.gempa.tb1.Pick/20250415072047.591357.117988</pickID><phase>S</phase><azimuth>341.33795166015625</azimuth><distance>1.5252175331115723</distance><timeResidual>0.5531444549560547</timeResidual><timeUsed>true</timeUsed><horizontalSlownessUsed>false</horizontalSlownessUsed><backazimuthUsed>false</backazimuthUsed><weight>1</weight></arrival><arrival><pickID>de.gempa.tb1.Pick/20250415072058.595637.117992</pickID><phase>S</phase><azimuth>324.6648254394531</azimuth><distance>2.427706718444824</distance><timeResidual>-0.5321483612060547</timeResidual><timeUsed>true</timeUsed><horizontalSlownessUsed>false</horizontalSlownessUsed><backazimuthUsed>false</backazimuthUsed><weight>1</weight></arrival><arrival><pickID>de.gempa.tb1.Pick/20250415072106.712719.117994</pickID><phase>S</phase><azimuth>263.31451416015625</azimuth><distance>1.1722235679626465</distance><timeResidual>0.6476764678955078</timeResidual><timeUsed>true</timeUsed><horizontalSlownessUsed>false</horizontalSlownessUsed><backazimuthUsed>false</backazimuthUsed><weight>1</weight></arrival><magnitude publicID="de.gempa.tb1.Magnitude/20250415072116.552893.103313"><magnitude><value>2.3943257432356053</value></magnitude><type>M</type><methodID>weighted average</methodID><stationCount>7</stationCount></magnitude></origin><event publicID="gempa2025hkqy"><preferredOriginID>de.gempa.tb1.Origin/20250415072106.720402.57305</preferredOriginID><preferredMagnitudeID>de.gempa.tb1.Magnitude/20250415072116.552893.103313</preferredMagnitudeID><description><text>Chile-Bolivia Border Region</text><type>region name</type></description><originReference>de.gempa.tb1.Origin/20250415072106.720402.57305</originReference></event></EventParameters></seiscomp>