<?xml version="1.0" encoding="UTF-8"?>
<seiscomp xmlns="http://geofon.gfz-potsdam.de/ns/seiscomp3-schema/0.13" version="0.13"><EventParameters><pick publicID="de.gempa.tb1.Pick/20250412191540.487929.186256"><time><value>2025-04-12T19:15:32.1475Z</value></time><waveformID networkCode="SX" stationCode="WERN" channelCode="HHZ"/><filterID>ITAPER(2)&gt;&gt;BW(3,3,20)</filterID><methodID>AIC</methodID><horizontalSlowness><value>23.33397130958158</value></horizontalSlowness><backazimuth><value>247.82296559357235</value></backazimuth><phaseHint>P</phaseHint><evaluationMode>automatic</evaluationMode><comment><text>10.550385968622628</text><id>DFX:rectilinearity</id></comment></pick><pick publicID="de.gempa.tb1.Pick/20250412191542.774554.186261"><time><value>2025-04-12T19:15:33.98Z</value></time><waveformID networkCode="SX" stationCode="ROHR" channelCode="HHZ"/><filterID>ITAPER(2)&gt;&gt;BW(3,3,20)</filterID><methodID>AIC</methodID><horizontalSlowness><value>9.389084410685802</value></horizontalSlowness><backazimuth><value>42.246736651162536</value></backazimuth><phaseHint>P</phaseHint><evaluationMode>automatic</evaluationMode><comment><text>2.3939345688653835</text><id>DFX:rectilinearity</id></comment></pick><pick publicID="de.gempa.tb1.Pick/20250412191543.846829.186265"><time><value>2025-04-12T19:15:33.41Z</value></time><waveformID networkCode="SX" stationCode="TANN" channelCode="HHZ"/><filterID>ITAPER(2)&gt;&gt;BW(3,3,20)</filterID><methodID>AIC</methodID><horizontalSlowness><value>17.39577439608177</value></horizontalSlowness><backazimuth><value>69.57286684531674</value></backazimuth><phaseHint>P</phaseHint><evaluationMode>automatic</evaluationMode><comment><text>1.3480105672154665</text><id>DFX:rectilinearity</id></comment></pick><pick publicID="de.gempa.tb1.Pick/20250412191544.323311.186268"><time><value>2025-04-12T19:15:34.43Z</value></time><waveformID networkCode="SX" stationCode="TRIB" channelCode="HHZ"/><filterID>ITAPER(2)&gt;&gt;BW(3,3,20)</filterID><methodID>AIC</methodID><horizontalSlowness><value>13.451587328189245</value></horizontalSlowness><backazimuth><value>291.8550597732149</value></backazimuth><phaseHint>P</phaseHint><evaluationMode>automatic</evaluationMode><comment><text>1.6984032597562366</text><id>DFX:rectilinearity</id></comment></pick><pick publicID="de.gempa.tb1.Pick/20250412191545.317472.186272"><time><value>2025-04-12T19:15:33.34Z</value></time><waveformID networkCode="SX" stationCode="MULD" channelCode="HHZ"/><filterID>ITAPER(2)&gt;&gt;BW(3,3,20)</filterID><methodID>AIC</methodID><horizontalSlowness><value>22.48696133225377</value></horizontalSlowness><backazimuth><value>137.64107411424226</value></backazimuth><phaseHint>P</phaseHint><evaluationMode>automatic</evaluationMode><comment><text>1.7069751032033866</text><id>DFX:rectilinearity</id></comment></pick><pick publicID="de.gempa.tb1.Pick/20250412191547.492923.186275"><time><value>2025-04-12T19:15:35.77Z</value></time><waveformID networkCode="SX" stationCode="MULD" channelCode="HHN"/><filterID>ITAPER(3)&gt;&gt;BW(4,3,10)</filterID><methodID>L2-AIC-GRID</methodID><horizontalSlowness><value>22.53512483554685</value></horizontalSlowness><backazimuth><value>144.08231366588006</value></backazimuth><phaseHint>S</phaseHint><evaluationMode>automatic</evaluationMode><comment><text>1.3699459942937187</text><id>DFX:rectilinearity</id></comment><comment><text>de.gempa.tb1.Pick/20250412191545.317472.186272</text><id>RefPickID</id></comment></pick><pick publicID="de.gempa.tb1.Pick/20250412191547.509211.186276"><time><value>2025-04-12T19:15:33.6375Z</value></time><waveformID networkCode="SX" stationCode="WERN" channelCode="HHN"/><filterID>ITAPER(3)&gt;&gt;BW(4,3,10)</filterID><methodID>L2-AIC-GRID</methodID><horizontalSlowness><value>23.27456515551743</value></horizontalSlowness><backazimuth><value>251.96258715277753</value></backazimuth><phaseHint>S</phaseHint><evaluationMode>automatic</evaluationMode><comment><text>9.896004030584205</text><id>DFX:rectilinearity</id></comment><comment><text>de.gempa.tb1.Pick/20250412191540.487929.186256</text><id>RefPickID</id></comment></pick><origin publicID="de.gempa.tb1.Origin/20250412191548.805493.116414"><time><value>2025-04-12T19:15:30.289807Z</value><uncertainty>1.4004355669021606</uncertainty></time><latitude><value>50.31956100463867</value><uncertainty>2.595334053039551</uncertainty></latitude><longitude><value>12.389954566955566</value><uncertainty>6.731438159942627</uncertainty></longitude><depth><value>8.270668983459473</value><uncertainty>6.71436834335327</uncertainty></depth><depthType>from location</depthType><methodID>LOCSAT</methodID><earthModelID>iasp91</earthModelID><quality><associatedPhaseCount>7</associatedPhaseCount><usedPhaseCount>7</usedPhaseCount><associatedStationCount>5</associatedStationCount><usedStationCount>5</usedStationCount><depthPhaseCount>0</depthPhaseCount><standardError>0.25074026288892504</standardError><azimuthalGap>169.99681091308594</azimuthalGap><maximumDistance>0.16532167792320251</maximumDistance><minimumDistance>0.033404015004634857</minimumDistance><medianDistance>0.09278364479541779</medianDistance></quality><uncertainty><minHorizontalUncertainty>4.315013885498047</minHorizontalUncertainty><maxHorizontalUncertainty>14.857524871826172</maxHorizontalUncertainty><azimuthMaxHorizontalUncertainty>104.3156967163086</azimuthMaxHorizontalUncertainty><preferredDescription>horizontal uncertainty</preferredDescription></uncertainty><evaluationMode>automatic</evaluationMode><evaluationStatus>confirmed</evaluationStatus><comment><text>0.44</text><id>mismatchScore</id></comment><comment><text>mismatchScore</text><id>scevalMethod</id></comment><arrival><pickID>de.gempa.tb1.Pick/20250412191540.487929.186256</pickID><phase>P</phase><azimuth>195.43020629882812</azimuth><distance>0.033404015004634857</distance><timeResidual>-0.15723168849945068</timeResidual><timeUsed>true</timeUsed><horizontalSlownessUsed>false</horizontalSlownessUsed><backazimuthUsed>false</backazimuthUsed><weight>1</weight></arrival><arrival><pickID>de.gempa.tb1.Pick/20250412191542.774554.186261</pickID><phase>P</phase><azimuth>208.6813201904297</azimuth><distance>0.09761787205934525</distance><timeResidual>0.539385199546814</timeResidual><timeUsed>true</timeUsed><horizontalSlownessUsed>false</horizontalSlownessUsed><backazimuthUsed>false</backazimuthUsed><weight>1</weight></arrival><arrival><pickID>de.gempa.tb1.Pick/20250412191543.846829.186265</pickID><phase>P</phase><azimuth>25.43339538574219</azimuth><distance>0.10583603382110596</distance><timeResidual>-0.1755150556564331</timeResidual><timeUsed>true</timeUsed><horizontalSlownessUsed>false</horizontalSlownessUsed><backazimuthUsed>false</backazimuthUsed><weight>1</weight></arrival><arrival><pickID>de.gempa.tb1.Pick/20250412191544.323311.186268</pickID><phase>P</phase><azimuth>281.4273681640625</azimuth><distance>0.16532167792320251</distance><timeResidual>-0.20779383182525635</timeResidual><timeUsed>true</timeUsed><horizontalSlownessUsed>false</horizontalSlownessUsed><backazimuthUsed>false</backazimuthUsed><weight>1</weight></arrival><arrival><pickID>de.gempa.tb1.Pick/20250412191545.317472.186272</pickID><phase>P</phase><azimuth>5.51832914352417</azimuth><distance>0.09278364479541779</distance><timeResidual>-0.014665722846984863</timeResidual><timeUsed>true</timeUsed><horizontalSlownessUsed>false</horizontalSlownessUsed><backazimuthUsed>false</backazimuthUsed><weight>1</weight></arrival><arrival><pickID>de.gempa.tb1.Pick/20250412191547.492923.186275</pickID><phase>S</phase><azimuth>5.51832914352417</azimuth><distance>0.09278364479541779</distance><timeResidual>0.16561877727508545</timeResidual><timeUsed>true</timeUsed><horizontalSlownessUsed>false</horizontalSlownessUsed><backazimuthUsed>false</backazimuthUsed><weight>1</weight></arrival><arrival><pickID>de.gempa.tb1.Pick/20250412191547.509211.186276</pickID><phase>S</phase><azimuth>195.43020629882812</azimuth><distance>0.033404015004634857</distance><timeResidual>-0.1510235071182251</timeResidual><timeUsed>true</timeUsed><horizontalSlownessUsed>false</horizontalSlownessUsed><backazimuthUsed>false</backazimuthUsed><weight>1</weight></arrival><magnitude publicID="de.gempa.tb1.Magnitude/20250412191614.511764.268757"><magnitude><value>0.19265981724144304</value></magnitude><type>M</type><methodID>weighted average</methodID><stationCount>5</stationCount></magnitude></origin><event publicID="gempa2025hgat"><preferredOriginID>de.gempa.tb1.Origin/20250412191548.805493.116414</preferredOriginID><preferredMagnitudeID>de.gempa.tb1.Magnitude/20250412191614.511764.268757</preferredMagnitudeID><description><text>Germany</text><type>region name</type></description><originReference>de.gempa.tb1.Origin/20250412191548.805493.116414</originReference></event></EventParameters></seiscomp>