<?xml version="1.0" encoding="UTF-8"?>
<seiscomp xmlns="http://geofon.gfz-potsdam.de/ns/seiscomp3-schema/0.13" version="0.13"><EventParameters><pick publicID="de.gempa.tb1.Pick/20250413191611.71494.133382"><time><value>2025-04-13T19:16:06.788352Z</value></time><waveformID networkCode="CX" stationCode="PB07" channelCode="HHZ"/><filterID>ITAPER(4)&gt;&gt;BW(4,4,20)</filterID><methodID>AIC</methodID><horizontalSlowness><value>7.800509556087543</value></horizontalSlowness><backazimuth><value>297.1645737085</value></backazimuth><phaseHint>P</phaseHint><evaluationMode>automatic</evaluationMode><comment><text>9603.25474076787</text><id>DFX:rectilinearity</id></comment><comment><text>560.785118828509</text><id>SNR</id></comment></pick><pick publicID="de.gempa.tb1.Pick/20250413191612.596306.133384"><time><value>2025-04-13T19:16:07.798393Z</value></time><waveformID networkCode="CX" stationCode="PB02" channelCode="HHZ"/><filterID>ITAPER(4)&gt;&gt;BW(4,4,20)</filterID><methodID>AIC</methodID><horizontalSlowness><value>3.8921236902121583</value></horizontalSlowness><backazimuth><value>185.52484387021116</value></backazimuth><phaseHint>P</phaseHint><evaluationMode>automatic</evaluationMode><comment><text>1970.2905387218639</text><id>DFX:rectilinearity</id></comment><comment><text>264.44871224082175</text><id>SNR</id></comment></pick><pick publicID="de.gempa.tb1.Pick/20250413191613.614569.133386"><time><value>2025-04-13T19:16:08.338394Z</value></time><waveformID networkCode="CX" stationCode="PB03" channelCode="HHZ"/><filterID>ITAPER(4)&gt;&gt;BW(4,4,20)</filterID><methodID>AIC</methodID><horizontalSlowness><value>6.269606256538469</value></horizontalSlowness><backazimuth><value>340.77432621017</value></backazimuth><phaseHint>P</phaseHint><evaluationMode>automatic</evaluationMode><comment><text>566.5358802675775</text><id>DFX:rectilinearity</id></comment><comment><text>265.44746447446227</text><id>SNR</id></comment></pick><pick publicID="de.gempa.tb1.Pick/20250413191616.57585.133388"><time><value>2025-04-13T19:16:10.848393Z</value></time><waveformID networkCode="CX" stationCode="PB01" channelCode="HHZ"/><filterID>ITAPER(4)&gt;&gt;BW(4,4,20)</filterID><methodID>AIC</methodID><horizontalSlowness><value>9.882559074015269</value></horizontalSlowness><backazimuth><value>216.25532940492425</value></backazimuth><phaseHint>P</phaseHint><evaluationMode>automatic</evaluationMode><comment><text>35.27274602554784</text><id>DFX:rectilinearity</id></comment><comment><text>107.97476075907365</text><id>SNR</id></comment></pick><pick publicID="de.gempa.tb1.Pick/20250413191619.548749.133390"><time><value>2025-04-13T19:16:12.699999Z</value></time><waveformID networkCode="CX" stationCode="PATCX" channelCode="HHZ"/><filterID>ITAPER(4)&gt;&gt;BW(4,4,20)</filterID><methodID>AIC</methodID><horizontalSlowness><value>20.899015327621452</value></horizontalSlowness><backazimuth><value>334.04688306550946</value></backazimuth><phaseHint>P</phaseHint><evaluationMode>automatic</evaluationMode><comment><text>295.2201690510549</text><id>DFX:rectilinearity</id></comment><comment><text>11.124534278602146</text><id>SNR</id></comment></pick><pick publicID="de.gempa.tb1.Pick/20250413191620.379551.133392"><time><value>2025-04-13T19:16:10.5Z</value></time><waveformID networkCode="CX" stationCode="PB09" channelCode="HHZ"/><filterID>ITAPER(4)&gt;&gt;BW(4,4,20)</filterID><methodID>AIC</methodID><horizontalSlowness><value>10.948324814291704</value></horizontalSlowness><backazimuth><value>291.88595659856765</value></backazimuth><phaseHint>P</phaseHint><evaluationMode>automatic</evaluationMode><comment><text>49.90943973464348</text><id>DFX:rectilinearity</id></comment><comment><text>154.0455395821459</text><id>SNR</id></comment></pick><pick publicID="de.gempa.tb1.Pick/20250413191622.022319.133394"><time><value>2025-04-13T19:16:15.558352Z</value></time><waveformID networkCode="CX" stationCode="PB07" channelCode="HHN"/><filterID>ITAPER(2)&gt;&gt;BW(3,3,20)</filterID><methodID>L2-AIC-GRID</methodID><horizontalSlowness><value>21.57933216984646</value></horizontalSlowness><backazimuth><value>195.84054076833493</value></backazimuth><phaseHint>S</phaseHint><evaluationMode>automatic</evaluationMode><comment><text>115426.29016496667</text><id>DFX:rectilinearity</id></comment><comment><text>de.gempa.tb1.Pick/20250413191611.71494.133382</text><id>RefPickID</id></comment><comment><text>6.836077943175065</text><id>SNR</id></comment></pick><pick publicID="de.gempa.tb1.Pick/20250413191623.602374.133395"><time><value>2025-04-13T19:16:17.078393Z</value></time><waveformID networkCode="CX" stationCode="PB02" channelCode="HHN"/><filterID>ITAPER(2)&gt;&gt;BW(3,3,20)</filterID><methodID>L2-AIC-GRID</methodID><horizontalSlowness><value>19.19962027856504</value></horizontalSlowness><backazimuth><value>70.09324873159042</value></backazimuth><phaseHint>S</phaseHint><evaluationMode>automatic</evaluationMode><comment><text>58094.45163538065</text><id>DFX:rectilinearity</id></comment><comment><text>de.gempa.tb1.Pick/20250413191612.596306.133384</text><id>RefPickID</id></comment><comment><text>13.671050562652697</text><id>SNR</id></comment></pick><pick publicID="de.gempa.tb1.Pick/20250413191623.603086.133396"><time><value>2025-04-13T19:16:15.218393Z</value></time><waveformID networkCode="CX" stationCode="PB06" channelCode="HHZ"/><filterID>ITAPER(4)&gt;&gt;BW(4,4,20)</filterID><methodID>AIC</methodID><horizontalSlowness><value>12.771659844930875</value></horizontalSlowness><backazimuth><value>333.5726441417813</value></backazimuth><phaseHint>P</phaseHint><evaluationMode>automatic</evaluationMode><comment><text>93.53134535529118</text><id>DFX:rectilinearity</id></comment><comment><text>10.335549869145542</text><id>SNR</id></comment></pick><pick publicID="de.gempa.tb1.Pick/20250413191623.668745.133398"><time><value>2025-04-13T19:16:18.038394Z</value></time><waveformID networkCode="CX" stationCode="PB03" channelCode="HHN"/><filterID>ITAPER(2)&gt;&gt;BW(3,3,20)</filterID><methodID>L2-AIC-GRID</methodID><horizontalSlowness><value>20.958590877794467</value></horizontalSlowness><backazimuth><value>111.45704005598546</value></backazimuth><phaseHint>S</phaseHint><evaluationMode>automatic</evaluationMode><comment><text>5674.990081316254</text><id>DFX:rectilinearity</id></comment><comment><text>de.gempa.tb1.Pick/20250413191613.614569.133386</text><id>RefPickID</id></comment><comment><text>13.40453951957697</text><id>SNR</id></comment></pick><pick publicID="de.gempa.tb1.Pick/20250413191629.716195.133399"><time><value>2025-04-13T19:16:22.638393Z</value></time><waveformID networkCode="CX" stationCode="PB01" channelCode="HHN"/><filterID>ITAPER(2)&gt;&gt;BW(3,3,20)</filterID><methodID>L2-AIC-GRID</methodID><horizontalSlowness><value>20.259929396670572</value></horizontalSlowness><backazimuth><value>346.79731938205896</value></backazimuth><phaseHint>S</phaseHint><evaluationMode>automatic</evaluationMode><comment><text>16250.728399841115</text><id>DFX:rectilinearity</id></comment><comment><text>de.gempa.tb1.Pick/20250413191616.57585.133388</text><id>RefPickID</id></comment><comment><text>17.378851374825974</text><id>SNR</id></comment></pick><pick publicID="de.gempa.tb1.Pick/20250413191632.333362.133400"><time><value>2025-04-13T19:16:21.64Z</value></time><waveformID networkCode="CX" stationCode="PB09" channelCode="HHN"/><filterID>ITAPER(2)&gt;&gt;BW(3,3,20)</filterID><methodID>L2-AIC-GRID</methodID><horizontalSlowness><value>20.045529859617037</value></horizontalSlowness><backazimuth><value>77.02652614180028</value></backazimuth><phaseHint>S</phaseHint><evaluationMode>automatic</evaluationMode><comment><text>8916.701007504982</text><id>DFX:rectilinearity</id></comment><comment><text>de.gempa.tb1.Pick/20250413191620.379551.133392</text><id>RefPickID</id></comment><comment><text>6.253847519764062</text><id>SNR</id></comment></pick><pick publicID="de.gempa.tb1.Pick/20250413191633.460798.133401"><time><value>2025-04-13T19:16:25.649999Z</value></time><waveformID networkCode="CX" stationCode="PATCX" channelCode="HHN"/><filterID>ITAPER(2)&gt;&gt;BW(3,3,20)</filterID><methodID>L2-AIC-GRID</methodID><horizontalSlowness><value>21.92829310332598</value></horizontalSlowness><backazimuth><value>20.26545064463042</value></backazimuth><phaseHint>S</phaseHint><evaluationMode>automatic</evaluationMode><comment><text>914.13763707325</text><id>DFX:rectilinearity</id></comment><comment><text>de.gempa.tb1.Pick/20250413191619.548749.133390</text><id>RefPickID</id></comment><comment><text>10.817184703828994</text><id>SNR</id></comment></pick><pick publicID="de.gempa.tb1.Pick/20250413191637.62733.133402"><time><value>2025-04-13T19:16:30.278393Z</value></time><waveformID networkCode="CX" stationCode="PB06" channelCode="HHN"/><filterID>ITAPER(2)&gt;&gt;BW(3,3,20)</filterID><methodID>L2-AIC-GRID</methodID><horizontalSlowness><value>17.83362388746139</value></horizontalSlowness><backazimuth><value>112.11537593598582</value></backazimuth><phaseHint>S</phaseHint><evaluationMode>automatic</evaluationMode><comment><text>197.84629380742913</text><id>DFX:rectilinearity</id></comment><comment><text>de.gempa.tb1.Pick/20250413191623.603086.133396</text><id>RefPickID</id></comment><comment><text>10.541481142029262</text><id>SNR</id></comment></pick><origin publicID="de.gempa.tb1.Origin/20250413191637.633611.118144"><time><value>2025-04-13T19:15:55.116339Z</value><uncertainty>0.7711896300315857</uncertainty></time><latitude><value>-21.650150299072266</value><uncertainty>2.736314535140991</uncertainty></latitude><longitude><value>-69.89508056640625</value><uncertainty>5.491386413574219</uncertainty></longitude><depth><value>80.12593841552734</value><uncertainty>5.577239990234375</uncertainty></depth><depthType>from location</depthType><methodID>LOCSAT</methodID><earthModelID>iasp91_scanloc</earthModelID><quality><associatedPhaseCount>14</associatedPhaseCount><usedPhaseCount>14</usedPhaseCount><associatedStationCount>7</associatedStationCount><usedStationCount>7</usedStationCount><depthPhaseCount>0</depthPhaseCount><standardError>0.27623493992364917</standardError><azimuthalGap>169.91204833984375</azimuthalGap><maximumDistance>1.0924559831619263</maximumDistance><minimumDistance>0.07659446448087692</minimumDistance><medianDistance>0.6245183944702148</medianDistance></quality><uncertainty><minHorizontalUncertainty>5.439352512359619</minHorizontalUncertainty><maxHorizontalUncertainty>11.975796699523926</maxHorizontalUncertainty><azimuthMaxHorizontalUncertainty>78.11815643310547</azimuthMaxHorizontalUncertainty><preferredDescription>horizontal uncertainty</preferredDescription></uncertainty><evaluationMode>automatic</evaluationMode><evaluationStatus>confirmed</evaluationStatus><comment><text>0.00</text><id>mismatchScore</id></comment><comment><text>mismatchScore</text><id>scevalMethod</id></comment><arrival><pickID>de.gempa.tb1.Pick/20250413191611.71494.133382</pickID><phase>P</phase><azimuth>173.795166015625</azimuth><distance>0.07659446448087692</distance><timeResidual>0.22962188720703125</timeResidual><timeUsed>true</timeUsed><horizontalSlownessUsed>false</horizontalSlownessUsed><backazimuthUsed>false</backazimuthUsed><weight>1</weight></arrival><arrival><pickID>de.gempa.tb1.Pick/20250413191612.596306.133384</pickID><phase>P</phase><azimuth>359.8462829589844</azimuth><distance>0.32879728078842163</distance><timeResidual>0.2038249969482422</timeResidual><timeUsed>true</timeUsed><horizontalSlownessUsed>false</horizontalSlownessUsed><backazimuthUsed>false</backazimuthUsed><weight>1</weight></arrival><arrival><pickID>de.gempa.tb1.Pick/20250413191613.614569.133386</pickID><phase>P</phase><azimuth>161.62025451660156</azimuth><distance>0.4177563488483429</distance><timeResidual>0.12471580505371094</timeResidual><timeUsed>true</timeUsed><horizontalSlownessUsed>false</horizontalSlownessUsed><backazimuthUsed>false</backazimuthUsed><weight>1</weight></arrival><arrival><pickID>de.gempa.tb1.Pick/20250413191616.57585.133388</pickID><phase>P</phase><azimuth>32.25628662109375</azimuth><distance>0.713556170463562</distance><timeResidual>-0.10035037994384766</timeResidual><timeUsed>true</timeUsed><horizontalSlownessUsed>false</horizontalSlownessUsed><backazimuthUsed>false</backazimuthUsed><weight>1</weight></arrival><arrival><pickID>de.gempa.tb1.Pick/20250413191619.548749.133390</pickID><phase>P</phase><azimuth>343.70721435546875</azimuth><distance>0.8596601486206055</distance><timeResidual>0.14894485473632812</timeResidual><timeUsed>true</timeUsed><horizontalSlownessUsed>false</horizontalSlownessUsed><backazimuthUsed>false</backazimuthUsed><weight>1</weight></arrival><arrival><pickID>de.gempa.tb1.Pick/20250413191620.379551.133392</pickID><phase>P</phase><azimuth>103.59407043457031</azimuth><distance>0.6245183944702148</distance><timeResidual>0.4616451263427734</timeResidual><timeUsed>true</timeUsed><horizontalSlownessUsed>false</horizontalSlownessUsed><backazimuthUsed>false</backazimuthUsed><weight>1</weight></arrival><arrival><pickID>de.gempa.tb1.Pick/20250413191622.022319.133394</pickID><phase>S</phase><azimuth>173.795166015625</azimuth><distance>0.07659446448087692</distance><timeResidual>0.28113842010498047</timeResidual><timeUsed>true</timeUsed><horizontalSlownessUsed>false</horizontalSlownessUsed><backazimuthUsed>false</backazimuthUsed><weight>1</weight></arrival><arrival><pickID>de.gempa.tb1.Pick/20250413191623.602374.133395</pickID><phase>S</phase><azimuth>359.8462829589844</azimuth><distance>0.32879728078842163</distance><timeResidual>-0.033804893493652344</timeResidual><timeUsed>true</timeUsed><horizontalSlownessUsed>false</horizontalSlownessUsed><backazimuthUsed>false</backazimuthUsed><weight>1</weight></arrival><arrival><pickID>de.gempa.tb1.Pick/20250413191623.603086.133396</pickID><phase>P</phase><azimuth>164.1446990966797</azimuth><distance>1.0924559831619263</distance><timeResidual>-0.0747823715209961</timeResidual><timeUsed>true</timeUsed><horizontalSlownessUsed>false</horizontalSlownessUsed><backazimuthUsed>false</backazimuthUsed><weight>1</weight></arrival><arrival><pickID>de.gempa.tb1.Pick/20250413191623.668745.133398</pickID><phase>S</phase><azimuth>161.62025451660156</azimuth><distance>0.4177563488483429</distance><timeResidual>-0.17263317108154297</timeResidual><timeUsed>true</timeUsed><horizontalSlownessUsed>false</horizontalSlownessUsed><backazimuthUsed>false</backazimuthUsed><weight>1</weight></arrival><arrival><pickID>de.gempa.tb1.Pick/20250413191629.716195.133399</pickID><phase>S</phase><azimuth>32.25628662109375</azimuth><distance>0.713556170463562</distance><timeResidual>-0.43337154388427734</timeResidual><timeUsed>true</timeUsed><horizontalSlownessUsed>false</horizontalSlownessUsed><backazimuthUsed>false</backazimuthUsed><weight>1</weight></arrival><arrival><pickID>de.gempa.tb1.Pick/20250413191632.333362.133400</pickID><phase>S</phase><azimuth>103.59407043457031</azimuth><distance>0.6245183944702148</distance><timeResidual>0.18760013580322266</timeResidual><timeUsed>true</timeUsed><horizontalSlownessUsed>false</horizontalSlownessUsed><backazimuthUsed>false</backazimuthUsed><weight>1</weight></arrival><arrival><pickID>de.gempa.tb1.Pick/20250413191633.460798.133401</pickID><phase>S</phase><azimuth>343.70721435546875</azimuth><distance>0.8596601486206055</distance><timeResidual>-0.2768526077270508</timeResidual><timeUsed>true</timeUsed><horizontalSlownessUsed>false</horizontalSlownessUsed><backazimuthUsed>false</backazimuthUsed><weight>1</weight></arrival><arrival><pickID>de.gempa.tb1.Pick/20250413191637.62733.133402</pickID><phase>S</phase><azimuth>164.1446990966797</azimuth><distance>1.0924559831619263</distance><timeResidual>-0.5457620620727539</timeResidual><timeUsed>true</timeUsed><horizontalSlownessUsed>false</horizontalSlownessUsed><backazimuthUsed>false</backazimuthUsed><weight>1</weight></arrival><magnitude publicID="de.gempa.tb1.Magnitude/20250413191645.939342.393253"><magnitude><value>2.3634959270074156</value></magnitude><type>M</type><methodID>weighted average</methodID><stationCount>7</stationCount></magnitude></origin><event publicID="gempa2025hhwu"><preferredOriginID>de.gempa.tb1.Origin/20250413191637.633611.118144</preferredOriginID><preferredMagnitudeID>de.gempa.tb1.Magnitude/20250413191645.939342.393253</preferredMagnitudeID><description><text>Northern Chile</text><type>region name</type></description><originReference>de.gempa.tb1.Origin/20250413191637.633611.118144</originReference></event></EventParameters></seiscomp>