<?xml version="1.0" encoding="UTF-8"?>
<seiscomp xmlns="http://geofon.gfz-potsdam.de/ns/seiscomp3-schema/0.13" version="0.13"><EventParameters><pick publicID="de.gempa.tb1.Pick/20250412235708.288649.127631"><time><value>2025-04-12T23:57:02.419999Z</value></time><waveformID networkCode="CX" stationCode="PATCX" channelCode="HHZ"/><filterID>ITAPER(4)&gt;&gt;BW(4,4,20)</filterID><methodID>AIC</methodID><horizontalSlowness><value>17.646451356725517</value></horizontalSlowness><backazimuth><value>270.56857518897266</value></backazimuth><phaseHint>P</phaseHint><evaluationMode>automatic</evaluationMode><comment><text>377.52391291203486</text><id>DFX:rectilinearity</id></comment><comment><text>14.470668414280972</text><id>SNR</id></comment></pick><pick publicID="de.gempa.tb1.Pick/20250412235715.578406.127636"><time><value>2025-04-12T23:57:10.07Z</value></time><waveformID networkCode="CX" stationCode="PSGCX" channelCode="HHZ"/><filterID>ITAPER(4)&gt;&gt;BW(4,4,20)</filterID><methodID>AIC</methodID><horizontalSlowness><value>14.300165010900272</value></horizontalSlowness><backazimuth><value>338.94408576668263</value></backazimuth><phaseHint>P</phaseHint><evaluationMode>automatic</evaluationMode><comment><text>11.614908617052881</text><id>DFX:rectilinearity</id></comment><comment><text>9.618448728063175</text><id>SNR</id></comment></pick><pick publicID="de.gempa.tb1.Pick/20250412235725.104915.127638"><time><value>2025-04-12T23:57:18.138393Z</value></time><waveformID networkCode="CX" stationCode="PB08" channelCode="HHZ"/><filterID>ITAPER(4)&gt;&gt;BW(4,4,20)</filterID><methodID>AIC</methodID><horizontalSlowness><value>20.894332808709613</value></horizontalSlowness><backazimuth><value>201.14665187440932</value></backazimuth><phaseHint>P</phaseHint><evaluationMode>automatic</evaluationMode><comment><text>13.743219537252585</text><id>DFX:rectilinearity</id></comment><comment><text>6.930101680328465</text><id>SNR</id></comment></pick><pick publicID="de.gempa.tb1.Pick/20250412235726.634696.127640"><time><value>2025-04-12T23:57:19.928391Z</value></time><waveformID networkCode="CX" stationCode="PB03" channelCode="HHZ"/><filterID>ITAPER(4)&gt;&gt;BW(4,4,20)</filterID><methodID>AIC</methodID><horizontalSlowness><value>20.646459636913683</value></horizontalSlowness><backazimuth><value>295.2697428344536</value></backazimuth><phaseHint>P</phaseHint><evaluationMode>automatic</evaluationMode><comment><text>78.7483515506097</text><id>DFX:rectilinearity</id></comment><comment><text>9.480020899868567</text><id>SNR</id></comment></pick><pick publicID="de.gempa.tb1.Pick/20250412235732.28709.127647"><time><value>2025-04-12T23:57:20.399999Z</value></time><waveformID networkCode="CX" stationCode="PATCX" channelCode="HHN"/><filterID>ITAPER(2)&gt;&gt;BW(3,3,20)</filterID><methodID>L2-AIC-GRID</methodID><horizontalSlowness><value>23.40198234416642</value></horizontalSlowness><backazimuth><value>245.09471397614533</value></backazimuth><phaseHint>S</phaseHint><evaluationMode>automatic</evaluationMode><comment><text>1272.6727293870656</text><id>DFX:rectilinearity</id></comment><comment><text>de.gempa.tb1.Pick/20250412235708.288649.127631</text><id>RefPickID</id></comment><comment><text>12.936769424585442</text><id>SNR</id></comment></pick><origin publicID="de.gempa.tb1.Origin/20250412235732.292321.95680"><time><value>2025-04-12T23:56:42.610446Z</value><uncertainty>1.0702346563339233</uncertainty></time><latitude><value>-20.488910675048828</value><uncertainty>7.727499008178711</uncertainty></latitude><longitude><value>-71.2968521118164</value><uncertainty>7.008988380432129</uncertainty></longitude><depth><value>0</value></depth><depthType>operator assigned</depthType><methodID>LOCSAT</methodID><earthModelID>iasp91_scanloc</earthModelID><quality><associatedPhaseCount>5</associatedPhaseCount><usedPhaseCount>5</usedPhaseCount><associatedStationCount>4</associatedStationCount><usedStationCount>4</usedStationCount><depthPhaseCount>0</depthPhaseCount><standardError>0.8907055798476591</standardError><azimuthalGap>273.98640060424805</azimuthalGap><maximumDistance>2.1168973445892334</maximumDistance><minimumDistance>1.1210380792617798</minimumDistance><medianDistance>1.4159464836120605</medianDistance></quality><uncertainty><minHorizontalUncertainty>11.404216766357422</minHorizontalUncertainty><maxHorizontalUncertainty>19.25406837463379</maxHorizontalUncertainty><azimuthMaxHorizontalUncertainty>39.16049575805664</azimuthMaxHorizontalUncertainty><preferredDescription>horizontal uncertainty</preferredDescription></uncertainty><evaluationMode>automatic</evaluationMode><evaluationStatus>confirmed</evaluationStatus><comment><text>0.28</text><id>mismatchScore</id></comment><comment><text>mismatchScore</text><id>scevalMethod</id></comment><arrival><pickID>de.gempa.tb1.Pick/20250412235708.288649.127631</pickID><phase>P</phase><azimuth>107.32643127441406</azimuth><distance>1.1210380792617798</distance><timeResidual>-1.6935291290283203</timeResidual><timeUsed>true</timeUsed><horizontalSlownessUsed>false</horizontalSlownessUsed><backazimuthUsed>false</backazimuthUsed><weight>1</weight></arrival><arrival><pickID>de.gempa.tb1.Pick/20250412235715.578406.127636</pickID><phase>P</phase><azimuth>51.40560531616211</azimuth><distance>1.4159464836120605</distance><timeResidual>0.44911956787109375</timeResidual><timeUsed>true</timeUsed><horizontalSlownessUsed>false</horizontalSlownessUsed><backazimuthUsed>false</backazimuthUsed><weight>1</weight></arrival><arrival><pickID>de.gempa.tb1.Pick/20250412235725.104915.127638</pickID><phase>P</phase><azimuth>80.61174774169922</azimuth><distance>2.041269302368164</distance><timeResidual>-0.08915519714355469</timeResidual><timeUsed>true</timeUsed><horizontalSlownessUsed>false</horizontalSlownessUsed><backazimuthUsed>false</backazimuthUsed><weight>1</weight></arrival><arrival><pickID>de.gempa.tb1.Pick/20250412235726.634696.127640</pickID><phase>P</phase><azimuth>137.41920471191406</azimuth><distance>2.1168973445892334</distance><timeResidual>0.6620044708251953</timeResidual><timeUsed>true</timeUsed><horizontalSlownessUsed>false</horizontalSlownessUsed><backazimuthUsed>false</backazimuthUsed><weight>1</weight></arrival><arrival><pickID>de.gempa.tb1.Pick/20250412235732.28709.127647</pickID><phase>S</phase><azimuth>107.32643127441406</azimuth><distance>1.1210380792617798</distance><timeResidual>0.6714420318603516</timeResidual><timeUsed>true</timeUsed><horizontalSlownessUsed>false</horizontalSlownessUsed><backazimuthUsed>false</backazimuthUsed><weight>1</weight></arrival><magnitude publicID="de.gempa.tb1.Magnitude/20250412235827.779804.294408"><magnitude><value>2.541277441470563</value></magnitude><type>M</type><methodID>weighted average</methodID><stationCount>4</stationCount></magnitude></origin><event publicID="gempa2025hgkf"><preferredOriginID>de.gempa.tb1.Origin/20250412235732.292321.95680</preferredOriginID><preferredMagnitudeID>de.gempa.tb1.Magnitude/20250412235827.779804.294408</preferredMagnitudeID><typeCertainty>suspected</typeCertainty><description><text>Off Coast of Northern Chile</text><type>region name</type></description><originReference>de.gempa.tb1.Origin/20250412235732.292321.95680</originReference></event></EventParameters></seiscomp>