<?xml version="1.0" encoding="UTF-8"?>
<seiscomp xmlns="http://geofon.gfz-potsdam.de/ns/seiscomp3-schema/0.13" version="0.13"><EventParameters><pick publicID="de.gempa.tb1.Pick/20250412195643.645341.126439"><time><value>2025-04-12T19:56:36.788393Z</value></time><waveformID networkCode="CX" stationCode="PB01" channelCode="HHZ"/><filterID>ITAPER(4)&gt;&gt;BW(4,4,20)</filterID><methodID>AIC</methodID><horizontalSlowness><value>14.589826059836923</value></horizontalSlowness><backazimuth><value>311.4644870386868</value></backazimuth><phaseHint>P</phaseHint><evaluationMode>automatic</evaluationMode><comment><text>12.999989208645031</text><id>DFX:rectilinearity</id></comment><comment><text>12.472863693035402</text><id>SNR</id></comment></pick><pick publicID="de.gempa.tb1.Pick/20250412195645.613135.126441"><time><value>2025-04-12T19:56:40.198393Z</value></time><waveformID networkCode="CX" stationCode="PB02" channelCode="HHZ"/><filterID>ITAPER(4)&gt;&gt;BW(4,4,20)</filterID><methodID>AIC</methodID><horizontalSlowness><value>9.535991244941991</value></horizontalSlowness><backazimuth><value>29.454676691445513</value></backazimuth><phaseHint>P</phaseHint><evaluationMode>automatic</evaluationMode><comment><text>50.57426810572269</text><id>DFX:rectilinearity</id></comment><comment><text>14.444010157952754</text><id>SNR</id></comment></pick><pick publicID="de.gempa.tb1.Pick/20250412195650.578178.126443"><time><value>2025-04-12T19:56:42.498394Z</value></time><waveformID networkCode="CX" stationCode="PB03" channelCode="HHZ"/><filterID>ITAPER(4)&gt;&gt;BW(4,4,20)</filterID><methodID>AIC</methodID><horizontalSlowness><value>5.475271977007888</value></horizontalSlowness><backazimuth><value>319.4761376285203</value></backazimuth><phaseHint>P</phaseHint><evaluationMode>automatic</evaluationMode><comment><text>14.942200114942587</text><id>DFX:rectilinearity</id></comment><comment><text>11.415849962739566</text><id>SNR</id></comment></pick><pick publicID="de.gempa.tb1.Pick/20250412195654.506725.126445"><time><value>2025-04-12T19:56:38.06Z</value></time><waveformID networkCode="CX" stationCode="PB09" channelCode="HHZ"/><filterID>ITAPER(4)&gt;&gt;BW(4,4,20)</filterID><methodID>AIC</methodID><horizontalSlowness><value>15.219131275456393</value></horizontalSlowness><backazimuth><value>322.5129626630471</value></backazimuth><phaseHint>P</phaseHint><evaluationMode>automatic</evaluationMode><comment><text>14.405688208019356</text><id>DFX:rectilinearity</id></comment><comment><text>33.658336608647133</text><id>SNR</id></comment></pick><pick publicID="de.gempa.tb1.Pick/20250412195700.588526.126447"><time><value>2025-04-12T19:56:50.538393Z</value></time><waveformID networkCode="CX" stationCode="PB01" channelCode="HHN"/><filterID>ITAPER(2)&gt;&gt;BW(3,3,20)</filterID><methodID>L2-AIC-GRID</methodID><horizontalSlowness><value>20.238639128969947</value></horizontalSlowness><backazimuth><value>4.99917579428157</value></backazimuth><phaseHint>S</phaseHint><evaluationMode>automatic</evaluationMode><comment><text>117.3024199369552</text><id>DFX:rectilinearity</id></comment><comment><text>de.gempa.tb1.Pick/20250412195643.645341.126439</text><id>RefPickID</id></comment><comment><text>16.491740736824188</text><id>SNR</id></comment></pick><pick publicID="de.gempa.tb1.Pick/20250412195704.502477.126448"><time><value>2025-04-12T19:56:56.508393Z</value></time><waveformID networkCode="CX" stationCode="PB02" channelCode="HHN"/><filterID>ITAPER(2)&gt;&gt;BW(3,3,20)</filterID><methodID>L2-AIC-GRID</methodID><horizontalSlowness><value>18.224437412473687</value></horizontalSlowness><backazimuth><value>337.65745928486075</value></backazimuth><phaseHint>S</phaseHint><evaluationMode>automatic</evaluationMode><comment><text>215.6881090776887</text><id>DFX:rectilinearity</id></comment><comment><text>de.gempa.tb1.Pick/20250412195645.613135.126441</text><id>RefPickID</id></comment><comment><text>8.896025544646969</text><id>SNR</id></comment></pick><pick publicID="de.gempa.tb1.Pick/20250412195706.591215.126449"><time><value>2025-04-12T19:57:00.358394Z</value></time><waveformID networkCode="CX" stationCode="PB03" channelCode="HHN"/><filterID>ITAPER(2)&gt;&gt;BW(3,3,20)</filterID><methodID>L2-AIC-GRID</methodID><horizontalSlowness><value>10.713884169850285</value></horizontalSlowness><backazimuth><value>205.99331342556766</value></backazimuth><phaseHint>S</phaseHint><evaluationMode>automatic</evaluationMode><comment><text>8.557522071519536</text><id>DFX:rectilinearity</id></comment><comment><text>de.gempa.tb1.Pick/20250412195650.578178.126443</text><id>RefPickID</id></comment><comment><text>5.331933834651594</text><id>SNR</id></comment></pick><pick publicID="de.gempa.tb1.Pick/20250412195730.956747.126451"><time><value>2025-04-12T19:56:41.468393Z</value></time><waveformID networkCode="CX" stationCode="PB07" channelCode="HHZ"/><filterID>ITAPER(4)&gt;&gt;BW(4,4,20)</filterID><methodID>AIC</methodID><horizontalSlowness><value>23.18029892315148</value></horizontalSlowness><backazimuth><value>214.5184705055417</value></backazimuth><phaseHint>P</phaseHint><evaluationMode>automatic</evaluationMode><comment><text>281.48322688205315</text><id>DFX:rectilinearity</id></comment><comment><text>17.78214727285874</text><id>SNR</id></comment></pick><pick publicID="de.gempa.tb1.Pick/20250412195742.982726.126453"><time><value>2025-04-12T19:56:58.788393Z</value></time><waveformID networkCode="CX" stationCode="PB07" channelCode="HHN"/><filterID>ITAPER(2)&gt;&gt;BW(3,3,20)</filterID><methodID>L2-AIC-GRID</methodID><horizontalSlowness><value>23.25593357865616</value></horizontalSlowness><backazimuth><value>8.538238949613316</value></backazimuth><phaseHint>S</phaseHint><evaluationMode>automatic</evaluationMode><comment><text>427.7337568982269</text><id>DFX:rectilinearity</id></comment><comment><text>de.gempa.tb1.Pick/20250412195730.956747.126451</text><id>RefPickID</id></comment><comment><text>5.468812078567833</text><id>SNR</id></comment></pick><origin publicID="de.gempa.tb1.Origin/20250412195742.98568.91024"><time><value>2025-04-12T19:56:19.234013Z</value><uncertainty>1.2569667100906372</uncertainty></time><latitude><value>-21.186508178710938</value><uncertainty>7.576426982879639</uncertainty></latitude><longitude><value>-68.8859634399414</value><uncertainty>12.71760654449463</uncertainty></longitude><depth><value>112.66051483154297</value><uncertainty>13.605690956115723</uncertainty></depth><depthType>from location</depthType><methodID>LOCSAT</methodID><earthModelID>iasp91_scanloc</earthModelID><quality><associatedPhaseCount>9</associatedPhaseCount><usedPhaseCount>9</usedPhaseCount><associatedStationCount>5</associatedStationCount><usedStationCount>5</usedStationCount><depthPhaseCount>0</depthPhaseCount><standardError>0.1423939258498057</standardError><azimuthalGap>284.4432373046875</azimuthalGap><maximumDistance>1.1776045560836792</maximumDistance><minimumDistance>0.5793535709381104</minimumDistance><medianDistance>0.9514712691307068</medianDistance></quality><uncertainty><minHorizontalUncertainty>14.732909202575684</minHorizontalUncertainty><maxHorizontalUncertainty>28.11624526977539</maxHorizontalUncertainty><azimuthMaxHorizontalUncertainty>106.6120376586914</azimuthMaxHorizontalUncertainty><preferredDescription>horizontal uncertainty</preferredDescription></uncertainty><evaluationMode>automatic</evaluationMode><evaluationStatus>confirmed</evaluationStatus><comment><text>0.00</text><id>mismatchScore</id></comment><comment><text>mismatchScore</text><id>scevalMethod</id></comment><arrival><pickID>de.gempa.tb1.Pick/20250412195643.645341.126439</pickID><phase>P</phase><azimuth>284.1376647949219</azimuth><distance>0.5793535709381104</distance><timeResidual>-0.1587352752685547</timeResidual><timeUsed>true</timeUsed><horizontalSlownessUsed>false</horizontalSlownessUsed><backazimuthUsed>false</backazimuthUsed><weight>1</weight></arrival><arrival><pickID>de.gempa.tb1.Pick/20250412195645.613135.126441</pickID><phase>P</phase><azimuth>261.8094482421875</azimuth><distance>0.9514712691307068</distance><timeResidual>0.0010395050048828125</timeResidual><timeUsed>true</timeUsed><horizontalSlownessUsed>false</horizontalSlownessUsed><backazimuthUsed>false</backazimuthUsed><weight>1</weight></arrival><arrival><pickID>de.gempa.tb1.Pick/20250412195650.578178.126443</pickID><phase>P</phase><azimuth>223.0915985107422</azimuth><distance>1.1776045560836792</distance><timeResidual>-0.05841636657714844</timeResidual><timeUsed>true</timeUsed><horizontalSlownessUsed>false</horizontalSlownessUsed><backazimuthUsed>false</backazimuthUsed><weight>1</weight></arrival><arrival><pickID>de.gempa.tb1.Pick/20250412195654.506725.126445</pickID><phase>P</phase><azimuth>208.58090209960938</azimuth><distance>0.6915139555931091</distance><timeResidual>0.24342918395996094</timeResidual><timeUsed>true</timeUsed><horizontalSlownessUsed>false</horizontalSlownessUsed><backazimuthUsed>false</backazimuthUsed><weight>1</weight></arrival><arrival><pickID>de.gempa.tb1.Pick/20250412195700.588526.126447</pickID><phase>S</phase><azimuth>284.1376647949219</azimuth><distance>0.5793535709381104</distance><timeResidual>-0.05485916137695312</timeResidual><timeUsed>true</timeUsed><horizontalSlownessUsed>false</horizontalSlownessUsed><backazimuthUsed>false</backazimuthUsed><weight>1</weight></arrival><arrival><pickID>de.gempa.tb1.Pick/20250412195704.502477.126448</pickID><phase>S</phase><azimuth>261.8094482421875</azimuth><distance>0.9514712691307068</distance><timeResidual>0.12311935424804688</timeResidual><timeUsed>true</timeUsed><horizontalSlownessUsed>false</horizontalSlownessUsed><backazimuthUsed>false</backazimuthUsed><weight>1</weight></arrival><arrival><pickID>de.gempa.tb1.Pick/20250412195706.591215.126449</pickID><phase>S</phase><azimuth>223.0915985107422</azimuth><distance>1.1776045560836792</distance><timeResidual>-0.2383270263671875</timeResidual><timeUsed>true</timeUsed><horizontalSlownessUsed>false</horizontalSlownessUsed><backazimuthUsed>false</backazimuthUsed><weight>1</weight></arrival><arrival><pickID>de.gempa.tb1.Pick/20250412195730.956747.126451</pickID><phase>P</phase><azimuth>239.83856201171875</azimuth><distance>1.0756450891494751</distance><timeResidual>0.0029125213623046875</timeResidual><timeUsed>true</timeUsed><horizontalSlownessUsed>false</horizontalSlownessUsed><backazimuthUsed>false</backazimuthUsed><weight>1</weight></arrival><arrival><pickID>de.gempa.tb1.Pick/20250412195742.982726.126453</pickID><phase>S</phase><azimuth>239.83856201171875</azimuth><distance>1.0756450891494751</distance><timeResidual>0.14014244079589844</timeResidual><timeUsed>true</timeUsed><horizontalSlownessUsed>false</horizontalSlownessUsed><backazimuthUsed>false</backazimuthUsed><weight>1</weight></arrival><magnitude publicID="de.gempa.tb1.Magnitude/20250412195801.717262.272918"><magnitude><value>2.3475197113277977</value></magnitude><type>M</type><methodID>weighted average</methodID><stationCount>2</stationCount></magnitude></origin><event publicID="gempa2025hgcc"><preferredOriginID>de.gempa.tb1.Origin/20250412195742.98568.91024</preferredOriginID><preferredMagnitudeID>de.gempa.tb1.Magnitude/20250412195801.717262.272918</preferredMagnitudeID><description><text>Chile-Bolivia Border Region</text><type>region name</type></description><originReference>de.gempa.tb1.Origin/20250412195742.98568.91024</originReference></event></EventParameters></seiscomp>