<?xml version="1.0" encoding="UTF-8"?>
<seiscomp xmlns="http://geofon.gfz-potsdam.de/ns/seiscomp3-schema/0.13" version="0.13"><EventParameters><pick publicID="de.gempa.tb1.Pick/20250411133623.677487.117922"><time><value>2025-04-11T13:36:19.718393Z</value></time><waveformID networkCode="CX" stationCode="PB03" channelCode="HHZ"/><filterID>ITAPER(4)&gt;&gt;BW(4,4,20)</filterID><methodID>AIC</methodID><horizontalSlowness><value>12.510346816525878</value></horizontalSlowness><backazimuth><value>242.24310925216975</value></backazimuth><phaseHint>P</phaseHint><evaluationMode>automatic</evaluationMode><comment><text>201.76771089051644</text><id>DFX:rectilinearity</id></comment><comment><text>102.08667220330685</text><id>SNR</id></comment></pick><pick publicID="de.gempa.tb1.Pick/20250411133623.699857.117924"><time><value>2025-04-11T13:36:18.278393Z</value></time><waveformID networkCode="CX" stationCode="PB06" channelCode="HHZ"/><filterID>ITAPER(4)&gt;&gt;BW(4,4,20)</filterID><methodID>AIC</methodID><horizontalSlowness><value>4.219387144069211</value></horizontalSlowness><backazimuth><value>263.08350501651137</value></backazimuth><phaseHint>P</phaseHint><evaluationMode>automatic</evaluationMode><comment><text>153.28311677652533</text><id>DFX:rectilinearity</id></comment><comment><text>104.17962383001073</text><id>SNR</id></comment></pick><pick publicID="de.gempa.tb1.Pick/20250411133625.194231.117926"><time><value>2025-04-11T13:36:19.94Z</value></time><waveformID networkCode="CX" stationCode="PB10" channelCode="HHZ"/><filterID>ITAPER(4)&gt;&gt;BW(4,4,20)</filterID><methodID>AIC</methodID><horizontalSlowness><value>12.15486238267087</value></horizontalSlowness><backazimuth><value>19.593933750454482</value></backazimuth><phaseHint>P</phaseHint><evaluationMode>automatic</evaluationMode><comment><text>87.42950092014705</text><id>DFX:rectilinearity</id></comment><comment><text>8.214930317383908</text><id>SNR</id></comment></pick><pick publicID="de.gempa.tb1.Pick/20250411133628.66073.117928"><time><value>2025-04-11T13:36:22.208394Z</value></time><waveformID networkCode="CX" stationCode="PB15" channelCode="HHZ"/><filterID>ITAPER(4)&gt;&gt;BW(4,4,20)</filterID><methodID>AIC</methodID><horizontalSlowness><value>19.698952362743807</value></horizontalSlowness><backazimuth><value>114.8477585243779</value></backazimuth><phaseHint>P</phaseHint><evaluationMode>automatic</evaluationMode><comment><text>325.286623819157</text><id>DFX:rectilinearity</id></comment><comment><text>11.719264121587482</text><id>SNR</id></comment></pick><pick publicID="de.gempa.tb1.Pick/20250411133628.751285.117930"><time><value>2025-04-11T13:36:22.558393Z</value></time><waveformID networkCode="CX" stationCode="PB07" channelCode="HHZ"/><filterID>ITAPER(4)&gt;&gt;BW(4,4,20)</filterID><methodID>AIC</methodID><horizontalSlowness><value>17.563727708380217</value></horizontalSlowness><backazimuth><value>207.90211538618166</value></backazimuth><phaseHint>P</phaseHint><evaluationMode>automatic</evaluationMode><comment><text>1830.3333620382623</text><id>DFX:rectilinearity</id></comment><comment><text>251.08973265260113</text><id>SNR</id></comment></pick><pick publicID="de.gempa.tb1.Pick/20250411133634.561313.117932"><time><value>2025-04-11T13:36:28.488393Z</value></time><waveformID networkCode="CX" stationCode="PB06" channelCode="HHN"/><filterID>ITAPER(2)&gt;&gt;BW(3,3,20)</filterID><methodID>L2-AIC-GRID</methodID><horizontalSlowness><value>20.091206095325788</value></horizontalSlowness><backazimuth><value>138.34567755852544</value></backazimuth><phaseHint>S</phaseHint><evaluationMode>automatic</evaluationMode><comment><text>626.8931488970703</text><id>DFX:rectilinearity</id></comment><comment><text>de.gempa.tb1.Pick/20250411133623.699857.117924</text><id>RefPickID</id></comment><comment><text>12.62197825577588</text><id>SNR</id></comment></pick><pick publicID="de.gempa.tb1.Pick/20250411133635.591562.117933"><time><value>2025-04-11T13:36:28.558393Z</value></time><waveformID networkCode="CX" stationCode="PB02" channelCode="HHZ"/><filterID>ITAPER(4)&gt;&gt;BW(4,4,20)</filterID><methodID>AIC</methodID><horizontalSlowness><value>18.786870719714251</value></horizontalSlowness><backazimuth><value>235.5812521409426</value></backazimuth><phaseHint>P</phaseHint><evaluationMode>automatic</evaluationMode><comment><text>25.61944499157596</text><id>DFX:rectilinearity</id></comment><comment><text>34.721376608470436</text><id>SNR</id></comment></pick><pick publicID="de.gempa.tb1.Pick/20250411133637.684977.117935"><time><value>2025-04-11T13:36:30.858393Z</value></time><waveformID networkCode="CX" stationCode="PB03" channelCode="HHN"/><filterID>ITAPER(2)&gt;&gt;BW(3,3,20)</filterID><methodID>L2-AIC-GRID</methodID><horizontalSlowness><value>22.687545244265106</value></horizontalSlowness><backazimuth><value>125.96505073032046</value></backazimuth><phaseHint>S</phaseHint><evaluationMode>automatic</evaluationMode><comment><text>1051.947894523794</text><id>DFX:rectilinearity</id></comment><comment><text>de.gempa.tb1.Pick/20250411133623.677487.117922</text><id>RefPickID</id></comment><comment><text>10.882104500217485</text><id>SNR</id></comment></pick><pick publicID="de.gempa.tb1.Pick/20250411133639.14012.117936"><time><value>2025-04-11T13:36:28.41Z</value></time><waveformID networkCode="CX" stationCode="PB09" channelCode="HHZ"/><filterID>ITAPER(4)&gt;&gt;BW(4,4,20)</filterID><methodID>AIC</methodID><horizontalSlowness><value>22.659297425048496</value></horizontalSlowness><backazimuth><value>152.21240666808896</value></backazimuth><phaseHint>P</phaseHint><evaluationMode>automatic</evaluationMode><comment><text>18.674807182235018</text><id>DFX:rectilinearity</id></comment><comment><text>50.68135122665961</text><id>SNR</id></comment></pick><pick publicID="de.gempa.tb1.Pick/20250411133640.569376.117938"><time><value>2025-04-11T13:36:33.49Z</value></time><waveformID networkCode="CX" stationCode="PB19" channelCode="HHZ"/><filterID>ITAPER(4)&gt;&gt;BW(4,4,20)</filterID><methodID>AIC</methodID><horizontalSlowness><value>6.869504050246038</value></horizontalSlowness><backazimuth><value>254.5877509196532</value></backazimuth><phaseHint>P</phaseHint><evaluationMode>automatic</evaluationMode><comment><text>39.74584723293001</text><id>DFX:rectilinearity</id></comment><comment><text>11.005684903643585</text><id>SNR</id></comment></pick><pick publicID="de.gempa.tb1.Pick/20250411133642.595549.117940"><time><value>2025-04-11T13:36:34.918393Z</value></time><waveformID networkCode="CX" stationCode="PB01" channelCode="HHZ"/><filterID>ITAPER(4)&gt;&gt;BW(4,4,20)</filterID><methodID>AIC</methodID><horizontalSlowness><value>16.877383782282148</value></horizontalSlowness><backazimuth><value>166.69330798546258</value></backazimuth><phaseHint>P</phaseHint><evaluationMode>automatic</evaluationMode><comment><text>16.324660917994766</text><id>DFX:rectilinearity</id></comment><comment><text>12.31751638426281</text><id>SNR</id></comment></pick><pick publicID="de.gempa.tb1.Pick/20250411133642.936757.117942"><time><value>2025-04-11T13:36:35.448394Z</value></time><waveformID networkCode="CX" stationCode="PB15" channelCode="HHN"/><filterID>ITAPER(2)&gt;&gt;BW(3,3,20)</filterID><methodID>L2-AIC-GRID</methodID><horizontalSlowness><value>22.67604359128233</value></horizontalSlowness><backazimuth><value>42.21173868459883</value></backazimuth><phaseHint>S</phaseHint><evaluationMode>automatic</evaluationMode><comment><text>2733.3052982218164</text><id>DFX:rectilinearity</id></comment><comment><text>de.gempa.tb1.Pick/20250411133628.66073.117928</text><id>RefPickID</id></comment><comment><text>8.76141802251588</text><id>SNR</id></comment></pick><pick publicID="de.gempa.tb1.Pick/20250411133644.785795.117943"><time><value>2025-04-11T13:36:36.228393Z</value></time><waveformID networkCode="CX" stationCode="PB07" channelCode="HHN"/><filterID>ITAPER(2)&gt;&gt;BW(3,3,20)</filterID><methodID>L2-AIC-GRID</methodID><horizontalSlowness><value>23.47503994991102</value></horizontalSlowness><backazimuth><value>317.73032371538324</value></backazimuth><phaseHint>S</phaseHint><evaluationMode>automatic</evaluationMode><comment><text>26882.589963657367</text><id>DFX:rectilinearity</id></comment><comment><text>de.gempa.tb1.Pick/20250411133628.751285.117930</text><id>RefPickID</id></comment><comment><text>7.494900605455856</text><id>SNR</id></comment></pick><pick publicID="de.gempa.tb1.Pick/20250411133654.652749.117947"><time><value>2025-04-11T13:36:47.048393Z</value></time><waveformID networkCode="CX" stationCode="PB02" channelCode="HHN"/><filterID>ITAPER(2)&gt;&gt;BW(3,3,20)</filterID><methodID>L2-AIC-GRID</methodID><horizontalSlowness><value>15.667927471265656</value></horizontalSlowness><backazimuth><value>70.31716818889301</value></backazimuth><phaseHint>S</phaseHint><evaluationMode>automatic</evaluationMode><comment><text>843.4641289773629</text><id>DFX:rectilinearity</id></comment><comment><text>de.gempa.tb1.Pick/20250411133635.591562.117933</text><id>RefPickID</id></comment><comment><text>5.137481185568181</text><id>SNR</id></comment></pick><pick publicID="de.gempa.tb1.Pick/20250411133701.647341.117950"><time><value>2025-04-11T13:36:54.47Z</value></time><waveformID networkCode="CX" stationCode="PB19" channelCode="HHN"/><filterID>ITAPER(2)&gt;&gt;BW(3,3,20)</filterID><methodID>L2-AIC-GRID</methodID><horizontalSlowness><value>14.335698936639114</value></horizontalSlowness><backazimuth><value>120.34859196410548</value></backazimuth><phaseHint>S</phaseHint><evaluationMode>automatic</evaluationMode><comment><text>253.25788217618594</text><id>DFX:rectilinearity</id></comment><comment><text>de.gempa.tb1.Pick/20250411133640.569376.117938</text><id>RefPickID</id></comment><comment><text>5.161081101012788</text><id>SNR</id></comment></pick><pick publicID="de.gempa.tb1.Pick/20250411133708.876671.117952"><time><value>2025-04-11T13:36:58.048393Z</value></time><waveformID networkCode="CX" stationCode="PB01" channelCode="HHN"/><filterID>ITAPER(2)&gt;&gt;BW(3,3,20)</filterID><methodID>L2-AIC-GRID</methodID><horizontalSlowness><value>20.626152697713376</value></horizontalSlowness><backazimuth><value>101.64245339361183</value></backazimuth><phaseHint>S</phaseHint><evaluationMode>automatic</evaluationMode><comment><text>79.0574062020646</text><id>DFX:rectilinearity</id></comment><comment><text>de.gempa.tb1.Pick/20250411133642.595549.117940</text><id>RefPickID</id></comment><comment><text>6.226113114818296</text><id>SNR</id></comment></pick><origin publicID="de.gempa.tb1.Origin/20250411133708.883981.57124"><time><value>2025-04-11T13:36:03.190353Z</value><uncertainty>0.5903376340866089</uncertainty></time><latitude><value>-22.62854766845703</value><uncertainty>1.706593155860901</uncertainty></latitude><longitude><value>-70.3803939819336</value><uncertainty>3.492854356765747</uncertainty></longitude><depth><value>6.78498363494873</value><uncertainty>3.181971311569214</uncertainty></depth><depthType>from location</depthType><methodID>LOCSAT</methodID><earthModelID>iasp91_scanloc</earthModelID><quality><associatedPhaseCount>16</associatedPhaseCount><usedPhaseCount>16</usedPhaseCount><associatedStationCount>9</associatedStationCount><usedStationCount>9</usedStationCount><depthPhaseCount>0</depthPhaseCount><standardError>0.6973308990646266</standardError><azimuthalGap>188.8748950958252</azimuthalGap><maximumDistance>1.7824715375900269</maximumDistance><minimumDistance>0.75075364112854</minimumDistance><medianDistance>1.0179095268249512</medianDistance></quality><uncertainty><minHorizontalUncertainty>3.65214729309082</minHorizontalUncertainty><maxHorizontalUncertainty>7.493441104888916</maxHorizontalUncertainty><azimuthMaxHorizontalUncertainty>87.96825408935547</azimuthMaxHorizontalUncertainty><preferredDescription>horizontal uncertainty</preferredDescription></uncertainty><evaluationMode>automatic</evaluationMode><evaluationStatus>confirmed</evaluationStatus><comment><text>0.00</text><id>mismatchScore</id></comment><comment><text>mismatchScore</text><id>scevalMethod</id></comment><arrival><pickID>de.gempa.tb1.Pick/20250411133623.677487.117922</pickID><phase>P</phase><azimuth>45.2907600402832</azimuth><distance>0.8188928961753845</distance><timeResidual>0.7834367752075195</timeResidual><timeUsed>true</timeUsed><horizontalSlownessUsed>false</horizontalSlownessUsed><backazimuthUsed>false</backazimuthUsed><weight>1</weight></arrival><arrival><pickID>de.gempa.tb1.Pick/20250411133623.699857.117924</pickID><phase>P</phase><azimuth>96.03291320800781</azimuth><distance>0.75075364112854</distance><timeResidual>0.6467771530151367</timeResidual><timeUsed>true</timeUsed><horizontalSlownessUsed>false</horizontalSlownessUsed><backazimuthUsed>false</backazimuthUsed><weight>1</weight></arrival><arrival><pickID>de.gempa.tb1.Pick/20250411133625.194231.117926</pickID><phase>P</phase><azimuth>190.2595977783203</azimuth><distance>0.8951696753501892</distance><timeResidual>-0.4508800506591797</timeResidual><timeUsed>true</timeUsed><horizontalSlownessUsed>false</horizontalSlownessUsed><backazimuthUsed>false</backazimuthUsed><weight>1</weight></arrival><arrival><pickID>de.gempa.tb1.Pick/20250411133628.66073.117928</pickID><phase>P</phase><azimuth>124.7110137939453</azimuth><distance>1.0179095268249512</distance><timeResidual>-0.5319375991821289</timeResidual><timeUsed>true</timeUsed><horizontalSlownessUsed>false</horizontalSlownessUsed><backazimuthUsed>false</backazimuthUsed><weight>1</weight></arrival><arrival><pickID>de.gempa.tb1.Pick/20250411133628.751285.117930</pickID><phase>P</phase><azimuth>27.13194465637207</azimuth><distance>1.0076858997344971</distance><timeResidual>0.011463165283203125</timeResidual><timeUsed>true</timeUsed><horizontalSlownessUsed>false</horizontalSlownessUsed><backazimuthUsed>false</backazimuthUsed><weight>1</weight></arrival><arrival><pickID>de.gempa.tb1.Pick/20250411133634.561313.117932</pickID><phase>S</phase><azimuth>96.03291320800781</azimuth><distance>0.75075364112854</distance><timeResidual>0.36993408203125</timeResidual><timeUsed>true</timeUsed><horizontalSlownessUsed>false</horizontalSlownessUsed><backazimuthUsed>false</backazimuthUsed><weight>1</weight></arrival><arrival><pickID>de.gempa.tb1.Pick/20250411133635.591562.117933</pickID><phase>P</phase><azimuth>19.134492874145508</azimuth><distance>1.3778985738754272</distance><timeResidual>-0.3039894104003906</timeResidual><timeUsed>true</timeUsed><horizontalSlownessUsed>false</horizontalSlownessUsed><backazimuthUsed>false</backazimuthUsed><weight>1</weight></arrival><arrival><pickID>de.gempa.tb1.Pick/20250411133637.684977.117935</pickID><phase>S</phase><azimuth>45.2907600402832</azimuth><distance>0.8188928961753845</distance><timeResidual>0.489903450012207</timeResidual><timeUsed>true</timeUsed><horizontalSlownessUsed>false</horizontalSlownessUsed><backazimuthUsed>false</backazimuthUsed><weight>1</weight></arrival><arrival><pickID>de.gempa.tb1.Pick/20250411133639.14012.117936</pickID><phase>P</phase><azimuth>52.08292770385742</azimuth><distance>1.3412126302719116</distance><timeResidual>0.05333423614501953</timeResidual><timeUsed>true</timeUsed><horizontalSlownessUsed>false</horizontalSlownessUsed><backazimuthUsed>false</backazimuthUsed><weight>1</weight></arrival><arrival><pickID>de.gempa.tb1.Pick/20250411133640.569376.117938</pickID><phase>P</phase><azimuth>141.9427032470703</azimuth><distance>1.6180284023284912</distance><timeResidual>1.3272180557250977</timeResidual><timeUsed>true</timeUsed><horizontalSlownessUsed>false</horizontalSlownessUsed><backazimuthUsed>false</backazimuthUsed><weight>1</weight></arrival><arrival><pickID>de.gempa.tb1.Pick/20250411133642.595549.117940</pickID><phase>P</phase><azimuth>27.90693473815918</azimuth><distance>1.7824715375900269</distance><timeResidual>0.4875173568725586</timeResidual><timeUsed>true</timeUsed><horizontalSlownessUsed>false</horizontalSlownessUsed><backazimuthUsed>false</backazimuthUsed><weight>1</weight></arrival><arrival><pickID>de.gempa.tb1.Pick/20250411133642.936757.117942</pickID><phase>S</phase><azimuth>124.7110137939453</azimuth><distance>1.0179095268249512</distance><timeResidual>-1.4881105422973633</timeResidual><timeUsed>true</timeUsed><horizontalSlownessUsed>false</horizontalSlownessUsed><backazimuthUsed>false</backazimuthUsed><weight>1</weight></arrival><arrival><pickID>de.gempa.tb1.Pick/20250411133644.785795.117943</pickID><phase>S</phase><azimuth>27.13194465637207</azimuth><distance>1.0076858997344971</distance><timeResidual>-0.3750143051147461</timeResidual><timeUsed>true</timeUsed><horizontalSlownessUsed>false</horizontalSlownessUsed><backazimuthUsed>false</backazimuthUsed><weight>1</weight></arrival><arrival><pickID>de.gempa.tb1.Pick/20250411133654.652749.117947</pickID><phase>S</phase><azimuth>19.134492874145508</azimuth><distance>1.3778985738754272</distance><timeResidual>-1.1412458419799805</timeResidual><timeUsed>true</timeUsed><horizontalSlownessUsed>false</horizontalSlownessUsed><backazimuthUsed>false</backazimuthUsed><weight>1</weight></arrival><arrival><pickID>de.gempa.tb1.Pick/20250411133701.647341.117950</pickID><phase>S</phase><azimuth>141.9427032470703</azimuth><distance>1.6180284023284912</distance><timeResidual>0.31142520904541016</timeResidual><timeUsed>true</timeUsed><horizontalSlownessUsed>false</horizontalSlownessUsed><backazimuthUsed>false</backazimuthUsed><weight>1</weight></arrival><arrival><pickID>de.gempa.tb1.Pick/20250411133708.876671.117952</pickID><phase>S</phase><azimuth>27.90693473815918</azimuth><distance>1.7824715375900269</distance><timeResidual>-0.18979549407958984</timeResidual><timeUsed>true</timeUsed><horizontalSlownessUsed>false</horizontalSlownessUsed><backazimuthUsed>false</backazimuthUsed><weight>1</weight></arrival><magnitude publicID="de.gempa.tb1.Magnitude/20250411133708.893693.104372"><magnitude><value>2.6190495080110017</value></magnitude><type>M</type><methodID>weighted average</methodID><stationCount>7</stationCount></magnitude></origin><event publicID="gempa2025hdtk"><preferredOriginID>de.gempa.tb1.Origin/20250411133708.883981.57124</preferredOriginID><preferredMagnitudeID>de.gempa.tb1.Magnitude/20250411133708.893693.104372</preferredMagnitudeID><description><text>Near Coast of Northern Chile</text><type>region name</type></description><originReference>de.gempa.tb1.Origin/20250411133708.883981.57124</originReference></event></EventParameters></seiscomp>