<?xml version="1.0" encoding="UTF-8"?>
<seiscomp xmlns="http://geofon.gfz-potsdam.de/ns/seiscomp3-schema/0.13" version="0.13"><EventParameters><pick publicID="de.gempa.tb1.Pick/20250411154609.038518.118584"><time><value>2025-04-11T15:46:02.548393Z</value></time><waveformID networkCode="CX" stationCode="PB08" channelCode="HHZ"/><filterID>ITAPER(4)&gt;&gt;BW(4,4,20)</filterID><methodID>AIC</methodID><horizontalSlowness><value>14.635898060068218</value></horizontalSlowness><backazimuth><value>205.92458436691697</value></backazimuth><phaseHint>P</phaseHint><evaluationMode>automatic</evaluationMode><comment><text>97.21294056495228</text><id>DFX:rectilinearity</id></comment><comment><text>63.8523328352025</text><id>SNR</id></comment></pick><pick publicID="de.gempa.tb1.Pick/20250411154609.667617.118586"><time><value>2025-04-11T15:46:04.268394Z</value></time><waveformID networkCode="CX" stationCode="PB01" channelCode="HHZ"/><filterID>ITAPER(4)&gt;&gt;BW(4,4,20)</filterID><methodID>AIC</methodID><horizontalSlowness><value>20.985364215993663</value></horizontalSlowness><backazimuth><value>280.11136289119963</value></backazimuth><phaseHint>P</phaseHint><evaluationMode>automatic</evaluationMode><comment><text>25.72668549075776</text><id>DFX:rectilinearity</id></comment><comment><text>59.73224238369221</text><id>SNR</id></comment></pick><pick publicID="de.gempa.tb1.Pick/20250411154617.502934.118588"><time><value>2025-04-11T15:46:09.958393Z</value></time><waveformID networkCode="CX" stationCode="PB02" channelCode="HHZ"/><filterID>ITAPER(4)&gt;&gt;BW(4,4,20)</filterID><methodID>AIC</methodID><horizontalSlowness><value>9.018658248298399</value></horizontalSlowness><backazimuth><value>68.23483463099116</value></backazimuth><phaseHint>P</phaseHint><evaluationMode>automatic</evaluationMode><comment><text>70.5110729488272</text><id>DFX:rectilinearity</id></comment><comment><text>23.256687999241574</text><id>SNR</id></comment></pick><pick publicID="de.gempa.tb1.Pick/20250411154617.597446.118590"><time><value>2025-04-11T15:46:11.7Z</value></time><waveformID networkCode="CX" stationCode="PSGCX" channelCode="HHZ"/><filterID>ITAPER(4)&gt;&gt;BW(4,4,20)</filterID><methodID>AIC</methodID><horizontalSlowness><value>10.086991571662475</value></horizontalSlowness><backazimuth><value>144.14940777226047</value></backazimuth><phaseHint>P</phaseHint><evaluationMode>automatic</evaluationMode><comment><text>41.226044344638254</text><id>DFX:rectilinearity</id></comment><comment><text>43.060742154034045</text><id>SNR</id></comment></pick><pick publicID="de.gempa.tb1.Pick/20250411154622.30341.118592"><time><value>2025-04-11T15:46:11.19Z</value></time><waveformID networkCode="CX" stationCode="PB09" channelCode="HHZ"/><filterID>ITAPER(4)&gt;&gt;BW(4,4,20)</filterID><methodID>AIC</methodID><horizontalSlowness><value>14.701485809313704</value></horizontalSlowness><backazimuth><value>82.84469270592159</value></backazimuth><phaseHint>P</phaseHint><evaluationMode>automatic</evaluationMode><comment><text>11.236696423399389</text><id>DFX:rectilinearity</id></comment><comment><text>14.329651931747424</text><id>SNR</id></comment></pick><pick publicID="de.gempa.tb1.Pick/20250411154623.563176.118594"><time><value>2025-04-11T15:46:15.718393Z</value></time><waveformID networkCode="CX" stationCode="PB03" channelCode="HHZ"/><filterID>ITAPER(4)&gt;&gt;BW(4,4,20)</filterID><methodID>AIC</methodID><horizontalSlowness><value>17.033663705199398</value></horizontalSlowness><backazimuth><value>251.8846059588735</value></backazimuth><phaseHint>P</phaseHint><evaluationMode>automatic</evaluationMode><comment><text>6.270059296104061</text><id>DFX:rectilinearity</id></comment><comment><text>7.100265198191588</text><id>SNR</id></comment></pick><pick publicID="de.gempa.tb1.Pick/20250411154623.574178.118596"><time><value>2025-04-11T15:46:15.038393Z</value></time><waveformID networkCode="CX" stationCode="PB08" channelCode="HHN"/><filterID>ITAPER(2)&gt;&gt;BW(3,3,20)</filterID><methodID>L2-AIC-GRID</methodID><horizontalSlowness><value>19.1322987152951</value></horizontalSlowness><backazimuth><value>191.31244479174882</value></backazimuth><phaseHint>S</phaseHint><evaluationMode>automatic</evaluationMode><comment><text>201.4435106403138</text><id>DFX:rectilinearity</id></comment><comment><text>de.gempa.tb1.Pick/20250411154609.038518.118584</text><id>RefPickID</id></comment><comment><text>9.210098159370554</text><id>SNR</id></comment></pick><pick publicID="de.gempa.tb1.Pick/20250411154625.559945.118597"><time><value>2025-04-11T15:46:12.418393Z</value></time><waveformID networkCode="CX" stationCode="PB07" channelCode="HHZ"/><filterID>ITAPER(4)&gt;&gt;BW(4,4,20)</filterID><methodID>AIC</methodID><horizontalSlowness><value>22.569890678251934</value></horizontalSlowness><backazimuth><value>289.88372476911763</value></backazimuth><phaseHint>P</phaseHint><evaluationMode>automatic</evaluationMode><comment><text>143.92700665110064</text><id>DFX:rectilinearity</id></comment><comment><text>15.357323483522253</text><id>SNR</id></comment></pick><pick publicID="de.gempa.tb1.Pick/20250411154626.620235.118599"><time><value>2025-04-11T15:46:18.168394Z</value></time><waveformID networkCode="CX" stationCode="PB01" channelCode="HHN"/><filterID>ITAPER(2)&gt;&gt;BW(3,3,20)</filterID><methodID>L2-AIC-GRID</methodID><horizontalSlowness><value>23.55816850773612</value></horizontalSlowness><backazimuth><value>356.69973498268917</value></backazimuth><phaseHint>S</phaseHint><evaluationMode>automatic</evaluationMode><comment><text>2009.4817206476052</text><id>DFX:rectilinearity</id></comment><comment><text>de.gempa.tb1.Pick/20250411154609.667617.118586</text><id>RefPickID</id></comment><comment><text>17.265974613311379</text><id>SNR</id></comment></pick><origin publicID="de.gempa.tb1.Origin/20250411154626.623853.59817"><time><value>2025-04-11T15:45:46.982996Z</value><uncertainty>1.0605677366256714</uncertainty></time><latitude><value>-20.511754989624023</value><uncertainty>4.742229461669922</uncertainty></latitude><longitude><value>-69.06197357177734</value><uncertainty>13.275711059570312</uncertainty></longitude><depth><value>106.37794494628906</value><uncertainty>6.921872615814209</uncertainty></depth><depthType>from location</depthType><methodID>LOCSAT</methodID><earthModelID>iasp91_scanloc</earthModelID><quality><associatedPhaseCount>9</associatedPhaseCount><usedPhaseCount>9</usedPhaseCount><associatedStationCount>7</associatedStationCount><usedStationCount>7</usedStationCount><depthPhaseCount>0</depthPhaseCount><standardError>0.34269525944223705</standardError><azimuthalGap>200.56808471679688</azimuthalGap><maximumDistance>1.6594051122665405</maximumDistance><minimumDistance>0.37859678268432617</minimumDistance><medianDistance>1.1199625730514526</medianDistance></quality><uncertainty><minHorizontalUncertainty>9.921527862548828</minHorizontalUncertainty><maxHorizontalUncertainty>28.555173873901367</maxHorizontalUncertainty><azimuthMaxHorizontalUncertainty>94.77745819091797</azimuthMaxHorizontalUncertainty><preferredDescription>horizontal uncertainty</preferredDescription></uncertainty><evaluationMode>automatic</evaluationMode><evaluationStatus>confirmed</evaluationStatus><comment><text>0.06</text><id>mismatchScore</id></comment><comment><text>mismatchScore</text><id>scevalMethod</id></comment><arrival><pickID>de.gempa.tb1.Pick/20250411154609.038518.118584</pickID><phase>P</phase><azimuth>346.88580322265625</azimuth><distance>0.37859678268432617</distance><timeResidual>-0.16083240509033203</timeResidual><timeUsed>true</timeUsed><horizontalSlownessUsed>false</horizontalSlownessUsed><backazimuthUsed>false</backazimuthUsed><weight>1</weight></arrival><arrival><pickID>de.gempa.tb1.Pick/20250411154609.667617.118586</pickID><phase>P</phase><azimuth>216.89801025390625</azimuth><distance>0.6618977189064026</distance><timeResidual>-0.42227745056152344</timeResidual><timeUsed>true</timeUsed><horizontalSlownessUsed>false</horizontalSlownessUsed><backazimuthUsed>false</backazimuthUsed><weight>1</weight></arrival><arrival><pickID>de.gempa.tb1.Pick/20250411154617.502934.118588</pickID><phase>P</phase><azimuth>223.97811889648438</azimuth><distance>1.1199625730514526</distance><timeResidual>0.7573585510253906</timeResidual><timeUsed>true</timeUsed><horizontalSlownessUsed>false</horizontalSlownessUsed><backazimuthUsed>false</backazimuthUsed><weight>1</weight></arrival><arrival><pickID>de.gempa.tb1.Pick/20250411154617.597446.118590</pickID><phase>P</phase><azimuth>312.1875915527344</azimuth><distance>1.3501534461975098</distance><timeResidual>-0.12917041778564453</timeResidual><timeUsed>true</timeUsed><horizontalSlownessUsed>false</horizontalSlownessUsed><backazimuthUsed>false</backazimuthUsed><weight>1</weight></arrival><arrival><pickID>de.gempa.tb1.Pick/20250411154622.30341.118592</pickID><phase>P</phase><azimuth>187.45388793945312</azimuth><distance>1.289233922958374</distance><timeResidual>0.08053398132324219</timeResidual><timeUsed>true</timeUsed><horizontalSlownessUsed>false</horizontalSlownessUsed><backazimuthUsed>false</backazimuthUsed><weight>1</weight></arrival><arrival><pickID>de.gempa.tb1.Pick/20250411154623.563176.118594</pickID><phase>P</phase><azimuth>202.7330322265625</azimuth><distance>1.6594051122665405</distance><timeResidual>0.17316627502441406</timeResidual><timeUsed>true</timeUsed><horizontalSlownessUsed>false</horizontalSlownessUsed><backazimuthUsed>false</backazimuthUsed><weight>1</weight></arrival><arrival><pickID>de.gempa.tb1.Pick/20250411154623.574178.118596</pickID><phase>S</phase><azimuth>346.88580322265625</azimuth><distance>0.37859678268432617</distance><timeResidual>0.238616943359375</timeResidual><timeUsed>true</timeUsed><horizontalSlownessUsed>false</horizontalSlownessUsed><backazimuthUsed>false</backazimuthUsed><weight>1</weight></arrival><arrival><pickID>de.gempa.tb1.Pick/20250411154625.559945.118597</pickID><phase>P</phase><azimuth>212.33212280273438</azimuth><distance>1.4330018758773804</distance><timeResidual>-0.3797311782836914</timeResidual><timeUsed>true</timeUsed><horizontalSlownessUsed>false</horizontalSlownessUsed><backazimuthUsed>false</backazimuthUsed><weight>1</weight></arrival><arrival><pickID>de.gempa.tb1.Pick/20250411154626.620235.118599</pickID><phase>S</phase><azimuth>216.89801025390625</azimuth><distance>0.6618977189064026</distance><timeResidual>-0.15777206420898438</timeResidual><timeUsed>true</timeUsed><horizontalSlownessUsed>false</horizontalSlownessUsed><backazimuthUsed>false</backazimuthUsed><weight>1</weight></arrival><magnitude publicID="de.gempa.tb1.Magnitude/20250411154645.854145.116255"><magnitude><value>2.174727895340284</value></magnitude><type>M</type><methodID>weighted average</methodID><stationCount>5</stationCount></magnitude></origin><event publicID="gempa2025hdxt"><preferredOriginID>de.gempa.tb1.Origin/20250411154626.623853.59817</preferredOriginID><preferredMagnitudeID>de.gempa.tb1.Magnitude/20250411154645.854145.116255</preferredMagnitudeID><description><text>Northern Chile</text><type>region name</type></description><originReference>de.gempa.tb1.Origin/20250411154626.623853.59817</originReference></event></EventParameters></seiscomp>