<?xml version="1.0" encoding="UTF-8"?>
<seiscomp xmlns="http://geofon.gfz-potsdam.de/ns/seiscomp3-schema/0.13" version="0.13"><EventParameters><pick publicID="de.gempa.tb1.Pick/20250414034038.709007.135440"><time><value>2025-04-14T03:40:32.49Z</value></time><waveformID networkCode="CX" stationCode="PSGCX" channelCode="HHZ"/><filterID>ITAPER(4)&gt;&gt;BW(4,4,20)</filterID><methodID>AIC</methodID><horizontalSlowness><value>9.136985129409663</value></horizontalSlowness><backazimuth><value>24.602566458073596</value></backazimuth><phaseHint>P</phaseHint><evaluationMode>automatic</evaluationMode><comment><text>1314.7293451440898</text><id>DFX:rectilinearity</id></comment><comment><text>585.2953379166382</text><id>SNR</id></comment></pick><pick publicID="de.gempa.tb1.Pick/20250414034044.593901.135444"><time><value>2025-04-14T03:40:39.368393Z</value></time><waveformID networkCode="CX" stationCode="PB08" channelCode="HHZ"/><filterID>ITAPER(4)&gt;&gt;BW(4,4,20)</filterID><methodID>AIC</methodID><horizontalSlowness><value>10.031449469122123</value></horizontalSlowness><backazimuth><value>278.1708805927566</value></backazimuth><phaseHint>P</phaseHint><evaluationMode>automatic</evaluationMode><comment><text>11.053168873269247</text><id>DFX:rectilinearity</id></comment><comment><text>50.29097679172901</text><id>SNR</id></comment></pick><pick publicID="de.gempa.tb1.Pick/20250414034054.579786.135446"><time><value>2025-04-14T03:40:47.16Z</value></time><waveformID networkCode="CX" stationCode="PSGCX" channelCode="HHN"/><filterID>ITAPER(2)&gt;&gt;BW(3,3,20)</filterID><methodID>L2-AIC-GRID</methodID><horizontalSlowness><value>20.79089396643688</value></horizontalSlowness><backazimuth><value>199.34241941287536</value></backazimuth><phaseHint>S</phaseHint><evaluationMode>automatic</evaluationMode><comment><text>12739.574107839013</text><id>DFX:rectilinearity</id></comment><comment><text>de.gempa.tb1.Pick/20250414034038.709007.135440</text><id>RefPickID</id></comment><comment><text>6.65123725662946</text><id>SNR</id></comment></pick><pick publicID="de.gempa.tb1.Pick/20250414034056.227576.135447"><time><value>2025-04-14T03:40:47.349999Z</value></time><waveformID networkCode="CX" stationCode="PATCX" channelCode="HHZ"/><filterID>ITAPER(4)&gt;&gt;BW(4,4,20)</filterID><methodID>AIC</methodID><horizontalSlowness><value>22.115164386876994</value></horizontalSlowness><backazimuth><value>245.85859836665776</value></backazimuth><phaseHint>P</phaseHint><evaluationMode>automatic</evaluationMode><comment><text>313.80347200170746</text><id>DFX:rectilinearity</id></comment><comment><text>25.0472866953579</text><id>SNR</id></comment></pick><pick publicID="de.gempa.tb1.Pick/20250414034056.54335.135449"><time><value>2025-04-14T03:40:49.098393Z</value></time><waveformID networkCode="CX" stationCode="PB01" channelCode="HHZ"/><filterID>ITAPER(4)&gt;&gt;BW(4,4,20)</filterID><methodID>AIC</methodID><horizontalSlowness><value>13.50508090722193</value></horizontalSlowness><backazimuth><value>344.0249729449457</value></backazimuth><phaseHint>P</phaseHint><evaluationMode>automatic</evaluationMode><comment><text>24.673791826427856</text><id>DFX:rectilinearity</id></comment><comment><text>61.22918876012498</text><id>SNR</id></comment></pick><pick publicID="de.gempa.tb1.Pick/20250414034100.51436.135451"><time><value>2025-04-14T03:40:53.948393Z</value></time><waveformID networkCode="CX" stationCode="PB02" channelCode="HHZ"/><filterID>ITAPER(4)&gt;&gt;BW(4,4,20)</filterID><methodID>AIC</methodID><horizontalSlowness><value>6.973638667819748</value></horizontalSlowness><backazimuth><value>20.24521947880308</value></backazimuth><phaseHint>P</phaseHint><evaluationMode>automatic</evaluationMode><comment><text>327.9949066035764</text><id>DFX:rectilinearity</id></comment><comment><text>31.772494465376163</text><id>SNR</id></comment></pick><pick publicID="de.gempa.tb1.Pick/20250414034107.097058.135455"><time><value>2025-04-14T03:40:59.158393Z</value></time><waveformID networkCode="CX" stationCode="PB08" channelCode="HHN"/><filterID>ITAPER(2)&gt;&gt;BW(3,3,20)</filterID><methodID>L2-AIC-GRID</methodID><horizontalSlowness><value>14.599273923193028</value></horizontalSlowness><backazimuth><value>210.34960929229544</value></backazimuth><phaseHint>S</phaseHint><evaluationMode>automatic</evaluationMode><comment><text>4324.885608121853</text><id>DFX:rectilinearity</id></comment><comment><text>de.gempa.tb1.Pick/20250414034044.593901.135444</text><id>RefPickID</id></comment><comment><text>6.407739300094744</text><id>SNR</id></comment></pick><pick publicID="de.gempa.tb1.Pick/20250414034108.552718.135456"><time><value>2025-04-14T03:41:02.998393Z</value></time><waveformID networkCode="CX" stationCode="PB03" channelCode="HHZ"/><filterID>ITAPER(4)&gt;&gt;BW(4,4,20)</filterID><methodID>AIC</methodID><horizontalSlowness><value>11.32337993595947</value></horizontalSlowness><backazimuth><value>343.1193962849083</value></backazimuth><phaseHint>P</phaseHint><evaluationMode>automatic</evaluationMode><comment><text>9.635224838406494</text><id>DFX:rectilinearity</id></comment><comment><text>13.65859983481261</text><id>SNR</id></comment></pick><pick publicID="de.gempa.tb1.Pick/20250414034113.960256.135459"><time><value>2025-04-14T03:41:00.05Z</value></time><waveformID networkCode="CX" stationCode="PB09" channelCode="HHZ"/><filterID>ITAPER(4)&gt;&gt;BW(4,4,20)</filterID><methodID>AIC</methodID><horizontalSlowness><value>19.510531201682113</value></horizontalSlowness><backazimuth><value>288.90071361220606</value></backazimuth><phaseHint>P</phaseHint><evaluationMode>automatic</evaluationMode><comment><text>9.79215954833022</text><id>DFX:rectilinearity</id></comment><comment><text>20.86897113609333</text><id>SNR</id></comment></pick><pick publicID="de.gempa.tb1.Pick/20250414034122.777866.135462"><time><value>2025-04-14T03:41:16.228393Z</value></time><waveformID networkCode="CX" stationCode="PB01" channelCode="HHN"/><filterID>ITAPER(2)&gt;&gt;BW(3,3,20)</filterID><methodID>L2-AIC-GRID</methodID><horizontalSlowness><value>21.50111147192058</value></horizontalSlowness><backazimuth><value>147.4899118724769</value></backazimuth><phaseHint>S</phaseHint><evaluationMode>automatic</evaluationMode><comment><text>881.118332376476</text><id>DFX:rectilinearity</id></comment><comment><text>de.gempa.tb1.Pick/20250414034056.54335.135449</text><id>RefPickID</id></comment><comment><text>6.924794056989218</text><id>SNR</id></comment></pick><pick publicID="de.gempa.tb1.Pick/20250414034132.657269.135466"><time><value>2025-04-14T03:41:22.328393Z</value></time><waveformID networkCode="CX" stationCode="PB02" channelCode="HHN"/><filterID>ITAPER(2)&gt;&gt;BW(3,3,20)</filterID><methodID>L2-AIC-GRID</methodID><horizontalSlowness><value>7.859004342169</value></horizontalSlowness><backazimuth><value>46.14599748258314</value></backazimuth><phaseHint>S</phaseHint><evaluationMode>automatic</evaluationMode><comment><text>741.582308649701</text><id>DFX:rectilinearity</id></comment><comment><text>de.gempa.tb1.Pick/20250414034100.51436.135451</text><id>RefPickID</id></comment><comment><text>5.265913751228253</text><id>SNR</id></comment></pick><pick publicID="de.gempa.tb1.Pick/20250414034135.4211.135467"><time><value>2025-04-14T03:40:58.928393Z</value></time><waveformID networkCode="CX" stationCode="PB07" channelCode="HHZ"/><filterID>ITAPER(4)&gt;&gt;BW(4,4,20)</filterID><methodID>AIC</methodID><horizontalSlowness><value>12.989335214215444</value></horizontalSlowness><backazimuth><value>2.415848733673329</value></backazimuth><phaseHint>P</phaseHint><evaluationMode>automatic</evaluationMode><comment><text>144.0369504220979</text><id>DFX:rectilinearity</id></comment><comment><text>39.92520149598996</text><id>SNR</id></comment></pick><origin publicID="de.gempa.tb1.Origin/20250414034135.767159.125967"><time><value>2025-04-14T03:40:15.301472Z</value><uncertainty>1.0534106492996216</uncertainty></time><latitude><value>-18.895645141601562</value><uncertainty>7.621304988861084</uncertainty></latitude><longitude><value>-69.76737213134766</value><uncertainty>8.341136932373047</uncertainty></longitude><depth><value>96.85596466064453</value><uncertainty>8.309962272644043</uncertainty></depth><depthType>from location</depthType><methodID>LOCSAT</methodID><earthModelID>iasp91_scanloc</earthModelID><quality><associatedPhaseCount>12</associatedPhaseCount><usedPhaseCount>12</usedPhaseCount><associatedStationCount>8</associatedStationCount><usedStationCount>8</usedStationCount><depthPhaseCount>0</depthPhaseCount><standardError>0.447671386772719</standardError><azimuthalGap>309.3943328857422</azimuthalGap><maximumDistance>3.1368746757507324</maximumDistance><minimumDistance>0.7745332717895508</minimumDistance><medianDistance>2.1527018547058105</medianDistance></quality><uncertainty><minHorizontalUncertainty>13.9630765914917</minHorizontalUncertainty><maxHorizontalUncertainty>19.79770278930664</maxHorizontalUncertainty><azimuthMaxHorizontalUncertainty>52.7780647277832</azimuthMaxHorizontalUncertainty><preferredDescription>horizontal uncertainty</preferredDescription></uncertainty><evaluationMode>automatic</evaluationMode><evaluationStatus>confirmed</evaluationStatus><comment><text>0.00</text><id>mismatchScore</id></comment><comment><text>mismatchScore</text><id>scevalMethod</id></comment><arrival><pickID>de.gempa.tb1.Pick/20250414034038.709007.135440</pickID><phase>P</phase><azimuth>205.65472412109375</azimuth><distance>0.7745332717895508</distance><timeResidual>-0.6446571350097656</timeResidual><timeUsed>true</timeUsed><horizontalSlownessUsed>false</horizontalSlownessUsed><backazimuthUsed>false</backazimuthUsed><weight>1</weight></arrival><arrival><pickID>de.gempa.tb1.Pick/20250414034044.593901.135444</pickID><phase>P</phase><azimuth>155.04905700683594</azimuth><distance>1.3676432371139526</distance><timeResidual>-0.3940563201904297</timeResidual><timeUsed>true</timeUsed><horizontalSlownessUsed>false</horizontalSlownessUsed><backazimuthUsed>false</backazimuthUsed><weight>1</weight></arrival><arrival><pickID>de.gempa.tb1.Pick/20250414034054.579786.135446</pickID><phase>S</phase><azimuth>205.65472412109375</azimuth><distance>0.7745332717895508</distance><timeResidual>0.30260467529296875</timeResidual><timeUsed>true</timeUsed><horizontalSlownessUsed>false</horizontalSlownessUsed><backazimuthUsed>false</backazimuthUsed><weight>1</weight></arrival><arrival><pickID>de.gempa.tb1.Pick/20250414034056.227576.135447</pickID><phase>P</phase><azimuth>190.66415405273438</azimuth><distance>1.9491958618164062</distance><timeResidual>0.2610664367675781</timeResidual><timeUsed>true</timeUsed><horizontalSlownessUsed>false</horizontalSlownessUsed><backazimuthUsed>false</backazimuthUsed><weight>1</weight></arrival><arrival><pickID>de.gempa.tb1.Pick/20250414034056.54335.135449</pickID><phase>P</phase><azimuth>173.0203399658203</azimuth><distance>2.1527018547058105</distance><timeResidual>-0.6417350769042969</timeResidual><timeUsed>true</timeUsed><horizontalSlownessUsed>false</horizontalSlownessUsed><backazimuthUsed>false</backazimuthUsed><weight>1</weight></arrival><arrival><pickID>de.gempa.tb1.Pick/20250414034100.51436.135451</pickID><phase>P</phase><azimuth>182.84832763671875</azimuth><distance>2.4146931171417236</distance><timeResidual>0.7666492462158203</timeResidual><timeUsed>true</timeUsed><horizontalSlownessUsed>false</horizontalSlownessUsed><backazimuthUsed>false</backazimuthUsed><weight>1</weight></arrival><arrival><pickID>de.gempa.tb1.Pick/20250414034107.097058.135455</pickID><phase>S</phase><azimuth>155.04905700683594</azimuth><distance>1.3676432371139526</distance><timeResidual>0.4671535491943359</timeResidual><timeUsed>true</timeUsed><horizontalSlownessUsed>false</horizontalSlownessUsed><backazimuthUsed>false</backazimuthUsed><weight>1</weight></arrival><arrival><pickID>de.gempa.tb1.Pick/20250414034108.552718.135456</pickID><phase>P</phase><azimuth>179.75799560546875</azimuth><distance>3.1368746757507324</distance><timeResidual>0.1931476593017578</timeResidual><timeUsed>true</timeUsed><horizontalSlownessUsed>false</horizontalSlownessUsed><backazimuthUsed>false</backazimuthUsed><weight>1</weight></arrival><arrival><pickID>de.gempa.tb1.Pick/20250414034113.960256.135459</pickID><phase>P</phase><azimuth>170.3944549560547</azimuth><distance>2.927781343460083</distance><timeResidual>0.04661941528320312</timeResidual><timeUsed>true</timeUsed><horizontalSlownessUsed>false</horizontalSlownessUsed><backazimuthUsed>false</backazimuthUsed><weight>1</weight></arrival><arrival><pickID>de.gempa.tb1.Pick/20250414034122.777866.135462</pickID><phase>S</phase><azimuth>173.0203399658203</azimuth><distance>2.1527018547058105</distance><timeResidual>-0.3330402374267578</timeResidual><timeUsed>true</timeUsed><horizontalSlownessUsed>false</horizontalSlownessUsed><backazimuthUsed>false</backazimuthUsed><weight>1</weight></arrival><arrival><pickID>de.gempa.tb1.Pick/20250414034132.657269.135466</pickID><phase>S</phase><azimuth>182.84832763671875</azimuth><distance>2.4146931171417236</distance><timeResidual>-0.4029712677001953</timeResidual><timeUsed>true</timeUsed><horizontalSlownessUsed>false</horizontalSlownessUsed><backazimuthUsed>false</backazimuthUsed><weight>1</weight></arrival><arrival><pickID>de.gempa.tb1.Pick/20250414034135.4211.135467</pickID><phase>P</phase><azimuth>182.24684143066406</azimuth><distance>2.818812131881714</distance><timeResidual>0.37912940979003906</timeResidual><timeUsed>true</timeUsed><horizontalSlownessUsed>false</horizontalSlownessUsed><backazimuthUsed>false</backazimuthUsed><weight>1</weight></arrival><magnitude publicID="de.gempa.tb1.Magnitude/20250414034140.938836.425121"><magnitude><value>2.94708631750909</value></magnitude><type>M</type><methodID>weighted average</methodID><stationCount>7</stationCount></magnitude></origin><event publicID="gempa2025hinp"><preferredOriginID>de.gempa.tb1.Origin/20250414034135.767159.125967</preferredOriginID><preferredMagnitudeID>de.gempa.tb1.Magnitude/20250414034140.938836.425121</preferredMagnitudeID><description><text>Northern Chile</text><type>region name</type></description><originReference>de.gempa.tb1.Origin/20250414034135.767159.125967</originReference></event></EventParameters></seiscomp>