<?xml version="1.0" encoding="UTF-8"?>
<seiscomp xmlns="http://geofon.gfz-potsdam.de/ns/seiscomp3-schema/0.13" version="0.13"><EventParameters><pick publicID="de.gempa.tb1.Pick/20250411191516.498027.119686"><time><value>2025-04-11T19:15:10.829999Z</value></time><waveformID networkCode="CX" stationCode="PATCX" channelCode="HHZ"/><filterID>ITAPER(4)&gt;&gt;BW(4,4,20)</filterID><methodID>AIC</methodID><horizontalSlowness><value>22.483298297398935</value></horizontalSlowness><backazimuth><value>145.6749241568023</value></backazimuth><phaseHint>P</phaseHint><evaluationMode>automatic</evaluationMode><comment><text>133597.21510625802</text><id>DFX:rectilinearity</id></comment><comment><text>18.826104682065235</text><id>SNR</id></comment></pick><pick publicID="de.gempa.tb1.Pick/20250411191520.298997.119688"><time><value>2025-04-11T19:15:13.469999Z</value></time><waveformID networkCode="CX" stationCode="PATCX" channelCode="HHN"/><filterID>ITAPER(2)&gt;&gt;BW(3,3,20)</filterID><methodID>L2-AIC-GRID</methodID><horizontalSlowness><value>19.03035257270781</value></horizontalSlowness><backazimuth><value>37.19980187500073</value></backazimuth><phaseHint>S</phaseHint><evaluationMode>automatic</evaluationMode><comment><text>531910.0996794195</text><id>DFX:rectilinearity</id></comment><comment><text>de.gempa.tb1.Pick/20250411191516.498027.119686</text><id>RefPickID</id></comment><comment><text>6.755034678240864</text><id>SNR</id></comment></pick><pick publicID="de.gempa.tb1.Pick/20250411191520.482154.119689"><time><value>2025-04-11T19:15:16.618393Z</value></time><waveformID networkCode="CX" stationCode="PB02" channelCode="HHZ"/><filterID>ITAPER(4)&gt;&gt;BW(4,4,20)</filterID><methodID>AIC</methodID><horizontalSlowness><value>9.668999425830382</value></horizontalSlowness><backazimuth><value>358.16906610470596</value></backazimuth><phaseHint>P</phaseHint><evaluationMode>automatic</evaluationMode><comment><text>1169.958214873766</text><id>DFX:rectilinearity</id></comment><comment><text>31.813231565943255</text><id>SNR</id></comment></pick><pick publicID="de.gempa.tb1.Pick/20250411191524.690465.119691"><time><value>2025-04-11T19:15:17.818393Z</value></time><waveformID networkCode="CX" stationCode="PB01" channelCode="HHZ"/><filterID>ITAPER(4)&gt;&gt;BW(4,4,20)</filterID><methodID>AIC</methodID><horizontalSlowness><value>18.547942026879333</value></horizontalSlowness><backazimuth><value>285.09596176252245</value></backazimuth><phaseHint>P</phaseHint><evaluationMode>automatic</evaluationMode><comment><text>535.7167081616103</text><id>DFX:rectilinearity</id></comment><comment><text>11.469891929901545</text><id>SNR</id></comment></pick><pick publicID="de.gempa.tb1.Pick/20250411191534.492955.119697"><time><value>2025-04-11T19:15:29.788393Z</value></time><waveformID networkCode="CX" stationCode="PB03" channelCode="HHZ"/><filterID>ITAPER(4)&gt;&gt;BW(4,4,20)</filterID><methodID>AIC</methodID><horizontalSlowness><value>13.114210671240018</value></horizontalSlowness><backazimuth><value>349.6445272340395</value></backazimuth><phaseHint>P</phaseHint><evaluationMode>automatic</evaluationMode><comment><text>29.34084298582192</text><id>DFX:rectilinearity</id></comment><comment><text>9.452294434696416</text><id>SNR</id></comment></pick><pick publicID="de.gempa.tb1.Pick/20250411191534.520909.119699"><time><value>2025-04-11T19:15:23.588396Z</value></time><waveformID networkCode="CX" stationCode="PB07" channelCode="HHZ"/><filterID>ITAPER(4)&gt;&gt;BW(4,4,20)</filterID><methodID>AIC</methodID><horizontalSlowness><value>22.460524213824176</value></horizontalSlowness><backazimuth><value>299.6865126639693</value></backazimuth><phaseHint>P</phaseHint><evaluationMode>automatic</evaluationMode><comment><text>173.2783865243234</text><id>DFX:rectilinearity</id></comment><comment><text>10.953871531379272</text><id>SNR</id></comment></pick><pick publicID="de.gempa.tb1.Pick/20250411191537.603765.119701"><time><value>2025-04-11T19:15:30.97Z</value></time><waveformID networkCode="CX" stationCode="PSGCX" channelCode="HHZ"/><filterID>ITAPER(4)&gt;&gt;BW(4,4,20)</filterID><methodID>AIC</methodID><horizontalSlowness><value>11.37280711470486</value></horizontalSlowness><backazimuth><value>212.7551836798827</value></backazimuth><phaseHint>P</phaseHint><evaluationMode>automatic</evaluationMode><comment><text>39.073032523065066</text><id>DFX:rectilinearity</id></comment><comment><text>44.906345305901944</text><id>SNR</id></comment></pick><pick publicID="de.gempa.tb1.Pick/20250411191551.642334.119706"><time><value>2025-04-11T19:15:30.61Z</value></time><waveformID networkCode="CX" stationCode="PB09" channelCode="HHZ"/><filterID>ITAPER(4)&gt;&gt;BW(4,4,20)</filterID><methodID>AIC</methodID><horizontalSlowness><value>21.8384209370008</value></horizontalSlowness><backazimuth><value>270.3680601261902</value></backazimuth><phaseHint>P</phaseHint><evaluationMode>automatic</evaluationMode><comment><text>10.925062716908625</text><id>DFX:rectilinearity</id></comment><comment><text>9.294426235749393</text><id>SNR</id></comment></pick><pick publicID="de.gempa.tb1.Pick/20250411191557.570961.119709"><time><value>2025-04-11T19:15:48.77Z</value></time><waveformID networkCode="CX" stationCode="PSGCX" channelCode="HHN"/><filterID>ITAPER(2)&gt;&gt;BW(3,3,20)</filterID><methodID>L2-AIC-GRID</methodID><horizontalSlowness><value>23.530796404983455</value></horizontalSlowness><backazimuth><value>246.7977441048647</value></backazimuth><phaseHint>S</phaseHint><evaluationMode>automatic</evaluationMode><comment><text>1205.005207060059</text><id>DFX:rectilinearity</id></comment><comment><text>de.gempa.tb1.Pick/20250411191537.603765.119701</text><id>RefPickID</id></comment><comment><text>10.22673691661323</text><id>SNR</id></comment></pick><origin publicID="de.gempa.tb1.Origin/20250411191557.57372.64160"><time><value>2025-04-11T19:15:07.553647Z</value><uncertainty>0.34413954615592957</uncertainty></time><latitude><value>-20.874399185180664</value><uncertainty>3.225741386413574</uncertainty></latitude><longitude><value>-70.02472686767578</value><uncertainty>5.070594787597656</uncertainty></longitude><depth><value>12.244158744812012</value><uncertainty>3.951784610748291</uncertainty></depth><depthType>from location</depthType><methodID>LOCSAT</methodID><earthModelID>iasp91_scanloc</earthModelID><quality><associatedPhaseCount>9</associatedPhaseCount><usedPhaseCount>9</usedPhaseCount><associatedStationCount>7</associatedStationCount><usedStationCount>7</usedStationCount><depthPhaseCount>0</depthPhaseCount><standardError>0.37991258815834544</standardError><azimuthalGap>122.6363983154297</azimuthalGap><maximumDistance>1.274057388305664</maximumDistance><minimumDistance>0.13122786581516266</minimumDistance><medianDistance>0.8578428626060486</medianDistance></quality><uncertainty><minHorizontalUncertainty>4.669966697692871</minHorizontalUncertainty><maxHorizontalUncertainty>12.011207580566406</maxHorizontalUncertainty><azimuthMaxHorizontalUncertainty>62.54016876220703</azimuthMaxHorizontalUncertainty><preferredDescription>horizontal uncertainty</preferredDescription></uncertainty><evaluationMode>automatic</evaluationMode><evaluationStatus>confirmed</evaluationStatus><comment><text>0.03</text><id>mismatchScore</id></comment><comment><text>mismatchScore</text><id>scevalMethod</id></comment><arrival><pickID>de.gempa.tb1.Pick/20250411191516.498027.119686</pickID><phase>P</phase><azimuth>293.9991149902344</azimuth><distance>0.13122786581516266</distance><timeResidual>-0.016582012176513672</timeResidual><timeUsed>true</timeUsed><horizontalSlownessUsed>false</horizontalSlownessUsed><backazimuthUsed>false</backazimuthUsed><weight>1</weight></arrival><arrival><pickID>de.gempa.tb1.Pick/20250411191520.298997.119688</pickID><phase>S</phase><azimuth>293.9991149902344</azimuth><distance>0.13122786581516266</distance><timeResidual>0.23252391815185547</timeResidual><timeUsed>true</timeUsed><horizontalSlownessUsed>false</horizontalSlownessUsed><backazimuthUsed>false</backazimuthUsed><weight>1</weight></arrival><arrival><pickID>de.gempa.tb1.Pick/20250411191520.482154.119689</pickID><phase>P</phase><azimuth>164.8488006591797</azimuth><distance>0.4591238796710968</distance><timeResidual>0.008403778076171875</timeResidual><timeUsed>true</timeUsed><horizontalSlownessUsed>false</horizontalSlownessUsed><backazimuthUsed>false</backazimuthUsed><weight>1</weight></arrival><arrival><pickID>de.gempa.tb1.Pick/20250411191524.690465.119691</pickID><phase>P</phase><azimuth>108.59036254882812</azimuth><distance>0.5295589566230774</distance><timeResidual>-0.11386966705322266</timeResidual><timeUsed>true</timeUsed><horizontalSlownessUsed>false</horizontalSlownessUsed><backazimuthUsed>false</backazimuthUsed><weight>1</weight></arrival><arrival><pickID>de.gempa.tb1.Pick/20250411191534.492955.119697</pickID><phase>P</phase><azimuth>167.8291778564453</azimuth><distance>1.1953814029693604</distance><timeResidual>-0.2552146911621094</timeResidual><timeUsed>true</timeUsed><horizontalSlownessUsed>false</horizontalSlownessUsed><backazimuthUsed>false</backazimuthUsed><weight>1</weight></arrival><arrival><pickID>de.gempa.tb1.Pick/20250411191534.520909.119699</pickID><phase>P</phase><azimuth>171.3627166748047</azimuth><distance>0.8578428626060486</distance><timeResidual>-0.5232095718383789</timeResidual><timeUsed>true</timeUsed><horizontalSlownessUsed>false</horizontalSlownessUsed><backazimuthUsed>false</backazimuthUsed><weight>1</weight></arrival><arrival><pickID>de.gempa.tb1.Pick/20250411191537.603765.119701</pickID><phase>P</phase><azimuth>355.827392578125</azimuth><distance>1.274057388305664</distance><timeResidual>-0.17315673828125</timeResidual><timeUsed>true</timeUsed><horizontalSlownessUsed>false</horizontalSlownessUsed><backazimuthUsed>false</backazimuthUsed><weight>1</weight></arrival><arrival><pickID>de.gempa.tb1.Pick/20250411191551.642334.119706</pickID><phase>P</phase><azimuth>141.6390380859375</azimuth><distance>1.1722923517227173</distance><timeResidual>0.9250469207763672</timeResidual><timeUsed>true</timeUsed><horizontalSlownessUsed>false</horizontalSlownessUsed><backazimuthUsed>false</backazimuthUsed><weight>1</weight></arrival><arrival><pickID>de.gempa.tb1.Pick/20250411191557.570961.119709</pickID><phase>S</phase><azimuth>355.827392578125</azimuth><distance>1.274057388305664</distance><timeResidual>-0.08393478393554688</timeResidual><timeUsed>true</timeUsed><horizontalSlownessUsed>false</horizontalSlownessUsed><backazimuthUsed>false</backazimuthUsed><weight>1</weight></arrival><magnitude publicID="de.gempa.tb1.Magnitude/20250411191648.417253.135061"><magnitude><value>2.429534577577927</value></magnitude><type>M</type><methodID>weighted average</methodID><stationCount>7</stationCount></magnitude></origin><event publicID="gempa2025hees"><preferredOriginID>de.gempa.tb1.Origin/20250411191557.57372.64160</preferredOriginID><preferredMagnitudeID>de.gempa.tb1.Magnitude/20250411191648.417253.135061</preferredMagnitudeID><description><text>Near Coast of Northern Chile</text><type>region name</type></description><originReference>de.gempa.tb1.Origin/20250411191557.57372.64160</originReference></event></EventParameters></seiscomp>