<?xml version="1.0" encoding="UTF-8"?>
<seiscomp xmlns="http://geofon.gfz-potsdam.de/ns/seiscomp3-schema/0.13" version="0.13"><EventParameters><pick publicID="de.gempa.tb1.Pick/20250411153212.717279.118486"><time><value>2025-04-11T15:32:05.028393Z</value></time><waveformID networkCode="CX" stationCode="PB08" channelCode="HHZ"/><filterID>ITAPER(4)&gt;&gt;BW(4,4,20)</filterID><methodID>AIC</methodID><horizontalSlowness><value>15.287765241326353</value></horizontalSlowness><backazimuth><value>91.27017741851517</value></backazimuth><phaseHint>P</phaseHint><evaluationMode>automatic</evaluationMode><comment><text>12.725228674228802</text><id>DFX:rectilinearity</id></comment><comment><text>14.289412236801578</text><id>SNR</id></comment></pick><pick publicID="de.gempa.tb1.Pick/20250411153215.545104.118488"><time><value>2025-04-11T15:32:11.168394Z</value></time><waveformID networkCode="CX" stationCode="PB01" channelCode="HHZ"/><filterID>ITAPER(4)&gt;&gt;BW(4,4,20)</filterID><methodID>AIC</methodID><horizontalSlowness><value>5.915882445409569</value></horizontalSlowness><backazimuth><value>310.16639463150955</value></backazimuth><phaseHint>P</phaseHint><evaluationMode>automatic</evaluationMode><comment><text>31.632947737698643</text><id>DFX:rectilinearity</id></comment><comment><text>22.497952540682856</text><id>SNR</id></comment></pick><pick publicID="de.gempa.tb1.Pick/20250411153219.623614.118490"><time><value>2025-04-11T15:32:11.77Z</value></time><waveformID networkCode="CX" stationCode="PSGCX" channelCode="HHZ"/><filterID>ITAPER(4)&gt;&gt;BW(4,4,20)</filterID><methodID>AIC</methodID><horizontalSlowness><value>10.377941077029522</value></horizontalSlowness><backazimuth><value>181.40693832997286</value></backazimuth><phaseHint>P</phaseHint><evaluationMode>automatic</evaluationMode><comment><text>14.063505656050463</text><id>DFX:rectilinearity</id></comment><comment><text>45.77288478690362</text><id>SNR</id></comment></pick><pick publicID="de.gempa.tb1.Pick/20250411153226.78752.118492"><time><value>2025-04-11T15:32:16.198393Z</value></time><waveformID networkCode="CX" stationCode="PB08" channelCode="HHN"/><filterID>ITAPER(2)&gt;&gt;BW(3,3,20)</filterID><methodID>L2-AIC-GRID</methodID><horizontalSlowness><value>16.377110367348337</value></horizontalSlowness><backazimuth><value>202.21725932413509</value></backazimuth><phaseHint>S</phaseHint><evaluationMode>automatic</evaluationMode><comment><text>276.6042766603502</text><id>DFX:rectilinearity</id></comment><comment><text>de.gempa.tb1.Pick/20250411153212.717279.118486</text><id>RefPickID</id></comment><comment><text>10.585972084969432</text><id>SNR</id></comment></pick><pick publicID="de.gempa.tb1.Pick/20250411153237.255703.118493"><time><value>2025-04-11T15:32:19.879998Z</value></time><waveformID networkCode="CX" stationCode="PB09" channelCode="HHZ"/><filterID>ITAPER(4)&gt;&gt;BW(4,4,20)</filterID><methodID>AIC</methodID><horizontalSlowness><value>10.681590778249845</value></horizontalSlowness><backazimuth><value>309.2096894251707</value></backazimuth><phaseHint>P</phaseHint><evaluationMode>automatic</evaluationMode><comment><text>11.133134832068924</text><id>DFX:rectilinearity</id></comment><comment><text>12.31134039526157</text><id>SNR</id></comment></pick><pick publicID="de.gempa.tb1.Pick/20250411153237.57826.118495"><time><value>2025-04-11T15:32:27.628394Z</value></time><waveformID networkCode="CX" stationCode="PB01" channelCode="HHN"/><filterID>ITAPER(2)&gt;&gt;BW(3,3,20)</filterID><methodID>L2-AIC-GRID</methodID><horizontalSlowness><value>23.32888740348646</value></horizontalSlowness><backazimuth><value>72.08029351369565</value></backazimuth><phaseHint>S</phaseHint><evaluationMode>automatic</evaluationMode><comment><text>99.06842038313273</text><id>DFX:rectilinearity</id></comment><comment><text>de.gempa.tb1.Pick/20250411153215.545104.118488</text><id>RefPickID</id></comment><comment><text>8.248405735431225</text><id>SNR</id></comment></pick><pick publicID="de.gempa.tb1.Pick/20250411153237.599794.118496"><time><value>2025-04-11T15:32:28.13Z</value></time><waveformID networkCode="CX" stationCode="PSGCX" channelCode="HHN"/><filterID>ITAPER(2)&gt;&gt;BW(3,3,20)</filterID><methodID>L2-AIC-GRID</methodID><horizontalSlowness><value>22.629134037256765</value></horizontalSlowness><backazimuth><value>99.7600742859233</value></backazimuth><phaseHint>S</phaseHint><evaluationMode>automatic</evaluationMode><comment><text>25.32910273610008</text><id>DFX:rectilinearity</id></comment><comment><text>de.gempa.tb1.Pick/20250411153219.623614.118490</text><id>RefPickID</id></comment><comment><text>7.7433197176881</text><id>SNR</id></comment></pick><pick publicID="de.gempa.tb1.Pick/20250411153247.759332.118498"><time><value>2025-04-11T15:32:20.768393Z</value></time><waveformID networkCode="CX" stationCode="PB07" channelCode="HHZ"/><filterID>ITAPER(4)&gt;&gt;BW(4,4,20)</filterID><methodID>AIC</methodID><horizontalSlowness><value>23.22224605474862</value></horizontalSlowness><backazimuth><value>71.29232407210891</value></backazimuth><phaseHint>P</phaseHint><evaluationMode>automatic</evaluationMode><comment><text>184.7359068046496</text><id>DFX:rectilinearity</id></comment><comment><text>8.664615270382493</text><id>SNR</id></comment></pick><origin publicID="de.gempa.tb1.Origin/20250411153247.762492.59349"><time><value>2025-04-11T15:31:50.644822Z</value><uncertainty>1.1640417575836182</uncertainty></time><latitude><value>-20.078340530395508</value><uncertainty>5.601284980773926</uncertainty></latitude><longitude><value>-69.1476058959961</value><uncertainty>8.645018577575684</uncertainty></longitude><depth><value>104.25836181640625</value><uncertainty>6.91796350479126</uncertainty></depth><depthType>from location</depthType><methodID>LOCSAT</methodID><earthModelID>iasp91_scanloc</earthModelID><quality><associatedPhaseCount>8</associatedPhaseCount><usedPhaseCount>8</usedPhaseCount><associatedStationCount>5</associatedStationCount><usedStationCount>5</usedStationCount><depthPhaseCount>0</depthPhaseCount><standardError>0.14974474150431355</standardError><azimuthalGap>245.5680389404297</azimuthalGap><maximumDistance>1.779516577720642</maximumDistance><minimumDistance>0.06269524991512299</minimumDistance><medianDistance>1.0355359315872192</medianDistance></quality><uncertainty><minHorizontalUncertainty>9.108781814575195</minHorizontalUncertainty><maxHorizontalUncertainty>20.12373924255371</maxHorizontalUncertainty><azimuthMaxHorizontalUncertainty>64.1304931640625</azimuthMaxHorizontalUncertainty><preferredDescription>horizontal uncertainty</preferredDescription></uncertainty><evaluationMode>automatic</evaluationMode><evaluationStatus>confirmed</evaluationStatus><comment><text>0.31</text><id>mismatchScore</id></comment><comment><text>mismatchScore</text><id>scevalMethod</id></comment><arrival><pickID>de.gempa.tb1.Pick/20250411153212.717279.118486</pickID><phase>P</phase><azimuth>184.97857666015625</azimuth><distance>0.06269524991512299</distance><timeResidual>-0.029372215270996094</timeResidual><timeUsed>true</timeUsed><horizontalSlownessUsed>false</horizontalSlownessUsed><backazimuthUsed>false</backazimuthUsed><weight>1</weight></arrival><arrival><pickID>de.gempa.tb1.Pick/20250411153215.545104.118488</pickID><phase>P</phase><azimuth>198.29013061523438</azimuth><distance>1.0114346742630005</distance><timeResidual>-0.352142333984375</timeResidual><timeUsed>true</timeUsed><horizontalSlownessUsed>false</horizontalSlownessUsed><backazimuthUsed>false</backazimuthUsed><weight>1</weight></arrival><arrival><pickID>de.gempa.tb1.Pick/20250411153219.623614.118490</pickID><phase>P</phase><azimuth>297.3676452636719</azimuth><distance>1.0355359315872192</distance><timeResidual>-0.01564502716064453</timeResidual><timeUsed>true</timeUsed><horizontalSlownessUsed>false</horizontalSlownessUsed><backazimuthUsed>false</backazimuthUsed><weight>1</weight></arrival><arrival><pickID>de.gempa.tb1.Pick/20250411153226.78752.118492</pickID><phase>S</phase><azimuth>184.97857666015625</azimuth><distance>0.06269524991512299</distance><timeResidual>0.06717491149902344</timeResidual><timeUsed>true</timeUsed><horizontalSlownessUsed>false</horizontalSlownessUsed><backazimuthUsed>false</backazimuthUsed><weight>1</weight></arrival><arrival><pickID>de.gempa.tb1.Pick/20250411153237.255703.118493</pickID><phase>P</phase><azimuth>182.93568420410156</azimuth><distance>1.71172297000885</distance><timeResidual>0.13599014282226562</timeResidual><timeUsed>true</timeUsed><horizontalSlownessUsed>false</horizontalSlownessUsed><backazimuthUsed>false</backazimuthUsed><weight>1</weight></arrival><arrival><pickID>de.gempa.tb1.Pick/20250411153237.57826.118495</pickID><phase>S</phase><azimuth>198.29013061523438</azimuth><distance>1.0114346742630005</distance><timeResidual>-0.005689620971679688</timeResidual><timeUsed>true</timeUsed><horizontalSlownessUsed>false</horizontalSlownessUsed><backazimuthUsed>false</backazimuthUsed><weight>1</weight></arrival><arrival><pickID>de.gempa.tb1.Pick/20250411153237.599794.118496</pickID><phase>S</phase><azimuth>297.3676452636719</azimuth><distance>1.0355359315872192</distance><timeResidual>0.02462959289550781</timeResidual><timeUsed>true</timeUsed><horizontalSlownessUsed>false</horizontalSlownessUsed><backazimuthUsed>false</backazimuthUsed><weight>1</weight></arrival><arrival><pickID>de.gempa.tb1.Pick/20250411153247.759332.118498</pickID><phase>P</phase><azimuth>202.703369140625</azimuth><distance>1.779516577720642</distance><timeResidual>0.175018310546875</timeResidual><timeUsed>true</timeUsed><horizontalSlownessUsed>false</horizontalSlownessUsed><backazimuthUsed>false</backazimuthUsed><weight>1</weight></arrival><magnitude publicID="de.gempa.tb1.Magnitude/20250411153247.769323.114614"><magnitude><value>1.2507597704384217</value></magnitude><type>M</type><methodID>weighted average</methodID><stationCount>2</stationCount></magnitude></origin><event publicID="gempa2025hdxg"><preferredOriginID>de.gempa.tb1.Origin/20250411153247.762492.59349</preferredOriginID><preferredMagnitudeID>de.gempa.tb1.Magnitude/20250411153247.769323.114614</preferredMagnitudeID><description><text>Northern Chile</text><type>region name</type></description><originReference>de.gempa.tb1.Origin/20250411153247.762492.59349</originReference></event></EventParameters></seiscomp>