<?xml version="1.0" encoding="UTF-8"?>
<seiscomp xmlns="http://geofon.gfz-potsdam.de/ns/seiscomp3-schema/0.13" version="0.13"><EventParameters><pick publicID="de.gempa.tb1.Pick/20250414034954.194232.209838"><time><value>2025-04-14T03:49:50.43Z</value></time><waveformID networkCode="CH" stationCode="FIESA" channelCode="HHZ"/><filterID>ITAPER(4)&gt;&gt;BW(4,4,20)</filterID><methodID>AIC</methodID><phaseHint>P</phaseHint><evaluationMode>automatic</evaluationMode></pick><pick publicID="de.gempa.tb1.Pick/20250414034956.690139.209840"><time><value>2025-04-14T03:49:54.25Z</value></time><waveformID networkCode="CH" stationCode="NALPS" channelCode="HHZ"/><filterID>ITAPER(4)&gt;&gt;BW(4,4,20)</filterID><methodID>AIC</methodID><phaseHint>P</phaseHint><evaluationMode>automatic</evaluationMode></pick><pick publicID="de.gempa.tb1.Pick/20250414034957.052906.209842"><time><value>2025-04-14T03:49:53.73Z</value></time><waveformID networkCode="CH" stationCode="SIMPL" channelCode="HHZ"/><filterID>ITAPER(4)&gt;&gt;BW(4,4,20)</filterID><methodID>AIC</methodID><phaseHint>P</phaseHint><evaluationMode>automatic</evaluationMode></pick><pick publicID="de.gempa.tb1.Pick/20250414034958.28059.209844"><time><value>2025-04-14T03:49:53.25Z</value></time><waveformID networkCode="CH" stationCode="FIESA" channelCode="HHN"/><filterID>RMHP(1)&gt;&gt;ITAPER(2)&gt;&gt;BW(4,3,20)</filterID><methodID>L2-AIC-GRID</methodID><phaseHint>S</phaseHint><evaluationMode>automatic</evaluationMode><comment><text>de.gempa.tb1.Pick/20250414034954.194232.209838</text><id>RefPickID</id></comment></pick><pick publicID="de.gempa.tb1.Pick/20250414034958.295712.209845"><time><value>2025-04-14T03:49:55.319998Z</value></time><waveformID networkCode="CH" stationCode="FUSIO" channelCode="HHZ"/><filterID>ITAPER(4)&gt;&gt;BW(4,4,20)</filterID><methodID>AIC</methodID><phaseHint>P</phaseHint><evaluationMode>automatic</evaluationMode></pick><origin publicID="de.gempa.tb1.Origin/20250414034958.297964.131382"><time><value>2025-04-14T03:49:44.741976Z</value><uncertainty>1.735986590385437</uncertainty></time><latitude><value>46.71004867553711</value><uncertainty>6.889721870422363</uncertainty></latitude><longitude><value>8.012187957763672</value><uncertainty>9.417667388916016</uncertainty></longitude><depth><value>0</value></depth><depthType>operator assigned</depthType><methodID>LOCSAT</methodID><earthModelID>iasp91</earthModelID><quality><associatedPhaseCount>5</associatedPhaseCount><usedPhaseCount>5</usedPhaseCount><associatedStationCount>4</associatedStationCount><usedStationCount>4</usedStationCount><depthPhaseCount>0</depthPhaseCount><standardError>0.37517463472210905</standardError><azimuthalGap>283.132942199707</azimuthalGap><maximumDistance>0.5199293494224548</maximumDistance><minimumDistance>0.2831072509288788</minimumDistance><medianDistance>0.4706082344055176</medianDistance></quality><uncertainty><minHorizontalUncertainty>9.759727478027344</minHorizontalUncertainty><maxHorizontalUncertainty>23.04389190673828</maxHorizontalUncertainty><azimuthMaxHorizontalUncertainty>122.1035614013672</azimuthMaxHorizontalUncertainty><preferredDescription>horizontal uncertainty</preferredDescription></uncertainty><evaluationMode>automatic</evaluationMode><arrival><pickID>de.gempa.tb1.Pick/20250414034954.194232.209838</pickID><phase>P</phase><azimuth>166.11375427246094</azimuth><distance>0.2831072509288788</distance><timeResidual>0.1580033302307129</timeResidual><timeUsed>true</timeUsed><horizontalSlownessUsed>false</horizontalSlownessUsed><backazimuthUsed>false</backazimuthUsed><weight>1</weight></arrival><arrival><pickID>de.gempa.tb1.Pick/20250414034956.690139.209840</pickID><phase>P</phase><azimuth>102.50829315185547</azimuth><distance>0.5199293494224548</distance><timeResidual>-0.5242691040039062</timeResidual><timeUsed>true</timeUsed><horizontalSlownessUsed>false</horizontalSlownessUsed><backazimuthUsed>false</backazimuthUsed><weight>1</weight></arrival><arrival><pickID>de.gempa.tb1.Pick/20250414034957.052906.209842</pickID><phase>P</phase><azimuth>179.37535095214844</azimuth><distance>0.4706082344055176</distance><timeResidual>-0.1071772575378418</timeResidual><timeUsed>true</timeUsed><horizontalSlownessUsed>false</horizontalSlownessUsed><backazimuthUsed>false</backazimuthUsed><weight>1</weight></arrival><arrival><pickID>de.gempa.tb1.Pick/20250414034958.28059.209844</pickID><phase>S</phase><azimuth>166.11375427246094</azimuth><distance>0.2831072509288788</distance><timeResidual>-0.13779067993164062</timeResidual><timeUsed>true</timeUsed><horizontalSlownessUsed>false</horizontalSlownessUsed><backazimuthUsed>false</backazimuthUsed><weight>1</weight></arrival><arrival><pickID>de.gempa.tb1.Pick/20250414034958.295712.209845</pickID><phase>P</phase><azimuth>119.3803939819336</azimuth><distance>0.5164764523506165</distance><timeResidual>0.6111330986022949</timeResidual><timeUsed>true</timeUsed><horizontalSlownessUsed>false</horizontalSlownessUsed><backazimuthUsed>false</backazimuthUsed><weight>1</weight></arrival><magnitude publicID="de.gempa.tb1.Magnitude/20250414035055.583333.425826"><magnitude><value>1.5920505560130738</value></magnitude><type>M</type><methodID>weighted average</methodID><stationCount>4</stationCount></magnitude></origin><event publicID="gempa2025hiny"><preferredOriginID>de.gempa.tb1.Origin/20250414034958.297964.131382</preferredOriginID><preferredMagnitudeID>de.gempa.tb1.Magnitude/20250414035055.583333.425826</preferredMagnitudeID><typeCertainty>suspected</typeCertainty><description><text>Switzerland</text><type>region name</type></description><originReference>de.gempa.tb1.Origin/20250414034958.297964.131382</originReference></event></EventParameters></seiscomp>