<?xml version="1.0" encoding="UTF-8"?>
<seiscomp xmlns="http://geofon.gfz-potsdam.de/ns/seiscomp3-schema/0.13" version="0.13"><EventParameters><pick publicID="de.gempa.tb1.Pick/20250412060552.235965.122341"><time><value>2025-04-12T06:05:41.25Z</value></time><waveformID networkCode="CX" stationCode="PB09" channelCode="HHZ"/><filterID>ITAPER(4)&gt;&gt;BW(4,4,20)</filterID><methodID>AIC</methodID><horizontalSlowness><value>16.929022106613584</value></horizontalSlowness><backazimuth><value>287.27825156580985</value></backazimuth><phaseHint>P</phaseHint><evaluationMode>automatic</evaluationMode><comment><text>30.413452802934643</text><id>DFX:rectilinearity</id></comment><comment><text>31.33810829864007</text><id>SNR</id></comment></pick><pick publicID="de.gempa.tb1.Pick/20250412060552.585805.122343"><time><value>2025-04-12T06:05:46.578394Z</value></time><waveformID networkCode="CX" stationCode="PB01" channelCode="HHZ"/><filterID>ITAPER(4)&gt;&gt;BW(4,4,20)</filterID><methodID>AIC</methodID><horizontalSlowness><value>18.712843603823348</value></horizontalSlowness><backazimuth><value>4.241925747316742</value></backazimuth><phaseHint>P</phaseHint><evaluationMode>automatic</evaluationMode><comment><text>9.031580349446335</text><id>DFX:rectilinearity</id></comment><comment><text>17.165408887003917</text><id>SNR</id></comment></pick><pick publicID="de.gempa.tb1.Pick/20250412060553.52827.122345"><time><value>2025-04-12T06:05:44.878393Z</value></time><waveformID networkCode="CX" stationCode="PB03" channelCode="HHZ"/><filterID>ITAPER(4)&gt;&gt;BW(4,4,20)</filterID><methodID>AIC</methodID><horizontalSlowness><value>13.45841409888989</value></horizontalSlowness><backazimuth><value>298.8260532641108</value></backazimuth><phaseHint>P</phaseHint><evaluationMode>automatic</evaluationMode><comment><text>29.9958719025853</text><id>DFX:rectilinearity</id></comment><comment><text>30.323182202512417</text><id>SNR</id></comment></pick><pick publicID="de.gempa.tb1.Pick/20250412060555.482642.122347"><time><value>2025-04-12T06:05:48.388394Z</value></time><waveformID networkCode="CX" stationCode="PB02" channelCode="HHZ"/><filterID>ITAPER(4)&gt;&gt;BW(4,4,20)</filterID><methodID>AIC</methodID><horizontalSlowness><value>12.908979777640866</value></horizontalSlowness><backazimuth><value>285.02230896182544</value></backazimuth><phaseHint>P</phaseHint><evaluationMode>automatic</evaluationMode><comment><text>35.758496067482554</text><id>DFX:rectilinearity</id></comment><comment><text>13.4376640445036</text><id>SNR</id></comment></pick><pick publicID="de.gempa.tb1.Pick/20250412060556.18375.122349"><time><value>2025-04-12T06:05:46.758394Z</value></time><waveformID networkCode="CX" stationCode="PB07" channelCode="HHZ"/><filterID>ITAPER(4)&gt;&gt;BW(4,4,20)</filterID><methodID>AIC</methodID><horizontalSlowness><value>23.12715437055286</value></horizontalSlowness><backazimuth><value>155.10477899041524</value></backazimuth><phaseHint>P</phaseHint><evaluationMode>automatic</evaluationMode><comment><text>484.4369570929231</text><id>DFX:rectilinearity</id></comment><comment><text>53.42424976564313</text><id>SNR</id></comment></pick><pick publicID="de.gempa.tb1.Pick/20250412060620.56817.122351"><time><value>2025-04-12T06:06:11.508393Z</value></time><waveformID networkCode="CX" stationCode="PB03" channelCode="HHN"/><filterID>ITAPER(2)&gt;&gt;BW(3,3,20)</filterID><methodID>L2-AIC-GRID</methodID><horizontalSlowness><value>20.17184050726036</value></horizontalSlowness><backazimuth><value>168.02376837427025</value></backazimuth><phaseHint>S</phaseHint><evaluationMode>automatic</evaluationMode><comment><text>109.05650807133938</text><id>DFX:rectilinearity</id></comment><comment><text>de.gempa.tb1.Pick/20250412060553.52827.122345</text><id>RefPickID</id></comment><comment><text>14.42313704182727</text><id>SNR</id></comment></pick><pick publicID="de.gempa.tb1.Pick/20250412060623.577675.122355"><time><value>2025-04-12T06:06:14.758394Z</value></time><waveformID networkCode="CX" stationCode="PB01" channelCode="HHN"/><filterID>ITAPER(2)&gt;&gt;BW(3,3,20)</filterID><methodID>L2-AIC-GRID</methodID><horizontalSlowness><value>20.83792580494715</value></horizontalSlowness><backazimuth><value>350.11251019010126</value></backazimuth><phaseHint>S</phaseHint><evaluationMode>automatic</evaluationMode><comment><text>46.2262858290897</text><id>DFX:rectilinearity</id></comment><comment><text>de.gempa.tb1.Pick/20250412060552.585805.122343</text><id>RefPickID</id></comment><comment><text>9.813487739471737</text><id>SNR</id></comment></pick><pick publicID="de.gempa.tb1.Pick/20250412060626.660019.122357"><time><value>2025-04-12T06:06:17.528394Z</value></time><waveformID networkCode="CX" stationCode="PB02" channelCode="HHN"/><filterID>ITAPER(2)&gt;&gt;BW(3,3,20)</filterID><methodID>L2-AIC-GRID</methodID><horizontalSlowness><value>20.196343230805724</value></horizontalSlowness><backazimuth><value>30.409182378074945</value></backazimuth><phaseHint>S</phaseHint><evaluationMode>automatic</evaluationMode><comment><text>180.47252033232317</text><id>DFX:rectilinearity</id></comment><comment><text>de.gempa.tb1.Pick/20250412060555.482642.122347</text><id>RefPickID</id></comment><comment><text>6.926788066284593</text><id>SNR</id></comment></pick><pick publicID="de.gempa.tb1.Pick/20250412060638.967319.122358"><time><value>2025-04-12T06:06:14.938394Z</value></time><waveformID networkCode="CX" stationCode="PB07" channelCode="HHN"/><filterID>ITAPER(2)&gt;&gt;BW(3,3,20)</filterID><methodID>L2-AIC-GRID</methodID><horizontalSlowness><value>23.51243055457345</value></horizontalSlowness><backazimuth><value>22.78123818889921</value></backazimuth><phaseHint>S</phaseHint><evaluationMode>automatic</evaluationMode><comment><text>2390.596464916756</text><id>DFX:rectilinearity</id></comment><comment><text>de.gempa.tb1.Pick/20250412060556.18375.122349</text><id>RefPickID</id></comment><comment><text>8.969795724962612</text><id>SNR</id></comment></pick><origin publicID="de.gempa.tb1.Origin/20250412060638.972221.75854"><time><value>2025-04-12T06:05:10.990494Z</value><uncertainty>1.1810046434402466</uncertainty></time><latitude><value>-22.20942497253418</value><uncertainty>11.997758865356445</uncertainty></latitude><longitude><value>-68.01422882080078</value><uncertainty>22.9608211517334</uncertainty></longitude><depth><value>189.41070556640625</value><uncertainty>27.255041122436523</uncertainty></depth><depthType>from location</depthType><methodID>LOCSAT</methodID><earthModelID>iasp91_scanloc</earthModelID><quality><associatedPhaseCount>9</associatedPhaseCount><usedPhaseCount>9</usedPhaseCount><associatedStationCount>5</associatedStationCount><usedStationCount>5</usedStationCount><depthPhaseCount>0</depthPhaseCount><standardError>0.09155565349022396</standardError><azimuthalGap>325.3670959472656</azimuthalGap><maximumDistance>1.9605225324630737</maximumDistance><minimumDistance>1.211215615272522</minimumDistance><medianDistance>1.7959614992141724</medianDistance></quality><uncertainty><minHorizontalUncertainty>25.07017517089844</minHorizontalUncertainty><maxHorizontalUncertainty>49.57126617431641</maxHorizontalUncertainty><azimuthMaxHorizontalUncertainty>97.75851440429688</azimuthMaxHorizontalUncertainty><preferredDescription>horizontal uncertainty</preferredDescription></uncertainty><evaluationMode>automatic</evaluationMode><evaluationStatus>confirmed</evaluationStatus><comment><text>0.45</text><id>mismatchScore</id></comment><comment><text>mismatchScore</text><id>scevalMethod</id></comment><arrival><pickID>de.gempa.tb1.Pick/20250412060552.235965.122341</pickID><phase>P</phase><azimuth>289.6090087890625</azimuth><distance>1.211215615272522</distance><timeResidual>-0.025335311889648441</timeResidual><timeUsed>true</timeUsed><horizontalSlownessUsed>false</horizontalSlownessUsed><backazimuthUsed>false</backazimuthUsed><weight>1</weight></arrival><arrival><pickID>de.gempa.tb1.Pick/20250412060552.585805.122343</pickID><phase>P</phase><azimuth>309.98046875</azimuth><distance>1.7959614992141724</distance><timeResidual>-0.06240653991699219</timeResidual><timeUsed>true</timeUsed><horizontalSlownessUsed>false</horizontalSlownessUsed><backazimuthUsed>false</backazimuthUsed><weight>1</weight></arrival><arrival><pickID>de.gempa.tb1.Pick/20250412060553.52827.122345</pickID><phase>P</phase><azimuth>275.3475646972656</azimuth><distance>1.6202360391616821</distance><timeResidual>-0.025396347045898441</timeResidual><timeUsed>true</timeUsed><horizontalSlownessUsed>false</horizontalSlownessUsed><backazimuthUsed>false</backazimuthUsed><weight>1</weight></arrival><arrival><pickID>de.gempa.tb1.Pick/20250412060555.482642.122347</pickID><phase>P</phase><azimuth>296.49639892578125</azimuth><distance>1.9605225324630737</distance><timeResidual>0.05900192260742188</timeResidual><timeUsed>true</timeUsed><horizontalSlownessUsed>false</horizontalSlownessUsed><backazimuthUsed>false</backazimuthUsed><weight>1</weight></arrival><arrival><pickID>de.gempa.tb1.Pick/20250412060556.18375.122349</pickID><phase>P</phase><azimuth>285.1053771972656</azimuth><distance>1.8028264045715332</distance><timeResidual>0.05466651916503906</timeResidual><timeUsed>true</timeUsed><horizontalSlownessUsed>false</horizontalSlownessUsed><backazimuthUsed>false</backazimuthUsed><weight>1</weight></arrival><arrival><pickID>de.gempa.tb1.Pick/20250412060620.56817.122351</pickID><phase>S</phase><azimuth>275.3475646972656</azimuth><distance>1.6202360391616821</distance><timeResidual>-0.05219268798828125</timeResidual><timeUsed>true</timeUsed><horizontalSlownessUsed>false</horizontalSlownessUsed><backazimuthUsed>false</backazimuthUsed><weight>1</weight></arrival><arrival><pickID>de.gempa.tb1.Pick/20250412060623.577675.122355</pickID><phase>S</phase><azimuth>309.98046875</azimuth><distance>1.7959614992141724</distance><timeResidual>0.08301162719726562</timeResidual><timeUsed>true</timeUsed><horizontalSlownessUsed>false</horizontalSlownessUsed><backazimuthUsed>false</backazimuthUsed><weight>1</weight></arrival><arrival><pickID>de.gempa.tb1.Pick/20250412060626.660019.122357</pickID><phase>S</phase><azimuth>296.49639892578125</azimuth><distance>1.9605225324630737</distance><timeResidual>-0.17962265014648438</timeResidual><timeUsed>true</timeUsed><horizontalSlownessUsed>false</horizontalSlownessUsed><backazimuthUsed>false</backazimuthUsed><weight>1</weight></arrival><arrival><pickID>de.gempa.tb1.Pick/20250412060638.967319.122358</pickID><phase>S</phase><azimuth>285.1053771972656</azimuth><distance>1.8028264045715332</distance><timeResidual>0.1480255126953125</timeResidual><timeUsed>true</timeUsed><horizontalSlownessUsed>false</horizontalSlownessUsed><backazimuthUsed>false</backazimuthUsed><weight>1</weight></arrival><magnitude publicID="de.gempa.tb1.Magnitude/20250412060718.972509.185826"><magnitude><value>2.8231385495754213</value></magnitude><type>M</type><methodID>weighted average</methodID><stationCount>2</stationCount></magnitude></origin><event publicID="gempa2025hfak"><preferredOriginID>de.gempa.tb1.Origin/20250412060638.972221.75854</preferredOriginID><preferredMagnitudeID>de.gempa.tb1.Magnitude/20250412060718.972509.185826</preferredMagnitudeID><description><text>Northern Chile</text><type>region name</type></description><originReference>de.gempa.tb1.Origin/20250412060638.972221.75854</originReference></event></EventParameters></seiscomp>