<?xml version="1.0" encoding="UTF-8"?>
<seiscomp xmlns="http://geofon.gfz-potsdam.de/ns/seiscomp3-schema/0.13" version="0.13"><EventParameters><pick publicID="de.gempa.tb1.Pick/20250413140420.648975.131643"><time><value>2025-04-13T14:04:15.528393Z</value></time><waveformID networkCode="CX" stationCode="PB01" channelCode="HHZ"/><filterID>ITAPER(4)&gt;&gt;BW(4,4,20)</filterID><methodID>AIC</methodID><horizontalSlowness><value>1.6734408397927807</value></horizontalSlowness><backazimuth><value>52.14957951062634</value></backazimuth><phaseHint>P</phaseHint><evaluationMode>automatic</evaluationMode><comment><text>27.799588165694523</text><id>DFX:rectilinearity</id></comment><comment><text>77.19241233079181</text><id>SNR</id></comment></pick><pick publicID="de.gempa.tb1.Pick/20250413140425.512791.131645"><time><value>2025-04-13T14:04:19.738393Z</value></time><waveformID networkCode="CX" stationCode="PB02" channelCode="HHZ"/><filterID>ITAPER(4)&gt;&gt;BW(4,4,20)</filterID><methodID>AIC</methodID><horizontalSlowness><value>7.543923129311962</value></horizontalSlowness><backazimuth><value>35.28543705291199</value></backazimuth><phaseHint>P</phaseHint><evaluationMode>automatic</evaluationMode><comment><text>181.2321351175642</text><id>DFX:rectilinearity</id></comment><comment><text>40.224654407314283</text><id>SNR</id></comment></pick><pick publicID="de.gempa.tb1.Pick/20250413140427.382534.131647"><time><value>2025-04-13T14:04:17.96Z</value></time><waveformID networkCode="CX" stationCode="PB09" channelCode="HHZ"/><filterID>ITAPER(4)&gt;&gt;BW(4,4,20)</filterID><methodID>AIC</methodID><horizontalSlowness><value>21.249729300915988</value></horizontalSlowness><backazimuth><value>241.5031739879997</value></backazimuth><phaseHint>P</phaseHint><evaluationMode>automatic</evaluationMode><comment><text>13.372553184863522</text><id>DFX:rectilinearity</id></comment><comment><text>27.68849158483339</text><id>SNR</id></comment></pick><pick publicID="de.gempa.tb1.Pick/20250413140428.564348.131649"><time><value>2025-04-13T14:04:20.548393Z</value></time><waveformID networkCode="CX" stationCode="PB08" channelCode="HHZ"/><filterID>ITAPER(4)&gt;&gt;BW(4,4,20)</filterID><methodID>AIC</methodID><horizontalSlowness><value>15.424159856656916</value></horizontalSlowness><backazimuth><value>89.47706751300232</value></backazimuth><phaseHint>P</phaseHint><evaluationMode>automatic</evaluationMode><comment><text>18.498661803765557</text><id>DFX:rectilinearity</id></comment><comment><text>9.162929720385019</text><id>SNR</id></comment></pick><pick publicID="de.gempa.tb1.Pick/20250413140430.572058.131651"><time><value>2025-04-13T14:04:22.558393Z</value></time><waveformID networkCode="CX" stationCode="PB03" channelCode="HHZ"/><filterID>ITAPER(4)&gt;&gt;BW(4,4,20)</filterID><methodID>AIC</methodID><horizontalSlowness><value>18.530818484680445</value></horizontalSlowness><backazimuth><value>96.47590398341396</value></backazimuth><phaseHint>P</phaseHint><evaluationMode>automatic</evaluationMode><comment><text>9.544275416712408</text><id>DFX:rectilinearity</id></comment><comment><text>14.25613692969016</text><id>SNR</id></comment></pick><pick publicID="de.gempa.tb1.Pick/20250413140431.456355.131653"><time><value>2025-04-13T14:04:22.899998Z</value></time><waveformID networkCode="CX" stationCode="PATCX" channelCode="HHZ"/><filterID>ITAPER(4)&gt;&gt;BW(4,4,20)</filterID><methodID>AIC</methodID><horizontalSlowness><value>23.07369987344262</value></horizontalSlowness><backazimuth><value>50.65121543551388</value></backazimuth><phaseHint>P</phaseHint><evaluationMode>automatic</evaluationMode><comment><text>439.1267260756262</text><id>DFX:rectilinearity</id></comment><comment><text>22.482896171061796</text><id>SNR</id></comment></pick><pick publicID="de.gempa.tb1.Pick/20250413140437.494708.131655"><time><value>2025-04-13T14:04:28.148393Z</value></time><waveformID networkCode="CX" stationCode="PB06" channelCode="HHZ"/><filterID>ITAPER(4)&gt;&gt;BW(4,4,20)</filterID><methodID>AIC</methodID><horizontalSlowness><value>15.29248894727096</value></horizontalSlowness><backazimuth><value>289.72923397431083</value></backazimuth><phaseHint>P</phaseHint><evaluationMode>automatic</evaluationMode><comment><text>70.06301148995612</text><id>DFX:rectilinearity</id></comment><comment><text>9.411649021970714</text><id>SNR</id></comment></pick><pick publicID="de.gempa.tb1.Pick/20250413140438.508604.131657"><time><value>2025-04-13T14:04:30.17Z</value></time><waveformID networkCode="CX" stationCode="PSGCX" channelCode="HHZ"/><filterID>ITAPER(4)&gt;&gt;BW(4,4,20)</filterID><methodID>AIC</methodID><horizontalSlowness><value>4.221090083008727</value></horizontalSlowness><backazimuth><value>168.49773098696048</value></backazimuth><phaseHint>P</phaseHint><evaluationMode>automatic</evaluationMode><comment><text>28.029843215470844</text><id>DFX:rectilinearity</id></comment><comment><text>21.009167399508996</text><id>SNR</id></comment></pick><pick publicID="de.gempa.tb1.Pick/20250413140438.772061.131659"><time><value>2025-04-13T14:04:29.698393Z</value></time><waveformID networkCode="CX" stationCode="PB01" channelCode="HHN"/><filterID>ITAPER(2)&gt;&gt;BW(3,3,20)</filterID><methodID>L2-AIC-GRID</methodID><horizontalSlowness><value>23.41396171296753</value></horizontalSlowness><backazimuth><value>195.38528746997395</value></backazimuth><phaseHint>S</phaseHint><evaluationMode>automatic</evaluationMode><comment><text>214.76256643758867</text><id>DFX:rectilinearity</id></comment><comment><text>de.gempa.tb1.Pick/20250413140420.648975.131643</text><id>RefPickID</id></comment><comment><text>6.733321642621617</text><id>SNR</id></comment></pick><pick publicID="de.gempa.tb1.Pick/20250413140442.602.131660"><time><value>2025-04-13T14:04:36.338393Z</value></time><waveformID networkCode="CX" stationCode="PB02" channelCode="HHN"/><filterID>ITAPER(2)&gt;&gt;BW(3,3,20)</filterID><methodID>L2-AIC-GRID</methodID><horizontalSlowness><value>22.02550151605442</value></horizontalSlowness><backazimuth><value>357.71652547263636</value></backazimuth><phaseHint>S</phaseHint><evaluationMode>automatic</evaluationMode><comment><text>2466.6202610489977</text><id>DFX:rectilinearity</id></comment><comment><text>de.gempa.tb1.Pick/20250413140425.512791.131645</text><id>RefPickID</id></comment><comment><text>5.306639407765783</text><id>SNR</id></comment></pick><pick publicID="de.gempa.tb1.Pick/20250413140446.129272.131663"><time><value>2025-04-13T14:04:36.958393Z</value></time><waveformID networkCode="CX" stationCode="PB08" channelCode="HHN"/><filterID>ITAPER(2)&gt;&gt;BW(3,3,20)</filterID><methodID>L2-AIC-GRID</methodID><horizontalSlowness><value>14.757130311225925</value></horizontalSlowness><backazimuth><value>208.24043444371398</value></backazimuth><phaseHint>S</phaseHint><evaluationMode>automatic</evaluationMode><comment><text>309.3609173900842</text><id>DFX:rectilinearity</id></comment><comment><text>de.gempa.tb1.Pick/20250413140428.564348.131649</text><id>RefPickID</id></comment><comment><text>11.96838977851342</text><id>SNR</id></comment></pick><pick publicID="de.gempa.tb1.Pick/20250413140446.924578.131664"><time><value>2025-04-13T14:04:21.228394Z</value></time><waveformID networkCode="CX" stationCode="PB07" channelCode="HHZ"/><filterID>ITAPER(4)&gt;&gt;BW(4,4,20)</filterID><methodID>AIC</methodID><horizontalSlowness><value>21.857706328155636</value></horizontalSlowness><backazimuth><value>239.6984951621114</value></backazimuth><phaseHint>P</phaseHint><evaluationMode>automatic</evaluationMode><comment><text>187.9662449391802</text><id>DFX:rectilinearity</id></comment><comment><text>18.287899705292094</text><id>SNR</id></comment></pick><pick publicID="de.gempa.tb1.Pick/20250413140447.769684.131666"><time><value>2025-04-13T14:04:40.568393Z</value></time><waveformID networkCode="CX" stationCode="PB03" channelCode="HHN"/><filterID>ITAPER(2)&gt;&gt;BW(3,3,20)</filterID><methodID>L2-AIC-GRID</methodID><horizontalSlowness><value>19.0132208647556</value></horizontalSlowness><backazimuth><value>150.62385225617427</value></backazimuth><phaseHint>S</phaseHint><evaluationMode>automatic</evaluationMode><comment><text>409.00451035465636</text><id>DFX:rectilinearity</id></comment><comment><text>de.gempa.tb1.Pick/20250413140430.572058.131651</text><id>RefPickID</id></comment><comment><text>10.836040175229432</text><id>SNR</id></comment></pick><pick publicID="de.gempa.tb1.Pick/20250413140451.599087.131670"><time><value>2025-04-13T14:04:33.18Z</value></time><waveformID networkCode="CX" stationCode="PB09" channelCode="HHN"/><filterID>ITAPER(2)&gt;&gt;BW(3,3,20)</filterID><methodID>L2-AIC-GRID</methodID><horizontalSlowness><value>17.348664920589915</value></horizontalSlowness><backazimuth><value>297.50969086549776</value></backazimuth><phaseHint>S</phaseHint><evaluationMode>automatic</evaluationMode><comment><text>2746.51667850716</text><id>DFX:rectilinearity</id></comment><comment><text>de.gempa.tb1.Pick/20250413140427.382534.131647</text><id>RefPickID</id></comment><comment><text>6.594821507883753</text><id>SNR</id></comment></pick><pick publicID="de.gempa.tb1.Pick/20250413140453.338646.131672"><time><value>2025-04-13T14:04:38.708394Z</value></time><waveformID networkCode="CX" stationCode="PB07" channelCode="HHN"/><filterID>ITAPER(2)&gt;&gt;BW(3,3,20)</filterID><methodID>L2-AIC-GRID</methodID><horizontalSlowness><value>22.04498210102902</value></horizontalSlowness><backazimuth><value>211.61514143628133</value></backazimuth><phaseHint>S</phaseHint><evaluationMode>automatic</evaluationMode><comment><text>4541.100673381131</text><id>DFX:rectilinearity</id></comment><comment><text>de.gempa.tb1.Pick/20250413140446.924578.131664</text><id>RefPickID</id></comment><comment><text>6.392591567332346</text><id>SNR</id></comment></pick><pick publicID="de.gempa.tb1.Pick/20250413140459.640511.131676"><time><value>2025-04-13T14:04:50.898393Z</value></time><waveformID networkCode="CX" stationCode="PB06" channelCode="HHN"/><filterID>ITAPER(2)&gt;&gt;BW(3,3,20)</filterID><methodID>L2-AIC-GRID</methodID><horizontalSlowness><value>20.123776643085762</value></horizontalSlowness><backazimuth><value>112.49701246441315</value></backazimuth><phaseHint>S</phaseHint><evaluationMode>automatic</evaluationMode><comment><text>219.60437464945483</text><id>DFX:rectilinearity</id></comment><comment><text>de.gempa.tb1.Pick/20250413140437.494708.131655</text><id>RefPickID</id></comment><comment><text>6.996362351037772</text><id>SNR</id></comment></pick><pick publicID="de.gempa.tb1.Pick/20250413140505.589085.131678"><time><value>2025-04-13T14:04:54.7Z</value></time><waveformID networkCode="CX" stationCode="PSGCX" channelCode="HHN"/><filterID>ITAPER(2)&gt;&gt;BW(3,3,20)</filterID><methodID>L2-AIC-GRID</methodID><horizontalSlowness><value>19.620088101457394</value></horizontalSlowness><backazimuth><value>146.2370713429903</value></backazimuth><phaseHint>S</phaseHint><evaluationMode>automatic</evaluationMode><comment><text>235.33429346782756</text><id>DFX:rectilinearity</id></comment><comment><text>de.gempa.tb1.Pick/20250413140438.508604.131657</text><id>RefPickID</id></comment><comment><text>9.068862504588104</text><id>SNR</id></comment></pick><origin publicID="de.gempa.tb1.Origin/20250413140505.595491.112131"><time><value>2025-04-13T14:03:58.594618Z</value><uncertainty>0.7516427040100098</uncertainty></time><latitude><value>-21.109724044799805</value><uncertainty>2.4732344150543213</uncertainty></latitude><longitude><value>-68.92733764648438</value><uncertainty>6.900871753692627</uncertainty></longitude><depth><value>115.9644546508789</value><uncertainty>6.324265956878662</uncertainty></depth><depthType>from location</depthType><methodID>LOCSAT</methodID><earthModelID>iasp91_scanloc</earthModelID><quality><associatedPhaseCount>17</associatedPhaseCount><usedPhaseCount>17</usedPhaseCount><associatedStationCount>9</associatedStationCount><usedStationCount>9</usedStationCount><depthPhaseCount>0</depthPhaseCount><standardError>0.34665167302240074</standardError><azimuthalGap>212.96133422851562</azimuthalGap><maximumDistance>1.8770421743392944</maximumDistance><minimumDistance>0.5272106528282166</minimumDistance><medianDistance>1.084003210067749</medianDistance></quality><uncertainty><minHorizontalUncertainty>5.293013572692871</minHorizontalUncertainty><maxHorizontalUncertainty>14.7958927154541</maxHorizontalUncertainty><azimuthMaxHorizontalUncertainty>91.25499725341797</azimuthMaxHorizontalUncertainty><preferredDescription>horizontal uncertainty</preferredDescription></uncertainty><evaluationMode>automatic</evaluationMode><evaluationStatus>confirmed</evaluationStatus><comment><text>0.00</text><id>mismatchScore</id></comment><comment><text>mismatchScore</text><id>scevalMethod</id></comment><arrival><pickID>de.gempa.tb1.Pick/20250413140420.648975.131643</pickID><phase>P</phase><azimuth>277.1092529296875</azimuth><distance>0.5272106528282166</distance><timeResidual>-0.7713050842285156</timeResidual><timeUsed>true</timeUsed><horizontalSlownessUsed>false</horizontalSlownessUsed><backazimuthUsed>false</backazimuthUsed><weight>1</weight></arrival><arrival><pickID>de.gempa.tb1.Pick/20250413140425.512791.131645</pickID><phase>P</phase><azimuth>256.8080139160156</azimuth><distance>0.9276716709136963</distance><timeResidual>0.1253337860107422</timeResidual><timeUsed>true</timeUsed><horizontalSlownessUsed>false</horizontalSlownessUsed><backazimuthUsed>false</backazimuthUsed><weight>1</weight></arrival><arrival><pickID>de.gempa.tb1.Pick/20250413140427.382534.131647</pickID><phase>P</phase><azimuth>203.15687561035156</azimuth><distance>0.7434683442115784</distance><timeResidual>0.021291732788085938</timeResidual><timeUsed>true</timeUsed><horizontalSlownessUsed>false</horizontalSlownessUsed><backazimuthUsed>false</backazimuthUsed><weight>1</weight></arrival><arrival><pickID>de.gempa.tb1.Pick/20250413140428.564348.131649</pickID><phase>P</phase><azimuth>347.56829833984375</azimuth><distance>0.9867017865180969</distance><timeResidual>0.3515510559082031</timeResidual><timeUsed>true</timeUsed><horizontalSlownessUsed>false</horizontalSlownessUsed><backazimuthUsed>false</backazimuthUsed><weight>1</weight></arrival><arrival><pickID>de.gempa.tb1.Pick/20250413140430.572058.131651</pickID><phase>P</phase><azimuth>219.29591369628906</azimuth><distance>1.2096781730651855</distance><timeResidual>0.04434394836425781</timeResidual><timeUsed>true</timeUsed><horizontalSlownessUsed>false</horizontalSlownessUsed><backazimuthUsed>false</backazimuthUsed><weight>1</weight></arrival><arrival><pickID>de.gempa.tb1.Pick/20250413140431.456355.131653</pickID><phase>P</phase><azimuth>283.8753967285156</azimuth><distance>1.1809296607971191</distance><timeResidual>0.6906661987304688</timeResidual><timeUsed>true</timeUsed><horizontalSlownessUsed>false</horizontalSlownessUsed><backazimuthUsed>false</backazimuthUsed><weight>1</weight></arrival><arrival><pickID>de.gempa.tb1.Pick/20250413140437.494708.131655</pickID><phase>P</phase><azimuth>200.52963256835938</azimuth><distance>1.6973676681518555</distance><timeResidual>-0.0003032684326171875</timeResidual><timeUsed>true</timeUsed><horizontalSlownessUsed>false</horizontalSlownessUsed><backazimuthUsed>false</backazimuthUsed><weight>1</weight></arrival><arrival><pickID>de.gempa.tb1.Pick/20250413140438.508604.131657</pickID><phase>P</phase><azimuth>323.08477783203125</azimuth><distance>1.8770421743392944</distance><timeResidual>-0.19333839416503906</timeResidual><timeUsed>true</timeUsed><horizontalSlownessUsed>false</horizontalSlownessUsed><backazimuthUsed>false</backazimuthUsed><weight>1</weight></arrival><arrival><pickID>de.gempa.tb1.Pick/20250413140438.772061.131659</pickID><phase>S</phase><azimuth>277.1092529296875</azimuth><distance>0.5272106528282166</distance><timeResidual>-0.24582862854003906</timeResidual><timeUsed>true</timeUsed><horizontalSlownessUsed>false</horizontalSlownessUsed><backazimuthUsed>false</backazimuthUsed><weight>1</weight></arrival><arrival><pickID>de.gempa.tb1.Pick/20250413140442.602.131660</pickID><phase>S</phase><azimuth>256.8080139160156</azimuth><distance>0.9276716709136963</distance><timeResidual>0.4904022216796875</timeResidual><timeUsed>true</timeUsed><horizontalSlownessUsed>false</horizontalSlownessUsed><backazimuthUsed>false</backazimuthUsed><weight>1</weight></arrival><arrival><pickID>de.gempa.tb1.Pick/20250413140446.129272.131663</pickID><phase>S</phase><azimuth>347.56829833984375</azimuth><distance>0.9867017865180969</distance><timeResidual>0.07074165344238281</timeResidual><timeUsed>true</timeUsed><horizontalSlownessUsed>false</horizontalSlownessUsed><backazimuthUsed>false</backazimuthUsed><weight>1</weight></arrival><arrival><pickID>de.gempa.tb1.Pick/20250413140446.924578.131664</pickID><phase>P</phase><azimuth>235.3319549560547</azimuth><distance>1.084003210067749</distance><timeResidual>0.05029869079589844</timeResidual><timeUsed>true</timeUsed><horizontalSlownessUsed>false</horizontalSlownessUsed><backazimuthUsed>false</backazimuthUsed><weight>1</weight></arrival><arrival><pickID>de.gempa.tb1.Pick/20250413140447.769684.131666</pickID><phase>S</phase><azimuth>219.29591369628906</azimuth><distance>1.2096781730651855</distance><timeResidual>-0.4574871063232422</timeResidual><timeUsed>true</timeUsed><horizontalSlownessUsed>false</horizontalSlownessUsed><backazimuthUsed>false</backazimuthUsed><weight>1</weight></arrival><arrival><pickID>de.gempa.tb1.Pick/20250413140451.599087.131670</pickID><phase>S</phase><azimuth>203.15687561035156</azimuth><distance>0.7434683442115784</distance><timeResidual>0.31641197204589844</timeResidual><timeUsed>true</timeUsed><horizontalSlownessUsed>false</horizontalSlownessUsed><backazimuthUsed>false</backazimuthUsed><weight>1</weight></arrival><arrival><pickID>de.gempa.tb1.Pick/20250413140453.338646.131672</pickID><phase>S</phase><azimuth>235.3319549560547</azimuth><distance>1.084003210067749</distance><timeResidual>0.06772422790527344</timeResidual><timeUsed>true</timeUsed><horizontalSlownessUsed>false</horizontalSlownessUsed><backazimuthUsed>false</backazimuthUsed><weight>1</weight></arrival><arrival><pickID>de.gempa.tb1.Pick/20250413140459.640511.131676</pickID><phase>S</phase><azimuth>200.52963256835938</azimuth><distance>1.6973676681518555</distance><timeResidual>-0.2006702423095703</timeResidual><timeUsed>true</timeUsed><horizontalSlownessUsed>false</horizontalSlownessUsed><backazimuthUsed>false</backazimuthUsed><weight>1</weight></arrival><arrival><pickID>de.gempa.tb1.Pick/20250413140505.589085.131678</pickID><phase>S</phase><azimuth>323.08477783203125</azimuth><distance>1.8770421743392944</distance><timeResidual>-0.35929298400878906</timeResidual><timeUsed>true</timeUsed><horizontalSlownessUsed>false</horizontalSlownessUsed><backazimuthUsed>false</backazimuthUsed><weight>1</weight></arrival><magnitude publicID="de.gempa.tb1.Magnitude/20250413140510.942557.365546"><magnitude><value>2.542698381691562</value></magnitude><type>M</type><methodID>weighted average</methodID><stationCount>7</stationCount></magnitude></origin><event publicID="gempa2025hhmk"><preferredOriginID>de.gempa.tb1.Origin/20250413140505.595491.112131</preferredOriginID><preferredMagnitudeID>de.gempa.tb1.Magnitude/20250413140510.942557.365546</preferredMagnitudeID><description><text>Chile-Bolivia Border Region</text><type>region name</type></description><originReference>de.gempa.tb1.Origin/20250413140505.595491.112131</originReference></event></EventParameters></seiscomp>