<?xml version="1.0" encoding="UTF-8"?>
<seiscomp xmlns="http://geofon.gfz-potsdam.de/ns/seiscomp3-schema/0.13" version="0.13"><EventParameters><pick publicID="de.gempa.tb1.Pick/20250412193719.666653.126319"><time><value>2025-04-12T19:37:13.098393Z</value></time><waveformID networkCode="CX" stationCode="PB06" channelCode="HHZ"/><filterID>ITAPER(4)&gt;&gt;BW(4,4,20)</filterID><methodID>AIC</methodID><horizontalSlowness><value>15.913751929338483</value></horizontalSlowness><backazimuth><value>102.30047152730097</value></backazimuth><phaseHint>P</phaseHint><evaluationMode>automatic</evaluationMode><comment><text>1868.0913921183155</text><id>DFX:rectilinearity</id></comment><comment><text>62.33630638552818</text><id>SNR</id></comment></pick><pick publicID="de.gempa.tb1.Pick/20250412193721.794431.126321"><time><value>2025-04-12T19:37:15.758394Z</value></time><waveformID networkCode="CX" stationCode="PB15" channelCode="HHZ"/><filterID>ITAPER(4)&gt;&gt;BW(4,4,20)</filterID><methodID>AIC</methodID><horizontalSlowness><value>21.428137510257592</value></horizontalSlowness><backazimuth><value>41.82555374931573</value></backazimuth><phaseHint>P</phaseHint><evaluationMode>automatic</evaluationMode><comment><text>3402.6976587643026</text><id>DFX:rectilinearity</id></comment><comment><text>23.574934935255214</text><id>SNR</id></comment></pick><pick publicID="de.gempa.tb1.Pick/20250412193730.5694.126323"><time><value>2025-04-12T19:37:24.308393Z</value></time><waveformID networkCode="CX" stationCode="PB03" channelCode="HHZ"/><filterID>ITAPER(4)&gt;&gt;BW(4,4,20)</filterID><methodID>AIC</methodID><horizontalSlowness><value>15.150913998955152</value></horizontalSlowness><backazimuth><value>156.3321430356919</value></backazimuth><phaseHint>P</phaseHint><evaluationMode>automatic</evaluationMode><comment><text>339.03642609475196</text><id>DFX:rectilinearity</id></comment><comment><text>81.20712179617485</text><id>SNR</id></comment></pick><pick publicID="de.gempa.tb1.Pick/20250412193731.932711.126325"><time><value>2025-04-12T19:37:21.888394Z</value></time><waveformID networkCode="CX" stationCode="PB15" channelCode="HHN"/><filterID>ITAPER(2)&gt;&gt;BW(3,3,20)</filterID><methodID>L2-AIC-GRID</methodID><horizontalSlowness><value>21.361454960690118</value></horizontalSlowness><backazimuth><value>95.82308085585072</value></backazimuth><phaseHint>S</phaseHint><evaluationMode>automatic</evaluationMode><comment><text>782442.7052081879</text><id>DFX:rectilinearity</id></comment><comment><text>de.gempa.tb1.Pick/20250412193721.794431.126321</text><id>RefPickID</id></comment><comment><text>5.798032344109727</text><id>SNR</id></comment></pick><pick publicID="de.gempa.tb1.Pick/20250412193737.610617.126326"><time><value>2025-04-12T19:37:28.97Z</value></time><waveformID networkCode="CX" stationCode="PB19" channelCode="HHZ"/><filterID>ITAPER(4)&gt;&gt;BW(4,4,20)</filterID><methodID>AIC</methodID><horizontalSlowness><value>16.886667747115137</value></horizontalSlowness><backazimuth><value>190.69871334850939</value></backazimuth><phaseHint>P</phaseHint><evaluationMode>automatic</evaluationMode><comment><text>48.36975674711918</text><id>DFX:rectilinearity</id></comment><comment><text>15.15999097052639</text><id>SNR</id></comment></pick><origin publicID="de.gempa.tb1.Origin/20250412193737.613584.90679"><time><value>2025-04-12T19:37:07.943103Z</value><uncertainty>0.9494459629058838</uncertainty></time><latitude><value>-22.90057373046875</value><uncertainty>3.6974802017211914</uncertainty></latitude><longitude><value>-69.77835845947266</value><uncertainty>9.016658782958984</uncertainty></longitude><depth><value>0</value></depth><depthType>operator assigned</depthType><methodID>LOCSAT</methodID><earthModelID>iasp91_scanloc</earthModelID><quality><associatedPhaseCount>5</associatedPhaseCount><usedPhaseCount>5</usedPhaseCount><associatedStationCount>4</associatedStationCount><usedStationCount>4</usedStationCount><depthPhaseCount>0</depthPhaseCount><standardError>0.11385807019562073</standardError><azimuthalGap>205.6311413049698</azimuthalGap><maximumDistance>1.0954108238220215</maximumDistance><minimumDistance>0.2718176245689392</minimumDistance><medianDistance>0.41716456413269043</medianDistance></quality><uncertainty><minHorizontalUncertainty>5.848976135253906</minHorizontalUncertainty><maxHorizontalUncertainty>20.06450653076172</maxHorizontalUncertainty><azimuthMaxHorizontalUncertainty>73.80165100097656</azimuthMaxHorizontalUncertainty><preferredDescription>horizontal uncertainty</preferredDescription></uncertainty><evaluationMode>automatic</evaluationMode><evaluationStatus>confirmed</evaluationStatus><comment><text>0.04</text><id>mismatchScore</id></comment><comment><text>mismatchScore</text><id>scevalMethod</id></comment><arrival><pickID>de.gempa.tb1.Pick/20250412193719.666653.126319</pickID><phase>P</phase><azimuth>44.54429626464844</azimuth><distance>0.2718176245689392</distance><timeResidual>-0.05860757827758789</timeResidual><timeUsed>true</timeUsed><horizontalSlownessUsed>false</horizontalSlownessUsed><backazimuthUsed>false</backazimuthUsed><weight>1</weight></arrival><arrival><pickID>de.gempa.tb1.Pick/20250412193721.794431.126321</pickID><phase>P</phase><azimuth>137.3087615966797</azimuth><distance>0.41716456413269043</distance><timeResidual>-0.18577051162719727</timeResidual><timeUsed>true</timeUsed><horizontalSlownessUsed>false</horizontalSlownessUsed><backazimuthUsed>false</backazimuthUsed><weight>1</weight></arrival><arrival><pickID>de.gempa.tb1.Pick/20250412193730.5694.126323</pickID><phase>P</phase><azimuth>1.5829998254776</azimuth><distance>0.8483754396438599</distance><timeResidual>0.09214639663696289</timeResidual><timeUsed>true</timeUsed><horizontalSlownessUsed>false</horizontalSlownessUsed><backazimuthUsed>false</backazimuthUsed><weight>1</weight></arrival><arrival><pickID>de.gempa.tb1.Pick/20250412193731.932711.126325</pickID><phase>S</phase><azimuth>137.3087615966797</azimuth><distance>0.41716456413269043</distance><timeResidual>0.1343855857849121</timeResidual><timeUsed>true</timeUsed><horizontalSlownessUsed>false</horizontalSlownessUsed><backazimuthUsed>false</backazimuthUsed><weight>1</weight></arrival><arrival><pickID>de.gempa.tb1.Pick/20250412193737.610617.126326</pickID><phase>P</phase><azimuth>155.9518585205078</azimuth><distance>1.0954108238220215</distance><timeResidual>0.01795339584350586</timeResidual><timeUsed>true</timeUsed><horizontalSlownessUsed>false</horizontalSlownessUsed><backazimuthUsed>false</backazimuthUsed><weight>1</weight></arrival><magnitude publicID="de.gempa.tb1.Magnitude/20250412193756.900795.271180"><magnitude><value>2.3402206587904617</value></magnitude><type>M</type><methodID>weighted average</methodID><stationCount>4</stationCount></magnitude></origin><event publicID="gempa2025hgbm"><preferredOriginID>de.gempa.tb1.Origin/20250412193737.613584.90679</preferredOriginID><preferredMagnitudeID>de.gempa.tb1.Magnitude/20250412193756.900795.271180</preferredMagnitudeID><description><text>Northern Chile</text><type>region name</type></description><originReference>de.gempa.tb1.Origin/20250412193737.613584.90679</originReference></event></EventParameters></seiscomp>