<?xml version="1.0" encoding="UTF-8"?>
<seiscomp xmlns="http://geofon.gfz-potsdam.de/ns/seiscomp3-schema/0.13" version="0.13"><EventParameters><pick publicID="de.gempa.tb1.Pick/20250413193257.600109.133457"><time><value>2025-04-13T19:32:50.018393Z</value></time><waveformID networkCode="CX" stationCode="PB06" channelCode="HHZ"/><filterID>ITAPER(4)&gt;&gt;BW(4,4,20)</filterID><methodID>AIC</methodID><horizontalSlowness><value>9.338561177774739</value></horizontalSlowness><backazimuth><value>95.08586855166695</value></backazimuth><phaseHint>P</phaseHint><evaluationMode>automatic</evaluationMode><comment><text>29.48326798258782</text><id>DFX:rectilinearity</id></comment><comment><text>14.565946764723558</text><id>SNR</id></comment></pick><pick publicID="de.gempa.tb1.Pick/20250413193258.574894.133459"><time><value>2025-04-13T19:32:50.858394Z</value></time><waveformID networkCode="CX" stationCode="PB03" channelCode="HHZ"/><filterID>ITAPER(4)&gt;&gt;BW(4,4,20)</filterID><methodID>AIC</methodID><horizontalSlowness><value>15.094182791327858</value></horizontalSlowness><backazimuth><value>124.87451510841733</value></backazimuth><phaseHint>P</phaseHint><evaluationMode>automatic</evaluationMode><comment><text>9.535100908224962</text><id>DFX:rectilinearity</id></comment><comment><text>22.328414525843726</text><id>SNR</id></comment></pick><pick publicID="de.gempa.tb1.Pick/20250413193259.986274.133462"><time><value>2025-04-13T19:32:43.05Z</value></time><waveformID networkCode="CX" stationCode="PB09" channelCode="HHZ"/><filterID>ITAPER(4)&gt;&gt;BW(4,4,20)</filterID><methodID>AIC</methodID><horizontalSlowness><value>17.68715029183366</value></horizontalSlowness><backazimuth><value>311.8786471152034</value></backazimuth><phaseHint>P</phaseHint><evaluationMode>automatic</evaluationMode><comment><text>12.37924244074598</text><id>DFX:rectilinearity</id></comment><comment><text>59.56557932468251</text><id>SNR</id></comment></pick><pick publicID="de.gempa.tb1.Pick/20250413193302.612218.133465"><time><value>2025-04-13T19:32:52.978396Z</value></time><waveformID networkCode="CX" stationCode="PB07" channelCode="HHZ"/><filterID>ITAPER(4)&gt;&gt;BW(4,4,20)</filterID><methodID>AIC</methodID><horizontalSlowness><value>19.925351104160153</value></horizontalSlowness><backazimuth><value>112.80678380726285</value></backazimuth><phaseHint>P</phaseHint><evaluationMode>automatic</evaluationMode><comment><text>302.18775611272986</text><id>DFX:rectilinearity</id></comment><comment><text>20.348837516706475</text><id>SNR</id></comment></pick><pick publicID="de.gempa.tb1.Pick/20250413193302.613899.133467"><time><value>2025-04-13T19:32:56.818393Z</value></time><waveformID networkCode="CX" stationCode="PB15" channelCode="HHZ"/><filterID>ITAPER(4)&gt;&gt;BW(4,4,20)</filterID><methodID>AIC</methodID><horizontalSlowness><value>20.641082667108364</value></horizontalSlowness><backazimuth><value>72.89628653858772</value></backazimuth><phaseHint>P</phaseHint><evaluationMode>automatic</evaluationMode><comment><text>277.3331952625813</text><id>DFX:rectilinearity</id></comment><comment><text>16.128858734096951</text><id>SNR</id></comment></pick><pick publicID="de.gempa.tb1.Pick/20250413193306.518524.133469"><time><value>2025-04-13T19:32:59.868393Z</value></time><waveformID networkCode="CX" stationCode="PB02" channelCode="HHZ"/><filterID>ITAPER(4)&gt;&gt;BW(4,4,20)</filterID><methodID>AIC</methodID><horizontalSlowness><value>17.548068154737145</value></horizontalSlowness><backazimuth><value>73.64705347760504</value></backazimuth><phaseHint>P</phaseHint><evaluationMode>automatic</evaluationMode><comment><text>50.17391597628332</text><id>DFX:rectilinearity</id></comment><comment><text>9.489462225337457</text><id>SNR</id></comment></pick><pick publicID="de.gempa.tb1.Pick/20250413193314.627132.133473"><time><value>2025-04-13T19:33:08.119998Z</value></time><waveformID networkCode="CX" stationCode="PB19" channelCode="HHZ"/><filterID>ITAPER(4)&gt;&gt;BW(4,4,20)</filterID><methodID>AIC</methodID><horizontalSlowness><value>20.431619085871837</value></horizontalSlowness><backazimuth><value>197.41515510343163</value></backazimuth><phaseHint>P</phaseHint><evaluationMode>automatic</evaluationMode><comment><text>25.92635079361727</text><id>DFX:rectilinearity</id></comment><comment><text>48.00072620045516</text><id>SNR</id></comment></pick><pick publicID="de.gempa.tb1.Pick/20250413193318.627791.133475"><time><value>2025-04-13T19:33:01.348393Z</value></time><waveformID networkCode="CX" stationCode="PB06" channelCode="HHN"/><filterID>ITAPER(2)&gt;&gt;BW(3,3,20)</filterID><methodID>L2-AIC-GRID</methodID><horizontalSlowness><value>14.11348665605372</value></horizontalSlowness><backazimuth><value>72.72169685253364</value></backazimuth><phaseHint>S</phaseHint><evaluationMode>automatic</evaluationMode><comment><text>280.7977404021009</text><id>DFX:rectilinearity</id></comment><comment><text>de.gempa.tb1.Pick/20250413193257.600109.133457</text><id>RefPickID</id></comment><comment><text>6.021369372996316</text><id>SNR</id></comment></pick><pick publicID="de.gempa.tb1.Pick/20250413193319.173894.133476"><time><value>2025-04-13T19:33:12.239998Z</value></time><waveformID networkCode="CX" stationCode="PB10" channelCode="HHZ"/><filterID>ITAPER(4)&gt;&gt;BW(4,4,20)</filterID><methodID>AIC</methodID><horizontalSlowness><value>5.102426156537375</value></horizontalSlowness><backazimuth><value>71.70200147040715</value></backazimuth><phaseHint>P</phaseHint><evaluationMode>automatic</evaluationMode><comment><text>69.57839551927852</text><id>DFX:rectilinearity</id></comment><comment><text>5.960160995138052</text><id>SNR</id></comment></pick><pick publicID="de.gempa.tb1.Pick/20250413193319.773722.133478"><time><value>2025-04-13T19:32:59.408394Z</value></time><waveformID networkCode="CX" stationCode="PB03" channelCode="HHN"/><filterID>ITAPER(2)&gt;&gt;BW(3,3,20)</filterID><methodID>L2-AIC-GRID</methodID><horizontalSlowness><value>21.197548514855423</value></horizontalSlowness><backazimuth><value>95.66849507363169</value></backazimuth><phaseHint>S</phaseHint><evaluationMode>automatic</evaluationMode><comment><text>89.86765099914233</text><id>DFX:rectilinearity</id></comment><comment><text>de.gempa.tb1.Pick/20250413193258.574894.133459</text><id>RefPickID</id></comment><comment><text>5.812043646679475</text><id>SNR</id></comment></pick><origin publicID="de.gempa.tb1.Origin/20250413193320.189657.118416"><time><value>2025-04-13T19:32:36.061553Z</value><uncertainty>0.6803171634674072</uncertainty></time><latitude><value>-22.156612396240234</value><uncertainty>2.6791694164276123</uncertainty></latitude><longitude><value>-68.99452209472656</value><uncertainty>4.3602519035339355</uncertainty></longitude><depth><value>0</value></depth><depthType>operator assigned</depthType><methodID>LOCSAT</methodID><earthModelID>iasp91_scanloc</earthModelID><quality><associatedPhaseCount>10</associatedPhaseCount><usedPhaseCount>10</usedPhaseCount><associatedStationCount>8</associatedStationCount><usedStationCount>8</usedStationCount><depthPhaseCount>0</depthPhaseCount><standardError>0.9408800651996212</standardError><azimuthalGap>221.5413818359375</azimuthalGap><maximumDistance>1.9732240438461304</maximumDistance><minimumDistance>0.42573338747024536</minimumDistance><medianDistance>0.9318676590919495</medianDistance></quality><uncertainty><minHorizontalUncertainty>5.586150169372559</minHorizontalUncertainty><maxHorizontalUncertainty>9.449496269226074</maxHorizontalUncertainty><azimuthMaxHorizontalUncertainty>79.8033218383789</azimuthMaxHorizontalUncertainty><preferredDescription>horizontal uncertainty</preferredDescription></uncertainty><evaluationMode>automatic</evaluationMode><evaluationStatus>confirmed</evaluationStatus><comment><text>0.08</text><id>mismatchScore</id></comment><comment><text>mismatchScore</text><id>scevalMethod</id></comment><arrival><pickID>de.gempa.tb1.Pick/20250413193257.600109.133457</pickID><phase>P</phase><azimuth>224.2344207763672</azimuth><distance>0.7642620205879211</distance><timeResidual>-0.7016510963439941</timeResidual><timeUsed>true</timeUsed><horizontalSlownessUsed>false</horizontalSlownessUsed><backazimuthUsed>false</backazimuthUsed><weight>1</weight></arrival><arrival><pickID>de.gempa.tb1.Pick/20250413193258.574894.133459</pickID><phase>P</phase><azimuth>278.5557861328125</azimuth><distance>0.7116777300834656</distance><timeResidual>1.1461944580078125</timeResidual><timeUsed>true</timeUsed><horizontalSlownessUsed>false</horizontalSlownessUsed><backazimuthUsed>false</backazimuthUsed><weight>1</weight></arrival><arrival><pickID>de.gempa.tb1.Pick/20250413193259.986274.133462</pickID><phase>P</phase><azimuth>327.311767578125</azimuth><distance>0.42573338747024536</distance><timeResidual>-1.1779885292053223</timeResidual><timeUsed>true</timeUsed><horizontalSlownessUsed>false</horizontalSlownessUsed><backazimuthUsed>false</backazimuthUsed><weight>1</weight></arrival><arrival><pickID>de.gempa.tb1.Pick/20250413193302.612218.133465</pickID><phase>P</phase><azimuth>297.1656494140625</azimuth><distance>0.9318676590919495</distance><timeResidual>-0.9575924873352051</timeResidual><timeUsed>true</timeUsed><horizontalSlownessUsed>false</horizontalSlownessUsed><backazimuthUsed>false</backazimuthUsed><weight>1</weight></arrival><arrival><pickID>de.gempa.tb1.Pick/20250413193302.613899.133467</pickID><phase>P</phase><azimuth>202.7075653076172</azimuth><distance>1.1354670524597168</distance><timeResidual>-1.0209145545959473</timeResidual><timeUsed>true</timeUsed><horizontalSlownessUsed>false</horizontalSlownessUsed><backazimuthUsed>false</backazimuthUsed><weight>1</weight></arrival><arrival><pickID>de.gempa.tb1.Pick/20250413193306.518524.133469</pickID><phase>P</phase><azimuth>314.6494140625</azimuth><distance>1.1815489530563354</distance><timeResidual>1.142951488494873</timeResidual><timeUsed>true</timeUsed><horizontalSlownessUsed>false</horizontalSlownessUsed><backazimuthUsed>false</backazimuthUsed><weight>1</weight></arrival><arrival><pickID>de.gempa.tb1.Pick/20250413193314.627132.133473</pickID><phase>P</phase><azimuth>188.8531494140625</azimuth><distance>1.7612719535827637</distance><timeResidual>0.29970312118530273</timeResidual><timeUsed>true</timeUsed><horizontalSlownessUsed>false</horizontalSlownessUsed><backazimuthUsed>false</backazimuthUsed><weight>1</weight></arrival><arrival><pickID>de.gempa.tb1.Pick/20250413193318.627791.133475</pickID><phase>S</phase><azimuth>224.2344207763672</azimuth><distance>0.7642620205879211</distance><timeResidual>-0.016075611114501953</timeResidual><timeUsed>true</timeUsed><horizontalSlownessUsed>false</horizontalSlownessUsed><backazimuthUsed>false</backazimuthUsed><weight>1</weight></arrival><arrival><pickID>de.gempa.tb1.Pick/20250413193319.173894.133476</pickID><phase>P</phase><azimuth>226.5152282714844</azimuth><distance>1.9732240438461304</distance><timeResidual>1.5020766258239746</timeResidual><timeUsed>true</timeUsed><horizontalSlownessUsed>false</horizontalSlownessUsed><backazimuthUsed>false</backazimuthUsed><weight>1</weight></arrival><arrival><pickID>de.gempa.tb1.Pick/20250413193319.773722.133478</pickID><phase>S</phase><azimuth>278.5557861328125</azimuth><distance>0.7116777300834656</distance><timeResidual>-0.21660470962524414</timeResidual><timeUsed>true</timeUsed><horizontalSlownessUsed>false</horizontalSlownessUsed><backazimuthUsed>false</backazimuthUsed><weight>1</weight></arrival><magnitude publicID="de.gempa.tb1.Magnitude/20250413193406.828297.394354"><magnitude><value>2.5240016861425705</value></magnitude><type>M</type><methodID>weighted average</methodID><stationCount>6</stationCount></magnitude></origin><event publicID="gempa2025hhxj"><preferredOriginID>de.gempa.tb1.Origin/20250413193320.189657.118416</preferredOriginID><preferredMagnitudeID>de.gempa.tb1.Magnitude/20250413193406.828297.394354</preferredMagnitudeID><description><text>Northern Chile</text><type>region name</type></description><originReference>de.gempa.tb1.Origin/20250413193320.189657.118416</originReference></event></EventParameters></seiscomp>