<?xml version="1.0" encoding="UTF-8"?>
<seiscomp xmlns="http://geofon.gfz-potsdam.de/ns/seiscomp3-schema/0.13" version="0.13"><EventParameters><pick publicID="de.gempa.tb1.Pick/20250412031753.538408.121574"><time><value>2025-04-12T03:17:48.11Z</value></time><waveformID networkCode="CX" stationCode="PB19" channelCode="HHZ"/><filterID>ITAPER(4)&gt;&gt;BW(4,4,20)</filterID><methodID>AIC</methodID><horizontalSlowness><value>10.294730317872819</value></horizontalSlowness><backazimuth><value>217.23362865703137</value></backazimuth><phaseHint>P</phaseHint><evaluationMode>automatic</evaluationMode><comment><text>68.89702325710401</text><id>DFX:rectilinearity</id></comment><comment><text>12.225953374213386</text><id>SNR</id></comment></pick><pick publicID="de.gempa.tb1.Pick/20250412031757.724209.121576"><time><value>2025-04-12T03:17:51.098393Z</value></time><waveformID networkCode="CX" stationCode="PB15" channelCode="HHZ"/><filterID>ITAPER(4)&gt;&gt;BW(4,4,20)</filterID><methodID>AIC</methodID><horizontalSlowness><value>21.280443889154295</value></horizontalSlowness><backazimuth><value>143.59631061492445</value></backazimuth><phaseHint>P</phaseHint><evaluationMode>automatic</evaluationMode><comment><text>293.50535608142445</text><id>DFX:rectilinearity</id></comment><comment><text>10.932580098499669</text><id>SNR</id></comment></pick><pick publicID="de.gempa.tb1.Pick/20250412031801.628528.121578"><time><value>2025-04-12T03:17:54.218393Z</value></time><waveformID networkCode="CX" stationCode="PB06" channelCode="HHZ"/><filterID>ITAPER(4)&gt;&gt;BW(4,4,20)</filterID><methodID>AIC</methodID><horizontalSlowness><value>16.16026305197882</value></horizontalSlowness><backazimuth><value>307.2949138563529</value></backazimuth><phaseHint>P</phaseHint><evaluationMode>automatic</evaluationMode><comment><text>123.49135846970876</text><id>DFX:rectilinearity</id></comment><comment><text>9.3879246143802</text><id>SNR</id></comment></pick><pick publicID="de.gempa.tb1.Pick/20250412031805.541852.121580"><time><value>2025-04-12T03:17:59.118391Z</value></time><waveformID networkCode="CX" stationCode="PB03" channelCode="HHZ"/><filterID>ITAPER(4)&gt;&gt;BW(4,4,20)</filterID><methodID>AIC</methodID><horizontalSlowness><value>15.54479771475867</value></horizontalSlowness><backazimuth><value>155.02653596054276</value></backazimuth><phaseHint>P</phaseHint><evaluationMode>automatic</evaluationMode><comment><text>12.908177530951768</text><id>DFX:rectilinearity</id></comment><comment><text>11.174028740478144</text><id>SNR</id></comment></pick><pick publicID="de.gempa.tb1.Pick/20250412031819.170451.121584"><time><value>2025-04-12T03:17:58.23Z</value></time><waveformID networkCode="CX" stationCode="PB09" channelCode="HHZ"/><filterID>ITAPER(4)&gt;&gt;BW(4,4,20)</filterID><methodID>AIC</methodID><horizontalSlowness><value>18.783397796527112</value></horizontalSlowness><backazimuth><value>279.043074731297</value></backazimuth><phaseHint>P</phaseHint><evaluationMode>automatic</evaluationMode><comment><text>18.81945881343026</text><id>DFX:rectilinearity</id></comment><comment><text>24.89176396668374</text><id>SNR</id></comment></pick><pick publicID="de.gempa.tb1.Pick/20250412031829.169394.121590"><time><value>2025-04-12T03:18:03.238393Z</value></time><waveformID networkCode="CX" stationCode="PB07" channelCode="HHZ"/><filterID>ITAPER(4)&gt;&gt;BW(4,4,20)</filterID><methodID>AIC</methodID><horizontalSlowness><value>21.901191572166702</value></horizontalSlowness><backazimuth><value>287.6314318221821</value></backazimuth><phaseHint>P</phaseHint><evaluationMode>automatic</evaluationMode><comment><text>210.42617853295326</text><id>DFX:rectilinearity</id></comment><comment><text>4.170507815110624</text><id>SNR</id></comment></pick><origin publicID="de.gempa.tb1.Origin/20250412031830.386851.72568"><time><value>2025-04-12T03:17:15.817657Z</value><uncertainty>5.728696823120117</uncertainty></time><latitude><value>-23.53749656677246</value><uncertainty>16.692678451538086</uncertainty></latitude><longitude><value>-67.34747314453125</value><uncertainty>47.35604858398438</uncertainty></longitude><depth><value>0</value></depth><depthType>operator assigned</depthType><methodID>LOCSAT</methodID><earthModelID>iasp91_scanloc</earthModelID><quality><associatedPhaseCount>6</associatedPhaseCount><usedPhaseCount>6</usedPhaseCount><associatedStationCount>6</associatedStationCount><usedStationCount>6</usedStationCount><depthPhaseCount>0</depthPhaseCount><standardError>0.7231621200273608</standardError><azimuthalGap>303.6568603515625</azimuthalGap><maximumDistance>2.957845687866211</maximumDistance><minimumDistance>1.8180533647537231</minimumDistance><medianDistance>2.4626269340515137</medianDistance></quality><uncertainty><minHorizontalUncertainty>21.478473663330078</minHorizontalUncertainty><maxHorizontalUncertainty>105.5311508178711</maxHorizontalUncertainty><azimuthMaxHorizontalUncertainty>106.0950698852539</azimuthMaxHorizontalUncertainty><preferredDescription>horizontal uncertainty</preferredDescription></uncertainty><evaluationMode>automatic</evaluationMode><evaluationStatus>confirmed</evaluationStatus><comment><text>0.01</text><id>mismatchScore</id></comment><comment><text>mismatchScore</text><id>scevalMethod</id></comment><arrival><pickID>de.gempa.tb1.Pick/20250412031753.538408.121574</pickID><phase>P</phase><azimuth>258.0111389160156</azimuth><distance>1.8180533647537231</distance><timeResidual>-0.247833251953125</timeResidual><timeUsed>true</timeUsed><horizontalSlownessUsed>false</horizontalSlownessUsed><backazimuthUsed>false</backazimuthUsed><weight>1</weight></arrival><arrival><pickID>de.gempa.tb1.Pick/20250412031757.724209.121576</pickID><phase>P</phase><azimuth>279.11199951171875</azimuth><distance>1.9785445928573608</distance><timeResidual>0.5309429168701172</timeResidual><timeUsed>true</timeUsed><horizontalSlownessUsed>false</horizontalSlownessUsed><backazimuthUsed>false</backazimuthUsed><weight>1</weight></arrival><arrival><pickID>de.gempa.tb1.Pick/20250412031801.628528.121578</pickID><phase>P</phase><azimuth>291.5739440917969</azimuth><distance>2.208784818649292</distance><timeResidual>0.4816074371337891</timeResidual><timeUsed>true</timeUsed><horizontalSlownessUsed>false</horizontalSlownessUsed><backazimuthUsed>false</backazimuthUsed><weight>1</weight></arrival><arrival><pickID>de.gempa.tb1.Pick/20250412031805.541852.121580</pickID><phase>P</phase><azimuth>303.25830078125</azimuth><distance>2.6691296100616455</distance><timeResidual>-0.9547500610351562</timeResidual><timeUsed>true</timeUsed><horizontalSlownessUsed>false</horizontalSlownessUsed><backazimuthUsed>false</backazimuthUsed><weight>1</weight></arrival><arrival><pickID>de.gempa.tb1.Pick/20250412031819.170451.121584</pickID><phase>P</phase><azimuth>314.3542785644531</azimuth><distance>2.4626269340515137</distance><timeResidual>0.9985389709472656</timeResidual><timeUsed>true</timeUsed><horizontalSlownessUsed>false</horizontalSlownessUsed><backazimuthUsed>false</backazimuthUsed><weight>1</weight></arrival><arrival><pickID>de.gempa.tb1.Pick/20250412031829.169394.121590</pickID><phase>P</phase><azimuth>307.046630859375</azimuth><distance>2.957845687866211</distance><timeResidual>-0.8086318969726562</timeResidual><timeUsed>true</timeUsed><horizontalSlownessUsed>false</horizontalSlownessUsed><backazimuthUsed>false</backazimuthUsed><weight>1</weight></arrival><magnitude publicID="de.gempa.tb1.Magnitude/20250412032021.475534.168230"><magnitude><value>2.973315709658921</value></magnitude><type>M</type><methodID>weighted average</methodID><stationCount>6</stationCount></magnitude></origin><event publicID="gempa2025heuu"><preferredOriginID>de.gempa.tb1.Origin/20250412031830.386851.72568</preferredOriginID><preferredMagnitudeID>de.gempa.tb1.Magnitude/20250412032021.475534.168230</preferredMagnitudeID><description><text>Chile-Argentina Border Region</text><type>region name</type></description><originReference>de.gempa.tb1.Origin/20250412031830.386851.72568</originReference></event></EventParameters></seiscomp>