<?xml version="1.0" encoding="UTF-8"?>
<seiscomp xmlns="http://geofon.gfz-potsdam.de/ns/seiscomp3-schema/0.13" version="0.13"><EventParameters><pick publicID="de.gempa.tb1.Pick/20250415013613.586621.142702"><time><value>2025-04-15T01:36:09.09Z</value></time><waveformID networkCode="CX" stationCode="PB19" channelCode="HHZ"/><filterID>ITAPER(4)&gt;&gt;BW(4,4,20)</filterID><methodID>AIC</methodID><horizontalSlowness><value>20.771573211226137</value></horizontalSlowness><backazimuth><value>233.4669036485846</value></backazimuth><phaseHint>P</phaseHint><evaluationMode>automatic</evaluationMode><comment><text>38.82480787984032</text><id>DFX:rectilinearity</id></comment><comment><text>14.805349187258873</text><id>SNR</id></comment></pick><pick publicID="de.gempa.tb1.Pick/20250415013619.721889.142704"><time><value>2025-04-15T01:36:12.038393Z</value></time><waveformID networkCode="CX" stationCode="PB15" channelCode="HHZ"/><filterID>ITAPER(4)&gt;&gt;BW(4,4,20)</filterID><methodID>AIC</methodID><horizontalSlowness><value>20.46104184635839</value></horizontalSlowness><backazimuth><value>132.90634843738624</value></backazimuth><phaseHint>P</phaseHint><evaluationMode>automatic</evaluationMode><comment><text>157.10305345904857</text><id>DFX:rectilinearity</id></comment><comment><text>12.277324414774386</text><id>SNR</id></comment></pick><pick publicID="de.gempa.tb1.Pick/20250415013620.592153.142706"><time><value>2025-04-15T01:36:15.048393Z</value></time><waveformID networkCode="CX" stationCode="PB06" channelCode="HHZ"/><filterID>ITAPER(4)&gt;&gt;BW(4,4,20)</filterID><methodID>AIC</methodID><horizontalSlowness><value>7.89139538132737</value></horizontalSlowness><backazimuth><value>9.07349220060712</value></backazimuth><phaseHint>P</phaseHint><evaluationMode>automatic</evaluationMode><comment><text>122.05770776421033</text><id>DFX:rectilinearity</id></comment><comment><text>16.117734196465634</text><id>SNR</id></comment></pick><pick publicID="de.gempa.tb1.Pick/20250415013628.532664.142708"><time><value>2025-04-15T01:36:20.488393Z</value></time><waveformID networkCode="CX" stationCode="PB03" channelCode="HHZ"/><filterID>ITAPER(4)&gt;&gt;BW(4,4,20)</filterID><methodID>AIC</methodID><horizontalSlowness><value>22.92236199947032</value></horizontalSlowness><backazimuth><value>59.78752285958333</value></backazimuth><phaseHint>P</phaseHint><evaluationMode>automatic</evaluationMode><comment><text>8.729673028462122</text><id>DFX:rectilinearity</id></comment><comment><text>23.857764575594434</text><id>SNR</id></comment></pick><pick publicID="de.gempa.tb1.Pick/20250415013629.172873.142710"><time><value>2025-04-15T01:36:21.620001Z</value></time><waveformID networkCode="CX" stationCode="PB10" channelCode="HHZ"/><filterID>ITAPER(4)&gt;&gt;BW(4,4,20)</filterID><methodID>AIC</methodID><horizontalSlowness><value>19.073700437901756</value></horizontalSlowness><backazimuth><value>187.55360750734908</value></backazimuth><phaseHint>P</phaseHint><evaluationMode>automatic</evaluationMode><comment><text>80.06880045595187</text><id>DFX:rectilinearity</id></comment><comment><text>18.455510439528876</text><id>SNR</id></comment></pick><pick publicID="de.gempa.tb1.Pick/20250415013629.340923.142712"><time><value>2025-04-15T01:36:23.728393Z</value></time><waveformID networkCode="CX" stationCode="PB07" channelCode="HHZ"/><filterID>ITAPER(4)&gt;&gt;BW(4,4,20)</filterID><methodID>AIC</methodID><horizontalSlowness><value>21.929780992404012</value></horizontalSlowness><backazimuth><value>72.16843963610035</value></backazimuth><phaseHint>P</phaseHint><evaluationMode>automatic</evaluationMode><comment><text>272.87821013618986</text><id>DFX:rectilinearity</id></comment><comment><text>41.947143900647077</text><id>SNR</id></comment></pick><pick publicID="de.gempa.tb1.Pick/20250415013629.341306.142714"><time><value>2025-04-15T01:36:19.23Z</value></time><waveformID networkCode="CX" stationCode="PB09" channelCode="HHZ"/><filterID>ITAPER(4)&gt;&gt;BW(4,4,20)</filterID><methodID>AIC</methodID><horizontalSlowness><value>16.225463672948262</value></horizontalSlowness><backazimuth><value>279.8804813758697</value></backazimuth><phaseHint>P</phaseHint><evaluationMode>automatic</evaluationMode><comment><text>21.783140352280295</text><id>DFX:rectilinearity</id></comment><comment><text>23.06827483126173</text><id>SNR</id></comment></pick><pick publicID="de.gempa.tb1.Pick/20250415013633.526297.142716"><time><value>2025-04-15T01:36:27.568393Z</value></time><waveformID networkCode="CX" stationCode="PB02" channelCode="HHZ"/><filterID>ITAPER(4)&gt;&gt;BW(4,4,20)</filterID><methodID>AIC</methodID><horizontalSlowness><value>19.537576618438692</value></horizontalSlowness><backazimuth><value>351.287883783109</value></backazimuth><phaseHint>P</phaseHint><evaluationMode>automatic</evaluationMode><comment><text>31.53234797333154</text><id>DFX:rectilinearity</id></comment><comment><text>10.187838476585583</text><id>SNR</id></comment></pick><pick publicID="de.gempa.tb1.Pick/20250415013648.640708.142720"><time><value>2025-04-15T01:36:40.5Z</value></time><waveformID networkCode="CX" stationCode="PB19" channelCode="HHN"/><filterID>ITAPER(2)&gt;&gt;BW(3,3,20)</filterID><methodID>L2-AIC-GRID</methodID><horizontalSlowness><value>17.500522518918643</value></horizontalSlowness><backazimuth><value>169.21790996076172</value></backazimuth><phaseHint>S</phaseHint><evaluationMode>automatic</evaluationMode><comment><text>53.10982461773992</text><id>DFX:rectilinearity</id></comment><comment><text>de.gempa.tb1.Pick/20250415013613.586621.142702</text><id>RefPickID</id></comment><comment><text>5.275393308126121</text><id>SNR</id></comment></pick><pick publicID="de.gempa.tb1.Pick/20250415013701.60985.142727"><time><value>2025-04-15T01:36:50.688393Z</value></time><waveformID networkCode="CX" stationCode="PB06" channelCode="HHN"/><filterID>ITAPER(2)&gt;&gt;BW(3,3,20)</filterID><methodID>L2-AIC-GRID</methodID><horizontalSlowness><value>10.52879134757233</value></horizontalSlowness><backazimuth><value>305.32589233537686</value></backazimuth><phaseHint>S</phaseHint><evaluationMode>automatic</evaluationMode><comment><text>47.64909780093347</text><id>DFX:rectilinearity</id></comment><comment><text>de.gempa.tb1.Pick/20250415013620.592153.142706</text><id>RefPickID</id></comment><comment><text>7.498120351941788</text><id>SNR</id></comment></pick><pick publicID="de.gempa.tb1.Pick/20250415013706.604931.142728"><time><value>2025-04-15T01:37:00.628393Z</value></time><waveformID networkCode="CX" stationCode="PB03" channelCode="HHN"/><filterID>ITAPER(2)&gt;&gt;BW(3,3,20)</filterID><methodID>L2-AIC-GRID</methodID><horizontalSlowness><value>7.956675772760683</value></horizontalSlowness><backazimuth><value>330.1042761897624</value></backazimuth><phaseHint>S</phaseHint><evaluationMode>automatic</evaluationMode><comment><text>13.727283114273058</text><id>DFX:rectilinearity</id></comment><comment><text>de.gempa.tb1.Pick/20250415013628.532664.142708</text><id>RefPickID</id></comment><comment><text>7.336942376210147</text><id>SNR</id></comment></pick><pick publicID="de.gempa.tb1.Pick/20250415013716.78735.142729"><time><value>2025-04-15T01:37:06.818393Z</value></time><waveformID networkCode="CX" stationCode="PB07" channelCode="HHN"/><filterID>ITAPER(2)&gt;&gt;BW(3,3,20)</filterID><methodID>L2-AIC-GRID</methodID><horizontalSlowness><value>21.406371818896627</value></horizontalSlowness><backazimuth><value>91.71813053250949</value></backazimuth><phaseHint>S</phaseHint><evaluationMode>automatic</evaluationMode><comment><text>547.9960007321823</text><id>DFX:rectilinearity</id></comment><comment><text>de.gempa.tb1.Pick/20250415013629.340923.142712</text><id>RefPickID</id></comment><comment><text>5.331172276950782</text><id>SNR</id></comment></pick><pick publicID="de.gempa.tb1.Pick/20250415013721.690894.142730"><time><value>2025-04-15T01:37:12.328393Z</value></time><waveformID networkCode="CX" stationCode="PB02" channelCode="HHN"/><filterID>ITAPER(2)&gt;&gt;BW(3,3,20)</filterID><methodID>L2-AIC-GRID</methodID><horizontalSlowness><value>17.874772233264093</value></horizontalSlowness><backazimuth><value>255.0598810901118</value></backazimuth><phaseHint>S</phaseHint><evaluationMode>automatic</evaluationMode><comment><text>73.89607565699733</text><id>DFX:rectilinearity</id></comment><comment><text>de.gempa.tb1.Pick/20250415013633.526297.142716</text><id>RefPickID</id></comment><comment><text>5.242934878723017</text><id>SNR</id></comment></pick><origin publicID="de.gempa.tb1.Origin/20250415013721.694539.157516"><time><value>2025-04-15T01:35:30.377682Z</value><uncertainty>0.9819710850715637</uncertainty></time><latitude><value>-23.89603614807129</value><uncertainty>7.80070734024048</uncertainty></latitude><longitude><value>-67.35186767578125</value><uncertainty>23.83064842224121</uncertainty></longitude><depth><value>232.93556213378906</value><uncertainty>21.34720230102539</uncertainty></depth><depthType>from location</depthType><methodID>LOCSAT</methodID><earthModelID>iasp91_scanloc</earthModelID><quality><associatedPhaseCount>13</associatedPhaseCount><usedPhaseCount>13</usedPhaseCount><associatedStationCount>8</associatedStationCount><usedStationCount>8</usedStationCount><depthPhaseCount>0</depthPhaseCount><standardError>0.23024322442832576</standardError><azimuthalGap>309.5357971191406</azimuthalGap><maximumDistance>3.478543281555176</maximumDistance><minimumDistance>1.7744853496551514</minimumDistance><medianDistance>2.8772408962249756</medianDistance></quality><uncertainty><minHorizontalUncertainty>12.827993392944336</minHorizontalUncertainty><maxHorizontalUncertainty>52.20502471923828</maxHorizontalUncertainty><azimuthMaxHorizontalUncertainty>77.7583236694336</azimuthMaxHorizontalUncertainty><preferredDescription>horizontal uncertainty</preferredDescription></uncertainty><evaluationMode>automatic</evaluationMode><evaluationStatus>confirmed</evaluationStatus><comment><text>0.00</text><id>mismatchScore</id></comment><comment><text>mismatchScore</text><id>scevalMethod</id></comment><arrival><pickID>de.gempa.tb1.Pick/20250415013613.586621.142702</pickID><phase>P</phase><azimuth>269.32843017578125</azimuth><distance>1.7744853496551514</distance><timeResidual>-0.3493995666503906</timeResidual><timeUsed>true</timeUsed><horizontalSlownessUsed>false</horizontalSlownessUsed><backazimuthUsed>false</backazimuthUsed><weight>1</weight></arrival><arrival><pickID>de.gempa.tb1.Pick/20250415013619.721889.142704</pickID><phase>P</phase><azimuth>288.9703674316406</azimuth><distance>2.061537504196167</distance><timeResidual>-0.0596466064453125</timeResidual><timeUsed>true</timeUsed><horizontalSlownessUsed>false</horizontalSlownessUsed><backazimuthUsed>false</backazimuthUsed><weight>1</weight></arrival><arrival><pickID>de.gempa.tb1.Pick/20250415013620.592153.142706</pickID><phase>P</phase><azimuth>299.69281005859375</azimuth><distance>2.359936237335205</distance><timeResidual>-0.006378173828125</timeResidual><timeUsed>true</timeUsed><horizontalSlownessUsed>false</horizontalSlownessUsed><backazimuthUsed>false</backazimuthUsed><weight>1</weight></arrival><arrival><pickID>de.gempa.tb1.Pick/20250415013628.532664.142708</pickID><phase>P</phase><azimuth>309.25360107421875</azimuth><distance>2.8772408962249756</distance><timeResidual>-0.05883407592773438</timeResidual><timeUsed>true</timeUsed><horizontalSlownessUsed>false</horizontalSlownessUsed><backazimuthUsed>false</backazimuthUsed><weight>1</weight></arrival><arrival><pickID>de.gempa.tb1.Pick/20250415013629.172873.142710</pickID><phase>P</phase><azimuth>276.75115966796875</azimuth><distance>2.959742069244385</distance><timeResidual>0.1844635009765625</timeResidual><timeUsed>true</timeUsed><horizontalSlownessUsed>false</horizontalSlownessUsed><backazimuthUsed>false</backazimuthUsed><weight>1</weight></arrival><arrival><pickID>de.gempa.tb1.Pick/20250415013629.340923.142712</pickID><phase>P</phase><azimuth>312.2226257324219</azimuth><distance>3.182642459869385</distance><timeResidual>-0.2423667907714844</timeResidual><timeUsed>true</timeUsed><horizontalSlownessUsed>false</horizontalSlownessUsed><backazimuthUsed>false</backazimuthUsed><weight>1</weight></arrival><arrival><pickID>de.gempa.tb1.Pick/20250415013629.341306.142714</pickID><phase>P</phase><azimuth>319.7926330566406</azimuth><distance>2.7215147018432617</distance><timeResidual>0.3690643310546875</timeResidual><timeUsed>true</timeUsed><horizontalSlownessUsed>false</horizontalSlownessUsed><backazimuthUsed>false</backazimuthUsed><weight>1</weight></arrival><arrival><pickID>de.gempa.tb1.Pick/20250415013633.526297.142716</pickID><phase>P</phase><azimuth>316.9895935058594</azimuth><distance>3.478543281555176</distance><timeResidual>0.19558334350585938</timeResidual><timeUsed>true</timeUsed><horizontalSlownessUsed>false</horizontalSlownessUsed><backazimuthUsed>false</backazimuthUsed><weight>1</weight></arrival><arrival><pickID>de.gempa.tb1.Pick/20250415013648.640708.142720</pickID><phase>S</phase><azimuth>269.32843017578125</azimuth><distance>1.7744853496551514</distance><timeResidual>0.043811798095703125</timeResidual><timeUsed>true</timeUsed><horizontalSlownessUsed>false</horizontalSlownessUsed><backazimuthUsed>false</backazimuthUsed><weight>1</weight></arrival><arrival><pickID>de.gempa.tb1.Pick/20250415013701.60985.142727</pickID><phase>S</phase><azimuth>299.69281005859375</azimuth><distance>2.359936237335205</distance><timeResidual>0.11182022094726562</timeResidual><timeUsed>true</timeUsed><horizontalSlownessUsed>false</horizontalSlownessUsed><backazimuthUsed>false</backazimuthUsed><weight>1</weight></arrival><arrival><pickID>de.gempa.tb1.Pick/20250415013706.604931.142728</pickID><phase>S</phase><azimuth>309.25360107421875</azimuth><distance>2.8772408962249756</distance><timeResidual>0.14429473876953125</timeResidual><timeUsed>true</timeUsed><horizontalSlownessUsed>false</horizontalSlownessUsed><backazimuthUsed>false</backazimuthUsed><weight>1</weight></arrival><arrival><pickID>de.gempa.tb1.Pick/20250415013716.78735.142729</pickID><phase>S</phase><azimuth>312.2226257324219</azimuth><distance>3.182642459869385</distance><timeResidual>0.152313232421875</timeResidual><timeUsed>true</timeUsed><horizontalSlownessUsed>false</horizontalSlownessUsed><backazimuthUsed>false</backazimuthUsed><weight>1</weight></arrival><arrival><pickID>de.gempa.tb1.Pick/20250415013721.690894.142730</pickID><phase>S</phase><azimuth>316.9895935058594</azimuth><distance>3.478543281555176</distance><timeResidual>-0.4840888977050781</timeResidual><timeUsed>true</timeUsed><horizontalSlownessUsed>false</horizontalSlownessUsed><backazimuthUsed>false</backazimuthUsed><weight>1</weight></arrival><magnitude publicID="de.gempa.tb1.Magnitude/20250415013725.938263.559084"><magnitude><value>2.8827519459048125</value></magnitude><type>M</type><methodID>weighted average</methodID><stationCount>6</stationCount></magnitude></origin><event publicID="gempa2025hkfl"><preferredOriginID>de.gempa.tb1.Origin/20250415013721.694539.157516</preferredOriginID><preferredMagnitudeID>de.gempa.tb1.Magnitude/20250415013725.938263.559084</preferredMagnitudeID><description><text>Chile-Argentina Border Region</text><type>region name</type></description><originReference>de.gempa.tb1.Origin/20250415013721.694539.157516</originReference></event></EventParameters></seiscomp>