<?xml version="1.0" encoding="UTF-8"?>
<seiscomp xmlns="http://geofon.gfz-potsdam.de/ns/seiscomp3-schema/0.13" version="0.13"><EventParameters><pick publicID="de.gempa.tb1.Pick/20250412083234.533859.123012"><time><value>2025-04-12T08:32:28.058393Z</value></time><waveformID networkCode="CX" stationCode="PB01" channelCode="HHZ"/><filterID>ITAPER(4)&gt;&gt;BW(4,4,20)</filterID><methodID>AIC</methodID><horizontalSlowness><value>22.014165561251804</value></horizontalSlowness><backazimuth><value>38.40633393805527</value></backazimuth><phaseHint>P</phaseHint><evaluationMode>automatic</evaluationMode><comment><text>7.666245810074387</text><id>DFX:rectilinearity</id></comment><comment><text>21.945394952283934</text><id>SNR</id></comment></pick><pick publicID="de.gempa.tb1.Pick/20250412083240.607861.123014"><time><value>2025-04-12T08:32:32.378391Z</value></time><waveformID networkCode="CX" stationCode="PB02" channelCode="HHZ"/><filterID>ITAPER(4)&gt;&gt;BW(4,4,20)</filterID><methodID>AIC</methodID><horizontalSlowness><value>19.641951843823538</value></horizontalSlowness><backazimuth><value>258.4295298574</value></backazimuth><phaseHint>P</phaseHint><evaluationMode>automatic</evaluationMode><comment><text>46.53744976122636</text><id>DFX:rectilinearity</id></comment><comment><text>9.922547932110179</text><id>SNR</id></comment></pick><pick publicID="de.gempa.tb1.Pick/20250412083249.537156.123016"><time><value>2025-04-12T08:32:41.46Z</value></time><waveformID networkCode="CX" stationCode="PSGCX" channelCode="HHZ"/><filterID>ITAPER(4)&gt;&gt;BW(4,4,20)</filterID><methodID>AIC</methodID><horizontalSlowness><value>20.17785302065014</value></horizontalSlowness><backazimuth><value>98.41233293613848</value></backazimuth><phaseHint>P</phaseHint><evaluationMode>automatic</evaluationMode><comment><text>19.44205409422257</text><id>SNR</id></comment><comment><text>38.875155288836666</text><id>DFX:rectilinearity</id></comment></pick><pick publicID="de.gempa.tb1.Pick/20250412083249.787033.123018"><time><value>2025-04-12T08:32:42.038393Z</value></time><waveformID networkCode="CX" stationCode="PB01" channelCode="HHN"/><filterID>ITAPER(2)&gt;&gt;BW(3,3,20)</filterID><methodID>L2-AIC-GRID</methodID><horizontalSlowness><value>23.271832889312627</value></horizontalSlowness><backazimuth><value>13.306033287108932</value></backazimuth><phaseHint>S</phaseHint><evaluationMode>automatic</evaluationMode><comment><text>146.1858458132481</text><id>DFX:rectilinearity</id></comment><comment><text>de.gempa.tb1.Pick/20250412083234.533859.123012</text><id>RefPickID</id></comment><comment><text>12.43112291254067</text><id>SNR</id></comment></pick><pick publicID="de.gempa.tb1.Pick/20250412083252.198952.123019"><time><value>2025-04-12T08:32:31.3Z</value></time><waveformID networkCode="CX" stationCode="PB09" channelCode="HHZ"/><filterID>ITAPER(4)&gt;&gt;BW(4,4,20)</filterID><methodID>AIC</methodID><horizontalSlowness><value>16.519072590589374</value></horizontalSlowness><backazimuth><value>278.0602685809697</value></backazimuth><phaseHint>P</phaseHint><evaluationMode>automatic</evaluationMode><comment><text>13.373637543001255</text><id>DFX:rectilinearity</id></comment><comment><text>8.106634213757269</text><id>SNR</id></comment></pick><pick publicID="de.gempa.tb1.Pick/20250412083255.4953.123023"><time><value>2025-04-12T08:32:50.218391Z</value></time><waveformID networkCode="CX" stationCode="PB02" channelCode="HHN"/><filterID>ITAPER(2)&gt;&gt;BW(3,3,20)</filterID><methodID>L2-AIC-GRID</methodID><horizontalSlowness><value>21.670338836045666</value></horizontalSlowness><backazimuth><value>269.5843452261967</value></backazimuth><phaseHint>S</phaseHint><evaluationMode>automatic</evaluationMode><comment><text>400.60305993143623</text><id>DFX:rectilinearity</id></comment><comment><text>de.gempa.tb1.Pick/20250412083240.607861.123014</text><id>RefPickID</id></comment><comment><text>5.820282542800927</text><id>SNR</id></comment></pick><pick publicID="de.gempa.tb1.Pick/20250412083346.716664.123026"><time><value>2025-04-12T08:32:34.758391Z</value></time><waveformID networkCode="CX" stationCode="PB07" channelCode="HHZ"/><filterID>ITAPER(4)&gt;&gt;BW(4,4,20)</filterID><methodID>AIC</methodID><horizontalSlowness><value>22.603508790264573</value></horizontalSlowness><backazimuth><value>58.94469678235852</value></backazimuth><phaseHint>P</phaseHint><evaluationMode>automatic</evaluationMode><comment><text>305.1662332413715</text><id>DFX:rectilinearity</id></comment><comment><text>11.726360430263131</text><id>SNR</id></comment></pick><pick publicID="de.gempa.tb1.Pick/20250412083419.660191.123028"><time><value>2025-04-12T08:32:53.498391Z</value></time><waveformID networkCode="CX" stationCode="PB07" channelCode="HHN"/><filterID>ITAPER(2)&gt;&gt;BW(3,3,20)</filterID><methodID>L2-AIC-GRID</methodID><horizontalSlowness><value>22.17441092590322</value></horizontalSlowness><backazimuth><value>279.3359240227445</value></backazimuth><phaseHint>S</phaseHint><evaluationMode>automatic</evaluationMode><comment><text>644.4430999516098</text><id>DFX:rectilinearity</id></comment><comment><text>de.gempa.tb1.Pick/20250412083346.716664.123026</text><id>RefPickID</id></comment><comment><text>6.771867450726922</text><id>SNR</id></comment></pick><origin publicID="de.gempa.tb1.Origin/20250412083437.365143.79002"><time><value>2025-04-12T08:32:10.424902Z</value><uncertainty>1.0548437833786011</uncertainty></time><latitude><value>-20.935163497924805</value><uncertainty>6.76237964630127</uncertainty></latitude><longitude><value>-68.76194763183594</value><uncertainty>12.40971565246582</uncertainty></longitude><depth><value>106.12203216552734</value><uncertainty>13.058297157287598</uncertainty></depth><depthType>from location</depthType><methodID>LOCSAT</methodID><earthModelID>iasp91_scanloc</earthModelID><quality><associatedPhaseCount>8</associatedPhaseCount><usedPhaseCount>8</usedPhaseCount><associatedStationCount>5</associatedStationCount><usedStationCount>5</usedStationCount><depthPhaseCount>0</depthPhaseCount><standardError>0.228563046591122</standardError><azimuthalGap>251.5462341308594</azimuthalGap><maximumDistance>1.8452173471450806</maximumDistance><minimumDistance>0.686368465423584</minimumDistance><medianDistance>1.1257883310317993</medianDistance></quality><uncertainty><minHorizontalUncertainty>14.45963191986084</minHorizontalUncertainty><maxHorizontalUncertainty>26.634077072143555</maxHorizontalUncertainty><azimuthMaxHorizontalUncertainty>92.8139877319336</azimuthMaxHorizontalUncertainty><preferredDescription>horizontal uncertainty</preferredDescription></uncertainty><evaluationMode>automatic</evaluationMode><evaluationStatus>confirmed</evaluationStatus><comment><text>0.33</text><id>mismatchScore</id></comment><comment><text>mismatchScore</text><id>scevalMethod</id></comment><arrival><pickID>de.gempa.tb1.Pick/20250412083234.533859.123012</pickID><phase>P</phase><azimuth>260.8578186035156</azimuth><distance>0.686368465423584</distance><timeResidual>-0.25692176818847656</timeResidual><timeUsed>true</timeUsed><horizontalSlownessUsed>false</horizontalSlownessUsed><backazimuthUsed>false</backazimuthUsed><weight>1</weight></arrival><arrival><pickID>de.gempa.tb1.Pick/20250412083240.607861.123014</pickID><phase>P</phase><azimuth>249.92669677734375</azimuth><distance>1.1257883310317993</distance><timeResidual>-0.3107795715332031</timeResidual><timeUsed>true</timeUsed><horizontalSlownessUsed>false</horizontalSlownessUsed><backazimuthUsed>false</backazimuthUsed><weight>1</weight></arrival><arrival><pickID>de.gempa.tb1.Pick/20250412083249.537156.123016</pickID><phase>P</phase><azimuth>315.9341125488281</azimuth><distance>1.8452173471450806</distance><timeResidual>0.15550804138183594</timeResidual><timeUsed>true</timeUsed><horizontalSlownessUsed>false</horizontalSlownessUsed><backazimuthUsed>false</backazimuthUsed><weight>1</weight></arrival><arrival><pickID>de.gempa.tb1.Pick/20250412083249.787033.123018</pickID><phase>S</phase><azimuth>260.8578186035156</azimuth><distance>0.686368465423584</distance><timeResidual>-0.05447006225585938</timeResidual><timeUsed>true</timeUsed><horizontalSlownessUsed>false</horizontalSlownessUsed><backazimuthUsed>false</backazimuthUsed><weight>1</weight></arrival><arrival><pickID>de.gempa.tb1.Pick/20250412083252.198952.123019</pickID><phase>P</phase><azimuth>207.4803466796875</azimuth><distance>0.9667159914970398</distance><timeResidual>0.31627464294433594</timeResidual><timeUsed>true</timeUsed><horizontalSlownessUsed>false</horizontalSlownessUsed><backazimuthUsed>false</backazimuthUsed><weight>1</weight></arrival><arrival><pickID>de.gempa.tb1.Pick/20250412083255.4953.123023</pickID><phase>S</phase><azimuth>249.92669677734375</azimuth><distance>1.1257883310317993</distance><timeResidual>0.3257427215576172</timeResidual><timeUsed>true</timeUsed><horizontalSlownessUsed>false</horizontalSlownessUsed><backazimuthUsed>false</backazimuthUsed><weight>1</weight></arrival><arrival><pickID>de.gempa.tb1.Pick/20250412083346.716664.123026</pickID><phase>P</phase><azimuth>232.87571716308594</azimuth><distance>1.3110597133636475</distance><timeResidual>-0.030330657958984375</timeResidual><timeUsed>true</timeUsed><horizontalSlownessUsed>false</horizontalSlownessUsed><backazimuthUsed>false</backazimuthUsed><weight>1</weight></arrival><arrival><pickID>de.gempa.tb1.Pick/20250412083419.660191.123028</pickID><phase>S</phase><azimuth>232.87571716308594</azimuth><distance>1.3110597133636475</distance><timeResidual>-0.145355224609375</timeResidual><timeUsed>true</timeUsed><horizontalSlownessUsed>false</horizontalSlownessUsed><backazimuthUsed>false</backazimuthUsed><weight>1</weight></arrival><magnitude publicID="de.gempa.tb1.Magnitude/20250412083437.371433.198931"><magnitude><value>2.3706373506513945</value></magnitude><type>M</type><methodID>weighted average</methodID><stationCount>5</stationCount></magnitude></origin><event publicID="gempa2025hffh"><preferredOriginID>de.gempa.tb1.Origin/20250412083437.365143.79002</preferredOriginID><preferredMagnitudeID>de.gempa.tb1.Magnitude/20250412083437.371433.198931</preferredMagnitudeID><description><text>Chile-Bolivia Border Region</text><type>region name</type></description><originReference>de.gempa.tb1.Origin/20250412083437.365143.79002</originReference></event></EventParameters></seiscomp>