<?xml version="1.0" encoding="UTF-8"?>
<seiscomp xmlns="http://geofon.gfz-potsdam.de/ns/seiscomp3-schema/0.13" version="0.13"><EventParameters><pick publicID="de.gempa.tb1.Pick/20250412175355.582586.125722"><time><value>2025-04-12T17:53:50.478393Z</value></time><waveformID networkCode="CX" stationCode="PB03" channelCode="HHZ"/><filterID>ITAPER(4)&gt;&gt;BW(4,4,20)</filterID><methodID>AIC</methodID><horizontalSlowness><value>6.254779000510129</value></horizontalSlowness><backazimuth><value>160.13430067813573</value></backazimuth><phaseHint>P</phaseHint><evaluationMode>automatic</evaluationMode><comment><text>13.294729504047323</text><id>DFX:rectilinearity</id></comment><comment><text>10.97698663516934</text><id>SNR</id></comment></pick><pick publicID="de.gempa.tb1.Pick/20250412175357.676073.125724"><time><value>2025-04-12T17:53:52.568393Z</value></time><waveformID networkCode="CX" stationCode="PB15" channelCode="HHZ"/><filterID>ITAPER(4)&gt;&gt;BW(4,4,20)</filterID><methodID>AIC</methodID><horizontalSlowness><value>22.661882226985714</value></horizontalSlowness><backazimuth><value>303.9981852395898</value></backazimuth><phaseHint>P</phaseHint><evaluationMode>automatic</evaluationMode><comment><text>628.5796859186298</text><id>DFX:rectilinearity</id></comment><comment><text>9.602351942121006</text><id>SNR</id></comment></pick><pick publicID="de.gempa.tb1.Pick/20250412175407.498277.125726"><time><value>2025-04-12T17:54:01.698393Z</value></time><waveformID networkCode="CX" stationCode="PB02" channelCode="HHZ"/><filterID>ITAPER(4)&gt;&gt;BW(4,4,20)</filterID><methodID>AIC</methodID><horizontalSlowness><value>11.531987113474933</value></horizontalSlowness><backazimuth><value>215.86277903662781</value></backazimuth><phaseHint>P</phaseHint><evaluationMode>automatic</evaluationMode><comment><text>38.490842050110054</text><id>DFX:rectilinearity</id></comment><comment><text>37.19212912837508</text><id>SNR</id></comment></pick><pick publicID="de.gempa.tb1.Pick/20250412175407.501616.125728"><time><value>2025-04-12T17:53:59.92Z</value></time><waveformID networkCode="CX" stationCode="PB09" channelCode="HHZ"/><filterID>ITAPER(4)&gt;&gt;BW(4,4,20)</filterID><methodID>AIC</methodID><horizontalSlowness><value>21.676055643213655</value></horizontalSlowness><backazimuth><value>129.0884550856562</value></backazimuth><phaseHint>P</phaseHint><evaluationMode>automatic</evaluationMode><comment><text>13.887470747242936</text><id>DFX:rectilinearity</id></comment><comment><text>25.38472581128116</text><id>SNR</id></comment></pick><pick publicID="de.gempa.tb1.Pick/20250412175409.521051.125730"><time><value>2025-04-12T17:54:04.36Z</value></time><waveformID networkCode="CX" stationCode="PB19" channelCode="HHZ"/><filterID>ITAPER(4)&gt;&gt;BW(4,4,20)</filterID><methodID>AIC</methodID><horizontalSlowness><value>19.061448379469763</value></horizontalSlowness><backazimuth><value>330.1469492012046</value></backazimuth><phaseHint>P</phaseHint><evaluationMode>automatic</evaluationMode><comment><text>17.155223409390523</text><id>DFX:rectilinearity</id></comment><comment><text>11.759407330387324</text><id>SNR</id></comment></pick><pick publicID="de.gempa.tb1.Pick/20250412175414.550325.125732"><time><value>2025-04-12T17:54:08.088393Z</value></time><waveformID networkCode="CX" stationCode="PB01" channelCode="HHZ"/><filterID>ITAPER(4)&gt;&gt;BW(4,4,20)</filterID><methodID>AIC</methodID><horizontalSlowness><value>19.029929177102378</value></horizontalSlowness><backazimuth><value>67.79516482667088</value></backazimuth><phaseHint>P</phaseHint><evaluationMode>automatic</evaluationMode><comment><text>4.624935588526845</text><id>DFX:rectilinearity</id></comment><comment><text>8.941480464007503</text><id>SNR</id></comment></pick><pick publicID="de.gempa.tb1.Pick/20250412175428.498742.125735"><time><value>2025-04-12T17:54:20.508393Z</value></time><waveformID networkCode="CX" stationCode="PB02" channelCode="HHN"/><filterID>ITAPER(2)&gt;&gt;BW(3,3,20)</filterID><methodID>L2-AIC-GRID</methodID><horizontalSlowness><value>21.86207468042062</value></horizontalSlowness><backazimuth><value>292.7571188750693</value></backazimuth><phaseHint>S</phaseHint><evaluationMode>automatic</evaluationMode><comment><text>53.62399758860825</text><id>DFX:rectilinearity</id></comment><comment><text>de.gempa.tb1.Pick/20250412175407.498277.125726</text><id>RefPickID</id></comment><comment><text>5.426481124855543</text><id>SNR</id></comment></pick><pick publicID="de.gempa.tb1.Pick/20250412175428.858643.125736"><time><value>2025-04-12T17:53:54.708393Z</value></time><waveformID networkCode="CX" stationCode="PB07" channelCode="HHZ"/><filterID>ITAPER(4)&gt;&gt;BW(4,4,20)</filterID><methodID>AIC</methodID><horizontalSlowness><value>22.749435169402187</value></horizontalSlowness><backazimuth><value>43.45066960707669</value></backazimuth><phaseHint>P</phaseHint><evaluationMode>automatic</evaluationMode><comment><text>307.52624223589925</text><id>DFX:rectilinearity</id></comment><comment><text>32.474201453928345</text><id>SNR</id></comment></pick><pick publicID="de.gempa.tb1.Pick/20250412175439.776975.125741"><time><value>2025-04-12T17:54:31.208393Z</value></time><waveformID networkCode="CX" stationCode="PB01" channelCode="HHN"/><filterID>ITAPER(2)&gt;&gt;BW(3,3,20)</filterID><methodID>L2-AIC-GRID</methodID><horizontalSlowness><value>10.968554384731103</value></horizontalSlowness><backazimuth><value>357.9673790702014</value></backazimuth><phaseHint>S</phaseHint><evaluationMode>automatic</evaluationMode><comment><text>10.783968180660086</text><id>DFX:rectilinearity</id></comment><comment><text>de.gempa.tb1.Pick/20250412175414.550325.125732</text><id>RefPickID</id></comment><comment><text>6.752566545206068</text><id>SNR</id></comment></pick><origin publicID="de.gempa.tb1.Origin/20250412175439.779656.88778"><time><value>2025-04-12T17:53:36.155354Z</value><uncertainty>1.1058766841888428</uncertainty></time><latitude><value>-22.648813247680664</value><uncertainty>2.8947036266326904</uncertainty></latitude><longitude><value>-70.20172119140625</value><uncertainty>11.257206916809082</uncertainty></longitude><depth><value>0</value></depth><depthType>operator assigned</depthType><methodID>LOCSAT</methodID><earthModelID>iasp91_scanloc</earthModelID><quality><associatedPhaseCount>9</associatedPhaseCount><usedPhaseCount>9</usedPhaseCount><associatedStationCount>7</associatedStationCount><usedStationCount>7</usedStationCount><depthPhaseCount>0</depthPhaseCount><standardError>0.3327548247993908</standardError><azimuthalGap>225.8144245147705</azimuthalGap><maximumDistance>1.7301161289215088</maximumDistance><minimumDistance>0.7276492714881897</minimumDistance><medianDistance>1.3527472019195557</medianDistance></quality><uncertainty><minHorizontalUncertainty>5.649958610534668</minHorizontalUncertainty><maxHorizontalUncertainty>24.27469253540039</maxHorizontalUncertainty><azimuthMaxHorizontalUncertainty>83.75054168701172</azimuthMaxHorizontalUncertainty><preferredDescription>horizontal uncertainty</preferredDescription></uncertainty><evaluationMode>automatic</evaluationMode><evaluationStatus>confirmed</evaluationStatus><comment><text>0.46</text><id>mismatchScore</id></comment><comment><text>mismatchScore</text><id>scevalMethod</id></comment><arrival><pickID>de.gempa.tb1.Pick/20250412175355.582586.125722</pickID><phase>P</phase><azimuth>34.889556884765625</azimuth><distance>0.7276492714881897</distance><timeResidual>0.36566829681396484</timeResidual><timeUsed>true</timeUsed><horizontalSlownessUsed>false</horizontalSlownessUsed><backazimuthUsed>false</backazimuthUsed><weight>1</weight></arrival><arrival><pickID>de.gempa.tb1.Pick/20250412175357.676073.125724</pickID><phase>P</phase><azimuth>129.7174530029297</azimuth><distance>0.8741119503974915</distance><timeResidual>-0.35213565826416016</timeResidual><timeUsed>true</timeUsed><horizontalSlownessUsed>false</horizontalSlownessUsed><backazimuthUsed>false</backazimuthUsed><weight>1</weight></arrival><arrival><pickID>de.gempa.tb1.Pick/20250412175407.498277.125726</pickID><phase>P</phase><azimuth>12.164567947387695</azimuth><distance>1.3527472019195557</distance><timeResidual>-0.3787269592285156</timeResidual><timeUsed>true</timeUsed><horizontalSlownessUsed>false</horizontalSlownessUsed><backazimuthUsed>false</backazimuthUsed><weight>1</weight></arrival><arrival><pickID>de.gempa.tb1.Pick/20250412175407.501616.125728</pickID><phase>P</phase><azimuth>46.53334426879883</azimuth><distance>1.2290747165679932</distance><timeResidual>0.1895608901977539</timeResidual><timeUsed>true</timeUsed><horizontalSlownessUsed>false</horizontalSlownessUsed><backazimuthUsed>false</backazimuthUsed><weight>1</weight></arrival><arrival><pickID>de.gempa.tb1.Pick/20250412175409.521051.125730</pickID><phase>P</phase><azimuth>146.3501434326172</azimuth><distance>1.5049104690551758</distance><timeResidual>-0.02568340301513672</timeResidual><timeUsed>true</timeUsed><horizontalSlownessUsed>false</horizontalSlownessUsed><backazimuthUsed>false</backazimuthUsed><weight>1</weight></arrival><arrival><pickID>de.gempa.tb1.Pick/20250412175414.550325.125732</pickID><phase>P</phase><azimuth>22.68860626220703</azimuth><distance>1.7301161289215088</distance><timeResidual>0.5996007919311523</timeResidual><timeUsed>true</timeUsed><horizontalSlownessUsed>false</horizontalSlownessUsed><backazimuthUsed>false</backazimuthUsed><weight>1</weight></arrival><arrival><pickID>de.gempa.tb1.Pick/20250412175428.498742.125735</pickID><phase>S</phase><azimuth>12.164567947387695</azimuth><distance>1.3527472019195557</distance><timeResidual>-0.4380064010620117</timeResidual><timeUsed>true</timeUsed><horizontalSlownessUsed>false</horizontalSlownessUsed><backazimuthUsed>false</backazimuthUsed><weight>1</weight></arrival><arrival><pickID>de.gempa.tb1.Pick/20250412175428.858643.125736</pickID><phase>P</phase><azimuth>17.735429763793945</azimuth><distance>0.9631891250610352</distance><timeResidual>0.07754802703857422</timeResidual><timeUsed>true</timeUsed><horizontalSlownessUsed>false</horizontalSlownessUsed><backazimuthUsed>false</backazimuthUsed><weight>1</weight></arrival><arrival><pickID>de.gempa.tb1.Pick/20250412175439.776975.125741</pickID><phase>S</phase><azimuth>22.68860626220703</azimuth><distance>1.7301161289215088</distance><timeResidual>-0.03751850128173828</timeResidual><timeUsed>true</timeUsed><horizontalSlownessUsed>false</horizontalSlownessUsed><backazimuthUsed>false</backazimuthUsed><weight>1</weight></arrival><magnitude publicID="de.gempa.tb1.Magnitude/20250412175440.937061.260271"><magnitude><value>2.3968217174590993</value></magnitude><type>M</type><methodID>weighted average</methodID><stationCount>7</stationCount></magnitude></origin><event publicID="gempa2025hfya"><preferredOriginID>de.gempa.tb1.Origin/20250412175439.779656.88778</preferredOriginID><preferredMagnitudeID>de.gempa.tb1.Magnitude/20250412175440.937061.260271</preferredMagnitudeID><description><text>Near Coast of Northern Chile</text><type>region name</type></description><originReference>de.gempa.tb1.Origin/20250412175439.779656.88778</originReference></event></EventParameters></seiscomp>