<?xml version="1.0" encoding="UTF-8"?>
<seiscomp xmlns="http://geofon.gfz-potsdam.de/ns/seiscomp3-schema/0.13" version="0.13"><EventParameters><pick publicID="de.gempa.tb1.Pick/20250414091828.50851.137037"><time><value>2025-04-14T09:18:21.68Z</value></time><waveformID networkCode="CX" stationCode="PB19" channelCode="HHZ"/><filterID>ITAPER(4)&gt;&gt;BW(4,4,20)</filterID><methodID>AIC</methodID><horizontalSlowness><value>21.053353719690286</value></horizontalSlowness><backazimuth><value>71.83800291283252</value></backazimuth><phaseHint>P</phaseHint><evaluationMode>automatic</evaluationMode><comment><text>18.517523760325282</text><id>DFX:rectilinearity</id></comment><comment><text>41.291125759767326</text><id>SNR</id></comment></pick><pick publicID="de.gempa.tb1.Pick/20250414091831.843177.137039"><time><value>2025-04-14T09:18:24.878393Z</value></time><waveformID networkCode="CX" stationCode="PB15" channelCode="HHZ"/><filterID>ITAPER(4)&gt;&gt;BW(4,4,20)</filterID><methodID>AIC</methodID><horizontalSlowness><value>21.007338462362416</value></horizontalSlowness><backazimuth><value>131.56106393339002</value></backazimuth><phaseHint>P</phaseHint><evaluationMode>automatic</evaluationMode><comment><text>215.2157608508083</text><id>DFX:rectilinearity</id></comment><comment><text>8.079415184384487</text><id>SNR</id></comment></pick><pick publicID="de.gempa.tb1.Pick/20250414091833.499273.137041"><time><value>2025-04-14T09:18:27.788393Z</value></time><waveformID networkCode="CX" stationCode="PB06" channelCode="HHZ"/><filterID>ITAPER(4)&gt;&gt;BW(4,4,20)</filterID><methodID>AIC</methodID><horizontalSlowness><value>14.901675841296305</value></horizontalSlowness><backazimuth><value>282.89264483444003</value></backazimuth><phaseHint>P</phaseHint><evaluationMode>automatic</evaluationMode><comment><text>50.97922234778784</text><id>DFX:rectilinearity</id></comment><comment><text>12.05191392003372</text><id>SNR</id></comment></pick><pick publicID="de.gempa.tb1.Pick/20250414091842.176744.137043"><time><value>2025-04-14T09:18:34.39Z</value></time><waveformID networkCode="CX" stationCode="PB10" channelCode="HHZ"/><filterID>ITAPER(4)&gt;&gt;BW(4,4,20)</filterID><methodID>AIC</methodID><horizontalSlowness><value>11.870734540627673</value></horizontalSlowness><backazimuth><value>166.46298458229236</value></backazimuth><phaseHint>P</phaseHint><evaluationMode>automatic</evaluationMode><comment><text>47.67179182387515</text><id>DFX:rectilinearity</id></comment><comment><text>9.932545097048374</text><id>SNR</id></comment></pick><pick publicID="de.gempa.tb1.Pick/20250414091858.669152.137047"><time><value>2025-04-14T09:18:50.64Z</value></time><waveformID networkCode="CX" stationCode="PB19" channelCode="HHN"/><filterID>ITAPER(2)&gt;&gt;BW(3,3,20)</filterID><methodID>L2-AIC-GRID</methodID><horizontalSlowness><value>19.010191453614052</value></horizontalSlowness><backazimuth><value>99.23785045443925</value></backazimuth><phaseHint>S</phaseHint><evaluationMode>automatic</evaluationMode><comment><text>452.8650129206205</text><id>DFX:rectilinearity</id></comment><comment><text>de.gempa.tb1.Pick/20250414091828.50851.137037</text><id>RefPickID</id></comment><comment><text>10.893842935067472</text><id>SNR</id></comment></pick><pick publicID="de.gempa.tb1.Pick/20250414091904.335081.137050"><time><value>2025-04-14T09:18:37.048394Z</value></time><waveformID networkCode="CX" stationCode="PB07" channelCode="HHZ"/><filterID>ITAPER(4)&gt;&gt;BW(4,4,20)</filterID><methodID>AIC</methodID><horizontalSlowness><value>21.662575676533013</value></horizontalSlowness><backazimuth><value>273.353586250077</value></backazimuth><phaseHint>P</phaseHint><evaluationMode>automatic</evaluationMode><comment><text>144.90924532220708</text><id>DFX:rectilinearity</id></comment><comment><text>12.938355204202828</text><id>SNR</id></comment></pick><pick publicID="de.gempa.tb1.Pick/20250414091904.875451.137052"><time><value>2025-04-14T09:18:55.658393Z</value></time><waveformID networkCode="CX" stationCode="PB15" channelCode="HHN"/><filterID>ITAPER(2)&gt;&gt;BW(3,3,20)</filterID><methodID>L2-AIC-GRID</methodID><horizontalSlowness><value>22.613395877401214</value></horizontalSlowness><backazimuth><value>81.44446771752607</value></backazimuth><phaseHint>S</phaseHint><evaluationMode>automatic</evaluationMode><comment><text>13201.150985829718</text><id>DFX:rectilinearity</id></comment><comment><text>de.gempa.tb1.Pick/20250414091831.843177.137039</text><id>RefPickID</id></comment><comment><text>12.500200321444536</text><id>SNR</id></comment></pick><pick publicID="de.gempa.tb1.Pick/20250414091908.623296.137055"><time><value>2025-04-14T09:19:00.768393Z</value></time><waveformID networkCode="CX" stationCode="PB06" channelCode="HHN"/><filterID>ITAPER(2)&gt;&gt;BW(3,3,20)</filterID><methodID>L2-AIC-GRID</methodID><horizontalSlowness><value>23.22767975440275</value></horizontalSlowness><backazimuth><value>17.28925437017898</value></backazimuth><phaseHint>S</phaseHint><evaluationMode>automatic</evaluationMode><comment><text>141.88717216110715</text><id>DFX:rectilinearity</id></comment><comment><text>de.gempa.tb1.Pick/20250414091833.499273.137041</text><id>RefPickID</id></comment><comment><text>16.724184040835276</text><id>SNR</id></comment></pick><pick publicID="de.gempa.tb1.Pick/20250414091954.51074.137061"><time><value>2025-04-14T09:19:16.858394Z</value></time><waveformID networkCode="CX" stationCode="PB07" channelCode="HHN"/><filterID>ITAPER(2)&gt;&gt;BW(3,3,20)</filterID><methodID>L2-AIC-GRID</methodID><horizontalSlowness><value>23.15935500953445</value></horizontalSlowness><backazimuth><value>65.90254207771811</value></backazimuth><phaseHint>S</phaseHint><evaluationMode>automatic</evaluationMode><comment><text>679.7168959814082</text><id>DFX:rectilinearity</id></comment><comment><text>de.gempa.tb1.Pick/20250414091904.335081.137050</text><id>RefPickID</id></comment><comment><text>9.448522629792661</text><id>SNR</id></comment></pick><origin publicID="de.gempa.tb1.Origin/20250414091954.513697.133669"><time><value>2025-04-14T09:17:45.945488Z</value><uncertainty>1.3413355350494385</uncertainty></time><latitude><value>-23.829675674438477</value><uncertainty>9.773468017578125</uncertainty></latitude><longitude><value>-67.48147583007812</value><uncertainty>28.764345169067383</uncertainty></longitude><depth><value>211.98313903808594</value><uncertainty>22.876094818115234</uncertainty></depth><depthType>from location</depthType><methodID>LOCSAT</methodID><earthModelID>iasp91_scanloc</earthModelID><quality><associatedPhaseCount>9</associatedPhaseCount><usedPhaseCount>9</usedPhaseCount><associatedStationCount>5</associatedStationCount><usedStationCount>5</usedStationCount><depthPhaseCount>0</depthPhaseCount><standardError>0.24601139876442915</standardError><azimuthalGap>314.1974792480469</azimuthalGap><maximumDistance>3.0505478382110596</maximumDistance><minimumDistance>1.6579484939575195</minimumDistance><medianDistance>2.2241363525390625</medianDistance></quality><uncertainty><minHorizontalUncertainty>16.007686614990234</minHorizontalUncertainty><maxHorizontalUncertainty>63.14541625976562</maxHorizontalUncertainty><azimuthMaxHorizontalUncertainty>77.20612335205078</azimuthMaxHorizontalUncertainty><preferredDescription>horizontal uncertainty</preferredDescription></uncertainty><evaluationMode>automatic</evaluationMode><evaluationStatus>confirmed</evaluationStatus><comment><text>0.09</text><id>mismatchScore</id></comment><comment><text>mismatchScore</text><id>scevalMethod</id></comment><arrival><pickID>de.gempa.tb1.Pick/20250414091828.50851.137037</pickID><phase>P</phase><azimuth>267.0516357421875</azimuth><distance>1.6579484939575195</distance><timeResidual>-0.4505691528320312</timeResidual><timeUsed>true</timeUsed><horizontalSlownessUsed>false</horizontalSlownessUsed><backazimuthUsed>false</backazimuthUsed><weight>1</weight></arrival><arrival><pickID>de.gempa.tb1.Pick/20250414091831.843177.137039</pickID><phase>P</phase><azimuth>288.3143615722656</azimuth><distance>1.9279853105545044</distance><timeResidual>0.19356918334960938</timeResidual><timeUsed>true</timeUsed><horizontalSlownessUsed>false</horizontalSlownessUsed><backazimuthUsed>false</backazimuthUsed><weight>1</weight></arrival><arrival><pickID>de.gempa.tb1.Pick/20250414091833.499273.137041</pickID><phase>P</phase><azimuth>299.7823486328125</azimuth><distance>2.2241363525390625</distance><timeResidual>0.09133529663085938</timeResidual><timeUsed>true</timeUsed><horizontalSlownessUsed>false</horizontalSlownessUsed><backazimuthUsed>false</backazimuthUsed><weight>1</weight></arrival><arrival><pickID>de.gempa.tb1.Pick/20250414091842.176744.137043</pickID><phase>P</phase><azimuth>275.76123046875</azimuth><distance>2.8345863819122314</distance><timeResidual>0.034637451171875</timeResidual><timeUsed>true</timeUsed><horizontalSlownessUsed>false</horizontalSlownessUsed><backazimuthUsed>false</backazimuthUsed><weight>1</weight></arrival><arrival><pickID>de.gempa.tb1.Pick/20250414091858.669152.137047</pickID><phase>S</phase><azimuth>267.0516357421875</azimuth><distance>1.6579484939575195</distance><timeResidual>-0.0831298828125</timeResidual><timeUsed>true</timeUsed><horizontalSlownessUsed>false</horizontalSlownessUsed><backazimuthUsed>false</backazimuthUsed><weight>1</weight></arrival><arrival><pickID>de.gempa.tb1.Pick/20250414091904.335081.137050</pickID><phase>P</phase><azimuth>312.8541564941406</azimuth><distance>3.0505478382110596</distance><timeResidual>0.19815444946289062</timeResidual><timeUsed>true</timeUsed><horizontalSlownessUsed>false</horizontalSlownessUsed><backazimuthUsed>false</backazimuthUsed><weight>1</weight></arrival><arrival><pickID>de.gempa.tb1.Pick/20250414091904.875451.137052</pickID><phase>S</phase><azimuth>288.3143615722656</azimuth><distance>1.9279853105545044</distance><timeResidual>0.34246063232421875</timeResidual><timeUsed>true</timeUsed><horizontalSlownessUsed>false</horizontalSlownessUsed><backazimuthUsed>false</backazimuthUsed><weight>1</weight></arrival><arrival><pickID>de.gempa.tb1.Pick/20250414091908.623296.137055</pickID><phase>S</phase><azimuth>299.7823486328125</azimuth><distance>2.2241363525390625</distance><timeResidual>0.033843994140625</timeResidual><timeUsed>true</timeUsed><horizontalSlownessUsed>false</horizontalSlownessUsed><backazimuthUsed>false</backazimuthUsed><weight>1</weight></arrival><arrival><pickID>de.gempa.tb1.Pick/20250414091954.51074.137061</pickID><phase>S</phase><azimuth>312.8541564941406</azimuth><distance>3.0505478382110596</distance><timeResidual>-0.3606529235839844</timeResidual><timeUsed>true</timeUsed><horizontalSlownessUsed>false</horizontalSlownessUsed><backazimuthUsed>false</backazimuthUsed><weight>1</weight></arrival><magnitude publicID="de.gempa.tb1.Magnitude/20250414091954.520202.462764"><magnitude><value>2.8414410152769367</value></magnitude><type>M</type><methodID>weighted average</methodID><stationCount>2</stationCount></magnitude></origin><event publicID="gempa2025hiyw"><preferredOriginID>de.gempa.tb1.Origin/20250414091954.513697.133669</preferredOriginID><preferredMagnitudeID>de.gempa.tb1.Magnitude/20250414091954.520202.462764</preferredMagnitudeID><description><text>Chile-Argentina Border Region</text><type>region name</type></description><originReference>de.gempa.tb1.Origin/20250414091954.513697.133669</originReference></event></EventParameters></seiscomp>