<?xml version="1.0" encoding="UTF-8"?>
<seiscomp xmlns="http://geofon.gfz-potsdam.de/ns/seiscomp3-schema/0.13" version="0.13"><EventParameters><pick publicID="de.gempa.tb1.Pick/20250414235714.514236.142227"><time><value>2025-04-14T23:57:08.358391Z</value></time><waveformID networkCode="CX" stationCode="PB01" channelCode="HHZ"/><filterID>ITAPER(4)&gt;&gt;BW(4,4,20)</filterID><methodID>AIC</methodID><horizontalSlowness><value>11.59667599355969</value></horizontalSlowness><backazimuth><value>352.74854162211085</value></backazimuth><phaseHint>P</phaseHint><evaluationMode>automatic</evaluationMode><comment><text>4.318195352368398</text><id>DFX:rectilinearity</id></comment><comment><text>53.51556200384818</text><id>SNR</id></comment></pick><pick publicID="de.gempa.tb1.Pick/20250414235715.082798.142229"><time><value>2025-04-14T23:57:09.408393Z</value></time><waveformID networkCode="CX" stationCode="PB08" channelCode="HHZ"/><filterID>ITAPER(4)&gt;&gt;BW(4,4,20)</filterID><methodID>AIC</methodID><horizontalSlowness><value>15.571382139798848</value></horizontalSlowness><backazimuth><value>88.51272259732426</value></backazimuth><phaseHint>P</phaseHint><evaluationMode>automatic</evaluationMode><comment><text>6.127017182655789</text><id>DFX:rectilinearity</id></comment><comment><text>7.195450516121487</text><id>SNR</id></comment></pick><pick publicID="de.gempa.tb1.Pick/20250414235718.564952.142231"><time><value>2025-04-14T23:57:13.428393Z</value></time><waveformID networkCode="CX" stationCode="PB02" channelCode="HHZ"/><filterID>ITAPER(4)&gt;&gt;BW(4,4,20)</filterID><methodID>AIC</methodID><horizontalSlowness><value>22.183266829820756</value></horizontalSlowness><backazimuth><value>269.90487708492066</value></backazimuth><phaseHint>P</phaseHint><evaluationMode>automatic</evaluationMode><comment><text>29.588094047867994</text><id>DFX:rectilinearity</id></comment><comment><text>23.82922990980263</text><id>SNR</id></comment></pick><pick publicID="de.gempa.tb1.Pick/20250414235723.384445.142233"><time><value>2025-04-14T23:57:14.529999Z</value></time><waveformID networkCode="CX" stationCode="PATCX" channelCode="HHZ"/><filterID>ITAPER(4)&gt;&gt;BW(4,4,20)</filterID><methodID>AIC</methodID><horizontalSlowness><value>18.345795284137186</value></horizontalSlowness><backazimuth><value>61.43073302380512</value></backazimuth><phaseHint>P</phaseHint><evaluationMode>automatic</evaluationMode><comment><text>105.19542357963236</text><id>DFX:rectilinearity</id></comment><comment><text>13.914215989909662</text><id>SNR</id></comment></pick><pick publicID="de.gempa.tb1.Pick/20250414235725.495032.142235"><time><value>2025-04-14T23:57:19.3Z</value></time><waveformID networkCode="CX" stationCode="PSGCX" channelCode="HHZ"/><filterID>ITAPER(4)&gt;&gt;BW(4,4,20)</filterID><methodID>AIC</methodID><horizontalSlowness><value>15.79201324306919</value></horizontalSlowness><backazimuth><value>106.84092416399413</value></backazimuth><phaseHint>P</phaseHint><evaluationMode>automatic</evaluationMode><comment><text>14.065610683319486</text><id>DFX:rectilinearity</id></comment><comment><text>60.96452087849068</text><id>SNR</id></comment></pick><pick publicID="de.gempa.tb1.Pick/20250414235726.329692.142237"><time><value>2025-04-14T23:57:14.219998Z</value></time><waveformID networkCode="CX" stationCode="PB09" channelCode="HHZ"/><filterID>ITAPER(4)&gt;&gt;BW(4,4,20)</filterID><methodID>AIC</methodID><horizontalSlowness><value>11.670127342513746</value></horizontalSlowness><backazimuth><value>262.94072529300144</value></backazimuth><phaseHint>P</phaseHint><evaluationMode>automatic</evaluationMode><comment><text>7.691013783926937</text><id>DFX:rectilinearity</id></comment><comment><text>11.513156945691144</text><id>SNR</id></comment></pick><pick publicID="de.gempa.tb1.Pick/20250414235729.780451.142239"><time><value>2025-04-14T23:57:21.328391Z</value></time><waveformID networkCode="CX" stationCode="PB01" channelCode="HHN"/><filterID>ITAPER(2)&gt;&gt;BW(3,3,20)</filterID><methodID>L2-AIC-GRID</methodID><horizontalSlowness><value>23.332009965730766</value></horizontalSlowness><backazimuth><value>179.74909710216153</value></backazimuth><phaseHint>S</phaseHint><evaluationMode>automatic</evaluationMode><comment><text>248.23523521966715</text><id>DFX:rectilinearity</id></comment><comment><text>de.gempa.tb1.Pick/20250414235714.514236.142227</text><id>RefPickID</id></comment><comment><text>15.152628411705443</text><id>SNR</id></comment></pick><pick publicID="de.gempa.tb1.Pick/20250414235730.709722.142240"><time><value>2025-04-14T23:57:22.578393Z</value></time><waveformID networkCode="CX" stationCode="PB08" channelCode="HHN"/><filterID>ITAPER(2)&gt;&gt;BW(3,3,20)</filterID><methodID>L2-AIC-GRID</methodID><horizontalSlowness><value>16.278235797860603</value></horizontalSlowness><backazimuth><value>190.4682060836765</value></backazimuth><phaseHint>S</phaseHint><evaluationMode>automatic</evaluationMode><comment><text>29.146311080667246</text><id>DFX:rectilinearity</id></comment><comment><text>de.gempa.tb1.Pick/20250414235715.082798.142229</text><id>RefPickID</id></comment><comment><text>9.156974944394753</text><id>SNR</id></comment></pick><pick publicID="de.gempa.tb1.Pick/20250414235739.544122.142243"><time><value>2025-04-14T23:57:30.318393Z</value></time><waveformID networkCode="CX" stationCode="PB02" channelCode="HHN"/><filterID>ITAPER(2)&gt;&gt;BW(3,3,20)</filterID><methodID>L2-AIC-GRID</methodID><horizontalSlowness><value>21.211936943121273</value></horizontalSlowness><backazimuth><value>237.31017878819313</value></backazimuth><phaseHint>S</phaseHint><evaluationMode>automatic</evaluationMode><comment><text>195.7146043681543</text><id>DFX:rectilinearity</id></comment><comment><text>de.gempa.tb1.Pick/20250414235718.564952.142231</text><id>RefPickID</id></comment><comment><text>6.897315909686604</text><id>SNR</id></comment></pick><pick publicID="de.gempa.tb1.Pick/20250414235740.284887.142244"><time><value>2025-04-14T23:57:32.369999Z</value></time><waveformID networkCode="CX" stationCode="PATCX" channelCode="HHN"/><filterID>ITAPER(2)&gt;&gt;BW(3,3,20)</filterID><methodID>L2-AIC-GRID</methodID><horizontalSlowness><value>19.10169456772967</value></horizontalSlowness><backazimuth><value>333.01390645525913</value></backazimuth><phaseHint>S</phaseHint><evaluationMode>automatic</evaluationMode><comment><text>108.93934800226833</text><id>DFX:rectilinearity</id></comment><comment><text>de.gempa.tb1.Pick/20250414235723.384445.142233</text><id>RefPickID</id></comment><comment><text>6.644594165670031</text><id>SNR</id></comment></pick><origin publicID="de.gempa.tb1.Origin/20250414235741.277501.155347"><time><value>2025-04-14T23:56:52.032158Z</value><uncertainty>0.957597017288208</uncertainty></time><latitude><value>-20.744327545166016</value><uncertainty>4.648880004882812</uncertainty></latitude><longitude><value>-68.9063491821289</value><uncertainty>7.261172771453857</uncertainty></longitude><depth><value>102.01402282714844</value><uncertainty>7.798545837402344</uncertainty></depth><depthType>from location</depthType><methodID>LOCSAT</methodID><earthModelID>iasp91_scanloc</earthModelID><quality><associatedPhaseCount>10</associatedPhaseCount><usedPhaseCount>10</usedPhaseCount><associatedStationCount>6</associatedStationCount><usedStationCount>6</usedStationCount><depthPhaseCount>0</depthPhaseCount><standardError>0.43026622385436064</standardError><azimuthalGap>217.7367401123047</azimuthalGap><maximumDistance>1.6152046918869019</maximumDistance><minimumDistance>0.6193743944168091</minimumDistance><medianDistance>1.0874546766281128</medianDistance></quality><uncertainty><minHorizontalUncertainty>8.834673881530762</minHorizontalUncertainty><maxHorizontalUncertainty>16.240808486938477</maxHorizontalUncertainty><azimuthMaxHorizontalUncertainty>109.80775451660156</azimuthMaxHorizontalUncertainty><preferredDescription>horizontal uncertainty</preferredDescription></uncertainty><evaluationMode>automatic</evaluationMode><evaluationStatus>confirmed</evaluationStatus><comment><text>0.00</text><id>mismatchScore</id></comment><comment><text>mismatchScore</text><id>scevalMethod</id></comment><arrival><pickID>de.gempa.tb1.Pick/20250414235714.514236.142227</pickID><phase>P</phase><azimuth>241.2006378173828</azimuth><distance>0.6193743944168091</distance><timeResidual>-0.5855598449707031</timeResidual><timeUsed>true</timeUsed><horizontalSlownessUsed>false</horizontalSlownessUsed><backazimuthUsed>false</backazimuthUsed><weight>1</weight></arrival><arrival><pickID>de.gempa.tb1.Pick/20250414235715.082798.142229</pickID><phase>P</phase><azimuth>338.8486328125</azimuth><distance>0.6433104276657104</distance><timeResidual>0.2601432800292969</timeResidual><timeUsed>true</timeUsed><horizontalSlownessUsed>false</horizontalSlownessUsed><backazimuthUsed>false</backazimuthUsed><weight>1</weight></arrival><arrival><pickID>de.gempa.tb1.Pick/20250414235718.564952.142231</pickID><phase>P</phase><azimuth>238.0556945800781</azimuth><distance>1.0874546766281128</distance><timeResidual>-0.1308460235595703</timeResidual><timeUsed>true</timeUsed><horizontalSlownessUsed>false</horizontalSlownessUsed><backazimuthUsed>false</backazimuthUsed><weight>1</weight></arrival><arrival><pickID>de.gempa.tb1.Pick/20250414235723.384445.142233</pickID><phase>P</phase><azimuth>266.0523986816406</azimuth><distance>1.1688724756240845</distance><timeResidual>0.05304336547851562</timeResidual><timeUsed>true</timeUsed><horizontalSlownessUsed>false</horizontalSlownessUsed><backazimuthUsed>false</backazimuthUsed><weight>1</weight></arrival><arrival><pickID>de.gempa.tb1.Pick/20250414235725.495032.142235</pickID><phase>P</phase><azimuth>314.7474060058594</azimuth><distance>1.6152046918869019</distance><timeResidual>-0.5224876403808594</timeResidual><timeUsed>true</timeUsed><horizontalSlownessUsed>false</horizontalSlownessUsed><backazimuthUsed>false</backazimuthUsed><weight>1</weight></arrival><arrival><pickID>de.gempa.tb1.Pick/20250414235726.329692.142237</pickID><phase>P</phase><azimuth>196.5853729248047</azimuth><distance>1.092632532119751</distance><timeResidual>0.6055412292480469</timeResidual><timeUsed>true</timeUsed><horizontalSlownessUsed>false</horizontalSlownessUsed><backazimuthUsed>false</backazimuthUsed><weight>1</weight></arrival><arrival><pickID>de.gempa.tb1.Pick/20250414235729.780451.142239</pickID><phase>S</phase><azimuth>241.2006378173828</azimuth><distance>0.6193743944168091</distance><timeResidual>-0.6264495849609375</timeResidual><timeUsed>true</timeUsed><horizontalSlownessUsed>false</horizontalSlownessUsed><backazimuthUsed>false</backazimuthUsed><weight>1</weight></arrival><arrival><pickID>de.gempa.tb1.Pick/20250414235730.709722.142240</pickID><phase>S</phase><azimuth>338.8486328125</azimuth><distance>0.6433104276657104</distance><timeResidual>0.2610931396484375</timeResidual><timeUsed>true</timeUsed><horizontalSlownessUsed>false</horizontalSlownessUsed><backazimuthUsed>false</backazimuthUsed><weight>1</weight></arrival><arrival><pickID>de.gempa.tb1.Pick/20250414235739.544122.142243</pickID><phase>S</phase><azimuth>238.0556945800781</azimuth><distance>1.0874546766281128</distance><timeResidual>0.13586807250976562</timeResidual><timeUsed>true</timeUsed><horizontalSlownessUsed>false</horizontalSlownessUsed><backazimuthUsed>false</backazimuthUsed><weight>1</weight></arrival><arrival><pickID>de.gempa.tb1.Pick/20250414235740.284887.142244</pickID><phase>S</phase><azimuth>266.0523986816406</azimuth><distance>1.1688724756240845</distance><timeResidual>0.5495986938476562</timeResidual><timeUsed>true</timeUsed><horizontalSlownessUsed>false</horizontalSlownessUsed><backazimuthUsed>false</backazimuthUsed><weight>1</weight></arrival><magnitude publicID="de.gempa.tb1.Magnitude/20250414235745.938532.552931"><magnitude><value>2.1973397878144487</value></magnitude><type>M</type><methodID>weighted average</methodID><stationCount>3</stationCount></magnitude></origin><event publicID="gempa2025hkce"><preferredOriginID>de.gempa.tb1.Origin/20250414235741.277501.155347</preferredOriginID><preferredMagnitudeID>de.gempa.tb1.Magnitude/20250414235745.938532.552931</preferredMagnitudeID><description><text>Chile-Bolivia Border Region</text><type>region name</type></description><originReference>de.gempa.tb1.Origin/20250414235741.277501.155347</originReference></event></EventParameters></seiscomp>