<?xml version="1.0" encoding="UTF-8"?>
<seiscomp xmlns="http://geofon.gfz-potsdam.de/ns/seiscomp3-schema/0.13" version="0.13"><EventParameters><pick publicID="de.gempa.tb1.Pick/20250412055723.938595.122305"><time><value>2025-04-12T05:57:18.048393Z</value></time><waveformID networkCode="CX" stationCode="PB15" channelCode="HHZ"/><filterID>ITAPER(4)&gt;&gt;BW(4,4,20)</filterID><methodID>AIC</methodID><horizontalSlowness><value>21.58419918078976</value></horizontalSlowness><backazimuth><value>97.44799810490197</value></backazimuth><phaseHint>P</phaseHint><evaluationMode>automatic</evaluationMode><comment><text>203.7463202982263</text><id>DFX:rectilinearity</id></comment><comment><text>17.369274022799008</text><id>SNR</id></comment></pick><pick publicID="de.gempa.tb1.Pick/20250412055724.527039.122307"><time><value>2025-04-12T05:57:18.878393Z</value></time><waveformID networkCode="CX" stationCode="PB06" channelCode="HHZ"/><filterID>ITAPER(4)&gt;&gt;BW(4,4,20)</filterID><methodID>AIC</methodID><horizontalSlowness><value>1.5457373961830756</value></horizontalSlowness><backazimuth><value>93.29282346937474</value></backazimuth><phaseHint>P</phaseHint><evaluationMode>automatic</evaluationMode><comment><text>60.18505895434751</text><id>DFX:rectilinearity</id></comment><comment><text>12.194524770255207</text><id>SNR</id></comment></pick><pick publicID="de.gempa.tb1.Pick/20250412055728.492008.122309"><time><value>2025-04-12T05:57:22.2Z</value></time><waveformID networkCode="CX" stationCode="PB19" channelCode="HHZ"/><filterID>ITAPER(4)&gt;&gt;BW(4,4,20)</filterID><methodID>AIC</methodID><horizontalSlowness><value>10.649473013447899</value></horizontalSlowness><backazimuth><value>233.901796593463</value></backazimuth><phaseHint>P</phaseHint><evaluationMode>automatic</evaluationMode><comment><text>25.99260318673104</text><id>DFX:rectilinearity</id></comment><comment><text>29.241114661115656</text><id>SNR</id></comment></pick><pick publicID="de.gempa.tb1.Pick/20250412055737.544887.122311"><time><value>2025-04-12T05:57:30.848393Z</value></time><waveformID networkCode="CX" stationCode="PB15" channelCode="HHN"/><filterID>ITAPER(2)&gt;&gt;BW(3,3,20)</filterID><methodID>L2-AIC-GRID</methodID><horizontalSlowness><value>20.145814295695086</value></horizontalSlowness><backazimuth><value>96.6167555850573</value></backazimuth><phaseHint>S</phaseHint><evaluationMode>automatic</evaluationMode><comment><text>2910.7263435663976</text><id>DFX:rectilinearity</id></comment><comment><text>de.gempa.tb1.Pick/20250412055723.938595.122305</text><id>RefPickID</id></comment><comment><text>6.918609092173782</text><id>SNR</id></comment></pick><pick publicID="de.gempa.tb1.Pick/20250412055739.625672.122312"><time><value>2025-04-12T05:57:32.448393Z</value></time><waveformID networkCode="CX" stationCode="PB06" channelCode="HHN"/><filterID>ITAPER(2)&gt;&gt;BW(3,3,20)</filterID><methodID>L2-AIC-GRID</methodID><horizontalSlowness><value>17.324327705188121</value></horizontalSlowness><backazimuth><value>241.1981679606855</value></backazimuth><phaseHint>S</phaseHint><evaluationMode>automatic</evaluationMode><comment><text>266.91582429579535</text><id>DFX:rectilinearity</id></comment><comment><text>de.gempa.tb1.Pick/20250412055724.527039.122307</text><id>RefPickID</id></comment><comment><text>8.703484735606748</text><id>SNR</id></comment></pick><pick publicID="de.gempa.tb1.Pick/20250412055747.167138.122313"><time><value>2025-04-12T05:57:25.43Z</value></time><waveformID networkCode="CX" stationCode="PB09" channelCode="HHZ"/><filterID>ITAPER(4)&gt;&gt;BW(4,4,20)</filterID><methodID>AIC</methodID><horizontalSlowness><value>20.929607802685886</value></horizontalSlowness><backazimuth><value>310.2019245639165</value></backazimuth><phaseHint>P</phaseHint><evaluationMode>automatic</evaluationMode><comment><text>6.340913858081477</text><id>DFX:rectilinearity</id></comment><comment><text>13.044796021388775</text><id>SNR</id></comment></pick><pick publicID="de.gempa.tb1.Pick/20250412055750.591962.122316"><time><value>2025-04-12T05:57:37.8Z</value></time><waveformID networkCode="CX" stationCode="PB19" channelCode="HHN"/><filterID>ITAPER(2)&gt;&gt;BW(3,3,20)</filterID><methodID>L2-AIC-GRID</methodID><horizontalSlowness><value>18.925428284743116</value></horizontalSlowness><backazimuth><value>20.165805124937378</value></backazimuth><phaseHint>S</phaseHint><evaluationMode>automatic</evaluationMode><comment><text>130.0639037229239</text><id>DFX:rectilinearity</id></comment><comment><text>de.gempa.tb1.Pick/20250412055728.492008.122309</text><id>RefPickID</id></comment><comment><text>7.181672793551171</text><id>SNR</id></comment></pick><origin publicID="de.gempa.tb1.Origin/20250412055750.595255.75654"><time><value>2025-04-12T05:57:01.563766Z</value><uncertainty>1.4540609121322632</uncertainty></time><latitude><value>-23.018096923828125</value><uncertainty>6.858251571655273</uncertainty></latitude><longitude><value>-69.1116943359375</value><uncertainty>37.99043655395508</uncertainty></longitude><depth><value>113.3361053466797</value><uncertainty>21.15964698791504</uncertainty></depth><depthType>from location</depthType><methodID>LOCSAT</methodID><earthModelID>iasp91_scanloc</earthModelID><quality><associatedPhaseCount>7</associatedPhaseCount><usedPhaseCount>7</usedPhaseCount><associatedStationCount>4</associatedStationCount><usedStationCount>4</usedStationCount><depthPhaseCount>0</depthPhaseCount><standardError>0.07820346307238363</standardError><azimuthalGap>196.19688415527344</azimuthalGap><maximumDistance>1.2218542098999023</maximumDistance><minimumDistance>0.381098598241806</minimumDistance><medianDistance>0.5261011719703674</medianDistance></quality><uncertainty><minHorizontalUncertainty>9.951642036437988</minHorizontalUncertainty><maxHorizontalUncertainty>82.18592071533203</maxHorizontalUncertainty><azimuthMaxHorizontalUncertainty>82.37201690673828</azimuthMaxHorizontalUncertainty><preferredDescription>horizontal uncertainty</preferredDescription></uncertainty><evaluationMode>automatic</evaluationMode><evaluationStatus>confirmed</evaluationStatus><comment><text>0.00</text><id>mismatchScore</id></comment><comment><text>mismatchScore</text><id>scevalMethod</id></comment><arrival><pickID>de.gempa.tb1.Pick/20250412055723.938595.122305</pickID><phase>P</phase><azimuth>240.1371612548828</azimuth><distance>0.381098598241806</distance><timeResidual>-0.05303192138671875</timeResidual><timeUsed>true</timeUsed><horizontalSlownessUsed>false</horizontalSlownessUsed><backazimuthUsed>false</backazimuthUsed><weight>1</weight></arrival><arrival><pickID>de.gempa.tb1.Pick/20250412055724.527039.122307</pickID><phase>P</phase><azimuth>306.1263732910156</azimuth><distance>0.5261011719703674</distance><timeResidual>-0.09572219848632812</timeResidual><timeUsed>true</timeUsed><horizontalSlownessUsed>false</horizontalSlownessUsed><backazimuthUsed>false</backazimuthUsed><weight>1</weight></arrival><arrival><pickID>de.gempa.tb1.Pick/20250412055728.492008.122309</pickID><phase>P</phase><azimuth>190.51185607910156</azimuth><distance>0.8977816104888916</distance><timeResidual>0.14518356323242188</timeResidual><timeUsed>true</timeUsed><horizontalSlownessUsed>false</horizontalSlownessUsed><backazimuthUsed>false</backazimuthUsed><weight>1</weight></arrival><arrival><pickID>de.gempa.tb1.Pick/20250412055737.544887.122311</pickID><phase>S</phase><azimuth>240.1371612548828</azimuth><distance>0.381098598241806</distance><timeResidual>0.015331268310546875</timeResidual><timeUsed>true</timeUsed><horizontalSlownessUsed>false</horizontalSlownessUsed><backazimuthUsed>false</backazimuthUsed><weight>1</weight></arrival><arrival><pickID>de.gempa.tb1.Pick/20250412055739.625672.122312</pickID><phase>S</phase><azimuth>306.1263732910156</azimuth><distance>0.5261011719703674</distance><timeResidual>0.06343650817871094</timeResidual><timeUsed>true</timeUsed><horizontalSlownessUsed>false</horizontalSlownessUsed><backazimuthUsed>false</backazimuthUsed><weight>1</weight></arrival><arrival><pickID>de.gempa.tb1.Pick/20250412055747.167138.122313</pickID><phase>P</phase><azimuth>354.3149719238281</azimuth><distance>1.2218542098999023</distance><timeResidual>-0.0011425018310546875</timeResidual><timeUsed>true</timeUsed><horizontalSlownessUsed>false</horizontalSlownessUsed><backazimuthUsed>false</backazimuthUsed><weight>1</weight></arrival><arrival><pickID>de.gempa.tb1.Pick/20250412055750.591962.122316</pickID><phase>S</phase><azimuth>190.51185607910156</azimuth><distance>0.8977816104888916</distance><timeResidual>-0.07413864135742188</timeResidual><timeUsed>true</timeUsed><horizontalSlownessUsed>false</horizontalSlownessUsed><backazimuthUsed>false</backazimuthUsed><weight>1</weight></arrival><magnitude publicID="de.gempa.tb1.Magnitude/20250412055750.60048.184905"><magnitude><value>1.8935801603634363</value></magnitude><type>M</type><methodID>weighted average</methodID><stationCount>3</stationCount></magnitude></origin><event publicID="gempa2025hfac"><preferredOriginID>de.gempa.tb1.Origin/20250412055750.595255.75654</preferredOriginID><preferredMagnitudeID>de.gempa.tb1.Magnitude/20250412055750.60048.184905</preferredMagnitudeID><description><text>Northern Chile</text><type>region name</type></description><originReference>de.gempa.tb1.Origin/20250412055750.595255.75654</originReference></event></EventParameters></seiscomp>