<?xml version="1.0" encoding="UTF-8"?>
<seiscomp xmlns="http://geofon.gfz-potsdam.de/ns/seiscomp3-schema/0.13" version="0.13"><EventParameters><pick publicID="de.gempa.tb1.Pick/20250415070135.551288.117811"><time><value>2025-04-15T07:01:30.328393Z</value></time><waveformID networkCode="CX" stationCode="PB01" channelCode="HHZ"/><filterID>ITAPER(4)&gt;&gt;BW(4,4,20)</filterID><methodID>AIC</methodID><horizontalSlowness><value>20.181478962044729</value></horizontalSlowness><backazimuth><value>128.86844529540113</value></backazimuth><phaseHint>P</phaseHint><evaluationMode>automatic</evaluationMode><comment><text>8.807962259560385</text><id>DFX:rectilinearity</id></comment><comment><text>21.194426594964696</text><id>SNR</id></comment></pick><pick publicID="de.gempa.tb1.Pick/20250415070138.667503.117813"><time><value>2025-04-15T07:01:33.538393Z</value></time><waveformID networkCode="CX" stationCode="PB02" channelCode="HHZ"/><filterID>ITAPER(4)&gt;&gt;BW(4,4,20)</filterID><methodID>AIC</methodID><horizontalSlowness><value>7.962403406633652</value></horizontalSlowness><backazimuth><value>315.6432978791868</value></backazimuth><phaseHint>P</phaseHint><evaluationMode>automatic</evaluationMode><comment><text>57.44651782316623</text><id>DFX:rectilinearity</id></comment><comment><text>17.5430301473151</text><id>SNR</id></comment></pick><pick publicID="de.gempa.tb1.Pick/20250415070140.535103.117815"><time><value>2025-04-15T07:01:34.608393Z</value></time><waveformID networkCode="CX" stationCode="PB03" channelCode="HHZ"/><filterID>ITAPER(4)&gt;&gt;BW(4,4,20)</filterID><methodID>AIC</methodID><horizontalSlowness><value>12.534434362883983</value></horizontalSlowness><backazimuth><value>359.66493844398713</value></backazimuth><phaseHint>P</phaseHint><evaluationMode>automatic</evaluationMode><comment><text>11.74443070487279</text><id>DFX:rectilinearity</id></comment><comment><text>7.511981522481738</text><id>SNR</id></comment></pick><pick publicID="de.gempa.tb1.Pick/20250415070150.394866.117817"><time><value>2025-04-15T07:01:30.289998Z</value></time><waveformID networkCode="CX" stationCode="PB09" channelCode="HHZ"/><filterID>ITAPER(4)&gt;&gt;BW(4,4,20)</filterID><methodID>AIC</methodID><horizontalSlowness><value>8.870637623226138</value></horizontalSlowness><backazimuth><value>222.96332524777063</value></backazimuth><phaseHint>P</phaseHint><evaluationMode>automatic</evaluationMode><comment><text>12.521805714336802</text><id>DFX:rectilinearity</id></comment><comment><text>22.043824598095892</text><id>SNR</id></comment></pick><pick publicID="de.gempa.tb1.Pick/20250415070155.613448.117824"><time><value>2025-04-15T07:01:44.478393Z</value></time><waveformID networkCode="CX" stationCode="PB01" channelCode="HHN"/><filterID>ITAPER(2)&gt;&gt;BW(3,3,20)</filterID><methodID>L2-AIC-GRID</methodID><horizontalSlowness><value>22.3324951645817</value></horizontalSlowness><backazimuth><value>16.982258063032987</value></backazimuth><phaseHint>S</phaseHint><evaluationMode>automatic</evaluationMode><comment><text>169.75841902783142</text><id>DFX:rectilinearity</id></comment><comment><text>de.gempa.tb1.Pick/20250415070135.551288.117811</text><id>RefPickID</id></comment><comment><text>22.208127643528563</text><id>SNR</id></comment></pick><pick publicID="de.gempa.tb1.Pick/20250415070158.169801.117827"><time><value>2025-04-15T07:01:34.158396Z</value></time><waveformID networkCode="CX" stationCode="PB07" channelCode="HHZ"/><filterID>ITAPER(4)&gt;&gt;BW(4,4,20)</filterID><methodID>AIC</methodID><horizontalSlowness><value>20.666054412409743</value></horizontalSlowness><backazimuth><value>261.2535913548906</value></backazimuth><phaseHint>P</phaseHint><evaluationMode>automatic</evaluationMode><comment><text>349.12235057156357</text><id>DFX:rectilinearity</id></comment><comment><text>15.182219858052743</text><id>SNR</id></comment></pick><pick publicID="de.gempa.tb1.Pick/20250415070158.485531.117829"><time><value>2025-04-15T07:01:49.908393Z</value></time><waveformID networkCode="CX" stationCode="PB02" channelCode="HHN"/><filterID>ITAPER(2)&gt;&gt;BW(3,3,20)</filterID><methodID>L2-AIC-GRID</methodID><horizontalSlowness><value>18.247909511354862</value></horizontalSlowness><backazimuth><value>27.135795264344267</value></backazimuth><phaseHint>S</phaseHint><evaluationMode>automatic</evaluationMode><comment><text>111.56897323393849</text><id>DFX:rectilinearity</id></comment><comment><text>de.gempa.tb1.Pick/20250415070138.667503.117813</text><id>RefPickID</id></comment><comment><text>6.988288919283005</text><id>SNR</id></comment></pick><pick publicID="de.gempa.tb1.Pick/20250415070159.787454.117830"><time><value>2025-04-15T07:01:52.178393Z</value></time><waveformID networkCode="CX" stationCode="PB03" channelCode="HHN"/><filterID>ITAPER(2)&gt;&gt;BW(3,3,20)</filterID><methodID>L2-AIC-GRID</methodID><horizontalSlowness><value>18.218603117882186</value></horizontalSlowness><backazimuth><value>157.82970401661504</value></backazimuth><phaseHint>S</phaseHint><evaluationMode>automatic</evaluationMode><comment><text>11.548538180833383</text><id>DFX:rectilinearity</id></comment><comment><text>de.gempa.tb1.Pick/20250415070140.535103.117815</text><id>RefPickID</id></comment><comment><text>5.584179122456747</text><id>SNR</id></comment></pick><origin publicID="de.gempa.tb1.Origin/20250415070159.81664.56557"><time><value>2025-04-15T07:01:12.225087Z</value><uncertainty>1.3205673694610596</uncertainty></time><latitude><value>-21.31813621520996</value><uncertainty>7.422236442565918</uncertainty></latitude><longitude><value>-68.848388671875</value><uncertainty>13.293249130249023</uncertainty></longitude><depth><value>112.2720947265625</value><uncertainty>14.342042922973633</uncertainty></depth><depthType>from location</depthType><methodID>LOCSAT</methodID><earthModelID>iasp91_scanloc</earthModelID><quality><associatedPhaseCount>8</associatedPhaseCount><usedPhaseCount>8</usedPhaseCount><associatedStationCount>5</associatedStationCount><usedStationCount>5</usedStationCount><depthPhaseCount>0</depthPhaseCount><standardError>0.1470097252559126</standardError><azimuthalGap>282.9911804199219</azimuthalGap><maximumDistance>1.1118581295013428</maximumDistance><minimumDistance>0.6005659103393555</minimumDistance><medianDistance>0.9768105745315552</medianDistance></quality><uncertainty><minHorizontalUncertainty>15.414764404296875</minHorizontalUncertainty><maxHorizontalUncertainty>28.779909133911133</maxHorizontalUncertainty><azimuthMaxHorizontalUncertainty>99.38494873046875</azimuthMaxHorizontalUncertainty><preferredDescription>horizontal uncertainty</preferredDescription></uncertainty><evaluationMode>automatic</evaluationMode><evaluationStatus>confirmed</evaluationStatus><comment><text>0.00</text><id>mismatchScore</id></comment><comment><text>mismatchScore</text><id>scevalMethod</id></comment><arrival><pickID>de.gempa.tb1.Pick/20250415070135.551288.117811</pickID><phase>P</phase><azimuth>294.5252990722656</azimuth><distance>0.6561010479927063</distance><timeResidual>-0.15737152099609375</timeResidual><timeUsed>true</timeUsed><horizontalSlownessUsed>false</horizontalSlownessUsed><backazimuthUsed>false</backazimuthUsed><weight>1</weight></arrival><arrival><pickID>de.gempa.tb1.Pick/20250415070138.667503.117813</pickID><phase>P</phase><azimuth>269.71759033203125</azimuth><distance>0.9768105745315552</distance><timeResidual>0.12943077087402344</timeResidual><timeUsed>true</timeUsed><horizontalSlownessUsed>false</horizontalSlownessUsed><backazimuthUsed>false</backazimuthUsed><weight>1</weight></arrival><arrival><pickID>de.gempa.tb1.Pick/20250415070140.535103.117815</pickID><phase>P</phase><azimuth>229.0174255371094</azimuth><distance>1.1118581295013428</distance><timeResidual>-0.20006752014160156</timeResidual><timeUsed>true</timeUsed><horizontalSlownessUsed>false</horizontalSlownessUsed><backazimuthUsed>false</backazimuthUsed><weight>1</weight></arrival><arrival><pickID>de.gempa.tb1.Pick/20250415070150.394866.117817</pickID><phase>P</phase><azimuth>217.5164794921875</azimuth><distance>0.6005659103393555</distance><timeResidual>0.2394733428955078</timeResidual><timeUsed>true</timeUsed><horizontalSlownessUsed>false</horizontalSlownessUsed><backazimuthUsed>false</backazimuthUsed><weight>1</weight></arrival><arrival><pickID>de.gempa.tb1.Pick/20250415070155.613448.117824</pickID><phase>S</phase><azimuth>294.5252990722656</azimuth><distance>0.6561010479927063</distance><timeResidual>-0.08006858825683594</timeResidual><timeUsed>true</timeUsed><horizontalSlownessUsed>false</horizontalSlownessUsed><backazimuthUsed>false</backazimuthUsed><weight>1</weight></arrival><arrival><pickID>de.gempa.tb1.Pick/20250415070158.169801.117827</pickID><phase>P</phase><azimuth>246.9944610595703</azimuth><distance>1.0483243465423584</distance><timeResidual>0.018411636352539062</timeResidual><timeUsed>true</timeUsed><horizontalSlownessUsed>false</horizontalSlownessUsed><backazimuthUsed>false</backazimuthUsed><weight>1</weight></arrival><arrival><pickID>de.gempa.tb1.Pick/20250415070158.485531.117829</pickID><phase>S</phase><azimuth>269.71759033203125</azimuth><distance>0.9768105745315552</distance><timeResidual>0.13913536071777344</timeResidual><timeUsed>true</timeUsed><horizontalSlownessUsed>false</horizontalSlownessUsed><backazimuthUsed>false</backazimuthUsed><weight>1</weight></arrival><arrival><pickID>de.gempa.tb1.Pick/20250415070159.787454.117830</pickID><phase>S</phase><azimuth>229.0174255371094</azimuth><distance>1.1118581295013428</distance><timeResidual>-0.08884620666503906</timeResidual><timeUsed>true</timeUsed><horizontalSlownessUsed>false</horizontalSlownessUsed><backazimuthUsed>false</backazimuthUsed><weight>1</weight></arrival><magnitude publicID="de.gempa.tb1.Magnitude/20250415070202.576219.100596"><magnitude><value>1.813437895233594</value></magnitude><type>M</type><methodID>weighted average</methodID><stationCount>4</stationCount></magnitude></origin><event publicID="gempa2025hkqi"><preferredOriginID>de.gempa.tb1.Origin/20250415070159.81664.56557</preferredOriginID><preferredMagnitudeID>de.gempa.tb1.Magnitude/20250415070202.576219.100596</preferredMagnitudeID><description><text>Chile-Bolivia Border Region</text><type>region name</type></description><originReference>de.gempa.tb1.Origin/20250415070159.81664.56557</originReference></event></EventParameters></seiscomp>