<?xml version="1.0" encoding="UTF-8"?>
<seiscomp xmlns="http://geofon.gfz-potsdam.de/ns/seiscomp3-schema/0.13" version="0.13"><EventParameters><pick publicID="de.gempa.tb1.Pick/20250411231537.597414.120573"><time><value>2025-04-11T23:15:31.278393Z</value></time><waveformID networkCode="CX" stationCode="PB02" channelCode="HHZ"/><filterID>ITAPER(4)&gt;&gt;BW(4,4,20)</filterID><methodID>AIC</methodID><horizontalSlowness><value>20.825388795791255</value></horizontalSlowness><backazimuth><value>99.13033028846694</value></backazimuth><phaseHint>P</phaseHint><evaluationMode>automatic</evaluationMode><comment><text>25.9656348929625</text><id>DFX:rectilinearity</id></comment><comment><text>24.41380395146979</text><id>SNR</id></comment></pick><pick publicID="de.gempa.tb1.Pick/20250411231542.625389.120575"><time><value>2025-04-11T23:15:34.548393Z</value></time><waveformID networkCode="CX" stationCode="PB07" channelCode="HHZ"/><filterID>ITAPER(4)&gt;&gt;BW(4,4,20)</filterID><methodID>AIC</methodID><horizontalSlowness><value>23.39881764648214</value></horizontalSlowness><backazimuth><value>93.3750231478751</value></backazimuth><phaseHint>P</phaseHint><evaluationMode>automatic</evaluationMode><comment><text>157.6221201036803</text><id>DFX:rectilinearity</id></comment><comment><text>18.296534909869873</text><id>SNR</id></comment></pick><pick publicID="de.gempa.tb1.Pick/20250411231544.580451.120577"><time><value>2025-04-11T23:15:35.708393Z</value></time><waveformID networkCode="CX" stationCode="PB02" channelCode="HHN"/><filterID>ITAPER(2)&gt;&gt;BW(3,3,20)</filterID><methodID>L2-AIC-GRID</methodID><horizontalSlowness><value>11.407905828123756</value></horizontalSlowness><backazimuth><value>40.821035657476983</value></backazimuth><phaseHint>S</phaseHint><evaluationMode>automatic</evaluationMode><comment><text>29.9592428212265</text><id>DFX:rectilinearity</id></comment><comment><text>de.gempa.tb1.Pick/20250411231537.597414.120573</text><id>RefPickID</id></comment><comment><text>13.954342112442344</text><id>SNR</id></comment></pick><pick publicID="de.gempa.tb1.Pick/20250411231550.421325.120578"><time><value>2025-04-11T23:15:42.828393Z</value></time><waveformID networkCode="CX" stationCode="PB03" channelCode="HHZ"/><filterID>ITAPER(4)&gt;&gt;BW(4,4,20)</filterID><methodID>AIC</methodID><horizontalSlowness><value>15.23875663134572</value></horizontalSlowness><backazimuth><value>211.08990039289492</value></backazimuth><phaseHint>P</phaseHint><evaluationMode>automatic</evaluationMode><comment><text>6.299923566957602</text><id>DFX:rectilinearity</id></comment><comment><text>6.686517424102143</text><id>SNR</id></comment></pick><pick publicID="de.gempa.tb1.Pick/20250411231557.149959.120580"><time><value>2025-04-11T23:15:37.6Z</value></time><waveformID networkCode="CX" stationCode="PB09" channelCode="HHZ"/><filterID>ITAPER(4)&gt;&gt;BW(4,4,20)</filterID><methodID>AIC</methodID><horizontalSlowness><value>15.34172889631638</value></horizontalSlowness><backazimuth><value>286.3604753540406</value></backazimuth><phaseHint>P</phaseHint><evaluationMode>automatic</evaluationMode><comment><text>6.70511475481572</text><id>DFX:rectilinearity</id></comment><comment><text>31.37399969663217</text><id>SNR</id></comment></pick><pick publicID="de.gempa.tb1.Pick/20250411231558.561934.120582"><time><value>2025-04-11T23:15:46.83Z</value></time><waveformID networkCode="CX" stationCode="PB09" channelCode="HHN"/><filterID>ITAPER(2)&gt;&gt;BW(3,3,20)</filterID><methodID>L2-AIC-GRID</methodID><horizontalSlowness><value>14.44722627130721</value></horizontalSlowness><backazimuth><value>275.0520125022657</value></backazimuth><phaseHint>S</phaseHint><evaluationMode>automatic</evaluationMode><comment><text>8.681416415166659</text><id>DFX:rectilinearity</id></comment><comment><text>de.gempa.tb1.Pick/20250411231557.149959.120580</text><id>RefPickID</id></comment><comment><text>6.109974467595224</text><id>SNR</id></comment></pick><origin publicID="de.gempa.tb1.Origin/20250411231558.5654.67954"><time><value>2025-04-11T23:15:25.099346Z</value><uncertainty>1.9384946823120117</uncertainty></time><latitude><value>-21.2172908782959</value><uncertainty>11.793692588806152</uncertainty></latitude><longitude><value>-69.58014678955078</value><uncertainty>6.74842643737793</uncertainty></longitude><depth><value>4.841239929199219</value><uncertainty>55.26578903198242</uncertainty></depth><depthType>from location</depthType><methodID>LOCSAT</methodID><earthModelID>iasp91_scanloc</earthModelID><quality><associatedPhaseCount>6</associatedPhaseCount><usedPhaseCount>6</usedPhaseCount><associatedStationCount>4</associatedStationCount><usedStationCount>4</usedStationCount><depthPhaseCount>0</depthPhaseCount><standardError>0.9555959464279458</standardError><azimuthalGap>260.5430145263672</azimuthalGap><maximumDistance>0.8426217436790466</maximumDistance><minimumDistance>0.3117590844631195</minimumDistance><medianDistance>0.6567012667655945</medianDistance></quality><uncertainty><minHorizontalUncertainty>8.021873474121094</minHorizontalUncertainty><maxHorizontalUncertainty>28.022754669189453</maxHorizontalUncertainty><azimuthMaxHorizontalUncertainty>26.667478561401367</azimuthMaxHorizontalUncertainty><preferredDescription>horizontal uncertainty</preferredDescription></uncertainty><evaluationMode>automatic</evaluationMode><evaluationStatus>confirmed</evaluationStatus><comment><text>0.45</text><id>mismatchScore</id></comment><comment><text>mismatchScore</text><id>scevalMethod</id></comment><arrival><pickID>de.gempa.tb1.Pick/20250411231537.597414.120573</pickID><phase>P</phase><azimuth>250.8586730957031</azimuth><distance>0.3117590844631195</distance><timeResidual>0.14073467254638672</timeResidual><timeUsed>true</timeUsed><horizontalSlownessUsed>false</horizontalSlownessUsed><backazimuthUsed>false</backazimuthUsed><weight>1</weight></arrival><arrival><pickID>de.gempa.tb1.Pick/20250411231542.625389.120575</pickID><phase>P</phase><azimuth>209.29608154296875</azimuth><distance>0.5815257430076599</distance><timeResidual>-1.732922077178955</timeResidual><timeUsed>true</timeUsed><horizontalSlownessUsed>false</horizontalSlownessUsed><backazimuthUsed>false</backazimuthUsed><weight>1</weight></arrival><arrival><pickID>de.gempa.tb1.Pick/20250411231544.580451.120577</pickID><phase>S</phase><azimuth>250.8586730957031</azimuth><distance>0.3117590844631195</distance><timeResidual>0.18762540817260742</timeResidual><timeUsed>true</timeUsed><horizontalSlownessUsed>false</horizontalSlownessUsed><backazimuthUsed>false</backazimuthUsed><weight>1</weight></arrival><arrival><pickID>de.gempa.tb1.Pick/20250411231550.421325.120578</pickID><phase>P</phase><azimuth>190.97776794433594</azimuth><distance>0.8426217436790466</distance><timeResidual>1.550457000732422</timeResidual><timeUsed>true</timeUsed><horizontalSlownessUsed>false</horizontalSlownessUsed><backazimuthUsed>false</backazimuthUsed><weight>1</weight></arrival><arrival><pickID>de.gempa.tb1.Pick/20250411231557.149959.120580</pickID><phase>P</phase><azimuth>151.4016876220703</azimuth><distance>0.6567012667655945</distance><timeResidual>-0.11915111541748047</timeResidual><timeUsed>true</timeUsed><horizontalSlownessUsed>false</horizontalSlownessUsed><backazimuthUsed>false</backazimuthUsed><weight>1</weight></arrival><arrival><pickID>de.gempa.tb1.Pick/20250411231558.561934.120582</pickID><phase>S</phase><azimuth>151.4016876220703</azimuth><distance>0.6567012667655945</distance><timeResidual>-0.05328655242919922</timeResidual><timeUsed>true</timeUsed><horizontalSlownessUsed>false</horizontalSlownessUsed><backazimuthUsed>false</backazimuthUsed><weight>1</weight></arrival><magnitude publicID="de.gempa.tb1.Magnitude/20250411231614.508435.152516"><magnitude><value>1.7220799898798795</value></magnitude><type>M</type><methodID>weighted average</methodID><stationCount>4</stationCount></magnitude></origin><event publicID="gempa2025hems"><preferredOriginID>de.gempa.tb1.Origin/20250411231558.5654.67954</preferredOriginID><preferredMagnitudeID>de.gempa.tb1.Magnitude/20250411231614.508435.152516</preferredMagnitudeID><description><text>Northern Chile</text><type>region name</type></description><originReference>de.gempa.tb1.Origin/20250411231558.5654.67954</originReference></event></EventParameters></seiscomp>