<?xml version="1.0" encoding="UTF-8"?>
<seiscomp xmlns="http://geofon.gfz-potsdam.de/ns/seiscomp3-schema/0.13" version="0.13"><EventParameters><pick publicID="de.gempa.tb1.Pick/20250412093508.764278.123250"><time><value>2025-04-12T09:35:04.238393Z</value></time><waveformID networkCode="CX" stationCode="PB01" channelCode="HHZ"/><filterID>ITAPER(4)&gt;&gt;BW(4,4,20)</filterID><methodID>AIC</methodID><horizontalSlowness><value>10.49086498527168</value></horizontalSlowness><backazimuth><value>27.484709007600316</value></backazimuth><phaseHint>P</phaseHint><evaluationMode>automatic</evaluationMode><comment><text>141.23441636226536</text><id>DFX:rectilinearity</id></comment><comment><text>37.18340505606806</text><id>SNR</id></comment></pick><pick publicID="de.gempa.tb1.Pick/20250412093512.533957.123252"><time><value>2025-04-12T09:35:05.528394Z</value></time><waveformID networkCode="CX" stationCode="PB08" channelCode="HHZ"/><filterID>ITAPER(4)&gt;&gt;BW(4,4,20)</filterID><methodID>AIC</methodID><horizontalSlowness><value>15.011317906209774</value></horizontalSlowness><backazimuth><value>90.32125438332181</value></backazimuth><phaseHint>P</phaseHint><evaluationMode>automatic</evaluationMode><comment><text>11.32499944685348</text><id>DFX:rectilinearity</id></comment><comment><text>10.180625469854167</text><id>SNR</id></comment></pick><pick publicID="de.gempa.tb1.Pick/20250412093516.502613.123254"><time><value>2025-04-12T09:35:09.328393Z</value></time><waveformID networkCode="CX" stationCode="PB02" channelCode="HHZ"/><filterID>ITAPER(4)&gt;&gt;BW(4,4,20)</filterID><methodID>AIC</methodID><horizontalSlowness><value>2.881586704256666</value></horizontalSlowness><backazimuth><value>37.446344785332144</value></backazimuth><phaseHint>P</phaseHint><evaluationMode>automatic</evaluationMode><comment><text>63.9007590512651</text><id>DFX:rectilinearity</id></comment><comment><text>13.177337426938722</text><id>SNR</id></comment></pick><pick publicID="de.gempa.tb1.Pick/20250412093521.562596.123256"><time><value>2025-04-12T09:35:14.478393Z</value></time><waveformID networkCode="CX" stationCode="PB03" channelCode="HHZ"/><filterID>ITAPER(4)&gt;&gt;BW(4,4,20)</filterID><methodID>AIC</methodID><horizontalSlowness><value>8.646733953088672</value></horizontalSlowness><backazimuth><value>273.1213908596328</value></backazimuth><phaseHint>P</phaseHint><evaluationMode>automatic</evaluationMode><comment><text>4.937406484091395</text><id>DFX:rectilinearity</id></comment><comment><text>12.345109997876346</text><id>SNR</id></comment></pick><pick publicID="de.gempa.tb1.Pick/20250412093524.552075.123260"><time><value>2025-04-12T09:35:15.56Z</value></time><waveformID networkCode="CX" stationCode="PSGCX" channelCode="HHZ"/><filterID>ITAPER(4)&gt;&gt;BW(4,4,20)</filterID><methodID>AIC</methodID><horizontalSlowness><value>2.6829770523762093</value></horizontalSlowness><backazimuth><value>218.25072173904275</value></backazimuth><phaseHint>P</phaseHint><evaluationMode>automatic</evaluationMode><comment><text>27.494280608655615</text><id>DFX:rectilinearity</id></comment><comment><text>11.529220582584705</text><id>SNR</id></comment></pick><pick publicID="de.gempa.tb1.Pick/20250412093524.782128.123262"><time><value>2025-04-12T09:35:16.928393Z</value></time><waveformID networkCode="CX" stationCode="PB01" channelCode="HHN"/><filterID>ITAPER(2)&gt;&gt;BW(3,3,20)</filterID><methodID>L2-AIC-GRID</methodID><horizontalSlowness><value>20.60630159353618</value></horizontalSlowness><backazimuth><value>315.4267315896848</value></backazimuth><phaseHint>S</phaseHint><evaluationMode>automatic</evaluationMode><comment><text>408.2660623397124</text><id>DFX:rectilinearity</id></comment><comment><text>de.gempa.tb1.Pick/20250412093508.764278.123250</text><id>RefPickID</id></comment><comment><text>10.698715423446313</text><id>SNR</id></comment></pick><pick publicID="de.gempa.tb1.Pick/20250412093525.974817.123263"><time><value>2025-04-12T09:35:09.700001Z</value></time><waveformID networkCode="CX" stationCode="PB09" channelCode="HHZ"/><filterID>ITAPER(4)&gt;&gt;BW(4,4,20)</filterID><methodID>AIC</methodID><horizontalSlowness><value>22.656803938497315</value></horizontalSlowness><backazimuth><value>108.91889138777327</value></backazimuth><phaseHint>P</phaseHint><evaluationMode>automatic</evaluationMode><comment><text>8.512717253587601</text><id>DFX:rectilinearity</id></comment><comment><text>23.88121671150146</text><id>SNR</id></comment></pick><pick publicID="de.gempa.tb1.Pick/20250412093527.216706.123265"><time><value>2025-04-12T09:35:18.888394Z</value></time><waveformID networkCode="CX" stationCode="PB08" channelCode="HHN"/><filterID>ITAPER(2)&gt;&gt;BW(3,3,20)</filterID><methodID>L2-AIC-GRID</methodID><horizontalSlowness><value>10.539703636454103</value></horizontalSlowness><backazimuth><value>207.01356436577743</value></backazimuth><phaseHint>S</phaseHint><evaluationMode>automatic</evaluationMode><comment><text>45.88315408291505</text><id>DFX:rectilinearity</id></comment><comment><text>de.gempa.tb1.Pick/20250412093512.533957.123252</text><id>RefPickID</id></comment><comment><text>12.22734294049203</text><id>SNR</id></comment></pick><pick publicID="de.gempa.tb1.Pick/20250412093530.188069.123266"><time><value>2025-04-12T09:35:11.898289Z</value></time><waveformID networkCode="CX" stationCode="PB07" channelCode="HHZ"/><filterID>ITAPER(4)&gt;&gt;BW(4,4,20)</filterID><methodID>AIC</methodID><horizontalSlowness><value>22.92144854584099</value></horizontalSlowness><backazimuth><value>106.9987407038016</value></backazimuth><phaseHint>P</phaseHint><evaluationMode>automatic</evaluationMode><comment><text>209.47675281060592</text><id>DFX:rectilinearity</id></comment><comment><text>22.16096692213623</text><id>SNR</id></comment></pick><pick publicID="de.gempa.tb1.Pick/20250412093533.676536.123268"><time><value>2025-04-12T09:35:25.358393Z</value></time><waveformID networkCode="CX" stationCode="PB02" channelCode="HHN"/><filterID>ITAPER(2)&gt;&gt;BW(3,3,20)</filterID><methodID>L2-AIC-GRID</methodID><horizontalSlowness><value>13.144406682782558</value></horizontalSlowness><backazimuth><value>273.14113998250383</value></backazimuth><phaseHint>S</phaseHint><evaluationMode>automatic</evaluationMode><comment><text>636.3154329697173</text><id>DFX:rectilinearity</id></comment><comment><text>de.gempa.tb1.Pick/20250412093516.502613.123254</text><id>RefPickID</id></comment><comment><text>6.73530539598472</text><id>SNR</id></comment></pick><pick publicID="de.gempa.tb1.Pick/20250412093539.054651.123270"><time><value>2025-04-12T09:35:26.900001Z</value></time><waveformID networkCode="CX" stationCode="PB09" channelCode="HHN"/><filterID>ITAPER(2)&gt;&gt;BW(3,3,20)</filterID><methodID>L2-AIC-GRID</methodID><horizontalSlowness><value>14.71041162636315</value></horizontalSlowness><backazimuth><value>293.10070480185783</value></backazimuth><phaseHint>S</phaseHint><evaluationMode>automatic</evaluationMode><comment><text>139.85010349042466</text><id>DFX:rectilinearity</id></comment><comment><text>de.gempa.tb1.Pick/20250412093525.974817.123263</text><id>RefPickID</id></comment><comment><text>5.415373093746534</text><id>SNR</id></comment></pick><pick publicID="de.gempa.tb1.Pick/20250412093540.598458.123272"><time><value>2025-04-12T09:35:34.118393Z</value></time><waveformID networkCode="CX" stationCode="PB03" channelCode="HHN"/><filterID>ITAPER(2)&gt;&gt;BW(3,3,20)</filterID><methodID>L2-AIC-GRID</methodID><horizontalSlowness><value>11.536914045464128</value></horizontalSlowness><backazimuth><value>214.06877139858284</value></backazimuth><phaseHint>S</phaseHint><evaluationMode>automatic</evaluationMode><comment><text>176.79794909118817</text><id>DFX:rectilinearity</id></comment><comment><text>de.gempa.tb1.Pick/20250412093521.562596.123256</text><id>RefPickID</id></comment><comment><text>7.282462665294009</text><id>SNR</id></comment></pick><pick publicID="de.gempa.tb1.Pick/20250412093546.766738.123275"><time><value>2025-04-12T09:35:36.19Z</value></time><waveformID networkCode="CX" stationCode="PSGCX" channelCode="HHN"/><filterID>ITAPER(2)&gt;&gt;BW(3,3,20)</filterID><methodID>L2-AIC-GRID</methodID><horizontalSlowness><value>15.751561336196774</value></horizontalSlowness><backazimuth><value>165.66086407410626</value></backazimuth><phaseHint>S</phaseHint><evaluationMode>automatic</evaluationMode><comment><text>28.561383304183114</text><id>DFX:rectilinearity</id></comment><comment><text>de.gempa.tb1.Pick/20250412093524.552075.123260</text><id>RefPickID</id></comment><comment><text>6.995240648934095</text><id>SNR</id></comment></pick><origin publicID="de.gempa.tb1.Origin/20250412093546.771032.80294"><time><value>2025-04-12T09:34:48.444118Z</value><uncertainty>0.8757025599479675</uncertainty></time><latitude><value>-20.749370574951172</value><uncertainty>2.6659462451934814</uncertainty></latitude><longitude><value>-69.03562927246094</value><uncertainty>7.107009887695312</uncertainty></longitude><depth><value>104.26567840576172</value><uncertainty>6.563799858093262</uncertainty></depth><depthType>from location</depthType><methodID>LOCSAT</methodID><earthModelID>iasp91_scanloc</earthModelID><quality><associatedPhaseCount>13</associatedPhaseCount><usedPhaseCount>13</usedPhaseCount><associatedStationCount>7</associatedStationCount><usedStationCount>7</usedStationCount><depthPhaseCount>0</depthPhaseCount><standardError>0.31740028829822664</standardError><azimuthalGap>200.78921508789062</azimuthalGap><maximumDistance>1.5354052782058716</maximumDistance><minimumDistance>0.5137335658073425</minimumDistance><medianDistance>1.0594464540481567</medianDistance></quality><uncertainty><minHorizontalUncertainty>5.715675354003906</minHorizontalUncertainty><maxHorizontalUncertainty>15.237170219421387</maxHorizontalUncertainty><azimuthMaxHorizontalUncertainty>90.05139923095703</azimuthMaxHorizontalUncertainty><preferredDescription>horizontal uncertainty</preferredDescription></uncertainty><evaluationMode>automatic</evaluationMode><evaluationStatus>confirmed</evaluationStatus><comment><text>0.04</text><id>mismatchScore</id></comment><comment><text>mismatchScore</text><id>scevalMethod</id></comment><arrival><pickID>de.gempa.tb1.Pick/20250412093508.764278.123250</pickID><phase>P</phase><azimuth>235.2295379638672</azimuth><distance>0.5137335658073425</distance><timeResidual>-0.5434322357177734</timeResidual><timeUsed>true</timeUsed><horizontalSlownessUsed>false</horizontalSlownessUsed><backazimuthUsed>false</backazimuthUsed><weight>1</weight></arrival><arrival><pickID>de.gempa.tb1.Pick/20250412093512.533957.123252</pickID><phase>P</phase><azimuth>349.6371765136719</azimuth><distance>0.6151576638221741</distance><timeResidual>-0.028787612915039059</timeResidual><timeUsed>true</timeUsed><horizontalSlownessUsed>false</horizontalSlownessUsed><backazimuthUsed>false</backazimuthUsed><weight>1</weight></arrival><arrival><pickID>de.gempa.tb1.Pick/20250412093516.502613.123254</pickID><phase>P</phase><azimuth>234.6218566894531</azimuth><distance>0.983915388584137</distance><timeResidual>0.29865264892578125</timeResidual><timeUsed>true</timeUsed><horizontalSlownessUsed>false</horizontalSlownessUsed><backazimuthUsed>false</backazimuthUsed><weight>1</weight></arrival><arrival><pickID>de.gempa.tb1.Pick/20250412093521.562596.123256</pickID><phase>P</phase><azimuth>207.21929931640625</azimuth><distance>1.4553593397140503</distance><timeResidual>0.08209037780761719</timeResidual><timeUsed>true</timeUsed><horizontalSlownessUsed>false</horizontalSlownessUsed><backazimuthUsed>false</backazimuthUsed><weight>1</weight></arrival><arrival><pickID>de.gempa.tb1.Pick/20250412093524.552075.123260</pickID><phase>P</phase><azimuth>318.10675048828125</azimuth><distance>1.5354052782058716</distance><timeResidual>0.1816425323486328</timeResidual><timeUsed>true</timeUsed><horizontalSlownessUsed>false</horizontalSlownessUsed><backazimuthUsed>false</backazimuthUsed><weight>1</weight></arrival><arrival><pickID>de.gempa.tb1.Pick/20250412093524.782128.123262</pickID><phase>S</phase><azimuth>235.2295379638672</azimuth><distance>0.5137335658073425</distance><timeResidual>-0.4186744689941406</timeResidual><timeUsed>true</timeUsed><horizontalSlownessUsed>false</horizontalSlownessUsed><backazimuthUsed>false</backazimuthUsed><weight>1</weight></arrival><arrival><pickID>de.gempa.tb1.Pick/20250412093525.974817.123263</pickID><phase>P</phase><azimuth>190.4263916015625</azimuth><distance>1.0594464540481567</distance><timeResidual>-0.13600444793701172</timeResidual><timeUsed>true</timeUsed><horizontalSlownessUsed>false</horizontalSlownessUsed><backazimuthUsed>false</backazimuthUsed><weight>1</weight></arrival><arrival><pickID>de.gempa.tb1.Pick/20250412093527.216706.123265</pickID><phase>S</phase><azimuth>349.6371765136719</azimuth><distance>0.6151576638221741</distance><timeResidual>0.16279983520507812</timeResidual><timeUsed>true</timeUsed><horizontalSlownessUsed>false</horizontalSlownessUsed><backazimuthUsed>false</backazimuthUsed><weight>1</weight></arrival><arrival><pickID>de.gempa.tb1.Pick/20250412093530.188069.123266</pickID><phase>P</phase><azimuth>219.06036376953125</azimuth><distance>1.2550930976867676</distance><timeResidual>-0.13425731658935547</timeResidual><timeUsed>true</timeUsed><horizontalSlownessUsed>false</horizontalSlownessUsed><backazimuthUsed>false</backazimuthUsed><weight>1</weight></arrival><arrival><pickID>de.gempa.tb1.Pick/20250412093533.676536.123268</pickID><phase>S</phase><azimuth>234.6218566894531</azimuth><distance>0.983915388584137</distance><timeResidual>0.442840576171875</timeResidual><timeUsed>true</timeUsed><horizontalSlownessUsed>false</horizontalSlownessUsed><backazimuthUsed>false</backazimuthUsed><weight>1</weight></arrival><arrival><pickID>de.gempa.tb1.Pick/20250412093539.054651.123270</pickID><phase>S</phase><azimuth>190.4263916015625</azimuth><distance>1.0594464540481567</distance><timeResidual>0.5454597473144531</timeResidual><timeUsed>true</timeUsed><horizontalSlownessUsed>false</horizontalSlownessUsed><backazimuthUsed>false</backazimuthUsed><weight>1</weight></arrival><arrival><pickID>de.gempa.tb1.Pick/20250412093540.598458.123272</pickID><phase>S</phase><azimuth>207.21929931640625</azimuth><distance>1.4553593397140503</distance><timeResidual>-0.3848705291748047</timeResidual><timeUsed>true</timeUsed><horizontalSlownessUsed>false</horizontalSlownessUsed><backazimuthUsed>false</backazimuthUsed><weight>1</weight></arrival><arrival><pickID>de.gempa.tb1.Pick/20250412093546.766738.123275</pickID><phase>S</phase><azimuth>318.10675048828125</azimuth><distance>1.5354052782058716</distance><timeResidual>-0.06716346740722656</timeResidual><timeUsed>true</timeUsed><horizontalSlownessUsed>false</horizontalSlownessUsed><backazimuthUsed>false</backazimuthUsed><weight>1</weight></arrival><magnitude publicID="de.gempa.tb1.Magnitude/20250412093555.938904.205583"><magnitude><value>2.0103983023390808</value></magnitude><type>M</type><methodID>weighted average</methodID><stationCount>5</stationCount></magnitude></origin><event publicID="gempa2025hfhj"><preferredOriginID>de.gempa.tb1.Origin/20250412093546.771032.80294</preferredOriginID><preferredMagnitudeID>de.gempa.tb1.Magnitude/20250412093555.938904.205583</preferredMagnitudeID><description><text>Northern Chile</text><type>region name</type></description><originReference>de.gempa.tb1.Origin/20250412093546.771032.80294</originReference></event></EventParameters></seiscomp>