<?xml version="1.0" encoding="UTF-8"?>
<seiscomp xmlns="http://geofon.gfz-potsdam.de/ns/seiscomp3-schema/0.13" version="0.13"><EventParameters><pick publicID="de.gempa.tb1.Pick/20250414123150.189808.226266"><time><value>2025-04-14T12:31:46.86Z</value></time><waveformID networkCode="CH" stationCode="SLE" channelCode="HHZ"/><filterID>ITAPER(4)&gt;&gt;BW(4,4,20)</filterID><methodID>AIC</methodID><phaseHint>P</phaseHint><evaluationMode>automatic</evaluationMode></pick><pick publicID="de.gempa.tb1.Pick/20250414123150.870961.226270"><time><value>2025-04-14T12:31:47.64Z</value></time><waveformID networkCode="CH" stationCode="METMA" channelCode="HHZ"/><filterID>ITAPER(4)&gt;&gt;BW(4,4,20)</filterID><methodID>AIC</methodID><phaseHint>P</phaseHint><evaluationMode>automatic</evaluationMode></pick><pick publicID="de.gempa.tb1.Pick/20250414123151.312344.226272"><time><value>2025-04-14T12:31:46.975Z</value></time><waveformID networkCode="CH" stationCode="EMING" channelCode="HHZ"/><filterID>ITAPER(4)&gt;&gt;BW(4,4,20)</filterID><methodID>AIC</methodID><phaseHint>P</phaseHint><evaluationMode>automatic</evaluationMode></pick><pick publicID="de.gempa.tb1.Pick/20250414123155.775011.226278"><time><value>2025-04-14T12:31:42.45Z</value></time><waveformID networkCode="CH" stationCode="BERGE" channelCode="HHZ"/><filterID>ITAPER(4)&gt;&gt;BW(4,4,20)</filterID><methodID>AIC</methodID><phaseHint>P</phaseHint><evaluationMode>automatic</evaluationMode></pick><pick publicID="de.gempa.tb1.Pick/20250414123156.317233.226280"><time><value>2025-04-14T12:31:50.8Z</value></time><waveformID networkCode="CH" stationCode="ROTHE" channelCode="HHZ"/><filterID>ITAPER(4)&gt;&gt;BW(4,4,20)</filterID><methodID>AIC</methodID><phaseHint>P</phaseHint><evaluationMode>automatic</evaluationMode></pick><pick publicID="de.gempa.tb1.Pick/20250414123157.167875.226282"><time><value>2025-04-14T12:31:49.49Z</value></time><waveformID networkCode="CH" stationCode="ACB" channelCode="HHZ"/><filterID>ITAPER(4)&gt;&gt;BW(4,4,20)</filterID><methodID>AIC</methodID><phaseHint>P</phaseHint><evaluationMode>automatic</evaluationMode></pick><pick publicID="de.gempa.tb1.Pick/20250414123157.429323.226284"><time><value>2025-04-14T12:31:54.005Z</value></time><waveformID networkCode="CH" stationCode="WILA" channelCode="HHZ"/><filterID>ITAPER(4)&gt;&gt;BW(4,4,20)</filterID><methodID>AIC</methodID><phaseHint>P</phaseHint><evaluationMode>automatic</evaluationMode></pick><pick publicID="de.gempa.tb1.Pick/20250414123157.633123.226286"><time><value>2025-04-14T12:31:48.425Z</value></time><waveformID networkCode="CH" stationCode="BERGE" channelCode="HHN"/><filterID>RMHP(1)&gt;&gt;ITAPER(2)&gt;&gt;BW(4,3,20)</filterID><methodID>L2-AIC-GRID</methodID><phaseHint>S</phaseHint><evaluationMode>automatic</evaluationMode><comment><text>de.gempa.tb1.Pick/20250414123155.775011.226278</text><id>RefPickID</id></comment></pick><pick publicID="de.gempa.tb1.Pick/20250414123207.983242.226291"><time><value>2025-04-14T12:31:56.55Z</value></time><waveformID networkCode="CH" stationCode="METMA" channelCode="HHN"/><filterID>RMHP(1)&gt;&gt;ITAPER(2)&gt;&gt;BW(4,3,20)</filterID><methodID>L2-AIC-GRID</methodID><phaseHint>S</phaseHint><evaluationMode>automatic</evaluationMode><comment><text>de.gempa.tb1.Pick/20250414123150.870961.226270</text><id>RefPickID</id></comment></pick><pick publicID="de.gempa.tb1.Pick/20250414123209.252965.226294"><time><value>2025-04-14T12:31:57.49Z</value></time><waveformID networkCode="CH" stationCode="SLE" channelCode="HHN"/><filterID>RMHP(1)&gt;&gt;ITAPER(2)&gt;&gt;BW(4,3,20)</filterID><methodID>L2-AIC-GRID</methodID><phaseHint>S</phaseHint><evaluationMode>automatic</evaluationMode><comment><text>de.gempa.tb1.Pick/20250414123150.189808.226266</text><id>RefPickID</id></comment></pick><pick publicID="de.gempa.tb1.Pick/20250414123210.317226.226295"><time><value>2025-04-14T12:32:07.195Z</value></time><waveformID networkCode="CH" stationCode="SIMPL" channelCode="HHZ"/><filterID>ITAPER(4)&gt;&gt;BW(4,4,20)</filterID><methodID>AIC</methodID><phaseHint>P</phaseHint><evaluationMode>automatic</evaluationMode></pick><origin publicID="de.gempa.tb1.Origin/20250414123210.322553.140923"><time><value>2025-04-14T12:31:33.201147Z</value><uncertainty>1.307431697845459</uncertainty></time><latitude><value>48.33797073364258</value><uncertainty>7.674316883087158</uncertainty></latitude><longitude><value>7.964844226837158</value><uncertainty>8.045936584472656</uncertainty></longitude><depth><value>9.279448509216309</value><uncertainty>7.162631511688232</uncertainty></depth><depthType>from location</depthType><methodID>LOCSAT</methodID><earthModelID>iasp91</earthModelID><quality><associatedPhaseCount>11</associatedPhaseCount><usedPhaseCount>11</usedPhaseCount><associatedStationCount>8</associatedStationCount><usedStationCount>8</usedStationCount><depthPhaseCount>0</depthPhaseCount><standardError>1.1324668989388522</standardError><azimuthalGap>304.5551071166992</azimuthalGap><maximumDistance>2.0997588634490967</maximumDistance><minimumDistance>0.4880646467208862</minimumDistance><medianDistance>0.6742321252822876</medianDistance></quality><uncertainty><minHorizontalUncertainty>15.29499340057373</minHorizontalUncertainty><maxHorizontalUncertainty>18.30817413330078</maxHorizontalUncertainty><azimuthMaxHorizontalUncertainty>127.29866790771484</azimuthMaxHorizontalUncertainty><preferredDescription>horizontal uncertainty</preferredDescription></uncertainty><evaluationMode>automatic</evaluationMode><evaluationStatus>confirmed</evaluationStatus><comment><text>0.46</text><id>mismatchScore</id></comment><comment><text>mismatchScore</text><id>scevalMethod</id></comment><arrival><pickID>de.gempa.tb1.Pick/20250414123150.189808.226266</pickID><phase>P</phase><azimuth>148.13978576660156</azimuth><distance>0.6742321252822876</distance><timeResidual>0.25571155548095703</timeResidual><timeUsed>true</timeUsed><horizontalSlownessUsed>false</horizontalSlownessUsed><backazimuthUsed>false</backazimuthUsed><weight>1</weight></arrival><arrival><pickID>de.gempa.tb1.Pick/20250414123150.870961.226270</pickID><phase>P</phase><azimuth>162.74929809570312</azimuth><distance>0.6553479433059692</distance><timeResidual>1.3675179481506348</timeResidual><timeUsed>true</timeUsed><horizontalSlownessUsed>false</horizontalSlownessUsed><backazimuthUsed>false</backazimuthUsed><weight>1</weight></arrival><arrival><pickID>de.gempa.tb1.Pick/20250414123151.312344.226272</pickID><phase>P</phase><azimuth>126.53353118896484</azimuth><distance>0.7386247515678406</distance><timeResidual>-0.7608270645141602</timeResidual><timeUsed>true</timeUsed><horizontalSlownessUsed>false</horizontalSlownessUsed><backazimuthUsed>false</backazimuthUsed><weight>1</weight></arrival><arrival><pickID>de.gempa.tb1.Pick/20250414123155.775011.226278</pickID><phase>P</phase><azimuth>162.9013671875</azimuth><distance>0.4880646467208862</distance><timeResidual>-0.8901968002319336</timeResidual><timeUsed>true</timeUsed><horizontalSlownessUsed>false</horizontalSlownessUsed><backazimuthUsed>false</backazimuthUsed><weight>1</weight></arrival><arrival><pickID>de.gempa.tb1.Pick/20250414123156.317233.226280</pickID><phase>P</phase><azimuth>181.97842407226562</azimuth><distance>0.8629240393638611</distance><timeResidual>0.8786249160766602</timeResidual><timeUsed>true</timeUsed><horizontalSlownessUsed>false</horizontalSlownessUsed><backazimuthUsed>false</backazimuthUsed><weight>1</weight></arrival><arrival><pickID>de.gempa.tb1.Pick/20250414123157.167875.226282</pickID><phase>P</phase><azimuth>165.3665313720703</azimuth><distance>0.7757189869880676</distance><timeResidual>1.1013116836547852</timeResidual><timeUsed>true</timeUsed><horizontalSlownessUsed>false</horizontalSlownessUsed><backazimuthUsed>false</backazimuthUsed><weight>1</weight></arrival><arrival><pickID>de.gempa.tb1.Pick/20250414123157.429323.226284</pickID><phase>P</phase><azimuth>145.1661376953125</azimuth><distance>1.1208630800247192</distance><timeResidual>-0.17033672332763672</timeResidual><timeUsed>true</timeUsed><horizontalSlownessUsed>false</horizontalSlownessUsed><backazimuthUsed>false</backazimuthUsed><weight>1</weight></arrival><arrival><pickID>de.gempa.tb1.Pick/20250414123157.633123.226286</pickID><phase>S</phase><azimuth>162.9013671875</azimuth><distance>0.4880646467208862</distance><timeResidual>-2.3329877853393555</timeResidual><timeUsed>true</timeUsed><horizontalSlownessUsed>false</horizontalSlownessUsed><backazimuthUsed>false</backazimuthUsed><weight>1</weight></arrival><arrival><pickID>de.gempa.tb1.Pick/20250414123207.983242.226291</pickID><phase>S</phase><azimuth>162.74929809570312</azimuth><distance>0.6553479433059692</distance><timeResidual>0.726954460144043</timeResidual><timeUsed>true</timeUsed><horizontalSlownessUsed>false</horizontalSlownessUsed><backazimuthUsed>false</backazimuthUsed><weight>1</weight></arrival><arrival><pickID>de.gempa.tb1.Pick/20250414123209.252965.226294</pickID><phase>S</phase><azimuth>148.13978576660156</azimuth><distance>0.6742321252822876</distance><timeResidual>1.0955142974853516</timeResidual><timeUsed>true</timeUsed><horizontalSlownessUsed>false</horizontalSlownessUsed><backazimuthUsed>false</backazimuthUsed><weight>1</weight></arrival><arrival><pickID>de.gempa.tb1.Pick/20250414123210.317226.226295</pickID><phase>P</phase><azimuth>178.9630889892578</azimuth><distance>2.0997588634490967</distance><timeResidual>-1.270890235900879</timeResidual><timeUsed>true</timeUsed><horizontalSlownessUsed>false</horizontalSlownessUsed><backazimuthUsed>false</backazimuthUsed><weight>1</weight></arrival><magnitude publicID="de.gempa.tb1.Magnitude/20250414123416.494966.487965"><magnitude><value>1.9731153712056044</value></magnitude><type>M</type><methodID>weighted average</methodID><stationCount>7</stationCount></magnitude></origin><event publicID="gempa2025hjfi"><preferredOriginID>de.gempa.tb1.Origin/20250414123210.322553.140923</preferredOriginID><preferredMagnitudeID>de.gempa.tb1.Magnitude/20250414123416.494966.487965</preferredMagnitudeID><description><text>France</text><type>region name</type></description><originReference>de.gempa.tb1.Origin/20250414123210.322553.140923</originReference></event></EventParameters></seiscomp>