<?xml version="1.0" encoding="UTF-8"?>
<seiscomp xmlns="http://geofon.gfz-potsdam.de/ns/seiscomp3-schema/0.13" version="0.13"><EventParameters><pick publicID="de.gempa.tb1.Pick/20250415000037.974513.142254"><time><value>2025-04-15T00:00:31.248393Z</value></time><waveformID networkCode="CX" stationCode="PB01" channelCode="HHZ"/><filterID>ITAPER(4)&gt;&gt;BW(4,4,20)</filterID><methodID>AIC</methodID><horizontalSlowness><value>15.721394765569888</value></horizontalSlowness><backazimuth><value>78.79621337999596</value></backazimuth><phaseHint>P</phaseHint><evaluationMode>automatic</evaluationMode><comment><text>3.660449423280812</text><id>DFX:rectilinearity</id></comment><comment><text>57.15366518176778</text><id>SNR</id></comment></pick><pick publicID="de.gempa.tb1.Pick/20250415000041.077453.142256"><time><value>2025-04-15T00:00:34.658393Z</value></time><waveformID networkCode="CX" stationCode="PB02" channelCode="HHZ"/><filterID>ITAPER(4)&gt;&gt;BW(4,4,20)</filterID><methodID>AIC</methodID><horizontalSlowness><value>7.504336250854351</value></horizontalSlowness><backazimuth><value>359.6276954506851</value></backazimuth><phaseHint>P</phaseHint><evaluationMode>automatic</evaluationMode><comment><text>25.561018557583</text><id>DFX:rectilinearity</id></comment><comment><text>14.603973156886925</text><id>SNR</id></comment></pick><pick publicID="de.gempa.tb1.Pick/20250415000041.603111.142258"><time><value>2025-04-15T00:00:33.589999Z</value></time><waveformID networkCode="CX" stationCode="PATCX" channelCode="HHZ"/><filterID>ITAPER(4)&gt;&gt;BW(4,4,20)</filterID><methodID>AIC</methodID><horizontalSlowness><value>20.43451064183382</value></horizontalSlowness><backazimuth><value>261.90704887036486</value></backazimuth><phaseHint>P</phaseHint><evaluationMode>automatic</evaluationMode><comment><text>148.35440332824612</text><id>DFX:rectilinearity</id></comment><comment><text>24.71261094495297</text><id>SNR</id></comment></pick><pick publicID="de.gempa.tb1.Pick/20250415000048.421131.142260"><time><value>2025-04-15T00:00:41.739999Z</value></time><waveformID networkCode="CX" stationCode="PATCX" channelCode="HHN"/><filterID>ITAPER(2)&gt;&gt;BW(3,3,20)</filterID><methodID>L2-AIC-GRID</methodID><horizontalSlowness><value>22.412407796733966</value></horizontalSlowness><backazimuth><value>14.314738336879373</value></backazimuth><phaseHint>S</phaseHint><evaluationMode>automatic</evaluationMode><comment><text>150.24976663519226</text><id>DFX:rectilinearity</id></comment><comment><text>de.gempa.tb1.Pick/20250415000041.603111.142258</text><id>RefPickID</id></comment><comment><text>11.56945544941924</text><id>SNR</id></comment></pick><pick publicID="de.gempa.tb1.Pick/20250415000049.213221.142261"><time><value>2025-04-15T00:00:39.888396Z</value></time><waveformID networkCode="CX" stationCode="PB07" channelCode="HHZ"/><filterID>ITAPER(4)&gt;&gt;BW(4,4,20)</filterID><methodID>AIC</methodID><horizontalSlowness><value>23.492981983740084</value></horizontalSlowness><backazimuth><value>267.1876614510101</value></backazimuth><phaseHint>P</phaseHint><evaluationMode>automatic</evaluationMode><comment><text>254.6226328526215</text><id>DFX:rectilinearity</id></comment><comment><text>13.710358962099326</text><id>SNR</id></comment></pick><pick publicID="de.gempa.tb1.Pick/20250415000049.857048.142263"><time><value>2025-04-15T00:00:44.208393Z</value></time><waveformID networkCode="CX" stationCode="PB03" channelCode="HHZ"/><filterID>ITAPER(4)&gt;&gt;BW(4,4,20)</filterID><methodID>AIC</methodID><horizontalSlowness><value>7.85268350290591</value></horizontalSlowness><backazimuth><value>42.99496199196682</value></backazimuth><phaseHint>P</phaseHint><evaluationMode>automatic</evaluationMode><comment><text>13.174527678803145</text><id>DFX:rectilinearity</id></comment><comment><text>8.017479762375842</text><id>SNR</id></comment></pick><pick publicID="de.gempa.tb1.Pick/20250415000050.125363.142265"><time><value>2025-04-15T00:00:37.078393Z</value></time><waveformID networkCode="CX" stationCode="PB01" channelCode="HHN"/><filterID>ITAPER(2)&gt;&gt;BW(3,3,20)</filterID><methodID>L2-AIC-GRID</methodID><horizontalSlowness><value>21.560582530167856</value></horizontalSlowness><backazimuth><value>113.41748543533103</value></backazimuth><phaseHint>S</phaseHint><evaluationMode>automatic</evaluationMode><comment><text>282.5499053166028</text><id>DFX:rectilinearity</id></comment><comment><text>de.gempa.tb1.Pick/20250415000037.974513.142254</text><id>RefPickID</id></comment><comment><text>31.686377398488805</text><id>SNR</id></comment></pick><pick publicID="de.gempa.tb1.Pick/20250415000050.881353.142266"><time><value>2025-04-15T00:00:44.35Z</value></time><waveformID networkCode="CX" stationCode="PSGCX" channelCode="HHZ"/><filterID>ITAPER(4)&gt;&gt;BW(4,4,20)</filterID><methodID>AIC</methodID><horizontalSlowness><value>17.858629332723059</value></horizontalSlowness><backazimuth><value>208.59561212584333</value></backazimuth><phaseHint>P</phaseHint><evaluationMode>automatic</evaluationMode><comment><text>8.723535080720923</text><id>DFX:rectilinearity</id></comment><comment><text>20.941713505792563</text><id>SNR</id></comment></pick><pick publicID="de.gempa.tb1.Pick/20250415000051.481807.142268"><time><value>2025-04-15T00:00:43.028393Z</value></time><waveformID networkCode="CX" stationCode="PB02" channelCode="HHN"/><filterID>ITAPER(2)&gt;&gt;BW(3,3,20)</filterID><methodID>L2-AIC-GRID</methodID><horizontalSlowness><value>2.3017823942465934</value></horizontalSlowness><backazimuth><value>119.97257348853773</value></backazimuth><phaseHint>S</phaseHint><evaluationMode>automatic</evaluationMode><comment><text>42.331286485831406</text><id>DFX:rectilinearity</id></comment><comment><text>de.gempa.tb1.Pick/20250415000041.077453.142256</text><id>RefPickID</id></comment><comment><text>6.46578915855211</text><id>SNR</id></comment></pick><pick publicID="de.gempa.tb1.Pick/20250415000102.261044.142271"><time><value>2025-04-15T00:00:41.84Z</value></time><waveformID networkCode="CX" stationCode="PB09" channelCode="HHZ"/><filterID>ITAPER(4)&gt;&gt;BW(4,4,20)</filterID><methodID>AIC</methodID><horizontalSlowness><value>17.420707396025957</value></horizontalSlowness><backazimuth><value>301.6445854622291</value></backazimuth><phaseHint>P</phaseHint><evaluationMode>automatic</evaluationMode><comment><text>18.00370785870306</text><id>DFX:rectilinearity</id></comment><comment><text>33.986484913489875</text><id>SNR</id></comment></pick><pick publicID="de.gempa.tb1.Pick/20250415000121.890845.142279"><time><value>2025-04-15T00:00:52.288396Z</value></time><waveformID networkCode="CX" stationCode="PB07" channelCode="HHN"/><filterID>ITAPER(2)&gt;&gt;BW(3,3,20)</filterID><methodID>L2-AIC-GRID</methodID><horizontalSlowness><value>22.242359400325675</value></horizontalSlowness><backazimuth><value>105.37994359873207</value></backazimuth><phaseHint>S</phaseHint><evaluationMode>automatic</evaluationMode><comment><text>531.5212343063005</text><id>DFX:rectilinearity</id></comment><comment><text>de.gempa.tb1.Pick/20250415000049.213221.142261</text><id>RefPickID</id></comment><comment><text>8.203252873364498</text><id>SNR</id></comment></pick><origin publicID="de.gempa.tb1.Origin/20250415000121.894418.155652"><time><value>2025-04-15T00:00:23.190357Z</value><uncertainty>0.5841919779777527</uncertainty></time><latitude><value>-20.812236785888672</value><uncertainty>3.491027593612671</uncertainty></latitude><longitude><value>-69.64522552490234</value><uncertainty>3.9831597805023193</uncertainty></longitude><depth><value>40.54899215698242</value><uncertainty>6.45109748840332</uncertainty></depth><depthType>from location</depthType><methodID>LOCSAT</methodID><earthModelID>iasp91_scanloc</earthModelID><quality><associatedPhaseCount>11</associatedPhaseCount><usedPhaseCount>11</usedPhaseCount><associatedStationCount>7</associatedStationCount><usedStationCount>7</usedStationCount><depthPhaseCount>0</depthPhaseCount><standardError>0.2489258072948518</standardError><azimuthalGap>167.77920532226562</azimuthalGap><maximumDistance>1.2894668579101562</maximumDistance><minimumDistance>0.2731200158596039</minimumDistance><medianDistance>0.5566509962081909</medianDistance></quality><uncertainty><minHorizontalUncertainty>6.679003715515137</minHorizontalUncertainty><maxHorizontalUncertainty>9.184536933898926</maxHorizontalUncertainty><azimuthMaxHorizontalUncertainty>57.58931350708008</azimuthMaxHorizontalUncertainty><preferredDescription>horizontal uncertainty</preferredDescription></uncertainty><evaluationMode>automatic</evaluationMode><evaluationStatus>confirmed</evaluationStatus><comment><text>0.00</text><id>mismatchScore</id></comment><comment><text>mismatchScore</text><id>scevalMethod</id></comment><arrival><pickID>de.gempa.tb1.Pick/20250415000037.974513.142254</pickID><phase>P</phase><azimuth>147.32980346679688</azimuth><distance>0.2731200158596039</distance><timeResidual>0.029277801513671875</timeResidual><timeUsed>true</timeUsed><horizontalSlownessUsed>false</horizontalSlownessUsed><backazimuthUsed>false</backazimuthUsed><weight>1</weight></arrival><arrival><pickID>de.gempa.tb1.Pick/20250415000041.077453.142256</pickID><phase>P</phase><azimuth>204.84066772460938</azimuth><distance>0.5566509962081909</distance><timeResidual>-0.04759311676025391</timeResidual><timeUsed>true</timeUsed><horizontalSlownessUsed>false</horizontalSlownessUsed><backazimuthUsed>false</backazimuthUsed><weight>1</weight></arrival><arrival><pickID>de.gempa.tb1.Pick/20250415000041.603111.142258</pickID><phase>P</phase><azimuth>268.8934020996094</azimuth><distance>0.4749895036220551</distance><timeResidual>-0.037960052490234375</timeResidual><timeUsed>true</timeUsed><horizontalSlownessUsed>false</horizontalSlownessUsed><backazimuthUsed>false</backazimuthUsed><weight>1</weight></arrival><arrival><pickID>de.gempa.tb1.Pick/20250415000048.421131.142260</pickID><phase>S</phase><azimuth>268.8934020996094</azimuth><distance>0.4749895036220551</distance><timeResidual>0.3605489730834961</timeResidual><timeUsed>true</timeUsed><horizontalSlownessUsed>false</horizontalSlownessUsed><backazimuthUsed>false</backazimuthUsed><weight>1</weight></arrival><arrival><pickID>de.gempa.tb1.Pick/20250415000049.213221.142261</pickID><phase>P</phase><azimuth>193.83041381835938</azimuth><distance>0.9372507333755493</distance><timeResidual>0.007824897766113281</timeResidual><timeUsed>true</timeUsed><horizontalSlownessUsed>false</horizontalSlownessUsed><backazimuthUsed>false</backazimuthUsed><weight>1</weight></arrival><arrival><pickID>de.gempa.tb1.Pick/20250415000049.857048.142263</pickID><phase>P</phase><azimuth>184.65121459960938</azimuth><distance>1.234247088432312</distance><timeResidual>0.2547111511230469</timeResidual><timeUsed>true</timeUsed><horizontalSlownessUsed>false</horizontalSlownessUsed><backazimuthUsed>false</backazimuthUsed><weight>1</weight></arrival><arrival><pickID>de.gempa.tb1.Pick/20250415000050.125363.142265</pickID><phase>S</phase><azimuth>147.32980346679688</azimuth><distance>0.2731200158596039</distance><timeResidual>-0.06316757202148438</timeResidual><timeUsed>true</timeUsed><horizontalSlownessUsed>false</horizontalSlownessUsed><backazimuthUsed>false</backazimuthUsed><weight>1</weight></arrival><arrival><pickID>de.gempa.tb1.Pick/20250415000050.881353.142266</pickID><phase>P</phase><azimuth>339.55059814453125</azimuth><distance>1.2894668579101562</distance><timeResidual>-0.3716392517089844</timeResidual><timeUsed>true</timeUsed><horizontalSlownessUsed>false</horizontalSlownessUsed><backazimuthUsed>false</backazimuthUsed><weight>1</weight></arrival><arrival><pickID>de.gempa.tb1.Pick/20250415000051.481807.142268</pickID><phase>S</phase><azimuth>204.84066772460938</azimuth><distance>0.5566509962081909</distance><timeResidual>-0.26870250701904297</timeResidual><timeUsed>true</timeUsed><horizontalSlownessUsed>false</horizontalSlownessUsed><backazimuthUsed>false</backazimuthUsed><weight>1</weight></arrival><arrival><pickID>de.gempa.tb1.Pick/20250415000102.261044.142271</pickID><phase>P</phase><azimuth>159.06405639648438</azimuth><distance>1.0490070581436157</distance><timeResidual>0.42768287658691406</timeResidual><timeUsed>true</timeUsed><horizontalSlownessUsed>false</horizontalSlownessUsed><backazimuthUsed>false</backazimuthUsed><weight>1</weight></arrival><arrival><pickID>de.gempa.tb1.Pick/20250415000121.890845.142279</pickID><phase>S</phase><azimuth>193.83041381835938</azimuth><distance>0.9372507333755493</distance><timeResidual>-0.2913541793823242</timeResidual><timeUsed>true</timeUsed><horizontalSlownessUsed>false</horizontalSlownessUsed><backazimuthUsed>false</backazimuthUsed><weight>1</weight></arrival><magnitude publicID="de.gempa.tb1.Magnitude/20250415000121.901928.553306"><magnitude><value>1.8072300925176645</value></magnitude><type>M</type><methodID>weighted average</methodID><stationCount>7</stationCount></magnitude></origin><event publicID="gempa2025hkch"><preferredOriginID>de.gempa.tb1.Origin/20250415000121.894418.155652</preferredOriginID><preferredMagnitudeID>de.gempa.tb1.Magnitude/20250415000121.901928.553306</preferredMagnitudeID><description><text>Northern Chile</text><type>region name</type></description><originReference>de.gempa.tb1.Origin/20250415000121.894418.155652</originReference></event></EventParameters></seiscomp>