<?xml version="1.0" encoding="UTF-8"?>
<seiscomp xmlns="http://geofon.gfz-potsdam.de/ns/seiscomp3-schema/0.13" version="0.13"><EventParameters><pick publicID="de.gempa.tb1.Pick/20250414093720.719462.219807"><time><value>2025-04-14T09:37:16.41Z</value></time><waveformID networkCode="CH" stationCode="BERGE" channelCode="HHZ"/><filterID>ITAPER(4)&gt;&gt;BW(4,4,20)</filterID><methodID>AIC</methodID><phaseHint>P</phaseHint><evaluationMode>automatic</evaluationMode></pick><pick publicID="de.gempa.tb1.Pick/20250414093723.190885.219834"><time><value>2025-04-14T09:37:20.25Z</value></time><waveformID networkCode="CH" stationCode="SLE" channelCode="HHZ"/><filterID>ITAPER(4)&gt;&gt;BW(4,4,20)</filterID><methodID>AIC</methodID><phaseHint>P</phaseHint><evaluationMode>automatic</evaluationMode></pick><pick publicID="de.gempa.tb1.Pick/20250414093725.182937.219838"><time><value>2025-04-14T09:37:22.485Z</value></time><waveformID networkCode="CH" stationCode="SULZ" channelCode="HHZ"/><filterID>ITAPER(4)&gt;&gt;BW(4,4,20)</filterID><methodID>AIC</methodID><phaseHint>P</phaseHint><evaluationMode>automatic</evaluationMode></pick><pick publicID="de.gempa.tb1.Pick/20250414093725.223414.219840"><time><value>2025-04-14T09:37:22.385Z</value></time><waveformID networkCode="CH" stationCode="EMING" channelCode="HHZ"/><filterID>ITAPER(4)&gt;&gt;BW(4,4,20)</filterID><methodID>AIC</methodID><phaseHint>P</phaseHint><evaluationMode>automatic</evaluationMode></pick><pick publicID="de.gempa.tb1.Pick/20250414093726.701139.219842"><time><value>2025-04-14T09:37:24.32Z</value></time><waveformID networkCode="CH" stationCode="EMMET" channelCode="HHZ"/><filterID>ITAPER(4)&gt;&gt;BW(4,4,20)</filterID><methodID>AIC</methodID><phaseHint>P</phaseHint><evaluationMode>automatic</evaluationMode></pick><pick publicID="de.gempa.tb1.Pick/20250414093727.101224.219844"><time><value>2025-04-14T09:37:23.205Z</value></time><waveformID networkCode="CH" stationCode="ROTHE" channelCode="HHZ"/><filterID>ITAPER(4)&gt;&gt;BW(4,4,20)</filterID><methodID>AIC</methodID><phaseHint>P</phaseHint><evaluationMode>automatic</evaluationMode></pick><pick publicID="de.gempa.tb1.Pick/20250414093727.396598.219846"><time><value>2025-04-14T09:37:25.415Z</value></time><waveformID networkCode="CH" stationCode="TRULL" channelCode="HHZ"/><filterID>ITAPER(4)&gt;&gt;BW(4,4,20)</filterID><methodID>AIC</methodID><phaseHint>P</phaseHint><evaluationMode>automatic</evaluationMode></pick><pick publicID="de.gempa.tb1.Pick/20250414093727.483886.219848"><time><value>2025-04-14T09:37:21.525Z</value></time><waveformID networkCode="CH" stationCode="ACB" channelCode="HHZ"/><filterID>ITAPER(4)&gt;&gt;BW(4,4,20)</filterID><methodID>AIC</methodID><phaseHint>P</phaseHint><evaluationMode>automatic</evaluationMode></pick><pick publicID="de.gempa.tb1.Pick/20250414093729.469815.219854"><time><value>2025-04-14T09:37:19.455Z</value></time><waveformID networkCode="CH" stationCode="METMA" channelCode="HHZ"/><filterID>ITAPER(4)&gt;&gt;BW(4,4,20)</filterID><methodID>AIC</methodID><phaseHint>P</phaseHint><evaluationMode>automatic</evaluationMode></pick><pick publicID="de.gempa.tb1.Pick/20250414093729.82303.219856"><time><value>2025-04-14T09:37:27.09Z</value></time><waveformID networkCode="CH" stationCode="BALST" channelCode="HHZ"/><filterID>ITAPER(4)&gt;&gt;BW(4,4,20)</filterID><methodID>AIC</methodID><phaseHint>P</phaseHint><evaluationMode>automatic</evaluationMode></pick><pick publicID="de.gempa.tb1.Pick/20250414093731.133569.219858"><time><value>2025-04-14T09:37:28.47Z</value></time><waveformID networkCode="CH" stationCode="BOURR" channelCode="HHZ"/><filterID>ITAPER(4)&gt;&gt;BW(4,4,20)</filterID><methodID>AIC</methodID><phaseHint>P</phaseHint><evaluationMode>automatic</evaluationMode></pick><pick publicID="de.gempa.tb1.Pick/20250414093731.500584.219860"><time><value>2025-04-14T09:37:27.645Z</value></time><waveformID networkCode="CH" stationCode="WALHA" channelCode="HHZ"/><filterID>ITAPER(4)&gt;&gt;BW(4,4,20)</filterID><methodID>AIC</methodID><phaseHint>P</phaseHint><evaluationMode>automatic</evaluationMode></pick><pick publicID="de.gempa.tb1.Pick/20250414093732.775769.219862"><time><value>2025-04-14T09:37:28.685Z</value></time><waveformID networkCode="CH" stationCode="DAGMA" channelCode="HHZ"/><filterID>ITAPER(4)&gt;&gt;BW(4,4,20)</filterID><methodID>AIC</methodID><phaseHint>P</phaseHint><evaluationMode>automatic</evaluationMode></pick><pick publicID="de.gempa.tb1.Pick/20250414093732.834476.219864"><time><value>2025-04-14T09:37:29.785Z</value></time><waveformID networkCode="CH" stationCode="WILA" channelCode="HHZ"/><filterID>ITAPER(4)&gt;&gt;BW(4,4,20)</filterID><methodID>AIC</methodID><phaseHint>P</phaseHint><evaluationMode>automatic</evaluationMode></pick><pick publicID="de.gempa.tb1.Pick/20250414093738.232355.219871"><time><value>2025-04-14T09:37:32.135Z</value></time><waveformID networkCode="CH" stationCode="SLE" channelCode="HHN"/><filterID>RMHP(1)&gt;&gt;ITAPER(2)&gt;&gt;BW(4,3,20)</filterID><methodID>L2-AIC-GRID</methodID><phaseHint>S</phaseHint><evaluationMode>automatic</evaluationMode><comment><text>de.gempa.tb1.Pick/20250414093723.190885.219834</text><id>RefPickID</id></comment></pick><pick publicID="de.gempa.tb1.Pick/20250414093739.216291.219872"><time><value>2025-04-14T09:37:36.02Z</value></time><waveformID networkCode="CH" stationCode="BNALP" channelCode="HHZ"/><filterID>ITAPER(4)&gt;&gt;BW(4,4,20)</filterID><methodID>AIC</methodID><phaseHint>P</phaseHint><evaluationMode>automatic</evaluationMode></pick><pick publicID="de.gempa.tb1.Pick/20250414093739.218069.219874"><time><value>2025-04-14T09:37:36.255Z</value></time><waveformID networkCode="CH" stationCode="LIENZ" channelCode="HHZ"/><filterID>ITAPER(4)&gt;&gt;BW(4,4,20)</filterID><methodID>AIC</methodID><phaseHint>P</phaseHint><evaluationMode>automatic</evaluationMode></pick><pick publicID="de.gempa.tb1.Pick/20250414093740.175504.219878"><time><value>2025-04-14T09:37:37.295Z</value></time><waveformID networkCode="CH" stationCode="HASLI" channelCode="HHZ"/><filterID>ITAPER(4)&gt;&gt;BW(4,4,20)</filterID><methodID>AIC</methodID><phaseHint>P</phaseHint><evaluationMode>automatic</evaluationMode></pick><pick publicID="de.gempa.tb1.Pick/20250414093743.151732.219884"><time><value>2025-04-14T09:37:41.305Z</value></time><waveformID networkCode="CH" stationCode="SENIN" channelCode="HHZ"/><filterID>ITAPER(4)&gt;&gt;BW(4,4,20)</filterID><methodID>AIC</methodID><phaseHint>P</phaseHint><evaluationMode>automatic</evaluationMode></pick><pick publicID="de.gempa.tb1.Pick/20250414093745.114571.219890"><time><value>2025-04-14T09:37:43.02Z</value></time><waveformID networkCode="CH" stationCode="FIESA" channelCode="HHZ"/><filterID>ITAPER(4)&gt;&gt;BW(4,4,20)</filterID><methodID>AIC</methodID><phaseHint>P</phaseHint><evaluationMode>automatic</evaluationMode></pick><pick publicID="de.gempa.tb1.Pick/20250414093745.345679.219892"><time><value>2025-04-14T09:37:42.905Z</value></time><waveformID networkCode="CH" stationCode="GIMEL" channelCode="HHZ"/><filterID>ITAPER(4)&gt;&gt;BW(4,4,20)</filterID><methodID>AIC</methodID><phaseHint>P</phaseHint><evaluationMode>automatic</evaluationMode></pick><pick publicID="de.gempa.tb1.Pick/20250414093745.422257.219894"><time><value>2025-04-14T09:37:39.85Z</value></time><waveformID networkCode="CH" stationCode="NALPS" channelCode="HHZ"/><filterID>ITAPER(4)&gt;&gt;BW(4,4,20)</filterID><methodID>AIC</methodID><phaseHint>P</phaseHint><evaluationMode>automatic</evaluationMode></pick><pick publicID="de.gempa.tb1.Pick/20250414093747.038985.219896"><time><value>2025-04-14T09:37:14.819538Z</value></time><waveformID networkCode="GR" stationCode="BFO" channelCode="BHZ"/><filterID>ITAPER(4)&gt;&gt;BW_HP(4,4)</filterID><methodID>AIC</methodID><phaseHint>P</phaseHint><evaluationMode>automatic</evaluationMode></pick><origin publicID="de.gempa.tb1.Origin/20250414093747.042699.137467"><time><value>2025-04-14T09:37:07.726899Z</value><uncertainty>0.7582613825798035</uncertainty></time><latitude><value>48.31629180908203</value><uncertainty>4.959047317504883</uncertainty></latitude><longitude><value>7.814829349517822</value><uncertainty>3.2346622943878174</uncertainty></longitude><depth><value>0</value></depth><depthType>operator assigned</depthType><methodID>LOCSAT</methodID><earthModelID>iasp91</earthModelID><quality><associatedPhaseCount>23</associatedPhaseCount><usedPhaseCount>23</usedPhaseCount><associatedStationCount>22</associatedStationCount><usedStationCount>22</usedStationCount><depthPhaseCount>0</depthPhaseCount><standardError>0.9809705668919695</standardError><azimuthalGap>236.23632049560547</azimuthalGap><maximumDistance>2.0706722736358643</maximumDistance><minimumDistance>0.34434911608695984</minimumDistance><medianDistance>0.9844555258750916</medianDistance></quality><uncertainty><minHorizontalUncertainty>6.570119380950928</minHorizontalUncertainty><maxHorizontalUncertainty>10.868560791015625</maxHorizontalUncertainty><azimuthMaxHorizontalUncertainty>165.07107543945312</azimuthMaxHorizontalUncertainty><preferredDescription>horizontal uncertainty</preferredDescription></uncertainty><evaluationMode>automatic</evaluationMode><evaluationStatus>confirmed</evaluationStatus><comment><text>0.10</text><id>mismatchScore</id></comment><comment><text>mismatchScore</text><id>scevalMethod</id></comment><arrival><pickID>de.gempa.tb1.Pick/20250414093720.719462.219807</pickID><phase>P</phase><azimuth>151.18234252929688</azimuth><distance>0.5072367191314697</distance><timeResidual>-1.1076798439025879</timeResidual><timeUsed>true</timeUsed><horizontalSlownessUsed>false</horizontalSlownessUsed><backazimuthUsed>false</backazimuthUsed><weight>1</weight></arrival><arrival><pickID>de.gempa.tb1.Pick/20250414093723.190885.219834</pickID><phase>P</phase><azimuth>140.2789306640625</azimuth><distance>0.7152772545814514</distance><timeResidual>-1.2228960990905762</timeResidual><timeUsed>true</timeUsed><horizontalSlownessUsed>false</horizontalSlownessUsed><backazimuthUsed>false</backazimuthUsed><weight>1</weight></arrival><arrival><pickID>de.gempa.tb1.Pick/20250414093725.182937.219838</pickID><phase>P</phase><azimuth>165.7013397216797</azimuth><distance>0.814168393611908</distance><timeResidual>-0.8683147430419922</timeResidual><timeUsed>true</timeUsed><horizontalSlownessUsed>false</horizontalSlownessUsed><backazimuthUsed>false</backazimuthUsed><weight>1</weight></arrival><arrival><pickID>de.gempa.tb1.Pick/20250414093725.223414.219840</pickID><phase>P</phase><azimuth>120.96908569335938</azimuth><distance>0.8098928928375244</distance><timeResidual>-0.8863930702209473</timeResidual><timeUsed>true</timeUsed><horizontalSlownessUsed>false</horizontalSlownessUsed><backazimuthUsed>false</backazimuthUsed><weight>1</weight></arrival><arrival><pickID>de.gempa.tb1.Pick/20250414093726.701139.219842</pickID><phase>P</phase><azimuth>171.2742919921875</azimuth><distance>0.8894161581993103</distance><timeResidual>-0.4639973640441895</timeResidual><timeUsed>true</timeUsed><horizontalSlownessUsed>false</horizontalSlownessUsed><backazimuthUsed>false</backazimuthUsed><weight>1</weight></arrival><arrival><pickID>de.gempa.tb1.Pick/20250414093727.101224.219844</pickID><phase>P</phase><azimuth>175.1063690185547</azimuth><distance>0.8437489867210388</distance><timeResidual>-0.710756778717041</timeResidual><timeUsed>true</timeUsed><horizontalSlownessUsed>false</horizontalSlownessUsed><backazimuthUsed>false</backazimuthUsed><weight>1</weight></arrival><arrival><pickID>de.gempa.tb1.Pick/20250414093727.396598.219846</pickID><phase>P</phase><azimuth>138.59950256347656</azimuth><distance>0.8862126469612122</distance><timeResidual>0.6922745704650879</timeResidual><timeUsed>true</timeUsed><horizontalSlownessUsed>false</horizontalSlownessUsed><backazimuthUsed>false</backazimuthUsed><weight>1</weight></arrival><arrival><pickID>de.gempa.tb1.Pick/20250414093727.483886.219848</pickID><phase>P</phase><azimuth>157.78131103515625</azimuth><distance>0.7868039011955261</distance><timeResidual>-1.3079876899719238</timeResidual><timeUsed>true</timeUsed><horizontalSlownessUsed>false</horizontalSlownessUsed><backazimuthUsed>false</backazimuthUsed><weight>1</weight></arrival><arrival><pickID>de.gempa.tb1.Pick/20250414093729.469815.219854</pickID><phase>P</phase><azimuth>153.9071044921875</azimuth><distance>0.6722064018249512</distance><timeResidual>-1.1991734504699707</timeResidual><timeUsed>true</timeUsed><horizontalSlownessUsed>false</horizontalSlownessUsed><backazimuthUsed>false</backazimuthUsed><weight>1</weight></arrival><arrival><pickID>de.gempa.tb1.Pick/20250414093729.82303.219856</pickID><phase>P</phase><azimuth>184.74996948242188</azimuth><distance>0.9844555258750916</distance><timeResidual>0.4990458488464355</timeResidual><timeUsed>true</timeUsed><horizontalSlownessUsed>false</horizontalSlownessUsed><backazimuthUsed>false</backazimuthUsed><weight>1</weight></arrival><arrival><pickID>de.gempa.tb1.Pick/20250414093731.133569.219858</pickID><phase>P</phase><azimuth>203.31690979003906</azimuth><distance>1.0035805702209473</distance><timeResidual>1.523693561553955</timeResidual><timeUsed>true</timeUsed><horizontalSlownessUsed>false</horizontalSlownessUsed><backazimuthUsed>false</backazimuthUsed><weight>1</weight></arrival><arrival><pickID>de.gempa.tb1.Pick/20250414093731.500584.219860</pickID><phase>P</phase><azimuth>122.22183990478516</azimuth><distance>1.0435068607330322</distance><timeResidual>0.03266286849975586</timeResidual><timeUsed>true</timeUsed><horizontalSlownessUsed>false</horizontalSlownessUsed><backazimuthUsed>false</backazimuthUsed><weight>1</weight></arrival><arrival><pickID>de.gempa.tb1.Pick/20250414093732.775769.219862</pickID><phase>P</phase><azimuth>172.92880249023438</azimuth><distance>1.0942387580871582</distance><timeResidual>0.2292771339416504</timeResidual><timeUsed>true</timeUsed><horizontalSlownessUsed>false</horizontalSlownessUsed><backazimuthUsed>false</backazimuthUsed><weight>1</weight></arrival><arrival><pickID>de.gempa.tb1.Pick/20250414093732.834476.219864</pickID><phase>P</phase><azimuth>140.39756774902344</azimuth><distance>1.1641765832901</distance><timeResidual>0.1766352653503418</timeResidual><timeUsed>true</timeUsed><horizontalSlownessUsed>false</horizontalSlownessUsed><backazimuthUsed>false</backazimuthUsed><weight>1</weight></arrival><arrival><pickID>de.gempa.tb1.Pick/20250414093738.232355.219871</pickID><phase>S</phase><azimuth>140.2789306640625</azimuth><distance>0.7152772545814514</distance><timeResidual>1.473618984222412</timeResidual><timeUsed>true</timeUsed><horizontalSlownessUsed>false</horizontalSlownessUsed><backazimuthUsed>false</backazimuthUsed><weight>1</weight></arrival><arrival><pickID>de.gempa.tb1.Pick/20250414093739.216291.219872</pickID><phase>P</phase><azimuth>163.84109497070312</azimuth><distance>1.5044338703155518</distance><timeResidual>0.9411368370056152</timeResidual><timeUsed>true</timeUsed><horizontalSlownessUsed>false</horizontalSlownessUsed><backazimuthUsed>false</backazimuthUsed><weight>1</weight></arrival><arrival><pickID>de.gempa.tb1.Pick/20250414093739.218069.219874</pickID><phase>P</phase><azimuth>131.48678588867188</azimuth><distance>1.5245778560638428</distance><timeResidual>0.8603472709655762</timeResidual><timeUsed>true</timeUsed><horizontalSlownessUsed>false</horizontalSlownessUsed><backazimuthUsed>false</backazimuthUsed><weight>1</weight></arrival><arrival><pickID>de.gempa.tb1.Pick/20250414093740.175504.219878</pickID><phase>P</phase><azimuth>171.56651306152344</azimuth><distance>1.576924443244934</distance><timeResidual>1.080634593963623</timeResidual><timeUsed>true</timeUsed><horizontalSlownessUsed>false</horizontalSlownessUsed><backazimuthUsed>false</backazimuthUsed><weight>1</weight></arrival><arrival><pickID>de.gempa.tb1.Pick/20250414093743.151732.219884</pickID><phase>P</phase><azimuth>190.36227416992188</azimuth><distance>1.9851622581481934</distance><timeResidual>-1.1070713996887207</timeResidual><timeUsed>true</timeUsed><horizontalSlownessUsed>false</horizontalSlownessUsed><backazimuthUsed>false</backazimuthUsed><weight>1</weight></arrival><arrival><pickID>de.gempa.tb1.Pick/20250414093745.114571.219890</pickID><phase>P</phase><azimuth>173.79812622070312</azimuth><distance>1.8927162885665894</distance><timeResidual>1.9821391105651855</timeResidual><timeUsed>true</timeUsed><horizontalSlownessUsed>false</horizontalSlownessUsed><backazimuthUsed>false</backazimuthUsed><weight>1</weight></arrival><arrival><pickID>de.gempa.tb1.Pick/20250414093745.345679.219892</pickID><phase>P</phase><azimuth>211.1051483154297</azimuth><distance>2.0706722736358643</distance><timeResidual>-0.6968369483947754</timeResidual><timeUsed>true</timeUsed><horizontalSlownessUsed>false</horizontalSlownessUsed><backazimuthUsed>false</backazimuthUsed><weight>1</weight></arrival><arrival><pickID>de.gempa.tb1.Pick/20250414093745.422257.219894</pickID><phase>P</phase><azimuth>159.46070861816406</azimuth><distance>1.8348948955535889</distance><timeResidual>-0.3194413185119629</timeResidual><timeUsed>true</timeUsed><horizontalSlownessUsed>false</horizontalSlownessUsed><backazimuthUsed>false</backazimuthUsed><weight>1</weight></arrival><arrival><pickID>de.gempa.tb1.Pick/20250414093747.038985.219896</pickID><phase>P</phase><azimuth>87.34146881103516</azimuth><distance>0.34434911608695984</distance><timeResidual>0.39928674697875977</timeResidual><timeUsed>true</timeUsed><horizontalSlownessUsed>false</horizontalSlownessUsed><backazimuthUsed>false</backazimuthUsed><weight>1</weight></arrival><magnitude publicID="de.gempa.tb1.Magnitude/20250414093748.695124.465511"><magnitude><value>2.167789538330323</value></magnitude><type>M</type><methodID>weighted average</methodID><stationCount>15</stationCount></magnitude></origin><event publicID="gempa2025hizl"><preferredOriginID>de.gempa.tb1.Origin/20250414093747.042699.137467</preferredOriginID><preferredMagnitudeID>de.gempa.tb1.Magnitude/20250414093748.695124.465511</preferredMagnitudeID><description><text>France</text><type>region name</type></description><originReference>de.gempa.tb1.Origin/20250414093747.042699.137467</originReference></event></EventParameters></seiscomp>