<?xml version="1.0" encoding="UTF-8"?>
<seiscomp xmlns="http://geofon.gfz-potsdam.de/ns/seiscomp3-schema/0.13" version="0.13"><EventParameters><pick publicID="de.gempa.tb1.Pick/20250414092447.176935.126715"><time><value>2025-04-14T09:23:19.969538Z</value></time><waveformID networkCode="GR" stationCode="MOX" channelCode="BHZ"/><filterID>BW(4,0.7,2)</filterID><methodID>AIC</methodID><horizontalSlowness><value>16.34809999442923</value></horizontalSlowness><backazimuth><value>307.17757526481057</value></backazimuth><phaseHint>P</phaseHint><evaluationMode>automatic</evaluationMode><comment><text>35.80968171618134</text><id>DFX:rectilinearity</id></comment></pick><pick publicID="de.gempa.tb1.Pick/20250414092521.090257.126749"><time><value>2025-04-14T09:23:40.65Z</value></time><waveformID networkCode="BW" stationCode="ROTZ" channelCode="HHZ"/><methodID>AIC</methodID><horizontalSlowness><value>16.72117989107344</value></horizontalSlowness><backazimuth><value>336.52307359496024</value></backazimuth><phaseHint>P</phaseHint><evaluationMode>automatic</evaluationMode><comment><text>13.804561396417412</text><id>DFX:rectilinearity</id></comment></pick><pick publicID="de.gempa.tb1.Pick/20250414092521.149771.126752"><time><value>2025-04-14T09:23:24.325Z</value></time><waveformID networkCode="BW" stationCode="MANZ" channelCode="HHZ"/><methodID>AIC</methodID><horizontalSlowness><value>20.952597654173069</value></horizontalSlowness><backazimuth><value>116.50942893685114</value></backazimuth><phaseHint>P</phaseHint><evaluationMode>automatic</evaluationMode><comment><text>12.041536398813387</text><id>DFX:rectilinearity</id></comment></pick><pick publicID="de.gempa.tb1.Pick/20250414092521.310735.126755"><time><value>2025-04-14T09:23:15.969999Z</value></time><waveformID networkCode="TH" stationCode="RANIS" channelCode="HHZ"/><methodID>AIC</methodID><horizontalSlowness><value>20.239696027761855</value></horizontalSlowness><backazimuth><value>19.865639189869682</value></backazimuth><phaseHint>P</phaseHint><evaluationMode>automatic</evaluationMode><comment><text>53.41381209904532</text><id>DFX:rectilinearity</id></comment></pick><pick publicID="de.gempa.tb1.Pick/20250414092521.391774.126758"><time><value>2025-04-14T09:23:21.48Z</value></time><waveformID networkCode="SX" stationCode="LANDS" channelCode="HHZ"/><methodID>AIC</methodID><horizontalSlowness><value>15.908092547470204</value></horizontalSlowness><backazimuth><value>217.31900122066673</value></backazimuth><phaseHint>P</phaseHint><evaluationMode>automatic</evaluationMode><comment><text>5.698056733580131</text><id>DFX:rectilinearity</id></comment></pick><pick publicID="de.gempa.tb1.Pick/20250414092521.409425.126760"><time><value>2025-04-14T09:23:15.58Z</value></time><waveformID networkCode="SX" stationCode="FROHN" locationCode="00" channelCode="HHZ"/><methodID>AIC</methodID><horizontalSlowness><value>22.290128976970475</value></horizontalSlowness><backazimuth><value>84.35741646668413</value></backazimuth><phaseHint>P</phaseHint><evaluationMode>automatic</evaluationMode><comment><text>2.9719817555386143</text><id>DFX:rectilinearity</id></comment></pick><pick publicID="de.gempa.tb1.Pick/20250414092521.43297.126764"><time><value>2025-04-14T09:23:40.785Z</value></time><waveformID networkCode="TH" stationCode="VITZ" channelCode="HHZ"/><methodID>AIC</methodID><horizontalSlowness><value>23.544079943063963</value></horizontalSlowness><backazimuth><value>343.10359827139473</value></backazimuth><phaseHint>P</phaseHint><evaluationMode>automatic</evaluationMode><comment><text>4099.6838559576545</text><id>DFX:rectilinearity</id></comment></pick><pick publicID="de.gempa.tb1.Pick/20250414092521.454643.126767"><time><value>2025-04-14T09:23:18.75Z</value></time><waveformID networkCode="TH" stationCode="ABG1" channelCode="HHZ"/><methodID>AIC</methodID><horizontalSlowness><value>23.14610280275833</value></horizontalSlowness><backazimuth><value>229.647727949903</value></backazimuth><phaseHint>P</phaseHint><evaluationMode>automatic</evaluationMode><comment><text>582.6691198735657</text><id>DFX:rectilinearity</id></comment></pick><pick publicID="de.gempa.tb1.Pick/20250414092521.561172.126770"><time><value>2025-04-14T09:23:24.560598Z</value></time><waveformID networkCode="SX" stationCode="MEINS" channelCode="HHZ"/><methodID>AIC</methodID><horizontalSlowness><value>18.402000995933093</value></horizontalSlowness><backazimuth><value>294.36625360101664</value></backazimuth><phaseHint>P</phaseHint><evaluationMode>automatic</evaluationMode><comment><text>31.634205590465086</text><id>DFX:rectilinearity</id></comment></pick><pick publicID="de.gempa.tb1.Pick/20250414092521.692076.126776"><time><value>2025-04-14T09:23:16.57Z</value></time><waveformID networkCode="SX" stationCode="NEUB" channelCode="HHZ"/><methodID>AIC</methodID><horizontalSlowness><value>22.2870051764698</value></horizontalSlowness><backazimuth><value>289.7658560805016</value></backazimuth><phaseHint>P</phaseHint><evaluationMode>automatic</evaluationMode><comment><text>81643.26938052506</text><id>DFX:rectilinearity</id></comment></pick><pick publicID="de.gempa.tb1.Pick/20250414092521.837732.126787"><time><value>2025-04-14T09:23:18.26Z</value></time><waveformID networkCode="TH" stationCode="GEIDO" channelCode="HHZ"/><methodID>AIC</methodID><horizontalSlowness><value>6.503222791756698</value></horizontalSlowness><backazimuth><value>290.9930384330065</value></backazimuth><phaseHint>P</phaseHint><evaluationMode>automatic</evaluationMode><comment><text>570.5622210510872</text><id>DFX:rectilinearity</id></comment></pick><pick publicID="de.gempa.tb1.Pick/20250414092521.843715.126789"><time><value>2025-04-14T09:23:27.13Z</value></time><waveformID networkCode="TH" stationCode="FRAU" channelCode="HHZ"/><methodID>AIC</methodID><horizontalSlowness><value>12.771767426752522</value></horizontalSlowness><backazimuth><value>276.58549814690423</value></backazimuth><phaseHint>P</phaseHint><evaluationMode>automatic</evaluationMode><comment><text>1805.9111419785118</text><id>DFX:rectilinearity</id></comment></pick><pick publicID="de.gempa.tb1.Pick/20250414092521.847717.126791"><time><value>2025-04-14T09:23:32.5Z</value></time><waveformID networkCode="TH" stationCode="LUHNE" channelCode="HHZ"/><methodID>AIC</methodID><horizontalSlowness><value>23.484298923069957</value></horizontalSlowness><backazimuth><value>67.37658277878742</value></backazimuth><phaseHint>P</phaseHint><evaluationMode>automatic</evaluationMode><comment><text>125.31383420262924</text><id>DFX:rectilinearity</id></comment></pick><pick publicID="de.gempa.tb1.Pick/20250414092521.853973.126795"><time><value>2025-04-14T09:23:24.615Z</value></time><waveformID networkCode="TH" stationCode="MENTE" channelCode="HHZ"/><methodID>AIC</methodID><horizontalSlowness><value>23.52662319791478</value></horizontalSlowness><backazimuth><value>187.68434763952897</value></backazimuth><phaseHint>P</phaseHint><evaluationMode>automatic</evaluationMode><comment><text>66.9282357565838</text><id>DFX:rectilinearity</id></comment></pick><pick publicID="de.gempa.tb1.Pick/20250414092521.868205.126804"><time><value>2025-04-14T09:23:25.18Z</value></time><waveformID networkCode="TH" stationCode="WARTH" channelCode="HHZ"/><methodID>AIC</methodID><horizontalSlowness><value>11.977510021477162</value></horizontalSlowness><backazimuth><value>91.59485790182164</value></backazimuth><phaseHint>P</phaseHint><evaluationMode>automatic</evaluationMode><comment><text>24.574362676580424</text><id>DFX:rectilinearity</id></comment></pick><origin publicID="de.gempa.tb1.Origin/20250414092526.356484.207274"><time><value>2025-04-14T09:23:08.215317Z</value><uncertainty>0.4646254777908325</uncertainty></time><latitude><value>50.94515228271484</value><uncertainty>4.1922388076782227</uncertainty></latitude><longitude><value>11.78244686126709</value><uncertainty>4.982957363128662</uncertainty></longitude><depth><value>36.14456558227539</value><uncertainty>7.464356899261475</uncertainty></depth><depthType>from location</depthType><methodID>LOCSAT</methodID><earthModelID>iasp91</earthModelID><quality><associatedPhaseCount>15</associatedPhaseCount><usedPhaseCount>10</usedPhaseCount><associatedStationCount>15</associatedStationCount><usedStationCount>10</usedStationCount><standardError>1.2445657715394587</standardError><azimuthalGap>64.96883010864258</azimuthalGap><maximumDistance>0.9811270833015442</maximumDistance><minimumDistance>0.24913588166236877</minimumDistance><medianDistance>0.5641717314720154</medianDistance></quality><evaluationMode>automatic</evaluationMode><evaluationStatus>confirmed</evaluationStatus><comment><text>0.21</text><id>mismatchScore</id></comment><comment><text>mismatchScore</text><id>scevalMethod</id></comment><arrival><pickID>de.gempa.tb1.Pick/20250414092447.176935.126715</pickID><phase>P</phase><azimuth>199.43601989746094</azimuth><distance>0.31699809432029724</distance><timeResidual>2.1578407287597656</timeResidual><timeUsed>true</timeUsed><horizontalSlownessUsed>true</horizontalSlownessUsed><backazimuthUsed>true</backazimuthUsed><weight>1</weight></arrival><arrival><pickID>de.gempa.tb1.Pick/20250414092521.090257.126749</pickID><phase>P</phase><azimuth>166.8893585205078</azimuth><distance>1.208982229232788</distance><timeResidual>11.889690399169922</timeResidual><timeUsed>false</timeUsed><horizontalSlownessUsed>false</horizontalSlownessUsed><backazimuthUsed>false</backazimuthUsed><weight>0</weight></arrival><arrival><pickID>de.gempa.tb1.Pick/20250414092521.149771.126752</pickID><phase>P</phase><azimuth>167.66929626464844</azimuth><distance>0.9811270833015442</distance><timeResidual>-1.3439397811889648</timeResidual><timeUsed>true</timeUsed><horizontalSlownessUsed>true</horizontalSlownessUsed><backazimuthUsed>true</backazimuthUsed><weight>1</weight></arrival><arrival><pickID>de.gempa.tb1.Pick/20250414092521.310735.126755</pickID><phase>P</phase><azimuth>206.07220458984375</azimuth><distance>0.3146017789840698</distance><timeResidual>-1.8139915466308594</timeResidual><timeUsed>true</timeUsed><horizontalSlownessUsed>true</horizontalSlownessUsed><backazimuthUsed>true</backazimuthUsed><weight>1</weight></arrival><arrival><pickID>de.gempa.tb1.Pick/20250414092521.391774.126758</pickID><phase>P</phase><azimuth>22.15591812133789</azimuth><distance>0.6278173923492432</distance><timeResidual>-0.008564472198486328</timeResidual><timeUsed>true</timeUsed><horizontalSlownessUsed>true</horizontalSlownessUsed><backazimuthUsed>true</backazimuthUsed><weight>1</weight></arrival><arrival><pickID>de.gempa.tb1.Pick/20250414092521.409425.126760</pickID><phase>P</phase><azimuth>114.13516998291016</azimuth><distance>0.8392466902732849</distance><timeResidual>-8.430544853210449</timeResidual><timeUsed>false</timeUsed><horizontalSlownessUsed>false</horizontalSlownessUsed><backazimuthUsed>false</backazimuthUsed><weight>0</weight></arrival><arrival><pickID>de.gempa.tb1.Pick/20250414092521.43297.126764</pickID><phase>P</phase><azimuth>267.5660400390625</azimuth><distance>1.0674985647201538</distance><timeResidual>13.931177139282227</timeResidual><timeUsed>false</timeUsed><horizontalSlownessUsed>false</horizontalSlownessUsed><backazimuthUsed>false</backazimuthUsed><weight>0</weight></arrival><arrival><pickID>de.gempa.tb1.Pick/20250414092521.454643.126767</pickID><phase>P</phase><azimuth>87.12474822998047</azimuth><distance>0.5005260705947876</distance><timeResidual>-1.2495927810668945</timeResidual><timeUsed>true</timeUsed><horizontalSlownessUsed>true</horizontalSlownessUsed><backazimuthUsed>true</backazimuthUsed><weight>1</weight></arrival><arrival><pickID>de.gempa.tb1.Pick/20250414092521.561172.126770</pickID><phase>P</phase><azimuth>106.61502838134766</azimuth><distance>0.7257107496261597</distance><timeResidual>1.8934144973754883</timeResidual><timeUsed>true</timeUsed><horizontalSlownessUsed>true</horizontalSlownessUsed><backazimuthUsed>true</backazimuthUsed><weight>1</weight></arrival><arrival><pickID>de.gempa.tb1.Pick/20250414092521.692076.126776</pickID><phase>P</phase><azimuth>358.4797668457031</azimuth><distance>0.24913588166236877</distance><timeResidual>-0.43287086486816406</timeResidual><timeUsed>true</timeUsed><horizontalSlownessUsed>true</horizontalSlownessUsed><backazimuthUsed>true</backazimuthUsed><weight>1</weight></arrival><arrival><pickID>de.gempa.tb1.Pick/20250414092521.837732.126787</pickID><phase>P</phase><azimuth>128.35972595214844</azimuth><distance>0.33694282174110413</distance><timeResidual>0.20665931701660156</timeResidual><timeUsed>true</timeUsed><horizontalSlownessUsed>true</horizontalSlownessUsed><backazimuthUsed>true</backazimuthUsed><weight>1</weight></arrival><arrival><pickID>de.gempa.tb1.Pick/20250414092521.843715.126789</pickID><phase>P</phase><azimuth>126.28089141845703</azimuth><distance>0.4199242889881134</distance><timeResidual>8.090012550354004</timeResidual><timeUsed>false</timeUsed><horizontalSlownessUsed>false</horizontalSlownessUsed><backazimuthUsed>false</backazimuthUsed><weight>0</weight></arrival><arrival><pickID>de.gempa.tb1.Pick/20250414092521.847717.126791</pickID><phase>P</phase><azimuth>290.36029052734375</azimuth><distance>0.9099143147468567</distance><timeResidual>7.65373420715332</timeResidual><timeUsed>false</timeUsed><horizontalSlownessUsed>false</horizontalSlownessUsed><backazimuthUsed>false</backazimuthUsed><weight>0</weight></arrival><arrival><pickID>de.gempa.tb1.Pick/20250414092521.853973.126795</pickID><phase>P</phase><azimuth>296.60791015625</azimuth><distance>0.840699553489685</distance><timeResidual>0.5910511016845703</timeResidual><timeUsed>true</timeUsed><horizontalSlownessUsed>true</horizontalSlownessUsed><backazimuthUsed>true</backazimuthUsed><weight>1</weight></arrival><arrival><pickID>de.gempa.tb1.Pick/20250414092521.868205.126804</pickID><phase>P</phase><azimuth>264.3900451660156</azimuth><distance>0.9290555119514465</distance><timeResidual>0.10209274291992188</timeResidual><timeUsed>true</timeUsed><horizontalSlownessUsed>true</horizontalSlownessUsed><backazimuthUsed>true</backazimuthUsed><weight>1</weight></arrival><magnitude publicID="de.gempa.tb1.Magnitude/20250414092526.375788.464513"><magnitude><value>1.8259434085013215</value></magnitude><type>M</type><methodID>weighted average</methodID><stationCount>8</stationCount></magnitude></origin><event publicID="gempa2025hiza"><preferredOriginID>de.gempa.tb1.Origin/20250414092526.356484.207274</preferredOriginID><preferredMagnitudeID>de.gempa.tb1.Magnitude/20250414092526.375788.464513</preferredMagnitudeID><description><text>Germany</text><type>region name</type></description><originReference>de.gempa.tb1.Origin/20250414092526.356484.207274</originReference></event></EventParameters></seiscomp>