<?xml version="1.0" encoding="UTF-8"?>
<seiscomp xmlns="http://geofon.gfz-potsdam.de/ns/seiscomp3-schema/0.13" version="0.13"><EventParameters><pick publicID="de.gempa.tb1.Pick/20250414025108.530637.135155"><time><value>2025-04-14T02:51:01.498393Z</value></time><waveformID networkCode="CX" stationCode="PB06" channelCode="HHZ"/><filterID>ITAPER(4)&gt;&gt;BW(4,4,20)</filterID><methodID>AIC</methodID><horizontalSlowness><value>3.5514174851351337</value></horizontalSlowness><backazimuth><value>274.56186453719823</value></backazimuth><phaseHint>P</phaseHint><evaluationMode>automatic</evaluationMode><comment><text>33.0866935853104</text><id>DFX:rectilinearity</id></comment><comment><text>10.386345552296362</text><id>SNR</id></comment></pick><pick publicID="de.gempa.tb1.Pick/20250414025110.572834.135157"><time><value>2025-04-14T02:51:00.928393Z</value></time><waveformID networkCode="CX" stationCode="PB03" channelCode="HHZ"/><filterID>ITAPER(4)&gt;&gt;BW(4,4,20)</filterID><methodID>AIC</methodID><horizontalSlowness><value>12.66335692089845</value></horizontalSlowness><backazimuth><value>251.5187855249204</value></backazimuth><phaseHint>P</phaseHint><evaluationMode>automatic</evaluationMode><comment><text>7.109676990951811</text><id>DFX:rectilinearity</id></comment><comment><text>8.501518113904874</text><id>SNR</id></comment></pick><pick publicID="de.gempa.tb1.Pick/20250414025115.5252.135159"><time><value>2025-04-14T02:50:57.639998Z</value></time><waveformID networkCode="CX" stationCode="PB09" channelCode="HHZ"/><filterID>ITAPER(4)&gt;&gt;BW(4,4,20)</filterID><methodID>AIC</methodID><horizontalSlowness><value>17.851412329412405</value></horizontalSlowness><backazimuth><value>312.43448240672757</value></backazimuth><phaseHint>P</phaseHint><evaluationMode>automatic</evaluationMode><comment><text>14.19918249147668</text><id>DFX:rectilinearity</id></comment><comment><text>20.205212040465486</text><id>SNR</id></comment></pick><pick publicID="de.gempa.tb1.Pick/20250414025124.975139.135163"><time><value>2025-04-14T02:51:17.168393Z</value></time><waveformID networkCode="CX" stationCode="PB03" channelCode="HHN"/><filterID>ITAPER(2)&gt;&gt;BW(3,3,20)</filterID><methodID>L2-AIC-GRID</methodID><horizontalSlowness><value>5.591815067503807</value></horizontalSlowness><backazimuth><value>238.4641356073812</value></backazimuth><phaseHint>S</phaseHint><evaluationMode>automatic</evaluationMode><comment><text>14.536370464028632</text><id>DFX:rectilinearity</id></comment><comment><text>de.gempa.tb1.Pick/20250414025110.572834.135157</text><id>RefPickID</id></comment><comment><text>7.846240648469007</text><id>SNR</id></comment></pick><pick publicID="de.gempa.tb1.Pick/20250414025127.653794.135164"><time><value>2025-04-14T02:51:18.208393Z</value></time><waveformID networkCode="CX" stationCode="PB06" channelCode="HHN"/><filterID>ITAPER(2)&gt;&gt;BW(3,3,20)</filterID><methodID>L2-AIC-GRID</methodID><horizontalSlowness><value>22.37207535482662</value></horizontalSlowness><backazimuth><value>8.750028801760493</value></backazimuth><phaseHint>S</phaseHint><evaluationMode>automatic</evaluationMode><comment><text>61.94498045141078</text><id>DFX:rectilinearity</id></comment><comment><text>de.gempa.tb1.Pick/20250414025108.530637.135155</text><id>RefPickID</id></comment><comment><text>5.984421723494033</text><id>SNR</id></comment></pick><pick publicID="de.gempa.tb1.Pick/20250414025133.755489.135167"><time><value>2025-04-14T02:51:11.189998Z</value></time><waveformID networkCode="CX" stationCode="PB09" channelCode="HHN"/><filterID>ITAPER(2)&gt;&gt;BW(3,3,20)</filterID><methodID>L2-AIC-GRID</methodID><horizontalSlowness><value>21.575590702085833</value></horizontalSlowness><backazimuth><value>342.52399898053687</value></backazimuth><phaseHint>S</phaseHint><evaluationMode>automatic</evaluationMode><comment><text>51.21020335452182</text><id>DFX:rectilinearity</id></comment><comment><text>de.gempa.tb1.Pick/20250414025115.5252.135159</text><id>RefPickID</id></comment><comment><text>5.217304312200818</text><id>SNR</id></comment></pick><pick publicID="de.gempa.tb1.Pick/20250414025142.732221.135173"><time><value>2025-04-14T02:51:03.028394Z</value></time><waveformID networkCode="CX" stationCode="PB07" channelCode="HHZ"/><filterID>ITAPER(4)&gt;&gt;BW(4,4,20)</filterID><methodID>AIC</methodID><horizontalSlowness><value>22.934260209744014</value></horizontalSlowness><backazimuth><value>33.06243845090691</value></backazimuth><phaseHint>P</phaseHint><evaluationMode>automatic</evaluationMode><comment><text>121.18942208227794</text><id>DFX:rectilinearity</id></comment><comment><text>9.491408382429688</text><id>SNR</id></comment></pick><pick publicID="de.gempa.tb1.Pick/20250414025148.11802.135176"><time><value>2025-04-14T02:51:20.608394Z</value></time><waveformID networkCode="CX" stationCode="PB07" channelCode="HHN"/><filterID>ITAPER(2)&gt;&gt;BW(3,3,20)</filterID><methodID>L2-AIC-GRID</methodID><horizontalSlowness><value>22.330043777910465</value></horizontalSlowness><backazimuth><value>262.35826292606077</value></backazimuth><phaseHint>S</phaseHint><evaluationMode>automatic</evaluationMode><comment><text>523.5655245855738</text><id>DFX:rectilinearity</id></comment><comment><text>de.gempa.tb1.Pick/20250414025142.732221.135173</text><id>RefPickID</id></comment><comment><text>7.844691967314088</text><id>SNR</id></comment></pick><origin publicID="de.gempa.tb1.Origin/20250414025149.186747.124764"><time><value>2025-04-14T02:50:40.049111Z</value><uncertainty>1.29146409034729</uncertainty></time><latitude><value>-22.07816505432129</value><uncertainty>6.780692100524902</uncertainty></latitude><longitude><value>-68.73059844970703</value><uncertainty>10.966836929321289</uncertainty></longitude><depth><value>113.3481674194336</value><uncertainty>10.77149486541748</uncertainty></depth><depthType>from location</depthType><methodID>LOCSAT</methodID><earthModelID>iasp91_scanloc</earthModelID><quality><associatedPhaseCount>8</associatedPhaseCount><usedPhaseCount>8</usedPhaseCount><associatedStationCount>4</associatedStationCount><usedStationCount>4</usedStationCount><depthPhaseCount>0</depthPhaseCount><standardError>0.0768300998747482</standardError><azimuthalGap>290.6280212402344</azimuthalGap><maximumDistance>1.1287293434143066</maximumDistance><minimumDistance>0.5513753294944763</minimumDistance><medianDistance>0.9981903433799744</medianDistance></quality><uncertainty><minHorizontalUncertainty>14.511899948120117</minHorizontalUncertainty><maxHorizontalUncertainty>23.53439712524414</maxHorizontalUncertainty><azimuthMaxHorizontalUncertainty>92.8084487915039</azimuthMaxHorizontalUncertainty><preferredDescription>horizontal uncertainty</preferredDescription></uncertainty><evaluationMode>automatic</evaluationMode><evaluationStatus>confirmed</evaluationStatus><comment><text>0.00</text><id>mismatchScore</id></comment><comment><text>mismatchScore</text><id>scevalMethod</id></comment><arrival><pickID>de.gempa.tb1.Pick/20250414025108.530637.135155</pickID><phase>P</phase><azimuth>231.1025085449219</azimuth><distance>0.9981903433799744</distance><timeResidual>-0.036663055419921875</timeResidual><timeUsed>true</timeUsed><horizontalSlownessUsed>false</horizontalSlownessUsed><backazimuthUsed>false</backazimuthUsed><weight>1</weight></arrival><arrival><pickID>de.gempa.tb1.Pick/20250414025110.572834.135157</pickID><phase>P</phase><azimuth>271.59356689453125</azimuth><distance>0.9489726424217224</distance><timeResidual>-0.11832809448242188</timeResidual><timeUsed>true</timeUsed><horizontalSlownessUsed>false</horizontalSlownessUsed><backazimuthUsed>false</backazimuthUsed><weight>1</weight></arrival><arrival><pickID>de.gempa.tb1.Pick/20250414025115.5252.135159</pickID><phase>P</phase><azimuth>300.4744873046875</azimuth><distance>0.5513753294944763</distance><timeResidual>0.00433349609375</timeResidual><timeUsed>true</timeUsed><horizontalSlownessUsed>false</horizontalSlownessUsed><backazimuthUsed>false</backazimuthUsed><weight>1</weight></arrival><arrival><pickID>de.gempa.tb1.Pick/20250414025124.975139.135163</pickID><phase>S</phase><azimuth>271.59356689453125</azimuth><distance>0.9489726424217224</distance><timeResidual>-0.09375762939453125</timeResidual><timeUsed>true</timeUsed><horizontalSlownessUsed>false</horizontalSlownessUsed><backazimuthUsed>false</backazimuthUsed><weight>1</weight></arrival><arrival><pickID>de.gempa.tb1.Pick/20250414025127.653794.135164</pickID><phase>S</phase><azimuth>231.1025085449219</azimuth><distance>0.9981903433799744</distance><timeResidual>0.07438278198242188</timeResidual><timeUsed>true</timeUsed><horizontalSlownessUsed>false</horizontalSlownessUsed><backazimuthUsed>false</backazimuthUsed><weight>1</weight></arrival><arrival><pickID>de.gempa.tb1.Pick/20250414025133.755489.135167</pickID><phase>S</phase><azimuth>300.4744873046875</azimuth><distance>0.5513753294944763</distance><timeResidual>0.006128311157226562</timeResidual><timeUsed>true</timeUsed><horizontalSlownessUsed>false</horizontalSlownessUsed><backazimuthUsed>false</backazimuthUsed><weight>1</weight></arrival><arrival><pickID>de.gempa.tb1.Pick/20250414025142.732221.135173</pickID><phase>P</phase><azimuth>287.8381652832031</azimuth><distance>1.1287293434143066</distance><timeResidual>0.1269702911376953</timeResidual><timeUsed>true</timeUsed><horizontalSlownessUsed>false</horizontalSlownessUsed><backazimuthUsed>false</backazimuthUsed><weight>1</weight></arrival><arrival><pickID>de.gempa.tb1.Pick/20250414025148.11802.135176</pickID><phase>S</phase><azimuth>287.8381652832031</azimuth><distance>1.1287293434143066</distance><timeResidual>0.03709602355957031</timeResidual><timeUsed>true</timeUsed><horizontalSlownessUsed>false</horizontalSlownessUsed><backazimuthUsed>false</backazimuthUsed><weight>1</weight></arrival><magnitude publicID="de.gempa.tb1.Magnitude/20250414025202.065939.421825"><magnitude><value>2.3509545849433326</value></magnitude><type>M</type><methodID>weighted average</methodID><stationCount>3</stationCount></magnitude></origin><event publicID="gempa2025hily"><preferredOriginID>de.gempa.tb1.Origin/20250414025149.186747.124764</preferredOriginID><preferredMagnitudeID>de.gempa.tb1.Magnitude/20250414025202.065939.421825</preferredMagnitudeID><description><text>Northern Chile</text><type>region name</type></description><originReference>de.gempa.tb1.Origin/20250414025149.186747.124764</originReference></event></EventParameters></seiscomp>