<?xml version="1.0" encoding="UTF-8"?>
<seiscomp xmlns="http://geofon.gfz-potsdam.de/ns/seiscomp3-schema/0.13" version="0.13"><EventParameters><pick publicID="de.gempa.tb1.Pick/20250413043225.42763.179640"><time><value>2025-04-13T04:32:22.22Z</value></time><waveformID networkCode="CH" stationCode="SIMPL" channelCode="HHZ"/><filterID>ITAPER(4)&gt;&gt;BW(4,4,20)</filterID><methodID>AIC</methodID><phaseHint>P</phaseHint><evaluationMode>automatic</evaluationMode></pick><pick publicID="de.gempa.tb1.Pick/20250413043226.160535.179644"><time><value>2025-04-13T04:32:22.445Z</value></time><waveformID networkCode="CH" stationCode="MMK" channelCode="HHZ"/><filterID>ITAPER(4)&gt;&gt;BW(4,4,20)</filterID><methodID>AIC</methodID><phaseHint>P</phaseHint><evaluationMode>automatic</evaluationMode></pick><pick publicID="de.gempa.tb1.Pick/20250413043228.131699.179652"><time><value>2025-04-13T04:32:20.888393Z</value></time><waveformID networkCode="CH" stationCode="GRIMS" channelCode="HHZ"/><filterID>ITAPER(4)&gt;&gt;BW(4,4,20)</filterID><methodID>AIC</methodID><phaseHint>P</phaseHint><evaluationMode>automatic</evaluationMode></pick><pick publicID="de.gempa.tb1.Pick/20250413043229.478319.179658"><time><value>2025-04-13T04:32:25.645Z</value></time><waveformID networkCode="CH" stationCode="VANNI" channelCode="HHZ"/><filterID>ITAPER(4)&gt;&gt;BW(4,4,20)</filterID><methodID>AIC</methodID><phaseHint>P</phaseHint><evaluationMode>automatic</evaluationMode></pick><pick publicID="de.gempa.tb1.Pick/20250413043230.166718.179662"><time><value>2025-04-13T04:32:25.93Z</value></time><waveformID networkCode="CH" stationCode="DIX" channelCode="HHZ"/><filterID>ITAPER(4)&gt;&gt;BW(4,4,20)</filterID><methodID>AIC</methodID><phaseHint>P</phaseHint><evaluationMode>automatic</evaluationMode></pick><pick publicID="de.gempa.tb1.Pick/20250413043232.500275.179670"><time><value>2025-04-13T04:32:27.36Z</value></time><waveformID networkCode="CH" stationCode="GRYON" channelCode="HHZ"/><filterID>ITAPER(4)&gt;&gt;BW(4,4,20)</filterID><methodID>AIC</methodID><phaseHint>P</phaseHint><evaluationMode>automatic</evaluationMode></pick><pick publicID="de.gempa.tb1.Pick/20250413043233.161152.179672"><time><value>2025-04-13T04:32:26.42Z</value></time><waveformID networkCode="CH" stationCode="SENIN" channelCode="HHZ"/><filterID>ITAPER(4)&gt;&gt;BW(4,4,20)</filterID><methodID>AIC</methodID><phaseHint>P</phaseHint><evaluationMode>automatic</evaluationMode></pick><pick publicID="de.gempa.tb1.Pick/20250413043234.162831.179676"><time><value>2025-04-13T04:32:22.37Z</value></time><waveformID networkCode="CH" stationCode="FIESA" channelCode="HHZ"/><filterID>ITAPER(4)&gt;&gt;BW(4,4,20)</filterID><methodID>AIC</methodID><phaseHint>P</phaseHint><evaluationMode>automatic</evaluationMode></pick><origin publicID="de.gempa.tb1.Origin/20250413043234.184582.113900"><time><value>2025-04-13T04:32:08.454032Z</value><uncertainty>3.8078975677490234</uncertainty></time><latitude><value>46.31445693969727</value><uncertainty>14.415535926818848</uncertainty></latitude><longitude><value>8.64850902557373</value><uncertainty>28.368146896362305</uncertainty></longitude><depth><value>69.5254135131836</value><uncertainty>27.21980094909668</uncertainty></depth><depthType>from location</depthType><methodID>LOCSAT</methodID><earthModelID>iasp91</earthModelID><quality><associatedPhaseCount>8</associatedPhaseCount><usedPhaseCount>8</usedPhaseCount><associatedStationCount>8</associatedStationCount><usedStationCount>8</usedStationCount><depthPhaseCount>0</depthPhaseCount><standardError>0.514044294994652</standardError><azimuthalGap>281.9248504638672</azimuthalGap><maximumDistance>1.06815767288208</maximumDistance><minimumDistance>0.34861400723457336</minimumDistance><medianDistance>0.7370965480804443</medianDistance></quality><uncertainty><minHorizontalUncertainty>30.67286682128906</minHorizontalUncertainty><maxHorizontalUncertainty>60.96049880981445</maxHorizontalUncertainty><azimuthMaxHorizontalUncertainty>94.20660400390625</azimuthMaxHorizontalUncertainty><preferredDescription>horizontal uncertainty</preferredDescription></uncertainty><evaluationMode>automatic</evaluationMode><comment><text>0.66</text><id>mismatchScore</id></comment><arrival><pickID>de.gempa.tb1.Pick/20250413043225.42763.179640</pickID><phase>P</phase><azimuth>260.4892578125</azimuth><distance>0.44259610772132874</distance><timeResidual>0.009663581848144531</timeResidual><timeUsed>true</timeUsed><horizontalSlownessUsed>false</horizontalSlownessUsed><backazimuthUsed>false</backazimuthUsed><weight>1</weight></arrival><arrival><pickID>de.gempa.tb1.Pick/20250413043226.160535.179644</pickID><phase>P</phase><azimuth>241.2123565673828</azimuth><distance>0.5439456105232239</distance><timeResidual>-0.6178398132324219</timeResidual><timeUsed>true</timeUsed><horizontalSlownessUsed>false</horizontalSlownessUsed><backazimuthUsed>false</backazimuthUsed><weight>1</weight></arrival><arrival><pickID>de.gempa.tb1.Pick/20250413043228.131699.179652</pickID><phase>P</phase><azimuth>319.2875061035156</azimuth><distance>0.34861400723457336</distance><timeResidual>-0.5302867889404297</timeResidual><timeUsed>true</timeUsed><horizontalSlownessUsed>false</horizontalSlownessUsed><backazimuthUsed>false</backazimuthUsed><weight>1</weight></arrival><arrival><pickID>de.gempa.tb1.Pick/20250413043229.478319.179658</pickID><phase>P</phase><azimuth>262.2344665527344</azimuth><distance>0.7370965480804443</distance><timeResidual>0.9610795974731445</timeResidual><timeUsed>true</timeUsed><horizontalSlownessUsed>false</horizontalSlownessUsed><backazimuthUsed>false</backazimuthUsed><weight>1</weight></arrival><arrival><pickID>de.gempa.tb1.Pick/20250413043230.166718.179662</pickID><phase>P</phase><azimuth>255.22386169433594</azimuth><distance>0.8928667902946472</distance><timeResidual>-0.06306171417236328</timeResidual><timeUsed>true</timeUsed><horizontalSlownessUsed>false</horizontalSlownessUsed><backazimuthUsed>false</backazimuthUsed><weight>1</weight></arrival><arrival><pickID>de.gempa.tb1.Pick/20250413043232.500275.179670</pickID><phase>P</phase><azimuth>267.1220703125</azimuth><distance>1.06815767288208</distance><timeResidual>-0.4148397445678711</timeResidual><timeUsed>true</timeUsed><horizontalSlownessUsed>false</horizontalSlownessUsed><backazimuthUsed>false</backazimuthUsed><weight>1</weight></arrival><arrival><pickID>de.gempa.tb1.Pick/20250413043233.161152.179672</pickID><phase>P</phase><azimuth>273.48138427734375</azimuth><distance>0.9360191822052002</distance><timeResidual>0.06648731231689453</timeResidual><timeUsed>true</timeUsed><horizontalSlownessUsed>false</horizontalSlownessUsed><backazimuthUsed>false</backazimuthUsed><weight>1</weight></arrival><arrival><pickID>de.gempa.tb1.Pick/20250413043234.162831.179676</pickID><phase>P</phase><azimuth>288.16619873046875</azimuth><distance>0.39165502786636353</distance><timeResidual>0.5888509750366211</timeResidual><timeUsed>true</timeUsed><horizontalSlownessUsed>false</horizontalSlownessUsed><backazimuthUsed>false</backazimuthUsed><weight>1</weight></arrival><magnitude publicID="de.gempa.tb1.Magnitude/20250413043355.468793.312291"><magnitude><value>2.617643103553056</value></magnitude><type>M</type><methodID>weighted average</methodID><stationCount>7</stationCount></magnitude></origin><event publicID="gempa2025hgth"><preferredOriginID>de.gempa.tb1.Origin/20250413043234.184582.113900</preferredOriginID><preferredMagnitudeID>de.gempa.tb1.Magnitude/20250413043355.468793.312291</preferredMagnitudeID><description><text>Switzerland</text><type>region name</type></description><originReference>de.gempa.tb1.Origin/20250413043234.184582.113900</originReference></event></EventParameters></seiscomp>