<?xml version="1.0" encoding="UTF-8"?>
<seiscomp xmlns="http://geofon.gfz-potsdam.de/ns/seiscomp3-schema/0.13" version="0.13"><EventParameters><pick publicID="de.gempa.tb1.Pick/20250414123213.203905.226304"><time><value>2025-04-14T12:32:09.185Z</value></time><waveformID networkCode="CH" stationCode="SLE" channelCode="HHZ"/><filterID>ITAPER(4)&gt;&gt;BW(4,4,20)</filterID><methodID>AIC</methodID><phaseHint>P</phaseHint><evaluationMode>automatic</evaluationMode></pick><pick publicID="de.gempa.tb1.Pick/20250414123213.627973.226306"><time><value>2025-04-14T12:32:11.44Z</value></time><waveformID networkCode="CH" stationCode="ACB" channelCode="HHZ"/><filterID>ITAPER(4)&gt;&gt;BW(4,4,20)</filterID><methodID>AIC</methodID><phaseHint>P</phaseHint><evaluationMode>automatic</evaluationMode></pick><pick publicID="de.gempa.tb1.Pick/20250414123214.213151.226308"><time><value>2025-04-14T12:32:08.91Z</value></time><waveformID networkCode="CH" stationCode="METMA" channelCode="HHZ"/><filterID>ITAPER(4)&gt;&gt;BW(4,4,20)</filterID><methodID>AIC</methodID><phaseHint>P</phaseHint><evaluationMode>automatic</evaluationMode></pick><pick publicID="de.gempa.tb1.Pick/20250414123215.365168.226311"><time><value>2025-04-14T12:32:12.765Z</value></time><waveformID networkCode="CH" stationCode="ROTHE" channelCode="HHZ"/><filterID>ITAPER(4)&gt;&gt;BW(4,4,20)</filterID><methodID>AIC</methodID><phaseHint>P</phaseHint><evaluationMode>automatic</evaluationMode></pick><pick publicID="de.gempa.tb1.Pick/20250414123216.33461.226315"><time><value>2025-04-14T12:32:13.1Z</value></time><waveformID networkCode="CH" stationCode="EMMET" channelCode="HHZ"/><filterID>ITAPER(4)&gt;&gt;BW(4,4,20)</filterID><methodID>AIC</methodID><phaseHint>P</phaseHint><evaluationMode>automatic</evaluationMode></pick><pick publicID="de.gempa.tb1.Pick/20250414123217.129671.226317"><time><value>2025-04-14T12:32:10.375Z</value></time><waveformID networkCode="CH" stationCode="BOURR" channelCode="HHZ"/><filterID>ITAPER(4)&gt;&gt;BW(4,4,20)</filterID><methodID>AIC</methodID><phaseHint>P</phaseHint><evaluationMode>automatic</evaluationMode></pick><origin publicID="de.gempa.tb1.Origin/20250414123220.52257.140995"><time><value>2025-04-14T12:29:51.258434Z</value><uncertainty>1.8533779382705688</uncertainty></time><latitude><value>56.63029479980469</value><uncertainty>15.282777786254883</uncertainty></latitude><longitude><value>2.784606695175171</value><uncertainty>30.50328254699707</uncertainty></longitude><depth><value>0</value></depth><depthType>operator assigned</depthType><methodID>LOCSAT</methodID><earthModelID>iasp91</earthModelID><quality><associatedPhaseCount>6</associatedPhaseCount><usedPhaseCount>6</usedPhaseCount><associatedStationCount>6</associatedStationCount><usedStationCount>6</usedStationCount><depthPhaseCount>0</depthPhaseCount><standardError>0.659809999872715</standardError><azimuthalGap>354.44288635253906</azimuthalGap><maximumDistance>9.750642776489258</maximumDistance><minimumDistance>9.538969993591309</minimumDistance><medianDistance>9.657646179199219</medianDistance></quality><uncertainty><minHorizontalUncertainty>30.675783157348633</minHorizontalUncertainty><maxHorizontalUncertainty>66.43328094482422</maxHorizontalUncertainty><azimuthMaxHorizontalUncertainty>78.69784545898438</azimuthMaxHorizontalUncertainty><preferredDescription>horizontal uncertainty</preferredDescription></uncertainty><evaluationMode>automatic</evaluationMode><evaluationStatus>rejected</evaluationStatus><comment><text>0.95</text><id>mismatchScore</id></comment><comment><text>mismatchScore</text><id>scevalMethod</id></comment><arrival><pickID>de.gempa.tb1.Pick/20250414123213.203905.226304</pickID><phase>P</phase><azimuth>156.1239471435547</azimuth><distance>9.54198169708252</distance><timeResidual>-0.4544219970703125</timeResidual><timeUsed>true</timeUsed><horizontalSlownessUsed>false</horizontalSlownessUsed><backazimuthUsed>false</backazimuthUsed><weight>1</weight></arrival><arrival><pickID>de.gempa.tb1.Pick/20250414123213.627973.226306</pickID><phase>P</phase><azimuth>157.37957763671875</azimuth><distance>9.657646179199219</distance><timeResidual>0.2162933349609375</timeResidual><timeUsed>true</timeUsed><horizontalSlownessUsed>false</horizontalSlownessUsed><backazimuthUsed>false</backazimuthUsed><weight>1</weight></arrival><arrival><pickID>de.gempa.tb1.Pick/20250414123214.213151.226308</pickID><phase>P</phase><azimuth>157.1499786376953</azimuth><distance>9.538969993591309</distance><timeResidual>-0.6883697509765625</timeResidual><timeUsed>true</timeUsed><horizontalSlownessUsed>false</horizontalSlownessUsed><backazimuthUsed>false</backazimuthUsed><weight>1</weight></arrival><arrival><pickID>de.gempa.tb1.Pick/20250414123215.365168.226311</pickID><phase>P</phase><azimuth>158.86180114746094</azimuth><distance>9.695209503173828</distance><timeResidual>1.0265960693359375</timeResidual><timeUsed>true</timeUsed><horizontalSlownessUsed>false</horizontalSlownessUsed><backazimuthUsed>false</backazimuthUsed><weight>1</weight></arrival><arrival><pickID>de.gempa.tb1.Pick/20250414123216.33461.226315</pickID><phase>P</phase><azimuth>158.5736541748047</azimuth><distance>9.750642776489258</distance><timeResidual>0.6025543212890625</timeResidual><timeUsed>true</timeUsed><horizontalSlownessUsed>false</horizontalSlownessUsed><backazimuthUsed>false</backazimuthUsed><weight>1</weight></arrival><arrival><pickID>de.gempa.tb1.Pick/20250414123217.129671.226317</pickID><phase>P</phase><azimuth>161.68106079101562</azimuth><distance>9.645570755004883</distance><timeResidual>-0.6840972900390625</timeResidual><timeUsed>true</timeUsed><horizontalSlownessUsed>false</horizontalSlownessUsed><backazimuthUsed>false</backazimuthUsed><weight>1</weight></arrival><magnitude publicID="de.gempa.tb1.Magnitude/20250414123241.136691.487874"><magnitude><value>4.534718780842024</value></magnitude><type>M</type><methodID>weighted average</methodID><stationCount>4</stationCount></magnitude></origin><event publicID="gempa2025hjfg"><preferredOriginID>de.gempa.tb1.Origin/20250414123220.52257.140995</preferredOriginID><preferredMagnitudeID>de.gempa.tb1.Magnitude/20250414123241.136691.487874</preferredMagnitudeID><type>not existing</type><typeCertainty>suspected</typeCertainty><description><text>North Sea</text><type>region name</type></description><originReference>de.gempa.tb1.Origin/20250414123220.52257.140995</originReference></event></EventParameters></seiscomp>