<?xml version="1.0" encoding="UTF-8"?>
<seiscomp xmlns="http://geofon.gfz-potsdam.de/ns/seiscomp3-schema/0.13" version="0.13"><EventParameters><pick publicID="de.gempa.tb1.Pick/20250412115344.579527.123739"><time><value>2025-04-12T11:53:38.688393Z</value></time><waveformID networkCode="CX" stationCode="PB01" channelCode="HHZ"/><filterID>ITAPER(4)&gt;&gt;BW(4,4,20)</filterID><methodID>AIC</methodID><horizontalSlowness><value>22.952363746307174</value></horizontalSlowness><backazimuth><value>300.75930521697666</value></backazimuth><phaseHint>P</phaseHint><evaluationMode>automatic</evaluationMode><comment><text>4.557100952169435</text><id>DFX:rectilinearity</id></comment><comment><text>8.521948270129899</text><id>SNR</id></comment></pick><pick publicID="de.gempa.tb1.Pick/20250412115346.527862.123741"><time><value>2025-04-12T11:53:39.768393Z</value></time><waveformID networkCode="CX" stationCode="PB03" channelCode="HHZ"/><filterID>ITAPER(4)&gt;&gt;BW(4,4,20)</filterID><methodID>AIC</methodID><horizontalSlowness><value>8.530897302191715</value></horizontalSlowness><backazimuth><value>336.2180804150356</value></backazimuth><phaseHint>P</phaseHint><evaluationMode>automatic</evaluationMode><comment><text>5.047610747373318</text><id>DFX:rectilinearity</id></comment><comment><text>11.631949322711813</text><id>SNR</id></comment></pick><pick publicID="de.gempa.tb1.Pick/20250412115349.464039.123743"><time><value>2025-04-12T11:53:41.428393Z</value></time><waveformID networkCode="CX" stationCode="PB02" channelCode="HHZ"/><filterID>ITAPER(4)&gt;&gt;BW(4,4,20)</filterID><methodID>AIC</methodID><horizontalSlowness><value>23.34973514381708</value></horizontalSlowness><backazimuth><value>60.14958832896914</value></backazimuth><phaseHint>P</phaseHint><evaluationMode>automatic</evaluationMode><comment><text>51.41361833879993</text><id>DFX:rectilinearity</id></comment><comment><text>11.576224383990414</text><id>SNR</id></comment></pick><pick publicID="de.gempa.tb1.Pick/20250412115353.790081.123745"><time><value>2025-04-12T11:53:35.13Z</value></time><waveformID networkCode="CX" stationCode="PB09" channelCode="HHZ"/><filterID>ITAPER(4)&gt;&gt;BW(4,4,20)</filterID><methodID>AIC</methodID><horizontalSlowness><value>17.538360099408127</value></horizontalSlowness><backazimuth><value>38.377210954665713</value></backazimuth><phaseHint>P</phaseHint><evaluationMode>automatic</evaluationMode><comment><text>5.801798145839377</text><id>DFX:rectilinearity</id></comment><comment><text>26.944433698529483</text><id>SNR</id></comment></pick><pick publicID="de.gempa.tb1.Pick/20250412115404.79528.123747"><time><value>2025-04-12T11:53:56.348393Z</value></time><waveformID networkCode="CX" stationCode="PB01" channelCode="HHN"/><filterID>ITAPER(2)&gt;&gt;BW(3,3,20)</filterID><methodID>L2-AIC-GRID</methodID><horizontalSlowness><value>19.597950305819804</value></horizontalSlowness><backazimuth><value>314.5226358247222</value></backazimuth><phaseHint>S</phaseHint><evaluationMode>automatic</evaluationMode><comment><text>7.349368517171905</text><id>DFX:rectilinearity</id></comment><comment><text>de.gempa.tb1.Pick/20250412115344.579527.123739</text><id>RefPickID</id></comment><comment><text>6.244401611914735</text><id>SNR</id></comment></pick><pick publicID="de.gempa.tb1.Pick/20250412115407.539076.123748"><time><value>2025-04-12T11:53:58.698393Z</value></time><waveformID networkCode="CX" stationCode="PB03" channelCode="HHN"/><filterID>ITAPER(2)&gt;&gt;BW(3,3,20)</filterID><methodID>L2-AIC-GRID</methodID><horizontalSlowness><value>18.996160377244777</value></horizontalSlowness><backazimuth><value>243.1600971694823</value></backazimuth><phaseHint>S</phaseHint><evaluationMode>automatic</evaluationMode><comment><text>9.014067385368165</text><id>DFX:rectilinearity</id></comment><comment><text>de.gempa.tb1.Pick/20250412115346.527862.123741</text><id>RefPickID</id></comment><comment><text>5.557598407193233</text><id>SNR</id></comment></pick><pick publicID="de.gempa.tb1.Pick/20250412115422.965092.123751"><time><value>2025-04-12T11:53:40.478397Z</value></time><waveformID networkCode="CX" stationCode="PB07" channelCode="HHZ"/><filterID>ITAPER(4)&gt;&gt;BW(4,4,20)</filterID><methodID>AIC</methodID><horizontalSlowness><value>20.44607508381963</value></horizontalSlowness><backazimuth><value>303.8842936679199</value></backazimuth><phaseHint>P</phaseHint><evaluationMode>automatic</evaluationMode><comment><text>178.48978156781922</text><id>DFX:rectilinearity</id></comment><comment><text>22.081343679826038</text><id>SNR</id></comment></pick><pick publicID="de.gempa.tb1.Pick/20250412115426.56827.123755"><time><value>2025-04-12T11:54:00.998393Z</value></time><waveformID networkCode="CX" stationCode="PB02" channelCode="HHN"/><filterID>ITAPER(2)&gt;&gt;BW(3,3,20)</filterID><methodID>L2-AIC-GRID</methodID><horizontalSlowness><value>7.177672952478845</value></horizontalSlowness><backazimuth><value>327.8772433434966</value></backazimuth><phaseHint>S</phaseHint><evaluationMode>automatic</evaluationMode><comment><text>68.87365290580357</text><id>DFX:rectilinearity</id></comment><comment><text>de.gempa.tb1.Pick/20250412115349.464039.123743</text><id>RefPickID</id></comment><comment><text>5.083965639395804</text><id>SNR</id></comment></pick><origin publicID="de.gempa.tb1.Origin/20250412115426.571932.81849"><time><value>2025-04-12T11:53:15.754142Z</value><uncertainty>1.312723159790039</uncertainty></time><latitude><value>-21.659116744995117</value><uncertainty>7.899213314056396</uncertainty></latitude><longitude><value>-68.52288055419922</value><uncertainty>14.84299087524414</uncertainty></longitude><depth><value>119.91476440429688</value><uncertainty>19.684127807617188</uncertainty></depth><depthType>from location</depthType><methodID>LOCSAT</methodID><earthModelID>iasp91_scanloc</earthModelID><quality><associatedPhaseCount>8</associatedPhaseCount><usedPhaseCount>8</usedPhaseCount><associatedStationCount>5</associatedStationCount><usedStationCount>5</usedStationCount><depthPhaseCount>0</depthPhaseCount><standardError>0.12998121019764727</standardError><azimuthalGap>306.9414520263672</azimuthalGap><maximumDistance>1.3226723670959473</maximumDistance><minimumDistance>0.6823762655258179</minimumDistance><medianDistance>1.2067548036575317</medianDistance></quality><uncertainty><minHorizontalUncertainty>16.65543556213379</minHorizontalUncertainty><maxHorizontalUncertainty>31.978124618530273</maxHorizontalUncertainty><azimuthMaxHorizontalUncertainty>96.49031066894531</azimuthMaxHorizontalUncertainty><preferredDescription>horizontal uncertainty</preferredDescription></uncertainty><evaluationMode>automatic</evaluationMode><evaluationStatus>confirmed</evaluationStatus><comment><text>0.00</text><id>mismatchScore</id></comment><comment><text>mismatchScore</text><id>scevalMethod</id></comment><arrival><pickID>de.gempa.tb1.Pick/20250412115344.579527.123739</pickID><phase>P</phase><azimuth>304.1035461425781</azimuth><distance>1.0881052017211914</distance><timeResidual>-0.017255783081054688</timeResidual><timeUsed>true</timeUsed><horizontalSlownessUsed>false</horizontalSlownessUsed><backazimuthUsed>false</backazimuthUsed><weight>1</weight></arrival><arrival><pickID>de.gempa.tb1.Pick/20250412115346.527862.123741</pickID><phase>P</phase><azimuth>251.0449981689453</azimuth><distance>1.2067548036575317</distance><timeResidual>-0.17337608337402344</timeResidual><timeUsed>true</timeUsed><horizontalSlownessUsed>false</horizontalSlownessUsed><backazimuthUsed>false</backazimuthUsed><weight>1</weight></arrival><arrival><pickID>de.gempa.tb1.Pick/20250412115349.464039.123743</pickID><phase>P</phase><azimuth>284.5423278808594</azimuth><distance>1.3226723670959473</distance><timeResidual>0.2192249298095703</timeResidual><timeUsed>true</timeUsed><horizontalSlownessUsed>false</horizontalSlownessUsed><backazimuthUsed>false</backazimuthUsed><weight>1</weight></arrival><arrival><pickID>de.gempa.tb1.Pick/20250412115353.790081.123745</pickID><phase>P</phase><azimuth>258.3207702636719</azimuth><distance>0.6823762655258179</distance><timeResidual>0.13270187377929688</timeResidual><timeUsed>true</timeUsed><horizontalSlownessUsed>false</horizontalSlownessUsed><backazimuthUsed>false</backazimuthUsed><weight>1</weight></arrival><arrival><pickID>de.gempa.tb1.Pick/20250412115404.79528.123747</pickID><phase>S</phase><azimuth>304.1035461425781</azimuth><distance>1.0881052017211914</distance><timeResidual>-0.11241340637207031</timeResidual><timeUsed>true</timeUsed><horizontalSlownessUsed>false</horizontalSlownessUsed><backazimuthUsed>false</backazimuthUsed><weight>1</weight></arrival><arrival><pickID>de.gempa.tb1.Pick/20250412115407.539076.123748</pickID><phase>S</phase><azimuth>251.0449981689453</azimuth><distance>1.2067548036575317</distance><timeResidual>0.0295562744140625</timeResidual><timeUsed>true</timeUsed><horizontalSlownessUsed>false</horizontalSlownessUsed><backazimuthUsed>false</backazimuthUsed><weight>1</weight></arrival><arrival><pickID>de.gempa.tb1.Pick/20250412115422.965092.123751</pickID><phase>P</phase><azimuth>266.7147216796875</azimuth><distance>1.2696787118911743</distance><timeResidual>-0.1454315185546875</timeResidual><timeUsed>true</timeUsed><horizontalSlownessUsed>false</horizontalSlownessUsed><backazimuthUsed>false</backazimuthUsed><weight>1</weight></arrival><arrival><pickID>de.gempa.tb1.Pick/20250412115426.56827.123755</pickID><phase>S</phase><azimuth>284.5423278808594</azimuth><distance>1.3226723670959473</distance><timeResidual>0.06688690185546875</timeResidual><timeUsed>true</timeUsed><horizontalSlownessUsed>false</horizontalSlownessUsed><backazimuthUsed>false</backazimuthUsed><weight>1</weight></arrival><magnitude publicID="de.gempa.tb1.Magnitude/20250412115458.587962.220995"><magnitude><value>2.5064017668347973</value></magnitude><type>M</type><methodID>weighted average</methodID><stationCount>2</stationCount></magnitude></origin><event publicID="gempa2025hflz"><preferredOriginID>de.gempa.tb1.Origin/20250412115426.571932.81849</preferredOriginID><preferredMagnitudeID>de.gempa.tb1.Magnitude/20250412115458.587962.220995</preferredMagnitudeID><description><text>Chile-Bolivia Border Region</text><type>region name</type></description><originReference>de.gempa.tb1.Origin/20250412115426.571932.81849</originReference></event></EventParameters></seiscomp>