<?xml version="1.0" encoding="UTF-8"?>
<seiscomp xmlns="http://geofon.gfz-potsdam.de/ns/seiscomp3-schema/0.13" version="0.13"><EventParameters><pick publicID="de.gempa.tb1.Pick/20250411191453.568036.119675"><time><value>2025-04-11T19:14:46.638393Z</value></time><waveformID networkCode="CX" stationCode="PB03" channelCode="HHZ"/><filterID>ITAPER(4)&gt;&gt;BW(4,4,20)</filterID><methodID>AIC</methodID><horizontalSlowness><value>13.792076688810134</value></horizontalSlowness><backazimuth><value>234.5712911386091</value></backazimuth><phaseHint>P</phaseHint><evaluationMode>automatic</evaluationMode><comment><text>6.54696081251025</text><id>DFX:rectilinearity</id></comment><comment><text>7.77780959998636</text><id>SNR</id></comment></pick><pick publicID="de.gempa.tb1.Pick/20250411191459.112949.119677"><time><value>2025-04-11T19:14:47.07Z</value></time><waveformID networkCode="CX" stationCode="PB09" channelCode="HHZ"/><filterID>ITAPER(4)&gt;&gt;BW(4,4,20)</filterID><methodID>AIC</methodID><horizontalSlowness><value>16.88337923759838</value></horizontalSlowness><backazimuth><value>151.95561995422767</value></backazimuth><phaseHint>P</phaseHint><evaluationMode>automatic</evaluationMode><comment><text>5.760296286395497</text><id>DFX:rectilinearity</id></comment><comment><text>74.50047993281997</text><id>SNR</id></comment></pick><pick publicID="de.gempa.tb1.Pick/20250411191500.639182.119679"><time><value>2025-04-11T19:14:54.588393Z</value></time><waveformID networkCode="CX" stationCode="PB03" channelCode="HHN"/><filterID>ITAPER(2)&gt;&gt;BW(3,3,20)</filterID><methodID>L2-AIC-GRID</methodID><horizontalSlowness><value>13.245859759380487</value></horizontalSlowness><backazimuth><value>261.84218515870907</value></backazimuth><phaseHint>S</phaseHint><evaluationMode>automatic</evaluationMode><comment><text>6.607659255907587</text><id>DFX:rectilinearity</id></comment><comment><text>de.gempa.tb1.Pick/20250411191453.568036.119675</text><id>RefPickID</id></comment><comment><text>12.573258081901567</text><id>SNR</id></comment></pick><pick publicID="de.gempa.tb1.Pick/20250411191508.468122.119680"><time><value>2025-04-11T19:15:00.048393Z</value></time><waveformID networkCode="CX" stationCode="PB02" channelCode="HHZ"/><filterID>ITAPER(4)&gt;&gt;BW(4,4,20)</filterID><methodID>AIC</methodID><horizontalSlowness><value>14.518789868772512</value></horizontalSlowness><backazimuth><value>26.409965755935616</value></backazimuth><phaseHint>P</phaseHint><evaluationMode>automatic</evaluationMode><comment><text>27.51540667039198</text><id>DFX:rectilinearity</id></comment><comment><text>6.95531711260355</text><id>SNR</id></comment></pick><pick publicID="de.gempa.tb1.Pick/20250411191509.718069.119682"><time><value>2025-04-11T19:15:04.098393Z</value></time><waveformID networkCode="CX" stationCode="PB01" channelCode="HHZ"/><filterID>ITAPER(4)&gt;&gt;BW(4,4,20)</filterID><methodID>AIC</methodID><horizontalSlowness><value>18.940217333019</value></horizontalSlowness><backazimuth><value>343.63655649866223</value></backazimuth><phaseHint>P</phaseHint><evaluationMode>automatic</evaluationMode><comment><text>12.21250945187887</text><id>DFX:rectilinearity</id></comment><comment><text>7.22657890062659</text><id>SNR</id></comment></pick><pick publicID="de.gempa.tb1.Pick/20250411191516.498027.119686"><time><value>2025-04-11T19:15:10.829999Z</value></time><waveformID networkCode="CX" stationCode="PATCX" channelCode="HHZ"/><filterID>ITAPER(4)&gt;&gt;BW(4,4,20)</filterID><methodID>AIC</methodID><horizontalSlowness><value>22.483298297398935</value></horizontalSlowness><backazimuth><value>145.6749241568023</value></backazimuth><phaseHint>P</phaseHint><evaluationMode>automatic</evaluationMode><comment><text>133597.21510625802</text><id>DFX:rectilinearity</id></comment><comment><text>18.826104682065235</text><id>SNR</id></comment></pick><pick publicID="de.gempa.tb1.Pick/20250411191527.627926.119694"><time><value>2025-04-11T19:15:16.698393Z</value></time><waveformID networkCode="CX" stationCode="PB02" channelCode="HHN"/><filterID>ITAPER(2)&gt;&gt;BW(3,3,20)</filterID><methodID>L2-AIC-GRID</methodID><horizontalSlowness><value>9.670073862754696</value></horizontalSlowness><backazimuth><value>358.0496845054753</value></backazimuth><phaseHint>S</phaseHint><evaluationMode>automatic</evaluationMode><comment><text>1184.7590676077089</text><id>DFX:rectilinearity</id></comment><comment><text>de.gempa.tb1.Pick/20250411191508.468122.119680</text><id>RefPickID</id></comment><comment><text>20.744670184124743</text><id>SNR</id></comment></pick><origin publicID="de.gempa.tb1.Origin/20250411191527.631089.64101"><time><value>2025-04-11T19:14:38.072995Z</value><uncertainty>1.3310402631759644</uncertainty></time><latitude><value>-22.347362518310547</value><uncertainty>7.786883354187012</uncertainty></latitude><longitude><value>-69.31546783447266</value><uncertainty>4.738795280456543</uncertainty></longitude><depth><value>0</value></depth><depthType>operator assigned</depthType><methodID>LOCSAT</methodID><earthModelID>iasp91_scanloc</earthModelID><quality><associatedPhaseCount>7</associatedPhaseCount><usedPhaseCount>7</usedPhaseCount><associatedStationCount>5</associatedStationCount><usedStationCount>5</usedStationCount><depthPhaseCount>0</depthPhaseCount><standardError>1.0571883455164537</standardError><azimuthalGap>299.0685486793518</azimuthalGap><maximumDistance>1.7074251174926758</maximumDistance><minimumDistance>0.5029680132865906</minimumDistance><medianDistance>1.156177520751953</medianDistance></quality><uncertainty><minHorizontalUncertainty>9.96122932434082</minHorizontalUncertainty><maxHorizontalUncertainty>16.827096939086914</maxHorizontalUncertainty><azimuthMaxHorizontalUncertainty>8.601688385009766</azimuthMaxHorizontalUncertainty><preferredDescription>horizontal uncertainty</preferredDescription></uncertainty><evaluationMode>automatic</evaluationMode><evaluationStatus>confirmed</evaluationStatus><comment><text>0.47</text><id>mismatchScore</id></comment><comment><text>mismatchScore</text><id>scevalMethod</id></comment><arrival><pickID>de.gempa.tb1.Pick/20250411191453.568036.119675</pickID><phase>P</phase><azimuth>306.1744689941406</azimuth><distance>0.5029680132865906</distance><timeResidual>-1.0822877883911133</timeResidual><timeUsed>true</timeUsed><horizontalSlownessUsed>false</horizontalSlownessUsed><backazimuthUsed>false</backazimuthUsed><weight>1</weight></arrival><arrival><pickID>de.gempa.tb1.Pick/20250411191459.112949.119677</pickID><phase>P</phase><azimuth>7.105920314788818</azimuth><distance>0.5525556802749634</distance><timeResidual>-1.6020870208740234</timeResidual><timeUsed>true</timeUsed><horizontalSlownessUsed>false</horizontalSlownessUsed><backazimuthUsed>false</backazimuthUsed><weight>1</weight></arrival><arrival><pickID>de.gempa.tb1.Pick/20250411191500.639182.119679</pickID><phase>S</phase><azimuth>306.1744689941406</azimuth><distance>0.5029680132865906</distance><timeResidual>-0.1381702423095703</timeResidual><timeUsed>true</timeUsed><horizontalSlownessUsed>false</horizontalSlownessUsed><backazimuthUsed>false</backazimuthUsed><weight>1</weight></arrival><arrival><pickID>de.gempa.tb1.Pick/20250411191508.468122.119680</pickID><phase>P</phase><azimuth>332.0818176269531</azimuth><distance>1.156177520751953</distance><timeResidual>-0.20195293426513672</timeResidual><timeUsed>true</timeUsed><horizontalSlownessUsed>false</horizontalSlownessUsed><backazimuthUsed>false</backazimuthUsed><weight>1</weight></arrival><arrival><pickID>de.gempa.tb1.Pick/20250411191509.718069.119682</pickID><phase>P</phase><azimuth>352.9443664550781</azimuth><distance>1.3075815439224243</distance><timeResidual>0.9463739395141602</timeResidual><timeUsed>true</timeUsed><horizontalSlownessUsed>false</horizontalSlownessUsed><backazimuthUsed>false</backazimuthUsed><weight>1</weight></arrival><arrival><pickID>de.gempa.tb1.Pick/20250411191516.498027.119686</pickID><phase>P</phase><azimuth>332.6862487792969</azimuth><distance>1.7074251174926758</distance><timeResidual>1.7356348037719727</timeResidual><timeUsed>true</timeUsed><horizontalSlownessUsed>false</horizontalSlownessUsed><backazimuthUsed>false</backazimuthUsed><weight>1</weight></arrival><arrival><pickID>de.gempa.tb1.Pick/20250411191527.627926.119694</pickID><phase>S</phase><azimuth>332.0818176269531</azimuth><distance>1.156177520751953</distance><timeResidual>0.34288883209228516</timeResidual><timeUsed>true</timeUsed><horizontalSlownessUsed>false</horizontalSlownessUsed><backazimuthUsed>false</backazimuthUsed><weight>1</weight></arrival><magnitude publicID="de.gempa.tb1.Magnitude/20250411191527.635731.134805"><magnitude><value>2.693132601201773</value></magnitude><type>M</type><methodID>weighted average</methodID><stationCount>5</stationCount></magnitude></origin><event publicID="gempa2025heer"><preferredOriginID>de.gempa.tb1.Origin/20250411191527.631089.64101</preferredOriginID><preferredMagnitudeID>de.gempa.tb1.Magnitude/20250411191527.635731.134805</preferredMagnitudeID><description><text>Northern Chile</text><type>region name</type></description><originReference>de.gempa.tb1.Origin/20250411191527.631089.64101</originReference></event></EventParameters></seiscomp>