<?xml version="1.0" encoding="UTF-8"?>
<seiscomp xmlns="http://geofon.gfz-potsdam.de/ns/seiscomp3-schema/0.13" version="0.13"><EventParameters><pick publicID="de.gempa.tb1.Pick/20250412032600.776034.121600"><time><value>2025-04-12T03:25:53.128393Z</value></time><waveformID networkCode="CX" stationCode="PB01" channelCode="HHZ"/><filterID>ITAPER(4)&gt;&gt;BW(4,4,20)</filterID><methodID>AIC</methodID><horizontalSlowness><value>22.56639222317069</value></horizontalSlowness><backazimuth><value>348.6496338161125</value></backazimuth><phaseHint>P</phaseHint><evaluationMode>automatic</evaluationMode><comment><text>19.846411966369885</text><id>DFX:rectilinearity</id></comment><comment><text>35.04015531048721</text><id>SNR</id></comment></pick><pick publicID="de.gempa.tb1.Pick/20250412032605.581499.121602"><time><value>2025-04-12T03:26:00.688393Z</value></time><waveformID networkCode="CX" stationCode="PB03" channelCode="HHZ"/><filterID>ITAPER(4)&gt;&gt;BW(4,4,20)</filterID><methodID>AIC</methodID><horizontalSlowness><value>12.099830782067073</value></horizontalSlowness><backazimuth><value>119.43098549271586</value></backazimuth><phaseHint>P</phaseHint><evaluationMode>automatic</evaluationMode><comment><text>5.760279123447155</text><id>DFX:rectilinearity</id></comment><comment><text>16.259586793043471</text><id>SNR</id></comment></pick><pick publicID="de.gempa.tb1.Pick/20250412032605.615799.121604"><time><value>2025-04-12T03:25:57.108393Z</value></time><waveformID networkCode="CX" stationCode="PB02" channelCode="HHZ"/><filterID>ITAPER(4)&gt;&gt;BW(4,4,20)</filterID><methodID>AIC</methodID><horizontalSlowness><value>19.4313080234444</value></horizontalSlowness><backazimuth><value>278.390142876649</value></backazimuth><phaseHint>P</phaseHint><evaluationMode>automatic</evaluationMode><comment><text>22.884190689731817</text><id>DFX:rectilinearity</id></comment><comment><text>21.364346938948533</text><id>SNR</id></comment></pick><pick publicID="de.gempa.tb1.Pick/20250412032607.473303.121606"><time><value>2025-04-12T03:25:56.56Z</value></time><waveformID networkCode="CX" stationCode="PB09" channelCode="HHZ"/><filterID>ITAPER(4)&gt;&gt;BW(4,4,20)</filterID><methodID>AIC</methodID><horizontalSlowness><value>2.8033010431758143</value></horizontalSlowness><backazimuth><value>182.27521251725685</value></backazimuth><phaseHint>P</phaseHint><evaluationMode>automatic</evaluationMode><comment><text>9.338591780238728</text><id>DFX:rectilinearity</id></comment><comment><text>33.6998051920013</text><id>SNR</id></comment></pick><pick publicID="de.gempa.tb1.Pick/20250412032611.837247.121608"><time><value>2025-04-12T03:26:05.948393Z</value></time><waveformID networkCode="CX" stationCode="PB01" channelCode="HHN"/><filterID>ITAPER(2)&gt;&gt;BW(3,3,20)</filterID><methodID>L2-AIC-GRID</methodID><horizontalSlowness><value>17.527276414846636</value></horizontalSlowness><backazimuth><value>7.3967888142775</value></backazimuth><phaseHint>S</phaseHint><evaluationMode>automatic</evaluationMode><comment><text>99.16535655801238</text><id>DFX:rectilinearity</id></comment><comment><text>de.gempa.tb1.Pick/20250412032600.776034.121600</text><id>RefPickID</id></comment><comment><text>8.469265081316108</text><id>SNR</id></comment></pick><pick publicID="de.gempa.tb1.Pick/20250412032617.966112.121609"><time><value>2025-04-12T03:25:59.078394Z</value></time><waveformID networkCode="CX" stationCode="PB07" channelCode="HHZ"/><filterID>ITAPER(4)&gt;&gt;BW(4,4,20)</filterID><methodID>AIC</methodID><horizontalSlowness><value>20.797112814898046</value></horizontalSlowness><backazimuth><value>30.98941502794858</value></backazimuth><phaseHint>P</phaseHint><evaluationMode>automatic</evaluationMode><comment><text>162.81202960223163</text><id>DFX:rectilinearity</id></comment><comment><text>18.721756891832715</text><id>SNR</id></comment></pick><pick publicID="de.gempa.tb1.Pick/20250412032621.464531.121611"><time><value>2025-04-12T03:26:12.798393Z</value></time><waveformID networkCode="CX" stationCode="PB02" channelCode="HHN"/><filterID>ITAPER(2)&gt;&gt;BW(3,3,20)</filterID><methodID>L2-AIC-GRID</methodID><horizontalSlowness><value>22.74392865624342</value></horizontalSlowness><backazimuth><value>230.5677352795524</value></backazimuth><phaseHint>S</phaseHint><evaluationMode>automatic</evaluationMode><comment><text>285.3864371644508</text><id>DFX:rectilinearity</id></comment><comment><text>de.gempa.tb1.Pick/20250412032605.615799.121604</text><id>RefPickID</id></comment><comment><text>6.685553523451683</text><id>SNR</id></comment></pick><pick publicID="de.gempa.tb1.Pick/20250412032631.181164.121612"><time><value>2025-04-12T03:26:17.118394Z</value></time><waveformID networkCode="CX" stationCode="PB07" channelCode="HHN"/><filterID>ITAPER(2)&gt;&gt;BW(3,3,20)</filterID><methodID>L2-AIC-GRID</methodID><horizontalSlowness><value>20.583189143095073</value></horizontalSlowness><backazimuth><value>27.1856702895617</value></backazimuth><phaseHint>S</phaseHint><evaluationMode>automatic</evaluationMode><comment><text>234.17119009524916</text><id>DFX:rectilinearity</id></comment><comment><text>de.gempa.tb1.Pick/20250412032617.966112.121609</text><id>RefPickID</id></comment><comment><text>5.097328117098663</text><id>SNR</id></comment></pick><pick publicID="de.gempa.tb1.Pick/20250412032632.535397.121613"><time><value>2025-04-12T03:26:19.288393Z</value></time><waveformID networkCode="CX" stationCode="PB03" channelCode="HHN"/><filterID>ITAPER(2)&gt;&gt;BW(3,3,20)</filterID><methodID>L2-AIC-GRID</methodID><horizontalSlowness><value>11.282107937084726</value></horizontalSlowness><backazimuth><value>175.91227349861455</value></backazimuth><phaseHint>S</phaseHint><evaluationMode>automatic</evaluationMode><comment><text>13.902222683515866</text><id>DFX:rectilinearity</id></comment><comment><text>de.gempa.tb1.Pick/20250412032605.581499.121602</text><id>RefPickID</id></comment><comment><text>6.221819071008432</text><id>SNR</id></comment></pick><origin publicID="de.gempa.tb1.Origin/20250412032632.538509.72649"><time><value>2025-04-12T03:25:36.58531Z</value><uncertainty>1.2536624670028687</uncertainty></time><latitude><value>-20.98078155517578</value><uncertainty>8.17430305480957</uncertainty></latitude><longitude><value>-68.95661163330078</value><uncertainty>12.945669174194336</uncertainty></longitude><depth><value>108.05442810058594</value><uncertainty>12.461651802062988</uncertainty></depth><depthType>from location</depthType><methodID>LOCSAT</methodID><earthModelID>iasp91_scanloc</earthModelID><quality><associatedPhaseCount>9</associatedPhaseCount><usedPhaseCount>9</usedPhaseCount><associatedStationCount>5</associatedStationCount><usedStationCount>5</usedStationCount><depthPhaseCount>0</depthPhaseCount><standardError>0.27206426116397053</standardError><azimuthalGap>295.3250274658203</azimuthalGap><maximumDistance>1.2956942319869995</maximumDistance><minimumDistance>0.4997932314872742</minimumDistance><medianDistance>0.9395151734352112</medianDistance></quality><uncertainty><minHorizontalUncertainty>15.424307823181152</minHorizontalUncertainty><maxHorizontalUncertainty>28.98161315917969</maxHorizontalUncertainty><azimuthMaxHorizontalUncertainty>109.83806610107422</azimuthMaxHorizontalUncertainty><preferredDescription>horizontal uncertainty</preferredDescription></uncertainty><evaluationMode>automatic</evaluationMode><evaluationStatus>confirmed</evaluationStatus><comment><text>0.11</text><id>mismatchScore</id></comment><comment><text>mismatchScore</text><id>scevalMethod</id></comment><arrival><pickID>de.gempa.tb1.Pick/20250412032600.776034.121600</pickID><phase>P</phase><azimuth>262.7636413574219</azimuth><distance>0.4997932314872742</distance><timeResidual>-0.11203575134277344</timeResidual><timeUsed>true</timeUsed><horizontalSlownessUsed>false</horizontalSlownessUsed><backazimuthUsed>false</backazimuthUsed><weight>1</weight></arrival><arrival><pickID>de.gempa.tb1.Pick/20250412032605.581499.121602</pickID><phase>P</phase><azimuth>214.77308654785156</azimuth><distance>1.2956942319869995</distance><timeResidual>-0.21265411376953125</timeResidual><timeUsed>true</timeUsed><horizontalSlownessUsed>false</horizontalSlownessUsed><backazimuthUsed>false</backazimuthUsed><weight>1</weight></arrival><arrival><pickID>de.gempa.tb1.Pick/20250412032605.615799.121604</pickID><phase>P</phase><azimuth>248.79454040527344</azimuth><distance>0.9395151734352112</distance><timeResidual>0.07608795166015625</timeResidual><timeUsed>true</timeUsed><horizontalSlownessUsed>false</horizontalSlownessUsed><backazimuthUsed>false</backazimuthUsed><weight>1</weight></arrival><arrival><pickID>de.gempa.tb1.Pick/20250412032607.473303.121606</pickID><phase>P</phase><azimuth>198.0886688232422</azimuth><distance>0.8540242314338684</distance><timeResidual>0.37400054931640625</timeResidual><timeUsed>true</timeUsed><horizontalSlownessUsed>false</horizontalSlownessUsed><backazimuthUsed>false</backazimuthUsed><weight>1</weight></arrival><arrival><pickID>de.gempa.tb1.Pick/20250412032611.837247.121608</pickID><phase>S</phase><azimuth>262.7636413574219</azimuth><distance>0.4997932314872742</distance><timeResidual>-0.10808563232421875</timeResidual><timeUsed>true</timeUsed><horizontalSlownessUsed>false</horizontalSlownessUsed><backazimuthUsed>false</backazimuthUsed><weight>1</weight></arrival><arrival><pickID>de.gempa.tb1.Pick/20250412032617.966112.121609</pickID><phase>P</phase><azimuth>229.25115966796875</azimuth><distance>1.140924096107483</distance><timeResidual>-0.08214569091796875</timeResidual><timeUsed>true</timeUsed><horizontalSlownessUsed>false</horizontalSlownessUsed><backazimuthUsed>false</backazimuthUsed><weight>1</weight></arrival><arrival><pickID>de.gempa.tb1.Pick/20250412032621.464531.121611</pickID><phase>S</phase><azimuth>248.79454040527344</azimuth><distance>0.9395151734352112</distance><timeResidual>-0.013154983520507812</timeResidual><timeUsed>true</timeUsed><horizontalSlownessUsed>false</horizontalSlownessUsed><backazimuthUsed>false</backazimuthUsed><weight>1</weight></arrival><arrival><pickID>de.gempa.tb1.Pick/20250412032631.181164.121612</pickID><phase>S</phase><azimuth>229.25115966796875</azimuth><distance>1.140924096107483</distance><timeResidual>0.5087051391601562</timeResidual><timeUsed>true</timeUsed><horizontalSlownessUsed>false</horizontalSlownessUsed><backazimuthUsed>false</backazimuthUsed><weight>1</weight></arrival><arrival><pickID>de.gempa.tb1.Pick/20250412032632.535397.121613</pickID><phase>S</phase><azimuth>214.77308654785156</azimuth><distance>1.2956942319869995</distance><timeResidual>-0.43051910400390625</timeResidual><timeUsed>true</timeUsed><horizontalSlownessUsed>false</horizontalSlownessUsed><backazimuthUsed>false</backazimuthUsed><weight>1</weight></arrival></origin><event publicID="gempa2025hevb"><preferredOriginID>de.gempa.tb1.Origin/20250412032632.538509.72649</preferredOriginID><description><text>Chile-Bolivia Border Region</text><type>region name</type></description><originReference>de.gempa.tb1.Origin/20250412032632.538509.72649</originReference></event></EventParameters></seiscomp>