<?xml version="1.0" encoding="UTF-8"?>
<seiscomp xmlns="http://geofon.gfz-potsdam.de/ns/seiscomp3-schema/0.13" version="0.13"><EventParameters><pick publicID="de.gempa.tb1.Pick/20250415042451.511348.143432"><time><value>2025-04-15T04:24:45.888393Z</value></time><waveformID networkCode="CX" stationCode="PB02" channelCode="HHZ"/><filterID>ITAPER(4)&gt;&gt;BW(4,4,20)</filterID><methodID>AIC</methodID><horizontalSlowness><value>7.25105484220788</value></horizontalSlowness><backazimuth><value>342.84881628171365</value></backazimuth><phaseHint>P</phaseHint><evaluationMode>automatic</evaluationMode><comment><text>72.65144806140674</text><id>DFX:rectilinearity</id></comment><comment><text>58.99106474203811</text><id>SNR</id></comment></pick><pick publicID="de.gempa.tb1.Pick/20250415042452.454702.143434"><time><value>2025-04-15T04:24:45.100001Z</value></time><waveformID networkCode="CX" stationCode="PATCX" channelCode="HHZ"/><filterID>ITAPER(4)&gt;&gt;BW(4,4,20)</filterID><methodID>AIC</methodID><horizontalSlowness><value>20.48133930803013</value></horizontalSlowness><backazimuth><value>249.94011552495266</value></backazimuth><phaseHint>P</phaseHint><evaluationMode>automatic</evaluationMode><comment><text>281.2013256828777</text><id>DFX:rectilinearity</id></comment><comment><text>47.12156571461517</text><id>SNR</id></comment></pick><pick publicID="de.gempa.tb1.Pick/20250415042454.659359.143436"><time><value>2025-04-15T04:24:47.008393Z</value></time><waveformID networkCode="CX" stationCode="PB01" channelCode="HHZ"/><filterID>ITAPER(4)&gt;&gt;BW(4,4,20)</filterID><methodID>AIC</methodID><horizontalSlowness><value>18.847874233329087</value></horizontalSlowness><backazimuth><value>318.37690127502265</value></backazimuth><phaseHint>P</phaseHint><evaluationMode>automatic</evaluationMode><comment><text>17.157000868029648</text><id>DFX:rectilinearity</id></comment><comment><text>19.92970275364645</text><id>SNR</id></comment></pick><pick publicID="de.gempa.tb1.Pick/20250415042500.490774.143440"><time><value>2025-04-15T04:24:54.748393Z</value></time><waveformID networkCode="CX" stationCode="PB02" channelCode="HHN"/><filterID>ITAPER(2)&gt;&gt;BW(3,3,20)</filterID><methodID>L2-AIC-GRID</methodID><horizontalSlowness><value>22.714589966087537</value></horizontalSlowness><backazimuth><value>124.57611456909365</value></backazimuth><phaseHint>S</phaseHint><evaluationMode>automatic</evaluationMode><comment><text>1913.4843494267118</text><id>DFX:rectilinearity</id></comment><comment><text>de.gempa.tb1.Pick/20250415042451.511348.143432</text><id>RefPickID</id></comment><comment><text>8.624177081389046</text><id>SNR</id></comment></pick><pick publicID="de.gempa.tb1.Pick/20250415042502.45819.143441"><time><value>2025-04-15T04:24:53.600001Z</value></time><waveformID networkCode="CX" stationCode="PATCX" channelCode="HHN"/><filterID>ITAPER(2)&gt;&gt;BW(3,3,20)</filterID><methodID>L2-AIC-GRID</methodID><horizontalSlowness><value>21.496745111302975</value></horizontalSlowness><backazimuth><value>70.17534917496327</value></backazimuth><phaseHint>S</phaseHint><evaluationMode>automatic</evaluationMode><comment><text>933.4093733541276</text><id>DFX:rectilinearity</id></comment><comment><text>de.gempa.tb1.Pick/20250415042452.454702.143434</text><id>RefPickID</id></comment><comment><text>13.759668829146717</text><id>SNR</id></comment></pick><pick publicID="de.gempa.tb1.Pick/20250415042503.406824.143442"><time><value>2025-04-15T04:24:53.92Z</value></time><waveformID networkCode="CX" stationCode="PB09" channelCode="HHZ"/><filterID>ITAPER(4)&gt;&gt;BW(4,4,20)</filterID><methodID>AIC</methodID><horizontalSlowness><value>23.03912981345661</value></horizontalSlowness><backazimuth><value>115.99385922200534</value></backazimuth><phaseHint>P</phaseHint><evaluationMode>automatic</evaluationMode><comment><text>22.804811042584447</text><id>DFX:rectilinearity</id></comment><comment><text>24.704000828034925</text><id>SNR</id></comment></pick><pick publicID="de.gempa.tb1.Pick/20250415042504.506813.143444"><time><value>2025-04-15T04:24:56.68Z</value></time><waveformID networkCode="CX" stationCode="PSGCX" channelCode="HHZ"/><filterID>ITAPER(4)&gt;&gt;BW(4,4,20)</filterID><methodID>AIC</methodID><horizontalSlowness><value>7.371732647737678</value></horizontalSlowness><backazimuth><value>250.38435273848924</value></backazimuth><phaseHint>P</phaseHint><evaluationMode>automatic</evaluationMode><comment><text>10.375364978949406</text><id>DFX:rectilinearity</id></comment><comment><text>18.362200499740364</text><id>SNR</id></comment></pick><pick publicID="de.gempa.tb1.Pick/20250415042504.578544.143446"><time><value>2025-04-15T04:24:56.518393Z</value></time><waveformID networkCode="CX" stationCode="PB01" channelCode="HHN"/><filterID>ITAPER(2)&gt;&gt;BW(3,3,20)</filterID><methodID>L2-AIC-GRID</methodID><horizontalSlowness><value>21.263944074621175</value></horizontalSlowness><backazimuth><value>353.8414711488782</value></backazimuth><phaseHint>S</phaseHint><evaluationMode>automatic</evaluationMode><comment><text>143.80675045597627</text><id>DFX:rectilinearity</id></comment><comment><text>de.gempa.tb1.Pick/20250415042454.659359.143436</text><id>RefPickID</id></comment><comment><text>8.2381215383178</text><id>SNR</id></comment></pick><pick publicID="de.gempa.tb1.Pick/20250415042506.410149.143447"><time><value>2025-04-15T04:24:49.468393Z</value></time><waveformID networkCode="CX" stationCode="PB07" channelCode="HHZ"/><filterID>ITAPER(4)&gt;&gt;BW(4,4,20)</filterID><methodID>AIC</methodID><horizontalSlowness><value>22.581046385896244</value></horizontalSlowness><backazimuth><value>278.6903364767382</value></backazimuth><phaseHint>P</phaseHint><evaluationMode>automatic</evaluationMode><comment><text>369.6821949374554</text><id>DFX:rectilinearity</id></comment><comment><text>26.11419998080009</text><id>SNR</id></comment></pick><pick publicID="de.gempa.tb1.Pick/20250415042511.126443.143449"><time><value>2025-04-15T04:25:00.908393Z</value></time><waveformID networkCode="CX" stationCode="PB07" channelCode="HHN"/><filterID>ITAPER(2)&gt;&gt;BW(3,3,20)</filterID><methodID>L2-AIC-GRID</methodID><horizontalSlowness><value>22.86905360340719</value></horizontalSlowness><backazimuth><value>331.89303435123634</value></backazimuth><phaseHint>S</phaseHint><evaluationMode>automatic</evaluationMode><comment><text>1796.670946866892</text><id>DFX:rectilinearity</id></comment><comment><text>de.gempa.tb1.Pick/20250415042506.410149.143447</text><id>RefPickID</id></comment><comment><text>6.678504158401767</text><id>SNR</id></comment></pick><pick publicID="de.gempa.tb1.Pick/20250415042523.57151.143454"><time><value>2025-04-15T04:25:14.32Z</value></time><waveformID networkCode="CX" stationCode="PSGCX" channelCode="HHN"/><filterID>ITAPER(2)&gt;&gt;BW(3,3,20)</filterID><methodID>L2-AIC-GRID</methodID><horizontalSlowness><value>16.87915872365613</value></horizontalSlowness><backazimuth><value>276.3285579887617</value></backazimuth><phaseHint>S</phaseHint><evaluationMode>automatic</evaluationMode><comment><text>13.268848087529875</text><id>DFX:rectilinearity</id></comment><comment><text>de.gempa.tb1.Pick/20250415042504.506813.143444</text><id>RefPickID</id></comment><comment><text>9.512248933108031</text><id>SNR</id></comment></pick><origin publicID="de.gempa.tb1.Origin/20250415042523.574961.160702"><time><value>2025-04-15T04:24:33.510627Z</value><uncertainty>0.72929447889328</uncertainty></time><latitude><value>-20.963922500610352</value><uncertainty>3.166762590408325</uncertainty></latitude><longitude><value>-70.00360107421875</value><uncertainty>6.285851001739502</uncertainty></longitude><depth><value>74.79132080078125</value><uncertainty>5.792264461517334</uncertainty></depth><depthType>from location</depthType><methodID>LOCSAT</methodID><earthModelID>iasp91_scanloc</earthModelID><quality><associatedPhaseCount>11</associatedPhaseCount><usedPhaseCount>11</usedPhaseCount><associatedStationCount>6</associatedStationCount><usedStationCount>6</usedStationCount><depthPhaseCount>0</depthPhaseCount><standardError>0.423067475277109</standardError><azimuthalGap>143.75157165527344</azimuthalGap><maximumDistance>1.364398717880249</maximumDistance><minimumDistance>0.19946914911270142</minimumDistance><medianDistance>0.4887332320213318</medianDistance></quality><uncertainty><minHorizontalUncertainty>6.012048721313477</minHorizontalUncertainty><maxHorizontalUncertainty>13.843106269836426</maxHorizontalUncertainty><azimuthMaxHorizontalUncertainty>75.33646392822266</azimuthMaxHorizontalUncertainty><preferredDescription>horizontal uncertainty</preferredDescription></uncertainty><evaluationMode>automatic</evaluationMode><evaluationStatus>confirmed</evaluationStatus><comment><text>0.03</text><id>mismatchScore</id></comment><comment><text>mismatchScore</text><id>scevalMethod</id></comment><arrival><pickID>de.gempa.tb1.Pick/20250415042451.511348.143432</pickID><phase>P</phase><azimuth>164.18370056152344</azimuth><distance>0.3680071532726288</distance><timeResidual>0.21674346923828125</timeResidual><timeUsed>true</timeUsed><horizontalSlownessUsed>false</horizontalSlownessUsed><backazimuthUsed>false</backazimuthUsed><weight>1</weight></arrival><arrival><pickID>de.gempa.tb1.Pick/20250415042452.454702.143434</pickID><phase>P</phase><azimuth>315.56573486328125</azimuth><distance>0.19946914911270142</distance><timeResidual>0.4257793426513672</timeResidual><timeUsed>true</timeUsed><horizontalSlownessUsed>false</horizontalSlownessUsed><backazimuthUsed>false</backazimuthUsed><weight>1</weight></arrival><arrival><pickID>de.gempa.tb1.Pick/20250415042454.659359.143436</pickID><phase>P</phase><azimuth>99.38367462158203</azimuth><distance>0.4887332320213318</distance><timeResidual>0.34819889068603516</timeResidual><timeUsed>true</timeUsed><horizontalSlownessUsed>false</horizontalSlownessUsed><backazimuthUsed>false</backazimuthUsed><weight>1</weight></arrival><arrival><pickID>de.gempa.tb1.Pick/20250415042500.490774.143440</pickID><phase>S</phase><azimuth>164.18370056152344</azimuth><distance>0.3680071532726288</distance><timeResidual>-0.18191242218017578</timeResidual><timeUsed>true</timeUsed><horizontalSlownessUsed>false</horizontalSlownessUsed><backazimuthUsed>false</backazimuthUsed><weight>1</weight></arrival><arrival><pickID>de.gempa.tb1.Pick/20250415042502.45819.143441</pickID><phase>S</phase><azimuth>315.56573486328125</azimuth><distance>0.19946914911270142</distance><timeResidual>0.43702220916748047</timeResidual><timeUsed>true</timeUsed><horizontalSlownessUsed>false</horizontalSlownessUsed><backazimuthUsed>false</backazimuthUsed><weight>1</weight></arrival><arrival><pickID>de.gempa.tb1.Pick/20250415042503.406824.143442</pickID><phase>P</phase><azimuth>139.54100036621094</azimuth><distance>1.0909184217453003</distance><timeResidual>0.5459861755371094</timeResidual><timeUsed>true</timeUsed><horizontalSlownessUsed>false</horizontalSlownessUsed><backazimuthUsed>false</backazimuthUsed><weight>1</weight></arrival><arrival><pickID>de.gempa.tb1.Pick/20250415042504.506813.143444</pickID><phase>P</phase><azimuth>355.2652282714844</azimuth><distance>1.364398717880249</distance><timeResidual>-0.1899261474609375</timeResidual><timeUsed>true</timeUsed><horizontalSlownessUsed>false</horizontalSlownessUsed><backazimuthUsed>false</backazimuthUsed><weight>1</weight></arrival><arrival><pickID>de.gempa.tb1.Pick/20250415042504.578544.143446</pickID><phase>S</phase><azimuth>99.38367462158203</azimuth><distance>0.4887332320213318</distance><timeResidual>-0.16545391082763672</timeResidual><timeUsed>true</timeUsed><horizontalSlownessUsed>false</horizontalSlownessUsed><backazimuthUsed>false</backazimuthUsed><weight>1</weight></arrival><arrival><pickID>de.gempa.tb1.Pick/20250415042506.410149.143447</pickID><phase>P</phase><azimuth>171.8141632080078</azimuth><distance>0.7668356895446777</distance><timeResidual>-0.034255027770996094</timeResidual><timeUsed>true</timeUsed><horizontalSlownessUsed>false</horizontalSlownessUsed><backazimuthUsed>false</backazimuthUsed><weight>1</weight></arrival><arrival><pickID>de.gempa.tb1.Pick/20250415042511.126443.143449</pickID><phase>S</phase><azimuth>171.8141632080078</azimuth><distance>0.7668356895446777</distance><timeResidual>-0.8310823440551758</timeResidual><timeUsed>true</timeUsed><horizontalSlownessUsed>false</horizontalSlownessUsed><backazimuthUsed>false</backazimuthUsed><weight>1</weight></arrival><arrival><pickID>de.gempa.tb1.Pick/20250415042523.57151.143454</pickID><phase>S</phase><azimuth>355.2652282714844</azimuth><distance>1.364398717880249</distance><timeResidual>-0.5846700668334961</timeResidual><timeUsed>true</timeUsed><horizontalSlownessUsed>false</horizontalSlownessUsed><backazimuthUsed>false</backazimuthUsed><weight>1</weight></arrival><magnitude publicID="de.gempa.tb1.Magnitude/20250415042530.939176.570915"><magnitude><value>1.7058453818872958</value></magnitude><type>M</type><methodID>weighted average</methodID><stationCount>6</stationCount></magnitude></origin><event publicID="gempa2025hklc"><preferredOriginID>de.gempa.tb1.Origin/20250415042523.574961.160702</preferredOriginID><preferredMagnitudeID>de.gempa.tb1.Magnitude/20250415042530.939176.570915</preferredMagnitudeID><description><text>Near Coast of Northern Chile</text><type>region name</type></description><originReference>de.gempa.tb1.Origin/20250415042523.574961.160702</originReference></event></EventParameters></seiscomp>