<?xml version="1.0" encoding="UTF-8"?>
<seiscomp xmlns="http://geofon.gfz-potsdam.de/ns/seiscomp3-schema/0.13" version="0.13"><EventParameters><pick publicID="de.gempa.tb1.Pick/20250412141838.578607.124539"><time><value>2025-04-12T14:18:32.888394Z</value></time><waveformID networkCode="CX" stationCode="PB01" channelCode="HHZ"/><filterID>ITAPER(4)&gt;&gt;BW(4,4,20)</filterID><methodID>AIC</methodID><horizontalSlowness><value>7.833506558516231</value></horizontalSlowness><backazimuth><value>74.3382035028059</value></backazimuth><phaseHint>P</phaseHint><evaluationMode>automatic</evaluationMode><comment><text>32.26014216350602</text><id>DFX:rectilinearity</id></comment><comment><text>65.17174082592803</text><id>SNR</id></comment></pick><pick publicID="de.gempa.tb1.Pick/20250412141842.558734.124541"><time><value>2025-04-12T14:18:33.95Z</value></time><waveformID networkCode="CX" stationCode="PB09" channelCode="HHZ"/><filterID>ITAPER(4)&gt;&gt;BW(4,4,20)</filterID><methodID>AIC</methodID><horizontalSlowness><value>17.482389376669353</value></horizontalSlowness><backazimuth><value>265.6823924533691</value></backazimuth><phaseHint>P</phaseHint><evaluationMode>automatic</evaluationMode><comment><text>11.389075042838025</text><id>DFX:rectilinearity</id></comment><comment><text>16.82120144977234</text><id>SNR</id></comment></pick><pick publicID="de.gempa.tb1.Pick/20250412141843.573055.124543"><time><value>2025-04-12T14:18:36.238393Z</value></time><waveformID networkCode="CX" stationCode="PB02" channelCode="HHZ"/><filterID>ITAPER(4)&gt;&gt;BW(4,4,20)</filterID><methodID>AIC</methodID><horizontalSlowness><value>11.808507722743744</value></horizontalSlowness><backazimuth><value>26.392023990199533</value></backazimuth><phaseHint>P</phaseHint><evaluationMode>automatic</evaluationMode><comment><text>46.71832254331203</text><id>DFX:rectilinearity</id></comment><comment><text>35.989110773841226</text><id>SNR</id></comment></pick><pick publicID="de.gempa.tb1.Pick/20250412141843.574781.124545"><time><value>2025-04-12T14:18:38.778393Z</value></time><waveformID networkCode="CX" stationCode="PB08" channelCode="HHZ"/><filterID>ITAPER(4)&gt;&gt;BW(4,4,20)</filterID><methodID>AIC</methodID><horizontalSlowness><value>13.837627171140857</value></horizontalSlowness><backazimuth><value>211.00036690091795</value></backazimuth><phaseHint>P</phaseHint><evaluationMode>automatic</evaluationMode><comment><text>24.50020851953725</text><id>DFX:rectilinearity</id></comment><comment><text>13.891197452950843</text><id>SNR</id></comment></pick><pick publicID="de.gempa.tb1.Pick/20250412141844.181121.124547"><time><value>2025-04-12T14:18:37.308391Z</value></time><waveformID networkCode="CX" stationCode="PB07" channelCode="HHZ"/><filterID>ITAPER(4)&gt;&gt;BW(4,4,20)</filterID><methodID>AIC</methodID><horizontalSlowness><value>23.49028626011036</value></horizontalSlowness><backazimuth><value>64.88962317985059</value></backazimuth><phaseHint>P</phaseHint><evaluationMode>automatic</evaluationMode><comment><text>225.10314680320081</text><id>DFX:rectilinearity</id></comment><comment><text>25.400590455677815</text><id>SNR</id></comment></pick><pick publicID="de.gempa.tb1.Pick/20250412141844.552497.124549"><time><value>2025-04-12T14:18:38.178393Z</value></time><waveformID networkCode="CX" stationCode="PB03" channelCode="HHZ"/><filterID>ITAPER(4)&gt;&gt;BW(4,4,20)</filterID><methodID>AIC</methodID><horizontalSlowness><value>3.7130717960100683</value></horizontalSlowness><backazimuth><value>88.95099749305376</value></backazimuth><phaseHint>P</phaseHint><evaluationMode>automatic</evaluationMode><comment><text>10.357032668301713</text><id>DFX:rectilinearity</id></comment><comment><text>20.17620310146848</text><id>SNR</id></comment></pick><pick publicID="de.gempa.tb1.Pick/20250412141847.68975.124551"><time><value>2025-04-12T14:18:39.489999Z</value></time><waveformID networkCode="CX" stationCode="PATCX" channelCode="HHZ"/><filterID>ITAPER(4)&gt;&gt;BW(4,4,20)</filterID><methodID>AIC</methodID><horizontalSlowness><value>21.87745422048144</value></horizontalSlowness><backazimuth><value>227.05382202936505</value></backazimuth><phaseHint>P</phaseHint><evaluationMode>automatic</evaluationMode><comment><text>198.48985012577847</text><id>DFX:rectilinearity</id></comment><comment><text>13.344124988747234</text><id>SNR</id></comment></pick><pick publicID="de.gempa.tb1.Pick/20250412141853.57513.124553"><time><value>2025-04-12T14:18:47.31Z</value></time><waveformID networkCode="CX" stationCode="PSGCX" channelCode="HHZ"/><filterID>ITAPER(4)&gt;&gt;BW(4,4,20)</filterID><methodID>AIC</methodID><horizontalSlowness><value>15.629639455776898</value></horizontalSlowness><backazimuth><value>216.4909395039082</value></backazimuth><phaseHint>P</phaseHint><evaluationMode>automatic</evaluationMode><comment><text>21.040795104590128</text><id>DFX:rectilinearity</id></comment><comment><text>24.37612300066148</text><id>SNR</id></comment></pick><pick publicID="de.gempa.tb1.Pick/20250412141853.776967.124555"><time><value>2025-04-12T14:18:46.668394Z</value></time><waveformID networkCode="CX" stationCode="PB01" channelCode="HHN"/><filterID>ITAPER(2)&gt;&gt;BW(3,3,20)</filterID><methodID>L2-AIC-GRID</methodID><horizontalSlowness><value>21.36047230886805</value></horizontalSlowness><backazimuth><value>15.866496129305744</value></backazimuth><phaseHint>S</phaseHint><evaluationMode>automatic</evaluationMode><comment><text>828.008599520544</text><id>DFX:rectilinearity</id></comment><comment><text>de.gempa.tb1.Pick/20250412141838.578607.124539</text><id>RefPickID</id></comment><comment><text>11.960413133733697</text><id>SNR</id></comment></pick><pick publicID="de.gempa.tb1.Pick/20250412141901.578629.124556"><time><value>2025-04-12T14:18:55.488393Z</value></time><waveformID networkCode="CX" stationCode="PB03" channelCode="HHN"/><filterID>ITAPER(2)&gt;&gt;BW(3,3,20)</filterID><methodID>L2-AIC-GRID</methodID><horizontalSlowness><value>19.56706975487909</value></horizontalSlowness><backazimuth><value>278.6527951545106</value></backazimuth><phaseHint>S</phaseHint><evaluationMode>automatic</evaluationMode><comment><text>49.65518849314859</text><id>DFX:rectilinearity</id></comment><comment><text>de.gempa.tb1.Pick/20250412141844.552497.124549</text><id>RefPickID</id></comment><comment><text>10.377322313184106</text><id>SNR</id></comment></pick><pick publicID="de.gempa.tb1.Pick/20250412141902.680371.124557"><time><value>2025-04-12T14:18:52.268393Z</value></time><waveformID networkCode="CX" stationCode="PB02" channelCode="HHN"/><filterID>ITAPER(2)&gt;&gt;BW(3,3,20)</filterID><methodID>L2-AIC-GRID</methodID><horizontalSlowness><value>17.444294378870364</value></horizontalSlowness><backazimuth><value>358.9664116501382</value></backazimuth><phaseHint>S</phaseHint><evaluationMode>automatic</evaluationMode><comment><text>482.8536522323322</text><id>DFX:rectilinearity</id></comment><comment><text>de.gempa.tb1.Pick/20250412141843.573055.124543</text><id>RefPickID</id></comment><comment><text>10.790041650699054</text><id>SNR</id></comment></pick><pick publicID="de.gempa.tb1.Pick/20250412141906.440807.124561"><time><value>2025-04-12T14:18:58.179999Z</value></time><waveformID networkCode="CX" stationCode="PATCX" channelCode="HHN"/><filterID>ITAPER(2)&gt;&gt;BW(3,3,20)</filterID><methodID>L2-AIC-GRID</methodID><horizontalSlowness><value>23.23176274905413</value></horizontalSlowness><backazimuth><value>54.9603429656498</value></backazimuth><phaseHint>S</phaseHint><evaluationMode>automatic</evaluationMode><comment><text>1024.8081862198758</text><id>DFX:rectilinearity</id></comment><comment><text>de.gempa.tb1.Pick/20250412141847.68975.124551</text><id>RefPickID</id></comment><comment><text>9.776194387943637</text><id>SNR</id></comment></pick><pick publicID="de.gempa.tb1.Pick/20250412141940.958457.124570"><time><value>2025-04-12T14:18:53.848391Z</value></time><waveformID networkCode="CX" stationCode="PB07" channelCode="HHN"/><filterID>ITAPER(2)&gt;&gt;BW(3,3,20)</filterID><methodID>L2-AIC-GRID</methodID><horizontalSlowness><value>20.436280074623475</value></horizontalSlowness><backazimuth><value>211.65783268678777</value></backazimuth><phaseHint>S</phaseHint><evaluationMode>automatic</evaluationMode><comment><text>3519.2904195296614</text><id>DFX:rectilinearity</id></comment><comment><text>de.gempa.tb1.Pick/20250412141844.181121.124547</text><id>RefPickID</id></comment><comment><text>10.440513666436434</text><id>SNR</id></comment></pick><origin publicID="de.gempa.tb1.Origin/20250412141940.964054.84769"><time><value>2025-04-12T14:18:15.290627Z</value><uncertainty>0.8508691787719727</uncertainty></time><latitude><value>-21.238845825195312</value><uncertainty>4.3383731842041016</uncertainty></latitude><longitude><value>-68.93992614746094</value><uncertainty>8.227743148803711</uncertainty></longitude><depth><value>116.52144622802734</value><uncertainty>9.108445167541504</uncertainty></depth><depthType>from location</depthType><methodID>LOCSAT</methodID><earthModelID>iasp91_scanloc</earthModelID><quality><associatedPhaseCount>13</associatedPhaseCount><usedPhaseCount>13</usedPhaseCount><associatedStationCount>8</associatedStationCount><usedStationCount>8</usedStationCount><depthPhaseCount>0</depthPhaseCount><standardError>0.39507752231832793</standardError><azimuthalGap>217.23118591308594</azimuthalGap><maximumDistance>1.9746102094650269</maximumDistance><minimumDistance>0.5468773245811462</minimumDistance><medianDistance>1.0061423778533936</medianDistance></quality><uncertainty><minHorizontalUncertainty>9.296310424804688</minHorizontalUncertainty><maxHorizontalUncertainty>17.643421173095703</maxHorizontalUncertainty><azimuthMaxHorizontalUncertainty>91.2036361694336</azimuthMaxHorizontalUncertainty><preferredDescription>horizontal uncertainty</preferredDescription></uncertainty><evaluationMode>automatic</evaluationMode><evaluationStatus>confirmed</evaluationStatus><comment><text>0.05</text><id>mismatchScore</id></comment><comment><text>mismatchScore</text><id>scevalMethod</id></comment><arrival><pickID>de.gempa.tb1.Pick/20250412141838.578607.124539</pickID><phase>P</phase><azimuth>290.75146484375</azimuth><distance>0.5468773245811462</distance><timeResidual>-0.3005504608154297</timeResidual><timeUsed>true</timeUsed><horizontalSlownessUsed>false</horizontalSlownessUsed><backazimuthUsed>false</backazimuthUsed><weight>1</weight></arrival><arrival><pickID>de.gempa.tb1.Pick/20250412141842.558734.124541</pickID><phase>P</phase><azimuth>206.8232879638672</azimuth><distance>0.6219900846481323</distance><timeResidual>0.2287006378173828</timeResidual><timeUsed>true</timeUsed><horizontalSlownessUsed>false</horizontalSlownessUsed><backazimuthUsed>false</backazimuthUsed><weight>1</weight></arrival><arrival><pickID>de.gempa.tb1.Pick/20250412141843.573055.124543</pickID><phase>P</phase><azimuth>264.6700744628906</azimuth><distance>0.8953233361244202</distance><timeResidual>0.18767166137695312</timeResidual><timeUsed>true</timeUsed><horizontalSlownessUsed>false</horizontalSlownessUsed><backazimuthUsed>false</backazimuthUsed><weight>1</weight></arrival><arrival><pickID>de.gempa.tb1.Pick/20250412141843.574781.124545</pickID><phase>P</phase><azimuth>349.59210205078125</azimuth><distance>1.1103322505950928</distance><timeResidual>0.5759410858154297</timeResidual><timeUsed>true</timeUsed><horizontalSlownessUsed>false</horizontalSlownessUsed><backazimuthUsed>false</backazimuthUsed><weight>1</weight></arrival><arrival><pickID>de.gempa.tb1.Pick/20250412141844.181121.124547</pickID><phase>P</phase><azimuth>240.9821014404297</azimuth><distance>1.0061423778533936</distance><timeResidual>0.18245315551757812</timeResidual><timeUsed>true</timeUsed><horizontalSlownessUsed>false</horizontalSlownessUsed><backazimuthUsed>false</backazimuthUsed><weight>1</weight></arrival><arrival><pickID>de.gempa.tb1.Pick/20250412141844.552497.124549</pickID><phase>P</phase><azimuth>223.0499267578125</azimuth><distance>1.1051764488220215</distance><timeResidual>0.04032707214355469</timeResidual><timeUsed>true</timeUsed><horizontalSlownessUsed>false</horizontalSlownessUsed><backazimuthUsed>false</backazimuthUsed><weight>1</weight></arrival><arrival><pickID>de.gempa.tb1.Pick/20250412141847.68975.124551</pickID><phase>P</phase><azimuth>289.9445495605469</azimuth><distance>1.2070965766906738</distance><timeResidual>0.25921630859375</timeResidual><timeUsed>true</timeUsed><horizontalSlownessUsed>false</horizontalSlownessUsed><backazimuthUsed>false</backazimuthUsed><weight>1</weight></arrival><arrival><pickID>de.gempa.tb1.Pick/20250412141853.57513.124553</pickID><phase>P</phase><azimuth>325.600830078125</azimuth><distance>1.9746102094650269</distance><timeResidual>-0.9895191192626953</timeResidual><timeUsed>true</timeUsed><horizontalSlownessUsed>false</horizontalSlownessUsed><backazimuthUsed>false</backazimuthUsed><weight>1</weight></arrival><arrival><pickID>de.gempa.tb1.Pick/20250412141853.776967.124555</pickID><phase>S</phase><azimuth>290.75146484375</azimuth><distance>0.5468773245811462</distance><timeResidual>-0.3164634704589844</timeResidual><timeUsed>true</timeUsed><horizontalSlownessUsed>false</horizontalSlownessUsed><backazimuthUsed>false</backazimuthUsed><weight>1</weight></arrival><arrival><pickID>de.gempa.tb1.Pick/20250412141901.578629.124556</pickID><phase>S</phase><azimuth>223.0499267578125</azimuth><distance>1.1051764488220215</distance><timeResidual>-0.32019805908203125</timeResidual><timeUsed>true</timeUsed><horizontalSlownessUsed>false</horizontalSlownessUsed><backazimuthUsed>false</backazimuthUsed><weight>1</weight></arrival><arrival><pickID>de.gempa.tb1.Pick/20250412141902.680371.124557</pickID><phase>S</phase><azimuth>264.6700744628906</azimuth><distance>0.8953233361244202</distance><timeResidual>0.1845989227294922</timeResidual><timeUsed>true</timeUsed><horizontalSlownessUsed>false</horizontalSlownessUsed><backazimuthUsed>false</backazimuthUsed><weight>1</weight></arrival><arrival><pickID>de.gempa.tb1.Pick/20250412141906.440807.124561</pickID><phase>S</phase><azimuth>289.9445495605469</azimuth><distance>1.2070965766906738</distance><timeResidual>0.42175865173339844</timeResidual><timeUsed>true</timeUsed><horizontalSlownessUsed>false</horizontalSlownessUsed><backazimuthUsed>false</backazimuthUsed><weight>1</weight></arrival><arrival><pickID>de.gempa.tb1.Pick/20250412141940.958457.124570</pickID><phase>S</phase><azimuth>240.9821014404297</azimuth><distance>1.0061423778533936</distance><timeResidual>-0.15384483337402344</timeResidual><timeUsed>true</timeUsed><horizontalSlownessUsed>false</horizontalSlownessUsed><backazimuthUsed>false</backazimuthUsed><weight>1</weight></arrival><magnitude publicID="de.gempa.tb1.Magnitude/20250412141950.939607.238205"><magnitude><value>2.521260953640836</value></magnitude><type>M</type><methodID>weighted average</methodID><stationCount>7</stationCount></magnitude></origin><event publicID="gempa2025hfqv"><preferredOriginID>de.gempa.tb1.Origin/20250412141940.964054.84769</preferredOriginID><preferredMagnitudeID>de.gempa.tb1.Magnitude/20250412141950.939607.238205</preferredMagnitudeID><description><text>Chile-Bolivia Border Region</text><type>region name</type></description><originReference>de.gempa.tb1.Origin/20250412141940.964054.84769</originReference></event></EventParameters></seiscomp>