<?xml version="1.0" encoding="UTF-8"?>
<seiscomp xmlns="http://geofon.gfz-potsdam.de/ns/seiscomp3-schema/0.13" version="0.13"><EventParameters><pick publicID="de.gempa.tb1.Pick/20250414052953.23509.135965"><time><value>2025-04-14T05:29:44.59Z</value></time><waveformID networkCode="CX" stationCode="PB09" channelCode="HHZ"/><filterID>ITAPER(4)&gt;&gt;BW(4,4,20)</filterID><methodID>AIC</methodID><horizontalSlowness><value>14.473816371469479</value></horizontalSlowness><backazimuth><value>69.73474081617627</value></backazimuth><phaseHint>P</phaseHint><evaluationMode>automatic</evaluationMode><comment><text>21.206759558157682</text><id>DFX:rectilinearity</id></comment><comment><text>16.500742491850353</text><id>SNR</id></comment></pick><pick publicID="de.gempa.tb1.Pick/20250414052955.498877.135967"><time><value>2025-04-14T05:29:45.008393Z</value></time><waveformID networkCode="CX" stationCode="PB02" channelCode="HHZ"/><filterID>ITAPER(4)&gt;&gt;BW(4,4,20)</filterID><methodID>AIC</methodID><horizontalSlowness><value>7.44728880590205</value></horizontalSlowness><backazimuth><value>41.124589861550504</value></backazimuth><phaseHint>P</phaseHint><evaluationMode>automatic</evaluationMode><comment><text>36.348237277811826</text><id>DFX:rectilinearity</id></comment><comment><text>16.0284527743563</text><id>SNR</id></comment></pick><pick publicID="de.gempa.tb1.Pick/20250414052955.706014.135969"><time><value>2025-04-14T05:29:49.208393Z</value></time><waveformID networkCode="CX" stationCode="PB03" channelCode="HHZ"/><filterID>ITAPER(4)&gt;&gt;BW(4,4,20)</filterID><methodID>AIC</methodID><horizontalSlowness><value>16.416071844124193</value></horizontalSlowness><backazimuth><value>233.34344042857293</value></backazimuth><phaseHint>P</phaseHint><evaluationMode>automatic</evaluationMode><comment><text>8.735406188026653</text><id>DFX:rectilinearity</id></comment><comment><text>17.987178707048976</text><id>SNR</id></comment></pick><pick publicID="de.gempa.tb1.Pick/20250414052957.416988.135971"><time><value>2025-04-14T05:29:49.999999Z</value></time><waveformID networkCode="CX" stationCode="PATCX" channelCode="HHZ"/><filterID>ITAPER(4)&gt;&gt;BW(4,4,20)</filterID><methodID>AIC</methodID><horizontalSlowness><value>23.279784742435925</value></horizontalSlowness><backazimuth><value>30.54758566898724</value></backazimuth><phaseHint>P</phaseHint><evaluationMode>automatic</evaluationMode><comment><text>129.86395486134941</text><id>DFX:rectilinearity</id></comment><comment><text>21.18865913971056</text><id>SNR</id></comment></pick><pick publicID="de.gempa.tb1.Pick/20250414053000.674622.135973"><time><value>2025-04-14T05:29:54.598391Z</value></time><waveformID networkCode="CX" stationCode="PB06" channelCode="HHZ"/><filterID>ITAPER(4)&gt;&gt;BW(4,4,20)</filterID><methodID>AIC</methodID><horizontalSlowness><value>3.764689885299222</value></horizontalSlowness><backazimuth><value>247.25977978286096</value></backazimuth><phaseHint>P</phaseHint><evaluationMode>automatic</evaluationMode><comment><text>52.59877847129268</text><id>DFX:rectilinearity</id></comment><comment><text>11.444461726973262</text><id>SNR</id></comment></pick><pick publicID="de.gempa.tb1.Pick/20250414053002.566014.135975"><time><value>2025-04-14T05:29:56.9Z</value></time><waveformID networkCode="CX" stationCode="PSGCX" channelCode="HHZ"/><filterID>ITAPER(4)&gt;&gt;BW(4,4,20)</filterID><methodID>AIC</methodID><horizontalSlowness><value>12.47674598559421</value></horizontalSlowness><backazimuth><value>122.18915391698313</value></backazimuth><phaseHint>P</phaseHint><evaluationMode>automatic</evaluationMode><comment><text>8.697202603415011</text><id>DFX:rectilinearity</id></comment><comment><text>9.455482955053085</text><id>SNR</id></comment></pick><pick publicID="de.gempa.tb1.Pick/20250414053004.392036.135977"><time><value>2025-04-14T05:29:47.328393Z</value></time><waveformID networkCode="CX" stationCode="PB07" channelCode="HHZ"/><filterID>ITAPER(4)&gt;&gt;BW(4,4,20)</filterID><methodID>AIC</methodID><horizontalSlowness><value>20.653112231893896</value></horizontalSlowness><backazimuth><value>125.03377983889058</value></backazimuth><phaseHint>P</phaseHint><evaluationMode>automatic</evaluationMode><comment><text>73.01118718275174</text><id>DFX:rectilinearity</id></comment><comment><text>17.878541558239945</text><id>SNR</id></comment></pick><pick publicID="de.gempa.tb1.Pick/20250414053004.592173.135979"><time><value>2025-04-14T05:29:56.608393Z</value></time><waveformID networkCode="CX" stationCode="PB01" channelCode="HHN"/><filterID>ITAPER(2)&gt;&gt;BW(3,3,20)</filterID><methodID>L2-AIC-GRID</methodID><horizontalSlowness><value>22.87763087263646</value></horizontalSlowness><backazimuth><value>18.99255865870964</value></backazimuth><phaseHint>S</phaseHint><evaluationMode>automatic</evaluationMode><comment><text>76.10055813455671</text><id>DFX:rectilinearity</id></comment><comment><text>de.gempa.tb1.Pick/20250414052948.799552.135963</text><id>RefPickID</id></comment><comment><text>11.130109134997928</text><id>SNR</id></comment></pick><pick publicID="de.gempa.tb1.Pick/20250414053010.573577.135980"><time><value>2025-04-14T05:30:04.018393Z</value></time><waveformID networkCode="CX" stationCode="PB02" channelCode="HHN"/><filterID>ITAPER(2)&gt;&gt;BW(3,3,20)</filterID><methodID>L2-AIC-GRID</methodID><horizontalSlowness><value>19.406855020346462</value></horizontalSlowness><backazimuth><value>83.20511266551418</value></backazimuth><phaseHint>S</phaseHint><evaluationMode>automatic</evaluationMode><comment><text>581.6028879765266</text><id>DFX:rectilinearity</id></comment><comment><text>de.gempa.tb1.Pick/20250414052955.498877.135967</text><id>RefPickID</id></comment><comment><text>8.996108561839662</text><id>SNR</id></comment></pick><pick publicID="de.gempa.tb1.Pick/20250414053014.577609.135982"><time><value>2025-04-14T05:30:07.928393Z</value></time><waveformID networkCode="CX" stationCode="PB03" channelCode="HHN"/><filterID>ITAPER(2)&gt;&gt;BW(3,3,20)</filterID><methodID>L2-AIC-GRID</methodID><horizontalSlowness><value>16.042376163972882</value></horizontalSlowness><backazimuth><value>261.5269828625301</value></backazimuth><phaseHint>S</phaseHint><evaluationMode>automatic</evaluationMode><comment><text>84.71047693558533</text><id>DFX:rectilinearity</id></comment><comment><text>de.gempa.tb1.Pick/20250414052955.706014.135969</text><id>RefPickID</id></comment><comment><text>11.604765528882536</text><id>SNR</id></comment></pick><pick publicID="de.gempa.tb1.Pick/20250414053018.441261.135983"><time><value>2025-04-14T05:30:09.129999Z</value></time><waveformID networkCode="CX" stationCode="PATCX" channelCode="HHN"/><filterID>ITAPER(2)&gt;&gt;BW(3,3,20)</filterID><methodID>L2-AIC-GRID</methodID><horizontalSlowness><value>23.147048340113646</value></horizontalSlowness><backazimuth><value>59.54784823200237</value></backazimuth><phaseHint>S</phaseHint><evaluationMode>automatic</evaluationMode><comment><text>267.30699579818406</text><id>DFX:rectilinearity</id></comment><comment><text>de.gempa.tb1.Pick/20250414052957.416988.135971</text><id>RefPickID</id></comment><comment><text>8.722142082039628</text><id>SNR</id></comment></pick><pick publicID="de.gempa.tb1.Pick/20250414053025.634807.135985"><time><value>2025-04-14T05:30:17.848391Z</value></time><waveformID networkCode="CX" stationCode="PB06" channelCode="HHN"/><filterID>ITAPER(2)&gt;&gt;BW(3,3,20)</filterID><methodID>L2-AIC-GRID</methodID><horizontalSlowness><value>19.121187225390567</value></horizontalSlowness><backazimuth><value>282.50936408290255</value></backazimuth><phaseHint>S</phaseHint><evaluationMode>automatic</evaluationMode><comment><text>74.34715382215704</text><id>DFX:rectilinearity</id></comment><comment><text>de.gempa.tb1.Pick/20250414053000.674622.135973</text><id>RefPickID</id></comment><comment><text>6.984370009400821</text><id>SNR</id></comment></pick><pick publicID="de.gempa.tb1.Pick/20250414053028.693781.135986"><time><value>2025-04-14T05:30:22.0000Z</value></time><waveformID networkCode="CX" stationCode="PSGCX" channelCode="HHN"/><filterID>ITAPER(2)&gt;&gt;BW(3,3,20)</filterID><methodID>L2-AIC-GRID</methodID><horizontalSlowness><value>19.499250393778947</value></horizontalSlowness><backazimuth><value>125.4444299930178</value></backazimuth><phaseHint>S</phaseHint><evaluationMode>automatic</evaluationMode><comment><text>22.775323384545473</text><id>DFX:rectilinearity</id></comment><comment><text>de.gempa.tb1.Pick/20250414053002.566014.135975</text><id>RefPickID</id></comment><comment><text>5.574455349261251</text><id>SNR</id></comment></pick><pick publicID="de.gempa.tb1.Pick/20250414053029.10205.135987"><time><value>2025-04-14T05:30:06.458393Z</value></time><waveformID networkCode="CX" stationCode="PB07" channelCode="HHN"/><filterID>ITAPER(2)&gt;&gt;BW(3,3,20)</filterID><methodID>L2-AIC-GRID</methodID><horizontalSlowness><value>22.080921667774582</value></horizontalSlowness><backazimuth><value>222.24677661347266</value></backazimuth><phaseHint>S</phaseHint><evaluationMode>automatic</evaluationMode><comment><text>1597.0005057931023</text><id>DFX:rectilinearity</id></comment><comment><text>de.gempa.tb1.Pick/20250414053004.392036.135977</text><id>RefPickID</id></comment><comment><text>5.549473484916785</text><id>SNR</id></comment></pick><origin publicID="de.gempa.tb1.Origin/20250414053031.685818.128805"><time><value>2025-04-14T05:29:24.106647Z</value><uncertainty>0.8269897699356079</uncertainty></time><latitude><value>-21.09775733947754</value><uncertainty>3.5395219326019287</uncertainty></latitude><longitude><value>-68.75127410888672</value><uncertainty>10.370724678039551</uncertainty></longitude><depth><value>111.79147338867188</value><uncertainty>11.624049186706543</uncertainty></depth><depthType>from location</depthType><methodID>LOCSAT</methodID><earthModelID>iasp91_scanloc</earthModelID><quality><associatedPhaseCount>14</associatedPhaseCount><usedPhaseCount>14</usedPhaseCount><associatedStationCount>8</associatedStationCount><usedStationCount>8</usedStationCount><depthPhaseCount>0</depthPhaseCount><standardError>0.5646871389154404</standardError><azimuthalGap>246.32098388671875</azimuthalGap><maximumDistance>1.971213459968567</maximumDistance><minimumDistance>0.6896342039108276</minimumDistance><medianDistance>1.328351616859436</medianDistance></quality><uncertainty><minHorizontalUncertainty>6.567864894866943</minHorizontalUncertainty><maxHorizontalUncertainty>22.559690475463867</maxHorizontalUncertainty><azimuthMaxHorizontalUncertainty>79.85116577148438</azimuthMaxHorizontalUncertainty><preferredDescription>horizontal uncertainty</preferredDescription></uncertainty><evaluationMode>automatic</evaluationMode><evaluationStatus>confirmed</evaluationStatus><comment><text>0.10</text><id>mismatchScore</id></comment><comment><text>mismatchScore</text><id>scevalMethod</id></comment><arrival><pickID>de.gempa.tb1.Pick/20250414052953.23509.135965</pickID><phase>P</phase><azimuth>213.23580932617188</azimuth><distance>0.8319858312606812</distance><timeResidual>0.749593734741211</timeResidual><timeUsed>true</timeUsed><horizontalSlownessUsed>false</horizontalSlownessUsed><backazimuthUsed>false</backazimuthUsed><weight>1</weight></arrival><arrival><pickID>de.gempa.tb1.Pick/20250414052955.498877.135967</pickID><phase>P</phase><azimuth>258.11151123046875</azimuth><distance>1.090743899345398</distance><timeResidual>-1.421854019165039</timeResidual><timeUsed>true</timeUsed><horizontalSlownessUsed>false</horizontalSlownessUsed><backazimuthUsed>false</backazimuthUsed><weight>1</weight></arrival><arrival><pickID>de.gempa.tb1.Pick/20250414052955.706014.135969</pickID><phase>P</phase><azimuth>224.4040985107422</azimuth><distance>1.328351616859436</distance><timeResidual>0.15536117553710938</timeResidual><timeUsed>true</timeUsed><horizontalSlownessUsed>false</horizontalSlownessUsed><backazimuthUsed>false</backazimuthUsed><weight>1</weight></arrival><arrival><pickID>de.gempa.tb1.Pick/20250414052957.416988.135971</pickID><phase>P</phase><azimuth>281.63372802734375</azimuth><distance>1.338670015335083</distance><timeResidual>0.8224601745605469</timeResidual><timeUsed>true</timeUsed><horizontalSlownessUsed>false</horizontalSlownessUsed><backazimuthUsed>false</backazimuthUsed><weight>1</weight></arrival><arrival><pickID>de.gempa.tb1.Pick/20250414053000.674622.135973</pickID><phase>P</phase><azimuth>205.31399536132812</azimuth><distance>1.772430419921875</distance><timeResidual>0.2476367950439453</timeResidual><timeUsed>true</timeUsed><horizontalSlownessUsed>false</horizontalSlownessUsed><backazimuthUsed>false</backazimuthUsed><weight>1</weight></arrival><arrival><pickID>de.gempa.tb1.Pick/20250414053002.566014.135975</pickID><phase>P</phase><azimuth>318.9930114746094</azimuth><distance>1.971213459968567</distance><timeResidual>0.05484580993652344</timeResidual><timeUsed>true</timeUsed><horizontalSlownessUsed>false</horizontalSlownessUsed><backazimuthUsed>false</backazimuthUsed><weight>1</weight></arrival><arrival><pickID>de.gempa.tb1.Pick/20250414053004.392036.135977</pickID><phase>P</phase><azimuth>239.17872619628906</azimuth><distance>1.228800892829895</distance><timeResidual>-0.6027069091796875</timeResidual><timeUsed>true</timeUsed><horizontalSlownessUsed>false</horizontalSlownessUsed><backazimuthUsed>false</backazimuthUsed><weight>1</weight></arrival><arrival><pickID>de.gempa.tb1.Pick/20250414053004.592173.135979</pickID><phase>S</phase><azimuth>274.3807067871094</azimuth><distance>0.6896342039108276</distance><timeResidual>-0.2284412384033203</timeResidual><timeUsed>true</timeUsed><horizontalSlownessUsed>false</horizontalSlownessUsed><backazimuthUsed>false</backazimuthUsed><weight>1</weight></arrival><arrival><pickID>de.gempa.tb1.Pick/20250414053010.573577.135980</pickID><phase>S</phase><azimuth>258.11151123046875</azimuth><distance>1.090743899345398</distance><timeResidual>0.3341960906982422</timeResidual><timeUsed>true</timeUsed><horizontalSlownessUsed>false</horizontalSlownessUsed><backazimuthUsed>false</backazimuthUsed><weight>1</weight></arrival><arrival><pickID>de.gempa.tb1.Pick/20250414053014.577609.135982</pickID><phase>S</phase><azimuth>224.4040985107422</azimuth><distance>1.328351616859436</distance><timeResidual>-0.44071006774902344</timeResidual><timeUsed>true</timeUsed><horizontalSlownessUsed>false</horizontalSlownessUsed><backazimuthUsed>false</backazimuthUsed><weight>1</weight></arrival><arrival><pickID>de.gempa.tb1.Pick/20250414053018.441261.135983</pickID><phase>S</phase><azimuth>281.63372802734375</azimuth><distance>1.338670015335083</distance><timeResidual>0.5395984649658203</timeResidual><timeUsed>true</timeUsed><horizontalSlownessUsed>false</horizontalSlownessUsed><backazimuthUsed>false</backazimuthUsed><weight>1</weight></arrival><arrival><pickID>de.gempa.tb1.Pick/20250414053025.634807.135985</pickID><phase>S</phase><azimuth>205.31399536132812</azimuth><distance>1.772430419921875</distance><timeResidual>0.003437042236328125</timeResidual><timeUsed>true</timeUsed><horizontalSlownessUsed>false</horizontalSlownessUsed><backazimuthUsed>false</backazimuthUsed><weight>1</weight></arrival><arrival><pickID>de.gempa.tb1.Pick/20250414053028.693781.135986</pickID><phase>S</phase><azimuth>318.9930114746094</azimuth><distance>1.971213459968567</distance><timeResidual>-0.3071479797363281</timeResidual><timeUsed>true</timeUsed><horizontalSlownessUsed>false</horizontalSlownessUsed><backazimuthUsed>false</backazimuthUsed><weight>1</weight></arrival><arrival><pickID>de.gempa.tb1.Pick/20250414053029.10205.135987</pickID><phase>S</phase><azimuth>239.17872619628906</azimuth><distance>1.228800892829895</distance><timeResidual>0.0941314697265625</timeResidual><timeUsed>true</timeUsed><horizontalSlownessUsed>false</horizontalSlownessUsed><backazimuthUsed>false</backazimuthUsed><weight>1</weight></arrival><magnitude publicID="de.gempa.tb1.Magnitude/20250414053035.937994.433644"><magnitude><value>2.61484752840176</value></magnitude><type>M</type><methodID>weighted average</methodID><stationCount>5</stationCount></magnitude></origin><event publicID="gempa2025hirg"><preferredOriginID>de.gempa.tb1.Origin/20250414053031.685818.128805</preferredOriginID><preferredMagnitudeID>de.gempa.tb1.Magnitude/20250414053035.937994.433644</preferredMagnitudeID><description><text>Chile-Bolivia Border Region</text><type>region name</type></description><originReference>de.gempa.tb1.Origin/20250414053031.685818.128805</originReference></event></EventParameters></seiscomp>