<?xml version="1.0" encoding="UTF-8"?>
<seiscomp xmlns="http://geofon.gfz-potsdam.de/ns/seiscomp3-schema/0.13" version="0.13"><EventParameters><pick publicID="de.gempa.tb1.Pick/20250411164303.572234.118770"><time><value>2025-04-11T16:42:55.998393Z</value></time><waveformID networkCode="CX" stationCode="PB01" channelCode="HHZ"/><filterID>ITAPER(4)&gt;&gt;BW(4,4,20)</filterID><methodID>AIC</methodID><horizontalSlowness><value>13.092603381004764</value></horizontalSlowness><backazimuth><value>39.97631764750159</value></backazimuth><phaseHint>P</phaseHint><evaluationMode>automatic</evaluationMode><comment><text>13.636874008022577</text><id>DFX:rectilinearity</id></comment><comment><text>30.608369254537333</text><id>SNR</id></comment></pick><pick publicID="de.gempa.tb1.Pick/20250411164305.195648.118772"><time><value>2025-04-11T16:42:55.778393Z</value></time><waveformID networkCode="CX" stationCode="PB08" channelCode="HHZ"/><filterID>ITAPER(4)&gt;&gt;BW(4,4,20)</filterID><methodID>AIC</methodID><horizontalSlowness><value>12.17881100712542</value></horizontalSlowness><backazimuth><value>102.67246249831699</value></backazimuth><phaseHint>P</phaseHint><evaluationMode>automatic</evaluationMode><comment><text>9.466300792305113</text><id>DFX:rectilinearity</id></comment><comment><text>7.571637553653568</text><id>SNR</id></comment></pick><pick publicID="de.gempa.tb1.Pick/20250411164305.737766.118774"><time><value>2025-04-11T16:42:57.710001Z</value></time><waveformID networkCode="CX" stationCode="PB09" channelCode="HHZ"/><filterID>ITAPER(4)&gt;&gt;BW(4,4,20)</filterID><methodID>AIC</methodID><horizontalSlowness><value>16.98250169457664</value></horizontalSlowness><backazimuth><value>306.77673623826104</value></backazimuth><phaseHint>P</phaseHint><evaluationMode>automatic</evaluationMode><comment><text>10.444359580344823</text><id>DFX:rectilinearity</id></comment><comment><text>19.17377151840445</text><id>SNR</id></comment></pick><pick publicID="de.gempa.tb1.Pick/20250411164307.67536.118776"><time><value>2025-04-11T16:43:00.768393Z</value></time><waveformID networkCode="CX" stationCode="PB02" channelCode="HHZ"/><filterID>ITAPER(4)&gt;&gt;BW(4,4,20)</filterID><methodID>AIC</methodID><horizontalSlowness><value>23.061165522655596</value></horizontalSlowness><backazimuth><value>271.32959324608794</value></backazimuth><phaseHint>P</phaseHint><evaluationMode>automatic</evaluationMode><comment><text>30.78133137578033</text><id>DFX:rectilinearity</id></comment><comment><text>25.21063391165345</text><id>SNR</id></comment></pick><pick publicID="de.gempa.tb1.Pick/20250411164309.525609.118778"><time><value>2025-04-11T16:43:03.019999Z</value></time><waveformID networkCode="CX" stationCode="PATCX" channelCode="HHZ"/><filterID>ITAPER(4)&gt;&gt;BW(4,4,20)</filterID><methodID>AIC</methodID><horizontalSlowness><value>23.223384248434524</value></horizontalSlowness><backazimuth><value>80.52931078104136</value></backazimuth><phaseHint>P</phaseHint><evaluationMode>automatic</evaluationMode><comment><text>306.6659790221763</text><id>DFX:rectilinearity</id></comment><comment><text>5.656644367125717</text><id>SNR</id></comment></pick><pick publicID="de.gempa.tb1.Pick/20250411164310.537929.118780"><time><value>2025-04-11T16:43:05.45Z</value></time><waveformID networkCode="CX" stationCode="PSGCX" channelCode="HHZ"/><filterID>ITAPER(4)&gt;&gt;BW(4,4,20)</filterID><methodID>AIC</methodID><horizontalSlowness><value>12.847589735673646</value></horizontalSlowness><backazimuth><value>98.21825691227738</value></backazimuth><phaseHint>P</phaseHint><evaluationMode>automatic</evaluationMode><comment><text>38.11988453581874</text><id>DFX:rectilinearity</id></comment><comment><text>42.646800782250935</text><id>SNR</id></comment></pick><pick publicID="de.gempa.tb1.Pick/20250411164311.687041.118782"><time><value>2025-04-11T16:43:02.588394Z</value></time><waveformID networkCode="CX" stationCode="PB03" channelCode="HHZ"/><filterID>ITAPER(4)&gt;&gt;BW(4,4,20)</filterID><methodID>AIC</methodID><horizontalSlowness><value>16.267682096498355</value></horizontalSlowness><backazimuth><value>251.14331510623106</value></backazimuth><phaseHint>P</phaseHint><evaluationMode>automatic</evaluationMode><comment><text>5.137285468976813</text><id>DFX:rectilinearity</id></comment><comment><text>15.765100975174516</text><id>SNR</id></comment></pick><pick publicID="de.gempa.tb1.Pick/20250411164314.702881.118784"><time><value>2025-04-11T16:43:07.128393Z</value></time><waveformID networkCode="CX" stationCode="PB06" channelCode="HHZ"/><filterID>ITAPER(4)&gt;&gt;BW(4,4,20)</filterID><methodID>AIC</methodID><horizontalSlowness><value>6.854636512433374</value></horizontalSlowness><backazimuth><value>332.04419592319994</value></backazimuth><phaseHint>P</phaseHint><evaluationMode>automatic</evaluationMode><comment><text>118.76471212830268</text><id>DFX:rectilinearity</id></comment><comment><text>7.544030613192152</text><id>SNR</id></comment></pick><pick publicID="de.gempa.tb1.Pick/20250411164320.509229.118786"><time><value>2025-04-11T16:43:02.308396Z</value></time><waveformID networkCode="CX" stationCode="PB07" channelCode="HHZ"/><filterID>ITAPER(4)&gt;&gt;BW(4,4,20)</filterID><methodID>AIC</methodID><horizontalSlowness><value>22.97554844269081</value></horizontalSlowness><backazimuth><value>111.25772651904153</value></backazimuth><phaseHint>P</phaseHint><evaluationMode>automatic</evaluationMode><comment><text>174.6212812086709</text><id>DFX:rectilinearity</id></comment><comment><text>32.94075795202543</text><id>SNR</id></comment></pick><pick publicID="de.gempa.tb1.Pick/20250411164341.800204.118790"><time><value>2025-04-11T16:43:30.958394Z</value></time><waveformID networkCode="CX" stationCode="PB03" channelCode="HHN"/><filterID>ITAPER(2)&gt;&gt;BW(3,3,20)</filterID><methodID>L2-AIC-GRID</methodID><horizontalSlowness><value>17.65532295029697</value></horizontalSlowness><backazimuth><value>247.4310660949075</value></backazimuth><phaseHint>S</phaseHint><evaluationMode>automatic</evaluationMode><comment><text>27.59971022161937</text><id>DFX:rectilinearity</id></comment><comment><text>de.gempa.tb1.Pick/20250411164311.687041.118782</text><id>RefPickID</id></comment><comment><text>10.540501617616371</text><id>SNR</id></comment></pick><pick publicID="de.gempa.tb1.Pick/20250411164343.777888.118791"><time><value>2025-04-11T16:43:36.778393Z</value></time><waveformID networkCode="CX" stationCode="PB06" channelCode="HHN"/><filterID>ITAPER(2)&gt;&gt;BW(3,3,20)</filterID><methodID>L2-AIC-GRID</methodID><horizontalSlowness><value>5.578071279839919</value></horizontalSlowness><backazimuth><value>290.8035817849478</value></backazimuth><phaseHint>S</phaseHint><evaluationMode>automatic</evaluationMode><comment><text>180.49252981668164</text><id>DFX:rectilinearity</id></comment><comment><text>de.gempa.tb1.Pick/20250411164314.702881.118784</text><id>RefPickID</id></comment><comment><text>7.572242352346957</text><id>SNR</id></comment></pick><pick publicID="de.gempa.tb1.Pick/20250411164344.158064.118792"><time><value>2025-04-11T16:43:30.278396Z</value></time><waveformID networkCode="CX" stationCode="PB07" channelCode="HHN"/><filterID>ITAPER(2)&gt;&gt;BW(3,3,20)</filterID><methodID>L2-AIC-GRID</methodID><horizontalSlowness><value>23.37301544330487</value></horizontalSlowness><backazimuth><value>199.2975410799578</value></backazimuth><phaseHint>S</phaseHint><evaluationMode>automatic</evaluationMode><comment><text>375.3878248045307</text><id>DFX:rectilinearity</id></comment><comment><text>de.gempa.tb1.Pick/20250411164320.509229.118786</text><id>RefPickID</id></comment><comment><text>6.573395426158377</text><id>SNR</id></comment></pick><pick publicID="de.gempa.tb1.Pick/20250411164348.600775.118793"><time><value>2025-04-11T16:43:36.98Z</value></time><waveformID networkCode="CX" stationCode="PSGCX" channelCode="HHN"/><filterID>ITAPER(2)&gt;&gt;BW(3,3,20)</filterID><methodID>L2-AIC-GRID</methodID><horizontalSlowness><value>20.350555749811015</value></horizontalSlowness><backazimuth><value>219.3822809754375</value></backazimuth><phaseHint>S</phaseHint><evaluationMode>automatic</evaluationMode><comment><text>14.333489391521413</text><id>DFX:rectilinearity</id></comment><comment><text>de.gempa.tb1.Pick/20250411164310.537929.118780</text><id>RefPickID</id></comment><comment><text>5.547887566684794</text><id>SNR</id></comment></pick><origin publicID="de.gempa.tb1.Origin/20250411164348.605369.60775"><time><value>2025-04-11T16:42:26.970103Z</value><uncertainty>1.064792275428772</uncertainty></time><latitude><value>-20.84449005126953</value><uncertainty>4.3242998123168945</uncertainty></latitude><longitude><value>-68.12847900390625</value><uncertainty>14.75843334197998</uncertainty></longitude><depth><value>172.5563201904297</value><uncertainty>20.164451599121094</uncertainty></depth><depthType>from location</depthType><methodID>LOCSAT</methodID><earthModelID>iasp91_scanloc</earthModelID><quality><associatedPhaseCount>13</associatedPhaseCount><usedPhaseCount>13</usedPhaseCount><associatedStationCount>9</associatedStationCount><usedStationCount>9</usedStationCount><depthPhaseCount>0</depthPhaseCount><standardError>0.5572351984246939</standardError><azimuthalGap>269.76576232910156</azimuthalGap><maximumDistance>2.2870471477508545</maximumDistance><minimumDistance>1.1886659860610962</minimumDistance><medianDistance>1.8937848806381226</medianDistance></quality><uncertainty><minHorizontalUncertainty>8.750479698181152</minHorizontalUncertainty><maxHorizontalUncertainty>31.794118881225586</maxHorizontalUncertainty><azimuthMaxHorizontalUncertainty>84.24126434326172</azimuthMaxHorizontalUncertainty><preferredDescription>horizontal uncertainty</preferredDescription></uncertainty><evaluationMode>automatic</evaluationMode><evaluationStatus>confirmed</evaluationStatus><comment><text>0.00</text><id>mismatchScore</id></comment><comment><text>mismatchScore</text><id>scevalMethod</id></comment><arrival><pickID>de.gempa.tb1.Pick/20250411164303.572234.118770</pickID><phase>P</phase><azimuth>260.91021728515625</azimuth><distance>1.285514235496521</distance><timeResidual>-0.33513832092285156</timeResidual><timeUsed>true</timeUsed><horizontalSlownessUsed>false</horizontalSlownessUsed><backazimuthUsed>false</backazimuthUsed><weight>1</weight></arrival><arrival><pickID>de.gempa.tb1.Pick/20250411164305.195648.118772</pickID><phase>P</phase><azimuth>305.88751220703125</azimuth><distance>1.1886659860610962</distance><timeResidual>0.28607177734375</timeResidual><timeUsed>true</timeUsed><horizontalSlownessUsed>false</horizontalSlownessUsed><backazimuthUsed>false</backazimuthUsed><weight>1</weight></arrival><arrival><pickID>de.gempa.tb1.Pick/20250411164305.737766.118774</pickID><phase>P</phase><azimuth>227.42340087890625</azimuth><distance>1.4053081274032593</distance><timeResidual>0.2811908721923828</timeResidual><timeUsed>true</timeUsed><horizontalSlownessUsed>false</horizontalSlownessUsed><backazimuthUsed>false</backazimuthUsed><weight>1</weight></arrival><arrival><pickID>de.gempa.tb1.Pick/20250411164307.67536.118776</pickID><phase>P</phase><azimuth>253.6994323730469</azimuth><distance>1.7170478105545044</distance><timeResidual>0.2453651428222656</timeResidual><timeUsed>true</timeUsed><horizontalSlownessUsed>false</horizontalSlownessUsed><backazimuthUsed>false</backazimuthUsed><weight>1</weight></arrival><arrival><pickID>de.gempa.tb1.Pick/20250411164309.525609.118778</pickID><phase>P</phase><azimuth>270.35791015625</azimuth><distance>1.8937848806381226</distance><timeResidual>0.622467041015625</timeResidual><timeUsed>true</timeUsed><horizontalSlownessUsed>false</horizontalSlownessUsed><backazimuthUsed>false</backazimuthUsed><weight>1</weight></arrival><arrival><pickID>de.gempa.tb1.Pick/20250411164310.537929.118780</pickID><phase>P</phase><azimuth>303.1785583496094</azimuth><distance>2.2468509674072266</distance><timeResidual>-0.8972034454345703</timeResidual><timeUsed>true</timeUsed><horizontalSlownessUsed>false</horizontalSlownessUsed><backazimuthUsed>false</backazimuthUsed><weight>1</weight></arrival><arrival><pickID>de.gempa.tb1.Pick/20250411164311.687041.118782</pickID><phase>P</phase><azimuth>231.34222412109375</azimuth><distance>1.930238127708435</distance><timeResidual>-0.1945667266845703</timeResidual><timeUsed>true</timeUsed><horizontalSlownessUsed>false</horizontalSlownessUsed><backazimuthUsed>false</backazimuthUsed><weight>1</weight></arrival><arrival><pickID>de.gempa.tb1.Pick/20250411164314.702881.118784</pickID><phase>P</phase><azimuth>215.6532745361328</azimuth><distance>2.2870471477508545</distance><timeResidual>0.34557342529296875</timeResidual><timeUsed>true</timeUsed><horizontalSlownessUsed>false</horizontalSlownessUsed><backazimuthUsed>false</backazimuthUsed><weight>1</weight></arrival><arrival><pickID>de.gempa.tb1.Pick/20250411164320.509229.118786</pickID><phase>P</phase><azimuth>241.51564025878906</azimuth><distance>1.8594484329223633</distance><timeResidual>0.2870616912841797</timeResidual><timeUsed>true</timeUsed><horizontalSlownessUsed>false</horizontalSlownessUsed><backazimuthUsed>false</backazimuthUsed><weight>1</weight></arrival><arrival><pickID>de.gempa.tb1.Pick/20250411164341.800204.118790</pickID><phase>S</phase><azimuth>231.34222412109375</azimuth><distance>1.930238127708435</distance><timeResidual>0.09939765930175781</timeResidual><timeUsed>true</timeUsed><horizontalSlownessUsed>false</horizontalSlownessUsed><backazimuthUsed>false</backazimuthUsed><weight>1</weight></arrival><arrival><pickID>de.gempa.tb1.Pick/20250411164343.777888.118791</pickID><phase>S</phase><azimuth>215.6532745361328</azimuth><distance>2.2870471477508545</distance><timeResidual>-1.2541255950927734</timeResidual><timeUsed>true</timeUsed><horizontalSlownessUsed>false</horizontalSlownessUsed><backazimuthUsed>false</backazimuthUsed><weight>1</weight></arrival><arrival><pickID>de.gempa.tb1.Pick/20250411164344.158064.118792</pickID><phase>S</phase><azimuth>241.51564025878906</azimuth><distance>1.8594484329223633</distance><timeResidual>0.7842884063720703</timeResidual><timeUsed>true</timeUsed><horizontalSlownessUsed>false</horizontalSlownessUsed><backazimuthUsed>false</backazimuthUsed><weight>1</weight></arrival><arrival><pickID>de.gempa.tb1.Pick/20250411164348.600775.118793</pickID><phase>S</phase><azimuth>303.1785583496094</azimuth><distance>2.2468509674072266</distance><timeResidual>-0.27069664001464844</timeResidual><timeUsed>true</timeUsed><horizontalSlownessUsed>false</horizontalSlownessUsed><backazimuthUsed>false</backazimuthUsed><weight>1</weight></arrival><magnitude publicID="de.gempa.tb1.Magnitude/20250411164420.313943.120385"><magnitude><value>2.6670459610400306</value></magnitude><type>M</type><methodID>weighted average</methodID><stationCount>7</stationCount></magnitude></origin><event publicID="gempa2025hdzp"><preferredOriginID>de.gempa.tb1.Origin/20250411164348.605369.60775</preferredOriginID><preferredMagnitudeID>de.gempa.tb1.Magnitude/20250411164420.313943.120385</preferredMagnitudeID><description><text>Chile-Bolivia Border Region</text><type>region name</type></description><originReference>de.gempa.tb1.Origin/20250411164348.605369.60775</originReference></event></EventParameters></seiscomp>