<?xml version="1.0" encoding="UTF-8"?>
<seiscomp xmlns="http://geofon.gfz-potsdam.de/ns/seiscomp3-schema/0.13" version="0.13"><EventParameters><pick publicID="de.gempa.tb1.Pick/20250411132735.805121.117848"><time><value>2025-04-11T13:27:29.098393Z</value></time><waveformID networkCode="CX" stationCode="PB01" channelCode="HHZ"/><filterID>ITAPER(4)&gt;&gt;BW(4,4,20)</filterID><methodID>AIC</methodID><horizontalSlowness><value>3.037388019845211</value></horizontalSlowness><backazimuth><value>92.3437987356461</value></backazimuth><phaseHint>P</phaseHint><evaluationMode>automatic</evaluationMode><comment><text>245.0233893219427</text><id>DFX:rectilinearity</id></comment><comment><text>313.1879130706646</text><id>SNR</id></comment></pick><pick publicID="de.gempa.tb1.Pick/20250411132738.530697.117850"><time><value>2025-04-11T13:27:32.928393Z</value></time><waveformID networkCode="CX" stationCode="PB02" channelCode="HHZ"/><filterID>ITAPER(4)&gt;&gt;BW(4,4,20)</filterID><methodID>AIC</methodID><horizontalSlowness><value>8.671056132807117</value></horizontalSlowness><backazimuth><value>57.00418487428169</value></backazimuth><phaseHint>P</phaseHint><evaluationMode>automatic</evaluationMode><comment><text>164.32597613196808</text><id>DFX:rectilinearity</id></comment><comment><text>98.67031612665191</text><id>SNR</id></comment></pick><pick publicID="de.gempa.tb1.Pick/20250411132739.722435.117852"><time><value>2025-04-11T13:27:34.218393Z</value></time><waveformID networkCode="CX" stationCode="PB08" channelCode="HHZ"/><filterID>ITAPER(4)&gt;&gt;BW(4,4,20)</filterID><methodID>AIC</methodID><horizontalSlowness><value>13.051938985739017</value></horizontalSlowness><backazimuth><value>185.41775411608603</value></backazimuth><phaseHint>P</phaseHint><evaluationMode>automatic</evaluationMode><comment><text>34.062113461736743</text><id>DFX:rectilinearity</id></comment><comment><text>19.01394708375463</text><id>SNR</id></comment></pick><pick publicID="de.gempa.tb1.Pick/20250411132741.463334.117854"><time><value>2025-04-11T13:27:31.3Z</value></time><waveformID networkCode="CX" stationCode="PB09" channelCode="HHZ"/><filterID>ITAPER(4)&gt;&gt;BW(4,4,20)</filterID><methodID>AIC</methodID><horizontalSlowness><value>16.895517608414274</value></horizontalSlowness><backazimuth><value>60.92125891240306</value></backazimuth><phaseHint>P</phaseHint><evaluationMode>automatic</evaluationMode><comment><text>73.71092709887368</text><id>DFX:rectilinearity</id></comment><comment><text>132.03108541876261</text><id>SNR</id></comment></pick><pick publicID="de.gempa.tb1.Pick/20250411132741.491246.117856"><time><value>2025-04-11T13:27:35.950001Z</value></time><waveformID networkCode="CX" stationCode="PATCX" channelCode="HHZ"/><filterID>ITAPER(4)&gt;&gt;BW(4,4,20)</filterID><methodID>AIC</methodID><horizontalSlowness><value>19.350635396408233</value></horizontalSlowness><backazimuth><value>239.42492116628227</value></backazimuth><phaseHint>P</phaseHint><evaluationMode>automatic</evaluationMode><comment><text>593.7388539978132</text><id>DFX:rectilinearity</id></comment><comment><text>8.403954840963326</text><id>SNR</id></comment></pick><pick publicID="de.gempa.tb1.Pick/20250411132743.102976.117858"><time><value>2025-04-11T13:27:35.648393Z</value></time><waveformID networkCode="CX" stationCode="PB03" channelCode="HHZ"/><filterID>ITAPER(4)&gt;&gt;BW(4,4,20)</filterID><methodID>AIC</methodID><horizontalSlowness><value>7.351577913880578</value></horizontalSlowness><backazimuth><value>122.52919866260413</value></backazimuth><phaseHint>P</phaseHint><evaluationMode>automatic</evaluationMode><comment><text>11.439409564970925</text><id>DFX:rectilinearity</id></comment><comment><text>44.41243832463431</text><id>SNR</id></comment></pick><pick publicID="de.gempa.tb1.Pick/20250411132747.506828.117860"><time><value>2025-04-11T13:27:42.108393Z</value></time><waveformID networkCode="CX" stationCode="PB06" channelCode="HHZ"/><filterID>ITAPER(4)&gt;&gt;BW(4,4,20)</filterID><methodID>AIC</methodID><horizontalSlowness><value>9.277581354523811</value></horizontalSlowness><backazimuth><value>275.78655130255373</value></backazimuth><phaseHint>P</phaseHint><evaluationMode>automatic</evaluationMode><comment><text>139.08347728876922</text><id>DFX:rectilinearity</id></comment><comment><text>15.394906442094213</text><id>SNR</id></comment></pick><pick publicID="de.gempa.tb1.Pick/20250411132748.784488.117862"><time><value>2025-04-11T13:27:42.768393Z</value></time><waveformID networkCode="CX" stationCode="PB01" channelCode="HHN"/><filterID>ITAPER(2)&gt;&gt;BW(3,3,20)</filterID><methodID>L2-AIC-GRID</methodID><horizontalSlowness><value>21.211161355748413</value></horizontalSlowness><backazimuth><value>271.01333938899273</value></backazimuth><phaseHint>S</phaseHint><evaluationMode>automatic</evaluationMode><comment><text>2963.7603779742635</text><id>DFX:rectilinearity</id></comment><comment><text>de.gempa.tb1.Pick/20250411132735.805121.117848</text><id>RefPickID</id></comment><comment><text>7.490976525159116</text><id>SNR</id></comment></pick><pick publicID="de.gempa.tb1.Pick/20250411132749.554842.117863"><time><value>2025-04-11T13:27:43.22Z</value></time><waveformID networkCode="CX" stationCode="PSGCX" channelCode="HHZ"/><filterID>ITAPER(4)&gt;&gt;BW(4,4,20)</filterID><methodID>AIC</methodID><horizontalSlowness><value>16.142757287487296</value></horizontalSlowness><backazimuth><value>20.007363135064907</value></backazimuth><phaseHint>P</phaseHint><evaluationMode>automatic</evaluationMode><comment><text>27.93353753634299</text><id>DFX:rectilinearity</id></comment><comment><text>32.147376417558554</text><id>SNR</id></comment></pick><pick publicID="de.gempa.tb1.Pick/20250411132754.632855.117865"><time><value>2025-04-11T13:27:46.79Z</value></time><waveformID networkCode="CX" stationCode="PB09" channelCode="HHN"/><filterID>ITAPER(2)&gt;&gt;BW(3,3,20)</filterID><methodID>L2-AIC-GRID</methodID><horizontalSlowness><value>21.916423585123688</value></horizontalSlowness><backazimuth><value>316.5744187406525</value></backazimuth><phaseHint>S</phaseHint><evaluationMode>automatic</evaluationMode><comment><text>2093.040293519567</text><id>DFX:rectilinearity</id></comment><comment><text>de.gempa.tb1.Pick/20250411132741.463334.117854</text><id>RefPickID</id></comment><comment><text>6.161512233470408</text><id>SNR</id></comment></pick><pick publicID="de.gempa.tb1.Pick/20250411132755.63973.117866"><time><value>2025-04-11T13:27:48.928393Z</value></time><waveformID networkCode="CX" stationCode="PB02" channelCode="HHN"/><filterID>ITAPER(2)&gt;&gt;BW(3,3,20)</filterID><methodID>L2-AIC-GRID</methodID><horizontalSlowness><value>22.977640605348295</value></horizontalSlowness><backazimuth><value>248.16211601179074</value></backazimuth><phaseHint>S</phaseHint><evaluationMode>automatic</evaluationMode><comment><text>66304.38554513385</text><id>DFX:rectilinearity</id></comment><comment><text>de.gempa.tb1.Pick/20250411132738.530697.117850</text><id>RefPickID</id></comment><comment><text>10.600829969448611</text><id>SNR</id></comment></pick><pick publicID="de.gempa.tb1.Pick/20250411132759.198686.117867"><time><value>2025-04-11T13:27:50.858393Z</value></time><waveformID networkCode="CX" stationCode="PB08" channelCode="HHN"/><filterID>ITAPER(2)&gt;&gt;BW(3,3,20)</filterID><methodID>L2-AIC-GRID</methodID><horizontalSlowness><value>13.514890000490885</value></horizontalSlowness><backazimuth><value>216.5527864707821</value></backazimuth><phaseHint>S</phaseHint><evaluationMode>automatic</evaluationMode><comment><text>284.3561358068309</text><id>DFX:rectilinearity</id></comment><comment><text>de.gempa.tb1.Pick/20250411132739.722435.117852</text><id>RefPickID</id></comment><comment><text>9.566152253993783</text><id>SNR</id></comment></pick><pick publicID="de.gempa.tb1.Pick/20250411132759.784784.117870"><time><value>2025-04-11T13:27:53.688393Z</value></time><waveformID networkCode="CX" stationCode="PB03" channelCode="HHN"/><filterID>ITAPER(2)&gt;&gt;BW(3,3,20)</filterID><methodID>L2-AIC-GRID</methodID><horizontalSlowness><value>20.66073183855147</value></horizontalSlowness><backazimuth><value>279.94131486786767</value></backazimuth><phaseHint>S</phaseHint><evaluationMode>automatic</evaluationMode><comment><text>1286.8245964732334</text><id>DFX:rectilinearity</id></comment><comment><text>de.gempa.tb1.Pick/20250411132743.102976.117858</text><id>RefPickID</id></comment><comment><text>17.334761127248289</text><id>SNR</id></comment></pick><pick publicID="de.gempa.tb1.Pick/20250411132801.579751.117872"><time><value>2025-04-11T13:27:54.050001Z</value></time><waveformID networkCode="CX" stationCode="PATCX" channelCode="HHN"/><filterID>ITAPER(2)&gt;&gt;BW(3,3,20)</filterID><methodID>L2-AIC-GRID</methodID><horizontalSlowness><value>23.03871912710305</value></horizontalSlowness><backazimuth><value>63.67541585184733</value></backazimuth><phaseHint>S</phaseHint><evaluationMode>automatic</evaluationMode><comment><text>36742.49064871962</text><id>DFX:rectilinearity</id></comment><comment><text>de.gempa.tb1.Pick/20250411132741.491246.117856</text><id>RefPickID</id></comment><comment><text>15.857096359789217</text><id>SNR</id></comment></pick><pick publicID="de.gempa.tb1.Pick/20250411132802.489656.117873"><time><value>2025-04-11T13:27:56.14Z</value></time><waveformID networkCode="CX" stationCode="PB19" channelCode="HHZ"/><filterID>ITAPER(4)&gt;&gt;BW(4,4,20)</filterID><methodID>AIC</methodID><horizontalSlowness><value>17.45215885016903</value></horizontalSlowness><backazimuth><value>249.9438249988773</value></backazimuth><phaseHint>P</phaseHint><evaluationMode>automatic</evaluationMode><comment><text>22.15864667807752</text><id>DFX:rectilinearity</id></comment><comment><text>6.202912583712283</text><id>SNR</id></comment></pick><pick publicID="de.gempa.tb1.Pick/20250411132806.89831.117876"><time><value>2025-04-11T13:27:34.388393Z</value></time><waveformID networkCode="CX" stationCode="PB07" channelCode="HHZ"/><filterID>ITAPER(4)&gt;&gt;BW(4,4,20)</filterID><methodID>AIC</methodID><horizontalSlowness><value>21.01363684229467</value></horizontalSlowness><backazimuth><value>63.49670332861352</value></backazimuth><phaseHint>P</phaseHint><evaluationMode>automatic</evaluationMode><comment><text>180.664835754095</text><id>DFX:rectilinearity</id></comment><comment><text>95.94173398152952</text><id>SNR</id></comment></pick><pick publicID="de.gempa.tb1.Pick/20250411132811.68805.117882"><time><value>2025-04-11T13:28:04.428393Z</value></time><waveformID networkCode="CX" stationCode="PB06" channelCode="HHN"/><filterID>ITAPER(2)&gt;&gt;BW(3,3,20)</filterID><methodID>L2-AIC-GRID</methodID><horizontalSlowness><value>23.403208245833774</value></horizontalSlowness><backazimuth><value>260.1671160742246</value></backazimuth><phaseHint>S</phaseHint><evaluationMode>automatic</evaluationMode><comment><text>584.9218949926436</text><id>DFX:rectilinearity</id></comment><comment><text>de.gempa.tb1.Pick/20250411132747.506828.117860</text><id>RefPickID</id></comment><comment><text>11.61127026719974</text><id>SNR</id></comment></pick><pick publicID="de.gempa.tb1.Pick/20250411132817.595478.117884"><time><value>2025-04-11T13:28:07.92Z</value></time><waveformID networkCode="CX" stationCode="PSGCX" channelCode="HHN"/><filterID>ITAPER(2)&gt;&gt;BW(3,3,20)</filterID><methodID>L2-AIC-GRID</methodID><horizontalSlowness><value>22.951009058436977</value></horizontalSlowness><backazimuth><value>348.69359753267474</value></backazimuth><phaseHint>S</phaseHint><evaluationMode>automatic</evaluationMode><comment><text>119.18207743482628</text><id>DFX:rectilinearity</id></comment><comment><text>de.gempa.tb1.Pick/20250411132749.554842.117863</text><id>RefPickID</id></comment><comment><text>5.199452571078996</text><id>SNR</id></comment></pick><pick publicID="de.gempa.tb1.Pick/20250411132837.751116.117892"><time><value>2025-04-11T13:28:29.13Z</value></time><waveformID networkCode="CX" stationCode="PB19" channelCode="HHN"/><filterID>ITAPER(2)&gt;&gt;BW(3,3,20)</filterID><methodID>L2-AIC-GRID</methodID><horizontalSlowness><value>22.57968845016835</value></horizontalSlowness><backazimuth><value>19.265109808601608</value></backazimuth><phaseHint>S</phaseHint><evaluationMode>automatic</evaluationMode><comment><text>84.40724714774292</text><id>DFX:rectilinearity</id></comment><comment><text>de.gempa.tb1.Pick/20250411132802.489656.117873</text><id>RefPickID</id></comment><comment><text>9.323716632841261</text><id>SNR</id></comment></pick><origin publicID="de.gempa.tb1.Origin/20250411132837.757454.56848"><time><value>2025-04-11T13:27:12.238114Z</value><uncertainty>0.63075190782547</uncertainty></time><latitude><value>-21.116260528564453</value><uncertainty>2.2426855564117432</uncertainty></latitude><longitude><value>-68.9787826538086</value><uncertainty>6.069261074066162</uncertainty></longitude><depth><value>116.87889862060547</value><uncertainty>5.776130199432373</uncertainty></depth><depthType>from location</depthType><methodID>LOCSAT</methodID><earthModelID>iasp91_scanloc</earthModelID><quality><associatedPhaseCount>19</associatedPhaseCount><usedPhaseCount>19</usedPhaseCount><associatedStationCount>10</associatedStationCount><usedStationCount>10</usedStationCount><depthPhaseCount>0</depthPhaseCount><standardError>0.40790794682541565</standardError><azimuthalGap>195.4730224609375</azimuthalGap><maximumDistance>2.7902235984802246</maximumDistance><minimumDistance>0.4805138409137726</minimumDistance><medianDistance>1.1360007524490356</medianDistance></quality><uncertainty><minHorizontalUncertainty>4.702560901641846</minHorizontalUncertainty><maxHorizontalUncertainty>13.04777717590332</maxHorizontalUncertainty><azimuthMaxHorizontalUncertainty>85.29780578613281</azimuthMaxHorizontalUncertainty><preferredDescription>horizontal uncertainty</preferredDescription></uncertainty><evaluationMode>automatic</evaluationMode><evaluationStatus>confirmed</evaluationStatus><comment><text>0.05</text><id>mismatchScore</id></comment><comment><text>mismatchScore</text><id>scevalMethod</id></comment><arrival><pickID>de.gempa.tb1.Pick/20250411132735.805121.117848</pickID><phase>P</phase><azimuth>278.6070861816406</azimuth><distance>0.4805138409137726</distance><timeResidual>-0.6470069885253906</timeResidual><timeUsed>true</timeUsed><horizontalSlownessUsed>false</horizontalSlownessUsed><backazimuthUsed>false</backazimuthUsed><weight>1</weight></arrival><arrival><pickID>de.gempa.tb1.Pick/20250411132738.530697.117850</pickID><phase>P</phase><azimuth>256.52532958984375</azimuth><distance>0.8794330954551697</distance><timeResidual>0.04694938659667969</timeResidual><timeUsed>true</timeUsed><horizontalSlownessUsed>false</horizontalSlownessUsed><backazimuthUsed>false</backazimuthUsed><weight>1</weight></arrival><arrival><pickID>de.gempa.tb1.Pick/20250411132739.722435.117852</pickID><phase>P</phase><azimuth>350.4006652832031</azimuth><distance>0.983907163143158</distance><timeResidual>0.3275146484375</timeResidual><timeUsed>true</timeUsed><horizontalSlownessUsed>false</horizontalSlownessUsed><backazimuthUsed>false</backazimuthUsed><weight>1</weight></arrival><arrival><pickID>de.gempa.tb1.Pick/20250411132741.463334.117854</pickID><phase>P</phase><azimuth>199.86215209960938</azimuth><distance>0.7197957634925842</distance><timeResidual>-0.1743602752685547</timeResidual><timeUsed>true</timeUsed><horizontalSlownessUsed>false</horizontalSlownessUsed><backazimuthUsed>false</backazimuthUsed><weight>1</weight></arrival><arrival><pickID>de.gempa.tb1.Pick/20250411132741.491246.117856</pickID><phase>P</phase><azimuth>284.79351806640625</azimuth><distance>1.1360007524490356</distance><timeResidual>0.5058498382568359</timeResidual><timeUsed>true</timeUsed><horizontalSlownessUsed>false</horizontalSlownessUsed><backazimuthUsed>false</backazimuthUsed><weight>1</weight></arrival><arrival><pickID>de.gempa.tb1.Pick/20250411132743.102976.117858</pickID><phase>P</phase><azimuth>217.7024688720703</azimuth><distance>1.174683690071106</distance><timeResidual>-0.20052719116210938</timeResidual><timeUsed>true</timeUsed><horizontalSlownessUsed>false</horizontalSlownessUsed><backazimuthUsed>false</backazimuthUsed><weight>1</weight></arrival><arrival><pickID>de.gempa.tb1.Pick/20250411132747.506828.117860</pickID><phase>P</phase><azimuth>199.08775329589844</azimuth><distance>1.67496919631958</distance><timeResidual>0.5343151092529297</timeResidual><timeUsed>true</timeUsed><horizontalSlownessUsed>false</horizontalSlownessUsed><backazimuthUsed>false</backazimuthUsed><weight>1</weight></arrival><arrival><pickID>de.gempa.tb1.Pick/20250411132748.784488.117862</pickID><phase>S</phase><azimuth>278.6070861816406</azimuth><distance>0.4805138409137726</distance><timeResidual>-0.4686660766601562</timeResidual><timeUsed>true</timeUsed><horizontalSlownessUsed>false</horizontalSlownessUsed><backazimuthUsed>false</backazimuthUsed><weight>1</weight></arrival><arrival><pickID>de.gempa.tb1.Pick/20250411132749.554842.117863</pickID><phase>P</phase><azimuth>324.4106140136719</azimuth><distance>1.853881597518921</distance><timeResidual>-0.5484886169433594</timeResidual><timeUsed>true</timeUsed><horizontalSlownessUsed>false</horizontalSlownessUsed><backazimuthUsed>false</backazimuthUsed><weight>1</weight></arrival><arrival><pickID>de.gempa.tb1.Pick/20250411132754.632855.117865</pickID><phase>S</phase><azimuth>199.86215209960938</azimuth><distance>0.7197957634925842</distance><timeResidual>0.4738483428955078</timeResidual><timeUsed>true</timeUsed><horizontalSlownessUsed>false</horizontalSlownessUsed><backazimuthUsed>false</backazimuthUsed><weight>1</weight></arrival><arrival><pickID>de.gempa.tb1.Pick/20250411132755.63973.117866</pickID><phase>S</phase><azimuth>256.52532958984375</azimuth><distance>0.8794330954551697</distance><timeResidual>0.10472297668457031</timeResidual><timeUsed>true</timeUsed><horizontalSlownessUsed>false</horizontalSlownessUsed><backazimuthUsed>false</backazimuthUsed><weight>1</weight></arrival><arrival><pickID>de.gempa.tb1.Pick/20250411132759.198686.117867</pickID><phase>S</phase><azimuth>350.4006652832031</azimuth><distance>0.983907163143158</distance><timeResidual>0.23597145080566406</timeResidual><timeUsed>true</timeUsed><horizontalSlownessUsed>false</horizontalSlownessUsed><backazimuthUsed>false</backazimuthUsed><weight>1</weight></arrival><arrival><pickID>de.gempa.tb1.Pick/20250411132759.784784.117870</pickID><phase>S</phase><azimuth>217.7024688720703</azimuth><distance>1.174683690071106</distance><timeResidual>-0.4309654235839844</timeResidual><timeUsed>true</timeUsed><horizontalSlownessUsed>false</horizontalSlownessUsed><backazimuthUsed>false</backazimuthUsed><weight>1</weight></arrival><arrival><pickID>de.gempa.tb1.Pick/20250411132801.579751.117872</pickID><phase>S</phase><azimuth>284.79351806640625</azimuth><distance>1.1360007524490356</distance><timeResidual>0.6543712615966797</timeResidual><timeUsed>true</timeUsed><horizontalSlownessUsed>false</horizontalSlownessUsed><backazimuthUsed>false</backazimuthUsed><weight>1</weight></arrival><arrival><pickID>de.gempa.tb1.Pick/20250411132802.489656.117873</pickID><phase>P</phase><azimuth>185.87368774414062</azimuth><distance>2.7902235984802246</distance><timeResidual>0.44464111328125</timeResidual><timeUsed>true</timeUsed><horizontalSlownessUsed>false</horizontalSlownessUsed><backazimuthUsed>false</backazimuthUsed><weight>1</weight></arrival><arrival><pickID>de.gempa.tb1.Pick/20250411132806.89831.117876</pickID><phase>P</phase><azimuth>234.1414794921875</azimuth><distance>1.0410263538360596</distance><timeResidual>-0.06650924682617188</timeResidual><timeUsed>true</timeUsed><horizontalSlownessUsed>false</horizontalSlownessUsed><backazimuthUsed>false</backazimuthUsed><weight>1</weight></arrival><arrival><pickID>de.gempa.tb1.Pick/20250411132811.68805.117882</pickID><phase>S</phase><azimuth>199.08775329589844</azimuth><distance>1.67496919631958</distance><timeResidual>0.07546615600585938</timeResidual><timeUsed>true<