<?xml version="1.0" encoding="UTF-8"?>
<seiscomp xmlns="http://geofon.gfz-potsdam.de/ns/seiscomp3-schema/0.13" version="0.13"><EventParameters><pick publicID="de.gempa.tb1.Pick/20250411124022.186338.118366"><time><value>2025-04-11T12:40:15.82Z</value></time><waveformID networkCode="SX" stationCode="ROHR" channelCode="HHZ"/><filterID>ITAPER(2)&gt;&gt;BW(3,3,20)</filterID><methodID>AIC</methodID><horizontalSlowness><value>20.944067682485127</value></horizontalSlowness><backazimuth><value>69.23844381960595</value></backazimuth><phaseHint>P</phaseHint><evaluationMode>automatic</evaluationMode><comment><text>53.69211598779594</text><id>DFX:rectilinearity</id></comment></pick><pick publicID="de.gempa.tb1.Pick/20250411124022.482621.118368"><time><value>2025-04-11T12:40:15.8275Z</value></time><waveformID networkCode="SX" stationCode="WERN" channelCode="HHZ"/><filterID>ITAPER(2)&gt;&gt;BW(3,3,20)</filterID><methodID>AIC</methodID><horizontalSlowness><value>23.467275125528953</value></horizontalSlowness><backazimuth><value>69.79175653514903</value></backazimuth><phaseHint>P</phaseHint><evaluationMode>automatic</evaluationMode><comment><text>326.28335113775944</text><id>DFX:rectilinearity</id></comment></pick><pick publicID="de.gempa.tb1.Pick/20250411124023.353084.118370"><time><value>2025-04-11T12:40:17.08Z</value></time><waveformID networkCode="SX" stationCode="MULD" channelCode="HHZ"/><filterID>ITAPER(2)&gt;&gt;BW(3,3,20)</filterID><methodID>AIC</methodID><horizontalSlowness><value>23.19338777860707</value></horizontalSlowness><backazimuth><value>131.52269119325175</value></backazimuth><phaseHint>P</phaseHint><evaluationMode>automatic</evaluationMode><comment><text>17.103856951735406</text><id>DFX:rectilinearity</id></comment></pick><pick publicID="de.gempa.tb1.Pick/20250411124025.804729.118372"><time><value>2025-04-11T12:40:17.06Z</value></time><waveformID networkCode="SX" stationCode="TANN" channelCode="HHZ"/><filterID>ITAPER(2)&gt;&gt;BW(3,3,20)</filterID><methodID>AIC</methodID><horizontalSlowness><value>17.71020080426226</value></horizontalSlowness><backazimuth><value>309.6117340010082</value></backazimuth><phaseHint>P</phaseHint><evaluationMode>automatic</evaluationMode><comment><text>9.958715045350543</text><id>DFX:rectilinearity</id></comment></pick><pick publicID="de.gempa.tb1.Pick/20250411124026.07509.118374"><time><value>2025-04-11T12:40:18.07Z</value></time><waveformID networkCode="SX" stationCode="TRIB" channelCode="HHZ"/><filterID>ITAPER(2)&gt;&gt;BW(3,3,20)</filterID><methodID>AIC</methodID><horizontalSlowness><value>15.29542249795081</value></horizontalSlowness><backazimuth><value>10.155859345132569</value></backazimuth><phaseHint>P</phaseHint><evaluationMode>automatic</evaluationMode><comment><text>7.384746273851628</text><id>DFX:rectilinearity</id></comment></pick><pick publicID="de.gempa.tb1.Pick/20250411124026.854171.118383"><time><value>2025-04-11T12:40:16.79Z</value></time><waveformID networkCode="SX" stationCode="GUNZ" channelCode="HHZ"/><filterID>ITAPER(2)&gt;&gt;BW(3,3,20)</filterID><methodID>AIC</methodID><horizontalSlowness><value>22.86903551104592</value></horizontalSlowness><backazimuth><value>276.16923807512626</value></backazimuth><phaseHint>P</phaseHint><evaluationMode>automatic</evaluationMode><comment><text>84.14427897252874</text><id>DFX:rectilinearity</id></comment></pick><pick publicID="de.gempa.tb1.Pick/20250411124029.409438.118388"><time><value>2025-04-11T12:40:19.37Z</value></time><waveformID networkCode="SX" stationCode="MULD" channelCode="HHN"/><filterID>ITAPER(3)&gt;&gt;BW(4,3,10)</filterID><methodID>L2-AIC-GRID</methodID><horizontalSlowness><value>22.988035213377927</value></horizontalSlowness><backazimuth><value>133.03252137720466</value></backazimuth><phaseHint>S</phaseHint><evaluationMode>automatic</evaluationMode><comment><text>18.354352768970454</text><id>DFX:rectilinearity</id></comment><comment><text>de.gempa.tb1.Pick/20250411124023.353084.118370</text><id>RefPickID</id></comment></pick><pick publicID="de.gempa.tb1.Pick/20250411124029.426703.118389"><time><value>2025-04-11T12:40:21.13Z</value></time><waveformID networkCode="SX" stationCode="TRIB" channelCode="HHN"/><filterID>ITAPER(3)&gt;&gt;BW(4,3,10)</filterID><methodID>L2-AIC-GRID</methodID><horizontalSlowness><value>13.876804566088374</value></horizontalSlowness><backazimuth><value>45.92884604704662</value></backazimuth><phaseHint>S</phaseHint><evaluationMode>automatic</evaluationMode><comment><text>7.6893343141661</text><id>DFX:rectilinearity</id></comment><comment><text>de.gempa.tb1.Pick/20250411124026.07509.118374</text><id>RefPickID</id></comment></pick><pick publicID="de.gempa.tb1.Pick/20250411124029.466528.118391"><time><value>2025-04-11T12:40:17.3175Z</value></time><waveformID networkCode="SX" stationCode="WERN" channelCode="HHN"/><filterID>ITAPER(3)&gt;&gt;BW(4,3,10)</filterID><methodID>L2-AIC-GRID</methodID><horizontalSlowness><value>23.384182946859593</value></horizontalSlowness><backazimuth><value>69.19287089458108</value></backazimuth><phaseHint>S</phaseHint><evaluationMode>automatic</evaluationMode><comment><text>312.10318575993983</text><id>DFX:rectilinearity</id></comment><comment><text>de.gempa.tb1.Pick/20250411124022.482621.118368</text><id>RefPickID</id></comment></pick><pick publicID="de.gempa.tb1.Pick/20250411124029.853087.118392"><time><value>2025-04-11T12:40:19.45Z</value></time><waveformID networkCode="SX" stationCode="TANN" channelCode="HHN"/><filterID>ITAPER(3)&gt;&gt;BW(4,3,10)</filterID><methodID>L2-AIC-GRID</methodID><horizontalSlowness><value>18.42827705061747</value></horizontalSlowness><backazimuth><value>302.25828392828566</value></backazimuth><phaseHint>S</phaseHint><evaluationMode>automatic</evaluationMode><comment><text>10.005952959650632</text><id>DFX:rectilinearity</id></comment><comment><text>de.gempa.tb1.Pick/20250411124025.804729.118372</text><id>RefPickID</id></comment></pick><pick publicID="de.gempa.tb1.Pick/20250411124029.862999.118393"><time><value>2025-04-11T12:40:18.81Z</value></time><waveformID networkCode="SX" stationCode="GUNZ" channelCode="HHN"/><filterID>ITAPER(3)&gt;&gt;BW(4,3,10)</filterID><methodID>L2-AIC-GRID</methodID><horizontalSlowness><value>22.87346715807295</value></horizontalSlowness><backazimuth><value>276.15344472486657</value></backazimuth><phaseHint>S</phaseHint><evaluationMode>automatic</evaluationMode><comment><text>84.14794341579443</text><id>DFX:rectilinearity</id></comment><comment><text>de.gempa.tb1.Pick/20250411124026.854171.118383</text><id>RefPickID</id></comment></pick><pick publicID="de.gempa.tb1.Pick/20250411124032.895651.118397"><time><value>2025-04-11T12:40:21.72Z</value></time><waveformID networkCode="SX" stationCode="SCHF" channelCode="HHZ"/><filterID>ITAPER(2)&gt;&gt;BW(3,3,20)</filterID><methodID>AIC</methodID><horizontalSlowness><value>22.926903418038563</value></horizontalSlowness><backazimuth><value>238.0820856464115</value></backazimuth><phaseHint>P</phaseHint><evaluationMode>automatic</evaluationMode><comment><text>6.60245893601039</text><id>DFX:rectilinearity</id></comment></pick><origin publicID="de.gempa.tb1.Origin/20250411124041.90816.56281"><time><value>2025-04-11T12:40:13.422395Z</value><uncertainty>0.9373385310173035</uncertainty></time><latitude><value>50.28680419921875</value><uncertainty>4.608824253082275</uncertainty></latitude><longitude><value>12.434571266174316</value><uncertainty>5.084062576293945</uncertainty></longitude><depth><value>7.269769191741943</value><uncertainty>6.891953468322754</uncertainty></depth><depthType>from location</depthType><methodID>LOCSAT</methodID><earthModelID>iasp91</earthModelID><quality><associatedPhaseCount>12</associatedPhaseCount><usedPhaseCount>12</usedPhaseCount><associatedStationCount>7</associatedStationCount><usedStationCount>7</usedStationCount><depthPhaseCount>0</depthPhaseCount><standardError>0.3535351068395758</standardError><azimuthalGap>227.5264163017273</azimuthalGap><maximumDistance>0.3914034068584442</maximumDistance><minimumDistance>0.037513069808483124</minimumDistance><medianDistance>0.1266825646162033</medianDistance></quality><uncertainty><minHorizontalUncertainty>4.697600364685059</minHorizontalUncertainty><maxHorizontalUncertainty>13.942965507507324</maxHorizontalUncertainty><azimuthMaxHorizontalUncertainty>131.47093200683594</azimuthMaxHorizontalUncertainty><preferredDescription>horizontal uncertainty</preferredDescription></uncertainty><evaluationMode>automatic</evaluationMode><evaluationStatus>confirmed</evaluationStatus><comment><text>0.22</text><id>mismatchScore</id></comment><comment><text>mismatchScore</text><id>scevalMethod</id></comment><arrival><pickID>de.gempa.tb1.Pick/20250411124022.186338.118366</pickID><phase>P</phase><azimuth>235.03076171875</azimuth><distance>0.09213734418153763</distance><timeResidual>-0.5013489723205566</timeResidual><timeUsed>true</timeUsed><horizontalSlownessUsed>false</horizontalSlownessUsed><backazimuthUsed>false</backazimuthUsed><weight>1</weight></arrival><arrival><pickID>de.gempa.tb1.Pick/20250411124022.482621.118368</pickID><phase>P</phase><azimuth>270.9324951171875</azimuth><distance>0.037513069808483124</distance><timeResidual>0.4827916622161865</timeResidual><timeUsed>true</timeUsed><horizontalSlownessUsed>false</horizontalSlownessUsed><backazimuthUsed>false</backazimuthUsed><weight>1</weight></arrival><arrival><pickID>de.gempa.tb1.Pick/20250411124023.353084.118370</pickID><phase>P</phase><azimuth>351.08880615234375</azimuth><distance>0.1266825646162033</distance><timeResidual>0.14151859283447266</timeResidual><timeUsed>true</timeUsed><horizontalSlownessUsed>false</horizontalSlownessUsed><backazimuthUsed>false</backazimuthUsed><weight>1</weight></arrival><arrival><pickID>de.gempa.tb1.Pick/20250411124025.804729.118372</pickID><phase>P</phase><azimuth>7.504345417022705</azimuth><distance>0.12946580350399017</distance><timeResidual>0.07177090644836426</timeResidual><timeUsed>true</timeUsed><horizontalSlownessUsed>false</horizontalSlownessUsed><backazimuthUsed>false</backazimuthUsed><weight>1</weight></arrival><arrival><pickID>de.gempa.tb1.Pick/20250411124026.07509.118374</pickID><phase>P</phase><azimuth>289.0049743652344</azimuth><distance>0.20161615312099457</distance><timeResidual>-0.20820403099060059</timeResidual><timeUsed>true</timeUsed><horizontalSlownessUsed>false</horizontalSlownessUsed><backazimuthUsed>false</backazimuthUsed><weight>1</weight></arrival><arrival><pickID>de.gempa.tb1.Pick/20250411124026.854171.118383</pickID><phase>P</phase><azimuth>319.3596496582031</azimuth><distance>0.10125495493412018</distance><timeResidual>0.3059689998626709</timeResidual><timeUsed>true</timeUsed><horizontalSlownessUsed>false</horizontalSlownessUsed><backazimuthUsed>false</backazimuthUsed><weight>1</weight></arrival><arrival><pickID>de.gempa.tb1.Pick/20250411124029.409438.118388</pickID><phase>S</phase><azimuth>351.08880615234375</azimuth><distance>0.1266825646162033</distance><timeResidual>-0.1423349380493164</timeResidual><timeUsed>true</timeUsed><horizontalSlownessUsed>false</horizontalSlownessUsed><backazimuthUsed>false</backazimuthUsed><weight>1</weight></arrival><arrival><pickID>de.gempa.tb1.Pick/20250411124029.426703.118389</pickID><phase>S</phase><azimuth>289.0049743652344</azimuth><distance>0.20161615312099457</distance><timeResidual>-0.6983339786529541</timeResidual><timeUsed>true</timeUsed><horizontalSlownessUsed>false</horizontalSlownessUsed><backazimuthUsed>false</backazimuthUsed><weight>1</weight></arrival><arrival><pickID>de.gempa.tb1.Pick/20250411124029.466528.118391</pickID><phase>S</phase><azimuth>270.9324951171875</azimuth><distance>0.037513069808483124</distance><timeResidual>0.5602853298187256</timeResidual><timeUsed>true</timeUsed><horizontalSlownessUsed>false</horizontalSlownessUsed><backazimuthUsed>false</backazimuthUsed><weight>1</weight></arrival><arrival><pickID>de.gempa.tb1.Pick/20250411124029.853087.118392</pickID><phase>S</phase><azimuth>7.504345417022705</azimuth><distance>0.12946580350399017</distance><timeResidual>-0.14833402633666992</timeResidual><timeUsed>true</timeUsed><horizontalSlownessUsed>false</horizontalSlownessUsed><backazimuthUsed>false</backazimuthUsed><weight>1</weight></arrival><arrival><pickID>de.gempa.tb1.Pick/20250411124029.862999.118393</pickID><phase>S</phase><azimuth>319.3596496582031</azimuth><distance>0.10125495493412018</distance><timeResidual>0.08325862884521484</timeResidual><timeUsed>true</timeUsed><horizontalSlownessUsed>false</horizontalSlownessUsed><backazimuthUsed>false</backazimuthUsed><weight>1</weight></arrival><arrival><pickID>de.gempa.tb1.Pick/20250411124032.895651.118397</pickID><phase>P</phase><azimuth>357.0675964355469</azimuth><distance>0.3914034068584442</distance><timeResidual>0.0497748851776123</timeResidual><timeUsed>true</timeUsed><horizontalSlownessUsed>false</horizontalSlownessUsed><backazimuthUsed>false</backazimuthUsed><weight>1</weight></arrival><magnitude publicID="de.gempa.tb1.Magnitude/20250411124059.337029.98645"><magnitude><value>0.39777245581778675</value></magnitude><type>M</type><methodID>weighted average</methodID><stationCount>7</stationCount></magnitude></origin><event publicID="gempa2025hdrn"><preferredOriginID>de.gempa.tb1.Origin/20250411124041.90816.56281</preferredOriginID><preferredMagnitudeID>de.gempa.tb1.Magnitude/20250411124059.337029.98645</preferredMagnitudeID><description><text>Germany</text><type>region name</type></description><originReference>de.gempa.tb1.Origin/20250411124041.90816.56281</originReference></event></EventParameters></seiscomp>