<?xml version="1.0" encoding="UTF-8"?>
<seiscomp xmlns="http://geofon.gfz-potsdam.de/ns/seiscomp3-schema/0.13" version="0.13"><EventParameters><pick publicID="de.gempa.tb1.Pick/20250412141300.633953.124487"><time><value>2025-04-12T14:12:56.128393Z</value></time><waveformID networkCode="CX" stationCode="PB01" channelCode="HHZ"/><filterID>ITAPER(4)&gt;&gt;BW(4,4,20)</filterID><methodID>AIC</methodID><horizontalSlowness><value>19.24747959542982</value></horizontalSlowness><backazimuth><value>359.41084207521715</value></backazimuth><phaseHint>P</phaseHint><evaluationMode>automatic</evaluationMode><comment><text>14.52038045722924</text><id>DFX:rectilinearity</id></comment><comment><text>42.54483305559532</text><id>SNR</id></comment></pick><pick publicID="de.gempa.tb1.Pick/20250412141301.423098.124489"><time><value>2025-04-12T14:12:51.79Z</value></time><waveformID networkCode="CX" stationCode="PB09" channelCode="HHZ"/><filterID>ITAPER(4)&gt;&gt;BW(4,4,20)</filterID><methodID>AIC</methodID><horizontalSlowness><value>18.143563123048022</value></horizontalSlowness><backazimuth><value>347.8068392491133</value></backazimuth><phaseHint>P</phaseHint><evaluationMode>automatic</evaluationMode><comment><text>13.481905340106652</text><id>DFX:rectilinearity</id></comment><comment><text>16.11756088870776</text><id>SNR</id></comment></pick><pick publicID="de.gempa.tb1.Pick/20250412141301.579552.124491"><time><value>2025-04-12T14:12:55.998394Z</value></time><waveformID networkCode="CX" stationCode="PB03" channelCode="HHZ"/><filterID>ITAPER(4)&gt;&gt;BW(4,4,20)</filterID><methodID>AIC</methodID><horizontalSlowness><value>8.927893033344972</value></horizontalSlowness><backazimuth><value>224.48392861847753</value></backazimuth><phaseHint>P</phaseHint><evaluationMode>automatic</evaluationMode><comment><text>8.408238656411305</text><id>DFX:rectilinearity</id></comment><comment><text>23.53570424716491</text><id>SNR</id></comment></pick><pick publicID="de.gempa.tb1.Pick/20250412141303.773883.124493"><time><value>2025-04-12T14:12:57.628391Z</value></time><waveformID networkCode="CX" stationCode="PB07" channelCode="HHZ"/><filterID>ITAPER(4)&gt;&gt;BW(4,4,20)</filterID><methodID>AIC</methodID><horizontalSlowness><value>22.492416378557852</value></horizontalSlowness><backazimuth><value>74.56916637785903</value></backazimuth><phaseHint>P</phaseHint><evaluationMode>automatic</evaluationMode><comment><text>219.53673167343388</text><id>DFX:rectilinearity</id></comment><comment><text>59.99440566594312</text><id>SNR</id></comment></pick><pick publicID="de.gempa.tb1.Pick/20250412141306.608547.124495"><time><value>2025-04-12T14:12:58.538394Z</value></time><waveformID networkCode="CX" stationCode="PB02" channelCode="HHZ"/><filterID>ITAPER(4)&gt;&gt;BW(4,4,20)</filterID><methodID>AIC</methodID><horizontalSlowness><value>13.718401703599767</value></horizontalSlowness><backazimuth><value>75.1981655327131</value></backazimuth><phaseHint>P</phaseHint><evaluationMode>automatic</evaluationMode><comment><text>30.730357611780807</text><id>DFX:rectilinearity</id></comment><comment><text>20.899920188397694</text><id>SNR</id></comment></pick><pick publicID="de.gempa.tb1.Pick/20250412141320.57338.124497"><time><value>2025-04-12T14:13:11.34Z</value></time><waveformID networkCode="CX" stationCode="PSGCX" channelCode="HHZ"/><filterID>ITAPER(4)&gt;&gt;BW(4,4,20)</filterID><methodID>AIC</methodID><horizontalSlowness><value>13.611958845892982</value></horizontalSlowness><backazimuth><value>92.80228762568949</value></backazimuth><phaseHint>P</phaseHint><evaluationMode>automatic</evaluationMode><comment><text>24.07604675438778</text><id>DFX:rectilinearity</id></comment><comment><text>7.272291552923993</text><id>SNR</id></comment></pick><pick publicID="de.gempa.tb1.Pick/20250412141333.57586.124501"><time><value>2025-04-12T14:13:24.748394Z</value></time><waveformID networkCode="CX" stationCode="PB03" channelCode="HHN"/><filterID>ITAPER(2)&gt;&gt;BW(3,3,20)</filterID><methodID>L2-AIC-GRID</methodID><horizontalSlowness><value>8.569921760659781</value></horizontalSlowness><backazimuth><value>318.55700173053174</value></backazimuth><phaseHint>S</phaseHint><evaluationMode>automatic</evaluationMode><comment><text>14.955373957871757</text><id>DFX:rectilinearity</id></comment><comment><text>de.gempa.tb1.Pick/20250412141301.579552.124491</text><id>RefPickID</id></comment><comment><text>8.208481983725799</text><id>SNR</id></comment></pick><origin publicID="de.gempa.tb1.Origin/20250412141333.583506.84340"><time><value>2025-04-12T14:12:19.79078Z</value><uncertainty>1.9939098358154297</uncertainty></time><latitude><value>-21.935361862182617</value><uncertainty>18.533004760742188</uncertainty></latitude><longitude><value>-67.80899047851562</value><uncertainty>28.73317527770996</uncertainty></longitude><depth><value>197.07740783691406</value><uncertainty>35.150978088378906</uncertainty></depth><depthType>from location</depthType><methodID>LOCSAT</methodID><earthModelID>iasp91_scanloc</earthModelID><quality><associatedPhaseCount>7</associatedPhaseCount><usedPhaseCount>7</usedPhaseCount><associatedStationCount>6</associatedStationCount><usedStationCount>6</usedStationCount><depthPhaseCount>0</depthPhaseCount><standardError>0.09559588529529825</standardError><azimuthalGap>309.4309997558594</azimuthalGap><maximumDistance>3.178191900253296</maximumDistance><minimumDistance>1.3382360935211182</minimumDistance><medianDistance>1.8078316450119019</medianDistance></quality><uncertainty><minHorizontalUncertainty>38.225990295410156</minHorizontalUncertainty><maxHorizontalUncertainty>62.57024765014648</maxHorizontalUncertainty><azimuthMaxHorizontalUncertainty>77.31514739990234</azimuthMaxHorizontalUncertainty><preferredDescription>horizontal uncertainty</preferredDescription></uncertainty><evaluationMode>automatic</evaluationMode><evaluationStatus>confirmed</evaluationStatus><comment><text>0.29</text><id>mismatchScore</id></comment><comment><text>mismatchScore</text><id>scevalMethod</id></comment><arrival><pickID>de.gempa.tb1.Pick/20250412141300.633953.124487</pickID><phase>P</phase><azimuth>299.2858581542969</azimuth><distance>1.7976065874099731</distance><timeResidual>0.08226585388183594</timeResidual><timeUsed>true</timeUsed><horizontalSlownessUsed>false</horizontalSlownessUsed><backazimuthUsed>false</backazimuthUsed><weight>1</weight></arrival><arrival><pickID>de.gempa.tb1.Pick/20250412141301.423098.124489</pickID><phase>P</phase><azimuth>275.6665344238281</azimuth><distance>1.3382360935211182</distance><timeResidual>-0.04049873352050781</timeResidual><timeUsed>true</timeUsed><horizontalSlownessUsed>false</horizontalSlownessUsed><backazimuthUsed>false</backazimuthUsed><weight>1</weight></arrival><arrival><pickID>de.gempa.tb1.Pick/20250412141301.579552.124491</pickID><phase>P</phase><azimuth>266.0686950683594</azimuth><distance>1.8078316450119019</distance><timeResidual>-0.13924217224121094</timeResidual><timeUsed>true</timeUsed><horizontalSlownessUsed>false</horizontalSlownessUsed><backazimuthUsed>false</backazimuthUsed><weight>1</weight></arrival><arrival><pickID>de.gempa.tb1.Pick/20250412141303.773883.124493</pickID><phase>P</phase><azimuth>275.75701904296875</azimuth><distance>1.9411276578903198</distance><timeResidual>0.1471080780029297</timeResidual><timeUsed>true</timeUsed><horizontalSlownessUsed>false</horizontalSlownessUsed><backazimuthUsed>false</backazimuthUsed><weight>1</weight></arrival><arrival><pickID>de.gempa.tb1.Pick/20250412141306.608547.124495</pickID><phase>P</phase><azimuth>287.1251220703125</azimuth><distance>2.036184549331665</distance><timeResidual>0.06857872009277344</timeResidual><timeUsed>true</timeUsed><horizontalSlownessUsed>false</horizontalSlownessUsed><backazimuthUsed>false</backazimuthUsed><weight>1</weight></arrival><arrival><pickID>de.gempa.tb1.Pick/20250412141320.57338.124497</pickID><phase>P</phase><azimuth>316.6376953125</azimuth><distance>3.178191900253296</distance><timeResidual>-0.09678077697753906</timeResidual><timeUsed>true</timeUsed><horizontalSlownessUsed>false</horizontalSlownessUsed><backazimuthUsed>false</backazimuthUsed><weight>1</weight></arrival><arrival><pickID>de.gempa.tb1.Pick/20250412141333.57586.124501</pickID><phase>S</phase><azimuth>266.0686950683594</azimuth><distance>1.8078316450119019</distance><timeResidual>-0.021528244018554688</timeResidual><timeUsed>true</timeUsed><horizontalSlownessUsed>false</horizontalSlownessUsed><backazimuthUsed>false</backazimuthUsed><weight>1</weight></arrival></origin><event publicID="gempa2025hfqq"><preferredOriginID>de.gempa.tb1.Origin/20250412141333.583506.84340</preferredOriginID><description><text>Chile-Bolivia Border Region</text><type>region name</type></description><originReference>de.gempa.tb1.Origin/20250412141333.583506.84340</originReference></event></EventParameters></seiscomp>