<?xml version="1.0" encoding="UTF-8"?>
<seiscomp xmlns="http://geofon.gfz-potsdam.de/ns/seiscomp3-schema/0.13" version="0.13"><EventParameters><pick publicID="de.gempa.tb1.Pick/20250413193620.216642.124572"><time><value>2025-04-13T19:36:07.169538Z</value></time><waveformID networkCode="GE" stationCode="MMRI" channelCode="BHZ"/><filterID>BW(4,0.7,2)</filterID><methodID>AIC</methodID><horizontalSlowness><value>1.864714390055363</value></horizontalSlowness><backazimuth><value>207.40072023329816</value></backazimuth><phaseHint>P</phaseHint><evaluationMode>automatic</evaluationMode><comment><text>24773072.99116618</text><id>DFX:rectilinearity</id></comment></pick><pick publicID="de.gempa.tb1.Pick/20250413193754.566967.124576"><time><value>2025-04-13T19:37:27.519538Z</value></time><waveformID networkCode="GE" stationCode="BNDI" channelCode="BHZ"/><filterID>BW(4,0.7,2)</filterID><methodID>AIC</methodID><horizontalSlowness><value>23.243069060191814</value></horizontalSlowness><backazimuth><value>3.875208602832231</value></backazimuth><phaseHint>P</phaseHint><evaluationMode>automatic</evaluationMode><comment><text>15760.150609360277</text><id>DFX:rectilinearity</id></comment></pick><pick publicID="de.gempa.tb1.Pick/20250413193801.049301.124578"><time><value>2025-04-13T19:37:36.019538Z</value></time><waveformID networkCode="GE" stationCode="LUWI" channelCode="BHZ"/><filterID>BW(4,0.7,2)</filterID><methodID>AIC</methodID><horizontalSlowness><value>0.7788919064154508</value></horizontalSlowness><backazimuth><value>163.0273848246905</value></backazimuth><phaseHint>P</phaseHint><evaluationMode>automatic</evaluationMode><comment><text>9325.695655949296</text><id>DFX:rectilinearity</id></comment></pick><pick publicID="de.gempa.tb1.Pick/20250413193812.243793.124580"><time><value>2025-04-13T19:37:50.419538Z</value></time><waveformID networkCode="GE" stationCode="JAGI" channelCode="BHZ"/><filterID>BW(4,0.7,2)</filterID><methodID>AIC</methodID><horizontalSlowness><value>4.417347965820346</value></horizontalSlowness><backazimuth><value>51.66300549280075</value></backazimuth><phaseHint>P</phaseHint><evaluationMode>automatic</evaluationMode><comment><text>10644.834108139874</text><id>DFX:rectilinearity</id></comment></pick><pick publicID="de.gempa.tb1.Pick/20250413193823.28843.124584"><time><value>2025-04-13T19:38:05.169538Z</value></time><waveformID networkCode="GE" stationCode="FAKI" channelCode="BHZ"/><filterID>BW(4,0.7,2)</filterID><methodID>AIC</methodID><horizontalSlowness><value>5.678859782251301</value></horizontalSlowness><backazimuth><value>229.39681791596385</value></backazimuth><phaseHint>P</phaseHint><evaluationMode>automatic</evaluationMode><comment><text>888.2695071927213</text><id>DFX:rectilinearity</id></comment></pick><pick publicID="de.gempa.tb1.Pick/20250413193825.293278.124586"><time><value>2025-04-13T19:38:11.67186Z</value></time><waveformID networkCode="GE" stationCode="BKB" channelCode="BHZ"/><filterID>BW(4,0.7,2)</filterID><methodID>AIC</methodID><horizontalSlowness><value>14.9940771708693</value></horizontalSlowness><backazimuth><value>152.1416755741593</value></backazimuth><phaseHint>P</phaseHint><evaluationMode>automatic</evaluationMode><comment><text>7804.68815013893</text><id>DFX:rectilinearity</id></comment></pick><pick publicID="de.gempa.tb1.Pick/20250413193828.646086.124588"><time><value>2025-04-13T19:38:10.119538Z</value></time><waveformID networkCode="GE" stationCode="TNTI" channelCode="BHZ"/><filterID>BW(4,0.7,2)</filterID><methodID>AIC</methodID><horizontalSlowness><value>20.943219582414947</value></horizontalSlowness><backazimuth><value>225.40020363540563</value></backazimuth><phaseHint>P</phaseHint><evaluationMode>automatic</evaluationMode><comment><text>4170.7968821128734</text><id>DFX:rectilinearity</id></comment></pick><pick publicID="de.gempa.tb1.Pick/20250413193902.278676.124594"><time><value>2025-04-13T19:38:44.42186Z</value></time><waveformID networkCode="GE" stationCode="SMRI" channelCode="BHZ"/><filterID>BW(4,0.7,2)</filterID><methodID>AIC</methodID><horizontalSlowness><value>1.77402416691971</value></horizontalSlowness><backazimuth><value>133.72651743992563</value></backazimuth><phaseHint>P</phaseHint><evaluationMode>automatic</evaluationMode><comment><text>26902.50626614336</text><id>DFX:rectilinearity</id></comment></pick><pick publicID="de.gempa.tb1.Pick/20250413194155.765353.124611"><time><value>2025-04-13T19:40:37.394538Z</value></time><waveformID networkCode="GE" stationCode="PMG" locationCode="00" channelCode="BHZ"/><filterID>BW(4,0.7,2)</filterID><methodID>AIC</methodID><horizontalSlowness><value>8.108592665811827</value></horizontalSlowness><backazimuth><value>247.091997060435</value></backazimuth><phaseHint>P</phaseHint><evaluationMode>automatic</evaluationMode><comment><text>1511.7814304122203</text><id>DFX:rectilinearity</id></comment></pick><origin publicID="de.gempa.tb1.Origin/20250413194155.783151.156157"><time><value>2025-04-13T19:35:30.910467Z</value><uncertainty>0.6361339688301086</uncertainty></time><latitude><value>-9.747745513916016</value><uncertainty>7.96430778503418</uncertainty></latitude><longitude><value>123.8929443359375</value><uncertainty>3.6980316638946533</uncertainty></longitude><depth><value>0</value></depth><depthType>operator assigned</depthType><methodID>LOCSAT</methodID><earthModelID>iasp91</earthModelID><quality><associatedPhaseCount>9</associatedPhaseCount><usedPhaseCount>9</usedPhaseCount><associatedStationCount>9</associatedStationCount><usedStationCount>9</usedStationCount><depthPhaseCount>0</depthPhaseCount><standardError>1.2160662618904148</standardError><azimuthalGap>185.6112289428711</azimuthalGap><maximumDistance>22.9389591217041</maximumDistance><minimumDistance>1.9728225469589233</minimumDistance><medianDistance>10.720104217529297</medianDistance></quality><uncertainty><minHorizontalUncertainty>7.806492328643799</minHorizontalUncertainty><maxHorizontalUncertainty>17.146787643432617</maxHorizontalUncertainty><azimuthMaxHorizontalUncertainty>174.66729736328125</azimuthMaxHorizontalUncertainty><preferredDescription>horizontal uncertainty</preferredDescription></uncertainty><evaluationMode>automatic</evaluationMode><arrival><pickID>de.gempa.tb1.Pick/20250413193620.216642.124572</pickID><phase>P</phase><azimuth>303.9285888671875</azimuth><distance>1.9728225469589233</distance><timeResidual>1.7026824951171875</timeResidual><timeUsed>true</timeUsed><horizontalSlownessUsed>false</horizontalSlownessUsed><backazimuthUsed>false</backazimuthUsed><weight>1</weight></arrival><arrival><pickID>de.gempa.tb1.Pick/20250413193754.566967.124576</pickID><phase>P</phase><azimuth>49.37644195556641</azimuth><distance>7.906578063964844</distance><timeResidual>0.39362335205078125</timeResidual><timeUsed>true</timeUsed><horizontalSlownessUsed>false</horizontalSlownessUsed><backazimuthUsed>false</backazimuthUsed><weight>1</weight></arrival><arrival><pickID>de.gempa.tb1.Pick/20250413193801.049301.124578</pickID><phase>P</phase><azimuth>352.58563232421875</azimuth><distance>8.72050952911377</distance><timeResidual>-2.280662536621094</timeResidual><timeUsed>true</timeUsed><horizontalSlownessUsed>false</horizontalSlownessUsed><backazimuthUsed>false</backazimuthUsed><weight>1</weight></arrival><arrival><pickID>de.gempa.tb1.Pick/20250413193812.243793.124580</pickID><phase>P</phase><azimuth>276.7314758300781</azimuth><distance>9.702512741088867</distance><timeResidual>-1.3593521118164062</timeResidual><timeUsed>true</timeUsed><horizontalSlownessUsed>false</horizontalSlownessUsed><backazimuthUsed>false</backazimuthUsed><weight>1</weight></arrival><arrival><pickID>de.gempa.tb1.Pick/20250413193823.28843.124584</pickID><phase>P</phase><azimuth>51.28387451171875</azimuth><distance>10.720104217529297</distance><timeResidual>-0.5647659301757812</timeResidual><timeUsed>true</timeUsed><horizontalSlownessUsed>false</horizontalSlownessUsed><backazimuthUsed>false</backazimuthUsed><weight>1</weight></arrival><arrival><pickID>de.gempa.tb1.Pick/20250413193825.293278.124586</pickID><phase>P</phase><azimuth>320.58447265625</azimuth><distance>11.044986724853516</distance><timeResidual>1.4865036010742188</timeResidual><timeUsed>true</timeUsed><horizontalSlownessUsed>false</horizontalSlownessUsed><backazimuthUsed>false</backazimuthUsed><weight>1</weight></arrival><arrival><pickID>de.gempa.tb1.Pick/20250413193828.646086.124588</pickID><phase>P</phase><azimuth>18.49976921081543</azimuth><distance>11.007734298706055</distance><timeResidual>0.44766998291015625</timeResidual><timeUsed>true</timeUsed><horizontalSlownessUsed>false</horizontalSlownessUsed><backazimuthUsed>false</backazimuthUsed><weight>1</weight></arrival><arrival><pickID>de.gempa.tb1.Pick/20250413193902.278676.124594</pickID><phase>P</phase><azimuth>280.3572082519531</azimuth><distance>13.575398445129395</distance><timeResidual>-0.39330291748046875</timeResidual><timeUsed>true</timeUsed><horizontalSlownessUsed>false</horizontalSlownessUsed><backazimuthUsed>false</backazimuthUsed><weight>1</weight></arrival><arrival><pickID>de.gempa.tb1.Pick/20250413194155.765353.124611</pickID><phase>P</phase><azimuth>91.12024688720703</azimuth><distance>22.9389591217041</distance><timeResidual>0.5676956176757812</timeResidual><timeUsed>true</timeUsed><horizontalSlownessUsed>false</horizontalSlownessUsed><backazimuthUsed>false</backazimuthUsed><weight>1</weight></arrival><magnitude publicID="de.gempa.tb1.Magnitude/20250413194155.795957.395081"><magnitude><value>5.101820856636905</value></magnitude><type>M</type><methodID>weighted average</methodID><stationCount>7</stationCount></magnitude></origin><event publicID="gempa2025hhxl"><preferredOriginID>de.gempa.tb1.Origin/20250413194155.783151.156157</preferredOriginID><preferredMagnitudeID>de.gempa.tb1.Magnitude/20250413194155.795957.395081</preferredMagnitudeID><description><text>Timor Region</text><type>region name</type></description><originReference>de.gempa.tb1.Origin/20250413194155.783151.156157</originReference></event></EventParameters></seiscomp>