<?xml version="1.0" encoding="UTF-8"?>
<seiscomp xmlns="http://geofon.gfz-potsdam.de/ns/seiscomp3-schema/0.13" version="0.13"><EventParameters><pick publicID="de.gempa.tb1.Pick/20250414100743.127335.221030"><time><value>2025-04-14T10:07:39.82Z</value></time><waveformID networkCode="CH" stationCode="BOURR" channelCode="HHZ"/><filterID>ITAPER(4)&gt;&gt;BW(4,4,20)</filterID><methodID>AIC</methodID><phaseHint>P</phaseHint><evaluationMode>automatic</evaluationMode></pick><pick publicID="de.gempa.tb1.Pick/20250414100747.108006.221034"><time><value>2025-04-14T10:07:43.089998Z</value></time><waveformID networkCode="CH" stationCode="BRANT" channelCode="HHZ"/><filterID>ITAPER(4)&gt;&gt;BW(4,4,20)</filterID><methodID>AIC</methodID><phaseHint>P</phaseHint><evaluationMode>automatic</evaluationMode></pick><pick publicID="de.gempa.tb1.Pick/20250414100750.844088.221040"><time><value>2025-04-14T10:07:46.765Z</value></time><waveformID networkCode="CH" stationCode="BALST" channelCode="HHZ"/><filterID>ITAPER(4)&gt;&gt;BW(4,4,20)</filterID><methodID>AIC</methodID><phaseHint>P</phaseHint><evaluationMode>automatic</evaluationMode></pick><pick publicID="de.gempa.tb1.Pick/20250414100751.454354.221042"><time><value>2025-04-14T10:07:48.83Z</value></time><waveformID networkCode="CH" stationCode="TORNY" channelCode="HHZ"/><filterID>ITAPER(4)&gt;&gt;BW(4,4,20)</filterID><methodID>AIC</methodID><phaseHint>P</phaseHint><evaluationMode>automatic</evaluationMode></pick><pick publicID="de.gempa.tb1.Pick/20250414100752.989837.221044"><time><value>2025-04-14T10:07:48.655Z</value></time><waveformID networkCode="CH" stationCode="ROTHE" channelCode="HHZ"/><filterID>ITAPER(4)&gt;&gt;BW(4,4,20)</filterID><methodID>AIC</methodID><phaseHint>P</phaseHint><evaluationMode>automatic</evaluationMode></pick><pick publicID="de.gempa.tb1.Pick/20250414100754.040516.221046"><time><value>2025-04-14T10:07:51.355Z</value></time><waveformID networkCode="CH" stationCode="GIMEL" channelCode="HHZ"/><filterID>ITAPER(4)&gt;&gt;BW(4,4,20)</filterID><methodID>AIC</methodID><phaseHint>P</phaseHint><evaluationMode>automatic</evaluationMode></pick><pick publicID="de.gempa.tb1.Pick/20250414100755.276275.221048"><time><value>2025-04-14T10:07:51.435Z</value></time><waveformID networkCode="CH" stationCode="SULZ" channelCode="HHZ"/><filterID>ITAPER(4)&gt;&gt;BW(4,4,20)</filterID><methodID>AIC</methodID><phaseHint>P</phaseHint><evaluationMode>automatic</evaluationMode></pick><pick publicID="de.gempa.tb1.Pick/20250414100755.394216.221050"><time><value>2025-04-14T10:07:50.69Z</value></time><waveformID networkCode="CH" stationCode="EMMET" channelCode="HHZ"/><filterID>ITAPER(4)&gt;&gt;BW(4,4,20)</filterID><methodID>AIC</methodID><phaseHint>P</phaseHint><evaluationMode>automatic</evaluationMode></pick><pick publicID="de.gempa.tb1.Pick/20250414100758.14543.221052"><time><value>2025-04-14T10:07:55.735001Z</value></time><waveformID networkCode="CH" stationCode="SENIN" channelCode="HHZ"/><filterID>ITAPER(4)&gt;&gt;BW(4,4,20)</filterID><methodID>AIC</methodID><phaseHint>P</phaseHint><evaluationMode>automatic</evaluationMode></pick><pick publicID="de.gempa.tb1.Pick/20250414100803.120158.221056"><time><value>2025-04-14T10:08:00.190001Z</value></time><waveformID networkCode="CH" stationCode="FIESA" channelCode="HHZ"/><filterID>ITAPER(4)&gt;&gt;BW(4,4,20)</filterID><methodID>AIC</methodID><phaseHint>P</phaseHint><evaluationMode>automatic</evaluationMode></pick><pick publicID="de.gempa.tb1.Pick/20250414100806.085021.221062"><time><value>2025-04-14T10:08:00.208393Z</value></time><waveformID networkCode="CH" stationCode="GRIMS" channelCode="HHZ"/><filterID>ITAPER(4)&gt;&gt;BW(4,4,20)</filterID><methodID>AIC</methodID><phaseHint>P</phaseHint><evaluationMode>automatic</evaluationMode></pick><pick publicID="de.gempa.tb1.Pick/20250414100817.859373.221083"><time><value>2025-04-14T10:08:06.75Z</value></time><waveformID networkCode="CH" stationCode="GIMEL" channelCode="HHN"/><filterID>RMHP(1)&gt;&gt;ITAPER(2)&gt;&gt;BW(4,3,20)</filterID><methodID>L2-AIC-GRID</methodID><phaseHint>S</phaseHint><evaluationMode>automatic</evaluationMode><comment><text>de.gempa.tb1.Pick/20250414100754.040516.221046</text><id>RefPickID</id></comment></pick><pick publicID="de.gempa.tb1.Pick/20250414100820.272583.221088"><time><value>2025-04-14T10:08:13.120001Z</value></time><waveformID networkCode="CH" stationCode="SENIN" channelCode="HHN"/><filterID>RMHP(1)&gt;&gt;ITAPER(2)&gt;&gt;BW(4,3,20)</filterID><methodID>L2-AIC-GRID</methodID><phaseHint>S</phaseHint><evaluationMode>automatic</evaluationMode><comment><text>de.gempa.tb1.Pick/20250414100758.14543.221052</text><id>RefPickID</id></comment></pick><origin publicID="de.gempa.tb1.Origin/20250414100820.274878.138224"><time><value>2025-04-14T10:07:31.266078Z</value><uncertainty>1.1315603256225586</uncertainty></time><latitude><value>47.5964241027832</value><uncertainty>5.637263298034668</uncertainty></latitude><longitude><value>6.568307399749756</value><uncertainty>5.914364814758301</uncertainty></longitude><depth><value>0</value></depth><depthType>operator assigned</depthType><methodID>LOCSAT</methodID><earthModelID>iasp91</earthModelID><quality><associatedPhaseCount>13</associatedPhaseCount><usedPhaseCount>13</usedPhaseCount><associatedStationCount>11</associatedStationCount><usedStationCount>11</usedStationCount><depthPhaseCount>0</depthPhaseCount><standardError>0.5822707240591395</standardError><azimuthalGap>262.07886505126953</azimuthalGap><maximumDistance>1.5711631774902344</maximumDistance><minimumDistance>0.4925026595592499</minimumDistance><medianDistance>1.047417163848877</medianDistance></quality><uncertainty><minHorizontalUncertainty>5.730206489562988</minHorizontalUncertainty><maxHorizontalUncertainty>16.555646896362305</maxHorizontalUncertainty><azimuthMaxHorizontalUncertainty>133.2513885498047</azimuthMaxHorizontalUncertainty><preferredDescription>horizontal uncertainty</preferredDescription></uncertainty><evaluationMode>automatic</evaluationMode><evaluationStatus>confirmed</evaluationStatus><comment><text>0.13</text><id>mismatchScore</id></comment><comment><text>mismatchScore</text><id>scevalMethod</id></comment><arrival><pickID>de.gempa.tb1.Pick/20250414100743.127335.221030</pickID><phase>P</phase><azimuth>114.0688934326172</azimuth><distance>0.4925026595592499</distance><timeResidual>-0.9566669464111328</timeResidual><timeUsed>true</timeUsed><horizontalSlownessUsed>false</horizontalSlownessUsed><backazimuthUsed>false</backazimuthUsed><weight>1</weight></arrival><arrival><pickID>de.gempa.tb1.Pick/20250414100747.108006.221034</pickID><phase>P</phase><azimuth>185.6634063720703</azimuth><distance>0.6619390845298767</distance><timeResidual>-0.9087076187133789</timeResidual><timeUsed>true</timeUsed><horizontalSlownessUsed>false</horizontalSlownessUsed><backazimuthUsed>false</backazimuthUsed><weight>1</weight></arrival><arrival><pickID>de.gempa.tb1.Pick/20250414100750.844088.221040</pickID><phase>P</phase><azimuth>108.4227066040039</azimuth><distance>0.8076856732368469</distance><timeResidual>-0.0038805007934570308</timeResidual><timeUsed>true</timeUsed><horizontalSlownessUsed>false</horizontalSlownessUsed><backazimuthUsed>false</backazimuthUsed><weight>1</weight></arrival><arrival><pickID>de.gempa.tb1.Pick/20250414100751.454354.221042</pickID><phase>P</phase><azimuth>161.93511962890625</azimuth><distance>0.8651528358459473</distance><timeResidual>0.9676008224487305</timeResidual><timeUsed>true</timeUsed><horizontalSlownessUsed>false</horizontalSlownessUsed><backazimuthUsed>false</backazimuthUsed><weight>1</weight></arrival><arrival><pickID>de.gempa.tb1.Pick/20250414100752.989837.221044</pickID><phase>P</phase><azimuth>96.9844741821289</azimuth><distance>0.9243797063827515</distance><timeResidual>-0.3321704864501953</timeResidual><timeUsed>true</timeUsed><horizontalSlownessUsed>false</horizontalSlownessUsed><backazimuthUsed>false</backazimuthUsed><weight>1</weight></arrival><arrival><pickID>de.gempa.tb1.Pick/20250414100754.040516.221046</pickID><phase>P</phase><azimuth>191.1293487548828</azimuth><distance>1.0832396745681763</distance><timeResidual>-0.4583826065063477</timeResidual><timeUsed>true</timeUsed><horizontalSlownessUsed>false</horizontalSlownessUsed><backazimuthUsed>false</backazimuthUsed><weight>1</weight></arrival><arrival><pickID>de.gempa.tb1.Pick/20250414100755.276275.221048</pickID><phase>P</phase><azimuth>93.20821380615234</azimuth><distance>1.047417163848877</distance><timeResidual>0.21851253509521484</timeResidual><timeUsed>true</timeUsed><horizontalSlownessUsed>false</horizontalSlownessUsed><backazimuthUsed>false</backazimuthUsed><weight>1</weight></arrival><arrival><pickID>de.gempa.tb1.Pick/20250414100755.394216.221050</pickID><phase>P</phase><azimuth>98.68392181396484</azimuth><distance>0.9924526810646057</distance><timeResidual>0.40859222412109375</timeResidual><timeUsed>true</timeUsed><horizontalSlownessUsed>false</horizontalSlownessUsed><backazimuthUsed>false</backazimuthUsed><weight>1</weight></arrival><arrival><pickID>de.gempa.tb1.Pick/20250414100758.14543.221052</pickID><phase>P</phase><azimuth>157.64926147460938</azimuth><distance>1.3312708139419556</distance><timeResidual>-0.12900066375732422</timeResidual><timeUsed>true</timeUsed><horizontalSlownessUsed>false</horizontalSlownessUsed><backazimuthUsed>false</backazimuthUsed><weight>1</weight></arrival><arrival><pickID>de.gempa.tb1.Pick/20250414100803.120158.221056</pickID><phase>P</phase><azimuth>137.18565368652344</azimuth><distance>1.5693026781082153</distance><timeResidual>0.554966926574707</timeResidual><timeUsed>true</timeUsed><horizontalSlownessUsed>false</horizontalSlownessUsed><backazimuthUsed>false</backazimuthUsed><weight>1</weight></arrival><arrival><pickID>de.gempa.tb1.Pick/20250414100806.085021.221062</pickID><phase>P</phase><azimuth>129.77761840820312</azimuth><distance>1.5711631774902344</distance><timeResidual>0.5445833206176758</timeResidual><timeUsed>true</timeUsed><horizontalSlownessUsed>false</horizontalSlownessUsed><backazimuthUsed>false</backazimuthUsed><weight>1</weight></arrival><arrival><pickID>de.gempa.tb1.Pick/20250414100817.859373.221083</pickID><phase>S</phase><azimuth>191.1293487548828</azimuth><distance>1.0832396745681763</distance><timeResidual>0.581028938293457</timeResidual><timeUsed>true</timeUsed><horizontalSlownessUsed>false</horizontalSlownessUsed><backazimuthUsed>false</backazimuthUsed><weight>1</weight></arrival><arrival><pickID>de.gempa.tb1.Pick/20250414100820.272583.221088</pickID><phase>S</phase><azimuth>157.64926147460938</azimuth><distance>1.3312708139419556</distance><timeResidual>-0.4861478805541992</timeResidual><timeUsed>true</timeUsed><horizontalSlownessUsed>false</horizontalSlownessUsed><backazimuthUsed>false</backazimuthUsed><weight>1</weight></arrival><magnitude publicID="de.gempa.tb1.Magnitude/20250414100831.135307.470989"><magnitude><value>2.2077853096909328</value></magnitude><type>M</type><methodID>weighted average</methodID><stationCount>9</stationCount></magnitude></origin><event publicID="gempa2025hjan"><preferredOriginID>de.gempa.tb1.Origin/20250414100820.274878.138224</preferredOriginID><preferredMagnitudeID>de.gempa.tb1.Magnitude/20250414100831.135307.470989</preferredMagnitudeID><description><text>France</text><type>region name</type></description><originReference>de.gempa.tb1.Origin/20250414100820.274878.138224</originReference></event></EventParameters></seiscomp>