<?xml version="1.0" encoding="UTF-8"?>
<seiscomp xmlns="http://geofon.gfz-potsdam.de/ns/seiscomp3-schema/0.13" version="0.13"><EventParameters><pick publicID="de.gempa.tb1.Pick/20250412203947.570528.126609"><time><value>2025-04-12T20:39:41.57Z</value></time><waveformID networkCode="CX" stationCode="PB19" channelCode="HHZ"/><filterID>ITAPER(4)&gt;&gt;BW(4,4,20)</filterID><methodID>AIC</methodID><horizontalSlowness><value>23.07506887706074</value></horizontalSlowness><backazimuth><value>307.0845366988981</value></backazimuth><phaseHint>P</phaseHint><evaluationMode>automatic</evaluationMode><comment><text>43.78311609534022</text><id>DFX:rectilinearity</id></comment><comment><text>53.94222870024159</text><id>SNR</id></comment></pick><pick publicID="de.gempa.tb1.Pick/20250412203948.714015.126611"><time><value>2025-04-12T20:39:44.238393Z</value></time><waveformID networkCode="CX" stationCode="PB15" channelCode="HHZ"/><filterID>ITAPER(4)&gt;&gt;BW(4,4,20)</filterID><methodID>AIC</methodID><horizontalSlowness><value>20.154905974261965</value></horizontalSlowness><backazimuth><value>113.47455992585252</value></backazimuth><phaseHint>P</phaseHint><evaluationMode>automatic</evaluationMode><comment><text>554.2295589997336</text><id>DFX:rectilinearity</id></comment><comment><text>35.962296702844114</text><id>SNR</id></comment></pick><pick publicID="de.gempa.tb1.Pick/20250412203951.5086.126613"><time><value>2025-04-12T20:39:47.218393Z</value></time><waveformID networkCode="CX" stationCode="PB06" channelCode="HHZ"/><filterID>ITAPER(4)&gt;&gt;BW(4,4,20)</filterID><methodID>AIC</methodID><horizontalSlowness><value>13.074976952106926</value></horizontalSlowness><backazimuth><value>164.3814126617599</value></backazimuth><phaseHint>P</phaseHint><evaluationMode>automatic</evaluationMode><comment><text>172.17541780306095</text><id>DFX:rectilinearity</id></comment><comment><text>31.334967135559296</text><id>SNR</id></comment></pick><pick publicID="de.gempa.tb1.Pick/20250412203957.585806.126617"><time><value>2025-04-12T20:39:52.718393Z</value></time><waveformID networkCode="CX" stationCode="PB03" channelCode="HHZ"/><filterID>ITAPER(4)&gt;&gt;BW(4,4,20)</filterID><methodID>AIC</methodID><horizontalSlowness><value>11.959540567031192</value></horizontalSlowness><backazimuth><value>246.71653840164134</value></backazimuth><phaseHint>P</phaseHint><evaluationMode>automatic</evaluationMode><comment><text>16.231534764330181</text><id>DFX:rectilinearity</id></comment><comment><text>55.88543662009032</text><id>SNR</id></comment></pick><pick publicID="de.gempa.tb1.Pick/20250412204001.226551.126620"><time><value>2025-04-12T20:39:54.31Z</value></time><waveformID networkCode="CX" stationCode="PB10" channelCode="HHZ"/><filterID>ITAPER(4)&gt;&gt;BW(4,4,20)</filterID><methodID>AIC</methodID><horizontalSlowness><value>17.030507259649895</value></horizontalSlowness><backazimuth><value>317.91363322171094</value></backazimuth><phaseHint>P</phaseHint><evaluationMode>automatic</evaluationMode><comment><text>142.44241630126868</text><id>DFX:rectilinearity</id></comment><comment><text>9.171239285947713</text><id>SNR</id></comment></pick><pick publicID="de.gempa.tb1.Pick/20250412204003.554118.126622"><time><value>2025-04-12T20:39:58.748393Z</value></time><waveformID networkCode="CX" stationCode="PB01" channelCode="HHZ"/><filterID>ITAPER(4)&gt;&gt;BW(4,4,20)</filterID><methodID>AIC</methodID><horizontalSlowness><value>20.433380425741642</value></horizontalSlowness><backazimuth><value>6.078285314169136</value></backazimuth><phaseHint>P</phaseHint><evaluationMode>automatic</evaluationMode><comment><text>24.187696815506285</text><id>DFX:rectilinearity</id></comment><comment><text>20.387961844712592</text><id>SNR</id></comment></pick><pick publicID="de.gempa.tb1.Pick/20250412204004.640659.126626"><time><value>2025-04-12T20:39:51.44Z</value></time><waveformID networkCode="CX" stationCode="PB09" channelCode="HHZ"/><filterID>ITAPER(4)&gt;&gt;BW(4,4,20)</filterID><methodID>AIC</methodID><horizontalSlowness><value>23.581977586192355</value></horizontalSlowness><backazimuth><value>302.78545391758877</value></backazimuth><phaseHint>P</phaseHint><evaluationMode>automatic</evaluationMode><comment><text>22.59621924263156</text><id>DFX:rectilinearity</id></comment><comment><text>48.07251528315822</text><id>SNR</id></comment></pick><pick publicID="de.gempa.tb1.Pick/20250412204007.576716.126628"><time><value>2025-04-12T20:39:59.678393Z</value></time><waveformID networkCode="CX" stationCode="PB02" channelCode="HHZ"/><filterID>ITAPER(4)&gt;&gt;BW(4,4,20)</filterID><methodID>AIC</methodID><horizontalSlowness><value>15.742198074217614</value></horizontalSlowness><backazimuth><value>77.07402345449019</value></backazimuth><phaseHint>P</phaseHint><evaluationMode>automatic</evaluationMode><comment><text>47.35337276349485</text><id>DFX:rectilinearity</id></comment><comment><text>20.108398670979089</text><id>SNR</id></comment></pick><pick publicID="de.gempa.tb1.Pick/20250412204020.629505.126630"><time><value>2025-04-12T20:40:12.83Z</value></time><waveformID networkCode="CX" stationCode="PB19" channelCode="HHN"/><filterID>ITAPER(2)&gt;&gt;BW(3,3,20)</filterID><methodID>L2-AIC-GRID</methodID><horizontalSlowness><value>21.313335479671014</value></horizontalSlowness><backazimuth><value>171.06193468638963</value></backazimuth><phaseHint>S</phaseHint><evaluationMode>automatic</evaluationMode><comment><text>176.5054578629603</text><id>DFX:rectilinearity</id></comment><comment><text>de.gempa.tb1.Pick/20250412203947.570528.126609</text><id>RefPickID</id></comment><comment><text>5.249551303045699</text><id>SNR</id></comment></pick><pick publicID="de.gempa.tb1.Pick/20250412204029.590912.126632"><time><value>2025-04-12T20:40:22.398393Z</value></time><waveformID networkCode="CX" stationCode="PB06" channelCode="HHN"/><filterID>ITAPER(2)&gt;&gt;BW(3,3,20)</filterID><methodID>L2-AIC-GRID</methodID><horizontalSlowness><value>15.51377700339704</value></horizontalSlowness><backazimuth><value>259.76051015274783</value></backazimuth><phaseHint>S</phaseHint><evaluationMode>automatic</evaluationMode><comment><text>93.7742220590861</text><id>DFX:rectilinearity</id></comment><comment><text>de.gempa.tb1.Pick/20250412203951.5086.126613</text><id>RefPickID</id></comment><comment><text>6.14271468396657</text><id>SNR</id></comment></pick><pick publicID="de.gempa.tb1.Pick/20250412204032.300372.126633"><time><value>2025-04-12T20:39:55.948393Z</value></time><waveformID networkCode="CX" stationCode="PB07" channelCode="HHZ"/><filterID>ITAPER(4)&gt;&gt;BW(4,4,20)</filterID><methodID>AIC</methodID><horizontalSlowness><value>23.00561602241449</value></horizontalSlowness><backazimuth><value>328.16329299720917</value></backazimuth><phaseHint>P</phaseHint><evaluationMode>automatic</evaluationMode><comment><text>345.58338799965054</text><id>DFX:rectilinearity</id></comment><comment><text>90.2405886351392</text><id>SNR</id></comment></pick><pick publicID="de.gempa.tb1.Pick/20250412204039.785213.126635"><time><value>2025-04-12T20:40:32.018393Z</value></time><waveformID networkCode="CX" stationCode="PB03" channelCode="HHN"/><filterID>ITAPER(2)&gt;&gt;BW(3,3,20)</filterID><methodID>L2-AIC-GRID</methodID><horizontalSlowness><value>15.855972944585384</value></horizontalSlowness><backazimuth><value>36.712588615747933</value></backazimuth><phaseHint>S</phaseHint><evaluationMode>automatic</evaluationMode><comment><text>48.39541854764027</text><id>DFX:rectilinearity</id></comment><comment><text>de.gempa.tb1.Pick/20250412203957.585806.126617</text><id>RefPickID</id></comment><comment><text>6.156122282953801</text><id>SNR</id></comment></pick><pick publicID="de.gempa.tb1.Pick/20250412204049.682472.126636"><time><value>2025-04-12T20:40:43.148393Z</value></time><waveformID networkCode="CX" stationCode="PB01" channelCode="HHN"/><filterID>ITAPER(2)&gt;&gt;BW(3,3,20)</filterID><methodID>L2-AIC-GRID</methodID><horizontalSlowness><value>16.694427502581522</value></horizontalSlowness><backazimuth><value>275.13820128756493</value></backazimuth><phaseHint>S</phaseHint><evaluationMode>automatic</evaluationMode><comment><text>32.220845932240955</text><id>DFX:rectilinearity</id></comment><comment><text>de.gempa.tb1.Pick/20250412204003.554118.126622</text><id>RefPickID</id></comment><comment><text>7.269716015832427</text><id>SNR</id></comment></pick><pick publicID="de.gempa.tb1.Pick/20250412204052.498615.126637"><time><value>2025-04-12T20:40:44.048393Z</value></time><waveformID networkCode="CX" stationCode="PB02" channelCode="HHN"/><filterID>ITAPER(2)&gt;&gt;BW(3,3,20)</filterID><methodID>L2-AIC-GRID</methodID><horizontalSlowness><value>12.084839556867786</value></horizontalSlowness><backazimuth><value>262.9996548020275</value></backazimuth><phaseHint>S</phaseHint><evaluationMode>automatic</evaluationMode><comment><text>152.52370307224896</text><id>DFX:rectilinearity</id></comment><comment><text>de.gempa.tb1.Pick/20250412204007.576716.126628</text><id>RefPickID</id></comment><comment><text>5.083205700155162</text><id>SNR</id></comment></pick><origin publicID="de.gempa.tb1.Origin/20250412204052.502777.91781"><time><value>2025-04-12T20:39:03.194485Z</value><uncertainty>0.9638674855232239</uncertainty></time><latitude><value>-23.805049896240234</value><uncertainty>6.051455020904541</uncertainty></latitude><longitude><value>-67.28868865966797</value><uncertainty>21.568105697631836</uncertainty></longitude><depth><value>223.32664489746094</value><uncertainty>20.812135696411133</uncertainty></depth><depthType>from location</depthType><methodID>LOCSAT</methodID><earthModelID>iasp91_scanloc</earthModelID><quality><associatedPhaseCount>14</associatedPhaseCount><usedPhaseCount>14</usedPhaseCount><associatedStationCount>9</associatedStationCount><usedStationCount>9</usedStationCount><depthPhaseCount>0</depthPhaseCount><standardError>0.2692429962557743</standardError><azimuthalGap>303.4274597167969</azimuthalGap><maximumDistance>3.453361749649048</maximumDistance><minimumDistance>1.8356107473373413</minimumDistance><medianDistance>2.8667333126068115</medianDistance></quality><uncertainty><minHorizontalUncertainty>11.711621284484863</minHorizontalUncertainty><maxHorizontalUncertainty>46.57377624511719</maxHorizontalUncertainty><azimuthMaxHorizontalUncertainty>82.88846588134766</azimuthMaxHorizontalUncertainty><preferredDescription>horizontal uncertainty</preferredDescription></uncertainty><evaluationMode>automatic</evaluationMode><evaluationStatus>confirmed</evaluationStatus><comment><text>0.00</text><id>mismatchScore</id></comment><comment><text>mismatchScore</text><id>scevalMethod</id></comment><arrival><pickID>de.gempa.tb1.Pick/20250412203947.570528.126609</pickID><phase>P</phase><azimuth>266.4974060058594</azimuth><distance>1.8356107473373413</distance><timeResidual>-0.41555023193359375</timeResidual><timeUsed>true</timeUsed><horizontalSlownessUsed>false</horizontalSlownessUsed><backazimuthUsed>false</backazimuthUsed><weight>1</weight></arrival><arrival><pickID>de.gempa.tb1.Pick/20250412203948.714015.126611</pickID><phase>P</phase><azimuth>286.0806884765625</azimuth><distance>2.089433193206787</distance><timeResidual>-0.19115447998046875</timeResidual><timeUsed>true</timeUsed><horizontalSlownessUsed>false</horizontalSlownessUsed><backazimuthUsed>false</backazimuthUsed><weight>1</weight></arrival><arrival><pickID>de.gempa.tb1.Pick/20250412203951.5086.126613</pickID><phase>P</phase><azimuth>297.0706787109375</azimuth><distance>2.3677778244018555</distance><timeResidual>-0.04164886474609375</timeResidual><timeUsed>true</timeUsed><horizontalSlownessUsed>false</horizontalSlownessUsed><backazimuthUsed>false</backazimuthUsed><weight>1</weight></arrival><arrival><pickID>de.gempa.tb1.Pick/20250412203957.585806.126617</pickID><phase>P</phase><azimuth>307.0960998535156</azimuth><distance>2.8667333126068115</distance><timeResidual>0.056854248046875</timeResidual><timeUsed>true</timeUsed><horizontalSlownessUsed>false</horizontalSlownessUsed><backazimuthUsed>false</backazimuthUsed><weight>1</weight></arrival><arrival><pickID>de.gempa.tb1.Pick/20250412204001.226551.126620</pickID><phase>P</phase><azimuth>274.8845520019531</azimuth><distance>3.0081160068511963</distance><timeResidual>0.08185958862304688</timeResidual><timeUsed>true</timeUsed><horizontalSlownessUsed>false</horizontalSlownessUsed><backazimuthUsed>false</backazimuthUsed><weight>1</weight></arrival><arrival><pickID>de.gempa.tb1.Pick/20250412204003.554118.126622</pickID><phase>P</phase><azimuth>323.0699462890625</azimuth><distance>3.419477939605713</distance><timeResidual>-0.2725791931152344</timeResidual><timeUsed>true</timeUsed><horizontalSlownessUsed>false</horizontalSlownessUsed><backazimuthUsed>false</backazimuthUsed><weight>1</weight></arrival><arrival><pickID>de.gempa.tb1.Pick/20250412204004.640659.126626</pickID><phase>P</phase><azimuth>317.5831298828125</azimuth><distance>2.691664457321167</distance><timeResidual>0.7058296203613281</timeResidual><timeUsed>true</timeUsed><horizontalSlownessUsed>false</horizontalSlownessUsed><backazimuthUsed>false</backazimuthUsed><weight>1</weight></arrival><arrival><pickID>de.gempa.tb1.Pick/20250412204007.576716.126628</pickID><phase>P</phase><azimuth>315.23907470703125</azimuth><distance>3.453361749649048</distance><timeResidual>0.2637062072753906</timeResidual><timeUsed>true</timeUsed><horizontalSlownessUsed>false</horizontalSlownessUsed><backazimuthUsed>false</backazimuthUsed><weight>1</weight></arrival><arrival><pickID>de.gempa.tb1.Pick/20250412204020.629505.126630</pickID><phase>S</phase><azimuth>266.4974060058594</azimuth><distance>1.8356107473373413</distance><timeResidual>0.10125350952148438</timeResidual><timeUsed>true</timeUsed><horizontalSlownessUsed>false</horizontalSlownessUsed><backazimuthUsed>false</backazimuthUsed><weight>1</weight></arrival><arrival><pickID>de.gempa.tb1.Pick/20250412204029.590912.126632</pickID><phase>S</phase><azimuth>297.0706787109375</azimuth><distance>2.3677778244018555</distance><timeResidual>0.17101669311523438</timeResidual><timeUsed>true</timeUsed><horizontalSlownessUsed>false</horizontalSlownessUsed><backazimuthUsed>false</backazimuthUsed><weight>1</weight></arrival><arrival><pickID>de.gempa.tb1.Pick/20250412204032.300372.126633</pickID><phase>P</phase><azimuth>310.2816467285156</azimuth><distance>3.166407823562622</distance><timeResidual>-0.12182998657226562</timeResidual><timeUsed>true</timeUsed><horizontalSlownessUsed>false</horizontalSlownessUsed><backazimuthUsed>false</backazimuthUsed><weight>1</weight></arrival><arrival><pickID>de.gempa.tb1.Pick/20250412204039.785213.126635</pickID><phase>S</phase><azimuth>307.0960998535156</azimuth><distance>2.8667333126068115</distance><timeResidual>0.05513381958007812</timeResidual><timeUsed>true</timeUsed><horizontalSlownessUsed>false</horizontalSlownessUsed><backazimuthUsed>false</backazimuthUsed><weight>1</weight></arrival><arrival><pickID>de.gempa.tb1.Pick/20250412204049.682472.126636</pickID><phase>S</phase><azimuth>323.0699462890625</azimuth><distance>3.419477939605713</distance><timeResidual>-0.2899818420410156</timeResidual><timeUsed>true</timeUsed><horizontalSlownessUsed>false</horizontalSlownessUsed><backazimuthUsed>false</backazimuthUsed><weight>1</weight></arrival><arrival><pickID>de.gempa.tb1.Pick/20250412204052.498615.126637</pickID><phase>S</phase><azimuth>315.23907470703125</azimuth><distance>3.453361749649048</distance><timeResidual>-0.10241317749023438</timeResidual><timeUsed>true</timeUsed><horizontalSlownessUsed>false</horizontalSlownessUsed><backazimuthUsed>false</backazimuthUsed><weight>1</weight></arrival><magnitude publicID="de.gempa.tb1.Magnitude/20250412204100.939913.280620"><magnitude><value>3.226831868743569</value></magnitude><type>M</type><methodID>weighted average</methodID><stationCount>6</stationCount></magnitude></origin><event publicID="gempa2025hgdn"><preferredOriginID>de.gempa.tb1.Origin/20250412204052.502777.91781</preferredOriginID><preferredMagnitudeID>de.gempa.tb1.Magnitude/20250412204100.939913.280620</preferredMagnitudeID><description><text>Chile-Argentina Border Region</text><type>region name</type></description><originReference>de.gempa.tb1.Origin/20250412204052.502777.91781</originReference></event></EventParameters></seiscomp>