<?xml version="1.0" encoding="UTF-8"?>
<seiscomp xmlns="http://geofon.gfz-potsdam.de/ns/seiscomp3-schema/0.13" version="0.13"><EventParameters><pick publicID="de.gempa.tb1.Pick/20250414080306.568455.216415"><time><value>2025-04-14T08:03:04.735Z</value></time><waveformID networkCode="CH" stationCode="MMK" channelCode="HHZ"/><filterID>ITAPER(4)&gt;&gt;BW(4,4,20)</filterID><methodID>AIC</methodID><phaseHint>P</phaseHint><evaluationMode>automatic</evaluationMode></pick><pick publicID="de.gempa.tb1.Pick/20250414080307.117624.216417"><time><value>2025-04-14T08:03:04.345Z</value></time><waveformID networkCode="CH" stationCode="DIX" channelCode="HHZ"/><filterID>ITAPER(4)&gt;&gt;BW(4,4,20)</filterID><methodID>AIC</methodID><phaseHint>P</phaseHint><evaluationMode>automatic</evaluationMode></pick><pick publicID="de.gempa.tb1.Pick/20250414080310.823825.216419"><time><value>2025-04-14T08:03:08.94Z</value></time><waveformID networkCode="CH" stationCode="SIMPL" channelCode="HHZ"/><filterID>ITAPER(4)&gt;&gt;BW(4,4,20)</filterID><methodID>AIC</methodID><phaseHint>P</phaseHint><evaluationMode>automatic</evaluationMode></pick><pick publicID="de.gempa.tb1.Pick/20250414080311.205348.216421"><time><value>2025-04-14T08:03:07.639998Z</value></time><waveformID networkCode="CH" stationCode="SALAN" channelCode="HHZ"/><filterID>ITAPER(4)&gt;&gt;BW(4,4,20)</filterID><methodID>AIC</methodID><phaseHint>P</phaseHint><evaluationMode>automatic</evaluationMode></pick><pick publicID="de.gempa.tb1.Pick/20250414080311.498763.216423"><time><value>2025-04-14T08:03:09.32Z</value></time><waveformID networkCode="CH" stationCode="GRYON" channelCode="HHZ"/><filterID>ITAPER(4)&gt;&gt;BW(4,4,20)</filterID><methodID>AIC</methodID><phaseHint>P</phaseHint><evaluationMode>automatic</evaluationMode></pick><pick publicID="de.gempa.tb1.Pick/20250414080312.570455.216425"><time><value>2025-04-14T08:03:07.415Z</value></time><waveformID networkCode="CH" stationCode="VANNI" channelCode="HHZ"/><filterID>ITAPER(4)&gt;&gt;BW(4,4,20)</filterID><methodID>AIC</methodID><phaseHint>P</phaseHint><evaluationMode>automatic</evaluationMode></pick><pick publicID="de.gempa.tb1.Pick/20250414080313.041467.216427"><time><value>2025-04-14T08:03:08.015Z</value></time><waveformID networkCode="CH" stationCode="EMBD" channelCode="HHZ"/><filterID>ITAPER(4)&gt;&gt;BW(4,4,20)</filterID><methodID>AIC</methodID><phaseHint>P</phaseHint><evaluationMode>automatic</evaluationMode></pick><pick publicID="de.gempa.tb1.Pick/20250414080314.115266.216429"><time><value>2025-04-14T08:03:11.165Z</value></time><waveformID networkCode="CH" stationCode="SENIN" channelCode="HHZ"/><filterID>ITAPER(4)&gt;&gt;BW(4,4,20)</filterID><methodID>AIC</methodID><phaseHint>P</phaseHint><evaluationMode>automatic</evaluationMode></pick><pick publicID="de.gempa.tb1.Pick/20250414080314.601628.216431"><time><value>2025-04-14T08:03:11.93Z</value></time><waveformID networkCode="CH" stationCode="AIGLE" channelCode="HHZ"/><filterID>ITAPER(4)&gt;&gt;BW(4,4,20)</filterID><methodID>AIC</methodID><phaseHint>P</phaseHint><evaluationMode>automatic</evaluationMode></pick><origin publicID="de.gempa.tb1.Origin/20250414080314.604372.134653"><time><value>2025-04-14T08:02:51.622973Z</value><uncertainty>4.2221364974975586</uncertainty></time><latitude><value>45.3953857421875</value><uncertainty>26.166053771972656</uncertainty></latitude><longitude><value>7.586101055145264</value><uncertainty>6.784043312072754</uncertainty></longitude><depth><value>0</value></depth><depthType>operator assigned</depthType><methodID>LOCSAT</methodID><earthModelID>iasp91</earthModelID><quality><associatedPhaseCount>9</associatedPhaseCount><usedPhaseCount>9</usedPhaseCount><associatedStationCount>9</associatedStationCount><usedStationCount>9</usedStationCount><depthPhaseCount>0</depthPhaseCount><standardError>0.4215186498113172</standardError><azimuthalGap>308.53815269470215</azimuthalGap><maximumDistance>1.0445579290390015</maximumDistance><minimumDistance>0.6960354447364807</minimumDistance><medianDistance>0.8630743622779846</medianDistance></quality><uncertainty><minHorizontalUncertainty>13.56236457824707</minHorizontalUncertainty><maxHorizontalUncertainty>56.35440444946289</maxHorizontalUncertainty><azimuthMaxHorizontalUncertainty>174.4803009033203</azimuthMaxHorizontalUncertainty><preferredDescription>horizontal uncertainty</preferredDescription></uncertainty><evaluationMode>automatic</evaluationMode><evaluationStatus>confirmed</evaluationStatus><comment><text>0.01</text><id>mismatchScore</id></comment><comment><text>mismatchScore</text><id>scevalMethod</id></comment><arrival><pickID>de.gempa.tb1.Pick/20250414080306.568455.216415</pickID><phase>P</phase><azimuth>21.864435195922852</azimuth><distance>0.7066922783851624</distance><timeResidual>-0.4706211090087891</timeResidual><timeUsed>true</timeUsed><horizontalSlownessUsed>false</horizontalSlownessUsed><backazimuthUsed>false</backazimuthUsed><weight>1</weight></arrival><arrival><pickID>de.gempa.tb1.Pick/20250414080307.117624.216417</pickID><phase>P</phase><azimuth>349.7488708496094</azimuth><distance>0.6960354447364807</distance><timeResidual>-0.6579456329345703</timeResidual><timeUsed>true</timeUsed><horizontalSlownessUsed>false</horizontalSlownessUsed><backazimuthUsed>false</backazimuthUsed><weight>1</weight></arrival><arrival><pickID>de.gempa.tb1.Pick/20250414080310.823825.216419</pickID><phase>P</phase><azimuth>19.594776153564453</azimuth><distance>0.8971441984176636</distance><timeResidual>0.1135234832763672</timeResidual><timeUsed>true</timeUsed><horizontalSlownessUsed>false</horizontalSlownessUsed><backazimuthUsed>false</backazimuthUsed><weight>1</weight></arrival><arrival><pickID>de.gempa.tb1.Pick/20250414080311.205348.216421</pickID><phase>P</phase><azimuth>330.402587890625</azimuth><distance>0.8630743622779846</distance><timeResidual>-0.538848876953125</timeResidual><timeUsed>true</timeUsed><horizontalSlownessUsed>false</horizontalSlownessUsed><backazimuthUsed>false</backazimuthUsed><weight>1</weight></arrival><arrival><pickID>de.gempa.tb1.Pick/20250414080311.498763.216423</pickID><phase>P</phase><azimuth>338.9437561035156</azimuth><distance>0.917529821395874</distance><timeResidual>0.10593986511230469</timeResidual><timeUsed>true</timeUsed><horizontalSlownessUsed>false</horizontalSlownessUsed><backazimuthUsed>false</backazimuthUsed><weight>1</weight></arrival><arrival><pickID>de.gempa.tb1.Pick/20250414080312.570455.216425</pickID><phase>P</phase><azimuth>0.5214610695838928</azimuth><distance>0.8148435950279236</distance><timeResidual>0.1533050537109375</timeResidual><timeUsed>true</timeUsed><horizontalSlownessUsed>false</horizontalSlownessUsed><backazimuthUsed>false</backazimuthUsed><weight>1</weight></arrival><arrival><pickID>de.gempa.tb1.Pick/20250414080313.041467.216427</pickID><phase>P</phase><azimuth>11.751843452453613</azimuth><distance>0.8391199111938477</distance><timeResidual>0.2917366027832031</timeResidual><timeUsed>true</timeUsed><horizontalSlownessUsed>false</horizontalSlownessUsed><backazimuthUsed>false</backazimuthUsed><weight>1</weight></arrival><arrival><pickID>de.gempa.tb1.Pick/20250414080314.115266.216429</pickID><phase>P</phase><azimuth>348.410400390625</azimuth><distance>0.9886536002159119</distance><timeResidual>0.5988140106201172</timeResidual><timeUsed>true</timeUsed><horizontalSlownessUsed>false</horizontalSlownessUsed><backazimuthUsed>false</backazimuthUsed><weight>1</weight></arrival><arrival><pickID>de.gempa.tb1.Pick/20250414080314.601628.216431</pickID><phase>P</phase><azimuth>335.18646240234375</azimuth><distance>1.0445579290390015</distance><timeResidual>0.403813362121582</timeResidual><timeUsed>true</timeUsed><horizontalSlownessUsed>false</horizontalSlownessUsed><backazimuthUsed>false</backazimuthUsed><weight>1</weight></arrival><magnitude publicID="de.gempa.tb1.Magnitude/20250414080321.511715.449234"><magnitude><value>2.179208699101185</value></magnitude><type>M</type><methodID>weighted average</methodID><stationCount>7</stationCount></magnitude></origin><event publicID="gempa2025hiwj"><preferredOriginID>de.gempa.tb1.Origin/20250414080314.604372.134653</preferredOriginID><preferredMagnitudeID>de.gempa.tb1.Magnitude/20250414080321.511715.449234</preferredMagnitudeID><description><text>Northern Italy</text><type>region name</type></description><originReference>de.gempa.tb1.Origin/20250414080314.604372.134653</originReference></event></EventParameters></seiscomp>