<?xml version="1.0" encoding="UTF-8"?>
<seiscomp xmlns="http://geofon.gfz-potsdam.de/ns/seiscomp3-schema/0.13" version="0.13"><EventParameters><pick publicID="de.gempa.tb1.Pick/20250414212106.575496.141358"><time><value>2025-04-14T21:20:59.298393Z</value></time><waveformID networkCode="CX" stationCode="PB01" channelCode="HHZ"/><filterID>ITAPER(4)&gt;&gt;BW(4,4,20)</filterID><methodID>AIC</methodID><horizontalSlowness><value>23.43424208337552</value></horizontalSlowness><backazimuth><value>172.3406991276601</value></backazimuth><phaseHint>P</phaseHint><evaluationMode>automatic</evaluationMode><comment><text>48.0766343853196</text><id>DFX:rectilinearity</id></comment><comment><text>10.089931456617416</text><id>SNR</id></comment></pick><pick publicID="de.gempa.tb1.Pick/20250414212111.490615.141360"><time><value>2025-04-14T21:21:03.828393Z</value></time><waveformID networkCode="CX" stationCode="PB02" channelCode="HHZ"/><filterID>ITAPER(4)&gt;&gt;BW(4,4,20)</filterID><methodID>AIC</methodID><horizontalSlowness><value>18.38530844092126</value></horizontalSlowness><backazimuth><value>272.1748429432666</value></backazimuth><phaseHint>P</phaseHint><evaluationMode>automatic</evaluationMode><comment><text>27.249889183489817</text><id>DFX:rectilinearity</id></comment><comment><text>10.046015932570642</text><id>SNR</id></comment></pick><pick publicID="de.gempa.tb1.Pick/20250414212113.185475.141362"><time><value>2025-04-14T21:21:00.67Z</value></time><waveformID networkCode="CX" stationCode="PB09" channelCode="HHZ"/><filterID>ITAPER(4)&gt;&gt;BW(4,4,20)</filterID><methodID>AIC</methodID><horizontalSlowness><value>22.797048876984597</value></horizontalSlowness><backazimuth><value>264.64902806112116</value></backazimuth><phaseHint>P</phaseHint><evaluationMode>automatic</evaluationMode><comment><text>10.799034054781746</text><id>DFX:rectilinearity</id></comment><comment><text>11.089879623215122</text><id>SNR</id></comment></pick><pick publicID="de.gempa.tb1.Pick/20250414212118.586153.141364"><time><value>2025-04-14T21:21:11.700001Z</value></time><waveformID networkCode="CX" stationCode="PSGCX" channelCode="HHZ"/><filterID>ITAPER(4)&gt;&gt;BW(4,4,20)</filterID><methodID>AIC</methodID><horizontalSlowness><value>22.198571980981626</value></horizontalSlowness><backazimuth><value>315.26563317017303</value></backazimuth><phaseHint>P</phaseHint><evaluationMode>automatic</evaluationMode><comment><text>11.4995716635426</text><id>DFX:rectilinearity</id></comment><comment><text>18.239834304761416</text><id>SNR</id></comment></pick><pick publicID="de.gempa.tb1.Pick/20250414212124.612276.141366"><time><value>2025-04-14T21:21:17.218393Z</value></time><waveformID networkCode="CX" stationCode="PB01" channelCode="HHN"/><filterID>ITAPER(2)&gt;&gt;BW(3,3,20)</filterID><methodID>L2-AIC-GRID</methodID><horizontalSlowness><value>21.61723207347179</value></horizontalSlowness><backazimuth><value>338.99736888054753</value></backazimuth><phaseHint>S</phaseHint><evaluationMode>automatic</evaluationMode><comment><text>40.00562836647781</text><id>DFX:rectilinearity</id></comment><comment><text>de.gempa.tb1.Pick/20250414212106.575496.141358</text><id>RefPickID</id></comment><comment><text>7.661454957581869</text><id>SNR</id></comment></pick><pick publicID="de.gempa.tb1.Pick/20250414212134.511198.141367"><time><value>2025-04-14T21:21:25.448393Z</value></time><waveformID networkCode="CX" stationCode="PB02" channelCode="HHN"/><filterID>ITAPER(2)&gt;&gt;BW(3,3,20)</filterID><methodID>L2-AIC-GRID</methodID><horizontalSlowness><value>18.270390396652704</value></horizontalSlowness><backazimuth><value>44.496922998213336</value></backazimuth><phaseHint>S</phaseHint><evaluationMode>automatic</evaluationMode><comment><text>39.536913635760904</text><id>DFX:rectilinearity</id></comment><comment><text>de.gempa.tb1.Pick/20250414212111.490615.141360</text><id>RefPickID</id></comment><comment><text>6.980285535021313</text><id>SNR</id></comment></pick><pick publicID="de.gempa.tb1.Pick/20250414212145.995923.141369"><time><value>2025-04-14T21:21:05.418393Z</value></time><waveformID networkCode="CX" stationCode="PB07" channelCode="HHZ"/><filterID>ITAPER(4)&gt;&gt;BW(4,4,20)</filterID><methodID>AIC</methodID><horizontalSlowness><value>12.809510338950751</value></horizontalSlowness><backazimuth><value>250.69195856660664</value></backazimuth><phaseHint>P</phaseHint><evaluationMode>automatic</evaluationMode><comment><text>110.57391356041254</text><id>DFX:rectilinearity</id></comment><comment><text>9.215493162647657</text><id>SNR</id></comment></pick><pick publicID="de.gempa.tb1.Pick/20250414212148.773097.141372"><time><value>2025-04-14T21:21:39.590001Z</value></time><waveformID networkCode="CX" stationCode="PSGCX" channelCode="HHN"/><filterID>ITAPER(2)&gt;&gt;BW(3,3,20)</filterID><methodID>L2-AIC-GRID</methodID><horizontalSlowness><value>14.93910705645751</value></horizontalSlowness><backazimuth><value>183.54517274116102</value></backazimuth><phaseHint>S</phaseHint><evaluationMode>automatic</evaluationMode><comment><text>8.870576798135405</text><id>DFX:rectilinearity</id></comment><comment><text>de.gempa.tb1.Pick/20250414212118.586153.141364</text><id>RefPickID</id></comment><comment><text>6.169582844070741</text><id>SNR</id></comment></pick><origin publicID="de.gempa.tb1.Origin/20250414212148.775867.151387"><time><value>2025-04-14T21:20:36.181507Z</value><uncertainty>1.156524419784546</uncertainty></time><latitude><value>-20.954572677612305</value><uncertainty>7.160999298095703</uncertainty></latitude><longitude><value>-68.33865356445312</value><uncertainty>16.6864070892334</uncertainty></longitude><depth><value>124.0753631591797</value><uncertainty>21.010284423828125</uncertainty></depth><depthType>from location</depthType><methodID>LOCSAT</methodID><earthModelID>iasp91_scanloc</earthModelID><quality><associatedPhaseCount>8</associatedPhaseCount><usedPhaseCount>8</usedPhaseCount><associatedStationCount>5</associatedStationCount><usedStationCount>5</usedStationCount><depthPhaseCount>0</depthPhaseCount><standardError>0.09271412862573136</standardError><azimuthalGap>276.4165954589844</azimuthalGap><maximumDistance>2.1516895294189453</maximumDistance><minimumDistance>1.0769881010055542</minimumDistance><medianDistance>1.498561143875122</medianDistance></quality><uncertainty><minHorizontalUncertainty>11.826390266418457</minHorizontalUncertainty><maxHorizontalUncertainty>37.09812545776367</maxHorizontalUncertainty><azimuthMaxHorizontalUncertainty>73.82595825195312</azimuthMaxHorizontalUncertainty><preferredDescription>horizontal uncertainty</preferredDescription></uncertainty><evaluationMode>automatic</evaluationMode><evaluationStatus>confirmed</evaluationStatus><comment><text>0.23</text><id>mismatchScore</id></comment><comment><text>mismatchScore</text><id>scevalMethod</id></comment><arrival><pickID>de.gempa.tb1.Pick/20250414212106.575496.141358</pickID><phase>P</phase><azimuth>265.09722900390625</azimuth><distance>1.0769881010055542</distance><timeResidual>-0.06167984008789062</timeResidual><timeUsed>true</timeUsed><horizontalSlownessUsed>false</horizontalSlownessUsed><backazimuthUsed>false</backazimuthUsed><weight>1</weight></arrival><arrival><pickID>de.gempa.tb1.Pick/20250414212111.490615.141360</pickID><phase>P</phase><azimuth>255.68988037109375</azimuth><distance>1.498561143875122</distance><timeResidual>-0.06938934326171875</timeResidual><timeUsed>true</timeUsed><horizontalSlownessUsed>false</horizontalSlownessUsed><backazimuthUsed>false</backazimuthUsed><weight>1</weight></arrival><arrival><pickID>de.gempa.tb1.Pick/20250414212113.185475.141362</pickID><phase>P</phase><azimuth>224.98126220703125</azimuth><distance>1.1876060962677002</distance><timeResidual>0.1840381622314453</timeResidual><timeUsed>true</timeUsed><horizontalSlownessUsed>false</horizontalSlownessUsed><backazimuthUsed>false</backazimuthUsed><weight>1</weight></arrival><arrival><pickID>de.gempa.tb1.Pick/20250414212118.586153.141364</pickID><phase>P</phase><azimuth>308.5646667480469</azimuth><distance>2.1516895294189453</distance><timeResidual>-0.06708908081054688</timeResidual><timeUsed>true</timeUsed><horizontalSlownessUsed>false</horizontalSlownessUsed><backazimuthUsed>false</backazimuthUsed><weight>1</weight></arrival><arrival><pickID>de.gempa.tb1.Pick/20250414212124.612276.141366</pickID><phase>S</phase><azimuth>265.09722900390625</azimuth><distance>1.0769881010055542</distance><timeResidual>-0.08244132995605469</timeResidual><timeUsed>true</timeUsed><horizontalSlownessUsed>false</horizontalSlownessUsed><backazimuthUsed>false</backazimuthUsed><weight>1</weight></arrival><arrival><pickID>de.gempa.tb1.Pick/20250414212134.511198.141367</pickID><phase>S</phase><azimuth>255.68988037109375</azimuth><distance>1.498561143875122</distance><timeResidual>0.04200935363769531</timeResidual><timeUsed>true</timeUsed><horizontalSlownessUsed>false</horizontalSlownessUsed><backazimuthUsed>false</backazimuthUsed><weight>1</weight></arrival><arrival><pickID>de.gempa.tb1.Pick/20250414212145.995923.141369</pickID><phase>P</phase><azimuth>241.6847229003906</azimuth><distance>1.63448965549469</distance><timeResidual>-0.049468994140625</timeResidual><timeUsed>true</timeUsed><horizontalSlownessUsed>false</horizontalSlownessUsed><backazimuthUsed>false</backazimuthUsed><weight>1</weight></arrival><arrival><pickID>de.gempa.tb1.Pick/20250414212148.773097.141372</pickID><phase>S</phase><azimuth>308.5646667480469</azimuth><distance>2.1516895294189453</distance><timeResidual>0.10377120971679688</timeResidual><timeUsed>true</timeUsed><horizontalSlownessUsed>false</horizontalSlownessUsed><backazimuthUsed>false</backazimuthUsed><weight>1</weight></arrival><magnitude publicID="de.gempa.tb1.Magnitude/20250414212150.936577.542702"><magnitude><value>2.3046130480045086</value></magnitude><type>M</type><methodID>weighted average</methodID><stationCount>4</stationCount></magnitude></origin><event publicID="gempa2025hjwy"><preferredOriginID>de.gempa.tb1.Origin/20250414212148.775867.151387</preferredOriginID><preferredMagnitudeID>de.gempa.tb1.Magnitude/20250414212150.936577.542702</preferredMagnitudeID><description><text>Chile-Bolivia Border Region</text><type>region name</type></description><originReference>de.gempa.tb1.Origin/20250414212148.775867.151387</originReference></event></EventParameters></seiscomp>