<?xml version="1.0" encoding="UTF-8"?>
<seiscomp xmlns="http://geofon.gfz-potsdam.de/ns/seiscomp3-schema/0.13" version="0.13"><EventParameters><pick publicID="de.gempa.tb1.Pick/20250413064854.603261.129592"><time><value>2025-04-13T06:48:47.759998Z</value></time><waveformID networkCode="CX" stationCode="PB09" channelCode="HHZ"/><filterID>ITAPER(4)&gt;&gt;BW(4,4,20)</filterID><methodID>AIC</methodID><horizontalSlowness><value>10.960456160492493</value></horizontalSlowness><backazimuth><value>329.9868231784674</value></backazimuth><phaseHint>P</phaseHint><evaluationMode>automatic</evaluationMode><comment><text>23.21874106246736</text><id>DFX:rectilinearity</id></comment><comment><text>37.22593289402306</text><id>SNR</id></comment></pick><pick publicID="de.gempa.tb1.Pick/20250413064857.492355.129594"><time><value>2025-04-13T06:48:51.938393Z</value></time><waveformID networkCode="CX" stationCode="PB01" channelCode="HHZ"/><filterID>ITAPER(4)&gt;&gt;BW(4,4,20)</filterID><methodID>AIC</methodID><horizontalSlowness><value>23.320281963384975</value></horizontalSlowness><backazimuth><value>137.8789750581565</value></backazimuth><phaseHint>P</phaseHint><evaluationMode>automatic</evaluationMode><comment><text>16.52226019148686</text><id>DFX:rectilinearity</id></comment><comment><text>49.85442026971839</text><id>SNR</id></comment></pick><pick publicID="de.gempa.tb1.Pick/20250413064859.526128.129596"><time><value>2025-04-13T06:48:51.348393Z</value></time><waveformID networkCode="CX" stationCode="PB03" channelCode="HHZ"/><filterID>ITAPER(4)&gt;&gt;BW(4,4,20)</filterID><methodID>AIC</methodID><horizontalSlowness><value>18.798247175889568</value></horizontalSlowness><backazimuth><value>178.45022074627002</value></backazimuth><phaseHint>P</phaseHint><evaluationMode>automatic</evaluationMode><comment><text>15.45386273339328</text><id>DFX:rectilinearity</id></comment><comment><text>18.68439740034346</text><id>SNR</id></comment></pick><pick publicID="de.gempa.tb1.Pick/20250413064900.608661.129598"><time><value>2025-04-13T06:48:53.608393Z</value></time><waveformID networkCode="CX" stationCode="PB02" channelCode="HHZ"/><filterID>ITAPER(4)&gt;&gt;BW(4,4,20)</filterID><methodID>AIC</methodID><horizontalSlowness><value>6.862927121483457</value></horizontalSlowness><backazimuth><value>334.0970321292532</value></backazimuth><phaseHint>P</phaseHint><evaluationMode>automatic</evaluationMode><comment><text>30.656684820872517</text><id>DFX:rectilinearity</id></comment><comment><text>11.878744835595503</text><id>SNR</id></comment></pick><pick publicID="de.gempa.tb1.Pick/20250413064907.324039.129600"><time><value>2025-04-13T06:48:52.518393Z</value></time><waveformID networkCode="CX" stationCode="PB07" channelCode="HHZ"/><filterID>ITAPER(4)&gt;&gt;BW(4,4,20)</filterID><methodID>AIC</methodID><horizontalSlowness><value>21.06538055373854</value></horizontalSlowness><backazimuth><value>159.3843570451043</value></backazimuth><phaseHint>P</phaseHint><evaluationMode>automatic</evaluationMode><comment><text>293.7997378233432</text><id>DFX:rectilinearity</id></comment><comment><text>44.924088728175107</text><id>SNR</id></comment></pick><pick publicID="de.gempa.tb1.Pick/20250413064915.57753.129604"><time><value>2025-04-13T06:49:07.768393Z</value></time><waveformID networkCode="CX" stationCode="PB03" channelCode="HHN"/><filterID>ITAPER(2)&gt;&gt;BW(3,3,20)</filterID><methodID>L2-AIC-GRID</methodID><horizontalSlowness><value>10.128828183755214</value></horizontalSlowness><backazimuth><value>228.30414205398753</value></backazimuth><phaseHint>S</phaseHint><evaluationMode>automatic</evaluationMode><comment><text>20.775273920368559</text><id>DFX:rectilinearity</id></comment><comment><text>de.gempa.tb1.Pick/20250413064859.526128.129596</text><id>RefPickID</id></comment><comment><text>13.630857950325375</text><id>SNR</id></comment></pick><pick publicID="de.gempa.tb1.Pick/20250413064925.769888.129605"><time><value>2025-04-13T06:49:01.629998Z</value></time><waveformID networkCode="CX" stationCode="PB09" channelCode="HHN"/><filterID>ITAPER(2)&gt;&gt;BW(3,3,20)</filterID><methodID>L2-AIC-GRID</methodID><horizontalSlowness><value>21.44328983453467</value></horizontalSlowness><backazimuth><value>241.2913422451736</value></backazimuth><phaseHint>S</phaseHint><evaluationMode>automatic</evaluationMode><comment><text>19.54414199260487</text><id>DFX:rectilinearity</id></comment><comment><text>de.gempa.tb1.Pick/20250413064854.603261.129592</text><id>RefPickID</id></comment><comment><text>5.654989532217981</text><id>SNR</id></comment></pick><origin publicID="de.gempa.tb1.Origin/20250413064925.772654.103513"><time><value>2025-04-13T06:48:30.061216Z</value><uncertainty>1.7868489027023315</uncertainty></time><latitude><value>-21.80214500427246</value><uncertainty>14.875029563903809</uncertainty></latitude><longitude><value>-68.83394622802734</value><uncertainty>16.502174377441406</uncertainty></longitude><depth><value>123.84708404541016</value><uncertainty>9.550790786743164</uncertainty></depth><depthType>from location</depthType><methodID>LOCSAT</methodID><earthModelID>iasp91_scanloc</earthModelID><quality><associatedPhaseCount>7</associatedPhaseCount><usedPhaseCount>7</usedPhaseCount><associatedStationCount>5</associatedStationCount><usedStationCount>5</usedStationCount><depthPhaseCount>0</depthPhaseCount><standardError>0.16597772303851632</standardError><azimuthalGap>292.8005065917969</azimuthalGap><maximumDistance>1.0990333557128906</maximumDistance><minimumDistance>0.379192590713501</minimumDistance><medianDistance>0.8879683017730713</medianDistance></quality><uncertainty><minHorizontalUncertainty>23.010995864868164</minHorizontalUncertainty><maxHorizontalUncertainty>41.71831512451172</maxHorizontalUncertainty><azimuthMaxHorizontalUncertainty>129.40980529785156</azimuthMaxHorizontalUncertainty><preferredDescription>horizontal uncertainty</preferredDescription></uncertainty><evaluationMode>automatic</evaluationMode><evaluationStatus>confirmed</evaluationStatus><comment><text>0.00</text><id>mismatchScore</id></comment><comment><text>mismatchScore</text><id>scevalMethod</id></comment><arrival><pickID>de.gempa.tb1.Pick/20250413064854.603261.129592</pickID><phase>P</phase><azimuth>270.7917175292969</azimuth><distance>0.379192590713501</distance><timeResidual>-0.04965019226074219</timeResidual><timeUsed>true</timeUsed><horizontalSlownessUsed>false</horizontalSlownessUsed><backazimuthUsed>false</backazimuthUsed><weight>1</weight></arrival><arrival><pickID>de.gempa.tb1.Pick/20250413064857.492355.129594</pickID><phase>P</phase><azimuth>321.0041198730469</azimuth><distance>0.9700413942337036</distance><timeResidual>-0.2450084686279297</timeResidual><timeUsed>true</timeUsed><horizontalSlownessUsed>false</horizontalSlownessUsed><backazimuthUsed>false</backazimuthUsed><weight>1</weight></arrival><arrival><pickID>de.gempa.tb1.Pick/20250413064859.526128.129596</pickID><phase>P</phase><azimuth>253.80462646484375</azimuth><distance>0.8879683017730713</distance><timeResidual>-0.07042884826660156</timeResidual><timeUsed>true</timeUsed><horizontalSlownessUsed>false</horizontalSlownessUsed><backazimuthUsed>false</backazimuthUsed><weight>1</weight></arrival><arrival><pickID>de.gempa.tb1.Pick/20250413064900.608661.129598</pickID><phase>P</phase><azimuth>295.7045593261719</azimuth><distance>1.0990333557128906</distance><timeResidual>0.1643657684326172</timeResidual><timeUsed>true</timeUsed><horizontalSlownessUsed>false</horizontalSlownessUsed><backazimuthUsed>false</backazimuthUsed><weight>1</weight></arrival><arrival><pickID>de.gempa.tb1.Pick/20250413064907.324039.129600</pickID><phase>P</phase><azimuth>274.1969299316406</azimuth><distance>0.9809991717338562</distance><timeResidual>0.23508644104003906</timeResidual><timeUsed>true</timeUsed><horizontalSlownessUsed>false</horizontalSlownessUsed><backazimuthUsed>false</backazimuthUsed><weight>1</weight></arrival><arrival><pickID>de.gempa.tb1.Pick/20250413064915.57753.129604</pickID><phase>S</phase><azimuth>253.80462646484375</azimuth><distance>0.8879683017730713</distance><timeResidual>-0.16303062438964844</timeResidual><timeUsed>true</timeUsed><horizontalSlownessUsed>false</horizontalSlownessUsed><backazimuthUsed>false</backazimuthUsed><weight>1</weight></arrival><arrival><pickID>de.gempa.tb1.Pick/20250413064925.769888.129605</pickID><phase>S</phase><azimuth>270.7917175292969</azimuth><distance>0.379192590713501</distance><timeResidual>0.12854957580566406</timeResidual><timeUsed>true</timeUsed><horizontalSlownessUsed>false</horizontalSlownessUsed><backazimuthUsed>false</backazimuthUsed><weight>1</weight></arrival><magnitude publicID="de.gempa.tb1.Magnitude/20250413065012.824643.325398"><magnitude><value>2.632755229029072</value></magnitude><type>M</type><methodID>weighted average</methodID><stationCount>3</stationCount></magnitude></origin><event publicID="gempa2025hgxw"><preferredOriginID>de.gempa.tb1.Origin/20250413064925.772654.103513</preferredOriginID><preferredMagnitudeID>de.gempa.tb1.Magnitude/20250413065012.824643.325398</preferredMagnitudeID><description><text>Chile-Bolivia Border Region</text><type>region name</type></description><originReference>de.gempa.tb1.Origin/20250413064925.772654.103513</originReference></event></EventParameters></seiscomp>