<?xml version="1.0" encoding="UTF-8"?>
<seiscomp xmlns="http://geofon.gfz-potsdam.de/ns/seiscomp3-schema/0.13" version="0.13"><EventParameters><pick publicID="de.gempa.tb1.Pick/20250414210654.773.141259"><time><value>2025-04-14T21:06:48.458393Z</value></time><waveformID networkCode="CX" stationCode="PB06" channelCode="HHZ"/><filterID>ITAPER(4)&gt;&gt;BW(4,4,20)</filterID><methodID>AIC</methodID><horizontalSlowness><value>19.238290883585208</value></horizontalSlowness><backazimuth><value>108.16997528349059</value></backazimuth><phaseHint>P</phaseHint><evaluationMode>automatic</evaluationMode><comment><text>1094.501863205915</text><id>DFX:rectilinearity</id></comment><comment><text>11.66249046347274</text><id>SNR</id></comment></pick><pick publicID="de.gempa.tb1.Pick/20250414210656.675579.141261"><time><value>2025-04-14T21:06:51.848393Z</value></time><waveformID networkCode="CX" stationCode="PB06" channelCode="HHN"/><filterID>ITAPER(2)&gt;&gt;BW(3,3,20)</filterID><methodID>L2-AIC-GRID</methodID><horizontalSlowness><value>5.866281126523655</value></horizontalSlowness><backazimuth><value>213.84982935493318</value></backazimuth><phaseHint>S</phaseHint><evaluationMode>automatic</evaluationMode><comment><text>9072.593340930123</text><id>DFX:rectilinearity</id></comment><comment><text>de.gempa.tb1.Pick/20250414210654.773.141259</text><id>RefPickID</id></comment><comment><text>5.351973656682584</text><id>SNR</id></comment></pick><pick publicID="de.gempa.tb1.Pick/20250414210658.697587.141262"><time><value>2025-04-14T21:06:51.688393Z</value></time><waveformID networkCode="CX" stationCode="PB15" channelCode="HHZ"/><filterID>ITAPER(4)&gt;&gt;BW(4,4,20)</filterID><methodID>AIC</methodID><horizontalSlowness><value>21.398467673651627</value></horizontalSlowness><backazimuth><value>37.420232124672197</value></backazimuth><phaseHint>P</phaseHint><evaluationMode>automatic</evaluationMode><comment><text>4810.11735261604</text><id>DFX:rectilinearity</id></comment><comment><text>12.028883079973678</text><id>SNR</id></comment></pick><pick publicID="de.gempa.tb1.Pick/20250414210705.772743.141266"><time><value>2025-04-14T21:06:59.658393Z</value></time><waveformID networkCode="CX" stationCode="PB03" channelCode="HHZ"/><filterID>ITAPER(4)&gt;&gt;BW(4,4,20)</filterID><methodID>AIC</methodID><horizontalSlowness><value>15.267242069051367</value></horizontalSlowness><backazimuth><value>155.1153087434926</value></backazimuth><phaseHint>P</phaseHint><evaluationMode>automatic</evaluationMode><comment><text>78.21364268961858</text><id>DFX:rectilinearity</id></comment><comment><text>8.639937665735618</text><id>SNR</id></comment></pick><pick publicID="de.gempa.tb1.Pick/20250414210712.186466.141270"><time><value>2025-04-14T21:07:06.810001Z</value></time><waveformID networkCode="CX" stationCode="PB10" channelCode="HHZ"/><filterID>ITAPER(4)&gt;&gt;BW(4,4,20)</filterID><methodID>AIC</methodID><horizontalSlowness><value>6.88487059214818</value></horizontalSlowness><backazimuth><value>32.631990412296147</value></backazimuth><phaseHint>P</phaseHint><evaluationMode>automatic</evaluationMode><comment><text>93.64502497151396</text><id>DFX:rectilinearity</id></comment><comment><text>17.238165299283047</text><id>SNR</id></comment></pick><pick publicID="de.gempa.tb1.Pick/20250414210723.734182.141276"><time><value>2025-04-14T21:07:16.568393Z</value></time><waveformID networkCode="CX" stationCode="PB01" channelCode="HHZ"/><filterID>ITAPER(4)&gt;&gt;BW(4,4,20)</filterID><methodID>AIC</methodID><horizontalSlowness><value>19.858768059516237</value></horizontalSlowness><backazimuth><value>181.8611022762826</value></backazimuth><phaseHint>P</phaseHint><evaluationMode>automatic</evaluationMode><comment><text>22.43976648398619</text><id>DFX:rectilinearity</id></comment><comment><text>15.067716685307158</text><id>SNR</id></comment></pick><pick publicID="de.gempa.tb1.Pick/20250414210748.535394.141284"><time><value>2025-04-14T21:07:39.66Z</value></time><waveformID networkCode="CX" stationCode="PSGCX" channelCode="HHZ"/><filterID>ITAPER(4)&gt;&gt;BW(4,4,20)</filterID><methodID>AIC</methodID><horizontalSlowness><value>11.199828448271939</value></horizontalSlowness><backazimuth><value>21.264385896509168</value></backazimuth><phaseHint>P</phaseHint><evaluationMode>automatic</evaluationMode><comment><text>18.827358162253134</text><id>DFX:rectilinearity</id></comment><comment><text>8.277654909609456</text><id>SNR</id></comment></pick><origin publicID="de.gempa.tb1.Origin/20250414210750.616297.151024"><time><value>2025-04-14T21:06:44.869242Z</value><uncertainty>0.562004029750824</uncertainty></time><latitude><value>-22.876514434814453</value><uncertainty>2.6373937129974365</uncertainty></latitude><longitude><value>-69.49263763427734</value><uncertainty>7.089912414550781</uncertainty></longitude><depth><value>0</value></depth><depthType>operator assigned</depthType><methodID>LOCSAT</methodID><earthModelID>iasp91_scanloc</earthModelID><quality><associatedPhaseCount>7</associatedPhaseCount><usedPhaseCount>7</usedPhaseCount><associatedStationCount>6</associatedStationCount><usedStationCount>6</usedStationCount><depthPhaseCount>0</depthPhaseCount><standardError>1.0331266456838974</standardError><azimuthalGap>176.38364362716675</azimuthalGap><maximumDistance>3.315666913986206</maximumDistance><minimumDistance>0.1849801242351532</minimumDistance><medianDistance>0.8586034178733826</medianDistance></quality><uncertainty><minHorizontalUncertainty>5.555208683013916</minHorizontalUncertainty><maxHorizontalUncertainty>15.246699333190918</maxHorizontalUncertainty><azimuthMaxHorizontalUncertainty>85.67146301269531</azimuthMaxHorizontalUncertainty><preferredDescription>horizontal uncertainty</preferredDescription></uncertainty><evaluationMode>automatic</evaluationMode><evaluationStatus>confirmed</evaluationStatus><comment><text>0.40</text><id>mismatchScore</id></comment><comment><text>mismatchScore</text><id>scevalMethod</id></comment><arrival><pickID>de.gempa.tb1.Pick/20250414210654.773.141259</pickID><phase>P</phase><azimuth>336.6991271972656</azimuth><distance>0.1849801242351532</distance><timeResidual>0.040851593017578125</timeResidual><timeUsed>true</timeUsed><horizontalSlownessUsed>false</horizontalSlownessUsed><backazimuthUsed>false</backazimuthUsed><weight>1</weight></arrival><arrival><pickID>de.gempa.tb1.Pick/20250414210656.675579.141261</pickID><phase>S</phase><azimuth>336.6991271972656</azimuth><distance>0.1849801242351532</distance><timeResidual>0.8543331623077393</timeResidual><timeUsed>true</timeUsed><horizontalSlownessUsed>false</horizontalSlownessUsed><backazimuthUsed>false</backazimuthUsed><weight>1</weight></arrival><arrival><pickID>de.gempa.tb1.Pick/20250414210658.697587.141262</pickID><phase>P</phase><azimuth>176.5374298095703</azimuth><distance>0.3308807611465454</distance><timeResidual>0.4730215072631836</timeResidual><timeUsed>true</timeUsed><horizontalSlownessUsed>false</horizontalSlownessUsed><backazimuthUsed>false</backazimuthUsed><weight>1</weight></arrival><arrival><pickID>de.gempa.tb1.Pick/20250414210705.772743.141266</pickID><phase>P</phase><azimuth>343.6537170410156</azimuth><distance>0.8586034178733826</distance><timeResidual>-1.6801481246948242</timeResidual><timeUsed>true</timeUsed><horizontalSlownessUsed>false</horizontalSlownessUsed><backazimuthUsed>false</backazimuthUsed><weight>1</weight></arrival><arrival><pickID>de.gempa.tb1.Pick/20250414210712.186466.141270</pickID><phase>P</phase><azimuth>236.8047180175781</azimuth><distance>1.1643646955490112</distance><timeResidual>-0.3911762237548828</timeResidual><timeUsed>true</timeUsed><horizontalSlownessUsed>false</horizontalSlownessUsed><backazimuthUsed>false</backazimuthUsed><weight>1</weight></arrival><arrival><pickID>de.gempa.tb1.Pick/20250414210723.734182.141276</pickID><phase>P</phase><azimuth>0.15378618240356445</azimuth><distance>1.824423909187317</distance><timeResidual>-0.9322643280029297</timeResidual><timeUsed>true</timeUsed><horizontalSlownessUsed>false</horizontalSlownessUsed><backazimuthUsed>false</backazimuthUsed><weight>1</weight></arrival><arrival><pickID>de.gempa.tb1.Pick/20250414210748.535394.141284</pickID><phase>P</phase><azimuth>349.668212890625</azimuth><distance>3.315666913986206</distance><timeResidual>1.6343555450439453</timeResidual><timeUsed>true</timeUsed><horizontalSlownessUsed>false</horizontalSlownessUsed><backazimuthUsed>false</backazimuthUsed><weight>1</weight></arrival><magnitude publicID="de.gempa.tb1.Magnitude/20250414210854.939927.541359"><magnitude><value>2.2067436044739694</value></magnitude><type>M</type><methodID>weighted average</methodID><stationCount>5</stationCount></magnitude></origin><event publicID="gempa2025hjwo"><preferredOriginID>de.gempa.tb1.Origin/20250414210750.616297.151024</preferredOriginID><preferredMagnitudeID>de.gempa.tb1.Magnitude/20250414210854.939927.541359</preferredMagnitudeID><description><text>Northern Chile</text><type>region name</type></description><originReference>de.gempa.tb1.Origin/20250414210750.616297.151024</originReference></event></EventParameters></seiscomp>