<?xml version="1.0" encoding="UTF-8"?>
<seiscomp xmlns="http://geofon.gfz-potsdam.de/ns/seiscomp3-schema/0.13" version="0.13"><EventParameters><pick publicID="de.gempa.tb1.Pick/20250412181444.548287.125816"><time><value>2025-04-12T18:14:36.688393Z</value></time><waveformID networkCode="CX" stationCode="PB03" channelCode="HHZ"/><filterID>ITAPER(4)&gt;&gt;BW(4,4,20)</filterID><methodID>AIC</methodID><horizontalSlowness><value>9.707264248477005</value></horizontalSlowness><backazimuth><value>215.42650768381313</value></backazimuth><phaseHint>P</phaseHint><evaluationMode>automatic</evaluationMode><comment><text>9.981695993238338</text><id>DFX:rectilinearity</id></comment><comment><text>8.175632039623864</text><id>SNR</id></comment></pick><pick publicID="de.gempa.tb1.Pick/20250412181447.867896.125820"><time><value>2025-04-12T18:14:40.408393Z</value></time><waveformID networkCode="CX" stationCode="PB07" channelCode="HHZ"/><filterID>ITAPER(4)&gt;&gt;BW(4,4,20)</filterID><methodID>AIC</methodID><horizontalSlowness><value>20.237862097995215</value></horizontalSlowness><backazimuth><value>84.23567446374635</value></backazimuth><phaseHint>P</phaseHint><evaluationMode>automatic</evaluationMode><comment><text>114.86060797153216</text><id>DFX:rectilinearity</id></comment><comment><text>15.204295534956167</text><id>SNR</id></comment></pick><pick publicID="de.gempa.tb1.Pick/20250412181453.129659.125822"><time><value>2025-04-12T18:14:46.538394Z</value></time><waveformID networkCode="CX" stationCode="PB15" channelCode="HHZ"/><filterID>ITAPER(4)&gt;&gt;BW(4,4,20)</filterID><methodID>AIC</methodID><horizontalSlowness><value>22.665466840706383</value></horizontalSlowness><backazimuth><value>121.71245279208205</value></backazimuth><phaseHint>P</phaseHint><evaluationMode>automatic</evaluationMode><comment><text>2044.952058277763</text><id>DFX:rectilinearity</id></comment><comment><text>15.259452836696545</text><id>SNR</id></comment></pick><pick publicID="de.gempa.tb1.Pick/20250412181453.524631.125824"><time><value>2025-04-12T18:14:44.858393Z</value></time><waveformID networkCode="CX" stationCode="PB01" channelCode="HHZ"/><filterID>ITAPER(4)&gt;&gt;BW(4,4,20)</filterID><methodID>AIC</methodID><horizontalSlowness><value>15.20940961349878</value></horizontalSlowness><backazimuth><value>153.51472023394697</value></backazimuth><phaseHint>P</phaseHint><evaluationMode>automatic</evaluationMode><comment><text>5.668933725854036</text><id>DFX:rectilinearity</id></comment><comment><text>15.437716429665407</text><id>SNR</id></comment></pick><pick publicID="de.gempa.tb1.Pick/20250412181456.578403.125828"><time><value>2025-04-12T18:14:50.008393Z</value></time><waveformID networkCode="CX" stationCode="PB06" channelCode="HHN"/><filterID>ITAPER(2)&gt;&gt;BW(3,3,20)</filterID><methodID>L2-AIC-GRID</methodID><horizontalSlowness><value>9.915812297828076</value></horizontalSlowness><backazimuth><value>202.75851433940852</value></backazimuth><phaseHint>S</phaseHint><evaluationMode>automatic</evaluationMode><comment><text>67.69663584341373</text><id>DFX:rectilinearity</id></comment><comment><text>de.gempa.tb1.Pick/20250412181439.570507.125814</text><id>RefPickID</id></comment><comment><text>15.483220940338086</text><id>SNR</id></comment></pick><pick publicID="de.gempa.tb1.Pick/20250412181457.028537.125829"><time><value>2025-04-12T18:14:36.0000Z</value></time><waveformID networkCode="CX" stationCode="PB09" channelCode="HHZ"/><filterID>ITAPER(4)&gt;&gt;BW(4,4,20)</filterID><methodID>AIC</methodID><horizontalSlowness><value>16.986617249580835</value></horizontalSlowness><backazimuth><value>307.05864556483226</value></backazimuth><phaseHint>P</phaseHint><evaluationMode>automatic</evaluationMode><comment><text>9.737156667500198</text><id>DFX:rectilinearity</id></comment><comment><text>20.324500832493232</text><id>SNR</id></comment></pick><origin publicID="de.gempa.tb1.Origin/20250412181457.527082.89180"><time><value>2025-04-12T18:14:26.963042Z</value><uncertainty>0.9594225287437439</uncertainty></time><latitude><value>-22.08285903930664</value><uncertainty>3.6670944690704346</uncertainty></latitude><longitude><value>-69.31107330322266</value><uncertainty>9.232762336730957</uncertainty></longitude><depth><value>47.75051879882812</value><uncertainty>15.250186920166016</uncertainty></depth><depthType>from location</depthType><methodID>LOCSAT</methodID><earthModelID>iasp91_scanloc</earthModelID><quality><associatedPhaseCount>6</associatedPhaseCount><usedPhaseCount>6</usedPhaseCount><associatedStationCount>6</associatedStationCount><usedStationCount>6</usedStationCount><depthPhaseCount>0</depthPhaseCount><standardError>0.3364300226978596</standardError><azimuthalGap>174.77487468719482</azimuthalGap><maximumDistance>1.1298493146896362</maximumDistance><minimumDistance>0.29223334789276123</minimumDistance><medianDistance>0.6652979254722595</medianDistance></quality><uncertainty><minHorizontalUncertainty>7.648160457611084</minHorizontalUncertainty><maxHorizontalUncertainty>19.885608673095703</maxHorizontalUncertainty><azimuthMaxHorizontalUncertainty>95.72926330566406</azimuthMaxHorizontalUncertainty><preferredDescription>horizontal uncertainty</preferredDescription></uncertainty><evaluationMode>automatic</evaluationMode><evaluationStatus>confirmed</evaluationStatus><comment><text>0.04</text><id>mismatchScore</id></comment><comment><text>mismatchScore</text><id>scevalMethod</id></comment><arrival><pickID>de.gempa.tb1.Pick/20250412181444.548287.125816</pickID><phase>P</phase><azimuth>274.6885986328125</azimuth><distance>0.4114595949649811</distance><timeResidual>-0.35973453521728516</timeResidual><timeUsed>true</timeUsed><horizontalSlownessUsed>false</horizontalSlownessUsed><backazimuthUsed>false</backazimuthUsed><weight>1</weight></arrival><arrival><pickID>de.gempa.tb1.Pick/20250412181447.867896.125820</pickID><phase>P</phase><azimuth>303.4648742675781</azimuth><distance>0.6410028338432312</distance><timeResidual>0.553614616394043</timeResidual><timeUsed>true</timeUsed><horizontalSlownessUsed>false</horizontalSlownessUsed><backazimuthUsed>false</backazimuthUsed><weight>1</weight></arrival><arrival><pickID>de.gempa.tb1.Pick/20250412181453.129659.125822</pickID><phase>P</phase><azimuth>187.47930908203125</azimuth><distance>1.1298493146896362</distance><timeResidual>0.15515708923339844</timeResidual><timeUsed>true</timeUsed><horizontalSlownessUsed>false</horizontalSlownessUsed><backazimuthUsed>false</backazimuthUsed><weight>1</weight></arrival><arrival><pickID>de.gempa.tb1.Pick/20250412181453.524631.125824</pickID><phase>P</phase><azimuth>350.9527282714844</azimuth><distance>1.0474724769592285</distance><timeResidual>-0.4169340133666992</timeResidual><timeUsed>true</timeUsed><horizontalSlownessUsed>false</horizontalSlownessUsed><backazimuthUsed>false</backazimuthUsed><weight>1</weight></arrival><arrival><pickID>de.gempa.tb1.Pick/20250412181456.578403.125828</pickID><phase>S</phase><azimuth>201.22279357910156</azimuth><distance>0.6652979254722595</distance><timeResidual>-0.11261844635009766</timeResidual><timeUsed>true</timeUsed><horizontalSlownessUsed>false</horizontalSlownessUsed><backazimuthUsed>false</backazimuthUsed><weight>1</weight></arrival><arrival><pickID>de.gempa.tb1.Pick/20250412181457.028537.125829</pickID><phase>P</phase><azimuth>12.704434394836426</azimuth><distance>0.29223334789276123</distance><timeResidual>0.1806163787841797</timeResidual><timeUsed>true</timeUsed><horizontalSlownessUsed>false</horizontalSlownessUsed><backazimuthUsed>false</backazimuthUsed><weight>1</weight></arrival><magnitude publicID="de.gempa.tb1.Magnitude/20250412181538.537964.262951"><magnitude><value>2.281678838629494</value></magnitude><type>M</type><methodID>weighted average</methodID><stationCount>5</stationCount></magnitude></origin><event publicID="gempa2025hfys"><preferredOriginID>de.gempa.tb1.Origin/20250412181457.527082.89180</preferredOriginID><preferredMagnitudeID>de.gempa.tb1.Magnitude/20250412181538.537964.262951</preferredMagnitudeID><description><text>Northern Chile</text><type>region name</type></description><originReference>de.gempa.tb1.Origin/20250412181457.527082.89180</originReference></event></EventParameters></seiscomp>