<?xml version="1.0" encoding="UTF-8"?>
<seiscomp xmlns="http://geofon.gfz-potsdam.de/ns/seiscomp3-schema/0.13" version="0.13"><EventParameters><pick publicID="de.gempa.tb1.Pick/20250412143912.33806.163477"><time><value>2025-04-12T14:39:10.04Z</value></time><waveformID networkCode="CH" stationCode="TRULL" channelCode="HHZ"/><filterID>ITAPER(4)&gt;&gt;BW(4,4,20)</filterID><methodID>AIC</methodID><phaseHint>P</phaseHint><evaluationMode>automatic</evaluationMode></pick><pick publicID="de.gempa.tb1.Pick/20250412143915.149234.163480"><time><value>2025-04-12T14:39:12.025Z</value></time><waveformID networkCode="CH" stationCode="SLE" channelCode="HHZ"/><filterID>ITAPER(4)&gt;&gt;BW(4,4,20)</filterID><methodID>AIC</methodID><phaseHint>P</phaseHint><evaluationMode>automatic</evaluationMode></pick><pick publicID="de.gempa.tb1.Pick/20250412143918.26395.163484"><time><value>2025-04-12T14:39:13.37Z</value></time><waveformID networkCode="CH" stationCode="MUO" channelCode="HHZ"/><filterID>ITAPER(4)&gt;&gt;BW(4,4,20)</filterID><methodID>AIC</methodID><phaseHint>P</phaseHint><evaluationMode>automatic</evaluationMode></pick><pick publicID="de.gempa.tb1.Pick/20250412143919.146421.163486"><time><value>2025-04-12T14:39:16.87Z</value></time><waveformID networkCode="CH" stationCode="LIENZ" channelCode="HHZ"/><filterID>ITAPER(4)&gt;&gt;BW(4,4,20)</filterID><methodID>AIC</methodID><phaseHint>P</phaseHint><evaluationMode>automatic</evaluationMode></pick><pick publicID="de.gempa.tb1.Pick/20250412143926.220312.163489"><time><value>2025-04-12T14:39:16.495Z</value></time><waveformID networkCode="GE" stationCode="STU" channelCode="BHZ"/><filterID>ITAPER(4)&gt;&gt;BW_HP(4,4)</filterID><methodID>AIC</methodID><phaseHint>P</phaseHint><evaluationMode>automatic</evaluationMode></pick><pick publicID="de.gempa.tb1.Pick/20250412144011.097914.163508"><time><value>2025-04-12T14:39:32.644999Z</value></time><waveformID networkCode="GR" stationCode="GRB2" channelCode="BHZ"/><filterID>ITAPER(4)&gt;&gt;BW_HP(4,4)</filterID><methodID>AIC</methodID><phaseHint>P</phaseHint><evaluationMode>automatic</evaluationMode></pick><origin publicID="de.gempa.tb1.Origin/20250412144011.100893.104610"><time><value>2025-04-12T14:38:28.512771Z</value><uncertainty>8.508553504943848</uncertainty></time><latitude><value>47.77453231811523</value><uncertainty>19.005224227905273</uncertainty></latitude><longitude><value>6.323084354400635</value><uncertainty>62.64799880981445</uncertainty></longitude><depth><value>295.5047302246094</value><uncertainty>53.65560150146484</uncertainty></depth><depthType>from location</depthType><methodID>LOCSAT</methodID><earthModelID>iasp91</earthModelID><quality><associatedPhaseCount>6</associatedPhaseCount><usedPhaseCount>6</usedPhaseCount><associatedStationCount>6</associatedStationCount><usedStationCount>6</usedStationCount><depthPhaseCount>0</depthPhaseCount><standardError>0.8951348903128189</standardError><azimuthalGap>305.1334228515625</azimuthalGap><maximumDistance>3.8561742305755615</maximumDistance><minimumDistance>1.4633517265319824</minimumDistance><medianDistance>2.1625211238861084</medianDistance></quality><uncertainty><minHorizontalUncertainty>40.7418327331543</minHorizontalUncertainty><maxHorizontalUncertainty>134.39337158203125</maxHorizontalUncertainty><azimuthMaxHorizontalUncertainty>90.65184020996094</azimuthMaxHorizontalUncertainty><preferredDescription>horizontal uncertainty</preferredDescription></uncertainty><evaluationMode>automatic</evaluationMode><evaluationStatus>rejected</evaluationStatus><comment><text>0.94</text><id>mismatchScore</id></comment><comment><text>mismatchScore</text><id>scevalMethod</id></comment><arrival><pickID>de.gempa.tb1.Pick/20250412143912.33806.163477</pickID><phase>P</phase><azimuth>93.64936828613281</azimuth><distance>1.5976964235305786</distance><timeResidual>-1.8495330810546875</timeResidual><timeUsed>true</timeUsed><horizontalSlownessUsed>false</horizontalSlownessUsed><backazimuthUsed>false</backazimuthUsed><weight>1</weight></arrival><arrival><pickID>de.gempa.tb1.Pick/20250412143915.149234.163480</pickID><phase>P</phase><azimuth>89.59228515625</azimuth><distance>1.4633517265319824</distance><timeResidual>1.0174827575683594</timeResidual><timeUsed>true</timeUsed><horizontalSlownessUsed>false</horizontalSlownessUsed><backazimuthUsed>false</backazimuthUsed><weight>1</weight></arrival><arrival><pickID>de.gempa.tb1.Pick/20250412143918.26395.163484</pickID><phase>P</phase><azimuth>116.31879425048828</azimuth><distance>1.767812967300415</distance><timeResidual>0.2864227294921875</timeResidual><timeUsed>true</timeUsed><horizontalSlownessUsed>false</horizontalSlownessUsed><backazimuthUsed>false</backazimuthUsed><weight>1</weight></arrival><arrival><pickID>de.gempa.tb1.Pick/20250412143919.146421.163486</pickID><phase>P</phase><azimuth>101.43433380126953</azimuth><distance>2.2006189823150635</distance><timeResidual>0.3603057861328125</timeResidual><timeUsed>true</timeUsed><horizontalSlownessUsed>false</horizontalSlownessUsed><backazimuthUsed>false</backazimuthUsed><weight>1</weight></arrival><arrival><pickID>de.gempa.tb1.Pick/20250412143926.220312.163489</pickID><phase>P</phase><azimuth>61.45221710205078</azimuth><distance>2.1625211238861084</distance><timeResidual>0.340118408203125</timeResidual><timeUsed>true</timeUsed><horizontalSlownessUsed>false</horizontalSlownessUsed><backazimuthUsed>false</backazimuthUsed><weight>1</weight></arrival><arrival><pickID>de.gempa.tb1.Pick/20250412144011.097914.163508</pickID><phase>P</phase><azimuth>65.17191314697266</azimuth><distance>3.8561742305755615</distance><timeResidual>-0.15497207641601562</timeResidual><timeUsed>true</timeUsed><horizontalSlownessUsed>false</horizontalSlownessUsed><backazimuthUsed>false</backazimuthUsed><weight>1</weight></arrival><magnitude publicID="de.gempa.tb1.Magnitude/20250412144050.962826.240911"><magnitude><value>2.160632699071514</value></magnitude><type>M</type><methodID>weighted average</methodID><stationCount>1</stationCount></magnitude></origin><event publicID="gempa2025hfro"><preferredOriginID>de.gempa.tb1.Origin/20250412144011.100893.104610</preferredOriginID><preferredMagnitudeID>de.gempa.tb1.Magnitude/20250412144050.962826.240911</preferredMagnitudeID><typeCertainty>suspected</typeCertainty><description><text>France</text><type>region name</type></description><originReference>de.gempa.tb1.Origin/20250412144011.100893.104610</originReference></event></EventParameters></seiscomp>