<?xml version="1.0" encoding="UTF-8"?>
<seiscomp xmlns="http://geofon.gfz-potsdam.de/ns/seiscomp3-schema/0.13" version="0.13"><EventParameters><pick publicID="de.gempa.tb1.Pick/20250411192209.586204.119746"><time><value>2025-04-11T19:22:02.83Z</value></time><waveformID networkCode="CX" stationCode="PSGCX" channelCode="HHZ"/><filterID>ITAPER(4)&gt;&gt;BW(4,4,20)</filterID><methodID>AIC</methodID><horizontalSlowness><value>7.852753603739365</value></horizontalSlowness><backazimuth><value>179.48864593425887</value></backazimuth><phaseHint>P</phaseHint><evaluationMode>automatic</evaluationMode><comment><text>8.05680090479162</text><id>DFX:rectilinearity</id></comment><comment><text>15.10926532238805</text><id>SNR</id></comment></pick><pick publicID="de.gempa.tb1.Pick/20250411192209.651081.119748"><time><value>2025-04-11T19:22:03.788393Z</value></time><waveformID networkCode="CX" stationCode="PB08" channelCode="HHZ"/><filterID>ITAPER(4)&gt;&gt;BW(4,4,20)</filterID><methodID>AIC</methodID><horizontalSlowness><value>16.33837106635547</value></horizontalSlowness><backazimuth><value>84.93457816384378</value></backazimuth><phaseHint>P</phaseHint><evaluationMode>automatic</evaluationMode><comment><text>6.84502961459479</text><id>DFX:rectilinearity</id></comment><comment><text>9.53898477523623</text><id>SNR</id></comment></pick><pick publicID="de.gempa.tb1.Pick/20250411192211.200671.119750"><time><value>2025-04-11T19:22:02.829999Z</value></time><waveformID networkCode="CX" stationCode="PATCX" channelCode="HHZ"/><filterID>ITAPER(4)&gt;&gt;BW(4,4,20)</filterID><methodID>AIC</methodID><horizontalSlowness><value>23.39705288046108</value></horizontalSlowness><backazimuth><value>100.49213128059883</value></backazimuth><phaseHint>P</phaseHint><evaluationMode>automatic</evaluationMode><comment><text>201.79870673641346</text><id>DFX:rectilinearity</id></comment><comment><text>7.86037539772791</text><id>SNR</id></comment></pick><pick publicID="de.gempa.tb1.Pick/20250411192212.564321.119752"><time><value>2025-04-11T19:22:05.828393Z</value></time><waveformID networkCode="CX" stationCode="PB01" channelCode="HHZ"/><filterID>ITAPER(4)&gt;&gt;BW(4,4,20)</filterID><methodID>AIC</methodID><horizontalSlowness><value>23.356447082526373</value></horizontalSlowness><backazimuth><value>176.19508320333551</value></backazimuth><phaseHint>P</phaseHint><evaluationMode>automatic</evaluationMode><comment><text>13.21717421813142</text><id>DFX:rectilinearity</id></comment><comment><text>6.888887566275889</text><id>SNR</id></comment></pick><pick publicID="de.gempa.tb1.Pick/20250411192220.700989.119754"><time><value>2025-04-11T19:22:12.96Z</value></time><waveformID networkCode="CX" stationCode="PSGCX" channelCode="HHN"/><filterID>ITAPER(2)&gt;&gt;BW(3,3,20)</filterID><methodID>L2-AIC-GRID</methodID><horizontalSlowness><value>21.404506200915264</value></horizontalSlowness><backazimuth><value>57.90671017984283</value></backazimuth><phaseHint>S</phaseHint><evaluationMode>automatic</evaluationMode><comment><text>23.240191534780234</text><id>DFX:rectilinearity</id></comment><comment><text>de.gempa.tb1.Pick/20250411192209.586204.119746</text><id>RefPickID</id></comment><comment><text>8.144299131094549</text><id>SNR</id></comment></pick><pick publicID="de.gempa.tb1.Pick/20250411192226.57769.119758"><time><value>2025-04-11T19:22:18.178393Z</value></time><waveformID networkCode="CX" stationCode="PB01" channelCode="HHN"/><filterID>ITAPER(2)&gt;&gt;BW(3,3,20)</filterID><methodID>L2-AIC-GRID</methodID><horizontalSlowness><value>22.989812268516815</value></horizontalSlowness><backazimuth><value>20.377744158338146</value></backazimuth><phaseHint>S</phaseHint><evaluationMode>automatic</evaluationMode><comment><text>22.190523538610805</text><id>DFX:rectilinearity</id></comment><comment><text>de.gempa.tb1.Pick/20250411192212.564321.119752</text><id>RefPickID</id></comment><comment><text>7.067065045901676</text><id>SNR</id></comment></pick><origin publicID="de.gempa.tb1.Origin/20250411192226.58058.64298"><time><value>2025-04-11T19:21:49.771677Z</value><uncertainty>1.6070095300674438</uncertainty></time><latitude><value>-20.233421325683594</value><uncertainty>3.8644814491271973</uncertainty></latitude><longitude><value>-69.90007781982422</value><uncertainty>7.214355945587158</uncertainty></longitude><depth><value>47.90060424804688</value><uncertainty>34.98424530029297</uncertainty></depth><depthType>from location</depthType><methodID>LOCSAT</methodID><earthModelID>iasp91_scanloc</earthModelID><quality><associatedPhaseCount>6</associatedPhaseCount><usedPhaseCount>6</usedPhaseCount><associatedStationCount>4</associatedStationCount><usedStationCount>4</usedStationCount><depthPhaseCount>0</depthPhaseCount><standardError>0.20325501935228357</standardError><azimuthalGap>139.59556579589844</azimuthalGap><maximumDistance>0.8936344385147095</maximumDistance><minimumDistance>0.6305279731750488</minimumDistance><medianDistance>0.7073550820350647</medianDistance></quality><uncertainty><minHorizontalUncertainty>7.416549205780029</minHorizontalUncertainty><maxHorizontalUncertainty>15.90790843963623</maxHorizontalUncertainty><azimuthMaxHorizontalUncertainty>74.76185607910156</azimuthMaxHorizontalUncertainty><preferredDescription>horizontal uncertainty</preferredDescription></uncertainty><evaluationMode>automatic</evaluationMode><evaluationStatus>confirmed</evaluationStatus><comment><text>0.00</text><id>mismatchScore</id></comment><comment><text>mismatchScore</text><id>scevalMethod</id></comment><arrival><pickID>de.gempa.tb1.Pick/20250411192209.586204.119746</pickID><phase>P</phase><azimuth>341.6244812011719</azimuth><distance>0.6668343544006348</distance><timeResidual>-0.17598724365234375</timeResidual><timeUsed>true</timeUsed><horizontalSlownessUsed>false</horizontalSlownessUsed><backazimuthUsed>false</backazimuthUsed><weight>1</weight></arrival><arrival><pickID>de.gempa.tb1.Pick/20250411192209.651081.119748</pickID><phase>P</phase><azimuth>82.66902923583984</azimuth><distance>0.7073550820350647</distance><timeResidual>0.25652408599853516</timeResidual><timeUsed>true</timeUsed><horizontalSlownessUsed>false</horizontalSlownessUsed><backazimuthUsed>false</backazimuthUsed><weight>1</weight></arrival><arrival><pickID>de.gempa.tb1.Pick/20250411192211.200671.119750</pickID><phase>P</phase><azimuth>202.02891540527344</azimuth><distance>0.6305279731750488</distance><timeResidual>0.2982025146484375</timeResidual><timeUsed>true</timeUsed><horizontalSlownessUsed>false</horizontalSlownessUsed><backazimuthUsed>false</backazimuthUsed><weight>1</weight></arrival><arrival><pickID>de.gempa.tb1.Pick/20250411192212.564321.119752</pickID><phase>P</phase><azimuth>154.44427490234375</azimuth><distance>0.8936344385147095</distance><timeResidual>-0.17607402801513672</timeResidual><timeUsed>true</timeUsed><horizontalSlownessUsed>false</horizontalSlownessUsed><backazimuthUsed>false</backazimuthUsed><weight>1</weight></arrival><arrival><pickID>de.gempa.tb1.Pick/20250411192220.700989.119754</pickID><phase>S</phase><azimuth>341.6244812011719</azimuth><distance>0.6668343544006348</distance><timeResidual>-0.02839183807373047</timeResidual><timeUsed>true</timeUsed><horizontalSlownessUsed>false</horizontalSlownessUsed><backazimuthUsed>false</backazimuthUsed><weight>1</weight></arrival><arrival><pickID>de.gempa.tb1.Pick/20250411192226.57769.119758</pickID><phase>S</phase><azimuth>154.44427490234375</azimuth><distance>0.8936344385147095</distance><timeResidual>-0.17426013946533203</timeResidual><timeUsed>true</timeUsed><horizontalSlownessUsed>false</horizontalSlownessUsed><backazimuthUsed>false</backazimuthUsed><weight>1</weight></arrival><magnitude publicID="de.gempa.tb1.Magnitude/20250411192300.797216.135784"><magnitude><value>2.0680404892674473</value></magnitude><type>M</type><methodID>weighted average</methodID><stationCount>4</stationCount></magnitude></origin><event publicID="gempa2025heey"><preferredOriginID>de.gempa.tb1.Origin/20250411192226.58058.64298</preferredOriginID><preferredMagnitudeID>de.gempa.tb1.Magnitude/20250411192300.797216.135784</preferredMagnitudeID><description><text>Northern Chile</text><type>region name</type></description><originReference>de.gempa.tb1.Origin/20250411192226.58058.64298</originReference></event></EventParameters></seiscomp>