<?xml version="1.0" encoding="UTF-8"?>
<seiscomp xmlns="http://geofon.gfz-potsdam.de/ns/seiscomp3-schema/0.13" version="0.13"><EventParameters><pick publicID="de.gempa.tb1.Pick/20250415064322.563067.117709"><time><value>2025-04-15T06:43:16.968393Z</value></time><waveformID networkCode="CX" stationCode="PB01" channelCode="HHZ"/><filterID>ITAPER(4)&gt;&gt;BW(4,4,20)</filterID><methodID>AIC</methodID><horizontalSlowness><value>15.232025616684963</value></horizontalSlowness><backazimuth><value>41.199135160953176</value></backazimuth><phaseHint>P</phaseHint><evaluationMode>automatic</evaluationMode><comment><text>10.869532555238024</text><id>DFX:rectilinearity</id></comment><comment><text>7.012163790678257</text><id>SNR</id></comment></pick><pick publicID="de.gempa.tb1.Pick/20250415064327.630626.117711"><time><value>2025-04-15T06:43:20.868391Z</value></time><waveformID networkCode="CX" stationCode="PB02" channelCode="HHZ"/><filterID>ITAPER(4)&gt;&gt;BW(4,4,20)</filterID><methodID>AIC</methodID><horizontalSlowness><value>21.54007859606055</value></horizontalSlowness><backazimuth><value>221.57415982804469</value></backazimuth><phaseHint>P</phaseHint><evaluationMode>automatic</evaluationMode><comment><text>42.9661273616521</text><id>DFX:rectilinearity</id></comment><comment><text>10.834667332887324</text><id>SNR</id></comment></pick><pick publicID="de.gempa.tb1.Pick/20250415064329.458265.117713"><time><value>2025-04-15T06:43:24.189999Z</value></time><waveformID networkCode="CX" stationCode="PATCX" channelCode="HHZ"/><filterID>ITAPER(4)&gt;&gt;BW(4,4,20)</filterID><methodID>AIC</methodID><horizontalSlowness><value>20.748413839206286</value></horizontalSlowness><backazimuth><value>86.37932817168893</value></backazimuth><phaseHint>P</phaseHint><evaluationMode>automatic</evaluationMode><comment><text>190.42403517825315</text><id>DFX:rectilinearity</id></comment><comment><text>13.61903526694547</text><id>SNR</id></comment></pick><pick publicID="de.gempa.tb1.Pick/20250415064340.208245.117715"><time><value>2025-04-15T06:43:21.288396Z</value></time><waveformID networkCode="CX" stationCode="PB07" channelCode="HHZ"/><filterID>ITAPER(4)&gt;&gt;BW(4,4,20)</filterID><methodID>AIC</methodID><horizontalSlowness><value>22.47425239282738</value></horizontalSlowness><backazimuth><value>282.3254210093853</value></backazimuth><phaseHint>P</phaseHint><evaluationMode>automatic</evaluationMode><comment><text>248.4053722416707</text><id>DFX:rectilinearity</id></comment><comment><text>7.751481701147386</text><id>SNR</id></comment></pick><pick publicID="de.gempa.tb1.Pick/20250415064341.519632.117717"><time><value>2025-04-15T06:43:30.12Z</value></time><waveformID networkCode="CX" stationCode="PSGCX" channelCode="HHZ"/><filterID>ITAPER(4)&gt;&gt;BW(4,4,20)</filterID><methodID>AIC</methodID><horizontalSlowness><value>17.20633550060414</value></horizontalSlowness><backazimuth><value>214.4470482608127</value></backazimuth><phaseHint>P</phaseHint><evaluationMode>automatic</evaluationMode><comment><text>8.60947838186325</text><id>DFX:rectilinearity</id></comment><comment><text>13.197198808664565</text><id>SNR</id></comment></pick><pick publicID="de.gempa.tb1.Pick/20250415064354.484495.117721"><time><value>2025-04-15T06:43:43.198391Z</value></time><waveformID networkCode="CX" stationCode="PB02" channelCode="HHN"/><filterID>ITAPER(2)&gt;&gt;BW(3,3,20)</filterID><methodID>L2-AIC-GRID</methodID><horizontalSlowness><value>12.517011177480963</value></horizontalSlowness><backazimuth><value>32.04377929585118</value></backazimuth><phaseHint>S</phaseHint><evaluationMode>automatic</evaluationMode><comment><text>34.07731600540135</text><id>DFX:rectilinearity</id></comment><comment><text>de.gempa.tb1.Pick/20250415064327.630626.117711</text><id>RefPickID</id></comment><comment><text>5.038183687804954</text><id>SNR</id></comment></pick><pick publicID="de.gempa.tb1.Pick/20250415064355.854664.117723"><time><value>2025-04-15T06:43:43.928396Z</value></time><waveformID networkCode="CX" stationCode="PB07" channelCode="HHN"/><filterID>ITAPER(2)&gt;&gt;BW(3,3,20)</filterID><methodID>L2-AIC-GRID</methodID><horizontalSlowness><value>22.5605598096379</value></horizontalSlowness><backazimuth><value>205.67956590917484</value></backazimuth><phaseHint>S</phaseHint><evaluationMode>automatic</evaluationMode><comment><text>309.05804518840057</text><id>DFX:rectilinearity</id></comment><comment><text>de.gempa.tb1.Pick/20250415064340.208245.117715</text><id>RefPickID</id></comment><comment><text>5.096048201163386</text><id>SNR</id></comment></pick><origin publicID="de.gempa.tb1.Origin/20250415064355.85779.55869"><time><value>2025-04-15T06:42:51.95346Z</value><uncertainty>1.595539093017578</uncertainty></time><latitude><value>-21.20813751220703</value><uncertainty>12.87022590637207</uncertainty></latitude><longitude><value>-68.33382415771484</value><uncertainty>27.403533935546875</uncertainty></longitude><depth><value>143.69102478027344</value><uncertainty>35.94966506958008</uncertainty></depth><depthType>from location</depthType><methodID>LOCSAT</methodID><earthModelID>iasp91_scanloc</earthModelID><quality><associatedPhaseCount>7</associatedPhaseCount><usedPhaseCount>7</usedPhaseCount><associatedStationCount>5</associatedStationCount><usedStationCount>5</usedStationCount><depthPhaseCount>0</depthPhaseCount><standardError>0.32616510597850046</standardError><azimuthalGap>296.71246337890625</azimuthalGap><maximumDistance>2.3206567764282227</maximumDistance><minimumDistance>1.0894023180007935</minimumDistance><medianDistance>1.535245656967163</medianDistance></quality><uncertainty><minHorizontalUncertainty>27.4638729095459</minHorizontalUncertainty><maxHorizontalUncertainty>58.83221817016602</maxHorizontalUncertainty><azimuthMaxHorizontalUncertainty>86.97494506835938</azimuthMaxHorizontalUncertainty><preferredDescription>horizontal uncertainty</preferredDescription></uncertainty><evaluationMode>automatic</evaluationMode><comment><text>0.59</text><id>mismatchScore</id></comment><arrival><pickID>de.gempa.tb1.Pick/20250415064322.563067.117709</pickID><phase>P</phase><azimuth>278.45599365234375</azimuth><distance>1.0894023180007935</distance><timeResidual>0.03822517395019531</timeResidual><timeUsed>true</timeUsed><horizontalSlownessUsed>false</horizontalSlownessUsed><backazimuthUsed>false</backazimuthUsed><weight>1</weight></arrival><arrival><pickID>de.gempa.tb1.Pick/20250415064327.630626.117711</pickID><phase>P</phase><azimuth>265.3608093261719</azimuth><distance>1.4613451957702637</distance><timeResidual>0.23868370056152344</timeResidual><timeUsed>true</timeUsed><horizontalSlownessUsed>false</horizontalSlownessUsed><backazimuthUsed>false</backazimuthUsed><weight>1</weight></arrival><arrival><pickID>de.gempa.tb1.Pick/20250415064329.458265.117713</pickID><phase>P</phase><azimuth>282.4545593261719</azimuth><distance>1.7426860332489014</distance><timeResidual>0.4656009674072266</timeResidual><timeUsed>true</timeUsed><horizontalSlownessUsed>false</horizontalSlownessUsed><backazimuthUsed>false</backazimuthUsed><weight>1</weight></arrival><arrival><pickID>de.gempa.tb1.Pick/20250415064340.208245.117715</pickID><phase>P</phase><azimuth>250.0799865722656</azimuth><distance>1.535245656967163</distance><timeResidual>-0.13057708740234375</timeResidual><timeUsed>true</timeUsed><horizontalSlownessUsed>false</horizontalSlownessUsed><backazimuthUsed>false</backazimuthUsed><weight>1</weight></arrival><arrival><pickID>de.gempa.tb1.Pick/20250415064341.519632.117717</pickID><phase>P</phase><azimuth>313.3675231933594</azimuth><distance>2.3206567764282227</distance><timeResidual>-0.4563350677490234</timeResidual><timeUsed>true</timeUsed><horizontalSlownessUsed>false</horizontalSlownessUsed><backazimuthUsed>false</backazimuthUsed><weight>1</weight></arrival><arrival><pickID>de.gempa.tb1.Pick/20250415064354.484495.117721</pickID><phase>S</phase><azimuth>265.3608093261719</azimuth><distance>1.4613451957702637</distance><timeResidual>0.26276397705078125</timeResidual><timeUsed>true</timeUsed><horizontalSlownessUsed>false</horizontalSlownessUsed><backazimuthUsed>false</backazimuthUsed><weight>1</weight></arrival><arrival><pickID>de.gempa.tb1.Pick/20250415064355.854664.117723</pickID><phase>S</phase><azimuth>250.0799865722656</azimuth><distance>1.535245656967163</distance><timeResidual>-0.4184894561767578</timeResidual><timeUsed>true</timeUsed><horizontalSlownessUsed>false</horizontalSlownessUsed><backazimuthUsed>false</backazimuthUsed><weight>1</weight></arrival></origin><event publicID="gempa2025hkps"><preferredOriginID>de.gempa.tb1.Origin/20250415064355.85779.55869</preferredOriginID><description><text>Chile-Bolivia Border Region</text><type>region name</type></description><originReference>de.gempa.tb1.Origin/20250415064355.85779.55869</originReference></event></EventParameters></seiscomp>