<?xml version="1.0" encoding="UTF-8"?>
<seiscomp xmlns="http://geofon.gfz-potsdam.de/ns/seiscomp3-schema/0.13" version="0.13"><EventParameters><pick publicID="de.gempa.tb1.Pick/20250412040152.643875.121768"><time><value>2025-04-12T04:01:46.588393Z</value></time><waveformID networkCode="CX" stationCode="PB03" channelCode="HHZ"/><filterID>ITAPER(4)&gt;&gt;BW(4,4,20)</filterID><methodID>AIC</methodID><horizontalSlowness><value>3.5149484539447675</value></horizontalSlowness><backazimuth><value>70.16909214259063</value></backazimuth><phaseHint>P</phaseHint><evaluationMode>automatic</evaluationMode><comment><text>15665.733691994965</text><id>DFX:rectilinearity</id></comment><comment><text>2524.397995800805</text><id>SNR</id></comment></pick><pick publicID="de.gempa.tb1.Pick/20250412040155.633322.121770"><time><value>2025-04-12T04:01:50.648393Z</value></time><waveformID networkCode="CX" stationCode="PB06" channelCode="HHZ"/><filterID>ITAPER(4)&gt;&gt;BW(4,4,20)</filterID><methodID>AIC</methodID><horizontalSlowness><value>3.654801378317148</value></horizontalSlowness><backazimuth><value>6.699865020777423</value></backazimuth><phaseHint>P</phaseHint><evaluationMode>automatic</evaluationMode><comment><text>2977.5222669106756</text><id>DFX:rectilinearity</id></comment><comment><text>546.5854533052121</text><id>SNR</id></comment></pick><pick publicID="de.gempa.tb1.Pick/20250412040157.484962.121772"><time><value>2025-04-12T04:01:51.878393Z</value></time><waveformID networkCode="CX" stationCode="PB02" channelCode="HHZ"/><filterID>ITAPER(4)&gt;&gt;BW(4,4,20)</filterID><methodID>AIC</methodID><horizontalSlowness><value>6.355219205369739</value></horizontalSlowness><backazimuth><value>160.47330883891078</value></backazimuth><phaseHint>P</phaseHint><evaluationMode>automatic</evaluationMode><comment><text>1133.518213580269</text><id>DFX:rectilinearity</id></comment><comment><text>670.8539546430987</text><id>SNR</id></comment></pick><pick publicID="de.gempa.tb1.Pick/20250412040159.719189.121774"><time><value>2025-04-12T04:01:55.038393Z</value></time><waveformID networkCode="CX" stationCode="PB01" channelCode="HHZ"/><filterID>ITAPER(4)&gt;&gt;BW(4,4,20)</filterID><methodID>AIC</methodID><horizontalSlowness><value>8.94721401053885</value></horizontalSlowness><backazimuth><value>198.53198779179402</value></backazimuth><phaseHint>P</phaseHint><evaluationMode>automatic</evaluationMode><comment><text>295.55459071791716</text><id>DFX:rectilinearity</id></comment><comment><text>231.20999891095045</text><id>SNR</id></comment></pick><pick publicID="de.gempa.tb1.Pick/20250412040201.590763.121776"><time><value>2025-04-12T04:01:49.15Z</value></time><waveformID networkCode="CX" stationCode="PB09" channelCode="HHZ"/><filterID>ITAPER(4)&gt;&gt;BW(4,4,20)</filterID><methodID>AIC</methodID><horizontalSlowness><value>18.571177335587127</value></horizontalSlowness><backazimuth><value>130.35489563529151</value></backazimuth><phaseHint>P</phaseHint><evaluationMode>automatic</evaluationMode><comment><text>34066.202636300695</text><id>DFX:rectilinearity</id></comment><comment><text>5852.763949347339</text><id>SNR</id></comment></pick><pick publicID="de.gempa.tb1.Pick/20250412040203.804967.121778"><time><value>2025-04-12T04:01:54.378393Z</value></time><waveformID networkCode="CX" stationCode="PB03" channelCode="HHN"/><filterID>ITAPER(2)&gt;&gt;BW(3,3,20)</filterID><methodID>L2-AIC-GRID</methodID><horizontalSlowness><value>22.264399920221326</value></horizontalSlowness><backazimuth><value>276.3810738485028</value></backazimuth><phaseHint>S</phaseHint><evaluationMode>automatic</evaluationMode><comment><text>4098325.998865683</text><id>DFX:rectilinearity</id></comment><comment><text>de.gempa.tb1.Pick/20250412040152.643875.121768</text><id>RefPickID</id></comment><comment><text>27.251298126759643</text><id>SNR</id></comment></pick><pick publicID="de.gempa.tb1.Pick/20250412040203.835287.121779"><time><value>2025-04-12T04:01:57.748391Z</value></time><waveformID networkCode="CX" stationCode="PB15" channelCode="HHZ"/><filterID>ITAPER(4)&gt;&gt;BW(4,4,20)</filterID><methodID>AIC</methodID><horizontalSlowness><value>22.238781633181407</value></horizontalSlowness><backazimuth><value>115.68551390322023</value></backazimuth><phaseHint>P</phaseHint><evaluationMode>automatic</evaluationMode><comment><text>2072.7757312388658</text><id>DFX:rectilinearity</id></comment><comment><text>72.6720764831223</text><id>SNR</id></comment></pick><pick publicID="de.gempa.tb1.Pick/20250412040204.27011.121781"><time><value>2025-04-12T04:01:58.739999Z</value></time><waveformID networkCode="CX" stationCode="PATCX" channelCode="HHZ"/><filterID>ITAPER(4)&gt;&gt;BW(4,4,20)</filterID><methodID>AIC</methodID><horizontalSlowness><value>16.25576720713687</value></horizontalSlowness><backazimuth><value>217.96052317191544</value></backazimuth><phaseHint>P</phaseHint><evaluationMode>automatic</evaluationMode><comment><text>207.82999620587032</text><id>DFX:rectilinearity</id></comment><comment><text>37.03901975049056</text><id>SNR</id></comment></pick><pick publicID="de.gempa.tb1.Pick/20250412040208.780141.121783"><time><value>2025-04-12T04:02:01.708393Z</value></time><waveformID networkCode="CX" stationCode="PB06" channelCode="HHN"/><filterID>ITAPER(2)&gt;&gt;BW(3,3,20)</filterID><methodID>L2-AIC-GRID</methodID><horizontalSlowness><value>20.751499851957465</value></horizontalSlowness><backazimuth><value>246.4206565050164</value></backazimuth><phaseHint>S</phaseHint><evaluationMode>automatic</evaluationMode><comment><text>84202.66672969359</text><id>DFX:rectilinearity</id></comment><comment><text>de.gempa.tb1.Pick/20250412040155.633322.121770</text><id>RefPickID</id></comment><comment><text>18.198279508210192</text><id>SNR</id></comment></pick><pick publicID="de.gempa.tb1.Pick/20250412040210.616007.121784"><time><value>2025-04-12T04:02:04.018393Z</value></time><waveformID networkCode="CX" stationCode="PB02" channelCode="HHN"/><filterID>ITAPER(2)&gt;&gt;BW(3,3,20)</filterID><methodID>L2-AIC-GRID</methodID><horizontalSlowness><value>16.301085050226586</value></horizontalSlowness><backazimuth><value>7.630638165361432</value></backazimuth><phaseHint>S</phaseHint><evaluationMode>automatic</evaluationMode><comment><text>157048.66501083793</text><id>DFX:rectilinearity</id></comment><comment><text>de.gempa.tb1.Pick/20250412040157.484962.121772</text><id>RefPickID</id></comment><comment><text>9.743172941032464</text><id>SNR</id></comment></pick><pick publicID="de.gempa.tb1.Pick/20250412040211.172316.121785"><time><value>2025-04-12T04:02:05.88Z</value></time><waveformID networkCode="CX" stationCode="PB10" channelCode="HHZ"/><filterID>ITAPER(4)&gt;&gt;BW(4,4,20)</filterID><methodID>AIC</methodID><horizontalSlowness><value>19.103200121132886</value></horizontalSlowness><backazimuth><value>311.4873505104038</value></backazimuth><phaseHint>P</phaseHint><evaluationMode>automatic</evaluationMode><comment><text>55.46080618707174</text><id>DFX:rectilinearity</id></comment><comment><text>11.391757510023915</text><id>SNR</id></comment></pick><pick publicID="de.gempa.tb1.Pick/20250412040213.098301.121787"><time><value>2025-04-12T04:01:58.91Z</value></time><waveformID networkCode="CX" stationCode="PB09" channelCode="HHN"/><filterID>ITAPER(2)&gt;&gt;BW(3,3,20)</filterID><methodID>L2-AIC-GRID</methodID><horizontalSlowness><value>20.74807487763406</value></horizontalSlowness><backazimuth><value>239.37969631912776</value></backazimuth><phaseHint>S</phaseHint><evaluationMode>automatic</evaluationMode><comment><text>92211.52823323786</text><id>DFX:rectilinearity</id></comment><comment><text>de.gempa.tb1.Pick/20250412040201.590763.121776</text><id>RefPickID</id></comment><comment><text>5.059831247356598</text><id>SNR</id></comment></pick><pick publicID="de.gempa.tb1.Pick/20250412040214.581528.121788"><time><value>2025-04-12T04:02:08.319998Z</value></time><waveformID networkCode="CX" stationCode="PB19" channelCode="HHZ"/><filterID>ITAPER(4)&gt;&gt;BW(4,4,20)</filterID><methodID>AIC</methodID><horizontalSlowness><value>12.357389905977564</value></horizontalSlowness><backazimuth><value>203.3805873611145</value></backazimuth><phaseHint>P</phaseHint><evaluationMode>automatic</evaluationMode><comment><text>41.314489207811647</text><id>DFX:rectilinearity</id></comment><comment><text>48.41143872961653</text><id>SNR</id></comment></pick><pick publicID="de.gempa.tb1.Pick/20250412040215.964316.121790"><time><value>2025-04-12T04:01:48.198394Z</value></time><waveformID networkCode="CX" stationCode="PB07" channelCode="HHZ"/><filterID>ITAPER(4)&gt;&gt;BW(4,4,20)</filterID><methodID>AIC</methodID><horizontalSlowness><value>14.627154163017032</value></horizontalSlowness><backazimuth><value>212.5460412532573</value></backazimuth><phaseHint>P</phaseHint><evaluationMode>automatic</evaluationMode><comment><text>127413.55998411517</text><id>DFX:rectilinearity</id></comment><comment><text>2993.859116361517</text><id>SNR</id></comment></pick><pick publicID="de.gempa.tb1.Pick/20250412040216.519747.121792"><time><value>2025-04-12T04:02:08.608394Z</value></time><waveformID networkCode="CX" stationCode="PB08" channelCode="HHZ"/><filterID>ITAPER(4)&gt;&gt;BW(4,4,20)</filterID><methodID>AIC</methodID><horizontalSlowness><value>17.33694250814787</value></horizontalSlowness><backazimuth><value>212.09431355782573</value></backazimuth><phaseHint>P</phaseHint><evaluationMode>automatic</evaluationMode><comment><text>11.178399892881979</text><id>DFX:rectilinearity</id></comment><comment><text>13.76878537678753</text><id>SNR</id></comment></pick><pick publicID="de.gempa.tb1.Pick/20250412040216.707616.121794"><time><value>2025-04-12T04:02:09.418393Z</value></time><waveformID networkCode="CX" stationCode="PB01" channelCode="HHN"/><filterID>ITAPER(2)&gt;&gt;BW(3,3,20)</filterID><methodID>L2-AIC-GRID</methodID><horizontalSlowness><value>23.584960881557326</value></horizontalSlowness><backazimuth><value>320.87964549113013</value></backazimuth><phaseHint>S</phaseHint><evaluationMode>automatic</evaluationMode><comment><text>12182.885484255952</text><id>DFX:rectilinearity</id></comment><comment><text>de.gempa.tb1.Pick/20250412040159.719189.121774</text><id>RefPickID</id></comment><comment><text>16.583890998014162</text><id>SNR</id></comment></pick><pick publicID="de.gempa.tb1.Pick/20250412040221.085606.121798"><time><value>2025-04-12T04:02:14.328391Z</value></time><waveformID networkCode="CX" stationCode="PB15" channelCode="HHN"/><filterID>ITAPER(2)&gt;&gt;BW(3,3,20)</filterID><methodID>L2-AIC-GRID</methodID><horizontalSlowness><value>23.31022047374505</value></horizontalSlowness><backazimuth><value>177.0602787022679</value></backazimuth><phaseHint>S</phaseHint><evaluationMode>automatic</evaluationMode><comment><text>456034.8848860095</text><id>DFX:rectilinearity</id></comment><comment><text>de.gempa.tb1.Pick/20250412040203.835287.121779</text><id>RefPickID</id></comment><comment><text>11.214626837464984</text><id>SNR</id></comment></pick><pick publicID="de.gempa.tb1.Pick/20250412040221.743745.121799"><time><value>2025-04-12T04:01:57.378394Z</value></time><waveformID networkCode="CX" stationCode="PB07" channelCode="HHN"/><filterID>ITAPER(2)&gt;&gt;BW(3,3,20)</filterID><methodID>L2-AIC-GRID</methodID><horizontalSlowness><value>22.65648671326477</value></horizontalSlowness><backazimuth><value>284.70332327973927</value></backazimuth><phaseHint>S</phaseHint><evaluationMode>automatic</evaluationMode><comment><text>12444803.156652428</text><id>DFX:rectilinearity</id></comment><comment><text>de.gempa.tb1.Pick/20250412040215.964316.121790</text><id>RefPickID</id></comment><comment><text>10.470717831434332</text><id>SNR</id></comment></pick><pick publicID="de.gempa.tb1.Pick/20250412040225.28022.121803"><time><value>2025-04-12T04:02:16.519999Z</value></time><waveformID networkCode="CX" stationCode="PATCX" channelCode="HHN"/><filterID>ITAPER(2)&gt;&gt;BW(3,3,20)</filterID><methodID>L2-AIC-GRID</methodID><horizontalSlowness><value>22.489594095377</value></horizontalSlowness><backazimuth><value>267.92387325886835</value></backazimuth><phaseHint>S</phaseHint><evaluationMode>automatic</evaluationMode><comment><text>18671.79700797398</text><id>DFX:rectilinearity</id></comment><comment><text>de.gempa.tb1.Pick/20250412040204.27011.121781</text><id>RefPickID</id></comment><comment><text>9.873610987046149</text><id>SNR</id></comment></pick><pick publicID="de.gempa.tb1.Pick/20250412040241.130666.121810"><time><value>2025-04-12T04:02:33.288394Z</value></time><waveformID networkCode="CX" stationCode="PB08" channelCode="HHN"/><filterID>ITAPER(2)&gt;&gt;BW(3,3,20)</filterID><methodID>L2-AIC-GRID</methodID><horizontalSlowness><value>15.376079883732604</value></horizontalSlowness><backazimuth><value>205.59236258115484</value></backazimuth><phaseHint>S</phaseHint><evaluationMode>automatic</evaluationMode><comment><text>187.09358716372097</text><id>DFX:rectilinearity</id></comment><comment><text>de.gempa.tb1.Pick/20250412040216.519747.121792</text><id>RefPickID</id></comment><comment><text>5.186710439056585</text><id>SNR</id></comment></pick><pick publicID="de.gempa.tb1.Pick/20250412040244.741448.121812"><time><value>2025-04-12T04:02:33.309998Z</value></time><waveformID networkCode="CX" stationCode="PB19" channelCode="HHN"/><filterID>ITAPER(2)&gt;&gt;BW(3,3,20)</filterID><methodID>L2-AIC-GRID</methodID><horizontalSlowness><value>22.65908253483396</value></horizontalSlowness><backazimuth><value>42.31732934660829</value></backazimuth><phaseHint>S</phaseHint><evaluationMode>automatic</evaluationMode><comment><text>8632.992349803859</text><id>DFX:rectilinearity</id></comment><comment><text>de.gempa.tb1.Pick/20250412040214.581528.121788</text><id>RefPickID</id></comment><comment><text>7.758536823719957</text><id>SNR</id></comment></pick><origin publicID="de.gempa.tb1.Origin/20250412040244.754102.73585"><time><value>2025-04-12T04:01:37.731268Z</value><uncertainty>0.3805115818977356</uncertainty></time><latitude><value>-22.024776458740234</value><uncertainty>1.5970654487609863</uncertainty></latitude><longitude><value>-69.68161010742188</value><uncertainty>4.1886258125305176</uncertainty></longitude><depth><value>62.27840042114258</value><uncertainty>4.0291409492492676</uncertainty></depth><depthType>from location</depthType><methodID>LOCSAT</methodID><earthModelID>iasp91_scanloc</earthModelID><quality><associatedPhaseCount>21</associatedPhaseCount><usedPhaseCount>21</usedPhaseCount><associatedStationCount>11</associatedStationCount><usedStationCount>11</usedStationCount><depthPhaseCount>0</depthPhaseCount><standardError>0.758278069491444</standardError><azimuthalGap>108.19668197631836</azimuthalGap><maximumDistance>1.9381003379821777</maximumDistance><minimumDistance>0.07039356231689453</minimumDistance><medianDistance>0.9933274984359741</medianDistance></quality><uncertainty><minHorizontalUncertainty>3.3665401935577393</minHorizontalUncertainty><maxHorizontalUncertainty>9.003395080566406</maxHorizontalUncertainty><azimuthMaxHorizontalUncertainty>85.69029998779297</azimuthMaxHorizontalUncertainty><preferredDescription>horizontal uncertainty</preferredDescription></uncertainty><evaluationMode>automatic</evaluationMode><evaluationStatus>confirmed</evaluationStatus><comment><text>0.00</text><id>mismatchScore</id></comment><comment><text>mismatchScore</text><id>scevalMethod</id></comment><arrival><pickID>de.gempa.tb1.Pick/20250412040152.643875.121768</pickID><phase>P</phase><azimuth>250.4167938232422</azimuth><distance>0.07039356231689453</distance><timeResidual>-0.37308692932128906</timeResidual><timeUsed>true</timeUsed><horizontalSlownessUsed>false</horizontalSlownessUsed><backazimuthUsed>false</backazimuthUsed><weight>1</weight></arrival><arrival><pickID>de.gempa.tb1.Pick/20250412040155.633322.121770</pickID><phase>P</phase><azimuth>171.49728393554688</azimuth><distance>0.6853423714637756</distance><timeResidual>-1.3229589462280273</timeResidual><timeUsed>true</timeUsed><horizontalSlownessUsed>false</horizontalSlownessUsed><backazimuthUsed>false</backazimuthUsed><weight>1</weight></arrival><arrival><pickID>de.gempa.tb1.Pick/20250412040157.484962.121772</pickID><phase>P</phase><azimuth>344.0919189453125</azimuth><distance>0.7293986678123474</distance><timeResidual>-0.6237611770629883</timeResidual><timeUsed>true</timeUsed><horizontalSlownessUsed>false</horizontalSlownessUsed><backazimuthUsed>false</backazimuthUsed><weight>1</weight></arrival><arrival><pickID>de.gempa.tb1.Pick/20250412040159.719189.121774</pickID><phase>P</phase><azimuth>10.523877143859863</azimuth><distance>0.9933274984359741</distance><timeResidual>-0.7595100402832031</timeResidual><timeUsed>true</timeUsed><horizontalSlownessUsed>false</horizontalSlownessUsed><backazimuthUsed>false</backazimuthUsed><weight>1</weight></arrival><arrival><pickID>de.gempa.tb1.Pick/20250412040201.590763.121776</pickID><phase>P</phase><azimuth>60.9786262512207</azimuth><distance>0.4673083126544952</distance><timeResidual>-0.4299173355102539</timeResidual><timeUsed>true</timeUsed><horizontalSlownessUsed>false</horizontalSlownessUsed><backazimuthUsed>false</backazimuthUsed><weight>1</weight></arrival><arrival><pickID>de.gempa.tb1.Pick/20250412040203.804967.121778</pickID><phase>S</phase><azimuth>250.4167938232422</azimuth><distance>0.07039356231689453</distance><timeResidual>0.4553642272949219</timeResidual><timeUsed>true</timeUsed><horizontalSlownessUsed>false</horizontalSlownessUsed><backazimuthUsed>false</backazimuthUsed><weight>1</weight></arrival><arrival><pickID>de.gempa.tb1.Pick/20250412040203.835287.121779</pickID><phase>P</phase><azimuth>170.6555938720703</azimuth><distance>1.1939395666122437</distance><timeResidual>-0.6521329879760742</timeResidual><timeUsed>true</timeUsed><horizontalSlownessUsed>false</horizontalSlownessUsed><backazimuthUsed>false</backazimuthUsed><weight>1</weight></arrival><arrival><pickID>de.gempa.tb1.Pick/20250412040204.27011.121781</pickID><phase>P</phase><azimuth>339.7868957519531</azimuth><distance>1.276063084602356</distance><timeResidual>-0.7566614151000977</timeResidual><timeUsed>true</timeUsed><horizontalSlownessUsed>false</horizontalSlownessUsed><backazimuthUsed>false</backazimuthUsed><weight>1</weight></arrival><arrival><pickID>de.gempa.tb1.Pick/20250412040208.780141.121783</pickID><phase>S</phase><azimuth>171.49728393554688</azimuth><distance>0.6853423714637756</distance><timeResidual>-1.090728759765625</timeResidual><timeUsed>true</timeUsed><horizontalSlownessUsed>false</horizontalSlownessUsed><backazimuthUsed>false</backazimuthUsed><weight>1</weight></arrival><arrival><pickID>de.gempa.tb1.Pick/20250412040210.616007.121784</pickID><phase>S</phase><azimuth>344.0919189453125</azimuth><distance>0.7293986678123474</distance><timeResidual>0.2739839553833008</timeResidual><timeUsed>true</timeUsed><horizontalSlownessUsed>false</horizontalSlownessUsed><backazimuthUsed>false</backazimuthUsed><weight>1</weight></arrival><arrival><pickID>de.gempa.tb1.Pick/20250412040211.172316.121785</pickID><phase>P</phase><azimuth>208.3574981689453</azimuth><distance>1.6863298416137695</distance><timeResidual>0.9037809371948242</timeResidual><timeUsed>true</timeUsed><horizontalSlownessUsed>false</horizontalSlownessUsed><backazimuthUsed>false</backazimuthUsed><weight>1</weight></arrival><arrival><pickID>de.gempa.tb1.Pick/20250412040213.098301.121787</pickID><phase>S</phase><azimuth>60.9786262512207</azimuth><distance>0.4673083126544952</distance><timeResidual>0.36095237731933594</timeResidual><timeUsed>true</timeUsed><horizontalSlownessUsed>false</horizontalSlownessUsed><backazimuthUsed>false</backazimuthUsed><weight>1</weight></arrival><arrival><pickID>de.gempa.tb1.Pick/20250412040214.581528.121788</pickID><phase>P</phase><azimuth>169.17530822753906</azimuth><distance>1.9055949449539185</distance><timeResidual>0.38010311126708984</timeResidual><timeUsed>true</timeUsed><horizontalSlownessUsed>false</horizontalSlownessUsed><backazimuthUsed>false</backaz