<?xml version="1.0" encoding="UTF-8"?>
<seiscomp xmlns="http://geofon.gfz-potsdam.de/ns/seiscomp3-schema/0.13" version="0.13"><EventParameters><pick publicID="de.gempa.tb1.Pick/20250412151625.522123.124897"><time><value>2025-04-12T15:16:17.68Z</value></time><waveformID networkCode="CX" stationCode="PB19" channelCode="HHZ"/><filterID>ITAPER(4)&gt;&gt;BW(4,4,20)</filterID><methodID>AIC</methodID><horizontalSlowness><value>20.917074658682274</value></horizontalSlowness><backazimuth><value>145.68466208280498</value></backazimuth><phaseHint>P</phaseHint><evaluationMode>automatic</evaluationMode><comment><text>46.64452905765162</text><id>DFX:rectilinearity</id></comment><comment><text>15.003569545295104</text><id>SNR</id></comment></pick><pick publicID="de.gempa.tb1.Pick/20250412151627.725058.124901"><time><value>2025-04-12T15:16:20.658393Z</value></time><waveformID networkCode="CX" stationCode="PB15" channelCode="HHZ"/><filterID>ITAPER(4)&gt;&gt;BW(4,4,20)</filterID><methodID>AIC</methodID><horizontalSlowness><value>17.555203550854422</value></horizontalSlowness><backazimuth><value>196.41655241412647</value></backazimuth><phaseHint>P</phaseHint><evaluationMode>automatic</evaluationMode><comment><text>139.75465640690084</text><id>DFX:rectilinearity</id></comment><comment><text>9.718151524129347</text><id>SNR</id></comment></pick><pick publicID="de.gempa.tb1.Pick/20250412151630.533264.124903"><time><value>2025-04-12T15:16:24.138393Z</value></time><waveformID networkCode="CX" stationCode="PB06" channelCode="HHZ"/><filterID>ITAPER(4)&gt;&gt;BW(4,4,20)</filterID><methodID>AIC</methodID><horizontalSlowness><value>13.317303960048848</value></horizontalSlowness><backazimuth><value>255.88167546147054</value></backazimuth><phaseHint>P</phaseHint><evaluationMode>automatic</evaluationMode><comment><text>196.53763440140852</text><id>DFX:rectilinearity</id></comment><comment><text>6.911379541503671</text><id>SNR</id></comment></pick><pick publicID="de.gempa.tb1.Pick/20250412151634.511138.124905"><time><value>2025-04-12T15:16:29.158393Z</value></time><waveformID networkCode="CX" stationCode="PB03" channelCode="HHZ"/><filterID>ITAPER(4)&gt;&gt;BW(4,4,20)</filterID><methodID>AIC</methodID><horizontalSlowness><value>6.100102672061024</value></horizontalSlowness><backazimuth><value>151.31419020826866</value></backazimuth><phaseHint>P</phaseHint><evaluationMode>automatic</evaluationMode><comment><text>12.35633120989941</text><id>DFX:rectilinearity</id></comment><comment><text>8.719501307481412</text><id>SNR</id></comment></pick><pick publicID="de.gempa.tb1.Pick/20250412151648.520873.124907"><time><value>2025-04-12T15:16:27.87Z</value></time><waveformID networkCode="CX" stationCode="PB09" channelCode="HHZ"/><filterID>ITAPER(4)&gt;&gt;BW(4,4,20)</filterID><methodID>AIC</methodID><horizontalSlowness><value>17.066331558770155</value></horizontalSlowness><backazimuth><value>337.1582298787207</value></backazimuth><phaseHint>P</phaseHint><evaluationMode>automatic</evaluationMode><comment><text>9.219505041178454</text><id>DFX:rectilinearity</id></comment><comment><text>9.239653217237633</text><id>SNR</id></comment></pick><pick publicID="de.gempa.tb1.Pick/20250412151657.186023.124909"><time><value>2025-04-12T15:16:32.268391Z</value></time><waveformID networkCode="CX" stationCode="PB07" channelCode="HHZ"/><filterID>ITAPER(4)&gt;&gt;BW(4,4,20)</filterID><methodID>AIC</methodID><horizontalSlowness><value>21.88973719024371</value></horizontalSlowness><backazimuth><value>208.51295139484708</value></backazimuth><phaseHint>P</phaseHint><evaluationMode>automatic</evaluationMode><comment><text>192.08975179355534</text><id>DFX:rectilinearity</id></comment><comment><text>14.635585269899792</text><id>SNR</id></comment></pick><origin publicID="de.gempa.tb1.Origin/20250412151657.641667.85690"><time><value>2025-04-12T15:15:43.382339Z</value><uncertainty>6.308300971984863</uncertainty></time><latitude><value>-23.578649520874023</value><uncertainty>18.226884841918945</uncertainty></latitude><longitude><value>-67.17991638183594</value><uncertainty>51.68403244018555</uncertainty></longitude><depth><value>0</value></depth><depthType>operator assigned</depthType><methodID>LOCSAT</methodID><earthModelID>iasp91_scanloc</earthModelID><quality><associatedPhaseCount>6</associatedPhaseCount><usedPhaseCount>6</usedPhaseCount><associatedStationCount>6</associatedStationCount><usedStationCount>6</usedStationCount><depthPhaseCount>0</depthPhaseCount><standardError>0.831448436313311</standardError><azimuthalGap>307.4817199707031</azimuthalGap><maximumDistance>3.105855941772461</maximumDistance><minimumDistance>1.9612292051315308</minimumDistance><medianDistance>2.6024224758148193</medianDistance></quality><uncertainty><minHorizontalUncertainty>22.86246681213379</minHorizontalUncertainty><maxHorizontalUncertainty>115.30453491210938</maxHorizontalUncertainty><azimuthMaxHorizontalUncertainty>106.29662322998047</azimuthMaxHorizontalUncertainty><preferredDescription>horizontal uncertainty</preferredDescription></uncertainty><evaluationMode>automatic</evaluationMode><evaluationStatus>confirmed</evaluationStatus><comment><text>0.01</text><id>mismatchScore</id></comment><comment><text>mismatchScore</text><id>scevalMethod</id></comment><arrival><pickID>de.gempa.tb1.Pick/20250412151625.522123.124897</pickID><phase>P</phase><azimuth>260.0503845214844</azimuth><distance>1.9612292051315308</distance><timeResidual>-0.21295166015625</timeResidual><timeUsed>true</timeUsed><horizontalSlownessUsed>false</horizontalSlownessUsed><backazimuthUsed>false</backazimuthUsed><weight>1</weight></arrival><arrival><pickID>de.gempa.tb1.Pick/20250412151627.725058.124901</pickID><phase>P</phase><azimuth>279.4793395996094</azimuth><distance>2.13689923286438</distance><timeResidual>0.3469047546386719</timeResidual><timeUsed>true</timeUsed><horizontalSlownessUsed>false</horizontalSlownessUsed><backazimuthUsed>false</backazimuthUsed><weight>1</weight></arrival><arrival><pickID>de.gempa.tb1.Pick/20250412151630.533264.124903</pickID><phase>P</phase><azimuth>291.0633850097656</azimuth><distance>2.3669137954711914</distance><timeResidual>0.6606788635253906</timeResidual><timeUsed>true</timeUsed><horizontalSlownessUsed>false</horizontalSlownessUsed><backazimuthUsed>false</backazimuthUsed><weight>1</weight></arrival><arrival><pickID>de.gempa.tb1.Pick/20250412151634.511138.124905</pickID><phase>P</phase><azimuth>302.17718505859375</azimuth><distance>2.820638418197632</distance><timeResidual>-0.5645561218261719</timeResidual><timeUsed>true</timeUsed><horizontalSlownessUsed>false</horizontalSlownessUsed><backazimuthUsed>false</backazimuthUsed><weight>1</weight></arrival><arrival><pickID>de.gempa.tb1.Pick/20250412151648.520873.124907</pickID><phase>P</phase><azimuth>312.56866455078125</azimuth><distance>2.6024224758148193</distance><timeResidual>1.149932861328125</timeResidual><timeUsed>true</timeUsed><horizontalSlownessUsed>false</horizontalSlownessUsed><backazimuthUsed>false</backazimuthUsed><weight>1</weight></arrival><arrival><pickID>de.gempa.tb1.Pick/20250412151657.186023.124909</pickID><phase>P</phase><azimuth>305.87689208984375</azimuth><distance>3.105855941772461</distance><timeResidual>-1.38006591796875</timeResidual><timeUsed>true</timeUsed><horizontalSlownessUsed>false</horizontalSlownessUsed><backazimuthUsed>false</backazimuthUsed><weight>1</weight></arrival><magnitude publicID="de.gempa.tb1.Magnitude/20250412151850.640342.245339"><magnitude><value>3.1578821002541746</value></magnitude><type>M</type><methodID>weighted average</methodID><stationCount>6</stationCount></magnitude></origin><event publicID="gempa2025hfst"><preferredOriginID>de.gempa.tb1.Origin/20250412151657.641667.85690</preferredOriginID><preferredMagnitudeID>de.gempa.tb1.Magnitude/20250412151850.640342.245339</preferredMagnitudeID><description><text>Chile-Argentina Border Region</text><type>region name</type></description><originReference>de.gempa.tb1.Origin/20250412151657.641667.85690</originReference></event></EventParameters></seiscomp>