<?xml version="1.0" encoding="UTF-8"?>
<seiscomp xmlns="http://geofon.gfz-potsdam.de/ns/seiscomp3-schema/0.13" version="0.13"><EventParameters><pick publicID="de.gempa.tb1.Pick/20250411143615.538342.121299"><time><value>2025-04-11T14:36:12.93Z</value></time><waveformID networkCode="CH" stationCode="ACB" channelCode="HHZ"/><filterID>ITAPER(4)&gt;&gt;BW(4,4,20)</filterID><methodID>AIC</methodID><phaseHint>P</phaseHint><evaluationMode>automatic</evaluationMode></pick><pick publicID="de.gempa.tb1.Pick/20250411143619.142195.121301"><time><value>2025-04-11T14:36:15.975Z</value></time><waveformID networkCode="CH" stationCode="BOURR" channelCode="HHZ"/><filterID>ITAPER(4)&gt;&gt;BW(4,4,20)</filterID><methodID>AIC</methodID><phaseHint>P</phaseHint><evaluationMode>automatic</evaluationMode></pick><pick publicID="de.gempa.tb1.Pick/20250411143622.040553.121303"><time><value>2025-04-11T14:36:19.815Z</value></time><waveformID networkCode="CH" stationCode="TRULL" channelCode="HHZ"/><filterID>ITAPER(4)&gt;&gt;BW(4,4,20)</filterID><methodID>AIC</methodID><phaseHint>P</phaseHint><evaluationMode>automatic</evaluationMode></pick><pick publicID="de.gempa.tb1.Pick/20250411143623.929183.121310"><time><value>2025-04-11T14:36:20.16Z</value></time><waveformID networkCode="CH" stationCode="DAGMA" channelCode="HHZ"/><filterID>ITAPER(4)&gt;&gt;BW(4,4,20)</filterID><methodID>AIC</methodID><phaseHint>P</phaseHint><evaluationMode>automatic</evaluationMode></pick><pick publicID="de.gempa.tb1.Pick/20250411143632.430579.121312"><time><value>2025-04-11T14:36:28.94Z</value></time><waveformID networkCode="CH" stationCode="TORNY" channelCode="HHZ"/><filterID>ITAPER(4)&gt;&gt;BW(4,4,20)</filterID><methodID>AIC</methodID><phaseHint>P</phaseHint><evaluationMode>automatic</evaluationMode></pick><origin publicID="de.gempa.tb1.Origin/20250411143632.43251.57403"><time><value>2025-04-11T14:36:04.964651Z</value><uncertainty>2.4649548530578613</uncertainty></time><latitude><value>47.92545318603516</value><uncertainty>18.07134246826172</uncertainty></latitude><longitude><value>7.687578201293945</value><uncertainty>6.338523387908936</uncertainty></longitude><depth><value>0</value></depth><depthType>operator assigned</depthType><methodID>LOCSAT</methodID><earthModelID>iasp91</earthModelID><quality><associatedPhaseCount>5</associatedPhaseCount><usedPhaseCount>5</usedPhaseCount><associatedStationCount>5</associatedStationCount><usedStationCount>5</usedStationCount><depthPhaseCount>0</depthPhaseCount><standardError>1.1739292628026645</standardError><azimuthalGap>261.7447814941406</azimuthalGap><maximumDistance>1.2544749975204468</maximumDistance><minimumDistance>0.5104572772979736</minimumDistance><medianDistance>0.7252781391143799</medianDistance></quality><uncertainty><minHorizontalUncertainty>9.53050708770752</minHorizontalUncertainty><maxHorizontalUncertainty>39.963565826416016</maxHorizontalUncertainty><azimuthMaxHorizontalUncertainty>165.52745056152344</azimuthMaxHorizontalUncertainty><preferredDescription>horizontal uncertainty</preferredDescription></uncertainty><evaluationMode>automatic</evaluationMode><arrival><pickID>de.gempa.tb1.Pick/20250411143615.538342.121299</pickID><phase>P</phase><azimuth>131.2713623046875</azimuth><distance>0.5104572772979736</distance><timeResidual>-1.8866610527038574</timeResidual><timeUsed>true</timeUsed><horizontalSlownessUsed>false</horizontalSlownessUsed><backazimuthUsed>false</backazimuthUsed><weight>1</weight></arrival><arrival><pickID>de.gempa.tb1.Pick/20250411143619.142195.121301</pickID><phase>P</phase><azimuth>210.3340301513672</azimuth><distance>0.6153301000595093</distance><timeResidual>-0.8357596397399902</timeResidual><timeUsed>true</timeUsed><horizontalSlownessUsed>false</horizontalSlownessUsed><backazimuthUsed>false</backazimuthUsed><weight>1</weight></arrival><arrival><pickID>de.gempa.tb1.Pick/20250411143622.040553.121303</pickID><phase>P</phase><azimuth>112.07881164550781</azimuth><distance>0.7252781391143799</distance><timeResidual>0.9144368171691895</timeResidual><timeUsed>true</timeUsed><horizontalSlownessUsed>false</horizontalSlownessUsed><backazimuthUsed>false</backazimuthUsed><weight>1</weight></arrival><arrival><pickID>de.gempa.tb1.Pick/20250411143623.929183.121310</pickID><phase>P</phase><azimuth>162.31678771972656</azimuth><distance>0.7289522290229797</distance><timeResidual>1.1888599395751953</timeResidual><timeUsed>true</timeUsed><horizontalSlownessUsed>false</horizontalSlownessUsed><backazimuthUsed>false</backazimuthUsed><weight>1</weight></arrival><arrival><pickID>de.gempa.tb1.Pick/20250411143632.430579.121312</pickID><phase>P</phase><azimuth>203.54156494140625</azimuth><distance>1.2544749975204468</distance><timeResidual>0.6188559532165527</timeResidual><timeUsed>true</timeUsed><horizontalSlownessUsed>false</horizontalSlownessUsed><backazimuthUsed>false</backazimuthUsed><weight>1</weight></arrival><magnitude publicID="de.gempa.tb1.Magnitude/20250411143712.297229.109180"><magnitude><value>1.8650318204373941</value></magnitude><type>M</type><methodID>weighted average</methodID><stationCount>3</stationCount></magnitude></origin><event publicID="gempa2025hdvk"><preferredOriginID>de.gempa.tb1.Origin/20250411143632.43251.57403</preferredOriginID><preferredMagnitudeID>de.gempa.tb1.Magnitude/20250411143712.297229.109180</preferredMagnitudeID><typeCertainty>suspected</typeCertainty><description><text>Switzerland</text><type>region name</type></description><originReference>de.gempa.tb1.Origin/20250411143632.43251.57403</originReference></event></EventParameters></seiscomp>