<?xml version="1.0" encoding="UTF-8"?>
<seiscomp xmlns="http://geofon.gfz-potsdam.de/ns/seiscomp3-schema/0.13" version="0.13"><EventParameters><pick publicID="de.gempa.tb1.Pick/20250411235021.686411.120789"><time><value>2025-04-11T23:50:16.768393Z</value></time><waveformID networkCode="CX" stationCode="PB06" channelCode="HHZ"/><filterID>ITAPER(4)&gt;&gt;BW(4,4,20)</filterID><methodID>AIC</methodID><horizontalSlowness><value>14.261261641074897</value></horizontalSlowness><backazimuth><value>138.44073430844745</value></backazimuth><phaseHint>P</phaseHint><evaluationMode>automatic</evaluationMode><comment><text>77.9136003563909</text><id>DFX:rectilinearity</id></comment><comment><text>26.700064321579514</text><id>SNR</id></comment></pick><pick publicID="de.gempa.tb1.Pick/20250411235021.686986.120791"><time><value>2025-04-11T23:50:16.028391Z</value></time><waveformID networkCode="CX" stationCode="PB15" channelCode="HHZ"/><filterID>ITAPER(4)&gt;&gt;BW(4,4,20)</filterID><methodID>AIC</methodID><horizontalSlowness><value>22.550673630179425</value></horizontalSlowness><backazimuth><value>105.21162483650033</value></backazimuth><phaseHint>P</phaseHint><evaluationMode>automatic</evaluationMode><comment><text>273.7767425700659</text><id>DFX:rectilinearity</id></comment><comment><text>12.641861975128467</text><id>SNR</id></comment></pick><pick publicID="de.gempa.tb1.Pick/20250411235028.651939.120793"><time><value>2025-04-11T23:50:23.418393Z</value></time><waveformID networkCode="CX" stationCode="PB03" channelCode="HHZ"/><filterID>ITAPER(4)&gt;&gt;BW(4,4,20)</filterID><methodID>AIC</methodID><horizontalSlowness><value>1.5142581982947985</value></horizontalSlowness><backazimuth><value>302.42370982939394</value></backazimuth><phaseHint>P</phaseHint><evaluationMode>automatic</evaluationMode><comment><text>5.754558087219174</text><id>DFX:rectilinearity</id></comment><comment><text>11.623650331588966</text><id>SNR</id></comment></pick><pick publicID="de.gempa.tb1.Pick/20250411235032.865415.120797"><time><value>2025-04-11T23:50:26.408391Z</value></time><waveformID networkCode="CX" stationCode="PB15" channelCode="HHN"/><filterID>ITAPER(2)&gt;&gt;BW(3,3,20)</filterID><methodID>L2-AIC-GRID</methodID><horizontalSlowness><value>22.30719995977185</value></horizontalSlowness><backazimuth><value>76.11561765960344</value></backazimuth><phaseHint>S</phaseHint><evaluationMode>automatic</evaluationMode><comment><text>9936.415309144393</text><id>DFX:rectilinearity</id></comment><comment><text>de.gempa.tb1.Pick/20250411235021.686986.120791</text><id>RefPickID</id></comment><comment><text>7.3042632344893</text><id>SNR</id></comment></pick><pick publicID="de.gempa.tb1.Pick/20250411235037.094589.120799"><time><value>2025-04-11T23:50:25.95Z</value></time><waveformID networkCode="CX" stationCode="PB09" channelCode="HHZ"/><filterID>ITAPER(4)&gt;&gt;BW(4,4,20)</filterID><methodID>AIC</methodID><horizontalSlowness><value>13.065756794350738</value></horizontalSlowness><backazimuth><value>237.1744980167567</value></backazimuth><phaseHint>P</phaseHint><evaluationMode>automatic</evaluationMode><comment><text>6.653780835298013</text><id>DFX:rectilinearity</id></comment><comment><text>7.532160585945112</text><id>SNR</id></comment></pick><pick publicID="de.gempa.tb1.Pick/20250411235046.773597.120803"><time><value>2025-04-11T23:50:39.248393Z</value></time><waveformID networkCode="CX" stationCode="PB03" channelCode="HHN"/><filterID>ITAPER(2)&gt;&gt;BW(3,3,20)</filterID><methodID>L2-AIC-GRID</methodID><horizontalSlowness><value>18.533008575669392</value></horizontalSlowness><backazimuth><value>13.926996798717482</value></backazimuth><phaseHint>S</phaseHint><evaluationMode>automatic</evaluationMode><comment><text>26.856455771156675</text><id>DFX:rectilinearity</id></comment><comment><text>de.gempa.tb1.Pick/20250411235028.651939.120793</text><id>RefPickID</id></comment><comment><text>11.503258379456863</text><id>SNR</id></comment></pick><origin publicID="de.gempa.tb1.Origin/20250411235047.604311.69238"><time><value>2025-04-11T23:50:02.513095Z</value><uncertainty>1.73601496219635</uncertainty></time><latitude><value>-23.07295608520508</value><uncertainty>9.896236419677734</uncertainty></latitude><longitude><value>-69.45488739013672</value><uncertainty>28.651039123535156</uncertainty></longitude><depth><value>95.79654693603516</value><uncertainty>11.9422607421875</uncertainty></depth><depthType>from location</depthType><methodID>LOCSAT</methodID><earthModelID>iasp91_scanloc</earthModelID><quality><associatedPhaseCount>6</associatedPhaseCount><usedPhaseCount>6</usedPhaseCount><associatedStationCount>4</associatedStationCount><usedStationCount>4</usedStationCount><depthPhaseCount>0</depthPhaseCount><standardError>0.13671454603008104</standardError><azimuthalGap>177.38943004608154</azimuthalGap><maximumDistance>1.2856881618499756</maximumDistance><minimumDistance>0.13555659353733063</minimumDistance><medianDistance>1.0562353134155273</medianDistance></quality><uncertainty><minHorizontalUncertainty>14.313336372375488</minHorizontalUncertainty><maxHorizontalUncertainty>63.41130065917969</maxHorizontalUncertainty><azimuthMaxHorizontalUncertainty>75.30533599853516</azimuthMaxHorizontalUncertainty><preferredDescription>horizontal uncertainty</preferredDescription></uncertainty><evaluationMode>automatic</evaluationMode><evaluationStatus>confirmed</evaluationStatus><comment><text>0.13</text><id>mismatchScore</id></comment><comment><text>mismatchScore</text><id>scevalMethod</id></comment><arrival><pickID>de.gempa.tb1.Pick/20250411235021.686411.120789</pickID><phase>P</phase><azimuth>343.5294189453125</azimuth><distance>0.3810293674468994</distance><timeResidual>-0.2807626724243164</timeResidual><timeUsed>true</timeUsed><horizontalSlownessUsed>false</horizontalSlownessUsed><backazimuthUsed>false</backazimuthUsed><weight>1</weight></arrival><arrival><pickID>de.gempa.tb1.Pick/20250411235021.686986.120791</pickID><phase>P</phase><azimuth>186.24571228027344</azimuth><distance>0.13555659353733063</distance><timeResidual>0.028200149536132809</timeResidual><timeUsed>true</timeUsed><horizontalSlownessUsed>false</horizontalSlownessUsed><backazimuthUsed>false</backazimuthUsed><weight>1</weight></arrival><arrival><pickID>de.gempa.tb1.Pick/20250411235028.651939.120793</pickID><phase>P</phase><azimuth>344.8144836425781</azimuth><distance>1.0562353134155273</distance><timeResidual>0.16473388671875</timeResidual><timeUsed>true</timeUsed><horizontalSlownessUsed>false</horizontalSlownessUsed><backazimuthUsed>false</backazimuthUsed><weight>1</weight></arrival><arrival><pickID>de.gempa.tb1.Pick/20250411235032.865415.120797</pickID><phase>S</phase><azimuth>186.24571228027344</azimuth><distance>0.13555659353733063</distance><timeResidual>0.07084083557128906</timeResidual><timeUsed>true</timeUsed><horizontalSlownessUsed>false</horizontalSlownessUsed><backazimuthUsed>false</backazimuthUsed><weight>1</weight></arrival><arrival><pickID>de.gempa.tb1.Pick/20250411235037.094589.120799</pickID><phase>P</phase><azimuth>8.856282234191895</azimuth><distance>1.2856881618499756</distance><timeResidual>0.019033432006835938</timeResidual><timeUsed>true</timeUsed><horizontalSlownessUsed>false</horizontalSlownessUsed><backazimuthUsed>false</backazimuthUsed><weight>1</weight></arrival><arrival><pickID>de.gempa.tb1.Pick/20250411235046.773597.120803</pickID><phase>S</phase><azimuth>344.8144836425781</azimuth><distance>1.0562353134155273</distance><timeResidual>-0.0020799636840820312</timeResidual><timeUsed>true</timeUsed><horizontalSlownessUsed>false</horizontalSlownessUsed><backazimuthUsed>false</backazimuthUsed><weight>1</weight></arrival><magnitude publicID="de.gempa.tb1.Magnitude/20250411235119.458322.155678"><magnitude><value>2.0185986932155084</value></magnitude><type>M</type><methodID>weighted average</methodID><stationCount>2</stationCount></magnitude></origin><event publicID="gempa2025henw"><preferredOriginID>de.gempa.tb1.Origin/20250411235047.604311.69238</preferredOriginID><preferredMagnitudeID>de.gempa.tb1.Magnitude/20250411235119.458322.155678</preferredMagnitudeID><description><text>Northern Chile</text><type>region name</type></description><originReference>de.gempa.tb1.Origin/20250411235047.604311.69238</originReference></event></EventParameters></seiscomp>