<?xml version="1.0" encoding="UTF-8"?>
<seiscomp xmlns="http://geofon.gfz-potsdam.de/ns/seiscomp3-schema/0.13" version="0.13"><EventParameters><pick publicID="de.gempa.tb2.Pick/20250415032914.987689.194472"><time><value>2025-04-15T03:29:12.47Z</value></time><waveformID networkCode="CH" stationCode="SIMPL" channelCode="HHZ"/><filterID>ITAPER(4)&gt;&gt;BW(4,4,20)</filterID><methodID>AIC</methodID><phaseHint>P</phaseHint><evaluationMode>automatic</evaluationMode></pick><pick publicID="de.gempa.tb2.Pick/20250415032915.128721.194474"><time><value>2025-04-15T03:29:10.818393Z</value></time><waveformID networkCode="CH" stationCode="GRIMS" channelCode="HHZ"/><filterID>ITAPER(4)&gt;&gt;BW(4,4,20)</filterID><methodID>AIC</methodID><phaseHint>P</phaseHint><evaluationMode>automatic</evaluationMode></pick><pick publicID="de.gempa.tb2.Pick/20250415032915.147065.194477"><time><value>2025-04-15T03:29:11.885001Z</value></time><waveformID networkCode="CH" stationCode="DIX" channelCode="HHZ"/><filterID>ITAPER(4)&gt;&gt;BW(4,4,20)</filterID><methodID>AIC</methodID><phaseHint>P</phaseHint><evaluationMode>automatic</evaluationMode></pick><pick publicID="de.gempa.tb2.Pick/20250415032916.097.194479"><time><value>2025-04-15T03:29:09.15Z</value></time><waveformID networkCode="CH" stationCode="EMBD" channelCode="HHZ"/><filterID>ITAPER(4)&gt;&gt;BW(4,4,20)</filterID><methodID>AIC</methodID><phaseHint>P</phaseHint><evaluationMode>automatic</evaluationMode></pick><pick publicID="de.gempa.tb2.Pick/20250415032918.046288.194481"><time><value>2025-04-15T03:29:13.29Z</value></time><waveformID networkCode="CH" stationCode="NALPS" channelCode="HHZ"/><filterID>ITAPER(4)&gt;&gt;BW(4,4,20)</filterID><methodID>AIC</methodID><phaseHint>P</phaseHint><evaluationMode>automatic</evaluationMode></pick><pick publicID="de.gempa.tb2.Pick/20250415033017.583788.194510"><time><value>2025-04-15T03:29:37.689999Z</value></time><waveformID networkCode="GR" stationCode="FUR" channelCode="BHZ"/><filterID>BW(4,4,8)</filterID><methodID>AIC</methodID><phaseHint>P</phaseHint><evaluationMode>automatic</evaluationMode></pick><origin publicID="de.gempa.tb2.Origin/20250415033017.595333.79457"><time><value>2025-04-15T03:28:52.688036Z</value><uncertainty>2.9342331886291504</uncertainty></time><latitude><value>46.63029098510742</value><uncertainty>47.08365249633789</uncertainty></latitude><longitude><value>7.6000394821167</value><uncertainty>37.87912368774414</uncertainty></longitude><depth><value>113.27970123291016</value><uncertainty>39.89533233642578</uncertainty></depth><depthType>from location</depthType><methodID>LOCSAT</methodID><earthModelID>iasp91</earthModelID><quality><associatedPhaseCount>6</associatedPhaseCount><usedPhaseCount>6</usedPhaseCount><associatedStationCount>6</associatedStationCount><usedStationCount>6</usedStationCount><depthPhaseCount>0</depthPhaseCount><standardError>0.9232003269466285</standardError><azimuthalGap>223.45317840576172</azimuthalGap><maximumDistance>2.931060552597046</maximumDistance><minimumDistance>0.4439728856086731</minimumDistance><medianDistance>0.5662016868591309</medianDistance></quality><uncertainty><minHorizontalUncertainty>32.055912017822266</minHorizontalUncertainty><maxHorizontalUncertainty>125.60202026367188</maxHorizontalUncertainty><azimuthMaxHorizontalUncertainty>142.06141662597656</azimuthMaxHorizontalUncertainty><preferredDescription>horizontal uncertainty</preferredDescription></uncertainty><evaluationMode>automatic</evaluationMode><arrival><pickID>de.gempa.tb2.Pick/20250415032914.987689.194472</pickID><phase>P</phase><azimuth>143.25518798828125</azimuth><distance>0.4867323935031891</distance><timeResidual>1.3929786682128906</timeResidual><timeUsed>true</timeUsed><horizontalSlownessUsed>false</horizontalSlownessUsed><backazimuthUsed>false</backazimuthUsed><weight>1</weight></arrival><arrival><pickID>de.gempa.tb2.Pick/20250415032915.128721.194474</pickID><phase>P</phase><azimuth>95.74774169921875</azimuth><distance>0.4983414113521576</distance><timeResidual>-0.32540130615234375</timeResidual><timeUsed>true</timeUsed><horizontalSlownessUsed>false</horizontalSlownessUsed><backazimuthUsed>false</backazimuthUsed><weight>1</weight></arrival><arrival><pickID>de.gempa.tb2.Pick/20250415032915.147065.194477</pickID><phase>P</phase><azimuth>193.64495849609375</azimuth><distance>0.5662016868591309</distance><timeResidual>0.3314075469970703</timeResidual><timeUsed>true</timeUsed><horizontalSlownessUsed>false</horizontalSlownessUsed><backazimuthUsed>false</backazimuthUsed><weight>1</weight></arrival><arrival><pickID>de.gempa.tb2.Pick/20250415032916.097.194479</pickID><phase>P</phase><azimuth>158.70692443847656</azimuth><distance>0.4439728856086731</distance><timeResidual>-1.671459197998047</timeResidual><timeUsed>true</timeUsed><horizontalSlownessUsed>false</horizontalSlownessUsed><backazimuthUsed>false</backazimuthUsed><weight>1</weight></arrival><arrival><pickID>de.gempa.tb2.Pick/20250415032918.046288.194481</pickID><phase>P</phase><azimuth>92.12909698486328</azimuth><distance>0.7923251390457153</distance><timeResidual>0.3880195617675781</timeResidual><timeUsed>true</timeUsed><horizontalSlownessUsed>false</horizontalSlownessUsed><backazimuthUsed>false</backazimuthUsed><weight>1</weight></arrival><arrival><pickID>de.gempa.tb2.Pick/20250415033017.583788.194510</pickID><phase>P</phase><azimuth>57.09813690185547</azimuth><distance>2.931060552597046</distance><timeResidual>-0.11554908752441406</timeResidual><timeUsed>true</timeUsed><horizontalSlownessUsed>false</horizontalSlownessUsed><backazimuthUsed>false</backazimuthUsed><weight>1</weight></arrival><magnitude publicID="de.gempa.tb2.Magnitude/20250415033017.774662.39244"><magnitude><value>1.422315387993481</value></magnitude><type>M</type><methodID>weighted average</methodID><stationCount>5</stationCount></magnitude></origin><event publicID="gempa2025hkjg"><preferredOriginID>de.gempa.tb2.Origin/20250415033017.595333.79457</preferredOriginID><preferredMagnitudeID>de.gempa.tb2.Magnitude/20250415033017.774662.39244</preferredMagnitudeID><description><text>Switzerland</text><type>region name</type></description><originReference>de.gempa.tb2.Origin/20250415033017.595333.79457</originReference></event></EventParameters></seiscomp>