<?xml version="1.0" encoding="UTF-8"?>
<seiscomp xmlns="http://geofon.gfz-potsdam.de/ns/seiscomp3-schema/0.13" version="0.13"><EventParameters><pick publicID="de.gempa.tb1.Pick/20250412203553.211322.189504"><time><value>2025-04-12T20:35:47.98Z</value></time><waveformID networkCode="SX" stationCode="ROHR" channelCode="HHZ"/><filterID>ITAPER(2)&gt;&gt;BW(3,3,20)</filterID><methodID>AIC</methodID><horizontalSlowness><value>21.732251707472614</value></horizontalSlowness><backazimuth><value>78.2626049534353</value></backazimuth><phaseHint>P</phaseHint><evaluationMode>automatic</evaluationMode><comment><text>173.14850796221418</text><id>DFX:rectilinearity</id></comment></pick><pick publicID="de.gempa.tb1.Pick/20250412203554.662349.189506"><time><value>2025-04-12T20:35:49.92Z</value></time><waveformID networkCode="SX" stationCode="WERD" channelCode="HHZ"/><filterID>ITAPER(2)&gt;&gt;BW(3,3,20)</filterID><methodID>AIC</methodID><horizontalSlowness><value>20.260342029227623</value></horizontalSlowness><backazimuth><value>83.44240556150382</value></backazimuth><phaseHint>P</phaseHint><evaluationMode>automatic</evaluationMode><comment><text>252.5599033277688</text><id>DFX:rectilinearity</id></comment></pick><pick publicID="de.gempa.tb1.Pick/20250412203554.765685.189508"><time><value>2025-04-12T20:35:52.355Z</value></time><waveformID networkCode="BW" stationCode="MANZ" channelCode="HHZ"/><filterID>ITAPER(2)&gt;&gt;BW(3,3,20)</filterID><methodID>AIC</methodID><horizontalSlowness><value>22.608660000431723</value></horizontalSlowness><backazimuth><value>103.61202280660879</value></backazimuth><phaseHint>P</phaseHint><evaluationMode>automatic</evaluationMode><comment><text>1.4480335287732549</text><id>DFX:rectilinearity</id></comment></pick><pick publicID="de.gempa.tb1.Pick/20250412203555.475632.189510"><time><value>2025-04-12T20:35:47.7375Z</value></time><waveformID networkCode="SX" stationCode="WERN" channelCode="HHZ"/><filterID>ITAPER(2)&gt;&gt;BW(3,3,20)</filterID><methodID>AIC</methodID><horizontalSlowness><value>23.441629764099336</value></horizontalSlowness><backazimuth><value>64.81222312726707</value></backazimuth><phaseHint>P</phaseHint><evaluationMode>automatic</evaluationMode><comment><text>1632.9689766680629</text><id>DFX:rectilinearity</id></comment></pick><pick publicID="de.gempa.tb1.Pick/20250412203556.893434.189512"><time><value>2025-04-12T20:35:48.69Z</value></time><waveformID networkCode="SX" stationCode="GUNZ" channelCode="HHZ"/><filterID>ITAPER(2)&gt;&gt;BW(3,3,20)</filterID><methodID>AIC</methodID><horizontalSlowness><value>22.76154560282246</value></horizontalSlowness><backazimuth><value>281.47069466560555</value></backazimuth><phaseHint>P</phaseHint><evaluationMode>automatic</evaluationMode><comment><text>457.6626676568382</text><id>DFX:rectilinearity</id></comment></pick><pick publicID="de.gempa.tb1.Pick/20250412203557.844358.189518"><time><value>2025-04-12T20:35:48.99Z</value></time><waveformID networkCode="SX" stationCode="TANN" channelCode="HHZ"/><filterID>ITAPER(2)&gt;&gt;BW(3,3,20)</filterID><methodID>AIC</methodID><horizontalSlowness><value>18.562991701601753</value></horizontalSlowness><backazimuth><value>313.04844041789664</value></backazimuth><phaseHint>P</phaseHint><evaluationMode>automatic</evaluationMode><comment><text>94.49928569270429</text><id>DFX:rectilinearity</id></comment></pick><pick publicID="de.gempa.tb1.Pick/20250412203557.884521.189520"><time><value>2025-04-12T20:35:55.375Z</value></time><waveformID networkCode="BW" stationCode="ROTZ" channelCode="HHZ"/><filterID>ITAPER(2)&gt;&gt;BW(3,3,20)</filterID><methodID>AIC</methodID><horizontalSlowness><value>15.585335535465076</value><uncertainty>5.841445990238954</uncertainty></horizontalSlowness><backazimuth><value>351.47766828900365</value><uncertainty>21.60241271073377</uncertainty></backazimuth><phaseHint>P</phaseHint><evaluationMode>automatic</evaluationMode><comment><text>0.6280501932415966</text><id>DFX:rectilinearity</id></comment></pick><pick publicID="de.gempa.tb1.Pick/20250412203558.278544.189522"><time><value>2025-04-12T20:35:50.01Z</value></time><waveformID networkCode="SX" stationCode="TRIB" channelCode="HHZ"/><filterID>ITAPER(2)&gt;&gt;BW(3,3,20)</filterID><methodID>AIC</methodID><horizontalSlowness><value>21.332802030234156</value></horizontalSlowness><backazimuth><value>53.51701288043519</value></backazimuth><phaseHint>P</phaseHint><evaluationMode>automatic</evaluationMode><comment><text>26.23696698006421</text><id>DFX:rectilinearity</id></comment></pick><pick publicID="de.gempa.tb1.Pick/20250412203558.3263.189524"><time><value>2025-04-12T20:35:49.02Z</value></time><waveformID networkCode="SX" stationCode="MULD" channelCode="HHZ"/><filterID>ITAPER(2)&gt;&gt;BW(3,3,20)</filterID><methodID>AIC</methodID><horizontalSlowness><value>23.560156593438915</value></horizontalSlowness><backazimuth><value>320.397227585524</value></backazimuth><phaseHint>P</phaseHint><evaluationMode>automatic</evaluationMode><comment><text>123.118823683217</text><id>DFX:rectilinearity</id></comment></pick><pick publicID="de.gempa.tb1.Pick/20250412203559.134746.189526"><time><value>2025-04-12T20:35:49.61Z</value></time><waveformID networkCode="SX" stationCode="ROHR" channelCode="HHN"/><filterID>ITAPER(3)&gt;&gt;BW(4,3,10)</filterID><methodID>L2-AIC-GRID</methodID><horizontalSlowness><value>21.775278977538598</value></horizontalSlowness><backazimuth><value>78.69518995503779</value></backazimuth><phaseHint>S</phaseHint><evaluationMode>automatic</evaluationMode><comment><text>163.12660226140969</text><id>DFX:rectilinearity</id></comment><comment><text>de.gempa.tb1.Pick/20250412203553.211322.189504</text><id>RefPickID</id></comment></pick><pick publicID="de.gempa.tb1.Pick/20250412203559.316453.189527"><time><value>2025-04-12T20:35:56.91Z</value></time><waveformID networkCode="BW" stationCode="MANZ" channelCode="HHN"/><filterID>ITAPER(3)&gt;&gt;BW(4,3,10)</filterID><methodID>L2-AIC-GRID</methodID><horizontalSlowness><value>21.044076984765205</value></horizontalSlowness><backazimuth><value>113.78344214337916</value></backazimuth><phaseHint>S</phaseHint><evaluationMode>automatic</evaluationMode><comment><text>57.01917741303384</text><id>DFX:rectilinearity</id></comment><comment><text>de.gempa.tb1.Pick/20250412203554.765685.189508</text><id>RefPickID</id></comment></pick><pick publicID="de.gempa.tb1.Pick/20250412203559.475938.189528"><time><value>2025-04-12T20:35:49.2275Z</value></time><waveformID networkCode="SX" stationCode="WERN" channelCode="HHN"/><filterID>ITAPER(3)&gt;&gt;BW(4,3,10)</filterID><methodID>L2-AIC-GRID</methodID><horizontalSlowness><value>23.499714122136567</value></horizontalSlowness><backazimuth><value>67.16373881437282</value></backazimuth><phaseHint>S</phaseHint><evaluationMode>automatic</evaluationMode><comment><text>1541.7703745472866</text><id>DFX:rectilinearity</id></comment><comment><text>de.gempa.tb1.Pick/20250412203555.475632.189510</text><id>RefPickID</id></comment></pick><origin publicID="de.gempa.tb1.Origin/20250412203602.711263.169938"><time><value>2025-04-12T20:35:44.995329Z</value><uncertainty>0.634688675403595</uncertainty></time><latitude><value>50.23705673217773</value><uncertainty>2.405573606491089</uncertainty></latitude><longitude><value>12.498822212219238</value><uncertainty>7.638833045959473</uncertainty></longitude><depth><value>3.7055981159210205</value><uncertainty>4.658827781677246</uncertainty></depth><depthType>from location</depthType><methodID>LOCSAT</methodID><earthModelID>iasp91</earthModelID><quality><associatedPhaseCount>12</associatedPhaseCount><usedPhaseCount>12</usedPhaseCount><associatedStationCount>9</associatedStationCount><usedStationCount>9</usedStationCount><depthPhaseCount>0</depthPhaseCount><standardError>0.25541744936567806</standardError><azimuthalGap>209.65042114257812</azimuthalGap><maximumDistance>0.5069663524627686</maximumDistance><minimumDistance>0.09351144731044769</minimumDistance><medianDistance>0.18523433804512024</medianDistance></quality><uncertainty><minHorizontalUncertainty>4.915185451507568</minHorizontalUncertainty><maxHorizontalUncertainty>16.452131271362305</maxHorizontalUncertainty><azimuthMaxHorizontalUncertainty>95.71162414550781</azimuthMaxHorizontalUncertainty><preferredDescription>horizontal uncertainty</preferredDescription></uncertainty><evaluationMode>automatic</evaluationMode><evaluationStatus>confirmed</evaluationStatus><comment><text>0.08</text><id>mismatchScore</id></comment><comment><text>mismatchScore</text><id>scevalMethod</id></comment><arrival><pickID>de.gempa.tb1.Pick/20250412203553.211322.189504</pickID><phase>P</phase><azimuth>268.5688171386719</azimuth><distance>0.11680053174495697</distance><timeResidual>0.14903950691223145</timeResidual><timeUsed>true</timeUsed><horizontalSlownessUsed>false</horizontalSlownessUsed><backazimuthUsed>false</backazimuthUsed><weight>1</weight></arrival><arrival><pickID>de.gempa.tb1.Pick/20250412203554.662349.189506</pickID><phase>P</phase><azimuth>329.8768615722656</azimuth><distance>0.24436233937740326</distance><timeResidual>-0.2690279483795166</timeResidual><timeUsed>true</timeUsed><horizontalSlownessUsed>false</horizontalSlownessUsed><backazimuthUsed>false</backazimuthUsed><weight>1</weight></arrival><arrival><pickID>de.gempa.tb1.Pick/20250412203554.765685.189508</pickID><phase>P</phase><azimuth>225.1811065673828</azimuth><distance>0.35537755489349365</distance><timeResidual>0.1124417781829834</timeResidual><timeUsed>true</timeUsed><horizontalSlownessUsed>false</horizontalSlownessUsed><backazimuthUsed>false</backazimuthUsed><weight>1</weight></arrival><arrival><pickID>de.gempa.tb1.Pick/20250412203555.475632.189510</pickID><phase>P</phase><azimuth>302.6630554199219</azimuth><distance>0.09351144731044769</distance><timeResidual>0.33724522590637207</timeResidual><timeUsed>true</timeUsed><horizontalSlownessUsed>false</horizontalSlownessUsed><backazimuthUsed>false</backazimuthUsed><weight>1</weight></arrival><arrival><pickID>de.gempa.tb1.Pick/20250412203556.893434.189512</pickID><phase>P</phase><azimuth>319.7959899902344</azimuth><distance>0.1659119725227356</distance><timeResidual>-0.0487220287322998</timeResidual><timeUsed>true</timeUsed><horizontalSlownessUsed>false</horizontalSlownessUsed><backazimuthUsed>false</backazimuthUsed><weight>1</weight></arrival><arrival><pickID>de.gempa.tb1.Pick/20250412203557.844358.189518</pickID><phase>P</phase><azimuth>352.2659606933594</azimuth><distance>0.17980308830738068</distance><timeResidual>-0.00545048713684082</timeResidual><timeUsed>true</timeUsed><horizontalSlownessUsed>false</horizontalSlownessUsed><backazimuthUsed>false</backazimuthUsed><weight>1</weight></arrival><arrival><pickID>de.gempa.tb1.Pick/20250412203557.884521.189520</pickID><phase>P</phase><azimuth>201.9163818359375</azimuth><distance>0.5069663524627686</distance><timeResidual>0.3292396068572998</timeResidual><timeUsed>true</timeUsed><horizontalSlownessUsed>false</horizontalSlownessUsed><backazimuthUsed>false</backazimuthUsed><weight>1</weight></arrival><arrival><pickID>de.gempa.tb1.Pick/20250412203558.278544.189522</pickID><phase>P</phase><azimuth>296.5160827636719</azimuth><distance>0.2590335011482239</distance><timeResidual>-0.4504826068878174</timeResidual><timeUsed>true</timeUsed><horizontalSlownessUsed>false</horizontalSlownessUsed><backazimuthUsed>false</backazimuthUsed><weight>1</weight></arrival><arrival><pickID>de.gempa.tb1.Pick/20250412203558.3263.189524</pickID><phase>P</phase><azimuth>340.8608093261719</azimuth><distance>0.18523433804512024</distance><timeResidual>-0.07587623596191406</timeResidual><timeUsed>true</timeUsed><horizontalSlownessUsed>false</horizontalSlownessUsed><backazimuthUsed>false</backazimuthUsed><weight>1</weight></arrival><arrival><pickID>de.gempa.tb1.Pick/20250412203559.134746.189526</pickID><phase>S</phase><azimuth>268.5688171386719</azimuth><distance>0.11680053174495697</distance><timeResidual>-0.036780595779418945</timeResidual><timeUsed>true</timeUsed><horizontalSlownessUsed>false</horizontalSlownessUsed><backazimuthUsed>false</backazimuthUsed><weight>1</weight></arrival><arrival><pickID>de.gempa.tb1.Pick/20250412203559.316453.189527</pickID><phase>S</phase><azimuth>225.1811065673828</azimuth><distance>0.35537755489349365</distance><timeResidual>-0.3673670291900635</timeResidual><timeUsed>true</timeUsed><horizontalSlownessUsed>false</horizontalSlownessUsed><backazimuthUsed>false</backazimuthUsed><weight>1</weight></arrival><arrival><pickID>de.gempa.tb1.Pick/20250412203559.475938.189528</pickID><phase>S</phase><azimuth>302.6630554199219</azimuth><distance>0.09351144731044769</distance><timeResidual>0.32570719718933105</timeResidual><timeUsed>true</timeUsed><horizontalSlownessUsed>false</horizontalSlownessUsed><backazimuthUsed>false</backazimuthUsed><weight>1</weight></arrival></origin><event publicID="gempa2025hgdk"><preferredOriginID>de.gempa.tb1.Origin/20250412203602.711263.169938</preferredOriginID><description><text>Germany</text><type>region name</type></description><originReference>de.gempa.tb1.Origin/20250412203602.711263.169938</originReference></event></EventParameters></seiscomp>