<?xml version="1.0" encoding="UTF-8"?>
<seiscomp xmlns="http://geofon.gfz-potsdam.de/ns/seiscomp3-schema/0.13" version="0.13"><EventParameters><pick publicID="de.gempa.tb1.Pick/20250414201550.812396.140972"><time><value>2025-04-14T20:15:43.42Z</value></time><waveformID networkCode="CX" stationCode="PB19" channelCode="HHZ"/><filterID>ITAPER(4)&gt;&gt;BW(4,4,20)</filterID><methodID>AIC</methodID><horizontalSlowness><value>19.04570031872677</value></horizontalSlowness><backazimuth><value>237.03472669508284</value></backazimuth><phaseHint>P</phaseHint><evaluationMode>automatic</evaluationMode><comment><text>25.534939741005743</text><id>DFX:rectilinearity</id></comment><comment><text>11.442065031551937</text><id>SNR</id></comment></pick><pick publicID="de.gempa.tb1.Pick/20250414201554.685923.140974"><time><value>2025-04-14T20:15:46.618394Z</value></time><waveformID networkCode="CX" stationCode="PB15" channelCode="HHZ"/><filterID>ITAPER(4)&gt;&gt;BW(4,4,20)</filterID><methodID>AIC</methodID><horizontalSlowness><value>19.217721276858324</value></horizontalSlowness><backazimuth><value>111.97482330491609</value></backazimuth><phaseHint>P</phaseHint><evaluationMode>automatic</evaluationMode><comment><text>123.4172194903587</text><id>DFX:rectilinearity</id></comment><comment><text>9.735251892707982</text><id>SNR</id></comment></pick><pick publicID="de.gempa.tb1.Pick/20250414201555.61683.140976"><time><value>2025-04-14T20:15:49.858393Z</value></time><waveformID networkCode="CX" stationCode="PB06" channelCode="HHZ"/><filterID>ITAPER(4)&gt;&gt;BW(4,4,20)</filterID><methodID>AIC</methodID><horizontalSlowness><value>8.236642956578384</value></horizontalSlowness><backazimuth><value>281.15015701463125</value></backazimuth><phaseHint>P</phaseHint><evaluationMode>automatic</evaluationMode><comment><text>77.07021642038531</text><id>DFX:rectilinearity</id></comment><comment><text>12.203849097537166</text><id>SNR</id></comment></pick><pick publicID="de.gempa.tb1.Pick/20250414201601.374936.140978"><time><value>2025-04-14T20:15:56.32Z</value></time><waveformID networkCode="CX" stationCode="PB10" channelCode="HHZ"/><filterID>ITAPER(4)&gt;&gt;BW(4,4,20)</filterID><methodID>AIC</methodID><horizontalSlowness><value>20.77902256813281</value></horizontalSlowness><backazimuth><value>17.128413178966014</value></backazimuth><phaseHint>P</phaseHint><evaluationMode>automatic</evaluationMode><comment><text>49.29104303214255</text><id>DFX:rectilinearity</id></comment><comment><text>11.217300211484451</text><id>SNR</id></comment></pick><pick publicID="de.gempa.tb1.Pick/20250414201601.442773.140980"><time><value>2025-04-14T20:15:55.608393Z</value></time><waveformID networkCode="CX" stationCode="PB03" channelCode="HHZ"/><filterID>ITAPER(4)&gt;&gt;BW(4,4,20)</filterID><methodID>AIC</methodID><horizontalSlowness><value>21.403975904990052</value></horizontalSlowness><backazimuth><value>30.32541686091682</value></backazimuth><phaseHint>P</phaseHint><evaluationMode>automatic</evaluationMode><comment><text>8.28491955355898</text><id>DFX:rectilinearity</id></comment><comment><text>12.25285160316647</text><id>SNR</id></comment></pick><pick publicID="de.gempa.tb1.Pick/20250414201608.780082.140982"><time><value>2025-04-14T20:15:54.43Z</value></time><waveformID networkCode="CX" stationCode="PB09" channelCode="HHZ"/><filterID>ITAPER(4)&gt;&gt;BW(4,4,20)</filterID><methodID>AIC</methodID><horizontalSlowness><value>20.021957648365163</value></horizontalSlowness><backazimuth><value>290.7309591009951</value></backazimuth><phaseHint>P</phaseHint><evaluationMode>automatic</evaluationMode><comment><text>18.259886463596075</text><id>DFX:rectilinearity</id></comment><comment><text>12.01590042244951</text><id>SNR</id></comment></pick><pick publicID="de.gempa.tb1.Pick/20250414201618.614604.140989"><time><value>2025-04-14T20:16:10.89Z</value></time><waveformID networkCode="CX" stationCode="PB19" channelCode="HHN"/><filterID>ITAPER(2)&gt;&gt;BW(3,3,20)</filterID><methodID>L2-AIC-GRID</methodID><horizontalSlowness><value>21.8023135077305</value></horizontalSlowness><backazimuth><value>265.4116465178554</value></backazimuth><phaseHint>S</phaseHint><evaluationMode>automatic</evaluationMode><comment><text>48.07275391011149</text><id>DFX:rectilinearity</id></comment><comment><text>de.gempa.tb1.Pick/20250414201550.812396.140972</text><id>RefPickID</id></comment><comment><text>7.220596133641226</text><id>SNR</id></comment></pick><pick publicID="de.gempa.tb1.Pick/20250414201627.998262.140994"><time><value>2025-04-14T20:16:18.578394Z</value></time><waveformID networkCode="CX" stationCode="PB15" channelCode="HHN"/><filterID>ITAPER(2)&gt;&gt;BW(3,3,20)</filterID><methodID>L2-AIC-GRID</methodID><horizontalSlowness><value>21.377597084983542</value></horizontalSlowness><backazimuth><value>63.08980545887879</value></backazimuth><phaseHint>S</phaseHint><evaluationMode>automatic</evaluationMode><comment><text>882.0460024443981</text><id>DFX:rectilinearity</id></comment><comment><text>de.gempa.tb1.Pick/20250414201554.685923.140974</text><id>RefPickID</id></comment><comment><text>7.551382372053039</text><id>SNR</id></comment></pick><pick publicID="de.gempa.tb1.Pick/20250414201633.652629.140996"><time><value>2025-04-14T20:16:23.918393Z</value></time><waveformID networkCode="CX" stationCode="PB06" channelCode="HHN"/><filterID>ITAPER(2)&gt;&gt;BW(3,3,20)</filterID><methodID>L2-AIC-GRID</methodID><horizontalSlowness><value>9.013191923035679</value></horizontalSlowness><backazimuth><value>313.36383043002223</value></backazimuth><phaseHint>S</phaseHint><evaluationMode>automatic</evaluationMode><comment><text>74.55727282027478</text><id>DFX:rectilinearity</id></comment><comment><text>de.gempa.tb1.Pick/20250414201555.61683.140976</text><id>RefPickID</id></comment><comment><text>9.427938179598014</text><id>SNR</id></comment></pick><pick publicID="de.gempa.tb1.Pick/20250414201633.943774.140997"><time><value>2025-04-14T20:15:59.008393Z</value></time><waveformID networkCode="CX" stationCode="PB07" channelCode="HHZ"/><filterID>ITAPER(4)&gt;&gt;BW(4,4,20)</filterID><methodID>AIC</methodID><horizontalSlowness><value>19.014962686417984</value></horizontalSlowness><backazimuth><value>136.63017831948173</value></backazimuth><phaseHint>P</phaseHint><evaluationMode>automatic</evaluationMode><comment><text>92.99969212627295</text><id>DFX:rectilinearity</id></comment><comment><text>18.38700249618066</text><id>SNR</id></comment></pick><pick publicID="de.gempa.tb1.Pick/20250414201642.581495.141000"><time><value>2025-04-14T20:16:34.948393Z</value></time><waveformID networkCode="CX" stationCode="PB03" channelCode="HHN"/><filterID>ITAPER(2)&gt;&gt;BW(3,3,20)</filterID><methodID>L2-AIC-GRID</methodID><horizontalSlowness><value>13.993431740028358</value></horizontalSlowness><backazimuth><value>230.1008221431647</value></backazimuth><phaseHint>S</phaseHint><evaluationMode>automatic</evaluationMode><comment><text>10.080846641345717</text><id>DFX:rectilinearity</id></comment><comment><text>de.gempa.tb1.Pick/20250414201601.442773.140980</text><id>RefPickID</id></comment><comment><text>5.667559212826649</text><id>SNR</id></comment></pick><origin publicID="de.gempa.tb1.Origin/20250414201643.573981.150035"><time><value>2025-04-14T20:15:06.536589Z</value><uncertainty>1.1032804250717163</uncertainty></time><latitude><value>-24.02560234069824</value><uncertainty>8.729829788208008</uncertainty></latitude><longitude><value>-67.31925201416016</value><uncertainty>23.353395462036133</uncertainty></longitude><depth><value>198.66021728515625</value><uncertainty>24.57406234741211</uncertainty></depth><depthType>from location</depthType><methodID>LOCSAT</methodID><earthModelID>iasp91_scanloc</earthModelID><quality><associatedPhaseCount>11</associatedPhaseCount><usedPhaseCount>11</usedPhaseCount><associatedStationCount>7</associatedStationCount><usedStationCount>7</usedStationCount><depthPhaseCount>0</depthPhaseCount><standardError>0.4395088938344963</standardError><azimuthalGap>312.4180908203125</azimuthalGap><maximumDistance>3.2922723293304443</maximumDistance><minimumDistance>1.8074257373809814</minimumDistance><medianDistance>2.4516658782958984</medianDistance></quality><uncertainty><minHorizontalUncertainty>17.389060974121094</minHorizontalUncertainty><maxHorizontalUncertainty>50.55309295654297</maxHorizontalUncertainty><azimuthMaxHorizontalUncertainty>81.6053466796875</azimuthMaxHorizontalUncertainty><preferredDescription>horizontal uncertainty</preferredDescription></uncertainty><evaluationMode>automatic</evaluationMode><evaluationStatus>confirmed</evaluationStatus><comment><text>0.00</text><id>mismatchScore</id></comment><comment><text>mismatchScore</text><id>scevalMethod</id></comment><arrival><pickID>de.gempa.tb1.Pick/20250414201550.812396.140972</pickID><phase>P</phase><azimuth>273.4171142578125</azimuth><distance>1.8074257373809814</distance><timeResidual>0.4203338623046875</timeResidual><timeUsed>true</timeUsed><horizontalSlownessUsed>false</horizontalSlownessUsed><backazimuthUsed>false</backazimuthUsed><weight>1</weight></arrival><arrival><pickID>de.gempa.tb1.Pick/20250414201554.685923.140974</pickID><phase>P</phase><azimuth>291.97113037109375</azimuth><distance>2.1346254348754883</distance><timeResidual>0.253662109375</timeResidual><timeUsed>true</timeUsed><horizontalSlownessUsed>false</horizontalSlownessUsed><backazimuthUsed>false</backazimuthUsed><weight>1</weight></arrival><arrival><pickID>de.gempa.tb1.Pick/20250414201555.61683.140976</pickID><phase>P</phase><azimuth>301.9523010253906</azimuth><distance>2.4516658782958984</distance><timeResidual>0.04754257202148438</timeResidual><timeUsed>true</timeUsed><horizontalSlownessUsed>false</horizontalSlownessUsed><backazimuthUsed>false</backazimuthUsed><weight>1</weight></arrival><arrival><pickID>de.gempa.tb1.Pick/20250414201601.374936.140978</pickID><phase>P</phase><azimuth>279.1103210449219</azimuth><distance>3.00710129737854</distance><timeResidual>0.13454818725585938</timeResidual><timeUsed>true</timeUsed><horizontalSlownessUsed>false</horizontalSlownessUsed><backazimuthUsed>false</backazimuthUsed><weight>1</weight></arrival><arrival><pickID>de.gempa.tb1.Pick/20250414201601.442773.140980</pickID><phase>P</phase><azimuth>310.7952575683594</azimuth><distance>2.9830503463745117</distance><timeResidual>-0.308563232421875</timeResidual><timeUsed>true</timeUsed><horizontalSlownessUsed>false</horizontalSlownessUsed><backazimuthUsed>false</backazimuthUsed><weight>1</weight></arrival><arrival><pickID>de.gempa.tb1.Pick/20250414201608.780082.140982</pickID><phase>P</phase><azimuth>320.9990234375</azimuth><distance>2.839919090270996</distance><timeResidual>0.17945480346679688</timeResidual><timeUsed>true</timeUsed><horizontalSlownessUsed>false</horizontalSlownessUsed><backazimuthUsed>false</backazimuthUsed><weight>1</weight></arrival><arrival><pickID>de.gempa.tb1.Pick/20250414201618.614604.140989</pickID><phase>S</phase><azimuth>273.4171142578125</azimuth><distance>1.8074257373809814</distance><timeResidual>-0.8427543640136719</timeResidual><timeUsed>true</timeUsed><horizontalSlownessUsed>false</horizontalSlownessUsed><backazimuthUsed>false</backazimuthUsed><weight>1</weight></arrival><arrival><pickID>de.gempa.tb1.Pick/20250414201627.998262.140994</pickID><phase>S</phase><azimuth>291.97113037109375</azimuth><distance>2.1346254348754883</distance><timeResidual>0.8000907897949219</timeResidual><timeUsed>true</timeUsed><horizontalSlownessUsed>false</horizontalSlownessUsed><backazimuthUsed>false</backazimuthUsed><weight>1</weight></arrival><arrival><pickID>de.gempa.tb1.Pick/20250414201633.652629.140996</pickID><phase>S</phase><azimuth>301.9523010253906</azimuth><distance>2.4516658782958984</distance><timeResidual>-0.054779052734375</timeResidual><timeUsed>true</timeUsed><horizontalSlownessUsed>false</horizontalSlownessUsed><backazimuthUsed>false</backazimuthUsed><weight>1</weight></arrival><arrival><pickID>de.gempa.tb1.Pick/20250414201633.943774.140997</pickID><phase>P</phase><azimuth>313.521728515625</azimuth><distance>3.2922723293304443</distance><timeResidual>-0.6185073852539062</timeResidual><timeUsed>true</timeUsed><horizontalSlownessUsed>false</horizontalSlownessUsed><backazimuthUsed>false</backazimuthUsed><weight>1</weight></arrival><arrival><pickID>de.gempa.tb1.Pick/20250414201642.581495.141000</pickID><phase>S</phase><azimuth>310.7952575683594</azimuth><distance>2.9830503463745117</distance><timeResidual>-0.01061248779296875</timeResidual><timeUsed>true</timeUsed><horizontalSlownessUsed>false</horizontalSlownessUsed><backazimuthUsed>false</backazimuthUsed><weight>1</weight></arrival><magnitude publicID="de.gempa.tb1.Magnitude/20250414201650.937029.537334"><magnitude><value>3.105636887586513</value></magnitude><type>M</type><methodID>weighted average</methodID><stationCount>7</stationCount></magnitude></origin><event publicID="gempa2025hjuu"><preferredOriginID>de.gempa.tb1.Origin/20250414201643.573981.150035</preferredOriginID><preferredMagnitudeID>de.gempa.tb1.Magnitude/20250414201650.937029.537334</preferredMagnitudeID><description><text>Chile-Argentina Border Region</text><type>region name</type></description><originReference>de.gempa.tb1.Origin/20250414201643.573981.150035</originReference></event></EventParameters></seiscomp>