<?xml version="1.0" encoding="UTF-8"?>
<seiscomp xmlns="http://geofon.gfz-potsdam.de/ns/seiscomp3-schema/0.13" version="0.13"><EventParameters><pick publicID="de.gempa.tb1.Pick/20250413214015.608349.133913"><time><value>2025-04-13T21:40:09.288393Z</value></time><waveformID networkCode="CX" stationCode="PB06" channelCode="HHZ"/><filterID>ITAPER(4)&gt;&gt;BW(4,4,20)</filterID><methodID>AIC</methodID><horizontalSlowness><value>11.95741631019105</value></horizontalSlowness><backazimuth><value>347.72778174544266</value></backazimuth><phaseHint>P</phaseHint><evaluationMode>automatic</evaluationMode><comment><text>135.54479410035563</text><id>DFX:rectilinearity</id></comment><comment><text>40.720666714878014</text><id>SNR</id></comment></pick><pick publicID="de.gempa.tb1.Pick/20250413214019.577419.133915"><time><value>2025-04-13T21:40:12.078393Z</value></time><waveformID networkCode="CX" stationCode="PB03" channelCode="HHZ"/><filterID>ITAPER(4)&gt;&gt;BW(4,4,20)</filterID><methodID>AIC</methodID><horizontalSlowness><value>18.522131098349472</value></horizontalSlowness><backazimuth><value>108.76058403562035</value></backazimuth><phaseHint>P</phaseHint><evaluationMode>automatic</evaluationMode><comment><text>17.964816069344472</text><id>DFX:rectilinearity</id></comment><comment><text>11.733387135688561</text><id>SNR</id></comment></pick><pick publicID="de.gempa.tb1.Pick/20250413214019.907668.133917"><time><value>2025-04-13T21:40:14.758393Z</value></time><waveformID networkCode="CX" stationCode="PB15" channelCode="HHZ"/><filterID>ITAPER(4)&gt;&gt;BW(4,4,20)</filterID><methodID>AIC</methodID><horizontalSlowness><value>22.7342459768709</value></horizontalSlowness><backazimuth><value>265.0864671473958</value></backazimuth><phaseHint>P</phaseHint><evaluationMode>automatic</evaluationMode><comment><text>126.37290974798908</text><id>DFX:rectilinearity</id></comment><comment><text>15.094755375433138</text><id>SNR</id></comment></pick><pick publicID="de.gempa.tb1.Pick/20250413214020.160311.133919"><time><value>2025-04-13T21:40:09.23Z</value></time><waveformID networkCode="CX" stationCode="PB09" channelCode="HHZ"/><filterID>ITAPER(4)&gt;&gt;BW(4,4,20)</filterID><methodID>AIC</methodID><horizontalSlowness><value>15.492095342815974</value></horizontalSlowness><backazimuth><value>123.1098901296103</value></backazimuth><phaseHint>P</phaseHint><evaluationMode>automatic</evaluationMode><comment><text>37.84745940431518</text><id>DFX:rectilinearity</id></comment><comment><text>32.17907170598194</text><id>SNR</id></comment></pick><pick publicID="de.gempa.tb1.Pick/20250413214028.491314.133921"><time><value>2025-04-13T21:40:22.688393Z</value></time><waveformID networkCode="CX" stationCode="PB02" channelCode="HHZ"/><filterID>ITAPER(4)&gt;&gt;BW(4,4,20)</filterID><methodID>AIC</methodID><horizontalSlowness><value>20.777230125078432</value></horizontalSlowness><backazimuth><value>143.4663665201503</value></backazimuth><phaseHint>P</phaseHint><evaluationMode>automatic</evaluationMode><comment><text>37.633391571190053</text><id>DFX:rectilinearity</id></comment><comment><text>27.754109146422614</text><id>SNR</id></comment></pick><pick publicID="de.gempa.tb1.Pick/20250413214031.541724.133923"><time><value>2025-04-13T21:40:26.27Z</value></time><waveformID networkCode="CX" stationCode="PB19" channelCode="HHZ"/><filterID>ITAPER(4)&gt;&gt;BW(4,4,20)</filterID><methodID>AIC</methodID><horizontalSlowness><value>20.324193963105888</value></horizontalSlowness><backazimuth><value>153.11587419590953</value></backazimuth><phaseHint>P</phaseHint><evaluationMode>automatic</evaluationMode><comment><text>32.81085848900394</text><id>DFX:rectilinearity</id></comment><comment><text>15.084732961276853</text><id>SNR</id></comment></pick><pick publicID="de.gempa.tb1.Pick/20250413214031.592325.133925"><time><value>2025-04-13T21:40:24.388393Z</value></time><waveformID networkCode="CX" stationCode="PB01" channelCode="HHZ"/><filterID>ITAPER(4)&gt;&gt;BW(4,4,20)</filterID><methodID>AIC</methodID><horizontalSlowness><value>7.121054012216227</value></horizontalSlowness><backazimuth><value>356.5566097786485</value></backazimuth><phaseHint>P</phaseHint><evaluationMode>automatic</evaluationMode><comment><text>22.739276151304175</text><id>DFX:rectilinearity</id></comment><comment><text>17.82905797584802</text><id>SNR</id></comment></pick><pick publicID="de.gempa.tb1.Pick/20250413214033.693196.133927"><time><value>2025-04-13T21:40:16.828396Z</value></time><waveformID networkCode="CX" stationCode="PB07" channelCode="HHZ"/><filterID>ITAPER(4)&gt;&gt;BW(4,4,20)</filterID><methodID>AIC</methodID><horizontalSlowness><value>21.79555810631728</value></horizontalSlowness><backazimuth><value>316.46295395356896</value></backazimuth><phaseHint>P</phaseHint><evaluationMode>automatic</evaluationMode><comment><text>235.89230283154373</text><id>DFX:rectilinearity</id></comment><comment><text>20.563988230989509</text><id>SNR</id></comment></pick><pick publicID="de.gempa.tb1.Pick/20250413214036.210411.133929"><time><value>2025-04-13T21:40:30.33Z</value></time><waveformID networkCode="CX" stationCode="PB10" channelCode="HHZ"/><filterID>ITAPER(4)&gt;&gt;BW(4,4,20)</filterID><methodID>AIC</methodID><horizontalSlowness><value>10.175410821547127</value></horizontalSlowness><backazimuth><value>281.50598498384107</value></backazimuth><phaseHint>P</phaseHint><evaluationMode>automatic</evaluationMode><comment><text>49.44331364401099</text><id>DFX:rectilinearity</id></comment><comment><text>14.394264084063636</text><id>SNR</id></comment></pick><origin publicID="de.gempa.tb1.Origin/20250413214037.190484.119782"><time><value>2025-04-13T21:39:57.481469Z</value><uncertainty>0.7873709797859192</uncertainty></time><latitude><value>-22.37525749206543</value><uncertainty>2.730471134185791</uncertainty></latitude><longitude><value>-69.02279663085938</value><uncertainty>7.688213348388672</uncertainty></longitude><depth><value>0</value></depth><depthType>operator assigned</depthType><methodID>LOCSAT</methodID><earthModelID>iasp91_scanloc</earthModelID><quality><associatedPhaseCount>9</associatedPhaseCount><usedPhaseCount>9</usedPhaseCount><associatedStationCount>9</associatedStationCount><usedStationCount>9</usedStationCount><depthPhaseCount>0</depthPhaseCount><standardError>0.2903258208879376</standardError><azimuthalGap>207.2858428955078</azimuthalGap><maximumDistance>1.8099017143249512</maximumDistance><minimumDistance>0.6049079298973083</minimumDistance><medianDistance>1.0286753177642822</medianDistance></quality><uncertainty><minHorizontalUncertainty>5.82532548904419</minHorizontalUncertainty><maxHorizontalUncertainty>16.49567985534668</maxHorizontalUncertainty><azimuthMaxHorizontalUncertainty>87.82319641113281</azimuthMaxHorizontalUncertainty><preferredDescription>horizontal uncertainty</preferredDescription></uncertainty><evaluationMode>automatic</evaluationMode><evaluationStatus>confirmed</evaluationStatus><comment><text>0.00</text><id>mismatchScore</id></comment><comment><text>mismatchScore</text><id>scevalMethod</id></comment><arrival><pickID>de.gempa.tb1.Pick/20250413214015.608349.133913</pickID><phase>P</phase><azimuth>236.9501495361328</azimuth><distance>0.6049079298973083</distance><timeResidual>0.2047863006591797</timeResidual><timeUsed>true</timeUsed><horizontalSlownessUsed>false</horizontalSlownessUsed><backazimuthUsed>false</backazimuthUsed><weight>1</weight></arrival><arrival><pickID>de.gempa.tb1.Pick/20250413214019.577419.133915</pickID><phase>P</phase><azimuth>295.5295104980469</azimuth><distance>0.7508392930030823</distance><timeResidual>0.19495010375976562</timeResidual><timeUsed>true</timeUsed><horizontalSlownessUsed>false</horizontalSlownessUsed><backazimuthUsed>false</backazimuthUsed><weight>1</weight></arrival><arrival><pickID>de.gempa.tb1.Pick/20250413214019.907668.133917</pickID><phase>P</phase><azimuth>206.42173767089844</azimuth><distance>0.9265655875205994</distance><timeResidual>-0.4941539764404297</timeResidual><timeUsed>true</timeUsed><horizontalSlownessUsed>false</horizontalSlownessUsed><backazimuthUsed>false</backazimuthUsed><weight>1</weight></arrival><arrival><pickID>de.gempa.tb1.Pick/20250413214020.160311.133919</pickID><phase>P</phase><azimuth>340.52679443359375</azimuth><distance>0.6108880639076233</distance><timeResidual>0.03058910369873047</timeResidual><timeUsed>true</timeUsed><horizontalSlownessUsed>false</horizontalSlownessUsed><backazimuthUsed>false</backazimuthUsed><weight>1</weight></arrival><arrival><pickID>de.gempa.tb1.Pick/20250413214028.491314.133921</pickID><phase>P</phase><azimuth>322.1573486328125</azimuth><distance>1.3272007703781128</distance><timeResidual>-0.23955535888671875</timeResidual><timeUsed>true</timeUsed><horizontalSlownessUsed>false</horizontalSlownessUsed><backazimuthUsed>false</backazimuthUsed><weight>1</weight></arrival><arrival><pickID>de.gempa.tb1.Pick/20250413214031.541724.133923</pickID><phase>P</phase><azimuth>189.1471710205078</azimuth><distance>1.5422548055648804</distance><timeResidual>0.04426765441894531</timeResidual><timeUsed>true</timeUsed><horizontalSlownessUsed>false</horizontalSlownessUsed><backazimuthUsed>false</backazimuthUsed><weight>1</weight></arrival><arrival><pickID>de.gempa.tb1.Pick/20250413214031.592325.133925</pickID><phase>P</phase><azimuth>341.861328125</azimuth><distance>1.3941590785980225</distance><timeResidual>0.22356128692626953</timeResidual><timeUsed>true</timeUsed><horizontalSlownessUsed>false</horizontalSlownessUsed><backazimuthUsed>false</backazimuthUsed><weight>1</weight></arrival><arrival><pickID>de.gempa.tb1.Pick/20250413214033.693196.133927</pickID><phase>P</phase><azimuth>308.7014465332031</azimuth><distance>1.0286753177642822</distance><timeResidual>-0.384429931640625</timeResidual><timeUsed>true</timeUsed><horizontalSlownessUsed>false</horizontalSlownessUsed><backazimuthUsed>false</backazimuthUsed><weight>1</weight></arrival><arrival><pickID>de.gempa.tb1.Pick/20250413214036.210411.133929</pickID><phase>P</phase><azimuth>230.95652770996094</azimuth><distance>1.8099017143249512</distance><timeResidual>0.4200267791748047</timeResidual><timeUsed>true</timeUsed><horizontalSlownessUsed>false</horizontalSlownessUsed><backazimuthUsed>false</backazimuthUsed><weight>1</weight></arrival><magnitude publicID="de.gempa.tb1.Magnitude/20250413214037.196238.405157"><magnitude><value>2.32102859710445</value></magnitude><type>M</type><methodID>weighted average</methodID><stationCount>7</stationCount></magnitude></origin><event publicID="gempa2025hibp"><preferredOriginID>de.gempa.tb1.Origin/20250413214037.190484.119782</preferredOriginID><preferredMagnitudeID>de.gempa.tb1.Magnitude/20250413214037.196238.405157</preferredMagnitudeID><description><text>Northern Chile</text><type>region name</type></description><originReference>de.gempa.tb1.Origin/20250413214037.190484.119782</originReference></event></EventParameters></seiscomp>