<?xml version="1.0" encoding="UTF-8"?>
<seiscomp xmlns="http://geofon.gfz-potsdam.de/ns/seiscomp3-schema/0.13" version="0.13"><EventParameters><pick publicID="de.gempa.tb1.Pick/20250414231004.117768.242734"><time><value>2025-04-14T23:10:00.01Z</value></time><waveformID networkCode="CH" stationCode="FIESA" channelCode="HHZ"/><filterID>ITAPER(4)&gt;&gt;BW(4,4,20)</filterID><methodID>AIC</methodID><phaseHint>P</phaseHint><evaluationMode>automatic</evaluationMode></pick><pick publicID="de.gempa.tb1.Pick/20250414231005.09462.242737"><time><value>2025-04-14T23:10:01.658393Z</value></time><waveformID networkCode="CH" stationCode="GRIMS" channelCode="HHZ"/><filterID>ITAPER(4)&gt;&gt;BW(4,4,20)</filterID><methodID>AIC</methodID><phaseHint>P</phaseHint><evaluationMode>automatic</evaluationMode></pick><pick publicID="de.gempa.tb1.Pick/20250414231010.526125.242755"><time><value>2025-04-14T23:10:06.58Z</value></time><waveformID networkCode="CH" stationCode="SIMPL" channelCode="HHZ"/><filterID>ITAPER(4)&gt;&gt;BW(4,4,20)</filterID><methodID>AIC</methodID><phaseHint>P</phaseHint><evaluationMode>automatic</evaluationMode></pick><pick publicID="de.gempa.tb1.Pick/20250414231012.114659.242757"><time><value>2025-04-14T23:10:03.52Z</value></time><waveformID networkCode="CH" stationCode="FIESA" channelCode="HHN"/><filterID>RMHP(1)&gt;&gt;ITAPER(2)&gt;&gt;BW(4,3,20)</filterID><methodID>L2-AIC-GRID</methodID><phaseHint>S</phaseHint><evaluationMode>automatic</evaluationMode><comment><text>de.gempa.tb1.Pick/20250414231004.117768.242734</text><id>RefPickID</id></comment></pick><pick publicID="de.gempa.tb1.Pick/20250414231013.229283.242765"><time><value>2025-04-14T23:10:09.740001Z</value></time><waveformID networkCode="CH" stationCode="BNALP" channelCode="HHZ"/><filterID>ITAPER(4)&gt;&gt;BW(4,4,20)</filterID><methodID>AIC</methodID><phaseHint>P</phaseHint><evaluationMode>automatic</evaluationMode></pick><pick publicID="de.gempa.tb1.Pick/20250414231014.060283.242769"><time><value>2025-04-14T23:10:06.625Z</value></time><waveformID networkCode="CH" stationCode="MMK" channelCode="HHZ"/><filterID>ITAPER(4)&gt;&gt;BW(4,4,20)</filterID><methodID>AIC</methodID><phaseHint>P</phaseHint><evaluationMode>automatic</evaluationMode></pick><pick publicID="de.gempa.tb1.Pick/20250414231016.684982.242778"><time><value>2025-04-14T23:10:13.01Z</value></time><waveformID networkCode="CH" stationCode="MUO" channelCode="HHZ"/><filterID>ITAPER(4)&gt;&gt;BW(4,4,20)</filterID><methodID>AIC</methodID><phaseHint>P</phaseHint><evaluationMode>automatic</evaluationMode></pick><pick publicID="de.gempa.tb1.Pick/20250414231018.280495.242781"><time><value>2025-04-14T23:10:12.735001Z</value></time><waveformID networkCode="CH" stationCode="BNALP" channelCode="HHN"/><filterID>RMHP(1)&gt;&gt;ITAPER(2)&gt;&gt;BW(4,3,20)</filterID><methodID>L2-AIC-GRID</methodID><phaseHint>S</phaseHint><evaluationMode>automatic</evaluationMode><comment><text>de.gempa.tb1.Pick/20250414231013.229283.242765</text><id>RefPickID</id></comment></pick><origin publicID="de.gempa.tb1.Origin/20250414231018.28489.152139"><time><value>2025-04-14T23:09:59.829243Z</value><uncertainty>0.5036365985870361</uncertainty></time><latitude><value>46.43857955932617</value><uncertainty>3.3154664039611816</uncertainty></latitude><longitude><value>8.256364822387695</value><uncertainty>3.808225154876709</uncertainty></longitude><depth><value>0</value></depth><depthType>operator assigned</depthType><methodID>LOCSAT</methodID><earthModelID>iasp91</earthModelID><quality><associatedPhaseCount>8</associatedPhaseCount><usedPhaseCount>8</usedPhaseCount><associatedStationCount>6</associatedStationCount><usedStationCount>6</usedStationCount><depthPhaseCount>0</depthPhaseCount><standardError>1.4926589650413238</standardError><azimuthalGap>181.50530433654785</azimuthalGap><maximumDistance>0.590567409992218</maximumDistance><minimumDistance>0.10098005831241608</minimumDistance><medianDistance>0.43798983097076416</medianDistance></quality><uncertainty><minHorizontalUncertainty>4.228364944458008</minHorizontalUncertainty><maxHorizontalUncertainty>9.977505683898926</maxHorizontalUncertainty><azimuthMaxHorizontalUncertainty>129.2909393310547</azimuthMaxHorizontalUncertainty><preferredDescription>horizontal uncertainty</preferredDescription></uncertainty><evaluationMode>automatic</evaluationMode><evaluationStatus>confirmed</evaluationStatus><comment><text>0.32</text><id>mismatchScore</id></comment><comment><text>mismatchScore</text><id>scevalMethod</id></comment><arrival><pickID>de.gempa.tb1.Pick/20250414231004.117768.242734</pickID><phase>P</phase><azimuth>268.17303466796875</azimuth><distance>0.10098005831241608</distance><timeResidual>-1.8861464262008667</timeResidual><timeUsed>true</timeUsed><horizontalSlownessUsed>false</horizontalSlownessUsed><backazimuthUsed>false</backazimuthUsed><weight>1</weight></arrival><arrival><pickID>de.gempa.tb1.Pick/20250414231005.09462.242737</pickID><phase>P</phase><azimuth>17.158239364624023</azimuth><distance>0.14613549411296844</distance><timeResidual>-1.0960308313369751</timeResidual><timeUsed>true</timeUsed><horizontalSlownessUsed>false</horizontalSlownessUsed><backazimuthUsed>false</backazimuthUsed><weight>1</weight></arrival><arrival><pickID>de.gempa.tb1.Pick/20250414231010.526125.242755</pickID><phase>P</phase><azimuth>219.58377075195312</azimuth><distance>0.2579134702682495</distance><timeResidual>1.6997958421707153</timeResidual><timeUsed>true</timeUsed><horizontalSlownessUsed>false</horizontalSlownessUsed><backazimuthUsed>false</backazimuthUsed><weight>1</weight></arrival><arrival><pickID>de.gempa.tb1.Pick/20250414231012.114659.242757</pickID><phase>S</phase><azimuth>268.17303466796875</azimuth><distance>0.10098005831241608</distance><timeResidual>1.0678237676620483</timeResidual><timeUsed>true</timeUsed><horizontalSlownessUsed>false</horizontalSlownessUsed><backazimuthUsed>false</backazimuthUsed><weight>1</weight></arrival><arrival><pickID>de.gempa.tb1.Pick/20250414231013.229283.242765</pickID><phase>P</phase><azimuth>14.98868465423584</azimuth><distance>0.44741499423980713</distance><timeResidual>1.2579628229141235</timeResidual><timeUsed>true</timeUsed><horizontalSlownessUsed>false</horizontalSlownessUsed><backazimuthUsed>false</backazimuthUsed><weight>1</weight></arrival><arrival><pickID>de.gempa.tb1.Pick/20250414231014.060283.242769</pickID><phase>P</phase><azimuth>207.70375061035156</azimuth><distance>0.43798983097076416</distance><timeResidual>-1.6792596578598022</timeResidual><timeUsed>true</timeUsed><horizontalSlownessUsed>false</horizontalSlownessUsed><backazimuthUsed>false</backazimuthUsed><weight>1</weight></arrival><arrival><pickID>de.gempa.tb1.Pick/20250414231016.684982.242778</pickID><phase>P</phase><azimuth>26.19844627380371</azimuth><distance>0.590567409992218</distance><timeResidual>1.8064266443252563</timeResidual><timeUsed>true</timeUsed><horizontalSlownessUsed>false</horizontalSlownessUsed><backazimuthUsed>false</backazimuthUsed><weight>1</weight></arrival><arrival><pickID>de.gempa.tb1.Pick/20250414231018.280495.242781</pickID><phase>S</phase><azimuth>14.98868465423584</azimuth><distance>0.44741499423980713</distance><timeResidual>-1.1705983877182007</timeResidual><timeUsed>true</timeUsed><horizontalSlownessUsed>false</horizontalSlownessUsed><backazimuthUsed>false</backazimuthUsed><weight>1</weight></arrival><magnitude publicID="de.gempa.tb1.Magnitude/20250414231127.879538.550260"><magnitude><value>1.4045640743312295</value></magnitude><type>M</type><methodID>weighted average</methodID><stationCount>6</stationCount></magnitude></origin><event publicID="gempa2025hkaq"><preferredOriginID>de.gempa.tb1.Origin/20250414231018.28489.152139</preferredOriginID><preferredMagnitudeID>de.gempa.tb1.Magnitude/20250414231127.879538.550260</preferredMagnitudeID><description><text>Switzerland</text><type>region name</type></description><originReference>de.gempa.tb1.Origin/20250414231018.28489.152139</originReference></event></EventParameters></seiscomp>