<?xml version="1.0" encoding="UTF-8"?>
<seiscomp xmlns="http://geofon.gfz-potsdam.de/ns/seiscomp3-schema/0.13" version="0.13"><EventParameters><pick publicID="de.gempa.tb1.Pick/20250412113747.787135.123600"><time><value>2025-04-12T11:37:41.848393Z</value></time><waveformID networkCode="CX" stationCode="PB03" channelCode="HHZ"/><filterID>ITAPER(4)&gt;&gt;BW(4,4,20)</filterID><methodID>AIC</methodID><horizontalSlowness><value>17.835650042921852</value></horizontalSlowness><backazimuth><value>220.01803819523508</value></backazimuth><phaseHint>P</phaseHint><evaluationMode>automatic</evaluationMode><comment><text>487.0758714310642</text><id>DFX:rectilinearity</id></comment><comment><text>69.60451744749493</text><id>SNR</id></comment></pick><pick publicID="de.gempa.tb1.Pick/20250412113750.681622.123602"><time><value>2025-04-12T11:37:45.118393Z</value></time><waveformID networkCode="CX" stationCode="PB03" channelCode="HHN"/><filterID>ITAPER(2)&gt;&gt;BW(3,3,20)</filterID><methodID>L2-AIC-GRID</methodID><horizontalSlowness><value>17.84915401261355</value></horizontalSlowness><backazimuth><value>219.33852157611028</value></backazimuth><phaseHint>S</phaseHint><evaluationMode>automatic</evaluationMode><comment><text>501.2338290302458</text><id>DFX:rectilinearity</id></comment><comment><text>de.gempa.tb1.Pick/20250412113747.787135.123600</text><id>RefPickID</id></comment><comment><text>11.663654696299785</text><id>SNR</id></comment></pick><pick publicID="de.gempa.tb1.Pick/20250412113752.677129.123605"><time><value>2025-04-12T11:37:48.668393Z</value></time><waveformID networkCode="CX" stationCode="PB02" channelCode="HHZ"/><filterID>ITAPER(4)&gt;&gt;BW(4,4,20)</filterID><methodID>AIC</methodID><horizontalSlowness><value>10.41734149045303</value></horizontalSlowness><backazimuth><value>190.4868648380443</value></backazimuth><phaseHint>P</phaseHint><evaluationMode>automatic</evaluationMode><comment><text>151.72445108208356</text><id>DFX:rectilinearity</id></comment><comment><text>180.48894064138943</text><id>SNR</id></comment></pick><pick publicID="de.gempa.tb1.Pick/20250412113756.555646.123607"><time><value>2025-04-12T11:37:51.508393Z</value></time><waveformID networkCode="CX" stationCode="PB06" channelCode="HHZ"/><filterID>ITAPER(4)&gt;&gt;BW(4,4,20)</filterID><methodID>AIC</methodID><horizontalSlowness><value>4.971405140727471</value></horizontalSlowness><backazimuth><value>349.6391528193832</value></backazimuth><phaseHint>P</phaseHint><evaluationMode>automatic</evaluationMode><comment><text>84.86559074802994</text><id>DFX:rectilinearity</id></comment><comment><text>29.41516968214953</text><id>SNR</id></comment></pick><pick publicID="de.gempa.tb1.Pick/20250412113758.590851.123609"><time><value>2025-04-12T11:37:54.448393Z</value></time><waveformID networkCode="CX" stationCode="PB01" channelCode="HHZ"/><filterID>ITAPER(4)&gt;&gt;BW(4,4,20)</filterID><methodID>AIC</methodID><horizontalSlowness><value>20.222852335712108</value></horizontalSlowness><backazimuth><value>15.982629980662665</value></backazimuth><phaseHint>P</phaseHint><evaluationMode>automatic</evaluationMode><comment><text>12.846465551612503</text><id>DFX:rectilinearity</id></comment><comment><text>36.65788859887565</text><id>SNR</id></comment></pick><pick publicID="de.gempa.tb1.Pick/20250412113802.480206.123611"><time><value>2025-04-12T11:37:56.919999Z</value></time><waveformID networkCode="CX" stationCode="PATCX" channelCode="HHZ"/><filterID>ITAPER(4)&gt;&gt;BW(4,4,20)</filterID><methodID>AIC</methodID><horizontalSlowness><value>23.440542340001045</value></horizontalSlowness><backazimuth><value>233.15279850209834</value></backazimuth><phaseHint>P</phaseHint><evaluationMode>automatic</evaluationMode><comment><text>353.43136827294273</text><id>DFX:rectilinearity</id></comment><comment><text>9.696948995640724</text><id>SNR</id></comment></pick><pick publicID="de.gempa.tb1.Pick/20250412113804.64689.123613"><time><value>2025-04-12T11:37:59.988393Z</value></time><waveformID networkCode="CX" stationCode="PB15" channelCode="HHZ"/><filterID>ITAPER(4)&gt;&gt;BW(4,4,20)</filterID><methodID>AIC</methodID><horizontalSlowness><value>19.913328708439774</value></horizontalSlowness><backazimuth><value>82.94041721494422</value></backazimuth><phaseHint>P</phaseHint><evaluationMode>automatic</evaluationMode><comment><text>978.022462933602</text><id>DFX:rectilinearity</id></comment><comment><text>16.3001471345942</text><id>SNR</id></comment></pick><pick publicID="de.gempa.tb1.Pick/20250412113805.574549.123615"><time><value>2025-04-12T11:37:49.48Z</value></time><waveformID networkCode="CX" stationCode="PB09" channelCode="HHZ"/><filterID>ITAPER(4)&gt;&gt;BW(4,4,20)</filterID><methodID>AIC</methodID><horizontalSlowness><value>22.19362990396318</value></horizontalSlowness><backazimuth><value>125.20651341648718</value></backazimuth><phaseHint>P</phaseHint><evaluationMode>automatic</evaluationMode><comment><text>17.753709451727037</text><id>DFX:rectilinearity</id></comment><comment><text>333.6865890681708</text><id>SNR</id></comment></pick><pick publicID="de.gempa.tb1.Pick/20250412113809.686268.123617"><time><value>2025-04-12T11:38:02.268393Z</value></time><waveformID networkCode="CX" stationCode="PB06" channelCode="HHN"/><filterID>ITAPER(2)&gt;&gt;BW(3,3,20)</filterID><methodID>L2-AIC-GRID</methodID><horizontalSlowness><value>20.457792033797084</value></horizontalSlowness><backazimuth><value>332.2699365764238</value></backazimuth><phaseHint>S</phaseHint><evaluationMode>automatic</evaluationMode><comment><text>111.53865056277529</text><id>DFX:rectilinearity</id></comment><comment><text>de.gempa.tb1.Pick/20250412113756.555646.123607</text><id>RefPickID</id></comment><comment><text>9.74057576752751</text><id>SNR</id></comment></pick><pick publicID="de.gempa.tb1.Pick/20250412113814.774435.123618"><time><value>2025-04-12T11:38:07.248393Z</value></time><waveformID networkCode="CX" stationCode="PB01" channelCode="HHN"/><filterID>ITAPER(2)&gt;&gt;BW(3,3,20)</filterID><methodID>L2-AIC-GRID</methodID><horizontalSlowness><value>20.3491055173633</value></horizontalSlowness><backazimuth><value>282.90213685020973</value></backazimuth><phaseHint>S</phaseHint><evaluationMode>automatic</evaluationMode><comment><text>91.40349408424532</text><id>DFX:rectilinearity</id></comment><comment><text>de.gempa.tb1.Pick/20250412113758.590851.123609</text><id>RefPickID</id></comment><comment><text>11.421179282365994</text><id>SNR</id></comment></pick><pick publicID="de.gempa.tb1.Pick/20250412113818.720362.123620"><time><value>2025-04-12T11:37:57.95Z</value></time><waveformID networkCode="CX" stationCode="PB09" channelCode="HHN"/><filterID>ITAPER(2)&gt;&gt;BW(3,3,20)</filterID><methodID>L2-AIC-GRID</methodID><horizontalSlowness><value>15.020221854094725</value></horizontalSlowness><backazimuth><value>275.7763791867579</value></backazimuth><phaseHint>S</phaseHint><evaluationMode>automatic</evaluationMode><comment><text>439.4032746475837</text><id>DFX:rectilinearity</id></comment><comment><text>de.gempa.tb1.Pick/20250412113805.574549.123615</text><id>RefPickID</id></comment><comment><text>12.21563550914339</text><id>SNR</id></comment></pick><pick publicID="de.gempa.tb1.Pick/20250412113820.677474.123621"><time><value>2025-04-12T11:38:11.87Z</value></time><waveformID networkCode="CX" stationCode="PB19" channelCode="HHZ"/><filterID>ITAPER(4)&gt;&gt;BW(4,4,20)</filterID><methodID>AIC</methodID><horizontalSlowness><value>19.686496788812356</value></horizontalSlowness><backazimuth><value>357.16391176381705</value></backazimuth><phaseHint>P</phaseHint><evaluationMode>automatic</evaluationMode><comment><text>22.443518780308022</text><id>DFX:rectilinearity</id></comment><comment><text>6.968573671230299</text><id>SNR</id></comment></pick><pick publicID="de.gempa.tb1.Pick/20250412113821.295312.123623"><time><value>2025-04-12T11:38:12.079999Z</value></time><waveformID networkCode="CX" stationCode="PATCX" channelCode="HHN"/><filterID>ITAPER(2)&gt;&gt;BW(3,3,20)</filterID><methodID>L2-AIC-GRID</methodID><horizontalSlowness><value>20.039396281000716</value></horizontalSlowness><backazimuth><value>288.80017962773564</value></backazimuth><phaseHint>S</phaseHint><evaluationMode>automatic</evaluationMode><comment><text>516.6119384745052</text><id>DFX:rectilinearity</id></comment><comment><text>de.gempa.tb1.Pick/20250412113802.480206.123611</text><id>RefPickID</id></comment><comment><text>10.538394800405216</text><id>SNR</id></comment></pick><pick publicID="de.gempa.tb1.Pick/20250412113824.540089.123627"><time><value>2025-04-12T11:38:16.52Z</value></time><waveformID networkCode="CX" stationCode="PSGCX" channelCode="HHZ"/><filterID>ITAPER(4)&gt;&gt;BW(4,4,20)</filterID><methodID>AIC</methodID><horizontalSlowness><value>15.52117953273996</value></horizontalSlowness><backazimuth><value>69.8970270372903</value></backazimuth><phaseHint>P</phaseHint><evaluationMode>automatic</evaluationMode><comment><text>8.305665786152606</text><id>DFX:rectilinearity</id></comment><comment><text>14.090789193777907</text><id>SNR</id></comment></pick><pick publicID="de.gempa.tb1.Pick/20250412113846.52953.123635"><time><value>2025-04-12T11:38:39.03Z</value></time><waveformID networkCode="CX" stationCode="PB19" channelCode="HHN"/><filterID>ITAPER(2)&gt;&gt;BW(3,3,20)</filterID><methodID>L2-AIC-GRID</methodID><horizontalSlowness><value>21.691343824461402</value></horizontalSlowness><backazimuth><value>192.59404862729065</value></backazimuth><phaseHint>S</phaseHint><evaluationMode>automatic</evaluationMode><comment><text>26.18624866147145</text><id>DFX:rectilinearity</id></comment><comment><text>de.gempa.tb1.Pick/20250412113820.677474.123621</text><id>RefPickID</id></comment><comment><text>6.34923533891309</text><id>SNR</id></comment></pick><pick publicID="de.gempa.tb1.Pick/20250412113854.582688.123637"><time><value>2025-04-12T11:38:46.81Z</value></time><waveformID networkCode="CX" stationCode="PSGCX" channelCode="HHN"/><filterID>ITAPER(2)&gt;&gt;BW(3,3,20)</filterID><methodID>L2-AIC-GRID</methodID><horizontalSlowness><value>8.057113119332918</value></horizontalSlowness><backazimuth><value>174.903754047137</value></backazimuth><phaseHint>S</phaseHint><evaluationMode>automatic</evaluationMode><comment><text>14.263088688935802</text><id>DFX:rectilinearity</id></comment><comment><text>de.gempa.tb1.Pick/20250412113824.540089.123627</text><id>RefPickID</id></comment><comment><text>7.020768114244759</text><id>SNR</id></comment></pick><origin publicID="de.gempa.tb1.Origin/20250412113854.587731.81478"><time><value>2025-04-12T11:37:35.672407Z</value><uncertainty>0.3623445928096771</uncertainty></time><latitude><value>-21.939743041992188</value><uncertainty>1.5205695629119873</uncertainty></latitude><longitude><value>-69.97836303710938</value><uncertainty>2.8302226066589355</uncertainty></longitude><depth><value>0</value></depth><depthType>operator assigned</depthType><methodID>LOCSAT</methodID><earthModelID>iasp91_scanloc</earthModelID><quality><associatedPhaseCount>16</associatedPhaseCount><usedPhaseCount>16</usedPhaseCount><associatedStationCount>9</associatedStationCount><usedStationCount>9</usedStationCount><depthPhaseCount>0</depthPhaseCount><standardError>1.0849685461591276</standardError><azimuthalGap>189.48753356933594</azimuthalGap><maximumDistance>2.334733247756958</maximumDistance><minimumDistance>0.2354069948196411</minimumDistance><medianDistance>1.0024577379226685</medianDistance></quality><uncertainty><minHorizontalUncertainty>2.94844126701355</minHorizontalUncertainty><maxHorizontalUncertainty>6.230413436889648</maxHorizontalUncertainty><azimuthMaxHorizontalUncertainty>75.26466369628906</azimuthMaxHorizontalUncertainty><preferredDescription>horizontal uncertainty</preferredDescription></uncertainty><evaluationMode>automatic</evaluationMode><evaluationStatus>confirmed</evaluationStatus><comment><text>0.22</text><id>mismatchScore</id></comment><comment><text>mismatchScore</text><id>scevalMethod</id></comment><arrival><pickID>de.gempa.tb1.Pick/20250412113747.787135.123600</pickID><phase>P</phase><azimuth>117.40541076660156</azimuth><distance>0.2354069948196411</distance><timeResidual>1.6607012748718262</timeResidual><timeUsed>true</timeUsed><horizontalSlownessUsed>false</horizontalSlownessUsed><backazimuthUsed>false</backazimuthUsed><weight>1</weight></arrival><arrival><pickID>de.gempa.tb1.Pick/20250412113750.681622.123602</pickID><phase>S</phase><azimuth>117.40541076660156</azimuth><distance>0.2354069948196411</distance><timeResidual>1.6520166397094727</timeResidual><timeUsed>true</timeUsed><horizontalSlownessUsed>false</horizontalSlownessUsed><backazimuthUsed>false</backazimuthUsed><weight>1</weight></arrival><arrival><pickID>de.gempa.tb1.Pick/20250412113752.677129.123605</pickID><phase>P</phase><azimuth>7.093105792999268</azimuth><distance>0.6217181086540222</distance><timeResidual>1.0701041221618652</timeResidual><timeUsed>true</timeUsed><horizontalSlownessUsed>false</horizontalSlownessUsed><backazimuthUsed>false</backazimuthUsed><weight>1</weight></arrival><arrival><pickID>de.gempa.tb1.Pick/20250412113756.555646.123607</pickID><phase>P</phase><azimuth>153.8014373779297</azimuth><distance>0.8502413630485535</distance><timeResidual>-0.4715209007263184</timeResidual><timeUsed>true</timeUsed><horizontalSlownessUsed>false</horizontalSlownessUsed><backazimuthUsed>false</backazimuthUsed><weight>1</weight></arrival><arrival><pickID>de.gempa.tb1.Pick/20250412113758.590851.123609</pickID><phase>P</phase><azimuth>27.226688385009766</azimuth><distance>1.0024577379226685</distance><timeResidual>-0.4530863761901855</timeResidual><timeUsed>true</timeUsed><horizontalSlownessUsed>false</horizontalSlownessUsed><backazimuthUsed>false</backazimuthUsed><weight>1</weight></arrival><arrival><pickID>de.gempa.tb1.Pick/20250412113802.480206.123611</pickID><phase>P</phase><azimuth>351.6579284667969</azimuth><distance>1.1253331899642944</distance><timeResidual>-0.33855390548706055</timeResidual><timeUsed>true</timeUsed><horizontalSlownessUsed>false</horizontalSlownessUsed><backazimuthUsed>false</backazimuthUsed><weight>1</weight></arrival><arrival><pickID>de.gempa.tb1.Pick/20250412113804.64689.123613</pickID><phase>P</phase><azimuth>159.71713256835938</azimuth><distance>1.3468822240829468</distance><timeResidual>-1.4945483207702637</timeResidual><timeUsed>true</timeUsed><horizontalSlownessUsed>false</horizontalSlownessUsed><backazimuthUsed>false</backazimuthUsed><weight>1</weight></arrival><arrival><pickID>de.gempa.tb1.Pick/20250412113805.574549.123615</pickID><phase>P</phase><azimuth>78.35614013671875</azimuth><distance>0.6988024115562439</distance><timeResidual>0.40377092361450195</timeResidual><timeUsed>true</timeUsed><horizontalSlownessUsed>false</horizontalSlownessUsed><backazimuthUsed>false</backazimuthUsed><weight>1</weight></arrival><arrival><pickID>de.gempa.tb1.Pick/20250412113809.686268.123617</pickID><phase>S</phase><azimuth>153.8014373779297</azimuth><distance>0.8502413630485535</distance><timeResidual>-1.5533385276794434</timeResidual><timeUsed>true</timeUsed><horizontalSlownessUsed>false</horizontalSlownessUsed><backazimuthUsed>false</backazimuthUsed><weight>1</weight></arrival><arrival><pickID>de.gempa.tb1.Pick/20250412113814.774435.123618</pickID><phase>S</phase><azimuth>27.226688385009766</azimuth><distance>1.0024577379226685</distance><timeResidual>-1.61714506149292</timeResidual><timeUsed>true</timeUsed><horizontalSlownessUsed>false</horizontalSlownessUsed><backazimuthUsed>false</backazimuthUsed><weight>1</weight></arrival><arrival><pickID>de.gempa.tb1.Pick/20250412113818.720362.123620</pickID><phase>S</phase><azimuth>78.35614013671875</azimuth><distance>0.6988024115562439</distance><timeResidual>-0.8598074913024902</timeResidual><timeUsed>true</timeUsed><horizontalSlownessUsed>false</horizontalSlownessUsed><backazimuthUsed>false</backazimuthUsed><weight>1</weight></arrival><arrival><pickID>de.gempa.tb1.Pick/20250412113820.677474.123621</pickID><phase>P</phase><azimuth>162.17039489746094</azimuth><distance>2.0560343265533447</distance><timeResidual>0.38187646865844727</timeResidual><timeUsed>true</timeUsed><horizontalSlownessUsed>false</horizontalSlownessUsed><backazimuthUsed>false</backazimuthUsed><weight>1</weight></arrival><arrival><pickID>de.gempa.tb1.Pick/20250412113821.295312.123623</pickID><phase>S</phase><azimuth>351.6579284667969</azimuth><distance>1.1253331899642944</distance><timeResidual>-0.8543829917907715</timeResidual><timeUsed>true</timeUsed><horizontalSlownessUsed>false</horizontalSlownessUsed><backazimuthUsed>false</backazimuthUsed><weight>1</weight></arrival><arrival><pickID>de.gempa.tb1.Pick/20250412113824.540089.123627</pickID><phase>P</phase><azimuth>356.6496887207031</azimuth><distance>2.334733247756958</distance><timeResidual>1.1908173561096191</timeResidual><timeUsed>true</timeUsed><horizontalSlownessUsed>false</horizontalSlownessUsed><backazimuthUsed>false</backazimuthUsed><weight>1</weight></arrival><arrival><pickID>de.gempa.tb1.Pick/20250412113846.52953.123635</pickID><phase>S</phase><azimuth>162.17039489746094</azimuth><distance>2.0560343265533447</distance><timeResidual>0.2062363624572754</timeResidual><timeUsed>true</timeUsed><horizontalSlownessUsed>false</horizontalSlownessUsed><backazimuthUsed>false</backazimuthUsed><weight>1</weight></arrival><arrival><pickID>de.gempa.tb1.Pick/20250412113854.582688.123637</pickID><phase>S</phase><azimuth>356.6496887207031</azimuth><distance>2.334733247756958</distance><timeResidual>1.0768876075744629</timeResidual><timeUsed>true</timeUsed><horizontalSlownessUsed>false</horizontalSlownessUsed><backazimuthUsed>false</backazimuthUsed><weight>1</weight></arrival><magnitude publicID="de.gempa.tb1.Magnitude/20250412113855.940988.218823"><magnitude><value>2.36605454288012</value></magnitude><type>M</type><methodID>weighted average</methodID><stationCount>7</stationCount></magnitude></origin><event publicID="gempa2025hflm"><preferredOriginID>de.gempa.tb1.Origin/20250412113854.587731.81478</preferredOriginID><preferredMagnitudeID>de.gempa.tb1.Magnitude/20250412113855.940988.218823</preferredMagnitudeID><description><text>Northern Chile</text><type>region name</type></description><originReference>de.gempa.tb1.Origin/20250412113854.587731.81478</originReference></event></EventParameters></seiscomp>