<?xml version="1.0" encoding="UTF-8"?>
<seiscomp xmlns="http://geofon.gfz-potsdam.de/ns/seiscomp3-schema/0.13" version="0.13"><EventParameters><pick publicID="de.gempa.tb1.Pick/20250414152727.463531.138909"><time><value>2025-04-14T15:27:22.379999Z</value></time><waveformID networkCode="CX" stationCode="PATCX" channelCode="HHZ"/><filterID>ITAPER(4)&gt;&gt;BW(4,4,20)</filterID><methodID>AIC</methodID><horizontalSlowness><value>19.244105104869327</value></horizontalSlowness><backazimuth><value>51.08275012620052</value></backazimuth><phaseHint>P</phaseHint><evaluationMode>automatic</evaluationMode><comment><text>808.4807528451796</text><id>DFX:rectilinearity</id></comment><comment><text>104.51717270343958</text><id>SNR</id></comment></pick><pick publicID="de.gempa.tb1.Pick/20250414152727.550613.138911"><time><value>2025-04-14T15:27:21.72Z</value></time><waveformID networkCode="CX" stationCode="PSGCX" channelCode="HHZ"/><filterID>ITAPER(4)&gt;&gt;BW(4,4,20)</filterID><methodID>AIC</methodID><horizontalSlowness><value>8.78404188793801</value></horizontalSlowness><backazimuth><value>192.43283425058848</value></backazimuth><phaseHint>P</phaseHint><evaluationMode>automatic</evaluationMode><comment><text>9698.989422858585</text><id>DFX:rectilinearity</id></comment><comment><text>2378.4222378522854</text><id>SNR</id></comment></pick><pick publicID="de.gempa.tb1.Pick/20250414152731.637493.138913"><time><value>2025-04-14T15:27:27.598394Z</value></time><waveformID networkCode="CX" stationCode="PB01" channelCode="HHZ"/><filterID>ITAPER(4)&gt;&gt;BW(4,4,20)</filterID><methodID>AIC</methodID><horizontalSlowness><value>15.079846580508027</value></horizontalSlowness><backazimuth><value>324.8167254200956</value></backazimuth><phaseHint>P</phaseHint><evaluationMode>automatic</evaluationMode><comment><text>638.2569672228035</text><id>DFX:rectilinearity</id></comment><comment><text>588.7998618422781</text><id>SNR</id></comment></pick><pick publicID="de.gempa.tb1.Pick/20250414152732.023039.138915"><time><value>2025-04-14T15:27:26.168393Z</value></time><waveformID networkCode="CX" stationCode="PB08" channelCode="HHZ"/><filterID>ITAPER(4)&gt;&gt;BW(4,4,20)</filterID><methodID>AIC</methodID><horizontalSlowness><value>17.402228629338808</value></horizontalSlowness><backazimuth><value>210.15744763228966</value></backazimuth><phaseHint>P</phaseHint><evaluationMode>automatic</evaluationMode><comment><text>117.75763592149411</text><id>DFX:rectilinearity</id></comment><comment><text>83.35290682886664</text><id>SNR</id></comment></pick><pick publicID="de.gempa.tb1.Pick/20250414152735.766371.138918"><time><value>2025-04-14T15:27:29.788393Z</value></time><waveformID networkCode="CX" stationCode="PB02" channelCode="HHZ"/><filterID>ITAPER(4)&gt;&gt;BW(4,4,20)</filterID><methodID>AIC</methodID><horizontalSlowness><value>7.712681400163671</value></horizontalSlowness><backazimuth><value>34.993819878761343</value></backazimuth><phaseHint>P</phaseHint><evaluationMode>automatic</evaluationMode><comment><text>1595.6645748474248</text><id>DFX:rectilinearity</id></comment><comment><text>180.72228068298338</text><id>SNR</id></comment></pick><pick publicID="de.gempa.tb1.Pick/20250414152736.706857.138920"><time><value>2025-04-14T15:27:30.2Z</value></time><waveformID networkCode="CX" stationCode="PSGCX" channelCode="HHN"/><filterID>ITAPER(2)&gt;&gt;BW(3,3,20)</filterID><methodID>L2-AIC-GRID</methodID><horizontalSlowness><value>19.687977221760896</value></horizontalSlowness><backazimuth><value>329.5076980262845</value></backazimuth><phaseHint>S</phaseHint><evaluationMode>automatic</evaluationMode><comment><text>34037.03473821073</text><id>DFX:rectilinearity</id></comment><comment><text>de.gempa.tb1.Pick/20250414152727.550613.138911</text><id>RefPickID</id></comment><comment><text>5.767232161486059</text><id>SNR</id></comment></pick><pick publicID="de.gempa.tb1.Pick/20250414152738.445942.138921"><time><value>2025-04-14T15:27:31.399999Z</value></time><waveformID networkCode="CX" stationCode="PATCX" channelCode="HHN"/><filterID>ITAPER(2)&gt;&gt;BW(3,3,20)</filterID><methodID>L2-AIC-GRID</methodID><horizontalSlowness><value>22.185182587197868</value></horizontalSlowness><backazimuth><value>75.07319030737396</value></backazimuth><phaseHint>S</phaseHint><evaluationMode>automatic</evaluationMode><comment><text>44124.227675460985</text><id>DFX:rectilinearity</id></comment><comment><text>de.gempa.tb1.Pick/20250414152727.463531.138909</text><id>RefPickID</id></comment><comment><text>13.708815459043727</text><id>SNR</id></comment></pick><pick publicID="de.gempa.tb1.Pick/20250414152742.702642.138922"><time><value>2025-04-14T15:27:36.018396Z</value></time><waveformID networkCode="CX" stationCode="PB07" channelCode="HHZ"/><filterID>ITAPER(4)&gt;&gt;BW(4,4,20)</filterID><methodID>AIC</methodID><horizontalSlowness><value>15.062667940614425</value></horizontalSlowness><backazimuth><value>7.976078815447124</value></backazimuth><phaseHint>P</phaseHint><evaluationMode>automatic</evaluationMode><comment><text>5918.988481969413</text><id>DFX:rectilinearity</id></comment><comment><text>171.98726785021145</text><id>SNR</id></comment></pick><pick publicID="de.gempa.tb1.Pick/20250414152746.770008.138924"><time><value>2025-04-14T15:27:40.588394Z</value></time><waveformID networkCode="CX" stationCode="PB01" channelCode="HHN"/><filterID>ITAPER(2)&gt;&gt;BW(3,3,20)</filterID><methodID>L2-AIC-GRID</methodID><horizontalSlowness><value>23.50079814575</value></horizontalSlowness><backazimuth><value>15.941347474712217</value></backazimuth><phaseHint>S</phaseHint><evaluationMode>automatic</evaluationMode><comment><text>13910.98411703405</text><id>DFX:rectilinearity</id></comment><comment><text>de.gempa.tb1.Pick/20250414152731.637493.138913</text><id>RefPickID</id></comment><comment><text>11.420018022273647</text><id>SNR</id></comment></pick><pick publicID="de.gempa.tb1.Pick/20250414152747.599222.138925"><time><value>2025-04-14T15:27:37.988393Z</value></time><waveformID networkCode="CX" stationCode="PB08" channelCode="HHN"/><filterID>ITAPER(2)&gt;&gt;BW(3,3,20)</filterID><methodID>L2-AIC-GRID</methodID><horizontalSlowness><value>13.5505120011862</value></horizontalSlowness><backazimuth><value>215.80535784638619</value></backazimuth><phaseHint>S</phaseHint><evaluationMode>automatic</evaluationMode><comment><text>5832.288900847776</text><id>DFX:rectilinearity</id></comment><comment><text>de.gempa.tb1.Pick/20250414152732.023039.138915</text><id>RefPickID</id></comment><comment><text>8.38852416733419</text><id>SNR</id></comment></pick><pick publicID="de.gempa.tb1.Pick/20250414152747.603149.138926"><time><value>2025-04-14T15:27:41.138393Z</value></time><waveformID networkCode="CX" stationCode="PB03" channelCode="HHZ"/><filterID>ITAPER(4)&gt;&gt;BW(4,4,20)</filterID><methodID>AIC</methodID><horizontalSlowness><value>7.002564709495707</value></horizontalSlowness><backazimuth><value>344.59580104171494</value></backazimuth><phaseHint>P</phaseHint><evaluationMode>automatic</evaluationMode><comment><text>521.4463064342309</text><id>DFX:rectilinearity</id></comment><comment><text>178.59846517056113</text><id>SNR</id></comment></pick><origin publicID="de.gempa.tb1.Origin/20250414152748.606832.142023"><time><value>2025-04-14T15:27:09.853405Z</value><uncertainty>0.3973805606365204</uncertainty></time><latitude><value>-20.205245971679688</value><uncertainty>2.0802652835845947</uncertainty></latitude><longitude><value>-70.04662322998047</value><uncertainty>3.3147854804992676</uncertainty></longitude><depth><value>20.259502410888672</value><uncertainty>7.33185863494873</uncertainty></depth><depthType>from location</depthType><methodID>LOCSAT</methodID><earthModelID>iasp91_scanloc</earthModelID><quality><associatedPhaseCount>11</associatedPhaseCount><usedPhaseCount>11</usedPhaseCount><associatedStationCount>7</associatedStationCount><usedStationCount>7</usedStationCount><depthPhaseCount>0</depthPhaseCount><standardError>0.545522913497029</standardError><azimuthalGap>163.98768615722656</azimuthalGap><maximumDistance>1.8544217348098755</maximumDistance><minimumDistance>0.6092003583908081</minimumDistance><medianDistance>0.8415180444717407</medianDistance></quality><uncertainty><minHorizontalUncertainty>4.439014434814453</minHorizontalUncertainty><maxHorizontalUncertainty>7.121870040893555</maxHorizontalUncertainty><azimuthMaxHorizontalUncertainty>85.45529174804688</azimuthMaxHorizontalUncertainty><preferredDescription>horizontal uncertainty</preferredDescription></uncertainty><evaluationMode>automatic</evaluationMode><evaluationStatus>confirmed</evaluationStatus><comment><text>0.00</text><id>mismatchScore</id></comment><comment><text>mismatchScore</text><id>scevalMethod</id></comment><arrival><pickID>de.gempa.tb1.Pick/20250414152727.463531.138909</pickID><phase>P</phase><azimuth>189.21986389160156</azimuth><distance>0.6203933954238892</distance><timeResidual>0.37111377716064453</timeResidual><timeUsed>true</timeUsed><horizontalSlownessUsed>false</horizontalSlownessUsed><backazimuthUsed>false</backazimuthUsed><weight>1</weight></arrival><arrival><pickID>de.gempa.tb1.Pick/20250414152727.550613.138911</pickID><phase>P</phase><azimuth>353.2075500488281</azimuth><distance>0.6092003583908081</distance><timeResidual>-0.1013803482055664</timeResidual><timeUsed>true</timeUsed><horizontalSlownessUsed>false</horizontalSlownessUsed><backazimuthUsed>false</backazimuthUsed><weight>1</weight></arrival><arrival><pickID>de.gempa.tb1.Pick/20250414152731.637493.138913</pickID><phase>P</phase><azimuth>147.95770263671875</azimuth><distance>0.9846458435058594</distance><timeResidual>-0.6154422760009766</timeResidual><timeUsed>true</timeUsed><horizontalSlownessUsed>false</horizontalSlownessUsed><backazimuthUsed>false</backazimuthUsed><weight>1</weight></arrival><arrival><pickID>de.gempa.tb1.Pick/20250414152732.023039.138915</pickID><phase>P</phase><azimuth>85.80533599853516</azimuth><distance>0.8415180444717407</distance><timeResidual>0.3846416473388672</timeResidual><timeUsed>true</timeUsed><horizontalSlownessUsed>false</horizontalSlownessUsed><backazimuthUsed>false</backazimuthUsed><weight>1</weight></arrival><arrival><pickID>de.gempa.tb1.Pick/20250414152735.766371.138918</pickID><phase>P</phase><azimuth>172.78318786621094</azimuth><distance>1.1178035736083984</distance><timeResidual>-0.548248291015625</timeResidual><timeUsed>true</timeUsed><horizontalSlownessUsed>false</horizontalSlownessUsed><backazimuthUsed>false</backazimuthUsed><weight>1</weight></arrival><arrival><pickID>de.gempa.tb1.Pick/20250414152736.706857.138920</pickID><phase>S</phase><azimuth>353.2075500488281</azimuth><distance>0.6092003583908081</distance><timeResidual>-0.34354496002197266</timeResidual><timeUsed>true</timeUsed><horizontalSlownessUsed>false</horizontalSlownessUsed><backazimuthUsed>false</backazimuthUsed><weight>1</weight></arrival><arrival><pickID>de.gempa.tb1.Pick/20250414152738.445942.138921</pickID><phase>S</phase><azimuth>189.21986389160156</azimuth><distance>0.6203933954238892</distance><timeResidual>0.5314035415649414</timeResidual><timeUsed>true</timeUsed><horizontalSlownessUsed>false</horizontalSlownessUsed><backazimuthUsed>false</backazimuthUsed><weight>1</weight></arrival><arrival><pickID>de.gempa.tb1.Pick/20250414152742.702642.138922</pickID><phase>P</phase><azimuth>174.37139892578125</azimuth><distance>1.521233320236206</distance><timeResidual>0.1302032470703125</timeResidual><timeUsed>true</timeUsed><horizontalSlownessUsed>false</horizontalSlownessUsed><backazimuthUsed>false</backazimuthUsed><weight>1</weight></arrival><arrival><pickID>de.gempa.tb1.Pick/20250414152746.770008.138924</pickID><phase>S</phase><azimuth>147.95770263671875</azimuth><distance>0.9846458435058594</distance><timeResidual>-1.0511808395385742</timeResidual><timeUsed>true</timeUsed><horizontalSlownessUsed>false</horizontalSlownessUsed><backazimuthUsed>false</backazimuthUsed><weight>1</weight></arrival><arrival><pickID>de.gempa.tb1.Pick/20250414152747.599222.138925</pickID><phase>S</phase><azimuth>85.80533599853516</azimuth><distance>0.8415180444717407</distance><timeResidual>0.5773344039916992</timeResidual><timeUsed>true</timeUsed><horizontalSlownessUsed>false</horizontalSlownessUsed><backazimuthUsed>false</backazimuthUsed><weight>1</weight></arrival><arrival><pickID>de.gempa.tb1.Pick/20250414152747.603149.138926</pickID><phase>P</phase><azimuth>171.55433654785156</azimuth><distance>1.8544217348098755</distance><timeResidual>0.6652727127075195</timeResidual><timeUsed>true</timeUsed><horizontalSlownessUsed>false</horizontalSlownessUsed><backazimuthUsed>false</backazimuthUsed><weight>1</weight></arrival><magnitude publicID="de.gempa.tb1.Magnitude/20250414152748.62097.507399"><magnitude><value>2.7715206667818357</value></magnitude><type>M</type><methodID>weighted average</methodID><stationCount>7</stationCount></magnitude></origin><event publicID="gempa2025hjle"><preferredOriginID>de.gempa.tb1.Origin/20250414152748.606832.142023</preferredOriginID><preferredMagnitudeID>de.gempa.tb1.Magnitude/20250414152748.62097.507399</preferredMagnitudeID><description><text>Near Coast of Northern Chile</text><type>region name</type></description><originReference>de.gempa.tb1.Origin/20250414152748.606832.142023</originReference></event></EventParameters></seiscomp>