<?xml version="1.0" encoding="UTF-8"?>
<seiscomp xmlns="http://geofon.gfz-potsdam.de/ns/seiscomp3-schema/0.13" version="0.13"><EventParameters><pick publicID="de.gempa.tb1.Pick/20250412214856.571054.127034"><time><value>2025-04-12T21:48:50.358393Z</value></time><waveformID networkCode="CX" stationCode="PB01" channelCode="HHZ"/><filterID>ITAPER(4)&gt;&gt;BW(4,4,20)</filterID><methodID>AIC</methodID><horizontalSlowness><value>5.780583705275565</value></horizontalSlowness><backazimuth><value>20.065584931559584</value></backazimuth><phaseHint>P</phaseHint><evaluationMode>automatic</evaluationMode><comment><text>238.7383778071196</text><id>DFX:rectilinearity</id></comment><comment><text>213.1746404889504</text><id>SNR</id></comment></pick><pick publicID="de.gempa.tb1.Pick/20250412214856.689689.127036"><time><value>2025-04-12T21:48:49.728393Z</value></time><waveformID networkCode="CX" stationCode="PB08" channelCode="HHZ"/><filterID>ITAPER(4)&gt;&gt;BW(4,4,20)</filterID><methodID>AIC</methodID><horizontalSlowness><value>14.113128820417169</value></horizontalSlowness><backazimuth><value>215.26157906058467</value></backazimuth><phaseHint>P</phaseHint><evaluationMode>automatic</evaluationMode><comment><text>25.326199375075753</text><id>DFX:rectilinearity</id></comment><comment><text>106.67128485420616</text><id>SNR</id></comment></pick><pick publicID="de.gempa.tb1.Pick/20250412214900.523413.127038"><time><value>2025-04-12T21:48:55.038393Z</value></time><waveformID networkCode="CX" stationCode="PB02" channelCode="HHZ"/><filterID>ITAPER(4)&gt;&gt;BW(4,4,20)</filterID><methodID>AIC</methodID><horizontalSlowness><value>10.650885854292483</value></horizontalSlowness><backazimuth><value>47.1543525957461</value></backazimuth><phaseHint>P</phaseHint><evaluationMode>automatic</evaluationMode><comment><text>151.62692004726148</text><id>DFX:rectilinearity</id></comment><comment><text>84.12230651883536</text><id>SNR</id></comment></pick><pick publicID="de.gempa.tb1.Pick/20250412214903.461623.127040"><time><value>2025-04-12T21:48:54.739999Z</value></time><waveformID networkCode="CX" stationCode="PATCX" channelCode="HHZ"/><filterID>ITAPER(4)&gt;&gt;BW(4,4,20)</filterID><methodID>AIC</methodID><horizontalSlowness><value>23.223791507295033</value></horizontalSlowness><backazimuth><value>234.22463393396055</value></backazimuth><phaseHint>P</phaseHint><evaluationMode>automatic</evaluationMode><comment><text>253.08077947112264</text><id>DFX:rectilinearity</id></comment><comment><text>12.349411678336313</text><id>SNR</id></comment></pick><pick publicID="de.gempa.tb1.Pick/20250412214903.638003.127042"><time><value>2025-04-12T21:48:57.97Z</value></time><waveformID networkCode="CX" stationCode="PSGCX" channelCode="HHZ"/><filterID>ITAPER(4)&gt;&gt;BW(4,4,20)</filterID><methodID>AIC</methodID><horizontalSlowness><value>14.21119357581317</value></horizontalSlowness><backazimuth><value>103.44481797529819</value></backazimuth><phaseHint>P</phaseHint><evaluationMode>automatic</evaluationMode><comment><text>41.891763997164283</text><id>DFX:rectilinearity</id></comment><comment><text>109.20767779808644</text><id>SNR</id></comment></pick><pick publicID="de.gempa.tb1.Pick/20250412214907.364431.127044"><time><value>2025-04-12T21:48:57.440001Z</value></time><waveformID networkCode="CX" stationCode="PB09" channelCode="HHZ"/><filterID>ITAPER(4)&gt;&gt;BW(4,4,20)</filterID><methodID>AIC</methodID><horizontalSlowness><value>16.735969801555623</value></horizontalSlowness><backazimuth><value>60.495071039393</value></backazimuth><phaseHint>P</phaseHint><evaluationMode>automatic</evaluationMode><comment><text>56.52744095315698</text><id>DFX:rectilinearity</id></comment><comment><text>46.42486414631154</text><id>SNR</id></comment></pick><pick publicID="de.gempa.tb1.Pick/20250412214907.534905.127046"><time><value>2025-04-12T21:49:01.298393Z</value></time><waveformID networkCode="CX" stationCode="PB03" channelCode="HHZ"/><filterID>ITAPER(4)&gt;&gt;BW(4,4,20)</filterID><methodID>AIC</methodID><horizontalSlowness><value>5.286217172968416</value></horizontalSlowness><backazimuth><value>180.43240836663537</value></backazimuth><phaseHint>P</phaseHint><evaluationMode>automatic</evaluationMode><comment><text>16.268907402591687</text><id>DFX:rectilinearity</id></comment><comment><text>11.148848855885293</text><id>SNR</id></comment></pick><pick publicID="de.gempa.tb1.Pick/20250412214910.77237.127048"><time><value>2025-04-12T21:49:03.608393Z</value></time><waveformID networkCode="CX" stationCode="PB01" channelCode="HHN"/><filterID>ITAPER(2)&gt;&gt;BW(3,3,20)</filterID><methodID>L2-AIC-GRID</methodID><horizontalSlowness><value>23.0262054809888</value></horizontalSlowness><backazimuth><value>181.09889453358932</value></backazimuth><phaseHint>S</phaseHint><evaluationMode>automatic</evaluationMode><comment><text>6426.607637418865</text><id>DFX:rectilinearity</id></comment><comment><text>de.gempa.tb1.Pick/20250412214856.571054.127034</text><id>RefPickID</id></comment><comment><text>14.468097413245937</text><id>SNR</id></comment></pick><pick publicID="de.gempa.tb1.Pick/20250412214911.022012.127049"><time><value>2025-04-12T21:49:01.918393Z</value></time><waveformID networkCode="CX" stationCode="PB08" channelCode="HHN"/><filterID>ITAPER(2)&gt;&gt;BW(3,3,20)</filterID><methodID>L2-AIC-GRID</methodID><horizontalSlowness><value>12.376558211462408</value></horizontalSlowness><backazimuth><value>223.46439737591166</value></backazimuth><phaseHint>S</phaseHint><evaluationMode>automatic</evaluationMode><comment><text>527.3629398761213</text><id>DFX:rectilinearity</id></comment><comment><text>de.gempa.tb1.Pick/20250412214856.689689.127036</text><id>RefPickID</id></comment><comment><text>8.391077671614543</text><id>SNR</id></comment></pick><pick publicID="de.gempa.tb1.Pick/20250412214917.77262.127050"><time><value>2025-04-12T21:49:10.748394Z</value></time><waveformID networkCode="CX" stationCode="PB16" channelCode="HHZ"/><filterID>ITAPER(4)&gt;&gt;BW(4,4,20)</filterID><methodID>AIC</methodID><horizontalSlowness><value>21.198083619357938</value></horizontalSlowness><backazimuth><value>84.02568595803984</value></backazimuth><phaseHint>P</phaseHint><evaluationMode>automatic</evaluationMode><comment><text>2.899003137496249</text><id>DFX:rectilinearity</id></comment><comment><text>8.788887535668573</text><id>SNR</id></comment></pick><pick publicID="de.gempa.tb1.Pick/20250412214918.30624.127052"><time><value>2025-04-12T21:49:11.029999Z</value></time><waveformID networkCode="CX" stationCode="PATCX" channelCode="HHN"/><filterID>ITAPER(2)&gt;&gt;BW(3,3,20)</filterID><methodID>L2-AIC-GRID</methodID><horizontalSlowness><value>23.343612758011037</value></horizontalSlowness><backazimuth><value>240.183102587101</value></backazimuth><phaseHint>S</phaseHint><evaluationMode>automatic</evaluationMode><comment><text>768.969967206829</text><id>DFX:rectilinearity</id></comment><comment><text>de.gempa.tb1.Pick/20250412214903.461623.127040</text><id>RefPickID</id></comment><comment><text>6.711655302720125</text><id>SNR</id></comment></pick><pick publicID="de.gempa.tb1.Pick/20250412214920.518123.127053"><time><value>2025-04-12T21:49:12.158393Z</value></time><waveformID networkCode="CX" stationCode="PB02" channelCode="HHN"/><filterID>ITAPER(2)&gt;&gt;BW(3,3,20)</filterID><methodID>L2-AIC-GRID</methodID><horizontalSlowness><value>23.0873955270583</value></horizontalSlowness><backazimuth><value>49.66645487560567</value></backazimuth><phaseHint>S</phaseHint><evaluationMode>automatic</evaluationMode><comment><text>3252.7274542584437</text><id>DFX:rectilinearity</id></comment><comment><text>de.gempa.tb1.Pick/20250412214900.523413.127038</text><id>RefPickID</id></comment><comment><text>7.02112473504735</text><id>SNR</id></comment></pick><pick publicID="de.gempa.tb1.Pick/20250412214921.90411.127055"><time><value>2025-04-12T21:48:58.488393Z</value></time><waveformID networkCode="CX" stationCode="PB07" channelCode="HHZ"/><filterID>ITAPER(4)&gt;&gt;BW(4,4,20)</filterID><methodID>AIC</methodID><horizontalSlowness><value>19.41995335826892</value></horizontalSlowness><backazimuth><value>256.8260215218808</value></backazimuth><phaseHint>P</phaseHint><evaluationMode>automatic</evaluationMode><comment><text>489.9201170129587</text><id>DFX:rectilinearity</id></comment><comment><text>72.54223506950713</text><id>SNR</id></comment></pick><pick publicID="de.gempa.tb1.Pick/20250412214923.662782.127057"><time><value>2025-04-12T21:49:16.77Z</value></time><waveformID networkCode="CX" stationCode="PSGCX" channelCode="HHN"/><filterID>ITAPER(2)&gt;&gt;BW(3,3,20)</filterID><methodID>L2-AIC-GRID</methodID><horizontalSlowness><value>22.197203375986874</value></horizontalSlowness><backazimuth><value>323.6810193794563</value></backazimuth><phaseHint>S</phaseHint><evaluationMode>automatic</evaluationMode><comment><text>223.66593297880243</text><id>DFX:rectilinearity</id></comment><comment><text>de.gempa.tb1.Pick/20250412214903.638003.127042</text><id>RefPickID</id></comment><comment><text>9.72391855313704</text><id>SNR</id></comment></pick><pick publicID="de.gempa.tb1.Pick/20250412214930.566735.127060"><time><value>2025-04-12T21:49:21.898393Z</value></time><waveformID networkCode="CX" stationCode="PB03" channelCode="HHN"/><filterID>ITAPER(2)&gt;&gt;BW(3,3,20)</filterID><methodID>L2-AIC-GRID</methodID><horizontalSlowness><value>18.924891377806496</value></horizontalSlowness><backazimuth><value>189.39975871272694</value></backazimuth><phaseHint>S</phaseHint><evaluationMode>automatic</evaluationMode><comment><text>227.4601821091395</text><id>DFX:rectilinearity</id></comment><comment><text>de.gempa.tb1.Pick/20250412214907.534905.127046</text><id>RefPickID</id></comment><comment><text>10.35825037578255</text><id>SNR</id></comment></pick><pick publicID="de.gempa.tb1.Pick/20250412214931.375424.127061"><time><value>2025-04-12T21:49:17.268393Z</value></time><waveformID networkCode="CX" stationCode="PB07" channelCode="HHN"/><filterID>ITAPER(2)&gt;&gt;BW(3,3,20)</filterID><methodID>L2-AIC-GRID</methodID><horizontalSlowness><value>23.557751971166585</value></horizontalSlowness><backazimuth><value>186.05241536643433</value></backazimuth><phaseHint>S</phaseHint><evaluationMode>automatic</evaluationMode><comment><text>4330.7246218867895</text><id>DFX:rectilinearity</id></comment><comment><text>de.gempa.tb1.Pick/20250412214921.90411.127055</text><id>RefPickID</id></comment><comment><text>6.55211528073927</text><id>SNR</id></comment></pick><pick publicID="de.gempa.tb1.Pick/20250412214931.503836.127062"><time><value>2025-04-12T21:49:15.790001Z</value></time><waveformID networkCode="CX" stationCode="PB09" channelCode="HHN"/><filterID>ITAPER(2)&gt;&gt;BW(3,3,20)</filterID><methodID>L2-AIC-GRID</methodID><horizontalSlowness><value>20.581651825128962</value></horizontalSlowness><backazimuth><value>156.23193589850666</value></backazimuth><phaseHint>S</phaseHint><evaluationMode>automatic</evaluationMode><comment><text>1772.0239092424138</text><id>DFX:rectilinearity</id></comment><comment><text>de.gempa.tb1.Pick/20250412214907.364431.127044</text><id>RefPickID</id></comment><comment><text>5.277021021425111</text><id>SNR</id></comment></pick><origin publicID="de.gempa.tb1.Origin/20250412214931.506599.93380"><time><value>2025-04-12T21:48:33.904889Z</value><uncertainty>0.6834908723831177</uncertainty></time><latitude><value>-20.566595077514648</value><uncertainty>2.3590874671936035</uncertainty></latitude><longitude><value>-69.15052032470703</value><uncertainty>5.297447681427002</uncertainty></longitude><depth><value>105.48751831054688</value><uncertainty>5.609202861785889</uncertainty></depth><depthType>from location</depthType><methodID>LOCSAT</methodID><earthModelID>iasp91_scanloc</earthModelID><quality><associatedPhaseCount>17</associatedPhaseCount><usedPhaseCount>17</usedPhaseCount><associatedStationCount>9</associatedStationCount><usedStationCount>9</usedStationCount><depthPhaseCount>0</depthPhaseCount><standardError>0.4937930836542755</standardError><azimuthalGap>184.3369140625</azimuthalGap><maximumDistance>2.2452759742736816</maximumDistance><minimumDistance>0.4233177900314331</minimumDistance><medianDistance>1.22665274143219</medianDistance></quality><uncertainty><minHorizontalUncertainty>5.045024394989014</minHorizontalUncertainty><maxHorizontalUncertainty>11.36241912841797</maxHorizontalUncertainty><azimuthMaxHorizontalUncertainty>91.99847412109375</azimuthMaxHorizontalUncertainty><preferredDescription>horizontal uncertainty</preferredDescription></uncertainty><evaluationMode>automatic</evaluationMode><evaluationStatus>confirmed</evaluationStatus><comment><text>0.00</text><id>mismatchScore</id></comment><comment><text>mismatchScore</text><id>scevalMethod</id></comment><arrival><pickID>de.gempa.tb1.Pick/20250412214856.571054.127034</pickID><phase>P</phase><azimuth>213.5481719970703</azimuth><distance>0.5694213509559631</distance><timeResidual>-0.4239063262939453</timeResidual><timeUsed>true</timeUsed><horizontalSlownessUsed>false</horizontalSlownessUsed><backazimuthUsed>false</backazimuthUsed><weight>1</weight></arrival><arrival><pickID>de.gempa.tb1.Pick/20250412214856.689689.127036</pickID><phase>P</phase><azimuth>359.63421630859375</azimuth><distance>0.4233177900314331</distance><timeResidual>-0.05828189849853516</timeResidual><timeUsed>true</timeUsed><horizontalSlownessUsed>false</horizontalSlownessUsed><backazimuthUsed>false</backazimuthUsed><weight>1</weight></arrival><arrival><pickID>de.gempa.tb1.Pick/20250412214900.523413.127038</pickID><phase>P</phase><azimuth>222.78823852539062</azimuth><distance>1.0233012437820435</distance><timeResidual>0.031662940979003906</timeResidual><timeUsed>true</timeUsed><horizontalSlownessUsed>false</horizontalSlownessUsed><backazimuthUsed>false</backazimuthUsed><weight>1</weight></arrival><arrival><pickID>de.gempa.tb1.Pick/20250412214903.461623.127040</pickID><phase>P</phase><azimuth>254.74620056152344</azimuth><distance>0.9719299077987671</distance><timeResidual>0.2718029022216797</timeResidual><timeUsed>true</timeUsed><horizontalSlownessUsed>false</horizontalSlownessUsed><backazimuthUsed>false</backazimuthUsed><weight>1</weight></arrival><arrival><pickID>de.gempa.tb1.Pick/20250412214903.638003.127042</pickID><phase>P</phase><azimuth>316.3677978515625</azimuth><distance>1.3288164138793945</distance><timeResidual>-0.4725933074951172</timeResidual><timeUsed>true</timeUsed><horizontalSlownessUsed>false</horizontalSlownessUsed><backazimuthUsed>false</backazimuthUsed><weight>1</weight></arrival><arrival><pickID>de.gempa.tb1.Pick/20250412214907.364431.127044</pickID><phase>P</phase><azimuth>183.97113037109375</azimuth><distance>1.22665274143219</distance><timeResidual>0.18860721588134766</timeResidual><timeUsed>true</timeUsed><horizontalSlownessUsed>false</horizontalSlownessUsed><backazimuthUsed>false</backazimuthUsed><weight>1</weight></arrival><arrival><pickID>de.gempa.tb1.Pick/20250412214907.534905.127046</pickID><phase>P</phase><azimuth>200.75131225585938</azimuth><distance>1.5779709815979004</distance><timeResidual>-0.1184101104736328</timeResidual><timeUsed>true</timeUsed><horizontalSlownessUsed>false</horizontalSlownessUsed><backazimuthUsed>false</backazimuthUsed><weight>1</weight></arrival><arrival><pickID>de.gempa.tb1.Pick/20250412214910.77237.127048</pickID><phase>S</phase><azimuth>213.5481719970703</azimuth><distance>0.5694213509559631</distance><timeResidual>-0.16098690032958984</timeResidual><timeUsed>true</timeUsed><horizontalSlownessUsed>false</horizontalSlownessUsed><backazimuthUsed>false</backazimuthUsed><weight>1</weight></arrival><arrival><pickID>de.gempa.tb1.Pick/20250412214911.022012.127049</pickID><phase>S</phase><azimuth>359.63421630859375</azimuth><distance>0.4233177900314331</distance><timeResidual>-0.0787811279296875</timeResidual><timeUsed>true</timeUsed><horizontalSlownessUsed>false</horizontalSlownessUsed><backazimuthUsed>false</backazimuthUsed><weight>1</weight></arrival><arrival><pickID>de.gempa.tb1.Pick/20250412214917.77262.127050</pickID><phase>P</phase><azimuth>351.30767822265625</azimuth><distance>2.2452759742736816</distance><timeResidual>0.861429214477539</timeResidual><timeUsed>true</timeUsed><horizontalSlownessUsed>false</horizontalSlownessUsed><backazimuthUsed>false</backazimuthUsed><weight>1</weight></arrival><arrival><pickID>de.gempa.tb1.Pick/20250412214918.30624.127052</pickID><phase>S</phase><azimuth>254.74620056152344</azimuth><distance>0.9719299077987671</distance><timeResidual>0.6932201385498047</timeResidual><timeUsed>true</timeUsed><horizontalSlownessUsed>false</horizontalSlownessUsed><backazimuthUsed>false</backazimuthUsed><weight>1</weight></arrival><arrival><pickID>de.gempa.tb1.Pick/20250412214920.518123.127053</pickID><phase>S</phase><azimuth>222.78823852539062</azimuth><distance>1.0233012437820435</distance><timeResidual>0.8603229522705078</timeResidual><timeUsed>true</timeUsed><horizontalSlownessUsed>false</horizontalSlownessUsed><backazimuthUsed>false</backazimuthUsed><weight>1</weight></arrival><arrival><pickID>de.gempa.tb1.Pick/20250412214921.90411.127055</pickID><phase>P</phase><azimuth>210.61773681640625</azimuth><distance>1.3431274890899658</distance><timeResidual>-0.11175537109375</timeResidual><timeUsed>true</timeUsed><horizontalSlownessUsed>false</horizontalSlownessUsed><backazimuthUsed>false</backazimuthUsed><weight>1</weight></arrival><arrival><pickID>de.gempa.tb1.Pick/20250412214923.662782.127057</pickID><phase>S</phase><azimuth>316.3677978515625</azimuth><distance>1.3288164138793945</distance><timeResidual>-0.6622600555419922</timeResidual><timeUsed>true</timeUsed><horizontalSlownessUsed>false</horizontalSlownessUsed><backazimuthUsed>false</backazimuthUsed><weight>1</weight></arrival><arrival><pickID>de.gempa.tb1.Pick/20250412214930.566735.127060</pickID><phase>S</phase><azimuth>200.75131225585938</azimuth><distance>1.5779709815979004</distance><timeResidual>-0.856180191040039</timeResidual><timeUsed>true</timeUsed><horizontalSlownessUsed>false</horizontalSlownessUsed><backazimuthUsed>false</backazimuthUsed><weight>1</weight></arrival><arrival><pickID>de.gempa.tb1.Pick/20250412214931.375424.127061</pickID><phase>S</phase><azimuth>210.61773681640625</azimuth><distance>1.3431274890899658</distance><timeResidual>-0.4481945037841797</timeResidual><timeUsed>true</timeUsed><horizontalSlownessUsed>false</horizontalSlownessUsed><backazimuthUsed>false</backazimuthUsed><weight>1</weight></arrival><arrival><pickID>de.gempa.tb1.Pick/20250412214931.503836.127062</pickID><phase>S</phase><azimuth>183.97113037109375</azimuth><distance>1.22665274143219</distance><timeResidual>0.4840793609619141</timeResidual><timeUsed>true</timeUsed><horizontalSlownessUsed>false</horizontalSlownessUsed><backazimuthUsed>false</backazimuthUsed><weight>1</weight></arrival><magnitude publicID="de.gempa.tb1.Magnitude/20250412214940.940038.286758"><magnitude><value>2.425879892204282</value></magnitude><type>M</type><methodID>weighted average</methodID><stationCount>5</stationCount></magnitude></origin><event publicID="gempa2025hgfw"><preferredOriginID>de.gempa.tb1.Origin/20250412214931.506599.93380</preferredOriginID><preferredMagnitudeID>de.gempa.tb1.Magnitude/20250412214940.940038.286758</preferredMagnitudeID><description><text>Northern Chile</text><type>region name</type></description><originReference>de.gempa.tb1.Origin/20250412214931.506599.93380</originReference></event></EventParameters></seiscomp>