<?xml version="1.0" encoding="UTF-8"?>
<seiscomp xmlns="http://geofon.gfz-potsdam.de/ns/seiscomp3-schema/0.13" version="0.13"><EventParameters><pick publicID="de.gempa.tb1.Pick/20250414085744.525571.136912"><time><value>2025-04-14T08:57:36.158393Z</value></time><waveformID networkCode="CX" stationCode="PB03" channelCode="HHZ"/><filterID>ITAPER(4)&gt;&gt;BW(4,4,20)</filterID><methodID>AIC</methodID><horizontalSlowness><value>12.17575234842075</value></horizontalSlowness><backazimuth><value>248.63385198413815</value></backazimuth><phaseHint>P</phaseHint><evaluationMode>automatic</evaluationMode><comment><text>5.054039800784768</text><id>DFX:rectilinearity</id></comment><comment><text>12.40744742671654</text><id>SNR</id></comment></pick><pick publicID="de.gempa.tb1.Pick/20250414085744.57457.136914"><time><value>2025-04-14T08:57:37.268393Z</value></time><waveformID networkCode="CX" stationCode="PB01" channelCode="HHZ"/><filterID>ITAPER(4)&gt;&gt;BW(4,4,20)</filterID><methodID>AIC</methodID><horizontalSlowness><value>6.186166706849518</value></horizontalSlowness><backazimuth><value>131.07181932064208</value></backazimuth><phaseHint>P</phaseHint><evaluationMode>automatic</evaluationMode><comment><text>13.589926856957064</text><id>DFX:rectilinearity</id></comment><comment><text>33.77616818058676</text><id>SNR</id></comment></pick><pick publicID="de.gempa.tb1.Pick/20250414085745.175425.136916"><time><value>2025-04-14T08:57:32.2Z</value></time><waveformID networkCode="CX" stationCode="PB09" channelCode="HHZ"/><filterID>ITAPER(4)&gt;&gt;BW(4,4,20)</filterID><methodID>AIC</methodID><horizontalSlowness><value>12.604441724939575</value></horizontalSlowness><backazimuth><value>245.51494143211173</value></backazimuth><phaseHint>P</phaseHint><evaluationMode>automatic</evaluationMode><comment><text>10.607815181062064</text><id>DFX:rectilinearity</id></comment><comment><text>43.419780444092297</text><id>SNR</id></comment></pick><pick publicID="de.gempa.tb1.Pick/20250414085747.599635.136918"><time><value>2025-04-14T08:57:39.248393Z</value></time><waveformID networkCode="CX" stationCode="PB02" channelCode="HHZ"/><filterID>ITAPER(4)&gt;&gt;BW(4,4,20)</filterID><methodID>AIC</methodID><horizontalSlowness><value>14.033467270551846</value></horizontalSlowness><backazimuth><value>78.25274766124102</value></backazimuth><phaseHint>P</phaseHint><evaluationMode>automatic</evaluationMode><comment><text>18.606145419442853</text><id>DFX:rectilinearity</id></comment><comment><text>15.17880523510031</text><id>SNR</id></comment></pick><pick publicID="de.gempa.tb1.Pick/20250414085800.557539.136920"><time><value>2025-04-14T08:57:54.148393Z</value></time><waveformID networkCode="CX" stationCode="PB03" channelCode="HHN"/><filterID>ITAPER(2)&gt;&gt;BW(3,3,20)</filterID><methodID>L2-AIC-GRID</methodID><horizontalSlowness><value>23.500324402477936</value></horizontalSlowness><backazimuth><value>205.14415959911906</value></backazimuth><phaseHint>S</phaseHint><evaluationMode>automatic</evaluationMode><comment><text>12.26027581352867</text><id>DFX:rectilinearity</id></comment><comment><text>de.gempa.tb1.Pick/20250414085744.525571.136912</text><id>RefPickID</id></comment><comment><text>8.280980739666697</text><id>SNR</id></comment></pick><pick publicID="de.gempa.tb1.Pick/20250414085806.379207.136923"><time><value>2025-04-14T08:57:37.758394Z</value></time><waveformID networkCode="CX" stationCode="PB07" channelCode="HHZ"/><filterID>ITAPER(4)&gt;&gt;BW(4,4,20)</filterID><methodID>AIC</methodID><horizontalSlowness><value>22.206019819745652</value></horizontalSlowness><backazimuth><value>291.1047664237153</value></backazimuth><phaseHint>P</phaseHint><evaluationMode>automatic</evaluationMode><comment><text>194.66120699207445</text><id>DFX:rectilinearity</id></comment><comment><text>41.114447818613</text><id>SNR</id></comment></pick><pick publicID="de.gempa.tb1.Pick/20250414085806.577884.136925"><time><value>2025-04-14T08:57:56.928393Z</value></time><waveformID networkCode="CX" stationCode="PB01" channelCode="HHN"/><filterID>ITAPER(2)&gt;&gt;BW(3,3,20)</filterID><methodID>L2-AIC-GRID</methodID><horizontalSlowness><value>22.85354560458242</value></horizontalSlowness><backazimuth><value>1.3176309097576677</value></backazimuth><phaseHint>S</phaseHint><evaluationMode>automatic</evaluationMode><comment><text>13.178775726546725</text><id>DFX:rectilinearity</id></comment><comment><text>de.gempa.tb1.Pick/20250414085744.57457.136914</text><id>RefPickID</id></comment><comment><text>6.699157196878011</text><id>SNR</id></comment></pick><origin publicID="de.gempa.tb1.Origin/20250414085807.179633.133077"><time><value>2025-04-14T08:57:12.777974Z</value><uncertainty>1.402363419532776</uncertainty></time><latitude><value>-21.946025848388672</value><uncertainty>8.758517265319824</uncertainty></latitude><longitude><value>-68.57234954833984</value><uncertainty>19.491361618041992</uncertainty></longitude><depth><value>123.7406997680664</value><uncertainty>20.982492446899414</uncertainty></depth><depthType>from location</depthType><methodID>LOCSAT</methodID><earthModelID>iasp91_scanloc</earthModelID><quality><associatedPhaseCount>7</associatedPhaseCount><usedPhaseCount>7</usedPhaseCount><associatedStationCount>5</associatedStationCount><usedStationCount>5</usedStationCount><depthPhaseCount>0</depthPhaseCount><standardError>0.15876346906596825</standardError><azimuthalGap>308.1212158203125</azimuthalGap><maximumDistance>1.3802648782730103</maximumDistance><minimumDistance>0.6395333409309387</minimumDistance><medianDistance>1.238234519958496</medianDistance></quality><uncertainty><minHorizontalUncertainty>17.319242477416992</minHorizontalUncertainty><maxHorizontalUncertainty>42.42612075805664</maxHorizontalUncertainty><azimuthMaxHorizontalUncertainty>100.81637573242188</azimuthMaxHorizontalUncertainty><preferredDescription>horizontal uncertainty</preferredDescription></uncertainty><evaluationMode>automatic</evaluationMode><evaluationStatus>confirmed</evaluationStatus><comment><text>0.03</text><id>mismatchScore</id></comment><comment><text>mismatchScore</text><id>scevalMethod</id></comment><arrival><pickID>de.gempa.tb1.Pick/20250414085744.525571.136912</pickID><phase>P</phase><azimuth>264.46514892578125</azimuth><distance>1.100547194480896</distance><timeResidual>-0.005281448364257812</timeResidual><timeUsed>true</timeUsed><horizontalSlownessUsed>false</horizontalSlownessUsed><backazimuthUsed>false</backazimuthUsed><weight>1</weight></arrival><arrival><pickID>de.gempa.tb1.Pick/20250414085744.57457.136914</pickID><phase>P</phase><azimuth>316.34393310546875</azimuth><distance>1.238234519958496</distance><timeResidual>-0.33106040954589844</timeResidual><timeUsed>true</timeUsed><horizontalSlownessUsed>false</horizontalSlownessUsed><backazimuthUsed>false</backazimuthUsed><weight>1</weight></arrival><arrival><pickID>de.gempa.tb1.Pick/20250414085745.175425.136916</pickID><phase>P</phase><azimuth>283.34124755859375</azimuth><distance>0.6395333409309387</distance><timeResidual>0.10554122924804688</timeResidual><timeUsed>true</timeUsed><horizontalSlownessUsed>false</horizontalSlownessUsed><backazimuthUsed>false</backazimuthUsed><weight>1</weight></arrival><arrival><pickID>de.gempa.tb1.Pick/20250414085747.599635.136918</pickID><phase>P</phase><azimuth>296.5979919433594</azimuth><distance>1.3802648782730103</distance><timeResidual>0.10489845275878906</timeResidual><timeUsed>true</timeUsed><horizontalSlownessUsed>false</horizontalSlownessUsed><backazimuthUsed>false</backazimuthUsed><weight>1</weight></arrival><arrival><pickID>de.gempa.tb1.Pick/20250414085800.557539.136920</pickID><phase>S</phase><azimuth>264.46514892578125</azimuth><distance>1.100547194480896</distance><timeResidual>-0.11817550659179688</timeResidual><timeUsed>true</timeUsed><horizontalSlownessUsed>false</horizontalSlownessUsed><backazimuthUsed>false</backazimuthUsed><weight>1</weight></arrival><arrival><pickID>de.gempa.tb1.Pick/20250414085806.379207.136923</pickID><phase>P</phase><azimuth>279.89544677734375</azimuth><distance>1.240047574043274</distance><timeResidual>0.14368629455566406</timeResidual><timeUsed>true</timeUsed><horizontalSlownessUsed>false</horizontalSlownessUsed><backazimuthUsed>false</backazimuthUsed><weight>1</weight></arrival><arrival><pickID>de.gempa.tb1.Pick/20250414085806.577884.136925</pickID><phase>S</phase><azimuth>316.34393310546875</azimuth><distance>1.238234519958496</distance><timeResidual>0.10029029846191406</timeResidual><timeUsed>true</timeUsed><horizontalSlownessUsed>false</horizontalSlownessUsed><backazimuthUsed>false</backazimuthUsed><weight>1</weight></arrival></origin><event publicID="gempa2025hiye"><preferredOriginID>de.gempa.tb1.Origin/20250414085807.179633.133077</preferredOriginID><description><text>Chile-Bolivia Border Region</text><type>region name</type></description><originReference>de.gempa.tb1.Origin/20250414085807.179633.133077</originReference></event></EventParameters></seiscomp>