<?xml version="1.0" encoding="UTF-8"?>
<seiscomp xmlns="http://geofon.gfz-potsdam.de/ns/seiscomp3-schema/0.13" version="0.13"><EventParameters><pick publicID="de.gempa.tb1.Pick/20250411102306.565298.118286"><time><value>2025-04-11T10:23:01.618393Z</value></time><waveformID networkCode="CX" stationCode="PB15" channelCode="HHZ"/><filterID>ITAPER(4)&gt;&gt;BW(4,4,20)</filterID><methodID>AIC</methodID><horizontalSlowness><value>19.273380905878234</value></horizontalSlowness><backazimuth><value>181.84323533200973</value></backazimuth><phaseHint>P</phaseHint><evaluationMode>automatic</evaluationMode><comment><text>149.80233536857412</text><id>DFX:rectilinearity</id></comment><comment><text>24.48165611210373</text><id>SNR</id></comment></pick><pick publicID="de.gempa.tb1.Pick/20250411102309.520571.118288"><time><value>2025-04-11T10:23:04.21Z</value></time><waveformID networkCode="CX" stationCode="PB19" channelCode="HHZ"/><filterID>ITAPER(4)&gt;&gt;BW(4,4,20)</filterID><methodID>AIC</methodID><horizontalSlowness><value>22.026624637802897</value></horizontalSlowness><backazimuth><value>153.57329951448676</value></backazimuth><phaseHint>P</phaseHint><evaluationMode>automatic</evaluationMode><comment><text>15.556431265283035</text><id>DFX:rectilinearity</id></comment><comment><text>20.8010158215647</text><id>SNR</id></comment></pick><pick publicID="de.gempa.tb1.Pick/20250411102310.700186.118290"><time><value>2025-04-11T10:23:05.498393Z</value></time><waveformID networkCode="CX" stationCode="PB06" channelCode="HHZ"/><filterID>ITAPER(4)&gt;&gt;BW(4,4,20)</filterID><methodID>AIC</methodID><horizontalSlowness><value>19.510155810811408</value></horizontalSlowness><backazimuth><value>313.0728287653777</value></backazimuth><phaseHint>P</phaseHint><evaluationMode>automatic</evaluationMode><comment><text>104.30514198707613</text><id>DFX:rectilinearity</id></comment><comment><text>48.36449300475899</text><id>SNR</id></comment></pick><pick publicID="de.gempa.tb1.Pick/20250411102315.84981.118292"><time><value>2025-04-11T10:23:10.338393Z</value></time><waveformID networkCode="CX" stationCode="PB15" channelCode="HHN"/><filterID>ITAPER(2)&gt;&gt;BW(3,3,20)</filterID><methodID>L2-AIC-GRID</methodID><horizontalSlowness><value>20.391823903697077</value></horizontalSlowness><backazimuth><value>103.9177709553928</value></backazimuth><phaseHint>S</phaseHint><evaluationMode>automatic</evaluationMode><comment><text>22477.346490184096</text><id>DFX:rectilinearity</id></comment><comment><text>de.gempa.tb1.Pick/20250411102306.565298.118286</text><id>RefPickID</id></comment><comment><text>14.680235617713974</text><id>SNR</id></comment></pick><pick publicID="de.gempa.tb1.Pick/20250411102320.587506.118293"><time><value>2025-04-11T10:23:13.818393Z</value></time><waveformID networkCode="CX" stationCode="PB03" channelCode="HHZ"/><filterID>ITAPER(4)&gt;&gt;BW(4,4,20)</filterID><methodID>AIC</methodID><horizontalSlowness><value>8.699774493767613</value></horizontalSlowness><backazimuth><value>226.28958717596237</value></backazimuth><phaseHint>P</phaseHint><evaluationMode>automatic</evaluationMode><comment><text>35.77595412094548</text><id>DFX:rectilinearity</id></comment><comment><text>26.00451664225069</text><id>SNR</id></comment></pick><pick publicID="de.gempa.tb1.Pick/20250411102322.841224.118295"><time><value>2025-04-11T10:23:15.08Z</value></time><waveformID networkCode="CX" stationCode="PB19" channelCode="HHN"/><filterID>ITAPER(2)&gt;&gt;BW(3,3,20)</filterID><methodID>L2-AIC-GRID</methodID><horizontalSlowness><value>22.155034737637273</value></horizontalSlowness><backazimuth><value>218.08402177440573</value></backazimuth><phaseHint>S</phaseHint><evaluationMode>automatic</evaluationMode><comment><text>251.7182734472911</text><id>DFX:rectilinearity</id></comment><comment><text>de.gempa.tb1.Pick/20250411102309.520571.118288</text><id>RefPickID</id></comment><comment><text>12.36676379521218</text><id>SNR</id></comment></pick><pick publicID="de.gempa.tb1.Pick/20250411102324.667744.118296"><time><value>2025-04-11T10:23:17.248393Z</value></time><waveformID networkCode="CX" stationCode="PB06" channelCode="HHN"/><filterID>ITAPER(2)&gt;&gt;BW(3,3,20)</filterID><methodID>L2-AIC-GRID</methodID><horizontalSlowness><value>17.13345200938965</value></horizontalSlowness><backazimuth><value>330.5708749891878</value></backazimuth><phaseHint>S</phaseHint><evaluationMode>automatic</evaluationMode><comment><text>724.4677877488024</text><id>DFX:rectilinearity</id></comment><comment><text>de.gempa.tb1.Pick/20250411102310.700186.118290</text><id>RefPickID</id></comment><comment><text>14.589635792171237</text><id>SNR</id></comment></pick><pick publicID="de.gempa.tb1.Pick/20250411102332.179216.118301"><time><value>2025-04-11T10:23:19.97Z</value></time><waveformID networkCode="CX" stationCode="PB09" channelCode="HHZ"/><filterID>ITAPER(4)&gt;&gt;BW(4,4,20)</filterID><methodID>AIC</methodID><horizontalSlowness><value>9.586967573235613</value></horizontalSlowness><backazimuth><value>207.23512455046432</value></backazimuth><phaseHint>P</phaseHint><evaluationMode>automatic</evaluationMode><comment><text>12.132844907163753</text><id>DFX:rectilinearity</id></comment><comment><text>38.152120504525037</text><id>SNR</id></comment></pick><origin publicID="de.gempa.tb1.Origin/20250411102332.411964.58099"><time><value>2025-04-11T10:22:46.476374Z</value><uncertainty>0.8928630352020264</uncertainty></time><latitude><value>-23.50061798095703</value><uncertainty>3.3099844455718994</uncertainty></latitude><longitude><value>-70.16838836669922</value><uncertainty>4.624469757080078</uncertainty></longitude><depth><value>0</value></depth><depthType>operator assigned</depthType><methodID>LOCSAT</methodID><earthModelID>iasp91_scanloc</earthModelID><quality><associatedPhaseCount>8</associatedPhaseCount><usedPhaseCount>8</usedPhaseCount><associatedStationCount>5</associatedStationCount><usedStationCount>5</usedStationCount><depthPhaseCount>0</depthPhaseCount><standardError>0.9198025211681407</standardError><azimuthalGap>258.1908721923828</azimuthalGap><maximumDistance>1.899863362312317</maximumDistance><minimumDistance>0.703933596611023</minimumDistance><medianDistance>0.9630828499794006</medianDistance></quality><uncertainty><minHorizontalUncertainty>6.258761882781982</minHorizontalUncertainty><maxHorizontalUncertainty>10.470418930053711</maxHorizontalUncertainty><azimuthMaxHorizontalUncertainty>66.46356201171875</azimuthMaxHorizontalUncertainty><preferredDescription>horizontal uncertainty</preferredDescription></uncertainty><evaluationMode>automatic</evaluationMode><evaluationStatus>confirmed</evaluationStatus><comment><text>0.29</text><id>mismatchScore</id></comment><comment><text>mismatchScore</text><id>scevalMethod</id></comment><arrival><pickID>de.gempa.tb1.Pick/20250411102306.565298.118286</pickID><phase>P</phase><azimuth>65.72552490234375</azimuth><distance>0.703933596611023</distance><timeResidual>1.640315055847168</timeResidual><timeUsed>true</timeUsed><horizontalSlownessUsed>false</horizontalSlownessUsed><backazimuthUsed>false</backazimuthUsed><weight>1</weight></arrival><arrival><pickID>de.gempa.tb1.Pick/20250411102309.520571.118288</pickID><phase>P</phase><azimuth>116.74234771728516</azimuth><distance>0.8995449542999268</distance><timeResidual>0.480992317199707</timeResidual><timeUsed>true</timeUsed><horizontalSlownessUsed>false</horizontalSlownessUsed><backazimuthUsed>false</backazimuthUsed><weight>1</weight></arrival><arrival><pickID>de.gempa.tb1.Pick/20250411102310.700186.118290</pickID><phase>P</phase><azimuth>34.88705825805664</azimuth><distance>0.9630828499794006</distance><timeResidual>0.5492525100708008</timeResidual><timeUsed>true</timeUsed><horizontalSlownessUsed>false</horizontalSlownessUsed><backazimuthUsed>false</backazimuthUsed><weight>1</weight></arrival><arrival><pickID>de.gempa.tb1.Pick/20250411102315.84981.118292</pickID><phase>S</phase><azimuth>65.72552490234375</azimuth><distance>0.703933596611023</distance><timeResidual>0.5556020736694336</timeResidual><timeUsed>true</timeUsed><horizontalSlownessUsed>false</horizontalSlownessUsed><backazimuthUsed>false</backazimuthUsed><weight>1</weight></arrival><arrival><pickID>de.gempa.tb1.Pick/20250411102320.587506.118293</pickID><phase>P</phase><azimuth>14.93321990966797</azimuth><distance>1.4952751398086548</distance><timeResidual>-0.758204460144043</timeResidual><timeUsed>true</timeUsed><horizontalSlownessUsed>false</horizontalSlownessUsed><backazimuthUsed>false</backazimuthUsed><weight>1</weight></arrival><arrival><pickID>de.gempa.tb1.Pick/20250411102322.841224.118295</pickID><phase>S</phase><azimuth>116.74234771728516</azimuth><distance>0.8995449542999268</distance><timeResidual>-1.1772747039794922</timeResidual><timeUsed>true</timeUsed><horizontalSlownessUsed>false</horizontalSlownessUsed><backazimuthUsed>false</backazimuthUsed><weight>1</weight></arrival><arrival><pickID>de.gempa.tb1.Pick/20250411102324.667744.118296</pickID><phase>S</phase><azimuth>34.88705825805664</azimuth><distance>0.9630828499794006</distance><timeResidual>-1.1155338287353516</timeResidual><timeUsed>true</timeUsed><horizontalSlownessUsed>false</horizontalSlownessUsed><backazimuthUsed>false</backazimuthUsed><weight>1</weight></arrival><arrival><pickID>de.gempa.tb1.Pick/20250411102332.179216.118301</pickID><phase>P</phase><azimuth>26.95353126525879</azimuth><distance>1.899863362312317</distance><timeResidual>-0.1751251220703125</timeResidual><timeUsed>true</timeUsed><horizontalSlownessUsed>false</horizontalSlownessUsed><backazimuthUsed>false</backazimuthUsed><weight>1</weight></arrival><magnitude publicID="de.gempa.tb1.Magnitude/20250411102332.416922.117541"><magnitude><value>2.637390091421562</value></magnitude><type>M</type><methodID>weighted average</methodID><stationCount>5</stationCount></magnitude></origin><event publicID="gempa2025hdmy"><preferredOriginID>de.gempa.tb1.Origin/20250411102332.411964.58099</preferredOriginID><preferredMagnitudeID>de.gempa.tb1.Magnitude/20250411102332.416922.117541</preferredMagnitudeID><description><text>Near Coast of Northern Chile</text><type>region name</type></description><originReference>de.gempa.tb1.Origin/20250411102332.411964.58099</originReference></event></EventParameters></seiscomp>