<?xml version="1.0" encoding="UTF-8"?>
<seiscomp xmlns="http://geofon.gfz-potsdam.de/ns/seiscomp3-schema/0.13" version="0.13"><EventParameters><pick publicID="de.gempa.tb1.Pick/20250413052007.510901.129055"><time><value>2025-04-13T05:20:02.678393Z</value></time><waveformID networkCode="CX" stationCode="PB02" channelCode="HHZ"/><filterID>ITAPER(4)&gt;&gt;BW(4,4,20)</filterID><methodID>AIC</methodID><horizontalSlowness><value>7.57973189417164</value></horizontalSlowness><backazimuth><value>207.39645920126313</value></backazimuth><phaseHint>P</phaseHint><evaluationMode>automatic</evaluationMode><comment><text>81327.08523430942</text><id>DFX:rectilinearity</id></comment><comment><text>3789.9166178733526</text><id>SNR</id></comment></pick><pick publicID="de.gempa.tb1.Pick/20250413052008.557363.129059"><time><value>2025-04-13T05:20:00.348394Z</value></time><waveformID networkCode="CX" stationCode="PB07" channelCode="HHZ"/><filterID>ITAPER(4)&gt;&gt;BW(4,4,20)</filterID><methodID>AIC</methodID><horizontalSlowness><value>14.300073243827512</value></horizontalSlowness><backazimuth><value>292.32151590839896</value></backazimuth><phaseHint>P</phaseHint><evaluationMode>automatic</evaluationMode><comment><text>179959.7737379882</text><id>DFX:rectilinearity</id></comment><comment><text>1107.295850384924</text><id>SNR</id></comment></pick><pick publicID="de.gempa.tb1.Pick/20250413052013.449316.129061"><time><value>2025-04-13T05:20:08.229999Z</value></time><waveformID networkCode="CX" stationCode="PATCX" channelCode="HHZ"/><filterID>ITAPER(4)&gt;&gt;BW(4,4,20)</filterID><methodID>AIC</methodID><horizontalSlowness><value>19.250723632518085</value></horizontalSlowness><backazimuth><value>227.1232041625101</value></backazimuth><phaseHint>P</phaseHint><evaluationMode>automatic</evaluationMode><comment><text>490.5354451078545</text><id>DFX:rectilinearity</id></comment><comment><text>61.97740418729869</text><id>SNR</id></comment></pick><pick publicID="de.gempa.tb1.Pick/20250413052013.64199.129063"><time><value>2025-04-13T05:20:08.868393Z</value></time><waveformID networkCode="CX" stationCode="PB01" channelCode="HHZ"/><filterID>ITAPER(4)&gt;&gt;BW(4,4,20)</filterID><methodID>AIC</methodID><horizontalSlowness><value>17.733076491686337</value></horizontalSlowness><backazimuth><value>232.9807730160302</value></backazimuth><phaseHint>P</phaseHint><evaluationMode>automatic</evaluationMode><comment><text>827.8182003071487</text><id>DFX:rectilinearity</id></comment><comment><text>282.08838443229553</text><id>SNR</id></comment></pick><pick publicID="de.gempa.tb1.Pick/20250413052015.894987.129065"><time><value>2025-04-13T05:20:06.078394Z</value></time><waveformID networkCode="CX" stationCode="PB07" channelCode="HHN"/><filterID>ITAPER(2)&gt;&gt;BW(3,3,20)</filterID><methodID>L2-AIC-GRID</methodID><horizontalSlowness><value>22.719886780509903</value></horizontalSlowness><backazimuth><value>291.91752338081835</value></backazimuth><phaseHint>S</phaseHint><evaluationMode>automatic</evaluationMode><comment><text>3752395.3379995083</text><id>DFX:rectilinearity</id></comment><comment><text>de.gempa.tb1.Pick/20250413052008.557363.129059</text><id>RefPickID</id></comment><comment><text>11.72293132475204</text><id>SNR</id></comment></pick><pick publicID="de.gempa.tb1.Pick/20250413052017.613566.129066"><time><value>2025-04-13T05:20:10.148393Z</value></time><waveformID networkCode="CX" stationCode="PB02" channelCode="HHN"/><filterID>ITAPER(2)&gt;&gt;BW(3,3,20)</filterID><methodID>L2-AIC-GRID</methodID><horizontalSlowness><value>14.212241054301433</value></horizontalSlowness><backazimuth><value>0.7158602319728118</value></backazimuth><phaseHint>S</phaseHint><evaluationMode>automatic</evaluationMode><comment><text>920186.0740348806</text><id>DFX:rectilinearity</id></comment><comment><text>de.gempa.tb1.Pick/20250413052007.510901.129055</text><id>RefPickID</id></comment><comment><text>9.170799747368578</text><id>SNR</id></comment></pick><pick publicID="de.gempa.tb1.Pick/20250413052017.640243.129067"><time><value>2025-04-13T05:20:11.778393Z</value></time><waveformID networkCode="CX" stationCode="PB06" channelCode="HHZ"/><filterID>ITAPER(4)&gt;&gt;BW(4,4,20)</filterID><methodID>AIC</methodID><horizontalSlowness><value>7.757285549291398</value></horizontalSlowness><backazimuth><value>319.68359677456596</value></backazimuth><phaseHint>P</phaseHint><evaluationMode>automatic</evaluationMode><comment><text>316.6658164672424</text><id>DFX:rectilinearity</id></comment><comment><text>93.53595535097057</text><id>SNR</id></comment></pick><pick publicID="de.gempa.tb1.Pick/20250413052017.891.129069"><time><value>2025-04-13T05:20:08.44Z</value></time><waveformID networkCode="CX" stationCode="PB09" channelCode="HHZ"/><filterID>ITAPER(4)&gt;&gt;BW(4,4,20)</filterID><methodID>AIC</methodID><horizontalSlowness><value>13.124179904820368</value></horizontalSlowness><backazimuth><value>291.82044983037946</value></backazimuth><phaseHint>P</phaseHint><evaluationMode>automatic</evaluationMode><comment><text>1388.561442730238</text><id>DFX:rectilinearity</id></comment><comment><text>1167.408382522851</text><id>SNR</id></comment></pick><pick publicID="de.gempa.tb1.Pick/20250413052027.762527.129071"><time><value>2025-04-13T05:20:20.888393Z</value></time><waveformID networkCode="CX" stationCode="PB01" channelCode="HHN"/><filterID>ITAPER(2)&gt;&gt;BW(3,3,20)</filterID><methodID>L2-AIC-GRID</methodID><horizontalSlowness><value>17.19081285681791</value></horizontalSlowness><backazimuth><value>109.13351873723032</value></backazimuth><phaseHint>S</phaseHint><evaluationMode>automatic</evaluationMode><comment><text>25264.70640419518</text><id>DFX:rectilinearity</id></comment><comment><text>de.gempa.tb1.Pick/20250413052013.64199.129063</text><id>RefPickID</id></comment><comment><text>5.133620439057386</text><id>SNR</id></comment></pick><pick publicID="de.gempa.tb1.Pick/20250413052029.409917.129074"><time><value>2025-04-13T05:20:21.029999Z</value></time><waveformID networkCode="CX" stationCode="PATCX" channelCode="HHN"/><filterID>ITAPER(2)&gt;&gt;BW(3,3,20)</filterID><methodID>L2-AIC-GRID</methodID><horizontalSlowness><value>22.05729827616133</value></horizontalSlowness><backazimuth><value>179.13278007974756</value></backazimuth><phaseHint>S</phaseHint><evaluationMode>automatic</evaluationMode><comment><text>30337.0127863087</text><id>DFX:rectilinearity</id></comment><comment><text>de.gempa.tb1.Pick/20250413052013.449316.129061</text><id>RefPickID</id></comment><comment><text>7.493200332599184</text><id>SNR</id></comment></pick><pick publicID="de.gempa.tb1.Pick/20250413052030.585962.129075"><time><value>2025-04-13T05:20:25.32Z</value></time><waveformID networkCode="CX" stationCode="PSGCX" channelCode="HHZ"/><filterID>ITAPER(4)&gt;&gt;BW(4,4,20)</filterID><methodID>AIC</methodID><horizontalSlowness><value>6.627371198402312</value></horizontalSlowness><backazimuth><value>237.89796038369545</value></backazimuth><phaseHint>P</phaseHint><evaluationMode>automatic</evaluationMode><comment><text>94.24068504203842</text><id>DFX:rectilinearity</id></comment><comment><text>94.00080588373555</text><id>SNR</id></comment></pick><pick publicID="de.gempa.tb1.Pick/20250413052032.641052.129077"><time><value>2025-04-13T05:20:26.398393Z</value></time><waveformID networkCode="CX" stationCode="PB06" channelCode="HHN"/><filterID>ITAPER(2)&gt;&gt;BW(3,3,20)</filterID><methodID>L2-AIC-GRID</methodID><horizontalSlowness><value>23.43235578683131</value></horizontalSlowness><backazimuth><value>285.0915164043318</value></backazimuth><phaseHint>S</phaseHint><evaluationMode>automatic</evaluationMode><comment><text>11798.98367172063</text><id>DFX:rectilinearity</id></comment><comment><text>de.gempa.tb1.Pick/20250413052017.640243.129067</text><id>RefPickID</id></comment><comment><text>10.520541861257527</text><id>SNR</id></comment></pick><pick publicID="de.gempa.tb1.Pick/20250413052036.52056.129079"><time><value>2025-04-13T05:20:30.110001Z</value></time><waveformID networkCode="CX" stationCode="PB19" channelCode="HHZ"/><filterID>ITAPER(4)&gt;&gt;BW(4,4,20)</filterID><methodID>AIC</methodID><horizontalSlowness><value>12.241966394683713</value></horizontalSlowness><backazimuth><value>345.78372804931445</value></backazimuth><phaseHint>P</phaseHint><evaluationMode>automatic</evaluationMode><comment><text>34.89310843975465</text><id>DFX:rectilinearity</id></comment><comment><text>14.237980939629704</text><id>SNR</id></comment></pick><origin publicID="de.gempa.tb1.Origin/20250413052038.676928.101522"><time><value>2025-04-13T05:19:52.978932Z</value><uncertainty>0.5242196917533875</uncertainty></time><latitude><value>-21.69545555114746</value><uncertainty>2.294799327850342</uncertainty></latitude><longitude><value>-70.12306213378906</value><uncertainty>5.96018648147583</uncertainty></longitude><depth><value>39.91808319091797</value><uncertainty>4.088493347167969</uncertainty></depth><depthType>from location</depthType><methodID>LOCSAT</methodID><earthModelID>iasp91_scanloc</earthModelID><quality><associatedPhaseCount>13</associatedPhaseCount><usedPhaseCount>13</usedPhaseCount><associatedStationCount>8</associatedStationCount><usedStationCount>8</usedStationCount><depthPhaseCount>0</depthPhaseCount><standardError>0.4780981118037864</standardError><azimuthalGap>197.26097106933594</azimuthalGap><maximumDistance>2.3292219638824463</maximumDistance><minimumDistance>0.22246110439300537</minimumDistance><medianDistance>0.8708615303039551</medianDistance></quality><uncertainty><minHorizontalUncertainty>4.777384281158447</minHorizontalUncertainty><maxHorizontalUncertainty>12.8336181640625</maxHorizontalUncertainty><azimuthMaxHorizontalUncertainty>84.32637023925781</azimuthMaxHorizontalUncertainty><preferredDescription>horizontal uncertainty</preferredDescription></uncertainty><evaluationMode>automatic</evaluationMode><evaluationStatus>confirmed</evaluationStatus><comment><text>0.24</text><id>mismatchScore</id></comment><comment><text>mismatchScore</text><id>scevalMethod</id></comment><arrival><pickID>de.gempa.tb1.Pick/20250413052007.510901.129055</pickID><phase>P</phase><azimuth>29.52813720703125</azimuth><distance>0.42951488494873047</distance><timeResidual>-0.11998224258422852</timeResidual><timeUsed>true</timeUsed><horizontalSlownessUsed>false</horizontalSlownessUsed><backazimuthUsed>false</backazimuthUsed><weight>1</weight></arrival><arrival><pickID>de.gempa.tb1.Pick/20250413052008.557363.129059</pickID><phase>P</phase><azimuth>98.0698013305664</azimuth><distance>0.22246110439300537</distance><timeResidual>-0.10675859451293945</timeResidual><timeUsed>true</timeUsed><horizontalSlownessUsed>false</horizontalSlownessUsed><backazimuthUsed>false</backazimuthUsed><weight>1</weight></arrival><arrival><pickID>de.gempa.tb1.Pick/20250413052013.449316.129061</pickID><phase>P</phase><azimuth>358.1645202636719</azimuth><distance>0.8708615303039551</distance><timeResidual>-0.5320611000061035</timeResidual><timeUsed>true</timeUsed><horizontalSlownessUsed>false</horizontalSlownessUsed><backazimuthUsed>false</backazimuthUsed><weight>1</weight></arrival><arrival><pickID>de.gempa.tb1.Pick/20250413052013.64199.129063</pickID><phase>P</phase><azimuth>42.50897979736328</azimuth><distance>0.8787779808044434</distance><timeResidual>-0.0009789466857910156</timeResidual><timeUsed>true</timeUsed><horizontalSlownessUsed>false</horizontalSlownessUsed><backazimuthUsed>false</backazimuthUsed><weight>1</weight></arrival><arrival><pickID>de.gempa.tb1.Pick/20250413052015.894987.129065</pickID><phase>S</phase><azimuth>98.0698013305664</azimuth><distance>0.22246110439300537</distance><timeResidual>0.11712932586669922</timeResidual><timeUsed>true</timeUsed><horizontalSlownessUsed>false</horizontalSlownessUsed><backazimuthUsed>false</backazimuthUsed><weight>1</weight></arrival><arrival><pickID>de.gempa.tb1.Pick/20250413052017.613566.129066</pickID><phase>S</phase><azimuth>29.52813720703125</azimuth><distance>0.42951488494873047</distance><timeResidual>0.07987546920776367</timeResidual><timeUsed>true</timeUsed><horizontalSlownessUsed>false</horizontalSlownessUsed><backazimuthUsed>false</backazimuthUsed><weight>1</weight></arrival><arrival><pickID>de.gempa.tb1.Pick/20250413052017.640243.129067</pickID><phase>P</phase><azimuth>153.171630859375</azimuth><distance>1.127802848815918</distance><timeResidual>-0.4994692802429199</timeResidual><timeUsed>true</timeUsed><horizontalSlownessUsed>false</horizontalSlownessUsed><backazimuthUsed>false</backazimuthUsed><weight>1</weight></arrival><arrival><pickID>de.gempa.tb1.Pick/20250413052017.891.129069</pickID><phase>P</phase><azimuth>97.15170288085938</azimuth><distance>0.8253188729286194</distance><timeResidual>0.30513429641723633</timeResidual><timeUsed>true</timeUsed><horizontalSlownessUsed>false</horizontalSlownessUsed><backazimuthUsed>false</backazimuthUsed><weight>1</weight></arrival><arrival><pickID>de.gempa.tb1.Pick/20250413052027.762527.129071</pickID><phase>S</phase><azimuth>42.50897979736328</azimuth><distance>0.8787779808044434</distance><timeResidual>-0.040535449981689453</timeResidual><timeUsed>true</timeUsed><horizontalSlownessUsed>false</horizontalSlownessUsed><backazimuthUsed>false</backazimuthUsed><weight>1</weight></arrival><arrival><pickID>de.gempa.tb1.Pick/20250413052029.409917.129074</pickID><phase>S</phase><azimuth>358.1645202636719</azimuth><distance>0.8708615303039551</distance><timeResidual>0.2945704460144043</timeResidual><timeUsed>true</timeUsed><horizontalSlownessUsed>false</horizontalSlownessUsed><backazimuthUsed>false</backazimuthUsed><weight>1</weight></arrival><arrival><pickID>de.gempa.tb1.Pick/20250413052030.585962.129075</pickID><phase>P</phase><azimuth>0.00039489445043727756</azimuth><distance>2.0877046585083008</distance><timeResidual>-0.1620640754699707</timeResidual><timeUsed>true</timeUsed><horizontalSlownessUsed>false</horizontalSlownessUsed><backazimuthUsed>false</backazimuthUsed><weight>1</weight></arrival><arrival><pickID>de.gempa.tb1.Pick/20250413052032.641052.129077</pickID><phase>S</phase><azimuth>153.171630859375</azimuth><distance>1.127802848815918</distance><timeResidual>-0.6582894325256348</timeResidual><timeUsed>true</timeUsed><horizontalSlownessUsed>false</horizontalSlownessUsed><backazimuthUsed>false</backazimuthUsed><weight>1</weight></arrival><arrival><pickID>de.gempa.tb1.Pick/20250413052036.52056.129079</pickID><phase>P</phase><azimuth>160.90354919433594</azimuth><distance>2.3292219638824463</distance><timeResidual>1.3236041069030762</timeResidual><timeUsed>true</timeUsed><horizontalSlownessUsed>false</horizontalSlownessUsed><backazimuthUsed>false</backazimuthUsed><weight>1</weight></arrival><magnitude publicID="de.gempa.tb1.Magnitude/20250413052040.938088.318711"><magnitude><value>2.8961150892725733</value></magnitude><type>M</type><methodID>weighted average</methodID><stationCount>6</stationCount></magnitude></origin><event publicID="gempa2025hgux"><preferredOriginID>de.gempa.tb1.Origin/20250413052038.676928.101522</preferredOriginID><preferredMagnitudeID>de.gempa.tb1.Magnitude/20250413052040.938088.318711</preferredMagnitudeID><description><text>Near Coast of Northern Chile</text><type>region name</type></description><originReference>de.gempa.tb1.Origin/20250413052038.676928.101522</originReference></event></EventParameters></seiscomp>