<?xml version="1.0" encoding="UTF-8"?>
<seiscomp xmlns="http://geofon.gfz-potsdam.de/ns/seiscomp3-schema/0.13" version="0.13"><EventParameters><pick publicID="de.gempa.tb1.Pick/20250414063709.320746.243586"><time><value>2025-04-14T06:37:04.13Z</value></time><waveformID networkCode="TH" stationCode="CRUX" channelCode="HHZ"/><filterID>ITAPER(2)&gt;&gt;BW(3,3,20)</filterID><methodID>AIC</methodID><horizontalSlowness><value>11.049951855399511</value></horizontalSlowness><backazimuth><value>81.93457946573162</value></backazimuth><phaseHint>P</phaseHint><evaluationMode>automatic</evaluationMode><comment><text>8801.902512882956</text><id>DFX:rectilinearity</id></comment></pick><pick publicID="de.gempa.tb1.Pick/20250414063709.482084.243588"><time><value>2025-04-14T06:37:08.055Z</value></time><waveformID networkCode="TH" stationCode="WARTH" channelCode="HHZ"/><filterID>ITAPER(2)&gt;&gt;BW(3,3,20)</filterID><methodID>AIC</methodID><horizontalSlowness><value>14.757526265277631</value></horizontalSlowness><backazimuth><value>150.58150619806082</value></backazimuth><phaseHint>P</phaseHint><evaluationMode>automatic</evaluationMode><comment><text>15.10954555561985</text><id>DFX:rectilinearity</id></comment></pick><pick publicID="de.gempa.tb1.Pick/20250414063710.445862.243591"><time><value>2025-04-14T06:37:08.24Z</value></time><waveformID networkCode="TH" stationCode="MORAS" channelCode="HHZ"/><filterID>ITAPER(2)&gt;&gt;BW(3,3,20)</filterID><methodID>AIC</methodID><horizontalSlowness><value>4.851946832399647</value></horizontalSlowness><backazimuth><value>229.90439148080577</value></backazimuth><phaseHint>P</phaseHint><evaluationMode>automatic</evaluationMode><comment><text>2.410436924016295</text><id>DFX:rectilinearity</id></comment></pick><pick publicID="de.gempa.tb1.Pick/20250414063714.330531.243593"><time><value>2025-04-14T06:37:08.019999Z</value></time><waveformID networkCode="TH" stationCode="LEIB1" channelCode="HHZ"/><filterID>ITAPER(2)&gt;&gt;BW(3,3,20)</filterID><methodID>AIC</methodID><horizontalSlowness><value>18.44416068818071</value></horizontalSlowness><backazimuth><value>254.1992782052376</value></backazimuth><phaseHint>P</phaseHint><evaluationMode>automatic</evaluationMode><comment><text>4.3323879711188047</text><id>DFX:rectilinearity</id></comment></pick><pick publicID="de.gempa.tb1.Pick/20250414063714.833152.243595"><time><value>2025-04-14T06:37:06.61Z</value></time><waveformID networkCode="TH" stationCode="CRUX" channelCode="HHN"/><filterID>ITAPER(3)&gt;&gt;BW(4,3,10)</filterID><methodID>L2-AIC-GRID</methodID><horizontalSlowness><value>10.963857566880096</value></horizontalSlowness><backazimuth><value>81.6995462052088</value></backazimuth><phaseHint>S</phaseHint><evaluationMode>automatic</evaluationMode><comment><text>8741.971026374911</text><id>DFX:rectilinearity</id></comment><comment><text>de.gempa.tb1.Pick/20250414063709.320746.243586</text><id>RefPickID</id></comment></pick><pick publicID="de.gempa.tb1.Pick/20250414063715.474583.243596"><time><value>2025-04-14T06:37:13.185Z</value></time><waveformID networkCode="TH" stationCode="WARTH" channelCode="HHN"/><filterID>ITAPER(3)&gt;&gt;BW(4,3,10)</filterID><methodID>L2-AIC-GRID</methodID><horizontalSlowness><value>13.666399735606975</value></horizontalSlowness><backazimuth><value>59.75927487415321</value></backazimuth><phaseHint>S</phaseHint><evaluationMode>automatic</evaluationMode><comment><text>227.8579429090182</text><id>DFX:rectilinearity</id></comment><comment><text>de.gempa.tb1.Pick/20250414063709.482084.243588</text><id>RefPickID</id></comment></pick><pick publicID="de.gempa.tb1.Pick/20250414063716.235814.243597"><time><value>2025-04-14T06:37:13.445Z</value></time><waveformID networkCode="TH" stationCode="MORAS" channelCode="HHN"/><filterID>ITAPER(3)&gt;&gt;BW(4,3,10)</filterID><methodID>L2-AIC-GRID</methodID><horizontalSlowness><value>11.522539551914766</value></horizontalSlowness><backazimuth><value>93.06840361768283</value></backazimuth><phaseHint>S</phaseHint><evaluationMode>automatic</evaluationMode><comment><text>31.524149230244674</text><id>DFX:rectilinearity</id></comment><comment><text>de.gempa.tb1.Pick/20250414063710.445862.243591</text><id>RefPickID</id></comment></pick><pick publicID="de.gempa.tb1.Pick/20250414063717.259375.243598"><time><value>2025-04-14T06:37:15.7Z</value></time><waveformID networkCode="TH" stationCode="MEHR" channelCode="HHZ"/><filterID>ITAPER(2)&gt;&gt;BW(3,3,20)</filterID><methodID>AIC</methodID><horizontalSlowness><value>22.498639762856246</value></horizontalSlowness><backazimuth><value>28.480363090447895</value></backazimuth><phaseHint>P</phaseHint><evaluationMode>automatic</evaluationMode><comment><text>51.94662481130354</text><id>DFX:rectilinearity</id></comment></pick><pick publicID="de.gempa.tb1.Pick/20250414063719.093033.243602"><time><value>2025-04-14T06:37:17.045Z</value></time><waveformID networkCode="TH" stationCode="GLEI" channelCode="HHZ"/><filterID>ITAPER(2)&gt;&gt;BW(3,3,20)</filterID><methodID>AIC</methodID><horizontalSlowness><value>22.96165502694396</value></horizontalSlowness><backazimuth><value>322.69356862595646</value></backazimuth><phaseHint>P</phaseHint><evaluationMode>automatic</evaluationMode><comment><text>397.14415450661937</text><id>DFX:rectilinearity</id></comment></pick><pick publicID="de.gempa.tb1.Pick/20250414063720.012517.243604"><time><value>2025-04-14T06:37:18.02Z</value></time><waveformID networkCode="TH" stationCode="MUEN" channelCode="HHZ"/><filterID>ITAPER(2)&gt;&gt;BW(3,3,20)</filterID><methodID>AIC</methodID><horizontalSlowness><value>23.40395327865535</value></horizontalSlowness><backazimuth><value>40.942775382886566</value></backazimuth><phaseHint>P</phaseHint><evaluationMode>automatic</evaluationMode><comment><text>114.38245307896254</text><id>DFX:rectilinearity</id></comment></pick><pick publicID="de.gempa.tb1.Pick/20250414063720.134327.243606"><time><value>2025-04-14T06:37:17.695Z</value></time><waveformID networkCode="TH" stationCode="ZEU" channelCode="HHZ"/><filterID>ITAPER(2)&gt;&gt;BW(3,3,20)</filterID><methodID>AIC</methodID><horizontalSlowness><value>9.945103938814764</value></horizontalSlowness><backazimuth><value>284.48845443919595</value></backazimuth><phaseHint>P</phaseHint><evaluationMode>automatic</evaluationMode><comment><text>13.209964508333169</text><id>DFX:rectilinearity</id></comment></pick><pick publicID="de.gempa.tb1.Pick/20250414063720.596945.243608"><time><value>2025-04-14T06:37:19.345Z</value></time><waveformID networkCode="TH" stationCode="MLFH" channelCode="HHZ"/><filterID>ITAPER(2)&gt;&gt;BW(3,3,20)</filterID><methodID>AIC</methodID><horizontalSlowness><value>15.134027311282884</value><uncertainty>5.2364597035835</uncertainty></horizontalSlowness><backazimuth><value>119.03259811469863</value><uncertainty>19.924914405936196</uncertainty></backazimuth><phaseHint>P</phaseHint><evaluationMode>automatic</evaluationMode><comment><text>0.7364583720686413</text><id>DFX:rectilinearity</id></comment></pick><pick publicID="de.gempa.tb1.Pick/20250414063720.837902.243610"><time><value>2025-04-14T06:37:07.799999Z</value></time><waveformID networkCode="TH" stationCode="SPAHL" channelCode="HHZ"/><filterID>ITAPER(2)&gt;&gt;BW(3,3,20)</filterID><methodID>AIC</methodID><horizontalSlowness><value>22.53446727484373</value></horizontalSlowness><backazimuth><value>292.736812612143</value></backazimuth><phaseHint>P</phaseHint><evaluationMode>automatic</evaluationMode><comment><text>23.178080953325093</text><id>DFX:rectilinearity</id></comment></pick><pick publicID="de.gempa.tb1.Pick/20250414063720.851518.243612"><time><value>2025-04-14T06:37:15.789999Z</value></time><waveformID networkCode="TH" stationCode="SPAHL" channelCode="HHN"/><filterID>ITAPER(3)&gt;&gt;BW(4,3,10)</filterID><methodID>L2-AIC-GRID</methodID><horizontalSlowness><value>23.244116198752153</value></horizontalSlowness><backazimuth><value>160.03235260015782</value></backazimuth><phaseHint>S</phaseHint><evaluationMode>automatic</evaluationMode><comment><text>1521.0749876864427</text><id>DFX:rectilinearity</id></comment><comment><text>de.gempa.tb1.Pick/20250414063720.837902.243610</text><id>RefPickID</id></comment></pick><pick publicID="de.gempa.tb1.Pick/20250414063721.344996.243613"><time><value>2025-04-14T06:37:13.119999Z</value></time><waveformID networkCode="TH" stationCode="LEIB1" channelCode="HHN"/><filterID>ITAPER(3)&gt;&gt;BW(4,3,10)</filterID><methodID>L2-AIC-GRID</methodID><horizontalSlowness><value>5.189096315839537</value></horizontalSlowness><backazimuth><value>341.025884558387</value></backazimuth><phaseHint>S</phaseHint><evaluationMode>automatic</evaluationMode><comment><text>172.25551126656742</text><id>DFX:rectilinearity</id></comment><comment><text>de.gempa.tb1.Pick/20250414063714.330531.243593</text><id>RefPickID</id></comment></pick><pick publicID="de.gempa.tb1.Pick/20250414063722.630368.243614"><time><value>2025-04-14T06:37:21.235Z</value></time><waveformID networkCode="TH" stationCode="HKWD" channelCode="HHZ"/><filterID>ITAPER(2)&gt;&gt;BW(3,3,20)</filterID><methodID>AIC</methodID><horizontalSlowness><value>22.84776954567266</value></horizontalSlowness><backazimuth><value>72.85595874390279</value></backazimuth><phaseHint>P</phaseHint><evaluationMode>automatic</evaluationMode><comment><text>69.67582605136455</text><id>DFX:rectilinearity</id></comment></pick><pick publicID="de.gempa.tb1.Pick/20250414063723.343459.243616"><time><value>2025-04-14T06:37:16.599999Z</value></time><waveformID networkCode="TH" stationCode="POSS" channelCode="HHZ"/><filterID>ITAPER(2)&gt;&gt;BW(3,3,20)</filterID><methodID>AIC</methodID><horizontalSlowness><value>22.09957537991739</value></horizontalSlowness><backazimuth><value>70.14722849693861</value></backazimuth><phaseHint>P</phaseHint><evaluationMode>automatic</evaluationMode><comment><text>150.37579614082514</text><id>DFX:rectilinearity</id></comment></pick><pick publicID="de.gempa.tb1.Pick/20250414063724.460712.243619"><time><value>2025-04-14T06:37:21.44Z</value></time><waveformID networkCode="TH" stationCode="FRAU" channelCode="HHZ"/><filterID>ITAPER(2)&gt;&gt;BW(3,3,20)</filterID><methodID>AIC</methodID><horizontalSlowness><value>20.195993424239493</value></horizontalSlowness><backazimuth><value>351.15837994647535</value></backazimuth><phaseHint>P</phaseHint><evaluationMode>automatic</evaluationMode><comment><text>24.583981532044387</text><id>DFX:rectilinearity</id></comment></pick><pick publicID="de.gempa.tb1.Pick/20250414063724.639744.243621"><time><value>2025-04-14T06:37:20.025Z</value></time><waveformID networkCode="TH" stationCode="GEIDO" channelCode="HHZ"/><filterID>ITAPER(2)&gt;&gt;BW(3,3,20)</filterID><methodID>AIC</methodID><horizontalSlowness><value>2.7309657799015405</value></horizontalSlowness><backazimuth><value>254.07253496452196</value></backazimuth><phaseHint>P</phaseHint><evaluationMode>automatic</evaluationMode><comment><text>44.768555517168565</text><id>DFX:rectilinearity</id></comment></pick><pick publicID="de.gempa.tb1.Pick/20250414063725.91036.243623"><time><value>2025-04-14T06:37:19.19Z</value></time><waveformID networkCode="SX" stationCode="TRIB" channelCode="HHZ"/><filterID>ITAPER(2)&gt;&gt;BW(3,3,20)</filterID><methodID>AIC</methodID><horizontalSlowness><value>13.867195091194358</value></horizontalSlowness><backazimuth><value>162.85962237074244</value></backazimuth><phaseHint>P</phaseHint><evaluationMode>automatic</evaluationMode><comment><text>4.535199057841486</text><id>DFX:rectilinearity</id></comment></pick><pick publicID="de.gempa.tb1.Pick/20250414063726.598242.243625"><time><value>2025-04-14T06:37:20.789999Z</value></time><waveformID networkCode="SX" stationCode="WERD" channelCode="HHZ"/><filterID>ITAPER(2)&gt;&gt;BW(3,3,20)</filterID><methodID>AIC</methodID><horizontalSlowness><value>11.817987625279988</value></horizontalSlowness><backazimuth><value>245.23550026298824</value></backazimuth><phaseHint>P</phaseHint><evaluationMode>automatic</evaluationMode><comment><text>23.599547605367274</text><id>DFX:rectilinearity</id></comment></pick><pick publicID="de.gempa.tb1.Pick/20250414063729.15705.243633"><time><value>2025-04-14T06:37:20.109999Z</value></time><waveformID networkCode="TH" stationCode="GRZ1" channelCode="HHZ"/><filterID>ITAPER(2)&gt;&gt;BW(3,3,20)</filterID><methodID>AIC</methodID><horizontalSlowness><value>22.722757647159813</value></horizontalSlowness><backazimuth><value>293.6302783556166</value></backazimuth><phaseHint>P</phaseHint><evaluationMode>automatic</evaluationMode><comment><text>18.023991616175724</text><id>DFX:rectilinearity</id></comment></pick><pick publicID="de.gempa.tb1.Pick/20250414063729.353831.243637"><time><value>2025-04-14T06:37:19.214999Z</value></time><waveformID networkCode="TH" stationCode="PLN" channelCode="HHZ"/><filterID>ITAPER(2)&gt;&gt;BW(3,3,20)</filterID><methodID>AIC</methodID><horizontalSlowness><value>11.753222931269967</value></horizontalSlowness><backazimuth><value>347.2094931235563</value></backazimuth><phaseHint>P</phaseHint><evaluationMode>automatic</evaluationMode><comment><text>8.6464820875893</text><id>DFX:rectilinearity</id></comment></pick><pick publicID="de.gempa.tb1.Pick/20250414063729.633584.243641"><time><value>2025-04-14T06:37:25.865Z</value></time><waveformID networkCode="TH" stationCode="MEHR" channelCode="HHN"/><filterID>ITAPER(3)&gt;&gt;BW(4,3,10)</filterID><methodID>L2-AIC-GRID</methodID><horizontalSlowness><value>23.448698698229123</value></horizontalSlowness><backazimuth><value>143.90459102740846</value></backazimuth><phaseHint>S</phaseHint><evaluationMode>automatic</evaluationMode><comment><text>1134.560610438761</text><id>DFX:rectilinearity</id></comment><comment><text>de.gempa.tb1.Pick/20250414063717.259375.243598</text><id>RefPickID</id></comment></pick><origin publicID="de.gempa.tb1.Origin/20250414063734.191597.217330"><time><value>2025-04-14T06:36:59.922243Z</value><uncertainty>0.41306665539741516</uncertainty></time><latitude><value>50.47545623779297</value><uncertainty>3.2795515060424805</uncertainty></latitude><longitude><value>10.577939987182617</value><uncertainty>1.7949389219284058</uncertainty></longitude><depth><value>2.169955015182495</value><uncertainty>1.820155143737793</uncertainty></depth><depthType>from location</depthType><methodID>LOCSAT</methodID><earthModelID>iasp91</earthModelID><quality><associatedPhaseCount>24</associatedPhaseCount><usedPhaseCount>24</usedPhaseCount><associatedStationCount>18</associatedStationCount><usedStationCount>18</usedStationCount><depthPhaseCount>0</depthPhaseCount><standardError>0.3784449635943924</standardError><azimuthalGap>196.39617919921875</azimuthalGap><maximumDistance>1.1328355073928833</maximumDistance><minimumDistance>0.18634206056594849</minimumDistance><medianDistance>0.8511665463447571</medianDistance></quality><uncertainty><minHorizontalUncertainty>3.1269233226776123</minHorizontalUncertainty><maxHorizontalUncertainty>7.376518726348877</maxHorizontalUncertainty><azimuthMaxHorizontalUncertainty>19.59145736694336</azimuthMaxHorizontalUncertainty><preferredDescription>horizontal uncertainty</preferredDescription></uncertainty><evaluationMode>automatic</evaluationMode><evaluationStatus>confirmed</evaluationStatus><comment><text>0.01</text><id>mismatchScore</id></comment><comment><text>mismatchScore</text><id>scevalMethod</id></comment><arrival><pickID>de.gempa.tb1.Pick/20250414063709.320746.243586</pickID><phase>P</phase><azimuth>47.09772109985352</azimuth><distance>0.18634206056594849</distance><timeResidual>0.2657654285430908</timeResidual><timeUsed>true</timeUsed><horizontalSlownessUsed>false</horizontalSlownessUsed><backazimuthUsed>false</backazimuthUsed><weight>1</weight></arrival><arrival><pickID>de.gempa.tb1.Pick/20250414063709.482084.243588</pickID><phase>P</phase><azimuth>336.0211181640625</azimuth><distance>0.40546664595603943</distance><timeResidual>0.0926365852355957</timeResidual><timeUsed>true</timeUsed><horizontalSlownessUsed>false</horizontalSlownessUsed><backazimuthUsed>false</backazimuthUsed><weight>1</weight></arrival><arrival><pickID>de.gempa.tb1.Pick/20250414063710.445862.243591</pickID><phase>P</phase><azimuth>81.38984680175781</azimuth><distance>0.41741943359375</distance><timeResidual>0.05347824096679688</timeResidual><timeUsed>true</timeUsed><horizontalSlownessUsed>false</horizontalSlownessUsed><backazimuthUsed>false</backazimuthUsed><weight>1</weight></arrival><arrival><pickID>de.gempa.tb1.Pick/20250414063714.330531.243593</pickID><phase>P</phase><azimuth>75.47614288330078</azimuth><distance>0.4082629084587097</distance><timeResidual>0.004821300506591797</timeResidual><timeUsed>true</timeUsed><horizontalSlownessUsed>false</horizontalSlownessUsed><backazimuthUsed>false</backazimuthUsed><weight>1</weight></arrival><arrival><pickID>de.gempa.tb1.Pick/20250414063714.833152.243595</pickID><phase>S</phase><azimuth>47.09772109985352</azimuth><distance>0.18634206056594849</distance><timeResidual>0.4060068130493164</timeResidual><timeUsed>true</timeUsed><horizontalSlownessUsed>false</horizontalSlownessUsed><backazimuthUsed>false</backazimuthUsed><weight>1</weight></arrival><arrival><pickID>de.gempa.tb1.Pick/20250414063715.474583.243596</pickID><phase>S</phase><azimuth>336.0211181640625</azimuth><distance>0.40546664595603943</distance><timeResidual>-0.1235489845275879</timeResidual><timeUsed>true</timeUsed><horizontalSlownessUsed>false</horizontalSlownessUsed><backazimuthUsed>false</backazimuthUsed><weight>1</weight></arrival><arrival><pickID>de.gempa.tb1.Pick/20250414063716.235814.243597</pickID><phase>S</phase><azimuth>81.38984680175781</azimuth><distance>0.41741943359375</distance><timeResidual>-0.25228261947631836</timeResidual><timeUsed>true</timeUsed><horizontalSlownessUsed>false</horizontalSlownessUsed><backazimuthUsed>false</backazimuthUsed><weight>1</weight></arrival><arrival><pickID>de.gempa.tb1.Pick/20250414063717.259375.243598</pickID><phase>P</phase><azimuth>3.590365409851074</azimuth><distance>0.8105498552322388</distance><timeResidual>0.1616349220275879</timeResidual><timeUsed>true</timeUsed><horizontalSlownessUsed>false</horizontalSlownessUsed><backazimuthUsed>false</backazimuthUsed><weight>1</weight></arrival><arrival><pickID>de.gempa.tb1.Pick/20250414063719.093033.243602</pickID><phase>P</phase><azimuth>344.0845947265625</azimuth><distance>0.8511665463447571</distance><timeResidual>0.7469429969787598</timeResidual><timeUsed>true</timeUsed><horizontalSlownessUsed>false</horizontalSlownessUsed><backazimuthUsed>false</backazimuthUsed><weight>1</weight></arrival><arrival><pickID>de.gempa.tb1.Pick/20250414063720.012517.243604</pickID><phase>P</phase><azimuth>3.3757903575897217</azimuth><distance>0.9496968984603882</distance><timeResidual>-0.12076139450073242</timeResidual><timeUsed>true</timeUsed><horizontalSlownessUsed>false</horizontalSlownessUsed><backazimuthUsed>false</backazimuthUsed><weight>1</weight></arrival><arrival><pickID>de.gempa.tb1.Pick/20250414063720.134327.243606</pickID><phase>P</phase><azimuth>77.10610961914062</azimuth><distance>0.9133147597312927</distance><timeResidual>0.2333216667175293</timeResidual><timeUsed>true</timeUsed><horizontalSlownessUsed>false</horizontalSlownessUsed><backazimuthUsed>false</backazimuthUsed><weight>1</weight></arrival><arrival><pickID>de.gempa.tb1.Pick/20250414063720.596945.243608</pickID><phase>P</phase><azimuth>71.21733856201172</azimuth><distance>1.007551908493042</distance><timeResidual>0.13828802108764648</timeResidual><timeUsed>true</timeUsed><horizontalSlownessUsed>false</horizontalSlownessUsed><backazimuthUsed>false</backazimuthUsed><weight>1</weight></arrival><arrival><pickID>de.gempa.tb1.Pick/20250414063720.837902.243610</pickID><phase>P</phase><azimuth>292.86090087890625</azimuth><distance>0.4614966809749603</distance><timeResidual>-1.2107386589050293</timeResidual><timeUsed>true</timeUsed><horizontalSlownessUsed>false</horizontalSlownessUsed><backazimuthUsed>false</backazimuthUsed><weight>1</weight></arrival><ar