<?xml version="1.0" encoding="UTF-8"?>
<seiscomp xmlns="http://geofon.gfz-potsdam.de/ns/seiscomp3-schema/0.13" version="0.13"><EventParameters><pick publicID="de.gempa.tb1.Pick/20250412181746.757281.125847"><time><value>2025-04-12T18:17:39.648393Z</value></time><waveformID networkCode="CX" stationCode="PB01" channelCode="HHZ"/><filterID>ITAPER(4)&gt;&gt;BW(4,4,20)</filterID><methodID>AIC</methodID><horizontalSlowness><value>18.14882785195384</value></horizontalSlowness><backazimuth><value>179.38857556744622</value></backazimuth><phaseHint>P</phaseHint><evaluationMode>automatic</evaluationMode><comment><text>29.76411061553776</text><id>DFX:rectilinearity</id></comment><comment><text>67.7599143453658</text><id>SNR</id></comment></pick><pick publicID="de.gempa.tb1.Pick/20250412181750.704656.125851"><time><value>2025-04-12T18:17:45.898393Z</value></time><waveformID networkCode="CX" stationCode="PB08" channelCode="HHZ"/><filterID>ITAPER(4)&gt;&gt;BW(4,4,20)</filterID><methodID>AIC</methodID><horizontalSlowness><value>20.195064397428094</value></horizontalSlowness><backazimuth><value>66.69414919392902</value></backazimuth><phaseHint>P</phaseHint><evaluationMode>automatic</evaluationMode><comment><text>10.709494981455222</text><id>DFX:rectilinearity</id></comment><comment><text>15.325759032886026</text><id>SNR</id></comment></pick><pick publicID="de.gempa.tb1.Pick/20250412181751.249054.125853"><time><value>2025-04-12T18:17:46.339999Z</value></time><waveformID networkCode="CX" stationCode="PATCX" channelCode="HHZ"/><filterID>ITAPER(4)&gt;&gt;BW(4,4,20)</filterID><methodID>AIC</methodID><horizontalSlowness><value>19.41739081589754</value></horizontalSlowness><backazimuth><value>228.2711548700522</value></backazimuth><phaseHint>P</phaseHint><evaluationMode>automatic</evaluationMode><comment><text>297.20181677044377</text><id>DFX:rectilinearity</id></comment><comment><text>48.43574607081995</text><id>SNR</id></comment></pick><pick publicID="de.gempa.tb1.Pick/20250412181752.579783.125855"><time><value>2025-04-12T18:17:45.948393Z</value></time><waveformID networkCode="CX" stationCode="PB03" channelCode="HHZ"/><filterID>ITAPER(4)&gt;&gt;BW(4,4,20)</filterID><methodID>AIC</methodID><horizontalSlowness><value>15.939745208360257</value></horizontalSlowness><backazimuth><value>60.01497090406426</value></backazimuth><phaseHint>P</phaseHint><evaluationMode>automatic</evaluationMode><comment><text>9.220720293256546</text><id>DFX:rectilinearity</id></comment><comment><text>15.66318113782362</text><id>SNR</id></comment></pick><pick publicID="de.gempa.tb1.Pick/20250412181753.855889.125857"><time><value>2025-04-12T18:17:41.470001Z</value></time><waveformID networkCode="CX" stationCode="PB09" channelCode="HHZ"/><filterID>ITAPER(4)&gt;&gt;BW(4,4,20)</filterID><methodID>AIC</methodID><horizontalSlowness><value>14.165258716748092</value></horizontalSlowness><backazimuth><value>272.55570296375674</value></backazimuth><phaseHint>P</phaseHint><evaluationMode>automatic</evaluationMode><comment><text>19.155314703326557</text><id>DFX:rectilinearity</id></comment><comment><text>20.905917810176554</text><id>SNR</id></comment></pick><pick publicID="de.gempa.tb1.Pick/20250412181757.592544.125859"><time><value>2025-04-12T18:17:52.168393Z</value></time><waveformID networkCode="CX" stationCode="PB01" channelCode="HHN"/><filterID>ITAPER(2)&gt;&gt;BW(3,3,20)</filterID><methodID>L2-AIC-GRID</methodID><horizontalSlowness><value>20.223921368330078</value></horizontalSlowness><backazimuth><value>285.98734906425813</value></backazimuth><phaseHint>S</phaseHint><evaluationMode>automatic</evaluationMode><comment><text>3481.8508189149065</text><id>DFX:rectilinearity</id></comment><comment><text>de.gempa.tb1.Pick/20250412181746.757281.125847</text><id>RefPickID</id></comment><comment><text>10.631447997573352</text><id>SNR</id></comment></pick><pick publicID="de.gempa.tb1.Pick/20250412181802.569281.125862"><time><value>2025-04-12T18:17:54.31Z</value></time><waveformID networkCode="CX" stationCode="PSGCX" channelCode="HHZ"/><filterID>ITAPER(4)&gt;&gt;BW(4,4,20)</filterID><methodID>AIC</methodID><horizontalSlowness><value>17.861026952783988</value></horizontalSlowness><backazimuth><value>110.463978122447</value></backazimuth><phaseHint>P</phaseHint><evaluationMode>automatic</evaluationMode><comment><text>22.60052554624931</text><id>DFX:rectilinearity</id></comment><comment><text>12.557877363739488</text><id>SNR</id></comment></pick><pick publicID="de.gempa.tb1.Pick/20250412181809.569504.125865"><time><value>2025-04-12T18:18:02.428393Z</value></time><waveformID networkCode="CX" stationCode="PB03" channelCode="HHN"/><filterID>ITAPER(2)&gt;&gt;BW(3,3,20)</filterID><methodID>L2-AIC-GRID</methodID><horizontalSlowness><value>19.256655739768114</value></horizontalSlowness><backazimuth><value>324.09177034179925</value></backazimuth><phaseHint>S</phaseHint><evaluationMode>automatic</evaluationMode><comment><text>73.27809176544618</text><id>DFX:rectilinearity</id></comment><comment><text>de.gempa.tb1.Pick/20250412181752.579783.125855</text><id>RefPickID</id></comment><comment><text>10.04809440198323</text><id>SNR</id></comment></pick><pick publicID="de.gempa.tb1.Pick/20250412181811.250262.125866"><time><value>2025-04-12T18:18:02.938393Z</value></time><waveformID networkCode="CX" stationCode="PB08" channelCode="HHN"/><filterID>ITAPER(2)&gt;&gt;BW(3,3,20)</filterID><methodID>L2-AIC-GRID</methodID><horizontalSlowness><value>15.250239389636715</value></horizontalSlowness><backazimuth><value>208.1095233961976</value></backazimuth><phaseHint>S</phaseHint><evaluationMode>automatic</evaluationMode><comment><text>230.69155911436724</text><id>DFX:rectilinearity</id></comment><comment><text>de.gempa.tb1.Pick/20250412181750.704656.125851</text><id>RefPickID</id></comment><comment><text>9.198216356399596</text><id>SNR</id></comment></pick><pick publicID="de.gempa.tb1.Pick/20250412181819.833659.125873"><time><value>2025-04-12T18:17:44.418393Z</value></time><waveformID networkCode="CX" stationCode="PB07" channelCode="HHZ"/><filterID>ITAPER(4)&gt;&gt;BW(4,4,20)</filterID><methodID>AIC</methodID><horizontalSlowness><value>23.54296684322632</value></horizontalSlowness><backazimuth><value>198.80166843129342</value></backazimuth><phaseHint>P</phaseHint><evaluationMode>automatic</evaluationMode><comment><text>222.009834930806</text><id>DFX:rectilinearity</id></comment><comment><text>28.570912249668854</text><id>SNR</id></comment></pick><pick publicID="de.gempa.tb1.Pick/20250412181826.681021.125877"><time><value>2025-04-12T18:18:00.658393Z</value></time><waveformID networkCode="CX" stationCode="PB07" channelCode="HHN"/><filterID>ITAPER(2)&gt;&gt;BW(3,3,20)</filterID><methodID>L2-AIC-GRID</methodID><horizontalSlowness><value>23.286834873637694</value></horizontalSlowness><backazimuth><value>162.82680799587897</value></backazimuth><phaseHint>S</phaseHint><evaluationMode>automatic</evaluationMode><comment><text>2550.322459622215</text><id>DFX:rectilinearity</id></comment><comment><text>de.gempa.tb1.Pick/20250412181819.833659.125873</text><id>RefPickID</id></comment><comment><text>6.94611514076356</text><id>SNR</id></comment></pick><origin publicID="de.gempa.tb1.Origin/20250412181826.68529.89390"><time><value>2025-04-12T18:17:23.847292Z</value><uncertainty>0.9339858293533325</uncertainty></time><latitude><value>-21.189828872680664</value><uncertainty>4.024832248687744</uncertainty></latitude><longitude><value>-69.07772064208984</value><uncertainty>10.230396270751953</uncertainty></longitude><depth><value>110.1808090209961</value><uncertainty>7.496367454528809</uncertainty></depth><depthType>from location</depthType><methodID>LOCSAT</methodID><earthModelID>iasp91_scanloc</earthModelID><quality><associatedPhaseCount>11</associatedPhaseCount><usedPhaseCount>11</usedPhaseCount><associatedStationCount>7</associatedStationCount><usedStationCount>7</usedStationCount><depthPhaseCount>0</depthPhaseCount><standardError>0.473414520040166</standardError><azimuthalGap>198.08595275878906</azimuthalGap><maximumDistance>1.863420844078064</maximumDistance><minimumDistance>0.409367710351944</minimumDistance><medianDistance>1.0458253622055054</medianDistance></quality><uncertainty><minHorizontalUncertainty>6.928165912628174</minHorizontalUncertainty><maxHorizontalUncertainty>22.53262710571289</maxHorizontalUncertainty><azimuthMaxHorizontalUncertainty>103.88796997070312</azimuthMaxHorizontalUncertainty><preferredDescription>horizontal uncertainty</preferredDescription></uncertainty><evaluationMode>automatic</evaluationMode><evaluationStatus>confirmed</evaluationStatus><comment><text>0.14</text><id>mismatchScore</id></comment><comment><text>mismatchScore</text><id>scevalMethod</id></comment><arrival><pickID>de.gempa.tb1.Pick/20250412181746.757281.125847</pickID><phase>P</phase><azimuth>290.801513671875</azimuth><distance>0.409367710351944</distance><timeResidual>-0.5311727523803711</timeResidual><timeUsed>true</timeUsed><horizontalSlownessUsed>false</horizontalSlownessUsed><backazimuthUsed>false</backazimuthUsed><weight>1</weight></arrival><arrival><pickID>de.gempa.tb1.Pick/20250412181750.704656.125851</pickID><phase>P</phase><azimuth>356.101318359375</azimuth><distance>1.0458253622055054</distance><timeResidual>0.3240041732788086</timeResidual><timeUsed>true</timeUsed><horizontalSlownessUsed>false</horizontalSlownessUsed><backazimuthUsed>false</backazimuthUsed><weight>1</weight></arrival><arrival><pickID>de.gempa.tb1.Pick/20250412181751.249054.125853</pickID><phase>P</phase><azimuth>289.8905944824219</azimuth><distance>1.069602370262146</distance><timeResidual>0.5181417465209961</timeResidual><timeUsed>true</timeUsed><horizontalSlownessUsed>false</horizontalSlownessUsed><backazimuthUsed>false</backazimuthUsed><weight>1</weight></arrival><arrival><pickID>de.gempa.tb1.Pick/20250412181752.579783.125855</pickID><phase>P</phase><azimuth>216.2111358642578</azimuth><distance>1.0606547594070435</distance><timeResidual>0.2275199890136719</timeResidual><timeUsed>true</timeUsed><horizontalSlownessUsed>false</horizontalSlownessUsed><backazimuthUsed>false</backazimuthUsed><weight>1</weight></arrival><arrival><pickID>de.gempa.tb1.Pick/20250412181753.855889.125857</pickID><phase>P</phase><azimuth>194.18727111816406</azimuth><distance>0.62264084815979</distance><timeResidual>-0.1542520523071289</timeResidual><timeUsed>true</timeUsed><horizontalSlownessUsed>false</horizontalSlownessUsed><backazimuthUsed>false</backazimuthUsed><weight>1</weight></arrival><arrival><pickID>de.gempa.tb1.Pick/20250412181757.592544.125859</pickID><phase>S</phase><azimuth>290.801513671875</azimuth><distance>0.409367710351944</distance><timeResidual>-0.5780744552612305</timeResidual><timeUsed>true</timeUsed><horizontalSlownessUsed>false</horizontalSlownessUsed><backazimuthUsed>false</backazimuthUsed><weight>1</weight></arrival><arrival><pickID>de.gempa.tb1.Pick/20250412181802.569281.125862</pickID><phase>P</phase><azimuth>328.0662841796875</azimuth><distance>1.863420844078064</distance><timeResidual>-0.845616340637207</timeResidual><timeUsed>true</timeUsed><horizontalSlownessUsed>false</horizontalSlownessUsed><backazimuthUsed>false</backazimuthUsed><weight>1</weight></arrival><arrival><pickID>de.gempa.tb1.Pick/20250412181809.569504.125865</pickID><phase>S</phase><azimuth>216.2111358642578</azimuth><distance>1.0606547594070435</distance><timeResidual>-0.19249629974365234</timeResidual><timeUsed>true</timeUsed><horizontalSlownessUsed>false</horizontalSlownessUsed><backazimuthUsed>false</backazimuthUsed><weight>1</weight></arrival><arrival><pickID>de.gempa.tb1.Pick/20250412181811.250262.125866</pickID><phase>S</phase><azimuth>356.101318359375</azimuth><distance>1.0458253622055054</distance><timeResidual>0.5813360214233398</timeResidual><timeUsed>true</timeUsed><horizontalSlownessUsed>false</horizontalSlownessUsed><backazimuthUsed>false</backazimuthUsed><weight>1</weight></arrival><arrival><pickID>de.gempa.tb1.Pick/20250412181819.833659.125873</pickID><phase>P</phase><azimuth>234.5037536621094</azimuth><distance>0.9233137369155884</distance><timeResidual>0.10393238067626953</timeResidual><timeUsed>true</timeUsed><horizontalSlownessUsed>false</horizontalSlownessUsed><backazimuthUsed>false</backazimuthUsed><weight>1</weight></arrival><arrival><pickID>de.gempa.tb1.Pick/20250412181826.681021.125877</pickID><phase>S</phase><azimuth>234.5037536621094</azimuth><distance>0.9233137369155884</distance><timeResidual>0.5469331741333008</timeResidual><timeUsed>true</timeUsed><horizontalSlownessUsed>false</horizontalSlownessUsed><backazimuthUsed>false</backazimuthUsed><weight>1</weight></arrival><magnitude publicID="de.gempa.tb1.Magnitude/20250412181836.19107.263406"><magnitude><value>2.704026634890858</value></magnitude><type>M</type><methodID>weighted average</methodID><stationCount>5</stationCount></magnitude></origin><event publicID="gempa2025hfyu"><preferredOriginID>de.gempa.tb1.Origin/20250412181826.68529.89390</preferredOriginID><preferredMagnitudeID>de.gempa.tb1.Magnitude/20250412181836.19107.263406</preferredMagnitudeID><description><text>Northern Chile</text><type>region name</type></description><originReference>de.gempa.tb1.Origin/20250412181826.68529.89390</originReference></event></EventParameters></seiscomp>