<?xml version="1.0" encoding="UTF-8"?>
<seiscomp xmlns="http://geofon.gfz-potsdam.de/ns/seiscomp3-schema/0.13" version="0.13"><EventParameters><pick publicID="de.gempa.tb2.Pick/20250412114340.891911.90015"><time><value>2025-04-12T11:43:38.9Z</value></time><waveformID networkCode="CH" stationCode="WILA" channelCode="HHZ"/><filterID>ITAPER(4)&gt;&gt;BW(4,4,20)</filterID><methodID>AIC</methodID><phaseHint>P</phaseHint><evaluationMode>automatic</evaluationMode></pick><pick publicID="de.gempa.tb2.Pick/20250412114341.445777.90017"><time><value>2025-04-12T11:43:38.455Z</value></time><waveformID networkCode="CH" stationCode="DAGMA" channelCode="HHZ"/><filterID>ITAPER(4)&gt;&gt;BW(4,4,20)</filterID><methodID>AIC</methodID><phaseHint>P</phaseHint><evaluationMode>automatic</evaluationMode></pick><pick publicID="de.gempa.tb2.Pick/20250412114343.197665.90021"><time><value>2025-04-12T11:43:40.9Z</value></time><waveformID networkCode="CH" stationCode="DIX" channelCode="HHZ"/><filterID>ITAPER(4)&gt;&gt;BW(4,4,20)</filterID><methodID>AIC</methodID><phaseHint>P</phaseHint><evaluationMode>automatic</evaluationMode></pick><pick publicID="de.gempa.tb2.Pick/20250412114344.376648.90026"><time><value>2025-04-12T11:43:41.48Z</value></time><waveformID networkCode="CH" stationCode="BALST" channelCode="HHZ"/><filterID>ITAPER(4)&gt;&gt;BW(4,4,20)</filterID><methodID>AIC</methodID><phaseHint>P</phaseHint><evaluationMode>automatic</evaluationMode></pick><pick publicID="de.gempa.tb2.Pick/20250412114350.006406.90032"><time><value>2025-04-12T11:43:41.16Z</value></time><waveformID networkCode="CH" stationCode="EMMET" channelCode="HHZ"/><filterID>ITAPER(4)&gt;&gt;BW(4,4,20)</filterID><methodID>AIC</methodID><phaseHint>P</phaseHint><evaluationMode>automatic</evaluationMode></pick><pick publicID="de.gempa.tb2.Pick/20250412114454.859687.90094"><time><value>2025-04-12T11:44:16.59Z</value></time><waveformID networkCode="GR" stationCode="GRB4" channelCode="BHZ"/><filterID>BW(4,4,8)</filterID><methodID>AIC</methodID><phaseHint>P</phaseHint><evaluationMode>automatic</evaluationMode></pick><origin publicID="de.gempa.tb2.Origin/20250412114454.876407.46636"><time><value>2025-04-12T11:43:21.740917Z</value><uncertainty>1.5336941480636597</uncertainty></time><latitude><value>46.53047561645508</value><uncertainty>8.165014266967773</uncertainty></latitude><longitude><value>8.696676254272461</value><uncertainty>11.162911415100098</uncertainty></longitude><depth><value>8.677091598510742</value><uncertainty>14.728663444519043</uncertainty></depth><depthType>from location</depthType><methodID>LOCSAT</methodID><earthModelID>iasp91</earthModelID><quality><associatedPhaseCount>6</associatedPhaseCount><usedPhaseCount>6</usedPhaseCount><associatedStationCount>6</associatedStationCount><usedStationCount>6</usedStationCount><depthPhaseCount>0</depthPhaseCount><standardError>0.19832494627394268</standardError><azimuthalGap>211.561279296875</azimuthalGap><maximumDistance>3.513169288635254</maximumDistance><minimumDistance>0.8433542847633362</minimumDistance><medianDistance>1.0209063291549683</medianDistance></quality><uncertainty><minHorizontalUncertainty>10.569979667663574</minHorizontalUncertainty><maxHorizontalUncertainty>27.713184356689453</maxHorizontalUncertainty><azimuthMaxHorizontalUncertainty>123.02111053466797</azimuthMaxHorizontalUncertainty><preferredDescription>horizontal uncertainty</preferredDescription></uncertainty><evaluationMode>automatic</evaluationMode><arrival><pickID>de.gempa.tb2.Pick/20250412114340.891911.90015</pickID><phase>P</phase><azimuth>9.194158554077148</azimuth><distance>0.8962695002555847</distance><timeResidual>-0.1246356964111328</timeResidual><timeUsed>true</timeUsed><horizontalSlownessUsed>false</horizontalSlownessUsed><backazimuthUsed>false</backazimuthUsed><weight>1</weight></arrival><arrival><pickID>de.gempa.tb2.Pick/20250412114341.445777.90017</pickID><phase>P</phase><azimuth>326.4339294433594</azimuth><distance>0.8433542847633362</distance><timeResidual>0.34821510314941406</timeResidual><timeUsed>true</timeUsed><horizontalSlownessUsed>false</horizontalSlownessUsed><backazimuthUsed>false</backazimuthUsed><weight>1</weight></arrival><arrival><pickID>de.gempa.tb2.Pick/20250412114343.197665.90021</pickID><phase>P</phase><azimuth>243.7002868652344</azimuth><distance>1.000424861907959</distance><timeResidual>0.01267242431640625</timeResidual><timeUsed>true</timeUsed><horizontalSlownessUsed>false</horizontalSlownessUsed><backazimuthUsed>false</backazimuthUsed><weight>1</weight></arrival><arrival><pickID>de.gempa.tb2.Pick/20250412114344.376648.90026</pickID><phase>P</phase><azimuth>319.9310607910156</azimuth><distance>1.0584233999252319</distance><timeResidual>-0.2961139678955078</timeResidual><timeUsed>true</timeUsed><horizontalSlownessUsed>false</horizontalSlownessUsed><backazimuthUsed>false</backazimuthUsed><weight>1</weight></arrival><arrival><pickID>de.gempa.tb2.Pick/20250412114350.006406.90032</pickID><phase>P</phase><azimuth>332.98394775390625</azimuth><distance>1.0209063291549683</distance><timeResidual>-0.039264678955078125</timeResidual><timeUsed>true</timeUsed><horizontalSlownessUsed>false</horizontalSlownessUsed><backazimuthUsed>false</backazimuthUsed><weight>1</weight></arrival><arrival><pickID>de.gempa.tb2.Pick/20250412114454.859687.90094</pickID><phase>P</phase><azimuth>32.139007568359375</azimuth><distance>3.513169288635254</distance><timeResidual>0.09911155700683594</timeResidual><timeUsed>true</timeUsed><horizontalSlownessUsed>false</horizontalSlownessUsed><backazimuthUsed>false</backazimuthUsed><weight>1</weight></arrival><magnitude publicID="de.gempa.tb2.Magnitude/20250412114455.109328.32313"><magnitude><value>1.8954016402726563</value></magnitude><type>M</type><methodID>weighted average</methodID><stationCount>5</stationCount></magnitude></origin><event publicID="gempa2025hflr"><preferredOriginID>de.gempa.tb2.Origin/20250412114454.876407.46636</preferredOriginID><preferredMagnitudeID>de.gempa.tb2.Magnitude/20250412114455.109328.32313</preferredMagnitudeID><description><text>Switzerland</text><type>region name</type></description><originReference>de.gempa.tb2.Origin/20250412114454.876407.46636</originReference></event></EventParameters></seiscomp>