<?xml version="1.0" encoding="UTF-8"?>
<seiscomp xmlns="http://geofon.gfz-potsdam.de/ns/seiscomp3-schema/0.13" version="0.13"><EventParameters><pick publicID="de.gempa.tb1.Pick/20250412073846.2228.119817"><time><value>2025-04-12T07:38:06.782037Z</value></time><waveformID networkCode="RO" stationCode="MLR" channelCode="BHZ"/><filterID>BW(4,0.7,2)</filterID><methodID>AIC</methodID><horizontalSlowness><value>1.5106403971357105</value></horizontalSlowness><backazimuth><value>155.3208484377676</value></backazimuth><phaseHint>P</phaseHint><evaluationMode>automatic</evaluationMode><comment><text>448.59512252466686</text><id>DFX:rectilinearity</id></comment></pick><pick publicID="de.gempa.tb1.Pick/20250412073851.116787.119819"><time><value>2025-04-12T07:38:31.419536Z</value></time><waveformID networkCode="RO" stationCode="BZS" channelCode="BHZ"/><filterID>BW(4,0.7,2)</filterID><methodID>AIC</methodID><horizontalSlowness><value>8.141187210609759</value></horizontalSlowness><backazimuth><value>96.92220703239323</value></backazimuth><phaseHint>P</phaseHint><evaluationMode>automatic</evaluationMode><comment><text>12.026844234808484</text><id>DFX:rectilinearity</id></comment></pick><pick publicID="de.gempa.tb1.Pick/20250412073913.221502.119823"><time><value>2025-04-12T07:38:53.3Z</value></time><waveformID networkCode="GE" stationCode="MORC" channelCode="BHZ"/><filterID>BW(4,0.7,2)</filterID><methodID>AIC</methodID><horizontalSlowness><value>7.37674232756148</value></horizontalSlowness><backazimuth><value>80.4089937519676</value></backazimuth><phaseHint>P</phaseHint><evaluationMode>automatic</evaluationMode><comment><text>102.15269090404308</text><id>DFX:rectilinearity</id></comment></pick><pick publicID="de.gempa.tb1.Pick/20250412073913.504377.119825"><time><value>2025-04-12T07:38:40.495Z</value></time><waveformID networkCode="GE" stationCode="PSZ" channelCode="BHZ"/><filterID>BW(4,0.7,2)</filterID><methodID>AIC</methodID><horizontalSlowness><value>6.171810123907691</value></horizontalSlowness><backazimuth><value>163.22295836734855</value></backazimuth><phaseHint>P</phaseHint><evaluationMode>automatic</evaluationMode><comment><text>35.153326506752684</text><id>DFX:rectilinearity</id></comment></pick><pick publicID="de.gempa.tb1.Pick/20250412073929.60322.119832"><time><value>2025-04-12T07:39:10.869538Z</value></time><waveformID networkCode="MN" stationCode="CUC" channelCode="BHZ"/><filterID>BW(4,0.7,2)</filterID><methodID>AIC</methodID><horizontalSlowness><value>6.496957471509392</value></horizontalSlowness><backazimuth><value>100.49149154226218</value></backazimuth><phaseHint>P</phaseHint><evaluationMode>automatic</evaluationMode><comment><text>293.104247203522</text><id>DFX:rectilinearity</id></comment></pick><pick publicID="de.gempa.tb1.Pick/20250412073946.157838.119836"><time><value>2025-04-12T07:39:23.250001Z</value></time><waveformID networkCode="GE" stationCode="FLT1" channelCode="BHZ"/><filterID>BW(4,0.7,2)</filterID><methodID>AIC</methodID><horizontalSlowness><value>5.353278960797079</value></horizontalSlowness><backazimuth><value>87.94560039685483</value></backazimuth><phaseHint>P</phaseHint><evaluationMode>automatic</evaluationMode><comment><text>280.46728880592303</text><id>DFX:rectilinearity</id></comment></pick><pick publicID="de.gempa.tb1.Pick/20250412074056.405597.119841"><time><value>2025-04-12T07:39:35.319538Z</value></time><waveformID networkCode="GE" stationCode="KMBO" locationCode="00" channelCode="BHZ"/><filterID>BW(4,0.7,2)</filterID><methodID>AIC</methodID><horizontalSlowness><value>7.66736726767011</value></horizontalSlowness><backazimuth><value>265.76474950065943</value></backazimuth><phaseHint>P</phaseHint><evaluationMode>automatic</evaluationMode><comment><text>8.122359567706088</text><id>DFX:rectilinearity</id></comment></pick><pick publicID="de.gempa.tb1.Pick/20250412074215.307527.119850"><time><value>2025-04-12T07:41:40.12186Z</value></time><waveformID networkCode="GE" stationCode="SOEI" channelCode="BHZ"/><filterID>BW(4,0.7,2)</filterID><methodID>AIC</methodID><horizontalSlowness><value>11.279892174768602</value></horizontalSlowness><backazimuth><value>124.15196649598523</value></backazimuth><phaseHint>P</phaseHint><evaluationMode>automatic</evaluationMode><comment><text>925.2301627469973</text><id>DFX:rectilinearity</id></comment></pick><origin publicID="de.gempa.tb1.Origin/20250412074222.446233.88956"><time><value>2025-04-12T07:31:39.428277Z</value><uncertainty>7.87885856628418</uncertainty></time><latitude><value>34.12113952636719</value><uncertainty>12.35714340209961</uncertainty></latitude><longitude><value>72.07005310058594</value><uncertainty>14.825058937072754</uncertainty></longitude><depth><value>452.2986450195312</value><uncertainty>98.06472778320312</uncertainty></depth><depthType>from location</depthType><methodID>LOCSAT</methodID><earthModelID>iasp91</earthModelID><quality><associatedPhaseCount>8</associatedPhaseCount><usedPhaseCount>8</usedPhaseCount><associatedStationCount>8</associatedStationCount><usedStationCount>8</usedStationCount><depthPhaseCount>0</depthPhaseCount><standardError>0.36424864589340505</standardError><azimuthalGap>169.16116333007812</azimuthalGap><maximumDistance>65.96793365478516</maximumDistance><minimumDistance>36.74285888671875</minimumDistance><medianDistance>44.6442985534668</medianDistance></quality><uncertainty><minHorizontalUncertainty>24.58059501647949</minHorizontalUncertainty><maxHorizontalUncertainty>33.297847747802734</maxHorizontalUncertainty><azimuthMaxHorizontalUncertainty>63.84712219238281</azimuthMaxHorizontalUncertainty><preferredDescription>horizontal uncertainty</preferredDescription></uncertainty><evaluationMode>automatic</evaluationMode><arrival><pickID>de.gempa.tb1.Pick/20250412073846.2228.119817</pickID><phase>P</phase><azimuth>302.0492248535156</azimuth><distance>36.74285888671875</distance><timeResidual>0.151641845703125</timeResidual><timeUsed>true</timeUsed><horizontalSlownessUsed>false</horizontalSlownessUsed><backazimuthUsed>false</backazimuthUsed><weight>1</weight></arrival><arrival><pickID>de.gempa.tb1.Pick/20250412073851.116787.119819</pickID><phase>P</phase><azimuth>302.246337890625</azimuth><distance>39.784252166748047</distance><timeResidual>-0.092071533203125</timeResidual><timeUsed>true</timeUsed><horizontalSlownessUsed>false</horizontalSlownessUsed><backazimuthUsed>false</backazimuthUsed><weight>1</weight></arrival><arrival><pickID>de.gempa.tb1.Pick/20250412073913.221502.119823</pickID><phase>P</phase><azimuth>308.6072692871094</azimuth><distance>42.50326919555664</distance><timeResidual>0.126861572265625</timeResidual><timeUsed>true</timeUsed><horizontalSlownessUsed>false</horizontalSlownessUsed><backazimuthUsed>false</backazimuthUsed><weight>1</weight></arrival><arrival><pickID>de.gempa.tb1.Pick/20250412073913.504377.119825</pickID><phase>P</phase><azimuth>305.8226013183594</azimuth><distance>40.941993713378906</distance><timeResidual>-0.2916259765625</timeResidual><timeUsed>true</timeUsed><horizontalSlownessUsed>false</horizontalSlownessUsed><backazimuthUsed>false</backazimuthUsed><weight>1</weight></arrival><arrival><pickID>de.gempa.tb1.Pick/20250412073929.60322.119832</pickID><phase>P</phase><azimuth>294.6246643066406</azimuth><distance>44.6442985534668</distance><timeResidual>0.767120361328125</timeResidual><timeUsed>true</timeUsed><horizontalSlownessUsed>false</horizontalSlownessUsed><backazimuthUsed>false</backazimuthUsed><weight>1</weight></arrival><arrival><pickID>de.gempa.tb1.Pick/20250412073946.157838.119836</pickID><phase>P</phase><azimuth>312.3247375488281</azimuth><distance>46.45089340209961</distance><timeResidual>-0.535308837890625</timeResidual><timeUsed>true</timeUsed><horizontalSlownessUsed>false</horizontalSlownessUsed><backazimuthUsed>false</backazimuthUsed><weight>1</weight></arrival><arrival><pickID>de.gempa.tb1.Pick/20250412074056.405597.119841</pickID><phase>P</phase><azimuth>230.2654724121094</azimuth><distance>47.92989349365234</distance><timeResidual>-0.214569091796875</timeResidual><timeUsed>true</timeUsed><horizontalSlownessUsed>false</horizontalSlownessUsed><backazimuthUsed>false</backazimuthUsed><weight>1</weight></arrival><arrival><pickID>de.gempa.tb1.Pick/20250412074215.307527.119850</pickID><phase>P</phase><azimuth>121.48590087890625</azimuth><distance>65.96793365478516</distance><timeResidual>0.08795166015625</timeResidual><timeUsed>true</timeUsed><horizontalSlownessUsed>false</horizontalSlownessUsed><backazimuthUsed>false</backazimuthUsed><weight>1</weight></arrival><magnitude publicID="de.gempa.tb1.Magnitude/20250412074222.457979.193855"><magnitude><value>4.3926451333954484</value></magnitude><type>M</type><methodID>weighted average</methodID><stationCount>7</stationCount></magnitude></origin><event publicID="gempa2025hfdg"><preferredOriginID>de.gempa.tb1.Origin/20250412074222.446233.88956</preferredOriginID><preferredMagnitudeID>de.gempa.tb1.Magnitude/20250412074222.457979.193855</preferredMagnitudeID><description><text>Pakistan</text><type>region name</type></description><originReference>de.gempa.tb1.Origin/20250412074222.446233.88956</originReference></event></EventParameters></seiscomp>