<?xml version="1.0" encoding="UTF-8"?>
<seiscomp xmlns="http://geofon.gfz-potsdam.de/ns/seiscomp3-schema/0.13" version="0.13"><EventParameters><pick publicID="de.gempa.tb1.Pick/20250411142904.589953.118143"><time><value>2025-04-11T14:28:59.068393Z</value></time><waveformID networkCode="CX" stationCode="PB06" channelCode="HHZ"/><filterID>ITAPER(4)&gt;&gt;BW(4,4,20)</filterID><methodID>AIC</methodID><horizontalSlowness><value>16.329302376342373</value></horizontalSlowness><backazimuth><value>345.94699413179717</value></backazimuth><phaseHint>P</phaseHint><evaluationMode>automatic</evaluationMode><comment><text>49.71155395698922</text><id>DFX:rectilinearity</id></comment><comment><text>8.799843533534386</text><id>SNR</id></comment></pick><pick publicID="de.gempa.tb1.Pick/20250411142906.564118.118145"><time><value>2025-04-11T14:28:59.608393Z</value></time><waveformID networkCode="CX" stationCode="PB03" channelCode="HHZ"/><filterID>ITAPER(4)&gt;&gt;BW(4,4,20)</filterID><methodID>AIC</methodID><horizontalSlowness><value>20.667735242915715</value></horizontalSlowness><backazimuth><value>110.15110004281628</value></backazimuth><phaseHint>P</phaseHint><evaluationMode>automatic</evaluationMode><comment><text>8.541612574298094</text><id>DFX:rectilinearity</id></comment><comment><text>22.665853940370887</text><id>SNR</id></comment></pick><pick publicID="de.gempa.tb1.Pick/20250411142909.079359.118147"><time><value>2025-04-11T14:28:57.62Z</value></time><waveformID networkCode="CX" stationCode="PB09" channelCode="HHZ"/><filterID>ITAPER(4)&gt;&gt;BW(4,4,20)</filterID><methodID>AIC</methodID><horizontalSlowness><value>14.492277427545663</value></horizontalSlowness><backazimuth><value>288.4443360120037</value></backazimuth><phaseHint>P</phaseHint><evaluationMode>automatic</evaluationMode><comment><text>9.407762375183413</text><id>DFX:rectilinearity</id></comment><comment><text>58.92706046079822</text><id>SNR</id></comment></pick><pick publicID="de.gempa.tb1.Pick/20250411142910.561014.118149"><time><value>2025-04-11T14:29:05.608394Z</value></time><waveformID networkCode="CX" stationCode="PB01" channelCode="HHZ"/><filterID>ITAPER(4)&gt;&gt;BW(4,4,20)</filterID><methodID>AIC</methodID><horizontalSlowness><value>11.775316240281956</value></horizontalSlowness><backazimuth><value>253.42201256453595</value></backazimuth><phaseHint>P</phaseHint><evaluationMode>automatic</evaluationMode><comment><text>5.893775473792407</text><id>DFX:rectilinearity</id></comment><comment><text>9.959588440051908</text><id>SNR</id></comment></pick><pick publicID="de.gempa.tb1.Pick/20250411142911.473053.118151"><time><value>2025-04-11T14:29:05.478393Z</value></time><waveformID networkCode="CX" stationCode="PB02" channelCode="HHZ"/><filterID>ITAPER(4)&gt;&gt;BW(4,4,20)</filterID><methodID>AIC</methodID><horizontalSlowness><value>12.027079015376087</value></horizontalSlowness><backazimuth><value>244.33034646326865</value></backazimuth><phaseHint>P</phaseHint><evaluationMode>automatic</evaluationMode><comment><text>26.033089334448803</text><id>DFX:rectilinearity</id></comment><comment><text>10.736620209096566</text><id>SNR</id></comment></pick><pick publicID="de.gempa.tb1.Pick/20250411142921.773905.118153"><time><value>2025-04-11T14:29:13.938393Z</value></time><waveformID networkCode="CX" stationCode="PB03" channelCode="HHN"/><filterID>ITAPER(2)&gt;&gt;BW(3,3,20)</filterID><methodID>L2-AIC-GRID</methodID><horizontalSlowness><value>19.820606716697476</value></horizontalSlowness><backazimuth><value>239.83774904123774</value></backazimuth><phaseHint>S</phaseHint><evaluationMode>automatic</evaluationMode><comment><text>46.52784799410006</text><id>DFX:rectilinearity</id></comment><comment><text>de.gempa.tb1.Pick/20250411142906.564118.118145</text><id>RefPickID</id></comment><comment><text>10.123328358419538</text><id>SNR</id></comment></pick><pick publicID="de.gempa.tb1.Pick/20250411142924.667313.118154"><time><value>2025-04-11T14:29:12.968393Z</value></time><waveformID networkCode="CX" stationCode="PB06" channelCode="HHN"/><filterID>ITAPER(2)&gt;&gt;BW(3,3,20)</filterID><methodID>L2-AIC-GRID</methodID><horizontalSlowness><value>21.258717677326082</value></horizontalSlowness><backazimuth><value>203.58261415989148</value></backazimuth><phaseHint>S</phaseHint><evaluationMode>automatic</evaluationMode><comment><text>149.26465447392351</text><id>DFX:rectilinearity</id></comment><comment><text>de.gempa.tb1.Pick/20250411142904.589953.118143</text><id>RefPickID</id></comment><comment><text>9.443489725913226</text><id>SNR</id></comment></pick><pick publicID="de.gempa.tb1.Pick/20250411142932.602449.118158"><time><value>2025-04-11T14:29:24.288393Z</value></time><waveformID networkCode="CX" stationCode="PB02" channelCode="HHN"/><filterID>ITAPER(2)&gt;&gt;BW(3,3,20)</filterID><methodID>L2-AIC-GRID</methodID><horizontalSlowness><value>16.564505077398334</value></horizontalSlowness><backazimuth><value>71.18222537835712</value></backazimuth><phaseHint>S</phaseHint><evaluationMode>automatic</evaluationMode><comment><text>108.62113573211667</text><id>DFX:rectilinearity</id></comment><comment><text>de.gempa.tb1.Pick/20250411142911.473053.118151</text><id>RefPickID</id></comment><comment><text>5.429127364213938</text><id>SNR</id></comment></pick><pick publicID="de.gempa.tb1.Pick/20250411142933.59533.118161"><time><value>2025-04-11T14:29:24.618394Z</value></time><waveformID networkCode="CX" stationCode="PB01" channelCode="HHN"/><filterID>ITAPER(2)&gt;&gt;BW(3,3,20)</filterID><methodID>L2-AIC-GRID</methodID><horizontalSlowness><value>19.578904087196115</value></horizontalSlowness><backazimuth><value>295.5453723745858</value></backazimuth><phaseHint>S</phaseHint><evaluationMode>automatic</evaluationMode><comment><text>23.674196018857927</text><id>DFX:rectilinearity</id></comment><comment><text>de.gempa.tb1.Pick/20250411142910.561014.118149</text><id>RefPickID</id></comment><comment><text>5.646040642200915</text><id>SNR</id></comment></pick><pick publicID="de.gempa.tb1.Pick/20250411142939.325036.118162"><time><value>2025-04-11T14:29:02.358393Z</value></time><waveformID networkCode="CX" stationCode="PB07" channelCode="HHZ"/><filterID>ITAPER(4)&gt;&gt;BW(4,4,20)</filterID><methodID>AIC</methodID><horizontalSlowness><value>20.359072728123135</value></horizontalSlowness><backazimuth><value>138.90970590262174</value></backazimuth><phaseHint>P</phaseHint><evaluationMode>automatic</evaluationMode><comment><text>205.49191525087932</text><id>DFX:rectilinearity</id></comment><comment><text>55.59191418819346</text><id>SNR</id></comment></pick><origin publicID="de.gempa.tb1.Origin/20250411142940.203229.57828"><time><value>2025-04-11T14:28:41.147369Z</value><uncertainty>1.1766189336776733</uncertainty></time><latitude><value>-22.286046981811523</value><uncertainty>4.558907508850098</uncertainty></latitude><longitude><value>-68.91016387939453</value><uncertainty>13.30167293548584</uncertainty></longitude><depth><value>101.27327728271484</value><uncertainty>14.362171173095703</uncertainty></depth><depthType>from location</depthType><methodID>LOCSAT</methodID><earthModelID>iasp91_scanloc</earthModelID><quality><associatedPhaseCount>10</associatedPhaseCount><usedPhaseCount>10</usedPhaseCount><associatedStationCount>6</associatedStationCount><usedStationCount>6</usedStationCount><depthPhaseCount>0</depthPhaseCount><standardError>0.10068632262474457</standardError><azimuthalGap>259.12986755371094</azimuthalGap><maximumDistance>1.348271369934082</maximumDistance><minimumDistance>0.5763733386993408</minimumDistance><medianDistance>1.0631380081176758</medianDistance></quality><uncertainty><minHorizontalUncertainty>9.592971801757812</minHorizontalUncertainty><maxHorizontalUncertainty>28.582582473754883</maxHorizontalUncertainty><azimuthMaxHorizontalUncertainty>86.00111389160156</azimuthMaxHorizontalUncertainty><preferredDescription>horizontal uncertainty</preferredDescription></uncertainty><evaluationMode>automatic</evaluationMode><evaluationStatus>confirmed</evaluationStatus><comment><text>0.06</text><id>mismatchScore</id></comment><comment><text>mismatchScore</text><id>scevalMethod</id></comment><arrival><pickID>de.gempa.tb1.Pick/20250411142904.589953.118143</pickID><phase>P</phase><azimuth>235.55479431152344</azimuth><distance>0.7409536838531494</distance><timeResidual>0.018451690673828125</timeResidual><timeUsed>true</timeUsed><horizontalSlownessUsed>false</horizontalSlownessUsed><backazimuthUsed>false</backazimuthUsed><weight>1</weight></arrival><arrival><pickID>de.gempa.tb1.Pick/20250411142906.564118.118145</pickID><phase>P</phase><azimuth>286.67694091796875</azimuth><distance>0.8163585066795349</distance><timeResidual>-0.162872314453125</timeResidual><timeUsed>true</timeUsed><horizontalSlownessUsed>false</horizontalSlownessUsed><backazimuthUsed>false</backazimuthUsed><weight>1</weight></arrival><arrival><pickID>de.gempa.tb1.Pick/20250411142909.079359.118147</pickID><phase>P</phase><azimuth>327.6600341796875</azimuth><distance>0.5763733386993408</distance><timeResidual>-0.017248153686523438</timeResidual><timeUsed>true</timeUsed><horizontalSlownessUsed>false</horizontalSlownessUsed><backazimuthUsed>false</backazimuthUsed><weight>1</weight></arrival><arrival><pickID>de.gempa.tb1.Pick/20250411142910.561014.118149</pickID><phase>P</phase><azimuth>336.4249267578125</azimuth><distance>1.348271369934082</distance><timeResidual>-0.030620574951171875</timeResidual><timeUsed>true</timeUsed><horizontalSlownessUsed>false</horizontalSlownessUsed><backazimuthUsed>false</backazimuthUsed><weight>1</weight></arrival><arrival><pickID>de.gempa.tb1.Pick/20250411142911.473053.118151</pickID><phase>P</phase><azimuth>316.2029113769531</azimuth><distance>1.3281832933425903</distance><timeResidual>0.07983970642089844</timeResidual><timeUsed>true</timeUsed><horizontalSlownessUsed>false</horizontalSlownessUsed><backazimuthUsed>false</backazimuthUsed><weight>1</weight></arrival><arrival><pickID>de.gempa.tb1.Pick/20250411142921.773905.118153</pickID><phase>S</phase><azimuth>286.67694091796875</azimuth><distance>0.8163585066795349</distance><timeResidual>-0.18001747131347656</timeResidual><timeUsed>true</timeUsed><horizontalSlownessUsed>false</horizontalSlownessUsed><backazimuthUsed>false</backazimuthUsed><weight>1</weight></arrival><arrival><pickID>de.gempa.tb1.Pick/20250411142924.667313.118154</pickID><phase>S</phase><azimuth>235.55479431152344</azimuth><distance>0.7409536838531494</distance><timeResidual>0.13418960571289062</timeResidual><timeUsed>true</timeUsed><horizontalSlownessUsed>false</horizontalSlownessUsed><backazimuthUsed>false</backazimuthUsed><weight>1</weight></arrival><arrival><pickID>de.gempa.tb1.Pick/20250411142932.602449.118158</pickID><phase>S</phase><azimuth>316.2029113769531</azimuth><distance>1.3281832933425903</distance><timeResidual>0.12558937072753906</timeResidual><timeUsed>true</timeUsed><horizontalSlownessUsed>false</horizontalSlownessUsed><backazimuthUsed>false</backazimuthUsed><weight>1</weight></arrival><arrival><pickID>de.gempa.tb1.Pick/20250411142933.59533.118161</pickID><phase>S</phase><azimuth>336.4249267578125</azimuth><distance>1.348271369934082</distance><timeResidual>0.025945663452148441</timeResidual><timeUsed>true</timeUsed><horizontalSlownessUsed>false</horizontalSlownessUsed><backazimuthUsed>false</backazimuthUsed><weight>1</weight></arrival><arrival><pickID>de.gempa.tb1.Pick/20250411142939.325036.118162</pickID><phase>P</phase><azimuth>301.39239501953125</azimuth><distance>1.0631380081176758</distance><timeResidual>0.006402969360351562</timeResidual><timeUsed>true</timeUsed><horizontalSlownessUsed>false</horizontalSlownessUsed><backazimuthUsed>false</backazimuthUsed><weight>1</weight></arrival><magnitude publicID="de.gempa.tb1.Magnitude/20250411142945.937657.108689"><magnitude><value>2.1447936179560982</value></magnitude><type>M</type><methodID>weighted average</methodID><stationCount>2</stationCount></magnitude></origin><event publicID="gempa2025hdve"><preferredOriginID>de.gempa.tb1.Origin/20250411142940.203229.57828</preferredOriginID><preferredMagnitudeID>de.gempa.tb1.Magnitude/20250411142945.937657.108689</preferredMagnitudeID><type>mining explosion</type><description><text>Northern Chile</text><type>region name</type></description><originReference>de.gempa.tb1.Origin/20250411142940.203229.57828</originReference></event></EventParameters></seiscomp>