<?xml version="1.0" encoding="UTF-8"?>
<seiscomp xmlns="http://geofon.gfz-potsdam.de/ns/seiscomp3-schema/0.13" version="0.13"><EventParameters><pick publicID="de.gempa.tb1.Pick/20250413074509.49308.129894"><time><value>2025-04-13T07:45:04.738393Z</value></time><waveformID networkCode="CX" stationCode="PB03" channelCode="HHZ"/><filterID>ITAPER(4)&gt;&gt;BW(4,4,20)</filterID><methodID>AIC</methodID><horizontalSlowness><value>21.982148709184393</value></horizontalSlowness><backazimuth><value>86.7654553733105</value></backazimuth><phaseHint>P</phaseHint><evaluationMode>automatic</evaluationMode><comment><text>12.23454139680812</text><id>DFX:rectilinearity</id></comment><comment><text>13.796580481556376</text><id>SNR</id></comment></pick><pick publicID="de.gempa.tb1.Pick/20250413074510.615616.129896"><time><value>2025-04-13T07:45:03.098393Z</value></time><waveformID networkCode="CX" stationCode="PB01" channelCode="HHZ"/><filterID>ITAPER(4)&gt;&gt;BW(4,4,20)</filterID><methodID>AIC</methodID><horizontalSlowness><value>22.97827695575197</value></horizontalSlowness><backazimuth><value>193.64901135021086</value></backazimuth><phaseHint>P</phaseHint><evaluationMode>automatic</evaluationMode><comment><text>9.985052397747458</text><id>DFX:rectilinearity</id></comment><comment><text>7.626095662423559</text><id>SNR</id></comment></pick><pick publicID="de.gempa.tb1.Pick/20250413074511.480736.129898"><time><value>2025-04-13T07:45:05.428393Z</value></time><waveformID networkCode="CX" stationCode="PB02" channelCode="HHZ"/><filterID>ITAPER(4)&gt;&gt;BW(4,4,20)</filterID><methodID>AIC</methodID><horizontalSlowness><value>6.443647824285957</value></horizontalSlowness><backazimuth><value>43.27483524625481</value></backazimuth><phaseHint>P</phaseHint><evaluationMode>automatic</evaluationMode><comment><text>26.384196495706437</text><id>DFX:rectilinearity</id></comment><comment><text>10.701060623777842</text><id>SNR</id></comment></pick><pick publicID="de.gempa.tb1.Pick/20250413074516.172935.129900"><time><value>2025-04-13T07:44:59.81Z</value></time><waveformID networkCode="CX" stationCode="PB09" channelCode="HHZ"/><filterID>ITAPER(4)&gt;&gt;BW(4,4,20)</filterID><methodID>AIC</methodID><horizontalSlowness><value>13.98994979522669</value></horizontalSlowness><backazimuth><value>304.77196522377375</value></backazimuth><phaseHint>P</phaseHint><evaluationMode>automatic</evaluationMode><comment><text>13.623296887041432</text><id>DFX:rectilinearity</id></comment><comment><text>19.13646397850626</text><id>SNR</id></comment></pick><pick publicID="de.gempa.tb1.Pick/20250413074517.589502.129902"><time><value>2025-04-13T07:45:05.018393Z</value></time><waveformID networkCode="CX" stationCode="PB07" channelCode="HHZ"/><filterID>ITAPER(4)&gt;&gt;BW(4,4,20)</filterID><methodID>AIC</methodID><horizontalSlowness><value>21.739564862326962</value></horizontalSlowness><backazimuth><value>24.415238911338946</value></backazimuth><phaseHint>P</phaseHint><evaluationMode>automatic</evaluationMode><comment><text>370.159204440013</text><id>DFX:rectilinearity</id></comment><comment><text>27.90292520514379</text><id>SNR</id></comment></pick><pick publicID="de.gempa.tb1.Pick/20250413074524.767238.129904"><time><value>2025-04-13T07:45:17.198393Z</value></time><waveformID networkCode="CX" stationCode="PB01" channelCode="HHN"/><filterID>ITAPER(2)&gt;&gt;BW(3,3,20)</filterID><methodID>L2-AIC-GRID</methodID><horizontalSlowness><value>23.1453695480081</value></horizontalSlowness><backazimuth><value>215.67638581214158</value></backazimuth><phaseHint>S</phaseHint><evaluationMode>automatic</evaluationMode><comment><text>12.570338732300312</text><id>DFX:rectilinearity</id></comment><comment><text>de.gempa.tb1.Pick/20250413074510.615616.129896</text><id>RefPickID</id></comment><comment><text>8.003176392603493</text><id>SNR</id></comment></pick><pick publicID="de.gempa.tb1.Pick/20250413074527.567994.129905"><time><value>2025-04-13T07:45:21.518393Z</value></time><waveformID networkCode="CX" stationCode="PB02" channelCode="HHN"/><filterID>ITAPER(2)&gt;&gt;BW(3,3,20)</filterID><methodID>L2-AIC-GRID</methodID><horizontalSlowness><value>20.126947838264986</value></horizontalSlowness><backazimuth><value>92.36590627250088</value></backazimuth><phaseHint>S</phaseHint><evaluationMode>automatic</evaluationMode><comment><text>57.6438585067656</text><id>DFX:rectilinearity</id></comment><comment><text>de.gempa.tb1.Pick/20250413074511.480736.129898</text><id>RefPickID</id></comment><comment><text>5.193968628053345</text><id>SNR</id></comment></pick><pick publicID="de.gempa.tb1.Pick/20250413074527.804161.129906"><time><value>2025-04-13T07:45:21.178393Z</value></time><waveformID networkCode="CX" stationCode="PB07" channelCode="HHN"/><filterID>ITAPER(2)&gt;&gt;BW(3,3,20)</filterID><methodID>L2-AIC-GRID</methodID><horizontalSlowness><value>23.12656234894668</value></horizontalSlowness><backazimuth><value>351.3395383649504</value></backazimuth><phaseHint>S</phaseHint><evaluationMode>automatic</evaluationMode><comment><text>1787.8512375064074</text><id>DFX:rectilinearity</id></comment><comment><text>de.gempa.tb1.Pick/20250413074517.589502.129902</text><id>RefPickID</id></comment><comment><text>6.12066343146827</text><id>SNR</id></comment></pick><pick publicID="de.gempa.tb1.Pick/20250413074529.530543.129907"><time><value>2025-04-13T07:45:20.788393Z</value></time><waveformID networkCode="CX" stationCode="PB03" channelCode="HHN"/><filterID>ITAPER(2)&gt;&gt;BW(3,3,20)</filterID><methodID>L2-AIC-GRID</methodID><horizontalSlowness><value>19.220777195470138</value></horizontalSlowness><backazimuth><value>180.1676103225811</value></backazimuth><phaseHint>S</phaseHint><evaluationMode>automatic</evaluationMode><comment><text>48.4803361892211</text><id>DFX:rectilinearity</id></comment><comment><text>de.gempa.tb1.Pick/20250413074509.49308.129894</text><id>RefPickID</id></comment><comment><text>11.763205644972716</text><id>SNR</id></comment></pick><pick publicID="de.gempa.tb1.Pick/20250413074531.871154.129908"><time><value>2025-04-13T07:45:12.19Z</value></time><waveformID networkCode="CX" stationCode="PB09" channelCode="HHN"/><filterID>ITAPER(2)&gt;&gt;BW(3,3,20)</filterID><methodID>L2-AIC-GRID</methodID><horizontalSlowness><value>20.0905094693926</value></horizontalSlowness><backazimuth><value>294.8479675396645</value></backazimuth><phaseHint>S</phaseHint><evaluationMode>automatic</evaluationMode><comment><text>231.40401840859656</text><id>DFX:rectilinearity</id></comment><comment><text>de.gempa.tb1.Pick/20250413074516.172935.129900</text><id>RefPickID</id></comment><comment><text>7.172075396855487</text><id>SNR</id></comment></pick><origin publicID="de.gempa.tb1.Origin/20250413074531.882131.104856"><time><value>2025-04-13T07:44:44.208966Z</value><uncertainty>1.1611438989639282</uncertainty></time><latitude><value>-21.560489654541016</value><uncertainty>5.832519054412842</uncertainty></latitude><longitude><value>-68.79570770263672</value><uncertainty>8.765772819519043</uncertainty></longitude><depth><value>101.28437042236328</value><uncertainty>9.14097785949707</uncertainty></depth><depthType>from location</depthType><methodID>LOCSAT</methodID><earthModelID>iasp91_scanloc</earthModelID><quality><associatedPhaseCount>10</associatedPhaseCount><usedPhaseCount>10</usedPhaseCount><associatedStationCount>5</associatedStationCount><usedStationCount>5</usedStationCount><depthPhaseCount>0</depthPhaseCount><standardError>0.1157865353518052</standardError><azimuthalGap>291.9619598388672</azimuthalGap><maximumDistance>1.0527114868164062</maximumDistance><minimumDistance>0.4768144190311432</minimumDistance><medianDistance>1.0136057138442993</medianDistance></quality><uncertainty><minHorizontalUncertainty>12.497742652893066</minHorizontalUncertainty><maxHorizontalUncertainty>18.80059051513672</maxHorizontalUncertainty><azimuthMaxHorizontalUncertainty>88.16375732421875</azimuthMaxHorizontalUncertainty><preferredDescription>horizontal uncertainty</preferredDescription></uncertainty><evaluationMode>automatic</evaluationMode><evaluationStatus>confirmed</evaluationStatus><comment><text>0.00</text><id>mismatchScore</id></comment><comment><text>mismatchScore</text><id>scevalMethod</id></comment><arrival><pickID>de.gempa.tb1.Pick/20250413074509.49308.129894</pickID><phase>P</phase><azimuth>241.1980895996094</azimuth><distance>1.0136057138442993</distance><timeResidual>-0.1304187774658203</timeResidual><timeUsed>true</timeUsed><horizontalSlownessUsed>false</horizontalSlownessUsed><backazimuthUsed>false</backazimuthUsed><weight>1</weight></arrival><arrival><pickID>de.gempa.tb1.Pick/20250413074510.615616.129896</pickID><phase>P</phase><azimuth>308.4641418457031</azimuth><distance>0.8251908421516418</distance><timeResidual>0.17554092407226562</timeResidual><timeUsed>true</timeUsed><horizontalSlownessUsed>false</horizontalSlownessUsed><backazimuthUsed>false</backazimuthUsed><weight>1</weight></arrival><arrival><pickID>de.gempa.tb1.Pick/20250413074511.480736.129898</pickID><phase>P</phase><azimuth>282.95416259765625</azimuth><distance>1.0527114868164062</distance><timeResidual>0.12930679321289062</timeResidual><timeUsed>true</timeUsed><horizontalSlownessUsed>false</horizontalSlownessUsed><backazimuthUsed>false</backazimuthUsed><weight>1</weight></arrival><arrival><pickID>de.gempa.tb1.Pick/20250413074516.172935.129900</pickID><phase>P</phase><azimuth>240.4261016845703</azimuth><distance>0.4768144190311432</distance><timeResidual>-0.15143585205078125</timeResidual><timeUsed>true</timeUsed><horizontalSlownessUsed>false</horizontalSlownessUsed><backazimuthUsed>false</backazimuthUsed><weight>1</weight></arrival><arrival><pickID>de.gempa.tb1.Pick/20250413074517.589502.129902</pickID><phase>P</phase><azimuth>260.54241943359375</azimuth><distance>1.0278950929641724</distance><timeResidual>-0.00724029541015625</timeResidual><timeUsed>true</timeUsed><horizontalSlownessUsed>false</horizontalSlownessUsed><backazimuthUsed>false</backazimuthUsed><weight>1</weight></arrival><arrival><pickID>de.gempa.tb1.Pick/20250413074524.767238.129904</pickID><phase>S</phase><azimuth>308.4641418457031</azimuth><distance>0.8251908421516418</distance><timeResidual>-0.1414661407470703</timeResidual><timeUsed>true</timeUsed><horizontalSlownessUsed>false</horizontalSlownessUsed><backazimuthUsed>false</backazimuthUsed><weight>1</weight></arrival><arrival><pickID>de.gempa.tb1.Pick/20250413074527.567994.129905</pickID><phase>S</phase><azimuth>282.95416259765625</azimuth><distance>1.0527114868164062</distance><timeResidual>-0.05997276306152344</timeResidual><timeUsed>true</timeUsed><horizontalSlownessUsed>false</horizontalSlownessUsed><backazimuthUsed>false</backazimuthUsed><weight>1</weight></arrival><arrival><pickID>de.gempa.tb1.Pick/20250413074527.804161.129906</pickID><phase>S</phase><azimuth>260.54241943359375</azimuth><distance>1.0278950929641724</distance><timeResidual>0.08739280700683594</timeResidual><timeUsed>true</timeUsed><horizontalSlownessUsed>false</horizontalSlownessUsed><backazimuthUsed>false</backazimuthUsed><weight>1</weight></arrival><arrival><pickID>de.gempa.tb1.Pick/20250413074529.530543.129907</pickID><phase>S</phase><azimuth>241.1980895996094</azimuth><distance>1.0136057138442993</distance><timeResidual>-0.02326011657714844</timeResidual><timeUsed>true</timeUsed><horizontalSlownessUsed>false</horizontalSlownessUsed><backazimuthUsed>false</backazimuthUsed><weight>1</weight></arrival><arrival><pickID>de.gempa.tb1.Pick/20250413074531.871154.129908</pickID><phase>S</phase><azimuth>240.4261016845703</azimuth><distance>0.4768144190311432</distance><timeResidual>0.12144184112548828</timeResidual><timeUsed>true</timeUsed><horizontalSlownessUsed>false</horizontalSlownessUsed><backazimuthUsed>false</backazimuthUsed><weight>1</weight></arrival><magnitude publicID="de.gempa.tb1.Magnitude/20250413074557.971923.329337"><magnitude><value>2.4540669667151906</value></magnitude><type>M</type><methodID>weighted average</methodID><stationCount>5</stationCount></magnitude></origin><event publicID="gempa2025hgzs"><preferredOriginID>de.gempa.tb1.Origin/20250413074531.882131.104856</preferredOriginID><preferredMagnitudeID>de.gempa.tb1.Magnitude/20250413074557.971923.329337</preferredMagnitudeID><description><text>Chile-Bolivia Border Region</text><type>region name</type></description><originReference>de.gempa.tb1.Origin/20250413074531.882131.104856</originReference></event></EventParameters></seiscomp>