<?xml version="1.0" encoding="UTF-8"?>
<seiscomp xmlns="http://geofon.gfz-potsdam.de/ns/seiscomp3-schema/0.13" version="0.13"><EventParameters><pick publicID="de.gempa.tb1.Pick/20250412130120.605632.159336"><time><value>2025-04-12T13:01:17.28Z</value></time><waveformID networkCode="CH" stationCode="ZUR" channelCode="HHZ"/><filterID>ITAPER(4)&gt;&gt;BW(4,4,20)</filterID><methodID>AIC</methodID><phaseHint>P</phaseHint><evaluationMode>automatic</evaluationMode></pick><pick publicID="de.gempa.tb1.Pick/20250412130125.148879.159340"><time><value>2025-04-12T13:01:18.965001Z</value></time><waveformID networkCode="CH" stationCode="SLE" channelCode="HHZ"/><filterID>ITAPER(4)&gt;&gt;BW(4,4,20)</filterID><methodID>AIC</methodID><phaseHint>P</phaseHint><evaluationMode>automatic</evaluationMode></pick><pick publicID="de.gempa.tb1.Pick/20250412130126.796786.159344"><time><value>2025-04-12T13:01:23.715Z</value></time><waveformID networkCode="CH" stationCode="GRYON" channelCode="HHZ"/><filterID>ITAPER(4)&gt;&gt;BW(4,4,20)</filterID><methodID>AIC</methodID><phaseHint>P</phaseHint><evaluationMode>automatic</evaluationMode></pick><pick publicID="de.gempa.tb1.Pick/20250412130126.855788.159346"><time><value>2025-04-12T13:01:21.37Z</value></time><waveformID networkCode="CH" stationCode="MUGIO" channelCode="HHZ"/><filterID>ITAPER(4)&gt;&gt;BW(4,4,20)</filterID><methodID>AIC</methodID><phaseHint>P</phaseHint><evaluationMode>automatic</evaluationMode></pick><pick publicID="de.gempa.tb1.Pick/20250412130127.121933.159348"><time><value>2025-04-12T13:01:24.310001Z</value></time><waveformID networkCode="CH" stationCode="BOURR" channelCode="HHZ"/><filterID>ITAPER(4)&gt;&gt;BW(4,4,20)</filterID><methodID>AIC</methodID><phaseHint>P</phaseHint><evaluationMode>automatic</evaluationMode></pick><pick publicID="de.gempa.tb1.Pick/20250412130127.216861.159350"><time><value>2025-04-12T13:01:21.03Z</value></time><waveformID networkCode="CH" stationCode="ROTHE" channelCode="HHZ"/><filterID>ITAPER(4)&gt;&gt;BW(4,4,20)</filterID><methodID>AIC</methodID><phaseHint>P</phaseHint><evaluationMode>automatic</evaluationMode></pick><origin publicID="de.gempa.tb1.Origin/20250412130127.220452.102060"><time><value>2025-04-12T13:01:00.030866Z</value><uncertainty>4.813784599304199</uncertainty></time><latitude><value>46.87608337402344</value><uncertainty>10.28738021850586</uncertainty></latitude><longitude><value>8.843582153320312</value><uncertainty>14.682517051696777</uncertainty></longitude><depth><value>104.74711608886719</value><uncertainty>53.41238403320312</uncertainty></depth><depthType>from location</depthType><methodID>LOCSAT</methodID><earthModelID>iasp91</earthModelID><quality><associatedPhaseCount>6</associatedPhaseCount><usedPhaseCount>6</usedPhaseCount><associatedStationCount>6</associatedStationCount><usedStationCount>6</usedStationCount><depthPhaseCount>0</depthPhaseCount><standardError>1.0062948265812408</standardError><azimuthalGap>186.67391967773438</azimuthalGap><maximumDistance>1.3492515087127686</maximumDistance><minimumDistance>0.5249625444412231</minimumDistance><medianDistance>0.9643082022666931</medianDistance></quality><uncertainty><minHorizontalUncertainty>18.577743530273438</minHorizontalUncertainty><maxHorizontalUncertainty>33.674560546875</maxHorizontalUncertainty><azimuthMaxHorizontalUncertainty>64.90491485595703</azimuthMaxHorizontalUncertainty><preferredDescription>horizontal uncertainty</preferredDescription></uncertainty><evaluationMode>automatic</evaluationMode><evaluationStatus>rejected</evaluationStatus><comment><text>0.95</text><id>mismatchScore</id></comment><comment><text>mismatchScore</text><id>scevalMethod</id></comment><arrival><pickID>de.gempa.tb1.Pick/20250412130120.605632.159336</pickID><phase>P</phase><azimuth>340.11370849609375</azimuth><distance>0.5249625444412231</distance><timeResidual>-0.4875755310058594</timeResidual><timeUsed>true</timeUsed><horizontalSlownessUsed>false</horizontalSlownessUsed><backazimuthUsed>false</backazimuthUsed><weight>1</weight></arrival><arrival><pickID>de.gempa.tb1.Pick/20250412130125.148879.159340</pickID><phase>P</phase><azimuth>345.0815124511719</azimuth><distance>0.92043536901474</distance><timeResidual>-1.3059043884277344</timeResidual><timeUsed>true</timeUsed><horizontalSlownessUsed>false</horizontalSlownessUsed><backazimuthUsed>false</backazimuthUsed><weight>1</weight></arrival><arrival><pickID>de.gempa.tb1.Pick/20250412130126.796786.159344</pickID><phase>P</phase><azimuth>242.998046875</azimuth><distance>1.3492515087127686</distance><timeResidual>-1.1220149993896484</timeResidual><timeUsed>true</timeUsed><horizontalSlownessUsed>false</horizontalSlownessUsed><backazimuthUsed>false</backazimuthUsed><weight>1</weight></arrival><arrival><pickID>de.gempa.tb1.Pick/20250412130126.855788.159346</pickID><phase>P</phase><azimuth>171.75543212890625</azimuth><distance>0.9643082022666931</distance><timeResidual>0.8077125549316406</timeResidual><timeUsed>true</timeUsed><horizontalSlownessUsed>false</horizontalSlownessUsed><backazimuthUsed>false</backazimuthUsed><weight>1</weight></arrival><arrival><pickID>de.gempa.tb1.Pick/20250412130127.121933.159348</pickID><phase>P</phase><azimuth>295.7709045410156</azimuth><distance>1.2171694040298462</distance><timeResidual>1.0293254852294922</timeResidual><timeUsed>true</timeUsed><horizontalSlownessUsed>false</horizontalSlownessUsed><backazimuthUsed>false</backazimuthUsed><weight>1</weight></arrival><arrival><pickID>de.gempa.tb1.Pick/20250412130127.216861.159350</pickID><phase>P</phase><azimuth>313.9808044433594</azimuth><distance>0.8698050379753113</distance><timeResidual>1.0778827667236328</timeResidual><timeUsed>true</timeUsed><horizontalSlownessUsed>false</horizontalSlownessUsed><backazimuthUsed>false</backazimuthUsed><weight>1</weight></arrival><magnitude publicID="de.gempa.tb1.Magnitude/20250412130207.941802.228301"><magnitude><value>1.6403993917958015</value></magnitude><type>M</type><methodID>weighted average</methodID><stationCount>4</stationCount></magnitude></origin><event publicID="gempa2025hfog"><preferredOriginID>de.gempa.tb1.Origin/20250412130127.220452.102060</preferredOriginID><preferredMagnitudeID>de.gempa.tb1.Magnitude/20250412130207.941802.228301</preferredMagnitudeID><type>not existing</type><typeCertainty>suspected</typeCertainty><description><text>Switzerland</text><type>region name</type></description><originReference>de.gempa.tb1.Origin/20250412130127.220452.102060</originReference></event></EventParameters></seiscomp>