<?xml version="1.0" encoding="UTF-8"?>
<seiscomp xmlns="http://geofon.gfz-potsdam.de/ns/seiscomp3-schema/0.13" version="0.13"><EventParameters><pick publicID="de.gempa.tb1.Pick/20250415011428.971342.142583"><time><value>2025-04-15T01:14:24.228393Z</value></time><waveformID networkCode="CX" stationCode="PB03" channelCode="HHZ"/><filterID>ITAPER(4)&gt;&gt;BW(4,4,20)</filterID><methodID>AIC</methodID><horizontalSlowness><value>8.804481244973109</value></horizontalSlowness><backazimuth><value>154.75508056772608</value></backazimuth><phaseHint>P</phaseHint><evaluationMode>automatic</evaluationMode><comment><text>26.97329092485677</text><id>DFX:rectilinearity</id></comment><comment><text>95.0112939285996</text><id>SNR</id></comment></pick><pick publicID="de.gempa.tb1.Pick/20250415011429.744219.142585"><time><value>2025-04-15T01:14:23.778393Z</value></time><waveformID networkCode="CX" stationCode="PB06" channelCode="HHZ"/><filterID>ITAPER(4)&gt;&gt;BW(4,4,20)</filterID><methodID>AIC</methodID><horizontalSlowness><value>3.4459532441776743</value></horizontalSlowness><backazimuth><value>84.85843100315051</value></backazimuth><phaseHint>P</phaseHint><evaluationMode>automatic</evaluationMode><comment><text>259.3683845188516</text><id>DFX:rectilinearity</id></comment><comment><text>116.4465729334247</text><id>SNR</id></comment></pick><pick publicID="de.gempa.tb1.Pick/20250415011432.906571.142587"><time><value>2025-04-15T01:14:26.99Z</value></time><waveformID networkCode="CX" stationCode="PB09" channelCode="HHZ"/><filterID>ITAPER(4)&gt;&gt;BW(4,4,20)</filterID><methodID>AIC</methodID><horizontalSlowness><value>20.127760670464365</value></horizontalSlowness><backazimuth><value>133.23833355362558</value></backazimuth><phaseHint>P</phaseHint><evaluationMode>automatic</evaluationMode><comment><text>56.56904361908387</text><id>DFX:rectilinearity</id></comment><comment><text>389.11035644565794</text><id>SNR</id></comment></pick><pick publicID="de.gempa.tb1.Pick/20250415011434.897903.142589"><time><value>2025-04-15T01:14:29.248393Z</value></time><waveformID networkCode="CX" stationCode="PB15" channelCode="HHZ"/><filterID>ITAPER(4)&gt;&gt;BW(4,4,20)</filterID><methodID>AIC</methodID><horizontalSlowness><value>20.928144677934608</value></horizontalSlowness><backazimuth><value>81.29845315023616</value></backazimuth><phaseHint>P</phaseHint><evaluationMode>automatic</evaluationMode><comment><text>1167.0559069213282</text><id>DFX:rectilinearity</id></comment><comment><text>31.27161938529069</text><id>SNR</id></comment></pick><pick publicID="de.gempa.tb1.Pick/20250415011438.580155.142591"><time><value>2025-04-15T01:14:32.468393Z</value></time><waveformID networkCode="CX" stationCode="PB02" channelCode="HHZ"/><filterID>ITAPER(4)&gt;&gt;BW(4,4,20)</filterID><methodID>AIC</methodID><horizontalSlowness><value>18.638799166499968</value></horizontalSlowness><backazimuth><value>294.3104122847438</value></backazimuth><phaseHint>P</phaseHint><evaluationMode>automatic</evaluationMode><comment><text>23.51840452587802</text><id>DFX:rectilinearity</id></comment><comment><text>45.89591417023308</text><id>SNR</id></comment></pick><pick publicID="de.gempa.tb1.Pick/20250415011439.640044.142593"><time><value>2025-04-15T01:14:35.408391Z</value></time><waveformID networkCode="CX" stationCode="PB01" channelCode="HHZ"/><filterID>ITAPER(4)&gt;&gt;BW(4,4,20)</filterID><methodID>AIC</methodID><horizontalSlowness><value>22.24486250187235</value></horizontalSlowness><backazimuth><value>228.60001206495713</value></backazimuth><phaseHint>P</phaseHint><evaluationMode>automatic</evaluationMode><comment><text>12.369757169015362</text><id>DFX:rectilinearity</id></comment><comment><text>57.44148011577806</text><id>SNR</id></comment></pick><pick publicID="de.gempa.tb1.Pick/20250415011439.648166.142595"><time><value>2025-04-15T01:14:27.588393Z</value></time><waveformID networkCode="CX" stationCode="PB07" channelCode="HHZ"/><filterID>ITAPER(4)&gt;&gt;BW(4,4,20)</filterID><methodID>AIC</methodID><horizontalSlowness><value>21.152373292663274</value></horizontalSlowness><backazimuth><value>121.81090469531793</value></backazimuth><phaseHint>P</phaseHint><evaluationMode>automatic</evaluationMode><comment><text>265.69858333766894</text><id>DFX:rectilinearity</id></comment><comment><text>143.19373127742472</text><id>SNR</id></comment></pick><pick publicID="de.gempa.tb1.Pick/20250415011440.918824.142597"><time><value>2025-04-15T01:14:33.578393Z</value></time><waveformID networkCode="CX" stationCode="PB03" channelCode="HHN"/><filterID>ITAPER(2)&gt;&gt;BW(3,3,20)</filterID><methodID>L2-AIC-GRID</methodID><horizontalSlowness><value>17.909126160164572</value></horizontalSlowness><backazimuth><value>265.03702661091637</value></backazimuth><phaseHint>S</phaseHint><evaluationMode>automatic</evaluationMode><comment><text>2319.349704432607</text><id>DFX:rectilinearity</id></comment><comment><text>de.gempa.tb1.Pick/20250415011428.971342.142583</text><id>RefPickID</id></comment><comment><text>13.04530642751575</text><id>SNR</id></comment></pick><pick publicID="de.gempa.tb1.Pick/20250415011441.744871.142598"><time><value>2025-04-15T01:14:32.638393Z</value></time><waveformID networkCode="CX" stationCode="PB06" channelCode="HHN"/><filterID>ITAPER(2)&gt;&gt;BW(3,3,20)</filterID><methodID>L2-AIC-GRID</methodID><horizontalSlowness><value>20.72928272348621</value></horizontalSlowness><backazimuth><value>234.46105610247523</value></backazimuth><phaseHint>S</phaseHint><evaluationMode>automatic</evaluationMode><comment><text>10336.696942182887</text><id>DFX:rectilinearity</id></comment><comment><text>de.gempa.tb1.Pick/20250415011429.744219.142585</text><id>RefPickID</id></comment><comment><text>19.518744227325804</text><id>SNR</id></comment></pick><pick publicID="de.gempa.tb1.Pick/20250415011445.181795.142599"><time><value>2025-04-15T01:14:37.340001Z</value></time><waveformID networkCode="CX" stationCode="PB10" channelCode="HHZ"/><filterID>ITAPER(4)&gt;&gt;BW(4,4,20)</filterID><methodID>AIC</methodID><horizontalSlowness><value>3.0197308241565235</value></horizontalSlowness><backazimuth><value>352.77142626135765</value></backazimuth><phaseHint>P</phaseHint><evaluationMode>automatic</evaluationMode><comment><text>129.87039753863667</text><id>DFX:rectilinearity</id></comment><comment><text>20.241665674268742</text><id>SNR</id></comment></pick><pick publicID="de.gempa.tb1.Pick/20250415011446.657558.142601"><time><value>2025-04-15T01:14:39.010001Z</value></time><waveformID networkCode="CX" stationCode="PB19" channelCode="HHZ"/><filterID>ITAPER(4)&gt;&gt;BW(4,4,20)</filterID><methodID>AIC</methodID><horizontalSlowness><value>15.449260747746772</value></horizontalSlowness><backazimuth><value>227.5110109663194</value></backazimuth><phaseHint>P</phaseHint><evaluationMode>automatic</evaluationMode><comment><text>22.9389617660269</text><id>DFX:rectilinearity</id></comment><comment><text>19.948777376929435</text><id>SNR</id></comment></pick><pick publicID="de.gempa.tb1.Pick/20250415011447.858092.142603"><time><value>2025-04-15T01:14:41.978393Z</value></time><waveformID networkCode="CX" stationCode="PB15" channelCode="HHN"/><filterID>ITAPER(2)&gt;&gt;BW(3,3,20)</filterID><methodID>L2-AIC-GRID</methodID><horizontalSlowness><value>20.6614328001226</value></horizontalSlowness><backazimuth><value>52.76314371757279</value></backazimuth><phaseHint>S</phaseHint><evaluationMode>automatic</evaluationMode><comment><text>46315.94188384236</text><id>DFX:rectilinearity</id></comment><comment><text>de.gempa.tb1.Pick/20250415011434.897903.142589</text><id>RefPickID</id></comment><comment><text>10.629241719278625</text><id>SNR</id></comment></pick><pick publicID="de.gempa.tb1.Pick/20250415011453.55248.142604"><time><value>2025-04-15T01:14:47.988393Z</value></time><waveformID networkCode="CX" stationCode="PB02" channelCode="HHN"/><filterID>ITAPER(2)&gt;&gt;BW(3,3,20)</filterID><methodID>L2-AIC-GRID</methodID><horizontalSlowness><value>11.344307029356093</value></horizontalSlowness><backazimuth><value>60.08636167789545</value></backazimuth><phaseHint>S</phaseHint><evaluationMode>automatic</evaluationMode><comment><text>2771.340206853103</text><id>DFX:rectilinearity</id></comment><comment><text>de.gempa.tb1.Pick/20250415011438.580155.142591</text><id>RefPickID</id></comment><comment><text>8.803206137140943</text><id>SNR</id></comment></pick><pick publicID="de.gempa.tb1.Pick/20250415011506.708783.142610"><time><value>2025-04-15T01:14:53.208391Z</value></time><waveformID networkCode="CX" stationCode="PB01" channelCode="HHN"/><filterID>ITAPER(2)&gt;&gt;BW(3,3,20)</filterID><methodID>L2-AIC-GRID</methodID><horizontalSlowness><value>18.831864751510587</value></horizontalSlowness><backazimuth><value>54.04646058746162</value></backazimuth><phaseHint>S</phaseHint><evaluationMode>automatic</evaluationMode><comment><text>2011.5525825360553</text><id>DFX:rectilinearity</id></comment><comment><text>de.gempa.tb1.Pick/20250415011439.640044.142593</text><id>RefPickID</id></comment><comment><text>14.194301780317193</text><id>SNR</id></comment></pick><pick publicID="de.gempa.tb1.Pick/20250415011509.835682.142612"><time><value>2025-04-15T01:14:59.820001Z</value></time><waveformID networkCode="CX" stationCode="PB19" channelCode="HHN"/><filterID>ITAPER(2)&gt;&gt;BW(3,3,20)</filterID><methodID>L2-AIC-GRID</methodID><horizontalSlowness><value>20.747157722498173</value></horizontalSlowness><backazimuth><value>170.7420327640528</value></backazimuth><phaseHint>S</phaseHint><evaluationMode>automatic</evaluationMode><comment><text>449.51466365068984</text><id>DFX:rectilinearity</id></comment><comment><text>de.gempa.tb1.Pick/20250415011446.657558.142601</text><id>RefPickID</id></comment><comment><text>8.886484050812237</text><id>SNR</id></comment></pick><origin publicID="de.gempa.tb1.Origin/20250415011509.839747.157128"><time><value>2025-04-15T01:14:13.189985Z</value><uncertainty>0.5022028684616089</uncertainty></time><latitude><value>-22.363365173339844</value><uncertainty>2.0273544788360596</uncertainty></latitude><longitude><value>-69.57328796386719</value><uncertainty>7.731063365936279</uncertainty></longitude><depth><value>67.10576629638672</value><uncertainty>5.575928211212158</uncertainty></depth><depthType>from location</depthType><methodID>LOCSAT</methodID><earthModelID>iasp91_scanloc</earthModelID><quality><associatedPhaseCount>15</associatedPhaseCount><usedPhaseCount>15</usedPhaseCount><associatedStationCount>9</associatedStationCount><usedStationCount>9</usedStationCount><depthPhaseCount>0</depthPhaseCount><standardError>0.44735758820210086</standardError><azimuthalGap>141.79059600830078</azimuthalGap><maximumDistance>1.5561585426330566</maximumDistance><minimumDistance>0.34081196784973145</minimumDistance><medianDistance>0.8462873697280884</medianDistance></quality><uncertainty><minHorizontalUncertainty>3.996001720428467</minHorizontalUncertainty><maxHorizontalUncertainty>16.662832260131836</maxHorizontalUncertainty><azimuthMaxHorizontalUncertainty>83.93203735351562</azimuthMaxHorizontalUncertainty><preferredDescription>horizontal uncertainty</preferredDescription></uncertainty><evaluationMode>automatic</evaluationMode><evaluationStatus>confirmed</evaluationStatus><comment><text>0.00</text><id>mismatchScore</id></comment><comment><text>mismatchScore</text><id>scevalMethod</id></comment><arrival><pickID>de.gempa.tb1.Pick/20250415011428.971342.142583</pickID><phase>P</phase><azimuth>331.9657897949219</azimuth><distance>0.35493138432502747</distance><timeResidual>-0.2456941604614258</timeResidual><timeUsed>true</timeUsed><horizontalSlownessUsed>false</horizontalSlownessUsed><backazimuthUsed>false</backazimuthUsed><weight>1</weight></arrival><arrival><pickID>de.gempa.tb1.Pick/20250415011429.744219.142585</pickID><phase>P</phase><azimuth>179.7808837890625</azimuth><distance>0.34081196784973145</distance><timeResidual>-0.5824260711669922</timeResidual><timeUsed>true</timeUsed><horizontalSlownessUsed>false</horizontalSlownessUsed><backazimuthUsed>false</backazimuthUsed><weight>1</weight></arrival><arrival><pickID>de.gempa.tb1.Pick/20250415011432.906571.142587</pickID><phase>P</phase><azimuth>28.639671325683594</azimuth><distance>0.6425332427024841</distance><timeResidual>-0.2780113220214844</timeResidual><timeUsed>true</timeUsed><horizontalSlownessUsed>false</horizontalSlownessUsed><backazimuthUsed>false</backazimuthUsed><weight>1</weight></arrival><arrival><pickID>de.gempa.tb1.Pick/20250415011434.897903.142589</pickID><phase>P</phase><azimuth>173.6099853515625</azimuth><distance>0.8462873697280884</distance><timeResidual>-0.3896188735961914</timeResidual><timeUsed>true</timeUsed><horizontalSlownessUsed>false</horizontalSlownessUsed><backazimuthUsed>false</backazimuthUsed><weight>1</weight></arrival><arrival><pickID>de.gempa.tb1.Pick/20250415011438.580155.142591</pickID><phase>P</phase><azimuth>343.8359069824219</azimuth><distance>1.0809835195541382</distance><timeResidual>-0.11490249633789062</timeResidual><timeUsed>true</timeUsed><horizontalSlownessUsed>false</horizontalSlownessUsed><backazimuthUsed>false</backazimuthUsed><weight>1</weight></arrival><arrival><pickID>de.gempa.tb1.Pick/20250415011439.640044.142593</pickID><phase>P</phase><azimuth>3.4953062534332275</azimuth><distance>1.316121220588684</distance><timeResidual>-0.2308158874511719</timeResidual><timeUsed>true</timeUsed><horizontalSlownessUsed>false</horizontalSlownessUsed><backazimuthUsed>false</backazimuthUsed><weight>1</weight></arrival><arrival><pickID>de.gempa.tb1.Pick/20250415011439.648166.142595</pickID><phase>P</phase><azimuth>335.32720947265625</azimuth><distance>0.6969542503356934</distance><timeResidual>-0.29157161712646484</timeResidual><timeUsed>true</timeUsed><horizontalSlownessUsed>false</horizontalSlownessUsed><backazimuthUsed>false</backazimuthUsed><weight>1</weight></arrival><arrival><pickID>de.gempa.tb1.Pick/20250415011440.918824.142597</pickID><phase>S</phase><azimuth>331.9657897949219</azimuth><distance>0.35493138432502747</distance><timeResidual>0.5503692626953125</timeResidual><timeUsed>true</timeUsed><horizontalSlownessUsed>false</horizontalSlownessUsed><backazimuthUsed>false</backazimuthUsed><weight>1</weight></arrival><arrival><pickID>de.gempa.tb1.Pick/20250415011441.744871.142598</pickID><phase>S</phase><azimuth>179.7808837890625</azimuth><distance>0.34081196784973145</distance><timeResidual>-0.18950271606445312</timeResidual><timeUsed>true</timeUsed><horizontalSlownessUsed>false</horizontalSlownessUsed><backazimuthUsed>false</backazimuthUsed><weight>1</weight></arrival><arrival><pickID>de.gempa.tb1.Pick/20250415011445.181795.142599</pickID><phase>P</phase><azimuth>218.11512756347656</azimuth><distance>1.4586800336837769</distance><timeResidual>-0.16990375518798828</timeResidual><timeUsed>true</timeUsed><horizontalSlownessUsed>false</horizontalSlownessUsed><backazimuthUsed>false</backazimuthUsed><weight>1</weight></arrival><arrival><pickID>de.gempa.tb1.Pick/20250415011446.657558.142601</pickID><phase>P</phase><azimuth>170.43026733398438</azimuth><distance>1.5561585426330566</distance><timeResidual>0.2056112289428711</timeResidual><timeUsed>true</timeUsed><horizontalSlownessUsed>false</horizontalSlownessUsed><backazimuthUsed>false</backazimuthUsed><weight>1</weight></arrival><arrival><pickID>de.gempa.tb1.Pick/20250415011447.858092.142603</pickID><phase>S</phase><azimuth>173.6099853515625</azimuth><distance>0.8462873697280884</distance><timeResidual>-0.23244762420654297</timeResidual><timeUsed>true</timeUsed><horizontalSlownessUsed>false</horizontalSlownessUsed><backazimuthUsed>false</backazimuthUsed><weight>1</weight></arrival><arrival><pickID>de.gempa.tb1.Pick/20250415011453.55248.142604</pickID><phase>S</phase><azimuth>343.8359069824219</azimuth><distance>1.0809835195541382</distance><timeResidual>0.5141630172729492</timeResidual><timeUsed>true</timeUsed><horizontalSlownessUsed>false</horizontalSlownessUsed><backazimuthUsed>false</backazimuthUsed><weight>1</weight></arrival><arrival><pickID>de.gempa.tb1.Pick/20250415011506.708783.142610</pickID><phase>S</phase><azimuth>3.4953062534332275</azimuth><distance>1.316121220588684</distance><timeResidual>0.26090335845947266</timeResidual><timeUsed>true</timeUsed><horizontalSlownessUsed>false</horizontalSlownessUsed><backazimuthUsed>false</backazimuthUsed><weight>1</weight></arrival><arrival><pickID>de.gempa.tb1.Pick/20250415011509.835682.142612</pickID><phase>S</phase><azimuth>170.43026733398438</azimuth><distance>1.5561585426330566</distance><timeResidual>1.193873405456543</timeResidual><timeUsed>true</timeUsed><horizontalSlownessUsed>false</horizontalSlownessUsed><backazimuthUsed>false</backazimuthUsed><weight>1</weight></arrival><magnitude publicID="de.gempa.tb1.Magnitude/20250415011515.94024.557814"><magnitude><value>2.4175575667432097</value></magnitude><type>M</type><methodID>weighted average</methodID><stationCount>7</stationCount></magnitude></origin><event publicID="gempa2025hket"><preferredOriginID>de.gempa.tb1.Origin/20250415011509.839747.157128</preferredOriginID><preferredMagnitudeID>de.gempa.tb1.Magnitude/20250415011515.94024.557814</preferredMagnitudeID><description><text>Northern Chile</text><type>region name</type></description><originReference>de.gempa.tb1.Origin/20250415011509.839747.157128</originReference></event></EventParameters></seiscomp>