<?xml version="1.0" encoding="UTF-8"?>
<seiscomp xmlns="http://geofon.gfz-potsdam.de/ns/seiscomp3-schema/0.13" version="0.13"><EventParameters><pick publicID="de.gempa.tb1.Pick/20250412202313.560787.126578"><time><value>2025-04-12T20:23:08.258393Z</value></time><waveformID networkCode="CX" stationCode="PB01" channelCode="HHZ"/><filterID>ITAPER(4)&gt;&gt;BW(4,4,20)</filterID><methodID>AIC</methodID><horizontalSlowness><value>23.06337498866642</value></horizontalSlowness><backazimuth><value>168.50876252041655</value></backazimuth><phaseHint>P</phaseHint><evaluationMode>automatic</evaluationMode><comment><text>12.970347237783471</text><id>DFX:rectilinearity</id></comment><comment><text>25.8983650425996</text><id>SNR</id></comment></pick><pick publicID="de.gempa.tb1.Pick/20250412202320.52827.126580"><time><value>2025-04-12T20:23:14.338394Z</value></time><waveformID networkCode="CX" stationCode="PB03" channelCode="HHZ"/><filterID>ITAPER(4)&gt;&gt;BW(4,4,20)</filterID><methodID>AIC</methodID><horizontalSlowness><value>4.928116108991154</value></horizontalSlowness><backazimuth><value>27.70512643367138</value></backazimuth><phaseHint>P</phaseHint><evaluationMode>automatic</evaluationMode><comment><text>11.030459823559449</text><id>DFX:rectilinearity</id></comment><comment><text>11.621483972960569</text><id>SNR</id></comment></pick><pick publicID="de.gempa.tb1.Pick/20250412202320.605697.126582"><time><value>2025-04-12T20:23:11.958394Z</value></time><waveformID networkCode="CX" stationCode="PB02" channelCode="HHZ"/><filterID>ITAPER(4)&gt;&gt;BW(4,4,20)</filterID><methodID>AIC</methodID><horizontalSlowness><value>8.734196626873725</value></horizontalSlowness><backazimuth><value>53.64869168721334</value></backazimuth><phaseHint>P</phaseHint><evaluationMode>automatic</evaluationMode><comment><text>19.50204684024024</text><id>DFX:rectilinearity</id></comment><comment><text>20.523094491868612</text><id>SNR</id></comment></pick><pick publicID="de.gempa.tb1.Pick/20250412202320.706615.126584"><time><value>2025-04-12T20:23:13.058393Z</value></time><waveformID networkCode="CX" stationCode="PB07" channelCode="HHZ"/><filterID>ITAPER(4)&gt;&gt;BW(4,4,20)</filterID><methodID>AIC</methodID><horizontalSlowness><value>21.114972894717745</value></horizontalSlowness><backazimuth><value>20.02211746380351</value></backazimuth><phaseHint>P</phaseHint><evaluationMode>automatic</evaluationMode><comment><text>443.77472926259873</text><id>DFX:rectilinearity</id></comment><comment><text>14.497922862500264</text><id>SNR</id></comment></pick><pick publicID="de.gempa.tb1.Pick/20250412202327.531268.126586"><time><value>2025-04-12T20:23:09.92Z</value></time><waveformID networkCode="CX" stationCode="PB09" channelCode="HHZ"/><filterID>ITAPER(4)&gt;&gt;BW(4,4,20)</filterID><methodID>AIC</methodID><horizontalSlowness><value>14.18788740666056</value></horizontalSlowness><backazimuth><value>282.5969309844915</value></backazimuth><phaseHint>P</phaseHint><evaluationMode>automatic</evaluationMode><comment><text>16.690267774159036</text><id>DFX:rectilinearity</id></comment><comment><text>23.228938967645043</text><id>SNR</id></comment></pick><pick publicID="de.gempa.tb1.Pick/20250412202329.587759.126588"><time><value>2025-04-12T20:23:21.488393Z</value></time><waveformID networkCode="CX" stationCode="PB01" channelCode="HHN"/><filterID>ITAPER(2)&gt;&gt;BW(3,3,20)</filterID><methodID>L2-AIC-GRID</methodID><horizontalSlowness><value>23.07686533032175</value></horizontalSlowness><backazimuth><value>11.254478332672392</value></backazimuth><phaseHint>S</phaseHint><evaluationMode>automatic</evaluationMode><comment><text>130.20828667850563</text><id>DFX:rectilinearity</id></comment><comment><text>de.gempa.tb1.Pick/20250412202313.560787.126578</text><id>RefPickID</id></comment><comment><text>11.86917080694409</text><id>SNR</id></comment></pick><pick publicID="de.gempa.tb1.Pick/20250412202333.629298.126589"><time><value>2025-04-12T20:23:27.568394Z</value></time><waveformID networkCode="CX" stationCode="PB02" channelCode="HHN"/><filterID>ITAPER(2)&gt;&gt;BW(3,3,20)</filterID><methodID>L2-AIC-GRID</methodID><horizontalSlowness><value>21.553067612958284</value></horizontalSlowness><backazimuth><value>62.16450871927769</value></backazimuth><phaseHint>S</phaseHint><evaluationMode>automatic</evaluationMode><comment><text>460.6260377155441</text><id>DFX:rectilinearity</id></comment><comment><text>de.gempa.tb1.Pick/20250412202320.605697.126582</text><id>RefPickID</id></comment><comment><text>10.301815390853296</text><id>SNR</id></comment></pick><pick publicID="de.gempa.tb1.Pick/20250412202336.779769.126590"><time><value>2025-04-12T20:23:30.108393Z</value></time><waveformID networkCode="CX" stationCode="PB07" channelCode="HHN"/><filterID>ITAPER(2)&gt;&gt;BW(3,3,20)</filterID><methodID>L2-AIC-GRID</methodID><horizontalSlowness><value>22.051350483101888</value></horizontalSlowness><backazimuth><value>104.13733267639803</value></backazimuth><phaseHint>S</phaseHint><evaluationMode>automatic</evaluationMode><comment><text>981.7364188807118</text><id>DFX:rectilinearity</id></comment><comment><text>de.gempa.tb1.Pick/20250412202320.706615.126584</text><id>RefPickID</id></comment><comment><text>7.889750493073632</text><id>SNR</id></comment></pick><pick publicID="de.gempa.tb1.Pick/20250412202339.611113.126591"><time><value>2025-04-12T20:23:31.758394Z</value></time><waveformID networkCode="CX" stationCode="PB03" channelCode="HHN"/><filterID>ITAPER(2)&gt;&gt;BW(3,3,20)</filterID><methodID>L2-AIC-GRID</methodID><horizontalSlowness><value>22.86891347253897</value></horizontalSlowness><backazimuth><value>292.29826167966166</value></backazimuth><phaseHint>S</phaseHint><evaluationMode>automatic</evaluationMode><comment><text>20.466161480762906</text><id>DFX:rectilinearity</id></comment><comment><text>de.gempa.tb1.Pick/20250412202320.52827.126580</text><id>RefPickID</id></comment><comment><text>16.519991634546603</text><id>SNR</id></comment></pick><origin publicID="de.gempa.tb1.Origin/20250412202339.61556.91624"><time><value>2025-04-12T20:22:51.541331Z</value><uncertainty>1.2611521482467651</uncertainty></time><latitude><value>-21.173288345336914</value><uncertainty>7.402300834655762</uncertainty></latitude><longitude><value>-68.9153060913086</value><uncertainty>12.28547191619873</uncertainty></longitude><depth><value>107.56702423095703</value><uncertainty>13.323118209838867</uncertainty></depth><depthType>from location</depthType><methodID>LOCSAT</methodID><earthModelID>iasp91_scanloc</earthModelID><quality><associatedPhaseCount>9</associatedPhaseCount><usedPhaseCount>9</usedPhaseCount><associatedStationCount>5</associatedStationCount><usedStationCount>5</usedStationCount><depthPhaseCount>0</depthPhaseCount><standardError>0.1923693634335656</standardError><azimuthalGap>282.5576477050781</azimuthalGap><maximumDistance>1.1688591241836548</maximumDistance><minimumDistance>0.5496184825897217</minimumDistance><medianDistance>0.9263931512832642</medianDistance></quality><uncertainty><minHorizontalUncertainty>14.389766693115234</minHorizontalUncertainty><maxHorizontalUncertainty>27.18197250366211</maxHorizontalUncertainty><azimuthMaxHorizontalUncertainty>106.88741302490234</azimuthMaxHorizontalUncertainty><preferredDescription>horizontal uncertainty</preferredDescription></uncertainty><evaluationMode>automatic</evaluationMode><evaluationStatus>confirmed</evaluationStatus><comment><text>0.00</text><id>mismatchScore</id></comment><comment><text>mismatchScore</text><id>scevalMethod</id></comment><arrival><pickID>de.gempa.tb1.Pick/20250412202313.560787.126578</pickID><phase>P</phase><azimuth>283.5160217285156</azimuth><distance>0.5496184825897217</distance><timeResidual>-0.23680686950683594</timeResidual><timeUsed>true</timeUsed><horizontalSlownessUsed>false</horizontalSlownessUsed><backazimuthUsed>false</backazimuthUsed><weight>1</weight></arrival><arrival><pickID>de.gempa.tb1.Pick/20250412202320.52827.126580</pickID><phase>P</phase><azimuth>221.6814727783203</azimuth><distance>1.1688591241836548</distance><timeResidual>-0.04961204528808594</timeResidual><timeUsed>true</timeUsed><horizontalSlownessUsed>false</horizontalSlownessUsed><backazimuthUsed>false</backazimuthUsed><weight>1</weight></arrival><arrival><pickID>de.gempa.tb1.Pick/20250412202320.605697.126582</pickID><phase>P</phase><azimuth>260.77362060546875</azimuth><distance>0.9263931512832642</distance><timeResidual>0.14365196228027344</timeResidual><timeUsed>true</timeUsed><horizontalSlownessUsed>false</horizontalSlownessUsed><backazimuthUsed>false</backazimuthUsed><weight>1</weight></arrival><arrival><pickID>de.gempa.tb1.Pick/20250412202320.706615.126584</pickID><phase>P</phase><azimuth>238.4893035888672</azimuth><distance>1.0588732957839966</distance><timeResidual>-0.1308765411376953</timeResidual><timeUsed>true</timeUsed><horizontalSlownessUsed>false</horizontalSlownessUsed><backazimuthUsed>false</backazimuthUsed><weight>1</weight></arrival><arrival><pickID>de.gempa.tb1.Pick/20250412202327.531268.126586</pickID><phase>P</phase><azimuth>206.07366943359375</azimuth><distance>0.6906284689903259</distance><timeResidual>0.3112621307373047</timeResidual><timeUsed>true</timeUsed><horizontalSlownessUsed>false</horizontalSlownessUsed><backazimuthUsed>false</backazimuthUsed><weight>1</weight></arrival><arrival><pickID>de.gempa.tb1.Pick/20250412202329.587759.126588</pickID><phase>S</phase><azimuth>283.5160217285156</azimuth><distance>0.5496184825897217</distance><timeResidual>-0.05493736267089844</timeResidual><timeUsed>true</timeUsed><horizontalSlownessUsed>false</horizontalSlownessUsed><backazimuthUsed>false</backazimuthUsed><weight>1</weight></arrival><arrival><pickID>de.gempa.tb1.Pick/20250412202333.629298.126589</pickID><phase>S</phase><azimuth>260.77362060546875</azimuth><distance>0.9263931512832642</distance><timeResidual>0.11103248596191406</timeResidual><timeUsed>true</timeUsed><horizontalSlownessUsed>false</horizontalSlownessUsed><backazimuthUsed>false</backazimuthUsed><weight>1</weight></arrival><arrival><pickID>de.gempa.tb1.Pick/20250412202336.779769.126590</pickID><phase>S</phase><azimuth>238.4893035888672</azimuth><distance>1.0588732957839966</distance><timeResidual>0.19832229614257812</timeResidual><timeUsed>true</timeUsed><horizontalSlownessUsed>false</horizontalSlownessUsed><backazimuthUsed>false</backazimuthUsed><weight>1</weight></arrival><arrival><pickID>de.gempa.tb1.Pick/20250412202339.611113.126591</pickID><phase>S</phase><azimuth>221.6814727783203</azimuth><distance>1.1688591241836548</distance><timeResidual>-0.2918701171875</timeResidual><timeUsed>true</timeUsed><horizontalSlownessUsed>false</horizontalSlownessUsed><backazimuthUsed>false</backazimuthUsed><weight>1</weight></arrival><magnitude publicID="de.gempa.tb1.Magnitude/20250412202345.937434.279198"><magnitude><value>2.3880854991569884</value></magnitude><type>M</type><methodID>weighted average</methodID><stationCount>4</stationCount></magnitude></origin><event publicID="gempa2025hgda"><preferredOriginID>de.gempa.tb1.Origin/20250412202339.61556.91624</preferredOriginID><preferredMagnitudeID>de.gempa.tb1.Magnitude/20250412202345.937434.279198</preferredMagnitudeID><description><text>Chile-Bolivia Border Region</text><type>region name</type></description><originReference>de.gempa.tb1.Origin/20250412202339.61556.91624</originReference></event></EventParameters></seiscomp>