<?xml version="1.0" encoding="UTF-8"?>
<seiscomp xmlns="http://geofon.gfz-potsdam.de/ns/seiscomp3-schema/0.13" version="0.13"><EventParameters><pick publicID="de.gempa.tb1.Pick/20250415074020.12913.119860"><time><value>2025-04-15T07:40:18.21Z</value></time><waveformID networkCode="CH" stationCode="FIESA" channelCode="HHZ"/><filterID>ITAPER(4)&gt;&gt;BW(4,4,20)</filterID><methodID>AIC</methodID><phaseHint>P</phaseHint><evaluationMode>automatic</evaluationMode></pick><pick publicID="de.gempa.tb1.Pick/20250415074021.146022.119862"><time><value>2025-04-15T07:40:18.135Z</value></time><waveformID networkCode="CH" stationCode="FUSIO" channelCode="HHZ"/><filterID>ITAPER(4)&gt;&gt;BW(4,4,20)</filterID><methodID>AIC</methodID><phaseHint>P</phaseHint><evaluationMode>automatic</evaluationMode></pick><pick publicID="de.gempa.tb1.Pick/20250415074023.110401.119864"><time><value>2025-04-15T07:40:18.838393Z</value></time><waveformID networkCode="CH" stationCode="GRIMS" channelCode="HHZ"/><filterID>ITAPER(4)&gt;&gt;BW(4,4,20)</filterID><methodID>AIC</methodID><phaseHint>P</phaseHint><evaluationMode>automatic</evaluationMode></pick><pick publicID="de.gempa.tb1.Pick/20250415074024.084105.119868"><time><value>2025-04-15T07:40:20.8Z</value></time><waveformID networkCode="CH" stationCode="NALPS" channelCode="HHZ"/><filterID>ITAPER(4)&gt;&gt;BW(4,4,20)</filterID><methodID>AIC</methodID><phaseHint>P</phaseHint><evaluationMode>automatic</evaluationMode></pick><pick publicID="de.gempa.tb1.Pick/20250415074027.162112.119872"><time><value>2025-04-15T07:40:24.195001Z</value></time><waveformID networkCode="CH" stationCode="BNALP" channelCode="HHZ"/><filterID>ITAPER(4)&gt;&gt;BW(4,4,20)</filterID><methodID>AIC</methodID><phaseHint>P</phaseHint><evaluationMode>automatic</evaluationMode></pick><origin publicID="de.gempa.tb1.Origin/20250415074027.163833.56684"><time><value>2025-04-15T07:40:13.472212Z</value><uncertainty>5.219951152801514</uncertainty></time><latitude><value>46.32063293457031</value><uncertainty>17.6959171295166</uncertainty></latitude><longitude><value>8.39803409576416</value><uncertainty>4.411094665527344</uncertainty></longitude><depth><value>1.9839670658111572</value><uncertainty>35.01342010498047</uncertainty></depth><depthType>from location</depthType><methodID>LOCSAT</methodID><earthModelID>iasp91</earthModelID><quality><associatedPhaseCount>5</associatedPhaseCount><usedPhaseCount>5</usedPhaseCount><associatedStationCount>5</associatedStationCount><usedStationCount>5</usedStationCount><depthPhaseCount>0</depthPhaseCount><standardError>0.02304705373510487</standardError><azimuthalGap>246.33485412597656</azimuthalGap><maximumDistance>0.5503660440444946</maximumDistance><minimumDistance>0.2274155467748642</minimumDistance><medianDistance>0.26334860920906067</medianDistance></quality><uncertainty><minHorizontalUncertainty>9.457846641540527</minHorizontalUncertainty><maxHorizontalUncertainty>37.95271301269531</maxHorizontalUncertainty><azimuthMaxHorizontalUncertainty>0.3416404128074646</azimuthMaxHorizontalUncertainty><preferredDescription>horizontal uncertainty</preferredDescription></uncertainty><evaluationMode>automatic</evaluationMode><arrival><pickID>de.gempa.tb1.Pick/20250415074020.12913.119860</pickID><phase>P</phase><azimuth>300.041259765625</azimuth><distance>0.2297736257314682</distance><timeResidual>0.002968311309814453</timeResidual><timeUsed>true</timeUsed><horizontalSlownessUsed>false</horizontalSlownessUsed><backazimuthUsed>false</backazimuthUsed><weight>1</weight></arrival><arrival><pickID>de.gempa.tb1.Pick/20250415074021.146022.119862</pickID><phase>P</phase><azimuth>53.70640563964844</azimuth><distance>0.2274155467748642</distance><timeResidual>-0.0278167724609375</timeResidual><timeUsed>true</timeUsed><horizontalSlownessUsed>false</horizontalSlownessUsed><backazimuthUsed>false</backazimuthUsed><weight>1</weight></arrival><arrival><pickID>de.gempa.tb1.Pick/20250415074023.110401.119864</pickID><phase>P</phase><azimuth>348.0315246582031</azimuth><distance>0.26334860920906067</distance><timeResidual>0.0026311874389648442</timeResidual><timeUsed>true</timeUsed><horizontalSlownessUsed>false</horizontalSlownessUsed><backazimuthUsed>false</backazimuthUsed><weight>1</weight></arrival><arrival><pickID>de.gempa.tb1.Pick/20250415074024.084105.119868</pickID><phase>P</phase><azimuth>41.28067398071289</azimuth><distance>0.36608386039733887</distance><timeResidual>0.03959512710571289</timeResidual><timeUsed>true</timeUsed><horizontalSlownessUsed>false</horizontalSlownessUsed><backazimuthUsed>false</backazimuthUsed><weight>1</weight></arrival><arrival><pickID>de.gempa.tb1.Pick/20250415074027.162112.119872</pickID><phase>P</phase><azimuth>1.927891731262207</azimuth><distance>0.5503660440444946</distance><timeResidual>-0.017278671264648438</timeResidual><timeUsed>true</timeUsed><horizontalSlownessUsed>false</horizontalSlownessUsed><backazimuthUsed>false</backazimuthUsed><weight>1</weight></arrival><magnitude publicID="de.gempa.tb1.Magnitude/20250415074058.191445.105362"><magnitude><value>1.609923325354152</value></magnitude><type>M</type><methodID>weighted average</methodID><stationCount>5</stationCount></magnitude></origin><event publicID="gempa2025hkrq"><preferredOriginID>de.gempa.tb1.Origin/20250415074027.163833.56684</preferredOriginID><preferredMagnitudeID>de.gempa.tb1.Magnitude/20250415074058.191445.105362</preferredMagnitudeID><description><text>Switzerland</text><type>region name</type></description><originReference>de.gempa.tb1.Origin/20250415074027.163833.56684</originReference></event></EventParameters></seiscomp>