<?xml version="1.0" encoding="UTF-8"?>
<seiscomp xmlns="http://geofon.gfz-potsdam.de/ns/seiscomp3-schema/0.13" version="0.13"><EventParameters><pick publicID="de.gempa.tb1.Pick/20250414041648.2458.135632"><time><value>2025-04-14T04:16:35.780001Z</value></time><waveformID networkCode="CX" stationCode="PB09" channelCode="HHZ"/><filterID>ITAPER(4)&gt;&gt;BW(4,4,20)</filterID><methodID>AIC</methodID><horizontalSlowness><value>13.184454890293358</value></horizontalSlowness><backazimuth><value>271.8974433875296</value></backazimuth><phaseHint>P</phaseHint><evaluationMode>automatic</evaluationMode><comment><text>8.540121974529805</text><id>DFX:rectilinearity</id></comment><comment><text>6.95208360825616</text><id>SNR</id></comment></pick><pick publicID="de.gempa.tb1.Pick/20250414041650.949841.135634"><time><value>2025-04-14T04:16:40.928393Z</value></time><waveformID networkCode="CX" stationCode="PB07" channelCode="HHZ"/><filterID>ITAPER(4)&gt;&gt;BW(4,4,20)</filterID><methodID>AIC</methodID><horizontalSlowness><value>20.407791573292336</value></horizontalSlowness><backazimuth><value>269.0040150767338</value></backazimuth><phaseHint>P</phaseHint><evaluationMode>automatic</evaluationMode><comment><text>189.28835635155482</text><id>DFX:rectilinearity</id></comment><comment><text>10.361326285026228</text><id>SNR</id></comment></pick><pick publicID="de.gempa.tb1.Pick/20250414041700.866577.135636"><time><value>2025-04-14T04:16:54.208393Z</value></time><waveformID networkCode="CX" stationCode="PB15" channelCode="HHZ"/><filterID>ITAPER(4)&gt;&gt;BW(4,4,20)</filterID><methodID>AIC</methodID><horizontalSlowness><value>19.41271352704031</value></horizontalSlowness><backazimuth><value>128.28952185110214</value></backazimuth><phaseHint>P</phaseHint><evaluationMode>automatic</evaluationMode><comment><text>384.11499700846224</text><id>DFX:rectilinearity</id></comment><comment><text>7.515642446229493</text><id>SNR</id></comment></pick><pick publicID="de.gempa.tb1.Pick/20250414041706.464582.135640"><time><value>2025-04-14T04:17:01.270001Z</value></time><waveformID networkCode="CX" stationCode="PB19" channelCode="HHZ"/><filterID>ITAPER(4)&gt;&gt;BW(4,4,20)</filterID><methodID>AIC</methodID><horizontalSlowness><value>21.856194608845932</value></horizontalSlowness><backazimuth><value>72.04169549653862</value></backazimuth><phaseHint>P</phaseHint><evaluationMode>automatic</evaluationMode><comment><text>21.619509019926504</text><id>DFX:rectilinearity</id></comment><comment><text>7.211987141404664</text><id>SNR</id></comment></pick><origin publicID="de.gempa.tb1.Origin/20250414041710.518713.126956"><time><value>2025-04-14T04:15:44.188967Z</value><uncertainty>16.692399978637695</uncertainty></time><latitude><value>-19.21759796142578</value><uncertainty>113.98155212402344</uncertainty></latitude><longitude><value>-67.16423034667969</value><uncertainty>79.38763427734375</uncertainty></longitude><depth><value>0</value></depth><depthType>operator assigned</depthType><methodID>LOCSAT</methodID><earthModelID>iasp91_scanloc</earthModelID><quality><associatedPhaseCount>4</associatedPhaseCount><usedPhaseCount>4</usedPhaseCount><associatedStationCount>4</associatedStationCount><usedStationCount>4</usedStationCount><depthPhaseCount>0</depthPhaseCount><standardError>0.23464134946776563</standardError><azimuthalGap>337.4474792480469</azimuthalGap><maximumDistance>5.066546440124512</maximumDistance><minimumDistance>3.221057653427124</minimumDistance><medianDistance>4.516429424285889</medianDistance></quality><uncertainty><minHorizontalUncertainty>54.22419357299805</minHorizontalUncertainty><maxHorizontalUncertainty>292.9304504394531</maxHorizontalUncertainty><azimuthMaxHorizontalUncertainty>34.10183334350586</azimuthMaxHorizontalUncertainty><preferredDescription>horizontal uncertainty</preferredDescription></uncertainty><evaluationMode>automatic</evaluationMode><arrival><pickID>de.gempa.tb1.Pick/20250414041648.2458.135632</pickID><phase>P</phase><azimuth>216.84524536132812</azimuth><distance>3.221057653427124</distance><timeResidual>-0.26416015625</timeResidual><timeUsed>true</timeUsed><horizontalSlownessUsed>false</horizontalSlownessUsed><backazimuthUsed>false</backazimuthUsed><weight>1</weight></arrival><arrival><pickID>de.gempa.tb1.Pick/20250414041650.949841.135634</pickID><phase>P</phase><azimuth>225.16709899902344</azimuth><distance>3.569800615310669</distance><timeResidual>0.08483505249023438</timeResidual><timeUsed>true</timeUsed><horizontalSlownessUsed>false</horizontalSlownessUsed><backazimuthUsed>false</backazimuthUsed><weight>1</weight></arrival><arrival><pickID>de.gempa.tb1.Pick/20250414041700.866577.135636</pickID><phase>P</phase><azimuth>208.05052185058594</azimuth><distance>4.516429424285889</distance><timeResidual>0.34173583984375</timeResidual><timeUsed>true</timeUsed><horizontalSlownessUsed>false</horizontalSlownessUsed><backazimuthUsed>false</backazimuthUsed><weight>1</weight></arrival><arrival><pickID>de.gempa.tb1.Pick/20250414041706.464582.135640</pickID><phase>P</phase><azimuth>202.6145782470703</azimuth><distance>5.066546440124512</distance><timeResidual>-0.16268157958984375</timeResidual><timeUsed>true</timeUsed><horizontalSlownessUsed>false</horizontalSlownessUsed><backazimuthUsed>false</backazimuthUsed><weight>1</weight></arrival><magnitude publicID="de.gempa.tb1.Magnitude/20250414041912.334555.428043"><magnitude><value>3.732195573119508</value></magnitude><type>M</type><methodID>weighted average</methodID><stationCount>4</stationCount></magnitude></origin><event publicID="gempa2025hiou"><preferredOriginID>de.gempa.tb1.Origin/20250414041710.518713.126956</preferredOriginID><preferredMagnitudeID>de.gempa.tb1.Magnitude/20250414041912.334555.428043</preferredMagnitudeID><typeCertainty>suspected</typeCertainty><description><text>Southern Bolivia</text><type>region name</type></description><originReference>de.gempa.tb1.Origin/20250414041710.518713.126956</originReference></event></EventParameters></seiscomp>