<?xml version="1.0" encoding="UTF-8"?>
<seiscomp xmlns="http://geofon.gfz-potsdam.de/ns/seiscomp3-schema/0.13" version="0.13"><EventParameters><pick publicID="de.gempa.tb1.Pick/20250412094521.151672.150833"><time><value>2025-04-12T09:45:16.995Z</value></time><waveformID networkCode="CH" stationCode="BNALP" channelCode="HHZ"/><filterID>ITAPER(4)&gt;&gt;BW(4,4,20)</filterID><methodID>AIC</methodID><phaseHint>P</phaseHint><evaluationMode>automatic</evaluationMode></pick><pick publicID="de.gempa.tb1.Pick/20250412094524.737092.150839"><time><value>2025-04-12T09:45:20.875Z</value></time><waveformID networkCode="CH" stationCode="ZUR" channelCode="HHZ"/><filterID>ITAPER(4)&gt;&gt;BW(4,4,20)</filterID><methodID>AIC</methodID><phaseHint>P</phaseHint><evaluationMode>automatic</evaluationMode></pick><pick publicID="de.gempa.tb1.Pick/20250412094526.655976.150841"><time><value>2025-04-12T09:45:22.975Z</value></time><waveformID networkCode="CH" stationCode="ACB" channelCode="HHZ"/><filterID>ITAPER(4)&gt;&gt;BW(4,4,20)</filterID><methodID>AIC</methodID><phaseHint>P</phaseHint><evaluationMode>automatic</evaluationMode></pick><pick publicID="de.gempa.tb1.Pick/20250412094527.155146.150843"><time><value>2025-04-12T09:45:23.51Z</value></time><waveformID networkCode="CH" stationCode="WILA" channelCode="HHZ"/><filterID>ITAPER(4)&gt;&gt;BW(4,4,20)</filterID><methodID>AIC</methodID><phaseHint>P</phaseHint><evaluationMode>automatic</evaluationMode></pick><pick publicID="de.gempa.tb1.Pick/20250412094529.132497.150845"><time><value>2025-04-12T09:45:26.605Z</value></time><waveformID networkCode="CH" stationCode="BOURR" channelCode="HHZ"/><filterID>ITAPER(4)&gt;&gt;BW(4,4,20)</filterID><methodID>AIC</methodID><phaseHint>P</phaseHint><evaluationMode>automatic</evaluationMode></pick><pick publicID="de.gempa.tb1.Pick/20250412094530.136137.150849"><time><value>2025-04-12T09:45:27.75Z</value></time><waveformID networkCode="CH" stationCode="SLE" channelCode="HHZ"/><filterID>ITAPER(4)&gt;&gt;BW(4,4,20)</filterID><methodID>AIC</methodID><phaseHint>P</phaseHint><evaluationMode>automatic</evaluationMode></pick><origin publicID="de.gempa.tb1.Origin/20250412094530.137863.97454"><time><value>2025-04-12T09:45:12.188976Z</value><uncertainty>2.2150909900665283</uncertainty></time><latitude><value>47.02724838256836</value><uncertainty>6.439921855926514</uncertainty></latitude><longitude><value>8.198927879333496</value><uncertainty>5.819381237030029</uncertainty></longitude><depth><value>2.5532853603363037</value><uncertainty>28.850954055786133</uncertainty></depth><depthType>from location</depthType><methodID>LOCSAT</methodID><earthModelID>iasp91</earthModelID><quality><associatedPhaseCount>6</associatedPhaseCount><usedPhaseCount>6</usedPhaseCount><associatedStationCount>6</associatedStationCount><usedStationCount>6</usedStationCount><depthPhaseCount>0</depthPhaseCount><standardError>0.469027314013209</standardError><azimuthalGap>164.12149047851562</azimuthalGap><maximumDistance>0.7641106843948364</maximumDistance><minimumDistance>0.2204236388206482</minimumDistance><medianDistance>0.6192861795425415</medianDistance></quality><uncertainty><minHorizontalUncertainty>10.399606704711914</minHorizontalUncertainty><maxHorizontalUncertainty>15.43978214263916</maxHorizontalUncertainty><azimuthMaxHorizontalUncertainty>142.79307556152344</azimuthMaxHorizontalUncertainty><preferredDescription>horizontal uncertainty</preferredDescription></uncertainty><evaluationMode>automatic</evaluationMode><comment><text>0.60</text><id>mismatchScore</id></comment><arrival><pickID>de.gempa.tb1.Pick/20250412094521.151672.150833</pickID><phase>P</phase><azimuth>135.27243041992188</azimuth><distance>0.2204236388206482</distance><timeResidual>0.18230009078979492</timeResidual><timeUsed>true</timeUsed><horizontalSlownessUsed>false</horizontalSlownessUsed><backazimuthUsed>false</backazimuthUsed><weight>1</weight></arrival><arrival><pickID>de.gempa.tb1.Pick/20250412094524.737092.150839</pickID><phase>P</phase><azimuth>37.14215087890625</azimuth><distance>0.42998939752578735</distance><timeResidual>0.15409374237060547</timeResidual><timeUsed>true</timeUsed><horizontalSlownessUsed>false</horizontalSlownessUsed><backazimuthUsed>false</backazimuthUsed><weight>1</weight></arrival><arrival><pickID>de.gempa.tb1.Pick/20250412094526.655976.150841</pickID><phase>P</phase><azimuth>3.828019142150879</azimuth><distance>0.5618598461151123</distance><timeResidual>-0.20535802841186523</timeResidual><timeUsed>true</timeUsed><horizontalSlownessUsed>false</horizontalSlownessUsed><backazimuthUsed>false</backazimuthUsed><weight>1</weight></arrival><arrival><pickID>de.gempa.tb1.Pick/20250412094527.155146.150843</pickID><phase>P</phase><azimuth>50.99520874023438</azimuth><distance>0.6192861795425415</distance><timeResidual>-0.7419147491455078</timeResidual><timeUsed>true</timeUsed><horizontalSlownessUsed>false</horizontalSlownessUsed><backazimuthUsed>false</backazimuthUsed><weight>1</weight></arrival><arrival><pickID>de.gempa.tb1.Pick/20250412094529.132497.150845</pickID><phase>P</phase><azimuth>299.3939208984375</azimuth><distance>0.7554190754890442</distance><timeResidual>-0.18634605407714844</timeResidual><timeUsed>true</timeUsed><horizontalSlownessUsed>false</horizontalSlownessUsed><backazimuthUsed>false</backazimuthUsed><weight>1</weight></arrival><arrival><pickID>de.gempa.tb1.Pick/20250412094530.136137.150849</pickID><phase>P</phase><azimuth>15.01576805114746</azimuth><distance>0.7641106843948364</distance><timeResidual>0.7972497940063477</timeResidual><timeUsed>true</timeUsed><horizontalSlownessUsed>false</horizontalSlownessUsed><backazimuthUsed>false</backazimuthUsed><weight>1</weight></arrival><magnitude publicID="de.gempa.tb1.Magnitude/20250412094556.250134.206648"><magnitude><value>1.7659506724943774</value></magnitude><type>M</type><methodID>weighted average</methodID><stationCount>5</stationCount></magnitude></origin><event publicID="gempa2025hfhs"><preferredOriginID>de.gempa.tb1.Origin/20250412094530.137863.97454</preferredOriginID><preferredMagnitudeID>de.gempa.tb1.Magnitude/20250412094556.250134.206648</preferredMagnitudeID><description><text>Switzerland</text><type>region name</type></description><originReference>de.gempa.tb1.Origin/20250412094530.137863.97454</originReference></event></EventParameters></seiscomp>