<?xml version="1.0" encoding="UTF-8"?>
<seiscomp xmlns="http://geofon.gfz-potsdam.de/ns/seiscomp3-schema/0.13" version="0.13"><EventParameters><pick publicID="de.gempa.tb1.Pick/20250415051113.779606.143669"><time><value>2025-04-15T05:11:08.268393Z</value></time><waveformID networkCode="CX" stationCode="PB01" channelCode="HHZ"/><filterID>ITAPER(4)&gt;&gt;BW(4,4,20)</filterID><methodID>AIC</methodID><horizontalSlowness><value>15.46266869741315</value></horizontalSlowness><backazimuth><value>4.4638059955431686</value></backazimuth><phaseHint>P</phaseHint><evaluationMode>automatic</evaluationMode><comment><text>38.32005377343251</text><id>DFX:rectilinearity</id></comment><comment><text>168.1157882542145</text><id>SNR</id></comment></pick><pick publicID="de.gempa.tb1.Pick/20250415051117.577202.143671"><time><value>2025-04-15T05:11:12.298393Z</value></time><waveformID networkCode="CX" stationCode="PB02" channelCode="HHZ"/><filterID>ITAPER(4)&gt;&gt;BW(4,4,20)</filterID><methodID>AIC</methodID><horizontalSlowness><value>10.127390817292568</value></horizontalSlowness><backazimuth><value>66.66826287245364</value></backazimuth><phaseHint>P</phaseHint><evaluationMode>automatic</evaluationMode><comment><text>84.71482857702786</text><id>DFX:rectilinearity</id></comment><comment><text>44.481966822831147</text><id>SNR</id></comment></pick><pick publicID="de.gempa.tb1.Pick/20250415051119.635835.143673"><time><value>2025-04-15T05:11:12.478393Z</value></time><waveformID networkCode="CX" stationCode="PB08" channelCode="HHZ"/><filterID>ITAPER(4)&gt;&gt;BW(4,4,20)</filterID><methodID>AIC</methodID><horizontalSlowness><value>15.661354878476242</value></horizontalSlowness><backazimuth><value>212.6378613624885</value></backazimuth><phaseHint>P</phaseHint><evaluationMode>automatic</evaluationMode><comment><text>444.93721036909056</text><id>DFX:rectilinearity</id></comment><comment><text>43.6583969406356</text><id>SNR</id></comment></pick><pick publicID="de.gempa.tb1.Pick/20250415051120.442182.143675"><time><value>2025-04-15T05:11:15.039999Z</value></time><waveformID networkCode="CX" stationCode="PATCX" channelCode="HHZ"/><filterID>ITAPER(4)&gt;&gt;BW(4,4,20)</filterID><methodID>AIC</methodID><horizontalSlowness><value>19.43667995634518</value></horizontalSlowness><backazimuth><value>110.06636025416661</value></backazimuth><phaseHint>P</phaseHint><evaluationMode>automatic</evaluationMode><comment><text>219.3338038742036</text><id>DFX:rectilinearity</id></comment><comment><text>96.30878546015862</text><id>SNR</id></comment></pick><pick publicID="de.gempa.tb1.Pick/20250415051122.677671.143677"><time><value>2025-04-15T05:11:15.038393Z</value></time><waveformID networkCode="CX" stationCode="PB03" channelCode="HHZ"/><filterID>ITAPER(4)&gt;&gt;BW(4,4,20)</filterID><methodID>AIC</methodID><horizontalSlowness><value>11.422847442354206</value></horizontalSlowness><backazimuth><value>54.35394359923433</value></backazimuth><phaseHint>P</phaseHint><evaluationMode>automatic</evaluationMode><comment><text>66.72840362797531</text><id>DFX:rectilinearity</id></comment><comment><text>36.186413365714593</text><id>SNR</id></comment></pick><pick publicID="de.gempa.tb1.Pick/20250415051126.549773.143679"><time><value>2025-04-15T05:11:10.57Z</value></time><waveformID networkCode="CX" stationCode="PB09" channelCode="HHZ"/><filterID>ITAPER(4)&gt;&gt;BW(4,4,20)</filterID><methodID>AIC</methodID><horizontalSlowness><value>14.53381003014667</value></horizontalSlowness><backazimuth><value>52.52343321829228</value></backazimuth><phaseHint>P</phaseHint><evaluationMode>automatic</evaluationMode><comment><text>83.24230126321606</text><id>DFX:rectilinearity</id></comment><comment><text>110.96214760674911</text><id>SNR</id></comment></pick><pick publicID="de.gempa.tb1.Pick/20250415051127.777824.143681"><time><value>2025-04-15T05:11:21.618393Z</value></time><waveformID networkCode="CX" stationCode="PB01" channelCode="HHN"/><filterID>ITAPER(2)&gt;&gt;BW(3,3,20)</filterID><methodID>L2-AIC-GRID</methodID><horizontalSlowness><value>21.161652106891907</value></horizontalSlowness><backazimuth><value>345.9251404991553</value></backazimuth><phaseHint>S</phaseHint><evaluationMode>automatic</evaluationMode><comment><text>4695.574534687774</text><id>DFX:rectilinearity</id></comment><comment><text>de.gempa.tb1.Pick/20250415051113.779606.143669</text><id>RefPickID</id></comment><comment><text>15.960159287946738</text><id>SNR</id></comment></pick><pick publicID="de.gempa.tb1.Pick/20250415051128.623845.143682"><time><value>2025-04-15T05:11:21.378393Z</value></time><waveformID networkCode="CX" stationCode="PB06" channelCode="HHZ"/><filterID>ITAPER(4)&gt;&gt;BW(4,4,20)</filterID><methodID>AIC</methodID><horizontalSlowness><value>7.617375022235545</value></horizontalSlowness><backazimuth><value>15.732929950663447</value></backazimuth><phaseHint>P</phaseHint><evaluationMode>automatic</evaluationMode><comment><text>67.63746107672587</text><id>DFX:rectilinearity</id></comment><comment><text>20.962252153420657</text><id>SNR</id></comment></pick><pick publicID="de.gempa.tb1.Pick/20250415051130.623087.143684"><time><value>2025-04-15T05:11:21.89Z</value></time><waveformID networkCode="CX" stationCode="PSGCX" channelCode="HHZ"/><filterID>ITAPER(4)&gt;&gt;BW(4,4,20)</filterID><methodID>AIC</methodID><horizontalSlowness><value>8.585339187299335</value></horizontalSlowness><backazimuth><value>148.52289367138673</value></backazimuth><phaseHint>P</phaseHint><evaluationMode>automatic</evaluationMode><comment><text>113.03224832777276</text><id>DFX:rectilinearity</id></comment><comment><text>110.4167220936717</text><id>SNR</id></comment></pick><pick publicID="de.gempa.tb1.Pick/20250415051134.510735.143686"><time><value>2025-04-15T05:11:28.848393Z</value></time><waveformID networkCode="CX" stationCode="PB02" channelCode="HHN"/><filterID>ITAPER(2)&gt;&gt;BW(3,3,20)</filterID><methodID>L2-AIC-GRID</methodID><horizontalSlowness><value>12.78395180685694</value></horizontalSlowness><backazimuth><value>292.3505423563014</value></backazimuth><phaseHint>S</phaseHint><evaluationMode>automatic</evaluationMode><comment><text>25572.708361040026</text><id>DFX:rectilinearity</id></comment><comment><text>de.gempa.tb1.Pick/20250415051117.577202.143671</text><id>RefPickID</id></comment><comment><text>11.291967617747288</text><id>SNR</id></comment></pick><pick publicID="de.gempa.tb1.Pick/20250415051140.971722.143687"><time><value>2025-04-15T05:11:26.57Z</value></time><waveformID networkCode="CX" stationCode="PB09" channelCode="HHN"/><filterID>ITAPER(2)&gt;&gt;BW(3,3,20)</filterID><methodID>L2-AIC-GRID</methodID><horizontalSlowness><value>19.517584378353074</value></horizontalSlowness><backazimuth><value>306.88862007509397</value></backazimuth><phaseHint>S</phaseHint><evaluationMode>automatic</evaluationMode><comment><text>2570.218713292175</text><id>DFX:rectilinearity</id></comment><comment><text>de.gempa.tb1.Pick/20250415051126.549773.143679</text><id>RefPickID</id></comment><comment><text>5.342824732432945</text><id>SNR</id></comment></pick><pick publicID="de.gempa.tb1.Pick/20250415051141.452193.143688"><time><value>2025-04-15T05:11:33.569999Z</value></time><waveformID networkCode="CX" stationCode="PATCX" channelCode="HHN"/><filterID>ITAPER(2)&gt;&gt;BW(3,3,20)</filterID><methodID>L2-AIC-GRID</methodID><horizontalSlowness><value>21.14551585132831</value></horizontalSlowness><backazimuth><value>249.80712051455407</value></backazimuth><phaseHint>S</phaseHint><evaluationMode>automatic</evaluationMode><comment><text>7804.153595077777</text><id>DFX:rectilinearity</id></comment><comment><text>de.gempa.tb1.Pick/20250415051120.442182.143675</text><id>RefPickID</id></comment><comment><text>10.577175285958791</text><id>SNR</id></comment></pick><pick publicID="de.gempa.tb1.Pick/20250415051142.580272.143690"><time><value>2025-04-15T05:11:33.638393Z</value></time><waveformID networkCode="CX" stationCode="PB03" channelCode="HHN"/><filterID>ITAPER(2)&gt;&gt;BW(3,3,20)</filterID><methodID>L2-AIC-GRID</methodID><horizontalSlowness><value>18.822282305526809</value></horizontalSlowness><backazimuth><value>175.04796933544483</value></backazimuth><phaseHint>S</phaseHint><evaluationMode>automatic</evaluationMode><comment><text>2441.8243631385117</text><id>DFX:rectilinearity</id></comment><comment><text>de.gempa.tb1.Pick/20250415051122.677671.143677</text><id>RefPickID</id></comment><comment><text>10.691195338238574</text><id>SNR</id></comment></pick><pick publicID="de.gempa.tb1.Pick/20250415051150.658367.143695"><time><value>2025-04-15T05:11:43.888393Z</value></time><waveformID networkCode="CX" stationCode="PB06" channelCode="HHN"/><filterID>ITAPER(2)&gt;&gt;BW(3,3,20)</filterID><methodID>L2-AIC-GRID</methodID><horizontalSlowness><value>22.370538886269138</value></horizontalSlowness><backazimuth><value>127.71725482099222</value></backazimuth><phaseHint>S</phaseHint><evaluationMode>automatic</evaluationMode><comment><text>2530.335893024206</text><id>DFX:rectilinearity</id></comment><comment><text>de.gempa.tb1.Pick/20250415051128.623845.143682</text><id>RefPickID</id></comment><comment><text>15.083424976251692</text><id>SNR</id></comment></pick><pick publicID="de.gempa.tb1.Pick/20250415051209.58516.143701"><time><value>2025-04-15T05:11:13.828393Z</value></time><waveformID networkCode="CX" stationCode="PB07" channelCode="HHZ"/><filterID>ITAPER(4)&gt;&gt;BW(4,4,20)</filterID><methodID>AIC</methodID><horizontalSlowness><value>22.172776625991528</value></horizontalSlowness><backazimuth><value>65.57438254929507</value></backazimuth><phaseHint>P</phaseHint><evaluationMode>automatic</evaluationMode><comment><text>668.14783112381</text><id>DFX:rectilinearity</id></comment><comment><text>56.81597345700512</text><id>SNR</id></comment></pick><pick publicID="de.gempa.tb1.Pick/20250415051216.745704.143705"><time><value>2025-04-15T05:11:31.798393Z</value></time><waveformID networkCode="CX" stationCode="PB07" channelCode="HHN"/><filterID>ITAPER(2)&gt;&gt;BW(3,3,20)</filterID><methodID>L2-AIC-GRID</methodID><horizontalSlowness><value>21.64434778838</value></horizontalSlowness><backazimuth><value>243.7673394793544</value></backazimuth><phaseHint>S</phaseHint><evaluationMode>automatic</evaluationMode><comment><text>8103.169363815857</text><id>DFX:rectilinearity</id></comment><comment><text>de.gempa.tb1.Pick/20250415051209.58516.143701</text><id>RefPickID</id></comment><comment><text>6.443442755003437</text><id>SNR</id></comment></pick><origin publicID="de.gempa.tb1.Origin/20250415051216.750155.161806"><time><value>2025-04-15T05:10:50.872864Z</value><uncertainty>0.7375233769416809</uncertainty></time><latitude><value>-21.07115364074707</value><uncertainty>3.3124146461486816</uncertainty></latitude><longitude><value>-68.8974609375</value><uncertainty>7.090798854827881</uncertainty></longitude><depth><value>115.35845184326172</value><uncertainty>7.53960132598877</uncertainty></depth><depthType>from location</depthType><methodID>LOCSAT</methodID><earthModelID>iasp91_scanloc</earthModelID><quality><associatedPhaseCount>16</associatedPhaseCount><usedPhaseCount>16</usedPhaseCount><associatedStationCount>9</associatedStationCount><usedStationCount>9</usedStationCount><depthPhaseCount>0</depthPhaseCount><standardError>0.43825983012041525</standardError><azimuthalGap>215.5065155029297</azimuthalGap><maximumDistance>1.863671064376831</maximumDistance><minimumDistance>0.5517153143882751</minimumDistance><medianDistance>1.1288905143737793</medianDistance></quality><uncertainty><minHorizontalUncertainty>6.988828659057617</minHorizontalUncertainty><maxHorizontalUncertainty>15.253485679626465</maxHorizontalUncertainty><azimuthMaxHorizontalUncertainty>84.67355346679688</azimuthMaxHorizontalUncertainty><preferredDescription>horizontal uncertainty</preferredDescription></uncertainty><evaluationMode>automatic</evaluationMode><evaluationStatus>confirmed</evaluationStatus><comment><text>0.00</text><id>mismatchScore</id></comment><comment><text>mismatchScore</text><id>scevalMethod</id></comment><arrival><pickID>de.gempa.tb1.Pick/20250415051113.779606.143669</pickID><phase>P</phase><azimuth>272.78125</azimuth><distance>0.5517153143882751</distance><timeResidual>-0.4096660614013672</timeResidual><timeUsed>true</timeUsed><horizontalSlownessUsed>false</horizontalSlownessUsed><backazimuthUsed>false</backazimuthUsed><weight>1</weight></arrival><arrival><pickID>de.gempa.tb1.Pick/20250415051117.577202.143671</pickID><phase>P</phase><azimuth>254.9551239013672</azimuth><distance>0.9640946984291077</distance><timeResidual>0.10527229309082031</timeResidual><timeUsed>true</timeUsed><horizontalSlownessUsed>false</horizontalSlownessUsed><backazimuthUsed>false</backazimuthUsed><weight>1</weight></arrival><arrival><pickID>de.gempa.tb1.Pick/20250415051119.635835.143673</pickID><phase>P</phase><azimuth>345.4288635253906</azimuth><distance>0.955892264842987</distance><timeResidual>0.3595714569091797</timeResidual><timeUsed>true</timeUsed><horizontalSlownessUsed>false</horizontalSlownessUsed><backazimuthUsed>false</backazimuthUsed><weight>1</weight></arrival><arrival><pickID>de.gempa.tb1.Pick/20250415051120.442182.143675</pickID><phase>P</phase><azimuth>281.7655334472656</azimuth><distance>1.1996207237243652</distance><timeResidual>0.3961658477783203</timeResidual><timeUsed>true</timeUsed><horizontalSlownessUsed>false</horizontalSlownessUsed><backazimuthUsed>false</backazimuthUsed><weight>1</weight></arrival><arrival><pickID>de.gempa.tb1.Pick/20250415051122.677671.143677</pickID><phase>P</phase><azimuth>219.1616973876953</azimuth><distance>1.2570513486862183</distance><timeResidual>-0.2292900085449219</timeResidual><timeUsed>true</timeUsed><horizontalSlownessUsed>false</horizontalSlownessUsed><backazimuthUsed>false</backazimuthUsed><weight>1</weight></arrival><arrival><pickID>de.gempa.tb1.Pick/20250415051126.549773.143679</pickID><phase>P</phase><azimuth>203.91250610351562</azimuth><distance>0.7897958755493164</distance><timeResidual>0.011575698852539062</timeResidual><timeUsed>true</timeUsed><horizontalSlownessUsed>false</horizontalSlownessUsed><backazimuthUsed>false</backazimuthUsed><weight>1</weight></arrival><arrival><pickID>de.gempa.tb1.Pick/20250415051127.777824.143681</pickID><phase>S</phase><azimuth>272.78125</azimuth><distance>0.5517153143882751</distance><timeResidual>-0.78143310546875</timeResidual><timeUsed>true</timeUsed><horizontalSlownessUsed>false</horizontalSlownessUsed><backazimuthUsed>false</backazimuthUsed><weight>1</weight></arrival><arrival><pickID>de.gempa.tb1.Pick/20250415051128.623845.143682</pickID><phase>P</phase><azimuth>200.9353790283203</azimuth><distance>1.7431378364562988</distance><timeResidual>0.4293842315673828</timeResidual><timeUsed>true</timeUsed><horizontalSlownessUsed>false</horizontalSlownessUsed><backazimuthUsed>false</backazimuthUsed><weight>1</weight></arrival><arrival><pickID>de.gempa.tb1.Pick/20250415051130.623087.143684</pickID><phase>P</phase><azimuth>321.6799621582031</azimuth><distance>1.863671064376831</distance><timeResidual>-0.5551109313964844</timeResidual><timeUsed>true</timeUsed><horizontalSlownessUsed>false</horizontalSlownessUsed><backazimuthUsed>false</backazimuthUsed><weight>1</weight></arrival><arrival><pickID>de.gempa.tb1.Pick/20250415051134.510735.143686</pickID><phase>S</phase><azimuth>254.9551239013672</azimuth><distance>0.9640946984291077</distance><timeResidual>0.1844482421875</timeResidual><timeUsed>true</timeUsed><horizontalSlownessUsed>false</horizontalSlownessUsed><backazimuthUsed>false</backazimuthUsed><weight>1</weight></arrival><arrival><pickID>de.gempa.tb1.Pick/20250415051140.971722.143687</pickID><phase>S</phase><azimuth>203.91250610351562</azimuth><distance>0.7897958755493164</distance><timeResidual>0.8204154968261719</timeResidual><timeUsed>true</timeUsed><horizontalSlownessUsed>false</horizontalSlownessUsed><backazimuthUsed>false</backazimuthUsed><weight>1</weight></arrival><arrival><pickID>de.gempa.tb1.Pick/20250415051141.452193.143688</pickID><phase>S</phase><azimuth>281.7655334472656</azimuth><distance>1.1996207237243652</distance><timeResidual>0.5326366424560547</timeResidual><timeUsed>true</timeUsed><horizontalSlownessUsed>false</horizontalSlownessUsed><backazimuthUsed>false</backazimuthUsed><weight>1</weight></arrival><arrival><pickID>de.gempa.tb1.Pick/20250415051142.580272.143690</pickID><phase>S</phase><azimuth>219.1616973876953</azimuth><distance>1.2570513486862183</distance><timeResidual>-0.5140171051025391</timeResidual><timeUsed>true</timeUsed><horizontalSlownessUsed>false</horizontalSlownessUsed><backazimuthUsed>false</backazimuthUsed><weight>1</weight></arrival><arrival><pickID>de.gempa.tb1.Pick/20250415051150.658367.143695</pickID><phase>S</phase><azimuth>200.9353790283203</azimuth><distance>1.7431378364562988</distance><timeResidual>-0.42304420471191406</timeResidual><timeUsed>true</timeUsed><horizontalSlownessUsed>false</horizontalSlownessUsed><backazimuthUsed>false</backazimuthUsed><weight>1</weight></arrival><arrival><pickID>de.gempa.tb1.Pick/20250415051209.58516.143701</pickID><phase>P</phase><azimuth>234.52496337890625</azimuth><distance>1.1288905143737793</distance><timeResidual>-0.05120849609375</timeResidual><timeUsed>true</timeUsed><horizontalSlownessUsed>false</horizontalSlownessUsed><backazimuthUsed>false</backazimuthUsed><weight>1</weight></arrival><arrival><pickID>de.gempa.tb1.Pick/20250415051216.745704.143705</pickID><phase>S</phase><azimuth>234.52496337890625</azimuth><distance>1.1288905143737793</distance><timeResidual>0.12461090087890625</timeResidual><timeUsed>true</timeUsed><horizontalSlownessUsed>false</horizontalSlownessUsed><backazimuthUsed>false</backazimuthUsed><weight>1</weight></arrival><magnitude publicID="de.gempa.tb1.Magnitude/20250415051220.939783.574263"><magnitude><value>2.4813523389025494</value></magnitude><type>M</type><methodID>weighted average</methodID><stationCount>7</stationCount></magnitude></origin><event publicID="gempa2025hkmq"><preferredOriginID>de.gempa.tb1.Origin/20250415051216.750155.161806</preferredOriginID><preferredMagnitudeID>de.gempa.tb1.Magnitude/20250415051220.939783.574263</preferredMagnitudeID><description><text>Chile-Bolivia Border Region</text><type>region name</type></description><originReference>de.gempa.tb1.Origin/20250415051216.750155.161806</originReference></event></EventParameters></seiscomp>