<?xml version="1.0" encoding="UTF-8"?>
<seiscomp xmlns="http://geofon.gfz-potsdam.de/ns/seiscomp3-schema/0.13" version="0.13"><EventParameters><pick publicID="de.gempa.tb1.Pick/20250413221502.871898.134049"><time><value>2025-04-13T22:14:56.648393Z</value></time><waveformID networkCode="CX" stationCode="PB15" channelCode="HHZ"/><filterID>ITAPER(4)&gt;&gt;BW(4,4,20)</filterID><methodID>AIC</methodID><horizontalSlowness><value>23.11645811595603</value></horizontalSlowness><backazimuth><value>108.89790336399881</value></backazimuth><phaseHint>P</phaseHint><evaluationMode>automatic</evaluationMode><comment><text>315.42554746698386</text><id>DFX:rectilinearity</id></comment><comment><text>15.215053997438241</text><id>SNR</id></comment></pick><pick publicID="de.gempa.tb1.Pick/20250413221506.780345.134051"><time><value>2025-04-13T22:14:59.890001Z</value></time><waveformID networkCode="CX" stationCode="PB09" channelCode="HHZ"/><filterID>ITAPER(4)&gt;&gt;BW(4,4,20)</filterID><methodID>AIC</methodID><horizontalSlowness><value>13.297821811638876</value></horizontalSlowness><backazimuth><value>107.06223704063592</value></backazimuth><phaseHint>P</phaseHint><evaluationMode>automatic</evaluationMode><comment><text>12.59328408770927</text><id>DFX:rectilinearity</id></comment><comment><text>10.329826735161818</text><id>SNR</id></comment></pick><pick publicID="de.gempa.tb1.Pick/20250413221507.599767.134053"><time><value>2025-04-13T22:15:00.52Z</value></time><waveformID networkCode="CX" stationCode="PB19" channelCode="HHZ"/><filterID>ITAPER(4)&gt;&gt;BW(4,4,20)</filterID><methodID>AIC</methodID><horizontalSlowness><value>17.957922524665165</value></horizontalSlowness><backazimuth><value>19.363940610140617</value></backazimuth><phaseHint>P</phaseHint><evaluationMode>automatic</evaluationMode><comment><text>24.99401181725298</text><id>DFX:rectilinearity</id></comment><comment><text>10.812802916715846</text><id>SNR</id></comment></pick><pick publicID="de.gempa.tb1.Pick/20250413221522.208093.134057"><time><value>2025-04-13T22:15:14.138393Z</value></time><waveformID networkCode="CX" stationCode="PB15" channelCode="HHN"/><filterID>ITAPER(2)&gt;&gt;BW(3,3,20)</filterID><methodID>L2-AIC-GRID</methodID><horizontalSlowness><value>22.93108347185446</value></horizontalSlowness><backazimuth><value>22.421432539458948</value></backazimuth><phaseHint>S</phaseHint><evaluationMode>automatic</evaluationMode><comment><text>1122.2203625619782</text><id>DFX:rectilinearity</id></comment><comment><text>de.gempa.tb1.Pick/20250413221502.871898.134049</text><id>RefPickID</id></comment><comment><text>6.124559571936136</text><id>SNR</id></comment></pick><pick publicID="de.gempa.tb1.Pick/20250413221525.659227.134060"><time><value>2025-04-13T22:15:20.01Z</value></time><waveformID networkCode="CX" stationCode="PB19" channelCode="HHN"/><filterID>ITAPER(2)&gt;&gt;BW(3,3,20)</filterID><methodID>L2-AIC-GRID</methodID><horizontalSlowness><value>21.780200626197832</value></horizontalSlowness><backazimuth><value>37.5573165244021</value></backazimuth><phaseHint>S</phaseHint><evaluationMode>automatic</evaluationMode><comment><text>66.17760817422892</text><id>DFX:rectilinearity</id></comment><comment><text>de.gempa.tb1.Pick/20250413221507.599767.134053</text><id>RefPickID</id></comment><comment><text>5.439282266641849</text><id>SNR</id></comment></pick><pick publicID="de.gempa.tb1.Pick/20250413221527.307614.134061"><time><value>2025-04-13T22:15:04.738396Z</value></time><waveformID networkCode="CX" stationCode="PB07" channelCode="HHZ"/><filterID>ITAPER(4)&gt;&gt;BW(4,4,20)</filterID><methodID>AIC</methodID><horizontalSlowness><value>22.3203560284582</value></horizontalSlowness><backazimuth><value>32.074323524074174</value></backazimuth><phaseHint>P</phaseHint><evaluationMode>automatic</evaluationMode><comment><text>85.04583196564339</text><id>DFX:rectilinearity</id></comment><comment><text>14.590432493644713</text><id>SNR</id></comment></pick><pick publicID="de.gempa.tb1.Pick/20250413221550.577605.134068"><time><value>2025-04-13T22:15:27.448396Z</value></time><waveformID networkCode="CX" stationCode="PB07" channelCode="HHN"/><filterID>ITAPER(2)&gt;&gt;BW(3,3,20)</filterID><methodID>L2-AIC-GRID</methodID><horizontalSlowness><value>22.870701678747736</value></horizontalSlowness><backazimuth><value>71.54959818001197</value></backazimuth><phaseHint>S</phaseHint><evaluationMode>automatic</evaluationMode><comment><text>317.33243060748595</text><id>DFX:rectilinearity</id></comment><comment><text>de.gempa.tb1.Pick/20250413221527.307614.134061</text><id>RefPickID</id></comment><comment><text>5.540013152673408</text><id>SNR</id></comment></pick><origin publicID="de.gempa.tb1.Origin/20250413221550.580732.120192"><time><value>2025-04-13T22:14:35.00539Z</value><uncertainty>1.3281575441360474</uncertainty></time><latitude><value>-22.83347702026367</value><uncertainty>7.013028144836426</uncertainty></latitude><longitude><value>-68.60421752929688</value><uncertainty>24.81867027282715</uncertainty></longitude><depth><value>131.06590270996094</value><uncertainty>25.49675941467285</uncertainty></depth><depthType>from location</depthType><methodID>LOCSAT</methodID><earthModelID>iasp91_scanloc</earthModelID><quality><associatedPhaseCount>7</associatedPhaseCount><usedPhaseCount>7</usedPhaseCount><associatedStationCount>4</associatedStationCount><usedStationCount>4</usedStationCount><depthPhaseCount>0</depthPhaseCount><standardError>0.16496054223840748</standardError><azimuthalGap>240.36663818359375</azimuthalGap><maximumDistance>1.619613528251648</maximumDistance><minimumDistance>0.8813605904579163</minimumDistance><medianDistance>1.2389575242996216</medianDistance></quality><uncertainty><minHorizontalUncertainty>9.464295387268066</minHorizontalUncertainty><maxHorizontalUncertainty>54.49153137207031</maxHorizontalUncertainty><azimuthMaxHorizontalUncertainty>77.42003631591797</azimuthMaxHorizontalUncertainty><preferredDescription>horizontal uncertainty</preferredDescription></uncertainty><evaluationMode>automatic</evaluationMode><evaluationStatus>confirmed</evaluationStatus><comment><text>0.43</text><id>mismatchScore</id></comment><comment><text>mismatchScore</text><id>scevalMethod</id></comment><arrival><pickID>de.gempa.tb1.Pick/20250413221502.871898.134049</pickID><phase>P</phase><azimuth>244.7867126464844</azimuth><distance>0.8813605904579163</distance><timeResidual>-0.32561683654785156</timeResidual><timeUsed>true</timeUsed><horizontalSlownessUsed>false</horizontalSlownessUsed><backazimuthUsed>false</backazimuthUsed><weight>1</weight></arrival><arrival><pickID>de.gempa.tb1.Pick/20250413221506.780345.134051</pickID><phase>P</phase><azimuth>330.10406494140625</azimuth><distance>1.1891204118728638</distance><timeResidual>0.0027446746826171875</timeResidual><timeUsed>true</timeUsed><horizontalSlownessUsed>false</horizontalSlownessUsed><backazimuthUsed>false</backazimuthUsed><weight>1</weight></arrival><arrival><pickID>de.gempa.tb1.Pick/20250413221507.599767.134053</pickID><phase>P</phase><azimuth>210.470703125</azimuth><distance>1.2389575242996216</distance><timeResidual>0.1353759765625</timeResidual><timeUsed>true</timeUsed><horizontalSlownessUsed>false</horizontalSlownessUsed><backazimuthUsed>false</backazimuthUsed><weight>1</weight></arrival><arrival><pickID>de.gempa.tb1.Pick/20250413221522.208093.134057</pickID><phase>S</phase><azimuth>244.7867126464844</azimuth><distance>0.8813605904579163</distance><timeResidual>0.15879058837890625</timeResidual><timeUsed>true</timeUsed><horizontalSlownessUsed>false</horizontalSlownessUsed><backazimuthUsed>false</backazimuthUsed><weight>1</weight></arrival><arrival><pickID>de.gempa.tb1.Pick/20250413221525.659227.134060</pickID><phase>S</phase><azimuth>210.470703125</azimuth><distance>1.2389575242996216</distance><timeResidual>-0.05672264099121094</timeResidual><timeUsed>true</timeUsed><horizontalSlownessUsed>false</horizontalSlownessUsed><backazimuthUsed>false</backazimuthUsed><weight>1</weight></arrival><arrival><pickID>de.gempa.tb1.Pick/20250413221527.307614.134061</pickID><phase>P</phase><azimuth>312.6080322265625</azimuth><distance>1.619613528251648</distance><timeResidual>0.1731891632080078</timeResidual><timeUsed>true</timeUsed><horizontalSlownessUsed>false</horizontalSlownessUsed><backazimuthUsed>false</backazimuthUsed><weight>1</weight></arrival><arrival><pickID>de.gempa.tb1.Pick/20250413221550.577605.134068</pickID><phase>S</phase><azimuth>312.6080322265625</azimuth><distance>1.619613528251648</distance><timeResidual>-0.08773231506347656</timeResidual><timeUsed>true</timeUsed><horizontalSlownessUsed>false</horizontalSlownessUsed><backazimuthUsed>false</backazimuthUsed><weight>1</weight></arrival><magnitude publicID="de.gempa.tb1.Magnitude/20250413221550.586621.406785"><magnitude><value>2.485551974959957</value></magnitude><type>M</type><methodID>weighted average</methodID><stationCount>4</stationCount></magnitude></origin><event publicID="gempa2025hict"><preferredOriginID>de.gempa.tb1.Origin/20250413221550.580732.120192</preferredOriginID><preferredMagnitudeID>de.gempa.tb1.Magnitude/20250413221550.586621.406785</preferredMagnitudeID><description><text>Northern Chile</text><type>region name</type></description><originReference>de.gempa.tb1.Origin/20250413221550.580732.120192</originReference></event></EventParameters></seiscomp>