<?xml version="1.0" encoding="UTF-8"?>
<seiscomp xmlns="http://geofon.gfz-potsdam.de/ns/seiscomp3-schema/0.13" version="0.13"><EventParameters><pick publicID="de.gempa.tb1.Pick/20250414200733.576696.140891"><time><value>2025-04-14T20:07:27.47Z</value></time><waveformID networkCode="CX" stationCode="PSGCX" channelCode="HHZ"/><filterID>ITAPER(4)&gt;&gt;BW(4,4,20)</filterID><methodID>AIC</methodID><horizontalSlowness><value>11.2345632043854</value></horizontalSlowness><backazimuth><value>6.778989320767778</value></backazimuth><phaseHint>P</phaseHint><evaluationMode>automatic</evaluationMode><comment><text>420.0181240541202</text><id>DFX:rectilinearity</id></comment><comment><text>342.6198288746125</text><id>SNR</id></comment></pick><pick publicID="de.gempa.tb1.Pick/20250414200743.265102.140893"><time><value>2025-04-14T20:07:34.868393Z</value></time><waveformID networkCode="CX" stationCode="PB08" channelCode="HHZ"/><filterID>ITAPER(4)&gt;&gt;BW(4,4,20)</filterID><methodID>AIC</methodID><horizontalSlowness><value>14.935525160983987</value></horizontalSlowness><backazimuth><value>101.45755803631116</value></backazimuth><phaseHint>P</phaseHint><evaluationMode>automatic</evaluationMode><comment><text>5.910863982776611</text><id>DFX:rectilinearity</id></comment><comment><text>7.543968976822363</text><id>SNR</id></comment></pick><pick publicID="de.gempa.tb1.Pick/20250414200749.615043.140895"><time><value>2025-04-14T20:07:44.178393Z</value></time><waveformID networkCode="CX" stationCode="PB01" channelCode="HHZ"/><filterID>ITAPER(4)&gt;&gt;BW(4,4,20)</filterID><methodID>AIC</methodID><horizontalSlowness><value>5.489758880682614</value></horizontalSlowness><backazimuth><value>236.42514385049753</value></backazimuth><phaseHint>P</phaseHint><evaluationMode>automatic</evaluationMode><comment><text>18.824684253548352</text><id>DFX:rectilinearity</id></comment><comment><text>18.23134560086456</text><id>SNR</id></comment></pick><pick publicID="de.gempa.tb1.Pick/20250414200803.70498.140899"><time><value>2025-04-14T20:07:55.26Z</value></time><waveformID networkCode="CX" stationCode="PB09" channelCode="HHZ"/><filterID>ITAPER(4)&gt;&gt;BW(4,4,20)</filterID><methodID>AIC</methodID><horizontalSlowness><value>9.573162184807568</value></horizontalSlowness><backazimuth><value>226.093064681332</value></backazimuth><phaseHint>P</phaseHint><evaluationMode>automatic</evaluationMode><comment><text>6.72479068658779</text><id>DFX:rectilinearity</id></comment><comment><text>9.452916487259911</text><id>SNR</id></comment></pick><pick publicID="de.gempa.tb1.Pick/20250414200806.903819.140903"><time><value>2025-04-14T20:07:53.538393Z</value></time><waveformID networkCode="CX" stationCode="PB07" channelCode="HHZ"/><filterID>ITAPER(4)&gt;&gt;BW(4,4,20)</filterID><methodID>AIC</methodID><horizontalSlowness><value>22.717858318863886</value></horizontalSlowness><backazimuth><value>249.62982568306586</value></backazimuth><phaseHint>P</phaseHint><evaluationMode>automatic</evaluationMode><comment><text>178.24155340167258</text><id>DFX:rectilinearity</id></comment><comment><text>9.345560022458539</text><id>SNR</id></comment></pick><origin publicID="de.gempa.tb1.Origin/20250414200819.522646.149518"><time><value>2025-04-14T20:07:20.69383Z</value><uncertainty>0.5762705206871033</uncertainty></time><latitude><value>-19.86680030822754</value><uncertainty>7.3140287399292</uncertainty></latitude><longitude><value>-69.87960815429688</value><uncertainty>7.545232772827148</uncertainty></longitude><depth><value>3.215301036834717</value><uncertainty>9.684091567993164</uncertainty></depth><depthType>from location</depthType><methodID>LOCSAT</methodID><earthModelID>iasp91_scanloc</earthModelID><quality><associatedPhaseCount>5</associatedPhaseCount><usedPhaseCount>5</usedPhaseCount><associatedStationCount>5</associatedStationCount><usedStationCount>5</usedStationCount><depthPhaseCount>0</depthPhaseCount><standardError>0.15523374896728392</standardError><azimuthalGap>152.4744415283203</azimuthalGap><maximumDistance>2.0104222297668457</maximumDistance><minimumDistance>0.35289689898490906</minimumDistance><medianDistance>1.2268813848495483</medianDistance></quality><uncertainty><minHorizontalUncertainty>8.188010215759277</minHorizontalUncertainty><maxHorizontalUncertainty>20.997180938720703</maxHorizontalUncertainty><azimuthMaxHorizontalUncertainty>46.21132659912109</azimuthMaxHorizontalUncertainty><preferredDescription>horizontal uncertainty</preferredDescription></uncertainty><evaluationMode>automatic</evaluationMode><evaluationStatus>confirmed</evaluationStatus><comment><text>0.30</text><id>mismatchScore</id></comment><comment><text>mismatchScore</text><id>scevalMethod</id></comment><arrival><pickID>de.gempa.tb1.Pick/20250414200733.576696.140891</pickID><phase>P</phase><azimuth>319.4311828613281</azimuth><distance>0.35289689898490906</distance><timeResidual>-0.01556539535522461</timeResidual><timeUsed>true</timeUsed><horizontalSlownessUsed>false</horizontalSlownessUsed><backazimuthUsed>false</backazimuthUsed><weight>1</weight></arrival><arrival><pickID>de.gempa.tb1.Pick/20250414200743.265102.140893</pickID><phase>P</phase><azimuth>111.90562438964844</azimuth><distance>0.7354413866996765</distance><timeResidual>0.05861043930053711</timeResidual><timeUsed>true</timeUsed><horizontalSlownessUsed>false</horizontalSlownessUsed><backazimuthUsed>false</backazimuthUsed><weight>1</weight></arrival><arrival><pickID>de.gempa.tb1.Pick/20250414200749.615043.140895</pickID><phase>P</phase><azimuth>162.6240692138672</azimuth><distance>1.2268813848495483</distance><timeResidual>-0.04557657241821289</timeResidual><timeUsed>true</timeUsed><horizontalSlownessUsed>false</horizontalSlownessUsed><backazimuthUsed>false</backazimuthUsed><weight>1</weight></arrival><arrival><pickID>de.gempa.tb1.Pick/20250414200803.70498.140899</pickID><phase>P</phase><azimuth>162.85203552246094</azimuth><distance>2.0104222297668457</distance><timeResidual>-0.23824167251586914</timeResidual><timeUsed>true</timeUsed><horizontalSlownessUsed>false</horizontalSlownessUsed><backazimuthUsed>false</backazimuthUsed><weight>1</weight></arrival><arrival><pickID>de.gempa.tb1.Pick/20250414200806.903819.140903</pickID><phase>P</phase><azimuth>180.18914794921875</azimuth><distance>1.8505429029464722</distance><timeResidual>0.24077749252319336</timeResidual><timeUsed>true</timeUsed><horizontalSlownessUsed>false</horizontalSlownessUsed><backazimuthUsed>false</backazimuthUsed><weight>1</weight></arrival><magnitude publicID="de.gempa.tb1.Magnitude/20250414200819.528921.536311"><magnitude><value>2.0105855769424434</value></magnitude><type>M</type><methodID>weighted average</methodID><stationCount>5</stationCount></magnitude></origin><event publicID="gempa2025hjun"><preferredOriginID>de.gempa.tb1.Origin/20250414200819.522646.149518</preferredOriginID><preferredMagnitudeID>de.gempa.tb1.Magnitude/20250414200819.528921.536311</preferredMagnitudeID><description><text>Northern Chile</text><type>region name</type></description><originReference>de.gempa.tb1.Origin/20250414200819.522646.149518</originReference></event></EventParameters></seiscomp>